 2013  920 1657 37.2 L   6.832 -73.141142.4  RSN  7 0.4 2.0LRSN                1
 GAP=202        0.72       4.7     5.0  6.5  0.7372E+01  0.1294E+02  0.5109E+01E
 Epicentro: LOS SANTOS - SANTANDER                                             3
 OLDACT:REG 13-09-20 16:28 OP:jn   STATUS:               ID:20130920164959     3
 ACTION:UPD 13-10-22 09:23 OP:ep   STATUS:               ID:20130920165737 L   I
 OLDACT:DUP 13-09-20 18:23 OP:jn   STATUS:               ID:20130920164960d    3
 2013-09-20-1649-59M.COL___269                                                 6
 STAT SP IPHASW D HRMM SECON CODA AMPLIT PERI AZIMU VELO AIN AR TRES W  DIS CAZ7
 BAR2 SZ EP   1   1657 56.89                             169    0.42 7 26.8 190 
 BAR2 SZ ES       1658 11.58                             169    0.0510 26.8 190 
 BAR2 SZ I        1658 13.38        23.3 0.38            162           26.8 190 
 BRR  HN ES   1   1658 14.29                             152    0.24 7 70.0 296 
 RUS  HZ EP   1   1658  0.71                             142   -0.13 7  104 176 
 RUS  HE ES   1   1658 19.01                             142   -0.30 7  104 176 
 RUS  HZ I        1658 24.93         8.1 0.58            139            104 176 
 PTB  HZ EP   1   1658  3.87                             131   -0.10 7  149 258 
 PTB  HN ES   1   1658 24.20                             131   -0.68 7  149 258 
 PTB  HZ I        1658 27.95        12.0 0.22            130            149 258 
 ZAR  HN ES   1   1658 34.78                             122    0.41 6  203 291 
 NOR  HZ EP   1   1658 13.32                             117    0.36 6  237 234 
 NOR  HN ES       1658 41.00                             117    0.11 8  237 234 
 NOR  HZ I        1658 46.38        11.6 0.50            117            237 234 
 SML  HN ES   2   1658 40.36                             117   -1.09 4  241 335 
                                                                                
