 2010  520 1616 11.6 L   6.740 -72.975140.6  RSN  4 0.2 2.2LRSN                1
 GAP=226        0.52       5.9     8.1  8.0 -0.1918E+02 -0.1888E+02 -0.8887E+01E
 Epicentro: CEPITA - SANTANDER                                                 3
 ACTION:UP  10-08-24 10:06 OP:vdl  STATUS:               ID:20100520161611 L   I
 2010-05-20-1610-31S.COL___111                                                 6
 STAT SP IPHASW D HRMM SECON CODA AMPLIT PERI AZIMU VELO AIN AR TRES W  DIS CAZ7
 BAR2 SZ EP       1616 30.82                             168     0.110   28 235 
 BAR2 SZ ES   2   1616 45.40                             168    -0.2 5   28 235 
 BRR  HZ EP       1616 33.50                             145     0.010   91 297 
 BRR  HZ I        1616 33.92        25.8 0.13                            91 297 
 BRR  HN ES   2   1616 50.53                             145     0.0 5   91 297 
 GUE  SZ EP       1616 35.83                             137    -0.310  121   3 
 GRA  SZ EP       1616 36.76                             135     0.210  128   8 
 GRA  SZ ES   2   1616 56.30                             135     0.3 5  128   8 
                                                                                
