 2016  920 1044 55.9 L   7.321 -73.262124.7  RSN  4 0.1 1.2LRSN                1
 GAP=258        0.29       5.3     3.7  4.6  0.1493E+02 -0.1190E+02 -0.1910E+02E
 Epicentro: RIONEGRO - SANTANDER                                               3
 ACTION:UPD 17-08-17 21:14 OP:lp   STATUS:               ID:20160920104455 L   I
 OLDACT:UP  16-09-20 21:51 OP:edw  STATUS:               ID:20160920103735d    3
 OLDACT:DUP 16-09-20 21:46 OP:edw  STATUS:               ID:20160920103735d    3
 2016-09-20-1038-00M.COL___354                                                 6
 STAT SP IPHASW D HRMM SECON CODA AMPLIT PERI AZIMU VELO AIN AR TRES W  DIS CAZ7
 BRR  HZ EP       1045 13.84                             154   -0.0010 55.1 245 
 BRR  HN ES       1045 27.88                             154    0.0210 55.1 245 
 BRR  HZ I        1045 28.25         8.5 0.08            142           55.1 245 
 BAR2 EZ EP       1045 15.86                             145    0.0710 81.1 174 
 BAR2 EZ ES       1045 31.26                             145   -0.0610 81.1 174 
 BAR2 EZ I        1045 32.85         2.0 0.09            134           81.1 174 
 PTB  HZ EP   9   1045 21.57                             125   -0.63 0  158 237 
 PTB  HN ES       1045 42.15                             127    0.04 9  158 237 
 PTB  HZ I        1045 46.36         1.6 0.08            116            158 237 
 ZAR  HZ EP   2   1045 24.14                             121   -0.04 4  177 276 
 ZAR  HE ES   2   1045 46.19                             121   -0.08 4  177 276 
                                                                                
