 2015  320 1000 50.7 L   6.853 -73.180140.2  RSN 27 0.6 3.1LRSN                1
 GAP= 55        1.53       3.3     3.8  6.4 -0.1378E+01  0.7943E+01  0.3256E+01E
 Epicentro: ZAPATOCA - SANTANDER                                               3
      88.0      52.0      15.0 15.0 10.0  8.0  0.2  0.2           RSN FPFIT    F
 ACTION:UPD 15-04-30 16:27 OP:nd   STATUS:               ID:20150320100050 L   I
 OLDACT:REG 15-03-20 20:45 OP:stll STATUS:               ID:20150320095748     3
 2015-03-20-0957-48M.COL___281                                                 6
 STAT SP IPHASW D HRMM SECON CODA AMPLIT PERI AZIMU VELO AIN AR TRES W  DIS CAZ7
 BAR2 EZ IP     C 10 1  9.76                             168    0.0010 28.9 180 
 BAR2 EZ ES       10 1 24.47                             168   -0.1810 28.9 180 
 BAR2 EZ I        10 1 25.60       316.7 0.32            168           28.9 180 
 BRR  HZ IP     D 10 1 11.55                             154    0.6810 65.1 296 
 BRR  HE ES       10 1 27.36                             154    0.7210 65.1 296 
 BRR  HZ I        10 1 32.15       237.9 0.12            148           65.1 296 
 PAM  SZ IP     C 10 1 12.45                             150    0.2710 75.6  45 
 PAM  SN ES       10 1 29.29                             150    0.3310 75.6  45 
 PAM  SZ I        10 1 31.21       216.1 0.16            151           75.6  45 
 RUS  HZ IP     C 10 1 13.81                             141   -0.5310  107 174 
 RUS  HE ES       10 1 32.18                             141   -0.6310  107 174 
 RUS  HZ I        10 1 34.10       151.9 0.28            141            107 174 
 PTB  HZ EP       10 1 16.08                             131   -0.88 9  145 256 
 PTB  HE ES       10 1 37.68                             131    0.21 9  145 256 
 PTB  HZ I        10 1 40.28       157.9 0.24            128            145 256 
 OCA  HZ IP     D 10 1 17.68                             129   -0.27 9  154 354 
 OCA  HN ES       10 1 39.30                             129    0.06 9  154 354 
 OCA  HZ I        10 1 42.65       286.5 0.20            127            154 354 
 TAM  HZ IP     C 10 1 18.14                             128   -0.27 9  160 107 
 TAM  HZ I        10 1 18.34       305.9 0.36            130            160 107 
 TAM  HE ES       10 1 40.28                             128    0.23 9  160 107 
 SPBC HZ IP     D 10 1 18.68                             127   -0.29 9  165 217 
 SPBC HE ES       10 1 40.89                             127   -0.15 9  165 217 
 SPBC HZ I        10 1 47.20       225.5 0.24            125            165 217 
 ZAR  HZ EP       10 1 22.11                             122   -0.05 9  198 291 
 ZAR  HE ES       10 1 46.88                             122    0.16 9  198 291 
 ZAR  HZ I        10 1 50.47       147.6 0.14            119            198 291 
 NOR  HZ EP     D 10 1 25.65                             117   -0.47 8  235 233 
 NOR  HN ES       10 1 53.68                             117   -0.10 8  235 233 
 NOR  HZ I        10 2  1.19        87.5 0.14            115            235 233 
 SML  HZ EP       10 1 25.86                             117   -0.36 8  237 336 
 SML  HE ES       10 1 54.31                             117    0.35 8  237 336 
 SML  HZ I        10 2  5.34       146.7 0.10            115            237 336 
 ROSC BZ IP     D 10 1 30.05                             115    1.22 8  256 210 
 ROSC BE ES       10 1 58.59                             115   -0.02 8  256 210 
 ROSC BZ I        10 2  4.46        73.1 0.45            114            256 210 
 HEL  HZ EP       10 1 30.73                             114    0.37 8  270 254 
 HEL  HN ES       10 2  0.78                             114   -0.54 8  270 254 
 HEL  HZ I        10 2  8.42        52.1 0.52            112            270 254 
 URE  HZ EP       10 1 29.71                             113   -1.11 7  278 291 
 URE  HN ES       10 2  0.61                             113   -1.54 7  278 291 
 URE  HZ I        10 2  7.00        96.0 0.18            111            278 291 
 GUY2CHZ EP       10 1 34.22                             111    0.16 7  302 233 
 GUY2CHN ES       10 2  8.32                             111    0.41 7  302 233 
 GUY2CHZ I        10 2 15.98        48.7 0.66                           302 233 
 PTGC HZ IP   9 D 10 1 33.16                             110   -1.90 0  316 158 
 PTGC HN ES       10 2  6.23                                   -1.56 7  316 158 
 PTGC HZ I        10 2  9.01        46.5 0.24            110            316 158 
 RREF HZ IP     C 10 1 38.16                             110    1.47 7  323 228 
 RREF HE ES       10 2 12.71                             110    0.12 7  323 228 
 RREF HZ I        10 2 21.59        39.5 0.22            108            323 228 
 CBOC HZ EP       10 1 37.80                             109    0.65 7  332 251 
 CBOC HE ES       10 2 13.21                             109   -0.20 7  332 251 
 CBOC HZ I        10 2 27.55        17.1 0.56            107            332 251 
 DBB  SZ EP       10 1 37.62                             109    0.19 7  335 273 
 DBB  SZ I        10 2 17.79       235.9 0.34            107            335 273 
 TOL  SZ EP       10 1 39.41                             108    0.53 7  345 223 
 TOL  SE ES       10 2 16.75                             108    0.25 7  345 223 
 MON  HZ EP   9   10 1 37.06                             108   -1.62 0  347 308 
 MON  HE ES       10 2 15.06                                    0.55 6  347 308 
 MON  HZ I        10 2 16.41        28.6 0.22            106            347 308 
 ANIL HZ EP       10 1 41.02                             107    0.58 6  359 223 
 ANIL HE ES       10 2 19.57                             107    0.30 6  359 223 
 ANIL HZ I        10 2 27.13         8.5 0.32            106            359 223 
 SDV  BZ EP   9   10 1 39.26                             107   -1.15 0  360  51 
 SDV  BE ES       10 2 15.20                                   -2.86 6  360  51 
 SDV  BZ I        10 2 20.17        22.4 0.70            107            360  51 
 PRA  HZ EP       10 1 43.46                             105   -0.92 6  395 209 
 PRA  HE ES       10 2 26.01                             105   -0.28 6  395 209 
 PRA  HZ I        10 2 32.09        47.2 0.32            104            395 209 
 ORTC HZ EP     D 10 1 44.46                             105   -0.24 6  398 215 
 ORTC HN ES       10 2 27.15                             105    0.30 6  398 215 
 ORTC HZ I        10 2 34.60        21.9 0.16            104            398 215 
 SJC  HZ EP   9 C 10 1 43.58                             105   -1.64 0  402 327 
 SJC  HN ES       10 2 25.13                                   -1.00 6  402 327 
 SJC  HZ I        10 2 29.31        34.1 0.48            104            402 327 
 CRJC HZ EP   9   10 1 50.03                             103   -2.31 0  462   4 
 CRJC HE ES       10 2 35.56                                   -2.58 5  462   4 
 CRJC HZ I        10 2 51.77        13.6 0.22            102            462   4 
                                                                                
