 2012  820 1300 31.7 L   6.809 -73.154146.8  RSN 19 0.5 4.1LRSN 4.3WRSN        1
 SPEC AVERAGE  MO 15.5 ST607.2 OM  4.3 f0 4.62 R0.3710 AL 3.34 WI 31.5 MW  4.3 3
 SPEC SD       MO  0.2 ST440.1 OM  0.6 f0 1.62 R0.1571 AL      WI      MW  0.1 3
 GAP= 55        0.95       2.9     3.2  4.9 -0.1481E+00  0.2437E+01  0.3414E+01E
 Epicentro: LOS SANTOS - SANTANDER                                             3
 SPEC PAL HH N MO 15.8 ST975.2 OM  3.8 f0 4.81 R0.3056 AL 4.82 WI 53.4 MW  4.5 3
 SPEC PAL HH N T13 2 1 K 0.000 GD  430 VS 4.20 DE 3.00 Q0230.0 QA 0.60 VS 4.20 3
 SPEC RUS HH N MO 15.5 ST999.9 OM  3.9 f0 6.60 R0.2227 AL 4.47 WI 25.9 MW  4.3 3
 SPEC RUS HH N T13 111 K 0.000 GD  178 VS 4.20 DE 3.00 Q0230.0 QA 0.60 VS 4.20 3
 SPEC HEL HH N MO 15.3 ST 95.5 OM  3.4 f0 3.37 R0.4362 AL 2.12 WI 26.2 MW  4.1 3
 SPEC HEL HH N T13 142 K 0.000 GD  308 VS 4.20 DE 3.00 Q0230.0 QA 0.60 VS 4.20 3
 SPEC CHI HH N MO 15.4 ST 43.4 OM  3.6 f0 2.27 R0.6476 AL 2.29 WI 34.0 MW  4.2 3
 SPEC CHI HH N T13 131 K 0.000 GD  289 VS 4.20 DE 3.00 Q0230.0 QA 0.60 VS 4.20 3
 SPEC BRR HH N MO 15.5 ST922.1 OM  3.9 f0 6.05 R0.2430 AL 2.98 WI 18.1 MW  4.3 3
 SPEC BRR HH N T13 1 8 K 0.000 GD  162 VS 4.20 DE 3.00 Q0230.0 QA 0.60 VS 4.20 3
 ACTION:UPD 12-09-10 11:57 OP:ep   STATUS:               ID:20120820130031 L   I
 2012-08-20-1300-00M.COL___217                                                 6
 STAT SP IPHASW D HRMM SECON CODA AMPLIT PERI AZIMU VELO AIN AR TRES W  DIS CAZ7
 BAR2 SZ EP       13 0 51.52                             170    0.0010 24.1 187 
 BAR2 SZ ES   1   13 1  6.25                             170   -0.69 7 24.1 187 
 BAR2 SZ I        13 1  9.16      5825.8 0.28                          24.1 187 
 BRR  HZ EP   1   13 0 53.38                             153    0.44 7 69.9 298 
 BRR  HN ES       13 1 10.31                             153    0.8410 69.9 298 
 BRR  HZ I        13 1 12.90      2863.2 0.17                          69.9 298 
 PAM  SZ IP       13 0 54.33                             151    0.2710 77.2  41 
 PAM  SZ I        13 0 54.78      2991.2 0.23                          77.2  41 
 PAM  SN ES       13 1 11.28                             151   -0.1910 77.2  41 
 RUS  HZ EP       13 0 55.49                             144   -0.1810  102 176 
 RUS  HN ES   1   13 1 13.63                             144   -0.71 7  102 176 
 RUS  HZ I        13 1 15.62      1436.8 0.28                           102 176 
 PTB  HZ EP   1   13 0 58.12                             132   -0.61 7  147 258 
 PTB  HN ES   1   13 1 19.22                             132   -0.57 7  147 258 
 PTB  HZ I        13 1 21.26       750.4 0.10                           147 258 
 TAM  HZ EP   1   13 0 59.90                             131    0.29 7  156 105 
 TAM  HZ I        13 1 20.97       879.0 0.44                           156 105 
 TAM  HE ES       13 1 21.54                             131    0.19 9  156 105 
 OCA  HZ IP     C 13 0 59.78                             130   -0.26 9  159 353 
 OCA  HN ES       13 1 22.15                             130    0.04 9  159 353 
 OCA  HZ I        13 1 24.80      3853.2 0.28                           159 353 
 YOP  SZ IP       13 1  2.27                             126    0.28 9  180 153 
 YOP  SN ES   1   13 1 26.08                             126    0.50 7  180 153 
 YOP  SZ I        13 1 27.07      1584.7 0.21                           180 153 
 NOR  SZ EP   1   13 1  7.60                             119    0.09 6  235 234 
 NOR  SN ES   1   13 1 35.77                             119    0.35 6  235 234 
 NOR  SZ I        13 1 40.78      1222.4 0.16                           235 234 
 CHI  HZ EP       13 1  9.46                             117   -0.12 8  249 195 
 CHI  HN ES       13 1 38.76                             117   -0.33 8  249 195 
 CHI  HZ I        13 1 46.28       946.4 0.54                           249 195 
 HEL  HZ EP   1   13 1 12.40                             115    0.46 6  271 256 
 HEL  HZ I        13 1 51.29       620.1 0.39                           271 256 
 URE  HZ EP   1   13 1 11.72                             114   -1.01 6  283 292 
 URE  HZ I        13 1 44.32       622.2 0.12                           283 292 
 GUY  SZ EP   1   13 1 16.17                             112    0.53 5  303 235 
 VIL  SZ EP   1   13 1 15.09                             112   -0.21 5  304 191 
 VIL  SZ I        13 1 53.52      1198.2 0.47                           304 191 
 DBB  SZ EP   1   13 1 19.21                             110    0.06 5  338 274 
 SDV  BZ EP       13 1 20.98                             108   -0.86 6  360  50 
 SDV  BZ I        13 1 21.99        63.5 0.18                           360  50 
 SJA  SZ EP       13 1 27.51                             106    1.09 6  401 193 
 PAL  HZ EP   1   13 1 27.01                             106    0.11 4  405 239 
 HORQ SZ EP   1   13 1 41.70                             101   -0.50 3  532 226 
                                                                                
