 2012  720 1713 13.5 L   6.805 -73.123146.4  RSN  5 0.4 1.9LRSN                1
 GAP=139        0.87       5.0     5.9  8.8 -0.2749E-01  0.2077E+02  0.7507E+00E
 Epicentro: LOS SANTOS - SANTANDER                                             3
 ACTION:UPD 12-08-14 11:46 OP:ep   STATUS:               ID:20120720171313 L   I
 2012-07-20-1710-00M.COL___215                                                 6
 STAT SP IPHASW D HRMM SECON CODA AMPLIT PERI AZIMU VELO AIN AR TRES W  DIS CAZ7
 BRR  HZ EP   1   1713 34.96                             152     0.2 7   73 297 
 BRR  HN ES   1   1713 51.88                             152     0.4 7   73 297 
 BRR  HZ I        1714 16.83        17.5 0.46                            73 297 
 PAM  SZ EP   1   1713 35.78                             152     0.1 7   75  38 
 PAM  SN ES       1713 52.66                             152    -0.310   75  38 
 RUS  HZ EP   1   1713 37.24                             144    -0.1 7  101 177 
 RUS  HN ES       1713 56.00                             144     0.110  101 177 
 RUS  HZ I        1713 57.62        14.3 0.29            159            101 177 
 PTB  HZ EP   1   1713 40.13                             131    -0.6 7  150 259 
 PTB  HN ES   2   1714  1.37                             131    -0.6 5  150 259 
 PTB  HZ I        1714  4.02         7.3 0.13            137            150 259 
 ZAR  HZ EP   1   1713 46.91                             122     0.7 6  206 292 
 ZAR  HN ES   2   1714 11.22                             122    -0.5 4  206 292 
 ZAR  HZ I        1714 16.99         7.2 0.13            128            206 292 
