 2016 1020 1856  7.1 L   6.793 -73.143144.0  RSN 16 0.5 2.5LRSN                1
 GAP=137        1.09       4.3     4.3  6.1 -0.4353E+01  0.7493E+01  0.6524E+01E
 Epicentro: LOS SANTOS - SANTANDER                                             3
 ACTION:UPD 16-11-09 19:21 OP:rebc STATUS:               ID:20161020185607 L   I
 OLDACT:UP  16-10-21 04:20 OP:dnl  STATUS:               ID:20161020184748     3
 OLDACT:REG 16-10-21 02:26 OP:ar   STATUS:               ID:20161020184748     3
 2016-10-20-1848-00M.COL___335                                                 6
 STAT SP IPHASW D HRMM SECON CODA AMPLIT PERI AZIMU VELO AIN AR TRES W  DIS CAZ7
 BAR2 EZ EP       1856 26.41                             171   -0.1010 22.7 191 
 BAR2 EZ ES       1856 41.32                             171   -0.3210 22.7 191 
 BAR2 EZ I        1856 42.48       115.8 0.32            172           22.7 191 
 BRR  HZ IP     C 1856 28.19                             152    0.0910 71.8 299 
 BRR  HE ES       1856 45.41                             152    0.9410 71.8 299 
 BRR  HZ I        1856 48.56        77.6 0.26            146           71.8 299 
 PAM  EZ EP       1856 29.23                             150    0.0810 77.7  39 
 PAM  EN ES       1856 46.41                             150    0.0610 77.7  39 
 PAM  EZ I        1856 49.02        27.5 0.44            145           77.7  39 
 RUS  HZ EP       1856 30.37                             144   -0.2610 99.8 176 
 RUS  HN ES       1856 49.08                             144    0.1110 99.8 176 
 RUS  HZ I        1856 50.03        35.4 0.28            142           99.8 176 
 PTB  HZ EP       1856 32.88                             132   -1.06 9  148 259 
 PTB  HN ES       1856 54.13                             132   -0.74 9  148 259 
 PTB  HZ I        1856 59.21        41.4 0.30            127            148 259 
 SPBC HZ EP       1856 35.45                             129    0.02 9  163 219 
 SPBC HE ES       1856 57.63                             129    0.10 9  163 219 
 SPBC HZ I        1857  1.80        86.5 0.22            125            163 219 
 NOR  HZ EP       1856 42.50                             118   -0.21 8  235 235 
 NOR  HN ES       1857 10.42                             118   -0.07 8  235 235 
 NOR  HZ I        1857 15.98        36.2 0.18            115            235 235 
 CHI  HZ EP       1856 44.70                             117    0.06 8  248 195 
 CHI  HN ES       1857 13.96                             117    0.05 8  248 195 
 CHI  HZ I        1857 19.04        20.7 0.40            114            248 195 
 ROSC BZ EP   4   1856 46.66                             116    1.58 0  252 211 
 ROSC BN ES   4   1857 16.85                             116    2.16 0  252 211 
 ROSC BZ I        1857 21.11        57.5 0.40            113            252 211 
 HEL  HZ EP   2   1856 47.69                             114    0.45 4  272 256 
 HEL  HN ES       1857 18.66                             114    0.12 8  272 256 
 HEL  HZ I        1857 25.15        25.9 0.44            111            272 256 
 GUY2CHZ EP       1856 51.35                             112    0.74 7  301 235 
 GUY2CHN ES   4   1857 28.48                             112    3.93 0  301 235 
 GUY2CHZ I        1857 32.63        22.8 0.34                           301 235 
 PTGC HZ EP   4   1856 49.56                             111   -1.23 0  308 159 
 PTGC HE ES   4   1857 23.10                             111   -1.77 0  308 159 
 PTGC HZ I        1857 28.02        18.4 0.42            108            308 159 
 CBOC HZ EP   2   1856 53.97                             110    0.02 3  334 252 
 CBOC HE ES       1857 30.25                             110   -0.24 7  334 252 
 CBOC HZ I        1857 36.48         6.4 0.38            106            334 252 
 ANIL HZ EP   2   1856 57.53                             108    0.73 3  357 225 
 ANIL HN ES       1857 36.83                             108    1.26 6  357 225 
 SJC  HZ EP   4   1857  0.59                             105   -2.11 0  410 327 
 SJC  HE ES   4   1857 41.37                             105   -4.69 0  410 327 
 SJC  HZ I        1857 56.15         9.2 0.78            102            410 327 
 URI  HZ EP   4   1857 16.40                             100   -3.74 0  557  13 
 URI  HZ I        1858 17.73         1.6 0.28             98            557  13 
                                                                                
