 2017  820 1607 58.3 L   6.735 -73.103147.7  RSN  5 0.2 1.2LRSN                1
 GAP=145        0.63       3.3     3.6  5.0  0.2483E+01  0.2068E+01 -0.4810E+00E
 Epicentro: JORDAN - SANTANDER                                                 3
 ACTION:UPD 17-09-04 20:22 OP:rebc STATUS:               ID:20170820160758 L   I
 OLDACT:REG 17-08-20 20:04 OP:lv   STATUS:               ID:20170820155745     3
 2017-08-20-1558-00M.COL___408                                                 6
 STAT SP IPHASW D HRMM SECON CODA AMPLIT PERI AZIMU VELO AIN AR TRES W  DIS CAZ7
 BAR2 EZ EP       16 8 17.90                             173   -0.1410 18.0 209 
 BAR2 EZ ES       16 8 33.64                             173    0.1810 18.0 209 
 BAR2 EZ I        16 8 34.67         6.1 0.16            173           18.0 209 
 BRR  HZ EP       16 8 19.86                             150   -0.2110 78.9 301 
 BRR  HN ES       16 8 37.22                             150    0.1410 78.9 301 
 PAM  EZ EP       16 8 20.82                             150   -0.0510 80.4  34 
 PAM  EN ES       16 8 38.47                             150   -0.0310 80.4  34 
 PAM  EZ I        16 8 40.19         2.1 0.17            151           80.4  34 
 RUS  HZ EP       16 8 22.16                             146    0.4710 93.2 179 
 RUS  HN ES       16 8 39.63                             146   -0.3410 93.2 179 
 RUS  HZ I        16 8 41.52         2.0 0.26            147           93.2 179 
 ZAR  HE ES       16 8 57.49                             122   -0.06 8  211 293 
                                                                                
