 2012 1220 1852 24.5 L   6.813 -73.166146.8  RSN 12 0.4 2.1LRSN                1
 GAP=181        0.72       3.3     4.3  5.9  0.3359E+01  0.1002E+02  0.3156E+01E
 Epicentro: LOS SANTOS - SANTANDER                                             3
 ACTION:UPD 13-01-04 14:29 OP:ep   STATUS:               ID:20121220185224 L   I
 2012-12-20-1850-00M.COL___242                                                 6
 STAT SP IPHASW D HRMM SECON CODA AMPLIT PERI AZIMU VELO AIN AR TRES W  DIS CAZ7
 BAR2 SZ EP   1   1852 44.35                             170    0.03 7 24.4 184 
 BAR2 SZ ES   1   1852 59.36                             170   -0.38 7 24.4 184 
 BAR2 SZ I        1853  2.66        38.9 0.40                          24.4 184 
 GIR2 SZ EP   1   1852 44.48                             168    0.19 7 29.6 354 
 GIR2 SZ ES   1   1852 59.91                             168    0.21 7 29.6 354 
 GIR2 SZ I        1853  1.60        13.5 0.60                          29.6 354 
 BRR  HZ EP   1   1852 46.21                             154    0.56 7 68.5 298 
 BRR  HN ES   4   1853  3.71                             154    1.59 0 68.5 298 
 BRR  HZ I        1853  6.24        16.4 0.38                          68.5 298 
 RUS  HZ EP   1   1852 48.46                             144   -0.05 7  102 175 
 RUS  HN ES   1   1853  7.04                             144   -0.16 7  102 175 
 RUS  HZ I        1853  9.86        19.0 0.36                           102 175 
 PTB  HZ EP   1   1852 51.15                             133   -0.26 7  146 258 
 PTB  HN ES   1   1853 12.15                             133   -0.23 7  146 258 
 PTB  HZ I        1853 14.50        18.0 0.38                           146 258 
 ZAR  HE ES   1   1853 22.80                             123    0.87 6  201 292 
 ZAR  HZ I        1853 29.40        17.5 0.32                           201 292 
 NOR  HZ EP   1   1853  0.28                             119    0.06 6  234 234 
 NOR  HE ES   1   1853 27.79                             119   -0.26 6  234 234 
 NOR  HZ I        1853 32.09        15.6 0.20                           234 234 
 SML  HN ES   1   1853 29.04                             118   -0.37 6  241 336 
 CHI  HZ EP   1   1853  2.59                             117    0.21 6  249 195 
 CHI  HN ES   1   1853 31.97                             117    0.08 6  249 195 
 CHI  HZ I        1853 40.28         7.7 0.62                           249 195 
 HEL  HE ES   1   1853 36.18                             115    0.34 6  270 255 
 MON  HN ES   1   1853 49.99                             109   -1.30 5  351 308 
 MON  HZ I        1854  4.82         4.9 0.58                           351 308 
 PRA  HZ EP   1   1853 17.84                             107   -0.27 4  392 209 
 SJC  HE ES   4   1854  0.63                             106   -2.36 0  407 327 
                                                                                
