 2010 1120 1443 36.2 L   6.787 -73.181142.6  RSN  4 0.1 1.8LRSN                1
 GAP=174        0.41       3.3    19.4  5.3  0.1349E+02 -0.1499E+02 -0.1009E+02E
 Epicentro: LOS SANTOS - SANTANDER                                             3
 ACTION:UP  10-12-17 16:53 OP:REBC STATUS:               ID:20101120144336 L   I
 2010-11-20-1441-34S.COL___132                                                 6
 STAT SP IPHASW D HRMM SECON CODA AMPLIT PERI AZIMU VELO SNR AR TRES W  DIS CAZ7
 BAR2 SZ EP       1443 55.20                             171    -0.210   22 181 
 BAR2 SZ ES   1   1444 10.40                             171     0.0 7   22 181 
 BAR2 SZ I        1444 11.05        16.8 0.06                            22 181 
 RUS  HZ EP       1443 59.57                             143     0.010   99 174 
 RUS  HN ES       1444 17.79                             143     0.010   99 174 
 RUS  HZ I        1444 19.24         6.2 0.09                            99 174 
 GRA  SZ EP   1   1444  1.32                             136     0.0 7  128  19 
 GRA  SZ I        1444 23.13         6.8 0.63                           128  19 
 OCA  SZ EP   1   1444  4.49                             129     0.2 7  161 355 
 OCA  SZ I        1444 28.15         9.6 0.00                           161 355 
                                                                                
