 2017 1120 1740 44.5 L   6.833 -73.187142.0  RSN  8 0.4 1.8LRSN                1
 GAP=130        0.94       3.6     4.0  7.1 -0.3896E+00  0.1014E+02  0.6224E+01E
 Epicentro: ZAPATOCA - SANTANDER                                               3
 ACTION:UPD 17-12-12 19:57 OP:rebc STATUS:               ID:20171120174044 L   I
 OLDACT:UP  17-11-21 01:17 OP:dani STATUS:               ID:20171120173403     3
 OLDACT:REG 17-11-20 21:56 OP:dani STATUS:               ID:20171120173403     3
 2017-11-20-1738-00M.COL___465                                                 6
 STAT SP IPHASW D HRMM SECON CODA AMPLIT PERI AZIMU VELO AIN AR TRES W  DIS CAZ7
 PAM  EZ EP       1741  6.56                             150    0.2010 77.7  44 
 PAM  EN ES       1741 23.67                             150    0.2910 77.7  44 
 PAM  EZ I        1741 26.46        10.1 0.58            155           77.7  44 
 RUS  HZ EP       1741  7.58                             142   -0.6310  105 174 
 RUS  HE ES       1741 26.74                             142    0.0610  105 174 
 RUS  HZ I        1741 28.23         7.3 0.40            143            105 174 
 PTB  HZ EP       1741 10.30                             132   -0.55 9  144 257 
 PTB  HN ES       1741 31.11                             132   -0.27 9  144 257 
 PTB  HZ I        1741 32.37         7.9 0.16            133            144 257 
 ZAR  HZ EP       1741 16.19                             122    0.05 9  198 292 
 ZAR  HE ES       1741 40.73                             122   -0.08 9  198 292 
 ZAR  HZ I        1741 46.30         7.4 0.26            124            198 292 
 NOR  HZ EP       1741 19.77                             118   -0.10 8  233 233 
 NOR  HN ES       1741 48.07                             118    0.62 8  233 233 
 NOR  HZ I        1741 54.36         4.9 0.22            119            233 233 
 CHI  HZ EP       1741 21.93                             116   -0.35 8  251 194 
 CHI  HN ES       1741 51.81                             116    0.08 8  251 194 
 CHI  HZ I        1741 57.35         3.5 0.30            118            251 194 
 GUY2CHZ EP       1741 28.80                             112    1.02 7  300 234 
 GUY2CHZ I        1742 11.47         5.4 0.74                           300 234 
 PRA  HZ EP       1741 38.08                             106    0.05 6  393 209 
 PRA  HE ES       1742 20.10                             106    0.33 6  393 209 
 PRA  HZ I        1742 25.89         3.9 0.36            107            393 209 
                                                                                
