 2012  220 1013  8.6 L   6.787 -73.126137.6  RSN  6 0.3 0.9LRSN                1
 GAP=140        0.44       4.6     4.6  5.3  0.3463E+01  0.1813E+01  0.3247E+01E
 ACTION:UP  12-03-07 16:32 OP:epov STATUS:               ID:20120220101308 L   I
 2012-02-20-1010-00M.COL___191                                                 6
 STAT SP IPHASW D HRMM SECON CODA AMPLIT PERI AZIMU VELO AIN AR TRES W  DIS CAZ7
 BAR2 SZ EP   1   1013 26.98                             170   -0.21 7 22.5 196 
 BAR2 SZ ES   2   1013 41.68                             170   -0.04 5 22.5 196 
 BAR2 SZ I        1013 44.67         3.2 0.35                          22.5 196 
 GIR2 SZ EP   2   1013 26.63                             166   -0.68 5 33.1 347 
 GIR2 SZ ES   2   1013 41.96                             166    0.02 5 33.1 347 
 BRR  HZ EP   2   1013 29.09                             150    0.11 5 73.8 299 
 BRR  HN ES   2   1013 45.25                             150    0.34 5 73.8 299 
 PAM  SZ EP   2   1013 30.19                             149    0.30 5 77.1  38 
 RUS  HZ EP   1   1013 31.63                             142    0.23 7 99.1 177 
 RUS  HE ES   2   1013 49.16                             142   -0.05 5 99.1 177 
 RUS  HZ I        1013 50.95         1.0 0.48                          99.1 177 
 PTB  HZ EP   1   1013 35.09                             130    0.04 7  150 260 
 PTB  HE ES   2   1013 55.55                             130   -0.16 5  150 260 
                                                                                
