 2016  620 1401 46.2 L   6.838 -73.150140.0  RSN 18 0.4 2.2LRSN                1
 GAP=134        0.96       3.0     3.6  5.3 -0.9579E+00  0.5737E+01  0.4559E+01E
 Epicentro: LOS SANTOS - SANTANDER                                             3
 ACTION:UPD 16-07-21 22:20 OP:rebc STATUS:               ID:20160620140146 L   I
 OLDACT:UP  16-06-21 00:06 OP:mh   STATUS:               ID:20160620135744d    3
 OLDACT:UP  16-06-21 00:06 OP:mh   STATUS:               ID:20160620135744d    3
 OLDACT:UP  16-06-20 23:57 OP:mh   STATUS:               ID:20160620135744d    3
 OLDACT:DUP 16-06-20 23:23 OP:mh   STATUS:               ID:20160620135744d    3
 2016-06-20-1357-43M.COL___352                                                 6
 STAT SP IPHASW D HRMM SECON CODA AMPLIT PERI AZIMU VELO AIN AR TRES W  DIS CAZ7
 BAR2 EZ EP       14 2  5.23                             168   -0.0210 27.4 188 
 BAR2 EZ ES       14 2 20.19                             168    0.0910 27.4 188 
 BRR  HZ EP       14 2  6.69                             152    0.0710 68.9 296 
 BRR  HN ES       14 2 23.36                             152    0.8310 68.9 296 
 BRR  HZ I        14 2 27.51        20.2 0.26                          68.9 296 
 PAM  EZ EP       14 2  7.76                             151    0.1110 74.5  42 
 PAM  EN ES       14 2 24.36                             151   -0.0110 74.5  42 
 PAM  EZ I        14 2 26.71        32.4 0.40                          74.5  42 
 RUS  HZ EP       14 2  9.41                             142   -0.3210  105 176 
 RUS  HN ES       14 2 27.84                             142   -0.2210  105 176 
 PTB  HZ EP   1   14 2 11.87                             131   -0.90 7  148 257 
 PTB  HN ES       14 2 33.16                             131   -0.31 9  148 257 
 PTB  HZ I        14 2 35.49        16.2 0.54                           148 257 
 OCA  HN ES   1   14 2 34.19                             129   -0.92 7  156 353 
 SPBC HZ EP       14 2 14.30                             127   -0.28 9  166 218 
 SPBC HN ES       14 2 37.11                             127    0.42 9  166 218 
 SPBC HZ I        14 2 42.69        16.6 0.34                           166 218 
 ZAR  HZ EP   1   14 2 18.67                             122    0.58 6  202 291 
 ZAR  HN ES       14 2 43.19                             122    0.24 9  202 291 
 ZAR  HZ I        14 2 48.80        17.7 0.06                           202 291 
 NOR  HZ EP   1   14 2 21.54                             117   -0.31 6  237 234 
 NOR  HN ES   1   14 2 48.98                             117   -0.66 6  237 234 
 NOR  HZ I        14 2 52.83        10.5 0.32                           237 234 
 CHI  HN ES       14 2 53.87                             116    0.33 8  253 195 
 CHI  HZ I        14 2 59.01         5.8 0.24                           253 195 
 ROSC BZ EP       14 2 24.98                             115    0.57 8  256 210 
 ROSC BN ES   4   14 2 55.46                             115    1.27 0  256 210 
 ROSC BZ I        14 3  1.57        12.3 0.31                           256 210 
 HEL  HN ES       14 2 56.85                             114   -0.56 8  273 255 
 URE  HZ EP   4   14 2 27.00                             113    0.20 0  282 291 
 URE  HN ES   4   14 2 57.38                             113   -1.06 0  282 291 
 URE  HZ I        14 3  5.28         8.5 0.31                           282 291 
 GUY2CHZ EP   4   14 2 31.37                             111    1.56 0  303 234 
 GUY2CHN ES   4   14 3  6.15                             111    2.35 0  303 234 
 GUY2CHZ I        14 3 13.54         6.2 0.38                           303 234 
 CBOC HZ EP   1   14 2 33.18                             109    0.17 5  334 251 
 CBOC HN ES   4   14 3  7.99                             109   -1.51 0  334 251 
 DBB  SZ ES   4   14 3  7.16                             109   -3.01 0  339 274 
 ANIL HE ES   4   14 3 16.85                             107    1.80 0  360 224 
 ANIL HZ I        14 3 21.47        14.9 0.34                           360 224 
 PRA  HZ EP   1   14 2 40.34                             106    0.39 4  395 209 
 PRA  HN ES       14 3 21.34                             106   -0.52 6  395 209 
 PRA  HZ I        14 3 28.75         5.6 0.28                           395 209 
 ORTC HZ EP       14 2 40.84                             105    0.52 6  399 216 
 ORTC HN ES       14 3 22.78                             105    0.27 6  399 216 
 ORTC HZ I        14 3 30.52         4.0 0.49                           399 216 
                                                                                
