 2013 1120 1455 13.6 L   6.827 -73.168143.8  RSN  8 0.5 2.0LRSN                1
 GAP=132        1.11       4.1     5.6  7.1 -0.8870E+00  0.8429E+01  0.2660E+01E
 Epicentro: LOS SANTOS - SANTANDER                                             3
 ACTION:UPD 14-01-09 16:29 OP:ep   STATUS:               ID:20131120145513 L   I
 OLDACT:UP  13-11-20 18:11 OP:cam  STATUS:               ID:20131120145000     3
 OLDACT:REG 13-11-20 17:49 OP:cam  STATUS:               ID:20131120145000     3
 2013-11-20-1450-00M.COL___279                                                 6
 STAT SP IPHASW D HRMM SECON CODA AMPLIT PERI AZIMU VELO AIN AR TRES W  DIS CAZ7
 BAR2 SZ EP       1455 33.08                             169   -0.0210 26.0 183 
 BAR2 SZ ES       1455 47.95                             169   -0.3310 26.0 183 
 BAR2 SZ I        1455 48.78        29.2 0.28            169           26.0 183 
 BRR  HZ EP       1455 34.65                             153    0.2710 67.6 297 
 BRR  HN ES       1455 51.52                             153    0.9610 67.6 297 
 PAM  SZ EP       1455 35.82                             151    0.2110 76.7  42 
 PAM  SN ES       1455 52.55                             151   -0.2010 76.7  42 
 PAM  SZ I        1455 53.27         7.3 0.32            150           76.7  42 
 RUS  HZ EP   2   1455 37.35                             143   -0.09 5  104 175 
 RUS  HE ES       1455 55.92                             143   -0.0910  104 175 
 RUS  HZ I        1455 57.26        10.1 0.20            141            104 175 
 PTB  HZ EP       1455 39.70                             132   -0.59 9  146 257 
 PTB  HN ES       1456  0.45                             132   -0.63 9  146 257 
 PTB  HZ I        1456  3.06        17.9 0.10            129            146 257 
 ZAR  HZ EP   2   1455 47.20                             122    1.59 4  201 292 
 ZAR  HN ES   4   1456 10.80                             122    0.25 0  201 292 
 SML  HZ EP   2   1455 49.22                             117   -0.53 4  240 336 
 SML  HE ES   1   1456 17.46                             117   -0.46 6  240 336 
 SML  HZ I        1456 25.54        17.7 0.30            116            240 336 
 CHI  HZ EP       1455 51.61                             117    0.12 8  251 194 
 CHI  HN ES       1456 21.29                             117    0.29 8  251 194 
 CHI  HZ I        1456 28.26         5.5 0.34            115            251 194 
 SJC  HZ EP   4   1456  7.27                             106   -1.42 0  405 327 
                                                                                
