 2015  820 1007 51.7 L   6.802 -73.175141.6  RSN 12 0.5 1.9LRSN                1
 GAP=180        1.15       4.1     6.3  8.0 -0.6829E+01  0.1621E+02 -0.7220E+01E
 Epicentro: LOS SANTOS - SANTANDER                                             3
 ACTION:UPD 15-09-15 23:03 OP:cam  STATUS:               ID:20150820100751 L   I
 OLDACT:REG 15-08-20 20:20 OP:ar   STATUS:               ID:20150820095748     3
 2015-08-20-0957-48M.COL___337                                                 6
 STAT SP IPHASW D HRMM SECON CODA AMPLIT PERI AZIMU VELO AIN AR TRES W  DIS CAZ7
 BAR2 EZ EP       10 8 10.68                             170   -0.1510 23.2 182 
 BAR2 EZ ES       10 8 25.39                             170   -0.3510 23.2 182 
 BAR2 EZ I        10 8 27.88         9.3 0.24            166           23.2 182 
 BRR  HZ EP       10 8 12.71                             153    0.4810 68.3 300 
 BRR  HN ES       10 8 29.10                             153    0.8510 68.3 300 
 BRR  HZ I        10 8 31.02        17.4 0.14            148           68.3 300 
 RUS  HZ EP   2   10 8 15.25                             143    0.17 5  101 174 
 RUS  HN ES   2   10 8 32.91                             143   -0.40 5  101 174 
 RUS  HZ I        10 8 33.86         3.8 0.48            143            101 174 
 OCA  HZ EP       10 8 20.32                             129    0.68 9  160 354 
 OCA  HN ES       10 8 40.75                             129   -0.67 9  160 354 
 OCA  HZ I        10 8 43.84        34.4 0.30            130            160 354 
 SPBC HE ES   2   10 8 42.22                             128    0.67 5  161 218 
 SPBC HZ I        10 8 48.50         9.2 0.34            126            161 218 
 ZAR  HZ EP       10 8 23.72                             122    0.16 9  201 292 
 ZAR  HN ES       10 8 48.65                             122    0.25 9  201 292 
 ZAR  HZ I        10 8 53.65         9.6 0.30            120            201 292 
 NOR  HN ES       10 8 53.60                             118   -0.79 8  232 234 
 NOR  HZ I        10 8 56.30         4.5 0.18            117            232 234 
 SML  HZ EP       10 8 27.82                             117   -0.11 8  242 336 
 SML  HN ES       10 8 55.39                             117   -0.80 8  242 336 
 SML  HZ I        10 8 59.63        13.1 0.10            117            242 336 
 HEL  HN ES   2   10 9  2.30                             114    0.01 4  269 256 
 HEL  HZ I        10 9 13.09         3.6 0.40            113            269 256 
 URE  HE ES   4   10 9  1.81                             113   -2.02 0  281 292 
 GUY2CHZ EP   4   10 8 36.77                             112    1.94 0  299 234 
 GUY2CHE ES       10 9  8.06                             112   -0.41 7  299 234 
 GUY2CHZ I        10 9 16.01         3.3 0.26                           299 234 
 TOL  SE ES   2   10 9 17.64                             109    0.78 3  341 224 
 TOL  SZ I        10 9 26.36         2.1 0.54            108            341 224 
 SJC  HN ES   4   10 9 26.94                             105   -3.01 0  407 327 
 SJC  HE I        10 9 30.92         3.7 0.38            105            407 327 
                                                                                
