 2017  820 1232 48.2 L   6.770 -73.148154.3  RSN 13 0.5 1.9LRSN                1
 GAP=120        1.05       4.0     4.4  5.5 -0.8087E+00  0.6426E+01  0.4327E+01E
 Epicentro: LOS SANTOS - SANTANDER                                             3
 ACTION:UPD 17-09-04 20:22 OP:rebc STATUS:               ID:20170820123248 L   I
 OLDACT:UP  17-08-20 18:10 OP:lv   STATUS:               ID:20170820122742     3
 OLDACT:REG 17-08-20 16:13 OP:lv   STATUS:               ID:20170820122742     3
 2017-08-20-1228-00M.COL___408                                                 6
 STAT SP IPHASW D HRMM SECON CODA AMPLIT PERI AZIMU VELO AIN AR TRES W  DIS CAZ7
 BAR2 EZ IP     C 1233  8.77                             172   -0.0410 20.0 191 
 BAR2 EZ ES       1233 24.48                             172   -0.3910 20.0 191 
 BAR2 EZ I        1233 25.04        14.1 0.20            168           20.0 191 
 BRR  HZ EP       1233 10.79                             153    0.4310 72.6 301 
 BRR  HN ES       1233 28.12                             153    0.4810 72.6 301 
 BRR  HZ I        1233 30.66        15.7 0.16            150           72.6 301 
 PAM  EZ EP       1233 11.66                             151    0.1610 80.2  38 
 PAM  EN ES       1233 29.06                             151   -0.6010 80.2  38 
 PAM  EZ I        1233 30.01         7.9 0.16            156           80.2  38 
 RUS  HZ EP       1233 12.69                             146    0.1110 97.3 176 
 RUS  HN ES       1233 31.62                             146    0.0310 97.3 176 
 RUS  HZ I        1233 32.94         6.3 0.42            146           97.3 176 
 SPBC HZ EP       1233 17.73                             131    0.61 9  160 220 
 SPBC HN ES       1233 40.01                             131    0.34 9  160 220 
 SPBC HZ I        1233 42.80        12.4 0.09            130            160 220 
 ZAR  HE ES       1233 47.26                             124    0.11 9  205 293 
 ZAR  HZ I        1233 53.93        14.7 0.28            123            205 293 
 NOR  HZ EP       1233 24.60                             120    0.38 8  233 235 
 NOR  HN ES   4   1233 49.76                             120   -2.54 0  233 235 
 NOR  HZ I        1233 57.68         8.3 0.22            119            233 235 
 CHI  HZ EP   9   1233 26.96                             119    0.92 0  245 195 
 CHI  HN ES       1233 55.94                                   -0.53 8  245 195 
 CHI  HZ I        1234  1.16         2.8 0.50            119            245 195 
 HEL  HZ EP   3   1233 27.22                             116   -1.53 2  271 256 
 HEL  HN ES       1233 59.33                             116   -1.04 8  271 256 
 HEL  HZ I        1234  7.99         5.7 0.36            116            271 256 
 URE  HZ EP       1233 29.43                             115   -0.39 7  285 293 
 URE  HE ES   4   1234  0.51                             115   -1.76 0  285 293 
 GUY2CHZ EP       1233 31.23                             114   -0.75 7  299 235 
 GUY2CHN ES   4   1234  7.59                             114    1.47 0  299 235 
 GUY2CHZ I        1234 15.51         5.5 0.70                           299 235 
 PTGC HZ EP       1233 31.61                             113   -0.51 7  306 158 
 PTGC HN ES   4   1234  4.98                             113   -1.39 0  306 158 
 PRA  HZ EP       1233 42.11                             108    0.43 6  389 210 
 PRA  HN ES       1234 23.51                             108    0.12 6  389 210 
 PRA  HZ I        1234 29.32         2.5 0.56            108            389 210 
 SJC  HZ EP   4   1233 43.18                             107   -1.19 0  412 327 
 SJC  HN ES   4   1234 23.40                             107   -4.78 0  412 327 
                                                                                
