 2012  720 1800  5.8 L   6.775 -73.161148.5  RSN  5 0.3 1.6LRSN                1
 GAP=136        0.78       5.0     5.4  7.7 -0.7512E+00  0.7161E+01 -0.2143E+01E
 Epicentro: LOS SANTOS - SANTANDER                                             3
 ACTION:UP  12-08-14 11:46 OP:ep   STATUS:               ID:20120720180005 L   I
 2012-07-20-1759-47M.COL___205                                                 6
 STAT SP IPHASW D HRMM SECON CODA AMPLIT PERI AZIMU VELO AIN AR TRES W  DIS CAZ7
 BAR2 SZ ES   1   18 0 41.17                             172    -0.1 7   20 187 
 BAR2 SZ I        18 0 41.84         8.8 0.14            170             20 187 
 BRR  HZ EP   1   18 0 27.46                             153     0.2 7   71 301 
 BRR  HN ES   1   18 0 44.63                             153     0.6 7   71 301 
 BRR  HZ I        18 0 46.06        10.8 0.26            152             71 301 
 PAM  SZ EP   1   18 0 28.51                             150     0.0 7   81  39 
 PAM  SN ES   1   18 0 45.87                             150    -0.4 7   81  39 
 RUS  HZ EP   1   18 0 29.80                             145     0.1 7   98 175 
 RUS  HN ES       18 0 48.34                             145     0.110   98 175 
 RUS  HZ I        18 0 49.69         3.6 0.30            146             98 175 
 PTB  HZ EP   1   18 0 32.81                             133     0.0 7  146 260 
 PTB  HN ES   1   18 0 53.30                             133    -0.6 7  146 260 
 PTB  HZ I        18 0 56.99         4.0 0.13            132            146 260 
