 2017 1020 1657 30.9 L   6.694 -73.395121.2  RSN  6 0.4 1.4LRSN                1
 GAP=153        1.04       5.3     4.8  7.9  0.9846E+01  0.1671E+02  0.1269E+02E
 Epicentro: EL CARMEN - SANTANDER                                              3
 ACTION:UPD 17-11-07 19:34 OP:rebc STATUS:               ID:20171020165730 L   I
 OLDACT:UP  17-10-21 00:53 OP:edw  STATUS:               ID:20171020164247     3
 OLDACT:REG 17-10-20 20:25 OP:edw  STATUS:               ID:20171020164247     3
 2017-10-20-1648-00M.COL___459                                                 6
 STAT SP IPHASW D HRMM SECON CODA AMPLIT PERI AZIMU VELO AIN AR TRES W  DIS CAZ7
 BAR2 EZ EP       1657 47.79                             167    0.1310 26.0 116 
 BAR2 EZ ES       1658  0.28                             167   -0.4510 26.0 116 
 BAR2 EZ I        1658  1.76        11.5 0.20            170           26.0 116 
 BRR  HZ EP       1657 48.65                             153    0.0210 57.6 323 
 BRR  HN ES       1658  2.78                             153    0.3310 57.6 323 
 RUS  HZ EP       1657 51.96                             140    0.0710 95.1 159 
 RUS  HN ES       1658  8.53                             140    0.2810 95.1 159 
 RUS  HZ I        1658 11.50         2.1 0.34            140           95.1 159 
 PTB  HZ EP       1657 52.23                             132   -1.0010  119 262 
 PTB  HN ES       1658 10.70                             132    0.0610  119 262 
 PTB  HZ I        1658 12.53         3.0 0.40            132            119 262 
 ZAR  HN ES       1658 22.44                             119    0.22 9  184 299 
 ZAR  HZ I        1658 28.39         6.0 0.26            120            184 299 
 NOR  HZ EP       1658  2.68                             116    0.57 8  206 233 
 NOR  HN ES       1658 26.36                             116   -0.08 8  206 233 
 NOR  HZ I        1658 31.75         2.4 0.22            116            206 233 
                                                                                
