 2012  220 1021 46.8 L   6.787 -73.127154.0  RSN  6 0.3 1.3LRSN                1
 GAP=140        0.60       6.5     5.7  7.0  0.8966E+01  0.3783E+01  0.2156E+02E
 ACTION:UP  12-03-07 16:32 OP:epov STATUS:               ID:20120220102146 L   I
 2012-02-20-1020-00M.COL___191                                                 6
 STAT SP IPHASW D HRMM SECON CODA AMPLIT PERI AZIMU VELO AIN AR TRES W  DIS CAZ7
 BAR2 SZ EP       1022  7.35                             171   -0.1010 22.4 196 
 BAR2 SZ I        1022  7.61         3.2 0.13                          22.4 196 
 BAR2 SZ ES   2   1022 22.99                             171   -0.53 5 22.4 196 
 GIR2 SZ ES   2   1022 23.75                             167    0.06 5 33.1 347 
 BRR  HZ EP   2   1022  8.65                             153   -0.38 5 73.7 299 
 BRR  HZ I        1022  9.84         6.2 0.20                          73.7 299 
 BRR  HN ES       1022 26.65                             153    0.3210 73.7 299 
 PAM  SE ES   2   1022 27.67                             152   -0.27 5 77.2  38 
 RUS  HZ EP   1   1022 11.81                             146    0.50 7 99.1 177 
 RUS  HE ES   2   1022 30.37                             146   -0.02 5 99.1 177 
 RUS  HZ I        1022 31.17         1.8 0.52                          99.1 177 
 PTB  HZ EP   1   1022 14.42                             134   -0.24 7  150 260 
 PTB  HN ES   2   1022 35.91                             134   -0.44 5  150 260 
                                                                                
