 2016 1220 1028 25.8 L   6.792 -73.134153.0  RSN 14 0.4 1.9LRSN                1
 GAP=100        0.97       3.6     3.2  5.1  0.4417E+00  0.2862E+01  0.2573E+01E
 Epicentro: LOS SANTOS - SANTANDER                                             3
 ACTION:UPD 17-01-11 20:17 OP:rebc STATUS:               ID:20161220102825 L   I
 OLDACT:UP  16-12-20 21:41 OP:edw  STATUS:               ID:20161220102748     3
 OLDACT:UP  16-12-20 21:40 OP:edw  STATUS:               ID:20161220102748     3
 OLDACT:REG 16-12-20 19:48 OP:edw  STATUS:               ID:20161220102748     3
 2016-12-20-1028-00M.COL___363                                                 6
 STAT SP IPHASW D HRMM SECON CODA AMPLIT PERI AZIMU VELO AIN AR TRES W  DIS CAZ7
 BAR2 EZ EP       1028 46.27                             171   -0.0510 22.7 194 
 BAR2 EZ ES       1029  2.15                             171   -0.1410 22.7 194 
 BAR2 EZ I        1029  2.43        15.6 0.18            167           22.7 194 
 BRR  HZ EP       1028 48.20                             153    0.3510 72.7 299 
 BRR  HN ES       1029  5.46                             153    0.4410 72.7 299 
 BRR  HZ I        1029  8.20         9.3 0.10            151           72.7 299 
 PAM  EZ EP       1028 49.19                             152    0.3810 77.3  38 
 PAM  EN ES       1029  6.61                             152   -0.1310 77.3  38 
 RUS  HZ EP       1028 50.04                             145   -0.1910 99.6 177 
 RUS  HN ES       1029  8.76                             145   -0.5010 99.6 177 
 RUS  HZ I        1029  9.92        13.8 0.38            143           99.6 177 
 PTB  HZ EP   9   1028 52.78                             133   -0.71 0  149 259 
 PTB  HN ES       1029 14.36                             133    0.01 9  149 259 
 PTB  HZ I        1029 16.26        11.1 0.14            131            149 259 
 TAM  HZ IP     D 1028 54.43                             132    0.47 9  154 105 
 TAM  HN ES       1029 15.65                             132   -0.25 9  154 105 
 ZAR  HZ EP       1028 57.95                             124   -0.96 8  206 292 
 ZAR  HN ES       1029 25.10                             124    0.39 8  206 292 
 ZAR  HZ I        1029 29.71         7.7 0.17            123            206 292 
 NOR  HZ EP       1029  2.21                             120    0.17 8  235 235 
 NOR  HN ES       1029 30.06                             120   -0.23 8  235 235 
 NOR  HZ I        1029 35.41         7.4 0.18            118            235 235 
 CHI  HZ EP       1029  4.17                             119    0.29 8  248 196 
 CHI  HE ES       1029 34.07                             119    0.51 8  248 196 
 CHI  HZ I        1029 38.95         2.4 0.40            117            248 196 
 ROSC BZ EP   4   1029  5.63                             118    1.29 0  253 211 
 ROSC BN ES   4   1029 39.62                             118    5.24 0  253 211 
 ROSC BZ I        1029 41.84        10.9 0.40            117            253 211 
 URE  HZ EP       1029  6.57                             115   -0.86 7  285 292 
 URE  HN ES   4   1029 38.07                             115   -1.81 0  285 292 
 URE  HZ I        1029 39.55         5.7 0.14            114            285 292 
 GUY2CHZ EP   4   1029  3.84                             114   -6.00 0  302 235 
 GUY2CHN ES   4   1029 46.74                             114    2.57 0  302 235 
 GUY2CHZ I        1029 52.62         5.2 0.54                           302 235 
 PTGC HZ EP   4   1029  8.77                             113   -1.10 0  307 159 
 ELA  HZ EP   4   1029 15.51                             112    2.47 0  329 230 
 ELA  HE ES   4   1029 53.87                             112    4.01 0  329 230 
 ELA  HZ I        1029 57.56         3.3 0.32            111            329 230 
 CBOC HZ EP   4   1029 14.28                             111    1.12 0  335 252 
 CBOC HE ES   4   1029 48.60                             111   -1.47 0  335 252 
 ANIL HN ES   4   1029 57.22                             110    2.18 0  358 225 
 ORTC HZ EP   2   1029 20.21                             107    0.20 3  395 216 
 ORTC HE ES   2   1030  3.04                             107    0.77 3  395 216 
                                                                                
