 2013  220 1412 49.2 L   6.737 -73.213150.0  RSN  5 0.4 1.8LRSN                1
 GAP=221        0.85       8.0     6.7  7.6  0.2456E+02  0.5168E+01  0.1272E+02E
 Epicentro: VILLANUEVA - SANTANDER                                             3
 ACTION:UPD 13-03-12 09:34 OP:ep   STATUS:               ID:20130220141249 L   I
 2013-02-20-1410-00M.COL___238                                                 6
 STAT SP IPHASW D HRMM SECON CODA AMPLIT PERI AZIMU VELO AIN AR TRES W  DIS CAZ7
 BAR2 SZ EP   1   1413  8.79                             173   -0.40 7 16.4 168 
 BAR2 SZ ES   1   1413 24.52                             173   -0.29 7 16.4 168 
 BRR  HZ EP   1   1413 10.58                             154   -0.06 7 68.6 307 
 BRR  HN ES   1   1413 28.15                             154    0.77 7 68.6 307 
 BRR  HZ I        1413 34.72        11.9 0.34            150           68.6 307 
 RUS  HZ EP       1413 13.06                             146    0.1410 94.5 171 
 RUS  HN ES   1   1413 31.40                             146   -0.04 7 94.5 171 
 RUS  HZ I        1413 32.57         5.7 0.26            149           94.5 171 
 PTB  HZ EP       1413 15.32                             135   -0.41 9  139 261 
 PTB  HN ES       1413 36.39                             135   -0.06 9  139 261 
 PTB  HZ I        1413 44.04        13.9 0.26            133            139 261 
 CHI  HZ EP   1   1413 26.98                             119    0.80 6  240 194 
 CHI  HZ I        1413 28.91         3.1 0.12            121            240 194 
                                                                                
