 2017  620 1544 51.4 L   6.858 -73.173150.4  RSN 16 0.7 2.6LRSN                1
 GAP=217        1.53       5.9     6.5  9.9  0.2023E+02 -0.2790E+00  0.4375E+01E
 Epicentro: ZAPATOCA - SANTANDER                                               3
 ACTION:UPD 17-09-14 16:53 OP:jn   STATUS:               ID:20170620154451 L   I
 OLDACT:UP  17-06-21 00:54 OP:ar   STATUS:               ID:20170620153736     3
 OLDACT:UP  17-06-21 00:54 OP:ar   STATUS:               ID:20170620153736     3
 OLDACT:UP  17-06-21 00:53 OP:ar   STATUS:               ID:20170620153736     3
 OLDACT:UP  17-06-21 00:37 OP:ar   STATUS:               ID:20170620153736     3
 OLDACT:REG 17-06-20 23:01 OP:ar   STATUS:               ID:20170620153736     3
 2017-06-20-1538-00M.COL___343                                                 6
 STAT SP IPHASW D HRMM SECON CODA AMPLIT PERI AZIMU VELO AIN AR TRES W  DIS CAZ7
 BRR  HZ IP     C 1545 13.06                             155    0.2810 65.6 295 
 BRR  HN ES       1545 30.19                             155    0.7610 65.6 295 
 BRR  HZ I        1545 34.22        67.8 0.18            155           65.6 295 
 PTB  HZ EP       1545 18.12                             133   -0.52 9  146 256 
 PTB  HN ES       1545 39.27                             133   -0.59 9  146 256 
 PTB  HZ I        1545 41.59        38.1 0.28            134            146 256 
 SPBC HZ EP       1545 20.29                             130   -0.30 9  166 217 
 SPBC HE ES       1545 42.79                             130   -0.54 9  166 217 
 SPBC HZ I        1545 46.98        56.0 0.14            130            166 217 
 YPLC HZ EP       1545 21.86                             126   -0.39 9  184 151 
 YPLC HN ES       1545 45.80                             126   -0.49 9  184 151 
 YPLC HZ I        1545 49.24        37.0 0.64            129            184 151 
 ZAR  HZ EP       1545 24.09                             124    0.44 9  199 291 
 ZAR  HN ES       1545 49.38                             124    0.59 9  199 291 
 ZAR  HZ I        1545 54.85        45.8 0.38            126            199 291 
 TABC EZ EP       1545 28.98                             120    1.10 8  234 209 
 TABC EZ ES   4   1545 59.44                             120    3.12 0  234 209 
 TABC EZ I        1546  0.90        30.5 0.46            121            234 209 
 NOR  HZ EP       1545 27.78                             119    0.20 8  236 233 
 NOR  HE ES       1545 55.46                             119   -0.31 8  236 233 
 NOR  HZ I        1546  0.32        33.0 0.30            121            236 233 
 CHI  HZ EP       1545 29.82                             118   -0.16 8  254 194 
 CHI  HN ES       1545 59.60                             118   -0.44 8  254 194 
 CHI  HZ I        1546  2.84        13.0 0.66            119            254 194 
 ROSC BZ EP   4    1545 31.72                            117   -99.9 0  257 2100
 ROSC BN ES   4   1546  3.98                             117    3.47 0  257 210 
 ROSC BZ I        1546  6.32        28.7 0.45            119            257 210 
 HEL  HZ EP   4   1545 33.59                             116    1.85 0  271 254 
 HEL  HN ES       1546  3.95                             116    0.76 8  271 254 
 HEL  HZ I        1546 12.02        19.6 0.28            118            271 254 
 URE  HZ EP       1545 31.91                             115   -0.24 7  279 291 
 URE  HN ES       1546  2.03                             115   -1.89 7  279 291 
 URE  HZ I        1546  5.51        28.9 0.16            117            279 291 
 GUY2CHZ EP   4   1545 37.00                             113    1.60 0  303 233 
 GUY2CHE ES   4   1546 12.42                             113    2.72 0  303 233 
 GUY2CHZ I        1546 17.55        19.7 0.64                           303 233 
 VIL  HE ES       1546 11.91                             112    1.67 7  309 191 
 LL6C HZ EP   4   1546 29.94                             112   53.36 0  318 358 
 LL6C HN ES   4   1547  6.92                             112   55.12 0  318 358 
 DBB  EZ EP       1545 38.85                             111    0.15 7  336 273 
 DBB  EN ES       1546 15.20                             111   -0.38 7  336 273 
 DBB  EZ I        1546 17.37        14.1 0.22            113            336 273 
 APAC HE ES       1546 27.94                             107    0.78 6  393 287 
 ORTC HZ EP       1545 45.96                             107    0.05 6  399 215 
 ORTC HN ES   4   1546 29.87                             107    1.46 0  399 215 
 ORTC HZ I        1546 35.01         7.8 0.74            109            399 215 
                                                                                
