 2017  920 1522  8.5 L   6.704 -72.553 89.5  RSN  4 0.2 1.3LRSN                1
 GAP=185        0.65       2.5     5.5  8.3 -0.2326E+01 -0.2636E+02  0.8596E+01E
 Epicentro: CARCASI - SANTANDER                                                3
 ACTION:UPD 17-10-05 19:14 OP:rebc STATUS:               ID:20170920152208 L   I
 OLDACT:UP  17-09-20 22:14 OP:edw  STATUS:               ID:20170920151745     3
 OLDACT:REG 17-09-20 20:38 OP:edw  STATUS:               ID:20170920151745     3
 2017-09-20-1518-00M.COL___444                                                 6
 STAT SP IPHASW D HRMM SECON CODA AMPLIT PERI AZIMU VELO AIN AR TRES W  DIS CAZ7
 BAR2 EZ EP       1522 24.51                             139    0.2410 70.7 260 
 BAR2 EZ ES       1522 36.79                             139    0.2510 70.7 260 
 PAM  EZ EP       1522 24.83                             138    0.1010 72.2 347 
 PAM  HN ES       1522 37.18                             138   -0.2010 72.2 347 
 PAM  EZ I        1522 40.81         6.5 0.18            145           72.2 347 
 RUS  HZ EP       1522 27.80                             126   -0.1410  107 213 
 RUS  HE ES       1522 42.70                             126   -0.3810  107 213 
 RUS  HZ I        1522 46.43         2.1 0.20            132            107 213 
 YPLC HZ EP       1522 31.31                             117   -0.16 9  146 172 
 YPLC HE ES       1522 49.67                             117    0.30 9  146 172 
 YPLC HZ I        1522 50.46         6.5 0.62            122            146 172 
                                                                                
