 2013  720 1304  6.1 L   6.801 -73.124147.1  RSN 13 0.4 2.3LRSN                1
 GAP=185        1.11       2.9     5.0  5.5 -0.2145E+00  0.5097E+01  0.1943E+00E
 Epicentro: LOS SANTOS - SANTANDER                                             3
 ACTION:UPD 13-08-12 10:39 OP:ep   STATUS:               ID:20130720130406 L   I
 OLDACT:REG 13-07-20 15:36 OP:nd   STATUS:               ID:20130720125959     3
 2013-07-20-1259-59M.COL___266                                                 6
 STAT SP IPHASW D HRMM SECON CODA AMPLIT PERI AZIMU VELO AIN AR TRES W  DIS CAZ7
 BAR2 SZ EP     C 13 4 26.07                             170    0.1910 23.9 196 
 BAR2 SZ ES       13 4 41.02                             170   -0.3110 23.9 196 
 BAR2 SZ I        13 4 44.45        27.2 0.46            168           23.9 196 
 GIR2 SZ EP       13 4 26.12                             167    0.2010 31.7 346 
 GIR2 SZ ES       13 4 41.11                             167   -0.2910 31.7 346 
 GIR2 SZ I        13 4 43.38        28.8 0.18            167           31.7 346 
 BRR  HZ EP     C 13 4 28.06                             152    0.5710 73.3 298 
 BRR  HN ES       13 4 45.06                             152    0.8710 73.3 298 
 BRR  HZ I        13 4 48.17        24.9 0.36            150           73.3 298 
 RUS  HZ EP       13 4 29.89                             144   -0.0710  101 177 
 RUS  HN ES       13 4 48.74                             144    0.1610  101 177 
 RUS  HZ I        13 4 51.38        15.5 0.26            144            101 177 
 PTB  HZ EP       13 4 32.86                             132   -0.51 9  150 259 
 PTB  HN ES       13 4 53.65                             132   -1.01 9  150 259 
 PTB  HZ I        13 4 56.14        31.6 0.16            131            150 259 
 OCA  HZ EP       13 4 34.27                             130   -0.25 9  160 352 
 OCA  HN ES       13 4 56.12                             130   -0.58 9  160 352 
 OCA  HZ I        13 5  0.18        15.2 0.24            131            160 352 
 SPBC HZ EP       13 4 35.01                             129    0.18 9  165 220 
 SPBC HN ES       13 4 57.49                             129    0.24 9  165 220 
 SPBC HZ I        13 5  2.04        30.3 0.24            128            165 220 
 ZAR  HZ EP       13 4 38.75                             122   -0.09 8  206 292 
 ZAR  HE ES       13 5  4.37                             122   -0.02 8  206 292 
 ZAR  HZ I        13 5 11.14        26.2 0.26            122            206 292 
 NOR  HZ EP       13 4 42.06                             119   -0.04 8  237 235 
 NOR  HN ES       13 5 10.65                             119    0.45 8  237 235 
 NOR  HZ I        13 5 14.33        19.0 0.20            118            237 235 
 SML  HZ EP       13 4 42.54                             118   -0.35 8  245 335 
 SML  HN ES       13 5 12.34                             118    0.75 8  245 335 
 SML  HZ I        13 5 13.86        24.0 0.10            118            245 335 
 CHI  HZ EP       13 4 44.22                             117    0.29 8  249 196 
 CHI  HN ES       13 5 13.00                             117   -0.45 8  249 196 
 CHI  HZ I        13 5 23.04         8.7 0.36            118            249 196 
 RREF HZ EP   4   13 4 51.63                             111   -0.87 0  324 230 
 RREF HN ES   4   13 5 30.81                             111    2.11 0  324 230 
 RREF HZ I        13 5 37.47        12.3 0.36            111            324 230 
 COD  HZ EP   4   13 4 54.63                             109    0.10 0  348 354 
 COD  HN ES   4   13 5 30.52                             109   -1.80 0  348 354 
 COD  HZ I        13 5 39.90         5.2 0.66            110            348 354 
 SJC  HZ EP   4   13 5  0.26                             106   -1.58 0  410 327 
 SJC  HN ES   4   13 5 41.75                             106   -3.57 0  410 327 
                                                                                
