 2010 1220 1354 33.4 L   7.461 -73.346 11.6  RSN  4 0.1 1.7LRSN                1
 GAP=191        0.34       1.3     3.0  3.1 -0.1775E+01  0.1268E+01  0.1202E+01E
 Epicentro: EL PLAYON - SANTANDER                                              3
 ACTION:UP  11-01-14 15:26 OP:pat  STATUS:               ID:20101220135433 L   I
 2010-12-20-1340-00M.COL___132                                                 6
 STAT SP IPHASW D HRMM SECON CODA AMPLIT PERI AZIMU VELO SNR AR TRES W  DIS CAZ7
 GRA  SZ EP   1   1354 45.87                              96     0.1 7   76  52 
 GRA  SZ ES   1   1354 55.26                              96    -0.1 7   76  52 
 GRA  SZ I        1354 56.04        48.2 0.29                            76  52 
 OCA  SZ EP   1   1354 47.17                              95    -0.1 7   86   2 
 OCA  SZ I        1354 59.84        22.7 0.12                            86   2 
 BAR2 SZ EP       1354 49.16                              95     0.110   98 169 
 BAR2 SZ ES   1   1355  1.27                              95    -0.1 7   98 169 
 BAR2 SZ I        1355  2.84        15.1 0.24                            98 169 
 RUS  HZ EP   1   1355  0.52                              56    -0.1 7  176 170 
 RUS  HZ I        1355  1.03         6.8 0.16                           176 170 
 RUS  HN ES   1   1355 21.80                              56     0.0 7  176 170 
                                                                                
