 2012 1020 1927  6.2 L   6.775 -73.129145.4  RSN  4 0.1 1.6LRSN                1
 GAP=237        0.34       5.1     5.8  4.1  0.2438E+02 -0.3526E+00 -0.1815E+01E
 Epicentro: LOS SANTOS - SANTANDER                                             3
 ACTION:UPD 12-11-22 17:04 OP:ep   STATUS:               ID:20121020192706 L   I
 2012-10-20-1920-00M.COL___233                                                 6
 STAT SP IPHASW D HRMM SECON CODA AMPLIT PERI AZIMU VELO AIN AR TRES W  DIS CAZ7
 BAR2 SZ EP   1   1927 25.73                             171   -0.02 7 21.1 196 
 BAR2 SZ ES   1   1927 40.81                             171   -0.18 7 21.1 196 
 BRR  HZ EP   1   1927 27.55                             151    0.06 7 74.2 300 
 BRR  HZ I        1927 27.75        10.6 0.14                          74.2 300 
 BRR  HE ES   1   1927 44.25                             151    0.16 7 74.2 300 
 RUS  HZ EP   1   1927 29.69                             144   -0.03 7 97.7 177 
 RUS  HZ I        1927 30.87         4.2 0.14                          97.7 177 
 RUS  HN ES   1   1927 48.15                             144    0.10 7 97.7 177 
 ZAR  HE ES   1   1928  4.31                             122   -0.12 6  207 293 
                                                                                
