 2011  720 1103  1.6 L   6.782 -73.081150.7  RSN 11 0.3 2.7LRSN                1
 GAP=146        0.60       2.8     5.2  4.1 -0.5024E+01  0.4182E+01  0.1385E+01E
 Epicentro: LOS SANTOS - SANTANDER                                             3
 ACTION:UPD 12-07-25 14:02 OP:epov STATUS:               ID:20110720110301 L   I
 2011-07-20-1101-58S.COL___143                                                 6
 STAT SP IPHASW D HRMM SECON CODA AMPLIT PERI AZIMU VELO AIN AR TRES W  DIS CAZ7
 BAR2 SZ EP   1   11 3 21.77                             171   -0.09 7 23.8 208 
 BAR2 SZ ES   1   11 3 37.27                             171   -0.38 7 23.8 208 
 BAR2 SZ I        11 3 38.58        91.5 0.34                          23.8 208 
 BTL  SZ EP   1   11 3 22.02                             170    0.12 7 25.6 306 
 BTL  SZ ES   1   11 3 38.25                             170    0.53 7 25.6 306 
 GIR2 SZ EP       11 3 21.87                             166   -0.1310 35.1 339 
 PAM  SZ EP   1   11 3 24.47                             153    0.25 7 74.6  34 
 PAM  SN ES   1   11 3 42.17                             153    0.33 7 74.6  34 
 BRR  HZ EP   1   11 3 23.69                             151   -0.04 7 78.5 297 
 BRR  HZ I        11 3 23.98       192.1 0.23                          78.5 297 
 BRR  HE ES   1   11 3 41.02                             151    0.05 7 78.5 297 
 RUS  HZ EP   1   11 3 25.67                             145   -0.04 7 98.3 180 
 RUS  HN ES   1   11 3 44.47                             145   -0.03 7 98.3 180 
 RUS  HZ I        11 3 45.67        35.1 0.23                          98.3 180 
 BRI  SZ EP   1   11 3 26.34                             143    0.38 7  108  17 
 BRI  SZ ES   1   11 3 44.30                             143   -0.64 7  108  17 
 BRI  SZ I        11 3 49.82        41.4 0.36                           108  17 
 OCA  SZ EP   1   11 3 30.29                             130   -0.32 7  163 351 
 OCA  SZ ES   1   11 3 53.20                             130   -0.01 7  163 351 
 OCA  SZ I        11 3 58.22        79.0 0.28                           163 351 
 NOR  SZ EP   1   11 3 37.99                             119   -0.17 6  239 236 
 RREF HZ EP   1   11 3 49.15                             111    0.68 5  326 230 
 RREF HZ I        11 4 30.78        16.8 0.31                           326 230 
 PRA  HZ EP   1   11 3 55.40                             107   -0.14 4  394 211 
 PRA  HN ES   1   11 4 37.31                             107   -0.29 4  394 211 
                                                                                
