 2017  820 1828 22.1 L   6.854 -73.131150.6  RSN 30 0.7 3.0LRSN                1
 GAP= 57        0.95       2.4     2.5  4.3 -0.6724E+00  0.2319E+01  0.1182E+01E
 Epicentro: LOS SANTOS - SANTANDER                                             3
 ACTION:UPD 17-09-04 20:22 OP:rebc STATUS:               ID:20170820182822 L   I
 OLDACT:UP  17-08-20 21:06 OP:mg   STATUS:               ID:20170820182744     3
 OLDACT:UP  17-08-20 21:05 OP:mg   STATUS:               ID:20170820182744     3
 OLDACT:UP  17-08-20 21:05 OP:mg   STATUS:               ID:20170820182744     3
 OLDACT:UP  17-08-20 21:04 OP:mg   STATUS:               ID:20170820182744     3
 OLDACT:UP  17-08-20 21:02 OP:mg   STATUS:               ID:20170820182744     3
 OLDACT:REG 17-08-20 20:30 OP:lv   STATUS:               ID:20170820182744     3
 2017-08-20-1828-00M.COL___411                                                 6
 STAT SP IPHASW D HRMM SECON CODA AMPLIT PERI AZIMU VELO AIN AR TRES W  DIS CAZ7
 BAR2 EZ IP     D 1828 42.31                             169   -0.1610 29.5 191 
 BAR2 EZ ES   1   1828 57.57                             169   -0.77 7 29.5 191 
 BAR2 EZ I        1828 59.16       167.1 0.22            164           29.5 191 
 BRR  HZ IP       1828 44.01                             154    0.2810 70.0 294 
 BRR  HN ES       1829  0.99                             154    0.4110 70.0 294 
 BRR  HZ I        1829  3.91       184.1 0.48            151           70.0 294 
 PAM  EZ EP       1828 45.03                             153    0.4910 71.8  42 
 PAM  EN ES       1829  1.86                             153   -0.1710 71.8  42 
 PAM  EZ I        1829  3.97       221.3 0.48            156           71.8  42 
 RUS  HZ IP     D 1828 46.40                             143   -0.3810  106 177 
 RUS  HN ES   2   1829  5.02                             143   -0.99 5  106 177 
 RUS  HZ I        1829  6.78        57.6 0.32            139            106 177 
 TAM  HZ IP   1 D 1828 50.76                             132    0.56 7  155 107 
 TAM  HN ES       1829 12.38                             132    0.28 9  155 107 
 TAM  HZ I        1829 12.97        71.5 0.26            131            155 107 
 SPBC HZ EP     D 1828 51.31                             129   -0.22 9  169 218 
 SPBC HN ES       1829 14.16                             129   -0.31 9  169 218 
 SPBC HZ I        1829 20.86       147.6 0.22            126            169 218 
 YPLC HZ IP       1828 53.00                             127    0.28 9  181 153 
 YPLC HN ES   1   1829 17.23                             127    0.65 7  181 153 
 YPLC HZ I        1829 20.04        57.1 0.32            125            181 153 
 ZAR  HZ EP       1828 55.13                             123    0.31 9  203 290 
 ZAR  HN ES       1829 20.36                             123    0.04 9  203 290 
 ZAR  HZ I        1829 26.08       155.0 0.38            121            203 290 
 TABC EZ EP   2   1829  0.09                             120    1.29 4  236 210 
 TABC EZ ES   1   1829 27.53                             120    0.13 6  236 210 
 TABC EZ I        1829 32.58       122.0 0.52            117            236 210 
 NOR  HZ EP       1828 58.41                             119   -0.24 8  239 234 
 NOR  HN ES       1829 26.55                             119   -0.59 8  239 234 
 NOR  HZ I        1829 30.01       105.9 0.56            116            239 234 
 CHI  HZ EP       1829  0.84                             117    0.07 8  255 195 
 CHI  HZ I        1829 38.07        49.1 0.44            115            255 195 
 ROSC BZ EP   3   1829  2.53                             117    1.37 2  259 211 
 ROSC BN ES       1829 31.85                             117    0.25 8  259 211 
 ROSC BZ I        1829 38.65       103.1 0.40            115            259 211 
 HEL  HZ EP   2   1829  3.90                             115    0.98 4  275 255 
 HEL  HN ES       1829 35.47                             115    0.72 8  275 255 
 HEL  HZ I        1829 41.89       106.1 0.28            113            275 255 
 URE  HZ EP       1829  2.40                             114   -0.95 7  283 291 
 URE  HN ES   3   1829 34.24                             114   -1.27 2  283 291 
 URE  HZ I        1829 42.16        90.7 0.30            113            283 291 
 GUY2CHZ EP       1829  7.10                             113    0.60 7  306 234 
 GUY2CHN ES   1   1829 42.01                             113    0.90 5  306 234 
 GUY2CHZ I        1829 49.98        64.3 0.34                           306 234 
 VIL  EZ EP       1829  6.42                             112   -0.04 7  310 192 
 VIL  EN ES       1829 41.14                             112    0.09 7  310 192 
 VIL  EZ I        1829 47.55        60.7 0.30            110            310 192 
 PTGC HZ EP   1   1829  5.70                             112   -1.07 5  314 159 
 PTGC HN ES   2   1829 39.22                             112   -2.37 3  314 159 
 PTGC HZ I        1829 45.60        53.0 0.34            110            314 159 
 LL6C HZ EP       1829  7.99                             112    0.63 7  319 357 
 LL6C HN ES   1   1829 42.52                             112   -0.13 5  319 357 
 ELA  HZ EP   3   1829 11.96                             111    2.19 2  334 229 
 ELA  HN ES       1829 46.68                             111   -0.25 7  334 229 
 ELA  HZ I        1830  0.15        60.0 0.44            109            334 229 
 DBB  EZ EP       1829  9.86                             110   -0.08 7  341 273 
 DBB  EN ES   2   1829 46.02                             110   -1.21 3  341 273 
 DBB  EZ I        1829 51.62        38.4 0.42            109            341 273 
 SDV  BZ EP   1   1829 12.10                             109    0.33 5  355  51 
 SDV  B2 ES   2   1829 49.13                             109   -1.37 3  355  51 
 SDV  BZ I        1829 50.73        23.5 0.45            109            355  51 
 ANIL HZ EP   3   1829 14.17                             109    1.43 2  363 224 
 PRA  HZ EP       1829 16.35                             107   -0.17 6  398 209 
 PRA  HN ES       1829 58.41                             107   -0.53 6  398 209 
 PRA  HZ I        1830  2.59        52.9 0.54            105            398 209 
 ORTC HZ EP   1   1829 17.08                             107    0.19 4  401 216 
 ORTC HN ES   1   1830  0.22                             107    0.62 4  401 216 
 ORTC HZ I        1830  6.76        40.0 0.54            105            401 216 
 VALLCHE ES   4   1829 57.23                             107   -2.99 0  404 358 
 SJC  HZ IP     C 1829 16.59                             107   -0.77 6  405 326 
 SJC  HN ES   3   1829 59.41                             107   -1.04 1  405 326 
 SJC  HZ I        1830  1.62        23.3 0.50            106            405 326 
 PAL  HZ EP   1   1829 18.30                             106    0.33 4  410 238 
 PAL  HN ES   4   1830  4.15                             106    2.62 0  410 238 
 PAL  HZ I        1830  8.68        23.6 0.34            105            410 238 
 YOT  HZ EP       1829 25.27                             104   -0.65 5  477 228 
 YOT  HN ES   3   1830 17.26                             104    1.59 1  477 228 
 YOT  HZ I        1830 25.91         5.1 0.46            102            477 228 
 SMAR HZ EP       1829 27.31                             103   -0.17 4  492 346 
 SMAR HN ES   4   1830 15.10                             103   -3.35 0  492 346 
 SMAR HZ I        1830 18.93         7.6 0.38            102            492 346 
 MACC HZ EP   2   1829 29.83                             102   -1.86 2  527 189 
 MACC HN ES   4   1830 22.35                             102   -3.60 0  527 189 
 MACC HZ I        1830 28.52        14.5 0.68            101            527 189 
 MARO HZ EP   1   1829 32.98                             102   -0.98 3  543 215 
 MARO HN ES   3   1830 28.43                             102   -1.56 1  543 215 
 MARO HZ I        1830 33.16         7.9 0.39            100            543 215 
                                                                                
