 2013  320 1222 54.7 L   6.835 -73.150134.5  RSN  4 0.4 1.7LRSN                1
 GAP=144        0.72       6.3     5.8  8.2 -0.1693E+02  0.1462E+02  0.3001E+01E
 Epicentro: LOS SANTOS - SANTANDER                                             3
 ACTION:UPD 13-04-09 14:03 OP:ep   STATUS:               ID:20130320122254 L   I
 2013-03-20-1220-00M.COL___241                                                 6
 STAT SP IPHASW D HRMM SECON CODA AMPLIT PERI AZIMU VELO AIN AR TRES W  DIS CAZ7
 BAR2 SZ ES   1   1223 27.81                             168    0.42 7 27.0 188 
 PAM  SZ EP   1   1223 16.13                             150    0.57 7 74.8  42 
 PAM  SN ES       1223 31.52                             150   -0.3210 74.8  42 
 PAM  SN I        1223 34.51        10.0 0.50            154           74.8  42 
 RUS  HZ EP   1   1223 17.64                             140   -0.01 7  104 176 
 RUS  HN ES   2   1223 35.19                             140   -0.37 5  104 176 
 RUS  HN I        1223 36.65         4.8 0.32            145            104 176 
 PTB  HZ EP   1   1223 20.43                             129   -0.37 7  148 257 
 PTB  HN ES   1   1223 41.25                             129    0.09 7  148 257 
 PTB  HN I        1223 46.84         9.5 0.52            130            148 257 
                                                                                
