 2017  220 1610  6.5 L   6.695 -73.317131.9  RSN  4 0.4 1.1LRSN                1
 GAP=141        0.92       7.9     5.2  8.2 -0.1996E+02  0.4816E+01  0.6192E+01E
 Epicentro: GALAN - SANTANDER                                                  3
 ACTION:UPD 17-05-24 15:38 OP:jn   STATUS:               ID:20170220161006 L   I
 OLDACT:UP  17-02-21 00:03 OP:cog  STATUS:               ID:20170220160744     3
 OLDACT:REG 17-02-20 21:59 OP:cog  STATUS:               ID:20170220160744     3
 2017-02-20-1608-00M.COL___376                                                 6
 STAT SP IPHASW D HRMM SECON CODA AMPLIT PERI AZIMU VELO AIN AR TRES W  DIS CAZ7
 BAR2 EZ EP       1610 24.42                             171    0.0410 18.7 127 
 BAR2 EZ ES       1610 38.40                             171    0.0810 18.7 127 
 BAR2 EZ I        1610 40.54         4.4 0.56             47           18.7 127 
 RUS  HZ EP       1610 28.21                             143   -0.1010 92.4 164 
 RUS  HZ I        1610 51.67         1.0 0.26             47           92.4 164 
 PAM  EZ EP       1610 29.38                             141    0.6110 98.7  44 
 PAM  EE ES       1610 45.74                             141   -0.4010 98.7  44 
 PAM  EZ I        1610 46.81         2.1 0.46             47           98.7  44 
 PTB  HZ EP       1610 29.97                             133   -0.5110  127 262 
 PTB  HZ ES       1610 49.43                             133    0.2510  127 262 
 PTB  HZ I        1610 52.72         3.3 0.10             47            127 262 
 TAM  HZ EP   4   1610 36.97                             124    2.25 0  171 100 
                                                                                
