 2012  720 1555 30.4 L   6.754 -73.141148.8  RSN  7 0.4 2.0LRSN                1
 GAP=183        1.00       5.2     7.2  8.5  0.1650E+02  0.9267E+01  0.3764E+01E
 Epicentro: LOS SANTOS - SANTANDER                                             3
 ACTION:UPD 12-08-14 11:46 OP:ep   STATUS:               ID:20120720155530 L   I
 2012-07-20-1550-00M.COL___215                                                 6
 STAT SP IPHASW D HRMM SECON CODA AMPLIT PERI AZIMU VELO AIN AR TRES W  DIS CAZ7
 BAR2 SZ EP   1   1555 50.06                             173    -0.3 7   18 194 
 BAR2 SZ ES   1   1556  5.11                             173    -0.7 7   18 194 
 BAR2 SZ I        1556  6.36        31.4 0.19            167             18 194 
 BRR  HZ IP     D 1555 51.90                             152    -0.210   74 302 
 BRR  HN ES       1556  9.29                             152     0.310   74 302 
 BRR  HZ I        1556 10.95        25.0 0.11            148             74 302 
 RUS  HZ EP   1   1555 54.05                             146    -0.1 7   95 176 
 RUS  HN ES       1556 12.88                             146     0.310   95 176 
 RUS  HZ I        1556 14.10         9.8 0.31            145             95 176 
 PTB  HZ EP   1   1555 56.94                             133    -0.7 7  147 261 
 PTB  HN ES   1   1556 19.09                             133     0.3 7  147 261 
 PTB  HZ I        1556 23.75         7.9 0.21            130            147 261 
 OCA  HN ES   1   1556 22.67                             130     0.6 7  165 353 
 ZAR  HE ES       1556 28.73                             123    -0.2 8  207 293 
 ZAR  HZ I        1556 35.61         8.0 0.29            121            207 293 
 CHI  HZ EP   1   1556  8.28                             118     0.5 6  244 196 
 CHI  HN ES   2   1556 37.39                             118     0.5 4  244 196 
