 2016  920 1140 28.7 L   6.119 -73.834 32.1  RSN  5 0.1 1.0LRSN                1
 GAP=100        0.33       1.0     1.6  4.2 -0.7392E+00  0.2902E+01 -0.1172E+01E
 Epicentro: EL PENON - SANTANDER                                               3
 ACTION:UPD 17-08-17 21:14 OP:lp   STATUS:               ID:20160920114028 L   I
 OLDACT:UP  16-09-20 22:48 OP:edw  STATUS:               ID:20160920113735     3
 OLDACT:REG 16-09-20 20:29 OP:edw  STATUS:               ID:20160920113735     3
 2016-09-20-1138-00M.COL___360                                                 6
 STAT SP IPHASW D HRMM SECON CODA AMPLIT PERI AZIMU VELO AIN AR TRES W  DIS CAZ7
 SPBC HZ EP       1140 39.00                              61   -0.0110 58.0 207 
 SPBC HE ES       1140 46.99                              61   -0.0210 58.0 207 
 SPBC HZ I        1140 47.81        17.6 0.14            133           58.0 207 
 PTB  HZ EP   9   1140 40.70                              61   -1.36 0 83.1 304 
 PTB  HE ES       1140 50.99                              96   -0.0910 83.1 304 
 PTB  HZ I        1140 52.09         5.9 0.23            120           83.1 304 
 RUS  HZ EP       1140 43.07                              61   -0.0210 86.8 107 
 RUS  HN ES   2   1140 54.49                              61    0.22 5 86.8 107 
 RUS  HZ I        1140 56.14         3.0 0.32            115           86.8 107 
 BAR2 EZ EP       1140 42.94                              61   -0.1210 89.0  54 
 BAR2 EZ ES   2   1140 54.10                              61   -0.13 5 89.0  54 
 BAR2 EZ I        1140 57.52         2.6 0.14            114           89.0  54 
 BRR  HZ EP       1140 45.56                              61    0.1510  110   7 
 BRR  HN ES       1140 58.40                              61    0.0010  110   7 
                                                                                
