 2017 1220 1323 32.2 L   6.795 -73.154142.4  RSN  4 0.2 1.5LRSN                1
 GAP=148        0.51       4.8     2.7  5.8 -0.4334E+01  0.5569E+01 -0.8094E+01E
 Epicentro: LOS SANTOS - SANTANDER                                             3
 ACTION:UPD 18-01-04 13:22 OP:rebc STATUS:               ID:20171220132332 L   I
 OLDACT:DUP 17-12-20 21:47 OP:dani STATUS:               ID:20171220131406d    3
 2017-12-20-1318-00M.COL___452                                                 6
 STAT SP IPHASW D HRMM SECON CODA AMPLIT PERI AZIMU VELO AIN AR TRES W  DIS CAZ7
 BAR2 EZ EP       1323 51.32                             171   -0.1210 22.6 188 
 BAR2 EZ ES       1324  6.27                             171   -0.1610 22.6 188 
 BAR2 EZ I        1324  9.01         8.1 0.24            173           22.6 188 
 PAM  EZ EP       1323 54.22                             150    0.0710 78.4  40 
 PAM  EE ES       1324 11.37                             150    0.1210 78.4  40 
 PAM  EZ I        1324 14.22         5.0 0.62            151           78.4  40 
 PTB  HE ES       1324 19.88                             131    0.30 9  147 259 
 ZAR  HN ES       1324 29.25                             122   -0.23 9  203 292 
                                                                                
