 2016  220 1249  6.9 L   6.807 -73.147146.7  RSN 17 0.5 2.3LRSN                1
 GAP=136        0.97       3.1     3.5  5.2 -0.1699E+01  0.4989E+01  0.3105E+01E
 Epicentro: LOS SANTOS - SANTANDER                                             3
 ACTION:UPD 16-03-04 21:27 OP:rebc STATUS:               ID:20160220124906 L   I
 OLDACT:DUP 16-02-20 22:20 OP:ak   STATUS:               ID:20160220123749d    3
 OLDACT:REG 16-02-20 20:57 OP:ak   STATUS:               ID:20160220123748     3
 2016-02-20-1237-48M.COL___327                                                 6
 STAT SP IPHASW D HRMM SECON CODA AMPLIT PERI AZIMU VELO AIN AR TRES W  DIS CAZ7
 BAR2 EZ EP       1249 26.72                             170    0.0610 24.1 189 
 BAR2 EZ ES       1249 41.87                             170   -0.2010 24.1 189 
 BAR2 EZ I        1249 43.11        91.1 0.11            169           24.1 189 
 BRR  HZ EP       1249 28.52                             153    0.3910 70.7 298 
 BRR  HE ES       1249 45.29                             153    0.6110 70.7 298 
 BRR  HZ I        1249 48.92        54.4 0.34            151           70.7 298 
 PAM  EZ EP       1249 29.55                             151    0.3610 76.9  40 
 PAM  EN ES       1249 46.67                             151    0.1010 76.9  40 
 PAM  EZ I        1249 48.99        27.7 0.40            155           76.9  40 
 RUS  HZ EP       1249 30.62                             144   -0.1910  101 176 
 RUS  HN ES       1249 49.13                             144   -0.3210  101 176 
 RUS  HZ I        1249 51.45        11.4 0.18            145            101 176 
 PTB  HZ EP       1249 33.22                             132   -0.73 9  148 259 
 PTB  HN ES       1249 54.60                             132   -0.44 9  148 259 
 PTB  HZ I        1250  0.34        27.1 0.30            132            148 259 
 SPBC HZ EP       1249 35.63                             129    0.10 9  164 219 
 SPBC HN ES       1249 57.48                             129   -0.37 9  164 219 
 ZAR  HZ EP       1249 39.03                             123   -0.34 9  204 292 
 ZAR  HN ES       1250  4.31                             123   -0.37 9  204 292 
 ZAR  HZ I        1250 10.90        18.3 0.20            123            204 292 
 NOR  HE ES       1250 11.17                             119    0.51 8  235 234 
 CHI  HZ EP       1249 44.89                             117    0.15 8  249 195 
 CHI  HN ES       1250 14.08                             117   -0.16 8  249 195 
 CHI  HZ I        1250 16.59        11.9 0.32            119            249 195 
 ROSC BZ EP   2   1249 44.34                             117   -0.80 4  253 211 
 ROSC BN ES       1250 15.45                             117    0.49 8  253 211 
 ROSC BZ I        1250 25.32        19.6 0.50            118            253 211 
 HEL  HZ EP   2   1249 46.63                             115   -0.54 4  272 256 
 HEL  HN ES       1250 18.96                             115    0.38 8  272 256 
 HEL  HZ I        1250 25.81        11.1 0.32            116            272 256 
 URE  HZ EP   2   1249 46.66                             114   -1.31 4  283 292 
 URE  HN ES   4   1250 17.12                             114   -2.88 0  283 292 
 URE  HZ I        1250 20.70         5.5 0.20            115            283 292 
 GUY2CHZ EP   9   1249 52.32                             112    1.72 0  302 235 
 GUY2CHN ES       1250 26.58                             112    0.18 7  302 235 
 GUY2CHZ I        1250 32.69        10.5 0.34                           302 235 
 ELA  HN ES       1250 29.92                             110   -0.53 7  330 229 
 CBOC HZ EP   2   1249 54.46                             110    0.59 3  334 252 
 ANIL HZ EP       1249 57.61                             109    0.81 6  358 224 
 ANIL HE ES       1250 36.54                             109    0.83 6  358 224 
 ANIL HZ I        1250 40.66        22.9 0.44            110            358 224 
 SJC  HZ EP   4   1250  0.63                             106   -1.78 0  408 327 
 SJC  HN ES   4   1250 41.55                             106   -4.15 0  408 327 
 SJC  HZ I        1250 46.80         3.3 0.47            107            408 327 
                                                                                
