 2017 1220 1301 35.3 L   6.822 -73.173140.0  RSN  6 0.6 2.0LRSN                1
 GAP=140        1.28       9.2     6.4 10.1 -0.1391E+02  0.2158E+02  0.1859E+02E
 Epicentro: ZAPATOCA - SANTANDER                                               3
 ACTION:UPD 18-01-04 13:22 OP:rebc STATUS:               ID:20171220130135 L   I
 OLDACT:UP  17-12-20 21:38 OP:dani STATUS:               ID:20171220125056     3
 OLDACT:REG 17-12-20 20:32 OP:dani STATUS:               ID:20171220125056     3
 2017-12-20-1258-00M.COL___452                                                 6
 STAT SP IPHASW D HRMM SECON CODA AMPLIT PERI AZIMU VELO AIN AR TRES W  DIS CAZ7
 BAR2 EZ EP     D 13 1 53.89                             169   -0.3810 25.4 182 
 BAR2 EZ ES       13 2  9.44                             169    0.3710 25.4 182 
 BAR2 EZ I        13 2 11.73        21.1 0.46             47           25.4 182 
 PAM  EZ EP       13 1 56.92                             150    0.0210 77.5  42 
 PAM  EN ES       13 2 13.87                             150    0.1110 77.5  42 
 PAM  EZ I        13 2 16.37        11.6 0.60             47           77.5  42 
 PTB  HZ EP       13 2  0.78                             131   -0.78 9  145 258 
 PTB  HN ES       13 2 22.03                             131   -0.02 9  145 258 
 PTB  HZ I        13 2 22.69         9.1 0.16             47            145 258 
 SPBC HZ EP       13 2  2.96                             128   -0.39 9  163 218 
 SPBC HZ I        13 2 32.01        20.5 0.10             37            163 218 
 ZAR  HN ES       13 2 31.85                             122    0.17 9  200 292 
 GUY2CHZ EP       13 2 20.00                             111    1.49 7  300 234 
 GUY2CHZ I        13 2 59.13         4.5 0.56                           300 234 
                                                                                
