 2012 1220 1814 28.9 L   6.764 -73.183157.7  RSN  6 0.3 1.4LRSN                1
 GAP=175        0.64       5.7     5.5  8.3  0.6367E+01 -0.5511E+01 -0.2798E+01E
 Epicentro: VILLANUEVA - SANTANDER                                             3
 ACTION:UPD 13-01-04 14:29 OP:ep   STATUS:               ID:20121220181428 L   I
 2012-12-20-1810-00M.COL___242                                                 6
 STAT SP IPHASW D HRMM SECON CODA AMPLIT PERI AZIMU VELO AIN AR TRES W  DIS CAZ7
 BAR2 SZ EP   1   1814 49.36                             173   -0.54 7 19.0 180 
 GIR2 SZ EP   1   1814 50.05                             167   -0.05 7 34.8 358 
 BRR  HZ EP   1   1814 51.64                             155    0.36 7 69.7 303 
 BRR  HN ES   1   1815  8.98                             155    0.25 7 69.7 303 
 BRR  HZ I        1815 11.66         6.6 0.36                          69.7 303 
 RUS  HZ EP   1   1814 53.83                             147    0.22 7 97.0 173 
 RUS  HN ES   1   1815 12.93                             147    0.05 7 97.0 173 
 RUS  HZ I        1815 13.87         2.6 0.46                          97.0 173 
 PTB  HZ EP   1   1814 56.45                             136   -0.01 7  143 260 
 PTB  HN ES   1   1815 17.45                             136   -0.50 7  143 260 
 PTB  HZ I        1815 20.88         4.0 0.14                           143 260 
 NOR  HN ES   2   1815 33.21                             122    0.48 4  229 235 
                                                                                
