 2015  720 1852  1.2 L   6.849 -73.115135.0  RSN  5 0.3 1.8LRSN                1
 GAP=221        0.60       3.0     4.2  5.2 -0.1875E+01  0.1116E+02 -0.4088E+01E
 Epicentro: LOS SANTOS - SANTANDER                                             3
 ACTION:UPD 15-09-08 21:49 OP:cam  STATUS:               ID:20150720185201 L   I
 OLDACT:REG 15-07-20 22:48 OP:ak   STATUS:               ID:20150720182948     3
 2015-07-20-1829-48M.COL___337                                                 6
 STAT SP IPHASW D HRMM SECON CODA AMPLIT PERI AZIMU VELO AIN AR TRES W  DIS CAZ7
 BAR2 EZ EP       1852 19.54                             167   -0.1210 29.4 195 
 BAR2 EZ ES       1852 34.12                             167    0.0410 29.4 195 
 BAR2 EZ I        1852 36.01         9.2 0.33            166           29.4 195 
 ZAR  HZ EP       1852 33.05                             120   -0.01 8  205 290 
 ZAR  HE ES       1852 58.21                             120    0.27 8  205 290 
 ZAR  HZ I        1853  5.65         6.6 0.15            120            205 290 
 SML  HZ EP       1852 37.17                             115    0.33 8  240 334 
 SML  HN ES       1853  4.33                             115   -0.32 8  240 334 
 SML  HZ I        1853 11.12         8.7 0.08            117            240 334 
 HEL  HZ EP       1852 41.62                             112    0.24 7  277 255 
 HEL  HN ES       1853 12.31                             112   -0.44 7  277 255 
 HEL  HZ I        1853 20.13         2.8 0.32            114            277 255 
 GUY2CHZ EP   1   1852 44.49                             110   -0.49 5  307 234 
 GUY2CHN ES       1853 19.41                             110    0.26 7  307 234 
 GUY2CHZ I        1853 27.94         2.7 0.44                           307 234 
                                                                                
