 2013 1120 1834 26.1 L   6.809 -73.126144.8  RSN  8 0.4 2.1LRSN                1
 GAP=139        0.97       3.4     4.3  6.1  0.9031E+00  0.6597E+01 -0.3624E+01E
 Epicentro: LOS SANTOS - SANTANDER                                             3
 ACTION:UPD 14-01-09 16:29 OP:ep   STATUS:               ID:20131120183426 L   I
 OLDACT:UP  13-11-20 18:36 OP:cam  STATUS:               ID:20131120183000     3
 OLDACT:REG 13-11-20 17:55 OP:cam  STATUS:               ID:20131120183000     3
 2013-11-20-1830-00M.COL___282                                                 6
 STAT SP IPHASW D HRMM SECON CODA AMPLIT PERI AZIMU VELO AIN AR TRES W  DIS CAZ7
 BAR2 SZ EP       1834 45.64                             170   -0.0510 24.8 195 
 BAR2 SZ ES       1835  0.78                             170   -0.1610 24.8 195 
 BAR2 SZ I        1835  1.20        27.6 0.22            171           24.8 195 
 BRR  HZ EP       1834 47.60                             152    0.3210 72.7 297 
 BRR  HN ES       1835  4.34                             152    0.5810 72.7 297 
 BRR  HZ I        1835  4.91        18.4 0.28            151           72.7 297 
 PAM  SZ EP       1834 48.54                             151    0.4010 75.2  39 
 PAM  SE ES       1835  5.49                             151    0.2010 75.2  39 
 PAM  SZ I        1835  7.79        29.5 0.58            152           75.2  39 
 RUS  HZ EP       1834 50.15                             143    0.2810  101 177 
 RUS  HN ES       1835  7.79                             143   -0.5810  101 177 
 RUS  HZ I        1835  8.37         7.9 0.44            145            101 177 
 PTB  HZ EP       1834 53.31                             131    0.06 9  150 259 
 PTB  HN ES       1835 14.02                             131   -0.37 9  150 259 
 PTB  HZ I        1835 15.93        19.4 0.14            132            150 259 
 OCA  HE ES       1835 15.72                             129   -0.57 9  160 352 
 ZAR  HZ EP       1834 58.64                             122   -0.06 8  206 292 
 ZAR  HN ES       1835 24.58                             122    0.48 8  206 292 
 ZAR  HZ I        1835 29.34        13.9 0.52            122            206 292 
 SML  HZ EP       1835  2.40                             117   -0.32 8  244 335 
 SML  HE ES       1835 30.72                             117   -0.53 8  244 335 
                                                                                
