 2011  320 1735  9.5 L   6.804 -73.151144.0  RSN  4 0.1 1.6LRSN                1
 GAP=158        0.35       2.8     5.7  4.1 -0.1191E+02  0.1023E+02 -0.3653E+01E
 Epicentro: LOS SANTOS - SANTANDER                                             3
 ACTION:UP  11-06-16 14:34 OP:jfem STATUS:               ID:20110320173509 L   I
 2011-03-20-1730-29S.COL___132                                                 6
 STAT SP IPHASW D HRMM SECON CODA AMPLIT PERI AZIMU VELO SNR AR TRES W  DIS CAZ7
 BAR2 SZ EP   1   1735 28.89                             170    -0.1 8   24 189 
 BAR2 SZ ES   1   1735 44.01                             170    -0.1 8   24 189 
 BAR2 SZ I        1735 45.93         7.9 0.30                            24 189 
 RUS  HZ EP   2   1735 33.00                             143    -0.2 5  101 176 
 RUS  HN ES   2   1735 51.86                             143     0.3 5  101 176 
 RUS  HZ I        1735 53.96         5.6 0.51                           101 176 
 GRA  SZ EP       1735 34.59                             137     0.010  126  18 
 GRA  SZ ES       1735 54.24                             137     0.110  126  18 
 GRA  SZ I        1735 55.51         5.8 0.30                           126  18 
 NOR  SZ EP   1   1735 45.27                             118     0.1 6  235 234 
 NOR  SE ES   2   1736 12.96                             118     0.0 4  235 234 
                                                                                
