 2013  320 1102 55.0 L   6.586 -73.467117.5  RSN  9 0.5 2.3LRSN                1
 GAP=108        1.09       4.6     4.9  7.3  0.5248E+01  0.1703E+02 -0.1345E+01E
 Epicentro: EL CARMEN DE CHUCURI - SANTANDER                                   3
 ACTION:UPD 13-04-09 14:03 OP:ep   STATUS:               ID:20130320110255 L   I
 2013-03-20-1100-00M.COL___241                                                 6
 STAT SP IPHASW D HRMM SECON CODA AMPLIT PERI AZIMU VELO AIN AR TRES W  DIS CAZ7
 BAR2 SZ EP       11 3 11.88                             164    0.4410 31.5  89 
 BAR2 SZ ES       11 3 24.35                             164    0.0510 31.5  89 
 BAR2 SZ I        11 3 25.35       181.7 0.42            168           31.5  89 
 BRR  HZ EP     C 11 3 12.49                             149   -0.1510 63.6 335 
 BRR  HN ES       11 3 26.24                             149   -0.2010 63.6 335 
 BRR  HN I        11 3 26.79        56.6 0.24            147           63.6 335 
 RUS  HZ EP       11 3 15.35                             141    0.3310 87.7 151 
 RUS  HN ES       11 3 30.40                             141   -0.2710 87.7 151 
 RUS  HN I        11 3 32.05        23.2 0.16            145           87.7 151 
 PTB  HZ EP     C 11 3 15.01                             134   -1.1510  109 267 
 PTB  HN ES   4   11 3 30.36                             134   -2.34 0  109 267 
 PTB  HN I        11 3 36.29        37.1 0.36            133            109 267 
 PAM  SZ EP       11 3 17.90                             131    0.2610  119  45 
 PAM  SN ES   2   11 3 35.01                             131   -0.33 5  119  45 
 PAM  SN I        11 3 38.00        11.1 0.22            133            119  45 
 ZAR  HZ EP       11 3 23.69                             118    0.20 9  183 303 
 ZAR  HN ES   1   11 3 46.56                             118    0.82 7  183 303 
 ZAR  HN I        11 3 49.93        29.3 0.46            118            183 303 
 HEL  HZ EP       11 3 29.99                             112    0.65 8  232 259 
 HEL  HN ES   1   11 3 56.44                             112    0.29 6  232 259 
 HEL  HN I        11 4  1.22        11.8 0.54            113            232 259 
 SML  HZ EP   1   11 3 30.86                             110   -0.46 6  254 345 
 SML  HN ES   1   11 3 59.64                             110   -0.05 6  254 345 
 SML  HN I        11 4  7.50        33.9 0.10            110            254 345 
 URE  HZ EP   1   11 3 31.89                             109   -0.40 6  262 300 
                                                                                
