 2014 1020 1146 22.4 L   6.778 -73.126150.0  RSN 18 0.5 2.2LRSN                1
 GAP=140        1.06       2.8     4.5  5.9 -0.8862E+00  0.6970E+01  0.3336E+01E
 Epicentro: LOS SANTOS - SANTANDER                                             3
 ACTION:UPD 14-11-29 23:51 OP:nd   STATUS:               ID:20141020114622 L   I
 OLDACT:REG 14-10-20 23:29 OP:spq  STATUS:               ID:20141020113748     3
 2014-10-20-1137-48M.COL___271                                                 6
 STAT SP IPHASW D HRMM SECON CODA AMPLIT PERI AZIMU VELO AIN AR TRES W  DIS CAZ7
 BAR2 SZ EP       1146 42.61                             171    0.0810 21.5 197 
 BAR2 SZ ES   1   1146 58.53                             171    0.32 7 21.5 197 
 BAR2 SZ I        1147  0.34        22.4 0.28            168           21.5 197 
 BRR  HZ EP       1146 44.54                             152    0.3310 74.2 299 
 BRR  HE ES       1147  1.49                             152    0.3010 74.2 299 
 BRR  HZ I        1147  6.80        15.0 0.12            150           74.2 299 
 PAM  SZ EP       1146 45.41                             151    0.2810 77.9  37 
 PAM  SN ES       1147  2.49                             151   -0.3410 77.9  37 
 PAM  SZ I        1147  4.76        24.2 0.48            156           77.9  37 
 RUS  HZ EP       1146 46.62                             145    0.2010 98.0 177 
 RUS  HE ES       1147  4.58                             145   -0.5510 98.0 177 
 RUS  HZ I        1147  8.49        10.0 0.22            147           98.0 177 
 PTB  HZ EP       1146 49.40                             132   -0.49 9  149 260 
 PTB  HN ES       1147 10.67                             132   -0.65 9  149 260 
 PTB  HZ I        1147 16.55        21.9 0.42            132            149 260 
 OCA  HN ES       1147 13.74                             130   -0.11 9  163 352 
 OCA  HZ I        1147 21.22        11.7 0.22            132            163 352 
 SPBC HZ EP   1   1146 51.34                             130    0.13 7  163 220 
 SPBC HN ES       1147 14.42                             130    0.77 9  163 220 
 SPBC HZ I        1147 18.65        23.8 0.18            130            163 220 
 ZAR  HE ES       1147 21.13                             123   -0.08 8  207 293 
 ZAR  HZ I        1147 27.13        19.4 0.60            123            207 293 
 CHI  HZ EP       1147  0.53                             118    0.36 8  247 196 
 CHI  HN ES       1147 29.58                             118   -0.04 8  247 196 
 CHI  HZ I        1147 34.07         5.9 0.36            120            247 196 
 SML  HZ EP   1   1146 58.99                             118   -0.64 6  247 335 
 SML  HE ES       1147 28.71                             118    0.07 8  247 335 
 SML  HZ I        1147 33.94        24.7 0.10            120            247 335 
 HEL  HZ EP   1   1147  4.32                             115    1.30 6  274 256 
 HEL  HN ES   4   1147 34.97                             115    0.28 0  274 256 
 HEL  HZ I        1147 41.32         7.3 0.36            116            274 256 
 URE  HN ES   4   1147 33.39                             114   -3.09 0  287 292 
 URE  HZ I        1147 34.74         5.9 0.12            115            287 292 
 RREF HZ EP   4   1147  5.64                             111   -3.12 0  322 230 
 RREF HN ES   4   1147 42.22                             111   -2.69 0  322 230 
 RREF HZ I        1147 50.24         7.7 0.46            113            322 230 
 CBOC HZ EP       1147 10.36                             110    0.69 7  335 253 
 CBOC HE ES   4   1147 44.53                             110   -1.99 0  335 253 
 CBOC HZ I        1147 53.02         2.5 0.42            111            335 253 
 TOL  SZ EP       1147  9.73                             110   -1.10 7  343 225 
 TOL  SN ES   4   1147 50.21                             110    1.62 0  343 225 
 TOL  SZ I        1147 56.55        17.9 0.40            111            343 225 
 MON  HZ EP   4   1147  9.29                             109   -2.67 0  357 308 
 MON  HE ES   4   1147 48.01                             109   -2.59 0  357 308 
 MON  HZ I        1147 51.02         3.7 0.40            110            357 308 
 PRA  HZ EP   4   1147 14.70                             107   -1.28 0  391 210 
 PRA  HE ES       1147 57.77                             107    0.03 6  391 210 
 PRA  HZ I        1148  3.94         7.8 0.64            109            391 210 
 ORTC HZ EP   1   1147 15.86                             107   -0.56 4  395 217 
 ORTC HE ES       1147 57.91                             107   -0.62 6  395 217 
 ORTC HZ I        1148  7.24         5.0 0.24            108            395 217 
                                                                                
