 2015  820 1826 24.2 L   6.784 -73.131141.6  RSN 13 0.5 2.4LRSN                1
 GAP=139        1.04       3.7     4.1  5.7 -0.2229E+01  0.1102E+02  0.1608E+01E
 Epicentro: LOS SANTOS - SANTANDER                                             3
 ACTION:UPD 15-09-15 23:03 OP:cam  STATUS:               ID:20150820182624 L   I
 OLDACT:UP  15-08-21 02:39 OP:ar   STATUS:               ID:20150820181749     3
 OLDACT:REG 15-08-20 22:11 OP:ar   STATUS:               ID:20150820181749     3
 2015-08-20-1817-49M.COL___340                                                 6
 STAT SP IPHASW D HRMM SECON CODA AMPLIT PERI AZIMU VELO AIN AR TRES W  DIS CAZ7
 BAR2 EZ EP       1826 43.08                             171   -0.2310 22.0 195 
 BAR2 EZ ES       1826 57.83                             171   -0.3810 22.0 195 
 BAR2 EZ I        1826 59.06        77.9 0.10            168           22.0 195 
 BRR  HZ EP       1826 45.15                             151    0.1110 73.5 299 
 BRR  HN ES       1827  1.91                             151    0.6210 73.5 299 
 BRR  HZ I        1827  2.26        47.8 0.32            150           73.5 299 
 PAM  EZ EP       1826 46.03                             150    0.0210 77.7  38 
 PAM  EN ES       1827  2.77                             150   -0.2310 77.7  38 
 PAM  EZ I        1827  4.63        27.8 0.22            154           77.7  38 
 RUS  HZ EP       1826 47.10                             144   -0.3210 98.7 177 
 RUS  HE ES       1827  5.93                             144    0.4110 98.7 177 
 RUS  HZ I        1827  6.56        21.8 0.24            143           98.7 177 
 SPBC HZ EP       1826 52.00                             128   -0.36 9  163 220 
 SPBC HN ES       1827 14.80                             128    0.48 9  163 220 
 SPBC HZ I        1827 17.16        34.3 0.22            128            163 220 
 ZAR  HZ EP       1826 57.15                             121    0.53 8  206 292 
 ZAR  HN ES       1827 21.60                             121   -0.29 8  206 292 
 ZAR  HZ I        1827 27.39        26.8 0.28            121            206 292 
 NOR  HZ EP       1826 59.37                             118   -0.37 8  235 235 
 NOR  HE ES       1827 27.03                             118   -0.42 8  235 235 
 NOR  HZ I        1827 30.14        19.5 0.20            118            235 235 
 ROSC BN ES   4   1827 36.33                             116    4.79 0  252 212 
 ROSC BZ I        1827 38.56        19.9 0.45            116            252 212 
 HEL  HZ EP       1827  5.26                             114    0.91 8  273 256 
 HEL  HN ES       1827 35.34                             114   -0.31 8  273 256 
 HEL  HZ I        1827 41.78        11.5 0.52            114            273 256 
 URE  HZ EP       1827  4.59                             113   -0.74 7  286 292 
 URE  HN ES   4   1827 34.92                             113   -2.48 0  286 292 
 URE  HZ I        1827 39.33        16.8 0.14            113            286 292 
 GUY2CHZ EP       1827  8.17                             111    0.50 7  302 235 
 GUY2CHN ES       1827 41.44                             111   -0.12 7  302 235 
 GUY2CHZ I        1827 49.60        14.3 0.54                           302 235 
 DBB  SZ EP   2   1827 12.01                             109    0.28 3  341 275 
 DBB  SZ ES       1827 48.95                             109    0.16 7  341 275 
 TOL  SZ EP       1827 13.17                             109    0.88 7  343 225 
 TOL  SN ES       1827 48.92                             109   -0.87 7  343 225 
 TOL  SZ I        1827 59.33         8.3 0.68            109            343 225 
                                                                                
