 2011  820 1108  0.3 L   6.757 -73.102138.9  RSN  5 0.3 1.8LRSN                1
 GAP=187        0.53       3.7     4.9  4.9  0.3199E+00  0.1525E+01  0.8495E+00E
 Epicentro: LOS SANTOS - SANTANDER                                             3
 ACTION:UPD 12-07-13 15:52 OP:ep   STATUS:               ID:20110820110800 L   I
 2011-08-20-1100-00M.COL___155                                                 6
 STAT SP IPHASW D HRMM SECON CODA AMPLIT PERI AZIMU VELO AIN AR TRES W  DIS CAZ7
 BAR2 SZ EP   1   11 8 18.94                             171   -0.11 7 20.3 206 
 BAR2 SZ I        11 8 19.44        14.7 0.08                          20.3 206 
 BAR2 SZ ES   1   11 8 33.51                             171   -0.16 7 20.3 206 
 BRR  HZ EP   1   11 8 20.86                             149   -0.25 7 77.7 300 
 BRR  HZ I        11 8 21.18        17.7 0.18                          77.7 300 
 BRR  HN ES   1   11 8 37.36                             149    0.02 7 77.7 300 
 RUS  HZ EP       11 8 23.07                             144    0.0510 95.7 179 
 RUS  HZ I        11 8 24.34         5.7 0.13                          95.7 179 
 RUS  HN ES   2   11 8 41.10                             144    0.35 5 95.7 179 
 OCA  SZ EP   1   11 8 29.02                             127    0.42 7  166 352 
 NOR  SZ EP   1   11 8 35.33                             117   -0.46 6  236 236 
 NOR  SN ES   1   11 9  3.81                             117    0.35 6  236 236 
                                                                                
