 2011  520 1142 22.5 L   6.752 -73.091138.8  RSN  8 0.3 1.5LRSN                1
 GAP=146        0.69       5.2     6.9  6.1 -0.3426E+01 -0.1417E+02 -0.9218E+01E
 Epicentro: LOS SANTOS - SANTANDER                                             3
 ACTION:UP  11-06-29 08:54 OP:tino STATUS:               ID:20110520114222 L   I
 2011-05-20-1138-34S.COL___140                                                 6
 STAT SP IPHASW D HRMM SECON CODA AMPLIT PERI AZIMU VELO SNR AR TRES W  DIS CAZ7
 BAR2 SZ EP       1142 41.18                             171    -0.110   20 210 
 BAR2 SZ ES   1   1142 55.52                             171    -0.4 7   20 210 
 BAR2 SZ I        1142 57.03         6.7 0.49                            20 210 
 BTL  SZ EP       1142 41.69                             169     0.310   27 313 
 BTL  SZ ES   1   1142 56.11                             169     0.0 7   27 313 
 GIR2 SZ EP       1142 41.31                             164    -0.310   38 343 
 PAM  SZ EP       1142 44.16                             149     0.110   78  34 
 PAM  SN ES   2   1143  0.86                             149     0.0 5   78  34 
 BRR  HZ EP       1142 43.13                             149    -0.310   79 300 
 BRR  HZ I        1142 43.68        10.1 0.17                            79 300 
 BRR  HN ES   1   1143  0.06                             149     0.4 7   79 300 
 RUS  HZ EP   2   1142 45.44                             144     0.2 5   95 179 
 RUS  HN ES   2   1143  3.19                             144     0.3 5   95 179 
 RUS  HZ I        1143  4.76         2.8 0.27                            95 179 
 BRI  SZ EP       1142 46.36                             139     0.310  112  17 
 GRA  SZ EP       1142 47.24                             134    -0.210  129  14 
 GRA  SZ I        1143  7.81         4.3 0.15                           129  14 
                                                                                
