 2017 1120 1927 41.2 L   6.366 -73.592112.2  RSN 14 0.5 2.1LRSN                1
 GAP= 66        1.05       2.6     2.5  5.3 -0.1560E+00  0.1941E+01  0.2517E+00E
 Epicentro: SANTA HELENA DEL OPON - SANTANDER                                  3
 ACTION:UPD 17-12-12 19:57 OP:rebc STATUS:               ID:20171120192741 L   I
 OLDACT:UP  17-11-21 01:27 OP:dhb  STATUS:               ID:20171120190602     3
 OLDACT:UP  17-11-21 01:23 OP:dhb  STATUS:               ID:20171120190602     3
 OLDACT:REG 17-11-20 22:05 OP:dani STATUS:               ID:20171120190602     3
 2017-11-20-1918-00M.COL___468                                                 6
 STAT SP IPHASW D HRMM SECON CODA AMPLIT PERI AZIMU VELO AIN AR TRES W  DIS CAZ7
 BAR2 EZ IP     D 1927 58.39                             153    0.3710 51.8  61 
 BAR2 EZ ES       1928 11.27                             153    0.1710 51.8  61 
 BAR2 EZ I        1928 12.83        79.2 0.40            156           51.8  61 
 RUS  HZ EP       1927 59.68                             143   -0.3110 76.9 133 
 RUS  HN ES       1928 13.81                             143   -0.7910 76.9 133 
 RUS  HZ I        1928 16.58        22.1 0.30            146           76.9 133 
 SPBC HZ EP       1928  0.78                             136   -0.0810 95.1 214 
 SPBC HE ES       1928 16.29                             136    0.1310 95.1 214 
 SPBC HZ I        1928 22.86        27.7 0.22            137           95.1 214 
 PTB  HZ EP       1928  0.15                             136   -0.8110 97.5 281 
 PTB  HN ES       1928 16.21                             136   -0.1310 97.5 281 
 PTB  HZ I        1928 17.65        27.3 0.22            136           97.5 281 
 PAM  EZ IP     D 1928  6.59                             123    0.43 9  146  42 
 PAM  EN ES       1928 26.20                             123    0.61 9  146  42 
 PAM  EZ I        1928 27.95        13.8 0.34            126            146  42 
 NOR  HZ EP       1928  7.64                             119   -0.12 9  167 238 
 NOR  HE ES       1928 28.28                             119   -0.17 9  167 238 
 NOR  HZ I        1928 30.05        17.6 0.22            120            167 238 
 YPLC HZ EP       1928  8.41                             118    0.11 9  172 129 
 YPLC HN ES       1928 29.30                             118   -0.10 9  172 129 
 YPLC HZ I        1928 31.01        32.8 0.28            121            172 129 
 ZAR  HZ EP       1928 10.07                             116    0.16 9  187 312 
 ZAR  HN ES       1928 32.84                             116    0.57 9  187 312 
 ZAR  HZ I        1928 37.07        28.0 0.32            117            187 312 
 CHI  HZ EP       1928 10.98                             115   -0.03 9  193 185 
 CHI  HE ES       1928 34.77                             115    0.56 9  193 185 
 CHI  HZ I        1928 38.21         4.8 0.22            117            193 185 
 TAM  HZ EP       1928 11.23                             114   -0.05 9  199  88 
 TAM  HE ES   3   1928 32.52                             114   -2.18 2  199  88 
 TAM  HZ I        1928 33.49        18.3 0.28            116            199  88 
 GUY2CHZ EP       1928 16.06                             110    0.40 8  233 237 
 GUY2CHE ES   4   1928 46.17                             110    3.66 0  233 237 
 GUY2CHZ I        1928 48.13         5.8 0.26                           233 237 
 URE  HZ EP   9   1928 17.23                             107   -1.33 0  264 306 
 URE  HN ES       1928 45.57                             108   -0.76 8  264 306 
 URE  HZ I        1928 48.37        26.8 0.14            109            264 306 
 PRA  HZ EP       1928 25.90                             103   -0.09 7  326 206 
 PRA  HE ES       1929  1.27                             103    0.39 7  326 206 
 PRA  HZ I        1929  6.20         9.1 0.22            104            326 206 
 SJC  HZ EP       1928 37.76                              98   -0.41 5  428 336 
 SJC  HN ES       1929 21.41                              98   -1.15 5  428 336 
 SJC  HZ I        1929 37.04         2.4 0.36             99            428 336 
                                                                                
