 2013  320 1831 25.1 L   6.794 -73.175146.0  RSN  9 0.4 2.4LRSN                1
 GAP=133        0.82       3.4     4.0  6.7 -0.9976E+00  0.7115E+01  0.2403E+01E
 Epicentro: LOS SANTOS - SANTANDER                                             3
 ACTION:UPD 13-04-09 14:03 OP:ep   STATUS:               ID:20130320183125 L   I
 2013-03-20-1830-00M.COL___241                                                 6
 STAT SP IPHASW D HRMM SECON CODA AMPLIT PERI AZIMU VELO AIN AR TRES W  DIS CAZ7
 BAR2 SZ EP       1831 44.78                             171    0.0210 22.3 182 
 BAR2 SZ ES   1   1831 59.41                             171   -0.67 7 22.3 182 
 BAR2 SZ I        1832  0.87        38.2 0.24            170           22.3 182 
 BRR  HZ EP       1831 46.59                             153    0.4310 68.7 300 
 BRR  HN ES   2   1832  3.55                             153    0.98 5 68.7 300 
 BRR  HN I        1832  4.28        74.6 0.24            149           68.7 300 
 PAM  SZ EP     D 1831 47.81                             150    0.2910 80.0  41 
 PAM  SN ES   1   1832  4.93                             150   -0.05 7 80.0  41 
 RUS  HZ EP       1831 48.75                             144   -0.1210  100 174 
 RUS  HN ES   1   1832  7.52                             144    0.13 7  100 174 
 PTB  HZ EP       1831 51.39                             133   -0.42 9  144 259 
 PTB  HN ES   1   1832 12.38                             133   -0.25 7  144 259 
 PTB  HN I        1832 14.26        17.3 0.22            130            144 259 
 ZAR  HN ES   1   1832 22.50                             123    0.09 6  201 293 
 ZAR  HN I        1832 27.74        22.2 0.56            121            201 293 
 NOR  HZ EP   1   1832  1.09                             119    0.55 6  232 234 
 NOR  HN ES       1832 28.41                             119    0.24 8  232 234 
 NOR  HN I        1832 35.18        13.5 0.14            117            232 234 
 SML  HN ES   1   1832 29.42                             117   -0.78 6  243 336 
 SML  HN I        1832 36.32        30.1 0.10            116            243 336 
 CHI  HZ EP   1   1832  2.26                             117   -0.41 6  247 194 
 CHI  HN ES   1   1832 31.90                             117   -0.06 6  247 194 
 CHI  HN I        1832 34.72        13.0 0.40            117            247 194 
                                                                                
