 2013  220 1108  7.7 L   6.810 -73.159148.0  RSN  5 0.2 1.4LRSN                1
 GAP=243        0.39       3.5     3.5  4.2  0.6892E+01  0.3647E+01  0.2503E+01E
 Epicentro: LOS SANTOS - SANTANDER                                             3
 ACTION:UPD 13-03-12 09:34 OP:ep   STATUS:               ID:20130220110807 L   I
 2013-02-20-1100-00M.COL___241                                                 6
 STAT SP IPHASW D HRMM SECON CODA AMPLIT PERI AZIMU VELO AIN AR TRES W  DIS CAZ7
 BAR2 SZ EP   1   11 8 27.73                             170    0.08 7 24.3 186 
 BAR2 SZ ES   1   11 8 43.29                             170    0.10 7 24.3 186 
 BAR2 SZ I        11 8 44.82         8.2 0.35            167           24.3 186 
 RUS  HZ EP   1   11 8 31.56                             144   -0.23 7  102 175 
 RUS  HN ES   1   11 8 50.53                             144   -0.03 7  102 175 
 RUS  HZ I        11 8 51.52         3.1 0.22            144            102 175 
 PTB  HZ EP   1   11 8 34.62                             133   -0.15 7  147 258 
 PTB  HN ES   1   11 8 55.65                             133   -0.22 7  147 258 
 PTB  HZ I        11 8 58.02         4.7 0.16            130            147 258 
 ZAR  HN ES   1   11 9  5.65                             123    0.23 6  202 292 
 ZAR  HZ I        11 9 12.07         2.7 0.32            122            202 292 
 CHI  HZ EP   1   11 8 45.82                             118    0.19 6  249 195 
 CHI  HN ES   1   11 9 15.38                             118    0.19 6  249 195 
 CHI  HZ I        11 9 19.77         1.2 0.44            117            249 195 
                                                                                
