 2012  720 1036 30.4 L   6.792 -73.114148.6  RSN 10 0.5 2.1LRSN                1
 GAP=141        0.95       4.1     5.2  7.3 -0.3007E+01  0.1161E+02  0.4544E+01E
 Epicentro: LOS SANTOS - SANTANDER                                             3
 ACTION:UPD 12-08-14 11:46 OP:ep   STATUS:               ID:20120720103630 L   I
 2012-07-20-1030-00M.COL___215                                                 6
 STAT SP IPHASW D HRMM SECON CODA AMPLIT PERI AZIMU VELO AIN AR TRES W  DIS CAZ7
 BAR2 SZ IP       1036 50.33                             171    -0.110   23 199 
 BAR2 SZ ES   1   1037  5.26                             171    -0.7 7   23 199 
 BAR2 SZ I        1037  6.65        41.8 0.22            168             23 199 
 BRR  HZ EP       1036 52.17                             152     0.110   75 298 
 BRR  HN ES   1   1037  9.04                             152     0.1 7   75 298 
 BRR  HZ I        1037 11.59        24.4 0.27            150             75 298 
 PAM  SZ EP   1   1036 53.17                             152     0.3 7   76  37 
 PAM  SN ES       1037 10.44                             152     0.110   76  37 
 RUS  HZ EP   1   1036 54.40                             145     0.0 7  100 178 
 RUS  HN ES   1   1037 13.04                             145     0.0 7  100 178 
 RUS  HZ I        1037 14.35        11.1 0.20            144            100 178 
 PTB  HZ EP   1   1036 57.04                             132    -0.9 7  151 259 
 PTB  HN ES   2   1037 19.61                             132     0.3 5  151 259 
 OCA  HZ EP   1   1036 58.56                             130    -0.5 7  162 352 
 OCA  HN ES   1   1037 22.11                             130     0.7 7  162 352 
 OCA  HZ I        1037 23.50        39.9 0.21            131            162 352 
 ZAR  HN ES   1   1037 28.86                             122    -0.3 6  208 292 
 ZAR  HZ I        1037 34.52        11.3 0.24            122            208 292 
 NOR  SZ EP   1   1037  6.08                             119    -0.5 6  237 235 
 NOR  SN ES   1   1037 35.55                             119     0.8 6  237 235 
 CHI  HZ EP   1   1037  8.65                             118     0.4 6  249 196 
 CHI  HN ES   2   1037 38.73                             118     0.9 4  249 196 
 CHI  HZ I        1037 45.53         6.0 0.51            118            249 196 
 HEL  HN ES   2   1037 43.20                             115     0.3 4  275 256 
