 2013  720 1758 43.8 L   6.819 -73.439117.5  RSN  5 0.5 1.4LRSN                1
 GAP=116        1.15       6.7     6.4  9.8  0.1836E+02  0.2636E+01  0.1950E+01E
 Epicentro: SAN VICENTE DE CHUCURI - SANTANDER                                 3
 ACTION:UPD 13-08-12 10:39 OP:ep   STATUS:               ID:20130720175843 L   I
 OLDACT:REG 13-07-20 15:55 OP:nd   STATUS:               ID:20130720174959     3
 2013-07-20-1749-59M.COL___265                                                 6
 STAT SP IPHASW D HRMM SECON CODA AMPLIT PERI AZIMU VELO AIN AR TRES W  DIS CAZ7
 GIR2 SZ IP     C 1758 59.75                             160   -0.6510 39.5  43 
 GIR2 SZ I        1759 13.40         5.5 0.46            152           39.5  43 
 BRR  HZ IP     C 1759  0.18                             158   -0.2010 43.9 317 
 BRR  HN ES       1759 13.68                             158    0.3410 43.9 317 
 BRR  HZ I        1759 13.72         5.8 0.30            154           43.9 317 
 RUS  HZ EP       1759  5.79                             134    0.1610  110 159 
 RUS  HN ES       1759 23.02                             134    0.3310  110 159 
 RUS  HZ I        1759 24.39         2.8 0.38            133            110 159 
 PTB  HZ IP     C 1759  5.17                             132   -0.4310  117 255 
 PTB  HN ES       1759 22.25                             132   -0.3810  117 255 
 PTB  HZ I        1759 26.47         9.9 0.27            132            117 255 
 ZAR  HZ EP       1759 12.12                             120    0.89 9  174 296 
 ZAR  HE ES   2   1759 33.11                             120    0.45 4  174 296 
 ZAR  HZ I        1759 37.21         7.0 0.48            117            174 296 
                                                                                
