 2011  720 1435 22.7 L   6.834 -73.324117.0  RSN  5 0.2 1.7LRSN                1
 GAP=139        0.38       2.9     6.2  4.6  0.5627E+01 -0.7230E+01 -0.3981E+01E
 Epicentro: ZAPATOCA - SANTANDER                                               3
 ACTION:UPD 12-07-25 14:02 OP:epov STATUS:               ID:20110720143522 L   I
 2011-07-20-1431-40S.COL___143                                                 6
 STAT SP IPHASW D HRMM SECON CODA AMPLIT PERI AZIMU VELO AIN AR TRES W  DIS CAZ7
 BAR2 SZ EP   1   1435 39.02                             164   -0.12 7 31.0 150 
 BAR2 SZ I        1435 39.11        28.5 0.09                          31.0 150 
 BAR2 SZ ES   1   1435 51.74                             164   -0.20 7 31.0 150 
 BRR  HZ EP   2   1435 39.50                             154   -0.22 5 52.5 305 
 BRR  HN ES   2   1435 53.24                             154    0.27 5 52.5 305 
 BRR  HZ I        1435 57.85        29.4 0.10                          52.5 305 
 PAM  SN ES   3   1435 58.50                             141    0.01 2 88.7  51 
 RUS  HZ EP   1   1435 44.32                             135   -0.04 7  107 166 
 RUS  HN ES   1   1436  1.45                             135    0.21 7  107 166 
 RUS  HZ I        1436  2.64         3.8 0.25                           107 166 
 GRA  SZ EP   1   1435 46.05                             129    0.13 7  130  26 
 GRA  SZ I        1436 10.38         3.9 0.41                           130  26 
                                                                                
