 2011  920 1403 54.8 L   6.773 -73.127147.2  RSN  9 0.4 2.3LRSN                1
 GAP=140        0.67       3.2     4.4  5.7  0.4784E+00  0.4607E+01  0.2281E+01E
 Epicentro: LOS SANTOS - SANTANDER                                             3
 ACTION:UPD 12-07-13 15:58 OP:ep   STATUS:               ID:20110920140354 L   I
 2011-09-20-1402-26S.COL___165                                                 6
 STAT SP IPHASW D HRMM SECON CODA AMPLIT PERI AZIMU VELO AIN AR TRES W  DIS CAZ7
 BAR2 SZ EP       14 4 14.35                             172   -0.1710 20.9 197 
 BAR2 SZ ES   2   14 4 29.49                             172   -0.44 5 20.9 197 
 BAR2 SZ I        14 4 34.04        46.1 0.74                          20.9 197 
 BTL  SZ EP       14 4 14.77                             171    0.2210 22.3 316 
 BRR  HZ EP       14 4 16.18                             152   -0.0710 74.4 300 
 BRR  HZ I        14 4 16.41        83.4 0.16                          74.4 300 
 BRR  HE ES   1   14 4 33.59                             152    0.58 7 74.4 300 
 PAM  SZ EP       14 4 17.14                             151   -0.0610 78.4  37 
 RUS  HZ EP       14 4 18.60                             145    0.1610 97.5 177 
 RUS  HN ES   1   14 4 36.84                             145   -0.06 7 97.5 177 
 OCA  SZ EP   3   14 4 23.79                             129    0.30 2  163 353 
 OCA  SZ ES   2   14 4 44.90                             129   -0.99 5  163 353 
 OCA  SZ I        14 4 54.59        20.7 0.33                           163 353 
 ZAR  HZ EP       14 4 28.06                             122    0.44 8  207 293 
 ZAR  HE ES   2   14 4 52.58                             122   -0.66 4  207 293 
 ZAR  HZ I        14 4 59.45        20.5 0.24                           207 293 
 NOR  SZ EP       14 4 30.27                             119   -0.31 8  235 235 
 NOR  SN ES   1   14 4 58.14                             119   -0.37 6  235 235 
 CHI  HZ EP       14 4 32.29                             118    0.00 8  246 196 
 CHI  HZ I        14 4 34.39         6.4 0.16                           246 196 
 CHI  HN ES   2   14 5  1.97                             118    0.40 4  246 196 
                                                                                
