 2016  420 1246  6.0 L   6.775 -73.159139.6  RSN  9 0.4 2.0LRSN                1
 GAP=136        0.67       3.8     3.1  5.3 -0.1936E+01  0.5380E+01  0.1345E+01E
 Epicentro: LOS SANTOS - SANTANDER                                             3
 ACTION:UPD 16-05-05 14:22 OP:rebc STATUS:               ID:20160420124606 L   I
 OLDACT:ARG 16-04-20 21:02 OP:ar   STATUS:               ID:20160420123745     3
 2016-04-20-1237-45M.COL___309                                                 6
 STAT SP IPHASW D HRMM SECON CODA AMPLIT PERI AZIMU VELO AIN AR TRES W  DIS CAZ7
 BAR2 EZ EP       1246 24.89                             171    0.1110 20.4 187 
 BAR2 EZ ES       1246 39.29                             171   -0.1710 20.4 187 
 BAR2 EZ I        1246 41.11        19.7 0.24            164           20.4 187 
 PAM  EZ EP       1246 27.48                             149   -0.2210 80.5  39 
 PAM  EN ES       1246 44.74                             149    0.0710 80.5  39 
 PAM  EZ I        1246 46.48        14.5 0.28            141           80.5  39 
 RUS  HZ EP       1246 29.26                             143    0.3610 97.9 175 
 RUS  HE ES   2   1246 47.26                             143    0.46 5 97.9 175 
 RUS  HZ I        1246 49.68         8.6 0.25            131           97.9 175 
 PTB  HZ EP       1246 31.73                             131   -0.51 9  146 260 
 PTB  HN ES       1246 53.04                             131    0.29 9  146 260 
 PTB  HZ I        1246 54.86        16.6 0.12            120            146 260 
 SPBC HZ EP   2   1246 33.13                             128   -0.56 5  160 219 
 SPBC HN ES   2   1246 55.25                             128   -0.07 5  160 219 
 SPBC HZ I        1247  1.52        16.8 0.10            117            160 219 
 ZAR  HZ EP   2   1246 38.28                             121    0.31 4  204 293 
 ZAR  HN ES       1247  3.00                             121    0.05 9  204 293 
 ZAR  HZ I        1247  8.55        21.5 0.34            112            204 293 
 NOR  HZ EP   2   1246 41.11                             117    0.08 4  232 235 
 NOR  HN ES   2   1247  7.48                             117   -0.90 4  232 235 
 NOR  HZ I        1247 14.62        10.8 0.24            109            232 235 
 GUY2CHZ EP   4   1246 49.92                             111    0.96 0  298 235 
 GUY2CHN ES   3   1247 22.55                             111    0.04 2  298 235 
 GUY2CHZ I        1247 31.65         4.9 0.54                           298 235 
 CBOC HZ EP   2   1246 53.38                             109    1.02 3  331 252 
 CBOC HZ I        1247 31.37         1.6 0.16            103            331 252 
                                                                                
