 2010  320 1437 38.8 L   6.790 -73.038140.8  RSN  8 0.4 2.1LRSN                1
 GAP=194        0.69       3.8     6.5  5.6  0.1780E+01  0.6537E+01  0.2727E+01E
 Epicentro: CEPITA - SANTANDER                                                 3
 ACTION:UP  10-08-24 09:55 OP:vdl  STATUS:               ID:20100320143738 L   I
 2010-03-20-1434-20S.COL___098                                                 6
 STAT SP IPHASW D HRMM SECON CODA AMPLIT PERI AZIMU VELO SNR AR TRES W  DIS CAZ7
 BAR2 SZ IP       1437 57.84                             169    -0.110   27 216 
 BAR2 SZ ES   1   1438 12.92                             169     0.1 7   27 216 
 BRR  HZ IP       1437 59.73                             148    -0.310   82 295 
 BRR  HE ES   1   1438 16.70                             148     0.0 7   82 295 
 BRR  HZ I        1438 20.77        24.8 0.11                            82 295 
 RUS  HZ EP   1   1438  1.71                             143    -0.2 7   99 183 
 RUS  HZ I        1438  2.52         8.3 0.30                            99 183 
 RUS  HE ES   1   1438 20.24                             143     0.2 7   99 183 
 OCA  SZ EP   1   1438  7.57                             128     0.6 7  163 349 
 OCA  SZ I        1438 31.19        34.6 0.20                           163 349 
 CHI  HZ EP   1   1438 16.34                             116    -0.1 6  251 198 
 CHI  HE ES   2   1438 45.71                             116    -0.1 4  251 198 
 CHI  HZ I        1438 52.72         4.4 0.59                           251 198 
 HEL  HZ EP   2   1438 20.70                             113     0.7 4  283 257 
 HEL  HN ES   2   1438 51.81                             113    -0.3 4  283 257 
 HEL  HZ I        1438 56.91         6.5 0.58                           283 257 
 RREF BZ EP   2   1438 26.09                             109     0.4 3  330 231 
 RREF BE ES   2   1439  2.51                             109     0.3 3  330 231 
 RREF BZ I        1439  6.30         4.3 0.19                           330 231 
 PRA  HZ EP   1   1438 32.04                             105    -0.7 4  397 211 
 PRA  HN ES   1   1439 15.41                             105     0.6 4  397 211 
 PRA  HZ I        1439 18.48         6.0 0.34                           397 211 
                                                                                
