 2012 1220 1735 30.9 L   6.799 -73.152143.1  RSN  8 0.4 2.3LRSN                1
 GAP=184        0.69       4.4     4.6  6.1  0.2524E+01  0.1078E+02  0.6777E+01E
 Epicentro: LOS SANTOS - SANTANDER                                             3
 ACTION:UPD 13-01-04 14:29 OP:ep   STATUS:               ID:20121220173530 L   I
 2012-12-20-1730-00M.COL___242                                                 6
 STAT SP IPHASW D HRMM SECON CODA AMPLIT PERI AZIMU VELO AIN AR TRES W  DIS CAZ7
 BAR2 SZ EP       1735 50.36                             170    0.1110 23.1 188 
 BAR2 SZ ES   1   1736  5.35                             170    0.04 7 23.1 188 
 BAR2 SZ I        1736  7.14        63.2 0.18                          23.1 188 
 GIR2 SZ EP   1   1735 50.49                             167    0.19 7 31.3 351 
 GIR2 SZ ES   1   1736  5.08                             167   -0.32 7 31.3 351 
 GIR2 SZ I        1736  7.91        21.2 0.12                          31.3 351 
 BRR  HZ EP   1   1735 52.35                             152    0.57 7 70.7 299 
 BRR  HN ES   4   1736  9.59                             152    1.56 0 70.7 299 
 BRR  HZ I        1736 13.39        36.2 0.38                          70.7 299 
 RUS  HZ EP   1   1735 54.16                             143   -0.27 7  100 176 
 RUS  HN ES   1   1736 12.92                             143    0.18 7  100 176 
 RUS  HZ I        1736 14.23        17.6 0.26                           100 176 
 PTB  HZ EP   1   1735 56.98                             131   -0.65 7  147 259 
 PTB  HN ES   1   1736 17.91                             131   -0.54 7  147 259 
 PTB  HZ I        1736 21.41        24.3 0.28                           147 259 
 ZAR  HE ES   1   1736 28.62                             122    0.33 6  204 292 
 ZAR  HZ I        1736 33.89        24.4 0.36                           204 292 
 NOR  HZ EP   1   1736  6.37                             118   -0.08 6  234 234 
 NOR  HN ES   1   1736 34.58                             118    0.43 6  234 234 
 NOR  HZ I        1736 41.62        18.3 0.19                           234 234 
 PRA  HZ EP   1   1736 23.91                             106   -0.41 4  392 209 
 PRA  HN ES   1   1737  6.30                             106    0.34 4  392 209 
 PRA  HZ I        1737 12.02        17.5 0.28                           392 209 
                                                                                
