 2013  420 1634  1.1 L   6.742 -73.170139.8  RSN  6 0.5 1.8LRSN                1
 GAP=136        1.28       6.3     6.3  8.4 -0.4384E+01  0.6541E+01  0.6030E+01E
 Epicentro: VILLANUEVA - SANTANDER                                             3
 ACTION:UPD 13-05-22 14:39 OP:EP   STATUS:               ID:20130420163401 L   I
 2013-04-20-1628-39M.COL___218                                                 6
 STAT SP IPHASW D HRMM SECON CODA AMPLIT PERI AZIMU VELO AIN AR TRES W  DIS CAZ7
 BAR2 SZ IP     C 1634 19.90                             173    0.0510 16.7 185 
 BAR2 SZ ES       1634 34.61                             173    0.1010 16.7 185 
 BAR2 SZ I        1634 35.89        12.8 0.28            172           16.7 185 
 GIR2 SZ EP       1634 20.93                             164    0.7210 37.3 356 
 GIR2 SZ ES       1634 34.72                             164   -0.4210 37.3 356 
 BRR  HZ IP     D 1634 21.94                             151    0.3210 72.2 304 
 BRR  HE ES       1634 38.57                             151    0.9110 72.2 304 
 BRR  HN I        1634 43.13        19.1 0.16            151           72.2 304 
 PAM  SZ EP       1634 22.88                             148   -0.1910 84.1  38 
 PAM  SN ES       1634 39.62                             148   -0.6210 84.1  38 
 PAM  SN I        1634 40.58         7.9 0.28            152           84.1  38 
 RUS  HZ EP       1634 23.90                             144    0.1210 94.5 174 
 RUS  HN ES       1634 41.58                             144    0.0710 94.5 174 
 RUS  HN I        1634 44.98         4.4 0.62            146           94.5 174 
 PTB  HZ EP       1634 26.73                             131   -0.47 9  144 261 
 PTB  HN ES       1634 46.86                             131   -0.72 9  144 261 
 PTB  HN I        1634 50.15        26.9 0.22            132            144 261 
                                                                                
