 2011  720 1403 45.5 L   6.765 -73.089148.6  RSN  9 0.3 2.2LRSN                1
 GAP=163        0.51       2.6     4.3  3.8 -0.3543E+01  0.1829E+01  0.3330E+01E
 Epicentro: LOS SANTOS - SANTANDER                                             3
 ACTION:UPD 12-07-25 14:02 OP:epov STATUS:               ID:20110720140345 L   I
 2011-07-20-1400-23S.COL___143                                                 6
 STAT SP IPHASW D HRMM SECON CODA AMPLIT PERI AZIMU VELO AIN AR TRES W  DIS CAZ7
 BAR2 SZ IP       14 4  5.41                             171   -0.0410 21.7 208 
 BAR2 SZ I        14 4  5.67        30.6 0.19                          21.7 208 
 BAR2 SZ ES   1   14 4 20.61                             171   -0.39 7 21.7 208 
 GIR2 SZ ES       14 4 21.53                             165    0.1410 36.6 342 
 BRR  HZ EP   1   14 4  7.25                             151   -0.14 7 78.5 299 
 BRR  HN ES   1   14 4 24.86                             151    0.41 7 78.5 299 
 BRR  HZ I        14 4 26.56        35.7 0.17                          78.5 299 
 RUS  HZ EP   1   14 4  9.26                             146    0.01 7 96.4 180 
 RUS  HN ES   1   14 4 27.94                             146    0.18 7 96.4 180 
 RUS  HZ I        14 4 29.35        14.5 0.25                          96.4 180 
 BRI  SZ EP   1   14 4 10.23                             142    0.44 7  110  17 
 BRI  SZ ES   1   14 4 28.35                             142   -0.39 7  110  17 
 BRI  SZ I        14 4 31.56        16.6 0.21                           110  17 
 OCA  SZ ES   2   14 4 36.75                             129   -0.33 5  165 351 
 OCA  SZ I        14 4 44.86        21.2 0.20                           165 351 
 NOR  SZ EP   1   14 4 21.55                             119   -0.16 6  238 236 
 NOR  SN ES   1   14 4 49.77                             119   -0.18 6  238 236 
 CHI  HZ EP   1   14 4 23.29                             118    0.15 6  247 197 
 CHI  HZ I        14 4 58.76        10.4 0.35                           247 197 
 PRA  HZ EP   1   14 4 39.10                             107    0.00 4  392 211 
 PRA  HN ES   1   14 5 20.74                             107   -0.16 4  392 211 
                                                                                
