 2010 1020 1841 56.8 L   6.776 -73.113140.5  RSN  7 0.4 2.3LRSN                1
 GAP=163        0.91       5.8    11.7  9.0 -0.2189E+02 -0.1145E+02  0.6296E+00E
 Epicentro: LOS SANTOS - SANTANDER                                             3
 ACTION:UP  11-02-18 11:10 OP:tino STATUS:               ID:20101020184156 L   I
 2010-10-20-1840-03S.COL___128                                                 6
 STAT SP IPHASW D HRMM SECON CODA AMPLIT PERI AZIMU VELO SNR AR TRES W  DIS CAZ7
 BAR2 SZ EP   1   1842 15.62                             171    -0.2 7   22 201 
 BAR2 SZ ES   2   1842 30.26                             171    -0.3 5   22 201 
 BAR2 SZ I        1842 31.77        51.6 0.38                            22 201 
 BTL  SZ EP   1   1842 16.09                             170     0.3 7   23 313 
 BTL  SZ ES   2   1842 30.99                             170     0.4 5   23 313 
 BRR  HZ IP     D 1842 17.37                             150    -0.310   76 299 
 BRR  HE ES   2   1842 34.33                             150     0.4 5   76 299 
 BRR  HZ I        1842 35.22        37.0 0.07                            76 299 
 RUS  HZ EP   1   1842 19.62                             143    -0.2 7   98 178 
 RUS  HN ES   2   1842 38.07                             143     0.3 5   98 178 
 RUS  HZ I        1842 39.27        12.1 0.24                            98 178 
 GUE  SZ EP   1   1842 20.58                             138    -0.6 7  118  10 
 GRA  SZ IP     D 1842 22.38                             135     0.710  127  16 
 GRA  SZ I        1842 23.56        17.7 0.38                           127  16 
 GRA  SZ ES   2   1842 40.57                             135    -0.6 5  127  16 
 PRA  HZ EP   1   1842 49.95                             106    -0.2 4  392 210 
 PRA  HE ES   2   1843 32.54                             106     0.9 3  392 210 
 PRA  HZ I        1843 34.83        18.1 0.24                           392 210 
                                                                                
