 2010 1220 1234 50.0 L   6.790 -73.144141.9  RSN 14 0.4 2.5LRSN                1
 GAP=136        0.91       4.5     5.4  7.3 -0.7287E+01  0.1389E+02 -0.4133E+01E
 Epicentro: LOS SANTOS - SANTANDER                                             3
 ACTION:UP  11-01-14 15:26 OP:pat  STATUS:               ID:20101220123450 L   I
 2010-12-20-1234-03S.COL___132                                                 6
 STAT SP IPHASW D HRMM SECON CODA AMPLIT PERI AZIMU VELO SNR AR TRES W  DIS CAZ7
 BAR2 SZ EP       1235  9.03                             171    -0.110   22 191 
 BAR2 SZ ES   1   1235 24.02                             171    -0.1 7   22 191 
 BAR2 SZ I        1235 25.61        69.7 0.12                            22 191 
 RUS  HZ EP   1   1235 12.94                             143    -0.3 7   99 176 
 RUS  HN ES   1   1235 31.43                             143     0.0 7   99 176 
 RUS  HZ I        1235 33.66        23.4 0.29                            99 176 
 GRA  SZ EP   1   1235 15.83                             136     0.9 7  127  17 
 GRA  SZ I        1235 40.03        26.6 0.33                           127  17 
 OCA  SZ EP   1   1235 17.52                             128    -0.6 7  161 353 
 OCA  SZ I        1235 43.95        46.9 0.45                           161 353 
 YOP  SZ EP       1235 19.84                             125     0.2 9  178 153 
 YOP  SZ I        1235 46.27        18.9 0.46                           178 153 
 NOR  SZ EP   1   1235 25.27                             118    -0.2 6  234 235 
 NOR  SE ES   1   1235 52.73                             118    -0.4 6  234 235 
 CHI  HZ EP   1   1235 27.31                             116    -0.1 6  248 195 
 CHI  HN ES   1   1235 56.58                             116     0.1 6  248 195 
 CHI  HZ I        1236  2.85        20.2 0.28                           248 195 
 ROSC BN ES   1   1235 57.81                             116     0.5 6  252 211 
 ROSC BZ I        1236  3.30        36.9 0.29                           252 211 
 HEL  HZ EP   1   1235 30.13                             114     0.1 6  272 256 
 HEL  HN ES   1   1236  1.58                             114     0.4 6  272 256 
 HEL  HZ I        1236  9.26        23.0 0.27                           272 256 
 GUY  SZ EP   1   1235 32.81                             112    -0.6 5  301 235 
 GUY  SZ I        1236 15.31        36.3 0.33                           301 235 
 RREF HN ES   1   1236 12.46                             110     0.8 5  321 230 
 RREF HZ I        1236 20.87        20.6 0.32                           321 230 
 DBB  SZ EP   1   1235 36.83                             109    -0.5 5  340 274 
 TOL  SZ EP   1   1235 38.75                             109     0.7 5  343 225 
 PRA  HZ EP   1   1235 43.20                             106    -0.1 4  391 210 
 PRA  HN ES   1   1236 23.91                             106    -0.9 4  391 210 
                                                                                
