 2013  620 1942 47.3 L   6.780 -73.180154.6  RSN  4 0.1 1.7LRSN                1
 GAP=232        0.45       3.7     3.5  3.6  0.6214E+01  0.7791E+00  0.2252E-01E
 Epicentro: LOS SANTOS - SANTANDER                                             3
 ACTION:UPD 14-01-08 09:56 OP:ep   STATUS:               ID:20130620194247 L   I
 OLDACT:REG 13-06-20 17:19 OP:cam  STATUS:               ID:20130620193959     3
 2013-06-20-1939-59M.COL___263                                                 6
 STAT SP IPHASW D HRMM SECON CODA AMPLIT PERI AZIMU VELO AIN AR TRES W  DIS CAZ7
 BAR2 SZ EP       1943  7.79                             172   -0.1310 20.8 181 
 BAR2 SZ ES       1943 24.10                             172    0.0810 20.8 181 
 BRR  HZ EP       1943  9.40                             155    0.1310 69.0 302 
 BRR  HE ES       1943 26.34                             155   -0.0810 69.0 302 
 BRR  HZ I        1943 31.60        14.0 0.46            152           69.0 302 
 RUS  HZ EP       1943 11.98                             146    0.2110 98.7 174 
 RUS  HE ES       1943 30.76                             146   -0.1210 98.7 174 
 RUS  HZ I        1943 31.95         3.5 0.38            148           98.7 174 
 PTB  HZ EP       1943 14.39                             135   -0.22 9  144 259 
 PTB  HN ES       1943 36.07                             135    0.13 9  144 259 
 PTB  HZ I        1943 41.44         8.4 0.28            134            144 259 
                                                                                
