 2015  220 1156 34.5 L   6.899 -73.216137.8  RSN  6 0.3 1.7LRSN                1
 GAP=124        0.74       3.5     4.1  6.0 -0.7378E+01  0.1223E+02 -0.3280E+01E
 Epicentro: BETULIA - SANTANDER                                                3
 ACTION:UPD 15-04-30 21:27 OP:nd   STATUS:               ID:20150220115634 L   I
 OLDACT:REG 15-02-20 22:02 OP:fm   STATUS:               ID:20150220114744     3
 2015-02-20-1147-44M.COL___280                                                 6
 STAT SP IPHASW D HRMM SECON CODA AMPLIT PERI AZIMU VELO AIN AR TRES W  DIS CAZ7
 BAR2 EZ EP       1156 53.10                             165   -0.3610 34.2 174 
 BAR2 EZ ES   1   1157  8.13                             165   -0.11 7 34.2 174 
 BAR2 EZ I        1157 12.12         5.6 0.20            171           34.2 174 
 PAM  SZ IP     D 1156 56.14                             150    0.4110 75.0  50 
 PAM  SE ES       1157 12.31                             150    0.0210 75.0  50 
 PAM  SZ I        1157 15.27        11.0 0.64            154           75.0  50 
 PTB  HZ EP       1157  0.27                             131   -0.10 9  143 254 
 PTB  HN ES       1157 20.63                             131    0.08 9  143 254 
 PTB  HZ I        1157 24.05         8.4 0.16            133            143 254 
 SML  HZ EP       1157  8.90                             117   -0.35 8  230 336 
 SML  HE ES       1157 36.43                             117    0.08 8  230 336 
 SML  HZ I        1157 45.75         7.5 0.10            119            230 336 
 NOR  HZ EP       1157  9.45                             117   -0.38 8  235 231 
 NOR  HE ES       1157 37.75                             117    0.37 8  235 231 
 NOR  HZ I        1157 42.94         3.2 0.16            120            235 231 
 GUY2CHZ EP       1157 18.47                             111    0.68 7  301 232 
 GUY2CHE ES       1157 51.26                             111   -0.29 7  301 232 
 GUY2CHZ I        1157 59.19         1.5 0.48                           301 232 
                                                                                
