 2012  520 1735  1.5 L   6.741 -73.135149.2  RSN  5 0.3 1.5LRSN                1
 GAP=141        0.80       5.3     5.1  7.6 -0.2653E+01  0.3385E+01  0.2875E+01E
 Epicentro: JORDAN - SANTANDER                                                 3
 ACTION:UP  12-07-05 12:06 OP:pat  STATUS:               ID:20120520173501 L   I
 2012-05-20-1730-00M.COL___200                                                 6
 STAT SP IPHASW D HRMM SECON CODA AMPLIT PERI AZIMU VELO SNR AR TRES W  DIS CAZ7
 BAR2 SZ EP       1735 21.55                             173     0.210   17 198 
 BAR2 SZ ES   2   1735 36.78                             173    -0.2 5   17 198 
 BAR2 SZ I        1735 38.86         5.3 0.24                            17 198 
 BRR  HZ EP       1735 23.49                             152     0.310   76 302 
 BRR  HZ I        1735 23.59        11.8 0.14                            76 302 
 BRR  HN ES   1   1735 40.67                             152     0.5 7   76 302 
 PAM  SZ EP       1735 24.35                             150     0.110   82  36 
 PAM  SN ES   1   1735 41.58                             150    -0.5 7   82  36 
 RUS  HZ EP       1735 24.94                             146    -0.110   94 177 
 RUS  HZ I        1735 26.50         1.9 0.48                            94 177 
 RUS  HN ES   1   1735 43.75                             146     0.2 7   94 177 
 PTB  HZ EP       1735 28.53                             133    -0.2 9  148 261 
 PTB  HN ES   1   1735 49.44                             133    -0.5 7  148 261 
 PTB  HZ I        1735 55.15         4.2 0.26                           148 261 
                                                                                
