 2017  920 1545 21.7 L   6.772 -73.107145.7  RSN  4 0.3 1.0LRSN                1
 GAP=143        0.71       3.8     5.7  5.8 -0.4274E+00 -0.2206E+01  0.7470E+00E
 Epicentro: LOS SANTOS - SANTANDER                                             3
 ACTION:UPD 17-10-05 19:14 OP:rebc STATUS:               ID:20170920154521 L   I
 OLDACT:UP  17-09-20 22:18 OP:edw  STATUS:               ID:20170920153743     3
 OLDACT:REG 17-09-20 20:41 OP:edw  STATUS:               ID:20170920153743     3
 2017-09-20-1538-00M.COL___444                                                 6
 STAT SP IPHASW D HRMM SECON CODA AMPLIT PERI AZIMU VELO AIN AR TRES W  DIS CAZ7
 BAR2 EZ EP       1545 41.06                             171   -0.2310 21.6 203 
 BAR2 EZ ES       1545 56.98                             171    0.4110 21.6 203 
 BRR  HZ EP       1545 42.96                             151   -0.1810 76.4 299 
 BRR  HN ES       1545 59.88                             151    0.0110 76.4 299 
 PAM  EZ EP       1545 44.17                             151    0.2710 77.2  36 
 PAM  EN ES       1546  0.99                             151   -0.2310 77.2  36 
 PAM  EZ I        1546  2.88         1.9 0.50            151           77.2  36 
 RUS  HZ EP       1545 45.46                             145    0.2510 97.3 178 
 RUS  HN ES       1546  3.25                             145   -0.3010 97.3 178 
 RUS  HZ I        1546  4.55         1.5 0.54            145           97.3 178 
                                                                                
