 2010  720 1355 58.9 L   6.766 -73.076150.1  RSN  8 0.2 1.9LRSN                1
 GAP=167        0.38       2.7     5.4  4.0  0.1477E+01 -0.4349E+01 -0.1446E+01E
 Epicentro: LOS SANTOS - SANTANDER                                             3
 ACTION:UPD 10-12-01 15:19 OP:pat  STATUS:               ID:20100720135558 L   I
 2010-07-20-1353-24S.COL___122                                                 6
 STAT SP IPHASW D HRMM SECON CODA AMPLIT PERI AZIMU VELO AIN AR TRES W  DIS CAZ7
 BAR2 SZ IP       1356 18.89                             171    -0.110   23 212 
 BAR2 SZ ES   1   1356 34.69                             171    -0.1 7   23 212 
 BAR2 SZ I        1356 35.80        12.8 0.31                            23 212 
 GIR2 SZ EP   2   1356 19.54                             166     0.3 5   37 339 
 BRR  HZ IP     C 1356 20.91                             151    -0.110   80 298 
 BRR  HN ES   1   1356 38.25                             151     0.0 7   80 298 
 BRR  HZ I        1356 41.45        13.7 0.25                            80 298 
 RUS  HZ EP   2   1356 22.84                             146     0.0 5   97 181 
 RUS  HN ES   2   1356 41.74                             146     0.3 5   97 181 
 RUS  HZ I        1356 42.99         8.1 0.49                            97 181 
 GUE  SZ EP   2   1356 24.24                             140     0.0 5  119   8 
 GRA  SZ EP   2   1356 24.63                             138     0.0 5  127  14 
 GRA  SZ I        1356 45.79         8.4 0.30                           127  14 
 OCA  SZ EP   2   1356 27.97                             130     0.0 5  165 351 
 OCA  SZ ES   2   1356 51.14                             130     0.4 5  165 351 
 OCA  SZ I        1356 54.24        12.2 0.31                           165 351 
 PRA  HZ EP   2   1356 52.92                             107     0.3 3  393 211 
 PRA  HE ES   2   1357 34.81                             107     0.2 3  393 211 
 PRA  HZ I        1357 40.23         3.7 0.29                           393 211 
                                                                                
