 2016  420 1439 36.6 L   7.094 -73.197  0.0  RSN  4 0.3 1.2LRSN                1
 GAP=140        0.50       3.4     2.8  8.4 -0.5744E+01 -0.1038E+02  0.6581E+00E
 Epicentro: LEBRIJA - SANTANDER                                                3
 ACTION:UPD 16-05-05 14:22 OP:rebc STATUS:               ID:20160420143936 L   I
 OLDACT:ARG 16-04-20 21:02 OP:ar   STATUS:               ID:20160420143745     3
 2016-04-20-1437-45M.COL___301                                                 6
 STAT SP IPHASW D HRMM SECON CODA AMPLIT PERI AZIMU VELO AIN AR TRES W  DIS CAZ7
 PAM  EN ES       1439 56.14                              47    0.0210 61.3  64 
 PAM  EZ I        1439 56.55        17.3 0.20            168           61.3  64 
 RUS  HZ EP   2   1439 57.99                              47   -0.52 5  133 175 
 RUS  HN ES   2   1440 15.95                              47    0.37 5  133 175 
 RUS  HZ I        1440 17.53         2.9 0.22            116            133 175 
 PTB  HZ EP   2   1440  0.41                              47   -0.43 5  152 246 
 PTB  HN ES   2   1440 19.96                              47    0.22 5  152 246 
 PTB  HZ I        1440 27.52         2.2 0.18            108            152 246 
 ZAR  HZ EP   2   1440  6.43                              37    0.30 4  189 284 
 ZAR  HE ES   4   1440 31.46                              37    2.31 0  189 284 
 ZAR  HZ I        1440 37.72         4.2 0.36            105            189 284 
                                                                                
