 2011  320 1611 48.3 L   7.088 -73.121147.3  RSN  8 0.2 2.8LRSN                1
 GAP=136        0.50       2.0     4.1  4.7 -0.1176E+01  0.7686E+01  0.9756E+00E
 Epicentro: FLORIDABLANCA - SANTANDER                                          3
 ACTION:UP  11-06-16 14:34 OP:jfem STATUS:               ID:20110320161148 L   I
 2011-03-20-1610-11S.COL___136                                                 6
 STAT SP IPHASW D HRMM SECON CODA AMPLIT PERI AZIMU VELO SNR AR TRES W  DIS CAZ7
 BAR2 SZ IP       1612  9.11                             158     0.010   55 187 
 BAR2 SZ ES   1   1612 25.29                             158    -0.1 7   55 187 
 BAR2 SZ I        1612 27.43       231.9 0.27                            55 187 
 GRA  SZ IP       1612 11.48                             145     0.210   95  22 
 GRA  SZ ES   1   1612 29.18                             145    -0.1 7   95  22 
 GRA  SZ I        1612 30.93       166.5 0.34                            95  22 
 OCA  SZ EP   1   1612 13.56                             136    -0.4 7  129 350 
 OCA  SZ ES   1   1612 34.13                             136     0.2 7  129 350 
 OCA  SZ I        1612 38.09        55.6 0.54                           129 350 
 RUS  HZ EP   1   1612 14.22                             136    -0.4 7  132 178 
 RUS  HN ES   1   1612 35.26                             136     0.0 7  132 178 
 RUS  HZ I        1612 37.10        53.1 0.33                           132 178 
 YOP  SZ EP   2   1612 21.32                             122     0.1 4  207 158 
 YOP  SN ES   1   1612 47.18                             122     0.2 6  207 158 
 YOP  SZ I        1612 49.77        26.3 0.38                           207 158 
 NOR  SZ EP   1   1612 26.44                             116     0.0 6  257 229 
 NOR  SE ES   1   1612 56.35                             116     0.1 6  257 229 
 HEL  HZ EP   2   1612 29.66                             114    -0.2 4  284 250 
 HEL  HZ I        1613  9.91        41.5 0.39                           284 250 
 GUY  SZ EP       1612 34.64                             111     0.3 7  323 231 
                                                                                
