 2013  820 1709 33.9 L   6.785 -73.150148.3  RSN 16 0.6 2.4LRSN                1
 GAP=119        1.41       3.5     4.5  6.4 -0.4079E+01  0.5024E+01 -0.9059E+00E
 Epicentro: LOS SANTOS - SANTANDER                                             3
 ACTION:UPD 14-01-14 09:05 OP:ep   STATUS:               ID:20130820170933 L   I
 OLDACT:REG 13-08-20 16:09 OP:stll STATUS:               ID:20130820170836     3
 2013-08-20-1708-36M.COL___200                                                 6
 STAT SP IPHASW D HRMM SECON CODA AMPLIT PERI AZIMU VELO AIN AR TRES W  DIS CAZ7
 BAR2 SZ EP       17 9 54.05                             171    0.2110 21.6 189 
 BAR2 SZ ES       1710  8.84                             171   -0.5210 21.6 189 
 BAR2 SZ I        1710 10.75        31.9 0.32            170           21.6 189 
 BRR  HZ EP       17 9 56.04                             153    0.6510 71.6 300 
 BRR  HN ES       1710 13.22                             153    1.1110 71.6 300 
 BRR  HN I        1710 14.19       128.5 0.24            150           71.6 300 
 PAM  SZ IP     C 17 9 56.86                             151    0.3310 79.0  39 
 PAM  SZ I        17 9 57.17        44.7 0.22            154           79.0  39 
 PAM  SN ES       1710 14.00                             151   -0.1410 79.0  39 
 RUS  HZ EP       17 9 57.99                             145    0.1610 98.9 176 
 RUS  HN ES       1710 15.88                             145   -0.5710 98.9 176 
 RUS  HZ I        1710 17.98        19.6 0.32            147           98.9 176 
 PTB  HZ EP       1710  0.91                             133   -0.14 9  147 259 
 PTB  HN ES       1710 22.12                             133   -0.06 9  147 259 
 PTB  HZ I        1710 29.53        31.0 0.48            132            147 259 
 CAPV BZ EP       1710  1.98                             132    0.28 9  151  38 
 SPBC HZ EP       1710  2.81                             130    0.33 9  162 219 
 SPBC HN ES       1710 24.78                             130    0.04 9  162 219 
 OCA  HZ EP       1710  2.57                             130   -0.04 9  162 353 
 OCA  HN ES       1710 24.83                             130   -0.13 9  162 353 
 OCA  HZ I        1710 29.23        28.2 0.26            131            162 353 
 ZAR  HZ EP       1710  6.49                             123   -0.09 9  204 293 
 ZAR  HN ES       1710 32.22                             123    0.20 9  204 293 
 ZAR  HZ I        1710 37.68        34.5 0.30            123            204 293 
 NOR  HZ IP     D 1710 10.32                             119    0.65 8  233 235 
 NOR  HN ES       1710 36.55                             119   -0.99 8  233 235 
 NOR  HZ I        1710 43.59        15.6 0.18            119            233 235 
 SML  HZ EP       1710 10.11                             118   -0.75 8  245 336 
 SML  HN ES       1710 39.15                             118   -0.50 8  245 336 
 SML  HZ I        1710 45.94        36.7 0.10            118            245 336 
 CHI  HZ EP       1710 12.10                             118    0.51 8  247 195 
 CHI  HN ES       1710 40.83                             118   -0.13 8  247 195 
 CHI  HZ I        1710 47.30        11.5 0.30            119            247 195 
 HEL  HZ EP       1710 15.84                             115    1.65 8  271 256 
 HEL  HN ES       1710 44.63                             115   -0.95 8  271 256 
 HEL  HZ I        1710 52.45        10.1 0.50            116            271 256 
 URE  HZ EP       1710 14.00                             114   -1.16 7  284 292 
 GUY2CHZ EP       1710 17.50                             113   -0.02 7  300 235 
 GUY2CHN ES       1710 51.49                             113   -0.01 7  300 235 
 GUY2CHZ I        1711  0.66        10.8 0.40                           300 235 
 SOCV BZ EP       1710 16.22                             112   -1.04 7  303  57 
                                                                                
