 2011  320 1652  6.0 L   6.794 -73.141145.7  RSN  8 0.3 2.2LRSN                1
 GAP=136        0.56       2.5     4.1  5.0 -0.3007E+01  0.5898E+01 -0.1383E+01E
 Epicentro: LOS SANTOS - SANTANDER                                             3
 ACTION:UP  11-06-16 14:34 OP:jfem STATUS:               ID:20110320165206 L   I
 2011-03-20-1648-54S.COL___134                                                 6
 STAT SP IPHASW D HRMM SECON CODA AMPLIT PERI AZIMU VELO SNR AR TRES W  DIS CAZ7
 BAR2 SZ IP       1652 25.53                             171    -0.110   23 192 
 BAR2 SZ ES   1   1652 40.66                             171    -0.2 7   23 192 
 BAR2 SZ I        1652 44.55        39.0 0.32                            23 192 
 RUS  HZ EP   1   1652 29.36                             144    -0.3 7  100 176 
 RUS  HN ES   1   1652 48.19                             144     0.0 7  100 176 
 RUS  HZ I        1652 49.21        15.5 0.26                           100 176 
 GRA  SZ IP       1652 31.31                             137     0.010  126  17 
 GRA  SZ ES   1   1652 51.21                             137     0.2 7  126  17 
 GRA  SZ I        1652 53.47        26.8 0.35                           126  17 
 OCA  SZ EP   1   1652 33.99                             129    -0.4 7  161 353 
 OCA  SZ ES   2   1652 56.99                             129     0.5 5  161 353 
 OCA  SZ I        1653  2.03        28.5 0.31                           161 353 
 YOP  SZ EP   1   1652 36.13                             126     0.2 7  178 153 
 YOP  SE ES   2   1652 59.75                             126     0.4 4  178 153 
 YOP  SZ I        1653  1.18        12.2 0.31                           178 153 
 NOR  SZ EP   1   1652 41.67                             118    -0.1 6  235 235 
 NOR  SE ES   1   1653  9.97                             118     0.4 6  235 235 
 HEL  HN ES   2   1653 17.47                             115    -0.2 4  272 256 
 HEL  HZ I        1653 22.87         6.9 0.26                           272 256 
 GUY  SZ EP   1   1652 49.84                             112     0.2 5  301 235 
 GUY  SZ I        1653 31.79        17.8 0.40                           301 235 
                                                                                
