 2013  320 1905 35.8 L   6.782 -73.147137.6  RSN 12 0.5 2.6LRSN                1
 GAP= 72        1.00       2.9     3.1  5.9 -0.3654E+00  0.4104E+01  0.2132E+01E
 Epicentro: LOS SANTOS - SANTANDER                                             3
 ACTION:UPD 13-04-09 14:03 OP:ep   STATUS:               ID:20130320190535 L   I
 2013-03-20-1900-00M.COL___241                                                 6
 STAT SP IPHASW D HRMM SECON CODA AMPLIT PERI AZIMU VELO AIN AR TRES W  DIS CAZ7
 BAR2 SZ EP       19 5 54.65                             171    0.2910 21.3 191 
 BAR2 SZ ES   1   19 6  8.96                             171    0.09 7 21.3 191 
 BAR2 SZ I        19 6 10.55       136.9 0.26            168           21.3 191 
 BRR  HZ IP     C 19 5 56.57                             151    0.4910 72.0 300 
 BRR  HN ES   1   19 6 12.46                             151    0.54 7 72.0 300 
 BRR  HN I        19 6 13.36       156.3 0.22            150           72.0 300 
 PAM  SZ EP       19 5 57.55                             149    0.3410 79.0  39 
 PAM  SN ES       19 6 14.03                             149    0.0910 79.0  39 
 PAM  SN I        19 6 15.55        86.6 0.42            153           79.0  39 
 RUS  HZ EP       19 5 58.65                             143    0.0910 98.6 176 
 RUS  HN ES       19 6 16.31                             143   -0.0410 98.6 176 
 PTB  HZ EP       19 6  1.55                             130   -0.47 9  147 260 
 PTB  HN ES       19 6 21.73                             130   -0.78 9  147 260 
 PTB  HN I        19 6 24.82        53.5 0.20            129            147 260 
 TAM  HZ EP       19 6  3.04                             129    0.28 9  155 104 
 TAM  HE ES       19 6 23.30                             129   -0.53 9  155 104 
 TAM  HN I        19 6 24.87        31.7 0.42            131            155 104 
 OCA  HN ES       19 6 24.68                             127   -0.70 9  162 353 
 ZAR  HZ EP   1   19 6  8.59                             120    0.84 6  205 293 
 ZAR  HN ES   1   19 6 33.35                             120    0.65 6  205 293 
 ZAR  HN I        19 6 38.08        42.6 0.32            121            205 293 
 NOR  HZ EP       19 6 10.65                             117   -0.24 8  233 235 
 NOR  HN ES       19 6 38.34                             117    0.05 8  233 235 
 NOR  HN I        19 6 47.36        43.6 0.14            117            233 235 
 SML  HZ EP       19 6 11.42                             115   -0.71 8  245 336 
 SML  HN ES   2   19 6 41.29                             115    0.79 4  245 336 
 CHI  HZ EP   1   19 6 12.70                             116   -0.10 6  247 195 
 CHI  HN ES       19 6 41.68                             116   -0.01 8  247 195 
 CHI  HN I        19 6 47.95        23.0 0.54            116            247 195 
 PRA  HZ EP   1   19 6 29.40                             105    0.61 4  390 210 
 PRA  HN ES   1   19 7 10.31                             105    0.15 4  390 210 
 PRA  HN I        19 7 15.88         9.2 0.38            105            390 210 
                                                                                
