 2011  920 1237 51.7 L   6.267 -73.750 97.6  RSN  4 0.1 1.6LRSN                1
 GAP=243        0.36       4.2     9.1  9.9  0.2422E+02  0.6408E+02  0.1153E+02E
 Epicentro: LANDAZURI - SANTANDER                                              3
 ACTION:UPD 12-07-13 15:58 OP:ep   STATUS:               ID:20110920123752dL   I
 2011-09-20-1220-00M.COL___167                                                 6
 STAT SP IPHASW D HRMM SECON CODA AMPLIT PERI AZIMU VELO AIN AR TRES W  DIS CAZ7
 BAR2 SZ EP       1238  8.53                             141    0.1610 72.4  60 
 BAR2 SZ ES   2   1238 21.19                             141   -0.16 5 72.4  60 
 BAR2 SZ I        1238 23.36        35.1 0.38                          72.4  60 
 RUS  HZ EP       1238  9.64                             137   -0.0810 84.7 119 
 RUS  HE ES   2   1238 23.84                             137    0.09 5 84.7 119 
 RUS  HZ I        1238 24.89         3.0 0.34                          84.7 119 
 BRR  HZ EP       1238  9.76                             133   -0.0110 93.0   3 
 GIR2 SZ EP       1238 11.39                             128   -0.0610  109  34 
                                                                                
