 2011  820 1051 38.7 L   6.806 -73.037150.2  RSN  9 0.3 2.3LRSN                1
 GAP=194        0.62       3.0     6.1  4.8 -0.1009E+01  0.7048E+01  0.3174E+01E
 Epicentro: CEPITA - SANTANDER                                                 3
 ACTION:UPD 12-07-13 15:52 OP:ep   STATUS:               ID:20110820105138 L   I
 2011-08-20-1049-37S.COL___150                                                 6
 STAT SP IPHASW D HRMM SECON CODA AMPLIT PERI AZIMU VELO AIN AR TRES W  DIS CAZ7
 BAR2 SZ EP       1051 59.31                             169    0.3410 28.5 214 
 BAR2 SZ ES   1   1052 14.24                             169   -0.54 7 28.5 214 
 BAR2 SZ I        1052 16.08        56.7 0.21                          28.5 214 
 BRR  HZ EP   1   1052  1.20                             150    0.27 7 81.7 294 
 BRR  HE ES   1   1052 18.39                             150    0.12 7 81.7 294 
 BRR  HZ I        1052 20.93        25.9 0.23                          81.7 294 
 RUS  HZ EP       1052  3.13                             144    0.2110  101 183 
 RUS  HN ES   1   1052 21.66                             144   -0.15 7  101 183 
 RUS  HZ I        1052 23.16        11.2 0.27                           101 183 
 OCA  SZ EP   1   1052  7.06                             130   -0.40 7  162 349 
 OCA  SZ ES   1   1052 29.97                             130    0.07 7  162 349 
 OCA  SZ I        1052 34.56        16.1 0.38                           162 349 
 NOR  SZ EP   1   1052 15.12                             118   -0.65 6  245 236 
 CHI  HZ EP   2   1052 16.82                             117   -0.25 4  253 198 
 CHI  HZ I        1052 56.18         7.6 0.66                           253 198 
 RREF HZ EP   1   1052 26.35                             111    0.23 5  331 231 
 RREF HN ES   1   1053  3.34                             111    0.23 5  331 231 
 RREF HZ I        1053 11.81        11.4 0.29                           331 231 
 TOL  SZ EP   1   1052 27.69                             109   -0.47 5  352 226 
 PRA  HZ EP       1052 33.03                             107   -0.11 6  399 211 
 PRA  HN ES   1   1053 15.97                             107    0.37 4  399 211 
 PRA  HZ I        1053 20.64        18.1 0.29                           399 211 
                                                                                
