 2015  420 1017  1.3 L   7.401 -73.245124.0  RSN  6 0.4 1.6LRSN                1
 GAP=181        0.94       4.2     5.9  8.6  0.2493E+01  0.1943E+01 -0.6743E+01E
 Epicentro: EL PLAYON - SANTANDER                                              3
 ACTION:UPD 15-06-03 16:56 OP:cam  STATUS:               ID:20150420101701 L   I
 OLDACT:REG 15-04-20 22:28 OP:spq  STATUS:               ID:20150420100746     3
 2015-04-20-1007-46M.COL___259                                                 6
 STAT SP IPHASW D HRMM SECON CODA AMPLIT PERI AZIMU VELO AIN AR TRES W  DIS CAZ7
 BRR  HZ EP       1017 19.69                             152    0.2110 61.0 238 
 BRR  HN ES       1017 33.47                             152   -0.2210 61.0 238 
 BRR  HZ I        1017 34.10        15.7 0.14            155           61.0 238 
 BAR2 EZ EP       1017 22.15                             142    0.4110 89.7 176 
 BAR2 EZ ES   1   1017 37.55                             142   -0.16 7 89.7 176 
 BAR2 EZ I        1017 38.72        10.1 0.36            148           89.7 176 
 OCA  HN ES   1   1017 38.13                             141    0.17 7 93.0 355 
 OCA  HZ I        1017 44.77         5.0 0.21            141           93.0 355 
 PTB  HZ EP   1   1017 28.02                             123   -0.19 7  164 235 
 PTB  HN ES   1   1017 48.41                             123   -0.81 7  164 235 
 PTB  HZ I        1017 51.15         2.6 0.17            127            164 235 
 ZAR  HE ES       1017 52.49                             121    0.70 9  178 273 
 ZAR  HZ I        1017 56.27         4.2 0.22            123            178 273 
 SML  HZ EP       1017 29.26                             121   -0.51 9  180 330 
 SML  HN ES   1   1017 51.81                             121   -0.20 7  180 330 
 SML  HZ I        1017 54.63         5.5 0.24            122            180 330 
                                                                                
