 2017 1120 1859 33.8 L   6.808 -73.142144.0  RSN 24 0.8 2.7LRSN                1
 GAP= 66        1.62       3.5     3.9  7.1 -0.5055E+00  0.7506E+01  0.9341E+00E
 Epicentro: LOS SANTOS - SANTANDER                                             3
 ACTION:UPD 17-12-12 19:57 OP:rebc STATUS:               ID:20171120185933 L   I
 OLDACT:UP  17-11-21 01:39 OP:dhb  STATUS:               ID:20171120184526     3
 OLDACT:REG 17-11-20 22:03 OP:dani STATUS:               ID:20171120184526     3
 2017-11-20-1858-00M.COL___468                                                 6
 STAT SP IPHASW D HRMM SECON CODA AMPLIT PERI AZIMU VELO AIN AR TRES W  DIS CAZ7
 BAR2 EZ IP     C 1859 53.32                             170    0.0410 24.3 191 
 BAR2 EZ ES       19 0  8.00                             170   -0.4410 24.3 191 
 BAR2 EZ I        19 0  9.76       198.4 0.20            168           24.3 191 
 PAM  EZ EP       1859 56.02                             151    0.2010 76.4  40 
 PAM  EN ES       19 0 13.19                             151    0.2310 76.4  40 
 PAM  EZ I        19 0 15.65        65.6 0.48            154           76.4  40 
 RUS  HZ IP     C 1859 57.30                             143   -0.1910  101 176 
 RUS  HN ES       19 0 15.43                             143   -0.4910  101 176 
 RUS  HZ I        19 0 17.31        48.7 0.24            144            101 176 
 PTB  HZ EP       19 0  0.11                             131   -0.61 9  148 259 
 PTB  HE ES       19 0 21.43                             131   -0.26 9  148 259 
 PTB  HZ I        19 0 23.50        50.3 0.36            131            148 259 
 TAM  HZ EP       19 0  1.64                             130    0.27 9  155 105 
 TAM  HN ES       19 0 23.03                             130    0.20 9  155 105 
 TAM  HZ I        19 0 26.10        36.6 0.48            133            155 105 
 SPBC HZ EP       19 0  2.15                             128   -0.15 9  164 219 
 SPBC HN ES       19 0 24.78                             128    0.29 9  164 219 
 SPBC HZ I        19 0 31.89        64.3 0.12            128            164 219 
 YPLC HZ IP     C 19 0  3.79                             126    0.22 9  177 152 
 YPLC HN ES       19 0 27.58                             126    0.83 9  177 152 
 YPLC HZ I        19 0 28.58        56.8 0.28            128            177 152 
 ZAR  HZ EP       19 0  6.34                             122    0.16 9  204 292 
 ZAR  HN ES       19 0 31.58                             122    0.17 9  204 292 
 ZAR  HZ I        19 0 37.49        67.7 0.38            122            204 292 
 TABC EZ EP       19 0 10.75                             119    1.16 8  231 211 
 TABC EZ ES       19 0 37.97                             119    0.49 8  231 211 
 TABC EZ I        19 0 44.96        75.9 0.66            119            231 211 
 NOR  HZ EP       19 0  9.57                             118    0.00 8  236 234 
 NOR  HE ES       19 0 37.46                             118    0.04 8  236 234 
 NOR  HZ I        19 0 42.39        61.4 0.22            118            236 234 
 CHI  HZ EP       19 0 11.50                             117   -0.05 8  250 195 
 CHI  HE ES       19 0 41.25                             117    0.29 8  250 195 
 CHI  HZ I        19 0 47.94        38.2 0.52            117            250 195 
 ROSC BZ EP       19 0 13.39                             116    1.42 8  254 211 
 ROSC BE ES       19 0 42.03                             116    0.32 8  254 211 
 ROSC BZ I        19 0 49.97        54.4 0.35            117            254 211 
 URE  HZ EP       19 0 13.47                             113   -1.37 7  284 292 
 URE  HE ES       19 0 44.81                             113   -2.00 7  284 292 
 URE  HZ I        19 0 53.76        30.9 0.20            113            284 292 
 GUY2CHZ EP       19 0 17.64                             112    0.17 7  302 235 
 GUY2CHE ES       19 0 53.18                             112    1.68 7  302 235 
 GUY2CHZ I        19 0 59.90        32.8 0.56                           302 235 
 VIL  EZ EP       19 0 17.02                             111   -0.27 7  304 192 
 VIL  EE ES       19 0 49.73                             111   -1.44 7  304 192 
 VIL  EZ I        19 0 55.25        42.3 0.36            112            304 192 
 PTGC HZ IP     D 19 0 16.59                             111   -1.11 7  309 159 
 PTGC HE ES       19 0 49.53                             111   -2.37 7  309 159 
 PTGC HZ I        19 0 52.48        27.8 0.28            112            309 159 
 LL6C HZ EP       19 0 18.55                             110   -0.83 7  324 358 
 LL6C HE ES       19 0 56.70                             110    1.81 7  324 358 
 LL6C HZ I        19 1  0.33        13.8 0.32            111            324 358 
 DRL01HZ EP       19 0 19.50                             110   -0.08 7  326 350 
 DRL01HN ES   3   19 0 56.79                             110    1.54 2  326 350 
 CBOC HZ EP       19 0 21.27                             109    0.50 7  334 252 
 CBOC HE ES   3   19 0 54.88                             109   -2.48 2  334 252 
 CBOC HZ I        19 1 10.30         9.6 0.50            110            334 252 
 PRA  HZ EP       19 0 27.10                             106   -0.32 6  393 210 
 PRA  HN ES       19 1  9.59                             106    0.39 6  393 210 
 PRA  HZ I        19 1 18.28        32.4 0.34            107            393 210 
 ORTC HZ EP       19 0 27.98                             106    0.16 6  396 216 
 ORTC HE ES       19 1 10.76                             106    0.85 6  396 216 
 ORTC HZ I        19 1 18.49        22.9 0.70            106            396 216 
 PAL  HZ EP       19 0 29.14                             105    0.10 6  406 239 
 PAL  HE ES       19 1 12.16                             105    0.06 6  406 239 
 PAL  HZ I        19 1 22.76        10.2 0.26            106            406 239 
 SJC  HZ EP   3   19 0 27.54                             105   -1.75 1  409 327 
 SJC  HE ES   4   19 1  8.75                             105   -3.79 0  409 327 
 SJC  HZ I        19 1 13.03        11.4 0.52            106            409 327 
 CRJC HZ IP   3 C 19 0 33.78                             103   -2.41 1  467   3 
 CRJC HE ES   4   19 1 20.55                             103   -4.27 0  467   3 
 CRJC HZ I        19 1 33.74        10.0 0.16            104            467   3 
                                                                                
