 2013  620 1925 41.2 L   7.604 -73.233135.8  RSN 10 0.4 2.4LRSN                1
 GAP=134        0.99       2.5     4.8  5.6  0.2375E+01 -0.3120E+01 -0.4920E+00E
 Epicentro: EL PLAYON - SANTANDER                                              3
 ACTION:UPD 14-01-08 09:56 OP:ep   STATUS:               ID:20130620192541 L   I
 OLDACT:UP  13-06-20 17:53 OP:cam  STATUS:               ID:20130620191959     3
 OLDACT:REG 13-06-20 17:19 OP:cam  STATUS:               ID:20130620191959     3
 2013-06-20-1919-59M.COL___264                                                 6
 STAT SP IPHASW D HRMM SECON CODA AMPLIT PERI AZIMU VELO AIN AR TRES W  DIS CAZ7
 GIR2 SZ EP       1926  0.57                             156   -0.1810 58.2 176 
 GIR2 SZ ES       1926 15.85                             156   -0.1710 58.2 176 
 OCA  HZ EP       1926  1.73                             151    0.2610 70.9 352 
 OCA  HE ES       1926 17.73                             151    0.4410 70.9 352 
 OCA  HZ I        1926 20.89        54.7 0.36            146           70.9 352 
 BRR  HZ IP     D 1926  1.64                             149    0.0710 76.2 224 
 BRR  HN ES       1926 17.81                             149    0.3410 76.2 224 
 BRR  HZ I        1926 18.76        74.4 0.10            149           76.2 224 
 BAR2 SZ IP     C 1926  4.38                             138   -0.1310  112 177 
 BAR2 SZ I        1926  4.61       159.4 0.11            134            112 177 
 BAR2 SZ ES       1926 22.58                             138   -0.1310  112 177 
 SML  HZ EP       1926  8.55                             127   -0.09 9  161 325 
 SML  HN ES       1926 29.34                             127   -0.71 9  161 325 
 SML  HZ I        1926 35.99       114.6 0.24            123            161 325 
 PTB  HZ EP       1926  9.89                             124   -0.54 9  179 229 
 PTB  HN ES       1926 33.39                             124    0.14 9  179 229 
 PTB  HZ I        1926 36.79        44.0 0.16            121            179 229 
 RUS  HZ EP       1926 11.79                             122   -0.37 9  190 175 
 RUS  HE ES   1   1926 35.38                             122   -0.94 7  190 175 
 RUS  HZ I        1926 41.16         8.5 0.20            118            190 175 
 TAM  HZ EP       1926 13.43                             120    0.28 9  205 129 
 TAM  HZ I        1926 37.64        15.2 0.18            114            205 129 
 TAM  HE ES   1   1926 37.97                             120   -0.13 6  205 129 
 COD  HZ EP   1   1926 19.24                             114    0.29 6  259 355 
 COD  HN ES       1926 48.63                             114    0.22 8  259 355 
 COD  HZ I        1926 55.67         7.2 0.40            109            259 355 
 CHI  HZ EP   1   1926 28.89                             108    0.90 5  333 190 
 CHI  HN ES       1927  5.70                             108    1.20 7  333 190 
 CHI  HZ I        1927 12.48         7.5 0.68            105            333 190 
                                                                                
