 2012  220 1500  5.9 L   6.779 -73.143144.3  RSN  7 0.3 1.6LRSN                1
 GAP=186        0.49       4.3     5.2  6.2 -0.1822E+00  0.4378E+01  0.8029E+01E
 ACTION:UP  12-03-07 16:32 OP:epov STATUS:               ID:20120220150005 L   I
 2012-02-20-1500-00M.COL___191                                                 6
 STAT SP IPHASW D HRMM SECON CODA AMPLIT PERI AZIMU VELO AIN AR TRES W  DIS CAZ7
 BAR2 SZ EP   2   15 0 25.19                             171   -0.10 5 21.1 192 
 BAR2 SZ I        15 0 25.61        10.6 0.41                          21.1 192 
 BAR2 SZ ES   2   15 0 40.10                             171   -0.33 5 21.1 192 
 GIR2 SZ EP   1   15 0 25.39                             166   -0.05 7 33.6 351 
 GIR2 SZ ES   2   15 0 40.55                             166   -0.15 5 33.6 351 
 BRR  HZ EP   2   15 0 27.24                             152    0.30 5 72.5 300 
 BRR  HZ I        15 0 30.80        18.3 0.33                          72.5 300 
 BRR  HE ES   2   15 0 44.17                             152    0.79 5 72.5 300 
 RUS  HZ EP   2   15 0 29.40                             144    0.08 5 98.3 176 
 RUS  HN ES   2   15 0 47.58                             144   -0.02 5 98.3 176 
 RUS  HZ I        15 0 48.87         4.0 0.43                          98.3 176 
 PTB  HZ EP   2   15 0 32.22                             132   -0.49 5  148 260 
 PTB  HN ES   2   15 0 53.10                             132   -0.54 5  148 260 
 NOR  SN ES   2   15 1  9.28                             118    0.17 4  234 235 
 CHI  HZ EP   2   15 0 43.37                             117    0.11 4  246 195 
 CHI  HN ES   2   15 1 12.81                             117    0.39 4  246 195 
 CHI  HZ I        15 1 22.13         2.0 0.36                           246 195 
                                                                                
