 2016 1120 1101 56.6 L   6.819 -73.162151.4  RSN 14 0.5 2.1LRSN                1
 GAP= 75        1.07       4.2     3.4  5.7  0.1170E+01  0.3277E+01  0.6680E+01E
 Epicentro: LOS SANTOS - SANTANDER                                             3
 ACTION:UPD 17-10-26 21:10 OP:lp   STATUS:               ID:20161120110156 L   I
 OLDACT:UP  16-11-20 22:49 OP:ar   STATUS:               ID:20161120105745     3
 OLDACT:REG 16-11-20 20:36 OP:ar   STATUS:               ID:20161120105745     3
 2016-11-20-1058-00M.COL___322                                                 6
 STAT SP IPHASW D HRMM SECON CODA AMPLIT PERI AZIMU VELO AIN AR TRES W  DIS CAZ7
 BAR2 EZ EP       11 2 16.93                             170   -0.0310 25.2 185 
 BAR2 EZ ES       11 2 32.11                             170   -0.7210 25.2 185 
 BAR2 EZ I        11 2 32.79        36.7 0.30            168           25.2 185 
 BRR  HN IP     D 11 2 18.53                             154    0.2910 68.6 298 
 BRR  HZ IP     C 11 2 18.62                             154    0.3810 68.6 298 
 BRR  HE ES       11 2 35.83                             154    0.7310 68.6 298 
 BRR  HZ I        11 2 38.97        26.3 0.26            153           68.6 298 
 PAM  EZ EP       11 2 19.86                             152    0.4510 77.0  42 
 PAM  EN ES       11 2 36.97                             152   -0.2210 77.0  42 
 PAM  EZ I        11 2 40.07        12.2 0.44            157           77.0  42 
 PTB  HZ EP       11 2 23.25                             133   -0.68 9  146 258 
 PTB  HN ES       11 2 44.81                             133   -0.42 9  146 258 
 PTB  HZ I        11 2 46.52        18.2 0.42            133            146 258 
 TAM  HZ EP       11 2 25.32                             131    0.37 9  157 106 
 TAM  HN ES       11 2 47.03                             131   -0.03 9  157 106 
 TAM  HZ I        11 2 51.62         7.8 0.32            134            157 106 
 ZAR  HZ EP       11 2 29.27                             124    0.09 9  202 292 
 ZAR  HN ES       11 2 54.70                             124    0.11 9  202 292 
 ZAR  HZ I        11 2 59.88        15.0 0.36            125            202 292 
 NOR  HZ EP   2   11 2 32.40                             120   -0.25 4  234 234 
 NOR  HN ES   2   11 3  1.00                             120    0.24 4  234 234 
 NOR  HZ I        11 3  5.83         8.8 0.16            120            234 234 
 CHI  HZ EP       11 2 35.17                             118    0.37 8  250 195 
 CHI  HN ES       11 3  4.62                             118    0.04 8  250 195 
 URE  HZ EP       11 2 37.48                             115   -0.21 7  281 292 
 URE  HN ES   4   11 3  8.25                             115   -1.48 0  281 292 
 URE  HZ I        11 3 19.07        12.0 0.20            116            281 292 
 PTGC HZ EP       11 2 40.04                             112   -0.98 7  311 158 
 PTGC HN ES   4   11 3 13.96                             112   -1.70 0  311 158 
 PTGC HZ I        11 3 14.73         6.0 0.30            114            311 158 
 LL6C HZ EP   9   11 2 22.66                             111            323 358 
 LL6C HN ES   2   11 2 58.66                                            323 358 
 LL6C HZ I        11 3  4.79         2.6 0.74            113            323 358 
 PRA  HZ EP       11 2 50.68                             107    0.24 6  393 209 
 PRA  HN ES   4   11 3 30.95                             107   -1.48 0  393 209 
 PRA  HZ I        11 3 39.17         7.7 0.28            108            393 209 
 ORTC HZ EP   4   11 2 51.78                             107    0.98 0  396 216 
 ORTC HN ES       11 3 33.76                             107    0.69 6  396 216 
 ORTC HZ I        11 3 39.98         5.2 0.32            108            396 216 
 SJC  HZ EP       11 2 51.03                             107   -1.02 6  406 327 
 SJC  HN ES   4   11 3 31.92                             107   -3.36 0  406 327 
 SJC  HZ I        11 3 46.71         2.7 0.48            108            406 327 
                                                                                
