 2012  520 1520  4.7 L   6.789 -73.161139.2  RSN 14 0.5 2.4LRSN                1
 GAP=135        1.00       3.5     4.8  6.2 -0.2777E+01  0.8509E+01  0.3433E+01E
 Epicentro: LOS SANTOS - SANTANDER                                             3
 ACTION:UP  12-07-05 12:06 OP:pat  STATUS:               ID:20120520152004 L   I
 2012-05-20-1520-00M.COL___200                                                 6
 STAT SP IPHASW D HRMM SECON CODA AMPLIT PERI AZIMU VELO SNR AR TRES W  DIS CAZ7
 BAR2 SZ IP       1520 23.70                             171     0.210   22 186 
 BAR2 SZ ES   1   1520 38.03                             171    -0.2 7   22 186 
 BAR2 SZ I        1520 39.77        91.1 0.46                            22 186 
 BRR  HZ IP     D 1520 25.61                             152     0.510   70 300 
 BRR  HN ES   1   1520 41.90                             152     0.9 7   70 300 
 BRR  HZ I        1520 46.74       106.1 0.18                            70 300 
 PAM  SZ IP       1520 26.50                             149     0.210   79  40 
 PAM  SN ES   1   1520 43.27                             149     0.0 7   79  40 
 RUS  HZ EP       1520 27.68                             143    -0.110  100 175 
 RUS  HE ES   1   1520 45.29                             143    -0.4 7  100 175 
 RUS  HZ I        1520 47.60        29.2 0.40                           100 175 
 PTB  HZ EP       1520 30.22                             131    -0.7 9  146 259 
 PTB  HN ES   1   1520 51.00                             131    -0.5 7  146 259 
 PTB  HZ I        1520 53.93        23.2 0.14                           146 259 
 OCA  HZ EP       1520 32.25                             128    -0.4 9  161 354 
 OCA  HN ES   1   1520 53.65                             128    -0.7 7  161 354 
 OCA  HZ I        1520 56.82        57.8 0.40                           161 354 
 ZAR  HZ EP       1520 36.86                             121     0.2 9  203 293 
 ZAR  HE ES   2   1521  2.09                             121     0.6 4  203 293 
 ZAR  HZ I        1521  8.14        34.8 0.30                           203 293 
 NOR  SZ EP       1520 39.60                             117    -0.2 8  233 234 
 NOR  SN ES   1   1521  6.59                             117    -0.6 6  233 234 
 CHI  HZ EP       1520 42.13                             116     0.3 8  247 195 
 CHI  HE ES   1   1521 10.98                             116     0.1 6  247 195 
 CHI  HZ I        1521 21.18        10.0 0.62                           247 195 
 HEL  HZ EP   3   1520 45.35                             114     1.0 2  270 256 
 HEL  HE ES   2   1521 15.09                             114    -0.2 4  270 256 
 HEL  HZ I        1521 24.94        12.5 0.30                           270 256 
 URE  HZ EP   2   1520 45.12                             112    -0.2 4  283 292 
 GUY  SZ EP   3   1520 48.47                             111     0.4 2  301 235 
 GUY  SN ES   3   1521 21.88                             111     0.0 2  301 235 
 RREF HZ EP       1520 51.03                             110     0.7 7  320 229 
 RREF HE ES   2   1521 27.14                             110     1.2 3  320 229 
 RREF HZ I        1521 32.59        11.0 0.26                           320 229 
 PRA  HZ EP       1520 57.61                             105    -0.2 6  390 209 
 PRA  HE ES   2   1521 39.17                             105     0.0 3  390 209 
                                                                                
