 2014  120 1453 45.0 L   6.747 -73.164142.1  RSN  5 0.4 1.5LRSN                1
 GAP=137        1.14       5.9     5.8  8.4 -0.3047E+01  0.6099E+01  0.1716E+01E
 Epicentro: VILLANUEVA - SANTANDER                                             3
 ACTION:UPD 14-03-13 09:56 OP:ep   STATUS:               ID:20140120145345 L   I
 OLDACT:REG 14-01-20 15:09 OP:stll STATUS:               ID:20140120144812     3
 2014-01-20-1448-12M.COL___247                                                 6
 STAT SP IPHASW D HRMM SECON CODA AMPLIT PERI AZIMU VELO AIN AR TRES W  DIS CAZ7
 BAR2 SZ EP       1454  4.27                             173    0.1810 17.2 187 
 BAR2 SZ I        1454  4.57        11.0 0.34            171           17.2 187 
 BAR2 SZ ES       1454 19.20                             173    0.2310 17.2 187 
 BRR  HZ EP       1454  6.27                             151    0.4310 72.5 303 
 BRR  HN ES       1454 22.71                             151    0.6310 72.5 303 
 PAM  SZ IP     D 1454  7.26                             148    0.0510 83.3  38 
 PAM  SZ I        1454  7.44         6.7 0.28            151           83.3  38 
 PAM  SN ES       1454 23.80                             148   -0.7210 83.3  38 
 RUS  HZ EP       1454  8.31                             145    0.3110 94.9 175 
 RUS  HN ES       1454 25.72                             145   -0.2010 94.9 175 
 RUS  HZ I        1454 27.73         4.1 0.34            144           94.9 175 
 PTB  HZ EP       1454 11.00                             132   -0.41 9  145 261 
 PTB  HN ES       1454 31.35                             132   -0.64 9  145 261 
 PTB  HZ I        1454 35.94         3.2 0.58            131            145 261 
                                                                                
