 2016 1020 1107 36.3 L   7.120 -73.369122.5  RSN  4 0.3 1.2LRSN                1
 GAP=158        0.75       3.6     5.4  8.7 -0.7462E+01  0.1714E+02 -0.1081E+02E
 Epicentro: LEBRIJA - SANTANDER                                                3
 ACTION:UPD 16-11-09 19:21 OP:rebc STATUS:               ID:20161020110736 L   I
 OLDACT:UP  16-10-21 14:11 OP:nlst STATUS:               ID:20161020110736 L   3
 OLDACT:DUP 16-10-20 22:01 OP:edw  STATUS:               ID:20161020105748d    3
 2016-10-20-1058-00M.COL___341                                                 6
 STAT SP IPHASW D HRMM SECON CODA AMPLIT PERI AZIMU VELO AIN AR TRES W  DIS CAZ7
 BRR  HZ IP     C 11 7 53.42                             162    0.2010 37.9 268 
 BAR2 EZ EP       11 7 55.13                             152    0.3910 61.9 160 
 BAR2 EZ ES       11 8  8.87                             152   -0.2610 61.9 160 
 BAR2 EZ I        11 8  9.69         5.3 0.16            154           61.9 160 
 OCA  HZ EP       11 7 59.32                             132   -0.0510  124   3 
 OCA  HN ES       11 8 17.35                             132   -0.0310  124   3 
 PTB  HZ EP       11 7 59.84                             129   -0.50 9  136 242 
 PTB  HE ES       11 8 19.31                             129    0.21 9  136 242 
 PTB  HZ I        11 8 22.44         1.9 0.07            129            136 242 
                                                                                
