 2010 1220 1300 50.7 L   6.760 -73.129138.9  RSN  9 0.4 2.2LRSN                1
 GAP=161        0.96       4.8     9.1 10.0 -0.2662E+02  0.4729E+02 -0.1475E+02E
 Epicentro: LOS SANTOS - SANTANDER                                             3
 ACTION:UP  11-01-14 15:26 OP:pat  STATUS:               ID:20101220130050 L   I
 2010-12-20-1256-48S.COL___133                                                 6
 STAT SP IPHASW D HRMM SECON CODA AMPLIT PERI AZIMU VELO SNR AR TRES W  DIS CAZ7
 BAR2 SZ EP       13 1  9.38                             172     0.010   20 198 
 BAR2 SZ ES   2   13 1 24.04                             172     0.0 5   20 198 
 BAR2 SZ I        13 1 25.61        31.6 0.28                            20 198 
 RUS  HZ EP   1   13 1 13.33                             143    -0.1 7   96 177 
 RUS  HN ES   1   13 1 31.28                             143     0.1 7   96 177 
 RUS  HZ I        13 1 33.17        12.2 0.05                            96 177 
 GRA  SZ EP       13 1 16.27                             134     0.610  129  16 
 GRA  SZ ES   1   13 1 35.10                             134     0.0 7  129  16 
 GRA  SZ I        13 1 36.78        40.1 0.40                           129  16 
 OCA  SZ EP       13 1 18.11                             127    -0.8 9  165 353 
 OCA  SZ I        13 1 45.73        25.8 0.27                           165 353 
 NOR  SZ EP   1   13 1 25.86                             117    -0.1 6  234 236 
 NOR  SN ES   1   13 1 53.28                             117    -0.1 6  234 236 
 CHI  HZ EP   1   13 1 27.70                             116     0.1 6  245 196 
 CHI  HE ES   1   13 1 55.87                             116    -0.5 6  245 196 
 CHI  HZ I        13 2  2.99         8.1 0.38                           245 196 
 HEL  HZ EP   1   13 1 31.25                             113     0.6 6  273 257 
 HEL  HZ I        13 2 11.91         7.9 0.50                           273 257 
 RREF HN ES   1   13 2 12.25                             110     0.2 5  320 230 
 RREF HZ I        13 2 21.32         9.6 0.20                           320 230 
 PRA  HZ EP   1   13 1 43.83                             105     0.2 4  389 210 
                                                                                
