 2017 1220 1026 14.9 L   6.835 -73.190140.0  RSN  5 0.4 1.6LRSN                1
 GAP=134        0.96       5.3     4.7  8.3 -0.8170E+01  0.1371E+02 -0.1187E+02E
 Epicentro: ZAPATOCA - SANTANDER                                               3
 ACTION:UPD 18-01-04 13:22 OP:rebc STATUS:               ID:20171220102614 L   I
 OLDACT:UP  17-12-20 21:20 OP:dani STATUS:               ID:20171220100759     3
 OLDACT:UP  17-12-20 21:20 OP:dani STATUS:               ID:20171220100759     3
 OLDACT:REG 17-12-20 20:20 OP:dani STATUS:               ID:20171220100759     3
 2017-12-20-1018-00M.COL___455                                                 6
 STAT SP IPHASW D HRMM SECON CODA AMPLIT PERI AZIMU VELO AIN AR TRES W  DIS CAZ7
 BAR2 EZ EP       1026 33.44                             169   -0.4710 26.8 178 
 BAR2 EZ ES       1026 49.15                             169    0.4010 26.8 178 
 BAR2 EZ I        1026 49.52         8.8 0.34            170           26.8 178 
 PAM  EZ EP       1026 36.55                             150    0.0210 77.8  44 
 PAM  EN ES       1026 53.37                             150   -0.0310 77.8  44 
 PAM  EZ I        1026 55.67        12.6 0.52            154           77.8  44 
 PTB  HZ EP       1026 40.87                             131   -0.16 9  144 257 
 PTB  HN ES       1027  1.23                             131   -0.18 9  144 257 
 PTB  HZ I        1027  7.50         2.0 0.26            131            144 257 
 OCA  HZ EP       1026 43.05                             129    0.70 9  156 355 
 OCA  HE ES       1027  3.26                             129   -0.51 9  156 355 
 OCA  HZ I        1027  4.80        11.6 0.36            131            156 355 
 ZAR  HE ES       1027 11.18                             122    0.30 9  198 292 
 ZAR  HZ I        1027 17.55         3.2 0.36            122            198 292 
                                                                                
