 2010  220 1756 31.2 L   6.618 -73.262 30.5  RSN  4 0.3 1.6LRSN                1
 GAP=151        0.50       6.2    12.1  4.1  0.6972E+02  0.4206E+02  0.1972E+02E
 Epicentro: CABRERA - SANTANDER                                                3
 ACTION:UP  10-08-24 09:49 OP:vdl  STATUS:               ID:20100220175631 L   I
 2010-02-20-1740-00S.COL___095                                                 6
 STAT SP IPHASW D HRMM SECON CODA AMPLIT PERI AZIMU VELO SNR AR TRES W  DIS CAZ7
 BAR2 SZ IP       1756 36.55                             164     0.010    9 108 
 BAR2 SZ ES   2   1756 41.02                             164     0.2 5    9 108 
 BRR  HZ EP       1756 43.29                              61    -0.210   74 317 
 BRR  HN ES   2   1756 53.62                              61     0.6 5   74 317 
 BRR  HZ I        1756 54.28        22.4 0.06                            74 317 
 RUS  BZ IP       1756 45.10                              61    -0.110   83 166 
 RUS  BZ I        1756 45.44        16.7 0.21                            83 166 
 RUS  BN ES   2   1756 56.49                              61     0.4 5   83 166 
 OCA  SZ EP   3   1756 56.86                              61     0.0 2  179 358 
 OCA  SZ ES   3   1757 17.15                              61     0.2 2  179 358 
                                                                                
