 2017  120 1910 19.4 L   6.780 -73.172152.0  RSN  5 0.2 1.6LRSN                1
 GAP=134        0.67       3.7     3.5  4.9 -0.1252E+01  0.1905E+01  0.7169E+00E
 Epicentro: LOS SANTOS - SANTANDER                                             3
 ACTION:UPD 17-05-22 16:01 OP:jn   STATUS:               ID:20170120191019 L   I
 OLDACT:REG 17-01-20 21:26 OP:cog  STATUS:               ID:20170120190741     3
 2017-01-20-1908-00M.COL___346                                                 6
 STAT SP IPHASW D HRMM SECON CODA AMPLIT PERI AZIMU VELO AIN AR TRES W  DIS CAZ7
 BAR2 EZ EP       1910 39.82                             172    0.0710 20.8 183 
 BAR2 EZ ES       1910 55.52                             172   -0.1010 20.8 183 
 BAR2 EZ I        1910 56.20        11.9 0.12            171           20.8 183 
 BRR  HZ EP       1910 41.48                             154    0.3110 69.7 301 
 BRR  HN ES       1910 58.54                             154    0.4110 69.7 301 
 BRR  HZ I        1911  0.94        15.6 0.22            151           69.7 301 
 PAM  EZ EP       1910 42.44                             151   -0.0710 80.9  40 
 PAM  EE ES       1911  0.24                             151   -0.2810 80.9  40 
 PAM  EZ I        1911  1.70         4.0 0.58            154           80.9  40 
 RUS  HZ EP       1910 43.84                             146    0.1910 98.7 174 
 RUS  HE ES       1911  2.60                             146    0.0410 98.7 174 
 RUS  HZ I        1911  3.46         3.1 0.38            148           98.7 174 
 PTB  HZ EP       1910 46.28                             134   -0.33 9  144 259 
 PTB  HN ES       1911  7.51                             134   -0.31 9  144 259 
 PTB  HZ I        1911 14.56         4.0 0.17            133            144 259 
                                                                                
