 2017  120 1234  6.4 L   6.803 -73.165138.6  RSN  7 0.4 1.5LRSN                1
 GAP=134        0.95       3.7     4.1  5.9  0.1900E+01  0.6255E+01  0.3913E+01E
 Epicentro: LOS SANTOS - SANTANDER                                             3
 ACTION:UPD 17-05-22 16:01 OP:jn   STATUS:               ID:20170120123406 L   I
 OLDACT:REG 17-01-20 20:38 OP:cog  STATUS:               ID:20170120122748     3
 2017-01-20-1228-00M.COL___319                                                 6
 STAT SP IPHASW D HRMM SECON CODA AMPLIT PERI AZIMU VELO AIN AR TRES W  DIS CAZ7
 BAR2 EZ EP       1234 24.98                             170   -0.2010 23.4 185 
 BAR2 EZ ES       1234 39.67                             170   -0.1510 23.4 185 
 BAR2 EZ I        1234 47.72         9.9 0.50            168           23.4 185 
 BRR  HZ EP       1234 26.85                             152    0.1810 69.2 299 
 BRR  HN ES       1234 42.68                             152    0.2010 69.2 299 
 BRR  HZ I        1234 46.89        10.5 0.46            154           69.2 299 
 PAM  EZ EP       1234 27.95                             149    0.0110 78.5  41 
 PAM  EE ES       1234 44.80                             149    0.0710 78.5  41 
 PAM  EZ I        1234 46.59         4.6 0.16            157           78.5  41 
 RUS  HZ EP       1234 29.23                             142   -0.2710  101 175 
 RUS  HN ES       1234 47.65                             142    0.1410  101 175 
 RUS  HZ I        1234 49.65         3.6 0.48            146            101 175 
 PTB  HZ EP       1234 31.74                             131   -0.87 9  146 259 
 PTB  HN ES       1234 52.72                             131   -0.33 9  146 259 
 PTB  HZ I        1235  0.49         6.9 0.34            134            146 259 
 ZAR  HZ EP       1234 38.84                             121    0.66 9  202 292 
 ZAR  HN ES       1235  3.16                             121    0.20 9  202 292 
 CHI  HZ EP       1234 43.63                             116   -0.06 8  248 195 
 CHI  HN ES       1235 13.54                             116    0.77 8  248 195 
 CHI  HZ I        1235 16.34         2.2 0.34            120            248 195 
                                                                                
