 2014 1220 1544 48.3 L   6.870 -73.332118.6  RSN 26 0.5 2.8LRSN                1
 GAP= 53        1.09       2.2     2.5  4.5 -0.5142E+00  0.2844E+01  0.1264E+01E
 Epicentro: BETULIA - SANTANDER                                                3
 ACTION:UPD 15-02-10 17:05 OP:nd   STATUS:               ID:20141220154448 L   I
 OLDACT:DUP 14-12-21 00:21 OP:fm   STATUS:               ID:20141220153748d    3
 2014-12-20-1537-47M.COL___305                                                 6
 STAT SP IPHASW D HRMM SECON CODA AMPLIT PERI AZIMU VELO AIN AR TRES W  DIS CAZ7
 BAR2 EZ EP       1545  5.46                             163    0.4510 34.9 152 
 BAR2 EZ ES       1545 17.76                             163   -0.3010 34.9 152 
 BRR  HZ EP     D 1545  5.79                             156    0.5010 49.5 302 
 BRR  HN ES       1545 18.64                             156    0.0810 49.5 302 
 BRR  HZ I        1545 21.78       124.3 0.20            152           49.5 302 
 PAM  SZ EP     C 1545  8.47                             142    0.0810 87.0  53 
 PAM  SN ES       1545 24.69                             142    0.6110 87.0  53 
 PAM  SZ I        1545 27.10       125.6 0.28            136           87.0  53 
 RUS  HZ EP       1545 10.24                             134   -0.1710  112 166 
 RUS  HE ES       1545 27.45                             134   -0.2210  112 166 
 RUS  HZ I        1545 30.34        43.6 0.30            128            112 166 
 PTB  HZ EP     D 1545 10.76                             129   -0.6510  130 254 
 PTB  HE ES       1545 28.61                             129   -0.8410  130 254 
 PTB  HZ I        1545 32.60       220.4 0.44            124            130 254 
 OCA  HZ EP       1545 13.60                             124   -0.13 9  151   1 
 OCA  HE ES       1545 33.22                             124   -0.36 9  151   1 
 OCA  HZ I        1545 34.74       235.6 0.16            119            151   1 
 SPBC HZ EP       1545 13.71                             123   -0.57 9  158 211 
 SPBC HE ES       1545 34.95                             123    0.39 9  158 211 
 SPBC HZ I        1545 40.75       105.8 0.34            118            158 211 
 TAM  HZ EP       1545 16.28                             120    0.04 9  177 106 
 TAM  HZ I        1545 37.41        77.6 0.32            114            177 106 
 TAM  HE ES       1545 37.70                             120   -0.35 9  177 106 
 ZAR  HZ EP       1545 17.37                             119    0.64 9  182 292 
 ZAR  HN ES       1545 39.62                             119    0.70 9  182 292 
 ZAR  HZ I        1545 45.52       119.5 0.32            114            182 292 
 NOR  HZ EP       1545 20.81                             113   -0.49 8  223 230 
 NOR  HE ES       1545 47.50                             113    0.45 8  223 230 
 NOR  HZ I        1545 48.78        43.6 0.52            108            223 230 
 SML  HZ EP       1545 21.63                             113   -0.20 8  229 339 
 SML  HE ES       1545 48.45                             113    0.46 8  229 339 
 SML  HZ I        1545 53.02       159.9 0.10            108            229 339 
 ROSC BZ EP       1545 24.57                             111   -0.16 8  250 206 
 ROSC BE ES       1545 53.36                             111    0.20 8  250 206 
 ROSC BZ I        1546  4.25        37.4 0.45            106            250 206 
 CHI  HZ EP       1545 25.23                             111    0.25 8  252 190 
 CHI  HE ES       1545 53.44                             111   -0.17 8  252 190 
 CHI  HZ I        1545 58.21        21.1 0.38            106            252 190 
 HEL  HZ EP       1545 25.34                             110    0.12 8  254 253 
 HEL  HE ES       1545 53.50                             110   -0.53 8  254 253 
 HEL  HZ I        1545 59.58        52.1 0.60            106            254 253 
 URE  HZ EP       1545 24.83                             109   -0.81 8  262 292 
 URE  HN ES   4   1545 53.30                             109   -1.47 0  262 292 
 URE  HZ I        1545 55.86        52.6 0.16            105            262 292 
 VIL  SZ EP       1545 31.08                             106   -0.03 7  308 187 
 VIL  SN ES       1546  5.26                             106    0.75 7  308 187 
 VIL  SZ I        1546 11.65        41.1 0.34            101            308 187 
 RREF HZ EP   4   1545 33.38                             106    1.16 0  312 226 
 RREF HN ES       1546  6.44                             106   -0.05 7  312 226 
 RREF HZ I        1546 15.42        32.6 0.28            101            312 226 
 CBOC HZ EP   4   1545 33.33                             105    1.11 0  317 250 
 CBOC HN ES       1546  5.77                             105   -0.73 7  317 250 
 CBOC HZ I        1546 10.17        29.9 0.30            101            317 250 
 DBB  SZ EP     D 1545 32.70                             105    0.38 7  318 273 
 DBB  SZ ES   1   1546  6.24                             105   -0.42 5  318 273 
 DBB  SZ I        1546  8.84        68.0 0.38            101            318 273 
 MON  HZ EP   4 D 1545 32.67                             104   -1.23 0  333 310 
 MON  HE ES   4   1546  8.04                             104   -1.43 0  333 310 
 MON  HZ I        1546 11.93        13.6 0.34            100            333 310 
 TOL  SZ EP       1545 35.27                             104    0.67 7  335 221 
 TOL  SE ES   4   1546 13.32                             104    2.59 0  335 221 
 TOL  SZ I        1546 19.02        30.0 0.46            100            335 221 
 ANIL HZ EP   4   1545 37.89                             104    1.69 0  349 221 
 ANIL HE ES   4   1546 15.03                             104    1.46 0  349 221 
 SDV  BZ EP       1545 37.83                             102   -0.95 6  372  53 
 SDV  BN ES   4   1546 14.45                             102   -3.72 0  372  53 
 SDV  BZ I        1546 17.52        22.7 0.30             98            372  53 
 ORTC HZ EP       1545 41.69                             101    0.92 6  390 213 
 ORTC HE ES       1546 21.97                             101    0.26 6  390 213 
 ORTC HZ I        1546 29.31        16.5 0.30             97            390 213 
 SJC  HZ EP   4   1545 39.52                             101   -1.47 0  392 329 
 SJC  HE ES   4   1546 18.15                             101   -3.94 0  392 329 
 SJC  HZ I        1546 22.98        14.3 0.54             97            392 329 
 PAL  HZ EP       1545 41.78                             101    0.70 6  392 237 
 PAL  HN ES   4   1546 20.58                             101   -1.68 0  392 237 
 PAL  HZ I        1546 27.63        21.1 0.28             97            392 237 
 YOT  HZ EP   4   1545 47.84                              99   -1.65 0  462 226 
 SMAR HE ES   4   1546 38.33                              98   -3.57 0  485 348 
 SMAR HZ I        1546 47.00        19.4 0.20             92            485 348 
                                                                                
