 2014  220 1944  5.4 L   6.848 -73.123147.9  RSN 11 0.4 2.1LRSN                1
 GAP=137        0.95       2.9     4.3  5.4  0.3467E-01  0.7955E+01  0.2938E+01E
 Epicentro: LOS SANTOS - SANTANDER                                             3
 ACTION:UPD 14-03-10 08:11 OP:ep   STATUS:               ID:20140220194405 L   I
 OLDACT:REG 14-02-20 16:41 OP:carl STATUS:               ID:20140220194000     3
 2014-02-20-1940-00M.COL___215                                                 6
 STAT SP IPHASW D HRMM SECON CODA AMPLIT PERI AZIMU VELO AIN AR TRES W  DIS CAZ7
 BAR2 SZ EP       1944 25.57                             168    0.1210 29.0 193 
 BAR2 SZ ES       1944 40.82                             168   -0.2410 29.0 193 
 BAR2 SZ I        1944 42.23        38.0 0.16            163           29.0 193 
 BRR  HZ EP       1944 27.19                             153    0.3810 71.1 294 
 BRR  HN ES       1944 44.22                             153    0.7410 71.1 294 
 BRR  HZ I        1944 48.23        22.7 0.50            143           71.1 294 
 PAM  SZ EP       1944 27.97                             153    0.4110 71.7  41 
 PAM  SN ES       1944 44.53                             153   -0.2810 71.7  41 
 PAM  SZ I        1944 46.96        25.1 0.42            152           71.7  41 
 RUS  HZ EP       1944 29.74                             143   -0.0410  106 178 
 RUS  HN ES       1944 48.64                             143   -0.1210  106 178 
 RUS  HZ I        1944 50.26        12.1 0.28            137            106 178 
 PTB  HZ EP       1944 32.60                             132   -0.30 9  151 257 
 PTB  HZ I        1944 55.42        19.5 0.34            123            151 257 
 SPBC HZ EP       1944 34.92                             128    0.28 9  169 219 
 SPBC HE ES       1944 57.38                             128   -0.04 9  169 219 
 SPBC HZ I        1945  4.37        12.6 0.18            121            169 219 
 ZAR  HZ EP       1944 38.19                             123    0.13 9  204 291 
 ZAR  HN ES       1945  3.58                             123    0.07 9  204 291 
 ZAR  HZ I        1945  9.24        26.2 0.36            115            204 291 
 SML  HN ES       1945  9.09                             118   -1.04 8  240 334 
 NOR  HZ EP       1944 41.36                             118   -0.48 8  240 234 
 NOR  HN ES       1945 10.16                             118   -0.07 8  240 234 
 NOR  HZ I        1945 17.00        11.3 0.16            112            240 234 
 CHI  HZ EP       1944 44.10                             117    0.21 8  254 195 
 CHI  HN ES       1945 13.26                             117   -0.61 8  254 195 
 CHI  HZ I        1945 20.83         3.8 0.52            111            254 195 
 PRA  HZ EP       1945  0.34                             107    0.62 6  398 210 
 PRA  HE ES       1945 42.06                             107    0.01 6  398 210 
 PRA  HZ I        1945 47.24         3.9 0.52            102            398 210 
                                                                                
