 2012 1020 1043 47.0 L   7.375 -73.152131.3  RSN  7 0.4 1.7LRSN                1
 GAP=105        0.83       4.6     5.5  9.1  0.3812E+01  0.7617E+01  0.4445E+01E
 Epicentro: RIONEGRO - SANTANDER                                               3
 ACTION:UPD 12-11-22 17:04 OP:ep   STATUS:               ID:20121020104347 L   I
 2012-10-20-1040-00M.COL___233                                                 6
 STAT SP IPHASW D HRMM SECON CODA AMPLIT PERI AZIMU VELO AIN AR TRES W  DIS CAZ7
 GIR2 SZ EP   1   1044  4.98                             165   -0.05 7 33.1 188 
 GIR2 SZ ES   1   1044 18.62                             165   -0.46 7 33.1 188 
 PAM  SZ EP   1   1044  6.47                             158    0.27 7 50.1  95 
 PAM  SZ I        1044  6.63        12.9 0.20                          50.1  95 
 PAM  SE ES   1   1044 21.84                             158    0.67 7 50.1  95 
 PAM  SE I        1044 23.16         7.0 0.28                          50.1  95 
 BRR  HN ES   1   1044 22.13                             151    0.49 7 68.6 244 
 BRR  HN I        1044 22.84        17.0 0.20                          68.6 244 
 BAR2 SZ EP   1   1044  8.08                             145    0.09 7 86.7 182 
 BAR2 SZ ES   1   1044 24.20                             145   -0.14 7 86.7 182 
 BAR2 SZ I        1044 25.66        19.3 0.38                          86.7 182 
 OCA  HN ES   1   1044 24.89                             141   -0.63 7 97.3 349 
 RUS  HN ES   1   1044 36.48                             126   -0.48 7  164 177 
 RUS  HN I        1044 38.63         4.0 0.40                           164 177 
 ZAR  HN ES   1   1044 40.52                             121    0.22 7  189 274 
                                                                                
