 2013  220 1055 56.6 L   6.942 -73.456 99.6  RSN 10 0.6 1.8LRSN                1
 GAP= 61        1.15       4.6     5.5 10.2 -0.7650E+00  0.1535E+02 -0.7133E+01E
 Epicentro: SAN VICENTE DE CHUCURI - SANTANDER                                 3
 ACTION:UPD 13-03-12 09:34 OP:ep   STATUS:               ID:20130220105556 L   I
 2013-02-20-1050-00M.COL___241                                                 6
 STAT SP IPHASW D HRMM SECON CODA AMPLIT PERI AZIMU VELO AIN AR TRES W  DIS CAZ7
 BRR  HZ EP     D 1056 11.45                             160    0.7210 33.6 303 
 BRR  HZ I        1056 24.56        29.7 0.14            155           33.6 303 
 BAR2 SZ EP       1056 12.38                             152    0.5210 49.2 142 
 BAR2 SZ ES   1   1056 24.34                             152    0.58 7 49.2 142 
 BAR2 SZ I        1056 26.49        39.3 0.22            137           49.2 142 
 PAM  SN ES   1   1056 29.77                             133   -0.67 7 94.4  62 
 PAM  SZ I        1056 33.81        11.1 0.16            123           94.4  62 
 PTB  HZ EP   1   1056 16.60                             126   -0.72 7  119 248 
 PTB  HN ES   1   1056 32.62                             126   -0.86 7  119 248 
 PTB  HZ I        1056 34.22        35.9 0.14            113            119 248 
 RUS  HZ EP   1   1056 18.02                             125   -0.33 7  123 160 
 RUS  HN ES   1   1056 34.78                             125   -0.53 7  123 160 
 RUS  HZ I        1056 38.89         8.0 0.68            112            123 160 
 OCA  HZ EP   1   1056 19.77                             120   -0.30 7  144   6 
 OCA  HN ES   1   1056 38.15                             120   -0.23 7  144   6 
 OCA  HZ I        1056 39.76        13.7 0.30            111            144   6 
 ZAR  HZ EP   1   1056 22.93                             116    0.65 7  166 292 
 ZAR  HN ES   4   1056 44.77                             116    2.46 0  166 292 
 ZAR  HZ I        1056 46.86         6.6 0.09            107            166 292 
 TAM  HZ EP   1   1056 24.95                             112   -0.30 7  192 107 
 SML  HZ EP   1   1056 27.90                             109   -0.04 6  216 342 
 CHI  HZ EP   1   1056 33.86                             105    0.59 6  258 187 
 CHI  HZ I        1057  6.12         2.8 0.22             99            258 187 
                                                                                
