 2013  920 1241 28.2 L   6.769 -73.164151.5  RSN  7 0.4 1.8LRSN                1
 GAP=199        0.85       4.6     5.1  6.7  0.8371E+01  0.5307E+01 -0.1634E+01E
 Epicentro: LOS SANTOS - SANTANDER                                             3
 ACTION:UPD 13-10-22 09:23 OP:ep   STATUS:               ID:20130920124128 L   I
 OLDACT:REG 13-09-20 15:47 OP:jn   STATUS:               ID:20130920123959     3
 2013-09-20-1239-59M.COL___269                                                 6
 STAT SP IPHASW D HRMM SECON CODA AMPLIT PERI AZIMU VELO AIN AR TRES W  DIS CAZ7
 BAR2 SZ EP       1241 48.40                             172   -0.0910 19.6 186 
 BAR2 SZ ES       1242  4.23                             172   -0.0610 19.6 186 
 BAR2 SZ I        1242  6.18         8.2 0.38            172           19.6 186 
 BRR  HZ EP       1241 50.40                             154    0.3910 71.2 302 
 BRR  HN ES       1242  7.33                             154    0.3410 71.2 302 
 BRR  HZ I        1242 17.25        16.6 0.46            151           71.2 302 
 RUS  HZ EP       1241 52.73                             146    0.4010 97.3 175 
 RUS  HN ES       1242 10.84                             146   -0.2810 97.3 175 
 RUS  HZ I        1242 12.74         5.0 0.38            151           97.3 175 
 PTB  HZ EP       1241 55.16                             134   -0.29 9  145 260 
 PTB  HN ES       1242 16.23                             134   -0.44 9  145 260 
 PTB  HZ I        1242 18.49         9.9 0.16            135            145 260 
 ZAR  HE ES   1   1242 26.95                             124    0.38 6  204 293 
 ZAR  HZ I        1242 33.33         7.6 0.26            125            204 293 
 NOR  HE ES   1   1242 31.95                             120    0.19 6  231 235 
 NOR  HZ I        1242 36.70         5.4 0.22            123            231 235 
 SML  HE ES   1   1242 33.66                             118   -0.80 6  246 336 
                                                                                
