 2017  520 1556 22.6 L   6.788 -73.135142.0  RSN 30 0.5 3.3LRSN 3.8WRSN        1
 SPEC AVERAGE  MO 14.7 ST 91.2 OM  2.8 f0 2.53 R1.8711 AL 0.00 WI 30.0 MW  3.8 3
 SPEC SD       MO  0.2 ST287.4 OM  0.3 f0 4.81 R0.7410 AL      WI      MW  0.1 3
 GAP=160        1.15       3.5     3.9  5.8  0.3544E+01  0.5366E+00 -0.9416E+00E
 Epicentro: LOS SANTOS - SANTANDER                                             3
 SPEC RUS HH Z MO 15.0 ST0.232 OM  3.0 f00.749 R2.5688 AL-0.00 WI 30.0 MW  3.9 3
 SPEC RUS HH Z T1557 2 K 0.000 GD  173 VS 5.20 DE 3.50 Q0750.0 QA 1.50 VS 5.20 3
 SPEC PTB HH Z MO 14.6 ST0.485 OM  2.6 f0 1.23 R1.5642 AL-0.00 WI 30.0 MW  3.7 3
 SPEC PTB HH Z T1557 7 K 0.000 GD  205 VS 5.20 DE 3.50 Q0750.0 QA 1.50 VS 5.20 3
 SPEC YPLCHN Z MO 14.9 ST999.9 OM  2.8 f0 17.7 R0.1087 AL-0.00 WI 30.0 MW  3.9 3
 SPEC YPLCHN Z T155713 K 0.000 GD  225 VS 5.20 DE 3.50 Q0750.0 QA 1.50 VS 5.20 3
 SPEC CHI HH Z MO 14.7 ST0.213 OM  2.5 f00.904 R2.1283 AL-0.00 WI 30.0 MW  3.7 3
 SPEC CHI HH Z T155727 K 0.000 GD  285 VS 5.20 DE 3.50 Q0750.0 QA 1.50 VS 5.20 3
 SPEC ROSCBH Z MO 14.9 ST0.490 OM  2.7 f0 1.02 R1.8863 AL-0.00 WI 30.0 MW  3.9 3
 SPEC ROSCBH Z T155730 K 0.000 GD  289 VS 5.20 DE 3.50 Q0750.0 QA 1.50 VS 5.20 3
 SPEC HEL HH Z MO 14.5 ST0.313 OM  2.3 f0 1.17 R1.6444 AL-0.00 WI 30.0 MW  3.6 3
 SPEC HEL HH Z T155733 K 0.000 GD  307 VS 5.20 DE 3.50 Q0750.0 QA 1.50 VS 5.20 3
 SPEC VIL EH Z MO 14.7 ST0.226 OM  2.5 f00.876 R2.1963 AL-0.00 WI 30.0 MW  3.8 3
 SPEC VIL EH Z T155737 K 0.000 GD  333 VS 5.20 DE 3.50 Q0750.0 QA 1.50 VS 5.20 3
 SPECRECRCHN Z MO 16.3 ST999.0 OM  4.1 f0 27.2 R 0.071 AL-0.00 WI 30.0 MW  4.8 3
 SPECRECRCHN Z T155743 K       GD348.3 VS 5.20 DE 3.50 Q0750.0 QA 1.50 VS 5.20 3
 SPEC ELA HH Z MO 14.9 ST0.155 OM  2.6 f00.699 R2.7525 AL-0.00 WI 30.0 MW  3.9 3
 SPEC ELA HH Z T155748 K 0.000 GD  358 VS 5.20 DE 3.50 Q0750.0 QA 1.50 VS 5.20 3
 SPEC CBOCHH Z MO 14.8 ST0.125 OM  2.5 f00.699 R2.7525 AL-0.00 WI 30.0 MW  3.8 3
 SPEC CBOCHH Z T155745 K 0.000 GD  362 VS 5.20 DE 3.50 Q0750.0 QA 1.50 VS 5.20 3
 SPEC ANILHH Z MO 14.5 ST  1.0 OM  2.2 f0 1.73 R1.1121 AL-0.00 WI 30.0 MW  3.6 3
 SPEC ANILHH Z T155750 K 0.000 GD  384 VS 5.20 DE 3.50 Q0750.0 QA 1.50 VS 5.20 3
 SPEC ORTCHH Z MO 14.6 ST0.291 OM  2.3 f0 1.03 R1.8680 AL-0.00 WI 30.0 MW  3.7 3
 SPEC ORTCHH Z T155758 K 0.000 GD  419 VS 5.20 DE 3.50 Q0750.0 QA 1.50 VS 5.20 3
 OLDACT:REG 17-05-20 21:29 OP:lv   STATUS:               ID:20170520154718     3
 ACTION:UPD 17-06-16 13:37 OP:jn   STATUS:               ID:20170520155622 L   I
 OLDACT:UP  17-06-01 22:14 OP:nlst STATUS:               ID:20170520155622 L   3
 OLDACT:UP  17-05-21 00:18 OP:lv   STATUS:               ID:20170520154718     3
 2017-05-20-1548-00M.COL___365                                                 6
 STAT SP IPHASW D HRMM SECON CODA AMPLIT PERI AZIMU VELO AIN AR TRES W  DIS CAZ7
 BRR  HZ IP     C 1556 43.63                             151    0.2210 72.8 299 
 BRR  HN ES       1557  0.21                             151    0.5410 72.8 299 
 BRR  HZ I        1557  3.87       185.0 0.22            150           72.8 299 
 RUS  HZ IP     C 1556 45.66                             144   -0.2010 99.2 177 
 RUS  HN ES       1557  4.05                             144    0.0310 99.2 177 
 PTB  HZ EP       1556 48.37                             131   -0.95 9  149 259 
 PTB  HN ES       1557  9.46                             131   -0.72 9  149 259 
 SPBC HZ EP       1556 50.77                             128    0.01 9  163 220 
 SPBC HN ES       1557 13.04                             128    0.30 9  163 220 
 SPBC HZ I        1557 18.29       436.5 0.06            127            163 220 
 YPLC HZ IP     C 1556 52.15                             126    0.22 9  175 151 
 YPLC HN ES       1557 14.93                             126    0.10 9  175 151 
 YPLC HZ I        1557 17.06       111.9 0.06            127            175 151 
 ZAR  HZ EP       1556 54.30                             121   -0.64 8  206 292 
 ZAR  HN ES       1557 19.88                             121   -0.30 8  206 292 
 ZAR  HZ I        1557 25.22       158.5 0.50            122            206 292 
 TABC EZ EP   4   1556 59.27                             119    1.23 0  229 211 
 TABC EZ ES       1557 24.89                             119   -0.82 8  229 211 
 TABC EZ I        1557 33.45       281.1 0.48            118            229 211 
 NOR  HZ EP       1556 57.71                             118   -0.40 8  235 235 
 NOR  HN ES       1557 25.94                             118    0.12 8  235 235 
 NOR  HZ I        1557 31.13       233.4 0.26            117            235 235 
 CHI  HZ EP       1556 59.98                             117    0.02 8  248 196 
 CHI  HN ES       1557 29.22                             117    0.10 8  248 196 
 CHI  HZ I        1557 36.58        70.1 0.42            116            248 196 
 ROSC BZ EP   9   1557  1.52                             116    1.09 0  252 211 
 ROSC BN ES       1557 32.36                                    1.31 8  252 211 
 ROSC BZ I        1557 36.08       225.0 0.08            116            252 211 
 HEL  HZ EP       1557  2.65                             114   -0.04 8  273 256 
 HEL  HN ES       1557 34.67                             114    0.70 8  273 256 
 HEL  HZ I        1557 40.43        79.0 0.36            114            273 256 
 VIL  EZ EP       1557  5.54                             111   -0.16 7  302 192 
 VIL  EN ES       1557 39.11                             111   -0.23 7  302 192 
 VIL  EZ I        1557 43.73       167.4 0.14            112            302 192 
 PTGC HZ EP   9   1557  4.71                             111   -1.37 0  307 159 
 PTGC HN ES       1557 38.19                                   -0.45 7  307 159 
 PTGC HZ I        1557 43.83        61.6 0.33            112            307 159 
 LL1C HZ EP       1557  7.28                             111    1.11 7  308 351 
 LL1C HN ES   4   1557 42.77                             111    2.59 0  308 351 
 RECRCHZ EP   9   1557  9.76                             110    1.74 0  318 231 
 RECRCHN ES       1557 44.74                                   -0.46 7  318 231 
 NIZA HZ EP   4   1557 10.52                             110    2.41 0  322 234 
 NIZA HN ES   4   1557 47.28                             110    3.65 0  322 234 
 ELA  HZ EP       1557 10.26                             110    0.99 7  329 230 
 ELA  HN ES   4   1557 49.54                             110    3.85 0  329 230 
 ELA  HZ I        1557 53.57       120.2 0.65            110            329 230 
 CBOC HZ EP       1557  9.61                             109    0.20 7  334 252 
 CBOC HN ES       1557 46.61                             109    0.66 7  334 252 
 CBOC HZ I        1557 55.22        36.0 0.49            109            334 252 
 DBB  EZ EP       1557  9.53                             109   -0.51 7  341 274 
 DBB  EN ES   4   1557 45.99                             109   -1.08 0  341 274 
 DBB  EZ I        1557 47.00        49.1 0.12            109            341 274 
 ANIL HZ EP       1557 12.45                             108    0.23 6  357 225 
 ANIL HN ES       1557 52.11                             108    1.17 6  357 225 
 ARGC HZ EP   4   1557 10.74                             108   -1.54 0  361 340 
 ARGC HE ES   4   1557 48.62                             108   -2.43 0  361 340 
 ORTC HZ EP       1557 16.02                             106   -0.30 6  395 216 
 ORTC HN ES   4   1557 59.90                             106    1.66 0  395 216 
 ORTC HZ I        1558  6.28       111.4 0.07            106            395 216 
 APAC HZ EP   4   1557 15.62                             106   -1.19 0  400 288 
 APAC HN ES   4   1557 56.09                             106   -3.03 0  400 288 
 APAC HZ I        1558  4.28        65.5 0.05            106            400 288 
 PAL  HZ EP       1557 17.57                             105   -0.08 6  406 239 
 PAL  HN ES   4   1557 56.32                             105   -4.28 0  406 239 
 PAL  HZ I        1558  7.64        32.5 0.18            106            406 239 
 SJC  HZ EP   4   1557 15.61                             105   -2.61 0  411 327 
 SJC  HN ES   4   1557 57.31                             105   -4.31 0  411 327 
 SJC  HZ I        1558  1.83        40.0 0.45            106            411 327 
 VALLCHZ EP   4   1557 15.75                             105   -2.51 0  412 358 
 VALLCHN ES   4   1557 57.52                             105   -4.17 0  412 358 
 LCBC HN ES   4   1557 59.06                             105   -5.06 0  424 303 
 LCBC HZ I        1558  6.17        26.2 0.10            105            424 303 
 YOT  HZ EP   4   1557 24.62                             103   -0.90 0  472 229 
 YOT  HN ES   4   1558 15.93                             103    1.32 0  472 229 
 GUA  EN ES   4   1558 13.36                             103   -1.14 0  473 173 
 GUA  EZ I        1558 18.07        38.1 0.24            103            473 173 
 SMAR HZ EP   4   1557 27.17                             102   -1.37 0  499 346 
 SMAR HN ES   4   1558 15.07                             102   -4.92 0  499 346 
 SMAR HZ I        1558 15.88        28.2 0.40            103            499 346 
 CAP2 HN ES   4   1558 11.15                             101   -11.1 0  509 294 
 MACC HZ EP   4   1557 28.90                             101   -2.16 0  519 189 
 MACC HN ES   4   1558 20.34                             101   -4.14 0  519 189 
 MACC HZ I        1558 25.20        13.2 0.34            102            519 189 
 MARO HZ EP       1557 33.16                             101   -0.30 4  537 216 
 MARO HN ES   4   1558 24.70                             101   -4.05 0  537 216 
 JAMC HZ EP       1557 35.27                             100   -0.52 3  557 225 
 JAMC HN ES   4   1558 29.99                             100   -2.91 0  557 225 
 GARC HZ EP   4   1557 35.94                             100   -1.73 0  572 207 
 GARC HN ES   4   1558 30.65                             100   -5.59 0  572 207 
 POP2 HZ EP       1557 42.57                              99    0.09 3  612 220 
 POP2 HN ES   4   1558 41.86                              99   -2.95 0  612 220 
 FLO2 HZ EP   4   1557 44.36                              98   -1.19 0  640 206 
 FLO2 HN ES   4   1558 41.89                              98   -8.37 0  640 206 
                                                                                
