 2010  520 1811 14.0 L   6.777 -73.312150.3  RSN  4 0.4 1.9LRSN                1
 GAP=214        0.94      12.2    34.3 14.8 -0.2889E+03  0.3160E+03 -0.1277E+03E
 Epicentro: ZAPATOCA - SANTANDER                                               3
 ACTION:UP  10-08-24 10:06 OP:vdl  STATUS:               ID:20100520181114 L   I
 2010-05-20-1806-40S.COL___111                                                 6
 STAT SP IPHASW D HRMM SECON CODA AMPLIT PERI AZIMU VELO AIN AR TRES W  DIS CAZ7
 BAR2 SZ EP       1811 34.25                             170     0.010   25 145 
 BAR2 SZ ES   1   1811 49.98                             170     0.0 7   25 145 
 GUE  SZ EP       1811 39.07                             138    -0.710  124  20 
 GRA  SZ EP       1811 40.89                             136     0.510  135  25 
 GRA  SZ ES   1   1812  1.03                             136     0.0 7  135  25 
 OCA  SZ EP       1811 42.94                             130     0.1 9  162 360 
 OCA  SZ I        1812 10.46         8.1 0.31                           162 360 
                                                                                
