 2017  720 1216 38.0 L   6.727 -73.195134.0  RSN  5 0.3 1.2LRSN                1
 GAP=133        0.67       4.1     4.4  6.5  0.5913E+01  0.1410E+02  0.1821E+01E
 Epicentro: VILLANUEVA - SANTANDER                                             3
 ACTION:UPD 17-08-30 15:35 OP:rebc STATUS:               ID:20170720121638 L   I
 OLDACT:DUP 17-07-20 21:56 OP:lv   STATUS:               ID:20170720120751d    3
 2017-07-20-1208-00M.COL___383                                                 6
 STAT SP IPHASW D HRMM SECON CODA AMPLIT PERI AZIMU VELO AIN AR TRES W  DIS CAZ7
 BAR2 EZ EP       1216 55.98                             173   -0.1010 14.9 175 
 BAR2 EZ ES       1217 10.51                             173    0.3410 14.9 175 
 BAR2 EZ I        1217 11.83         4.2 0.07            171           14.9 175 
 PAM  EN ES   1   1217 16.37                             145   -0.14 7 87.1  39 
 RUS  HZ EP       1217  0.02                             143   -0.0510 93.1 172 
 RUS  HN ES       1217 17.04                             143   -0.2310 93.1 172 
 RUS  HZ I        1217 19.30         3.0 0.23            146           93.1 172 
 PTB  HZ EP       1217  3.88                             131    0.46 9  141 262 
 PTB  HN ES   2   1217 22.92                             131   -0.31 5  141 262 
 PTB  HZ I        1217 26.57         1.3 0.08            130            141 262 
 ZAR  HN ES       1217 33.84                             120   -0.28 9  202 295 
 ZAR  HZ I        1217 39.70         2.7 0.06            121            202 295 
                                                                                
