 2016  320 1502 49.0 L   6.822 -73.188141.2  RSN  7 0.3 2.0LRSN                1
 GAP=130        0.66       2.5     2.9  4.7 -0.8258E+00  0.6222E+01 -0.1481E+00E
 Epicentro: ZAPATOCA - SANTANDER                                               3
 ACTION:UPD 16-05-13 21:25 OP:cam  STATUS:               ID:20160320150249 L   I
 OLDACT:REG 16-03-20 21:10 OP:cara STATUS:               ID:20160320145741     3
 2016-03-20-1457-41M.COL___286                                                 6
 STAT SP IPHASW D HRMM SECON CODA AMPLIT PERI AZIMU VELO AIN AR TRES W  DIS CAZ7
 BAR2 EZ IP       15 3  7.96                             169   -0.1810 25.4 179 
 BAR2 EZ ES       15 3 23.45                             169    0.3910 25.4 179 
 BAR2 EZ I        15 3 23.96        14.3 0.12            172           25.4 179 
 PAM  EZ IP     C 15 3 10.89                             150    0.0710 78.7  43 
 PAM  EZ I        15 3 11.03        32.6 0.24            151           78.7  43 
 PAM  EN ES       15 3 27.89                             150    0.0610 78.7  43 
 RUS  HZ EP       15 3 12.44                             142   -0.0910  103 174 
 RUS  HN ES       15 3 30.62                             142   -0.2510  103 174 
 RUS  HZ I        15 3 31.35         6.9 0.20            146            103 174 
 PTB  HZ EP       15 3 14.87                             132   -0.36 9  144 258 
 PTB  HN ES       15 3 35.65                             132   -0.04 9  144 258 
 PTB  HZ I        15 3 37.35         8.6 0.28            132            144 258 
 OCA  HN ES       15 3 38.12                             129   -0.16 9  157 355 
 OCA  HZ I        15 3 42.62        24.5 0.14            129            157 355 
 ZAR  HZ EP       15 3 20.93                             122    0.31 9  199 292 
 ZAR  HN ES       15 3 45.15                             122   -0.12 9  199 292 
 ZAR  HZ I        15 3 52.63        13.7 0.28            122            199 292 
 GUY2CHZ EP       15 3 32.80                             112    0.66 7  299 234 
 GUY2CHE ES       15 4  5.78                             112    0.00 7  299 234 
 GUY2CHZ I        15 4 16.42         2.9 0.34                           299 234 
                                                                                
