 2012  520 1759  7.2 L   6.799 -73.135140.4  RSN 12 0.5 2.8LRSN                1
 GAP=138        1.40       6.3     8.0  9.3 -0.5354E+01  0.2889E+02  0.6008E+01E
 Epicentro: LOS SANTOS - SANTANDER                                             3
 ACTION:UP  12-07-05 12:06 OP:pat  STATUS:               ID:20120520175907 L   I
 2012-05-20-1757-48M.COL___190                                                 6
 STAT SP IPHASW D HRMM SECON CODA AMPLIT PERI AZIMU VELO SNR AR TRES W  DIS CAZ7
 BAR2 SZ IP       1759 26.41                             170     0.210   23 193 
 BAR2 SZ ES   1   1759 40.20                             170    -0.8 7   23 193 
 BAR2 SZ I        1759 42.00       186.2 0.30                            23 193 
 BRR  HZ IP     C 1759 28.17                             151     0.310   72 298 
 BRR  HZ I        1759 28.30       250.7 0.16                            72 298 
 BRR  HN ES   1   1759 45.11                             151     1.1 7   72 298 
 PAM  SZ IP       1759 29.13                             150     0.310   77  39 
 PAM  SE ES   1   1759 45.99                             150     0.3 7   77  39 
 RUS  HZ EP       1759 30.44                             143     0.010  100 177 
 RUS  HN ES   1   1759 48.33                             143    -0.2 7  100 177 
 RUS  HZ I        1759 50.27        36.9 0.50                           100 177 
 PTB  HZ EP       1759 32.98                             131    -0.9 9  149 259 
 PTB  HZ I        1759 57.78        52.1 0.28                           149 259 
 OCA  HZ EP       1759 34.30                             128    -0.9 9  161 353 
 OCA  HZ I        1759 59.27       160.6 0.24                           161 353 
 ZAR  HZ EP       1759 39.46                             121     0.0 9  205 292 
 ZAR  HN ES   2   18 0  4.13                             121    -0.5 4  205 292 
 ZAR  HZ I        18 0 10.80       106.6 0.32                           205 292 
 NOR  SZ EP       1759 42.94                             117     0.2 8  236 235 
 NOR  SE ES   1   18 0 10.27                             117    -0.2 6  236 235 
 CHI  HZ EP       1759 45.00                             116     0.3 8  249 195 
 CHI  HZ I        18 0 19.77        13.3 0.28                           249 195 
 HEL  HZ EP       1759 48.01                             114     0.7 8  273 256 
 HEL  HZ I        18 0 24.70        35.5 0.52                           273 256 
 RREF HZ EP   2   1759 53.15                             110    -0.1 3  323 230 
 RREF HZ I        18 0 39.73        24.8 0.30                           323 230 
 PRA  HZ EP       18 0  0.88                             106     0.2 6  392 210 
                                                                                
