 2012  220 1441 31.3 L   6.762 -73.105146.0  RSN 10 0.4 2.0LRSN                1
 GAP=144        0.58       4.2     4.6  5.6 -0.1950E+01  0.4212E+01  0.1039E+02E
 ACTION:UP  12-03-07 16:32 OP:epov STATUS:               ID:20120220144131 L   I
 2012-02-20-1440-00M.COL___191                                                 6
 STAT SP IPHASW D HRMM SECON CODA AMPLIT PERI AZIMU VELO AIN AR TRES W  DIS CAZ7
 BAR2 SZ EP   1   1441 50.95                             171    0.05 7 20.6 204 
 BAR2 SZ ES   2   1442  5.89                             171   -0.31 5 20.6 204 
 BAR2 SZ I        1442  9.53        21.5 0.44                          20.6 204 
 GIR2 SZ EP   2   1441 51.01                             166   -0.14 5 36.4 344 
 GIR2 SZ ES   2   1442  6.44                             166   -0.19 5 36.4 344 
 BRR  HZ EP   1   1441 52.87                             151    0.05 7 77.1 300 
 BRR  HE ES   1   1442 10.28                             151    0.68 7 77.1 300 
 BRR  HZ I        1442 12.74        20.3 0.16                          77.1 300 
 PAM  SZ EP   2   1441 53.75                             151    0.17 5 78.0  35 
 PAM  SN ES   2   1442 10.89                             151   -0.06 5 78.0  35 
 RUS  HZ EP   1   1441 54.57                             145   -0.19 7 96.2 179 
 RUS  HN ES   2   1442 13.16                             145    0.10 5 96.2 179 
 RUS  HZ I        1442 15.31        10.9 0.24                          96.2 179 
 PTB  HZ EP   1   1441 57.92                             132   -0.70 7  151 261 
 PTB  HN ES   2   1442 19.14                             132   -0.78 5  151 261 
 NOR  SZ EP   2   1442  7.09                             119   -0.09 4  236 236 
 NOR  SN ES   2   1442 35.43                             119    0.27 4  236 236 
 CHI  HZ EP   1   1442  8.89                             118    0.19 6  246 196 
 CHI  HN ES   2   1442 38.38                             118    0.51 4  246 196 
 CHI  HZ I        1442 44.26         4.8 0.48                           246 196 
 HEL  HZ EP   2   1442 11.98                             115    0.09 4  275 257 
 RREF HZ EP   2   1442 18.10                             111    0.57 3  322 230 
 RREF HN ES   2   1442 53.79                             111    0.20 3  322 230 
 RREF HZ I        1443  2.46         5.6 0.27                           322 230 
                                                                                
