 2016  420 1323 50.3 L   7.396 -73.315120.7  RSN  6 0.3 1.8LRSN                1
 GAP=181        0.58       4.5     3.3  6.6 -0.5364E+01  0.1207E+02 -0.6686E+01E
 Epicentro: EL PLAYON - SANTANDER                                              3
 ACTION:UPD 16-05-05 14:22 OP:rebc STATUS:               ID:20160420132350 L   I
 OLDACT:ARG 16-04-20 21:02 OP:ar   STATUS:               ID:20160420131744     3
 2016-04-20-1317-44M.COL___306                                                 6
 STAT SP IPHASW D HRMM SECON CODA AMPLIT PERI AZIMU VELO AIN AR TRES W  DIS CAZ7
 PAM  EZ EP       1324  9.32                             149    0.0110 68.2  95 
 PAM  EN ES       1324 24.11                             149   -0.0210 68.2  95 
 PAM  EZ I        1324 25.36         6.1 0.20            154           68.2  95 
 BAR2 EZ EP     C 1324 10.74                             141    0.2610 90.0 171 
 BAR2 EZ ES       1324 26.38                             141    0.1510 90.0 171 
 BAR2 EZ I        1324 27.68        48.6 0.32            143           90.0 171 
 PTB  HZ EP       1324 16.30                             124   -0.04 9  158 233 
 PTB  HN ES       1324 36.57                             124   -0.09 9  158 233 
 PTB  HZ I        1324 40.30         7.9 0.16            125            158 233 
 RUS  HZ EP   2   1324 17.59                             122   -0.45 5  168 171 
 RUS  HN ES   2   1324 38.68                             122   -1.00 5  168 171 
 RUS  HZ I        1324 43.74         3.0 0.36            124            168 171 
 ZAR  HZ EP   2   1324 17.73                             121    0.06 4  171 274 
 ZAR  HN ES   2   1324 38.56                             121   -0.46 4  171 274 
 ZAR  HZ I        1324 43.17         8.9 0.20            123            171 274 
 GUY2CHZ EP   4   1324 39.04                             105    2.76 0  330 223 
 GUY2CHE ES   2   1325 12.94                             105    0.79 3  330 223 
 GUY2CHZ I        1325 22.47         3.4 0.38                           330 223 
                                                                                
