 2015  320 1414 14.9 L   6.407 -73.650101.9  RSN 27 0.4 2.9LRSN                1
 GAP= 58        1.60       3.0     3.3  6.9 -0.2905E+01  0.5567E+01  0.1840E+01E
 Epicentro: SANTA HELENA DEL OPON - SANTANDER                                  3
     116.0      62.0    -120.0  9.0  4.0 10.0  0.0  0.1           RSN FPFIT    F
 ACTION:UPD 15-04-30 16:27 OP:nd   STATUS:               ID:20150320141414 L   I
 OLDACT:REG 15-03-20 20:59 OP:stll STATUS:               ID:20150320140750     3
 2015-03-20-1407-50M.COL___278                                                 6
 STAT SP IPHASW D HRMM SECON CODA AMPLIT PERI AZIMU VELO AIN AR TRES W  DIS CAZ7
 BAR2 EZ IP     D 1414 31.41                             149    0.5710 55.6  68 
 BAR2 EZ ES       1414 43.80                             149    0.5610 55.6  68 
 BRR  HZ IP     C 1414 32.40                             139    0.3210 77.7 355 
 BRR  HE ES       1414 45.58                             139    0.1310 77.7 355 
 BRR  HZ I        1414 47.23       131.9 0.48            129           77.7 355 
 RUS  HZ IP     D 1414 33.23                             137   -0.0910 84.6 132 
 RUS  HZ I        1414 33.60       178.4 0.34            133           84.6 132 
 RUS  HN ES       1414 47.45                             137   -0.2110 84.6 132 
 PTB  HZ IP     D 1414 32.45                             135   -0.7110 90.4 279 
 PTB  HE ES       1414 46.67                             135   -0.6910 90.4 279 
 PTB  HZ I        1414 49.20       280.2 0.24            124           90.4 279 
 SPBC HZ IP     D 1414 33.59                             133   -0.1310 95.7 209 
 SPBC HN ES       1414 48.29                             133   -0.0710 95.7 209 
 SPBC HZ I        1414 50.56       364.7 0.30            125           95.7 209 
 PAM  SZ IP     C 1414 39.59                             120    0.28 9  147  45 
 PAM  SZ I        1414 41.94       107.4 0.14            113            147  45 
 PAM  SE ES       1414 58.42                             120    0.10 9  147  45 
 NOR  HZ EP       1414 39.81                             116   -0.76 9  164 235 
 NOR  HN ES       1415  0.42                             116   -0.13 9  164 235 
 NOR  HZ I        1415  2.89       137.4 0.16            110            164 235 
 ZAR  HZ IP     D 1414 42.44                             114    0.23 9  180 312 
 ZAR  HN ES       1415  3.59                             114    0.11 9  180 312 
 ZAR  HZ I        1415 10.53       100.4 0.38            107            180 312 
 ROSC BZ EP       1414 44.30                             113    0.60 9  188 203 
 ROSC BN ES       1415  6.77                             113    0.64 9  188 203 
 ROSC BZ I        1415 14.71        67.9 0.35            107            188 203 
 TAM  HZ IP     C 1414 45.38                             110    0.18 8  206  89 
 TAM  HN ES       1415  7.45                             110   -1.35 8  206  89 
 TAM  HZ I        1415 13.13        77.9 0.28            106            206  89 
 OCA  HZ EP       1414 45.13                             110   -0.24 8  206  10 
 OCA  HN ES       1415  9.86                             110    0.76 8  206  10 
 HEL  HZ EP     C 1414 46.28                             110    0.25 8  209 264 
 HEL  HE ES       1415 10.25                             110   -0.03 8  209 264 
 HEL  HZ I        1415 13.37       138.3 0.28            105            209 264 
 GUY2CHZ EP       1414 48.56                             108   -0.06 8  231 236 
 GUY2CHE ES       1415 14.77                             108   -0.12 8  231 236 
 GUY2CHZ I        1415 22.05        75.7 0.30                           231 236 
 RREF HZ EP       1414 51.19                             106   -0.03 8  251 229 
 RREF HN ES       1415 19.99                             106    0.48 8  251 229 
 RREF HZ I        1415 25.75        54.2 0.26            102            251 229 
 URE  HZ EP   9   1414 49.90                             105   -1.08 0  256 306 
 URE  HE ES       1415 17.33                                   -0.68 8  256 306 
 URE  HZ I        1415 25.17        54.6 0.20            101            256 306 
 CBOC HZ EP       1414 53.29                             104    0.63 8  268 257 
 CBOC HZ I        1415 25.48        32.5 0.42            101            268 257 
 SML  HZ EP       1414 52.54                             104    0.04 8  269 350 
 SML  HN ES       1415 21.34                             104   -0.46 8  269 350 
 SML  HZ I        1415 32.88       122.6 0.10            101            269 350 
 TOL  SZ EP       1414 53.12                             104   -0.36 8  274 223 
 TOL  SN ES       1415 23.42                             104   -0.12 8  274 223 
 ANIL HZ EP       1414 54.82                             103   -0.26 7  287 223 
 ANIL HE ES       1415 26.82                             103    0.44 7  287 223 
 DBB  SZ EP     C 1414 55.27                             102    0.03 7  291 284 
 DBB  SZ I        1415 29.55        86.0 0.36            100            291 284 
 PTGC HZ IP   9 D 1414 54.44                             102   -1.34 0  296 145 
 PTGC HZ I        1414 55.21        30.7 0.22            100            296 145 
 PTGC HN ES       1415 24.66                                   -1.63 7  296 145 
 PRA  HZ EP       1414 59.18                             100   -0.41 7  328 205 
 PRA  HE ES       1415 34.12                             100   -0.29 7  328 205 
 PRA  HZ I        1415 39.05        51.1 0.36             99            328 205 
 ORTC HZ EP       1414 59.23                             100   -0.38 7  328 213 
 ORTC HN ES       1415 34.86                             100    0.41 7  328 213 
 ORTC HZ I        1415 40.94        39.9 0.42             99            328 213 
 MON  HZ EP   9   1414 59.83                              99   -1.63 0  344 320 
 MON  HN ES       1415 34.06                                   -2.05 7  344 320 
 MON  HZ I        1415 39.54        22.9 0.38             98            344 320 
 SJC  HZ EP   9   1415  9.74                              95   -1.15 0  421 337 
 SJC  HN ES       1415 49.07                                   -4.31 5  421 337 
 SJC  HZ I        1415 55.39         9.2 0.24             96            421 337 
 SDV  BZ EP   9   1415 11.93                              95   -0.34 0  431  50 
 SDV  BE ES       1415 55.12                                   -1.52 5  431  50 
 CRJC HZ IP   9 C 1415 21.62                              91   -1.00 0  517   9 
 CRJC HN ES       1416 13.39                                   -1.01 4  517   9 
 CRJC HZ I        1416 21.50        40.1 0.48             95            517   9 
                                                                                
