 2013  920 1023 29.9 L   6.777 -73.182142.2  RSN  7 0.4 1.6LRSN                1
 GAP=197        0.91       4.7     6.0  7.2  0.1163E+02  0.1093E+02 -0.4190E+01E
 Epicentro: LOS SANTOS - SANTANDER                                             3
 ACTION:UPD 13-10-22 09:23 OP:ep   STATUS:               ID:20130920102329 L   I
 OLDACT:REG 13-09-20 15:45 OP:jn   STATUS:               ID:20130920101959     3
 2013-09-20-1019-59M.COL___269                                                 6
 STAT SP IPHASW D HRMM SECON CODA AMPLIT PERI AZIMU VELO AIN AR TRES W  DIS CAZ7
 BAR2 SZ EP       1023 49.21                             172    0.2110 20.4 180 
 BAR2 SZ ES       1024  3.72                             172   -0.2010 20.4 180 
 BAR2 SZ I        1024  5.32        13.1 0.16            166           20.4 180 
 BRR  HZ EP       1023 50.39                             153   -0.1010 69.0 302 
 BRR  HE ES   1   1024  7.04                             153    0.45 7 69.0 302 
 BRR  HZ I        1024 11.29         8.2 0.14            148           69.0 302 
 RUS  HZ EP   1   1023 53.06                             144   -0.03 7 98.4 174 
 RUS  HN ES       1024 11.32                             144    0.1010 98.4 174 
 RUS  HZ I        1024 12.45         5.3 0.20            145           98.4 174 
 PTB  HZ EP       1023 55.52                             132   -0.61 9  143 260 
 PTB  HN ES   1   1024 15.86                             132   -0.75 7  143 260 
 PTB  HZ I        1024 20.24         3.8 0.14            130            143 260 
 SPBC HZ EP   1   1023 57.59                             129   -0.06 7  159 218 
 SPBC HN ES   1   1024 19.73                             129    0.40 7  159 218 
 SPBC HZ I        1024 26.10         5.8 0.26            128            159 218 
 ZAR  HZ EP   1   1024  2.70                             122    0.92 6  201 293 
 ZAR  HN ES       1024 27.07                             122    0.38 9  201 293 
 ZAR  HZ I        1024 34.47         6.1 0.28            122            201 293 
 SML  HE ES   1   1024 34.38                             117   -0.45 6  244 336 
                                                                                
