 2017 1220 1209 31.9 L   6.793 -73.142143.2  RSN  7 0.4 2.2LRSN                1
 GAP=152        0.92       3.8     4.8  5.9 -0.6070E+01  0.8003E+01 -0.1549E+01E
 Epicentro: LOS SANTOS - SANTANDER                                             3
 ACTION:UPD 18-01-04 13:22 OP:rebc STATUS:               ID:20171220120931 L   I
 OLDACT:UP  17-12-20 21:27 OP:dani STATUS:               ID:20171220120220     3
 OLDACT:REG 17-12-20 20:28 OP:dani STATUS:               ID:20171220120220     3
 2017-12-20-1208-00M.COL___461                                                 6
 STAT SP IPHASW D HRMM SECON CODA AMPLIT PERI AZIMU VELO AIN AR TRES W  DIS CAZ7
 BAR2 EZ EP       12 9 51.19                             171   -0.0210 22.6 191 
 BAR2 EZ ES       1210  6.07                             171   -0.1910 22.6 191 
 BAR2 EZ I        1210  7.37        44.1 0.18            170           22.6 191 
 PAM  EZ EP       12 9 53.90                             150    0.0310 77.7  39 
 PAM  EN ES       1210 11.12                             150    0.1210 77.7  39 
 PAM  EZ I        1210 13.37        17.6 0.44            154           77.7  39 
 PTB  HZ EP   9   12 9 57.74                             131   -0.94 0  148 259 
 PTB  HN ES       1210 18.44                             131   -0.19 9  148 259 
 PTB  HZ I        1210 24.18         8.1 0.18            131            148 259 
 OCA  HZ EP       12 9 59.35                             129   -0.75 9  161 353 
 OCA  HN ES       1210 22.70                             129    0.62 9  161 353 
 OCA  HZ I        1210 25.45        29.3 0.24            130            161 353 
 SPBC HZ EP       1210  0.22                             128    0.05 9  163 219 
 SPBC HE ES       1210 22.23                             128    0.01 9  163 219 
 SPBC HZ I        1210 27.00        19.3 0.24            130            163 219 
 ZAR  HZ EP       1210  3.83                             122   -0.42 9  205 292 
 ZAR  HN ES       1210 29.47                             122   -0.02 9  205 292 
 ZAR  HZ I        1210 35.99        21.2 0.38            122            205 292 
 GUY2CHZ EP       1210 16.22                             112    0.84 7  301 235 
 GUY2CHZ I        1210 57.32         5.0 0.34                           301 235 
                                                                                
