 2010  220 1432 10.7 L   6.849 -72.998140.0  RSN  7 0.5 2.1LRSN                1
 GAP=198        0.64       3.9     9.2  6.7  0.3857E+01  0.2478E+01 -0.1232E+00E
 Epicentro: CEPITA - SANTANDER                                                 3
 ACTION:UP  10-08-24 09:49 OP:vdl  STATUS:               ID:20100220143210 L   I
 2010-02-20-1420-00S.COL___097                                                 6
 STAT SP IPHASW D HRMM SECON CODA AMPLIT PERI AZIMU VELO SNR AR TRES W  DIS CAZ7
 BAR2 SZ IP       1432 30.07                             165     0.110   35 216 
 BAR2 SZ ES   2   1432 44.82                             165    -0.1 5   35 216 
 BRR  HZ IP       1432 31.89                             147    -0.110   84 290 
 BRR  HZ I        1432 32.12        47.2 0.10                            84 290 
 BRR  HN ES   2   1432 48.95                             147     0.3 5   84 290 
 RUS  BZ EP       1432 34.27                             141     0.010  106 185 
 RUS  BN ES   2   1432 52.53                             141    -0.2 5  106 185 
 OCA  SZ EP       1432 38.29                             129     0.0 9  158 347 
 OCA  SZ ES   3   1432 58.51                             129    -1.4 2  158 347 
 OCA  SZ I        1433  8.70        22.5 0.30                           158 347 
 CHI  HZ EP   2   1432 50.00                             115     0.8 4  259 198 
 CHI  HN ES   3   1433 17.97                             115    -1.2 2  259 198 
 CHI  HZ I        1433 20.05         4.7 0.35                           259 198 
 TOL  SZ EP       1433  0.84                             107     0.3 6  359 226 
 TOL  SZ ES   3   1433 38.96                             107    -0.4 2  359 226 
 PRA  HZ EP   2   1433  4.18                             105    -1.3 3  405 211 
 PRA  HN ES   3   1433 46.87                             105    -1.4 1  405 211 
 PRA  HZ I        1433 50.82         3.0 0.41                           405 211 
                                                                                
