 2012  620 1527  6.8 L   6.784 -73.141142.5  RSN  6 0.2 2.0LRSN                1
 GAP=138        0.41       3.5     3.7  7.3  0.1633E+01  0.1230E+02  0.2286E+01E
 Epicentro: LOS SANTOS - SANTANDER                                             3
 ACTION:UPD 12-08-06 17:51 OP:ep   STATUS:               ID:20120620152706 L   I
 2012-06-20-1519-40M.COL___179                                                 6
 STAT SP IPHASW D HRMM SECON CODA AMPLIT PERI AZIMU VELO AIN AR TRES W  DIS CAZ7
 BAR2 SZ EP   1   1527 25.95                             171   -0.09 7 21.7 192 
 BAR2 SZ ES   1   1527 41.11                             171    0.08 7 21.7 192 
 BAR2 SZ I        1527 42.66        15.0 0.24                          21.7 192 
 PAM  SN ES   2   1527 45.77                             150   -0.10 5 78.4  38 
 RUS  HE ES   1   1527 48.40                             144    0.08 7 98.8 176 
 PTB  HN ES   1   1527 54.16                             131   -0.25 7  148 260 
 ZAR  HN ES   2   1528  4.99                             122    0.56 4  205 293 
 ZAR  HZ I        1528 10.26        16.8 0.37                           205 293 
 CHI  HN ES   2   1528 13.36                             117    0.04 4  247 195 
                                                                                
