 2017  320 1113  4.0 L   6.820 -73.133145.5  RSN 15 0.5 2.4LRSN                1
 GAP=153        1.04       3.9     4.1  5.7 -0.2914E+01  0.4711E+01  0.6488E+01E
 Epicentro: LOS SANTOS - SANTANDER                                             3
 ACTION:UPD 17-05-25 18:42 OP:jn   STATUS:               ID:20170320111304 L   I
 OLDACT:UP  17-03-21 00:20 OP:dnl  STATUS:               ID:20170320110741     3
 OLDACT:REG 17-03-20 22:04 OP:dnl  STATUS:               ID:20170320110741     3
 2017-03-20-1108-00M.COL___372                                                 6
 STAT SP IPHASW D HRMM SECON CODA AMPLIT PERI AZIMU VELO AIN AR TRES W  DIS CAZ7
 BAR2 EZ IP     D 1113 23.54                             170   -0.1510 25.8 192 
 BAR2 EZ ES       1113 38.51                             170   -0.5010 25.8 192 
 BAR2 EZ I        1113 39.64        73.3 0.36            169           25.8 192 
 BRR  HZ IP     C 1113 25.37                             152    0.2010 71.5 296 
 BRR  HN ES       1113 42.45                             152    0.8010 71.5 296 
 BRR  HZ I        1113 46.60        35.8 0.18            149           71.5 296 
 PAM  EZ IP     C 1113 26.38                             151    0.3110 74.8  40 
 PAM  EN ES       1113 43.48                             151    0.2310 74.8  40 
 PAM  EZ I        1113 45.74        54.3 0.54            154           74.8  40 
 PTB  HZ EP       1113 30.67                             132   -0.48 9  150 258 
 PTB  HE ES       1113 51.68                             132   -0.62 9  150 258 
 PTB  HZ I        1113 57.63        25.5 0.22            130            150 258 
 SPBC HZ EP       1113 32.65                             128   -0.12 9  166 219 
 SPBC HE ES       1113 55.29                             128    0.12 9  166 219 
 SPBC HZ I        1113 59.38        44.9 0.24            128            166 219 
 ZAR  HZ EP       1113 35.99                             122   -0.53 9  205 291 
 ZAR  HN ES       1114  1.56                             122   -0.29 9  205 291 
 ZAR  HZ I        1114  6.95        32.8 0.34            121            205 291 
 CHI  HZ IP     C 1113 41.75                             117   -0.24 8  251 195 
 CHI  HN ES       1114 10.98                             117   -0.62 8  251 195 
 CHI  HZ I        1114 14.58        20.6 0.58            118            251 195 
 ROSC BZ EP   9   1113 43.49                             116    1.06 0  255 211 
 ROSC BN ES       1114 13.74                             117    0.30 8  255 211 
 ROSC BZ I        1114 18.23        40.5 0.40            117            255 211 
 URE  HZ EP   9   1113 42.94                             113   -2.21 0  284 291 
 URE  HN ES       1114 14.40                             115   -0.61 7  284 291 
 URE  HZ I        1114 27.47        18.4 0.20            113            284 291 
 GUY2CHZ EP       1113 48.25                             112    0.34 7  304 235 
 GUY2CHN ES   4   1114 23.43                             112    1.30 0  304 235 
 GUY2CHZ  IAML    1114 29.79        14.4 0.36                           304 235 
 CBOC HZ EP       1113 51.49                             110    0.31 7  336 252 
 CBOC HN ES       1114 28.63                             110    0.69 7  336 252 
 CBOC HZ I        1114 33.74         3.8 0.40            110            336 252 
 DBB  EZ EP   2   1113 51.14                             109   -0.51 3  341 274 
 DBB  EN ES   4   1114 26.24                             109   -2.55 0  341 274 
 DBB  EZ I        1114 28.31         7.5 0.22            109            341 274 
 ANIL HE ES       1114 34.33                             108    1.13 6  360 224 
 ORTC HZ EP   2   1113 58.19                             106   -0.07 3  398 216 
 ORTC HE ES       1114 41.14                             106    0.59 6  398 216 
 ORTC HZ I        1114 44.94        10.0 0.22            107            398 216 
 SJC  HZ EP   9   1113 56.85                             106   -2.61 0  408 327 
 SJC  HN ES       1114 39.75                             107   -0.33 6  408 327 
 SJC  HZ I        1114 51.05         6.0 0.30            106            408 327 
                                                                                
