 2010  620 1056 58.2 L   6.708 -73.128147.9  RSN  4 0.3 1.6LRSN                1
 GAP=161        0.61       5.0    10.5  8.8  0.1529E+01 -0.2204E+02 -0.7024E+01E
 Epicentro: JORDAN - SANTANDER                                                 3
 ACTION:UP  10-08-24 10:11 OP:vdl  STATUS:               ID:20100620105658 L   I
 2010-06-20-1054-57S.COL___118                                                 6
 STAT SP IPHASW D HRMM SECON CODA AMPLIT PERI AZIMU VELO SNR AR TRES W  DIS CAZ7
 BAR2 SZ EP   1   1057 17.68                             174    -0.3 7   14 205 
 BAR2 SZ ES   2   1057 32.85                             174    -0.5 5   14 205 
 BRR  HZ EP   1   1057 19.71                             151    -0.3 7   78 304 
 BRR  HZ I        1057 23.93        10.2 0.48                            78 304 
 BRR  HN ES   2   1057 37.51                             151     0.5 5   78 304 
 RUS  HZ EP   1   1057 21.70                             147     0.2 7   90 177 
 RUS  HE ES   2   1057 39.96                             147     0.3 5   90 177 
 RUS  HZ I        1057 41.72         4.1 0.37                            90 177 
 GRA  SZ EP   1   1057 24.57                             135     0.1 7  135  15 
 GRA  SZ ES   2   1057 45.05                             135     0.2 5  135  15 
                                                                                
