 2017 1020 1610 58.9 L   6.785 -73.159141.3  RSN 17 0.6 2.4LRSN                1
 GAP= 72        1.32       4.2     3.8  6.4  0.2198E+01  0.4081E+01  0.4906E+01E
 Epicentro: LOS SANTOS - SANTANDER                                             3
 ACTION:UPD 17-11-07 19:34 OP:rebc STATUS:               ID:20171020161058 L   I
 OLDACT:UP  17-10-21 00:44 OP:edw  STATUS:               ID:20171020160747     3
 OLDACT:UP  17-10-21 00:43 OP:edw  STATUS:               ID:20171020160747     3
 OLDACT:REG 17-10-20 20:21 OP:edw  STATUS:               ID:20171020160747     3
 2017-10-20-1608-00M.COL___459                                                 6
 STAT SP IPHASW D HRMM SECON CODA AMPLIT PERI AZIMU VELO AIN AR TRES W  DIS CAZ7
 BAR2 EZ EP     C 1611 17.99                             171    0.0410 21.4 187 
 BAR2 EZ ES       1611 32.86                             171    0.0410 21.4 187 
 BAR2 EZ I        1611 35.20        80.2 0.28            168           21.4 187 
 BRR  HZ IP     C 1611 19.89                             152    0.3510 70.8 300 
 BRR  HN ES       1611 36.72                             152    1.0810 70.8 300 
 BRR  HZ I        1611 41.21        78.7 0.14            151           70.8 300 
 PAM  EZ IP     C 1611 20.87                             149    0.1010 79.6  40 
 PAM  EN ES       1611 37.92                             149    0.0810 79.6  40 
 PAM  EZ I        1611 40.06        33.1 0.58            155           79.6  40 
 RUS  HZ EP       1611 22.04                             143   -0.0510 99.0 175 
 RUS  HN ES       1611 39.72                             143   -0.4710 99.0 175 
 RUS  HZ I        1611 41.20        31.1 0.24            143           99.0 175 
 PTB  HZ EP       1611 24.86                             131   -0.48 9  146 259 
 PTB  HN ES       1611 44.93                             131   -1.04 9  146 259 
 PTB  HZ I        1611 48.10        26.8 0.18            130            146 259 
 TAM  HZ EP       1611 26.36                             129    0.05 9  156 104 
 TAM  HN ES       1611 46.94                             129   -0.76 9  156 104 
 SPBC HZ EP       1611 26.97                             128    0.13 9  161 219 
 SPBC HN ES       1611 48.07                             128   -0.57 9  161 219 
 SPBC HZ I        1611 51.39        30.0 0.24            128            161 219 
 YPLC HZ EP       1611 28.41                             126    0.12 9  176 151 
 YPLC HN ES       1611 51.66                             126    0.44 9  176 151 
 YPLC HZ I        1611 54.73        30.1 0.28            127            176 151 
 ZAR  HZ EP       1611 31.13                             121    0.15 9  203 293 
 ZAR  HN ES       1611 56.37                             121    0.36 9  203 293 
 ZAR  HZ I        1612  4.77        39.3 0.50            122            203 293 
 TABC EZ EP   4   1611 35.59                             119    1.44 0  228 211 
 TABC EZ ES   4   1612  6.30                             119    4.66 0  228 211 
 NOR  HZ EP       1611 34.69                             118    0.56 8  233 235 
 NOR  HN ES   4   1612  1.88                             118    0.26 0  233 235 
 NOR  HZ I        1612  6.59        11.7 0.16            118            233 235 
 CHI  HZ EP       1611 36.40                             116    0.27 8  247 195 
 CHI  HN ES       1612  5.14                             116   -0.03 8  247 195 
 CHI  HZ I        1612 15.76         6.9 0.52            117            247 195 
 ROSC BZ EP   4   1611 38.67                             116    2.14 0  251 211 
 ROSC BN ES   4   1612  9.02                             116    3.13 0  251 211 
 ROSC BZ I        1612 14.02        18.0 0.40            116            251 211 
 GUY2CHZ EP   4   1611 43.61                             112    1.56 0  299 235 
 GUY2CHN ES   4   1612 18.75                             112    3.03 0  299 235 
 GUY2CHZ I        1612 25.57         9.5 0.70                           299 235 
 PTGC HZ EP   4   1611 40.70                             111   -1.73 0  308 158 
 PTGC HN ES   4   1612 14.25                             111   -2.15 0  308 158 
 PRA  HZ EP       1611 52.04                             106    0.03 6  390 210 
 PRA  HN ES   4   1612 33.51                             106    0.08 0  390 210 
 PRA  HZ I        1612 39.81         9.9 0.40            106            390 210 
 ORTC HZ EP       1611 53.57                             106    1.17 6  393 216 
 ORTC HN ES   4   1612 36.61                             106    2.47 0  393 216 
 ORTC HZ I        1612 41.01         5.5 0.46            106            393 216 
 SJC  HZ EP       1611 52.45                             105   -1.93 6  410 327 
 SJC  HN ES   4   1612 33.74                             105   -3.93 0  410 327 
 SJC  HZ I        1612 38.28        12.2 0.64            106            410 327 
 CRJC HZ EP   4   1611 58.21                             103   -3.27 0  469   4 
 CRJC HN ES   4   1612 46.12                             103   -4.18 0  469   4 
 CRJC HZ I        1612 51.46         9.0 0.46            104            469   4 
                                                                                
