 2017  420 1408 47.8 L   7.198 -73.834 28.0  RSN  6 0.5 1.3LRSN                1
 GAP=157        0.82       3.5     1.9  2.4  0.6870E+00  0.1095E+01 -0.4119E+00E
 Epicentro: BARRANCABERMEJA - SANTANDER                                        3
 ACTION:UPD 17-05-30 21:14 OP:jn   STATUS:               ID:20170420140847 L   I
 OLDACT:UP  17-04-20 21:41 OP:dani STATUS:               ID:20170420135714d    3
 OLDACT:DUP 17-04-20 21:38 OP:dani STATUS:               ID:20170420135714d    3
 OLDACT:UP  17-04-20 21:38 OP:dani STATUS:               ID:20170420135713     3
 OLDACT:UP  17-04-20 21:38 OP:dani STATUS:               ID:20170420135713     3
 OLDACT:UP  17-04-20 21:37 OP:dani STATUS:               ID:20170420135713     3
 OLDACT:REG 17-04-20 19:52 OP:dani STATUS:               ID:20170420135713     3
 2017-04-20-1358-00M.COL___365                                                 6
 STAT SP IPHASW D HRMM SECON CODA AMPLIT PERI AZIMU VELO AIN AR TRES W  DIS CAZ7
 BRR  HZ IP     C 14 8 52.89                             147   -0.0710 16.8 127 
 BRR  HN ES       14 8 57.32                             147    0.3110 16.8 127 
 BRR  HZ I        14 8 58.58        34.4 0.10            143           16.8 127 
 BAR2 EZ EP       14 9  3.11                              61   -0.4810 98.3 133 
 BAR2 EZ ES       14 9 16.21                              61    0.2710 98.3 133 
 PTB  HZ EP       14 9  3.55                              61   -0.0110  100 223 
 PTB  HN ES       14 9 15.58                              61   -0.3010  100 223 
 PTB  HZ I        14 9 16.88         8.2 0.18             61            100 223 
 ZAR  HZ EP       14 9  5.97                              61    0.2310  118 286 
 ZAR  HE ES       14 9 19.82                              61    0.0610  118 286 
 ZAR  HZ I        14 9 21.38        12.6 0.46             61            118 286 
 PAM  EZ EP       14 9  7.53                              61    0.1510  126  83 
 PAM  EN ES       14 9 22.33                              61   -0.3510  126  83 
 PAM  EZ I        14 9 24.75         2.6 0.21             61            126  83 
 RUS  HZ EP   3   14 9 14.08                              61    1.66 2  167 150 
 RUS  HN ES   3   14 9 33.80                              61    2.15 2  167 150 
 RUS  HZ I        14 9 34.84         1.6 0.19             61            167 150 
                                                                                
