 2010 1020 1150 12.8 L   6.741 -73.087144.9  RSN  4 0.1 1.8LRSN                1
 GAP=225        0.38       9.1    14.6  6.7  0.1091E+03 -0.2408E+02 -0.9936E+00E
 Epicentro: JORDAN - SANTANDER                                                 3
 ACTION:UP  11-02-18 11:10 OP:tino STATUS:               ID:20101020115012 L   I
 2010-10-20-1146-34S.COL___126                                                 6
 STAT SP IPHASW D HRMM SECON CODA AMPLIT PERI AZIMU VELO SNR AR TRES W  DIS CAZ7
 BAR2 SZ EP   1   1150 32.44                             172     0.2 7   20 213 
 BAR2 SZ ES   2   1150 47.29                             172    -0.2 5   20 213 
 BAR2 SZ I        1150 48.30        13.5 0.25                            20 213 
 BTL  SZ EP   1   1150 32.43                             169     0.0 7   28 314 
 BRR  HZ EP   1   1150 34.23                             150    -0.2 7   80 300 
 BRR  HN ES   2   1150 51.40                             150     0.2 5   80 300 
 BRR  HZ I        1150 52.36        11.5 0.19                            80 300 
 RUS  HZ EP       1150 35.98                             146     0.010   94 180 
                                                                                
