 2015 1220 1128 12.7 L   6.869 -73.272125.2  RSN  8 0.4 2.2LRSN                1
 GAP=164        1.05       3.9     5.5  6.7 -0.4106E+01  0.6509E+01 -0.5257E+01E
 Epicentro: BETULIA - SANTANDER                                                3
 ACTION:UPD 16-02-04 15:06 OP:cam  STATUS:               ID:20151220112812 L   I
 OLDACT:UP  15-12-20 23:18 OP:ar   STATUS:               ID:20151220111746     3
 OLDACT:REG 15-12-20 20:47 OP:ar   STATUS:               ID:20151220111746     3
 2015-12-20-1117-46M.COL___326                                                 6
 STAT SP IPHASW D HRMM SECON CODA AMPLIT PERI AZIMU VELO AIN AR TRES W  DIS CAZ7
 BAR2 EZ EP     C 1128 30.68                             165    0.5410 32.1 162 
 BAR2 EZ ES       1128 43.64                             165   -0.0810 32.1 162 
 BAR2 EZ I        1128 44.90       135.5 0.26            168           32.1 162 
 BRR  HZ IP     C 1128 30.99                             155    0.2210 55.3 298 
 BRR  HN ES       1128 45.03                             155    0.1910 55.3 298 
 BRR  HZ I        1128 46.00        29.7 0.10            154           55.3 298 
 PTB  HZ IP     C 1128 35.84                             129   -1.13 9  136 255 
 PTB  HN ES       1128 55.75                             129   -0.12 9  136 255 
 PTB  HZ I        1128 57.60        17.1 0.14            131            136 255 
 OCA  HZ EP       1128 38.89                             126    0.22 9  152 358 
 OCA  HN ES       1128 58.33                             126   -0.57 9  152 358 
 OCA  HZ I        1129  4.29        32.0 0.24            126            152 358 
 SPBC HZ EP       1128 39.54                             124    0.02 9  161 213 
 SPBC HN ES       1129  0.35                             124   -0.07 9  161 213 
 SPBC HZ I        1129  1.76        11.3 0.28            127            161 213 
 ZAR  HZ EP       1128 42.57                             120    0.34 9  188 292 
 ZAR  HN ES       1129  5.58                             120    0.34 9  188 292 
 ZAR  HZ I        1129  7.42        11.4 0.16            121            188 292 
 SML  HZ EP       1128 46.84                             114   -0.04 8  231 338 
 SML  HE ES   4   1129 15.00                             114    1.47 0  231 338 
 SML  HZ I        1129 17.67        21.5 0.24            115            231 338 
 URE  HZ EP   2   1128 51.79                             111    0.72 4  268 292 
 URE  HN ES   4   1129 18.87                             111   -2.11 0  268 292 
 URE  HZ I        1129 20.44         8.0 0.34            112            268 292 
                                                                                
