 2016  320 1209 12.7 L   6.804 -73.124139.3  RSN  5 0.3 1.6LRSN                1
 GAP=185        0.72       3.4     4.3  6.9  0.3662E+01  0.7639E+01 -0.2989E+01E
 Epicentro: LOS SANTOS - SANTANDER                                             3
 ACTION:UPD 16-05-13 21:25 OP:cam  STATUS:               ID:20160320120912 L   I
 OLDACT:REG 16-03-20 20:48 OP:cara STATUS:               ID:20160320120747     3
 2016-03-20-1207-47M.COL___282                                                 6
 STAT SP IPHASW D HRMM SECON CODA AMPLIT PERI AZIMU VELO AIN AR TRES W  DIS CAZ7
 BAR2 EZ IP       12 9 31.86                             170    0.3310 24.3 195 
 BAR2 EZ ES       12 9 46.56                             170    0.3110 24.3 195 
 BAR2 EZ I        12 9 47.61         7.7 0.18            172           24.3 195 
 RUS  HZ EP       12 9 35.76                             142   -0.0410  101 177 
 RUS  HN ES       12 9 53.56                             142   -0.2910  101 177 
 RUS  HZ I        12 9 55.07         4.4 0.30            146            101 177 
 PTB  HZ EP       12 9 39.37                             130    0.03 9  150 259 
 PTB  HN ES       12 9 59.82                             130   -0.32 9  150 259 
 PTB  HZ I        1210  3.66         3.8 0.14            130            150 259 
 OCA  HN ES       1210  1.81                             128   -0.34 9  160 352 
 OCA  HZ I        1210  7.48        13.3 0.20            128            160 352 
 ZAR  HE ES       1210 10.39                             121    0.33 8  206 292 
 ZAR  HZ I        1210 16.17         5.5 0.54            121            206 292 
                                                                                
