 2011 1120 1527 59.3 L   6.812 -73.108143.5  RSN 12 0.5 2.3LRSN                1
 GAP=105        0.88       3.6     4.3  5.8 -0.1794E+01  0.5372E+01  0.3035E+01E
 Epicentro: LOS SANTOS - SANTANDER                                             3
 ACTION:UPD 12-07-13 16:11 OP:ep   STATUS:               ID:20111120152759 L   I
 2011-11-20-1525-46S.COL___178                                                 6
 STAT SP IPHASW D HRMM SECON CODA AMPLIT PERI AZIMU VELO AIN AR TRES W  DIS CAZ7
 BAR2 SZ EP   1   1528 18.96                             169    0.27 7 25.7 199 
 BAR2 SZ ES   1   1528 33.66                             169   -0.17 7 25.7 199 
 BAR2 SZ I        1528 35.24        64.1 0.29                          25.7 199 
 PAM  SZ EP   1   1528 21.71                             152    0.67 7 73.7  38 
 PAM  SN ES   1   1528 37.97                             152   -0.04 7 73.7  38 
 BRR  HZ EP       1528 20.89                             151    0.5310 74.3 296 
 BRR  HN ES   1   1528 37.49                             151    0.68 7 74.3 296 
 BRR  HZ I        1528 42.02        38.3 0.20                          74.3 296 
 RUS  HZ EP   1   1528 22.93                             143    0.04 7  102 178 
 RUS  HN ES   1   1528 40.69                             143   -0.62 7  102 178 
 RUS  HZ I        1528 42.53        21.7 0.23                           102 178 
 OCA  SZ EP   1   1528 26.41                             129   -0.93 7  159 352 
 OCA  SZ ES   1   1528 48.54                             129   -0.69 7  159 352 
 OCA  SZ I        1528 52.86        40.7 0.23                           159 352 
 YOP  SZ EP   1   1528 29.29                             126    0.19 7  178 155 
 ZAR  HZ EP   1   1528 32.33                             121    0.40 6  207 291 
 ZAR  HN ES   1   1528 57.16                             121   -0.24 6  207 291 
 ZAR  HZ I        1529  2.93        14.0 0.15                           207 291 
 NOR  SZ EP   1   1528 35.33                             117    0.00 6  239 235 
 NOR  SN ES   1   1529  2.67                             117   -0.78 6  239 235 
 HEL  HZ EP   1   1528 39.88                             114    0.01 6  276 256 
 HEL  HN ES   1   1529 11.35                             114   -0.17 6  276 256 
 HEL  HZ I        1529 18.18        12.2 0.48                           276 256 
 RREF HZ EP   1   1528 45.90                             110    0.11 5  326 230 
 RREF HZ I        1529 31.18        12.0 0.30                           326 230 
 SDV  BZ EP   1   1528 48.17                             108   -0.59 5  356  50 
 PRA  HZ EP   1   1528 53.21                             106    0.11 4  395 210 
 PRA  HN ES   1   1529 35.26                             106    0.18 4  395 210 
                                                                                
