 2010  920 1138  0.5 L   6.780 -73.067146.9  RSN  5 0.3 1.7LRSN                1
 GAP=236        0.59       5.1    10.9  6.7  0.2927E+02 -0.1495E+02  0.2089E+01E
 Epicentro: LOS SANTOS - SANTANDER                                             3
 ACTION:UP  11-02-18 11:04 OP:tino STATUS:               ID:20100920113800 L   I
 2010-09-20-1135-12S.COL___121                                                 6
 STAT SP IPHASW D HRMM SECON CODA AMPLIT PERI AZIMU VELO SNR AR TRES W  DIS CAZ7
 BAR2 SZ EP   2   1138 19.99                             170    -0.3 5   24 212 
 BAR2 SZ ES   2   1138 35.08                             170    -0.6 5   24 212 
 BAR2 SZ I        1138 41.48        17.9 0.25                            24 212 
 BTL  SZ EP       1138 20.51                             169     0.210   27 305 
 BRR  HZ EP   1   1138 21.92                             150    -0.3 7   80 297 
 BRR  HZ I        1138 22.13        15.6 0.17                            80 297 
 BRR  HE ES   1   1138 39.40                             150     0.2 7   80 297 
 RUS  HZ EP       1138 24.26                             145     0.110   98 181 
 RUS  HN ES   1   1138 42.69                             145     0.1 7   98 181 
 RUS  HZ I        1138 44.32         5.4 0.42                            98 181 
 CHI  HZ EP   1   1138 37.98                             117    -0.3 6  249 197 
 CHI  HN ES   2   1139  7.85                             117     0.1 4  249 197 
 CHI  HZ I        1139 13.23         2.7 0.37                           249 197 
                                                                                
