 2012  620 1526 37.7 L   6.804 -73.195144.0  RSN  5 0.4 1.8LRSN                1
 GAP=240        0.72       5.8     6.3  7.6  0.1706E+02  0.1323E+02  0.4021E+01E
 Epicentro: ZAPATOCA - SANTANDER                                               3
 ACTION:UPD 12-08-06 17:51 OP:ep   STATUS:               ID:20120620152637 L   I
 2012-06-20-1519-40M.COL___179                                                 6
 STAT SP IPHASW D HRMM SECON CODA AMPLIT PERI AZIMU VELO AIN AR TRES W  DIS CAZ7
 BAR2 SZ EP       1526 56.84                             170   -0.2810 23.5 177 
 BAR2 SZ ES   1   1527 12.81                             170    0.54 7 23.5 177 
 BAR2 SZ I        1527 13.01        14.3 0.35                          23.5 177 
 RUS  HE ES   2   1527 19.19                             143   -0.61 5  102 173 
 PTB  HZ EP   1   1527  3.68                             133   -0.37 7  143 258 
 PTB  HN ES   1   1527 24.36                             133   -0.25 7  143 258 
 PTB  HZ I        1527 33.28         5.2 0.18                           143 258 
 ZAR  HZ EP   1   1527  9.99                             123    0.49 6  199 293 
 ZAR  HN ES   1   1527 34.38                             123    0.08 6  199 293 
 ZAR  HZ I        1527 42.69         7.6 0.31                           199 293 
 CHI  HZ EP   1   1527 15.35                             117    0.15 6  248 194 
 CHI  HE ES   1   1527 44.86                             117    0.40 6  248 194 
 CHI  HZ I        1527 50.76         4.2 0.24                           248 194 
                                                                                
