 2012  220 1209 38.8 L   6.790 -73.127149.7  RSN 23 0.5 4.1LRSN                1
 GAP=104        0.88       2.5     3.5  4.2 -0.2027E+01  0.2142E+01  0.2516E+01E
 ACTION:UP  12-03-07 16:32 OP:epov STATUS:               ID:20120220120938 L   I
 2012-02-20-1208-59S.COL___191                                                 6
 STAT SP IPHASW D HRMM SECON CODA AMPLIT PERI AZIMU VELO AIN AR TRES W  DIS CAZ7
 BAR2 SZ IP       12 9 59.01                             171    0.1110 22.7 195 
 BAR2 SZ ES   1   1210 14.40                             171   -0.17 7 22.7 195 
 BAR2 SZ I        1210 15.82      2648.8 0.41                          22.7 195 
 GIR2 SZ IP       12 9 59.08                             167    0.1010 32.7 347 
 GIR2 SZ ES   1   1210 14.35                             167   -0.38 7 32.7 347 
 BRR  HZ IP     C 1210  0.88                             152    0.3710 73.5 299 
 BRR  HN ES   1   1210 18.22                             152    0.78 7 73.5 299 
 BRR  HZ I        1210 21.99      1821.6 0.18                          73.5 299 
 PAM  SZ IP       1210  1.79                             152    0.3710 77.0  38 
 PAM  SN ES   1   1210 19.07                             152    0.01 7 77.0  38 
 RUS  HZ IP     D 1210  2.79                             145   -0.0710 99.4 177 
 RUS  HN ES   1   1210 21.17                             145   -0.46 7 99.4 177 
 RUS  HZ I        1210 22.99       820.2 0.26                          99.4 177 
 PTB  HZ IP     D 1210  5.45                             133   -0.80 9  150 259 
 PTB  HN ES   1   1210 26.88                             133   -0.79 7  150 259 
 OCA  SZ EP       1210  7.71                             130    0.16 9  162 352 
 OCA  SZ ES   1   1210 30.30                             130    0.33 7  162 352 
 YOP  SZ IP       1210  9.47                             127    0.52 9  177 154 
 YOP  SZ I        1210 10.27       678.7 0.50                           177 154 
 YOP  SN ES   2   1210 32.00                             127   -0.47 4  177 154 
 NOR  SZ EP       1210 14.84                             119   -0.03 8  236 235 
 NOR  SN ES   1   1210 43.12                             119    0.11 6  236 235 
 CHI  HZ IP     D 1210 16.51                             118   -0.16 8  248 196 
 CHI  HN ES   1   1210 46.05                             118   -0.15 6  248 196 
 CHI  HZ I        1210 55.24       606.2 0.57                           248 196 
 ROSC BZ IP     D 1210 18.50                             117    1.35 8  253 212 
 ROSC BN ES   2   1210 46.83                             117   -0.24 4  253 212 
 ROSC BZ I        1210 55.25      1624.8 0.72                           253 212 
 HEL  HZ EP   1   1210 18.94                             115   -0.47 6  274 256 
 HEL  HN ES   2   1210 50.89                             115   -0.19 4  274 256 
 HEL  HZ I        1210 57.98       646.8 0.34                           274 256 
 VIL  SZ EP       1210 21.95                             113   -0.38 7  303 192 
 VIL  SN ES   1   1210 56.27                             113   -0.01 5  303 192 
 VIL  SZ I        1211  7.09       458.7 0.40                           303 192 
 GUY  SZ EP   2   1210 23.60                             113    0.63 4  305 235 
 GUY  SN ES   2   1210 57.80                             113    0.37 4  305 235 
 RREF HZ EP   1   1210 25.28                             111    0.07 5  323 230 
 RREF HN ES   1   1211  1.36                             111   -0.05 5  323 230 
 RREF HZ I        1211 10.67       933.5 0.35                           323 230 
 DBB  SZ EP       1210 26.77                             110    0.09 7  342 274 
 DBB  SZ ES   2   1211  3.88                             110   -0.15 3  342 274 
 TOL  SZ EP       1210 27.75                             110    0.46 7  344 225 
 TOL  SZ ES   2   1211  4.77                             110   -0.35 3  344 225 
 COD  HZ EP       1210 26.31                             109   -1.17 6  350 354 
 COD  HN ES   2   1211  5.58                             109    0.13 3  350 354 
 COD  HZ I        1211 11.48       766.7 0.57                           350 354 
 ANIL HZ EP       1210 29.27                             109    0.43 6  358 225 
 ANIL HN ES   2   1211  7.57                             109   -0.29 3  358 225 
 SDV  BZ IP     C 1210 28.17                             109   -0.73 6  360  50 
 SDV  BZ I        1210 29.52       438.6 0.33                           360  50 
 PRA  HZ EP       1210 32.03                             107   -0.44 6  392 210 
 PRA  HN ES   2   1211 14.57                             107    0.24 3  392 210 
 SJA  SZ EP   1   1210 32.66                             107   -0.76 4  399 193 
 SJA  SZ ES   2   1211 16.07                             107    0.04 3  399 193 
 GUA  SZ EP   2   1210 41.60                             104   -0.31 2  473 173 
 GUA  SZ ES   2   1211 31.22                             104    0.09 2  473 173 
                                                                                
