 2015  120 1338 42.0 L   6.745 -73.178151.9  RSN  4 0.2 1.7LRSN                1
 GAP=240        0.48       6.3     4.3  6.0  0.1317E+02  0.3159E+01 -0.1562E+02E
 Epicentro: VILLANUEVA - SANTANDER                                             3
 ACTION:UPD 15-03-02 15:41 OP:nd   STATUS:               ID:20150120133842 L   I
 OLDACT:REG 15-01-20 19:48 OP:spq  STATUS:               ID:20150120133750     3
 2015-01-20-1337-50M.COL___253                                                 6
 STAT SP IPHASW D HRMM SECON CODA AMPLIT PERI AZIMU VELO AIN AR TRES W  DIS CAZ7
 BAR2 EZ EP   1   1339  2.31                             173    0.09 8 16.9 182 
 BAR2 EZ ES   1   1339 17.83                             173   -0.20 8 16.9 182 
 BAR2 EZ I        1339 20.15        10.3 0.20            173           16.9 182 
 RUS  HE ES   1   1339 24.85                             147    0.23 8 94.8 174 
 RUS  HZ I        1339 26.05         5.3 0.37            152           94.8 174 
 PTB  HZ EP       1339  9.03                             134   -0.0110  143 261 
 PTB  HN ES       1339 29.99                             134   -0.1610  143 261 
 PTB  HZ I        1339 35.41         5.7 0.30            135            143 261 
 ZAR  HZ EP   1   1339 14.50                             124   -0.23 7  203 294 
 ZAR  HN ES   1   1339 40.70                             124    0.42 7  203 294 
 ZAR  HZ I        1339 47.01         5.9 0.26            125            203 294 
                                                                                
