 2013  120 1054 10.2 L   6.736 -73.193147.9  RSN  6 0.4 1.3LRSN                1
 GAP=133        0.73       5.7     6.7  9.5  0.1028E+02 -0.1258E+02 -0.7625E+01E
 Epicentro: VILLANUEVA - SANTANDER                                             3
 ACTION:UPD 13-02-15 09:15 OP:ep   STATUS:               ID:20130120105410 L   I
 2013-01-20-1050-00M.COL___241                                                 6
 STAT SP IPHASW D HRMM SECON CODA AMPLIT PERI AZIMU VELO AIN AR TRES W  DIS CAZ7
 BAR2 SZ EP       1054 29.84                             174   -0.0710 16.0 176 
 BAR2 SZ ES   2   1054 45.31                             174   -0.01 5 16.0 176 
 BAR2 SZ I        1054 46.09         7.3 0.16            172           16.0 176 
 BRR  HZ EP     C 1054 31.61                             153    0.1210 70.5 306 
 BRR  HN ES   1   1054 48.65                             153    0.52 7 70.5 306 
 PAM  SZ EP   2   1054 32.66                             148   -0.47 5 86.1  39 
 RUS  HZ EP   2   1054 34.03                             146    0.37 5 94.1 173 
 RUS  HN ES   1   1054 51.81                             146   -0.18 7 94.1 173 
 RUS  HZ I        1054 54.32         1.9 0.38            146           94.1 173 
 PTB  HN ES   1   1054 56.75                             134   -0.70 7  141 261 
 CHI  HN ES   2   1055 16.75                             119    0.85 4  241 194 
                                                                                
