 2017 1020 1313 18.4 L   6.781 -73.121143.5  RSN 13 0.6 2.0LRSN                1
 GAP=115        1.40       4.8     4.8  7.1 -0.5882E+00  0.5002E+01  0.1012E+02E
 Epicentro: LOS SANTOS - SANTANDER                                             3
 ACTION:UPD 17-11-07 19:34 OP:rebc STATUS:               ID:20171020131318 L   I
 OLDACT:UP  17-10-21 00:11 OP:edw  STATUS:               ID:20171020130745     3
 OLDACT:UP  17-10-21 00:09 OP:edw  STATUS:               ID:20171020130745     3
 OLDACT:REG 17-10-20 20:02 OP:edw  STATUS:               ID:20171020130745     3
 2017-10-20-1308-00M.COL___453                                                 6
 STAT SP IPHASW D HRMM SECON CODA AMPLIT PERI AZIMU VELO AIN AR TRES W  DIS CAZ7
 BAR2 EZ EP       1313 37.75                             171   -0.0110 21.9 198 
 BAR2 EZ ES       1313 53.16                             171    0.3210 21.9 198 
 BAR2 EZ I        1313 53.83        20.7 0.26            168           21.9 198 
 BRR  HZ IP     C 1313 39.54                             151    0.0010 74.6 299 
 BRR  HN ES       1313 56.49                             151    0.4910 74.6 299 
 BRR  HZ I        1313 59.61        21.8 0.40            152           74.6 299 
 PAM  EZ EP       1313 40.68                             150    0.2710 77.4  37 
 PAM  EN ES       1313 57.33                             150   -0.2110 77.4  37 
 PAM  EZ I        1313 59.66        16.8 0.42            155           77.4  37 
 RUS  HZ EP       1313 41.80                             144    0.0110 98.3 178 
 RUS  HN ES       1314  0.09                             144    0.0710 98.3 178 
 RUS  HZ I        1314  2.21        10.1 0.30            144           98.3 178 
 PTB  HZ EP       1313 44.72                             131   -0.71 9  150 260 
 PTB  HN ES       1314  4.73                             131   -1.75 9  150 260 
 PTB  HZ I        1314 12.98         8.7 0.40            132            150 260 
 SPBC HZ EP       1313 46.83                             128    0.06 9  163 220 
 SPBC HN ES       1314  8.84                             128   -0.03 9  163 220 
 SPBC HZ I        1314 11.31        16.4 0.64            129            163 220 
 YPLC HZ EP       1313 48.22                             127    0.47 9  174 152 
 YPLC HN ES   4   1314 11.68                             127    1.07 0  174 152 
 YPLC HZ I        1314 16.02         5.7 0.30            129            174 152 
 ZAR  HZ EP       1313 51.13                             121    0.05 8  207 292 
 ZAR  HN ES       1314 16.63                             121    0.09 8  207 292 
 ZAR  HZ I        1314 21.54        16.3 0.68            123            207 292 
 NOR  HZ EP       1313 54.17                             118    0.03 8  236 235 
 NOR  HN ES       1314 22.88                             118    0.89 8  236 235 
 NOR  HZ I        1314 28.37         6.6 0.28            119            236 235 
 CHI  HZ EP       1313 56.14                             117    0.28 8  247 196 
 CHI  HN ES       1314 24.24                             117   -0.81 8  247 196 
 CHI  HZ I        1314 28.85         4.7 0.66            118            247 196 
 GUY2CHZ EP       1314  2.37                             112    0.32 7  302 235 
 GUY2CHN ES       1314 37.40                             112    1.33 7  302 235 
 GUY2CHZ I        1314 44.34         5.7 0.62                           302 235 
 PTGC HZ EP       1314  1.04                             111   -0.81 7  306 159 
 PTGC HN ES   4   1314 34.00                             111   -1.71 0  306 159 
 PRA  HZ EP       1314 11.71                             106   -0.11 6  392 210 
 PRA  HN ES   4   1314 54.61                             106    1.16 0  392 210 
 PRA  HZ I        1314 59.91         5.2 0.30            107            392 210 
                                                                                
