 2017  920 1008 42.5 L   6.814 -73.138148.2  RSN 11 0.5 1.8LRSN                1
 GAP=112        1.10       3.4     4.9  5.9  0.3870E+01  0.4841E+01  0.4482E+01E
 Epicentro: LOS SANTOS - SANTANDER                                             3
 ACTION:UPD 17-10-05 19:14 OP:rebc STATUS:               ID:20170920100842 L   I
 OLDACT:REG 17-09-20 19:54 OP:edw  STATUS:               ID:20170920100747     3
 2017-09-20-1008-00M.COL___443                                                 6
 STAT SP IPHASW D HRMM SECON CODA AMPLIT PERI AZIMU VELO AIN AR TRES W  DIS CAZ7
 BAR2 EZ EP       10 9  2.53                             170    0.1010 25.0 191 
 BAR2 EZ ES       10 9 17.39                             170   -0.6010 25.0 191 
 BAR2 EZ I        10 9 18.49        23.8 0.28            169           25.0 191 
 BRR  HZ EP       10 9  4.19                             153    0.3010 71.3 297 
 BRR  HN ES       10 9 21.39                             153    0.8010 71.3 297 
 BRR  HZ I        10 9 21.85        11.9 0.12            151           71.3 297 
 PAM  EZ EP       10 9  5.36                             152    0.5110 75.6  40 
 PAM  EN ES       10 9 22.40                             152    0.1110 75.6  40 
 PAM  EZ I        10 9 24.57        10.1 0.54            153           75.6  40 
 RUS  HZ EP       10 9  6.37                             144   -0.2010  102 177 
 RUS  HN ES       10 9 24.97                             144   -0.3910  102 177 
 RUS  HZ I        10 9 26.52         4.9 0.22            144            102 177 
 YPLC HZ EP       10 9 12.83                             127    0.29 9  178 152 
 YPLC HN ES       10 9 36.09                             127    0.11 9  178 152 
 YPLC HZ I        10 9 38.73         3.7 0.40            128            178 152 
 ZAR  HZ EP       10 9 15.15                             123    0.04 9  204 292 
 ZAR  HN ES       10 9 39.89                             123   -0.66 9  204 292 
 ZAR  HZ I        10 9 47.03         7.9 0.26            122            204 292 
 CHI  HZ EP       10 9 20.78                             117    0.29 8  250 195 
 CHI  HN ES       10 9 50.09                             117   -0.06 8  250 195 
 PTGC HZ EP       10 9 25.64                             112   -0.93 7  310 159 
 PTGC HN ES   4   10 9 57.88                             112   -3.08 0  310 159 
 LL6C HZ EP   4   10 9 26.71                             111   -1.40 0  323 357 
 LL6C HN ES       1010  2.80                             111   -0.90 7  323 357 
 PRA  HZ EP       10 9 36.74                             107    0.45 6  394 210 
 PRA  HN ES       1010 18.52                             107    0.26 6  394 210 
 PRA  HZ I        1010 23.68         2.9 0.28            107            394 210 
 SJC  HZ EP   4   10 9 36.68                             106   -1.35 0  408 327 
 SJC  HN ES   4   1010 18.95                             106   -2.40 0  408 327 
 SJC  HZ I        1010 25.52         1.7 0.42            106            408 327 
                                                                                
