 2010 1020 1539 45.6 L   6.847 -72.960139.0  RSN  5 0.2 1.7LRSN                1
 GAP=185        0.56       5.6    11.6 10.4  0.2464E+02 -0.6413E+02 -0.2560E+02E
 Epicentro: CEPITA - SANTANDER                                                 3
 ACTION:UP  11-02-18 11:10 OP:tino STATUS:               ID:20101020153945 L   I
 2010-10-20-1536-35S.COL___126                                                 6
 STAT SP IPHASW D HRMM SECON CODA AMPLIT PERI AZIMU VELO SNR AR TRES W  DIS CAZ7
 BTL  SZ EP   1   1540  5.19                             165     0.5 7   35 283 
 BAR2 SZ EP   1   1540  4.81                             164     0.0 7   38 221 
 BAR2 SZ ES   2   1540 19.50                             164    -0.3 5   38 221 
 BAR2 SZ I        1540 22.45        15.1 0.26                            38 221 
 BRR  HZ EP   1   1540  6.78                             146    -0.3 7   88 289 
 BRR  HZ I        1540 18.34        11.5 0.50                            88 289 
 BRR  HE ES   2   1540 24.08                             146     0.2 5   88 289 
 RUS  HZ EP   1   1540  9.14                             141     0.0 7  106 187 
 RUS  HE ES   2   1540 27.47                             141     0.0 5  106 187 
 RUS  HZ I        1540 28.38         6.5 0.38                           106 187 
 GUE  SZ EP   1   1540  9.00                             140    -0.1 7  109   2 
                                                                                
