 2010  620 1154 59.0 L   6.763 -73.077148.4  RSN  5 0.4 1.4LRSN                1
 GAP=164        0.75       5.8    11.9 10.4 -0.6764E+01 -0.3291E+02 -0.9650E+01E
 Epicentro: LOS SANTOS - SANTANDER                                             3
 ACTION:UP  10-08-24 10:11 OP:vdl  STATUS:               ID:20100620115459 L   I
 2010-06-20-1151-31S.COL___118                                                 6
 STAT SP IPHASW D HRMM SECON CODA AMPLIT PERI AZIMU VELO SNR AR TRES W  DIS CAZ7
 BAR2 SZ EP   1   1155 18.70                             171    -0.3 7   22 212 
 BAR2 SZ ES   2   1155 33.91                             171    -0.6 5   22 212 
 BRR  HZ EP   1   1155 21.57                             150     0.6 7   80 299 
 BRR  HN ES   2   1155 37.79                             150    -0.3 5   80 299 
 BRR  HZ I        1155 39.95         7.1 0.15                            80 299 
 RUS  HZ EP   1   1155 22.69                             145    -0.1 7   96 180 
 RUS  HN ES   2   1155 41.80                             145     0.6 5   96 180 
 RUS  HZ I        1155 42.61         2.7 0.35                            96 180 
 BRI  SZ EP   1   1155 23.22                             141    -0.1 7  110  16 
 BRI  SZ ES   2   1155 42.73                             141     0.5 5  110  16 
 GUE  SZ EP   1   1155 23.93                             139    -0.3 7  119   8 
                                                                                
