 2017 1020 1144 19.0 L   6.683 -73.304146.1  RSN  4 0.2 1.1LRSN                1
 GAP=170        0.60       4.6     4.2  4.9  0.9008E+01  0.3261E+01  0.2114E+01E
 Epicentro: GALAN - SANTANDER                                                  3
 ACTION:UPD 17-11-07 19:34 OP:rebc STATUS:               ID:20171020114419 L   I
 OLDACT:UP  17-10-20 22:45 OP:edw  STATUS:               ID:20171020113741     3
 OLDACT:REG 17-10-20 19:54 OP:edw  STATUS:               ID:20171020113741     3
 2017-10-20-1138-00M.COL___450                                                 6
 STAT SP IPHASW D HRMM SECON CODA AMPLIT PERI AZIMU VELO AIN AR TRES W  DIS CAZ7
 BAR2 EZ EP       1144 38.18                             173   -0.3910 16.8 126 
 BAR2 EZ ES       1144 53.66                             173   -0.1710 16.8 126 
 BAR2 EZ I        1144 54.40         3.7 0.26            174           16.8 126 
 BRR  HZ EP       1144 40.06                             155    0.1910 65.1 316 
 BRR  HN ES       1144 56.33                             155    0.2010 65.1 316 
 RUS  HZ EP       1144 42.16                             147    0.0410 90.7 164 
 RUS  HN ES       1145  0.36                             147    0.2310 90.7 164 
 PTB  HZ EP       1144 44.41                             136    0.1010  128 263 
 PTB  HN ES       1145  3.85                             136   -0.2010  128 263 
 PTB  HZ I        1145  7.53         1.1 0.36            135            128 263 
                                                                                
