 2014  420 1002 33.9 L   6.828 -73.156143.1  RSN  4 0.1 1.2LRSN                1
 GAP=182        0.44       2.1     2.8  6.3  0.1471E+01  0.2479E+01 -0.1408E+01E
 Epicentro: LOS SANTOS - SANTANDER                                             3
 ACTION:UPD 14-05-13 23:09 OP:nd   STATUS:               ID:20140420100233 L   I
 OLDACT:REG 14-04-20 21:29 OP:stll STATUS:               ID:20140420095812     3
 2014-04-20-0958-12M.COL___236                                                 6
 STAT SP IPHASW D HRMM SECON CODA AMPLIT PERI AZIMU VELO AIN AR TRES W  DIS CAZ7
 RUS  HZ EP       10 2 57.64                             142    0.0510  104 176 
 RUS  HE ES       10 3 16.15                             142    0.0610  104 176 
 RUS  HZ I        10 3 17.27         2.0 0.26            147            104 176 
 PTB  HZ EP       10 3  0.46                             131   -0.11 9  147 258 
 PTB  HN ES       10 3 21.22                             131   -0.18 9  147 258 
 PTB  HZ I        10 3 27.01         2.1 0.44            133            147 258 
 OCA  HN ES       10 3 23.27                             130   -0.07 9  157 353 
 OCA  HZ I        10 3 26.87         2.3 0.40            132            157 353 
 ZAR  HN ES       10 3 31.18                             122    0.28 9  202 291 
 ZAR  HZ I        10 3 38.58         1.5 0.32            124            202 291 
                                                                                
