 2011  220 1419 39.4 L   6.708 -73.150140.3  RSN  5 0.5 1.2LRSN                1
 GAP=182        0.80       9.3    13.7 10.5 -0.3488E+02  0.3322E+02 -0.2763E+01E
 Epicentro: VILLANUEVA - SANTANDER                                             3
 ACTION:UP  11-03-28 15:09 OP:jfem STATUS:               ID:20110220141940 L   I
 2011-02-20-1416-23S.COL___137                                                 6
 STAT SP IPHASW D HRMM SECON CODA AMPLIT PERI AZIMU VELO SNR AR TRES W  DIS CAZ7
 BAR2 SZ EP       1419 57.92                             174    -0.210   13 196 
 BAR2 SZ ES   1   1420 12.43                             174    -0.4 7   13 196 
 BAR2 SZ I        1420 14.00         4.7 0.25                            13 196 
 BTL  SZ EP       1419 58.31                             169    -0.110   27 331 
 GIR2 SZ EP   3   1419 59.27                             163     0.6 2   41 353 
 GIR2 SZ ES   2   1420 14.73                             163     1.0 5   41 353 
 RUS  HZ EP   2   1420  2.59                             146     0.7 5   91 175 
 RUS  HN ES   2   1420 19.65                             146     0.3 5   91 175 
 RUS  HZ I        1420 20.87         2.0 0.38                            91 175 
 NOR  SN ES   2   1420 41.36                             118     0.1 4  229 237 
                                                                                
