 2017 1220 1353 35.5 L   6.790 -73.171135.3  RSN  7 0.5 2.1LRSN                1
 GAP=110        1.16       5.0     4.7  8.4  0.1694E+00  0.1471E+02  0.3817E+01E
 Epicentro: LOS SANTOS - SANTANDER                                             3
 ACTION:UPD 18-01-04 13:22 OP:rebc STATUS:               ID:20171220135335 L   I
 OLDACT:UP  17-12-20 22:02 OP:dani STATUS:               ID:20171220134206     3
 OLDACT:UP  17-12-20 22:02 OP:dani STATUS:               ID:20171220134206     3
 OLDACT:UP  17-12-20 22:01 OP:dani STATUS:               ID:20171220134206     3
 OLDACT:REG 17-12-20 20:38 OP:dani STATUS:               ID:20171220134206     3
 2017-12-20-1348-00M.COL___452                                                 6
 STAT SP IPHASW D HRMM SECON CODA AMPLIT PERI AZIMU VELO AIN AR TRES W  DIS CAZ7
 BAR2 EZ EP     D 1353 53.63                             170   -0.2010 21.9 183 
 BAR2 EZ ES       1354  8.23                             170    0.0910 21.9 183 
 BAR2 EZ I        1354  9.38        46.6 0.20            171           21.9 183 
 PAM  EZ EP       1353 56.52                             148   -0.2510 80.0  41 
 PAM  EN ES       1354 13.39                             148    0.0210 80.0  41 
 PAM  EZ I        1354 15.55        19.9 0.48            151           80.0  41 
 PTB  HZ EP       1354  0.51                             130   -0.83 9  145 259 
 PTB  HN ES       1354 20.99                             130   -0.51 9  145 259 
 PTB  HZ I        1354 24.22        12.0 0.50            131            145 259 
 SPBC HZ EP       1354  2.54                             127   -0.41 9  161 218 
 SPBC HN ES       1354 24.56                             127    0.19 9  161 218 
 SPBC HZ I        1354 26.95        19.8 0.24            129            161 218 
 YPLC HN ES       1354 27.80                             124    0.51 9  177 150 
 ZAR  HZ EP       1354  7.50                             120    0.46 9  202 293 
 ZAR  HN ES       1354 32.54                             120    0.89 9  202 293 
 ZAR  HZ I        1354 34.83         9.9 0.20            122            202 293 
 GUY2CHZ EP       1354 18.86                             110    0.57 7  298 235 
 GUY2CHZ I        1354 58.53         4.5 0.26                           298 235 
                                                                                
