 2017  520 1421 59.8 L   6.764 -73.127136.0  RSN 13 0.4 2.4LRSN                1
 GAP=115        0.95       3.3     3.4  5.5 -0.1360E+01  0.2783E+01  0.3616E+01E
 Epicentro: LOS SANTOS - SANTANDER                                             3
 ACTION:UPD 17-06-16 13:37 OP:jn   STATUS:               ID:20170520142159 L   I
 OLDACT:REG 17-05-20 20:38 OP:lv   STATUS:               ID:20170520141744     3
 2017-05-20-1418-00M.COL___365                                                 6
 STAT SP IPHASW D HRMM SECON CODA AMPLIT PERI AZIMU VELO AIN AR TRES W  DIS CAZ7
 BRR  HZ EP       1422 20.02                             149   -0.0610 74.9 300 
 BRR  HN ES       1422 36.40                             149    0.4710 74.9 300 
 BRR  HZ I        1422 37.94        50.1 0.11            149           74.9 300 
 PAM  EZ EP       1422 21.11                             148    0.0610 79.3  37 
 PAM  EE ES       1422 37.39                             148   -0.2810 79.3  37 
 RUS  HZ EP       1422 22.22                             143   -0.0310 96.5 177 
 RUS  HN ES       1422 39.80                             143    0.0010 96.5 177 
 RUS  HZ I        1422 42.56        29.6 0.07            142           96.5 177 
 PTB  HZ EP   9   1422 24.78                             129   -1.28 0  149 260 
 PTB  HN ES       1422 45.62                                    0.32 9  149 260 
 PTB  HZ I        1422 51.21        32.9 0.24            129            149 260 
 SPBC HZ EP       1422 27.24                             127   -0.11 9  161 220 
 SPBC HN ES       1422 48.79                             127   -0.08 9  161 220 
 SPBC HZ I        1422 53.68        32.5 0.12            126            161 220 
 YPLC HZ EP       1422 28.76                             125    0.35 9  172 151 
 YPLC HN ES   4   1422 52.81                             125    2.05 0  172 151 
 YPLC HZ I        1422 55.20        32.7 0.20            126            172 151 
 ZAR  HZ EP       1422 31.17                             120   -0.77 8  207 293 
 ZAR  HN ES       1422 57.09                             120    0.05 8  207 293 
 ZAR  HZ I        1423  2.57        23.9 0.20            121            207 293 
 NOR  HZ EP       1422 34.46                             116   -0.40 8  234 236 
 NOR  HN ES       1423  1.46                             116   -0.79 8  234 236 
 CHI  HN ES   2   1423  5.62                             115    0.34 4  245 196 
 ROSC BZ EP   9   1422 38.41                             115    1.31 0  250 212 
 ROSC BN ES       1423  7.43                                   -0.11 8  250 212 
 ROSC BZ I        1423 13.76        24.4 0.69            115            250 212 
 HEL  HZ EP       1422 40.58                             113    0.98 8  273 257 
 HEL  HN ES       1423 10.93                             113    0.25 8  273 257 
 HEL  HZ I        1423 16.76        11.4 0.53            113            273 257 
 PTGC HZ EP   4   1422 41.39                             110   -1.29 0  304 159 
 PTGC HN ES   4   1423 12.97                             110   -3.19 0  304 159 
 ORTC HZ EP       1422 54.07                             105    0.95 6  393 217 
 ORTC HN ES       1423 34.51                             105   -0.23 6  393 217 
 ORTC HZ I        1423 43.72         7.7 0.34            105            393 217 
 SJC  HZ EP   4   1422 52.88                             104   -2.65 0  414 327 
 SJC  HN ES   4   1423 34.17                             104   -4.87 0  414 327 
 SJC  HZ I        1423 38.17         3.5 0.34            105            414 327 
                                                                                
