 2014  920 1624 31.4 L   6.794 -73.162143.1  RSN 11 0.5 2.7LRSN                1
 GAP=135        1.20       3.2     4.8  6.4 -0.1307E+01  0.9482E+01  0.5484E+00E
 Epicentro: LOS SANTOS - SANTANDER                                             3
 ACTION:UPD 14-10-03 23:06 OP:nd   STATUS:               ID:20140920162431 L   I
 OLDACT:DUP 14-09-21 00:52 OP:carl STATUS:               ID:20140920161821d    3
 2014-09-20-1618-19M.COL___293                                                 6
 STAT SP IPHASW D HRMM SECON CODA AMPLIT PERI AZIMU VELO AIN AR TRES W  DIS CAZ7
 BAR2 SZ EP       1624 50.63                             171   -0.0110 22.4 186 
 BAR2 SZ ES       1625  5.21                             171   -0.4810 22.4 186 
 BAR2 SZ I        1625  6.31        83.5 0.32            171           22.4 186 
 BRR  HZ EP       1624 52.52                             152    0.3810 70.0 300 
 BRR  HN ES       1625  9.26                             152    0.9010 70.0 300 
 BRR  HZ I        1625 10.36        75.0 0.12            150           70.0 300 
 PAM  SZ IP     C 1624 53.44                             150    0.0510 79.1  40 
 PAM  SN ES       1625 10.30                             150   -0.2710 79.1  40 
 PAM  SZ I        1625 12.70       129.3 0.62            150           79.1  40 
 RUS  HZ EP       1624 54.62                             143   -0.1810  100 175 
 RUS  HN ES       1625 13.50                             143    0.4110  100 175 
 PTB  HZ EP       1624 57.72                             132   -0.21 9  146 259 
 PTB  HN ES       1625 17.95                             132   -0.71 9  146 259 
 PTB  HZ I        1625 20.52        55.7 0.22            130            146 259 
 OCA  HZ EP       1624 58.94                             129   -0.56 9  161 354 
 OCA  HN ES       1625 21.89                             129    0.43 9  161 354 
 OCA  HZ I        1625 25.57        64.9 0.28            128            161 354 
 ZAR  HZ EP       1625  4.60                             122    1.12 9  203 293 
 ZAR  HN ES       1625 28.63                             122    0.09 9  203 293 
 ZAR  HZ I        1625 34.59        72.6 0.32            121            203 293 
 SML  HZ EP       1625  7.35                             117   -0.47 8  244 336 
 SML  HN ES       1625 35.54                             117   -0.72 8  244 336 
 SML  HZ I        1625 46.28        40.4 0.10            116            244 336 
 CHI  HN ES       1625 37.77                             117   -0.20 8  247 195 
 CHI  HZ I        1625 44.66        15.1 0.42            117            247 195 
 GUY2CHZ EP       1625 14.76                             112    0.13 7  299 235 
 GUY2CHN ES       1625 48.00                             112   -0.38 7  299 235 
 GUY2CHZ I        1625 58.18        19.3 0.56                           299 235 
 TOL  SN ES   4   1625 58.06                             109    1.37 0  342 225 
 MON  HZ EP   4   1625 18.06                             108   -2.08 0  353 309 
 MON  HN ES   4   1625 56.73                             108   -1.47 0  353 309 
 PRA  HZ EP       1625 25.30                             106    0.70 6  391 209 
 PRA  HN ES       1626  6.11                             106   -0.03 6  391 209 
 PRA  HZ I        1626 11.37        15.8 0.26            106            391 209 
                                                                                
