 2014  420 1027 39.1 L   6.822 -73.147130.0  RSN  8 0.5 1.5LRSN                1
 GAP=135        1.29       3.8     5.6 12.0 -0.3872E+01  0.3041E+02 -0.3059E+01E
 Epicentro: LOS SANTOS - SANTANDER                                             3
 ACTION:UPD 14-05-13 23:09 OP:nd   STATUS:               ID:20140420102739 L   I
 OLDACT:DUP 14-04-20 22:47 OP:stll STATUS:               ID:20140420101814d    3
 2014-04-20-1018-13M.COL___236                                                 6
 STAT SP IPHASW D HRMM SECON CODA AMPLIT PERI AZIMU VELO AIN AR TRES W  DIS CAZ7
 PAM  SZ EP       1027 59.77                             148    0.2010 75.7  41 
 PAM  SZ I        1028  0.36         8.1 0.28            153           75.7  41 
 PAM  SN ES       1028 15.30                             148   -0.2210 75.7  41 
 RUS  HZ EP       1028  1.53                             140   -0.0110  103 176 
 RUS  HN ES       1028 19.60                             140    0.5710  103 176 
 RUS  HZ I        1028 20.89         2.7 0.32            143            103 176 
 PTB  HZ EP       1028  4.69                             128   -0.19 9  148 258 
 PTB  HN ES       1028 24.96                             128   -0.01 9  148 258 
 PTB  HZ I        1028 28.49         5.0 0.18            129            148 258 
 OCA  HN ES       1028 26.73                             126   -0.26 9  158 353 
 OCA  HZ I        1028 29.21         3.2 0.27            129            158 353 
 SPBC HZ EP       1028  6.36                             125   -0.27 9  165 218 
 SPBC HN ES       1028 27.78                             125   -0.31 9  165 218 
 SPBC HZ I        1028 30.93         7.1 0.34            127            165 218 
 ZAR  HZ EP       1028 11.42                             119    0.95 9  203 292 
 ZAR  HE ES       1028 35.95                             119    1.02 9  203 292 
 ZAR  HZ I        1028 41.45         4.1 0.40            121            203 292 
 NOR  HE ES       1028 40.46                             115   -0.97 8  236 234 
 NOR  HZ I        1028 44.30         2.1 0.38            117            236 234 
 SML  HN ES       1028 41.66                             114   -0.72 8  241 335 
                                                                                
