 2014  220 1941 59.1 L   6.826 -73.133147.2  RSN  6 0.5 1.5LRSN                1
 GAP=137        1.22       5.0     5.5  8.9  0.3230E+01  0.1035E+02  0.1082E+02E
 Epicentro: LOS SANTOS - SANTANDER                                             3
 ACTION:UPD 14-03-10 08:11 OP:ep   STATUS:               ID:20140220194159 L   I
 OLDACT:DUP 14-02-20 17:44 OP:carl STATUS:               ID:20140220194001d    3
 2014-02-20-1940-00M.COL___215                                                 6
 STAT SP IPHASW D HRMM SECON CODA AMPLIT PERI AZIMU VELO AIN AR TRES W  DIS CAZ7
 BRR  HZ EP       1942 20.34                             153   -0.0910 71.2 296 
 BRR  HN ES       1942 37.83                             153    0.7810 71.2 296 
 PAM  SZ EP       1942 21.44                             152    0.1210 74.3  40 
 PAM  SN ES       1942 38.41                             152   -0.2110 74.3  40 
 PAM  SZ I        1942 40.18         3.9 0.20            155           74.3  40 
 RUS  HZ EP       1942 23.06                             143   -0.1610  103 177 
 RUS  HN ES       1942 41.76                             143   -0.2510  103 177 
 RUS  HZ I        1942 43.60         2.9 0.32            144            103 177 
 PTB  HZ EP       1942 25.83                             132   -0.57 9  150 258 
 PTB  HN ES       1942 46.90                             132   -0.76 9  150 258 
 PTB  HZ I        1942 49.39         6.7 0.44            132            150 258 
 ZAR  HZ EP       1942 32.40                             123    0.70 9  204 291 
 ZAR  HN ES       1942 57.02                             123   -0.08 9  204 291 
 ZAR  HZ I        1943  2.74         5.4 0.36            123            204 291 
 CHI  HZ EP       1942 37.12                             117   -0.13 8  252 195 
 CHI  HN ES       1943  7.92                             117    0.94 8  252 195 
 CHI  HZ I        1943 11.31         1.3 0.62            118            252 195 
                                                                                
