 2013  220 1105 16.4 L   6.774 -73.200147.9  RSN  4 0.2 1.3LRSN                1
 GAP=239        0.40       6.3     4.9  5.3  0.2307E+02  0.5892E+01 -0.3860E+00E
 Epicentro: VILLANUEVA - SANTANDER                                             3
 ACTION:UPD 13-03-12 09:34 OP:ep   STATUS:               ID:20130220110516 L   I
 2013-02-20-1100-00M.COL___241                                                 6
 STAT SP IPHASW D HRMM SECON CODA AMPLIT PERI AZIMU VELO AIN AR TRES W  DIS CAZ7
 BAR2 SZ ES   1   11 5 51.77                             172    0.10 7 20.2 174 
 BAR2 SZ I        11 5 52.23         7.1 0.40            175           20.2 174 
 RUS  HZ EP   1   11 5 40.30                             145    0.13 7 98.4 172 
 RUS  HN ES   1   11 5 58.52                             145   -0.22 7 98.4 172 
 RUS  HZ I        11 6  0.32         1.5 0.38            149           98.4 172 
 PTB  HZ EP   1   11 5 42.92                             134   -0.02 7  141 259 
 PTB  HN ES   1   11 6  3.84                             134    0.18 7  141 259 
 PTB  HZ I        11 6  6.08         2.8 0.40            133            141 259 
 ZAR  HN ES   1   11 6 13.36                             123   -0.20 6  200 294 
 ZAR  HZ I        11 6 21.10         2.7 0.55            123            200 294 
                                                                                
