 2017 1220 1317 43.6 L   6.780 -73.140141.8  RSN  5 0.5 1.8LRSN                1
 GAP=113        0.84       4.6     4.4  6.8 -0.3880E+01  0.4053E+01  0.7538E+01E
 Epicentro: LOS SANTOS - SANTANDER                                             3
 ACTION:UPD 18-01-04 13:22 OP:rebc STATUS:               ID:20171220131743 L   I
 OLDACT:UP  17-12-20 21:44 OP:dani STATUS:               ID:20171220130519d    3
 OLDACT:DUP 17-12-20 21:42 OP:dani STATUS:               ID:20171220130519d    3
 OLDACT:UP  17-12-20 21:41 OP:dani STATUS:               ID:20171220130518     3
 OLDACT:REG 17-12-20 20:33 OP:dani STATUS:               ID:20171220130518     3
 2017-12-20-1308-00M.COL___452                                                 6
 STAT SP IPHASW D HRMM SECON CODA AMPLIT PERI AZIMU VELO AIN AR TRES W  DIS CAZ7
 BAR2 EZ EP       1318  2.53                             171   -0.1810 21.2 193 
 BAR2 EZ ES       1318 17.80                             171    0.1910 21.2 193 
 BAR2 EZ I        1318 18.78        16.8 0.26            169           21.2 193 
 PAM  EZ EP       1318  5.57                             150    0.0910 78.8  38 
 PAM  EN ES       1318 22.47                             150   -0.0710 78.8  38 
 PAM  EZ I        1318 23.28         5.7 0.18            153           78.8  38 
 SPBC HZ EP       1318 11.14                             128   -0.52 9  162 220 
 SPBC HE ES       1318 33.93                             128    0.38 9  162 220 
 SPBC HZ I        1318 38.65         9.2 0.13            128            162 220 
 YPLC HZ EP       1318 13.04                             126    0.16 9  175 151 
 ZAR  HZ EP   3   1318 18.76                             121    2.83 2  205 293 
 ZAR  HN ES       1318 40.91                             121   -0.24 8  205 293 
 ZAR  HZ I        1318 46.77         5.3 0.12            121            205 293 
                                                                                
