 2011  120 1537 34.0 L   6.052 -73.696112.6  RSN 17 0.4 3.2LRSN                1
 GAP= 79        0.97       2.9     2.9  7.5 -0.1350E+01  0.7675E+01 -0.4117E+00E
 Epicentro: BOLIVAR - SANTANDER                                                3
 ACTION:UP  11-02-08 08:41 OP:pat  STATUS:               ID:20110120153734 L   I
 2011-01-20-1534-34S.COL___137                                                 6
 STAT SP IPHASW D HRMM SECON CODA AMPLIT PERI AZIMU VELO SNR AR TRES W  DIS CAZ7
 RUS  HZ IP     C 1537 52.44                             146     0.110   70 105 
 RUS  HN ES   1   1538  6.38                             146    -0.2 7   70 105 
 RUS  HZ I        1538  8.57       249.4 0.34                            70 105 
 BAR2 SZ EP       1537 53.21                                     0.410   82  44 
 BAR2 SZ ES   1   1538  7.65                             141     0.1 7   82  44 
 GIR2 SZ IP       1537 55.88                             128    -0.710  126  26 
 NOR  SZ EP   1   1537 56.95                             125    -0.9 7  141 248 
 NOR  SN ES   1   1538 16.55                             125     0.1 7  141 248 
 ROSC BZ EP   1   1537 59.88                             123     0.6 7  151 207 
 ROSC BZ I        1538 23.80       205.7 0.34                           151 207 
 CHI  HZ IP     C 1537 59.88                             121    -0.1 9  157 181 
 CHI  HZ I        1538  0.50       146.6 0.20                           157 181 
 CHI  HN ES   1   1538 20.11                             121    -0.2 7  157 181 
 YOP  SZ IP       1538  0.51                             121     0.5 9  161 119 
 YOP  SN ES   1   1538 20.39                             121     0.1 7  161 119 
 YOP  SZ I        1538 23.65       326.0 0.19                           161 119 
 HEL  HZ EP   1   1538  4.93                             114     0.0 6  203 274 
 HEL  HE ES   1   1538 28.93                             114    -0.1 6  203 274 
 HEL  HZ I        1538 35.80       105.6 0.21                           203 274 
 GUY  SZ EP   1   1538  5.64                             114     0.2 6  207 244 
 GUY  SN ES   1   1538 30.52                             114     0.6 6  207 244 
 GUY  SZ I        1538 34.06       310.7 0.54                           207 244 
 VIL  SZ EP   1   1538  5.79                             113    -0.1 6  215 177 
 VIL  SN ES   1   1538 30.19                             113    -0.6 6  215 177 
 VIL  SZ I        1538 34.51       157.5 0.42                           215 177 
 RREF HZ EP   1   1538  7.35                             112    -0.1 6  223 235 
 RREF HN ES   1   1538 33.43                             112    -0.1 6  223 235 
 RREF HZ I        1538 38.53       146.4 0.47                           223 235 
 GRA  SZ EP   1   1538  8.10                             111     1.0 6  225  26 
 GRA  SZ I        1538 39.48       165.1 0.66                           225  26 
 TOL  SZ EP   1   1538  9.60                             110     0.3 6  242 228 
 OCA  SZ EP   1   1538  9.33                             109    -0.1 6  245  10 
 OCA  SZ ES   1   1538 36.44                             109    -0.6 6  245  10 
 OCA  SZ I        1538 44.61       199.0 0.23                           245  10 
 DBB  SZ EP       1538 15.30                             105    -0.1 7  298 291 
 DBB  SZ ES   1   1538 48.08                             105     0.3 5  298 291 
 SJA  SZ EP   1   1538 16.97                             104     0.2 5  309 185 
 GUA  SZ EP   1   1538 27.12                              99    -1.1 4  406 163 
                                                                                
