 2013  520 1208 52.3 L   6.774 -73.157140.8  RSN  9 0.4 1.8LRSN                1
 GAP=136        1.00       4.2     4.2  6.6 -0.6092E+00  0.7847E+01 -0.2584E+00E
 Epicentro: LOS SANTOS - SANTANDER                                             3
 ACTION:UPD 13-06-20 09:52 OP:ep   STATUS:               ID:20130520120852 L   I
 2013-05-20-1207-48M.COL___218                                                 6
 STAT SP IPHASW D HRMM SECON CODA AMPLIT PERI AZIMU VELO AIN AR TRES W  DIS CAZ7
 BAR2 SZ EP       12 9 11.34                             171    0.0610 20.3 188 
 BAR2 SZ ES       12 9 25.45                             171   -0.6310 20.3 188 
 BAR2 SZ I        12 9 27.07        15.8 0.32            172           20.3 188 
 GIR2 SZ EP       12 9 11.34                             166   -0.1310 34.0 353 
 GIR2 SZ ES       12 9 26.65                             166    0.2410 34.0 353 
 GIR2 SZ I        12 9 29.10         9.6 0.44            166           34.0 353 
 BRR  HZ EP       12 9 13.11                             151    0.1710 71.5 301 
 BRR  HN ES       12 9 29.66                             151    0.6310 71.5 301 
 BRR  HZ I        12 9 33.99        14.2 0.26            152           71.5 301 
 PAM  SZ EP       12 9 14.32                             149    0.1410 80.4  39 
 PAM  SN ES       12 9 30.94                             149   -0.3110 80.4  39 
 PAM  SZ I        12 9 33.46        16.6 0.50            152           80.4  39 
 RUS  HZ EP   1   12 9 15.82                             144    0.45 7 97.8 175 
 RUS  HN ES       12 9 33.68                             144    0.3310 97.8 175 
 RUS  HZ I        12 9 35.32         5.1 0.26            147           97.8 175 
 PTB  HZ EP       12 9 18.14                             131   -0.57 9  146 260 
 PTB  HN ES       12 9 38.66                             131   -0.64 9  146 260 
 PTB  HZ I        12 9 42.80         9.3 0.16            133            146 260 
 ZAR  HN ES       12 9 49.85                             121    0.37 9  204 293 
 NOR  HN ES   1   12 9 55.19                             118    0.32 6  232 235 
 SML  HN ES   1   12 9 57.18                             116   -0.24 6  246 336 
                                                                                
