 2016 1120 1019 16.8 L   6.737 -73.167146.9  RSN  4 0.5 1.5LRSN                1
 GAP=148        1.18      12.1     7.3  9.5 -0.4407E+02  0.5239E+01  0.1126E+02E
 Epicentro: VILLANUEVA - SANTANDER                                             3
 ACTION:UPD 17-10-26 21:10 OP:lp   STATUS:               ID:20161120101916 L   I
 OLDACT:DUP 16-11-20 22:21 OP:ar   STATUS:               ID:20161120100743d    3
 2016-11-20-1008-00M.COL___322                                                 6
 STAT SP IPHASW D HRMM SECON CODA AMPLIT PERI AZIMU VELO AIN AR TRES W  DIS CAZ7
 BAR2 EZ EP       1019 36.69                             173    0.2610 16.1 186 
 BAR2 EZ ES       1019 51.92                             173    0.1710 16.1 186 
 BAR2 EZ I        1019 54.55        12.2 0.42            174           16.1 186 
 BRR  HZ EP       1019 38.52                             152    0.3710 72.8 304 
 BRR  HE ES       1019 55.45                             152    0.6410 72.8 304 
 BRR  HZ I        1019 57.53         7.7 0.60            154           72.8 304 
 PAM  EZ EP       1019 39.50                             149   -0.0510 84.3  38 
 PAM  EE ES       1019 56.66                             149   -0.6410 84.3  38 
 PAM  EZ I        1019 58.78         3.7 0.44            151           84.3  38 
 PTB  HZ EP       1019 43.47                             133   -0.06 9  144 261 
 PTB  HE ES       1020  3.59                             133   -0.80 9  144 261 
 PTB  HZ I        1020  5.76         3.8 0.10            135            144 261 
                                                                                
