 2017  720 1556 24.9 L   6.785 -73.158148.6  RSN  4 0.3 1.1LRSN                1
 GAP=140        0.76       4.7     4.5  6.3 -0.6611E+01  0.7552E+01 -0.2792E+01E
 Epicentro: LOS SANTOS - SANTANDER                                             3
 ACTION:UPD 17-08-30 15:35 OP:rebc STATUS:               ID:20170720155624 L   I
 OLDACT:REG 17-07-20 20:04 OP:lv   STATUS:               ID:20170720154644     3
 2017-07-20-1548-00M.COL___395                                                 6
 STAT SP IPHASW D HRMM SECON CODA AMPLIT PERI AZIMU VELO AIN AR TRES W  DIS CAZ7
 BAR2 EZ EP       1556 44.85                             171    0.0010 21.5 187 
 BAR2 EZ ES       1557  0.68                             171    0.2810 21.5 187 
 BAR2 EZ I        1557  1.45         3.7 0.26            171           21.5 187 
 PAM  EZ EP       1556 47.73                             151    0.1710 79.6  40 
 PAM  EN ES       1557  4.99                             151   -0.2310 79.6  40 
 RUS  HZ EP       1556 49.20                             145    0.3710 99.0 175 
 RUS  HN ES       1557  7.13                             145   -0.3610 99.0 175 
 RUS  HZ I        1557  8.82         2.1 0.21            145           99.0 175 
 PTB  HZ EP       1556 51.53                             133   -0.43 9  146 259 
 PTB  HN ES       1557 13.22                             133    0.16 9  146 259 
 PTB  HZ I        1557 14.76         0.9 0.17            133            146 259 
                                                                                
