 2011  420 1033 26.1 L   6.441 -73.662102.0  RSN  7 0.4 1.6LRSN                1
 GAP=162        0.76      10.4    11.1 14.0 -0.9872E+02  0.1152E+03 -0.7774E+02E
 Epicentro: SANTA HELENA DEL OPON - SANTANDER                                  3
 ACTION:UP  11-06-22 15:31 OP:REBC STATUS:               ID:20110420103326 L   I
 2011-04-20-1020-00M.COL___140                                                 6
 STAT SP IPHASW D HRMM SECON CODA AMPLIT PERI AZIMU VELO SNR AR TRES W  DIS CAZ7
 BAR2 SZ EP   1   1033 41.95                             142    -0.1 7   56  72 
 BAR2 SZ ES   1   1033 54.80                             142     0.4 7   56  72 
 BAR2 SZ I        1033 56.53        18.5 0.42                            56  72 
 BTL  SZ EP   1   1033 43.04                             140     0.1 7   68  39 
 BRR  HN ES   3   1033 55.31                             141    -0.8 2   74 356 
 PAM  SN ES   2   1034  8.43                             117    -0.8 5  146  47 
 NOR  SZ EP   1   1033 51.30                             114    -0.6 7  165 234 
 NOR  SN ES   2   1034 12.19                             114     0.2 5  165 234 
 GRA  SZ ES   1   1034 16.38                             111     0.1 7  186  31 
 GRA  SZ I        1034 18.80         5.3 0.44                           186  31 
 HEL  HZ EP   1   1033 57.59                             109     0.5 6  208 262 
 HEL  HZ I        1034  7.70         2.2 0.59                           208 262 
                                                                                
