 2017  520 1657 58.4 L   7.293 -73.361116.6  RSN  4 0.3 1.3LRSN                1
 GAP=168        0.80       4.9     3.4  6.6  0.4520E+01  0.4811E+01  0.4893E+01E
 Epicentro: SABANA DE TORRES - SANTANDER                                       3
 ACTION:UPD 17-06-16 13:37 OP:jn   STATUS:               ID:20170520165758 L   I
 OLDACT:UP  17-05-21 00:30 OP:lv   STATUS:               ID:20170520164734d    3
 OLDACT:DUP 17-05-21 00:21 OP:lv   STATUS:               ID:20170520164734d    3
 2017-05-20-1648-00M.COL___365                                                 6
 STAT SP IPHASW D HRMM SECON CODA AMPLIT PERI AZIMU VELO AIN AR TRES W  DIS CAZ7
 BRR  HN ES       1658 27.94                             158    0.1810 43.9 242 
 PAM  EZ EP       1658 17.38                             146    0.1110 73.2  86 
 PAM  EN ES       1658 31.87                             146   -0.1510 73.2  86 
 PAM  EZ I        1658 33.32         4.0 0.33            147           73.2  86 
 RUS  HZ EP       1658 25.33                             123    0.56 9  158 169 
 RUS  HE ES       1658 44.99                             123   -0.39 9  158 169 
 RUS  HZ I        1658 49.91         1.2 0.41            122            158 169 
 ZAR  HZ EP       1658 24.63                             121   -0.44 9  167 278 
 ZAR  HN ES       1658 45.98                             121    0.08 9  167 278 
 ZAR  HZ I        1658 46.97         5.4 0.19            122            167 278 
                                                                                
