 2012 1120 1339  5.2 L   6.825 -73.183145.6  RSN  5 0.4 1.5LRSN                1
 GAP=198        0.86       6.2     8.3  9.3  0.2371E+02  0.3604E+01 -0.6901E+01E
 Epicentro: ZAPATOCA - SANTANDER                                               3
 ACTION:UPD 12-12-05 15:34 OP:}ep  STATUS:               ID:20121120133905 L   I
 2012-11-20-1337-50M.COL___200                                                 6
 STAT SP IPHASW D HRMM SECON CODA AMPLIT PERI AZIMU VELO AIN AR TRES W  DIS CAZ7
 BAR2 SZ EP   1   1339 25.06                             169    0.22 7 25.8 180 
 BAR2 SZ ES   1   1339 39.46                             169   -0.72 7 25.8 180 
 BAR2 SZ I        1339 42.52         9.2 0.28                          25.8 180 
 BRR  HN ES   1   1339 43.07                             154    0.76 7 66.2 298 
 RUS  HZ EP   1   1339 29.49                             143    0.35 7  104 174 
 RUS  HE ES   1   1339 47.83                             143    0.00 7  104 174 
 RUS  HZ I        1339 49.56         4.3 0.36                           104 174 
 PTB  HZ EP   1   1339 31.47                             133   -0.34 7  144 257 
 PTB  HN ES   1   1339 52.48                             133   -0.11 7  144 257 
 PTB  HZ I        1339 54.46         5.0 0.37                           144 257 
 SML  HE ES   1   1340  9.20                             118   -0.34 6  239 336 
                                                                                
