 2014 1120 1000 41.4 L   6.779 -73.186150.0  RSN  6 0.4 1.2LRSN                1
 GAP=133        1.02       6.3     6.0  7.3  0.6011E+01 -0.1681E+00 -0.8419E+00E
 Epicentro: LOS SANTOS - SANTANDER                                             3
 ACTION:UPD 14-12-19 15:45 OP:nd   STATUS:               ID:20141120100041 L   I
 OLDACT:ARG 14-11-20 21:12 OP:stll STATUS:               ID:20141120095746     3
 2014-11-20-0957-46M.COL___295                                                 6
 STAT SP IPHASW D HRMM SECON CODA AMPLIT PERI AZIMU VELO AIN AR TRES W  DIS CAZ7
 BAR2 SZ EP       10 1  1.35                             172   -0.1310 20.6 179 
 BAR2 SZ ES       10 1 16.67                             172   -0.4810 20.6 179 
 BAR2 SZ I        10 1 17.87         4.1 0.58            171           20.6 179 
 BRR  HZ EP       10 1  3.12                             154    0.2610 68.6 302 
 BRR  HE ES       10 1 20.14                             154    0.5410 68.6 302 
 PAM  SZ EP       10 1  4.28                             150   -0.0610 82.0  41 
 RUS  HZ EP       10 1  5.20                             145   -0.2310 98.6 173 
 RUS  HE ES       10 1 24.48                             145    0.3110 98.6 173 
 RUS  HZ I        10 1 25.74         1.6 0.40            145           98.6 173 
 PTB  HZ EP       10 1  7.79                             134   -0.50 9  143 259 
 PTB  HN ES       10 1 28.91                             134   -0.35 9  143 259 
 PTB  HZ I        10 1 31.08         2.2 0.58            134            143 259 
 SPBC HZ EP       10 1 10.45                             131    0.66 9  159 218 
                                                                                
