 2017  320 1614 45.7 L   6.759 -73.136149.1  RSN  8 0.3 1.7LRSN                1
 GAP=159        0.70       3.8     3.3  5.1 -0.4839E+01  0.3797E+01  0.2474E+01E
 Epicentro: LOS SANTOS - SANTANDER                                             3
 ACTION:UPD 17-05-25 18:43 OP:jn   STATUS:               ID:20170320161445 L   I
 OLDACT:REG 17-03-20 22:11 OP:dnl  STATUS:               ID:20170320160743     3
 2017-03-20-1608-00M.COL___394                                                 6
 STAT SP IPHASW D HRMM SECON CODA AMPLIT PERI AZIMU VELO AIN AR TRES W  DIS CAZ7
 BAR2 EZ EP       1615  5.67                             172    0.0610 19.1 195 
 BAR2 EZ ES       1615 21.16                             172   -0.0210 19.1 195 
 BAR2 EZ I        1615 22.04         7.1 0.58            173           19.1 195 
 BRR  HZ EP   2   1615  7.35                             152    0.00 5 74.4 301 
 BRR  HE ES       1615 24.93                             152    0.6610 74.4 301 
 PAM  EZ EP       1615  8.52                             151    0.1210 80.3  37 
 PAM  EN ES       1615 25.81                             151   -0.3410 80.3  37 
 PAM  EZ I        1615 27.88         6.7 0.50            151           80.3  37 
 PTB  HZ EP       1615 12.76                             133   -0.16 9  148 261 
 PTB  HN ES       1615 33.75                             133   -0.43 9  148 261 
 PTB  HZ I        1615 35.89         5.3 0.16            132            148 261 
 SPBC HZ EP   2   1615 13.97                             130   -0.18 5  160 220 
 SPBC HE ES       1615 36.31                             130   -0.06 9  160 220 
 SPBC HZ I        1615 39.05        12.2 0.22            131            160 220 
 ZAR  HZ EP   2   1615 18.30                             123   -0.30 4  207 293 
 ZAR  HE ES       1615 44.11                             123   -0.19 8  207 293 
 ZAR  HZ I        1615 50.02         5.4 0.28            122            207 293 
 NOR  HZ EP   2   1615 21.83                             119    0.44 4  233 236 
 NOR  HN ES       1615 49.49                             119    0.22 8  233 236 
 NOR  HZ I        1615 51.27         3.9 0.18            120            233 236 
 GUY2CHZ EP   2   1615 29.93                             113    0.71 4  299 236 
 GUY2CHN ES   4   1616  4.69                             113    1.48 0  299 236 
 GUY2CHZ  IAML    1616 15.13         4.1 0.54                           299 236 
                                                                                
