 2016 1220 1117 43.0 L   6.790 -73.104146.9  RSN  6 0.3 1.4LRSN                1
 GAP=241        0.83       5.0     5.0  5.8  0.1029E+02  0.1347E+01 -0.3570E+01E
 Epicentro: LOS SANTOS - SANTANDER                                             3
 ACTION:UPD 17-01-11 20:17 OP:rebc STATUS:               ID:20161220111743 L   I
 OLDACT:UP  16-12-20 22:11 OP:edw  STATUS:               ID:20161220110741     3
 OLDACT:REG 16-12-20 19:53 OP:edw  STATUS:               ID:20161220110741     3
 2016-12-20-1108-00M.COL___363                                                 6
 STAT SP IPHASW D HRMM SECON CODA AMPLIT PERI AZIMU VELO AIN AR TRES W  DIS CAZ7
 BAR2 EZ EP       1118  2.78                             170   -0.0410 23.5 202 
 BAR2 EZ ES       1118 17.98                             170   -0.2610 23.5 202 
 BAR2 EZ I        1118 18.95         7.8 0.26             47           23.5 202 
 PAM  EE ES   4   1118 20.69                             152   -1.92 0 75.5  36 
 BRR  HZ EP       1118  4.71                             151    0.1310 75.8 298 
 BRR  HN ES       1118 21.97                             151    0.5910 75.8 298 
 RUS  HZ EP       1118  6.81                             144   -0.0010 99.2 179 
 RUS  HN ES       1118 25.21                             144   -0.1410 99.2 179 
 RUS  HZ I        1118 26.41         5.0 0.26             47           99.2 179 
 PTB  HZ EP   9   1118  9.73                             131   -0.76 0  152 260 
 PTB  HN ES       1118 31.09                             131   -0.05 9  152 260 
 PTB  HZ I        1118 33.14         2.6 0.06             47            152 260 
 ZAR  HZ EP       1118 16.16                             122    0.12 8  209 292 
 ZAR  HN ES       1118 41.03                             122   -0.75 8  209 292 
 ZAR  HZ I        1118 42.77         1.5 0.10             47            209 292 
 NOR  HE ES       1118 47.61                             118    0.26 8  238 235 
                                                                                
