 2017 1020 1304 18.8 L   6.092 -73.789 99.9  RSN  5 0.2 1.2LRSN                1
 GAP=126        0.65       2.5     2.8  7.1  0.1657E+01  0.5375E+01  0.8180E+01E
 Epicentro: EL PENON - SANTANDER                                               3
 ACTION:UPD 17-11-07 19:34 OP:rebc STATUS:               ID:20171020130418 L   I
 OLDACT:DUP 17-10-21 00:02 OP:edw  STATUS:               ID:20171020125741d    3
 OLDACT:UP  17-10-21 00:01 OP:edw  STATUS:               ID:20171020125740     3
 OLDACT:REG 17-10-20 20:02 OP:edw  STATUS:               ID:20171020125740     3
 2017-10-20-1258-00M.COL___453                                                 6
 STAT SP IPHASW D HRMM SECON CODA AMPLIT PERI AZIMU VELO AIN AR TRES W  DIS CAZ7
 RUS  HZ EP       13 4 36.37                             139   -0.2910 81.2 106 
 RUS  HN ES       13 4 50.56                             139   -0.0610 81.2 106 
 RUS  HZ I        13 4 51.64         3.3 0.40            140           81.2 106 
 BAR2 EZ EP       13 4 36.63                             136   -0.1610 87.0  50 
 BAR2 EZ ES       13 4 50.88                             136    0.0210 87.0  50 
 BAR2 EZ I        13 4 51.69         8.9 0.24            140           87.0  50 
 PTB  HZ EP       13 4 36.72                             135    0.0710 88.9 304 
 PTB  HN ES       13 4 50.32                             135   -0.2910 88.9 304 
 BRR  HN ES       13 4 54.92                             128    0.4510  113   4 
 CHI  HZ EP       13 4 44.48                             118    0.01 9  162 178 
 CHI  HN ES       13 5  4.87                             118    0.33 9  162 178 
 CHI  HZ I        13 5  9.44         1.2 0.36            118            162 178 
                                                                                
