 2013  620 1704 34.4 L   6.061 -74.225 20.8  RSN  6 0.4 1.7LRSN                1
 GAP=134        0.85       2.7     2.3  3.8 -0.1515E+01 -0.4783E+01  0.1713E+01E
 Epicentro: CIMITARRA - SANTANDER                                              3
 ACTION:UPD 14-01-08 09:56 OP:ep   STATUS:               ID:20130620170434 L   I
 OLDACT:UP  13-06-20 16:43 OP:cam  STATUS:               ID:20130620165959     3
 OLDACT:REG 13-06-20 15:35 OP:cam  STATUS:               ID:20130620165959     3
 2013-06-20-1659-59M.COL___264                                                 6
 STAT SP IPHASW D HRMM SECON CODA AMPLIT PERI AZIMU VELO AIN AR TRES W  DIS CAZ7
 PTB  HZ IP     D 17 4 44.25                             107   -0.0910 58.8 334 
 PTB  HE ES       17 4 51.90                             107   -0.1610 58.8 334 
 PTB  HZ I        17 4 51.98       163.6 0.18            105           58.8 334 
 NOR  HZ IP     C 17 4 49.17                             101    0.1910 90.0 232 
 NOR  HN ES   1   17 4 59.92                             101   -0.41 7 90.0 232 
 NOR  HZ I        17 5  1.56        15.4 0.52            100           90.0 232 
 RUS  HZ IP     D 17 4 55.18                              56    0.3510  128  98 
 RUS  HN ES   1   17 5 10.15                              56   -0.58 7  128  98 
 RUS  HZ I        17 5 11.14         7.8 0.22             56            128  98 
 BRR  HZ EP   1   17 4 54.35                              56   -0.01 7  129  26 
 BRR  HE ES   1   17 5 10.11                              56    0.21 7  129  26 
 BRR  HZ I        17 5 11.73         7.7 0.24             56            129  26 
 BAR2 SZ EP   1   17 4 55.61                              56    0.88 7  129  63 
 BAR2 SZ ES       17 5 10.04                              56   -0.5110  129  63 
 BAR2 SZ I        17 5 13.04        18.6 0.47             56            129  63 
 HEL  HZ EP       17 4 57.07                              56    0.25 9  145 276 
 HEL  HN ES       17 5 14.24                              56   -0.04 9  145 276 
 HEL  HZ I        17 5 14.85        12.5 0.22             56            145 276 
                                                                                
