 2017 1020 1058 38.0 L   6.674 -74.082  0.3  RSN 14 0.4 1.9LRSN                1
 GAP= 84        1.00       1.9     1.7  4.5 -0.3245E-01 -0.9716E+00  0.7193E+00E
 Epicentro: PUERTO PARRA - SANTANDER                                           3
 ACTION:UPD 17-11-07 19:34 OP:rebc STATUS:               ID:20171020105838 L   I
 OLDACT:UP  17-10-20 22:10 OP:edw  STATUS:               ID:20171020105744     3
 OLDACT:UP  17-10-20 22:10 OP:edw  STATUS:               ID:20171020105744     3
 OLDACT:UP  17-10-20 22:08 OP:edw  STATUS:               ID:20171020105744     3
 OLDACT:REG 17-10-20 19:50 OP:edw  STATUS:               ID:20171020105744     3
 2017-10-20-1058-00M.COL___447                                                 6
 STAT SP IPHASW D HRMM SECON CODA AMPLIT PERI AZIMU VELO AIN AR TRES W  DIS CAZ7
 PTB  HZ IP     D 1058 45.67                              47   -0.1710 44.0 250 
 PTB  HN ES       1058 51.49                              47   -0.4410 44.0 250 
 PTB  HZ I        1058 51.72        59.4 0.34             47           44.0 250 
 BRR  HZ EP       1058 48.83                              47    0.1310 63.0  40 
 BRR  HE ES       1058 57.33                              47    0.3110 63.0  40 
 BRR  HZ I        1058 57.84        62.4 0.12             47           63.0  40 
 BAR2 EZ IP     D 1058 54.14                              47   -0.3910 99.8  95 
 BAR2 EZ ES       1059  6.30                              47   -1.1010 99.8  95 
 BAR2 EZ I        1059  8.35        41.4 0.60             47           99.8  95 
 SPBC HZ EP       1058 56.22                              47   -0.1410  113 179 
 SPBC HN ES       1059 10.76                              47    0.1010  113 179 
 SPBC HZ I        1059 12.27        22.0 0.10             47            113 179 
 ZAR  HZ EP       1058 58.26                              47    0.2010  125 317 
 ZAR  HE ES       1059 13.66                              47   -0.0210  125 317 
 ZAR  HZ I        1059 15.35        27.9 0.10             47            125 317 
 RUS  HZ EP       1059  0.52                              47   -0.39 9  140 128 
 RUS  HN ES       1059 19.40                              47    0.64 9  140 128 
 RUS  HZ I        1059 20.67        33.2 0.22             47            140 128 
 NOR  HZ EP       1059  2.37                              47    0.35 9  151 215 
 NOR  HN ES   4   1059 17.91                              47   -2.82 0  151 215 
 NOR  HZ I        1059 21.46        10.4 0.20             47            151 215 
 PAM  EZ EP       1059  5.67                              47    0.32 9  170  64 
 PAM  EE ES   4   1059 25.44                              47   -1.22 0  170  64 
 PAM  EZ I        1059 27.69        20.5 0.42             47            170  64 
 URE  HZ EP   2   1059  8.78                              37   -0.11 4  200 307 
 URE  HN ES   4   1059 36.27                              37    3.31 0  200 307 
 GUY2CHZ EP       1059 11.50                              37    0.25 8  214 222 
 GUY2CHN ES   4   1059 35.15                              37   -2.02 0  214 222 
 GUY2CHZ I        1059 39.42        11.5 0.32                           214 222 
 CHI  HZ EP   4   1059 15.40                              37    2.33 0  229 170 
 CHI  HN ES   4   1059 43.67                              37    3.27 0  229 170 
 CHI  HZ I        1059 49.45         3.4 0.28             37            229 170 
 YPLC HZ EP       1059 13.73                              37    0.31 8  235 127 
 YPLC HN ES       1059 41.61                              37    0.58 8  235 127 
 YPLC HZ I        1059 51.39         8.8 0.68             37            235 127 
 ELA  HZ EP   2   1059 15.83                              37    0.28 4  248 216 
 ELA  HN ES   4   1059 46.37                              37    1.56 0  248 216 
 PRA  HZ EP   2   1059 26.08                              36   -0.21 3  339 195 
 PRA  HN ES   2   11 0  3.88                              36   -0.05 3  339 195 
 PRA  HZ I        11 0 21.61         2.2 0.34             36            339 195 
                                                                                
