 2017 1120 1103 17.9 L   6.853 -73.181146.6  RSN  7 0.4 1.8LRSN                1
 GAP=136        0.93       4.0     4.2  6.4 -0.3864E+01  0.7923E+01  0.4059E+01E
 Epicentro: ZAPATOCA - SANTANDER                                               3
 ACTION:UPD 17-12-12 19:57 OP:rebc STATUS:               ID:20171120110317 L   I
 OLDACT:UP  17-11-20 22:17 OP:dani STATUS:               ID:20171120105336     3
 OLDACT:REG 17-11-20 20:48 OP:dani STATUS:               ID:20171120105336     3
 2017-11-20-1058-00M.COL___459                                                 6
 STAT SP IPHASW D HRMM SECON CODA AMPLIT PERI AZIMU VELO AIN AR TRES W  DIS CAZ7
 BAR2 EZ EP       11 3 37.58                             168   -0.2010 28.8 180 
 BAR2 EZ ES       11 3 52.81                             168   -0.4510 28.8 180 
 BAR2 EZ I        11 3 55.39        20.0 0.32            168           28.8 180 
 PAM  EZ EP       11 3 40.54                             151    0.4110 75.7  45 
 PAM  EN ES       11 3 57.66                             151    0.2110 75.7  45 
 PAM  EZ I        11 4  0.79         7.5 0.52            156           75.7  45 
 PTB  HZ EP       11 3 44.09                             133   -0.64 9  145 256 
 PTB  HN ES       11 4  5.29                             133   -0.34 9  145 256 
 PTB  HZ I        11 4  7.91         5.2 0.16            134            145 256 
 SPBC HZ EP       11 3 46.51                             129   -0.18 9  165 217 
 SPBC HN ES       11 4  9.46                             129    0.33 9  165 217 
 SPBC HZ I        11 4 13.24        12.0 0.34            130            165 217 
 ZAR  HZ EP       11 3 49.73                             123   -0.10 9  198 291 
 ZAR  HN ES       11 4 15.36                             123    0.64 9  198 291 
 ZAR  HZ I        11 4 20.75         6.8 0.30            125            198 291 
 NOR  HZ EP       11 3 53.69                             119   -0.04 8  235 233 
 NOR  HN ES       11 4 21.81                             119    0.15 8  235 233 
 NOR  HZ I        11 4 26.74         4.0 0.34            120            235 233 
 CHI  HZ EP       11 3 56.02                             117   -0.15 8  253 194 
 CHI  HN ES       11 4 26.66                             117    0.65 8  253 194 
 CHI  HZ I        11 4 31.43         2.6 0.31            119            253 194 
                                                                                
