 2014  720 1229 13.9 L   6.631 -73.519105.3  RSN  5 0.5 1.4LRSN                1
 GAP=119        1.10       6.5     5.7  9.7  0.1864E+02  0.2206E+02  0.2997E+00E
 Epicentro: EL CARMEN - SANTANDER                                              3
 ACTION:UPD 15-03-16 20:45 OP:nd   STATUS:               ID:20140720122913 L   I
 OLDACT:REG 14-07-20 21:07 OP:stll STATUS:               ID:20140720122812     3
 2014-07-20-1228-12M.COL___269                                                 6
 STAT SP IPHASW D HRMM SECON CODA AMPLIT PERI AZIMU VELO AIN AR TRES W  DIS CAZ7
 BAR2 SZ EP       1229 29.09                             159   -0.1410 37.5  97 
 BAR2 SZ ES       1229 41.15                             159   -0.0210 37.5  97 
 BAR2 SZ I        1229 42.24        15.1 0.20            160           37.5  97 
 BRR  HZ EP       1229 29.37                             149   -0.5410 56.8 338 
 BRR  HZ I        1229 29.57        11.1 0.10            150           56.8 338 
 BRR  HN ES       1229 42.48                             149    0.1110 56.8 338 
 RUS  HN ES       1229 49.11                             135    0.4110 94.8 149 
 RUS  HZ I        1229 50.58         2.7 0.34            135           94.8 149 
 PTB  HZ EP   2   1229 34.23                             132    0.59 5  104 264 
 PTB  HN ES       1229 48.49                             132   -0.5210  104 264 
 PTB  HZ I        1229 49.44         5.2 0.18            131            104 264 
 ZAR  HZ EP       1229 40.77                             116   -0.20 9  176 303 
 ZAR  HN ES       1230  2.97                             116    0.91 9  176 303 
 ZAR  HZ I        1230  5.74         4.5 0.24            116            176 303 
                                                                                
