 2011  620 1801  9.1 L   6.781 -73.114140.7  RSN  7 0.1 1.5LRSN                1
 GAP=141        0.49       4.4     6.2 10.6  0.7079E+01 -0.2768E+02 -0.3599E+02E
 Epicentro: LOS SANTOS - SANTANDER                                             3
 ACTION:UP  11-07-14 19:06 OP:ep   STATUS:               ID:20110620180109 L   I
 2011-06-20-1758-19S.COL___140                                                 6
 STAT SP IPHASW D HRMM SECON CODA AMPLIT PERI AZIMU VELO SNR AR TRES W  DIS CAZ7
 BAR2 SZ EP       18 1 27.97                             171    -0.110   22 200 
 BAR2 SZ I        18 1 47.33         6.7 0.23                            22 200 
 BTL  SZ EP       18 1 28.42                             170     0.310   23 312 
 BRR  HZ EP       18 1 29.88                             150    -0.110   75 299 
 BRR  HN ES   2   18 1 46.21                             150     0.0 5   75 299 
 BRR  HZ I        18 1 49.09        17.9 0.29                            75 299 
 PAM  SZ EP       18 1 30.89                             150     0.110   77  37 
 RUS  HZ EP   2   18 1 32.27                             144     0.1 5   98 178 
 RUS  HN ES       18 1 50.13                             144    -0.110   98 178 
 RUS  HZ I        18 1 51.69         2.9 0.22                            98 178 
 BRI  SZ EP       18 1 32.57                             140     0.010  109  19 
 GRA  SZ EP       18 1 33.82                             136    -0.210  127  16 
 GRA  SZ I        18 1 34.87         5.1 0.28                           127  16 
                                                                                
