 2015  420 1822 36.6 L   6.791 -73.166146.7  RSN  7 0.2 2.1LRSN                1
 GAP=134        0.45       1.9     2.5  2.8 -0.1769E+01  0.1132E+01  0.1392E+01E
 Epicentro: LOS SANTOS - SANTANDER                                             3
 ACTION:UPD 15-06-03 16:56 OP:cam  STATUS:               ID:20150420182236 L   I
 OLDACT:REG 15-04-20 23:09 OP:spq  STATUS:               ID:20150420181750     3
 2015-04-20-1817-50M.COL___277                                                 6
 STAT SP IPHASW D HRMM SECON CODA AMPLIT PERI AZIMU VELO AIN AR TRES W  DIS CAZ7
 BAR2 EZ EP       1822 56.17                             171   -0.2010 22.0 185 
 BAR2 EZ ES       1823 11.77                             171    0.0210 22.0 185 
 BAR2 EZ I        1823 12.67        43.5 0.18            169           22.0 185 
 BRR  HZ EP       1822 57.97                             153    0.1510 69.7 300 
 BRR  HN ES       1823 14.38                             153    0.0510 69.7 300 
 PAM  SZ EP       1822 59.10                             150   -0.0010 79.6  40 
 PAM  SE ES       1823 16.65                             150    0.0410 79.6  40 
 PAM  SZ I        1823 18.34        11.3 0.52            153           79.6  40 
 RUS  HZ EP       1823  0.20                             144   -0.2310 99.7 175 
 RUS  HN ES       1823 19.08                             144    0.1010 99.7 175 
 RUS  HZ I        1823 19.94        19.9 0.24            144           99.7 175 
 SPBC HZ EP       1823  4.93                             130   -0.08 9  161 219 
 SPBC HN ES       1823 26.86                             130   -0.27 9  161 219 
 SPBC HZ I        1823 29.72        26.5 0.26            129            161 219 
 NOR  HZ EP       1823 12.40                             119    0.23 8  232 234 
 NOR  HN ES       1823 39.81                             119   -0.07 8  232 234 
 NOR  HZ I        1823 45.78         7.6 0.16            119            232 234 
 CHI  HZ EP       1823 14.28                             117    0.05 8  247 195 
 CHI  HN ES       1823 43.90                             117    0.36 8  247 195 
 CHI  HZ I        1823 49.66         4.5 0.20            117            247 195 
                                                                                
