 2013  420 1114 43.6 L   6.807 -73.149145.7  RSN  5 0.5 1.3LRSN                1
 GAP=136        1.20       6.8     6.5 11.4 -0.7484E+01  0.1096E+02  0.8414E+01E
 Epicentro: LOS SANTOS - SANTANDER                                             3
 ACTION:UPD 13-05-22 14:39 OP:EP   STATUS:               ID:20130420111443 L   I
 2013-04-20-1108-38M.COL___218                                                 6
 STAT SP IPHASW D HRMM SECON CODA AMPLIT PERI AZIMU VELO AIN AR TRES W  DIS CAZ7
 BAR2 SZ EP   1   1115  3.05                             170   -0.21 7 24.0 189 
 BAR2 SZ I        1115 22.00         3.3 0.40            170           24.0 189 
 BRR  HZ EP   1   1115  5.07                             153    0.34 7 70.5 298 
 BRR  HN ES   1   1115 22.37                             153    1.19 7 70.5 298 
 BRR  HN I        1115 25.40        11.8 0.16            152           70.5 298 
 PAM  SZ EP       1115  6.04                             151    0.2310 77.0  40 
 PAM  SN ES       1115 22.45                             151   -0.6610 77.0  40 
 PAM  SZ I        1115 25.02         3.9 0.30            148           77.0  40 
 RUS  HZ EP       1115  7.81                             143    0.3910  101 176 
 RUS  HN ES       1115 26.01                             143    0.0210  101 176 
 RUS  HZ I        1115 27.61         1.1 0.15            142            101 176 
 PTB  HZ EP       1115 10.30                             132   -0.27 9  148 259 
 PTB  HN ES       1115 31.02                             132   -0.56 9  148 259 
                                                                                
