 2013  820 1026 49.2 L   6.764 -73.143149.4  RSN  9 0.5 1.7LRSN                1
 GAP=138        1.36       5.1     6.4  8.6  0.4199E+01 -0.2547E+00 -0.1516E+02E
 Epicentro: LOS SANTOS - SANTANDER                                             3
 ACTION:UPD 14-01-14 09:05 OP:ep   STATUS:               ID:20130820102649 L   I
 OLDACT:DUP 13-08-20 17:59 OP:stll STATUS:               ID:20130820101837d    3
 2013-08-20-1018-36M.COL___192                                                 6
 STAT SP IPHASW D HRMM SECON CODA AMPLIT PERI AZIMU VELO AIN AR TRES W  DIS CAZ7
 BAR2 SZ EP       1027  9.42                             172    0.2010 19.5 193 
 BAR2 SZ ES       1027 23.99                             172   -0.8310 19.5 193 
 BAR2 SZ I        1027 25.49        10.2 0.26            176           19.5 193 
 BRR  HZ EP       1027 11.07                             152    0.1810 73.4 301 
 BRR  HZ I        1027 17.25        10.2 0.48            152           73.4 301 
 BRR  HN ES       1027 28.50                             152    0.7110 73.4 301 
 PAM  SZ EP       1027 12.22                             150    0.2210 80.3  38 
 RUS  HZ EP       1027 13.99                             146    0.9310 96.6 176 
 RUS  HN ES       1027 31.55                             146   -0.0910 96.6 176 
 RUS  HZ I        1027 33.04         4.4 0.28            148           96.6 176 
 PTB  HZ EP       1027 16.25                             133   -0.20 9  147 260 
 PTB  HN ES       1027 37.46                             133   -0.23 9  147 260 
 SPBC HZ EP       1027 17.03                             130   -0.71 9  160 220 
 SPBC HN ES       1027 39.72                             130   -0.25 9  160 220 
 OCA  HZ EP       1027 18.33                             130    0.14 9  164 353 
 ZAR  HZ EP       1027 22.42                             123    0.33 8  206 293 
 ZAR  HN ES       1027 48.45                             123    0.72 8  206 293 
 SML  HZ EP       1027 25.64                             118   -0.82 8  247 336 
 SML  HN ES       1027 54.67                             118   -0.83 8  247 336 
 SML  HZ I        1028  3.78         6.7 0.30            117            247 336 
                                                                                
