 2011  220 1404 50.8 L   5.999 -73.832103.4  RSN  6 0.4 1.6LRSN                1
 GAP=115        0.83       4.9     3.6 11.4 -0.6586E+01  0.1182E+02 -0.9750E+00E
 Epicentro: EL PEON - SANTANDER                                                3
 ACTION:UP  11-03-28 15:09 OP:jfem STATUS:               ID:20110220140450 L   I
 2011-02-20-1402-54S.COL___137                                                 6
 STAT SP IPHASW D HRMM SECON CODA AMPLIT PERI AZIMU VELO SNR AR TRES W  DIS CAZ7
 RUS  HZ EP       14 5  9.17                             138     0.010   84  98 
 RUS  HN ES   2   14 5 23.38                             138    -0.2 5   84  98 
 BAR2 SZ EP       14 5 10.12                             133     0.110   97  48 
 BAR2 SZ ES   1   14 5 25.01                             133     0.0 7   97  48 
 BAR2 SZ I        14 5 26.45        18.0 0.09                            97  48 
 BTL  SZ EP       14 5 11.93                             127    -0.110  119  32 
 NOR  SZ EP       14 5 12.49                             125     0.110  125 247 
 NOR  SN ES   1   14 5 29.77                             125     0.6 7  125 247 
 CHI  HZ EP   1   14 5 15.53                             120    -0.1 7  152 176 
 CHI  HN ES   2   14 5 34.41                             120    -0.6 5  152 176 
 CHI  HZ I        14 5 39.40         2.0 0.39                           152 176 
 HEL  HZ EP   1   14 5 20.03                             113     0.4 7  189 277 
 HEL  HN ES   1   14 5 41.15                             113    -1.0 7  189 277 
 HEL  HZ I        14 5 46.07         6.1 0.45                           189 277 
                                                                                
