 2013  720 1605 30.4 L   6.784 -73.165147.7  RSN  6 0.3 1.7LRSN                1
 GAP=180        0.71       4.4     4.2  4.9  0.7300E+01  0.6190E+01 -0.2722E+00E
 Epicentro: LOS SANTOS - SANTANDER                                             3
 ACTION:UPD 13-08-12 10:39 OP:ep   STATUS:               ID:20130720160530 L   I
 OLDACT:REG 13-07-20 15:47 OP:nd   STATUS:               ID:20130720155959     3
 2013-07-20-1559-59M.COL___266                                                 6
 STAT SP IPHASW D HRMM SECON CODA AMPLIT PERI AZIMU VELO AIN AR TRES W  DIS CAZ7
 BAR2 SZ EP       16 5 50.38                             171    0.1310 21.3 185 
 BAR2 SZ ES       16 6  5.97                             171    0.2610 21.3 185 
 BAR2 SZ I        16 6  7.15        11.3 0.42            171           21.3 185 
 GIR2 SZ EP       16 5 49.93                             167   -0.4410 32.7 354 
 GIR2 SZ ES       16 6  5.74                             167   -0.1810 32.7 354 
 GIR2 SZ I        16 6  7.73         6.9 0.12            160           32.7 354 
 BRR  HZ EP     D 16 5 52.28                             153    0.5510 70.2 301 
 BRR  HN ES   2   16 6  8.57                             153    0.22 5 70.2 301 
 BRR  HZ I        16 6 36.10        15.2 0.36            149           70.2 301 
 RUS  HZ EP       16 5 54.47                             145    0.2210 99.0 175 
 RUS  HN ES       16 6 12.56                             145   -0.2810 99.0 175 
 RUS  HZ I        16 6 14.62         4.6 0.30            158           99.0 175 
 PTB  HZ EP       16 5 57.24                             133   -0.10 9  145 259 
 PTB  HN ES       16 6 18.28                             133   -0.05 9  145 259 
 PTB  HZ I        16 6 21.71         7.1 0.38            137            145 259 
 ZAR  HZ EP       16 6  2.65                             123   -0.22 9  203 293 
 ZAR  HE ES       16 6 28.13                             123   -0.04 9  203 293 
 ZAR  HZ I        16 6 34.39         8.4 0.38            126            203 293 
                                                                                
