 2014  120 1040 47.1 L   6.773 -72.970141.6  RSN  5 0.4 1.3LRSN                1
 GAP=286        1.41      11.5    11.3  9.8 -0.2915E+02  0.1199E+02  0.1951E+02E
 Epicentro: CEPITA - SANTANDER                                                 3
 ACTION:UPD 14-03-13 09:56 OP:ep   STATUS:               ID:20140120104047 L   I
 OLDACT:REG 14-01-20 14:54 OP:stll STATUS:               ID:20140120103810     3
 2014-01-20-1038-10M.COL___223                                                 6
 STAT SP IPHASW D HRMM SECON CODA AMPLIT PERI AZIMU VELO AIN AR TRES W  DIS CAZ7
 BAR2 SZ EP       1041  6.19                             168   -0.2410 30.8 229 
 BAR2 SZ ES       1041 21.74                             168    0.2510 30.8 229 
 BAR2 SZ I        1041 23.01         6.9 0.26            163           30.8 229 
 RUS  HZ EP       1041 10.61                             143    0.3210 98.2 187 
 RUS  HE ES       1041 27.98                             143   -0.3810 98.2 187 
 RUS  HZ I        1041 30.30         1.6 0.32            143           98.2 187 
 PTB  HZ EP   9   1041 13.82                             127   -1.68 0  166 261 
 PTB  HN ES       1041 34.59                                   -1.37 9  166 261 
 PTB  HZ I        1041 41.97         2.6 0.34            126            166 261 
 CHI  HZ EP       1041 24.44                             115   -0.47 8  252 200 
 CHI  HN ES       1041 54.52                             115    0.12 8  252 200 
 CHI  HZ I        1041 58.40         1.2 0.32            116            252 200 
 GUY2CHZ EP       1041 31.77                             110   -0.41 7  316 237 
 GUY2CHN ES       1042  8.29                             110    0.96 7  316 237 
 GUY2CHZ I        1042 13.03         1.2 0.34                           316 237 
                                                                                
