 2016  620 1351 34.9 L   6.793 -73.142144.9  RSN 10 0.4 2.1LRSN                1
 GAP=137        1.02       4.0     4.2  6.5 -0.4041E+01  0.9468E+01 -0.2799E+01E
 Epicentro: LOS SANTOS - SANTANDER                                             3
 ACTION:UPD 16-07-21 22:20 OP:rebc STATUS:               ID:20160620135134 L   I
 OLDACT:UP  16-06-20 21:31 OP:mh   STATUS:               ID:20160620134746     3
 OLDACT:UP  16-06-20 21:30 OP:mh   STATUS:               ID:20160620134746     3
 OLDACT:UP  16-06-20 21:30 OP:mh   STATUS:               ID:20160620134746     3
 OLDACT:REG 16-06-20 20:34 OP:mh   STATUS:               ID:20160620134746     3
 2016-06-20-1347-46M.COL___352                                                 6
 STAT SP IPHASW D HRMM SECON CODA AMPLIT PERI AZIMU VELO AIN AR TRES W  DIS CAZ7
 BAR2 EZ IP     C 1351 54.64                             171    0.1910 22.6 191 
 BAR2 EZ ES       1352  9.28                             171   -0.3910 22.6 191 
 BAR2 EZ I        1352 12.23        16.5 0.20                          22.6 191 
 BRR  HZ EP     C 1351 56.57                             152    0.5310 72.0 299 
 BRR  HN ES       1352 13.26                             152    0.7710 72.0 299 
 BRR  HZ I        1352 17.71        29.4 0.48                          72.0 299 
 PAM  EZ EP     C 1351 57.53                             150    0.4510 77.7  39 
 PAM  EN ES       1352 14.29                             150   -0.0610 77.7  39 
 PAM  EZ I        1352 14.77        12.8 0.18                          77.7  39 
 RUS  HZ EP   1   1351 58.62                             144    0.08 7 99.7 176 
 RUS  HN ES       1352 16.87                             144   -0.0810 99.7 176 
 RUS  HZ I        1352 17.98        11.1 0.30                          99.7 176 
 PTB  HZ EP       1352  1.50                             132   -0.36 9  148 259 
 PTB  HN ES       1352 22.19                             132   -0.67 9  148 259 
 PTB  HZ I        1352 24.43        14.8 0.24                           148 259 
 OCA  HZ EP   1   1352  2.53                             129   -0.73 7  161 353 
 OCA  HN ES   1   1352 24.61                             129   -0.74 7  161 353 
 OCA  HZ I        1352 31.64        28.5 0.28                           161 353 
 SPBC HZ EP   4   1352  1.18                             129   -2.16 0  163 219 
 SPBC HN ES   1   1352 25.54                             129    0.05 7  163 219 
 SPBC HZ I        1352 27.88        16.3 0.26                           163 219 
 ZAR  HZ EP       1352  7.19                             122   -0.21 9  205 292 
 ZAR  HN ES   1   1352 33.24                             122    0.52 6  205 292 
 ZAR  HZ I        1352 41.68        16.7 0.58                           205 292 
 NOR  HZ EP   1   1352 10.84                             118    0.24 6  235 235 
 NOR  HN ES   1   1352 38.16                             118   -0.26 6  235 235 
 NOR  HZ I        1352 45.28         6.8 0.22                           235 235 
 HEL  HN ES       1352 46.56                             115    0.08 8  272 256 
 HEL  HZ I        1352 53.17         6.6 0.46                           272 256 
 URE  HZ EP   4   1352 17.97                             113    1.93 0  285 292 
 URE  HN ES   4   1352 50.98                             113    2.87 0  285 292 
                                                                                
