 2015 1220 1028 28.5 L   6.811 -73.172150.0  RSN  8 0.4 1.8LRSN                1
 GAP=180        0.95       3.2     5.8  5.9  0.4213E+01  0.5099E+01 -0.1302E+01E
 Epicentro: LOS SANTOS - SANTANDER                                             3
 ACTION:UPD 16-02-04 15:06 OP:cam  STATUS:               ID:20151220102828 L   I
 OLDACT:REG 15-12-20 20:43 OP:ar   STATUS:               ID:20151220101749     3
 2015-12-20-1017-49M.COL___323                                                 6
 STAT SP IPHASW D HRMM SECON CODA AMPLIT PERI AZIMU VELO AIN AR TRES W  DIS CAZ7
 BAR2 EZ EP       1028 48.54                             170   -0.0710 24.3 183 
 BAR2 EZ ES       1029  4.21                             170   -0.1310 24.3 183 
 BAR2 EZ I        1029  5.59         9.3 0.28            169           24.3 183 
 BRR  HZ IP     C 1028 50.29                             154    0.4010 68.0 299 
 BRR  HN ES       1029  7.12                             154    0.5110 68.0 299 
 BRR  HZ I        1029  8.48        12.8 0.30            150           68.0 299 
 RUS  HZ EP       1028 53.02                             144    0.2910  102 174 
 RUS  HN ES       1029 11.35                             144   -0.3210  102 174 
 RUS  HZ I        1029 12.63         5.4 0.24            145            102 174 
 PTB  HZ EP       1028 55.47                             133   -0.07 9  145 258 
 PTB  HN ES   2   1029 16.05                             133   -0.61 5  145 258 
 PTB  HZ I        1029 20.99         5.4 0.38            131            145 258 
 OCA  HZ EP       1028 57.46                             131    0.51 9  159 354 
 OCA  HN ES       1029 18.45                             131   -0.73 9  159 354 
 OCA  HZ I        1029 22.01        15.1 0.22            131            159 354 
 ZAR  HZ EP   4   1029  2.40                             123    1.54 0  201 292 
 ZAR  HN ES       1029 26.36                             123    0.23 9  201 292 
 ZAR  HZ I        1029 31.77         8.8 0.32            122            201 292 
 SML  HZ EP       1029  4.88                             118   -0.19 8  241 336 
 SML  HN ES       1029 33.23                             118   -0.40 8  241 336 
 SML  HZ I        1029 38.58         6.6 0.24            118            241 336 
 PRA  HZ EP       1029 22.60                             107    0.51 6  392 209 
 PRA  HN ES       1030  3.14                             107   -0.78 6  392 209 
 PRA  HZ I        1030  9.65         2.1 0.46            107            392 209 
                                                                                
