 2010  720 1156 24.7 L   6.823 -72.982140.5  RSN  4 0.1 1.7LRSN                1
 GAP=255        0.28       3.0     5.4  3.5  0.1023E+02 -0.3310E+01 -0.9652E+00E
 Epicentro: CEPITA - SANTANDER                                                 3
 ACTION:UPD 10-12-01 15:19 OP:pat  STATUS:               ID:20100720115624 L   I
 2010-07-20-1151-46S.COL___123                                                 6
 STAT SP IPHASW D HRMM SECON CODA AMPLIT PERI AZIMU VELO AIN AR TRES W  DIS CAZ7
 BAR2 SZ EP   1   1156 44.01                             166     0.1 7   34 221 
 BAR2 SZ ES   2   1156 58.84                             166    -0.1 5   34 221 
 BAR2 SZ I        1156 59.96        12.5 0.19                            34 221 
 BRR  HZ IP     C 1156 46.22                             146     0.010   87 291 
 BRR  HZ I        1156 46.59        11.2 0.07                            87 291 
 BRR  HN ES   1   1157  3.05                             146     0.0 7   87 291 
 RUS  HZ EP   1   1156 48.07                             142    -0.1 7  104 186 
 RUS  HE ES   1   1157  6.48                             142     0.1 7  104 186 
 RUS  HZ I        1157  8.14         4.0 0.50                           104 186 
 PRA  HZ EP   2   1157 19.31                             105    -0.1 3  403 212 
 PRA  HN ES   2   1158  2.00                             105     0.0 3  403 212 
 PRA  HZ I        1158  5.35         1.9 0.34                           403 212 
                                                                                
