 2017 1020 1213 32.7 L   6.830 -73.179143.2  RSN  7 0.4 1.7LRSN                1
 GAP=131        1.06       4.9     4.4  7.2 -0.1077E+01  0.8674E+01  0.4851E+01E
 Epicentro: ZAPATOCA - SANTANDER                                               3
 ACTION:UPD 17-11-07 19:34 OP:rebc STATUS:               ID:20171020121332 L   I
 OLDACT:UP  17-10-20 23:26 OP:edw  STATUS:               ID:20171020120308     3
 OLDACT:UP  17-10-20 23:24 OP:edw  STATUS:               ID:20171020120308     3
 OLDACT:REG 17-10-20 19:56 OP:edw  STATUS:               ID:20171020120308     3
 2017-10-20-1208-00M.COL___453                                                 6
 STAT SP IPHASW D HRMM SECON CODA AMPLIT PERI AZIMU VELO AIN AR TRES W  DIS CAZ7
 BAR2 EZ EP       1213 51.78                             169   -0.3010 26.2 181 
 BAR2 EZ ES       1214  7.63                             169    0.4310 26.2 181 
 BAR2 EZ I        1214 10.00         9.8 0.56            169           26.2 181 
 BRR  HZ EP       1213 53.87                             154    0.5710 66.4 298 
 BRR  HN ES       1214  9.71                             154    0.3410 66.4 298 
 PAM  EZ EP       1213 54.74                             150    0.1010 77.4  43 
 PAM  EE ES       1214 11.61                             150   -0.1410 77.4  43 
 PAM  EZ I        1214 13.77         4.3 0.24            154           77.4  43 
 RUS  HZ EP       1213 56.36                             142   -0.1010  104 174 
 RUS  HN ES       1214 14.50                             142   -0.4910  104 174 
 RUS  HZ I        1214 16.47         7.4 0.30            144            104 174 
 PTB  HZ EP       1213 58.82                             132   -0.37 9  145 257 
 PTB  HN ES       1214 19.42                             132   -0.43 9  145 257 
 PTB  HZ I        1214 22.18         6.6 0.46            132            145 257 
 ZAR  HN ES       1214 28.67                             122   -0.63 9  199 292 
 ZAR  HZ I        1214 35.37         7.2 0.26            123            199 292 
 NOR  HZ EP       1214  8.65                             118    0.49 8  234 233 
 NOR  HN ES       1214 36.49                             118    0.66 8  234 233 
 NOR  HZ I        1214 41.23         3.6 0.28            119            234 233 
                                                                                
