 2017  120 1209  5.4 L   6.805 -73.155146.0  RSN 12 0.6 2.6LRSN                1
 GAP=102        1.45       5.0     4.4  7.7  0.1075E+01  0.8024E+01  0.8158E+01E
 Epicentro: LOS SANTOS - SANTANDER                                             3
 ACTION:UPD 17-05-22 16:01 OP:jn   STATUS:               ID:20170120120905 L   I
 OLDACT:REG 17-01-20 20:37 OP:cog  STATUS:               ID:20170120120742     3
 2017-01-20-1208-00M.COL___310                                                 6
 STAT SP IPHASW D HRMM SECON CODA AMPLIT PERI AZIMU VELO AIN AR TRES W  DIS CAZ7
 BAR2 EZ EP       12 9 25.13                             170    0.0310 23.7 187 
 BAR2 EZ ES       12 9 40.37                             170   -0.0710 23.7 187 
 BAR2 EZ I        12 9 42.94       193.2 0.30            168           23.7 187 
 BRR  HZ EP       12 9 26.93                             153    0.3910 70.0 299 
 BRR  HN ES       12 9 44.06                             153    1.0510 70.0 299 
 BRR  HZ I        12 9 45.33        65.3 0.09            151           70.0 299 
 PAM  EZ EP       12 9 27.96                             151    0.2710 77.6  40 
 PAM  EE ES       12 9 45.25                             151    0.2010 77.6  40 
 PAM  EZ I        12 9 48.65        45.0 0.56            155           77.6  40 
 RUS  HZ EP       12 9 29.02                             144   -0.2310  101 175 
 RUS  HN ES       12 9 47.77                             144   -0.0610  101 175 
 RUS  HZ I        12 9 49.15        47.7 0.36            144            101 175 
 PTB  HZ EP       12 9 31.49                             132   -0.85 9  147 259 
 PTB  HN ES       12 9 52.61                             132   -0.71 9  147 259 
 PTB  HZ I        12 9 59.31        58.3 0.44            131            147 259 
 TAM  HZ EP       12 9 33.53                             130    0.30 9  156 105 
 TAM  HE ES       12 9 53.82                             130   -1.10 9  156 105 
 TAM  HZ I        12 9 54.43        30.6 0.44            134            156 105 
 ZAR  HZ EP       12 9 37.43                             123   -0.34 9  203 292 
 ZAR  HN ES       1210  2.43                             123   -0.57 9  203 292 
 ZAR  HZ I        1210  8.32        74.3 0.30            123            203 292 
 CHI  HZ EP       12 9 43.33                             117    0.16 8  249 195 
 CHI  HN ES       1210 12.61                             117    0.00 8  249 195 
 CHI  HZ I        1210 16.15        38.1 0.64            118            249 195 
 ROSC BZ EP       12 9 45.02                             117    1.46 8  253 211 
 ROSC BE ES       1210 14.05                             117    0.75 8  253 211 
 PTGC HZ EP   9   12 9 48.29                             112   -1.11 0  310 159 
 PTGC HN ES       1210 22.12                                   -0.47 7  310 159 
 ELA  HZ EP   4   12 9 54.90                             110    2.66 0  329 229 
 ELA  HN ES   4   1210 25.15                             110   -3.61 0  329 229 
 ELA  HZ I        1210 41.75        27.3 0.48            111            329 229 
 CBOC HZ EP       12 9 52.19                             110   -0.07 7  333 252 
 CBOC HN ES       1210 28.12                             110   -0.67 7  333 252 
 CBOC HZ I        1210 40.11         7.1 0.48            110            333 252 
                                                                                
