 2012  820 1715 54.8 L   6.768 -73.133153.2  RSN  6 0.4 1.8LRSN                1
 GAP=140        0.74       4.5     4.1  6.8  0.2668E+01  0.3418E+01 -0.8667E+00E
 Epicentro: LOS SANTOS - SANTANDER                                             3
 ACTION:UPD 12-09-10 11:57 OP:ep   STATUS:               ID:20120820171554 L   I
 2012-08-20-1710-00M.COL___217                                                 6
 STAT SP IPHASW D HRMM SECON CODA AMPLIT PERI AZIMU VELO AIN AR TRES W  DIS CAZ7
 BAR2 SZ EP   1   1716 15.16                             172   -0.14 7 20.2 196 
 BAR2 SZ ES   2   1716 30.56                             172   -0.71 5 20.2 196 
 BAR2 SZ I        1716 33.56        20.5 0.14                          20.2 196 
 BRR  HZ EP   1   1716 17.17                             153    0.21 7 74.2 300 
 BRR  HZ I        1716 18.79        18.4 0.10                          74.2 300 
 BRR  HN ES       1716 34.64                             153    0.4310 74.2 300 
 PAM  SZ EP   1   1716 18.17                             152    0.22 7 79.2  37 
 PAM  SN ES   1   1716 35.55                             152   -0.44 7 79.2  37 
 PAM  SZ I        1716 37.73         6.4 0.18                          79.2  37 
 RUS  HZ EP   1   1716 19.10                             146    0.02 7 97.0 177 
 RUS  HN ES       1716 38.27                             146    0.2810 97.0 177 
 RUS  HZ I        1716 40.53         5.5 0.47                          97.0 177 
 PTB  HZ EP   1   1716 22.22                             134   -0.27 7  149 260 
 PTB  HN ES       1716 43.64                             134   -0.42 9  149 260 
 PTB  HZ I        1716 45.41         5.6 0.13                           149 260 
 ZAR  HZ EP   2   1716 27.43                             124   -0.62 4  207 293 
 ZAR  HN ES   1   1716 54.32                             124    0.37 6  207 293 
 ZAR  HZ I        1717  0.29         8.7 0.27                           207 293 
                                                                                
