 2016  420 1449 11.5 L   6.926 -73.397107.6  RSN  4 0.3 1.4LRSN                1
 GAP=216        0.48       6.5     4.2  8.8  0.3957E+01  0.1711E+02 -0.6675E+01E
 Epicentro: SAN VICENTE DE CHUCURI - SANTANDER                                 3
 ACTION:UPD 16-05-05 14:22 OP:rebc STATUS:               ID:20160420144911 L   I
 OLDACT:ARG 16-04-20 21:02 OP:ar   STATUS:               ID:20160420144749     3
 2016-04-20-1447-49M.COL___301                                                 6
 STAT SP IPHASW D HRMM SECON CODA AMPLIT PERI AZIMU VELO AIN AR TRES W  DIS CAZ7
 BAR2 EZ EP       1449 27.27                             156   -0.0510 43.8 147 
 BAR2 EZ ES   2   1449 39.91                             156    0.23 5 43.8 147 
 BAR2 EZ I        1449 42.32         8.8 0.46            157           43.8 147 
 PTB  HZ EP   2   1449 33.03                             127   -0.27 5  125 250 
 PTB  HN ES   2   1449 49.82                             127   -0.50 5  125 250 
 PTB  HZ I        1449 51.52         3.8 0.20            127            125 250 
 ZAR  HZ EP   2   1449 38.63                             117    0.31 4  173 291 
 ZAR  HN ES   2   1449 59.46                             117    0.19 4  173 291 
 ZAR  HZ I        1450  1.97         3.7 0.32            119            173 291 
 NOR  HZ EP   2   1449 43.57                             110   -0.26 4  222 227 
 NOR  HN ES   2   1450  9.73                             110    0.65 4  222 227 
 NOR  HZ I        1450 13.97         2.5 0.20            112            222 227 
                                                                                
