 2016  420 1009  2.4 L   6.778 -73.154148.4  RSN  7 0.4 1.7LRSN                1
 GAP=136        0.94       3.6     4.3  6.3 -0.1500E+01  0.9218E+01  0.7444E+00E
 Epicentro: LOS SANTOS - SANTANDER                                             3
 ACTION:UPD 16-05-05 14:22 OP:rebc STATUS:               ID:20160420100902 L   I
 OLDACT:ARG 16-04-20 21:02 OP:ar   STATUS:               ID:20160420100746     3
 2016-04-20-1007-46M.COL___306                                                 6
 STAT SP IPHASW D HRMM SECON CODA AMPLIT PERI AZIMU VELO AIN AR TRES W  DIS CAZ7
 BAR2 EZ EP       10 9 22.40                             172    0.0810 20.8 189 
 BAR2 EZ ES       10 9 37.70                             172   -0.1410 20.8 189 
 BAR2 EZ I        10 9 39.22         8.8 0.36            171           20.8 189 
 PAM  EZ EP       10 9 25.32                             150    0.2610 79.9  39 
 PAM  EN ES       10 9 42.39                             150   -0.3310 79.9  39 
 PAM  EZ I        10 9 44.38         8.6 0.54            153           79.9  39 
 RUS  HZ EP   2   10 9 26.89                             145    0.63 5 98.2 175 
 RUS  HN ES       10 9 45.26                             145    0.4010 98.2 175 
 RUS  HZ I        10 9 47.81         6.6 0.40            145           98.2 175 
 PTB  HZ EP       10 9 29.10                             133   -0.38 9  146 260 
 PTB  HN ES       10 9 50.02                             133   -0.56 9  146 260 
 PTB  HZ I        10 9 52.44         8.1 0.12            134            146 260 
 SPBC HZ EP       10 9 31.02                             130    0.13 9  161 219 
 SPBC HN ES       10 9 53.19                             130    0.10 9  161 219 
 ZAR  HZ EP       10 9 35.25                             123    0.21 9  204 293 
 ZAR  HN ES       1010  1.12                             123    0.63 9  204 293 
 ZAR  HZ I        1010  2.46         6.5 0.10            124            204 293 
 CHI  HZ EP       10 9 39.16                             118   -0.83 8  246 195 
 CHI  HN ES       1010  9.46                             118    0.17 8  246 195 
 CHI  HZ I        1010 13.78         1.9 0.44            119            246 195 
 SOCV BZ EP   4   10 9 42.65                             112   -3.18 0  303  57 
 SOCV BN ES   4   1010 17.24                             112   -2.45 0  303  57 
                                                                                
