 2013  620 1044  6.0 L   6.163 -73.674108.0  RSN  4 0.5 1.8LRSN                1
 GAP=195        0.91       7.0     4.8  9.6 -0.1435E+02  0.7891E+01 -0.7909E+01E
 Epicentro: LA PAZ - SANTANDER                                                 3
 ACTION:UPD 14-01-08 09:55 OP:ep   STATUS:               ID:20130620103959 L   I
 OLDACT:UPD 13-06-20 15:02 OP:stll STATUS:               ID:20130620103959 L   3
 2013-06-20-1039-59M.COL___264                                                 6
 STAT SP IPHASW D HRMM SECON CODA AMPLIT PERI AZIMU VELO AIN AR TRES W  DIS CAZ7
 BAR2 SZ EP       1044 23.20                             144   -0.4210 72.2  49 
 BAR2 SZ ES       1044 37.69                             144    0.3210 72.2  49 
 BAR2 SZ I        1044 39.24        27.6 0.41            146           72.2  49 
 PTB  HZ EP   2   1044 24.30                             135   -0.90 5 96.0 296 
 PTB  HN ES       1044 39.95                             135   -0.2410 96.0 296 
 PTB  HZ I        1044 42.66        11.9 0.34            136           96.0 296 
 NOR  HZ EP   2   1044 30.75                             122    0.50 5  148 243 
 NOR  HN ES   1   1044 49.71                             122    0.53 7  148 243 
 NOR  HZ I        1044 51.02         5.9 0.16            124            148 243 
 SML  HZ EP   1   1044 46.70                             104   -0.12 5  295 351 
 SML  HE ES   1   1045 19.46                             104    0.79 5  295 351 
 SML  HZ I        1045 20.65         6.0 0.26            106            295 351 
                                                                                
