 2017 1220 1005 44.1 L   6.823 -73.157153.0  RSN  5 0.2 1.2LRSN                1
 GAP=145        0.63       3.9     3.3  5.4 -0.4407E+01  0.4964E+01  0.7392E+00E
 Epicentro: LOS SANTOS - SANTANDER                                             3
 ACTION:UPD 18-01-04 13:22 OP:rebc STATUS:               ID:20171220100544 L   I
 OLDACT:REG 17-12-20 20:18 OP:dani STATUS:               ID:20171220095615     3
 2017-12-20-0958-00M.COL___455                                                 6
 STAT SP IPHASW D HRMM SECON CODA AMPLIT PERI AZIMU VELO AIN AR TRES W  DIS CAZ7
 BAR2 EZ EP       10 6  4.43                             170   -0.2410 25.7 186 
 BAR2 EZ ES       10 6 20.90                             170    0.2010 25.7 186 
 BAR2 EZ I        10 6 22.21         2.7 0.26            170           25.7 186 
 PAM  EZ EP       10 6  7.33                             152    0.2810 76.3  41 
 PAM  EN ES       10 6 24.73                             152   -0.2010 76.3  41 
 PAM  EZ I        10 6 26.45         2.3 0.46            157           76.3  41 
 PTB  HZ EP       10 6 11.33                             134   -0.30 9  147 258 
 PTB  HN ES       10 6 33.26                             134    0.18 9  147 258 
 PTB  HZ I        10 6 40.68         1.4 0.32            134            147 258 
 SPBC HZ EP       10 6 13.62                             130    0.32 9  164 218 
 SPBC HN ES       10 6 35.81                             130   -0.24 9  164 218 
 SPBC HZ I        10 6 38.39         5.3 0.24            132            164 218 
 ZAR  HN ES       10 6 42.35                             124    0.00 9  202 292 
                                                                                
