 2017  420 1109 32.0 L   6.772 -73.149144.0  RSN  4 0.5 1.0LRSN                1
 GAP=137        0.78       4.2     3.8  9.5 -0.2828E+00  0.8683E+01 -0.2019E+01E
 Epicentro: LOS SANTOS - SANTANDER                                             3
 ACTION:UPD 17-05-30 21:14 OP:jn   STATUS:               ID:20170420110932 L   I
 OLDACT:UP  17-04-20 20:26 OP:dani STATUS:               ID:20170420110744     3
 OLDACT:REG 17-04-20 19:42 OP:dani STATUS:               ID:20170420110744     3
 2017-04-20-1108-00M.COL___362                                                 6
 STAT SP IPHASW D HRMM SECON CODA AMPLIT PERI AZIMU VELO AIN AR TRES W  DIS CAZ7
 PAM  EZ EP       11 9 53.90                             150   -0.3410 80.0  38 
 PAM  EN ES       1110 11.75                             150    0.2110 80.0  38 
 PAM  EZ I        1110 13.74         2.5 0.22            153           80.0  38 
 RUS  HZ EP       11 9 55.28                             145   -0.1310 97.5 176 
 RUS  HN ES       1110 13.82                             145    0.2010 97.5 176 
 RUS  HZ I        1110 16.59         1.3 0.42            147           97.5 176 
 PTB  HZ EP   3   1110  1.10                             132    2.31 2  147 260 
 PTB  HN ES       1110 19.40                             132   -0.24 9  147 260 
 PTB  HZ I        1110 20.17         1.5 0.24            136            147 260 
 ZAR  HE ES       1110 29.95                             122    0.20 9  205 293 
                                                                                
