 2011  620 1528 58.6 L   7.454 -73.159140.0  RSN  6 0.4 1.9LRSN                1
 GAP=116        0.91       6.5     7.7  9.5 -0.1120E+02  0.2769E+02 -0.2825E+02E
 Epicentro: EL PLAYON - SANTANDER                                              3
 ACTION:UP  11-07-14 19:06 OP:ep   STATUS:               ID:20110620152858 L   I
 2011-06-20-1526-32S.COL___134                                                 6
 STAT SP IPHASW D HRMM SECON CODA AMPLIT PERI AZIMU VELO SNR AR TRES W  DIS CAZ7
 PAM  SZ EP       1529 19.13                             159     0.310   52 104 
 PAM  SN ES   1   1529 34.37                             159    -0.3 7   52 104 
 BRR  HZ EP       1529 19.27                             151     0.110   72 238 
 BRR  HZ I        1529 19.47        31.6 0.14                            72 238 
 BRR  HN ES   1   1529 35.36                             151     0.1 7   72 238 
 OCA  SZ EP       1529 20.85                             146     0.410   89 348 
 OCA  SZ I        1529 41.03        10.7 0.06                            89 348 
 BAR2 SZ EP       1529 20.88                             144    -0.210   95 182 
 BAR2 SZ ES   1   1529 38.20                             144    -0.4 7   95 182 
 BAR2 SZ I        1529 39.69        18.3 0.20                            95 182 
 NOR  SZ EP   2   1529 39.67                             113     0.4 4  282 222 
 NOR  SN ES   2   1530 11.41                             113     0.5 4  282 222 
 SJC  HZ EP       1529 46.10                             108    -0.9 6  350 321 
 SJC  HZ I        1529 46.76         2.1 0.11                           350 321 
                                                                                
