 2017 1220 1338 56.4 L   6.798 -73.133147.6  RSN  4 0.2 1.4LRSN                1
 GAP=155        0.49       4.4     2.6  4.6 -0.3750E+01  0.4491E+01 -0.2668E+01E
 Epicentro: LOS SANTOS - SANTANDER                                             3
 ACTION:UPD 18-01-04 13:22 OP:rebc STATUS:               ID:20171220133856 L   I
 OLDACT:REG 17-12-20 20:37 OP:dani STATUS:               ID:20171220133614     3
 2017-12-20-1338-00M.COL___452                                                 6
 STAT SP IPHASW D HRMM SECON CODA AMPLIT PERI AZIMU VELO AIN AR TRES W  DIS CAZ7
 BAR2 EZ EP       1339 16.11                             171   -0.1810 23.4 193 
 BAR2 EZ ES       1339 31.76                             171   -0.0110 23.4 193 
 BAR2 EZ I        1339 33.86         7.0 0.32            172           23.4 193 
 PAM  EZ EP       1339 19.08                             151    0.2810 76.7  39 
 PAM  EN ES       1339 36.17                             151   -0.0810 76.7  39 
 PAM  EZ I        1339 39.26         3.5 0.52            154           76.7  39 
 PTB  HZ EP       1339 23.54                             132   -0.13 9  149 259 
 PTB  HN ES       1339 45.13                             132    0.22 9  149 259 
 PTB  HZ I        1339 49.01         2.8 0.25            134            149 259 
 ZAR  HN ES       1339 54.54                             123   -0.11 8  205 292 
                                                                                
