 2012  120 1716 11.9 L   6.770 -73.179140.4  RSN  6 0.4 1.7LRSN                1
 GAP=134        0.98       6.4     5.7  8.9  0.3799E+01  0.1304E+02 -0.2588E+01E
 Epicentro: LOS SANTOS - SANTANDER                                             3
 ACTION:UP  12-02-03 08:19 OP:REBC STATUS:               ID:20120120171611 L   I
 2012-01-20-1710-00M.COL___188                                                 6
 STAT SP IPHASW D HRMM SECON CODA AMPLIT PERI AZIMU VELO SNR AR TRES W  DIS CAZ7
 BAR2 SZ EP   1   1716 30.78                             172    -0.1 7   20 181 
 BAR2 SZ ES   1   1716 45.62                             172     0.0 7   20 181 
 BAR2 SZ I        1716 47.46        11.6 0.15                            20 181 
 BRR  HZ EP   1   1716 32.78                             152     0.4 7   70 302 
 BRR  HN ES   1   1716 49.26                             152     0.9 7   70 302 
 BRR  HZ I        1716 50.50        22.3 0.12                            70 302 
 PAM  SZ EP   1   1716 33.82                             148    -0.1 7   82  40 
 PAM  SN ES   1   1716 50.50                             148    -0.5 7   82  40 
 PAM  SZ I        1716 53.07         7.6 0.47                            82  40 
 RUS  HZ EP   1   1716 35.19                             144     0.3 7   98 174 
 RUS  HZ I        1716 36.33         5.8 0.14                            98 174 
 RUS  HE ES   1   1716 52.71                             144    -0.2 7   98 174 
 PTB  HZ EP   1   1716 37.87                             132    -0.2 7  144 260 
 PTB  HN ES   1   1716 58.09                             132    -0.4 7  144 260 
 PTB  HZ I        1717  0.33         0.0 0.12                           144 260 
 ZAR  HZ EP   1   1716 44.15                             121     0.4 6  202 293 
 ZAR  HN ES   1   1717  7.96                             121    -0.7 6  202 293 
 ZAR  HZ I        1717 13.82         3.8 0.10                           202 293 
                                                                                
