 2011  820 1435  4.6 L   6.323 -73.579113.5  RSN  4 0.1 1.7LRSN                1
 GAP=111        0.37       2.2     2.6  5.4 -0.3725E+00  0.5774E+01  0.5751E+00E
 Epicentro: SANTA HELENA DEL OPON - SANTANDER                                  3
 ACTION:UPD 12-07-13 15:52 OP:ep   STATUS:               ID:20110820143504 L   I
 2011-08-20-1435-07S.COL___152                                                 6
 STAT SP IPHASW D HRMM SECON CODA AMPLIT PERI AZIMU VELO AIN AR TRES W  DIS CAZ7
 BAR2 SZ IP       1435 21.72                             153    0.1310 53.0  56 
 BAR2 SZ I        1435 21.97        31.2 0.17                          53.0  56 
 RUS  HZ EP   1   1435 23.10                             145   -0.08 7 72.6 131 
 RUS  HE ES   1   1435 37.63                             145   -0.04 7 72.6 131 
 RUS  HZ I        1435 39.40         7.0 0.24                          72.6 131 
 BRR  HZ EP       1435 23.47                             139   -0.1610 87.9 350 
 BRR  HN ES   1   1435 38.54                             139    0.08 7 87.9 350 
 NOR  SZ EP   1   1435 31.26                             120    0.18 7  166 240 
 NOR  SN ES   1   1435 51.66                             120   -0.07 7  166 240 
                                                                                
