 2017  320 1900 23.9 L   6.772 -73.148142.5  RSN  7 0.4 1.9LRSN                1
 GAP=153        0.94       3.9     4.2  6.4 -0.4253E+01  0.7784E+01  0.4168E+01E
 Epicentro: LOS SANTOS - SANTANDER                                             3
 ACTION:UPD 17-05-25 18:43 OP:jn   STATUS:               ID:20170320190023 L   I
 OLDACT:REG 17-03-20 22:16 OP:dnl  STATUS:               ID:20170320185746     3
 2017-03-20-1858-00M.COL___388                                                 6
 STAT SP IPHASW D HRMM SECON CODA AMPLIT PERI AZIMU VELO AIN AR TRES W  DIS CAZ7
 BAR2 EZ EP       19 0 42.92                             171   -0.1210 20.3 191 
 BAR2 EZ ES       19 0 58.36                             171    0.3610 20.3 191 
 BAR2 EZ I        19 0 59.63        20.0 0.26            168           20.3 191 
 PAM  EZ EP       19 0 45.74                             149   -0.1510 79.9  38 
 PAM  EN ES       19 1  2.95                             149   -0.1110 79.9  38 
 PAM  EZ I        19 1  5.06        18.2 0.52            156           79.9  38 
 PTB  HZ EP       19 0 49.95                             131   -0.55 9  147 260 
 PTB  HN ES       19 1 10.59                             131   -0.68 9  147 260 
 PTB  HZ I        19 1 18.50         9.9 0.30            132            147 260 
 SPBC HZ EP       19 0 51.93                             129    0.05 9  161 220 
 SPBC HN ES       19 1 14.21                             129    0.49 9  161 220 
 SPBC HZ I        19 1 19.84        22.3 0.24            130            161 220 
 ZAR  HZ EP       19 0 57.10                             122    0.90 9  205 293 
 ZAR  HE ES       19 1 21.59                             122    0.17 9  205 293 
 ZAR  HZ I        19 1 27.38         8.2 0.09            123            205 293 
 NOR  HZ EP       19 0 59.16                             118   -0.04 8  233 235 
 NOR  HE ES       19 1 26.71                             118   -0.05 8  233 235 
 NOR  HZ I        19 1 32.36         6.0 0.20            120            233 235 
 CHI  HZ EP       19 1  1.02                             117   -0.04 8  246 195 
 CHI  HN ES       19 1 29.97                             117   -0.10 8  246 195 
 CHI  HZ I        19 1 36.75         2.9 0.27            119            246 195 
                                                                                
