 2017  920 1857 17.3 L   6.787 -73.149144.0  RSN 18 0.5 2.4LRSN                1
 GAP=112        1.16       3.6     3.9  5.7  0.1323E+01  0.8856E+01  0.4950E+01E
 Epicentro: LOS SANTOS - SANTANDER                                             3
 ACTION:UPD 17-10-05 19:14 OP:rebc STATUS:               ID:20170920185717 L   I
 OLDACT:DUP 17-09-21 01:02 OP:lv   STATUS:               ID:20170920184742d    3
 2017-09-20-1848-00M.COL___434                                                 6
 STAT SP IPHASW D HRMM SECON CODA AMPLIT PERI AZIMU VELO AIN AR TRES W  DIS CAZ7
 BAR2 EZ IP     D 1857 36.55                             171   -0.1110 21.9 190 
 BAR2 EZ ES       1857 50.59                             171   -1.1910 21.9 190 
 BAR2 EZ I        1857 52.84        67.6 0.24            167           21.9 190 
 BRR  HZ IP     D 1857 38.46                             152    0.2110 71.5 300 
 BRR  HN ES       1857 55.59                             152    0.9810 71.5 300 
 BRR  HZ I        1857 58.04        41.8 0.28            151           71.5 300 
 PAM  EZ EP       1857 39.56                             150    0.1810 78.7  39 
 PAM  EN ES       1857 56.72                             150    0.1010 78.7  39 
 PAM  EZ I        1857 59.54        32.0 0.62            156           78.7  39 
 RUS  HZ EP       1857 40.54                             144   -0.2110 99.2 176 
 RUS  HN ES       1857 59.23                             144    0.1710 99.2 176 
 RUS  HZ I        1858  0.68        16.7 0.32            144           99.2 176 
 YPLC HZ IP     D 1857 47.05                             126    0.21 9  176 151 
 YPLC HN ES       1858  9.98                             126    0.08 9  176 151 
 YPLC HZ I        1858 11.99        27.9 0.26            129            176 151 
 ZAR  HZ EP       1857 48.82                             122   -0.80 9  204 293 
 ZAR  HN ES       1858 14.47                             122   -0.38 9  204 293 
 ZAR  HZ I        1858 20.68        29.9 0.40            123            204 293 
 NOR  HZ IP     D 1857 52.75                             118   -0.03 8  234 235 
 NOR  HN ES       1858 20.48                             118    0.01 8  234 235 
 NOR  HZ I        1858 25.76        21.3 0.32            119            234 235 
 CHI  HZ EP       1857 55.01                             117    0.29 8  247 195 
 CHI  HN ES       1858 24.22                             117    0.30 8  247 195 
 CHI  HZ I        1858 29.22        15.6 0.38            118            247 195 
 ROSC BZ EP   9   1857 57.12                             116    1.98 0  251 211 
 ROSC BN ES       1858 27.16                                    0.50 8  251 211 
 ROSC BZ I        1858 31.29        40.0 0.40            117            251 211 
 HEL  HZ EP       1857 56.71                             114   -0.60 8  271 256 
 HEL  HN ES       1858 29.45                             114    0.91 8  271 256 
 HEL  HZ I        1858 35.18        15.1 0.28            115            271 256 
 GUY2CHZ EP       1858  1.61                             112    0.94 7  300 235 
 GUY2CHN ES       1858 33.99                             112   -0.53 7  300 235 
 GUY2CHZ I        1858 42.04        12.7 0.40                           300 235 
 PTGC HZ EP   9   1857 59.70                             111   -1.22 0  308 158 
 PTGC HN ES       1858 33.51                                   -0.23 7  308 158 
 PTGC HZ I        1858 34.61        16.5 0.66            113            308 158 
 CBOC HZ EP       1858  4.53                             110    0.51 7  333 252 
 CBOC HN ES   4   1858 38.96                             110   -1.52 0  333 252 
 CBOC HZ I        1858 54.13         6.2 0.26            110            333 252 
 DBB  EZ EP       1858  4.02                             109   -0.62 7  339 274 
 DBB  EN ES   4   1858 39.72                             109   -1.87 0  339 274 
 DBB  EZ I        1858 42.47         4.9 0.14            110            339 274 
 PRA  HZ EP       1858 10.54                             106   -0.03 6  391 210 
 PRA  HN ES       1858 51.53                             106   -0.60 6  391 210 
 PRA  HZ I        1858 56.83        12.9 0.32            107            391 210 
 ORTC HZ EP       1858 11.03                             106    0.06 6  394 216 
 ORTC HN ES   4   1858 54.51                             106    1.65 0  394 216 
 ORTC HZ I        1859  0.48         7.5 0.30            107            394 216 
 PAL  HZ EP       1858 12.16                             106   -0.09 6  405 239 
 PAL  HN ES       1858 55.18                             106    0.05 6  405 239 
 PAL  HE ES       1858 56.28                             106            405 239 
 PAL  HZ I        1858 58.49         4.0 0.28            107            405 239 
 SJC  HZ EP   4   1858 10.69                             105   -2.20 0  410 327 
 SJC  HN ES   4   1858 49.07                             105   -7.20 0  410 327 
 SJC  HZ I        1858 55.83         4.1 0.30            107            410 327 
                                                                                
