 2012  920 1231 51.3 L   6.301 -73.034176.2  RSN  5 0.4 2.1LRSN                1
 GAP=214        0.79       5.1    12.1  7.0  0.9636E+01  0.2744E+02  0.7167E+01E
 Epicentro: COROMORO - SANTANDER                                               3
 ACTION:UPD 12-10-22 14:19 OP:ep   STATUS:               ID:20120920123151 L   I
 2012-09-20-1230-00M.COL___224                                                 6
 STAT SP IPHASW D HRMM SECON CODA AMPLIT PERI AZIMU VELO AIN AR TRES W  DIS CAZ7
 BAR2 SZ IP       1232 14.78                             168   -0.1010 36.2 333 
 BAR2 SZ ES       1232 32.80                             168   -0.4710 36.2 333 
 RUS  HZ EP   1   1232 15.79                             165    0.27 7 45.5 187 
 RUS  HN ES   1   1232 34.98                             165    0.57 7 45.5 187 
 RUS  HZ I        1232 36.79        15.4 0.30                          45.5 187 
 BRR  HZ EP       1232 18.38                             145   -0.1310  117 320 
 BRR  HN ES   1   1232 40.31                             145    0.58 7  117 320 
 CHI  HZ EP   1   1232 26.35                             129    0.25 6  200 203 
 CHI  HZ I        1232 26.68        12.9 0.14                           200 203 
 CHI  HN ES   1   1232 52.79                             129   -0.45 6  200 203 
 HEL  HZ EP   1   1232 33.66                             120   -0.03 6  276 268 
 HEL  HZ I        1233 15.38         5.3 0.29                           276 268 
                                                                                
