 2010  120 1121 30.2 L   7.516 -73.063146.9  RSN  7 0.5 2.2LRSN                1
 GAP=200        1.06       5.7    13.7  9.2  0.7279E+01  0.4143E+02  0.1126E+02E
 Epicentro: EL PLAYON - SANTANDER                                              3
 ACTION:UP  10-08-24 09:45 OP:vdl  STATUS:               ID:20100120112130 L   I
 2010-01-20-1120-02S.COL___095                                                 6
 STAT SP IPHASW D HRMM SECON CODA AMPLIT PERI AZIMU VELO SNR AR TRES W  DIS CAZ7
 GIR2 SZ IP       1121 51.49                             160     0.810   50 197 
 GIR2 SZ ES   1   1122  7.23                             160     0.6 7   50 197 
 OCA  SZ IP       1121 52.59                             148     0.010   85 341 
 OCA  SZ ES   1   1122  9.40                             148    -0.5 7   85 341 
 OCA  SZ I        1122 11.86        52.6 0.18                            85 341 
 BAR2 SZ IP       1121 53.60                             143    -0.310  103 187 
 BAR2 SZ ES   1   1122 11.96                             143    -0.4 7  103 187 
 RUS  BZ EP   1   1122  0.18                             127    -0.8 7  180 181 
 RUS  BZ I        1122  0.82        10.2 0.15                           180 181 
 RUS  BE ES   2   1122 24.68                             127    -0.2 4  180 181 
 HEL  HZ IP       1122 14.59                             112    -0.1 7  309 242 
 HEL  HE ES   2   1122 49.37                             112     0.0 4  309 242 
 HEL  HZ I        1123  0.09         5.3 0.47                           309 242 
 CHI  HZ EP   2   1122 17.06                             111     0.2 3  328 193 
 PRA  HZ IP       1122 33.11                             104     0.5 5  466 206 
 PRA  HE ES   2   1123 20.91                             104    -0.3 2  466 206 
 PRA  HZ I        1123 29.52         3.4 0.63                           466 206 
                                                                                
