 2017  320 1959  4.2 L   6.778 -73.144135.9  RSN 17 0.3 2.7LRSN                1
 GAP=153        0.63       2.1     2.4  3.2 -0.1448E+01  0.1870E+01  0.1879E+01E
 Epicentro: LOS SANTOS - SANTANDER                                             3
 ACTION:UPD 17-05-25 18:43 OP:jn   STATUS:               ID:20170320195904 L   I
 OLDACT:REG 17-03-21 02:28 OP:cara STATUS:               ID:20170320195744     3
 2017-03-20-1958-00M.COL___388                                                 6
 STAT SP IPHASW D HRMM SECON CODA AMPLIT PERI AZIMU VELO AIN AR TRES W  DIS CAZ7
 BAR2 EZ IP     C 1959 22.60                             171    0.0310 20.9 192 
 BAR2 EZ ES       1959 36.69                             171   -0.2310 20.9 192 
 BAR2 EZ I        1959 38.28       126.1 0.32            169           20.9 192 
 BRR  HZ IP     C 1959 24.44                             150    0.0910 72.6 300 
 BRR  HE ES       1959 40.25                             150    0.1610 72.6 300 
 BRR  HN ES       1959 40.90                             150           72.6 300 
 BRR  HZ I        1959 44.27        71.5 0.40            150           72.6 300 
 PAM  EZ EP     C 1959 25.43                             148   -0.0310 79.2  38 
 PAM  EN ES       1959 42.27                             148    0.2010 79.2  38 
 PAM  EZ I        1959 44.35       164.3 0.46            153           79.2  38 
 PTB  HZ EP       1959 29.73                             130   -0.60 9  148 260 
 PTB  HN ES       1959 50.36                             130   -0.38 9  148 260 
 PTB  HZ I        1959 53.19        46.7 0.26            130            148 260 
 SPBC HZ EP       1959 31.74                             127   -0.02 9  161 220 
 SPBC HN ES       1959 53.42                             127    0.14 9  161 220 
 SPBC HZ I        1959 59.60        70.0 0.26            128            161 220 
 ZAR  HZ EP       1959 35.62                             120   -0.50 9  205 293 
 ZAR  HN ES       20 0  1.38                             120    0.35 9  205 293 
 ZAR  HZ I        20 0  6.91        56.5 0.42            121            205 293 
 NOR  HZ IP     C 1959 39.28                             116    0.07 8  233 235 
 NOR  HN ES       20 0  6.55                             116    0.01 8  233 235 
 NOR  HZ I        20 0 15.15        39.6 0.34            118            233 235 
 CHI  HZ EP       1959 41.17                             115    0.08 8  246 195 
 CHI  HN ES       20 0 10.07                             115    0.19 8  246 195 
 CHI  HZ I        20 0 13.77        16.7 0.46            117            246 195 
 URE  HZ EP   4   1959 41.64                             111   -3.27 0  285 292 
 URE  HN ES   4   20 0 14.26                             111   -2.43 0  285 292 
 URE  HZ I        20 0 16.19        28.0 0.12            113            285 292 
 GUY2CHZ EP       1959 47.30                             110    0.10 7  300 235 
 GUY2CHN ES       20 0 21.04                             110    0.28 7  300 235 
 GUY2CHZ  IAML    20 0 35.60        18.9 0.52                           300 235 
 PTGC HZ EP   4   1959 46.13                             110   -1.20 0  306 159 
 PTGC HN ES   4   20 0 19.57                             110   -1.43 0  306 159 
 PTGC HZ I        20 0 21.58        37.2 0.70            112            306 159 
 CBOC HZ EP       1959 50.65                             108    0.01 7  333 253 
 CBOC HN ES       20 0 27.44                             108    0.57 7  333 253 
 CBOC HZ I        20 0 30.56         8.3 0.26            109            333 253 
 DBB  EZ EP   4   1959 50.32                             108   -1.00 0  340 275 
 DBB  EN ES   4   20 0 24.44                             108   -3.65 0  340 275 
 DBB  EZ I        20 0 29.79         9.7 0.16            109            340 275 
 ANIL HZ EP       1959 52.94                             107   -0.49 6  356 225 
 ANIL HE ES       20 0 31.65                             107   -0.20 6  356 225 
 ANIL HZ I        20 0 40.04        51.1 0.30            108            356 225 
 ARGC HZ EP       1959 54.01                             106    0.26 6  362 340 
 ARGC HE ES   4   20 0 31.23                             106   -1.19 0  362 340 
 ARGC HZ I        20 0 37.10         7.2 0.34            108            362 340 
 PRA  HZ EP       1959 57.50                             105    0.37 6  390 210 
 PRA  HE ES       20 0 38.49                             105    0.06 6  390 210 
 PRA  HZ I        20 0 44.60        23.9 0.20            106            390 210 
 SJC  HZ EP   4   1959 57.39                             104   -2.30 0  411 327 
 SJC  HE ES   4   20 0 38.51                             104   -4.48 0  411 327 
 SJC  HZ I        20 0 42.03        17.2 0.50            106            411 327 
                                                                                
