 2014  120 1023 15.1 L   6.287 -73.144181.1  RSN  6 0.5 1.6LRSN                1
 GAP=178        1.30       8.6     7.3 10.3  0.7512E+00  0.2138E+02 -0.2118E+02E
 Epicentro: CHARALA - SANTANDER                                                3
 ACTION:UPD 14-03-13 09:56 OP:ep   STATUS:               ID:20140120102315 L   I
 OLDACT:DUP 14-01-20 15:40 OP:stll STATUS:               ID:20140120101812d    3
 2014-01-20-1018-10M.COL___229                                                 6
 STAT SP IPHASW D HRMM SECON CODA AMPLIT PERI AZIMU VELO AIN AR TRES W  DIS CAZ7
 BAR2 SZ EP       1023 39.49                             169    0.2810 34.0 353 
 BAR2 SZ I        1023 39.61        12.1 0.28            166           34.0 353 
 BAR2 SZ ES       1023 58.68                             169    0.6710 34.0 353 
 RUS  HZ EP       1023 40.11                             166    0.2510 44.1 171 
 RUS  HZ I        1023 40.46         3.6 0.16            168           44.1 171 
 RUS  HN ES       1023 58.66                             166   -0.5010 44.1 171 
 SPBC HE ES       1024  4.89                             144   -0.7310  124 236 
 SPBC HZ I        1024  8.78         7.5 0.40            144            124 236 
 PTB  HZ EP       1023 45.10                             139   -0.06 9  148 281 
 PTB  HN ES       1024  8.47                             139   -0.12 9  148 281 
 PTB  HZ I        1024 10.26         3.1 0.28            138            148 281 
 ZAR  HZ EP       1023 52.02                             126   -0.73 8  232 305 
 ZAR  HN ES       1024 22.09                             126   -0.02 8  232 305 
 ZAR  HZ I        1024 29.32         2.9 0.44            125            232 305 
 GUY2CHN ES       1024 31.73                             121    1.10 8  273 245 
 GUY2CHZ I        1024 37.49         1.4 0.52                           273 245 
                                                                                
