 2014  720 1216 50.1 L   6.849 -73.173138.1  RSN  6 0.3 1.6LRSN                1
 GAP=199        0.73       3.1     4.0  5.9  0.3428E+01  0.2676E+01 -0.6981E+01E
 Epicentro: ZAPATOCA - SANTANDER                                               3
 ACTION:UPD 15-03-16 20:45 OP:nd   STATUS:               ID:20140720121650 L   I
 OLDACT:REG 14-07-20 21:07 OP:stll STATUS:               ID:20140720120819     3
 2014-07-20-1208-19M.COL___266                                                 6
 STAT SP IPHASW D HRMM SECON CODA AMPLIT PERI AZIMU VELO AIN AR TRES W  DIS CAZ7
 BAR2 SZ IP     C 1217  9.17                             168    0.2210 28.4 182 
 BAR2 SZ ES       1217 23.94                             168    0.3010 28.4 182 
 BAR2 SZ I        1217 25.78        11.0 0.26            168           28.4 182 
 RUS  HZ EP       1217 13.89                             141    0.3410  106 175 
 RUS  HZ I        1217 14.08         2.1 0.14            145            106 175 
 RUS  HN ES       1217 31.31                             141   -0.5210  106 175 
 PTB  HE ES       1217 36.76                             131    0.03 9  146 257 
 PTB  HZ I        1217 44.71         4.6 0.40            130            146 257 
 SPBC HZ EP       1217 18.14                             127   -0.13 9  166 217 
 SPBC HN ES       1217 40.06                             127   -0.17 9  166 217 
 SPBC HZ I        1217 42.57         5.7 0.22            128            166 217 
 ZAR  HZ EP       1217 21.74                             121    0.17 9  199 291 
 ZAR  HE ES       1217 46.28                             121    0.17 9  199 291 
 ZAR  HZ I        1217 53.54         3.4 0.34            121            199 291 
 SML  HZ EP       1217 25.56                             116   -0.09 8  238 335 
 SML  HN ES       1217 52.88                             116   -0.49 8  238 335 
 SML  HZ I        1217 58.85         5.0 0.10            118            238 335 
                                                                                
