 2017 1020 1821 51.0 L   6.820 -73.141145.4  RSN 17 0.5 2.2LRSN                1
 GAP=111        1.09       3.3     3.5  5.5  0.9472E+00  0.5685E+01  0.4827E+01E
 Epicentro: LOS SANTOS - SANTANDER                                             3
 ACTION:UPD 17-11-07 19:34 OP:rebc STATUS:               ID:20171020182151 L   I
 OLDACT:UP  17-10-21 01:12 OP:edw  STATUS:               ID:20171020181740     3
 OLDACT:UP  17-10-21 01:09 OP:edw  STATUS:               ID:20171020181740     3
 OLDACT:REG 17-10-20 20:31 OP:edw  STATUS:               ID:20171020181740     3
 2017-10-20-1818-00M.COL___450                                                 6
 STAT SP IPHASW D HRMM SECON CODA AMPLIT PERI AZIMU VELO AIN AR TRES W  DIS CAZ7
 BAR2 EZ EP       1822 10.57                             170   -0.0710 25.6 190 
 BAR2 EZ ES       1822 26.14                             170    0.1910 25.6 190 
 BAR2 EZ I        1822 28.93        23.7 0.18            166           25.6 190 
 BRR  HZ EP       1822 12.38                             153    0.3010 70.6 297 
 BRR  HN ES       1822 29.47                             153    0.9510 70.6 297 
 BRR  HZ I        1822 33.16        34.2 0.12            154           70.6 297 
 PAM  EZ EP       1822 13.34                             151    0.2710 75.4  40 
 PAM  EN ES       1822 30.23                             151   -0.0410 75.4  40 
 PAM  EZ I        1822 32.30        28.8 0.50            158           75.4  40 
 RUS  HZ EP       1822 14.64                             143   -0.2410  103 176 
 RUS  HN ES       1822 32.53                             143   -0.9610  103 176 
 RUS  HZ I        1822 34.73         9.9 0.64            143            103 176 
 PTB  HZ EP       1822 17.46                             132   -0.57 9  149 258 
 PTB  HN ES       1822 38.41                             132   -0.69 9  149 258 
 PTB  HZ I        1822 44.19        22.8 0.34            133            149 258 
 SPBC HZ EP       1822 19.63                             129   -0.04 9  165 219 
 SPBC HN ES       1822 42.20                             129    0.18 9  165 219 
 SPBC HZ I        1822 49.18        31.3 0.52            129            165 219 
 YPLC HZ IP     D 1822 21.04                             126    0.10 9  179 152 
 YPLC HN ES       1822 44.16                             126   -0.13 9  179 152 
 YPLC HZ I        1822 52.94         7.6 0.22            129            179 152 
 ZAR  HZ EP       1822 23.49                             122    0.10 9  204 292 
 ZAR  HN ES       1822 48.33                             122   -0.32 9  204 292 
 ZAR  HZ I        1822 54.73        27.3 0.42            125            204 292 
 TABC EZ ES   1   1822 55.32                             119    0.32 6  232 211 
 NOR  HZ EP       1822 27.06                             118    0.17 8  236 234 
 NOR  HN ES       1822 55.62                             118    0.74 8  236 234 
 NOR  HZ I        1823  0.15        15.4 0.38            120            236 234 
 CHI  HZ EP       1822 29.07                             117    0.14 8  251 195 
 CHI  HN ES       1822 58.44                             117   -0.06 8  251 195 
 CHI  HZ I        1823  4.59         7.8 0.62            118            251 195 
 ROSC BZ EP   4   1822 30.63                             116    1.29 0  255 211 
 ROSC BN ES   4   1823  1.61                             116    2.38 0  255 211 
 ROSC BZ I        1823  6.42        16.8 0.40            118            255 211 
 GUY2CHZ EP   4   1822 35.93                             112    1.14 0  303 234 
 GUY2CHN ES       1823  9.27                             112    0.34 7  303 234 
 GUY2CHZ I        1823 21.37        11.6 0.50                           303 234 
 DBB  EZ EP       1822 38.16                             109   -0.35 7  340 274 
 DBB  EN ES       1823 14.34                             109   -1.21 7  340 274 
 DBB  EZ I        1823 18.52         6.3 0.24            111            340 274 
 PRA  HZ EP       1822 44.94                             106    0.17 6  394 209 
 PRA  HN ES       1823 26.93                             106    0.24 6  394 209 
 PRA  HZ I        1823 32.53         7.1 0.26            108            394 209 
 ORTC HZ EP       1822 46.11                             106    0.95 6  397 216 
 ORTC HN ES       1823 27.47                             106    0.08 6  397 216 
 ORTC HZ I        1823 34.69         4.5 0.30            108            397 216 
 SJC  HZ EP   4   1822 44.35                             106   -2.03 0  408 327 
 SJC  HN ES   4   1823 25.50                             106   -4.06 0  408 327 
 SJC  HZ I        1823 29.65         4.6 0.56            108            408 327 
                                                                                
