 2013  420 1513 53.1 L   6.039 -73.695113.7  RSN  6 0.5 2.2LRSN                1
 GAP=200        1.28       8.5     5.9 12.7 -0.1040E+02 -0.1372E+02  0.3932E+02E
 Epicentro: BOLIVAR - SANTANDER                                                3
 ACTION:UPD 13-05-22 14:39 OP:EP   STATUS:               ID:20130420151353 L   I
 2013-04-20-1508-50M.COL___209                                                 6
 STAT SP IPHASW D HRMM SECON CODA AMPLIT PERI AZIMU VELO AIN AR TRES W  DIS CAZ7
 RUS  HZ IP     D 1514 11.47                             147    0.0410 69.6 103 
 BAR2 SZ EP       1514 12.32                             141    0.2610 83.4  43 
 BAR2 SZ ES       1514 26.86                             141   -0.0310 83.4  43 
 BAR2 SZ I        1514 27.86        41.9 0.26            140           83.4  43 
 PTB  HZ EP       1514 12.83                             135   -0.3410  101 303 
 PTB  HN ES       1514 28.47                             135   -0.3910  101 303 
 BRR  HZ EP       1514 15.09                             130    0.3910  118 359 
 BRR  HN ES       1514 32.15                             130    0.5710  118 359 
 BRR  HN I        1514 33.55        52.7 0.16            130            118 359 
 GIR2 SZ EP       1514 16.00                             128    0.2110  128  26 
 GIR2 SZ ES       1514 33.97                             128    0.4510  128  26 
 GIR2 SZ I        1514 37.04        15.5 0.30            128            128  26 
 PAM  SZ EP       1514 21.77                             118    0.04 9  181  37 
 PAM  SN ES       1514 42.71                             118   -1.39 9  181  37 
                                                                                
