 2014 1120 1227 47.8 L   6.803 -73.183137.7  RSN  6 0.4 1.7LRSN                1
 GAP=132        1.08       4.9     5.2  7.4 -0.6100E+01  0.5609E+01  0.4409E+01E
 Epicentro: ZAPATOCA - SANTANDER                                               3
 ACTION:UPD 14-12-19 15:45 OP:nd   STATUS:               ID:20141120122747 L   I
 OLDACT:ARG 14-11-20 21:12 OP:stll STATUS:               ID:20141120121744     3
 2014-11-20-1217-44M.COL___301                                                 6
 STAT SP IPHASW D HRMM SECON CODA AMPLIT PERI AZIMU VELO AIN AR TRES W  DIS CAZ7
 BAR2 SZ EP       1228  6.64                             170    0.1810 23.3 180 
 BAR2 SZ ES       1228 21.44                             170    0.4210 23.3 180 
 BAR2 SZ I        1228 23.09        10.0 0.20            171           23.3 180 
 BRR  HZ EP       1228  8.55                             152    0.6810 67.5 300 
 BRR  HE ES       1228 23.88                             152    0.3610 67.5 300 
 BRR  HZ I        1228 29.16        12.4 0.14            149           67.5 300 
 PAM  SZ EP       1228  9.19                             148   -0.1310 79.8  42 
 PAM  SZ I        1228  9.78        17.6 0.16            152           79.8  42 
 PAM  SN ES       1228 25.48                             148   -0.6210 79.8  42 
 RUS  HZ EP       1228 10.82                             142   -0.0010  101 174 
 RUS  HZ I        1228 11.88         4.4 0.10            146            101 174 
 RUS  HN ES       1228 28.67                             142   -0.1110  101 174 
 PTB  HZ EP       1228 13.24                             131   -0.52 9  144 258 
 PTB  HN ES       1228 33.48                             131   -0.53 9  144 258 
 PTB  HZ I        1228 41.55         5.7 0.48            130            144 258 
 SPBC HZ EP       1228 15.93                             128    0.46 9  161 218 
 SPBC HE ES       1228 36.78                             128   -0.28 9  161 218 
                                                                                
