 2012 1120 1941 43.4 L   6.331 -73.623109.6  RSN 10 0.4 1.8LRSN                1
 GAP= 70        0.74       2.5     2.9  5.9 -0.1724E+00  0.4082E+01  0.8744E-01E
 Epicentro: SANTA HELENA DEL OPON - SANTANDER                                  3
 ACTION:UPD 12-12-05 15:34 OP:}ep  STATUS:               ID:20121120194143 L   I
 2012-11-20-1940-00M.COL___233                                                 6
 STAT SP IPHASW D HRMM SECON CODA AMPLIT PERI AZIMU VELO AIN AR TRES W  DIS CAZ7
 BAR2 SZ EP   1   1942  0.41                             151    0.23 7 56.6  59 
 BAR2 SZ ES   1   1942 13.53                             151    0.27 7 56.6  59 
 RUS  HZ EP     C 1942  1.66                             143   -0.2410 76.9 129 
 RUS  HE ES   1   1942 16.29                             143   -0.03 7 76.9 129 
 BRR  HN ES   1   1942 16.94                             139    0.54 7 86.4 353 
 PTB  HZ EP   1   1942  2.22                             136   -0.46 7 95.0 284 
 PTB  HN ES   1   1942 17.18                             136   -0.53 7 95.0 284 
 PTB  HZ I        1942 19.99        19.6 0.10                          95.0 284 
 GIR2 SZ EP   1   1942  3.04                             136    0.16 7 95.4  30 
 PAM  SZ EP   1   1942  9.10                             122    0.42 7  151  42 
 PAM  SE ES   1   1942 27.89                             122   -0.50 7  151  42 
 PAM  SZ I        1942 29.93         6.1 0.42                           151  42 
 NOR  HZ EP   1   1942  9.65                             119    0.41 7  162 238 
 NOR  HN ES   1   1942 29.64                             119    0.24 7  162 238 
 NOR  HZ I        1942 32.25        12.3 0.16                           162 238 
 ZAR  HZ EP   1   1942 12.31                             115    0.37 7  187 313 
 ZAR  HE ES   1   1942 34.28                             115    0.08 7  187 313 
 ZAR  HZ I        1942 39.58        13.8 0.44                           187 313 
 CHI  HZ EP   1   1942 12.58                             115    0.00 7  188 184 
 CHI  HN ES   1   1942 35.05                             115   -0.28 7  188 184 
 CHI  HZ I        1942 39.86         3.7 0.74                           188 184 
 SML  HZ EP   1   1942 22.53                             106    0.28 6  278 350 
 SML  HN ES   1   1942 51.60                             106   -0.94 6  278 350 
                                                                                
