 2010  120 1409 13.2 L   6.719 -72.910159.0  RSN  5 0.5 2.1LRSN                1
 GAP=318        0.78      16.8    15.0 12.2 -0.1432E+03  0.1203E+03 -0.1006E+03E
 Epicentro: CEPITA - SANTANDER                                                 3
 ACTION:UP  10-08-24 09:45 OP:vdl  STATUS:               ID:20100120140913 L   I
 2010-01-20-1407-52S.COL___095                                                 6
 STAT SP IPHASW D HRMM SECON CODA AMPLIT PERI AZIMU VELO SNR AR TRES W  DIS CAZ7
 RUS  BZ EP   1   14 9 37.77                             149     0.011   93 192 
 RUS  BN ES   1   14 9 56.74                             149    -0.211   93 192 
 RUS  BZ I        14 9 57.86        13.2 0.35                            93 192 
 CHI  HZ EP   2   14 9 51.92                             120     0.3 6  248 202 
 CHI  HN ES   2   1410 22.59                             120     1.0 6  248 202 
 CHI  HZ I        1410 30.85         6.2 0.71                           248 202 
 RREF BZ IP       1410  2.10                             112     0.510  337 233 
 RREF BE ES   1   1410 39.39                             112     0.0 7  337 233 
 RREF BZ I        1410 44.80         6.6 0.25                           337 233 
 TOL  SZ EP   2   1410  3.12                             111    -0.3 5  356 229 
 PRA  HZ IP       1410  7.40                             108    -0.5 9  398 213 
 PRA  HE ES   1   1410 49.77                             108    -0.8 7  398 213 
 PRA  HZ I        1410 55.65         6.9 0.33                           398 213 
                                                                                
