 2010  120 1207 25.1 L   6.785 -73.003149.7  RSN  9 0.4 2.4LRSN                1
 GAP=197        0.82       3.7     8.3  6.5 -0.5786E+01  0.2310E+02  0.2281E+01E
 Epicentro: CEPITA - SANTANDER                                                 3
 ACTION:UP  10-08-24 09:45 OP:vdl  STATUS:               ID:20100120120725 L   I
 2010-01-20-1205-37S.COL___095                                                 6
 STAT SP IPHASW D HRMM SECON CODA AMPLIT PERI AZIMU VELO SNR AR TRES W  DIS CAZ7
 BAR2 SZ IP       12 7 45.12                             168    -0.210   29 223 
 BAR2 SZ ES   1   12 8  0.87                             168    -0.3 7   29 223 
 GIR2 SZ IP       12 7 46.22                             165     0.810   39 327 
 GIR2 SZ ES   2   12 8  1.01                             165    -0.3 5   39 327 
 RUS  BZ EP   1   12 7 49.09                             145    -0.1 7   99 185 
 RUS  BE ES   1   12 8  7.95                             145     0.1 7   99 185 
 RUS  BZ I        12 8  9.00        24.7 0.28                            99 185 
 OCA  SZ EP   1   12 7 53.96                             130    -0.2 7  165 348 
 OCA  SZ ES   1   12 8 16.56                             130    -0.2 7  165 348 
 OCA  SZ I        12 8 21.36        62.8 0.30                           165 348 
 CHI  HZ IP       12 8  3.12                             118    -0.2 8  252 199 
 CHI  HZ I        12 8  5.82         7.2 0.38                           252 199 
 CHI  HN ES   1   12 8 33.18                             118     0.0 6  252 199 
 HEL  HZ EP   2   12 8  6.70                             114    -0.5 4  287 257 
 HEL  HE ES   2   12 8 39.95                             114    -0.1 4  287 257 
 HEL  HZ I        12 8 43.49         9.6 0.32                           287 257 
 RREF BZ IP       12 8 13.13                             111     0.4 7  333 231 
 RREF BE ES   1   12 8 50.47                             111     0.7 5  333 231 
 RREF BZ I        12 8 56.33        13.5 0.55                           333 231 
 DBB  SZ EP   1   12 8 14.04                             109    -0.5 5  355 274 
 PRA  HZ IP       12 8 19.19                             107    -0.4 6  399 212 
 PRA  HE ES   2   12 9  1.52                             107    -0.5 3  399 212 
 PRA  HZ I        12 9  6.84         7.2 0.60                           399 212 
                                                                                
