 2011  620 1311 53.7 L   6.787 -73.064140.0  RSN  6 0.5 1.7LRSN                1
 GAP=165        0.98       6.5    11.9 10.5 -0.1925E-01 -0.2410E+02  0.1842E+02E
 Epicentro: LOS SANTOS - SANTANDER                                             3
 ACTION:UP  11-07-14 19:06 OP:ep   STATUS:               ID:20110620131153 L   I
 2011-06-20-1310-07S.COL___140                                                 6
 STAT SP IPHASW D HRMM SECON CODA AMPLIT PERI AZIMU VELO SNR AR TRES W  DIS CAZ7
 BAR2 SZ EP       1312 12.57                             169    -0.110   25 211 
 BAR2 SZ ES   2   1312 26.14                             169    -1.3 5   25 211 
 BAR2 SZ I        1312 28.55        14.5 0.20                            25 211 
 BTL  SZ EP       1312 12.91                             169     0.210   27 303 
 BTL  SZ ES   1   1312 28.26                             169     0.7 7   27 303 
 BRR  HZ EP       1312 14.42                             149    -0.310   80 296 
 BRR  HN ES   1   1312 31.35                             149     0.2 7   80 296 
 BRR  HZ I        1312 33.67        13.3 0.17                            80 296 
 RUS  HZ EP       1312 16.89                             143     0.110   99 181 
 RUS  HN ES   2   1312 34.95                             143     0.2 5   99 181 
 RUS  HZ I        1312 37.02         5.0 0.24                            99 181 
 BRI  SZ ES   3   1312 35.54                             141     0.5 2  107  16 
 GRA  SZ ES   1   1312 37.47                             136    -0.1 7  125  13 
 GRA  SZ I        1312 38.68         6.8 0.41                           125  13 
                                                                                
