 2016  120 1056 52.8 L   6.561 -73.496104.0  RSN 11 0.6 1.5LRSN                1
 GAP= 64        1.30       3.5     4.9  9.0 -0.3509E+01  0.1807E+02 -0.3169E+01E
 Epicentro: EL CARMEN - SANTANDER                                              3
 ACTION:UPD 16-03-09 23:27 OP:cam  STATUS:               ID:20160120105652 L   I
 OLDACT:UP  16-02-23 20:54 OP:AR   STATUS:               ID:20160120105652 L   3
 OLDACT:UP  16-01-20 21:34 OP:ar   STATUS:               ID:20160120104746d    3
 OLDACT:DUP 16-01-20 21:24 OP:ar   STATUS:               ID:20160120104746d    3
 OLDACT:REG 16-01-20 20:31 OP:ar   STATUS:               ID:20160120104745     3
 2016-01-20-1047-45M.COL___323                                                 6
 STAT SP IPHASW D HRMM SECON CODA AMPLIT PERI AZIMU VELO AIN AR TRES W  DIS CAZ7
 BAR2 EZ EP       1057  8.16                             161    0.3310 34.9  84 
 BAR2 EZ ES       1057 20.36                             161    0.8010 34.9  84 
 BAR2 EZ I        1057 22.31        30.9 0.47            160           34.9  84 
 RUS  HZ EP       1057 11.35                             138   -0.1910 86.9 148 
 RUS  HN ES       1057 26.32                             138    0.1510 86.9 148 
 RUS  HZ I        1057 28.10         3.3 0.36            136           86.9 148 
 PTB  HZ EP   2   1057 11.74                             131   -0.85 5  106 269 
 PTB  HE ES   2   1057 26.79                             131   -1.24 5  106 269 
 PTB  HZ I        1057 27.24         8.3 0.16            130            106 269 
 SPBC HZ EP       1057 13.12                             128   -0.7910  119 212 
 SPBC HN ES       1057 29.94                             128   -0.4410  119 212 
 SPBC HZ I        1057 33.40         6.3 0.24            126            119 212 
 PAM  EZ EP       1057 14.73                             127   -0.1110  123  46 
 PAM  EE ES       1057 31.24                             127   -0.8010  123  46 
 PAM  EZ I        1057 33.61         3.7 0.40            126            123  46 
 ZAR  HZ EP   4   1057 22.68                             115    2.21 0  182 304 
 ZAR  HE ES       1057 42.58                             115    0.52 9  182 304 
 ZAR  HZ I        1057 44.66         7.2 0.44            114            182 304 
 NOR  HZ EP   9   1057 19.17                             114   -1.97 0  188 234 
 NOR  HN ES       1057 41.84                             114    0.56 9  188 234 
 NOR  HZ I        1057 45.03         3.9 0.14            113            188 234 
 CHI  HZ EP   4   1057 22.91                             111   -1.78 0  215 187 
 CHI  HN ES       1057 49.94                             111    0.36 8  215 187 
 CHI  HZ I        1057 57.13         0.9 0.38            110            215 187 
 GUY2CHZ EP       1057 29.83                             107    0.53 8  254 235 
 GUY2CHE ES   4   1057 59.67                             107    1.89 0  254 235 
 GUY2CHZ I        1058  2.82         2.1 0.26                           254 235 
 SML  HZ EP   4   1057 26.62                             107   -2.25 0  256 346 
 SML  HN ES       1057 57.59                             107    0.58 8  256 346 
 SML  HZ I        1058  2.75         3.6 0.10            106            256 346 
 PRA  HN ES       1058 17.43                             100    0.24 6  351 206 
 PRA  HZ I        1058 20.23         1.4 0.52             99            351 206 
                                                                                
