 2017  120 1824 44.2 L   6.817 -73.287 18.3  RSN  5 0.4 1.0LRSN                1
 GAP=107        1.09       2.6     3.3  5.4  0.2247E+01  0.9845E+01  0.8415E+00E
 Epicentro: ZAPATOCA - SANTANDER                                               3
 ACTION:UPD 17-05-22 16:01 OP:jn   STATUS:               ID:20170120182444 L   I
 OLDACT:REG 17-01-20 21:21 OP:cog  STATUS:               ID:20170120181744     3
 2017-01-20-1818-00M.COL___346                                                 6
 STAT SP IPHASW D HRMM SECON CODA AMPLIT PERI AZIMU VELO AIN AR TRES W  DIS CAZ7
 BAR2 EZ EP       1824 49.99                             122    0.1210 27.4 155 
 BAR2 EZ ES       1824 54.11                             122   -0.1510 27.4 155 
 BAR2 EZ I        1824 55.00        26.1 0.14             47           27.4 155 
 BRR  HZ EP       1824 53.86                             105    0.1310 56.8 304 
 BRR  HN ES       1825  1.05                             105   -0.0910 56.8 304 
 BRR  HZ I        1825  1.65         5.9 0.17             47           56.8 304 
 PAM  EN ES       1825  9.88                             100   -0.1110 87.0  48 
 RUS  HZ EP       1825  0.98                              98   -0.3810  105 168 
 RUS  HN ES       1825 14.92                              98    0.2110  105 168 
 RUS  HZ I        1825 15.98         2.4 0.24             47            105 168 
 PTB  HZ EP       1825  5.86                              56    0.9610  133 257 
 PTB  HE ES       1825 20.34                              56   -0.6710  133 257 
 PTB  HZ I        1825 24.48         1.9 0.36             47            133 257 
                                                                                
