 2014 1120 1429 11.4 L   6.780 -73.149136.2  RSN  9 0.5 2.3LRSN                1
 GAP=119        1.79       6.7     7.2 12.0 -0.7798E+01  0.2478E+02  0.1644E+02E
 Epicentro: LOS SANTOS - SANTANDER                                             3
 ACTION:UPD 14-12-19 15:45 OP:nd   STATUS:               ID:20141120142911 L   I
 OLDACT:ARG 14-11-20 21:12 OP:stll STATUS:               ID:20141120142748     3
 2014-11-20-1427-48M.COL___307                                                 6
 STAT SP IPHASW D HRMM SECON CODA AMPLIT PERI AZIMU VELO AIN AR TRES W  DIS CAZ7
 BRR  HZ IP     C 1429 31.91                             150    0.3710 72.0 300 
 BRR  HZ I        1429 32.05        31.7 0.18            150           72.0 300 
 BRR  HN ES       1429 47.95                             150    0.6710 72.0 300 
 PAM  SZ EP     C 1429 32.83                             149    0.1310 79.3  39 
 PAM  SZ I        1429 33.20        41.0 0.22            153           79.3  39 
 PAM  SN ES       1429 49.44                             149    0.1110 79.3  39 
 RUS  HZ IP     C 1429 34.18                             142    0.1410 98.4 176 
 RUS  HZ I        1429 35.31        19.2 0.10            144           98.4 176 
 RUS  HN ES       1429 51.23                             142   -0.4810 98.4 176 
 PTB  HZ EP       1429 36.75                             130   -0.76 9  147 260 
 PTB  HN ES       1429 57.71                             130   -0.19 9  147 260 
 PTB  HZ I        1430  2.69        28.7 0.16            130            147 260 
 SPBC HZ EP       1429 39.21                             127    0.24 9  161 219 
 SPBC HN ES       1430  0.76                             127    0.26 9  161 219 
 SPBC HZ I        1430  7.35        29.4 0.14            128            161 219 
 ZAR  HZ EP       1429 42.96                             120   -0.31 9  205 293 
 ZAR  HE ES       1430  7.27                             120   -0.88 9  205 293 
 ZAR  HZ I        1430 13.89        25.5 0.64            121            205 293 
 NOR  HZ EP       1429 46.39                             116   -0.01 8  233 235 
 NOR  HN ES       1430 14.37                             116    0.65 8  233 235 
 NOR  HZ I        1430 16.24        21.0 0.24            117            233 235 
 SOCV BZ EP   9   1429 54.29                             110    0.12 0  303  57 
 SOCV BN ES       1430 24.73                                   -2.94 7  303  57 
 TOL  SZ EP       1429 59.86                             108    0.80 7  342 225 
 TOL  SE ES       1430 35.25                             108   -1.00 7  342 225 
                                                                                
