 2013  820 1456 56.4 L   6.826 -73.132145.7  RSN 17 0.6 2.3LRSN                1
 GAP= 71        1.33       3.2     3.5  6.1 -0.1699E+01  0.5808E+01  0.3023E+01E
 Epicentro: LOS SANTOS - SANTANDER                                             3
 ACTION:UPD 14-01-14 09:05 OP:ep   STATUS:               ID:20130820145656 L   I
 OLDACT:REG 13-08-20 16:01 OP:stll STATUS:               ID:20130820144851     3
 2013-08-20-1448-51M.COL___195                                                 6
 STAT SP IPHASW D HRMM SECON CODA AMPLIT PERI AZIMU VELO AIN AR TRES W  DIS CAZ7
 BAR2 SZ IP     D 1457 16.26                             169    0.2110 26.5 192 
 BAR2 SZ I        1457 16.41        45.8 0.40            169           26.5 192 
 BAR2 SZ ES       1457 31.52                             169    0.1010 26.5 192 
 BRR  HZ IP     C 1457 18.07                             153    0.5610 71.2 296 
 BRR  HZ I        1457 18.36        40.7 0.26            150           71.2 296 
 BRR  HN ES       1457 35.15                             153    1.1510 71.2 296 
 PAM  SZ EP       1457 18.76                             152    0.3810 74.2  40 
 PAM  SZ I        1457 19.28        64.5 0.22            154           74.2  40 
 PAM  SN ES       1457 35.64                             152    0.0810 74.2  40 
 RUS  HZ EP       1457 20.22                             143   -0.0910  103 177 
 RUS  HN ES       1457 38.47                             143   -0.5310  103 177 
 RUS  HZ I        1457 39.64        20.1 0.40            144            103 177 
 CAPV BZ EP       1457 23.98                             132    0.52 9  146  38 
 CAPV BZ ES       1457 44.06                             132   -0.54 9  146  38 
 PTB  HZ EP       1457 22.84                             132   -0.67 9  150 258 
 PTB  HN ES       1457 43.90                             132   -0.79 9  150 258 
 PTB  HZ I        1457 50.39        15.9 0.42            130            150 258 
 TAM  HZ IP     C 1457 24.44                             131    0.47 9  154 106 
 TAM  HN ES       1457 45.18                             131   -0.33 9  154 106 
 OCA  HN ES       1457 46.22                             130   -0.08 9  158 352 
 OCA  HZ I        1457 51.87        30.9 0.24            130            158 352 
 ZAR  HZ EP       1457 29.25                             122    0.42 9  204 291 
 ZAR  HN ES       1457 54.17                             122    0.01 9  204 291 
 ZAR  HZ I        1458  0.25        28.5 0.36            122            204 291 
 NOR  HZ EP       1457 32.25                             118   -0.15 8  238 234 
 NOR  HN ES       1458  0.14                             118   -0.37 8  238 234 
 NOR  HZ I        1458  4.82        17.3 0.16            118            238 234 
 SML  HZ EP       1457 32.18                             118   -0.59 8  242 335 
 SML  HN ES       1457 59.84                             118   -1.32 8  242 335 
 SML  HZ I        1458  5.73        35.3 0.24            117            242 335 
 CHI  HZ EP       1457 34.57                             117    0.16 8  252 195 
 CHI  HZ I        1457 36.98         7.4 0.46            117            252 195 
 CHI  HN ES       1458  3.45                             117   -0.63 8  252 195 
 HEL  HZ EP       1457 37.70                             115    0.89 8  274 255 
 HEL  HN ES       1458  9.05                             115    0.69 8  274 255 
 HEL  HZ I        1458 15.62         7.4 0.38            114            274 255 
 URE  HZ EP       1457 36.60                             114   -0.86 7  284 291 
 GUY2CHZ EP       1457 41.40                             112    1.10 7  304 234 
 GUY2CHN ES       1458 14.81                             112    0.25 7  304 234 
 GUY2CHZ I        1458 23.80         9.2 0.62                           304 234 
 PRA  HZ EP       1457 50.07                             106   -0.19 6  395 210 
 PRA  HZ I        1457 52.06         7.0 0.22            107            395 210 
 PRA  HN ES       1458 32.12                             106   -0.19 6  395 210 
 ORTC HZ EP       1457 50.63                             106   -0.03 6  399 216 
 ORTC HN ES       1458 32.81                             106   -0.20 6  399 216 
 ORTC HZ I        1458 41.04         5.8 0.26            106            399 216 
                                                                                
