 2013  120 1706  0.8 L   6.789 -73.170138.7  RSN 11 0.5 2.4LRSN                1
 GAP=134        0.99       3.5     4.3  6.3 -0.2516E+01  0.9069E+01  0.3409E+01E
 Epicentro: LOS SANTOS - SANTANDER                                             3
 ACTION:UPD 13-02-15 09:15 OP:ep   STATUS:               ID:20130120170600 L   I
 2013-01-20-1700-00M.COL___241                                                 6
 STAT SP IPHASW D HRMM SECON CODA AMPLIT PERI AZIMU VELO AIN AR TRES W  DIS CAZ7
 BAR2 SZ IP       17 6 19.71                             171    0.1310 21.8 184 
 BAR2 SZ ES   1   17 6 33.88                             171   -0.32 7 21.8 184 
 BAR2 SZ I        17 6 35.55        74.3 0.14            169           21.8 184 
 BRR  HZ IP     C 17 6 21.60                             152    0.4810 69.5 300 
 BRR  HN ES   1   17 6 38.09                             152    1.15 7 69.5 300 
 BRR  HZ I        17 6 42.89        60.6 0.12            150           69.5 300 
 PAM  SZ EP       17 6 22.57                             149    0.1110 80.0  40 
 PAM  SN ES       17 6 39.40                             149    0.0610 80.0  40 
 PAM  SZ I        17 6 41.65        86.6 0.44            154           80.0  40 
 RUS  HZ EP       17 6 23.64                             143   -0.1710 99.6 174 
 RUS  HN ES   1   17 6 41.61                             143   -0.13 7 99.6 174 
 RUS  HZ I        17 6 43.41        41.5 0.26            146           99.6 174 
 PTB  HZ EP       17 6 26.52                             131   -0.44 9  145 259 
 PTB  HN ES   1   17 6 46.79                             131   -0.56 7  145 259 
 PTB  HZ I        17 6 49.70        21.5 0.24            131            145 259 
 OCA  HZ EP       17 6 28.16                             128   -0.53 9  161 354 
 OCA  HE ES   1   17 6 49.74                             128   -0.68 7  161 354 
 OCA  HZ I        17 6 53.22        35.8 0.50            131            161 354 
 ZAR  HZ EP       17 6 32.85                             121    0.24 9  202 293 
 ZAR  HN ES   1   17 6 56.75                             121   -0.65 6  202 293 
 ZAR  HZ I        17 7  4.25        24.3 0.24            122            202 293 
 NOR  HZ EP     C 17 6 36.33                             117    0.49 8  232 234 
 NOR  HN ES   1   17 7  2.90                             117   -0.25 6  232 234 
 NOR  HZ I        17 7  7.27        16.2 0.24            119            232 234 
 CHI  HZ EP     C 17 6 38.00                             116    0.06 8  247 195 
 CHI  HN ES   1   17 7  6.70                             116   -0.18 6  247 195 
 CHI  HZ I        17 7 11.51         6.6 0.48            118            247 195 
 HEL  HZ EP   1   17 6 41.43                             114    1.06 6  269 256 
 HEL  HE ES   1   17 7 11.52                             114    0.31 6  269 256 
 HEL  HZ I        17 7 16.63         9.3 0.28            115            269 256 
 ANIL HZ EP   1   17 6 50.19                             107    0.14 5  355 224 
 ANIL HN ES   1   17 7 27.64                             107   -0.80 5  355 224 
 ANIL HZ I        17 7 35.56         7.2 0.30            109            355 224 
                                                                                
