 2017  220 1904 38.0 L   6.774 -73.146139.6  RSN 11 0.4 2.0LRSN                1
 GAP= 98        1.13       5.2     4.5  7.0 -0.5817E+01  0.2850E+00  0.1408E+02E
 Epicentro: LOS SANTOS - SANTANDER                                             3
 ACTION:UPD 17-05-24 15:38 OP:jn   STATUS:               ID:20170220190438 L   I
 OLDACT:REG 17-02-20 22:15 OP:cog  STATUS:               ID:20170220185747     3
 2017-02-20-1858-00M.COL___373                                                 6
 STAT SP IPHASW D HRMM SECON CODA AMPLIT PERI AZIMU VELO AIN AR TRES W  DIS CAZ7
 BAR2 EZ EP       19 4 56.82                             171   -0.0210 20.5 191 
 BAR2 EZ ES       19 5 11.12                             171   -0.4210 20.5 191 
 BAR2 EZ I        19 5 13.84        25.6 0.30            167           20.5 191 
 BRR  HZ IP     C 19 4 58.72                             151    0.1410 72.6 301 
 BRR  HN ES       19 5 15.59                             151    0.9710 72.6 301 
 BRR  HZ I        19 5 19.71        21.5 0.12            153           72.6 301 
 PAM  EZ EP       19 4 59.71                             149   -0.0110 79.7  38 
 PAM  EN ES       19 5 16.55                             149   -0.1010 79.7  38 
 PAM  EZ I        19 5 19.51        15.7 0.46            152           79.7  38 
 RUS  HZ EP       19 5  0.83                             143   -0.1210 97.7 176 
 RUS  HZ I        19 5 20.05         8.0 0.20            140           97.7 176 
 PTB  HZ EP       19 5  3.46                             131   -0.97 9  147 260 
 PTB  HN ES       19 5 24.46                             131   -0.57 9  147 260 
 PTB  HZ I        19 5 27.27        16.7 0.19            131            147 260 
 TAM  HZ EP       19 5  5.17                             129    0.02 9  154 104 
 TAM  HN ES   4   19 5 30.84                             129    4.53 0  154 104 
 ZAR  HZ EP       19 5 10.17                             121    0.00 9  205 293 
 ZAR  HN ES   4   19 5 36.14                             121    0.89 0  205 293 
 ZAR  HZ I        19 5 41.78        12.3 0.14            122            205 293 
 NOR  HZ EP       19 5 13.68                             117    0.48 8  233 235 
 NOR  HN ES       19 5 40.76                             117    0.11 8  233 235 
 NOR  HZ I        19 5 43.53         9.3 0.30            117            233 235 
 CHI  HZ EP       19 5 15.49                             116    0.43 8  246 195 
 CHI  HN ES       19 5 44.31                             116    0.34 8  246 195 
 CHI  HZ I        19 5 48.81         2.5 0.24            115            246 195 
 ROSC BZ EP   4   19 5 19.70                             116    4.18 0  250 211 
 ROSC BN ES   4   19 5 42.55                             116   -2.23 0  250 211 
 ROSC BZ I        19 5 53.81        11.9 0.35            115            250 211 
 SJC  HZ EP   4   19 5 31.98                             105   -1.68 0  412 327 
 SJC  HN ES   4   19 6 14.69                             105   -2.37 0  412 327 
 SJC  HZ I        19 6 16.38         1.8 0.31            105            412 327 
                                                                                
