 2011 1020 1559 32.1 L   6.800 -73.123148.3  RSN  9 0.4 2.0LRSN                1
 GAP=139        0.70       3.9     4.4  5.7 -0.1148E+01  0.7332E+01 -0.6710E+00E
 Epicentro: LOS SANTOS - SANTANDER                                             3
 ACTION:UPD 12-07-13 16:05 OP:ep   STATUS:               ID:20111020155932 L   I
 2011-10-20-1558-01S.COL___170                                                 6
 STAT SP IPHASW D HRMM SECON CODA AMPLIT PERI AZIMU VELO AIN AR TRES W  DIS CAZ7
 BAR2 SZ IP       1559 52.08                             170    0.0710 23.9 196 
 BAR2 SZ ES   1   16 0  7.19                             170   -0.37 7 23.9 196 
 BAR2 SZ I        16 0  8.77        24.2 0.36                          23.9 196 
 GIR2 SZ EP   2   1559 51.84                             167   -0.21 5 31.8 346 
 BRR  HZ EP   1   1559 53.85                             152    0.24 7 73.4 298 
 BRR  HN ES   1   16 0 11.05                             152    0.64 7 73.4 298 
 BRR  HZ I        16 0 15.05        27.2 0.11                          73.4 298 
 PAM  SZ EP   1   1559 54.92                             152    0.46 7 75.8  38 
 PAM  SN ES   1   16 0 11.72                             152   -0.20 7 75.8  38 
 RUS  HZ EP   1   1559 55.86                             144   -0.20 7  100 177 
 RUS  HN ES   1   16 0 14.73                             144   -0.04 7  100 177 
 RUS  HZ I        16 0 17.48         7.3 0.31                           100 177 
 OCA  SZ EP   1   16 0  0.55                             130   -0.05 7  161 352 
 OCA  SZ I        16 0 30.16        14.3 0.28                           161 352 
 ZAR  HZ EP   1   16 0  4.54                             123   -0.37 6  206 292 
 ZAR  HE ES   1   16 0 30.05                             123   -0.48 6  206 292 
 ZAR  HZ I        16 0 36.13        10.9 0.10                           206 292 
 NOR  SZ EP   1   16 0  7.60                             119   -0.56 6  237 235 
 NOR  SN ES   1   16 0 36.78                             119    0.47 6  237 235 
 PRA  HZ EP   2   16 0 26.72                             107    0.90 3  393 210 
                                                                                
