 2016  420 1219 20.1 L   6.781 -73.167139.8  RSN  7 0.3 1.8LRSN                1
 GAP=135        0.74       3.9     3.6  5.2 -0.5350E+01  0.8480E+01 -0.5272E+00E
 Epicentro: LOS SANTOS - SANTANDER                                             3
 ACTION:UPD 16-05-05 14:22 OP:rebc STATUS:               ID:20160420121920 L   I
 OLDACT:ARG 16-04-20 21:02 OP:ar   STATUS:               ID:20160420121744     3
 2016-04-20-1217-44M.COL___306                                                 6
 STAT SP IPHASW D HRMM SECON CODA AMPLIT PERI AZIMU VELO AIN AR TRES W  DIS CAZ7
 BAR2 EZ EP       1219 38.86                             171   -0.1110 20.9 185 
 BAR2 EZ ES       1219 53.63                             171   -0.0510 20.9 185 
 BAR2 EZ I        1219 55.01         9.7 0.22            172           20.9 185 
 PAM  EZ EP       1219 41.95                             149    0.0710 80.5  40 
 PAM  EN ES       1219 59.05                             149    0.1810 80.5  40 
 PAM  EZ I        1220  1.56        12.3 0.54            151           80.5  40 
 RUS  HZ EP       1219 42.81                             143   -0.3210 98.6 175 
 RUS  HN ES       1220  1.26                             143    0.1710 98.6 175 
 RUS  HZ I        1220  2.40         9.5 0.28            148           98.6 175 
 PTB  HZ EP       1219 45.70                             131   -0.64 9  145 259 
 PTB  HE ES       1220  6.61                             131   -0.20 9  145 259 
 PTB  HZ I        1220  8.79        11.2 0.16            131            145 259 
 ZAR  HZ EP   2   1219 52.47                             121    0.44 4  203 293 
 ZAR  HE ES   2   1220 17.51                             121    0.58 4  203 293 
 ZAR  HZ I        1220 24.06         6.7 0.14            121            203 293 
 NOR  HZ EP       1219 55.14                             118   -0.01 8  232 235 
 NOR  HN ES       1220 22.66                             118    0.17 8  232 235 
 NOR  HZ I        1220 27.83         7.1 0.36            119            232 235 
 GUY2CHZ EP       1220  3.82                             111    0.74 7  298 235 
 GUY2CHE ES       1220 36.82                             111    0.21 7  298 235 
 GUY2CHZ I        1220 45.17         5.1 0.62                           298 235 
                                                                                
