 2015  320 1153  7.0 L   6.741 -73.171146.0  RSN  5 0.7 1.5LRSN                1
 GAP=136        1.82       9.7     9.3 13.3 -0.8092E+01  0.1483E+02  0.4154E+01E
 Epicentro: VILLANUEVA - SANTANDER                                             3
 ACTION:UPD 15-04-30 16:27 OP:nd   STATUS:               ID:20150320115307 L   I
 OLDACT:DUP 15-03-20 22:07 OP:syll STATUS:               ID:20150320114750d    3
 2015-03-20-1147-49M.COL___278                                                 6
 STAT SP IPHASW D HRMM SECON CODA AMPLIT PERI AZIMU VELO AIN AR TRES W  DIS CAZ7
 BAR2 EZ EP       1153 26.93                             173    0.3710 16.5 184 
 BAR2 EZ ES       1153 41.93                             173    0.1310 16.5 184 
 BRR  HZ IP     C 1153 28.95                             152    0.7010 72.2 304 
 BRR  HN ES       1153 44.71                             152   -0.1010 72.2 304 
 PAM  SZ IP     D 1153 29.96                             149    0.2910 84.2  38 
 PAM  SN ES       1153 46.83                             149   -0.5110 84.2  38 
 RUS  HZ EP       1153 30.94                             146    0.5910 94.4 174 
 RUS  HN ES       1153 48.10                             146   -0.4510 94.4 174 
 RUS  HZ I        1153 50.66         4.0 0.36            145           94.4 174 
 PTB  HZ EP       1153 31.86                             133   -1.80 9  144 261 
 PTB  HN ES       1153 55.07                             133    0.64 9  144 261 
 PTB  HZ I        1153 57.81         4.8 0.46            132            144 261 
                                                                                
