 2011 1020 1638 59.4 L   6.762 -73.092141.8  RSN  5 0.2 1.6LRSN                1
 GAP=145        0.47       3.0     3.9  4.8 -0.7816E+00 -0.1422E+01  0.2170E+01E
 Epicentro: LOS SANTOS - SANTANDER                                             3
 ACTION:UPD 12-07-13 16:05 OP:ep   STATUS:               ID:20111020163859 L   I
 2011-10-20-1635-25S.COL___170                                                 6
 STAT SP IPHASW D HRMM SECON CODA AMPLIT PERI AZIMU VELO AIN AR TRES W  DIS CAZ7
 BAR2 SZ EP   1   1639 18.60                             171    0.06 7 21.3 208 
 BAR2 SZ ES   1   1639 33.10                             171   -0.35 7 21.3 208 
 BAR2 SZ I        1639 35.20        12.7 0.28                          21.3 208 
 GIR2 SZ EP   2   1639 18.77                             165   -0.02 5 36.8 342 
 PAM  SZ EP   1   1639 21.39                             150    0.18 7 77.2  34 
 PAM  SN ES       1639 38.19                             150   -0.0110 77.2  34 
 BRR  HZ EP   1   1639 20.53                             149   -0.05 7 78.4 299 
 BRR  HZ I        1639 24.42         8.6 0.12                          78.4 299 
 BRR  HN ES       1639 37.16                             149    0.0810 78.4 299 
 RUS  HZ EP   1   1639 22.16                             144   -0.31 7 96.1 179 
 RUS  HN ES   1   1639 40.79                             144    0.35 7 96.1 179 
 RUS  HZ I        1639 42.60         6.1 0.17                          96.1 179 
                                                                                
