 2017  320 1141 21.0 L   6.818 -73.133143.1  RSN 12 0.5 2.3LRSN                1
 GAP=153        1.04       3.8     4.4  6.0 -0.2473E+01  0.7178E+01  0.6559E+01E
 Epicentro: LOS SANTOS - SANTANDER                                             3
 ACTION:UPD 17-05-25 18:42 OP:jn   STATUS:               ID:20170320114121 L   I
 OLDACT:REG 17-03-20 22:04 OP:dnl  STATUS:               ID:20170320113746     3
 2017-03-20-1138-00M.COL___375                                                 6
 STAT SP IPHASW D HRMM SECON CODA AMPLIT PERI AZIMU VELO AIN AR TRES W  DIS CAZ7
 BAR2 EZ IP     C 1141 40.24                             169   -0.1010 25.5 192 
 BAR2 EZ ES       1141 54.77                             169   -0.6710 25.5 192 
 BAR2 EZ I        1141 57.83        41.6 0.28            166           25.5 192 
 BRR  HZ IP     C 1141 42.00                             152    0.1310 71.5 297 
 BRR  HE ES       1141 58.93                             152    0.7810 71.5 297 
 BRR  HZ I        1141 59.53        58.4 0.32            152           71.5 297 
 PAM  EZ IP     C 1141 42.90                             151    0.1210 75.0  40 
 PAM  EN ES       1141 60.00                             151    0.2310 75.0  40 
 PAM  EZ I        1142  1.47        31.0 0.16            156           75.0  40 
 PTB  HZ EP       1141 46.95                             131   -0.95 9  150 258 
 PTB  HE ES       1142  8.45                             131   -0.44 9  150 258 
 PTB  HZ I        1142 10.40        42.9 0.14            131            150 258 
 SPBC HZ EP       1141 49.24                             128   -0.28 9  166 219 
 SPBC HE ES       1142 11.85                             128    0.09 9  166 219 
 SPBC HZ I        1142 14.87        29.9 0.10            128            166 219 
 ZAR  HZ EP       1141 52.97                             122   -0.35 9  205 291 
 ZAR  HE ES       1142 18.47                             122   -0.07 9  205 291 
 ZAR  HZ I        1142 23.71        39.8 0.28            123            205 291 
 CHI  HZ EP       1141 58.74                             116   -0.05 8  251 195 
 CHI  HE ES       1142 29.03                             116    0.76 8  251 195 
 CHI  HZ I        1142 35.58         7.7 0.32            117            251 195 
 ROSC BZ EP   2   1141 58.98                             116   -0.25 4  255 211 
 ROSC BN ES       1142 29.22                             116    0.17 8  255 211 
 ROSC BZ I        1142 35.98        13.8 0.30            116            255 211 
 GUY2CHZ EP       1142  5.45                             112    0.72 7  303 235 
 GUY2CHN ES   4   1142 41.77                             112    2.92 0  303 235 
 GUY2CHZ  IAML    1142 48.70        14.7 0.52                           303 235 
 CBOC HZ EP   2   1142  8.44                             109    0.42 3  336 252 
 CBOC HN ES       1142 45.34                             109    0.64 7  336 252 
 CBOC HZ I        1142 56.25         4.6 0.38            110            336 252 
 DBB  EZ EP       1142  8.75                             109    0.24 7  341 274 
 DBB  EN ES   4   1142 44.16                             109   -1.41 0  341 274 
 DBB  EZ I        1142 46.13         6.1 0.28            110            341 274 
 PRA  HZ EP   2   1142 14.54                             106   -0.16 3  394 210 
 PRA  HN ES       1142 56.23                             106   -0.36 6  394 210 
 PRA  HZ I        1143  1.27         7.4 0.30            107            394 210 
                                                                                
