 2010  820 1812 49.4 L   7.039 -72.929131.8  RSN  6 0.3 1.6LRSN                1
 GAP=179        0.91       5.8    12.4 10.0  0.9976E+01 -0.7622E+02 -0.1268E+02E
 Epicentro: SANTA BARBARA - SANTANDER                                          3
 ACTION:UP  10-09-07 10:56 OP:vdl  STATUS:               ID:20100820181249 L   I
 2010-08-20-1810-03S.COL___120                                                 6
 STAT SP IPHASW D HRMM SECON CODA AMPLIT PERI AZIMU VELO SNR AR TRES W  DIS CAZ7
 GIR2 SZ EP   1   1813  8.35                             166     0.9 7   30 279 
 BTL  SZ IP       1813  7.54                             162    -0.310   40 250 
 BTL  SZ ES       1813 22.07                             162    -0.210   40 250 
 BAR2 SZ EP       1813  8.89                             155     0.210   57 210 
 BAR2 SZ ES   1   1813 23.68                             155     0.1 7   57 210 
 BAR2 SZ I        1813 25.07        18.1 0.19                            57 210 
 BRR  HZ EP   1   1813  9.85                             144    -0.3 7   87 275 
 BRR  HZ I        1813 11.79        16.9 0.10                            87 275 
 BRR  HE ES   1   1813 26.49                             144     0.2 7   87 275 
 GRA  SZ EP       1813 10.81                             142    -0.110   95   8 
 GRA  SZ I        1813 34.52         4.9 0.33                            95   8 
 RUS  HZ EP       1813 14.04                             133    -0.110  128 188 
 RUS  HZ I        1813 14.83         2.4 0.23                           128 188 
 RUS  HE ES   1   1813 33.34                             133     0.0 7  128 188 
                                                                                
