 2011  720 1753 38.7 L   6.766 -73.127144.2  RSN  5 0.3 1.9LRSN                1
 GAP=158        0.57       3.4     4.8  5.4 -0.5189E+01  0.4246E+01  0.9668E+00E
 Epicentro: LOS SANTOS - SANTANDER                                             3
 ACTION:UPD 12-07-25 14:02 OP:epov STATUS:               ID:20110720175338 L   I
 2011-07-20-1751-58S.COL___142                                                 6
 STAT SP IPHASW D HRMM SECON CODA AMPLIT PERI AZIMU VELO AIN AR TRES W  DIS CAZ7
 BAR2 SZ EP   1   1753 57.83                             172   -0.28 7 20.1 198 
 BAR2 SZ ES   1   1754 12.81                             172   -0.41 7 20.1 198 
 BAR2 SZ I        1754 14.14        25.5 0.23                          20.1 198 
 BRR  HZ EP   1   1753 59.65                             151   -0.27 7 74.8 300 
 BRR  HZ I        1754  0.11        25.5 0.09                          74.8 300 
 BRR  HE ES   1   1754 16.57                             151    0.13 7 74.8 300 
 RUS  HZ EP   1   1754  1.84                             145   -0.20 7 96.7 177 
 RUS  HZ I        1754  2.72         9.4 0.10                          96.7 177 
 RUS  HN ES   1   1754 20.67                             145    0.44 7 96.7 177 
 BRI  SZ EP   1   1754  2.97                             140    0.28 7  111  19 
 BRI  SZ ES   1   1754 21.55                             140    0.17 7  111  19 
 BRI  SZ I        1754 25.50        11.5 0.32                           111  19 
 NOR  SZ EP   1   1754 14.31                             118    0.00 6  234 236 
 NOR  SN ES   1   1754 42.29                             118    0.23 6  234 236 
                                                                                
