 2012 1120 1914 14.4 L   6.790 -73.170149.6  RSN  6 0.4 1.4LRSN                1
 GAP=134        0.72       4.2     5.3  6.8 -0.1633E+01  0.9997E+01 -0.2417E+01E
 Epicentro: LOS SANTOS - SANTANDER                                             3
 ACTION:UPD 12-12-05 15:34 OP:}ep  STATUS:               ID:20121120191414 L   I
 2012-11-20-1910-00M.COL___233                                                 6
 STAT SP IPHASW D HRMM SECON CODA AMPLIT PERI AZIMU VELO AIN AR TRES W  DIS CAZ7
 BAR2 SZ EP   1   1914 34.57                             171    0.12 7 21.9 184 
 BAR2 SZ ES   1   1914 49.76                             171   -0.34 7 21.9 184 
 BAR2 SZ I        1914 51.22        14.7 0.48                          21.9 184 
 GIR2 SZ EP   1   1914 34.86                             167    0.32 7 32.0 355 
 GIR2 SZ ES   1   1914 51.04                             167    0.79 7 32.0 355 
 PAM  SZ EP   1   1914 37.27                             151    0.10 7 80.0  41 
 PAM  SN ES   1   1914 54.55                             151   -0.38 7 80.0  41 
 PAM  SZ I        1914 56.16         1.8 0.20                          80.0  41 
 RUS  HZ EP   1   1914 38.42                             145   -0.04 7 99.7 174 
 RUS  HN ES   1   1914 56.95                             145   -0.28 7 99.7 174 
 RUS  HZ I        1914 58.37         3.4 0.26                          99.7 174 
 PTB  HZ EP   1   1914 41.58                             133    0.16 7  145 259 
 PTB  HE ES   1   1915  2.43                             133   -0.07 7  145 259 
 PTB  HZ I        1915  3.93         4.4 0.31                           145 259 
 SML  HE ES   1   1915 19.37                             118   -0.58 6  244 336 
                                                                                
