 2017 1020 1901 30.0 L   6.786 -73.122143.9  RSN  7 0.4 1.5LRSN                1
 GAP=140        1.14       5.6     5.2  8.1 -0.3841E+01  0.1678E+02 -0.4643E+01E
 Epicentro: LOS SANTOS - SANTANDER                                             3
 ACTION:UPD 17-11-07 19:34 OP:rebc STATUS:               ID:20171020190130 L   I
 OLDACT:UP  17-10-21 01:33 OP:edw  STATUS:               ID:20171020185740d    3
 OLDACT:DUP 17-10-21 01:30 OP:edw  STATUS:               ID:20171020185740d    3
 OLDACT:UP  17-10-21 01:29 OP:edw  STATUS:               ID:20171020185739     3
 OLDACT:UP  17-10-21 01:29 OP:edw  STATUS:               ID:20171020185739     3
 OLDACT:UP  17-10-21 01:28 OP:edw  STATUS:               ID:20171020185739     3
 OLDACT:UP  17-10-21 01:27 OP:edw  STATUS:               ID:20171020185739     3
 OLDACT:REG 17-10-20 20:35 OP:edw  STATUS:               ID:20171020185739     3
 2017-10-20-1858-00M.COL___459                                                 6
 STAT SP IPHASW D HRMM SECON CODA AMPLIT PERI AZIMU VELO AIN AR TRES W  DIS CAZ7
 BAR2 EZ EP       19 1 49.32                             171   -0.0310 22.4 197 
 BAR2 EZ ES       19 2  3.40                             171   -1.0710 22.4 197 
 BAR2 EZ I        19 2  5.00        11.2 0.34            172           22.4 197 
 BRR  HZ EP       19 1 51.28                             151    0.2010 74.2 299 
 BRR  HN ES       19 2  8.14                             151    0.5810 74.2 299 
 PAM  HZ EP       19 1 52.17                             150    0.2110 77.0  37 
 PAM  HN ES       19 2  9.25                             150    0.1410 77.0  37 
 PAM  HZ I        19 2 11.38         5.7 0.58            150           77.0  37 
 RUS  HN ES       19 2 12.15                             144    0.4610 98.9 177 
 PTB  HZ EP       19 1 56.47                             131   -0.51 9  150 260 
 PTB  HE ES       19 2 18.15                             131    0.09 9  150 260 
 PTB  HZ I        19 2 19.00         2.5 0.36            132            150 260 
 ZAR  HZ EP       19 2  2.30                             121   -0.30 8  207 292 
 ZAR  HN ES       19 2 27.93                             121   -0.12 8  207 292 
 GUY2CHN ES       19 2 48.01                             112    0.33 7  302 235 
                                                                                
