 2011  920 1632 40.4 L   6.789 -73.131152.0  RSN 25 0.5 4.3LRSN 4.5WRSN        1
 SPEC AVERAGE  MO 15.8 ST  5.0 OM  4.4 f0 1.46 R2.3773 AL 1.15 WI 19.9 MW  4.5 3
 SPEC SD       MO  0.1 ST  4.8 OM  1.2 f00.706 R1.0006 AL      WI      MW  0.1 3
 GAP=116        0.97       3.0     4.7  5.6 -0.9246E+00  0.8458E+01  0.4132E+01E
 Epicentro: LOS SANTOS - SANTANDER                                             3
 SPEC HEL HH Z MO 15.6 ST 12.6 OM  2.9 f0 2.59 R1.0857 AL 1.14 WI 23.7 MW  4.3 3
 SPEC HEL HH Z T163319 K 0.020 GD  312 VP 7.60 DE 3.20 Q0230.0 QA 0.60 VS 4.20 3
 SPEC ROSCBH Z MO 15.9 ST  5.9 OM  3.3 f0 1.51 R1.8623 AL 1.72 WI 24.1 MW  4.6 3
 SPEC ROSCBH Z T163317 K 0.020 GD  295 VP 7.60 DE 3.20 Q0230.0 QA 0.60 VS 4.20 3
 SPEC CHI HH Z MO 15.7 ST  1.1 OM  3.1 f0 1.00 R2.8120 AL 0.84 WI 20.5 MW  4.4 3
 SPEC CHI HH Z T163317 K 0.020 GD  290 VP 7.60 DE 3.20 Q0230.0 QA 0.60 VS 4.20 3
 SPEC RUS HH Z MO 15.8 ST0.560 OM  3.4 f00.750 R3.7493 AL 0.90 WI 11.1 MW  4.5 3
 SPEC RUS HH Z T1633 4 K 0.020 GD  181 VP 7.60 DE 3.20 Q0230.0 QA 0.60 VS 4.20 3
 Evento Sentido                                                                2
 Reportado como Sentido en:                                                    3
 BARRANCABERMEJA, BUCARAMANGA (SANTANDER)                                      3
 ACTION:UPD 12-07-13 15:58 OP:ep   STATUS:               ID:20110920163240 L   I
 2011-09-20-1630-41S.COL___165                                                 6
 STAT SP IPHASW D HRMM SECON CODA AMPLIT PERI AZIMU VELO AIN AR TRES W  DIS CAZ7
 BTL  SZ EP       1633  0.87                             172    0.1210 20.7 313 
 BAR2 SZ IP       1633  0.73                             171   -0.0510 22.5 194 
 BAR2 SZ ES   1   1633 16.06                             171   -0.60 7 22.5 194 
 BAR2 SZ I        1633 18.25      2675.6 0.44                          22.5 194 
 BRR  HZ IP     D 1633  2.60                             153    0.2610 73.1 299 
 BRR  HZ I        1633  2.94      5043.0 0.14                          73.1 299 
 BRR  HE ES   1   1633 20.02                             153    0.57 7 73.1 299 
 PAM  SZ IP       1633  3.53                             152    0.2410 77.3  38 
 PAM  SN ES   1   1633 20.91                             152   -0.22 7 77.3  38 
 RUS  HZ IP     D 1633  4.53                             145   -0.1610 99.3 177 
 RUS  HN ES   2   1633 23.48                             145   -0.15 5 99.3 177 
 GUE  SZ EP       1633  5.95                             140    0.1810  117  11 
 OCA  SZ IP       1633  9.28                             131   -0.06 9  162 353 
 OCA  SZ ES   1   1633 32.23                             131    0.33 7  162 353 
 OCA  SZ I        1633 36.63      3698.2 0.43                           162 353 
 YOP  SZ IP       1633 11.20                             128    0.46 9  177 154 
 YOP  SE ES   2   1633 33.92                             128   -0.48 4  177 154 
 ZAR  HZ EP       1633 12.76                             123   -0.70 8  206 292 
 ZAR  HE ES   2   1633 38.73                             123   -0.51 4  206 292 
 ZAR  HZ I        1633 44.44      2766.8 0.34                           206 292 
 NOR  SZ EP       1633 16.30                             120   -0.27 8  235 235 
 NOR  SN ES   2   1633 44.21                             120   -0.57 4  235 235 
 CHI  HZ IP     D 1633 18.36                             118   -0.02 8  248 196 
 CHI  HE ES   1   1633 47.82                             118   -0.18 6  248 196 
 CHI  HZ I        1633 55.74       787.1 0.50                           248 196 
 ROSC BZ IP     D 1633 20.16                             118    1.30 8  253 211 
 ROSC BZ I        1633 58.09      1156.8 0.60                           253 211 
 HEL  HZ EP       1633 20.48                             116   -0.60 8  273 256 
 HEL  HN ES   2   1633 53.34                             116    0.53 4  273 256 
 HEL  HZ I        1634  0.27      1190.0 0.50                           273 256 
 VIL  SZ EP       1633 23.46                             113   -0.57 7  303 192 
 VIL  SN ES   1   1633 57.48                             113   -0.57 5  303 192 
 GUY  SZ EP       1633 24.68                             113    0.04 7  304 235 
 GUY  SN ES   2   1633 59.64                             113    0.49 4  304 235 
 GUY  SZ I        1634  6.33      1751.6 0.42                           304 235 
 DBB  SZ EP       1633 28.90                             110    0.56 7  341 274 
 TOL  SZ EP       1633 29.99                             110    1.03 7  344 225 
 COD  HZ IP     C 1633 28.08                             110   -1.11 6  350 354 
 COD  HZ I        1634 15.57      1416.9 0.48                           350 354 
 MON  HZ IP   4 C 1633 27.68                             109   -2.21 0  356 308 
 MON  HZ I        1634 21.71       613.9 0.44                           356 308 
 PRA  HZ EP       1633 33.58                             107   -0.54 6  392 210 
 SJC  HZ IP   4 C 1633 34.35                             107   -2.05 0  411 327 
 SJC  HZ I        1634 20.69       611.3 0.52                           411 327 
 SOL  SZ EP   4   1633 46.11                             104    2.03 0  477 263 
 CAP2 HZ EP   4   1633 45.11                             103   -2.85 0  510 294 
 CAP2 HZ I        1634 39.56       234.5 0.60                           510 294 
 HORQ SZ EP   2   1633 50.68                             102   -0.36 2  532 227 
 HORQ SZ I        1634 54.33        50.5 0.50                           532 227 
 MARA HZ EP       1633 51.41                             102   -0.17 4  537 216 
 MAL  SZ EP   3   1633 54.01                             101    0.32 1  558 237 
 URI  HZ EP   4   1633 50.98                             101   -2.67 0  558  13 
                                                                                
