 2016  920 1725 16.2 L   6.771 -73.144141.5  RSN  8 0.5 1.7LRSN                1
 GAP=138        1.25       4.2     5.2  7.9 -0.3039E+01  0.7155E+01 -0.1743E+01E
 Epicentro: LOS SANTOS - SANTANDER                                             3
 ACTION:UPD 17-08-17 21:14 OP:lp   STATUS:               ID:20160920172516 L   I
 OLDACT:UP  16-09-20 23:38 OP:ar   STATUS:               ID:20160920171741     3
 OLDACT:REG 16-09-20 21:09 OP:edw  STATUS:               ID:20160920171741     3
 2016-09-20-1718-00M.COL___360                                                 6
 STAT SP IPHASW D HRMM SECON CODA AMPLIT PERI AZIMU VELO AIN AR TRES W  DIS CAZ7
 BAR2 EZ EP       1725 35.06                             171   -0.1710 20.2 192 
 BAR2 EZ ES       1725 49.69                             171   -0.4110 20.2 192 
 BRR  HZ EP       1725 36.97                             151    0.0110 72.9 301 
 BRR  HN ES       1725 53.91                             151    0.7310 72.9 301 
 BRR  HZ I        1725 56.86        13.1 0.32            152           72.9 301 
 PAM  EZ EP       1725 38.08                             149   -0.0010 79.8  38 
 PAM  EE ES       1725 55.24                             149    0.0710 79.8  38 
 PAM  EZ I        1725 57.09        10.0 0.50            151           79.8  38 
 RUS  HZ EP       1725 39.18                             144   -0.1010 97.4 176 
 RUS  HE ES       1725 57.52                             144    0.2210 97.4 176 
 RUS  HZ I        1725 58.57         3.9 0.32            146           97.4 176 
 PTB  HZ EP       1725 41.86                             131   -0.90 9  147 260 
 PTB  HE ES       1726  2.97                             131   -0.52 9  147 260 
 PTB  HZ I        1726  3.84         7.5 0.14            133            147 260 
 SPBC HZ EP       1725 44.38                             128    0.26 9  161 220 
 SPBC HN ES       1726  6.24                             128    0.32 9  161 220 
 SPBC HZ I        1726  8.14        11.8 0.14            131            161 220 
 OCA  HZ EP       1725 45.38                             128    0.92 9  163 353 
 OCA  HE ES       1726  5.75                             128   -0.77 9  163 353 
 ZAR  HE ES       1726 14.08                             121    0.39 8  205 293 
                                                                                
