 2015  420 1307 35.4 L   6.310 -73.589113.7  RSN  6 0.2 1.4LRSN                1
 GAP= 87        0.46       2.4     2.5  5.0 -0.1981E+01  0.7036E+01 -0.4658E+01E
 Epicentro: SANTA HELENA DEL OPON - SANTANDER                                  3
 ACTION:UPD 15-06-03 16:56 OP:cam  STATUS:               ID:20150420130735 L   I
 OLDACT:REG 15-04-20 22:39 OP:spq  STATUS:               ID:20150420125750     3
 2015-04-20-1257-50M.COL___262                                                 6
 STAT SP IPHASW D HRMM SECON CODA AMPLIT PERI AZIMU VELO AIN AR TRES W  DIS CAZ7
 BAR2 EZ EP       13 7 52.50                             152    0.0410 54.7  55 
 BAR2 EZ ES   1   13 8  5.80                             152    0.01 7 54.7  55 
 BAR2 EZ I        13 8  6.75         7.7 0.34            160           54.7  55 
 RUS  HZ EP   1   13 7 53.90                             145   -0.04 7 72.6 130 
 RUS  HE ES   1   13 8  8.38                             145   -0.05 7 72.6 130 
 RUS  HZ I        13 8  9.37         2.8 0.30            154           72.6 130 
 BRR  HZ EP   1   13 7 54.53                             139    0.04 7 89.2 351 
 SPBC HZ EP   1   13 7 54.85                             139    0.14 7 90.3 216 
 SPBC HN ES   1   13 8  9.81                             139    0.01 7 90.3 216 
 SPBC HZ I        13 8 14.32        11.5 0.22            142           90.3 216 
 NOR  HZ EP       13 8  1.95                             120    0.29 9  164 240 
 NOR  HE ES       13 8 21.97                             120   -0.21 9  164 240 
 NOR  HZ I        13 8 25.02         3.6 0.16            124            164 240 
 ZAR  HZ EP       13 8  4.21                             116   -0.37 9  192 313 
 ZAR  HE ES   1   13 8 27.63                             116    0.26 7  192 313 
 ZAR  HZ I        13 8 31.68         3.8 0.28            120            192 313 
                                                                                
