 2011  220 1944 22.6 L   6.793 -73.114142.0  RSN  7 0.2 1.6LRSN                1
 GAP=162        0.40       2.7     6.6  4.4 -0.1095E+02  0.7172E+01 -0.3137E+01E
 Epicentro: LOS SANTOS - SANTANDER                                             3
 ACTION:UP  11-03-28 15:09 OP:jfem STATUS:               ID:20110220194422 L   I
 2011-02-20-1943-18S.COL___137                                                 6
 STAT SP IPHASW D HRMM SECON CODA AMPLIT PERI AZIMU VELO SNR AR TRES W  DIS CAZ7
 BTL  SZ EP       1944 41.83                             171     0.110   22 309 
 BAR2 SZ EP       1944 41.72                             170    -0.110   24 199 
 BAR2 SZ ES   1   1944 56.96                             170     0.2 7   24 199 
 BAR2 SZ I        1944 59.38        12.5 0.08                            24 199 
 GIR2 SZ EP   2   1944 41.51                             166    -0.4 5   33 345 
 RUS  HZ EP   2   1944 46.16                             143     0.2 5  100 178 
 RUS  HN ES   1   1945  3.85                             143    -0.2 7  100 178 
 RUS  HZ I        1945  5.19         4.5 0.38                           100 178 
 GRA  SZ IP       1944 47.51                             136     0.010  125  16 
 GRA  SZ ES   1   1945  6.85                             136     0.0 7  125  16 
 GRA  SZ I        1945  9.97         8.9 0.40                           125  16 
 NOR  SN ES   2   1945 26.22                             117    -0.1 4  237 235 
 CHI  HZ EP   2   1945  0.16                             116     0.0 4  249 196 
 CHI  HE ES   2   1945 29.55                             116     0.2 4  249 196 
 CHI  HZ I        1945 34.91         1.7 0.50                           249 196 
                                                                                
