 2011  720 1739 57.1 L   6.815 -73.107148.9  RSN  4 0.3 1.4LRSN                1
 GAP=243        0.61       5.5     6.4  6.4  0.7613E+01  0.1060E+02  0.6947E+01E
 Epicentro: LOS SANTOS - SANTANDER                                             3
 ACTION:UPD 12-07-25 14:02 OP:epov STATUS:               ID:20110720173957 L   I
 2011-07-20-1738-00S.COL___137                                                 6
 STAT SP IPHASW D HRMM SECON CODA AMPLIT PERI AZIMU VELO AIN AR TRES W  DIS CAZ7
 BAR2 SZ EP   1   1740 16.94                             170   -0.18 7 26.0 199 
 BAR2 SZ ES   1   1740 32.22                             170   -0.55 7 26.0 199 
 BAR2 SZ I        1740 33.65         7.6 0.24                          26.0 199 
 BRR  HZ EP   1   1740 18.76                             152    0.04 7 74.2 296 
 BRR  HZ I        1740 25.02         5.5 0.49                          74.2 296 
 BRR  HE ES   1   1740 35.97                             152    0.36 7 74.2 296 
 RUS  HZ EP   1   1740 21.43                             144    0.21 7  102 179 
 RUS  HZ I        1740 21.74         1.8 0.09                           102 179 
 RUS  HN ES   1   1740 40.42                             144    0.34 7  102 179 
 NOR  SZ EP   1   1740 33.23                             119   -0.22 6  239 235 
 NOR  SN ES   1   1741  1.73                             119   -0.10 6  239 235 
                                                                                
