 2014  120 1132 12.6 L   6.811 -73.176144.8  RSN  5 0.3 1.9LRSN                1
 GAP=132        0.80       3.5     4.4  6.3 -0.1546E+01  0.9383E+01 -0.6811E+01E
 Epicentro: LOS SANTOS - SANTANDER                                             3
 ACTION:UPD 14-03-13 09:56 OP:ep   STATUS:               ID:20140120113212 L   I
 OLDACT:REG 14-01-20 14:58 OP:stll STATUS:               ID:20140120112810     3
 2014-01-20-1128-10M.COL___223                                                 6
 STAT SP IPHASW D HRMM SECON CODA AMPLIT PERI AZIMU VELO AIN AR TRES W  DIS CAZ7
 BAR2 SZ EP       1132 32.34                             170    0.2510 24.2 182 
 BAR2 SZ ES       1132 47.65                             170    0.3310 24.2 182 
 BAR2 SZ I        1132 48.94        44.4 0.28            174           24.2 182 
 PAM  SZ EP       1132 35.24                             150    0.4910 78.6  42 
 PAM  SZ I        1132 35.47        18.2 0.24            149           78.6  42 
 PAM  SN ES       1132 51.87                             150   -0.1810 78.6  42 
 RUS  HZ EP       1132 36.20                             143   -0.1210  102 174 
 RUS  HZ I        1132 37.08         4.9 0.48            148            102 174 
 RUS  HN ES       1132 54.33                             143   -0.5310  102 174 
 PTB  HZ EP       1132 39.26                             132    0.08 9  145 258 
 PTB  HN ES       1133  0.03                             132    0.09 9  145 258 
 PTB  HZ I        1133  1.90         5.4 0.26            132            145 258 
 SML  HZ EP       1132 48.60                             117   -0.27 8  241 336 
 SML  HN ES       1133 16.85                             117   -0.33 8  241 336 
 SML  HZ I        1133 28.36         8.2 0.10            117            241 336 
                                                                                
