 2013  820 1524 27.4 L   6.835 -73.152143.2  RSN  6 0.3 1.3LRSN                1
 GAP=134        0.84       4.5     3.8  6.7 -0.1868E+00  0.7138E+01 -0.3571E+01E
 Epicentro: LOS SANTOS - SANTANDER                                             3
 ACTION:UPD 14-01-14 09:05 OP:ep   STATUS:               ID:20130820152427 L   I
 OLDACT:DUP 13-08-20 19:41 OP:stll STATUS:               ID:20130820151849d    3
 2013-08-20-1518-48M.COL___195                                                 6
 STAT SP IPHASW D HRMM SECON CODA AMPLIT PERI AZIMU VELO AIN AR TRES W  DIS CAZ7
 BAR2 SZ EP       1524 46.90                             169    0.0810 27.0 187 
 BAR2 SZ ES       1525  1.80                             169   -0.1510 27.0 187 
 BAR2 SZ I        1525  5.26         4.3 0.50            167           27.0 187 
 BRR  HZ EP       1524 48.39                             153    0.2410 68.8 296 
 BRR  HN ES       1525  4.23                             153   -0.1010 68.8 296 
 PAM  SZ EP       1524 49.54                             151    0.3310 74.9  42 
 PAM  SZ I        1524 49.72        12.1 0.16            154           74.9  42 
 PAM  SN ES       1525  6.09                             151   -0.1210 74.9  42 
 RUS  HN ES       1525  9.70                             142   -0.0510  104 176 
 RUS  HZ I        1525 11.73         1.4 0.20            142            104 176 
 PTB  HZ EP       1524 53.49                             131   -0.69 9  148 257 
 PTB  HN ES       1525 15.64                             131    0.58 9  148 257 
 PTB  HZ I        1525 18.37         2.3 0.14            132            148 257 
 ZAR  HN ES       1525 24.30                             122   -0.19 9  202 291 
                                                                                
