 2014  620 1112 49.0 L   6.812 -73.196140.7  RSN 13 0.4 2.1LRSN                1
 GAP=130        0.79       2.6     3.9  5.3 -0.3379E+01  0.1069E+02 -0.9438E+00E
 Epicentro: ZAPATOCA - SANTANDER                                               3
 ACTION:UPD 14-07-01 22:55 OP:nd   STATUS:               ID:20140620111249 L   I
 OLDACT:UP  14-06-21 00:41 OP:mh   STATUS:               ID:20140620110818     3
 OLDACT:UP  14-06-21 00:41 OP:mh   STATUS:               ID:20140620110818     3
 OLDACT:UP  14-06-21 00:39 OP:mh   STATUS:               ID:20140620110818     3
 OLDACT:UP  14-06-21 00:39 OP:mh   STATUS:               ID:20140620110818     3
 OLDACT:UP  14-06-21 00:38 OP:mh   STATUS:               ID:20140620110818     3
 OLDACT:UP  14-06-21 00:37 OP:mh   STATUS:               ID:20140620110818     3
 OLDACT:UP  14-06-21 00:37 OP:mh   STATUS:               ID:20140620110818     3
 OLDACT:REG 14-06-20 22:46 OP:spq  STATUS:               ID:20140620110818     3
 2014-06-20-1108-18M.COL___259                                                 6
 STAT SP IPHASW D HRMM SECON CODA AMPLIT PERI AZIMU VELO AIN AR TRES W  DIS CAZ7
 BAR2 SZ EP       1113  8.17                             170    0.1410 24.3 176 
 BAR2 SZ ES       1113 22.97                             170    0.0910 24.3 176 
 PAM  SZ EP       1113 11.03                             149    0.2010 80.1  43 
 PAM  SN ES       1113 28.00                             149    0.1310 80.1  43 
 PAM  SZ I        1113 30.00        26.3 0.54            157           80.1  43 
 RUS  HZ EP       1113 12.13                             142   -0.2510  102 173 
 RUS  HN ES   1   1113 30.31                             142   -0.32 7  102 173 
 RUS  HZ I        1113 32.02        18.8 0.26            147            102 173 
 PTB  HZ EP       1113 14.71                             132   -0.37 9  143 258 
 PTB  HN ES   1   1113 35.48                             132    0.06 7  143 258 
 PTB  HZ I        1113 41.02        21.4 0.10            130            143 258 
 OCA  HZ EP   1   1113 16.06                             129   -0.67 7  158 355 
 OCA  HN ES   1   1113 38.32                             129   -0.05 7  158 355 
 OCA  HZ I        1113 42.25        12.4 0.22            131            158 355 
 ZAR  HZ EP       1113 21.15                             122    0.63 9  198 292 
 ZAR  HN ES   4   1113 46.74                             122    1.62 0  198 292 
 ZAR  HZ I        1113 52.84        16.9 0.34            122            198 292 
 NOR  HZ EP       1113 24.25                             118    0.22 8  231 233 
 NOR  HN ES       1113 51.22                             118   -0.14 8  231 233 
 NOR  HZ I        1114  7.25         6.9 0.21            119            231 233 
 SML  HZ EP   1   1113 24.71                             117   -0.25 6  240 336 
 SML  HN ES   1   1113 52.51                             117   -0.50 6  240 336 
 SML  HZ I        1113 59.80        24.0 0.09            119            240 336 
 CHI  HZ EP   4   1113 24.18                             116   -2.22 0  249 194 
 CHI  HN ES       1113 55.73                             116    0.15 8  249 194 
 CHI  HZ I        1113 59.81         4.4 0.26            119            249 194 
 HEL  HZ EP   1   1113 28.47                             114    0.08 6  267 255 
 HEL  HN ES   2   1113 58.91                             114   -0.21 4  267 255 
 HEL  HZ I        1114  8.60         9.3 0.06            115            267 255 
 URE  HZ EP   4   1113 32.53                             113    3.35 0  278 292 
 URE  HN ES   4   1114  0.81                             113    0.28 0  278 292 
 GUY2CHZ EP   4   1113 33.70                             112    1.76 0  297 234 
 GUY2CHN ES       1114  5.67                             112    0.22 7  297 234 
 GUY2CHZ I        1114 13.04         5.6 0.22                           297 234 
 RREF HZ EP   4   1113 36.18                             110    1.64 0  318 229 
 RREF HN ES   4   1114 10.24                             110    0.18 0  318 229 
 TOL  SZ EP       1113 37.60                             108    0.89 7  341 224 
 TOL  SN ES   4   1114 13.94                             108    0.01 0  341 224 
 PRA  HZ EP   1   1113 41.99                             106   -0.17 4  390 209 
 PRA  HN ES   1   1114 22.14                             106   -1.49 4  390 209 
 PRA  HZ I        1114 30.20         4.9 0.26            108            390 209 
 SJC  HZ EP   4   1113 42.66                             105   -1.25 0  405 327 
 SJC  HN ES   4   1114 23.14                             105   -3.60 0  405 327 
                                                                                
