 2012 1120 1950 12.4 L   6.808 -73.178144.2  RSN  5 0.2 1.4LRSN                1
 GAP=132        0.41       2.8     3.1  4.6 -0.1633E+01  0.4311E+01 -0.1939E+01E
 Epicentro: LOS SANTOS - SANTANDER                                             3
 ACTION:UPD 12-12-05 15:34 OP:}ep  STATUS:               ID:20121120195012 L   I
 2012-11-20-1950-00M.COL___233                                                 6
 STAT SP IPHASW D HRMM SECON CODA AMPLIT PERI AZIMU VELO AIN AR TRES W  DIS CAZ7
 BAR2 SZ EP   1   1950 31.67                             170   -0.22 7 23.8 181 
 BAR2 SZ ES   1   1950 47.09                             170    0.02 7 23.8 181 
 BAR2 SZ I        1950 48.81        10.2 0.36                          23.8 181 
 PAM  SZ EP   1   1950 34.94                             150    0.35 7 79.1  42 
 PAM  SN ES   1   1950 51.71                             150   -0.16 7 79.1  42 
 PAM  SZ I        1950 54.27         4.4 0.18                          79.1  42 
 RUS  HZ EP   1   1950 35.94                             143   -0.18 7  102 174 
 RUS  HE ES   1   1950 54.76                             143    0.17 7  102 174 
 RUS  HZ I        1950 55.90         2.1 0.44                           102 174 
 PTB  HZ EP   1   1950 38.96                             132   -0.01 7  144 258 
 PTB  HN ES   1   1950 59.70                             132    0.03 7  144 258 
 PTB  HZ I        1951  5.93         4.5 0.31                           144 258 
 SML  HE ES   2   1951 17.08                             117    0.04 4  241 336 
                                                                                
