 2017 1120 1718 13.3 L   6.811 -73.247137.0  RSN  6 0.7 1.8LRSN                1
 GAP=113        1.13       5.2     6.0  9.3  0.1012E+02  0.1937E+02  0.4545E+00E
 Epicentro: ZAPATOCA - SANTANDER                                               3
 ACTION:UPD 17-12-12 19:57 OP:rebc STATUS:               ID:20171120171813 L   I
 OLDACT:UP  17-11-21 00:04 OP:dani STATUS:               ID:20171120171622     3
 OLDACT:UP  17-11-21 00:02 OP:dani STATUS:               ID:20171120171622     3
 OLDACT:REG 17-11-20 21:55 OP:dani STATUS:               ID:20171120171622     3
 2017-11-20-1718-00M.COL___462                                                 6
 STAT SP IPHASW D HRMM SECON CODA AMPLIT PERI AZIMU VELO AIN AR TRES W  DIS CAZ7
 BAR2 EZ EP       1718 31.77                             169   -0.1110 25.3 163 
 BAR2 EZ ES       1718 46.45                             169    0.0410 25.3 163 
 BAR2 EZ I        1718 48.38        17.0 0.14            171           25.3 163 
 PAM  EZ EP       1718 34.75                             148   -0.2410 84.1  46 
 PAM  EN ES       1718 51.77                             148   -0.1710 84.1  46 
 PAM  EZ I        1718 54.20        10.6 0.70            152           84.1  46 
 RUS  HZ EP       1718 35.78                             142   -0.5810  103 170 
 RUS  HN ES       1718 54.77                             142    0.3910  103 170 
 RUS  HZ I        1718 55.59         8.3 0.24            145            103 170 
 PTB  HZ EP   3   1718 36.87                             132   -1.67 2  137 257 
 PTB  HN ES   3   1718 54.89                             132   -3.37 2  137 257 
 PTB  HZ I        1719  1.66         8.8 0.58            133            137 257 
 YPLC HN ES       1719  6.44                             124    0.04 9  184 148 
 ZAR  HZ EP       1718 44.61                             122    0.59 9  193 293 
 ZAR  HN ES       1719  8.63                             122    0.62 9  193 293 
 ZAR  HZ I        1719 15.08         9.3 0.42            123            193 293 
 GUY2CHZ EP   4   1718 57.98                             111    2.46 0  293 233 
                                                                                
