 2011 1020 1131 28.2 L   6.791 -73.160139.6  RSN  5 0.4 1.6LRSN                1
 GAP=135        0.87       5.7     5.8  8.1  0.5791E+01  0.8135E+01 -0.4743E+01E
 Epicentro: LOS SANTOS - SANTANDER                                             3
 ACTION:UPD 12-07-13 16:04 OP:ep   STATUS:               ID:20111020113128 L   I
 2011-10-20-1120-00M.COL___171                                                 6
 STAT SP IPHASW D HRMM SECON CODA AMPLIT PERI AZIMU VELO AIN AR TRES W  DIS CAZ7
 BAR2 SZ EP   1   1131 46.93                             171   -0.15 7 22.2 186 
 BAR2 SZ ES   1   1132  1.23                             171   -0.56 7 22.2 186 
 BAR2 SZ I        1132  2.90        10.1 0.45                          22.2 186 
 BRR  HZ EP   1   1131 48.93                             152    0.28 7 70.3 300 
 BRR  HN ES   1   1132  5.45                             152    0.87 7 70.3 300 
 BRR  HZ I        1132  6.50        20.5 0.13                          70.3 300 
 PAM  SZ EP       1131 50.00                             149    0.1210 79.1  40 
 PAM  SN ES   1   1132  6.54                             149   -0.24 7 79.1  40 
 RUS  HZ EP   1   1131 51.19                             143   -0.11 7 99.7 175 
 RUS  HN ES   1   1132  9.53                             143    0.22 7 99.7 175 
 RUS  HZ I        1132 11.36         2.6 0.35                          99.7 175 
 ZAR  HZ EP   1   1132  0.27                             121    0.12 6  203 293 
 ZAR  HN ES   1   1132 24.24                             121   -0.82 6  203 293 
 ZAR  HZ I        1132 33.73         4.8 0.19                           203 293 
                                                                                
