 2017 1020 1907 12.7 L   6.680 -74.074  8.7  RSN 16 0.4 2.4LRSN                1
 GAP= 84        1.31       2.5     2.2  6.4 -0.6151E+00 -0.1314E+01  0.1704E+00E
 Epicentro: PUERTO PARRA - SANTANDER                                           3
 ACTION:UPD 17-11-07 19:34 OP:rebc STATUS:               ID:20171020190712 L   I
 OLDACT:UP  17-10-21 01:29 OP:edw  STATUS:               ID:20171020185739     3
 OLDACT:UP  17-10-21 01:29 OP:edw  STATUS:               ID:20171020185739     3
 OLDACT:UP  17-10-21 01:28 OP:edw  STATUS:               ID:20171020185739     3
 OLDACT:UP  17-10-21 01:27 OP:edw  STATUS:               ID:20171020185739     3
 OLDACT:REG 17-10-20 20:35 OP:edw  STATUS:               ID:20171020185739     3
 2017-10-20-1858-00M.COL___459                                                 6
 STAT SP IPHASW D HRMM SECON CODA AMPLIT PERI AZIMU VELO AIN AR TRES W  DIS CAZ7
 PTB  HZ IP     D 19 7 19.76                              96   -0.4110 45.0 250 
 PTB  HE ES       19 7 25.65                              96   -0.3510 45.0 250 
 PTB  HZ I        19 7 25.85       200.9 0.34             47           45.0 250 
 BRR  HZ EP       19 7 22.95                              94    0.2410 61.9  40 
 BRR  HN ES       19 7 31.17                              94    0.6510 61.9  40 
 BRR  HZ I        19 7 31.96       220.3 0.10             47           61.9  40 
 BAR2 EZ IP     D 19 7 28.27                              93   -0.3110 99.1  96 
 BAR2 EZ ES       19 7 40.62                              93   -0.3410 99.1  96 
 BAR2 EZ I        19 7 42.47       140.3 0.60             47           99.1  96 
 SPBC HZ EP       19 7 30.28                              92   -0.3410  114 180 
 SPBC HN ES       19 7 45.02                              92    0.4210  114 180 
 SPBC HZ I        19 7 46.29        70.6 0.24             47            114 180 
 ZAR  HZ EP       19 7 32.04                              92   -0.1810  125 316 
 ZAR  HN ES       19 7 47.61                              92    0.1610  125 316 
 ZAR  HZ I        19 7 49.50       111.5 0.30             47            125 316 
 RUS  HZ EP       19 7 35.02                              92   -0.02 9  140 128 
 RUS  HN ES       19 7 52.47                              92    0.01 9  140 128 
 RUS  HZ I        19 7 54.74       109.1 0.24             47            140 128 
 NOR  HZ EP   9   19 7 35.60                              92   -0.73 0  152 216 
 NOR  HN ES       19 7 52.39                              47   -1.64 9  152 216 
 NOR  HZ I        19 7 55.40        32.8 0.30             47            152 216 
 PAM  EZ EP       19 7 39.50                              56    0.29 9  169  64 
 PAM  EN ES       19 7 59.46                              56   -0.43 9  169  64 
 PAM  EZ I        19 8  1.77        70.6 0.40             47            169  64 
 ROSC BZ EP   4   19 7 49.61                              56    5.92 0  205 188 
 ROSC BN ES   4   19 8 10.41                              56    2.56 0  205 188 
 ROSC BZ I        19 8 14.06        13.4 0.50             37            205 188 
 GUY2CHZ EP       19 7 45.40                              56    0.37 8  215 222 
 GUY2CHN ES   4   19 8  9.45                              56   -0.80 0  215 222 
 GUY2CHZ I        19 8 13.50        37.6 0.34                           215 222 
 CHI  HZ EP   4   19 7 50.01                              56    3.22 0  230 170 
 CHI  HN ES   4   19 8 16.77                              56    3.40 0  230 170 
 CHI  HZ I        19 8 21.82        11.4 0.54             37            230 170 
 YPLC HZ EP   4   19 7 49.87                              56    2.82 0  235 127 
 YPLC HN ES   4   19 8 19.78                              56    5.95 0  235 127 
 YPLC HZ I        19 8 25.50        26.2 0.64             37            235 127 
 DBB  EN ES   4   19 8 18.69                              56    4.00 0  239 279 
 ELA  HZ EP       19 7 50.11                              56    0.78 8  249 216 
 ELA  HN ES   4   19 8 20.43                              56    2.54 0  249 216 
 ELA  HZ I        19 8 25.77        30.9 0.40             37            249 216 
 ANIL HN ES   1   19 8 24.89                              56   -0.11 6  283 211 
 ORTC HZ EP   1   19 7 58.64                              55   -0.49 5  333 203 
 ORTC HN ES   4   19 8 45.39                              55   10.06 0  333 203 
 PRA  HZ EP   4   19 8  2.05                              55    2.02 0  340 195 
 PRA  HE ES   4   19 8 43.55                              55    6.60 0  340 195 
 PRA  HZ I        19 8 57.59         6.9 0.58             36            340 195 
                                                                                
