 2013  520 1149 40.1 L   6.791 -73.130139.7  RSN  5 0.4 1.7LRSN                1
 GAP=139        0.74       5.7     5.4 11.5 -0.6258E+01  0.3795E+01 -0.8234E+01E
 Epicentro: LOS SANTOS - SANTANDER                                             3
 ACTION:UPD 13-06-20 09:52 OP:ep   STATUS:               ID:20130520114940 L   I
 2013-05-20-1147-52M.COL___213                                                 6
 STAT SP IPHASW D HRMM SECON CODA AMPLIT PERI AZIMU VELO AIN AR TRES W  DIS CAZ7
 BAR2 SZ ES   1   1150 13.20                             170   -0.55 7 22.7 195 
 BAR2 SZ I        1150 15.65         8.5 0.16            172           22.7 195 
 BRR  HN ES   1   1150 17.34                             151    0.51 7 73.2 299 
 PAM  SZ EP   1   1150  1.61                             150   -0.07 7 77.1  38 
 PAM  SN ES   1   1150 18.49                             150   -0.00 7 77.1  38 
 PAM  SZ I        1150 20.56        17.9 0.44            151           77.1  38 
 RUS  HE ES   1   1150 21.58                             143    0.38 7 99.4 177 
 RUS  HZ I        1150 22.16         6.5 0.34            145           99.4 177 
 PTB  HN ES   1   1150 27.21                             130   -0.31 7  149 259 
                                                                                
