 2015  220 1741 11.5 L   6.844 -73.198145.9  RSN  6 0.5 1.6LRSN                1
 GAP=128        1.17       5.4     6.0  9.3 -0.1693E+01  0.1353E+02 -0.1117E+02E
 Epicentro: ZAPATOCA - SANTANDER                                               3
 ACTION:UPD 15-04-30 21:28 OP:nd   STATUS:               ID:20150220174111 L   I
 OLDACT:DUP 15-02-21 05:57 OP:stll STATUS:               ID:20150220173747d    3
 2015-02-20-1737-46M.COL___290                                                 6
 STAT SP IPHASW D HRMM SECON CODA AMPLIT PERI AZIMU VELO AIN AR TRES W  DIS CAZ7
 BAR2 EZ EP       1741 31.14                             169   -0.0610 27.8 176 
 BAR2 EZ ES       1741 46.31                             169   -0.2910 27.8 176 
 BAR2 EZ I        1741 47.33         6.1 0.34            168           27.8 176 
 BRR  HZ EP       1741 32.93                             155    0.7110 63.8 297 
 BRR  HN ES       1741 49.10                             155    0.6910 63.8 297 
 PAM  SZ EP       1741 33.96                             151    0.2610 77.7  45 
 PAM  SZ I        1741 34.17        11.9 0.20            152           77.7  45 
 PAM  SN ES       1741 50.92                             151   -0.1310 77.7  45 
 RUS  HN ES       1741 54.10                             142   -0.3510  106 173 
 RUS  HZ I        1741 55.64         3.1 0.34            142            106 173 
 PTB  HZ EP       1741 38.09                             133    0.07 9  143 256 
 PTB  HN ES       1741 58.39                             133   -0.34 9  143 256 
 PTB  HZ I        1742  1.36         6.1 0.24            132            143 256 
 SML  HN ES       1742 14.43                             118   -0.93 8  237 336 
                                                                                
