 2012  920 1424 59.2 L   6.326 -73.673102.8  RSN  4 0.3 1.8LRSN                1
 GAP=188        0.53       6.4     7.8 11.0  0.4019E+02  0.6449E+02  0.3767E+02E
 Epicentro: SANTA HELENA DEL OPON - SANTANDER                                  3
 ACTION:UPD 12-10-22 14:19 OP:ep   STATUS:               ID:20120920142459 L   I
 2012-09-20-1420-00M.COL___224                                                 6
 STAT SP IPHASW D HRMM SECON CODA AMPLIT PERI AZIMU VELO AIN AR TRES W  DIS CAZ7
 BAR2 SZ EP   1   1425 15.61                             146    0.05 7 61.7  62 
 BAR2 SZ ES   1   1425 28.40                             146    0.06 7 61.7  62 
 BAR2 SZ I        1425 30.02        43.9 0.14                          61.7  62 
 RUS  HZ EP   1   1425 17.69                             138    0.35 7 81.0 126 
 RUS  HN ES   1   1425 31.25                             138   -0.26 7 81.0 126 
 BRR  HZ EP   2   1425 17.01                             136   -0.09 5 86.4 357 
 BRR  HZ I        1425 24.74        15.0 0.37                          86.4 357 
 BRR  HN ES   2   1425 30.84                             136   -0.24 5 86.4 357 
 ZAR  HZ EP   2   1425 26.23                             113   -0.73 4  184 315 
 ZAR  HN ES   1   1425 48.90                             113    0.27 7  184 315 
 ZAR  HZ I        1425 53.76         4.4 0.25                           184 315 
                                                                                
