 2017  220 1326 38.1 L   6.776 -73.140145.3  RSN 12 0.4 2.1LRSN                1
 GAP=121        1.03       4.1     3.9  5.3  0.3116E+00  0.4350E+01  0.5036E+01E
 Epicentro: LOS SANTOS - SANTANDER                                             3
 ACTION:UPD 17-05-24 15:38 OP:jn   STATUS:               ID:20170220132638 L   I
 OLDACT:UP  17-02-20 23:34 OP:cog  STATUS:               ID:20170220131741     3
 OLDACT:REG 17-02-20 21:45 OP:cog  STATUS:               ID:20170220131741     3
 2017-02-20-1318-00M.COL___352                                                 6
 STAT SP IPHASW D HRMM SECON CODA AMPLIT PERI AZIMU VELO AIN AR TRES W  DIS CAZ7
 BAR2 HZ EP       1326 57.57                             172   -0.0110 20.8 193 
 BAR2 HZ ES       1327 12.81                             172    0.0010 20.8 193 
 BAR2 HZ I        1327 15.35        47.2 0.28            168           20.8 193 
 BRR  HZ EP       1326 59.43                             152    0.1710 73.0 300 
 BRR  HE ES       1327 15.93                             152    0.1410 73.0 300 
 BRR  HZ I        1327 16.79        29.3 0.32            153           73.0 300 
 PAM  EZ EP       1327  0.33                             150    0.0110 79.1  38 
 PAM  EN ES       1327 17.44                             150   -0.2510 79.1  38 
 PAM  EZ I        1327 20.58        18.0 0.42            155           79.1  38 
 RUS  HZ EP       1327  1.49                             144   -0.0710 97.8 176 
 RUS  HN ES       1327 20.27                             144    0.3710 97.8 176 
 RUS  HZ I        1327 21.42        20.0 0.34            143           97.8 176 
 PTB  HZ EP       1327  4.36                             132   -0.63 9  148 260 
 PTB  HN ES       1327 25.27                             132   -0.73 9  148 260 
 PTB  HZ I        1327 32.28        10.7 0.42            132            148 260 
 ZAR  HZ EP       1327 11.27                             122    0.64 8  206 293 
 ZAR  HN ES       1327 35.97                             122   -0.07 8  206 293 
 NOR  HZ EP       1327 13.73                             118    0.09 8  234 235 
 NOR  HN ES       1327 41.49                             118    0.09 8  234 235 
 NOR  HZ I        1327 47.04         7.8 0.20            119            234 235 
 CHI  HZ EP       1327 15.83                             117    0.37 8  246 195 
 CHI  HE ES   4   1327 46.64                             117    2.00 0  246 195 
 CHI  HZ I        1327 51.20         6.4 0.30            118            246 195 
 ROSC BZ EP   9   1327 17.82                             116    1.89 0  251 211 
 ROSC BN ES       1327 46.29                                   -1.07 8  251 211 
 PTGC HZ EP       1327 20.77                             111   -0.81 7  306 159 
 PTGC HN ES   4   1327 54.28                             111   -1.25 0  306 159 
 CBOC HZ EP       1327 25.85                             109    0.93 7  333 253 
 CBOC HN ES   3   1328  0.66                             109   -0.81 2  333 253 
 PRA  HZ EP       1327 31.40                             106    0.08 6  390 210 
 PRA  HE ES   3   1328 14.78                             106    1.92 1  390 210 
 PRA  HZ I        1328 19.76         9.1 0.38            107            390 210 
                                                                                
