 2012  120 1550 25.2 L   6.790 -73.183139.3  RSN  7 0.4 1.5LRSN                1
 GAP=132        0.80       4.7     4.3  7.2 -0.7417E+00  0.9692E+01 -0.2668E+00E
 Epicentro: LOS SANTOS - SANTANDER                                             3
 ACTION:UP  12-02-03 08:19 OP:REBC STATUS:               ID:20120120155025 L   I
 2012-01-20-1550-00M.COL___187                                                 6
 STAT SP IPHASW D HRMM SECON CODA AMPLIT PERI AZIMU VELO SNR AR TRES W  DIS CAZ7
 BAR2 SZ EP   1   1550 44.12                             171     0.1 7   22 180 
 BAR2 SZ ES   1   1550 58.40                             171    -0.3 7   22 180 
 BAR2 SZ I        1551  0.27        10.9 0.21                            22 180 
 BRR  HZ EP   1   1550 45.98                             152     0.5 7   68 301 
 BRR  HN ES   1   1551  1.80                             152     0.5 7   68 301 
 PAM  SZ EP   1   1550 47.03                             148     0.1 7   81  41 
 PAM  SN ES   1   1551  3.72                             148    -0.2 7   81  41 
 PAM  SZ I        1551  5.03         4.6 0.16                            81  41 
 RUS  HZ EP   1   1550 48.11                             143    -0.1 7  100 174 
 RUS  HN ES   1   1551  6.04                             143    -0.2 7  100 174 
 RUS  HZ I        1551  7.25         4.5 0.26                           100 174 
 PTB  HZ EP   1   1550 50.82                             131    -0.4 7  144 259 
 PTB  HN ES   1   1551 11.59                             131     0.0 7  144 259 
 ZAR  HZ EP   1   1550 56.86                             121     0.0 6  201 293 
 ZAR  HN ES   1   1551 20.72                             121    -0.8 6  201 293 
 ZAR  HZ I        1551 26.36         4.8 0.25                           201 293 
 NOR  SN ES   1   1551 27.74                             118     0.4 6  231 234 
                                                                                
