 2010  820 1005 50.1 L   6.806 -73.052144.4  RSN  7 0.3 1.7LRSN                1
 GAP=169        0.68       3.1     6.9  5.5 -0.6349E+01 -0.3241E+01 -0.1786E+01E
 Epicentro: LOS SANTOS - SANTANDER                                             3
 ACTION:UP  10-09-07 10:56 OP:vdl  STATUS:               ID:20100820100550 L   I
 2010-08-20-1003-13S.COL___120                                                 6
 STAT SP IPHASW D HRMM SECON CODA AMPLIT PERI AZIMU VELO SNR AR TRES W  DIS CAZ7
 BAR2 SZ EP   1   10 6  9.44                             169    -0.2 7   28 212 
 BAR2 SZ ES   1   10 6 25.03                             169     0.1 7   28 212 
 BAR2 SZ I        10 6 26.33        12.9 0.22                            28 212 
 BRR  HZ EP       10 6 11.41                             150    -0.210   80 295 
 BRR  HZ I        10 6 11.68        25.6 0.18                            80 295 
 BRR  HE ES   1   10 6 28.44                             150     0.0 7   80 295 
 RUS  HZ EP   1   10 6 13.44                             144    -0.3 7  101 182 
 RUS  HE ES   1   10 6 32.36                             144     0.2 7  101 182 
 RUS  HZ I        10 6 33.38         3.7 0.29                           101 182 
 GUE  SZ EP       10 6 14.52                             140     0.010  114   7 
 GUE  SZ I        10 6 16.23         2.3 0.09                           114   7 
 GRA  SZ EP       10 6 15.30                             138     0.310  122  13 
 GRA  SZ ES   1   10 6 34.19                             138    -0.1 7  122  13 
 GRA  SZ I        10 6 36.61         6.1 0.31                           122  13 
 OCA  SZ EP       10 6 18.28                             130    -0.1 9  161 349 
 OCA  SZ ES   2   10 6 41.15                             130     0.7 5  161 349 
 OCA  SZ I        10 6 48.84         6.1 0.39                           161 349 
 PRA  HZ EP   1   10 6 44.25                             106     0.0 4  398 211 
 PRA  HN ES   1   10 7 27.22                             106     0.7 4  398 211 
 PRA  HZ I        10 7 33.56         1.8 0.40                           398 211 
                                                                                
