 2012  120 1147 18.1 L   6.754 -73.127146.0  RSN  7 0.5 1.9LRSN                1
 GAP=141        1.08       6.7     6.5  9.0  0.6050E+01  0.1387E+02  0.6424E+01E
 Epicentro: LOS SANTOS - SANTANDER                                             3
 ACTION:UP  12-02-03 08:19 OP:REBC STATUS:               ID:20120120114718 L   I
 2012-01-20-1140-00M.COL___187                                                 6
 STAT SP IPHASW D HRMM SECON CODA AMPLIT PERI AZIMU VELO SNR AR TRES W  DIS CAZ7
 BAR2 SZ EP   1   1147 37.56                             172    -0.2 7   19 199 
 BAR2 SZ ES   1   1147 52.63                             172    -0.4 7   19 199 
 BAR2 SZ I        1147 54.41        17.5 0.26                            19 199 
 BRR  HZ EP   1   1147 40.11                             151     0.5 7   76 301 
 BRR  HZ I        1147 40.29        33.5 0.12                            76 301 
 BRR  HN ES   1   1147 56.66                             151     0.4 7   76 301 
 PAM  SZ EP   1   1147 40.81                             150     0.3 7   80  36 
 PAM  SN ES   1   1147 57.59                             150    -0.4 7   80  36 
 RUS  HZ EP   1   1147 40.95                             145    -0.6 7   95 177 
 RUS  HN ES   1   1148  0.67                             145     0.9 7   95 177 
 RUS  HZ I        1148  3.30         7.5 0.27                            95 177 
 PTB  HZ EP   1   1147 45.09                             132    -0.1 7  149 261 
 PTB  HN ES   1   1148  6.01                             132    -0.4 7  149 261 
 ZAR  HZ EP   1   1147 51.72                             122     0.7 6  208 293 
 ZAR  HN ES   1   1148 16.24                             122    -0.4 6  208 293 
 ZAR  HZ I        1148 21.86         9.6 0.22                           208 293 
 CHI  HZ EP   1   1147 55.00                             118    -0.4 6  244 196 
 CHI  HZ I        1147 59.37         3.8 0.20                           244 196 
                                                                                
