 2012  920 1812 33.0 L   6.745 -73.135140.9  RSN  5 0.3 1.8LRSN                1
 GAP=140        0.52       3.8     4.6  6.5  0.7203E+00 -0.7217E+01 -0.2745E+01E
 Epicentro: JORDAN - SANTANDER                                                 3
 ACTION:UPD 12-10-22 14:19 OP:ep   STATUS:               ID:20120920181233 L   I
 2012-09-20-1810-00M.COL___224                                                 6
 STAT SP IPHASW D HRMM SECON CODA AMPLIT PERI AZIMU VELO AIN AR TRES W  DIS CAZ7
 BAR2 SZ EP   1   1812 51.85                             172   -0.05 7 17.6 197 
 BAR2 SZ ES   2   1813  7.25                             172    0.57 5 17.6 197 
 BAR2 SZ I        1813  9.69        18.8 0.24                          17.6 197 
 BRR  HZ EP   1   1812 53.94                             150    0.11 7 75.3 302 
 BRR  HZ I        1812 58.35        18.9 0.39                          75.3 302 
 BRR  HN ES   1   1813 10.25                             150    0.14 7 75.3 302 
 PAM  SZ EP       1812 54.88                             149   -0.0410 81.5  36 
 PAM  SZ I        1812 55.48        15.0 0.21                          81.5  36 
 PAM  SN ES   2   1813 11.59                             149   -0.45 5 81.5  36 
 RUS  HZ EP   1   1812 56.04                             144    0.25 7 94.4 177 
 RUS  HN ES   1   1813 13.37                             144   -0.22 7 94.4 177 
 RUS  HZ I        1813 15.75         5.7 0.34                          94.4 177 
 PTB  HE ES   2   1813 19.72                             131   -0.57 5  148 261 
                                                                                
