 2014  420 1545 42.5 L   6.805 -73.131152.0  RSN  9 0.5 2.0LRSN                1
 GAP=184        1.06       3.5     5.2  7.3 -0.1339E+01  0.6433E+01  0.6078E+00E
 Epicentro: LOS SANTOS - SANTANDER                                             3
 ACTION:UPD 14-05-13 23:10 OP:nd   STATUS:               ID:20140420154542 L   I
 OLDACT:REG 14-04-20 21:41 OP:stll STATUS:               ID:20140420153817     3
 2014-04-20-1538-17M.COL___239                                                 6
 STAT SP IPHASW D HRMM SECON CODA AMPLIT PERI AZIMU VELO AIN AR TRES W  DIS CAZ7
 BRR  HZ IP     C 1546  4.73                             153    0.3610 72.4 297 
 BRR  HZ I        1546  6.27        10.2 0.12            149           72.4 297 
 BRR  HN ES       1546 22.01                             153    0.5610 72.4 297 
 RUS  HZ EP       1546  6.96                             145    0.0710  101 177 
 RUS  HN ES       1546 25.59                             145   -0.3310  101 177 
 PTB  HZ EP       1546  9.76                             133   -0.36 9  149 259 
 PTB  HE ES       1546 31.27                             133   -0.41 9  149 259 
 PTB  HZ I        1546 32.98         9.9 0.36            131            149 259 
 OCA  HN ES       1546 34.07                             131    0.38 9  160 353 
 OCA  HZ I        1546 37.77         8.6 0.38            129            160 353 
 ZAR  HZ EP       1546 15.31                             124   -0.17 8  205 292 
 ZAR  HE ES       1546 41.63                             124    0.42 8  205 292 
 ZAR  HZ I        1546 47.98         8.7 0.28            122            205 292 
 NOR  HZ EP       1546 18.89                             120    0.13 8  236 235 
 NOR  HN ES       1546 46.89                             120   -0.17 8  236 235 
 NOR  HZ I        1546 50.51         7.6 0.16            119            236 235 
 SML  HZ EP       1546 19.25                             119   -0.23 8  244 335 
 SML  HN ES       1546 47.11                             119   -1.23 8  244 335 
 SML  HZ I        1546 59.37        11.5 0.24            117            244 335 
 HEL  HZ EP   2   1546 24.00                             116    0.79 4  274 256 
 HEL  HN ES       1546 55.29                             116    0.31 8  274 256 
 HEL  HZ I        1547  0.43         4.1 0.74            115            274 256 
 GUY2CHZ EP       1546 27.29                             113    0.71 7  303 235 
 GUY2CHN ES       1547  0.58                             113   -0.39 7  303 235 
 GUY2CHZ I        1547  7.82         4.1 0.32                           303 235 
                                                                                
