 2014  420 1837 15.6 L   6.793 -73.149142.0  RSN 17 0.5 2.3LRSN                1
 GAP= 71        1.21       2.8     3.3  6.1 -0.1267E+01  0.4315E+01  0.3276E+01E
 Epicentro: LOS SANTOS - SANTANDER                                             3
 ACTION:UPD 14-05-13 23:10 OP:nd   STATUS:               ID:20140420183715 L   I
 OLDACT:DUP 14-04-21 00:53 OP:stll STATUS:               ID:20140420182814d    3
 2014-04-20-1828-13M.COL___239                                                 6
 STAT SP IPHASW D HRMM SECON CODA AMPLIT PERI AZIMU VELO AIN AR TRES W  DIS CAZ7
 BRR  HZ IP     D 1837 36.91                             152    0.5410 71.3 299 
 BRR  HN ES       1837 53.80                             152    1.2410 71.3 299 
 BRR  HZ I        1837 55.63        30.5 0.14            152           71.3 299 
 PAM  SZ IP     D 1837 37.87                             150    0.3810 78.2  39 
 PAM  SN ES       1837 54.66                             150    0.1210 78.2  39 
 PAM  HZ I        1837 56.56        32.4 0.60            153           78.2  39 
 RUS  HZ EP       1837 39.02                             143    0.0610 99.9 176 
 RUS  HN ES       1837 57.24                             143    0.0910 99.9 176 
 RUS  HZ I        1837 58.57        36.8 0.20            145           99.9 176 
 PTB  HZ EP       1837 41.60                             131   -0.65 9  147 259 
 PTB  HE ES       1838  2.84                             131   -0.17 9  147 259 
 PTB  HZ I        1838  4.79        26.9 0.18            132            147 259 
 TAM  HZ IP     D 1837 43.38                             130    0.36 9  155 105 
 TAM  HN ES       1838  3.56                             130   -0.82 9  155 105 
 TAM  HZ I        1838  9.79        13.2 0.36            133            155 105 
 OCA  HZ EP       1837 43.52                             129   -0.19 9  161 353 
 OCA  HN ES       1838  4.68                             129   -0.94 9  161 353 
 OCA  HZ I        1838  9.78        20.2 0.22            131            161 353 
 SPBC HZ EP       1837 43.90                             128    0.14 9  162 219 
 SPBC HN ES       1838  5.69                             128   -0.02 9  162 219 
 SPBC HZ I        1838 10.90        39.4 0.22            130            162 219 
 ZAR  HZ EP       1837 48.65                             122    0.82 9  204 292 
 ZAR  HN ES       1838 12.78                             122   -0.16 9  204 292 
 ZAR  HZ I        1838 19.31        23.3 0.20            123            204 292 
 NOR  HZ EP       1837 51.15                             118    0.08 8  234 235 
 NOR  HN ES       1838 18.40                             118   -0.31 8  234 235 
 NOR  HZ I        1838 25.74        21.0 0.20            119            234 235 
 SML  HZ EP       1837 51.56                             117   -0.54 8  244 335 
 SML  HE ES       1838 19.98                             117   -0.57 8  244 335 
 SML  HZ I        1838 29.78        27.6 0.08            118            244 335 
 CHI  HZ EP       1837 53.05                             116    0.02 8  248 195 
 CHI  HN ES       1838 22.27                             116    0.06 8  248 195 
 CHI  HZ I        1838 30.07         9.5 0.48            118            248 195 
 ROSC BZ EP       1837 53.89                             116    0.43 8  252 211 
 ROSC BN ES       1838 21.98                             116   -0.98 8  252 211 
 ROSC HZ I        1838 29.35        19.7 0.40            118            252 211 
 HEL  HZ EP       1837 56.00                             114    0.40 8  272 256 
 HEL  HN ES       1838 26.35                             114   -0.42 8  272 256 
 HEL  HZ I        1838 34.55        14.0 0.28            115            272 256 
 GUY2CHZ EP       1837 59.66                             112    0.67 7  300 235 
 GUY2CHN ES       1838 32.65                             112   -0.15 7  300 235 
 GUY2CHZ I        1838 39.84         8.4 0.28                           300 235 
 RREF HZ EP       1838  1.76                             110    0.23 7  321 229 
 RREF HE ES       1838 36.80                             110   -0.53 7  321 229 
 RREF HZ I        1838 45.52        10.4 0.34            112            321 229 
 PRA  HZ EP       1838  9.45                             106    0.52 6  391 210 
 PRA  HN ES       1838 49.95                             106   -0.55 6  391 210 
 PRA  HZ I        1838 54.60         6.1 1.46            107            391 210 
 ORTC HZ EP       1838  9.56                             106    0.23 6  395 216 
                                                                                
