 2012  820 1006 37.5 L   6.796 -73.125149.6  RSN  6 0.4 1.5LRSN                1
 GAP=185        0.78       5.2     6.2  9.1  0.7572E+01  0.7985E+01 -0.1106E+01E
 Epicentro: LOS SANTOS - SANTANDER                                             3
 ACTION:UPD 12-09-10 11:57 OP:ep   STATUS:               ID:20120820100638dL   I
 2012-08-20-1000-00M.COL___217                                                 6
 STAT SP IPHASW D HRMM SECON CODA AMPLIT PERI AZIMU VELO AIN AR TRES W  DIS CAZ7
 BAR2 SZ EP   1   10 6 57.76                             171    0.17 7 23.4 196 
 BAR2 SZ ES   1   10 7 13.18                             171   -0.08 7 23.4 196 
 BAR2 SZ I        10 7 15.42         5.9 0.17                          23.4 196 
 BRR  HZ EP   1   10 6 59.44                             153    0.26 7 73.4 298 
 BRR  HZ I        10 6 59.69        13.6 0.13                          73.4 298 
 BRR  HN ES   2   10 7 16.83                             153    0.74 5 73.4 298 
 RUS  HZ EP   1   10 7  1.86                             145    0.27 7  100 177 
 RUS  HN ES   2   10 7 20.30                             145   -0.08 5  100 177 
 RUS  HZ I        10 7 21.40         2.2 0.30                           100 177 
 PTB  HZ EP   1   10 7  4.46                             132   -0.51 7  150 259 
 PTB  HN ES   1   10 7 25.81                             132   -0.59 7  150 259 
 PTB  HZ I        10 7 31.43         3.5 0.29                           150 259 
 OCA  HE ES   1   10 7 28.02                             130   -0.51 7  161 352 
 ZAR  HE ES   1   10 7 36.73                             123    0.62 6  206 292 
                                                                                
