 2017  420 1733  4.8 L   6.795 -73.162147.1  RSN  4 0.2 1.3LRSN                1
 GAP=135        0.60       3.3     2.9  6.5 -0.1494E+00  0.5998E+01 -0.2499E+00E
 Epicentro: LOS SANTOS - SANTANDER                                             3
 ACTION:UPD 17-05-30 21:14 OP:jn   STATUS:               ID:20170420173304 L   I
 OLDACT:UP  17-04-20 22:49 OP:dani STATUS:               ID:20170420172647     3
 OLDACT:REG 17-04-20 20:12 OP:dani STATUS:               ID:20170420172647     3
 2017-04-20-1728-00M.COL___371                                                 6
 STAT SP IPHASW D HRMM SECON CODA AMPLIT PERI AZIMU VELO AIN AR TRES W  DIS CAZ7
 PAM  EZ EP       1733 27.36                             150    0.0910 79.0  40 
 PAM  EN ES       1733 44.63                             150   -0.1510 79.0  40 
 PAM  EZ I        1733 45.19         3.9 0.34            157           79.0  40 
 RUS  HZ EP       1733 28.63                             144   -0.0310  100 175 
 RUS  HN ES       1733 47.48                             144    0.2110  100 175 
 RUS  HZ I        1733 49.33         2.0 0.28            146            100 175 
 PTB  HZ EP       1733 31.54                             133   -0.18 9  146 259 
 PTB  HN ES       1733 52.39                             133   -0.31 9  146 259 
 PTB  HZ I        1734  0.12         3.6 0.42            134            146 259 
 ZAR  HE ES       1734  2.86                             123    0.41 9  203 292 
                                                                                
