 2016  220 1055 26.1 L   6.800 -73.142148.9  RSN  5 0.3 1.4LRSN                1
 GAP=137        0.76       4.1     3.7  6.2 -0.1845E+00  0.7209E+01 -0.2447E+01E
 Epicentro: LOS SANTOS - SANTANDER                                             3
 ACTION:UPD 16-03-04 21:27 OP:rebc STATUS:               ID:20160220105526 L   I
 OLDACT:UP  16-02-20 21:55 OP:ak   STATUS:               ID:20160220104740d    3
 OLDACT:DUP 16-02-20 21:52 OP:ak   STATUS:               ID:20160220104740d    3
 2016-02-20-1047-39M.COL___321                                                 6
 STAT SP IPHASW D HRMM SECON CODA AMPLIT PERI AZIMU VELO AIN AR TRES W  DIS CAZ7
 BAR2 EZ EP       1055 46.06                             171    0.0010 23.4 191 
 BAR2 EZ ES       1056  1.72                             171    0.0610 23.4 191 
 BAR2 EZ I        1056  3.98         3.7 0.34            170           23.4 191 
 PAM  EZ EP       1055 48.36                             151   -0.2210 77.1  39 
 PAM  EN ES       1056  6.08                             151   -0.0710 77.1  39 
 PAM  EZ I        1056  8.26         3.0 0.58            155           77.1  39 
 RUS  HZ EP       1055 50.31                             144    0.2010  101 176 
 RUS  HE ES       1056  9.08                             144    0.2110  101 176 
 RUS  HZ I        1056  9.66         2.2 0.34            149            101 176 
 PTB  HZ EP       1055 53.09                             133   -0.22 9  148 259 
 PTB  HN ES       1056 14.00                             133   -0.57 9  148 259 
 PTB  HZ I        1056 21.53         5.4 0.38            133            148 259 
 ZAR  HZ EP   2   1055 59.26                             123    0.52 4  204 292 
 ZAR  HN ES       1056 24.83                             123    0.59 9  204 292 
 ZAR  HZ I        1056 30.35         4.0 0.25            124            204 292 
                                                                                
