 2014  920 1837 52.7 L   6.819 -73.154146.5  RSN 16 0.5 2.7LRSN                1
 GAP=135        1.16       2.7     4.6  5.6 -0.1123E+01  0.5825E+01  0.2609E+01E
 Epicentro: LOS SANTOS - SANTANDER                                             3
 ACTION:UPD 14-10-03 23:06 OP:nd   STATUS:               ID:20140920183752 L   I
 OLDACT:REG 14-09-20 22:31 OP:y    STATUS:               ID:20140920182819     3
 2014-09-20-1828-19M.COL___293                                                 6
 STAT SP IPHASW D HRMM SECON CODA AMPLIT PERI AZIMU VELO AIN AR TRES W  DIS CAZ7
 BAR2 SZ IP     C 1838 12.66                             170    0.1610 25.3 187 
 BAR2 SZ ES       1838 27.79                             170   -0.1210 25.3 187 
 BAR2 SZ I        1838 28.86        88.8 0.22            168           25.3 187 
 BRR  HZ IP     C 1838 14.57                             153    0.7010 69.4 297 
 BRR  HN ES       1838 31.54                             153    1.1910 69.4 297 
 BRR  HZ I        1838 36.41        51.8 0.16            150           69.4 297 
 PAM  SZ EP     D 1838 15.52                             151    0.5510 76.3  41 
 PAM  SN ES       1838 32.23                             151   -0.0810 76.3  41 
 PAM  SZ I        1838 34.81       116.0 0.46            155           76.3  41 
 RUS  HZ EP       1838 16.72                             143   -0.0110  103 176 
 RUS  HN ES       1838 35.25                             143   -0.1810  103 176 
 RUS  HZ I        1838 36.49        60.6 0.32            145            103 176 
 PTB  HZ EP       1838 19.25                             132   -0.48 9  147 258 
 PTB  HN ES       1838 40.02                             132   -0.76 9  147 258 
 PTB  HZ I        1838 42.50        44.5 0.58            131            147 258 
 OCA  HZ EP       1838 20.17                             130   -0.73 9  158 353 
 OCA  HN ES       1838 42.37                             130   -0.49 9  158 353 
 OCA  HZ I        1838 46.00        40.6 0.18            131            158 353 
 SPBC HN ES       1838 43.32                             129   -0.44 9  164 218 
 SPBC HZ I        1838 46.20        70.2 0.36            129            164 218 
 ZAR  HZ EP       1838 25.14                             123    0.07 9  202 292 
 ZAR  HN ES       1838 50.33                             123    0.05 9  202 292 
 ZAR  HZ I        1838 59.59        26.0 0.54            122            202 292 
 SML  HZ EP       1838 28.83                             118   -0.33 8  241 335 
 SML  HN ES       1838 57.45                             118   -0.11 8  241 335 
 SML  HZ I        1839  2.19        48.0 0.28            118            241 335 
 CHI  HZ EP       1838 30.83                             117    0.15 8  250 195 
 CHI  HN ES       1838 59.68                             117   -0.60 8  250 195 
 CHI  HZ I        1839  3.68        28.8 0.58            118            250 195 
 URE  HN ES   4   1839  4.76                             114   -0.83 0  282 292 
 GUY2CHZ EP   4   1838 36.72                             112    0.27 0  302 234 
 GUY2CHN ES   4   1839 14.00                             112    3.47 0  302 234 
 GUY2CHZ I        1839 16.88        18.4 0.34                           302 234 
 VIL  SZ EP       1838 36.38                             112   -0.03 7  305 191 
 VIL  SN ES       1839 10.44                             112   -0.03 7  305 191 
 VIL  SZ I        1839 13.40        37.1 0.46            113            305 191 
 CBOC HZ EP   4   1838 40.88                             110    1.21 0  333 252 
 CBOC HE ES   4   1839 16.03                             110   -0.24 0  333 252 
 CBOC HZ I        1839 22.93         6.1 0.36            110            333 252 
 TOL  SZ EP       1838 42.05                             109    0.92 7  344 224 
 TOL  SN ES       1839 18.79                             109   -0.09 7  344 224 
 TOL  SZ I        1839 26.25        46.1 0.52            110            344 224 
 PRA  HZ EP       1838 46.47                             107    0.01 6  393 209 
 PRA  HN ES       1839 28.53                             107    0.18 6  393 209 
 PRA  HZ I        1839 37.09        14.2 0.40            107            393 209 
 ORTC HZ EP       1838 46.97                             106    0.14 6  397 216 
 ORTC HN ES       1839 30.00                             106    0.98 6  397 216 
 ORTC HZ I        1839 34.05        14.1 0.32            107            397 216 
                                                                                
