 2016  620 1047 29.7 L   5.952 -73.766111.3  RSN  7 0.4 1.4LRSN                1
 GAP=156        0.99       5.0     3.6  9.5 -0.1562E+01  0.1545E+02 -0.7352E+01E
 Epicentro: BOLIVAR - SANTANDER                                                3
 ACTION:UPD 16-07-21 22:20 OP:rebc STATUS:               ID:20160620104729 L   I
 OLDACT:UP  16-06-20 20:56 OP:mh   STATUS:               ID:20160620103743     3
 OLDACT:REG 16-06-20 20:29 OP:mh   STATUS:               ID:20160620103743     3
 2016-06-20-1037-43M.COL___340                                                 6
 STAT SP IPHASW D HRMM SECON CODA AMPLIT PERI AZIMU VELO AIN AR TRES W  DIS CAZ7
 RUS  HZ EP   1   1047 47.90                             143   -0.36 7 75.9  95 
 RUS  HN ES       1048  2.27                             143   -0.4910 75.9  95 
 RUS  HZ I        1048  3.96         2.3 0.16                          75.9  95 
 BAR2 EZ EP       1047 49.98                             136    0.5010 95.9  42 
 BAR2 EZ ES       1048  5.33                             136    0.4110 95.9  42 
 BAR2 EZ I        1048  6.84        15.8 0.38                          95.9  42 
 PTB  HZ EP   1   1047 48.81                             135   -0.74 7  100 310 
 PTB  HN ES   1   1048  4.73                             135   -0.31 7  100 310 
 PTB  HZ I        1048  6.58         2.5 0.15                           100 310 
 BRR  HZ EP       1047 52.15                             127    0.0710  128   3 
 BRR  HN ES   1   1048  9.93                             127    0.39 7  128   3 
 BRR  HZ I        1048 24.54        10.1 0.26                           128   3 
 NOR  HZ EP   1   1047 53.02                             127    0.72 7  129 251 
 NOR  HN ES   1   1048 10.27                             127    0.32 7  129 251 
 NOR  HZ I        1048 11.60                                            129 251 
 HEL  HN ES       1048 23.45                             115    0.15 9  197 278 
 HEL  HZ I        1048 26.96         2.7 0.47                           197 278 
 ZAR  HZ EP       1048  0.19                             113   -0.48 8  209 325 
 ZAR  HN ES       1048 24.56                             113   -0.28 8  209 325 
 ZAR  HZ I        1048 25.39         2.7 0.28                           209 325 
                                                                                
