 2013  420 1458 12.8 L   6.760 -73.193146.4  RSN  5 0.2 1.7LRSN                1
 GAP=173        0.66       4.1     4.2  4.7  0.4650E+01  0.3379E+01  0.2979E+01E
 Epicentro: VILLANUEVA - SANTANDER                                             3
 ACTION:UPD 13-05-22 14:39 OP:EP   STATUS:               ID:20130420145812 L   I
 2013-04-20-1448-40M.COL___209                                                 6
 STAT SP IPHASW D HRMM SECON CODA AMPLIT PERI AZIMU VELO AIN AR TRES W  DIS CAZ7
 BAR2 SZ EP       1458 32.41                             172   -0.0410 18.5 176 
 BAR2 SZ ES       1458 47.30                             172   -0.4610 18.5 176 
 BAR2 SZ I        1458 48.83         9.3 0.16            170           18.5 176 
 GIR2 SZ EP       1458 32.36                             166   -0.3310 35.3 360 
 GIR2 SZ ES       1458 48.39                             166    0.2010 35.3 360 
 BRR  HZ EP       1458 34.10                             153    0.1710 69.1 304 
 BRR  HN ES       1458 50.64                             153    0.2510 69.1 304 
 BRR  HN I        1458 54.55        16.2 0.18            150           69.1 304 
 RUS  HZ EP       1458 36.55                             145    0.1910 96.6 173 
 RUS  HZ I        1458 37.51         2.9 0.18            146           96.6 173 
 RUS  HN ES       1458 54.92                             145    0.2010 96.6 173 
 PTB  HZ EP       1458 39.23                             133   -0.09 9  142 260 
 PTB  HN ES       1458 59.85                             133   -0.13 9  142 260 
 PTB  HN I        1459  5.36        16.7 0.38            131            142 260 
                                                                                
