 2014 1220 1433 35.9 L   6.790 -73.384124.8  RSN  5 0.4 1.4LRSN                1
 GAP= 97        1.09       7.1     6.0  9.1  0.1247E+02 -0.1194E+01  0.7246E+01E
 Epicentro: SAN VICENTE DE CHUCURI - SANTANDER                                 3
 ACTION:UPD 15-02-10 17:05 OP:nd   STATUS:               ID:20141220143335 L   I
 OLDACT:REG 14-12-20 20:49 OP:fm   STATUS:               ID:20141220142746     3
 2014-12-20-1427-46M.COL___305                                                 6
 STAT SP IPHASW D HRMM SECON CODA AMPLIT PERI AZIMU VELO AIN AR TRES W  DIS CAZ7
 BAR2 EZ EP       1433 53.71                             165    0.4810 31.2 134 
 BAR2 EZ ES       1434  7.06                             165    0.3210 31.2 134 
 BAR2 EZ I        1434  7.89        14.0 0.36            162           31.2 134 
 BRR  HN ES       1434  7.46                             156   -0.0310 50.4 314 
 PAM  SZ EP   1   1433 56.53                             140   -0.83 7 97.0  51 
 RUS  HZ EP       1433 58.46                             138    0.4810  105 161 
 RUS  HN ES       1434 14.61                             138   -0.5910  105 161 
 RUS  HZ I        1434 19.97         1.9 0.44            136            105 161 
 PTB  HZ EP   1   1433 58.86                             133    0.06 7  122 257 
 PTB  HN ES       1434 16.41                             133   -0.2510  122 257 
 PTB  HZ I        1434 21.31         6.7 0.36            131            122 257 
                                                                                
