 2012  620 1847 11.5 L   6.766 -73.135150.9  RSN  4 0.2 1.3LRSN                1
 GAP=236        0.50       5.5     5.1  5.1  0.1386E+02  0.3613E+01  0.3839E+00E
 Epicentro: LOS SANTOS - SANTANDER                                             3
 ACTION:UPD 12-08-06 17:51 OP:ep   STATUS:               ID:20120620184711 L   I
 2012-06-20-1839-41M.COL___185                                                 6
 STAT SP IPHASW D HRMM SECON CODA AMPLIT PERI AZIMU VELO AIN AR TRES W  DIS CAZ7
 BAR2 SZ EP   1   1847 31.73                             172    0.02 8 19.9 195 
 BAR2 SZ I        1847 32.38         6.9 0.13                          19.9 195 
 BAR2 SZ ES   1   1847 47.22                             172   -0.24 8 19.9 195 
 BRR  HZ EP   1   1847 33.82                             152    0.43 8 74.1 301 
 BRR  HN ES   1   1847 50.41                             152   -0.04 8 74.1 301 
 RUS  HZ EP   1   1847 35.32                             146   -0.20 8 96.8 177 
 RUS  HN ES   1   1847 54.50                             146    0.26 8 96.8 177 
 RUS  HZ I        1847 55.68         2.2 0.41                          96.8 177 
 PTB  HZ EP       1847 38.78                             133   -0.1910  148 260 
 PTB  HE ES   1   1848  0.43                             133    0.07 7  148 260 
 PTB  HZ I        1848  5.24         2.2 0.24                           148 260 
                                                                                
