 2017  420 1650  0.3 L   6.778 -73.128141.6  RSN  7 0.5 1.5LRSN                1
 GAP=114        1.09       5.0     4.6  6.7  0.5082E+01  0.4982E+01  0.2782E+01E
 Epicentro: LOS SANTOS - SANTANDER                                             3
 ACTION:UPD 17-05-30 21:14 OP:jn   STATUS:               ID:20170420165000 L   I
 OLDACT:UP  17-04-20 22:40 OP:dani STATUS:               ID:20170420164713     3
 OLDACT:UP  17-04-20 22:38 OP:dani STATUS:               ID:20170420164713     3
 OLDACT:REG 17-04-20 20:05 OP:dani STATUS:               ID:20170420164713     3
 2017-04-20-1648-00M.COL___364                                                 6
 STAT SP IPHASW D HRMM SECON CODA AMPLIT PERI AZIMU VELO AIN AR TRES W  DIS CAZ7
 BAR2 EZ ES       1650 34.33                             171    0.0610 21.4 196 
 BRR  HZ EP       1650 21.54                             151    0.3810 74.1 299 
 BRR  HN ES       1650 38.07                             151    0.6410 74.1 299 
 BRR  HZ I        1650 42.63        12.4 0.46            150           74.1 299 
 PAM  EZ EP       1650 22.39                             150    0.2910 78.0  37 
 PAM  EN ES       1650 38.31                             150   -0.8010 78.0  37 
 PAM  EZ I        1650 41.42         3.4 0.44            152           78.0  37 
 RUS  HZ EP       1650 23.61                             143    0.1610 98.1 177 
 RUS  HN ES       1650 41.61                             143    0.1010 98.1 177 
 RUS  HZ I        1650 42.71         2.3 0.27            146           98.1 177 
 PTB  HZ EP       1650 26.37                             131   -0.69 9  149 260 
 PTB  HN ES       1650 47.54                             131   -0.40 9  149 260 
 PTB  HZ I        1650 49.80         3.5 0.28            132            149 260 
 YPLC HZ EP       1650 29.80                             126    0.32 9  174 152 
 YPLC HN ES   3   1650 50.60                             126   -1.65 2  174 152 
 YPLC HZ I        1650 53.87         5.1 0.39            129            174 152 
 ZAR  HZ EP       1650 32.66                             121   -0.09 8  207 293 
 ZAR  HE ES       1650 58.09                             121    0.02 8  207 293 
 ZAR  HZ I        1651  3.81         3.3 0.26            122            207 293 
                                                                                
