 2017  220 1808 47.0 L   6.762 -73.472119.6  RSN  6 0.4 1.5LRSN                1
 GAP=101        1.06       4.9     4.6  7.6  0.6754E+01  0.1171E+02  0.2376E+01E
 Epicentro: EL CARMEN - SANTANDER                                              3
 ACTION:UPD 17-05-24 15:38 OP:jn   STATUS:               ID:20170220180847 L   I
 OLDACT:REG 17-02-21 00:49 OP:cog  STATUS:               ID:20170220180748     3
 2017-02-20-1808-00M.COL___373                                                 6
 STAT SP IPHASW D HRMM SECON CODA AMPLIT PERI AZIMU VELO AIN AR TRES W  DIS CAZ7
 BAR2 EZ EP       18 9  4.38                             162    0.4310 37.1 120 
 BAR2 EZ ES       18 9 17.03                             162   -0.1310 37.1 120 
 BAR2 EZ I        18 9 17.71         7.2 0.12            160           37.1 120 
 BRR  HZ EP       18 9  4.38                             157    0.3810 46.5 325 
 BRR  HN ES       18 9 17.38                             157    0.1410 46.5 325 
 BRR  HZ I        18 9 17.75        10.8 0.62            157           46.5 325 
 RUS  HZ EP       18 9  9.45                             136    0.7510  105 156 
 RUS  HN ES       18 9 25.13                             136   -0.4810  105 156 
 PAM  EZ EP       18 9  8.50                             136   -0.3010  107  53 
 PAM  EN ES       18 9 25.67                             136   -0.1210  107  53 
 PAM  EZ I        18 9 28.75         6.6 0.42            134            107  53 
 PTB  HZ EP       18 9  8.22                             134   -0.3710  112 257 
 PTB  HE ES   4   18 9 23.39                             134   -2.02 0  112 257 
 PTB  HZ I        18 9 24.04         7.4 0.16            136            112 257 
 ZAR  HZ EP       18 9 13.99                             121   -0.59 9  173 298 
 ZAR  HN ES       18 9 36.29                             121    0.21 9  173 298 
                                                                                
