 2011  520 1107  0.1 L   6.714 -73.304127.2  RSN 25 0.4 3.2LRSN                1
 GAP= 84        0.82       2.6     4.2  4.3 -0.4902E+01  0.6875E+01  0.1175E+01E
 Epicentro: GALAN - SANTANDER                                                  3
 ACTION:UP  11-06-29 08:54 OP:tino STATUS:               ID:20110520110700 L   I
 2011-05-20-1105-21S.COL___140                                                 6
 STAT SP IPHASW D HRMM SECON CODA AMPLIT PERI AZIMU VELO SNR AR TRES W  DIS CAZ7
 BAR2 SZ IP       11 7 17.41                             171     0.010   19 135 
 BAR2 SZ ES   1   11 7 30.70                             171    -0.2 7   19 135 
 BAR2 SZ I        11 7 32.03      1166.6 0.43                            19 135 
 BTL  SZ IP       11 7 17.67                             169     0.210   23  10 
 GIR2 SZ IP       11 7 18.14                             160     0.210   42  17 
 GIR2 SZ ES   1   11 7 31.80                             160    -0.1 7   42  17 
 BRR  HZ IP     C 11 7 18.59                             152    -0.210   63 314 
 BRR  HN ES   1   11 7 33.64                             152     0.3 7   63 314 
 BRR  HZ I        11 7 34.62       329.4 0.12                            63 314 
 RUS  HZ IP     D 11 7 21.31                             141    -0.310   94 165 
 RUS  HN ES   1   11 7 37.83                             141    -0.5 7   94 165 
 RUS  HZ I        11 7 39.78       144.8 0.26                            94 165 
 PAM  SZ EP       11 7 21.95                             141     0.210   96  44 
 PAM  SN ES   1   11 7 38.62                             141     0.0 7   96  44 
 BRI  SZ EP       11 7 24.02                             133     0.410  124  27 
 BRI  SZ ES   2   11 7 42.19                             133     0.2 5  124  27 
 GUE  SZ EP       11 7 24.27                             131    -0.110  130  19 
 GRA  SZ IP       11 7 25.56                             129     0.4 9  141  23 
 GRA  SZ ES   1   11 7 44.28                             129    -0.4 7  141  23 
 GRA  SZ I        11 7 47.10       128.7 0.39                           141  23 
 OCA  SZ EP       11 7 27.78                             123    -0.1 9  169 359 
 OCA  SZ ES   1   11 7 49.07                             123    -0.5 7  169 359 
 OCA  SZ I        11 7 54.18       167.0 0.37                           169 359 
 NOR  SZ EP   3   11 7 31.50                             116    -1.1 2  215 234 
 NOR  SN ES   3   11 7 56.79                             116    -1.2 2  215 234 
 ROSC BZ EP       11 7 35.88                             114     0.5 8  236 209 
 ROSC BZ I        11 8 11.81        95.3 0.38                           236 209 
 HEL  HZ EP       11 7 36.72                             112    -0.5 8  253 257 
 HEL  HZ I        11 8 10.21        78.6 0.36                           253 257 
 GUY  SZ EP       11 7 41.52                             110     0.6 7  284 235 
 GUY  SZ I        11 8 20.62       156.6 0.35                           284 235 
 VIL  SZ EP       11 7 41.69                             109     0.4 7  291 189 
 VIL  SN ES   2   11 8 13.10                             109    -0.3 4  291 189 
 RREF HZ EP       11 7 43.27                             108     0.0 7  302 229 
 RREF HZ I        11 8 24.61        98.0 0.30                           302 229 
 DBB  SZ EP       11 7 44.56                             107    -0.4 7  323 276 
 TOL  SZ EP       11 7 45.35                             107    -0.1 7  324 224 
 ANIL HZ EP   1   11 7 47.32                             106     0.3 5  338 224 
 ANIL HN ES   1   11 8 24.17                             106     0.6 5  338 224 
 ANIL HZ I        11 8 31.29       150.3 0.23                           338 224 
 MON  HZ EP   4   11 7 45.46                             105    -2.1 0  346 311 
 PRA  HZ EP       11 7 50.22                             104    -0.8 6  375 208 
 SDV  BZ EP   1   11 7 50.94                             104    -0.9 5  380  51 
 SJC  HZ EP   4   11 7 52.57                             102    -2.4 0  408 330 
 URI  HZ EP   2   11 8 13.50                              97    -0.9 2  570  15 
 PCON HZ EP   3   11 8 16.55                              97    -1.4 1  594 215 
 FLO2 HZ EP   3   11 8 21.54                              96     0.6 1  624 205 
 SOTA HZ EP   2   11 8 22.92                              96     1.3 1  625 216 
                                                                                
