 2017  320 1716 10.7 L   6.796 -73.155145.5  RSN  8 0.5 1.8LRSN                1
 GAP=148        1.05       4.7     4.8  7.8 -0.4075E+01  0.6644E+01  0.8313E+01E
 Epicentro: LOS SANTOS - SANTANDER                                             3
 ACTION:UPD 17-05-25 18:43 OP:jn   STATUS:               ID:20170320171610 L   I
 OLDACT:UP  17-03-21 01:43 OP:dnl  STATUS:               ID:20170320170745     3
 OLDACT:REG 17-03-20 22:12 OP:dnl  STATUS:               ID:20170320170745     3
 2017-03-20-1708-00M.COL___394                                                 6
 STAT SP IPHASW D HRMM SECON CODA AMPLIT PERI AZIMU VELO AIN AR TRES W  DIS CAZ7
 BAR2 EZ EP       1716 30.23                             171   -0.0410 22.7 188 
 BAR2 EZ ES       1716 45.33                             171   -0.2110 22.7 188 
 BAR2 EZ I        1716 46.73        10.6 0.56            170           22.7 188 
 BRR  HZ EP   2   1716 32.13                             153    0.36 5 70.6 299 
 BRR  HE ES       1716 49.04                             153    0.8310 70.6 299 
 PAM  EZ IP     D 1716 33.06                             150    0.1310 78.4  40 
 PAM  EN ES       1716 49.98                             150   -0.3010 78.4  40 
 PAM  EZ I        1716 52.14        13.6 0.52            152           78.4  40 
 PTB  HZ EP       1716 36.96                             132   -0.58 9  147 259 
 PTB  HN ES       1716 57.75                             132   -0.73 9  147 259 
 PTB  HZ I        1716 59.98         6.4 0.14            131            147 259 
 SPBC HZ EP   2   1716 39.07                             129   -0.00 5  162 219 
 SPBC HN ES       1717  1.08                             129   -0.13 9  162 219 
 SPBC HZ I        1717  4.94         7.9 0.16            129            162 219 
 ZAR  HZ EP   2   1716 43.26                             122    0.22 4  203 292 
 ZAR  HE ES       1717  8.55                             122    0.28 9  203 292 
 ZAR  HZ I        1717 14.37         4.8 0.44            122            203 292 
 CHI  HZ EP   2   1716 48.56                             117    0.26 4  248 195 
 CHI  HE ES       1717 18.39                             117    0.76 8  248 195 
 CHI  HZ I        1717 21.23         3.7 0.52            117            248 195 
 GUY2CHZ EP   4   1716 55.49                             112    1.33 0  300 235 
 GUY2CHN ES   4   1717 30.71                             112    2.64 0  300 235 
 GUY2CHZ  IAML    1717 35.75         3.1 0.60                           300 235 
                                                                                
