 2016 1220 1801 52.4 L   6.940 -73.146132.2  RSN  7 0.1 1.4LRSN                1
 GAP=128        0.32       2.4     1.5  2.2 -0.3927E+00  0.7674E+00 -0.7412E+00E
 Epicentro: PIEDECUESTA - SANTANDER                                            3
 ACTION:UPD 17-01-11 20:17 OP:rebc STATUS:               ID:20161220180152 L   I
 OLDACT:UP  16-12-21 00:59 OP:edw  STATUS:               ID:20161220175745     3
 OLDACT:UP  16-12-21 00:56 OP:edw  STATUS:               ID:20161220175745     3
 OLDACT:UP  16-12-21 00:55 OP:edw  STATUS:               ID:20161220175745     3
 OLDACT:REG 16-12-20 21:07 OP:edw  STATUS:               ID:20161220175745     3
 2016-12-20-1758-00M.COL___387                                                 6
 STAT SP IPHASW D HRMM SECON CODA AMPLIT PERI AZIMU VELO AIN AR TRES W  DIS CAZ7
 BAR2 EZ ES       18 2 25.28                             163    0.0910 38.7 186 
 BAR2 EZ I        18 2 29.97        14.7 0.30            161           38.7 186 
 BRR  HZ EP       18 2 11.55                             152   -0.1410 65.2 286 
 BRR  HE ES       18 2 26.76                             152   -0.0210 65.2 286 
 PAM  EZ EP       18 2 12.55                             152    0.0910 66.2  48 
 PAM  EN ES       18 2 28.05                             152   -0.0910 66.2  48 
 PAM  EZ I        18 2 30.36         2.5 0.16            155           66.2  48 
 RUS  HZ EP   2   18 2 16.06                             136    0.02 5  116 177 
 RUS  HN ES   4   18 2 32.11                             136   -2.41 0  116 177 
 PTB  HZ EP   9   18 2 16.72                             128   -1.89 0  151 253 
 PTB  HN ES       18 2 37.04                             128   -0.15 9  151 253 
 PTB  HZ I        18 2 39.89         2.5 0.11            130            151 253 
 ZAR  HZ EP       18 2 23.44                             120    0.06 9  199 288 
 ZAR  HE ES       18 2 47.66                             120    0.08 9  199 288 
 ZAR  HZ I        18 2 48.76         3.2 0.22            122            199 288 
 GUY2CHZ EP   2   18 2 36.47                             109    0.04 3  310 232 
 GUY2CHE ES   2   18 3 10.55                             109   -0.25 3  310 232 
 GUY2CHZ I        18 3 12.13         0.8 0.58                           310 232 
                                                                                
