 2017  220 1419 51.1 L   6.775 -73.166145.1  RSN  5 0.4 1.4LRSN                1
 GAP=135        0.96       5.1     5.0  7.2 -0.2555E+01  0.5184E+01  0.1034E+01E
 Epicentro: LOS SANTOS - SANTANDER                                             3
 ACTION:UPD 17-05-24 15:38 OP:jn   STATUS:               ID:20170220141951 L   I
 OLDACT:UP  17-02-20 23:42 OP:cog  STATUS:               ID:20170220141135d    3
 OLDACT:DUP 17-02-20 23:37 OP:cog  STATUS:               ID:20170220141135d    3
 2017-02-20-1418-00M.COL___364                                                 6
 STAT SP IPHASW D HRMM SECON CODA AMPLIT PERI AZIMU VELO AIN AR TRES W  DIS CAZ7
 BAR2 EZ ES       1420 25.81                             172    0.0410 20.3 185 
 BAR2 EZ I        1420 28.25         5.7 0.50            172           20.3 185 
 BRR  HZ EP       1420 12.52                             153    0.4010 70.6 301 
 BRR  HN ES       1420 29.04                             153    0.5110 70.6 301 
 BRR  HZ I        1420 29.86         6.9 0.21            154           70.6 301 
 PAM  EZ EP       1420 13.46                             150    0.0310 81.0  40 
 PAM  EN ES       1420 30.41                             150   -0.4710 81.0  40 
 PAM  EZ I        1420 32.63         4.9 0.60            152           81.0  40 
 RUS  HZ EP       1420 14.41                             144   -0.1610 98.0 175 
 RUS  HN ES       1420 33.11                             144    0.2110 98.0 175 
 RUS  HZ I        1420 34.31         6.6 0.38            146           98.0 175 
 PTB  HZ EP       1420 17.80                             132    0.07 9  145 260 
 PTB  HN ES       1420 37.83                             132   -0.70 9  145 260 
 PTB  HZ I        1420 41.24         2.3 0.40            134            145 260 
                                                                                
