 2010  420 1736 40.1 L   6.788 -73.033147.2  RSN  8 0.4 2.1LRSN                1
 GAP=209        0.81       4.3     8.4  6.0 -0.5265E+01  0.1027E+01  0.7142E+01E
 Epicentro: CEPITA - SANTANDER                                                 3
 ACTION:UPD 10-08-24 10:00 OP:vdl  STATUS:               ID:20100420173649 L   I
 2010-04-20-1732-41S.COL___100                                                 6
 STAT SP IPHASW D HRMM SECON CODA AMPLIT PERI AZIMU VELO AIN AR TRES W  DIS CAZ7
 BAR2 SZ EP       1736 59.81                             169    -0.110   27 218 
 BAR2 SZ ES   1   1737 15.18                             169    -0.3 7   27 218 
 BRR  HZ EP       1737  2.20                             149     0.110   83 295 
 BRR  HN ES       1737 19.27                             149     0.010   83 295 
 OCA  SZ EP       1737  9.08                             129     0.3 9  164 349 
 OCA  SZ ES   1   1737 31.25                             129     0.0 7  164 349 
 CHI  HZ EP   1   1737 17.42                             117    -0.7 6  251 198 
 CHI  HZ I        1737 19.89         5.9 0.11                           251 198 
 CHI  HE ES   2   1737 48.40                             117     0.7 4  251 198 
 HEL  HN ES   3   1737 53.07                             114    -1.0 2  284 257 
 HEL  HZ I        1737 58.79         9.6 0.92                           284 257 
 RREF BZ EP       1737 27.87                             110     0.6 7  330 231 
 RREF BN ES   2   1738  4.66                             110     0.6 3  330 231 
 RREF BZ I        1738 11.79         5.9 0.75                           330 231 
 DBB  SZ EP       1737 28.20                             109    -0.8 6  352 274 
 PRA  HZ EP       1737 34.47                             106     0.2 6  397 211 
                                                                                
