 2011  920 1245 56.1 L   6.808 -73.114148.3  RSN 14 0.4 2.5LRSN                1
 GAP=117        0.92       3.5     5.6  5.9  0.1637E+01  0.6825E+01  0.1619E+01E
 Epicentro: LOS SANTOS - SANTANDER                                             3
 ACTION:UPD 12-07-13 15:58 OP:ep   STATUS:               ID:20110920124556 L   I
 2011-09-20-1240-00M.COL___167                                                 6
 STAT SP IPHASW D HRMM SECON CODA AMPLIT PERI AZIMU VELO AIN AR TRES W  DIS CAZ7
 BAR2 SZ IP       1246 16.08                             170    0.0010 25.0 198 
 BAR2 SZ ES   1   1246 30.78                             170   -0.88 7 25.0 198 
 BAR2 SZ I        1246 33.88        47.9 0.42                          25.0 198 
 GIR2 SZ EP       1246 16.13                             168    0.0510 31.2 344 
 BRR  HZ EP       1246 17.99                             152    0.3110 73.9 297 
 BRR  HZ I        1246 19.54        55.4 0.10                          73.9 297 
 BRR  HN ES   1   1246 35.40                             152    0.89 7 73.9 297 
 PAM  SZ EP       1246 18.96                             152    0.5310 74.5  38 
 PAM  SN ES   3   1246 35.88                             152    0.04 2 74.5  38 
 RUS  HZ EP       1246 19.87                             144   -0.2910  101 178 
 RUS  HN ES   1   1246 38.93                             144    0.01 7  101 178 
 BRI  SZ EP   3   1246 20.63                             143    0.54 2  106  19 
 OCA  SZ EP       1246 24.05                             130   -0.52 9  160 352 
 OCA  SZ ES   1   1246 46.65                             130   -0.13 7  160 352 
 OCA  SZ I        1246 50.82        37.0 0.30                           160 352 
 YOP  SZ EP       1246 26.64                             127    0.38 9  178 154 
 ZAR  HZ EP       1246 28.48                             123   -0.54 8  207 292 
 ZAR  HN ES   2   1246 54.44                             123   -0.25 4  207 292 
 ZAR  HZ I        1247  0.55        29.7 0.54                           207 292 
 NOR  SZ EP       1246 32.12                             119   -0.22 8  238 235 
 CHI  HZ EP       1246 34.07                             117   -0.07 8  250 196 
 CHI  HE ES   2   1247  3.10                             117   -0.71 4  250 196 
 CHI  HZ I        1247 13.46         8.7 0.48                           250 196 
 HEL  HZ EP       1246 37.33                             115    0.48 7  276 256 
 HEL  HZ I        1247 15.18        15.0 0.36                           276 256 
 GUY  SZ EP       1246 40.87                             112    0.39 7  307 235 
 GUY  SZ I        1247 22.47        29.0 0.30                           307 235 
 COD  HZ EP       1246 44.06                             109   -0.46 6  348 354 
 COD  HZ I        1247 31.01        14.2 0.80                           348 354 
                                                                                
