 2016  420 1750 42.5 L   6.819 -73.186142.0  RSN  7 0.4 1.8LRSN                1
 GAP=136        0.51       5.0     4.6  5.5 -0.3957E+01  0.8992E+01  0.6017E+00E
 Epicentro: ZAPATOCA - SANTANDER                                               3
 ACTION:UPD 16-05-05 14:22 OP:rebc STATUS:               ID:20160420175042 L   I
 OLDACT:DUP 16-04-21 22:59 OP:dnl  STATUS:               ID:20160420174748d    3
 2016-04-20-1747-47M.COL___298                                                 6
 STAT SP IPHASW D HRMM SECON CODA AMPLIT PERI AZIMU VELO AIN AR TRES W  DIS CAZ7
 BAR2 EZ EP       1751  1.59                             170   -0.1510 25.1 179 
 BAR2 EZ ES       1751 16.88                             170    0.1510 25.1 179 
 BAR2 EZ I        1751 18.24        12.8 0.14            166           25.1 179 
 PAM  EZ EP   2   1751  4.61                             150    0.18 5 78.8  43 
 PTB  HZ EP   2   1751  8.72                             132   -0.11 5  144 258 
 PTB  HE ES   2   1751 28.93                             132   -0.41 5  144 258 
 PTB  HZ I        1751 31.45         5.9 0.16            131            144 258 
 SPBC HZ EP   2   1751 10.51                             129   -0.12 5  162 217 
 SPBC HE ES   2   1751 32.97                             129    0.42 5  162 217 
 SPBC HZ I        1751 37.02         8.8 0.08            128            162 217 
 ZAR  HZ EP   4   1751 16.72                             122    2.50 0  199 292 
 ZAR  HE ES   2   1751 38.76                             122   -0.17 4  199 292 
 ZAR  HZ I        1751 41.75         4.1 0.08            123            199 292 
 CHI  HZ EP   3   1751 19.69                             116   -0.42 2  250 194 
 CHI  HN ES   2   1751 48.61                             116   -0.82 4  250 194 
 CHI  HZ I        1751 52.67         3.7 0.48            117            250 194 
 GUY2CHZ EP   2   1751 26.36                             112    0.67 4  299 234 
 GUY2CHN ES   2   1752  0.05                             112    0.70 4  299 234 
 GUY2CHZ I        1752  7.84         3.8 0.38                           299 234 
                                                                                
