 2017 1020 1803  3.9 L   6.720 -73.182140.0  RSN  7 0.3 1.6LRSN                1
 GAP=111        0.92       5.3     4.6  6.0  0.1199E+02 -0.1624E+01 -0.4039E+01E
 Epicentro: VILLANUEVA - SANTANDER                                             3
 ACTION:UPD 17-11-07 19:34 OP:rebc STATUS:               ID:20171020180303 L   I
 OLDACT:UP  17-10-21 01:06 OP:edw  STATUS:               ID:20171020175722     3
 OLDACT:REG 17-10-20 20:30 OP:edw  STATUS:               ID:20171020175722     3
 2017-10-20-1758-00M.COL___459                                                 6
 STAT SP IPHASW D HRMM SECON CODA AMPLIT PERI AZIMU VELO AIN AR TRES W  DIS CAZ7
 BAR2 EZ EP       18 3 22.45                             174   -0.2210 14.1 180 
 BAR2 EZ ES       18 3 37.21                             174   -0.1110 14.1 180 
 BAR2 EZ I        18 3 38.51        16.7 0.24            170           14.1 180 
 BRR  HZ EP       18 3 24.44                             151   -0.0510 72.5 306 
 BRR  HN ES       18 3 41.20                             151    0.6310 72.5 306 
 PAM  EZ EP       18 3 25.56                             147   -0.5410 86.8  38 
 RUS  HZ EP       18 3 26.77                             145    0.3010 92.1 173 
 RUS  HN ES       18 3 44.11                             145    0.0310 92.1 173 
 RUS  HZ I        18 3 46.15         5.2 0.26            144           92.1 173 
 PTB  HZ EP       18 3 29.83                             132   -0.06 9  142 262 
 PTB  HN ES       18 3 49.54                             132   -0.63 9  142 262 
 PTB  HZ I        18 3 55.61         2.8 0.10            130            142 262 
 YPLC HZ EP     D 18 3 33.00                             126    0.29 9  171 149 
 ZAR  HZ EP       18 3 36.27                             121    0.32 9  204 295 
 ZAR  HN ES       18 4  1.07                             121    0.12 9  204 295 
 ZAR  HZ I        18 4  3.70         3.9 0.16            121            204 295 
                                                                                
