 2015 1020 1648 45.1 L   6.520 -73.533114.0  RSN 11 0.4 2.1LRSN                1
 GAP=108        1.06       2.8     4.0  6.5 -0.2477E+01  0.1080E+02 -0.1438E+01E
 Epicentro: EL CARMEN - SANTANDER                                              3
 ACTION:UPD 15-12-22 20:41 OP:cam  STATUS:               ID:20151020164846dL   I
 OLDACT:REG 15-10-20 21:28 OP:cara STATUS:               ID:20151020164748     3
 2015-10-20-1647-48M.COL___337                                                 6
 STAT SP IPHASW D HRMM SECON CODA AMPLIT PERI AZIMU VELO AIN AR TRES W  DIS CAZ7
 BAR2 EZ EP       1649  1.76                             160    0.2410 39.6  78 
 BAR2 EZ ES       1649 13.96                             160   -0.3410 39.6  78 
 BAR2 EZ I        1649 15.82        72.3 0.40            165           39.6  78 
 BRR  HZ EP       1649  2.60                             147   -0.1410 67.9 343 
 BRR  HN ES       1649 16.88                             147    0.4210 67.9 343 
 BRR  HZ I        1649 23.19        18.8 0.12            148           67.9 343 
 SPBC HZ EP       1649  7.19                             132    0.7210  113 212 
 SPBC HN ES       1649 22.68                             132   -0.4210  113 212 
 SPBC HZ I        1649 26.84        37.4 0.20            137            113 212 
 PAM  EZ EP       1649  8.39                             128   -0.1310  129  45 
 PAM  EN ES   4   1649 25.65                             128   -1.11 0  129  45 
 PAM  EZ I        1649 29.46         5.9 0.46            133            129  45 
 ZAR  HZ EP       1649 13.83                             117    0.55 9  182 306 
 ZAR  HN ES       1649 35.69                             117    0.46 9  182 306 
 ZAR  HZ I        1649 37.96        22.7 0.56            121            182 306 
 NOR  HZ EP       1649 13.85                             117    0.49 9  182 235 
 NOR  HN ES       1649 34.93                             117   -0.44 9  182 235 
 NOR  HZ I        1649 38.94        16.1 0.16            122            182 235 
 CHI  HZ EP   4   1649 18.07                             114    1.13 0  210 186 
 CHI  HN ES       1649 41.55                             114   -0.19 8  210 186 
 HEL  HZ EP       1649 18.65                             112    0.24 8  224 261 
 HEL  HN ES       1649 44.54                             112    0.18 8  224 261 
 HEL  HZ I        1649 48.79         9.4 0.44            116            224 261 
 GUY2CHZ EP       1649 21.54                             110    0.20 8  248 235 
 GUY2CHN ES       1649 48.90                             110   -0.68 8  248 235 
 GUY2CHZ I        1650  1.62         7.7 0.68                           248 235 
 SML  HZ EP       1649 21.42                             108   -0.57 8  259 347 
 SML  HE ES       1649 50.14                             108   -0.58 8  259 347 
 SML  HZ I        1649 55.88        18.2 0.10            112            259 347 
 MON  HZ EP   4   1649 30.54                             103   -1.31 0  343 317 
 MON  HN ES       1650  7.48                             103   -0.80 7  343 317 
 MON  HZ I        1650  8.91         3.6 0.24            106            343 317 
                                                                                
