 2017  720 1933 51.1 L   6.833 -73.311115.9  RSN  6 0.3 1.4LRSN                1
 GAP=106        1.03       4.8     6.1  7.8  0.2777E+00 -0.1134E+02  0.1116E+01E
 Epicentro: ZAPATOCA - SANTANDER                                               3
 ACTION:UPD 17-08-30 15:35 OP:rebc STATUS:               ID:20170720193351 L   I
 OLDACT:REG 17-07-20 20:17 OP:lv   STATUS:               ID:20170720191420     3
 2017-07-20-1928-00M.COL___398                                                 6
 STAT SP IPHASW D HRMM SECON CODA AMPLIT PERI AZIMU VELO AIN AR TRES W  DIS CAZ7
 BAR2 EZ EP     C 1934  7.31                             164   -0.0710 30.2 152 
 BAR2 EZ ES       1934 19.91                             164   -0.1510 30.2 152 
 BRR  HZ EP       1934  7.73                             154   -0.3310 53.7 304 
 BRR  HN ES       1934 21.67                             154    0.4010 53.7 304 
 PAM  EZ EP       1934 11.21                             140    0.1710 87.7  50 
 PAM  EN ES       1934 26.46                             140   -0.1010 87.7  50 
 PAM  EZ I        1934 28.07         4.3 0.20            142           87.7  50 
 RUS  HZ EP       1934 12.22                             134   -0.4110  107 166 
 RUS  HE ES       1934 29.89                             134    0.4910  107 166 
 PTB  HZ EP   9   1934 12.67                             128   -1.50 0  131 256 
 PTB  HN ES       1934 29.75                                   -0.8910  131 256 
 PTB  HZ I        1934 34.82         4.7 0.14            128            131 256 
 ZAR  HE ES   3   1934 42.24                             118    0.03 2  186 293 
                                                                                
