 2012  820 1327 21.8 L   6.728 -73.172149.9  RSN  4 0.3 1.6LRSN                1
 GAP=229        0.62       5.8     5.2  6.5  0.1441E+02  0.2484E+01 -0.3425E+01E
 Epicentro: VILLANUEVA - SANTANDER                                             3
 ACTION:UPD 12-09-10 11:57 OP:ep   STATUS:               ID:20120820132721 L   I
 2012-08-20-1320-00M.COL___217                                                 6
 STAT SP IPHASW D HRMM SECON CODA AMPLIT PERI AZIMU VELO AIN AR TRES W  DIS CAZ7
 BAR2 SZ EP   1   1327 41.56                             174   -0.22 7 15.1 184 
 BAR2 SZ ES   1   1327 56.94                             174   -0.43 7 15.1 184 
 BAR2 SZ I        1327 59.45        14.0 0.26                          15.1 184 
 BRR  HZ EP   1   1327 43.33                             153   -0.14 7 72.9 305 
 BRR  HZ I        1327 51.46         4.3 0.19                          72.9 305 
 BRR  HN ES   1   1328  0.92                             153    0.53 7 72.9 305 
 RUS  HZ EP   1   1327 45.76                             147    0.34 7 92.9 174 
 RUS  HN ES       1328  3.95                             147    0.1010 92.9 174 
 RUS  HZ I        1328  6.39         2.6 0.22                          92.9 174 
 PTB  HZ EP   1   1327 48.62                             134   -0.10 7  144 262 
 PTB  HN ES       1328  9.62                             134   -0.10 9  144 262 
 PTB  HZ I        1328 10.01        14.4 0.68                           144 262 
                                                                                
