 2010  220 1229 12.8 L   6.797 -73.023126.3  RSN  5 0.3 1.9LRSN                1
 GAP=195        0.58       5.4    12.5  9.3  0.3992E+02 -0.6148E+02 -0.2511E+02E
 Epicentro: CEPITA - SANTANDER                                                 3
 ACTION:UP  10-08-24 09:49 OP:vdl  STATUS:               ID:20100220122912 L   I
 2010-02-20-1228-34S.COL___094                                                 6
 STAT SP IPHASW D HRMM SECON CODA AMPLIT PERI AZIMU VELO SNR AR TRES W  DIS CAZ7
 BAR2 SZ EP       1229 30.59                             168     0.410   29 218 
 BAR2 SZ ES   2   1229 44.05                             168     0.2 5   29 218 
 GIR2 SZ EP   3   1229 29.78                             163    -0.6 2   36 329 
 BRR  HZ EP       1229 32.65                             146    -0.110   84 294 
 BRR  HZ I        1229 37.00        11.2 0.19                            84 294 
 BRR  HN ES   2   1229 48.08                             146    -0.2 5   84 294 
 RUS  BZ EP       1229 34.39                             141    -0.310  100 184 
 RUS  BN ES   3   1229 51.33                             141    -0.4 2  100 184 
 OCA  SZ EP       1229 39.99                             125     0.1 9  163 348 
 OCA  SZ ES   3   1230  0.10                             125    -1.0 2  163 348 
 OCA  SZ I        1230  3.94        12.1 0.16                           163 348 
                                                                                
