 2013  320 1005 18.0 L   6.804 -73.143140.0  RSN  9 0.5 2.1LRSN                1
 GAP=137        1.13       4.7     5.1  8.7 -0.1616E+00  0.1478E+02  0.5594E+01E
 Epicentro: LOS SANTOS - SANTANDER                                             3
 ACTION:UPD 13-04-09 14:03 OP:ep   STATUS:               ID:20130320100519dL   I
 2013-03-20-1000-00M.COL___241                                                 6
 STAT SP IPHASW D HRMM SECON CODA AMPLIT PERI AZIMU VELO AIN AR TRES W  DIS CAZ7
 BAR2 SZ EP       10 5 36.97                             170    0.0010 23.8 191 
 BAR2 SZ ES   1   10 5 51.15                             170   -0.60 7 23.8 191 
 BAR2 SZ I        10 5 53.09        20.4 0.20            170           23.8 191 
 BRR  HZ EP     C 10 5 38.83                             151    0.2710 71.3 298 
 BRR  HN ES   1   10 5 55.38                             151    0.81 7 71.3 298 
 BRR  HN I        10 5 58.55        27.0 0.18            147           71.3 298 
 PAM  SZ EP       10 5 39.94                             150    0.3410 76.9  40 
 PAM  SN ES       10 5 56.72                             150    0.3010 76.9  40 
 PAM  SN I        10 5 57.56        31.0 0.48            152           76.9  40 
 RUS  HZ EP       10 5 41.43                             142    0.1910  101 176 
 RUS  HN ES   1   10 5 58.87                             142   -0.48 7  101 176 
 PTB  HZ EP       10 5 43.68                             131   -0.89 9  148 259 
 PTB  HN ES   1   10 6  5.74                             131    0.48 7  148 259 
 PTB  HN I        10 6  6.79        13.0 0.18            129            148 259 
 OCA  HN ES       10 6  6.75                             128   -0.82 9  160 353 
 OCA  HN I        10 6 11.21        29.0 0.20            128            160 353 
 ZAR  HZ EP   1   10 5 50.19                             121    0.07 6  204 292 
 ZAR  HN IS       10 6 15.41                             121    0.27 9  204 292 
 ZAR  HN I        10 6 24.75        10.0 0.12            120            204 292 
 HEL  HN ES   1   10 6 28.85                             114   -0.32 6  272 256 
 HEL  HN I        10 6 35.90         3.4 0.54            114            272 256 
 PRA  HZ EP   1   10 6 12.26                             106    0.85 4  393 210 
                                                                                
