 2013  220 1229 55.9 L   6.788 -73.158143.3  RSN  7 0.5 1.9LRSN                1
 GAP=136        0.86       5.2     5.9  7.8  0.9259E+01  0.2173E+01  0.4381E+01E
 Epicentro: LOS SANTOS - SANTANDER                                             3
 ACTION:UPD 13-03-12 09:34 OP:ep   STATUS:               ID:20130220122955 L   I
 2013-02-20-1230-00M.COL___241                                                 6
 STAT SP IPHASW D HRMM SECON CODA AMPLIT PERI AZIMU VELO AIN AR TRES W  DIS CAZ7
 BAR2 SZ EP   1   1230 15.16                             171   -0.07 7 21.8 187 
 BAR2 SZ ES   1   1230 30.29                             171    0.00 7 21.8 187 
 BAR2 SZ I        1230 31.58        27.2 0.20            163           21.8 187 
 BRR  HZ EP   1   1230 17.11                             152    0.33 7 70.6 300 
 BRR  HN ES   1   1230 33.49                             152    0.45 7 70.6 300 
 BRR  HZ I        1230 34.71        12.7 0.24            150           70.6 300 
 PAM  SZ EP   1   1230 18.07                             150    0.07 7 79.3  40 
 RUS  HZ EP   1   1230 19.25                             144   -0.10 7 99.4 175 
 RUS  HN ES   1   1230 37.13                             144   -0.49 7 99.4 175 
 RUS  HZ I        1230 39.71         6.3 0.36            140           99.4 175 
 PTB  HZ EP   1   1230 21.78                             132   -0.77 7  146 259 
 PTB  HN ES   1   1230 42.78                             132   -0.53 7  146 259 
 PTB  HZ I        1230 48.56         9.4 0.14            129            146 259 
 ZAR  HN ES   1   1230 53.54                             122    0.28 6  203 293 
 CHI  HZ EP   1   1230 33.45                             117    0.13 6  247 195 
 CHI  HN ES   1   1231  3.54                             117    1.07 6  247 195 
 CHI  HZ I        1231  9.51         5.7 0.86            116            247 195 
                                                                                
