 2010 1120 1633  1.9 L   6.782 -73.058138.2  RSN  8 0.4 2.0LRSN                1
 GAP=169        0.93       4.2     6.3  6.9 -0.1014E+02 -0.2611E+01  0.2852E+01E
 Epicentro: LOS SANTOS - SANTANDER                                             3
 ACTION:UP  10-12-17 16:53 OP:REBC STATUS:               ID:20101120163301 L   I
 2010-11-20-1629-09S.COL___132                                                 6
 STAT SP IPHASW D HRMM SECON CODA AMPLIT PERI AZIMU VELO SNR AR TRES W  DIS CAZ7
 BAR2 SZ EP       1633 20.82                             169     0.110   25 213 
 BAR2 SZ ES   1   1633 35.04                             169    -0.3 7   25 213 
 BAR2 SZ I        1633 36.97        32.3 0.50                            25 213 
 GIR2 SZ EP       1633 20.95                             165     0.110   36 335 
 GIR2 SZ ES   2   1633 36.28                             165     0.7 5   36 335 
 BRR  HZ EP       1633 22.69                             148    -0.210   81 296 
 BRR  HZ I        1633 23.14        55.7 0.14                            81 296 
 BRR  HN ES       1633 39.58                             148     0.410   81 296 
 RUS  HZ EP       1633 24.79                             143     0.010   98 182 
 RUS  HZ I        1633 25.89        10.5 0.26                            98 182 
 RUS  HN ES   2   1633 42.32                             143    -0.3 5   98 182 
 GRA  SZ EP       1633 26.77                             135     0.310  125  13 
 GRA  SZ ES   2   1633 44.43                             135    -1.1 5  125  13 
 GRA  SZ I        1633 48.54        20.3 0.27                           125  13 
 OCA  SZ EP       1633 29.82                             127    -0.2 9  164 350 
 OCA  SZ ES   1   1633 51.74                             127    -0.1 7  164 350 
 OCA  SZ I        1633 54.43        13.5 0.65                           164 350 
 NOR  SN ES       1634  5.43                             116    -0.7 8  242 236 
 NOR  SZ I        1634  7.11         1.9 0.70                           242 236 
 RREF HZ EP   1   1633 48.60                             109     0.1 5  328 231 
 RREF HN ES   1   1634 25.19                             109     0.4 5  328 231 
 RREF HZ I        1634 28.92         6.7 1.87                           328 231 
                                                                                
