 2015  720 1600  8.0 L   6.416 -73.610104.4  RSN  9 0.4 2.0LRSN                1
 GAP=101        0.85       2.6     3.2  7.0 -0.2762E+01  0.1460E+02 -0.5925E+01E
 Epicentro: SANTA HELENA DEL OPON - SANTANDER                                  3
 ACTION:UPD 15-09-08 21:49 OP:cam  STATUS:               ID:20150720160008 L   I
 OLDACT:UP  15-07-21 00:29 OP:ak   STATUS:               ID:20150720155749     3
 OLDACT:UP  15-07-21 00:28 OP:ak   STATUS:               ID:20150720155749     3
 OLDACT:UP  15-07-21 00:26 OP:ak   STATUS:               ID:20150720155749     3
 OLDACT:REG 15-07-20 22:32 OP:ak   STATUS:               ID:20150720155749     3
 2015-07-20-1557-49M.COL___337                                                 6
 STAT SP IPHASW D HRMM SECON CODA AMPLIT PERI AZIMU VELO AIN AR TRES W  DIS CAZ7
 BAR2 EZ IP     C 16 0 24.18                             152    0.3110 51.1  68 
 BAR2 EZ ES       16 0 36.29                             152    0.0210 51.1  68 
 BAR2 EZ I        16 0 37.87        65.3 0.16            158           51.1  68 
 RUS  HZ EP       16 0 26.40                             139    0.0110 82.2 135 
 RUS  HN ES       16 0 40.33                             139   -0.4110 82.2 135 
 RUS  HZ I        16 0 42.06        17.9 0.22            146           82.2 135 
 PAM  EZ EP   1   16 0 32.94                             122    0.84 7  143  45 
 PAM  EN ES       16 0 50.98                             122    0.06 9  143  45 
 PAM  EZ I        16 0 51.94        10.1 0.17            127            143  45 
 NOR  HZ EP       16 0 33.85                             117   -0.35 9  168 236 
 NOR  HE ES   4   16 0 52.89                             117   -1.76 0  168 236 
 NOR  HZ I        16 0 56.34        16.1 0.18            120            168 236 
 ZAR  HZ EP       16 0 35.29                             114   -0.38 9  182 311 
 ZAR  HE ES       16 0 57.66                             114    0.40 9  182 311 
 ZAR  HZ I        16 1  1.49        24.5 0.19            118            182 311 
 OCA  HZ EP       16 0 38.07                             112   -0.24 9  204   9 
 OCA  HE ES       16 1  2.24                             112    0.27 9  204   9 
 HEL  HZ EP       16 0 39.78                             111    0.09 8  214 263 
 HEL  HN ES       16 1  4.33                             111   -0.09 8  214 263 
 HEL  HZ I        16 1  8.26         5.3 0.20            114            214 263 
 GUY2CHZ EP       16 0 42.77                             108    0.52 8  235 236 
 GUY2CHN ES       16 1  9.09                             108    0.12 8  235 236 
 GUY2CHZ I        16 1 13.59         6.2 0.43                           235 236 
 SML  HZ EP   1   16 0 45.04                             105   -0.55 6  269 349 
 SML  HE ES       16 1 14.22                             105   -0.70 8  269 349 
                                                                                
