 2011  920 1914 21.5 L   6.796 -73.140145.9  RSN 12 0.5 2.6LRSN                1
 GAP=114        0.71       2.9     4.4  4.8 -0.1636E+01  0.2039E+01  0.1936E+01E
 Epicentro: LOS SANTOS - SANTANDER                                             3
 ACTION:UPD 12-07-13 15:58 OP:ep   STATUS:               ID:20110920191421 L   I
 2011-09-20-1913-03S.COL___165                                                 6
 STAT SP IPHASW D HRMM SECON CODA AMPLIT PERI AZIMU VELO AIN AR TRES W  DIS CAZ7
 BAR2 SZ IP       1914 41.15                             171    0.0410 23.0 192 
 BAR2 SZ ES   1   1914 56.03                             171   -0.41 7 23.0 192 
 BAR2 SZ I        1914 57.54        85.5 0.14                          23.0 192 
 BRR  HZ IP     C 1914 42.91                             152    0.2310 72.0 299 
 BRR  HN ES   1   1914 59.84                             152    0.61 7 72.0 299 
 BRR  HZ I        1915  3.57        63.0 0.12                          72.0 299 
 PAM  SZ EP       1914 43.97                             151    0.2710 77.3  39 
 PAM  SN ES   2   1915  0.40                             151   -0.64 5 77.3  39 
 RUS  HZ EP       1914 44.88                             144   -0.3210  100 176 
 RUS  HN ES   1   1915  3.65                             144   -0.06 7  100 176 
 OCA  SZ EP       1914 50.03                             129    0.19 9  161 353 
 OCA  SZ I        1915 16.24        50.2 0.47                           161 353 
 YOP  SZ EP       1914 51.56                             126    0.10 9  178 153 
 ZAR  HZ EP   2   1914 53.02                             122   -0.98 4  205 292 
 ZAR  HE ES   3   1915 18.57                             122   -0.81 2  205 292 
 NOR  SZ EP       1914 57.21                             118   -0.02 8  235 235 
 NOR  SN ES   1   1915 24.50                             118   -0.63 6  235 235 
 CHI  HZ EP       1914 59.30                             117    0.15 8  248 195 
 CHI  HZ I        1914 59.73        18.9 0.18                           248 195 
 CHI  HN ES   1   1915 28.97                             117    0.44 6  248 195 
 ROSC BZ EP   3   1915  1.06                             117    1.47 2  253 211 
 ROSC BZ I        1915 39.17        31.5 0.35                           253 211 
 COD  HZ EP   2   1915  8.76                             109   -1.15 3  349 355 
 COD  HN ES   3   1915 46.75                             109   -0.95 2  349 355 
 COD  HZ I        1915 51.01        18.9 0.44                           349 355 
 PRA  HZ EP       1915 14.80                             106   -0.19 6  392 210 
 PRA  HN ES   2   1915 56.74                             106    0.01 3  392 210 
                                                                                
