 2016  920 1146 45.5 L   6.431 -73.579113.5  RSN  4 0.1 1.5LRSN                1
 GAP=209        0.29       4.5     1.5  3.6  0.8626E+00  0.1053E+01  0.8004E+01E
 Epicentro: SANTA HELENA DEL OPON - SANTANDER                                  3
 ACTION:UPD 17-08-17 21:14 OP:lp   STATUS:               ID:20160920114645 L   I
 OLDACT:UP  16-09-20 23:09 OP:edw  STATUS:               ID:20160920113736d    3
 OLDACT:DUP 16-09-20 22:51 OP:edw  STATUS:               ID:20160920113736d    3
 OLDACT:UP  16-09-20 22:48 OP:edw  STATUS:               ID:20160920113735     3
 OLDACT:REG 16-09-20 20:29 OP:edw  STATUS:               ID:20160920113735     3
 2016-09-20-1138-00M.COL___360                                                 6
 STAT SP IPHASW D HRMM SECON CODA AMPLIT PERI AZIMU VELO AIN AR TRES W  DIS CAZ7
 BAR2 EZ EP       1147  2.24                             156    0.0310 47.3  68 
 BAR2 EZ ES       1147 15.19                             156   -0.0310 47.3  68 
 BAR2 EZ I        1147 16.40        24.8 0.23            143           47.3  68 
 BRR  HZ EP   2   1147  3.76                             144    0.12 5 76.1 349 
 BRR  HN ES   2   1147 17.73                             144   -0.04 5 76.1 349 
 PTB  HZ EP       1147  5.30                             136   -0.0710 97.8 277 
 PTB  HE ES       1147 20.90                             136    0.0510 97.8 277 
 PTB  HZ I        1147 21.82         2.3 0.06            128           97.8 277 
 ZAR  HZ EP   9   1147 18.43                             117    4.57 0  184 310 
 ZAR  HN ES       1147 40.50                              47   -0.03 9  184 310 
 ZAR  HZ I        1147 42.78         3.3 0.18            111            184 310 
                                                                                
