 2010  820 1406 32.1 L   6.795 -73.011143.7  RSN  4 0.2 1.7LRSN                1
 GAP=180        0.50       4.7     8.7  6.6  0.2332E+02 -0.2950E+02 -0.1632E+02E
 Epicentro: CEPITA - SANTANDER                                                 3
 ACTION:UP  10-09-07 10:56 OP:vdl  STATUS:               ID:20100820140632 L   I
 2010-08-20-1404-58S.COL___119                                                 6
 STAT SP IPHASW D HRMM SECON CODA AMPLIT PERI AZIMU VELO SNR AR TRES W  DIS CAZ7
 BAR2 SZ EP   1   14 6 51.53                             168    -0.1 7   29 220 
 BAR2 SZ ES   1   14 7  6.71                             168    -0.2 7   29 220 
 BAR2 SZ I        14 7  8.41        10.2 0.29                            29 220 
 BRR  HZ EP       14 6 53.70                             148    -0.210   85 294 
 BRR  HN ES   1   14 7 11.11                             148     0.2 7   85 294 
 BRR  HZ I        14 7 12.54        15.5 0.21                            85 294 
 RUS  HZ EP   1   14 6 55.85                             144     0.2 7  100 185 
 RUS  HE ES   1   14 7 14.02                             144     0.0 7  100 185 
 RUS  HZ I        14 7 15.55         4.9 0.28                           100 185 
 GUE  SZ EP   1   14 6 56.66                             139     0.1 7  115   5 
                                                                                
