 2012  120 1444 58.4 L   6.795 -73.163141.7  RSN  8 0.5 2.2LRSN                1
 GAP=135        1.01       5.5     5.5  8.4 -0.1605E+01  0.1562E+02  0.6122E+01E
 Epicentro: LOS SANTOS - SANTANDER                                             3
 ACTION:UP  12-02-03 08:19 OP:REBC STATUS:               ID:20120120144458 L   I
 2012-01-20-1440-00M.COL___187                                                 6
 STAT SP IPHASW D HRMM SECON CODA AMPLIT PERI AZIMU VELO SNR AR TRES W  DIS CAZ7
 BAR2 SZ EP   1   1445 17.77                             171     0.3 7   23 185 
 BAR2 SZ I        1445 18.09        30.7 0.11                            23 185 
 BAR2 SZ ES   1   1445 32.14                             171    -0.3 7   23 185 
 BRR  HZ EP   1   1445 19.58                             152     0.6 7   70 300 
 BRR  HZ I        1445 19.93        39.0 0.11                            70 300 
 BRR  HN ES   1   1445 35.84                             152     0.8 7   70 300 
 PAM  SZ EP   1   1445 20.51                             149     0.3 7   79  40 
 PAM  SN ES   1   1445 36.85                             149    -0.5 7   79  40 
 RUS  HZ EP   1   1445 21.40                             143    -0.3 7  100 175 
 RUS  HN ES   1   1445 39.98                             143     0.1 7  100 175 
 RUS  HZ I        1445 42.25        19.7 0.28                           100 175 
 PTB  HZ EP   1   1445 24.61                             131    -0.2 7  146 259 
 PTB  HN ES   1   1445 44.82                             131    -0.6 7  146 259 
 PTB  HZ I        1445 49.24         0.0 0.17                           146 259 
 ZAR  HZ EP   1   1445 29.44                             122    -0.9 6  202 292 
 ZAR  HN ES   1   1445 55.53                             122     0.2 6  202 292 
 ZAR  HZ I        1446  1.87        17.9 0.33                           202 292 
 NOR  SZ EP   1   1445 34.15                             118     0.5 6  233 234 
 NOR  SN ES   1   1446  1.05                             118    -0.1 6  233 234 
 PRA  HN ES   1   1446 33.51                             106     0.4 4  391 209 
                                                                                
