 2012  320 1337  6.1 L   6.779 -73.168148.4  RSN  9 0.4 2.2LRSN                1
 GAP=135        0.94       4.8     5.0  7.0 -0.1986E+01  0.8672E+01  0.2124E+01E
 ACTION:UP  12-03-31 23:21 OP:EP   STATUS:               ID:20120320133706 L   I
 2012-03-20-1330-00M.COL___202                                                 6
 STAT SP IPHASW D HRMM SECON CODA AMPLIT PERI AZIMU VELO SNR AR TRES W  DIS CAZ7
 BAR2 SZ EP       1337 25.81                             172    -0.110   21 184 
 BAR2 SZ ES   1   1337 41.35                             172    -0.1 7   21 184 
 BAR2 SZ I        1337 42.94        31.2 0.35                            21 184 
 BRR  HZ IP     C 1337 27.71                             153     0.310   70 301 
 BRR  HN ES   1   1337 44.86                             153     0.8 7   70 301 
 BRR  HZ I        1337 47.35        39.5 0.17                            70 301 
 PAM  SZ EP   1   1337 28.66                             150    -0.1 7   81  40 
 PAM  SN ES   1   1337 46.01                             150    -0.4 7   81  40 
 RUS  HZ EP   1   1337 29.62                             145    -0.3 7   98 175 
 RUS  HN ES   1   1337 48.55                             145     0.0 7   98 175 
 RUS  HZ I        1337 51.06        11.8 0.19                            98 175 
 PTB  HZ EP   1   1337 32.34                             133    -0.6 7  145 260 
 PTB  HN ES   1   1337 53.73                             133    -0.2 7  145 260 
 PTB  HZ I        1338  1.17        26.5 0.36                           145 260 
 OCA  SZ EP   1   1337 34.96                             130     0.2 7  162 354 
 CTAU SZ EP       1337 39.67                             124     0.8 9  199 209 
 ZAR  HZ EP   1   1337 38.16                             123    -0.4 6  203 293 
 ZAR  HN ES   1   1338  3.79                             123    -0.1 6  203 293 
 ZAR  HZ I        1338  9.29        24.6 0.30                           203 293 
 NOR  SZ EP   1   1337 41.53                             119     0.0 6  231 235 
 NOR  SN ES   1   1338  8.91                             119    -0.4 6  231 235 
                                                                                
