 2010  620 1335 54.6 L   6.780 -73.121141.6  RSN  6 0.4 1.7LRSN                1
 GAP=158        0.74       4.8    11.1  9.4  0.4634E+00 -0.2402E+02 -0.1079E+02E
 Epicentro: LOS SANTOS - SANTANDER                                             3
 ACTION:UP  10-08-24 10:11 OP:vdl  STATUS:               ID:20100620133554 L   I
 2010-06-20-1331-38S.COL___118                                                 6
 STAT SP IPHASW D HRMM SECON CODA AMPLIT PERI AZIMU VELO SNR AR TRES W  DIS CAZ7
 BAR2 SZ EP   1   1336 13.67                             171    -0.1 7   22 198 
 BAR2 SZ ES   2   1336 28.16                             171    -0.5 5   22 198 
 BRR  HZ EP   1   1336 15.75                             151     0.2 7   75 299 
 BRR  HE ES   2   1336 32.33                             151     0.5 5   75 299 
 BRR  HZ I        1336 36.92        19.3 0.11                            75 299 
 RUS  HZ EP   1   1336 17.67                             144    -0.1 7   98 178 
 RUS  HZ I        1336 18.35         4.4 0.30                            98 178 
 RUS  HE ES   2   1336 35.87                             144     0.0 5   98 178 
 BRI  SZ EP   1   1336 18.35                             140     0.1 7  110  19 
 BRI  SZ ES   2   1336 36.94                             140     0.3 5  110  19 
 GUE  SZ EP   1   1336 19.59                             138     0.5 7  118  11 
 OCA  SZ EP   1   1336 22.35                             128    -0.5 7  163 352 
 OCA  SZ ES   2   1336 43.97                             128    -0.9 5  163 352 
 OCA  SZ I        1336 51.76         7.4 0.43                           163 352 
                                                                                
