 2010  620 1106 54.6 L   6.752 -73.107143.7  RSN  8 0.5 2.0LRSN                1
 GAP=161        1.06       6.3    11.2 11.1 -0.2069E+02  0.1244E+02 -0.1127E+02E
 Epicentro: LOS SANTOS - SANTANDER                                             3
 ACTION:UP  10-08-24 10:11 OP:vdl  STATUS:               ID:20100620110654 L   I
 2010-06-20-1103-21S.COL___118                                                 6
 STAT SP IPHASW D HRMM SECON CODA AMPLIT PERI AZIMU VELO SNR AR TRES W  DIS CAZ7
 BAR2 SZ IP       11 7 13.87                             172    -0.110   20 205 
 BAR2 SZ ES   2   11 7 28.09                             172    -0.9 5   20 205 
 BRR  HZ IP     D 11 7 15.73                             150    -0.210   78 300 
 BRR  HZ I        11 7 16.13        31.5 0.14                            78 300 
 BRR  HE ES   2   11 7 32.86                             150     0.3 5   78 300 
 RUS  HZ EP   1   11 7 17.85                             145     0.1 7   95 178 
 RUS  HE ES   2   11 7 36.51                             145     0.7 5   95 178 
 RUS  HZ I        11 7 37.79         8.5 0.41                            95 178 
 BRI  SZ EP   1   11 7 18.44                             140    -0.2 7  112  18 
 BRI  SZ ES   2   11 7 37.33                             140     0.0 5  112  18 
 GUE  SZ EP   1   11 7 18.75                             138    -0.8 7  121  10 
 GRA  SZ IP       11 7 20.73                             136     0.710  130  15 
 GRA  SZ ES   2   11 7 40.51                             136     0.7 5  130  15 
 OCA  SZ EP   1   11 7 22.56                             128    -0.8 7  166 352 
 OCA  SZ ES   2   11 7 46.29                             128     0.6 5  166 352 
 HEL  HZ EP   1   11 7 35.72                             114     0.7 6  275 257 
 HEL  HZ I        11 8 13.16         6.8 0.44                           275 257 
                                                                                
