 2011  520 1119 24.3 L   6.780 -73.005144.1  RSN  5 0.5 1.2LRSN                1
 GAP=217        0.68      13.0    45.8 19.0  0.4765E+03 -0.6315E+03 -0.1807E+03E
 Epicentro: CEPITA - SANTANDER                                                 3
 ACTION:UP  11-06-29 08:54 OP:tino STATUS:               ID:20110520111924 L   I
 2011-05-20-1114-45S.COL___140                                                 6
 STAT SP IPHASW D HRMM SECON CODA AMPLIT PERI AZIMU VELO SNR AR TRES W  DIS CAZ7
 BAR2 SZ EP       1119 43.72                             168    -0.110   29 223 
 BAR2 SZ I        1119 44.43         5.4 0.40                            29 223 
 BTL  SZ EP       1119 44.29                             166     0.310   33 298 
 BTL  SZ ES   2   1119 59.33                             166     0.0 5   33 298 
 GIR2 SZ EP   3   1119 42.34                             163    -1.7 2   39 328 
 BRR  HN ES   3   1120  2.94                             147    -0.3 2   86 295 
 RUS  HZ EP   3   1119 47.99                             144     0.3 2   99 185 
 RUS  HN ES   1   1120  5.85                             144    -0.2 7   99 185 
 RUS  HZ I        1120  7.55         1.8 0.42                            99 185 
                                                                                
