 2010  420 1346 45.1 L   6.830 -73.028144.7  RSN 12 0.6 2.7LRSN                1
 GAP=149        1.11       4.6     7.9  7.3 -0.1622E+02 -0.1064E+02  0.1206E+02E
 Epicentro: CEPITA - SANTANDER                                                 3
 ACTION:UPD 10-08-24 10:00 OP:vdl  STATUS:               ID:20100420134652 L   I
 2010-04-20-1342-47S.COL___100                                                 6
 STAT SP IPHASW D HRMM SECON CODA AMPLIT PERI AZIMU VELO AIN AR TRES W  DIS CAZ7
 BAR2 SZ EP       1347  4.72                             167    -0.110   32 213 
 BAR2 SZ ES   1   1347 19.64                             167    -0.5 7   32 213 
 BRR  HZ EP       1347  6.92                             149     0.110   82 292 
 BRR  HN ES       1347 23.89                             149     0.210   82 292 
 BRR  HZ I        1347 27.36        73.7 0.07                            82 292 
 OCA  SZ EP       1347 12.80                             130    -0.4 9  159 348 
 OCA  SZ ES   1   1347 35.51                             130     0.3 7  159 348 
 CHI  HZ EP       1347 23.12                             116    -0.4 8  256 198 
 CHI  HN ES   1   1347 53.00                             116    -0.5 6  256 198 
 CHI  HZ I        1347 57.78        13.8 0.22                           256 198 
 ROSC BZ EP   1   1347 25.67                             116     1.4 6  263 213 
 ROSC BN ES       1347 55.67                             116     0.9 8  263 213 
 ROSC BZ I        1348  1.99        23.6 0.36                           263 213 
 HEL  HN ES   2   1347 58.00                             114    -1.3 4  286 256 
 HEL  HZ I        1348  4.18        25.5 0.13                           286 256 
 RREF BZ EP       1347 33.05                             110     0.4 7  334 230 
 RREF BN ES   1   1348  9.84                             110     0.2 5  334 230 
 RREF BZ I        1348 13.61        23.8 0.91                           334 230 
 SDV  BZ IP     C 1347 34.17                             109     0.5 6  348  49 
 DBB  SZ EP       1347 33.47                             109    -0.6 6  352 274 
 TOL  SZ EP       1347 34.57                             109    -0.1 6  355 226 
 ANIL BZ EP   2   1347 36.73                             108     0.5 3  369 226 
 ANIL BN ES   2   1348 15.78                             108    -0.3 3  369 226 
 PRA  HZ EP       1347 39.14                             106    -0.6 6  401 211 
 PRA  HN ES       1348 21.72                             106    -0.6 6  401 211 
 PRA  HZ I        1348 27.36        29.6 0.06                           401 211 
                                                                                
