 2013  220 1522 39.4 L   6.806 -73.159140.8  RSN  4 0.2 1.5LRSN                1
 GAP=243        0.49       5.6     5.7  9.0  0.2316E+02 -0.3290E+01 -0.1030E+02E
 Epicentro: LOS SANTOS - SANTANDER                                             3
 ACTION:UPD 13-03-12 09:34 OP:ep   STATUS:               ID:20130220152239 L   I
 2013-02-20-1520-00M.COL___238                                                 6
 STAT SP IPHASW D HRMM SECON CODA AMPLIT PERI AZIMU VELO AIN AR TRES W  DIS CAZ7
 RUS  HZ EP   1   1523  2.73                             143   -0.03 7  101 175 
 RUS  HN ES   1   1523 20.99                             143    0.04 7  101 175 
 RUS  HZ I        1523 22.10         4.0 0.26            144            101 175 
 PTB  HZ EP   1   1523  5.65                             131   -0.23 7  146 258 
 PTB  HN ES   1   1523 26.24                             131   -0.27 7  146 258 
 PTB  HZ I        1523 28.90         5.5 0.20            133            146 258 
 ZAR  HE ES   1   1523 36.72                             121    0.39 6  202 292 
 CHI  HN ES   1   1523 46.33                             116    0.23 6  249 195 
                                                                                
