 2016  720 1929  0.1 L   6.725 -73.128146.0  RSN  6 0.4 1.7LRSN                1
 GAP=142        0.85       5.8     6.3  6.9  0.2013E+02 -0.4640E+01 -0.9433E+01E
 Epicentro: JORDAN - SANTANDER                                                 3
 ACTION:UPD 17-03-29 16:53 OP:lp   STATUS:               ID:20160720192900 L   I
 OLDACT:REG 16-07-20 20:33 OP:lv   STATUS:               ID:20160720192759     3
 2016-07-20-1927-59S.COL___298                                                 6
 STAT SP IPHASW D HRMM SECON CODA AMPLIT PERI AZIMU VELO AIN AR TRES W  DIS CAZ7
 BAR2 EZ EP       1929 19.34                             174   -0.2510 15.8 202 
 BAR2 EZ ES       1929 34.38                             174   -0.4410 15.8 202 
 BRR  HZ EP       1929 21.56                             151   -0.0210 77.1 303 
 BRR  HN ES       1929 38.85                             151    0.4910 77.1 303 
 BRR  HZ I        1929 39.48         8.7 0.44            145           77.1 303 
 PAM  EZ EP       1929 22.70                             149    0.0710 82.9  35 
 PAM  EZ I        1929 42.11         7.2 0.40            135           82.9  35 
 RUS  HZ EP       1929 23.21                             146   -0.0310 92.1 177 
 RUS  HE ES       1929 41.67                             146    0.3510 92.1 177 
 RUS  HZ I        1929 42.96         4.5 0.30            139           92.1 177 
 SPBC HZ EP   2   1929 27.62                             130   -0.47 5  158 221 
 SPBC HE ES   4   1929 49.18                             130   -0.78 0  158 221 
 SPBC HZ I        1929 56.04        11.2 0.38            124            158 221 
 ZAR  HZ EP   2   1929 34.13                             122    1.09 4  209 294 
 ZAR  HN ES       1929 58.39                             122   -0.37 8  209 294 
 ZAR  HZ I        1930  3.63         8.0 0.24            114            209 294 
                                                                                
