 2011  220 1110 55.5 L   6.786 -72.923139.1  RSN  8 0.5 1.5LRSN                1
 GAP=184        1.12       6.0    25.2 10.4 -0.7511E+02  0.2518E+02 -0.6637E+01E
 Epicentro: CEPITA - SANTANDER                                                 3
 ACTION:UP  11-03-28 15:09 OP:jfem STATUS:               ID:20110220111055 L   I
 2011-02-20-1108-27S.COL___137                                                 6
 STAT SP IPHASW D HRMM SECON CODA AMPLIT PERI AZIMU VELO SNR AR TRES W  DIS CAZ7
 BAR2 SZ EP       1111 14.67                             164     0.010   36 233 
 BAR2 SZ ES   1   1111 29.27                             164    -0.4 7   36 233 
 BAR2 SZ I        1111 30.87         7.9 0.26                            36 233 
 BTL  SZ EP       1111 14.73                             161    -0.110   41 291 
 GIR2 SZ EP       1111 15.54                             160     0.710   44 317 
 RUS  HZ EP       1111 18.61                             142     0.010  100 190 
 RUS  HN ES   1   1111 36.72                             142     0.1 7  100 190 
 RUS  HZ I        1111 38.25         3.6 0.21                           100 190 
 GRA  SZ EP   2   1111 19.16                             136    -0.7 5  122   6 
 GRA  SZ ES   1   1111 38.40                             136    -0.5 7  122   6 
 GRA  SZ I        1111 40.21         5.3 0.28                           122   6 
 OCA  SZ EP       1111 24.42                             126     0.5 9  167 345 
 OCA  SZ I        1111 49.83         3.7 0.65                           167 345 
 NOR  SZ EP   2   1111 32.27                             114    -0.8 4  254 238 
 CHI  HZ EP   1   1111 32.68                             115    -0.9 6  255 201 
 CHI  HZ I        1111 34.49         2.0 0.16                           255 201 
 CHI  HN ES   2   1112  3.95                             115     0.8 4  255 201 
                                                                                
