 2017  920 1119 31.2 L   6.725 -73.176144.3  RSN  8 0.6 1.6LRSN                1
 GAP=136        1.18       4.4     5.6  7.9 -0.4041E+00  0.1601E+02  0.4378E+01E
 Epicentro: VILLANUEVA - SANTANDER                                             3
 ACTION:UPD 17-10-05 19:14 OP:rebc STATUS:               ID:20170920111931 L   I
 OLDACT:REG 17-09-20 20:03 OP:edw  STATUS:               ID:20170920111737     3
 2017-09-20-1118-00M.COL___440                                                 6
 STAT SP IPHASW D HRMM SECON CODA AMPLIT PERI AZIMU VELO AIN AR TRES W  DIS CAZ7
 BAR2 EZ EP       1119 50.38                             174   -0.1310 14.7 183 
 BAR2 EZ ES       1120  5.72                             174    0.1410 14.7 183 
 BAR2 EZ I        1120  6.73        11.4 0.28            171           14.7 183 
 BRR  HZ EP       1119 52.33                             151    0.0410 72.8 306 
 BRR  HE ES       1120  9.50                             151    0.7710 72.8 306 
 BRR  HZ I        1120 12.34        11.8 0.30            150           72.8 306 
 PAM  EZ EP       1119 53.50                             148   -0.3010 85.9  38 
 PAM  EN ES       1120 10.61                             148   -0.8110 85.9  38 
 PAM  EZ I        1120 12.31         3.9 0.14            153           85.9  38 
 RUS  HZ EP       1119 54.49                             146    0.2410 92.6 174 
 RUS  HN ES       1120 12.34                             146    0.1210 92.6 174 
 RUS  HZ I        1120 14.61         4.6 0.28            147           92.6 174 
 ZAR  HZ EP       1120  4.08                             122    0.50 9  204 295 
 ZAR  HN ES       1120 28.53                             122   -0.30 9  204 295 
 ZAR  HZ I        1120 34.12         6.2 0.32            122            204 295 
 NOR  HZ EP       1120  6.63                             119    0.58 8  227 236 
 NOR  HN ES       1120 32.55                             119   -0.68 8  227 236 
 NOR  HZ I        1120 39.53         2.8 0.19            119            227 236 
 CHI  HZ EP   4   1120  9.00                             118    1.14 0  240 195 
 CHI  HN ES       1120 36.39                             118   -0.06 8  240 195 
 CHI  HZ I        1120 40.51         2.7 0.38            119            240 195 
 GUY2CHN ES   3   1120 43.70                             113   -3.51 2  294 236 
                                                                                
