 2012  920 1758 28.4 L   6.763 -73.139144.0  RSN  5 0.3 1.7LRSN                1
 GAP=139        0.47       5.8     5.9  7.9  0.1517E+02 -0.1247E+02 -0.1873E+02E
 Epicentro: LOS SANTOS - SANTANDER                                             3
 ACTION:UPD 12-10-22 14:19 OP:ep   STATUS:               ID:20120920175828 L   I
 2012-09-20-1750-00M.COL___224                                                 6
 STAT SP IPHASW D HRMM SECON CODA AMPLIT PERI AZIMU VELO AIN AR TRES W  DIS CAZ7
 BAR2 SZ EP   2   1758 47.85                             172    0.09 5 19.5 194 
 BAR2 SZ ES   2   1759  2.71                             172   -0.14 5 19.5 194 
 BAR2 SZ I        1759  4.14        21.4 0.15                          19.5 194 
 BRR  HZ EP   1   1758 49.90                             151    0.37 7 73.9 301 
 BRR  HZ I        1758 53.75        13.1 0.36                          73.9 301 
 BRR  HE ES   2   1759  6.19                             151    0.20 5 73.9 301 
 PAM  SZ EP   1   1758 50.42                             150   -0.19 7 80.1  37 
 RUS  HZ EP   2   1758 51.71                             144    0.01 5 96.4 176 
 RUS  HN ES   2   1759  9.73                             144   -0.13 5 96.4 176 
 RUS  HZ I        1759 11.48         4.3 0.18                          96.4 176 
 ZAR  HE ES   2   1759 25.78                             121   -0.60 4  206 293 
 ZAR  HZ I        1759 32.74         3.6 0.10                           206 293 
                                                                                
