 2016  220 1302  0.1 L   6.301 -73.686104.6  RSN  6 0.3 1.4LRSN                1
 GAP= 87        0.62       3.2     2.4  6.6  0.9286E+00  0.4388E+01 -0.7672E+01E
 Epicentro: SANTA HELENA DEL OPON - SANTANDER                                  3
 ACTION:UPD 16-03-04 21:27 OP:rebc STATUS:               ID:20160220130200 L   I
 OLDACT:UP  16-02-20 22:41 OP:ak   STATUS:               ID:20160220125750     3
 OLDACT:UP  16-02-20 22:41 OP:ak   STATUS:               ID:20160220125750     3
 OLDACT:REG 16-02-20 20:59 OP:ak   STATUS:               ID:20160220125750     3
 2016-02-20-1257-50M.COL___330                                                 6
 STAT SP IPHASW D HRMM SECON CODA AMPLIT PERI AZIMU VELO AIN AR TRES W  DIS CAZ7
 BAR2 EZ EP       13 2 16.92                             146    0.0610 64.4  60 
 BAR2 EZ ES       13 2 29.98                             146    0.0610 64.4  60 
 RUS  HZ EP   2   13 2 18.22                             140   -0.18 5 80.6 124 
 RUS  HN ES       13 2 32.66                             140   -0.0210 80.6 124 
 RUS  HZ I        13 2 36.43         3.9 0.26            144           80.6 124 
 SPBC HZ EP   2   13 2 18.51                             138    0.43 5 83.5 211 
 SPBC HN ES       13 2 32.27                             138    0.1810 83.5 211 
 SPBC HZ I        13 2 36.27         7.9 0.17            140           83.5 211 
 PTB  HZ EP       13 2 18.10                             136   -0.3510 89.2 287 
 PTB  HN ES       13 2 32.50                             136   -0.2510 89.2 287 
 PTB  HZ I        13 2 35.55         6.5 0.16            138           89.2 287 
 BRR  HZ EP   2   13 2 17.84                             136   -0.59 5 89.2 358 
 ZAR  HZ EP   2   13 2 28.25                             114    0.16 4  185 316 
 ZAR  HE ES       13 2 50.38                             114    0.47 9  185 316 
 ZAR  HZ I        13 2 54.27         4.5 0.29            117            185 316 
                                                                                
