 2010 1220 1115 17.3 L   6.806 -73.111135.9  RSN 10 0.5 2.2LRSN                1
 GAP=139        0.98       3.8     7.4 11.1 -0.1005E+02  0.3020E+02 -0.2795E+01E
 Epicentro: LOS SANTOS - SANTANDER                                             3
 ACTION:UP  11-01-14 15:26 OP:pat  STATUS:               ID:20101220111517 L   I
 2010-12-20-1113-35S.COL___133                                                 6
 STAT SP IPHASW D HRMM SECON CODA AMPLIT PERI AZIMU VELO SNR AR TRES W  DIS CAZ7
 BAR2 SZ IP       1115 35.99                             169     0.210   25 199 
 BAR2 SZ I        1115 55.12        22.8 0.09                            25 199 
 RUS  HZ EP       1115 40.04                             141    -0.110  101 178 
 RUS  HN ES   1   1115 58.29                             141     0.3 7  101 178 
 RUS  HZ I        1116  0.43        24.9 0.27                           101 178 
 GRA  SZ IP       1115 41.80                             135     0.210  124  16 
 GRA  SZ I        1116  3.99        33.5 0.58                           124  16 
 OCA  SZ EP       1115 44.56                             127    -0.3 9  160 352 
 OCA  SZ ES   1   1116  6.10                             127    -0.3 7  160 352 
 OCA  SZ I        1116  9.66        20.3 0.21                           160 352 
 YOP  SZ EP   1   1115 46.88                             124     0.3 7  178 155 
 YOP  SZ I        1116 17.10         9.9 0.26                           178 155 
 NOR  SZ EP   1   1115 52.50                             116    -0.4 6  238 235 
 NOR  SN ES   1   1116 20.16                             116    -0.5 6  238 235 
 CHI  HZ EP   1   1115 54.80                             115     0.1 6  250 196 
 CHI  HN ES   1   1116 22.85                             115    -1.0 6  250 196 
 CHI  HZ I        1116 28.15         5.5 0.48                           250 196 
 HEL  HZ EP   1   1115 58.26                             112     0.8 6  276 256 
 HEL  HZ I        1116 34.47        12.5 0.18                           276 256 
 RREF HZ EP   1   1116  3.96                             109     0.5 5  325 230 
 RREF HE ES   1   1116 40.38                             109     1.0 5  325 230 
 RREF HZ I        1116 47.72        10.3 0.36                           325 230 
 PRA  HZ EP   1   1116 10.12                             105    -0.7 4  394 210 
 PRA  HN ES   1   1116 52.38                             105    -0.1 4  394 210 
                                                                                
