 2014 1120 1947 21.3 L   6.778 -73.191148.5  RSN  4 0.5 1.3LRSN                1
 GAP=132        1.29       7.4     6.8 11.9 -0.7021E+01  0.2491E+01  0.1702E+02E
 Epicentro: ZAPATOCA - SANTANDER                                               3
 ACTION:UPD 14-12-19 15:45 OP:nd   STATUS:               ID:20141120194721 L   I
 OLDACT:ARG 14-11-20 21:12 OP:stll STATUS:               ID:20141120193750     3
 2014-11-20-1937-50M.COL___307                                                 6
 STAT SP IPHASW D HRMM SECON CODA AMPLIT PERI AZIMU VELO AIN AR TRES W  DIS CAZ7
 BRR  HN ES       1948  0.07                             154    0.8910 68.1 302 
 PAM  SZ EP       1947 44.17                             150    0.0410 82.5  41 
 PAM  SN ES       1948  1.38                             150   -0.5510 82.5  41 
 PAM  SZ I        1948  3.77         4.5 0.44            154           82.5  41 
 RUS  HZ EP       1947 45.42                             145    0.2210 98.6 173 
 RUS  HN ES       1948  3.85                             145    0.0210 98.6 173 
 RUS  HZ I        1948  5.51         2.2 0.44            147           98.6 173 
 PTB  HZ EP       1947 48.14                             134    0.11 9  142 259 
 PTB  HN ES       1948  8.05                             134   -0.81 9  142 259 
 PTB  HZ I        1948 16.12         2.8 0.10            134            142 259 
                                                                                
