 2013  820 1808 50.7 L   6.748 -73.162136.0  RSN  5 0.5 1.5LRSN                1
 GAP=137        1.40       7.1     6.9 10.3 -0.4268E+01  0.9787E+01  0.2666E+01E
 Epicentro: VILLANUEVA - SANTANDER                                             3
 ACTION:UPD 14-01-14 09:05 OP:ep   STATUS:               ID:20130820180850 L   I
 OLDACT:DUP 13-08-20 20:33 OP:stll STATUS:               ID:20130820180849d    3
 2013-08-20-1808-48M.COL___200                                                 6
 STAT SP IPHASW D HRMM SECON CODA AMPLIT PERI AZIMU VELO AIN AR TRES W  DIS CAZ7
 BAR2 SZ EP       18 9  9.25                             172    0.2010 17.3 188 
 BAR2 SZ ES       18 9 22.43                             172   -0.9310 17.3 188 
 BAR2 SZ I        18 9 25.93         9.4 0.18            170           17.3 188 
 BRR  HZ EP       18 9 11.16                             150    0.2610 72.6 303 
 BRR  HN ES       18 9 27.63                             150    0.9810 72.6 303 
 BRR  HZ I        18 9 30.66         9.8 0.32            149           72.6 303 
 PAM  SZ EP       18 9 12.20                             147   -0.0610 83.0  38 
 PAM  SZ I        18 9 12.50         4.1 0.20            152           83.0  38 
 PAM  SN ES       18 9 28.81                             147   -0.2610 83.0  38 
 RUS  HZ EP       18 9 13.24                             143    0.1410 95.0 175 
 RUS  HN ES       18 9 31.11                             143    0.5510 95.0 175 
 RUS  HZ I        18 9 33.09         2.8 0.48            145           95.0 175 
 PTB  HZ EP       18 9 16.06                             130   -0.58 9  145 261 
 PTB  HN ES       18 9 36.43                             130   -0.44 9  145 261 
 PTB  HZ I        18 9 43.91         4.7 0.48            130            145 261 
                                                                                
