 2014 1020 1428 46.0 L   6.753 -73.137149.8  RSN  8 0.5 1.7LRSN                1
 GAP=140        1.14       5.1     5.7  7.9 -0.5061E+01  0.5782E+01  0.6980E+01E
 Epicentro: LOS SANTOS - SANTANDER                                             3
 ACTION:UPD 14-11-29 23:51 OP:nd   STATUS:               ID:20141020142846 L   I
 OLDACT:REG 14-10-21 00:00 OP:spq  STATUS:               ID:20141020141747     3
 2014-10-20-1417-47M.COL___265                                                 6
 STAT SP IPHASW D HRMM SECON CODA AMPLIT PERI AZIMU VELO AIN AR TRES W  DIS CAZ7
 BAR2 SZ EP       1429  6.34                             173    0.2810 18.5 196 
 BAR2 SZ ES   1   1429 21.71                             173    0.03 7 18.5 196 
 BAR2 SZ I        1429 23.14        10.9 0.54            172           18.5 196 
 BRR  HZ EP       1429  8.32                             152    0.5110 74.6 302 
 BRR  HN ES       1429 25.29                             152    0.5010 74.6 302 
 BRR  HZ I        1429 30.53         8.6 0.12            151           74.6 302 
 PAM  SZ EP       1429  8.99                             150    0.1010 80.9  37 
 PAM  SN ES       1429 26.16                             150   -0.5510 80.9  37 
 PAM  SZ I        1429 28.51        13.6 0.50            154           80.9  37 
 RUS  HZ EP       1429  9.96                             146    0.1410 95.3 176 
 RUS  HE ES       1429 28.31                             146   -0.0610 95.3 176 
 RUS  HZ I        1429 30.38         3.4 0.40            150           95.3 176 
 PTB  HZ EP       1429 12.72                             133   -0.61 9  148 261 
 PTB  HN ES       1429 34.20                             133   -0.42 9  148 261 
 PTB  HZ I        1429 40.29        12.3 0.58            134            148 261 
 SPBC HN ES   1   1429 36.26                             131   -0.49 7  160 220 
 CHI  HZ EP   1   1429 22.35                             118   -1.10 6  244 196 
 CHI  HE ES   1   1429 53.73                             118    1.11 6  244 196 
 HEL  HZ EP   1   1429 26.95                             116    0.53 6  272 257 
                                                                                
