 2011  920 1356 24.4 L   6.792 -73.070141.9  RSN  6 0.4 1.8LRSN                1
 GAP=147        0.83       7.7     8.1  8.8  0.3306E+02  0.8165E+01  0.9039E+01E
 Epicentro: LOS SANTOS - SANTANDER                                             3
 ACTION:UPD 12-07-13 15:58 OP:ep   STATUS:               ID:20110920135624 L   I
 2011-09-20-1352-00S.COL___165                                                 6
 STAT SP IPHASW D HRMM SECON CODA AMPLIT PERI AZIMU VELO AIN AR TRES W  DIS CAZ7
 BAR2 SZ EP       1356 43.46                             169   -0.1810 25.3 209 
 BAR2 SZ ES   1   1356 58.12                             169   -0.50 7 25.3 209 
 BAR2 SZ I        1357  0.13         9.7 0.24                          25.3 209 
 BTL  SZ EP       1356 44.14                             169    0.4810 26.0 303 
 PAM  SE ES   2   1357  2.41                             151   -0.38 5 73.1  34 
 BRR  HZ EP       1356 45.44                             149   -0.2010 79.1 296 
 BRR  HZ I        1356 45.74        11.1 0.30                          79.1 296 
 BRR  HE ES   1   1357  2.84                             149    0.67 7 79.1 296 
 RUS  HZ EP       1356 47.77                             143    0.0510 99.4 181 
 RUS  HN ES   2   1357  6.08                             143    0.20 5 99.4 181 
 ZAR  HE ES   1   1357 22.76                             120   -0.50 6  212 292 
 ZAR  HZ I        1357 27.85         7.2 0.42                           212 292 
                                                                                
