 2013  420 1849 47.5 L   6.758 -73.179143.6  RSN  4 0.2 1.6LRSN                1
 GAP=134        0.57       3.3     3.3  6.2 -0.2934E+01  0.6703E+01 -0.2477E+01E
 Epicentro: VILLANUEVA - SANTANDER                                             3
 ACTION:UPD 13-05-22 14:39 OP:EP   STATUS:               ID:20130420184947 L   I
 2013-04-20-1848-40M.COL___217                                                 6
 STAT SP IPHASW D HRMM SECON CODA AMPLIT PERI AZIMU VELO AIN AR TRES W  DIS CAZ7
 BRR  HZ EP       1850  8.77                             152    0.4110 70.5 303 
 PAM  SZ EP       1850  9.57                             149   -0.2710 83.3  39 
 PAM  SN ES       1850 27.28                             149    0.0110 83.3  39 
 PAM  SN I        1850 27.99         6.1 0.26            153           83.3  39 
 RUS  HZ EP       1850 10.72                             145    0.0110 96.3 174 
 RUS  HN ES       1850 28.87                             145    0.0410 96.3 174 
 PTB  HZ EP       1850 13.82                             132   -0.06 9  143 260 
 PTB  HN ES       1850 34.29                             132   -0.17 9  143 260 
 PTB  HN I        1850 40.34         7.6 0.24            133            143 260 
                                                                                
