 2015  420 1737 53.9 L   6.811 -73.164144.9  RSN 13 0.6 2.7LRSN                1
 GAP=134        1.43       3.7     5.6  7.5 -0.2405E+01  0.9653E+01 -0.1115E+00E
 Epicentro: LOS SANTOS - SANTANDER                                             3
 ACTION:UPD 15-06-03 16:56 OP:cam  STATUS:               ID:20150420173753 L   I
 OLDACT:UP  15-04-21 09:59 OP:carl STATUS:               ID:20150420172750     3
 OLDACT:REG 15-04-20 23:05 OP:spq  STATUS:               ID:20150420172750     3
 2015-04-20-1727-50M.COL___277                                                 6
 STAT SP IPHASW D HRMM SECON CODA AMPLIT PERI AZIMU VELO AIN AR TRES W  DIS CAZ7
 BAR2 EZ IP     D 1738 13.63                             170    0.1310 24.3 185 
 BAR2 EZ ES       1738 28.43                             170   -0.3210 24.3 185 
 BAR2 EZ I        1738 29.32       192.4 0.16            167           24.3 185 
 BRR  HZ IP     D 1738 15.55                             153    0.6810 68.8 298 
 BRR  HN ES       1738 32.38                             153    1.1810 68.8 298 
 BRR  HZ I        1738 37.15        76.9 0.20            150           68.8 298 
 PAM  SZ IP     D 1738 16.53                             151    0.4310 77.7  41 
 PAM  SN ES       1738 33.58                             151    0.2110 77.7  41 
 PAM  SZ I        1738 34.07        47.8 0.38            155           77.7  41 
 RUS  HZ EP       1738 17.56                             143   -0.1610  102 175 
 RUS  HN ES       1738 35.93                             143   -0.3310  102 175 
 RUS  HZ I        1738 36.75        72.1 0.22            144            102 175 
 PTB  HZ EP       1738 20.45                             132   -0.24 9  146 258 
 PTB  HN ES       1738 40.77                             132   -0.78 9  146 258 
 PTB  HZ I        1738 44.46        77.9 0.30            130            146 258 
 OCA  HZ EP       1738 21.86                             130   -0.20 9  159 354 
 OCA  HN ES       1738 43.31                             130   -0.67 9  159 354 
 SPBC HZ EP       1738 22.68                             129    0.32 9  163 218 
 SPBC HN ES       1738 44.08                             129   -0.43 9  163 218 
 SPBC HZ I        1738 48.32        99.8 0.16            128            163 218 
 ZAR  HZ EP       1738 26.86                             123    0.76 9  202 292 
 ZAR  HN ES       1738 51.91                             123    0.73 9  202 292 
 ZAR  HZ I        1738 57.86        60.4 0.30            122            202 292 
 NOR  HZ EP       1738 29.67                             118    0.14 8  234 234 
 NOR  HN ES       1738 57.20                             118   -0.09 8  234 234 
 NOR  HZ I        1739  4.76        37.4 0.18            118            234 234 
 SML  HZ EP       1738 30.06                             117   -0.25 8  242 336 
 SML  HN ES       1738 57.12                             117   -1.56 8  242 336 
 SML  HZ I        1739  3.31        50.8 0.10            118            242 336 
 CHI  HZ EP       1738 31.71                             117    0.04 8  249 195 
 CHI  HN ES       1739  0.90                             117   -0.20 8  249 195 
 CHI  HZ I        1739  8.41        18.5 0.62            117            249 195 
 GUY2CHZ EP   4   1738 38.88                             112    1.47 0  300 234 
 GUY2CHN ES   4   1739 10.05                             112   -1.27 0  300 234 
 GUY2CHZ I        1739 18.51        24.3 0.26                           300 234 
 TOL  SZ EP   4   1738 43.57                             109    1.46 0  343 224 
 TOL  SN ES   4   1739 18.65                             109   -1.02 0  343 224 
 TOL  SZ I        1739 28.95        17.4 0.24            109            343 224 
                                                                                
