 2015 1020 1655  8.3 L   6.806 -73.125147.2  RSN 15 0.4 2.4LRSN                1
 GAP=121        0.89       2.3     3.3  4.4 -0.9736E+00  0.4659E+01  0.1511E+01E
 Epicentro: LOS SANTOS - SANTANDER                                             3
 ACTION:UPD 15-12-22 20:41 OP:cam  STATUS:               ID:20151020165508 L   I
 OLDACT:DUP 15-10-21 00:21 OP:drio STATUS:               ID:20151020164749d    3
 2015-10-20-1647-48M.COL___337                                                 6
 STAT SP IPHASW D HRMM SECON CODA AMPLIT PERI AZIMU VELO AIN AR TRES W  DIS CAZ7
 BAR2 EZ IP     C 1655 28.37                             170    0.2410 24.5 195 
 BAR2 EZ ES       1655 43.07                             170   -0.5210 24.5 195 
 BAR2 EZ I        1655 48.80        28.6 0.24            167           24.5 195 
 BRR  HZ EP     C 1655 30.28                             152    0.5710 72.9 297 
 BRR  HN ES       1655 46.62                             152    0.2210 72.9 297 
 BRR  HZ I        1655 51.03        41.4 0.12            149           72.9 297 
 PAM  EZ EP       1655 31.25                             152    0.6910 75.4  39 
 PAM  EE ES       1655 48.04                             152    0.1210 75.4  39 
 PAM  EZ I        1655 49.10        17.5 0.18            157           75.4  39 
 RUS  HZ EP       1655 32.38                             144    0.1510  101 177 
 RUS  HE ES       1655 50.67                             144   -0.2310  101 177 
 RUS  HZ I        1655 52.04        28.9 0.24            146            101 177 
 OCA  HZ EP       1655 36.18                             130   -0.52 9  160 352 
 OCA  HN ES       1655 58.33                             130   -0.51 9  160 352 
 OCA  HZ I        1656  4.27        78.9 0.18            132            160 352 
 SPBC HZ EP       1655 37.43                             129    0.33 9  165 219 
 SPBC HN ES       1655 59.72                             129    0.16 9  165 219 
 SPBC HZ I        1656  6.67        51.4 0.66            130            165 219 
 ZAR  HZ EP       1655 41.01                             122   -0.03 8  206 292 
 ZAR  HE ES       1656  6.87                             122    0.30 8  206 292 
 ZAR  HZ I        1656 12.48        58.8 0.30            123            206 292 
 NOR  HZ EP       1655 44.39                             118    0.03 8  237 235 
 NOR  HE ES       1656 12.47                             118   -0.01 8  237 235 
 NOR  HZ I        1656 17.84        21.7 0.60            120            237 235 
 SML  HZ EP   4   1655 44.73                             118   -0.33 0  244 335 
 SML  HN ES       1656 13.31                             118   -0.41 8  244 335 
 SML  HZ I        1656 20.94        44.4 0.28            120            244 335 
 CHI  HZ EP       1655 46.57                             117    0.35 8  250 196 
 CHI  HN ES       1656 15.65                             117   -0.14 8  250 196 
 CHI  HZ I        1656 25.64        10.8 0.34            119            250 196 
 HEL  HZ EP       1655 48.78                             115   -0.08 8  274 256 
 HEL  HE ES   4   1656 18.92                             115   -1.56 0  274 256 
 HEL  HZ I        1656 27.61        12.1 0.54            116            274 256 
 GUY2CHZ EP   4   1655 52.75                             112    0.51 0  303 235 
 GUY2CHN ES       1656 25.98                             112   -0.52 7  303 235 
 GUY2CHZ I        1656 37.17        17.0 0.52                           303 235 
 PTGC HZ EP       1655 51.29                             112   -0.91 7  308 159 
 PTGC HE ES   4   1656 24.26                             112   -2.18 0  308 159 
 ELA  HZ EP       1655 55.36                             110   -0.11 7  331 230 
 ELA  HN ES       1656 32.40                             110    0.15 7  331 230 
 ELA  HZ I        1656 40.95        11.4 0.38            112            331 230 
 CBOC HZ EP       1655 55.29                             110   -0.26 7  336 252 
 CBOC HN ES       1656 32.37                             110   -0.04 7  336 252 
 CBOC HZ I        1656 43.08         6.2 0.44            111            336 252 
                                                                                
