 2011 1020 1156 20.0 L   6.785 -73.165151.6  RSN  7 0.4 1.7LRSN                1
 GAP=135        0.93       5.5     6.0  8.3  0.1005E+02  0.1543E+02  0.3084E+01E
 Epicentro: LOS SANTOS - SANTANDER                                             3
 ACTION:UPD 12-07-13 16:04 OP:ep   STATUS:               ID:20111020115620 L   I
 2011-10-20-1140-00M.COL___171                                                 6
 STAT SP IPHASW D HRMM SECON CODA AMPLIT PERI AZIMU VELO AIN AR TRES W  DIS CAZ7
 BAR2 SZ EP   1   1156 40.16                             172   -0.18 7 21.4 185 
 BAR2 SZ I        1156 40.28        10.1 0.17                          21.4 185 
 GIR2 SZ EP   1   1156 40.74                             167    0.30 7 32.6 354 
 GIR2 SZ ES   1   1156 56.52                             167    0.16 7 32.6 354 
 BRR  HZ EP       1156 42.20                             154    0.4310 70.2 301 
 BRR  HZ I        1156 43.68        20.5 0.17                          70.2 301 
 BRR  HE ES   1   1156 59.52                             154    0.81 7 70.2 301 
 PAM  SN EP   1   1156 43.18                             151    0.15 7 80.0  40 
 PAM  SN ES   1   1157  0.41                             151   -0.55 7 80.0  40 
 PAM  SN I        1157  1.37         5.6 0.21                          80.0  40 
 RUS  HZ EP   1   1156 43.95                             145   -0.31 7 99.1 175 
 RUS  HN ES       1157  2.97                             145   -0.1910 99.1 175 
 RUS  HZ I        1157  4.10         3.8 0.22                          99.1 175 
 ZAR  HZ EP   1   1156 52.77                             124    0.03 6  203 293 
 ZAR  HN ES       1157 17.48                             124   -0.76 9  203 293 
 ZAR  HZ I        1157 24.68        11.2 0.36                           203 293 
 NOR  SZ EP   2   1156 56.38                             120    0.55 4  232 234 
                                                                                
