 2016 1120 1923 59.8 L   6.705 -73.171150.0  RSN  4 0.2 1.6LRSN                1
 GAP=149        0.61       6.4     3.8  4.9 -0.1220E+02  0.9913E+00  0.3710E+01E
 Epicentro: VILLANUEVA - SANTANDER                                             3
 ACTION:UPD 17-10-26 21:10 OP:lp   STATUS:               ID:20161120192359 L   I
 OLDACT:REG 16-11-20 21:59 OP:ar   STATUS:               ID:20161120191644     3
 2016-11-20-1917-00M.COL___340                                                 6
 STAT SP IPHASW D HRMM SECON CODA AMPLIT PERI AZIMU VELO AIN AR TRES W  DIS CAZ7
 BAR2 EZ EP       1924 19.99                             175    0.2210 12.6 186 
 BAR2 EZ ES       1924 35.29                             175   -0.0610 12.6 186 
 BRR  HZ EP       1924 21.30                             152   -0.2810 74.5 307 
 BRR  HN ES       1924 38.91                             152    0.3310 74.5 307 
 BRR  HZ I        1924 43.95         7.4 0.50            147           74.5 307 
 PAM  EZ EP       1924 23.05                             148   -0.0210 87.4  37 
 PAM  EN ES       1924 41.10                             148   -0.1210 87.4  37 
 PAM  EZ I        1924 42.29         6.0 0.50            147           87.4  37 
 PTB  HZ EP       1924 26.92                             134    0.21 9  143 263 
 PTB  HN ES       1924 47.42                             134   -0.29 9  143 263 
                                                                                
