 2010  120 1609 57.8 L   6.804 -73.101146.2  RSN  9 0.4 2.7LRSN                1
 GAP=187        0.95       6.0    13.3  9.4 -0.1157E+02  0.8409E+02 -0.3485E+01E
 Epicentro: LOS SANTOS - SANTANDER                                             3
 ACTION:UP  10-08-24 09:45 OP:vdl  STATUS:               ID:20100120160957 L   I
 2010-01-20-1608-22S.COL___096                                                 6
 STAT SP IPHASW D HRMM SECON CODA AMPLIT PERI AZIMU VELO SNR AR TRES W  DIS CAZ7
 BAR2 SZ IP       1610 17.52                             170     0.010   25 201 
 BAR2 SZ ES   1   1610 32.68                             170    -0.2 7   25 201 
 GIR2 SZ EP   1   1610 17.70                             167     0.2 7   32 341 
 RUS  BZ IP       1610 21.46                             144    -0.110  101 179 
 RUS  BN ES   1   1610 40.24                             144     0.1 7  101 179 
 RUS  BZ I        1610 41.48        36.9 0.28                           101 179 
 OCA  SZ EP   1   1610 26.10                             130     0.0 7  161 351 
 OCA  SZ I        1610 51.26        75.7 0.13                           161 351 
 CHI  HZ IP       1610 35.58                             117    -0.1 8  250 196 
 RREF BZ IP       1610 45.71                             111     1.3 7  326 230 
 RREF BZ I        1611 28.40        19.8 0.24                           326 230 
 DBB  SZ IP       1610 45.30                             109    -0.5 7  344 274 
 TOL  SZ IP       1610 46.25                             109    -0.2 6  347 225 
 PRA  HZ IP       1610 51.15                             106    -0.5 6  395 210 
 PRA  HN ES   1   1611 33.29                             106    -0.3 4  395 210 
 PRA  HZ I        1611 39.28        16.9 0.38                           395 210 
                                                                                
