 2011 1220 1016 57.2 L   7.475 -72.965157.2  RSN  5 0.3 1.5LRSN                1
 GAP=233        0.66      10.9     6.7  6.6 -0.1959E+02  0.6833E+01 -0.1816E+02E
 Epicentro: SURATA - SANTANDER                                                 3
 ACTION:UPD 12-07-13 16:17 OP:ep   STATUS:               ID:20111220101657 L   I
 2011-12-20-1010-00M.COL___192                                                 6
 STAT SP IPHASW D HRMM SECON CODA AMPLIT PERI AZIMU VELO AIN AR TRES W  DIS CAZ7
 PAM  SN ES   2   1017 35.82                             168    0.15 5 32.9 117 
 GIR2 SZ EP       1017 18.87                             161   -0.0110 50.6 210 
 GIR2 SZ ES   1   1017 36.07                             161    0.30 7 50.6 210 
 BRR  HZ EP   1   1017 20.59                             148   -0.25 7 92.0 244 
 BRR  HE ES   1   1017 38.94                             148   -0.32 7 92.0 244 
 BAR2 SZ EP       1017 22.04                             146    0.2910  101 194 
 BAR2 SZ ES   1   1017 40.41                             146   -0.47 7  101 194 
 BAR2 SZ I        1017 41.60         5.2 0.55                           101 194 
 PTB  HZ EP   1   1017 29.25                             126   -0.26 6  195 238 
 PTB  HE ES   1   1017 55.20                             126    0.51 6  195 238 
                                                                                
