 2014  720 1350 41.6 L   6.894 -73.288119.1  RSN  6 0.3 1.6LRSN                1
 GAP=162        0.68       2.7     4.4  5.2  0.6206E+01  0.3946E+01 -0.1883E+01E
 Epicentro: BETULIA - SANTANDER                                                3
 ACTION:UPD 15-03-16 20:45 OP:nd   STATUS:               ID:20140720135041 L   I
 OLDACT:DUP 14-07-20 23:33 OP:stll STATUS:               ID:20140720134818d    3
 2014-07-20-1348-17M.COL___269                                                 6
 STAT SP IPHASW D HRMM SECON CODA AMPLIT PERI AZIMU VELO AIN AR TRES W  DIS CAZ7
 BAR2 SZ EP       1350 58.68                             162    0.2910 35.4 161 
 BAR2 SZ ES       1351 11.37                             162   -0.1210 35.4 161 
 BRR  HZ EP       1350 58.62                             155   -0.1710 52.4 297 
 BRR  HZ I        1350 58.98        11.9 0.48            153           52.4 297 
 BRR  HN ES       1351 12.39                             155    0.1710 52.4 297 
 RUS  HZ EP       1351  3.61                             134   -0.2710  113 168 
 RUS  HN ES       1351 21.46                             134    0.1810  113 168 
 RUS  HZ I        1351 22.68         2.7 0.34            134            113 168 
 OCA  HN ES       1351 26.12                             125   -0.34 9  149 359 
 OCA  HZ I        1351 28.40         5.0 0.14            124            149 359 
 ZAR  HZ EP       1351 10.57                             118    0.14 9  186 291 
 ZAR  HE ES       1351 32.65                             118   -0.29 9  186 291 
 ZAR  HZ I        1351 35.52         6.1 0.34            117            186 291 
 SML  HN ES       1351 41.68                             113    0.49 8  228 338 
 SML  HZ I        1351 45.76         5.6 0.26            112            228 338 
                                                                                
