 2012  820 1136 47.9 L   6.788 -73.141148.5  RSN 14 0.4 2.8LRSN                1
 GAP= 99        0.84       3.5     2.8  4.8  0.7913E+00  0.1898E+01  0.2792E+01E
 Epicentro: LOS SANTOS - SANTANDER                                             3
 ACTION:UPD 12-09-10 11:57 OP:ep   STATUS:               ID:20120820113647 L   I
 2012-08-20-1130-00M.COL___217                                                 6
 STAT SP IPHASW D HRMM SECON CODA AMPLIT PERI AZIMU VELO AIN AR TRES W  DIS CAZ7
 BAR2 SZ IP       1137  7.73                             171   -0.1310 22.1 192 
 BAR2 SZ ES   1   1137 23.29                             171   -0.12 7 22.1 192 
 BAR2 SZ I        1137 24.47       188.0 0.27                          22.1 192 
 BRR  HZ EP       1137  9.62                             153    0.1910 72.2 299 
 BRR  HN ES       1137 26.97                             153    0.7710 72.2 299 
 BRR  HZ I        1137 28.88       115.7 0.18                          72.2 299 
 PAM  SZ EP       1137 10.46                             151   -0.0110 78.1  39 
 PAM  SZ I        1137 10.76       125.4 0.23                          78.1  39 
 PAM  SN ES   1   1137 27.71                             151   -0.35 7 78.1  39 
 RUS  HZ EP   1   1137 11.56                             145   -0.29 7 99.3 176 
 RUS  HN ES       1137 30.13                             145   -0.3910 99.3 176 
 RUS  HZ I        1137 31.95        47.2 0.38                          99.3 176 
 PTB  HZ EP   1   1137 14.33                             133   -0.81 7  148 259 
 PTB  HN ES       1137 35.88                             133   -0.48 9  148 259 
 PTB  HZ I        1137 41.58        66.2 0.23                           148 259 
 TAM  HZ EP       1137 15.86                             131    0.11 9  154 105 
 TAM  HZ I        1137 36.73        53.0 0.46                           154 105 
 TAM  HN ES       1137 37.60                             131    0.15 9  154 105 
 YOP  SZ EP   1   1137 18.22                             127    0.19 7  178 153 
 ZAR  HZ EP   1   1137 20.52                             123   -0.13 6  205 292 
 ZAR  HN ES   2   1137 46.46                             123    0.29 4  205 292 
 ZAR  HZ I        1137 52.12        72.5 0.20                           205 292 
 NOR  SZ EP   1   1137 23.61                             119   -0.17 6  234 235 
 NOR  SN ES   2   1137 52.50                             119    0.76 4  234 235 
 NOR  SZ I        1137 55.53        47.4 0.34                           234 235 
 CHI  HZ EP       1137 25.70                             118    0.04 8  248 195 
 CHI  HN ES       1137 55.40                             118    0.32 8  248 195 
 CHI  HZ I        1138  1.05        31.1 0.66                           248 195 
 HEL  HZ EP   1   1137 29.11                             115    0.82 6  272 256 
 HEL  HN ES   2   1137 59.97                             115    0.19 4  272 256 
 HEL  HZ I        1138  6.64        31.6 0.31                           272 256 
 URE  HZ EP   1   1137 28.48                             114   -0.75 6  285 292 
 DBB  SZ EP   1   1137 35.55                             110   -0.03 5  340 274 
 SJA  SZ EP   1   1137 43.35                             107    0.91 4  399 193 
                                                                                
