 2012  420 1602 25.8 L   6.730 -73.142153.9  RSN  5 0.2 2.0LRSN                1
 GAP=160        0.64       6.8     4.0  5.6 -0.2872E+01  0.3990E+01  0.5554E+01E
 Epicentro: JORDAN - SANTANDER                                                 3
 ACTION:UPD 12-07-05 11:54 OP:tino STATUS:               ID:20120420160225 L   I
 2012-04-20-1600-00M.COL___186                                                 6
 STAT SP IPHASW D HRMM SECON CODA AMPLIT PERI AZIMU VELO AIN AR TRES W  DIS CAZ7
 BAR2 SZ EP       16 2 46.33                             174     0.110   16 196 
 BAR2 SZ ES   1   16 3  2.16                             174    -0.1 7   16 196 
 BAR2 SZ I        16 3  3.99        11.6 0.35                            16 196 
 BRR  HZ EP       16 2 48.22                             152     0.210   76 304 
 BRR  HZ I        16 2 49.85        25.2 0.09                            76 304 
 BRR  HN ES       16 3  5.77                             152     0.410   76 304 
 PAM  SZ EP   1   16 2 49.32                             150     0.1 7   83  36 
 PAM  SE ES   1   16 3  7.00                             150    -0.5 7   83  36 
 PTB  HZ EP       16 2 53.25                             134    -0.1 9  147 262 
 PTB  HN ES   1   16 3 14.49                             134    -0.3 7  147 262 
 ZAR  HZ EP   1   16 2 58.98                             124    -0.1 6  207 294 
 ZAR  HN ES   1   16 3 24.81                             124    -0.3 6  207 294 
 ZAR  HZ I        16 3 30.82         9.3 0.39                           207 294 
                                                                                
