 2017  720 1034 50.3 L   6.765 -73.128135.6  RSN  8 0.5 1.8LRSN                1
 GAP=140        1.17       5.1     4.8  7.8 -0.1281E+01  0.1234E+02 -0.2204E+00E
 Epicentro: LOS SANTOS - SANTANDER                                             3
 ACTION:UPD 17-08-30 15:35 OP:rebc STATUS:               ID:20170720103450 L   I
 OLDACT:UP  17-07-20 20:57 OP:lv   STATUS:               ID:20170720102739     3
 OLDACT:REG 17-07-20 19:47 OP:lv   STATUS:               ID:20170720102739     3
 2017-07-20-1028-00M.COL___377                                                 6
 STAT SP IPHASW D HRMM SECON CODA AMPLIT PERI AZIMU VELO AIN AR TRES W  DIS CAZ7
 BAR2 EZ EP       1035  8.55                             171   -0.0510 20.0 197 
 BAR2 EZ ES       1035 22.70                             171   -0.2110 20.0 197 
 BAR2 EZ I        1035 24.80         7.2 0.07            169           20.0 197 
 BRR  HZ EP       1035 10.63                             149    0.1010 74.8 300 
 BRR  HN ES       1035 27.21                             149    0.8610 74.8 300 
 PAM  EZ EP       1035 11.48                             148   -0.0410 79.2  37 
 PAM  EN ES       1035 27.92                             148   -0.1810 79.2  37 
 RUS  HZ EP       1035 12.90                             143    0.1710 96.6 177 
 RUS  HN ES       1035 30.39                             143    0.1410 96.6 177 
 PTB  HZ EP       1035 15.60                             129   -0.93 9  149 260 
 PTB  HN ES       1035 36.18                             129   -0.84 9  149 260 
 ZAR  HZ EP       1035 22.95                             120    0.54 8  207 293 
 ZAR  HE ES       1035 47.36                             120   -0.12 8  207 293 
 ZAR  HZ I        1035 53.15         3.0 0.20            119            207 293 
 NOR  HE ES       1035 53.31                             116    0.59 8  234 236 
 NOR  HN I        1035 59.05         6.7 0.11            116            234 236 
 GUY2CHZ EP   3   1035 33.37                             110    0.03 2  301 236 
 GUY2CHN ES   3   1036  8.62                             110    1.67 2  301 236 
 GUY2CHZ I        1036 16.10         8.9 0.04                           301 236 
                                                                                
