 2014  920 1623 49.3 L   6.823 -73.161148.4  RSN  8 0.4 1.8LRSN                1
 GAP=133        1.10       3.5     5.3  6.9 -0.2544E+01  0.7191E+01 -0.2054E+01E
 Epicentro: LOS SANTOS - SANTANDER                                             3
 ACTION:UPD 14-10-03 23:06 OP:nd   STATUS:               ID:20140920162349 L   I
 OLDACT:REG 14-09-20 22:28 OP:carl STATUS:               ID:20140920161819     3
 2014-09-20-1618-19M.COL___293                                                 6
 STAT SP IPHASW D HRMM SECON CODA AMPLIT PERI AZIMU VELO AIN AR TRES W  DIS CAZ7
 BAR2 SZ EP       1624  9.37                             170    0.1010 25.7 185 
 BAR2 SZ ES       1624 24.90                             170    0.0410 25.7 185 
 BAR2 SZ I        1624 27.17        15.0 0.28            169           25.7 185 
 BRR  HN ES       1624 27.92                             154    0.7610 68.5 297 
 PAM  SZ IP     D 1624 12.35                             152    0.6310 76.5  42 
 PAM  SN ES       1624 29.28                             152    0.0510 76.5  42 
 PAM  SZ I        1624 31.62        13.5 0.48            156           76.5  42 
 RUS  HZ EP       1624 13.50                             144    0.0210  103 175 
 RUS  HN ES       1624 31.74                             144   -0.6210  103 175 
 RUS  HZ I        1624 33.52         4.9 0.36            145            103 175 
 PTB  HZ EP       1624 16.40                             133    0.05 9  147 258 
 PTB  HN ES       1624 37.29                             133   -0.18 9  147 258 
 PTB  HZ I        1624 43.33        10.9 0.18            133            147 258 
 OCA  HN ES       1624 38.63                             131   -0.94 9  158 354 
 SPBC HZ EP       1624 18.32                             129    0.26 9  164 218 
 SPBC HN ES       1624 40.35                             129   -0.17 9  164 218 
 SPBC HZ I        1624 45.53        13.1 0.24            130            164 218 
 SML  HZ EP       1624 25.43                             118   -0.29 8  241 335 
 SML  HN ES       1624 54.20                             118    0.06 8  241 335 
                                                                                
