 2011  620 1021 43.6 L   6.834 -73.017142.0  RSN  4 0.2 1.1LRSN                1
 GAP=253        0.45      11.1    14.4 10.0  0.1234E+03 -0.8491E+02 -0.3218E+02E
 Epicentro: CEPITA - SANTANDER                                                 3
 ACTION:UP  11-07-14 19:06 OP:ep   STATUS:               ID:20110620102143 L   I
 2011-06-20-1020-00M.COL___125                                                 6
 STAT SP IPHASW D HRMM SECON CODA AMPLIT PERI AZIMU VELO SNR AR TRES W  DIS CAZ7
 BTL  SZ EP       1022  3.13                             169     0.210   29 289 
 BTL  SZ ES   3   1022 17.78                             169    -0.2 2   29 289 
 BAR2 SZ EP       1022  2.97                             168    -0.110   32 214 
 BAR2 SZ I        1022  3.56         2.8 0.35                            32 214 
 BRR  HZ EP       1022  4.85                             150    -0.210   83 292 
 BRR  HZ I        1022  6.40         2.2 0.22                            83 292 
 BRR  HN ES   1   1022 21.96                             150     0.2 7   83 292 
 RUS  HZ EP   2   1022  7.40                             143     0.1 5  104 184 
 RUS  HN ES   3   1022 25.73                             143     0.0 2  104 184 
                                                                                
