 2017 1020 1542  2.9 L   6.726 -73.129152.6  RSN  5 0.3 1.4LRSN                1
 GAP=234        0.82       5.2     5.6  7.3  0.1225E+02  0.1048E+02  0.3622E+01E
 Epicentro: JORDAN - SANTANDER                                                 3
 ACTION:UPD 17-11-07 19:34 OP:rebc STATUS:               ID:20171020154202 L   I
 OLDACT:UP  17-10-21 00:24 OP:edw  STATUS:               ID:20171020152940     3
 OLDACT:REG 17-10-20 20:18 OP:edw  STATUS:               ID:20171020152940     3
 2017-10-20-1538-00M.COL___459                                                 6
 STAT SP IPHASW D HRMM SECON CODA AMPLIT PERI AZIMU VELO AIN AR TRES W  DIS CAZ7
 BAR2 EZ EP       1542 22.85                             174   -0.3610 15.9 202 
 BAR2 EZ ES       1542 38.83                             174   -0.2410 15.9 202 
 BAR2 EZ I        1542 39.90         8.5 0.28            173           15.9 202 
 BRR  HZ EP       1542 24.92                             152   -0.1710 77.0 303 
 BRR  HN ES       1542 42.89                             152    0.4710 77.0 303 
 RUS  HZ EP       1542 27.27                             147    0.5310 92.2 177 
 RUS  HN ES       1542 45.29                             147   -0.0710 92.2 177 
 RUS  HZ I        1542 46.69         2.9 0.38            148           92.2 177 
 ZAR  HN ES       1543  2.16                             123   -0.16 8  209 294 
 NOR  HN ES       1543  6.53                             120   -0.07 8  232 236 
                                                                                
