 2017 1120 1441 14.1 L   6.797 -73.168142.0  RSN  8 0.4 1.8LRSN                1
 GAP=143        0.87       4.0     3.9  6.4 -0.3229E+01  0.6349E+01  0.9848E+01E
 Epicentro: LOS SANTOS - SANTANDER                                             3
 ACTION:UPD 17-12-12 19:57 OP:rebc STATUS:               ID:20171120144114 L   I
 OLDACT:UP  17-11-20 22:56 OP:dani STATUS:               ID:20171120143742     3
 OLDACT:UP  17-11-20 22:56 OP:dani STATUS:               ID:20171120143742     3
 OLDACT:UP  17-11-20 22:55 OP:dani STATUS:               ID:20171120143742     3
 OLDACT:REG 17-11-20 21:18 OP:dani STATUS:               ID:20171120143742     3
 2017-11-20-1438-00M.COL___461                                                 6
 STAT SP IPHASW D HRMM SECON CODA AMPLIT PERI AZIMU VELO AIN AR TRES W  DIS CAZ7
 BAR2 EZ EP       1441 33.16                             171   -0.0610 22.7 184 
 BAR2 EZ ES       1441 48.19                             171    0.0210 22.7 184 
 BAR2 EZ I        1441 49.18        14.4 0.38            168           22.7 184 
 PAM  EZ EP     C 1441 35.95                             149   -0.0410 79.2  41 
 PAM  EN ES       1441 53.08                             149   -0.0110 79.2  41 
 PAM  EZ I        1441 55.36        15.4 0.50            154           79.2  41 
 PTB  HZ EP       1441 39.98                             131   -0.52 9  145 259 
 PTB  HN ES       1442  0.80                             131   -0.32 9  145 259 
 PTB  HZ I        1442  6.55         5.9 0.36            132            145 259 
 ZAR  HE ES       1442 11.43                             122    0.44 9  202 292 
 NOR  HZ EP       1441 50.42                             118    1.08 8  233 234 
 NOR  HN ES       1442 16.55                             118   -0.31 8  233 234 
 NOR  HZ I        1442 22.78         3.8 0.24            119            233 234 
 CHI  HZ EP       1441 51.48                             116    0.03 8  248 195 
 CHI  HN ES       1442 20.78                             116    0.17 8  248 195 
 CHI  HZ I        1442 24.38         3.3 0.54            117            248 195 
 PRA  HZ EP       1442  7.06                             106   -0.22 6  391 209 
 PRA  HN ES       1442 48.74                             106   -0.05 6  391 209 
 PRA  HZ I        1442 55.35         2.3 0.54            107            391 209 
 SJC  HZ EP   3   1442  7.35                             105   -2.03 1  408 327 
                                                                                
