 2010  120 1945 50.0 L   6.796 -73.052148.7  RSN  9 0.4 3.5LRSN                1
 GAP=192        0.79       3.3     9.1  5.8 -0.7761E+01  0.3009E+02 -0.1788E+01E
 Epicentro: LOS SANTOS - SANTANDER                                             3
 ACTION:UP  10-08-24 09:45 OP:vdl  STATUS:               ID:20100120194550 L   I
 2010-01-20-1941-58S.COL___096                                                 6
 STAT SP IPHASW D HRMM SECON CODA AMPLIT PERI AZIMU VELO SNR AR TRES W  DIS CAZ7
 BAR2 SZ IP       1946 10.22                             169     0.110   27 213 
 BAR2 SZ ES       1946 25.43                             169    -0.310   27 213 
 RUS  BZ IP       1946 14.06                             144     0.010  100 182 
 RUS  BE ES       1946 32.67                             144    -0.110  100 182 
 RUS  BZ I        1946 34.10       302.5 0.23                           100 182 
 OCA  SZ IP       1946 18.55                             130    -0.2 9  162 350 
 OCA  SZ ES   1   1946 41.64                             130     0.5 7  162 350 
 OCA  SZ I        1946 47.03       601.3 0.40                           162 350 
 CHI  HZ EP   1   1946 28.18                             117     0.0 6  251 197 
 CHI  HZ I        1946 30.93       102.2 0.45                           251 197 
 CHI  HE ES   1   1946 58.27                             117     0.4 6  251 197 
 ROSC BZ EP       1946 29.59                             117     0.7 8  258 213 
 RREF BZ IP       1946 37.22                             111     0.1 7  329 231 
 RREF BE ES   1   1947 14.27                             111     0.3 5  329 231 
 RREF BZ I        1947 18.69       127.8 0.25                           329 231 
 DBB  SZ EP   1   1946 38.48                             109    -0.3 5  350 274 
 TOL  SZ IP       1946 38.72                             109    -0.5 6  351 226 
 PRA  HZ IP       1946 43.57                             107    -0.6 6  397 211 
 PRA  HN ES   1   1947 26.22                             107    -0.3 4  397 211 
 PRA  HZ I        1947 31.99       106.6 0.67                           397 211 
                                                                                
