 2014  920 1027  6.2 L   6.779 -73.071147.6  RSN  7 0.4 1.4LRSN                1
 GAP=147        1.14       4.9     5.8  7.4 -0.3347E+00  0.1352E+02  0.7325E+00E
 Epicentro: LOS SANTOS - SANTANDER                                             3
 ACTION:UPD 14-10-03 23:06 OP:nd   STATUS:               ID:20140920102706 L   I
 OLDACT:REG 14-09-20 22:22 OP:carl STATUS:               ID:20140920101817     3
 2014-09-20-1018-17M.COL___293                                                 6
 STAT SP IPHASW D HRMM SECON CODA AMPLIT PERI AZIMU VELO AIN AR TRES W  DIS CAZ7
 BAR2 SZ EP       1027 26.20                             170    0.1110 24.0 211 
 BAR2 SZ ES       1027 41.33                             170   -0.2510 24.0 211 
 BAR2 SZ I        1027 42.68        10.1 0.20            169           24.0 211 
 PAM  SZ EP       1027 28.98                             152    0.5210 74.3  33 
 PAM  SN ES       1027 45.08                             152   -0.7210 74.3  33 
 PAM  SZ I        1027 48.38         2.5 0.50            155           74.3  33 
 BRR  HZ EP       1027 28.12                             150    0.0510 79.6 297 
 BRR  HN ES       1027 45.53                             150    0.4310 79.6 297 
 RUS  HZ EP       1027 30.17                             145    0.1910 98.0 181 
 RUS  HN ES       1027 49.06                             145    0.5610 98.0 181 
 RUS  HZ I        1027 50.44         1.9 0.28            146           98.0 181 
 PTB  HZ EP       1027 33.60                             131   -0.45 9  155 260 
 PTB  HN ES   4   1027 53.66                             131   -2.09 0  155 260 
 PTB  HZ I        1027 56.57         3.5 0.38            131            155 260 
 SPBC HZ EP       1027 35.21                             129    0.00 9  167 222 
 SPBC HN ES       1027 57.13                             129   -0.68 9  167 222 
 SPBC HZ I        1028  3.29         3.5 0.24            129            167 222 
 ZAR  HZ EP       1027 39.20                             122   -0.48 8  213 292 
 ZAR  HN ES       1028  6.31                             122    0.55 8  213 292 
 ZAR  HZ I        1028 10.52         4.3 0.34            122            213 292 
                                                                                
