 2013 1120 1542 27.2 L   6.544 -73.513112.7  RSN 11 0.4 2.2LRSN                1
 GAP= 66        0.80       3.1     3.6  5.2 -0.2865E+01  0.8653E+01 -0.6190E+00E
 Epicentro: EL CARMEN DE CHUCURI - SANTANDER                                   3
 ACTION:UPD 14-01-09 16:29 OP:ep   STATUS:               ID:20131120154227 L   I
 OLDACT:UP  13-11-20 18:20 OP:cam  STATUS:               ID:20131120154000     3
 OLDACT:REG 13-11-20 17:50 OP:cam  STATUS:               ID:20131120154000     3
 2013-11-20-1540-00M.COL___279                                                 6
 STAT SP IPHASW D HRMM SECON CODA AMPLIT PERI AZIMU VELO AIN AR TRES W  DIS CAZ7
 BAR2 SZ EP     C 1542 43.58                             161    0.2310 37.0  82 
 BAR2 SZ ES       1542 56.05                             161    0.1210 37.0  82 
 BAR2 SZ I        1542 57.22       223.0 0.42            156           37.0  82 
 BRR  HZ EP       1542 44.20                             147   -0.3610 66.1 341 
 BRR  HN ES       1542 58.13                             147    0.0410 66.1 341 
 BRR  HZ I        1543  2.35        23.9 0.14            136           66.1 341 
 RUS  HZ EP       1542 46.59                             140   -0.1310 86.3 146 
 RUS  HN ES   1   1543  2.45                             140    0.52 7 86.3 146 
 RUS  HZ I        1543  3.60        14.9 0.36            138           86.3 146 
 PTB  HZ IP   4   1542 46.40                             134   -1.16 0  104 270 
 PTB  HN ES   4   1543  1.64                             134   -1.78 0  104 270 
 PTB  HZ I        1543  4.76        30.3 0.14            127            104 270 
 SPBC HZ EP   2   1542 48.83                             131    0.08 5  116 212 
 SPBC HN ES   1   1543  4.77                             131   -0.78 7  116 212 
 SPBC HZ I        1543 10.65        32.7 0.22            127            116 212 
 PAM  SZ EP       1542 50.05                             128   -0.1310  126  46 
 PAM  SN ES   1   1543  8.06                             128   -0.03 7  126  46 
 PAM  SZ I        1543 12.01         9.0 0.50            121            126  46 
 ZAR  HZ EP       1542 55.61                             117    0.30 9  182 305 
 ZAR  HE ES   4   1543 18.15                             117    0.93 0  182 305 
 ZAR  HZ I        1543 21.78        25.8 0.30            111            182 305 
 NOR  HZ EP       1542 55.23                             117   -0.49 9  185 234 
 NOR  HN ES   1   1543 17.94                             117   -0.02 7  185 234 
 NOR  HZ I        1543 20.53        22.4 0.14            112            185 234 
 HEL  HZ EP       1543  1.24                             112    0.52 8  226 260 
 HEL  HN ES   2   1543 27.07                             112    0.22 4  226 260 
 HEL  HZ I        1543 31.73        10.7 0.22            108            226 260 
 GUY2CHZ EP   1   1543  4.50                             109    0.76 6  252 235 
 SML  HZ EP   1   1543  3.35                             108   -0.43 6  257 346 
 SML  HZ I        1543 36.61        20.0 0.10            104            257 346 
                                                                                
