 2017  920 1447 34.1 L   6.803 -73.125142.6  RSN 15 0.5 2.5LRSN                1
 GAP=101        1.04       3.3     2.9  5.2  0.6339E+00  0.4331E+01  0.4758E+01E
 Epicentro: LOS SANTOS - SANTANDER                                             3
 ACTION:UPD 17-10-05 19:14 OP:rebc STATUS:               ID:20170920144734 L   I
 OLDACT:DUP 17-09-21 00:00 OP:lv   STATUS:               ID:20170920143746d    3
 2017-09-20-1438-00M.COL___440                                                 6
 STAT SP IPHASW D HRMM SECON CODA AMPLIT PERI AZIMU VELO AIN AR TRES W  DIS CAZ7
 BAR2 EZ IP     C 1447 53.18                             170   -0.1610 24.1 195 
 BAR2 EZ ES       1448  7.73                             170   -0.6410 24.1 195 
 BAR2 EZ I        1448 10.55        75.9 0.26            167           24.1 195 
 BRR  HZ IP     C 1447 55.03                             151    0.0410 73.0 297 
 BRR  HN ES       1448 11.94                             151    0.6410 73.0 297 
 BRR  HZ I        1448 12.83        50.5 0.12            152           73.0 297 
 PAM  EZ IP     C 1447 55.94                             151    0.0910 75.7  38 
 PAM  EN ES       1448 12.83                             151   -0.0110 75.7  38 
 PAM  EZ I        1448 15.17        52.6 0.42            156           75.7  38 
 RUS  HZ EP       1447 57.20                             143   -0.3310  101 177 
 RUS  HN ES       1448 15.68                             143   -0.1410  101 177 
 RUS  HZ I        1448 17.68        35.9 0.32            143            101 177 
 TAM  HZ EP       1448  1.56                             130    0.25 9  153 105 
 TAM  HN ES       1448 23.12                             130    0.57 9  153 105 
 TAM  HZ I        1448 23.71        27.3 0.34            133            153 105 
 YPLC HZ IP     C 1448  3.66                             126    0.10 9  176 152 
 YPLC HN ES       1448 26.15                             126   -0.41 9  176 152 
 YPLC HZ I        1448 28.41        17.7 0.34            127            176 152 
 ZAR  HZ EP       1448  6.23                             121   -0.28 8  206 292 
 ZAR  HE ES       1448 31.52                             121   -0.30 8  206 292 
 ZAR  HZ I        1448 37.14        43.3 0.50            123            206 292 
 TABC EZ EP       1448 10.69                             118    0.90 8  231 211 
 TABC EZ ES   4   1448 40.72                             118    3.08 0  231 211 
 TABC EZ I        1448 42.77        39.1 0.49            119            231 211 
 NOR  HZ EP       1448  9.40                             117   -0.43 8  237 235 
 NOR  HN ES       1448 38.19                             117    0.46 8  237 235 
 NOR  HZ I        1448 42.61        20.8 0.16            118            237 235 
 CHI  HZ EP       1448 11.59                             116   -0.10 8  250 196 
 CHI  HN ES       1448 40.80                             116   -0.24 8  250 196 
 CHI  HZ I        1448 47.93        13.3 0.42            117            250 196 
 ROSC BZ EP   9   1448 13.64                             116    1.46 0  254 211 
 ROSC BN ES       1448 43.00                                   -0.36 8  254 211 
 ROSC BZ I        1448 47.81        31.0 0.50            117            254 211 
 HEL  HZ EP       1448 13.20                             114   -1.17 8  274 256 
 HEL  HN ES       1448 46.28                             114    0.47 8  274 256 
 HEL  HZ I        1448 52.47        20.4 0.54            115            274 256 
 GUY2CHZ EP       1448 17.77                             111    0.01 7  303 235 
 GUY2CHN ES       1448 52.63                             111    0.79 7  303 235 
 GUY2CHZ I        1448 59.85        17.3 0.58                           303 235 
 DBB  EZ EP   4   1448 21.15                             109   -0.52 0  342 274 
 DBB  HN ES   4   1448 55.84                             109   -2.96 0  342 274 
 DBB  EZ I        1448 58.32         7.7 0.28            110            342 274 
 PRA  HZ EP       1448 27.72                             106    0.08 6  393 210 
 PRA  HN ES       1449  9.54                             106    0.11 6  393 210 
 PRA  HZ I        1449 14.55        12.1 0.26            107            393 210 
                                                                                
