 2010  120 1536  6.8 L   6.798 -73.062144.7  RSN  5 0.2 2.1LRSN                1
 GAP=206        0.39       5.4    14.3  7.4 -0.4727E+02  0.7979E+02 -0.1674E+02E
 Epicentro: LOS SANTOS - SANTANDER                                             3
 ACTION:UP  10-08-24 09:45 OP:vdl  STATUS:               ID:20100120153606 L   I
 2010-01-20-1532-33S.COL___096                                                 6
 STAT SP IPHASW D HRMM SECON CODA AMPLIT PERI AZIMU VELO SNR AR TRES W  DIS CAZ7
 BAR2 SZ EP   2   1536 26.23                             169    -0.1 6   27 210 
 GIR2 SZ EP   2   1536 26.36                             166     0.0 6   34 335 
 RUS  BZ EP   2   1536 30.27                             144    -0.1 6  100 181 
 RUS  BE ES   1   1536 48.94                             144     0.110  100 181 
 RUS  BZ I        1536 49.82         9.5 0.34                           100 181 
 CHI  HZ IP       1536 44.68                             117     0.010  251 197 
 CHI  HE ES   2   1537 13.68                             117    -0.6 5  251 197 
 CHI  HZ I        1537 23.10         6.7 0.33                           251 197 
 PRA  HZ IP       1537  0.98                             106     0.2 7  396 211 
 PRA  HE ES   1   1537 42.96                             106     0.1 6  396 211 
 PRA  HZ I        1537 46.11         8.0 0.57                           396 211 
                                                                                
