 2013  420 1636 45.4 L   6.842 -73.296139.9  RSN  4 0.2 1.2LRSN                1
 GAP=155        0.47       3.1     4.8  4.7 -0.6544E+01  0.1267E+02 -0.3844E+01E
 Epicentro: ZAPATOCA - SANTANDER                                               3
 ACTION:UPD 13-05-22 14:39 OP:EP   STATUS:               ID:20130420163645 L   I
 2013-04-20-1628-39M.COL___218                                                 6
 STAT SP IPHASW D HRMM SECON CODA AMPLIT PERI AZIMU VELO AIN AR TRES W  DIS CAZ7
 BAR2 SZ EP       1637  4.77                             167    0.3010 30.3 156 
 BAR2 SZ ES       1637 19.44                             167    0.0810 30.3 156 
 BAR2 SZ I        1637 23.04         2.5 0.26            170           30.3 156 
 PAM  SZ EP       1637  7.59                             147    0.0810 85.9  50 
 PAM  SN ES       1637 24.62                             147   -0.1610 85.9  50 
 PAM  SN I        1637 25.89         4.3 0.46            151           85.9  50 
 RUS  HZ EP       1637  8.95                             141   -0.1310  108 167 
 RUS  HN ES       1637 27.52                             141   -0.0610  108 167 
 PTB  HN EP       1637 10.38                             134   -0.1210  133 255 
                                                                                
