 2015  320 1816 11.4 L   6.804 -73.155143.9  RSN 26 0.4 2.9LRSN                1
 GAP= 70        1.31       2.9     3.4  5.5 -0.1447E+01  0.4864E+01  0.3289E+01E
 Epicentro: LOS SANTOS - SANTANDER                                             3
 ACTION:UPD 15-04-30 16:27 OP:nd   STATUS:               ID:20150320181611 L   I
 OLDACT:REG 15-03-20 21:05 OP:stll STATUS:               ID:20150320180750     3
 2015-03-20-1807-50M.COL___275                                                 6
 STAT SP IPHASW D HRMM SECON CODA AMPLIT PERI AZIMU VELO AIN AR TRES W  DIS CAZ7
 BAR2 EZ IP     D 1816 30.82                             170    0.0510 23.7 187 
 BAR2 EZ ES       1816 46.16                             170    0.2510 23.7 187 
 BAR2 EZ I        1816 47.66       128.7 0.46            169           23.7 187 
 BRR  HZ IP     C 1816 32.77                             153    0.5310 70.1 299 
 BRR  HZ I        1816 32.96       141.8 0.20            151           70.1 299 
 BRR  HE ES       1816 49.39                             153    0.8610 70.1 299 
 PAM  SZ IP     D 1816 33.61                             150    0.2210 77.6  40 
 PAM  SN ES       1816 50.49                             150   -0.0810 77.6  40 
 PAM  SZ I        1816 52.97        96.7 0.56            155           77.6  40 
 RUS  HZ IP     D 1816 34.65                             143   -0.3210  101 176 
 RUS  HN ES       1816 53.23                             143   -0.1510  101 176 
 RUS  HZ I        1816 56.06        53.5 0.50            145            101 176 
 PTB  HZ EP     C 1816 37.61                             132   -0.49 9  147 259 
 PTB  HN ES       1816 58.61                             132   -0.34 9  147 259 
 PTB  HZ I        1817  4.72       100.3 0.60            132            147 259 
 TAM  HZ IP     D 1816 38.95                             130   -0.04 9  156 105 
 TAM  HZ I        1816 39.20       132.3 0.30            134            156 105 
 TAM  HE ES       1817  0.19                             130   -0.35 9  156 105 
 OCA  HZ EP       1816 39.32                             129   -0.15 9  160 353 
 OCA  HN ES       1817  1.55                             129    0.16 9  160 353 
 OCA  HZ I        1817  6.74       203.9 0.36            132            160 353 
 SPBC HZ EP     D 1816 39.68                             128   -0.01 9  163 219 
 SPBC HN ES       1817  1.65                             128   -0.14 9  163 219 
 SPBC HZ I        1817  8.91       169.4 0.36            130            163 219 
 ZAR  HZ EP       1816 43.17                             122   -0.40 9  203 292 
 ZAR  HE ES       1817  8.34                             122   -0.35 9  203 292 
 ZAR  HZ I        1817 15.31       103.3 0.44            123            203 292 
 NOR  HZ EP       1816 46.65                             118   -0.28 8  234 234 
 NOR  HN ES       1817 14.39                             118   -0.28 8  234 234 
 NOR  HZ I        1817 22.05        67.2 0.26            119            234 234 
 SML  HZ EP       1816 47.76                             117   -0.03 8  243 335 
 SML  HE ES       1817 16.04                             117   -0.16 8  243 335 
 SML  HZ I        1817 20.57       138.6 0.10            119            243 335 
 ROSC BZ EP       1816 49.26                             116   -0.11 8  253 211 
 ROSC BE ES       1817 18.99                             116   -0.02 8  253 211 
 ROSC BZ I        1817 24.13        66.8 0.40            118            253 211 
 HEL  HZ EP       1816 52.19                             114    0.80 8  271 256 
 HEL  HN ES       1817 22.70                             114    0.10 8  271 256 
 HEL  HZ I        1817 29.60        39.0 0.32            116            271 256 
 URE  HZ EP   9   1816 50.73                             113   -1.49 0  283 292 
 URE  HN ES       1817 20.76                                   -1.84 7  283 292 
 GUY2CHZ EP       1816 54.75                             112   -0.08 7  301 235 
 GUY2CHE ES       1817 28.36                             112   -0.37 7  301 235 
 GUY2CHZ I        1817 37.82        42.5 0.40                           301 235 
 VIL  SN EP       1816 54.79                             111    0.06 7  304 191 
 VIL  SE ES       1817 28.34                             111   -0.21 7  304 191 
 RREF HZ EP       1816 57.02                             110   -0.35 7  321 229 
 RREF HE ES       1817 33.93                             110    0.67 7  321 229 
 RREF HZ I        1817 40.59        47.9 0.30            112            321 229 
 CBOC HZ EP       1816 58.49                             109    0.38 7  333 252 
 CBOC HZ I        1816 59.49        17.9 0.38            111            333 252 
 DBB  SZ EP     C 1816 58.25                             109   -0.39 7  338 274 
 TOL  SZ EP       1817  0.09                             109    0.59 7  343 224 
 TOL  SN ES       1817 37.03                             109   -0.02 7  343 224 
 ANIL HZ EP       1817  2.30                             108    1.24 6  357 224 
 ANIL HN ES       1817 40.10                             108    0.29 6  357 224 
 ANIL HZ I        1817 47.34        11.5 0.48            109            357 224 
 SDV  BZ EP   9   1817  0.15                             108   -1.23 0  361  50 
 SDV  BN ES       1817 37.03                                   -2.13 6  361  50 
 PRA  HZ EP       1817  4.06                             106   -0.75 6  392 209 
 PRA  HE ES       1817 46.61                             106    0.11 6  392 209 
 PRA  HZ I        1817 52.40        32.5 0.42            108            392 209 
 ORTC HZ EP       1817  4.86                             106   -0.34 6  395 216 
 ORTC HN ES       1817 47.35                             106    0.16 6  395 216 
 ORTC HZ I        1817 51.99        19.6 0.56            107            395 216 
 SJC  HZ EP   9   1817  4.64                             105   -2.11 0  408 327 
 SJC  HN ES       1817 45.16                                   -2.68 6  408 327 
 SJC  HZ I        1817 49.22        10.3 0.18            107            408 327 
 CRJC HZ EP   9 C 1817 11.09                             103   -2.67 0  467   4 
 CRJC HN ES       1817 58.29                                   -1.47 5  467   4 
 CRJC HZ I        1818  5.26        13.7 0.42            105            467   4 
                                                                                
