 2014  120 1914 26.7 L   6.865 -73.457114.1  RSN  6 0.8 2.2LRSN                1
 GAP= 93        1.91      11.3     9.7 16.9 -0.7103E+02 -0.2725E+02  0.7999E+02E
 Epicentro: SAN VICENTE DE CHUCURI - SANTANDER                                 3
 ACTION:UPD 14-03-13 09:57 OP:ep   STATUS:               ID:20140120191426 L   I
 OLDACT:REG 14-01-20 15:17 OP:stll STATUS:               ID:20140120190809     3
 2014-01-20-1908-09M.COL___244                                                 6
 STAT SP IPHASW D HRMM SECON CODA AMPLIT PERI AZIMU VELO AIN AR TRES W  DIS CAZ7
 BRR  HZ IP     C 1914 43.36                             160    0.6410 38.8 314 
 BRR  HZ I        1914 43.53        50.7 0.14            161           38.8 314 
 BRR  HN ES       1914 56.42                             160    1.2210 38.8 314 
 BAR2 SZ EP       1914 43.29                             158    0.0510 42.8 135 
 BAR2 SZ I        1914 43.47       204.4 0.10            160           42.8 135 
 PAM  SZ EP       1914 47.49                             137    0.1510 98.8  58 
 PAM  SN ES       1915  2.62                             137   -0.8210 98.8  58 
 PAM  SZ I        1915  6.71        13.0 0.38            140           98.8  58 
 PTB  HZ IP     C 1914 47.78                             131   -0.4510  116 252 
 PTB  HN ES       1915  3.54                             131   -1.4710  116 252 
 PTB  HZ I        1915  9.23        22.4 0.26            133            116 252 
 OCA  HN ES       1915 11.55                             123   -0.15 9  153   6 
 OCA  HZ I        1915 13.48        33.2 0.36            126            153   6 
 NOR  HZ EP       1914 58.94                             113    0.64 8  212 227 
 NOR  HE ES       1915 23.32                             113    0.38 8  212 227 
 NOR  HZ I        1915 27.32         9.5 0.16            116            212 227 
                                                                                
