 2010  820 1601 15.7 L   6.761 -73.590104.9  RSN  6 0.3 1.4LRSN                1
 GAP=191        0.86       6.0    11.1  7.7  0.3303E+02 -0.7000E+01 -0.3079E+01E
 Epicentro: EL CARMEN DE CHUCURI - SANTANDER                                   3
 ACTION:UP  10-09-07 10:56 OP:vdl  STATUS:               ID:20100820160115 L   I
 2010-08-20-1558-06S.COL___120                                                 6
 STAT SP IPHASW D HRMM SECON CODA AMPLIT PERI AZIMU VELO SNR AR TRES W  DIS CAZ7
 BTL  SZ EP       16 1 30.50                             158    -0.610   40  64 
 BTL  SZ ES   1   16 1 43.02                             158    -0.1 7   40  64 
 BRR  HZ EP       16 1 30.71                             157    -0.110   41 341 
 BRR  HN ES   1   16 1 42.83                             157     0.3 7   41 341 
 BRR  HZ I        16 1 46.43        14.9 0.34                            41 341 
 BAR2 SZ ES   2   16 1 43.74                             153    -0.1 5   49 113 
 BAR2 SZ I        16 1 46.12        11.1 0.31                            49 113 
 GIR2 SZ EP   1   16 1 32.34                             150     0.5 7   56  51 
 RUS  HZ EP   1   16 1 36.77                             130     0.0 7  111 150 
 RUS  HN ES   1   16 1 53.35                             130     0.3 7  111 150 
 RUS  HZ I        16 1 54.58         3.1 0.27                           111 150 
 GUE  SZ EP       16 1 39.43                             123     0.2 9  139  32 
 GUE  SZ I        16 1 40.09         4.3 0.10                           139  32 
                                                                                
