 2012 1120 1149 57.8 L   6.777 -73.170148.7  RSN  8 0.4 1.6LRSN                1
 GAP=179        0.72       4.1     5.4  5.6  0.8316E+01  0.4327E+01 -0.1701E-01E
 Epicentro: LOS SANTOS - SANTANDER                                             3
 ACTION:UPD 12-12-05 15:34 OP:}ep  STATUS:               ID:20121120114957 L   I
 2012-11-20-1150-00M.COL___233                                                 6
 STAT SP IPHASW D HRMM SECON CODA AMPLIT PERI AZIMU VELO AIN AR TRES W  DIS CAZ7
 BAR2 SZ EP   1   1150 17.61                             172   -0.15 7 20.5 184 
 BAR2 SZ ES   1   1150 33.07                             172   -0.24 7 20.5 184 
 BAR2 SZ I        1150 35.31         7.7 0.36                          20.5 184 
 GIR2 SZ EP   1   1150 18.06                             167    0.15 7 33.4 356 
 GIR2 SZ ES   1   1150 33.35                             167   -0.22 7 33.4 356 
 BRR  HN ES   1   1150 36.53                             153    0.60 7 70.1 301 
 BRR  HZ I        1150 42.13        13.8 0.38                          70.1 301 
 RUS  HZ EP   1   1150 21.77                             145    0.06 7 98.3 174 
 RUS  HN ES   1   1150 40.53                             145    0.19 7 98.3 174 
 RUS  HZ I        1150 41.25         2.1 0.24                          98.3 174 
 PTB  HZ EP   1   1150 24.13                             133   -0.62 7  145 260 
 PTB  HN ES   1   1150 45.28                             133   -0.48 7  145 260 
 PTB  HZ I        1150 52.83         6.0 0.54                           145 260 
 ZAR  HE ES   1   1150 56.14                             123    0.50 6  202 293 
 ZAR  HZ I        1151  1.50         4.8 0.36                           202 293 
 SML  HZ EP   1   1150 34.49                             118   -0.25 6  245 336 
 SML  HE ES   1   1151  3.54                             118    0.00 6  245 336 
 CHI  HZ EP   1   1150 35.95                             118    0.60 6  246 195 
 CHI  HZ I        1151 14.84         1.7 0.34                           246 195 
                                                                                
