 2012 1120 1857  7.8 L   6.743 -73.185144.5  RSN  5 0.2 1.2LRSN                1
 GAP=228        0.45       4.7     4.6  4.9  0.1398E+02  0.5542E+01  0.1903E+01E
 Epicentro: VILLANUEVA - SANTANDER                                             3
 ACTION:UPD 12-12-05 15:34 OP:}ep  STATUS:               ID:20121120185707 L   I
 2012-11-20-1850-00M.COL___234                                                 6
 STAT SP IPHASW D HRMM SECON CODA AMPLIT PERI AZIMU VELO AIN AR TRES W  DIS CAZ7
 BAR2 SZ ES   1   1857 41.94                             173   -0.27 7 16.6 179 
 BRR  HZ EP   1   1857 28.87                             152    0.13 7 70.8 305 
 BRR  HN ES   1   1857 45.17                             152    0.06 7 70.8 305 
 RUS  HZ EP   1   1857 30.98                             145    0.02 7 94.7 173 
 RUS  HE ES   1   1857 49.31                             145    0.25 7 94.7 173 
 RUS  HZ I        1857 52.52         2.6 0.32                          94.7 173 
 PTB  HZ EP   1   1857 33.81                             133   -0.32 7  142 261 
 PTB  HN ES   1   1857 54.64                             133   -0.07 7  142 261 
 PTB  HZ I        1857 56.58         2.4 0.12                           142 261 
 ZAR  HN ES   1   1858  5.30                             122    0.22 6  203 294 
                                                                                
