 2012  420 1016  1.3 L   6.761 -73.189147.1  RSN  5 0.2 1.7LRSN                1
 GAP=230        0.46       4.5     4.0  4.1  0.1126E+02  0.1993E+01 -0.4381E+00E
 Epicentro: VILLANUEVA - SANTANDER                                             3
 ACTION:UPD 12-07-05 11:54 OP:tino STATUS:               ID:20120420101601 L   I
 2012-04-20-1010-00M.COL___187                                                 6
 STAT SP IPHASW D HRMM SECON CODA AMPLIT PERI AZIMU VELO AIN AR TRES W  DIS CAZ7
 BAR2 SZ EP       1016 21.06                             172     0.010   19 178 
 BAR2 SZ I        1016 21.34         6.9 0.14                            19 178 
 BAR2 SZ ES   1   1016 36.17                             172    -0.2 7   19 178 
 BRR  HZ EP   1   1016 22.62                             153     0.1 7   69 304 
 BRR  HZ I        1016 24.46        11.5 0.10                            69 304 
 BRR  HE ES   1   1016 39.22                             153     0.2 7   69 304 
 RUS  HZ EP       1016 25.14                             145     0.210   97 173 
 RUS  HN ES   1   1016 43.24                             145    -0.1 7   97 173 
 PTB  HZ EP       1016 27.89                             133     0.0 9  142 260 
 PTB  HN ES   1   1016 48.69                             133     0.0 7  142 260 
 ZAR  HZ EP   1   1016 33.17                             123    -0.4 6  201 294 
 ZAR  HN ES   1   1016 58.79                             123     0.1 6  201 294 
 ZAR  HZ I        1017  4.55         6.8 0.33                           201 294 
                                                                                
