 2013  420 1635 34.7 L   6.746 -73.127144.8  RSN  6 0.5 1.5LRSN                1
 GAP=141        1.36       7.0     7.4 10.2 -0.5068E+01  0.4901E+00  0.9428E+01E
 Epicentro: JORDAN - SANTANDER                                                 3
 ACTION:UPD 13-05-22 14:39 OP:EP   STATUS:               ID:20130420163534 L   I
 2013-04-20-1628-39M.COL___218                                                 6
 STAT SP IPHASW D HRMM SECON CODA AMPLIT PERI AZIMU VELO AIN AR TRES W  DIS CAZ7
 BAR2 SZ EP   1   1635 54.19                             173    0.07 7 18.1 200 
 BAR2 SZ ES       1636  9.59                             173    0.3310 18.1 200 
 BAR2 SZ I        1636 10.32         5.2 0.26            170           18.1 200 
 GIR2 SZ ES       1636  9.82                             165   -0.0210 37.5 349 
 BRR  HZ EP       1635 55.96                             151   -0.0610 76.0 302 
 BRR  HE ES       1636 13.59                             151    0.9410 76.0 302 
 BRR  HE I        1636 17.50         8.9 0.22            147           76.0 302 
 PAM  SZ EP       1635 57.07                             150    0.0510 80.8  36 
 PAM  SZ I        1635 57.20         4.0 0.22            152           80.8  36 
 PAM  SN ES       1636 13.73                             150   -0.7010 80.8  36 
 RUS  HZ EP       1635 58.47                             145    0.5410 94.5 177 
 RUS  HN ES       1636 15.73                             145   -0.3110 94.5 177 
 RUS  HN I        1636 17.27         4.1 0.34            146           94.5 177 
 PTB  HN ES       1636 21.81                             132   -0.92 9  149 261 
 PTB  HN I        1636 27.76         9.0 0.26            130            149 261 
                                                                                
