 2016  920 1414 35.8 L   6.808 -73.094149.3  RSN  8 0.3 1.7LRSN                1
 GAP=143        0.62       2.7     2.9  3.9 -0.6352E+00  0.1131E+01  0.8426E+00E
 Epicentro: LOS SANTOS - SANTANDER                                             3
 ACTION:UPD 17-08-17 21:14 OP:lp   STATUS:               ID:20160920141435 L   I
 OLDACT:UP  16-09-21 00:11 OP:edw  STATUS:               ID:20160920140738d    3
 OLDACT:DUP 16-09-21 00:07 OP:edw  STATUS:               ID:20160920140738d    3
 OLDACT:UP  16-09-21 00:02 OP:edw  STATUS:               ID:20160920140736     3
 OLDACT:REG 16-09-20 20:52 OP:edw  STATUS:               ID:20160920140736     3
 2016-09-20-1408-00M.COL___366                                                 6
 STAT SP IPHASW D HRMM SECON CODA AMPLIT PERI AZIMU VELO AIN AR TRES W  DIS CAZ7
 BAR2 EZ EP       1414 55.60                             170   -0.2810 25.8 202 
 BAR2 EZ ES       1415 11.55                             170   -0.0110 25.8 202 
 BAR2 EZ I        1415 12.15         7.2 0.17            168           25.8 202 
 PAM  EZ EP       1414 58.42                             153    0.2910 73.2  36 
 PAM  EN ES       1415 15.49                             153   -0.0710 73.2  36 
 BRR  HZ EP       1414 57.34                             152   -0.2410 75.9 296 
 BRR  HN ES       1415 14.96                             152    0.3910 75.9 296 
 RUS  HZ EP       1415  0.11                             144    0.1910  101 179 
 RUS  HN ES       1415 18.79                             144    0.0410  101 179 
 RUS  HZ I        1415 20.62         2.9 0.14            144            101 179 
 PTB  HZ EP   9   1415  2.48                             132   -1.08 0  154 259 
 PTB  HN ES       1415 23.86                             132   -0.29 9  154 259 
 PTB  HZ I        1415 28.77         5.9 0.12            131            154 259 
 SPBC HZ EP       1415  4.67                             129   -0.29 9  168 220 
 SPBC HE ES       1415 27.69                             129   -0.02 9  168 220 
 SPBC HZ I        1415 29.52        13.2 0.22            129            168 220 
 ZAR  HZ EP   2   1415  9.01                             123    0.04 4  209 291 
 ZAR  HN ES       1415 34.55                             123   -0.31 8  209 291 
 GUY2CHZ EP   2   1415 20.62                             113    0.48 4  306 235 
 GUY2CHN ES   2   1415 55.48                             113    0.74 4  306 235 
 GUY2CHZ I        1416  2.21         3.2 0.44                           306 235 
                                                                                
