 2017  620 1921  4.3 L   6.082 -73.697107.9  RSN  7 0.3 1.8LRSN                1
 GAP=244        0.76       3.9     5.8  8.3 -0.1170E+02 -0.2049E+02  0.8188E+01E
 Epicentro: CHIPATA - SANTANDER                                                3
 ACTION:UPD 17-09-14 16:53 OP:jn   STATUS:               ID:20170620192104 L   I
 OLDACT:UP  17-06-21 01:58 OP:ar   STATUS:               ID:20170620191738     3
 OLDACT:UP  17-06-21 01:57 OP:ar   STATUS:               ID:20170620191738     3
 OLDACT:REG 17-06-20 23:24 OP:ar   STATUS:               ID:20170620191738     3
 2017-06-20-1918-00M.COL___343                                                 6
 STAT SP IPHASW D HRMM SECON CODA AMPLIT PERI AZIMU VELO AIN AR TRES W  DIS CAZ7
 PTB  HZ EP       1921 23.66                             134    0.0210 98.1 301 
 PTB  HN ES       1921 38.66                             134   -0.1010 98.1 301 
 PTB  HZ I        1921 40.91         8.1 0.18            134           98.1 301 
 BRR  HZ EP       1921 25.31                             130    0.3110  113 359 
 BRR  HN ES   4   1921 44.42                             130    3.23 0  113 359 
 NOR  HZ EP       1921 27.36                             123   -0.53 9  142 246 
 NOR  HE ES       1921 46.19                             123   -0.13 9  142 246 
 NOR  HZ I        1921 47.36         9.3 0.14            124            142 246 
 ZAR  HZ EP       1921 34.50                             113    0.18 9  202 321 
 ZAR  HE ES       1921 57.65                             113   -0.13 9  202 321 
 ZAR  HZ I        1922  0.98        10.9 0.40            114            202 321 
 HEL  HZ EP       1921 35.42                             113    0.51 9  203 273 
 HEL  HN ES       1921 58.94                             113    0.12 9  203 273 
 HEL  HZ I        1922  2.09         6.3 0.34            114            203 273 
 GUY2CHZ EP       1921 35.46                             112   -0.10 8  208 243 
 GUY2CHN ES       1922  0.36                             112    0.38 8  208 243 
 GUY2CHZ I        1922  3.19         3.7 0.48                           208 243 
 URE  HZ EP       1921 42.09                             106   -0.58 8  274 312 
 URE  HE ES   4   1922 10.27                             106   -2.36 0  274 312 
 URE  HZ I        1922 11.61         5.9 0.16            107            274 312 
                                                                                
