 2013  220 1758 44.4 L   6.759 -73.147144.0  RSN  6 0.4 1.7LRSN                1
 GAP=138        0.89       7.8     5.3  8.3 -0.2969E-01  0.9400E+01  0.9091E+01E
 Epicentro: LOS SANTOS - SANTANDER                                             3
 ACTION:UPD 13-03-12 09:34 OP:ep   STATUS:               ID:20130220175844 L   I
 2013-02-20-1757-38M.COL___197                                                 6
 STAT SP IPHASW D HRMM SECON CODA AMPLIT PERI AZIMU VELO AIN AR TRES W  DIS CAZ7
 BAR2 SZ EP   1   1759  3.92                             172    0.15 7 18.8 192 
 BAR2 SZ ES   1   1759 18.14                             172   -0.71 7 18.8 192 
 BRR  HZ EP   1   1759  5.75                             151    0.23 7 73.3 302 
 BRR  HE ES   1   1759 22.85                             151    0.88 7 73.3 302 
 BRR  HZ I        1759 25.95        12.9 0.26            161           73.3 302 
 PAM  SZ EP   1   1759  6.75                             149    0.06 7 81.1  38 
 PAM  SN ES   1   1759 23.81                             149   -0.24 7 81.1  38 
 PAM  SZ I        1759 28.15         4.7 0.16            151           81.1  38 
 RUS  HZ EP   1   1759  8.23                             145    0.54 7 96.0 176 
 RUS  HZ I        1759 27.73         6.9 0.40            131           96.0 176 
 PTB  HZ EP   1   1759 10.83                             132   -0.34 7  147 261 
 PTB  HN ES   1   1759 31.93                             132   -0.10 7  147 261 
 PTB  HZ I        1759 35.40         8.1 0.12            130            147 261 
 ZAR  HZ EP   1   1759 16.36                             122   -0.58 6  206 293 
 ZAR  HE ES   1   1759 42.15                             122   -0.14 6  206 293 
                                                                                
