 2015  420 1309 58.1 L   6.726 -73.127152.9  RSN  5 0.3 1.5LRSN                1
 GAP=168        0.72       7.9     4.6  7.2 -0.6393E+01  0.6211E+01  0.8851E+01E
 Epicentro: JORDAN - SANTANDER                                                 3
 ACTION:UPD 15-06-03 16:56 OP:cam  STATUS:               ID:20150420130958 L   I
 OLDACT:REG 15-04-20 22:40 OP:spq  STATUS:               ID:20150420130747     3
 2015-04-20-1307-47M.COL___262                                                 6
 STAT SP IPHASW D HRMM SECON CODA AMPLIT PERI AZIMU VELO AIN AR TRES W  DIS CAZ7
 BAR2 EZ EP       1310 18.68                             174    0.2010 16.0 203 
 BAR2 EZ ES   1   1310 34.49                             174    0.13 7 16.0 203 
 BAR2 EZ I        1310 35.56         4.6 0.50            170           16.0 203 
 BRR  HZ EP   1   1310 20.41                             152    0.04 7 77.2 303 
 BRR  HN ES   1   1310 38.27                             152    0.54 7 77.2 303 
 BRR  HZ I        1310 39.70         7.7 0.28            148           77.2 303 
 PAM  SZ EP   1   1310 21.59                             150    0.20 7 82.6  35 
 PAM  SE ES   1   1310 38.94                             150   -0.61 7 82.6  35 
 PAM  SZ I        1310 39.41         2.9 0.22            153           82.6  35 
 PTB  HZ EP       1310 25.57                             133   -0.16 9  148 262 
 PTB  HN ES   1   1310 46.75                             133   -0.52 7  148 262 
 PTB  HZ I        1310 52.34         3.7 0.54            132            148 262 
 ZAR  HN ES   1   1310 57.70                             123    0.06 6  209 294 
 ZAR  HZ I        1311  3.20         3.3 0.24            122            209 294 
                                                                                
