 2015  420 1345 58.4 L   6.772 -73.144151.9  RSN  7 0.3 1.8LRSN                1
 GAP=138        0.71       3.8     3.9  6.1  0.2909E+01 -0.5895E+00 -0.6278E+01E
 Epicentro: LOS SANTOS - SANTANDER                                             3
 ACTION:UPD 15-06-03 16:56 OP:cam  STATUS:               ID:20150420134558 L   I
 OLDACT:REG 15-04-20 22:42 OP:spq  STATUS:               ID:20150420133749     3
 2015-04-20-1337-49M.COL___259                                                 6
 STAT SP IPHASW D HRMM SECON CODA AMPLIT PERI AZIMU VELO AIN AR TRES W  DIS CAZ7
 BAR2 EZ EP       1346 18.56                             172   -0.2010 20.4 192 
 BAR2 EZ ES   1   1346 34.46                             172   -0.15 7 20.4 192 
 BAR2 EZ I        1346 35.22        13.8 0.18            171           20.4 192 
 BRR  HZ EP       1346 20.40                             153    0.0510 72.8 301 
 BRR  HE ES       1346 37.78                             153    0.3410 72.8 301 
 BRR  HZ I        1346 43.43         8.1 0.62            150           72.8 301 
 PAM  SZ EP       1346 21.42                             151   -0.0310 79.7  38 
 RUS  HZ EP   1   1346 22.65                             146    0.06 7 97.5 176 
 RUS  HN ES       1346 41.36                             146   -0.0710 97.5 176 
 RUS  HZ I        1346 42.44         8.2 0.30            150           97.5 176 
 PTB  HZ EP   1   1346 26.33                             133    0.45 7  147 260 
 PTB  HN ES   1   1346 46.36                             133   -0.92 7  147 260 
 PTB  HZ I        1346 52.02         4.1 0.32            133            147 260 
 SPBC HE ES       1346 49.96                             131    0.31 9  161 220 
 SPBC HZ I        1346 52.25        14.6 0.22            132            161 220 
 ZAR  HZ EP   1   1346 31.23                             124   -0.20 6  205 293 
 ZAR  HN ES       1346 57.17                             124    0.01 8  205 293 
 ZAR  HZ I        1347  2.54         5.0 0.29            124            205 293 
                                                                                
