 2013 1120 1354 59.6 L   6.732 -73.138146.3  RSN  5 0.3 1.7LRSN                1
 GAP=162        0.75       7.2     4.3  6.1 -0.1260E+02  0.3197E+01  0.3337E+01E
 Epicentro: JORDAN - SANTANDER                                                 3
 ACTION:UPD 14-01-09 16:29 OP:ep   STATUS:               ID:20131120135459 L   I
 OLDACT:REG 13-11-20 17:47 OP:cam  STATUS:               ID:20131120135000     3
 2013-11-20-1350-00M.COL___279                                                 6
 STAT SP IPHASW D HRMM SECON CODA AMPLIT PERI AZIMU VELO AIN AR TRES W  DIS CAZ7
 BAR2 SZ EP       1355 19.40                             173    0.2410 16.2 197 
 BAR2 SZ ES       1355 34.45                             173    0.0310 16.2 197 
 BAR2 SZ I        1355 35.63        17.4 0.26            174           16.2 197 
 BRR  HZ EP       1355 21.18                             151    0.1210 75.8 303 
 BRR  HN ES       1355 38.21                             151    0.4110 75.8 303 
 PAM  SZ EP       1355 22.39                             149    0.2010 82.8  36 
 PAM  SN ES       1355 39.33                             149   -0.4910 82.8  36 
 PAM  SZ I        1355 41.62         5.8 0.50            150           82.8  36 
 PTB  HZ EP       1355 26.26                             132   -0.30 9  147 262 
 PTB  HN ES       1355 47.29                             132   -0.30 9  147 262 
 PTB  HZ I        1355 48.84         6.5 0.42            133            147 262 
 ZAR  HN ES   2   1355 58.05                             122   -0.03 4  208 294 
                                                                                
