 2014 1120 1056 53.6 L   6.779 -73.171143.5  RSN  9 0.5 1.8LRSN                1
 GAP=134        1.14       3.3     4.7  6.4 -0.1282E+01  0.5571E+01  0.1305E+01E
 Epicentro: LOS SANTOS - SANTANDER                                             3
 ACTION:UPD 14-12-19 15:45 OP:nd   STATUS:               ID:20141120105653 L   I
 OLDACT:ARG 14-11-20 21:12 OP:stll STATUS:               ID:20141120104744     3
 2014-11-20-1047-44M.COL___292                                                 6
 STAT SP IPHASW D HRMM SECON CODA AMPLIT PERI AZIMU VELO AIN AR TRES W  DIS CAZ7
 BAR2 SZ EP       1057 12.98                             171    0.0810 20.7 184 
 BAR2 SZ I        1057 13.04        10.3 0.20            173           20.7 184 
 BAR2 SZ ES       1057 28.46                             171    0.5010 20.7 184 
 BRR  HZ IP     C 1057 14.86                             153    0.4310 69.9 301 
 BRR  HZ I        1057 15.13        23.3 0.24            150           69.9 301 
 BRR  HN ES       1057 31.25                             153    0.5810 69.9 301 
 PAM  SZ EP       1057 15.75                             149   -0.0310 80.9  40 
 PAM  SN ES       1057 32.63                             149   -0.4610 80.9  40 
 PAM  SZ I        1057 35.15         7.7 0.58            151           80.9  40 
 RUS  HZ EP       1057 17.05                             144    0.0810 98.5 174 
 RUS  HN ES       1057 35.28                             144    0.0710 98.5 174 
 RUS  HZ I        1057 36.30         4.8 0.38            147           98.5 174 
 PTB  HZ EP       1057 19.52                             132   -0.57 9  145 260 
 PTB  HN ES       1057 40.32                             132   -0.44 9  145 260 
 PTB  HZ I        1057 46.12         5.4 0.18            132            145 260 
 SPBC HZ EP       1057 22.16                             129    0.58 9  160 219 
 SPBC HN ES       1057 42.98                             129   -0.44 9  160 219 
 OCA  HZ EP       1057 21.93                             129    0.02 9  162 354 
 OCA  HE ES       1057 43.31                             129   -0.69 9  162 354 
 OCA  HZ I        1057 48.86        10.1 0.22            129            162 354 
 ZAR  HZ EP       1057 26.63                             122    0.91 9  202 293 
 ZAR  HN ES       1057 50.59                             122   -0.18 9  202 293 
 ZAR  HZ I        1057 58.07         7.8 0.32            122            202 293 
 CHI  HZ EP       1057 30.71                             117   -0.14 8  246 195 
 CHI  HN ES       1057 59.34                             117   -0.57 8  246 195 
                                                                                
