 2017  820 1358 52.8 L   6.764 -73.126142.5  RSN  8 0.4 1.5LRSN                1
 GAP=141        0.91       3.8     4.7  5.9 -0.6670E+01  0.5160E+01  0.5704E+01E
 Epicentro: LOS SANTOS - SANTANDER                                             3
 ACTION:UPD 17-09-04 20:22 OP:rebc STATUS:               ID:20170820135852 L   I
 OLDACT:REG 17-08-20 16:16 OP:lv   STATUS:               ID:20170820135738     3
 2017-08-20-1358-00M.COL___408                                                 6
 STAT SP IPHASW D HRMM SECON CODA AMPLIT PERI AZIMU VELO AIN AR TRES W  DIS CAZ7
 BAR2 EZ EP       1359 11.84                             172   -0.1010 20.0 198 
 BAR2 EZ ES       1359 26.82                             172   -0.0710 20.0 198 
 BAR2 EZ I        1359 28.44        10.3 0.12            170           20.0 198 
 BRR  HZ EP       1359 13.73                             151   -0.0610 75.0 300 
 BRR  HN ES       1359 30.81                             151    0.6310 75.0 300 
 BRR  HZ I        1359 32.02         5.4 0.24            151           75.0 300 
 PAM  EZ EP       1359 14.69                             150   -0.0610 79.2  37 
 PAM  EN ES       1359 31.64                             150   -0.2410 79.2  37 
 PAM  EZ I        1359 33.95         5.7 0.54            153           79.2  37 
 RUS  HZ EP       1359 16.27                             144    0.3610 96.5 177 
 RUS  HN ES       1359 33.85                             144   -0.1010 96.5 177 
 RUS  HZ I        1359 35.69         4.9 0.30            145           96.5 177 
 SPBC HN ES       1359 42.03                             129   -0.74 9  162 220 
 SPBC HZ I        1359 45.61         5.9 0.16            129            162 220 
 NOR  HZ EP       1359 27.88                             118   -0.38 8  234 236 
 NOR  HE ES       1359 55.83                             118   -0.11 8  234 236 
 NOR  HZ I        14 0  0.05         2.0 0.31            119            234 236 
 CHI  HZ EP       1359 30.08                             117    0.14 8  245 196 
 CHI  HE ES       1359 59.67                             117    0.75 8  245 196 
 CHI  HZ I        14 0  2.88         1.4 0.08            118            245 196 
 GUY2CHN ES       14 0 10.04                             112    0.01 7  301 236 
 GUY2CHZ I        14 0 17.08         1.6 0.29                           301 236 
                                                                                
