 2016  920 1147 41.6 L   6.727 -73.113145.8  RSN  5 0.2 1.3LRSN                1
 GAP=236        0.64       6.8     6.3  5.3  0.3215E+02 -0.8626E+01 -0.1572E+02E
 Epicentro: JORDAN - SANTANDER                                                 3
 ACTION:UPD 17-08-17 21:14 OP:lp   STATUS:               ID:20160920114741 L   I
 OLDACT:UP  16-09-20 23:19 OP:edw  STATUS:               ID:20160920113737d    3
 OLDACT:DUP 16-09-20 23:14 OP:edw  STATUS:               ID:20160920113737d    3
 OLDACT:UP  16-09-20 23:09 OP:edw  STATUS:               ID:20160920113736d    3
 OLDACT:DUP 16-09-20 22:51 OP:edw  STATUS:               ID:20160920113736d    3
 OLDACT:UP  16-09-20 22:48 OP:edw  STATUS:               ID:20160920113735     3
 OLDACT:REG 16-09-20 20:29 OP:edw  STATUS:               ID:20160920113735     3
 2016-09-20-1138-00M.COL___360                                                 6
 STAT SP IPHASW D HRMM SECON CODA AMPLIT PERI AZIMU VELO AIN AR TRES W  DIS CAZ7
 BAR2 EZ EP       1148  0.87                             172   -0.2310 16.8 207 
 BAR2 EZ ES       1148 16.35                             172    0.0210 16.8 207 
 BAR2 EZ I        1148 17.13         6.0 0.13            170           16.8 207 
 BRR  HZ EP   2   1148  3.77                             150    0.61 5 78.5 302 
 BRR  HN ES   2   1148 19.80                             150   -0.19 5 78.5 302 
 RUS  HZ EP       1148  5.00                             146    0.2510 92.3 178 
 RUS  HN ES       1148 22.68                             146   -0.1510 92.3 178 
 RUS  HZ I        1148 24.94         1.4 0.21            146           92.3 178 
 PTB  HZ EP   9   1148  7.83                             131   -0.92 0  150 262 
 PTB  HN ES       1148 29.47                             132    0.44 9  150 262 
 PTB  HZ I        1148 30.57         3.0 0.14            130            150 262 
 ZAR  HZ EP       1148 14.90                             121    0.20 8  211 294 
 ZAR  HN ES       1148 40.35                             121   -0.19 8  211 294 
 ZAR  HZ I        1148 45.81         2.1 0.07            121            211 294 
                                                                                
