 2015  420 1549 43.4 L   6.784 -73.162143.1  RSN 12 0.3 2.0LRSN                1
 GAP=135        0.74       3.2     4.0  5.3 -0.4889E+01  0.3572E+01  0.1117E+01E
 Epicentro: LOS SANTOS - SANTANDER                                             3
 ACTION:UPD 15-06-03 16:56 OP:cam  STATUS:               ID:20150420154943 L   I
 OLDACT:REG 15-04-20 22:54 OP:spq  STATUS:               ID:20150420154750     3
 2015-04-20-1547-50M.COL___274                                                 6
 STAT SP IPHASW D HRMM SECON CODA AMPLIT PERI AZIMU VELO AIN AR TRES W  DIS CAZ7
 BAR2 EZ EP       1550  2.47                             171   -0.1610 21.4 186 
 BAR2 EZ ES   1   1550 17.59                             171   -0.08 7 21.4 186 
 BAR2 EZ I        1550 18.51        26.2 0.28            170           21.4 186 
 BRR  HZ EP   1   1550  4.48                             152    0.30 7 70.5 300 
 BRR  HE ES       1550 21.03                             152    0.6010 70.5 300 
 BRR  HZ I        1550 26.48        24.5 0.38            150           70.5 300 
 PAM  SZ EP       1550  5.46                             150    0.0210 79.8  40 
 PAM  SN ES       1550 22.57                             150   -0.1010 79.8  40 
 PAM  SZ I        1550 24.78        17.3 0.52            154           79.8  40 
 RUS  HZ EP   1   1550  7.19                             144    0.45 7 99.0 175 
 RUS  HE ES   1   1550 24.82                             144   -0.15 7 99.0 175 
 RUS  HZ I        1550 25.98         9.0 0.22            145           99.0 175 
 PTB  HZ EP   1   1550  9.62                             132   -0.31 7  146 259 
 PTB  HN ES   1   1550 30.09                             132   -0.56 7  146 259 
 PTB  HZ I        1550 32.42        11.6 0.20            131            146 259 
 SPBC HZ EP   1   1550 11.79                             129    0.37 7  161 219 
 SPBC HN ES       1550 32.97                             129   -0.34 9  161 219 
 SPBC HZ I        1550 36.47         9.5 0.10            129            161 219 
 OCA  HN ES   1   1550 33.26                             129   -0.39 7  162 354 
 OCA  HZ I        1550 35.98        24.1 0.20            130            162 354 
 NOR  HZ EP   1   1550 19.16                             118    0.49 6  232 235 
 NOR  HE ES   1   1550 46.30                             118    0.08 6  232 235 
 NOR  HZ I        1550 51.93         5.6 0.44            119            232 235 
 SML  HZ EP   1   1550 19.54                             117   -0.39 6  245 336 
 GUY2CHZ EP   4   1550 28.12                             112    1.55 0  299 235 
 GUY2CHE ES   4   1551  2.36                             112    2.08 0  299 235 
 GUY2CHZ I        1551  9.15         4.1 0.50                           299 235 
 TOL  SN ES   4   1551 10.50                             109    1.94 0  341 225 
 TOL  SZ I        1551 18.20         2.6 0.32            110            341 225 
 MON  HZ EP   4   1550 30.81                             108   -1.41 0  353 309 
 MON  HN ES   4   1551  8.79                             108   -1.55 0  353 309 
 MON  HZ I        1551  9.51         2.6 0.16            109            353 309 
                                                                                
