 2016  820 1909 38.7 L   6.797 -73.196121.7  RSN  4 0.3 1.4LRSN                1
 GAP=144        0.69       3.7     3.7  5.9 -0.4361E+01  0.6970E+01 -0.2348E+01E
 Epicentro: ZAPATOCA - SANTANDER                                               3
 ACTION:UPD 16-10-29 15:37 OP:rebc STATUS:               ID:20160820190938 L   I
 OLDACT:REG 16-08-20 20:50 OP:edw  STATUS:               ID:20160820190746     3
 2016-08-20-1907-46M.COL___346                                                 6
 STAT SP IPHASW D HRMM SECON CODA AMPLIT PERI AZIMU VELO AIN AR TRES W  DIS CAZ7
 BAR2 EZ EP       19 9 55.65                             169    0.2010 22.6 176 
 BAR2 EZ ES       1910  8.16                             169   -0.3310 22.6 176 
 BAR2 EZ I        1910 12.67         9.3 0.20                          22.6 176 
 PAM  EZ EP       19 9 58.86                             144    0.1510 81.3  42 
 PAM  EE ES       1910 14.32                             144    0.0210 81.3  42 
 PAM  EZ I        1910 18.42         5.5 0.59                          81.3  42 
 RUS  HZ EP       1910  0.11                             138   -0.0910  101 173 
 RUS  HE ES       1910 17.12                             138    0.1610  101 173 
 RUS  HZ I        1910 19.06         3.0 0.18                           101 173 
 PTB  HZ EP       1910  2.84                             127   -0.46 9  142 259 
 PTB  HN ES       1910 22.80                             127    0.33 9  142 259 
 PTB  HZ I        1910 25.72         5.0 0.16                           142 259 
                                                                                
