 2010  720 1936 28.1 L   6.759 -73.118143.5  RSN  5 0.3 1.8LRSN                1
 GAP=185        0.56       4.9    10.6  6.7  0.3220E+02 -0.2591E+02 -0.1320E+02E
 Epicentro: LOS SANTOS - SANTANDER                                             3
 ACTION:UPD 10-12-01 15:19 OP:pat  STATUS:               ID:20100720193628 L   I
 2010-07-20-1933-35S.COL___123                                                 6
 STAT SP IPHASW D HRMM SECON CODA AMPLIT PERI AZIMU VELO AIN AR TRES W  DIS CAZ7
 BAR2 SZ EP   1   1936 47.38                             171     0.0 7   20 201 
 BAR2 SZ I        1936 47.57        13.5 0.24                            20 201 
 BAR2 SZ ES   1   1937  2.23                             171    -0.2 7   20 201 
 GIR2 SZ EP   1   1936 47.51                             165    -0.1 7   36 347 
 BRR  HZ IP     C 1936 49.31                             150     0.110   76 300 
 BRR  HZ I        1936 49.63        23.5 0.08                            76 300 
 BRR  HE ES   1   1937  5.77                             150     0.0 7   76 300 
 RUS  HZ EP   1   1936 51.49                             144     0.2 7   96 178 
 RUS  HN ES   1   1937  9.34                             144     0.0 7   96 178 
 RUS  HZ I        1937 10.92         4.9 0.09                            96 178 
 OCA  SZ EP   2   1936 55.93                             128    -0.7 5  165 352 
 OCA  SZ ES   2   1937 19.55                             128     0.6 5  165 352 
 OCA  SZ I        1937 25.88         7.4 0.44                           165 352 
                                                                                
