 2011  620 1052  8.1 L   6.621 -73.429114.0  RSN  4 0.3 1.0LRSN                1
 GAP=233        0.52      10.9    62.0 12.3  0.5686E+03  0.5682E+03  0.7160E+02E
 Epicentro: EL CARMEN DE CHUCURI - SANTANDER                                   3
 ACTION:UP  11-07-14 19:06 OP:ep   STATUS:               ID:20110620105208 L   I
 2011-06-20-1050-24S.COL___140                                                 6
 STAT SP IPHASW D HRMM SECON CODA AMPLIT PERI AZIMU VELO SNR AR TRES W  DIS CAZ7
 BAR2 SZ EP       1052 24.20                             168     0.110   28  97 
 BAR2 SZ ES   2   1052 37.04                             168     0.5 5   28  97 
 BAR2 SZ I        1052 38.03         5.4 0.27                            28  97 
 BTL  SZ EP       1052 24.49                             162     0.110   37  29 
 BTL  SZ ES   2   1052 36.78                             162    -0.4 5   37  29 
 GIR2 SZ EP       1052 25.13                             153    -0.110   57  27 
 RUS  HZ EP   3   1052 27.78                             140    -0.2 2   89 155 
 RUS  HN ES   2   1052 43.13                             140    -0.3 5   89 155 
 RUS  HZ I        1052 43.16         1.2 0.39                            89 155 
                                                                                
