 2017  320 1821 55.9 L   6.343 -73.597110.1  RSN 10 0.5 2.2LRSN                1
 GAP=126        1.15       3.5     3.6  7.0 -0.3479E+01  0.5119E+01  0.2533E+01E
 Epicentro: SANTA HELENA DEL OPON - SANTANDER                                  3
 ACTION:UPD 17-05-25 18:43 OP:jn   STATUS:               ID:20170320182155 L   I
 OLDACT:UP  17-03-21 01:48 OP:dani STATUS:               ID:20170320181750     3
 OLDACT:UP  17-03-21 01:48 OP:dani STATUS:               ID:20170320181750     3
 OLDACT:REG 17-03-20 22:15 OP:dnl  STATUS:               ID:20170320181750     3
 2017-03-20-1818-00M.COL___394                                                 6
 STAT SP IPHASW D HRMM SECON CODA AMPLIT PERI AZIMU VELO AIN AR TRES W  DIS CAZ7
 BAR2 EZ EP     D 1822 12.72                             152    0.2010 53.5  59 
 BAR2 EZ ES       1822 25.92                             152    0.4310 53.5  59 
 BAR2 EZ I        1822 27.08       128.9 0.40            158           53.5  59 
 SPBC HZ EP       1822 15.03                             137   -0.0710 92.7 215 
 SPBC HE ES       1822 30.51                             137    0.4110 92.7 215 
 SPBC HZ I        1822 35.51        33.1 0.22            136           92.7 215 
 PTB  HZ EP     D 1822 14.50                             135   -0.9110 97.5 283 
 PTB  HN ES       1822 29.70                             135   -0.9410 97.5 283 
 PTB  HZ I        1822 32.22        46.0 0.10            134           97.5 283 
 PAM  EZ EP     C 1822 20.91                             123    0.03 9  148  42 
 PAM  EN ES       1822 40.22                             123   -0.16 9  148  42 
 PAM  EZ I        1822 42.22        16.7 0.30            126            148  42 
 NOR  HZ EP       1822 22.19                             119    0.11 9  165 239 
 NOR  HE ES       1822 42.81                             119    0.30 9  165 239 
 NOR  HZ I        1822 47.29        14.1 0.16            119            165 239 
 ZAR  HZ EP       1822 24.43                             115   -0.14 9  189 312 
 ZAR  HN ES       1822 47.72                             115    0.77 9  189 312 
 ZAR  HZ I        1822 52.76        26.8 0.36            116            189 312 
 CHI  HZ EP       1822 24.83                             115   -0.41 9  190 185 
 CHI  HN ES       1822 47.88                             115   -0.26 9  190 185 
 GUY2CHZ EP     C 1822 29.90                             110   -0.10 8  232 238 
 GUY2CHN ES   4   1822 59.38                             110    2.77 0  232 238 
 GUY2CHZ  IAML    1823  1.72        10.4 0.48                           232 238 
 CBOC HN EP       1822 35.19                             106    0.83 8  273 259 
 CBOC HE ES       1823  4.63                             106    0.26 8  273 259 
 CBOC HN I        1823 20.20         6.9 0.28            107            273 259 
 PRA  HZ EP       1822 40.41                             103    0.15 7  324 206 
 PRA  HE ES   3   1823 16.53                             103    1.65 2  324 206 
 PRA  HZ I        1823 22.38         5.8 0.18            104            324 206 
                                                                                
