 2015  920 1806 11.2 L   6.170 -73.444130.2  RSN  7 0.3 1.6LRSN                1
 GAP=102        0.84       3.8     3.3  6.3  0.6763E+00  0.1014E+02  0.6406E+01E
 Epicentro: SAN BENITO - SANTANDER                                             3
 ACTION:UPD 15-10-28 16:27 OP:cam  STATUS:               ID:20150920180611 L   I
 OLDACT:UP  15-09-21 00:51 OP:ak   STATUS:               ID:20150920175747     3
 OLDACT:REG 15-09-20 21:16 OP:ak   STATUS:               ID:20150920175747     3
 2015-09-20-1757-47M.COL___349                                                 6
 STAT SP IPHASW D HRMM SECON CODA AMPLIT PERI AZIMU VELO AIN AR TRES W  DIS CAZ7
 RUS  HZ EP       18 6 30.23                             158   -0.0110 50.4 127 
 RUS  HN ES       18 6 44.98                             158   -0.1410 50.4 127 
 RUS  HZ I        18 6 47.50         4.8 0.08            161           50.4 127 
 BAR2 EZ EP       18 6 30.32                             156    0.2310 55.0  32 
 BAR2 EZ ES       18 6 45.29                             156    0.4410 55.0  32 
 BAR2 EZ I        18 6 45.94        15.2 0.20            160           55.0  32 
 PTB  HZ EP       18 6 33.87                             135   -0.4310  119 290 
 PTB  HN ES       18 6 51.89                             135   -0.4510  119 290 
 PTB  HZ I        18 6 54.89         7.8 0.08            137            119 290 
 NOR  HZ EP       18 6 39.44                             124    0.14 9  171 247 
 NOR  HE ES       18 7  1.07                             124   -0.18 9  171 247 
 NOR  HZ I        18 7  5.13         6.9 0.18            126            171 247 
 CHI  HZ EP       18 6 39.78                             124   -0.18 9  173 191 
 CHI  HN ES       18 7  2.21                             124   -0.21 9  173 191 
 HEL  HZ EP       18 6 45.78                             116   -0.23 8  231 271 
 HEL  HE ES       18 7 13.31                             116    0.13 8  231 271 
 GUY2CHZ EP       18 6 47.13                             115    0.29 8  237 244 
 GUY2CHN ES       18 7 15.54                             115    0.87 8  237 244 
 GUY2CHZ I        18 7 23.65         3.1 0.57                           237 244 
                                                                                
