 2010  820 1256 50.6 L   6.797 -73.058136.9  RSN 11 0.3 2.2LRSN                1
 GAP=169        0.68       2.8     4.9  4.5 -0.4447E+01  0.3606E+00  0.2423E+01E
 Epicentro: LOS SANTOS - SANTANDER                                             3
 ACTION:UP  10-09-07 10:56 OP:vdl  STATUS:               ID:20100820125650 L   I
 2010-08-20-1254-55S.COL___120                                                 6
 STAT SP IPHASW D HRMM SECON CODA AMPLIT PERI AZIMU VELO SNR AR TRES W  DIS CAZ7
 BAR2 SZ IP       1257  9.23                             168     0.010   27 212 
 BAR2 SZ ES   1   1257 23.75                             168     0.0 7   27 212 
 BAR2 SZ I        1257 25.53        56.7 0.24                            27 212 
 GIR2 SZ EP       1257  9.35                             165     0.010   35 334 
 BRR  HZ EP   1   1257 11.21                             148    -0.2 7   80 295 
 BRR  HE ES       1257 27.34                             148    -0.210   80 295 
 BRR  HZ I        1257 29.21        43.2 0.16                            80 295 
 RUS  HZ EP       1257 13.23                             142    -0.210  100 182 
 RUS  HN ES   1   1257 31.42                             142     0.1 7  100 182 
 RUS  HZ I        1257 34.18        10.2 0.36                           100 182 
 GUE  SZ EP       1257 14.30                             138    -0.110  115   7 
 GRA  SZ EP       1257 15.05                             135     0.210  124  13 
 GRA  SZ I        1257 16.36        21.5 0.19                           124  13 
 GRA  SZ ES   1   1257 34.12                             135     0.3 7  124  13 
 CHI  HZ EP   1   1257 27.77                             115    -0.3 6  251 197 
 CHI  HN ES   1   1257 57.96                             115     0.6 6  251 197 
 CHI  HZ I        1258  4.47         8.4 0.44                           251 197 
 HEL  HZ EP   1   1257 31.66                             112     0.2 6  281 256 
 GUY  SZ EP   1   1257 35.18                             110     0.4 5  309 236 
 GUY  SN ES   2   1258  9.40                             110     0.3 4  309 236 
 GUY  SZ I        1258 16.41        15.5 0.26                           309 236 
 RREF HZ EP       1257 37.62                             109     0.4 7  329 231 
 RREF HZ I        1258 22.82         6.5 0.31                           329 231 
 PRA  HZ EP   1   1257 43.50                             105    -0.9 4  397 211 
 PRA  HN ES   2   1258 25.41                             105    -0.9 3  397 211 
 PRA  HZ I        1258 32.37         9.5 0.60                           397 211 
                                                                                
