 2016  420 1745 25.8 L   6.801 -73.132140.4  RSN 11 0.4 2.1LRSN                1
 GAP=138        1.07       3.1     4.1  6.1 -0.2666E+01  0.9696E+01  0.2235E+00E
 Epicentro: LOS SANTOS - SANTANDER                                             3
 ACTION:UPD 16-05-05 14:22 OP:rebc STATUS:               ID:20160420174525 L   I
 OLDACT:ARG 16-04-20 21:02 OP:ar   STATUS:               ID:20160420173747     3
 2016-04-20-1737-47M.COL___295                                                 6
 STAT SP IPHASW D HRMM SECON CODA AMPLIT PERI AZIMU VELO AIN AR TRES W  DIS CAZ7
 BAR2 EZ EP       1745 44.95                             170    0.1810 23.8 193 
 BAR2 EZ ES       1745 59.24                             170   -0.3510 23.8 193 
 BAR2 EZ I        1746  0.98        22.1 0.15            169           23.8 193 
 PAM  EZ EP       1745 47.96                             150    0.6010 76.4  39 
 PAM  EN ES       1746  4.74                             150    0.5410 76.4  39 
 PAM  EZ I        1746  6.47        39.6 0.56            153           76.4  39 
 RUS  HZ EP       1745 48.72                             143   -0.2910  101 177 
 RUS  HN ES       1746  7.38                             143    0.2510  101 177 
 RUS  HZ I        1746  8.15        17.6 0.36            145            101 177 
 PTB  HZ EP       1745 51.78                             130   -0.67 9  149 259 
 PTB  HN ES       1746 13.11                             130   -0.14 9  149 259 
 PTB  HZ I        1746 14.76        18.8 0.32            130            149 259 
 OCA  HZ EP       1745 53.14                             128   -0.54 9  160 353 
 OCA  HN ES       1746 14.81                             128   -0.64 9  160 353 
 OCA  HZ I        1746 18.80        49.5 0.20            130            160 353 
 SPBC HZ EP       1745 53.96                             128   -0.01 9  164 219 
 SPBC HN ES       1746 15.70                             128   -0.26 9  164 219 
 SPBC HZ I        1746 18.43        19.4 0.10            129            164 219 
 ZAR  HZ EP       1745 57.95                             121   -0.06 8  205 292 
 ZAR  HN ES       1746 23.75                             121    0.59 8  205 292 
 ZAR  HZ I        1746 31.56        14.1 0.40            121            205 292 
 NOR  HZ EP       1746  1.49                             117    0.15 8  236 235 
 NOR  HN ES       1746 28.54                             117   -0.54 8  236 235 
 NOR  HZ I        1746 36.05         9.6 0.22            118            236 235 
 CHI  HZ EP       1746  3.30                             116    0.06 8  249 195 
 CHI  HN ES       1746 32.28                             116   -0.18 8  249 195 
 CHI  HZ I        1746 35.49         3.9 0.22            118            249 195 
 HEL  HZ EP       1746  5.94                             113    0.06 8  274 256 
 HEL  HN ES       1746 38.03                             113    0.86 8  274 256 
 HEL  HZ I        1746 43.66         7.3 0.50            114            274 256 
 GUY2CHZ EP       1746 10.08                             111    0.79 7  302 235 
 GUY2CHN ES   4   1746 45.29                             111    2.07 0  302 235 
 GUY2CHZ I        1746 51.42         6.0 0.36                           302 235 
                                                                                
