 2011 1220 1631 23.2 L   6.749 -73.170151.5  RSN  6 0.3 1.6LRSN                1
 GAP=136        0.58       4.6     4.5  5.5  0.2813E+01 -0.1684E+01 -0.2318E+01E
 Epicentro: VILLANUEVA - SANTANDER                                             3
 ACTION:UPD 12-07-13 16:17 OP:ep   STATUS:               ID:20111220163123 L   I
 2011-12-20-1630-00M.COL___194                                                 6
 STAT SP IPHASW D HRMM SECON CODA AMPLIT PERI AZIMU VELO AIN AR TRES W  DIS CAZ7
 BAR2 SZ EP       1631 43.32                             173   -0.1010 17.4 185 
 BAR2 SZ ES   1   1631 58.74                             173   -0.45 7 17.4 185 
 BAR2 SZ I        1632  1.35        10.9 0.33                          17.4 185 
 GIR2 SZ EP   1   1631 43.72                             166    0.01 7 36.5 356 
 GIR2 SZ ES   2   1631 59.55                             166   -0.15 5 36.5 356 
 BRR  HZ EP   1   1631 45.32                             153    0.31 7 71.8 303 
 BRR  HE ES   1   1632  2.48                             153    0.47 7 71.8 303 
 PAM  SZ EP   1   1631 46.26                             150   -0.13 7 83.4  38 
 PAM  SZ I        1632  5.53         6.3 0.23                          83.4  38 
 RUS  HZ EP   1   1631 47.23                             146    0.07 7 95.2 174 
 RUS  HN ES   1   1632  6.19                             146    0.36 7 95.2 174 
 RUS  HZ I        1632  6.99         4.2 0.29                          95.2 174 
 PTB  HZ EP   1   1631 50.19                             134   -0.14 7  144 261 
 PTB  HN ES   1   1632 11.18                             134   -0.30 7  144 261 
                                                                                
