 2012 1020 1535  3.5 L   7.353 -73.376114.3  RSN  6 0.2 1.4LRSN                1
 GAP=176        0.42       4.1     2.4  4.0  0.1679E+01  0.9991E+00  0.1471E+00E
 Epicentro: SABANA DE TORRES - SANTANDER                                       3
 ACTION:UPD 12-11-22 17:04 OP:ep   STATUS:               ID:20121020153503 L   I
 2012-10-20-1530-00M.COL___233                                                 6
 STAT SP IPHASW D HRMM SECON CODA AMPLIT PERI AZIMU VELO AIN AR TRES W  DIS CAZ7
 GIR2 SZ ES   1   1535 32.26                             161    0.00 7 36.4 146 
 BRR  HE ES   1   1535 32.34                             156   -0.29 7 45.9 234 
 PAM  SZ EP   1   1535 22.10                             145   -0.21 7 74.7  91 
 PAM  SZ I        1535 22.24         3.7 0.14                          74.7  91 
 PAM  SN ES   1   1535 37.16                             145    0.19 7 74.7  91 
 PAM  SN I        1535 38.20         4.8 0.18                          74.7  91 
 BAR2 SZ EP   1   1535 22.86                             140    0.01 7 86.8 166 
 BAR2 SZ I        1535 23.60        13.0 0.34                          86.8 166 
 BAR2 SZ ES   1   1535 38.09                             140    0.16 7 86.8 166 
 ZAR  HE ES   1   1535 50.56                             120    0.22 7  164 275 
 ZAR  HZ I        1535 51.66         5.2 0.26                           164 275 
 RUS  HZ EP   1   1535 30.47                             121   -0.03 7  165 169 
                                                                                
