 2016  220 1010 26.5 L   6.794 -73.156145.6  RSN 13 0.4 1.7LRSN                1
 GAP=135        0.94       2.6     3.3  5.1 -0.1085E+01  0.5195E+01  0.9317E+00E
 Epicentro: LOS SANTOS - SANTANDER                                             3
 ACTION:UPD 16-03-04 21:27 OP:rebc STATUS:               ID:20160220101026 L   I
 OLDACT:REG 16-02-20 20:47 OP:ak   STATUS:               ID:20160220100750     3
 2016-02-20-1007-50M.COL___324                                                 6
 STAT SP IPHASW D HRMM SECON CODA AMPLIT PERI AZIMU VELO AIN AR TRES W  DIS CAZ7
 BAR2 EZ IP       1010 46.27                             171    0.1910 22.5 187 
 BAR2 EZ ES       1011  1.14                             171   -0.2210 22.5 187 
 BAR2 EZ I        1011  2.47        14.1 0.26            171           22.5 187 
 BRR  HZ IP     D 1010 48.14                             153    0.5610 70.5 299 
 BRR  HN ES       1011  4.47                             153    0.4410 70.5 299 
 BRR  HZ I        1011  7.26         6.6 0.17            150           70.5 299 
 PAM  EZ EP       1010 49.08                             150    0.3210 78.6  40 
 PAM  EN ES       1011  6.31                             150    0.1810 78.6  40 
 PAM  EZ I        1011  8.10         4.5 0.42            152           78.6  40 
 RUS  HZ EP       1010 49.94                             144   -0.2410  100 175 
 RUS  HE ES       1011  8.19                             144   -0.4710  100 175 
 RUS  HZ I        1011  9.83         5.8 0.22            146            100 175 
 PTB  HZ EP       1010 52.65                             132   -0.68 9  146 259 
 PTB  HN ES       1011 13.86                             132   -0.40 9  146 259 
 PTB  HZ I        1011 16.52                             132            146 259 
 OCA  HZ EP       1010 54.37                             129   -0.47 9  161 354 
 OCA  HN ES       1011 16.81                             129   -0.14 9  161 354 
 OCA  HZ I        1011 21.47        13.2 0.24            130            161 354 
 SPBC HZ EP       1010 55.29                             129    0.43 9  162 219 
 SPBC HE ES       1011 16.86                             129   -0.12 9  162 219 
 SPBC HZ I        1011 18.69         9.4 0.06            130            162 219 
 ZAR  HZ EP       1010 58.26                             122   -0.58 9  203 292 
 ZAR  HN ES       1011 24.60                             122    0.53 9  203 292 
 ZAR  HZ I        1011 30.42         8.5 0.56            122            203 292 
 NOR  HZ EP   2   1011  2.52                             119    0.45 4  233 234 
 NOR  HE ES       1011 29.89                             119    0.07 8  233 234 
 NOR  HZ I        1011 34.60         3.3 0.16            119            233 234 
 CHI  HZ EP       1011  4.45                             117    0.37 8  248 195 
 CHI  HN ES       1011 33.81                             117    0.42 8  248 195 
 CHI  HZ I        1011 41.40         1.2 0.54            118            248 195 
 URE  HZ EP   2   1011  7.13                             114   -0.33 4  283 292 
 URE  HE ES       1011 39.02                             114   -0.39 7  283 292 
 URE  HZ I        1011 49.23         3.5 0.20            114            283 292 
 GUY2CHZ EP   2   1011  9.85                             112   -0.09 4  300 235 
 GUY2CHN ES       1011 43.57                             112   -0.26 7  300 235 
 GUY2CHZ I        1011 52.84         2.4 0.44                           300 235 
 CBOC HZ EP   4   1011 14.77                             110    1.52 0  332 252 
 CBOC HN ES       1011 50.35                             110    0.63 7  332 252 
                                                                                
