 2011  520 1444 30.6 L   6.063 -73.705111.3  RSN 11 0.5 2.2LRSN                1
 GAP=122        1.05       5.0     5.0  8.6 -0.1740E+02  0.1820E+02 -0.7570E+01E
 Epicentro: BOLIVAR - SANTANDER                                                3
 ACTION:UP  11-06-29 08:55 OP:tino STATUS:               ID:20110520144430 L   I
 2011-05-20-1442-24S.COL___138                                                 6
 STAT SP IPHASW D HRMM SECON CODA AMPLIT PERI AZIMU VELO SNR AR TRES W  DIS CAZ7
 RUS  HZ IP     D 1444 48.67                             145    -0.110   71 105 
 RUS  HZ I        1444 49.20        37.2 0.27                            71 105 
 RUS  HN ES   1   1445  3.38                             145     0.3 7   71 105 
 BAR2 SZ EP       1444 49.42                             141     0.210   82  45 
 BAR2 SZ ES   1   1445  3.68                             141    -0.2 7   82  45 
 BAR2 SZ I        1445  6.36       108.9 0.39                            82  45 
 BRR  HZ EP       1444 51.82                             130     0.110  115 360 
 BRR  HN ES   1   1445  8.82                             130     0.5 7  115 360 
 NOR  SZ EP       1444 53.92                             124    -0.3 9  140 247 
 NOR  SN ES   1   1445 12.56                             124    -0.2 7  140 247 
 PAM  SZ EP       1444 59.18                             117     0.2 9  180  38 
 PAM  SN ES   1   1445 20.27                             117    -0.8 7  180  38 
 HEL  HZ EP       1445  1.65                             114     0.4 9  202 274 
 HEL  HZ I        1445 29.71        13.3 0.27                           202 274 
 GUY  SZ EP       1445  2.35                             114     0.2 8  209 244 
 GUY  SN ES   2   1445 26.25                             114    -0.5 4  209 244 
 GUY  SZ I        1445 32.08        16.8 0.26                           209 244 
 BRI  SZ EP   1   1445  2.21                             113     0.5 6  209  29 
 BRI  SZ ES   2   1445 25.46                             113    -0.6 4  209  29 
 RREF HZ EP       1445  3.27                             112    -0.7 8  223 235 
 RREF HN ES   1   1445 30.53                             112     0.6 6  223 235 
 RREF HZ I        1445 36.82        13.5 0.33                           223 235 
 GRA  SZ EP       1445  4.19                             111     0.7 8  225  26 
 GRA  SZ ES   1   1445 28.12                             111    -1.1 6  225  26 
 GRA  SZ I        1445 34.43        11.1 0.13                           225  26 
 TOL  SZ EP       1445  5.62                             109    -0.2 8  242 228 
                                                                                
