 2012  820 1052  0.4 L   6.235 -73.897 64.7  RSN  6 0.3 1.7LRSN                1
 GAP=172        0.66       4.5     2.8 10.5 -0.5791E+00  0.6438E+01  0.5203E+01E
 Epicentro: CIMITARRA - SANTANDER                                              3
 ACTION:UPD 12-09-10 11:57 OP:ep   STATUS:               ID:20120820105200 L   I
 2012-08-20-1050-00M.COL___217                                                 6
 STAT SP IPHASW D HRMM SECON CODA AMPLIT PERI AZIMU VELO AIN AR TRES W  DIS CAZ7
 PTB  HN ES   1   1052 23.86                             127   -0.24 8 70.5 299 
 PTB  HZ I        1052 24.72        22.4 0.14                          70.5 299 
 BAR2 SZ EP   1   1052 15.24                             120   -0.60 8 88.4  63 
 BAR2 SZ ES   1   1052 28.25                             120    0.35 8 88.4  63 
 BAR2 SZ I        1052 29.39        22.4 0.31                          88.4  63 
 BRR  HN ES   2   1052 29.71                             116    0.37 6 98.6  12 
 NOR  SN ES   2   1052 36.26                             109    0.26 5  131 235 
 ZAR  HN ES       1052 45.25                             103    0.0110  175 323 
 ZAR  HZ I        1052 46.75         8.8 0.16                           175 323 
 HEL  HZ EP   1   1052 26.99                             103    0.28 7  181 269 
 HEL  HZ I        1052 43.33         3.9 0.30                           181 269 
                                                                                
