 2014 1120 1611  5.1 L   6.388 -73.662102.4  RSN 22 0.7 2.7LRSN                1
 GAP= 50        1.78       3.3     3.6  8.0 -0.2284E+01  0.5588E+01  0.4822E+01E
 Epicentro: SANTA HELENA DEL OPON - SANTANDER                                  3
 ACTION:UPD 14-12-19 15:45 OP:nd   STATUS:               ID:20141120161105 L   I
 OLDACT:ARG 14-11-20 21:12 OP:stll STATUS:               ID:20141120160749     3
 2014-11-20-1607-49M.COL___313                                                 6
 STAT SP IPHASW D HRMM SECON CODA AMPLIT PERI AZIMU VELO AIN AR TRES W  DIS CAZ7
 BAR2 SZ EP       1611 21.69                             148    0.5110 57.6  67 
 BAR2 SZ ES       1611 34.01                             148    0.2910 57.6  67 
 BAR2 SZ I        1611 35.74       396.0 0.44            149           57.6  67 
 BRR  HZ EP       1611 22.74                             139    0.2910 79.7 356 
 BRR  HE ES       1611 36.59                             139    0.6210 79.7 356 
 BRR  HZ I        1611 45.07        68.8 0.16            136           79.7 356 
 RUS  HZ EP     C 1611 23.43                             137   -0.0710 84.3 131 
 RUS  HE ES       1611 37.40                             137   -0.4410 84.3 131 
 RUS  HZ I        1611 41.62        61.3 0.40            140           84.3 131 
 PTB  HZ IP     C 1611 22.70                             135   -0.5910 89.5 281 
 PTB  HE ES       1611 36.78                             135   -0.6810 89.5 281 
 PTB  HZ I        1611 39.27       124.4 0.16            133           89.5 281 
 SPBC HZ EP       1611 23.53                             134   -0.1810 93.2 209 
 SPBC HZ I        1611 24.32       194.3 0.42            135           93.2 209 
 SPBC HN ES       1611 38.66                             134    0.4510 93.2 209 
 PAM  SZ EP       1611 29.84                             120    0.07 9  150  45 
 PAM  SE ES       1611 49.08                             120    0.09 9  150  45 
 PAM  SZ I        1611 53.43        35.8 0.32            120            150  45 
 NOR  HZ EP       1611 29.40                             117   -1.12 9  162 236 
 NOR  HN ES       1611 49.53                             117   -0.80 9  162 236 
 NOR  HZ I        1611 53.40        81.0 0.14            117            162 236 
 ZAR  HZ EP       1611 32.67                             114    0.21 9  180 313 
 ZAR  HE ES       1611 53.86                             114    0.08 9  180 313 
 ZAR  HZ I        1612  0.55        74.7 0.24            114            180 313 
 ROSC BZ EP     C 1611 34.50                             113    0.88 9  186 203 
 ROSC BN ES       1611 57.79                             113    1.93 9  186 203 
 ROSC BZ I        1612  2.77        37.8 0.35            115            186 203 
 CHI  HZ IP     C 1611 34.51                             112   -0.10 9  195 182 
 CHI  HN ES       1611 57.05                             112   -0.56 9  195 182 
 CHI  HZ I        1612  1.34        48.0 0.24            114            195 182 
 TAM  HZ IP     D 1611 35.58                             110    0.04 8  207  88 
 TAM  HZ I        1611 36.01        77.0 0.22            112            207  88 
 TAM  HN ES       1611 57.70                             110   -1.58 8  207  88 
 HEL  HZ EP       1611 36.33                             110    0.28 8  208 264 
 OCA  HZ EP       1611 35.80                             110   -0.02 8  208  10 
 OCA  HN ES       1612  0.08                             110    0.32 8  208  10 
 OCA  HZ I        1612  7.22        99.9 0.32            111            208  10 
 HEL  HN ES       1611 59.79                             110   -0.38 8  208 264 
 HEL  HZ I        1612  4.11        76.9 0.30            111            208 264 
 VIL  SZ EP       1611 40.91                             106    0.07 8  252 181 
 VIL  SN ES       1612  8.38                             106   -0.32 8  252 181 
 VIL  SZ I        1612 11.45        66.4 0.30            108            252 181 
 URE  HZ EP   9   1611 40.11                             105   -1.07 0  256 306 
 URE  HN ES       1612  6.99                                   -1.25 8  256 306 
 CBOC HZ EP       1611 44.04                             104    1.40 8  267 258 
 CBOC HZ I        1611 45.19        18.2 0.24            106            267 258 
 CBOC HN ES       1612 10.59                             104   -1.32 8  267 258 
 TOL  SZ EP       1611 43.91                             104    0.53 8  271 223 
 TOL  SN ES       1612 13.46                             104    0.23 8  271 223 
 ANIL HZ EP       1611 45.06                             103    0.09 7  285 223 
 ANIL HN ES       1612 16.62                             103    0.56 7  285 223 
 DBB  SZ EP       1611 45.30                             103   -0.03 7  290 284 
 DBB  SZ I        1612 23.70        58.8 0.30            105            290 284 
 ORTC HZ EP       1611 49.32                             100   -0.18 7  326 213 
 ORTC HE ES       1612 23.52                             100   -0.60 7  326 213 
 ORTC HZ I        1612 31.17        15.1 0.34            103            326 213 
 MON  HZ EP   9   1611 50.30                              99   -1.43 0  345 320 
 MON  HZ I        1611 50.87        16.6 0.14            102            345 320 
 MON  HE ES       1612 26.44                                   -0.22 7  345 320 
 SJC  HZ EP   9   1612  0.24                              95   -1.00 0  423 337 
 SJC  HE ES       1612 40.47                                   -3.54 5  423 337 
                                                                                
