 2017  920 1301  2.1 L   6.796 -73.094144.5  RSN  7 0.3 1.6LRSN                1
 GAP=161        0.77       4.2     4.7  5.6 -0.9488E+01  0.1266E+01  0.1167E+02E
 Epicentro: LOS SANTOS - SANTANDER                                             3
 ACTION:UPD 17-10-05 19:14 OP:rebc STATUS:               ID:20170920130102 L   I
 OLDACT:REG 17-09-20 20:19 OP:edw  STATUS:               ID:20170920125747     3
 2017-09-20-1258-00M.COL___443                                                 6
 STAT SP IPHASW D HRMM SECON CODA AMPLIT PERI AZIMU VELO AIN AR TRES W  DIS CAZ7
 BAR2 EZ EP       13 1 21.49                             170   -0.1510 24.5 204 
 BAR2 EZ ES       13 1 36.72                             170   -0.1310 24.5 204 
 BAR2 EZ I        13 1 39.29        15.1 0.30            170           24.5 204 
 PAM  EZ EP       13 1 24.40                             152    0.3710 74.2  36 
 PAM  EN ES       13 1 41.27                             152    0.1610 74.2  36 
 PAM  EZ I        13 1 44.15         3.9 0.50            155           74.2  36 
 BRR  HZ EP       13 1 23.16                             150   -0.3010 76.5 297 
 BRR  HN ES       13 1 40.07                             150   -0.0210 76.5 297 
 BRR  HZ I        13 1 44.27        12.3 0.36            153           76.5 297 
 NOR  HZ EP       13 1 37.71                             118   -0.56 8  239 235 
 NOR  HN ES       13 2  6.32                             118   -0.13 8  239 235 
 CHI  HZ EP       13 1 39.83                             117   -0.05 8  250 196 
 CHI  HN ES       13 2  9.19                             117   -0.14 8  250 196 
 CHI  HZ I        13 2 12.70         2.3 0.32            119            250 196 
 GUY2CHN ES       13 2 21.49                             112    0.94 7  306 235 
 PRA  HZ EP       13 1 56.00                             106    0.10 6  394 210 
 PRA  HE ES       13 2 38.20                             106    0.37 6  394 210 
                                                                                
