 2014  120 1020 21.7 L   6.800 -73.147140.0  RSN  7 0.3 1.5LRSN                1
 GAP=244        0.73       3.6     3.9  4.9  0.4512E+01  0.5504E+01  0.7049E+00E
 Epicentro: LOS SANTOS - SANTANDER                                             3
 ACTION:UPD 14-03-13 09:56 OP:ep   STATUS:               ID:20140120102021 L   I
 OLDACT:DUP 14-01-20 15:31 OP:stll STATUS:               ID:20140120101811d    3
 2014-01-20-1018-10M.COL___229                                                 6
 STAT SP IPHASW D HRMM SECON CODA AMPLIT PERI AZIMU VELO AIN AR TRES W  DIS CAZ7
 BAR2 SZ EP       1020 40.57                             170   -0.0310 23.3 190 
 BAR2 SZ ES       1020 55.57                             170    0.2010 23.3 190 
 BAR2 SZ I        1020 57.41        15.0 0.16            168           23.3 190 
 RUS  HZ EP       1020 44.95                             143    0.1010  101 176 
 RUS  HN ES       1021  2.98                             143    0.0410  101 176 
 RUS  HZ I        1021  4.80         2.3 0.16            144            101 176 
 PTB  HZ EP       1020 47.86                             131   -0.30 9  148 259 
 PTB  HN ES       1021  8.78                             131   -0.04 9  148 259 
 PTB  HZ I        1021 10.54         3.3 0.16            131            148 259 
 SPBC HZ EP       1020 49.52                             128   -0.20 9  163 219 
 SPBC HE ES       1021 11.74                             128    0.14 9  163 219 
 SPBC HZ I        1021 19.31         5.6 0.26            128            163 219 
 ZAR  HZ EP       1020 53.54                             121   -0.19 9  204 292 
 ZAR  HN ES       1021 18.66                             121   -0.08 9  204 292 
 ZAR  HZ I        1021 25.01         3.7 0.28            122            204 292 
 CHI  HZ EP       1020 59.20                             116    0.16 8  249 195 
 CHI  HZ I        1021  0.12         1.2 0.40            118            249 195 
 CHI  HN ES       1021 27.45                             116   -0.75 8  249 195 
 GUY2CHZ EP       1021  5.77                             111    0.77 7  301 235 
 GUY2CHN ES       1021 39.21                             111    0.41 7  301 235 
 GUY2CHZ I        1021 51.74         1.5 0.46                           301 235 
                                                                                
