 2010  820 1249 22.5 L   6.774 -73.052146.8  RSN 13 0.4 2.6LRSN                1
 GAP=169        0.96       3.2     6.9  5.2 -0.7033E+01  0.2235E+01  0.1228E+01E
 Epicentro: LOS SANTOS - SANTANDER                                             3
 ACTION:UP  10-09-07 10:56 OP:vdl  STATUS:               ID:20100820124922 L   I
 2010-08-20-1247-55S.COL___117                                                 6
 STAT SP IPHASW D HRMM SECON CODA AMPLIT PERI AZIMU VELO SNR AR TRES W  DIS CAZ7
 BAR2 SZ IP       1249 42.45                             170     0.110   25 216 
 BAR2 SZ ES       1249 57.36                             170    -0.410   25 216 
 BAR2 SZ I        1249 59.21       140.6 0.23                            25 216 
 BTL  SZ EP       1249 41.60                             169    -0.810   29 304 
 GIR2 SZ EP       1249 42.50                             165     0.010   37 335 
 GIR2 SZ ES   1   1249 58.78                             165     0.7 7   37 335 
 BRR  HZ IP     C 1249 44.33                             149    -0.110   82 297 
 BRR  HZ I        1249 44.58       233.3 0.15                            82 297 
 BRR  HN ES       1250  1.59                             149     0.110   82 297 
 RUS  HZ EP       1249 46.38                             145     0.210   98 182 
 RUS  HN ES       1250  4.63                             145     0.010   98 182 
 RUS  HZ I        1250  6.38        52.7 0.32                            98 182 
 GUE  SZ EP       1249 47.42                             139     0.010  118   7 
 GUE  SZ I        1249 48.91        21.6 0.13                           118   7 
 GRA  SZ IP       1249 48.20                             137     0.310  126  13 
 GRA  SZ ES   1   1250  8.01                             137     0.4 7  126  13 
 GRA  SZ I        1250  8.98        40.2 0.24                           126  13 
 OCA  SZ EP       1249 50.94                             129    -0.4 9  165 350 
 OCA  SZ ES   1   1250 13.82                             129     0.0 7  165 350 
 OCA  SZ I        1250 19.30        42.1 0.40                           165 350 
 CHI  HZ EP   1   1250  0.38                             117     0.1 6  249 198 
 CHI  HZ I        1250  3.15        17.7 0.45                           249 198 
 CHI  HE ES   1   1250 30.12                             117     0.3 6  249 198 
 GUY  SZ EP   1   1250  7.83                             112     0.8 5  308 236 
 GUY  SE ES   2   1250 41.90                                     0.2 4  308 236 
 GUY  SZ I        1250 52.24        52.4 0.51                           308 236 
 RREF HZ EP   1   1250  9.52                             111     0.1 5  328 231 
 RREF HN ES   2   1250 45.33                             111    -0.7 3  328 231 
 RREF HZ I        1250 54.49        20.1 0.14                           328 231 
 TOL  SZ EP   1   1250 12.12                             109     0.7 5  349 226 
 PRA  HZ EP   1   1250 15.79                             106    -0.6 4  395 211 
 PRA  HE ES   1   1250 58.25                             106    -0.2 4  395 211 
 PRA  HZ I        1251  6.44        13.1 0.48                           395 211 
                                                                                
