 2010  320 1127 39.1 L   6.853 -72.942140.6  RSN  6 0.3 1.9LRSN                1
 GAP=204        0.60       3.4     7.3  6.3  0.1539E+01 -0.4083E+01 -0.2145E+01E
 Epicentro: CEPITA - SANTANDER                                                 3
 ACTION:UP  10-08-24 09:55 OP:vdl  STATUS:               ID:20100320112739 L   I
 2010-03-20-1123-56S.COL___098                                                 6
 STAT SP IPHASW D HRMM SECON CODA AMPLIT PERI AZIMU VELO SNR AR TRES W  DIS CAZ7
 BAR2 SZ IP       1127 58.85                             164     0.310   39 223 
 BAR2 SZ ES   1   1128 13.89                             164     0.2 7   39 223 
 BRR  HZ IP       1128  0.57                             146    -0.310   90 288 
 BRR  HZ I        1128  0.85        28.9 0.15                            90 288 
 BRR  HE ES   1   1128 17.69                             146    -0.1 7   90 288 
 RUS  HN ES   2   1128 20.83                             141    -0.6 5  107 188 
 RUS  HZ I        1128 22.86         4.9 0.47                           107 188 
 OCA  SZ EP   1   1128  6.91                             129     0.0 7  159 345 
 OCA  SZ ES   1   1128 28.60                             129     0.1 7  159 345 
 OCA  SZ I        1128 30.14        15.0 0.34                           159 345 
 CHI  HZ EP   2   1128 17.81                             115    -0.1 4  261 200 
 CHI  HN ES   2   1128 48.33                             115     0.2 4  261 200 
 CHI  HZ I        1128 51.51         2.7 0.43                           261 200 
 HEL  HZ EP   3   1128 21.29                             112    -0.4 2  295 256 
 HEL  HE ES   2   1128 55.45                             112     0.6 4  295 256 
 HEL  HZ I        1128 57.47         4.5 0.34                           295 256 
                                                                                
