 2012  520 1938  5.9 L   6.719 -73.128144.0  RSN  5 0.4 1.6LRSN                1
 GAP=169        0.83      13.5     6.7 13.4 -0.1646E+02 -0.3578E+01  0.9877E+02E
 Epicentro: JORDAN - SANTANDER                                                 3
 ACTION:UP  12-07-05 12:06 OP:pat  STATUS:               ID:20120520193805 L   I
 2012-05-20-1929-37M.COL___190                                                 6
 STAT SP IPHASW D HRMM SECON CODA AMPLIT PERI AZIMU VELO SNR AR TRES W  DIS CAZ7
 BAR2 SZ EP       1938 25.48                             173     0.310   15 203 
 BAR2 SZ I        1938 25.93         7.5 0.14                            15 203 
 BRR  HZ EP       1938 27.28                             151     0.010   78 304 
 BRR  HZ I        1938 27.45        12.4 0.30                            78 304 
 BRR  HN ES   1   1938 44.08                             151     0.2 7   78 304 
 PAM  SZ EP       1938 28.43                             149     0.110   83  35 
 PAM  SN ES   2   1938 44.97                             149    -0.8 5   83  35 
 PTB  HZ EP       1938 32.37                             132    -0.4 9  148 262 
 PTB  HZ I        1938 58.20         2.6 0.36                           148 262 
 ZAR  HN ES   2   1939  4.88                             122     0.4 4  209 294 
                                                                                
