 2010  520 1842 34.0 L   6.775 -72.962140.4  RSN  7 0.3 2.2LRSN                1
 GAP=202        0.52       4.0     6.8  5.4 -0.1750E+02 -0.3105E+01  0.4966E+01E
 Epicentro: CEPITA - SANTANDER                                                 3
 ACTION:UP  10-08-24 10:06 OP:vdl  STATUS:               ID:20100520184233 L   I
 2010-05-20-1840-10S.COL___111                                                 6
 STAT SP IPHASW D HRMM SECON CODA AMPLIT PERI AZIMU VELO AIN AR TRES W  DIS CAZ7
 BAR2 SZ EP       1842 53.45                             167     0.310   32 230 
 BAR2 SZ ES   2   1843  7.88                             167    -0.3 5   32 230 
 BRR  HZ EP       1842 56.04                             145     0.210   91 294 
 BRR  HN ES   2   1843 12.91                             145     0.1 5   91 294 
 BRR  HZ I        1843 15.97        55.3 0.40                            91 294 
 BRI  SZ EP       1842 57.00                             141    -0.210  106  10 
 BRI  SZ ES   2   1843 15.15                             141    -0.1 5  106  10 
 GUE  SZ EP       1842 58.35                             138     0.110  117   2 
 GUE  SZ ES   2   1843 16.89                             138    -0.2 5  117   2 
 OCA  SZ EP       1843  2.35                             127    -0.1 9  167 346 
 OCA  SZ ES   3   1843 23.53                             127    -1.2 2  167 346 
 RREF BZ EP   2   1843 21.81                             109     0.3 3  336 232 
 RREF BN ES   2   1843 58.43                             109    -0.2 3  336 232 
 RREF BZ I        1844  2.88         3.1 0.36                           336 232 
 PRA  HZ EP       1843 27.92                             105    -0.4 6  400 212 
 PRA  HN ES   2   1844 10.01                             105    -0.6 3  400 212 
 PRA  HZ I        1844 15.75         4.0 0.45                           400 212 
                                                                                
