 2010  620 1923 32.5 L   6.812 -73.111145.8  RSN 12 0.4 3.2LRSN                1
 GAP=128        0.70       3.3     5.6  5.9 -0.8906E+01  0.1829E+01  0.2783E+01E
 Epicentro: LOS SANTOS - SANTANDER                                             3
 ACTION:UP  10-08-24 10:11 OP:vdl  STATUS:               ID:20100620192332 L   I
 2010-06-20-1920-23S.COL___117                                                 6
 STAT SP IPHASW D HRMM SECON CODA AMPLIT PERI AZIMU VELO SNR AR TRES W  DIS CAZ7
 BAR2 SZ IP       1923 52.06                             170    -0.110   26 198 
 BAR2 SZ ES   2   1924  6.93                             170    -0.6 5   26 198 
 BRR  HZ IP     C 1923 53.82                             151     0.010   74 296 
 BRR  HZ I        1923 54.07       360.2 0.19                            74 296 
 BRR  HN ES   2   1924 10.94                             151     0.5 5   74 296 
 RUS  HZ EP   1   1923 56.11                             143    -0.2 7  102 178 
 RUS  HE ES   2   1924 14.73                             143    -0.2 5  102 178 
 RUS  HZ I        1924 16.66       274.1 0.24                           102 178 
 BRI  SZ IP       1923 56.46                             142     0.310  106  19 
 BRI  SZ ES   2   1924 15.18                             142     0.5 5  106  19 
 GUE  SZ EP   1   1923 56.82                             140    -0.2 7  114  10 
 GUE  SZ ES   2   1924 16.48                             140     0.3 5  114  10 
 GRA  SZ IP       1923 57.74                             137     0.210  123  16 
 GRA  SZ ES   2   1924 17.27                             137     0.2 5  123  16 
 OCA  SZ EP   1   1924  0.46                             130    -0.3 7  159 352 
 OCA  SZ ES   2   1924 22.04                             130    -0.7 5  159 352 
 OCA  SZ I        1924 26.68       266.7 0.25                           159 352 
 CHI  HZ EP   1   1924 10.63                             117     0.2 6  251 196 
 CHI  HE ES   2   1924 40.33                             117     0.3 4  251 196 
 CHI  HZ I        1924 46.91        71.2 0.42                           251 196 
 ROSC BZ EP   1   1924 11.92                             116     0.9 6  256 212 
 ROSC BE ES   2   1924 40.74                             116    -0.2 4  256 212 
 ROSC BZ I        1924 49.38       107.7 0.52                           256 212 
 HEL  HZ EP   1   1924 12.79                             114    -0.4 6  276 256 
 HEL  HE ES   2   1924 44.82                             114    -0.1 4  276 256 
 HEL  HZ I        1924 52.46        77.6 0.58                           276 256 
 RREF HZ EP   1   1924 18.99                             110    -0.1 5  326 230 
 RREF HZ I        1925  5.04        93.4 0.27                           326 230 
 SDV  BZ EP   1   1924 21.55                             108    -0.6 5  357  50 
 SDV  BZ I        1925  2.56        44.4 0.53                           357  50 
                                                                                
