 2011 1020 1558 22.7 L   6.804 -73.125142.9  RSN  7 0.2 1.9LRSN                1
 GAP=139        0.40       2.6     3.8  4.3  0.8020E+00  0.3683E+01 -0.8378E+00E
 Epicentro: LOS SANTOS - SANTANDER                                             3
 ACTION:UPD 12-07-13 16:05 OP:ep   STATUS:               ID:20111020155822 L   I
 2011-10-20-1556-34S.COL___170                                                 6
 STAT SP IPHASW D HRMM SECON CODA AMPLIT PERI AZIMU VELO AIN AR TRES W  DIS CAZ7
 BAR2 SZ EP   1   1558 42.05                             170    0.06 7 24.2 195 
 BAR2 SZ I        1558 58.14        17.3 0.34                          24.2 195 
 GIR2 SZ EP   1   1558 42.09                             167    0.07 7 31.4 346 
 BRR  HZ EP   1   1558 43.75                             151    0.11 7 73.1 297 
 BRR  HZ I        1558 50.50        18.9 0.20                          73.1 297 
 BRR  HN ES   1   1559  0.09                             151    0.12 7 73.1 297 
 PAM  SZ EP   2   1558 44.97                             151    0.48 5 75.6  38 
 PAM  SN ES   1   1559  1.24                             151   -0.26 7 75.6  38 
 RUS  HZ EP   1   1558 46.12                             143   -0.06 7  101 177 
 RUS  HN ES   1   1559  4.45                             143   -0.05 7  101 177 
 RUS  HZ I        1559  7.06        11.0 0.17                           101 177 
 OCA  SZ EP   1   1558 50.79                             129    0.02 7  160 352 
 OCA  SZ I        1559 19.06         9.9 0.35                           160 352 
 ZAR  HZ EP   1   1558 54.86                             121   -0.30 6  206 292 
 ZAR  HZ I        1559 26.25         7.1 0.10                           206 292 
                                                                                
