 2013  520 1745 31.9 L   5.810 -73.999105.3  RSN  5 0.2 1.1LRSN                1
 GAP=162        0.48       3.2     2.0  6.2 -0.1180E+01 -0.4173E+00  0.6775E+01E
 Epicentro: FLORIAN - SANTANDER                                                3
 ACTION:UPD 13-06-20 09:52 OP:ep   STATUS:               ID:20130520174531 L   I
 2013-05-20-1740-00M.COL___256                                                 6
 STAT SP IPHASW D HRMM SECON CODA AMPLIT PERI AZIMU VELO AIN AR TRES W  DIS CAZ7
 PTB  HZ EP   1   1745 50.79                             135   -0.01 7 95.2 328 
 PTB  HN ES       1746  5.52                             135   -0.0310 95.2 328 
 PTB  HZ I        1746  8.35         4.1 0.46            154           95.2 328 
 NOR  HZ EP       1745 50.94                             133   -0.3510  100 254 
 NOR  HE ES       1746  6.53                             133    0.1110  100 254 
 NOR  HZ I        1746  7.56         4.7 0.42            153            100 254 
 RUS  HZ EP   1   1745 52.40                             133    0.36 7  102  85 
 RUS  HN ES   1   1746  7.64                             133   -0.12 7  102  85 
 RUS  HN I        1746 28.05         1.5 0.56            135            102  85 
 GUY2CHZ EP   1   1745 58.37                             118    0.08 7  165 247 
 GUY2CHE ES   1   1746 19.00                             118    0.11 7  165 247 
 HEL  HE ES   1   1746 20.66                             116    0.10 7  174 284 
                                                                                
