 2012  120 1111 30.9 L   6.671 -73.415129.0  RSN  5 0.4 1.4LRSN                1
 GAP=143        0.98       8.9     7.8 10.9  0.3703E+02  0.2220E+02  0.1688E+02E
 Epicentro: EL CARMEN DE CHUCURI - SANTANDER                                   3
 ACTION:UP  12-02-03 08:19 OP:REBC STATUS:               ID:20120120111130 L   I
 2012-01-20-1110-00M.COL___187                                                 6
 STAT SP IPHASW D HRMM SECON CODA AMPLIT PERI AZIMU VELO SNR AR TRES W  DIS CAZ7
 BAR2 SZ EP   1   1111 48.44                             167    -0.2 7   27 109 
 BAR2 SZ ES   1   1112  1.99                             167    -0.5 7   27 109 
 BAR2 SZ I        1112  3.22        14.2 0.20                            27 109 
 BRR  HZ EP   1   1111 50.02                             154     0.5 7   58 326 
 BRR  HE ES   1   1112  4.26                             154     0.2 7   58 326 
 BRR  HZ I        1112  5.23        15.6 0.14                            58 326 
 RUS  HZ EP   1   1111 53.04                             142     0.5 7   94 157 
 RUS  HN ES   1   1112  9.42                             142     0.0 7   94 157 
 RUS  HZ I        1112 11.31         1.0 0.17                            94 157 
 PTB  HZ EP   1   1111 52.83                             135    -0.8 7  116 263 
 PTB  HN ES   1   1112 11.77                             135     0.3 7  116 263 
 ZAR  HN ES   2   1112 22.69                             121    -0.3 4  183 300 
                                                                                
