 2014 1020 1744 31.6 L   6.787 -73.126146.1  RSN 20 0.5 2.3LRSN                1
 GAP=140        1.22       3.1     4.8  6.7 -0.1746E+01  0.8251E+01  0.3833E+01E
 Epicentro: LOS SANTOS - SANTANDER                                             3
 ACTION:UPD 14-11-29 23:51 OP:nd   STATUS:               ID:20141020174432dL   I
 OLDACT:REG 14-10-21 00:46 OP:spq  STATUS:               ID:20141020173748     3
 2014-10-20-1737-48M.COL___289                                                 6
 STAT SP IPHASW D HRMM SECON CODA AMPLIT PERI AZIMU VELO AIN AR TRES W  DIS CAZ7
 BAR2 SZ EP       1744 51.56                             171    0.2610 22.5 196 
 BAR2 SZ ES   1   1745  6.82                             171    0.18 7 22.5 196 
 BAR2 SZ I        1745  8.35        54.4 0.20            167           22.5 196 
 BRR  HZ EP       1744 53.44                             152    0.4610 73.7 299 
 BRR  HN ES       1745 10.61                             152    0.9910 73.7 299 
 BRR  HZ I        1745 14.65        42.3 0.14            147           73.7 299 
 PAM  SZ EP       1744 54.33                             151    0.4410 77.1  38 
 PAM  SN ES       1745 11.24                             151    0.0110 77.1  38 
 PAM  SZ I        1745 13.84        44.2 0.52            154           77.1  38 
 RUS  HZ EP       1744 55.37                             144    0.0410 99.1 177 
 RUS  HE ES       1745 13.29                             144   -0.5010 99.1 177 
 RUS  HZ I        1745 15.39        15.7 0.24            145           99.1 177 
 PTB  HZ EP       1744 58.28                             132   -0.53 9  150 260 
 PTB  HN ES       1745 19.34                             132   -0.66 9  150 260 
 PTB  HZ I        1745 22.56        22.1 0.30            129            150 260 
 OCA  HZ EP   1   1744 59.77                             129   -0.37 7  162 352 
 OCA  HN ES       1745 21.75                             129   -0.62 9  162 352 
 OCA  HZ I        1745 26.52        25.5 0.32            129            162 352 
 SPBC HE ES   1   1745 21.88                             129   -0.59 7  163 220 
 ZAR  HZ EP   1   1745  4.21                             122   -0.16 6  207 292 
 ZAR  HE ES       1745 29.34                             122   -0.56 8  207 292 
 ZAR  HZ I        1745 37.23        16.7 0.54            121            207 292 
 SML  HZ EP   1   1745  8.26                             117   -0.27 6  246 335 
 SML  HE ES       1745 37.42                             117    0.13 8  246 335 
 SML  HZ I        1745 43.99        26.9 0.10            117            246 335 
 CHI  HZ EP       1745  8.57                             117   -0.71 8  248 196 
 CHI  HN ES       1745 37.88                             117   -0.76 8  248 196 
 CHI  HZ I        1745 48.56         9.1 0.62            117            248 196 
 ROSC BZ EP       1745 10.70                             117    0.92 8  253 212 
 ROSC BE ES       1745 40.05                             117    0.53 8  253 212 
 ROSC BZ I        1745 47.67        20.3 0.55            116            253 212 
 HEL  HZ EP   4   1745 13.19                             115    1.12 0  274 256 
 HEL  HN ES   1   1745 43.86                             115    0.26 6  274 256 
 HEL  HZ I        1745 49.87         8.6 0.36            114            274 256 
 GUY2CHZ EP       1745 15.60                             112    0.22 7  302 235 
 GUY2CHE ES   4   1745 51.89                             112    2.40 0  302 235 
 GUY2CHZ I        1745 58.10         9.8 0.48                           302 235 
 RREF HZ EP   4   1745 14.79                             111   -3.10 0  322 230 
 RREF HN ES   4   1745 51.33                             111   -2.62 0  322 230 
 RREF HZ I        1746  0.01        16.8 0.36            110            322 230 
 TOL  SZ EP   4   1745 21.47                             109    1.49 0  344 225 
 TOL  SN ES       1745 58.59                             109    0.92 7  344 225 
 MON  HN ES   4   1745 56.29                             108   -3.13 0  356 308 
 MON  HZ I        1746 14.95         3.1 0.50            108            356 308 
 ANIL HE ES   4   1746  2.07                             108    1.64 0  358 225 
 ANIL HZ I        1746  5.31         3.4 0.46            108            358 225 
 PRA  HZ EP   4   1745 23.94                             107   -1.22 0  392 210 
 PRA  HN ES   4   1746  9.14                             107    2.24 0  392 210 
 PRA  HZ I        1746 13.19        14.8 0.30            107            392 210 
 ORTC HZ EP       1745 25.20                             106   -0.40 6  396 217 
 ORTC HN ES       1746  8.42                             106    0.74 6  396 217 
 ORTC HZ I        1746 16.06         8.9 0.28            106            396 217 
 SJC  HZ EP   4   1745 23.33                             106   -4.17 0  412 327 
 SJC  HN ES   4   1746  6.25                             106   -4.81 0  412 327 
 SJC  HZ I        1746 11.23         3.6 0.44            106            412 327 
                                                                                
