 2010 1120 1511 18.0 L   6.805 -73.099142.0  RSN  4 0.2 2.2LRSN                1
 GAP=165        0.46       3.3    13.5  5.0 -0.3062E+02  0.9772E+01 -0.4197E+01E
 Epicentro: LOS SANTOS - SANTANDER                                             3
 ACTION:UP  10-12-17 16:53 OP:REBC STATUS:               ID:20101120151118 L   I
 2010-11-20-1508-15S.COL___132                                                 6
 STAT SP IPHASW D HRMM SECON CODA AMPLIT PERI AZIMU VELO SNR AR TRES W  DIS CAZ7
 BAR2 SZ EP       1511 37.03                             169    -0.210   25 202 
 BAR2 SZ I        1511 37.48        27.8 0.05                            25 202 
 BAR2 SZ ES   1   1511 52.23                             169     0.0 7   25 202 
 RUS  HZ EP       1511 41.38                             143     0.010  101 179 
 RUS  HZ I        1511 42.27         9.3 0.10                           101 179 
 RUS  HN ES       1511 59.78                             143     0.110  101 179 
 GRA  SZ EP       1511 42.80                             137     0.010  124  15 
 GRA  SZ ES   1   1512  2.22                             137     0.2 7  124  15 
 GRA  SZ I        1512  3.44        23.5 0.21                           124  15 
 PRA  HZ I        1512 13.00        14.6 0.74                           395 210 
 PRA  HN ES   2   1512 54.24                             106     0.5 3  395 210 
                                                                                
