 2010  220 1051 16.5 L   6.875 -73.053129.1  RSN  4 0.3 1.4LRSN                1
 GAP=216        0.44      12.4    17.4  8.5  0.1689E+03 -0.1655E+02 -0.3150E+02E
 Epicentro: LOS SANTOS - SANTANDER                                             3
 ACTION:UP  10-08-24 09:49 OP:vdl  STATUS:               ID:20100220105116 L   I
 2010-02-20-1047-51S.COL___094                                                 6
 STAT SP IPHASW D HRMM SECON CODA AMPLIT PERI AZIMU VELO SNR AR TRES W  DIS CAZ7
 GIR2 SZ EP   3   1051 33.57                             168    -0.5 2   27 325 
 GIR2 SZ ES   3   1051 47.19                             168    -0.6 2   27 325 
 BAR2 SZ EP       1051 34.59                             165     0.210   35 205 
 BAR2 SZ ES   2   1051 48.62                             165     0.2 5   35 205 
 BRR  HZ EP       1051 36.18                             148    -0.110   77 289 
 BRR  HN ES   3   1051 51.58                             148    -0.1 2   77 289 
 BRR  HZ I        1051 58.47        11.5 0.41                            77 289 
 RUS  BZ EP   3   1051 38.73                             138    -0.6 2  109 182 
 RUS  BN ES   3   1051 56.37                             138    -0.7 2  109 182 
 RUS  BZ I        1051 58.70         2.1 0.67                           109 182 
                                                                                
