 2012  420 1558 44.3 L   6.759 -73.172141.3  RSN  7 0.3 2.2LRSN                1
 GAP=135        0.65       4.8     3.6  5.7 -0.1527E+01  0.1702E+01  0.2421E+01E
 Epicentro: LOS SANTOS - SANTANDER                                             3
 ACTION:UPD 12-07-05 11:54 OP:tino STATUS:               ID:20120420155844 L   I
 2012-04-20-1554-46M.COL___186                                                 6
 STAT SP IPHASW D HRMM SECON CODA AMPLIT PERI AZIMU VELO AIN AR TRES W  DIS CAZ7
 BAR2 SZ EP       1559  3.34                             172     0.110   18 184 
 BAR2 SZ ES   1   1559 17.79                             172    -0.3 7   18 184 
 BAR2 SZ I        1559 19.82        33.4 0.34                            18 184 
 BRR  HZ EP       1559  5.28                             152     0.410   71 303 
 BRR  HE ES   1   1559 21.34                             152     0.3 7   71 303 
 BRR  HZ I        1559 23.27        40.0 0.22                            71 303 
 PAM  SZ EP       1559  6.20                             148    -0.110   83  39 
 RUS  HZ EP   1   1559  7.43                             144     0.2 7   96 174 
 PTB  HZ EP       1559 10.27                             132    -0.3 9  144 260 
 PTB  HN ES   1   1559 30.77                             132    -0.3 7  144 260 
 ZAR  HZ EP   1   1559 15.86                             121    -0.5 6  203 294 
 ZAR  HE ES   1   1559 41.44                             121     0.1 6  203 294 
 ZAR  HZ I        1559 48.65        10.8 0.29                           203 294 
 NOR  SZ EP   1   1559 19.56                             118     0.4 6  230 235 
 NOR  SN ES   1   1559 46.54                             118     0.1 6  230 235 
                                                                                
