 2017 1020 1614 46.1 L   6.768 -73.160138.2  RSN  4 0.2 1.1LRSN                1
 GAP=233        0.60       4.6     4.4  4.8  0.1027E+02  0.2425E+01  0.8041E+00E
 Epicentro: LOS SANTOS - SANTANDER                                             3
 ACTION:UPD 17-11-07 19:34 OP:rebc STATUS:               ID:20171020161446 L   I
 OLDACT:DUP 17-10-21 00:44 OP:edw  STATUS:               ID:20171020160748d    3
 OLDACT:UP  17-10-21 00:44 OP:edw  STATUS:               ID:20171020160747     3
 OLDACT:UP  17-10-21 00:43 OP:edw  STATUS:               ID:20171020160747     3
 OLDACT:REG 17-10-20 20:21 OP:edw  STATUS:               ID:20171020160747     3
 2017-10-20-1608-00M.COL___459                                                 6
 STAT SP IPHASW D HRMM SECON CODA AMPLIT PERI AZIMU VELO AIN AR TRES W  DIS CAZ7
 BAR2 EZ EP       1615  4.69                             172   -0.0410 19.6 187 
 BAR2 EZ ES       1615 18.90                             172   -0.3810 19.6 187 
 BAR2 EZ I        1615 20.18         3.6 0.46            167           19.6 187 
 BRR  HZ EP       1615  6.63                             151    0.1910 71.6 302 
 BRR  HN ES       1615 22.53                             151    0.2110 71.6 302 
 RUS  HZ EP       1615  8.78                             143   -0.0710 97.2 175 
 RUS  HN ES       1615 26.90                             143    0.3010 97.2 175 
 RUS  HZ I        1615 28.82         1.4 0.42            141           97.2 175 
 PTB  HZ EP       1615 12.05                             131   -0.19 9  146 260 
 PTB  HN ES       1615 32.57                             131   -0.06 9  146 260 
 PTB  HZ I        1615 35.69         1.9 0.34            130            146 260 
                                                                                
