 2014  420 1027  4.9 L   6.488 -73.671 94.8  RSN  4 0.3 1.1LRSN                1
 GAP=185        0.70       5.0     3.9 10.0  0.1362E+02 -0.1551E+02 -0.3281E+02E
 Epicentro: SANTA HELENA DEL OPON - SANTANDER                                  3
 ACTION:UPD 14-05-13 23:09 OP:nd   STATUS:               ID:20140420102704 L   I
 OLDACT:REG 14-04-20 21:32 OP:stll STATUS:               ID:20140420101813     3
 2014-04-20-1018-13M.COL___236                                                 6
 STAT SP IPHASW D HRMM SECON CODA AMPLIT PERI AZIMU VELO AIN AR TRES W  DIS CAZ7
 PTB  HZ EP       1027 21.76                             134   -0.4810 87.1 274 
 PTB  HN ES       1027 35.55                             134   -0.1810 87.1 274 
 PTB  HZ I        1027 36.47         3.7 0.10            136           87.1 274 
 RUS  HZ EP       1027 23.32                             133   -0.0510 92.5 135 
 RUS  HZ I        1027 23.94         1.8 0.12            135           92.5 135 
 RUS  HN ES       1027 37.80                             133    0.0410 92.5 135 
 SPBC HN ES       1027 38.72                             129    0.2610  103 206 
 ZAR  HZ EP       1027 31.17                             114    0.19 9  172 310 
 ZAR  HE ES       1027 51.62                             114    0.33 9  172 310 
 ZAR  HZ I        1027 54.19         2.1 0.34            115            172 310 
                                                                                
