 2015  720 1421  3.5 L   6.826 -73.172132.0  RSN 10 0.6 1.9LRSN                1
 GAP=132        1.28       3.7     5.6  8.6 -0.4648E+01  0.2747E+02 -0.1699E+01E
 Epicentro: ZAPATOCA - SANTANDER                                               3
 ACTION:UPD 15-09-08 21:49 OP:cam  STATUS:               ID:20150720142103 L   I
 OLDACT:UP  15-07-20 23:54 OP:ak   STATUS:               ID:20150720141751     3
 OLDACT:REG 15-07-20 22:28 OP:ak   STATUS:               ID:20150720141751     3
 2015-07-20-1417-51M.COL___340                                                 6
 STAT SP IPHASW D HRMM SECON CODA AMPLIT PERI AZIMU VELO AIN AR TRES W  DIS CAZ7
 BAR2 EZ IP     C 1421 21.67                             168    0.1210 25.9 182 
 BAR2 EZ ES       1421 35.64                             168    0.0210 25.9 182 
 BAR2 EZ I        1421 38.78        23.1 0.20            168           25.9 182 
 PAM  EZ IP     C 1421 24.63                             148    0.3610 77.1  43 
 PAM  EN ES       1421 41.27                             148    0.8210 77.1  43 
 PAM  EZ I        1421 43.90        15.4 0.33            155           77.1  43 
 RUS  HZ EP       1421 25.82                             140   -0.3610  104 175 
 RUS  HE ES       1421 43.51                             140   -0.3510  104 175 
 RUS  HZ I        1421 46.37         9.6 0.32            145            104 175 
 OCA  HZ EP       1421 29.72                             127   -0.76 9  157 354 
 OCA  HE ES       1421 50.56                             127   -0.94 9  157 354 
 OCA  HZ I        1421 54.88        18.8 0.27            131            157 354 
 ZAR  HZ EP       1421 35.32                             120    0.63 9  200 292 
 ZAR  HN ES       1421 59.98                             120    0.96 9  200 292 
 ZAR  HZ I        1422  6.00        10.8 0.62            122            200 292 
 NOR  HZ EP       1421 38.17                             115   -0.24 8  234 233 
 NOR  HE ES       1422  5.69                             115    0.06 8  234 233 
 NOR  HZ I        1422  8.97         7.4 0.31            118            234 233 
 SML  HE ES       1422  6.25                             115   -0.39 8  240 336 
 HEL  HZ EP   1   1421 42.62                             112   -0.20 6  270 255 
 HEL  HE ES       1422 13.07                             112   -0.41 8  270 255 
 HEL  HZ I        1422 21.84         4.6 0.42            115            270 255 
 GUY2CHZ EP       1421 47.10                             110    0.66 7  300 234 
 GUY2CHN ES       1422 19.61                             110   -0.32 7  300 234 
 GUY2CHZ I        1422 27.14         4.6 0.30                           300 234 
 TOL  SZ EP       1421 52.10                             107    0.84 7  344 224 
 TOL  SN ES       1422 28.01                             107   -0.48 7  344 224 
 TOL  SZ I        1422 35.85         2.9 0.22            110            344 224 
                                                                                
