 2013  520 1352 37.8 L   6.817 -73.201138.9  RSN  7 0.3 1.5LRSN                1
 GAP=129        0.75       3.8     4.5  7.0 -0.5465E+01  0.1425E+02 -0.3197E+01E
 Epicentro: ZAPATOCA - SANTANDER                                               3
 ACTION:UPD 13-06-20 09:52 OP:ep   STATUS:               ID:20130520135237 L   I
 2013-05-20-1350-00M.COL___256                                                 6
 STAT SP IPHASW D HRMM SECON CODA AMPLIT PERI AZIMU VELO AIN AR TRES W  DIS CAZ7
 GIR2 SZ EP       1352 56.58                             168   -0.0210 28.9   2 
 GIR2 SZ ES   1   1353 11.67                             168    0.41 7 28.9   2 
 BRR  HZ EP       1352 58.35                             153    0.4910 64.9 300 
 BRR  HN ES   4   1353 15.12                             153    1.61 0 64.9 300 
 BRR  HZ I        1353 18.27         7.6 0.28            153           64.9 300 
 PAM  SZ EP       1352 59.54                             149    0.0710 80.1  44 
 PAM  SN ES       1353 16.12                             149   -0.2410 80.1  44 
 PAM  SZ I        1353 18.49         8.2 0.58            154           80.1  44 
 RUS  HZ EP   1   1353  0.84                             142   -0.24 7  103 173 
 RUS  HN ES   1   1353 19.18                             142   -0.05 7  103 173 
 PTB  HZ EP       1353  3.37                             132   -0.34 9  142 258 
 PTB  HN ES   1   1353 23.29                             132   -0.62 7  142 258 
 PTB  HZ I        1353 26.85         4.0 0.18            133            142 258 
 NOR  HN ES   1   1353 40.64                             117    0.67 6  231 233 
 NOR  HZ I        1353 44.49         1.9 0.34            120            231 233 
 SML  HZ EP   1   1353 13.72                             116    0.13 6  239 336 
 SML  HN ES   1   1353 41.36                             116   -0.14 6  239 336 
                                                                                
