 2017  720 1155  9.3 L   6.782 -73.161137.9  RSN 12 0.5 2.1LRSN                1
 GAP=111        1.23       4.0     3.7  6.5  0.2295E+01  0.6756E+01  0.1928E+01E
 Epicentro: LOS SANTOS - SANTANDER                                             3
 ACTION:UPD 17-08-30 15:35 OP:rebc STATUS:               ID:20170720115509 L   I
 OLDACT:REG 17-07-20 19:52 OP:lv   STATUS:               ID:20170720114724     3
 2017-07-20-1148-00M.COL___383                                                 6
 STAT SP IPHASW D HRMM SECON CODA AMPLIT PERI AZIMU VELO AIN AR TRES W  DIS CAZ7
 BAR2 EZ EP       1155 27.91                             171    0.0210 21.2 186 
 BAR2 EZ ES       1155 42.21                             171   -0.2210 21.2 186 
 BAR2 EZ I        1155 45.00        30.6 0.18            170           21.2 186 
 BRR  HN EP       1155 29.91                             151    0.3910 70.7 301 
 BRR  HE ES       1155 46.18                             151    0.8510 70.7 301 
 BRR  HN I        1155 47.20        80.7 0.06            152           70.7 301 
 PAM  EZ EP       1155 30.80                             149    0.0010 80.0  40 
 PAM  EN ES       1155 47.54                             149   -0.0610 80.0  40 
 PAM  EZ I        1155 50.19        14.6 0.27            152           80.0  40 
 RUS  HZ EP       1155 31.89                             143   -0.2110 98.8 175 
 RUS  HN ES       1155 49.49                             143   -0.4310 98.8 175 
 RUS  HZ I        1155 51.18        15.9 0.20            144           98.8 175 
 PTB  HZ EP       1155 34.57                             131   -0.83 9  146 259 
 PTB  HN ES       1155 55.30                             131   -0.49 9  146 259 
 PTB  HZ I        1155 58.29        12.7 0.28            132            146 259 
 SPBC HZ EP       1155 36.78                             128   -0.13 9  161 219 
 SPBC HN ES       1155 59.01                             128    0.53 9  161 219 
 SPBC HZ I        1156  3.44        11.4 0.14            129            161 219 
 YPLC HZ EP       1155 38.32                             125   -0.08 9  176 151 
 YPLC HN ES       1156  1.17                             125    0.04 9  176 151 
 YPLC HZ I        1156  4.74        11.5 0.12            127            176 151 
 ZAR  HZ EP       1155 41.96                             121    0.85 9  203 293 
 ZAR  HN ES       1156  5.93                             121   -0.03 9  203 293 
 ZAR  HZ I        1156  9.54        11.5 0.09            122            203 293 
 NOR  HZ EP       1155 44.20                             117   -0.06 8  232 235 
 NOR  HN ES       1156 12.47                             117    0.90 8  232 235 
 NOR  HZ I        1156 13.78        10.2 0.11            118            232 235 
 HEL  HZ EP   2   1155 49.81                             113    0.97 4  270 256 
 HEL  HN ES       1156 19.26                             113   -0.46 8  270 256 
 HEL  HZ I        1156 27.09         8.7 0.29            115            270 256 
 URE  HZ EP       1155 50.15                             112    0.29 7  283 292 
 URE  HN ES       1156 20.33                             112   -1.20 7  283 292 
 URE  HZ I        1156 22.09        14.5 0.05            114            283 292 
 GUY2CHZ EP   9   1155 53.62                             111    1.40 0  299 235 
 GUY2CHN ES       1156 27.83                                    0.70 7  299 235 
 GUY2CHZ I        1156 33.42         7.3 0.24                           299 235 
                                                                                
