 2011  220 1013 51.0 L   6.834 -72.948137.7  RSN  5 0.2 1.4LRSN                1
 GAP=180        0.53       3.3    13.4  6.4 -0.9685E+01 -0.4709E+02 -0.1641E+01E
 Epicentro: CEPITA - SANTANDER                                                 3
 ACTION:UP  11-03-28 15:09 OP:jfem STATUS:               ID:20110220101351 L   I
 2011-02-20-1011-47S.COL___137                                                 6
 STAT SP IPHASW D HRMM SECON CODA AMPLIT PERI AZIMU VELO SNR AR TRES W  DIS CAZ7
 BTL  SZ EP       1014 10.43                             163     0.410   37 285 
 BTL  SZ ES   1   1014 24.62                             163    -0.3 7   37 285 
 BAR2 SZ EP       1014 10.05                             163     0.010   37 224 
 BAR2 SZ ES   2   1014 25.08                             163     0.1 5   37 224 
 BAR2 SZ I        1014 26.07         7.5 0.15                            37 224 
 RUS  HZ EP       1014 14.26                             140    -0.110  105 188 
 RUS  HN ES   2   1014 32.64                             140     0.1 5  105 188 
 RUS  HZ I        1014 34.78         2.2 0.19                           105 188 
 GRA  SZ EP       1014 14.71                             137    -0.210  117   8 
 GRA  SZ ES   2   1014 33.60                             137     0.2 5  117   8 
 OCA  SZ EP       1014 18.78                             127     0.0 9  161 345 
 OCA  SZ I        1014 45.12         4.4 0.46                           161 345 
                                                                                
