 2013  220 1851 12.8 L   6.760 -73.132140.4  RSN  6 0.5 1.6LRSN                1
 GAP=140        0.89       5.8     5.3  8.7  0.2461E+01  0.9652E+01  0.3767E+00E
 Epicentro: LOS SANTOS - SANTANDER                                             3
 ACTION:UPD 13-03-12 09:34 OP:ep   STATUS:               ID:20130220185112 L   I
 2013-02-20-1850-00M.COL___241                                                 6
 STAT SP IPHASW D HRMM SECON CODA AMPLIT PERI AZIMU VELO AIN AR TRES W  DIS CAZ7
 BAR2 SZ EP   1   1851 31.66                             172    0.00 7 19.3 197 
 BAR2 SZ ES   1   1851 45.72                             172   -0.69 7 19.3 197 
 BAR2 SZ I        1851 48.11        13.8 0.24            171           19.3 197 
 BRR  HZ EP   1   1851 33.63                             150    0.10 7 74.7 301 
 BRR  HN ES   1   1851 50.28                             150    0.54 7 74.7 301 
 PAM  SZ EP   1   1851 34.73                             149    0.17 7 80.0  37 
 PAM  SN ES   1   1851 51.33                             149   -0.24 7 80.0  37 
 PAM  SZ I        1851 54.10         5.6 0.52            152           80.0  37 
 RUS  HZ EP   1   1851 35.77                             144    0.12 7 96.0 177 
 RUS  HN ES   1   1851 54.14                             144    0.63 7 96.0 177 
 RUS  HZ I        1851 55.41         5.4 0.24            146           96.0 177 
 PTB  HZ EP   1   1851 38.64                             131   -0.71 7  148 261 
 PTB  HN ES   1   1851 59.63                             131   -0.46 7  148 261 
 PTB  HZ I        1852  4.42         5.0 0.44            132            148 261 
 ZAR  HN ES   1   1852 11.01                             121    0.54 6  207 293 
                                                                                
