 2011  620 1201 45.8 L   6.753 -73.064147.8  RSN  9 0.2 1.9LRSN                1
 GAP=150        0.48       2.6     5.4  4.5 -0.4413E+01 -0.2957E+01 -0.1034E+01E
 Epicentro: LOS SANTOS - SANTANDER                                             3
 ACTION:UP  11-07-14 19:06 OP:ep   STATUS:               ID:20110620120145 L   I
 2011-06-20-1158-40S.COL___140                                                 6
 STAT SP IPHASW D HRMM SECON CODA AMPLIT PERI AZIMU VELO SNR AR TRES W  DIS CAZ7
 BAR2 SZ EP       12 2  5.67                             171     0.010   22 216 
 BAR2 SZ ES   2   12 2 20.85                             171    -0.3 5   22 216 
 BAR2 SZ I        12 2 22.52        19.6 0.50                            22 216 
 BTL  SZ EP       12 2  6.12                             168     0.310   29 309 
 BTL  SZ ES   2   12 2 21.69                             168     0.3 5   29 309 
 PAM  SZ EP       12 2  8.17                             151     0.010   76  32 
 BRR  HZ EP       12 2  7.55                             149    -0.210   82 299 
 BRR  HZ I        12 2  7.79        27.6 0.11                            82 299 
 BRR  HN ES   2   12 2 25.05                             149     0.1 5   82 299 
 RUS  HZ EP       12 2  9.33                             146     0.010   95 181 
 RUS  HN ES   1   12 2 27.72                             146     0.0 7   95 181 
 RUS  HZ I        12 2 29.52         7.1 0.24                            95 181 
 BRI  SZ EP       12 2 10.19                             141     0.110  111  15 
 GRA  SZ EP       12 2 11.44                             137     0.010  128  13 
 GRA  SZ I        12 2 12.64        12.9 0.14                           128  13 
 GRA  SZ ES   1   12 2 31.13                             137    -0.3 7  128  13 
 RREF HZ EP   2   12 2 32.39                             111    -0.1 3  325 231 
 RREF HZ I        12 3 14.06         3.8 0.29                           325 231 
 PRA  HZ EP   2   12 2 39.21                             107    -0.2 3  392 211 
                                                                                
