 2010  620 1224 58.9 L   6.754 -73.147149.3  RSN  4 0.3 1.5LRSN                1
 GAP=164        0.61       6.9    13.9 10.1  0.4400E+02 -0.6295E+02 -0.2952E+02E
 Epicentro: LOS SANTOS - SANTANDER                                             3
 ACTION:UP  10-08-24 10:11 OP:vdl  STATUS:               ID:20100620122458 L   I
 2010-06-20-1222-15S.COL___118                                                 6
 STAT SP IPHASW D HRMM SECON CODA AMPLIT PERI AZIMU VELO SNR AR TRES W  DIS CAZ7
 BAR2 SZ EP   1   1225 18.51                             173    -0.4 7   18 193 
 BAR2 SZ ES   2   1225 34.07                             173    -0.4 5   18 193 
 BRR  HZ EP   1   1225 20.35                             153    -0.2 7   74 302 
 BRR  HE ES   2   1225 37.88                             153     0.4 5   74 302 
 BRR  HZ I        1225 43.07         9.3 0.50                            74 302 
 RUS  HZ EP   1   1225 22.82                             146     0.2 7   96 176 
 RUS  HE ES   2   1225 41.48                             146     0.3 5   96 176 
 RUS  HZ I        1225 42.84         3.6 0.32                            96 176 
 GUE  SZ EP   1   1225 24.61                             139     0.3 7  122  12 
                                                                                
