 2016 1220 1309 50.6 L   6.807 -73.138146.2  RSN 12 0.4 2.0LRSN                1
 GAP=137        0.94       4.0     4.1  5.2 -0.3072E+00  0.5211E+01  0.3946E+01E
 Epicentro: LOS SANTOS - SANTANDER                                             3
 ACTION:UPD 17-01-11 20:17 OP:rebc STATUS:               ID:20161220130950 L   I
 OLDACT:UP  16-12-20 23:04 OP:edw  STATUS:               ID:20161220130744     3
 OLDACT:REG 16-12-20 20:17 OP:edw  STATUS:               ID:20161220130744     3
 2016-12-20-1308-00M.COL___375                                                 6
 STAT SP IPHASW D HRMM SECON CODA AMPLIT PERI AZIMU VELO AIN AR TRES W  DIS CAZ7
 BAR2 EZ EP       1310 10.19                             170   -0.0710 24.2 192 
 BAR2 EZ ES       1310 25.34                             170   -0.2810 24.2 192 
 BAR2 EZ I        1310 26.32        29.2 0.20            168           24.2 192 
 BRR  HZ IP     D 1310 11.92                             152    0.1410 71.6 298 
 BRR  HN ES       1310 29.06                             152    0.7310 71.6 298 
 BRR  HZ I        1310 32.71        13.3 0.38            150           71.6 298 
 PAM  EZ EP       1310 13.17                             151    0.4210 76.3  39 
 PAM  EN ES       1310 29.84                             151   -0.2310 76.3  39 
 PAM  EZ I        1310 32.27        12.5 0.52            155           76.3  39 
 RUS  HZ EP       1310 14.09                             144   -0.3110  101 177 
 RUS  HN ES       1310 32.99                             144   -0.0110  101 177 
 RUS  HZ I        1310 33.85        19.0 0.26            144            101 177 
 PTB  HZ EP   9   1310 16.65                             132   -1.00 0  149 259 
 PTB  HN ES       1310 37.60                             130   -0.18 9  149 259 
 PTB  HZ I        1310 39.78        10.9 0.06            131            149 259 
 ZAR  HZ EP       1310 22.67                             122   -0.42 9  205 292 
 ZAR  HN ES       1310 47.85                             122   -0.61 9  205 292 
 ZAR  HZ I        1310 53.20        13.4 0.40            122            205 292 
 NOR  HZ EP       1310 26.21                             118   -0.22 8  236 234 
 NOR  HN ES       1310 54.45                             118    0.03 8  236 234 
 NOR  HZ I        1310 58.74         6.4 0.24            118            236 234 
 CHI  HZ EP       1310 28.28                             117   -0.10 8  250 195 
 CHI  HN ES   4   1310 57.73                             117   -0.15 0  250 195 
 CHI  HZ I        1310 59.94         7.8 0.42            117            250 195 
 ROSC BZ EP   4   1310 30.67                             117    1.85 0  254 211 
 ROSC BN ES   4   1311  1.52                             117    2.86 0  254 211 
 ROSC BZ I        1311  4.77        17.9 0.35            117            254 211 
 GUY2CHZ EP       1310 35.18                             112    0.87 7  302 235 
 GUY2CHN ES   4   1311 12.38                             112    3.94 0  302 235 
 GUY2CHZ I        1311 16.31         4.4 0.32                           302 235 
 ELA  HZ EP   4   1310 41.93                             110    4.37 0  330 229 
 ELA  HN ES   4   1311 16.99                             110    2.78 0  330 229 
 ELA  HZ I        1311 21.91         3.7 0.30            110            330 229 
 ORTC HZ EP   4   1310 42.78                             106   -1.84 0  397 216 
 ORTC HN ES   2   1311 27.89                             106    1.10 3  397 216 
                                                                                
