 2013  620 1408  4.6 L   6.804 -73.162147.0  RSN  9 0.4 2.2LRSN                1
 GAP=166        0.94       5.4     4.4  6.2  0.9940E+00 -0.1247E+01  0.7964E+01E
 Epicentro: LOS SANTOS - SANTANDER                                             3
 ACTION:UPD 14-01-08 09:56 OP:ep   STATUS:               ID:20130620140804 L   I
 OLDACT:UP  13-06-20 16:25 OP:cam  STATUS:               ID:20130620135959     3
 OLDACT:REG 13-06-20 15:18 OP:cam  STATUS:               ID:20130620135959     3
 2013-06-20-1359-59M.COL___264                                                 6
 STAT SP IPHASW D HRMM SECON CODA AMPLIT PERI AZIMU VELO AIN AR TRES W  DIS CAZ7
 BAR2 SZ EP       14 8 24.17                             170   -0.2210 23.5 186 
 BAR2 SZ ES       14 8 39.52                             170   -0.3010 23.5 186 
 BAR2 SZ I        14 8 41.47        39.5 0.23            166           23.5 186 
 BRR  HZ IP     C 14 8 25.95                             153    0.1610 69.5 299 
 BRR  HN ES       14 8 43.00                             153    0.6810 69.5 299 
 BRR  HZ I        14 8 43.63        30.3 0.24            152           69.5 299 
 RUS  HZ EP       14 8 28.61                             144    0.0910  101 175 
 RUS  HN ES   1   14 8 47.36                             144    0.19 7  101 175 
 RUS  HZ I        14 8 48.66        33.6 0.34            142            101 175 
 PTB  HZ EP       14 8 30.71                             133   -0.82 9  146 259 
 PTB  HN ES       14 8 51.99                             133   -0.54 9  146 259 
 PTB  HZ I        14 8 57.34        26.8 0.50            131            146 259 
 TAM  HZ IP     C 14 8 32.55                             130    0.00 9  157 105 
 ZAR  HZ EP   2   14 8 37.11                             123    0.16 4  202 292 
 NOR  HZ EP   1   14 8 40.55                             119    0.27 6  234 234 
 NOR  HE ES       14 9  8.50                             119    0.39 8  234 234 
 NOR  HZ I        14 9 13.30        13.7 0.16            118            234 234 
 CHI  HZ EP   1   14 8 43.00                             117    0.63 6  249 195 
 CHI  HN ES   1   14 9 11.79                             117   -0.03 6  249 195 
 CHI  HZ I        14 9 15.72         7.5 0.30            117            249 195 
 HEL  HZ EP   4   14 8 46.22                             115    1.52 0  270 256 
 PRA  HZ EP   1   14 8 58.45                             107    0.34 4  392 209 
 PRA  HZ I        14 9  0.50         3.4 0.18            107            392 209 
 PRA  HN ES   4   14 9 41.86                             107    2.01 0  392 209 
                                                                                
