 2015  920 1130 24.9 L   6.793 -73.093147.5  RSN 14 0.5 2.3LRSN                1
 GAP=124        1.16       3.0     4.4  5.5 -0.2877E+01  0.4876E+01  0.2211E+01E
 Epicentro: LOS SANTOS - SANTANDER                                             3
 ACTION:UPD 15-10-28 16:27 OP:cam  STATUS:               ID:20150920113024 L   I
 OLDACT:REG 15-09-20 20:45 OP:ak   STATUS:               ID:20150920112745     3
 2015-09-20-1127-45M.COL___358                                                 6
 STAT SP IPHASW D HRMM SECON CODA AMPLIT PERI AZIMU VELO AIN AR TRES W  DIS CAZ7
 BAR2 EZ EP       1130 44.99                             170    0.2310 24.3 204 
 BAR2 EZ ES       1131  0.37                             170    0.1210 24.3 204 
 BAR2 EZ I        1131  6.12                             169           24.3 204 
 PAM  EZ EP       1130 47.99                             152    0.8610 74.5  36 
 PAM  EN ES       1131  4.30                             152   -0.1710 74.5  36 
 PAM  EZ I        1131  7.21                             156           74.5  36 
 BRR  HZ IP     D 1130 46.79                             151    0.2310 76.7 297 
 BRR  HE ES       1131  3.92                             151    0.4710 76.7 297 
 BRR  HZ I        1131  8.91        21.6 0.14            150           76.7 297 
 RUS  HZ EP       1130 48.11                             144   -0.6410 99.5 179 
 RUS  HN ES       1131  7.47                             144    0.1210 99.5 179 
 PTB  HZ EP       1130 51.99                             131   -0.53 9  153 260 
 PTB  HN ES       1131 13.29                             131   -0.77 9  153 260 
 PTB  HZ I        1131 19.08        23.3 0.41            133            153 260 
 OCA  HZ EP       1130 53.99                             130    0.49 9  162 351 
 OCA  HE ES       1131 15.45                             130   -0.35 9  162 351 
 OCA  HZ I        1131 21.01        28.6 0.22            133            162 351 
 SPBC HZ EP       1130 53.96                             129    0.13 9  166 221 
 SPBC HN ES       1131 16.49                             129    0.10 9  166 221 
 SPBC HZ I        1131 23.13        35.3 0.34            131            166 221 
 NOR  HZ EP       1131  0.98                             118   -0.22 8  239 235 
 NOR  HE ES       1131 29.56                             118    0.06 8  239 235 
 NOR  HZ I        1131 33.29        13.6 0.11            121            239 235 
 SML  HZ EP       1131  1.58                             117   -0.39 8  247 334 
 SML  HN ES       1131 30.03                             117   -0.86 8  247 334 
 SML  HZ I        1131 34.82        18.1 0.10            120            247 334 
 CHI  HZ EP       1131  3.17                             117    0.38 8  249 197 
 CHI  HN ES       1131 31.70                             117   -0.63 8  249 197 
 HEL  HZ EP       1131  6.71                             115    0.90 7  278 256 
 HEL  HN ES       1131 37.71                             115   -0.01 7  278 256 
 HEL  HZ I        1131 43.74         9.7 0.32            117            278 256 
 PTGC HZ EP       1131  7.83                             112   -0.69 7  306 160 
 PTGC HN ES   4   1131 40.97                             112   -1.57 0  306 160 
 GUY2CHZ EP       1131  9.45                             112    0.37 7  306 236 
 GUY2CHN ES       1131 44.48                             112    0.94 7  306 236 
 GUY2CHZ I        1131 55.13         9.5 0.46                           306 236 
 PRA  HZ EP       1131 18.72                             107   -0.02 6  394 210 
 PRA  HE ES       1132  0.22                             107   -0.52 6  394 210 
 PRA  HZ I        1132  6.37         6.2 0.64            109            394 210 
 SJC  HZ EP   4   1131 19.31                             106   -1.67 0  413 326 
 SJC  HN ES   4   1132  0.51                             106   -4.20 0  413 326 
                                                                                
