 2012  120 1259 52.9 L   6.153 -74.258 97.5  RSN  5 0.3 0.9LRSN                1
 GAP= 95        0.71       4.0     3.2  8.7 -0.2755E+01 -0.5664E+01  0.9633E+01E
 Epicentro: CIMITARRA - SANTANDER                                              3
 ACTION:DUP 12-02-03 08:19 OP:REBC STATUS:               ID:20120120125953dL   I
 2012-01-20-1256-37S.COL___158                                                 6
 STAT SP IPHASW D HRMM SECON CODA AMPLIT PERI AZIMU VELO SNR AR TRES W  DIS CAZ7
 PTB  HZ EP   1   13 0  7.73                             152     0.1 7   48 333 
 PTB  HN ES   1   13 0 19.14                             152     0.1 7   48 333 
 PTB  HZ I        13 0 19.95         0.1 0.15                            48 333 
 NOR  SZ EP   1   13 0 11.61                             133     0.5 7   94 226 
 NOR  SN ES   1   13 0 25.37                             133     0.0 7   94 226 
 BAR2 SZ EP   1   13 0 14.49                             123    -0.3 7  129  68 
 BAR2 SZ ES   1   13 0 31.73                             123     0.0 7  129  68 
 BAR2 SZ I        13 0 33.64         5.6 0.23                           129  68 
 HEL  HZ EP   1   13 0 16.46                             121     0.3 7  141 272 
 HEL  HN ES   1   13 0 33.68                             121    -0.6 7  141 272 
 HEL  HZ I        13 0 35.62         9.0 0.26                           141 272 
 CHI  HE ES   1   13 0 41.55                             115    -0.2 7  178 161 
                                                                                
