 2017 1020 1147  0.1 L   6.620 -73.351147.3  RSN  4 0.2 1.1LRSN                1
 GAP=136        0.63       4.8     4.5  5.7  0.1018E+02  0.5879E-01  0.1229E+01E
 Epicentro: GALAN - SANTANDER                                                  3
 ACTION:UPD 17-11-07 19:34 OP:rebc STATUS:               ID:20171020114700 L   I
 OLDACT:DUP 17-10-20 22:46 OP:edw  STATUS:               ID:20171020113742d    3
 OLDACT:UP  17-10-20 22:45 OP:edw  STATUS:               ID:20171020113741     3
 OLDACT:REG 17-10-20 19:54 OP:edw  STATUS:               ID:20171020113741     3
 2017-10-20-1138-00M.COL___450                                                 6
 STAT SP IPHASW D HRMM SECON CODA AMPLIT PERI AZIMU VELO AIN AR TRES W  DIS CAZ7
 BAR2 EZ EP       1147 19.72                             172   -0.0710 18.9  99 
 BAR2 EZ ES       1147 34.80                             172   -0.3810 18.9  99 
 BAR2 EZ I        1147 37.61         3.0 0.50            171           18.9  99 
 BRR  HZ EP       1147 21.18                             154    0.0310 67.0 324 
 BRR  HN ES       1147 37.90                             154    0.3110 67.0 324 
 RUS  HZ EP       1147 22.92                             148   -0.0310 85.7 160 
 RUS  HN ES       1147 41.09                             148    0.2810 85.7 160 
 RUS  HZ I        1147 41.78         1.7 0.32            150           85.7 160 
 PTB  HN ES       1147 44.27                             138   -0.1510  123 266 
                                                                                
