 2010  820 1421 51.3 L   6.803 -73.043144.0  RSN  6 0.4 1.6LRSN                1
 GAP=170        1.12       8.4    17.2 18.2  0.6327E+02 -0.2331E+03 -0.8318E+02E
 Epicentro: LOS SANTOS - SANTANDER                                             3
 ACTION:UP  10-09-07 10:56 OP:vdl  STATUS:               ID:20100820142150 L   I
 2010-08-20-1419-03S.COL___120                                                 6
 STAT SP IPHASW D HRMM SECON CODA AMPLIT PERI AZIMU VELO SNR AR TRES W  DIS CAZ7
 BTL  SZ EP       1422  9.98                             169    -0.810   28 297 
 BAR2 SZ EP   1   1422 10.78                             169     0.0 7   28 214 
 BAR2 SZ I        1422 25.16         5.4 0.62                            28 214 
 BAR2 SZ ES   2   1422 25.90                             169    -0.1 5   28 214 
 BRR  HZ EP   1   1422 12.82                             149     0.0 7   81 294 
 BRR  HE ES       1422 29.90                             149     0.210   81 294 
 BRR  HZ I        1422 34.20        14.2 0.21                            81 294 
 RUS  HZ EP   1   1422 15.22                             144     0.3 7  101 183 
 RUS  HE ES   1   1422 33.48                             144     0.2 7  101 183 
 RUS  HZ I        1422 34.66         3.9 0.44                           101 183 
 GUE  SZ EP       1422 15.47                             140    -0.210  114   7 
 GRA  SZ EP       1422 16.61                             138     0.510  122  12 
 GRA  SZ I        1422 37.53         5.7 0.16                           122  12 
                                                                                
