 2016 1020 1454 19.4 L   6.481 -73.557 18.5  RSN  4 0.1 1.3LRSN                1
 GAP=133        0.39       1.3     1.3  9.2  0.9013E+00  0.8436E+01  0.6107E+01E
 Epicentro: SANTA HELENA DEL OPON - SANTANDER                                  3
 ACTION:UPD 16-11-09 19:21 OP:rebc STATUS:               ID:20161020145419 L   I
 OLDACT:REG 16-10-21 02:18 OP:ar   STATUS:               ID:20161020144744     3
 2016-10-20-1448-00M.COL___343                                                 6
 STAT SP IPHASW D HRMM SECON CODA AMPLIT PERI AZIMU VELO AIN AR TRES W  DIS CAZ7
 BAR2 EZ EP       1454 27.28                             111    0.1110 43.2  74 
 BAR2 EZ ES       1454 33.24                             111   -0.0210 43.2  74 
 BAR2 EZ I        1454 33.73        22.3 0.10             47           43.2  74 
 BRR  HZ EP       1454 31.07                             102    0.0710 71.3 346 
 BRR  HE ES       1454 39.98                             102   -0.0910 71.3 346 
 BRR  HZ I        1454 42.11        13.0 0.32             47           71.3 346 
 RUS  HZ EP       1454 33.44                             101    0.0910 83.6 141 
 RUS  HE ES       1454 44.17                             101   -0.0910 83.6 141 
 RUS  HZ I        1454 45.76         6.4 0.54             47           83.6 141 
 PTB  HZ EP       1454 35.04                              99   -0.2010 99.6 274 
 PTB  HE ES       1454 47.76                              99    0.1410 99.6 274 
 PTB  HZ I        1454 48.27         9.7 0.20             47           99.6 274 
                                                                                
