 2013  620 1908  8.1 L   6.725 -73.199154.4  RSN  4 0.4 1.6LRSN                1
 GAP=225        1.04       9.1     8.0  9.1  0.3001E+02  0.9731E+01 -0.1028E+02E
 Epicentro: VILLANUEVA - SANTANDER                                             3
 ACTION:UPD 14-01-08 09:56 OP:ep   STATUS:               ID:20130620190808 L   I
 OLDACT:UP  13-06-20 17:05 OP:cam  STATUS:               ID:20130620185959     3
 OLDACT:REG 13-06-20 15:42 OP:cam  STATUS:               ID:20130620185959     3
 2013-06-20-1859-59M.COL___264                                                 6
 STAT SP IPHASW D HRMM SECON CODA AMPLIT PERI AZIMU VELO AIN AR TRES W  DIS CAZ7
 BAR2 SZ EP       19 8 28.25                             174   -0.4110 14.8 173 
 BAR2 SZ I        19 8 28.57         8.6 0.19            169           14.8 173 
 BAR2 SZ ES       19 8 44.21                             174   -0.4710 14.8 173 
 BRR  HZ EP       19 8 30.27                             154    0.0810 70.7 307 
 BRR  HN ES   1   19 8 48.25                             154    0.86 7 70.7 307 
 RUS  HZ EP   1   19 8 32.99                             148    0.76 7 93.0 172 
 RUS  HN ES       19 8 51.21                             148    0.1910 93.0 172 
 RUS  HZ I        19 8 52.13         5.1 0.24            145           93.0 172 
 PTB  HZ EP       19 8 34.95                             135   -0.24 9  141 262 
 PTB  HN ES       19 8 56.18                             135   -0.11 9  141 262 
 PTB  HZ I        19 9  2.00         7.3 0.42            132            141 262 
                                                                                
