 2011  220 1429 42.4 L   6.722 -73.147139.4  RSN  5 0.3 1.3LRSN                1
 GAP=159        0.50       8.5    47.7 13.2  0.2209E+03 -0.1519E+03 -0.3468E+01E
 Epicentro: JORDAN - SANTANDER                                                 3
 ACTION:UP  11-03-28 15:09 OP:jfem STATUS:               ID:20110220142942 L   I
 2011-02-20-1428-23S.COL___137                                                 6
 STAT SP IPHASW D HRMM SECON CODA AMPLIT PERI AZIMU VELO SNR AR TRES W  DIS CAZ7
 BAR2 SZ EP       1430  0.97                             174    -0.210   15 196 
 BAR2 SZ I        1430  1.44         6.3 0.14                            15 196 
 BAR2 SZ ES   3   1430 15.14                             174    -0.6 2   15 196 
 BTL  SZ EP       1430  1.26                             169    -0.110   26 329 
 GIR2 SZ EP   2   1430  2.12                             163     0.5 5   40 353 
 GIR2 SZ ES   3   1430 17.24                             163     0.7 2   40 353 
 RUS  HZ EP   1   1430  5.09                             145     0.2 7   92 176 
 RUS  HN ES   3   1430 22.41                             145    -0.1 2   92 176 
 RUS  HZ I        1430 24.27         2.7 0.34                            92 176 
 GRA  SZ EP   3   1430  7.26                             133    -0.5 2  134  16 
                                                                                
