 2017 1020 1620  6.5 L   6.777 -73.117137.6  RSN  5 0.3 1.1LRSN                1
 GAP=141        0.91       4.6     5.0  7.3  0.4553E+01  0.4763E+01 -0.5283E+00E
 Epicentro: LOS SANTOS - SANTANDER                                             3
 ACTION:UPD 17-11-07 19:34 OP:rebc STATUS:               ID:20171020162006 L   I
 OLDACT:DUP 17-10-21 00:47 OP:edw  STATUS:               ID:20171020161746d    3
 2017-10-20-1618-00M.COL___459                                                 6
 STAT SP IPHASW D HRMM SECON CODA AMPLIT PERI AZIMU VELO AIN AR TRES W  DIS CAZ7
 BAR2 EZ EP       1620 24.94                             171   -0.1310 21.6 200 
 BAR2 EZ ES       1620 39.12                             171   -0.4710 21.6 200 
 BAR2 EZ I        1620 41.93         3.2 0.26            171           21.6 200 
 BRR  HZ EP       1620 27.07                             150    0.1010 75.2 299 
 BRR  HN ES       1620 43.63                             150    0.6610 75.2 299 
 PAM  EZ EP       1620 28.07                             149    0.2610 77.5  37 
 PAM  EN ES       1620 44.27                             149   -0.2010 77.5  37 
 PAM  EZ I        1620 46.28         1.8 0.18            151           77.5  37 
 RUS  HZ EP       1620 29.13                             143   -0.0810 97.8 178 
 RUS  HN ES       1620 47.18                             143    0.2310 97.8 178 
 RUS  HZ I        1620 48.50         2.3 0.42            144           97.8 178 
 ZAR  HN ES       1621  3.50                             120   -0.52 8  208 292 
                                                                                
