 2016  220 1626 12.1 L   6.746 -73.157145.5  RSN  8 0.4 1.8LRSN                1
 GAP=137        1.09       4.0     4.6  6.8 -0.3698E+00  0.5621E+01  0.5567E+01E
 Epicentro: LOS SANTOS - SANTANDER                                             3
 ACTION:UPD 16-03-04 21:27 OP:rebc STATUS:               ID:20160220162612 L   I
 OLDACT:REG 16-02-20 21:23 OP:ak   STATUS:               ID:20160220161749     3
 2016-02-20-1617-49M.COL___331                                                 6
 STAT SP IPHASW D HRMM SECON CODA AMPLIT PERI AZIMU VELO AIN AR TRES W  DIS CAZ7
 BAR2 EZ EP       1626 31.54                             173   -0.0310 17.2 189 
 BAR2 EZ ES       1626 46.28                             173   -0.4910 17.2 189 
 BAR2 EZ I        1626 47.80        17.6 0.18            171           17.2 189 
 BRR  HZ EP       1626 33.78                             152    0.4710 73.2 303 
 BRR  HN ES       1626 50.50                             152    0.6310 73.2 303 
 PAM  EZ EP       1626 34.80                             149    0.2010 82.9  38 
 PAM  EN ES       1626 51.92                             149   -0.2510 82.9  38 
 PAM  EZ I        1626 54.15        13.4 0.48            153           82.9  38 
 RUS  HZ EP       1626 35.13                             145   -0.2610 94.7 175 
 RUS  HN ES       1626 53.97                             145    0.4010 94.7 175 
 RUS  HZ I        1626 56.48         5.3 0.46            146           94.7 175 
 PTB  HZ EP       1626 38.17                             132   -0.65 9  145 261 
 PTB  HN ES       1626 59.00                             132   -0.67 9  145 261 
 PTB  HZ I        1627  5.33         6.7 0.18            133            145 261 
 SPBC HZ EP       1626 40.28                             130    0.23 9  158 220 
 SPBC HN ES       1627  2.01                             130    0.15 9  158 220 
 SPBC HZ I        1627  4.68        11.0 0.20            130            158 220 
 ZAR  HZ EP   2   1626 45.53                             122    0.90 4  205 294 
 ZAR  HN ES       1627 10.04                             122    0.03 8  205 294 
 ZAR  HZ I        1627 12.52         7.5 0.19            123            205 294 
 CHI  HZ EP       1626 48.53                             118   -0.57 8  243 195 
 CHI  HN ES       1627 18.54                             118    0.56 8  243 195 
 CHI  HZ I        1627 23.15         1.8 0.30            119            243 195 
                                                                                
