 2013  220 1815 53.9 L   6.795 -73.123146.2  RSN  4 0.2 1.5LRSN                1
 GAP=140        0.47       2.8     4.1  6.6  0.3698E+00  0.1072E+02  0.5050E+01E
 Epicentro: LOS SANTOS - SANTANDER                                             3
 ACTION:UPD 13-03-12 09:34 OP:ep   STATUS:               ID:20130220181553 L   I
 2013-02-20-1810-00M.COL___241                                                 6
 STAT SP IPHASW D HRMM SECON CODA AMPLIT PERI AZIMU VELO AIN AR TRES W  DIS CAZ7
 PAM  SZ EP   1   1816 16.10                             151    0.03 7 76.2  38 
 PAM  SN ES   1   1816 33.55                             151    0.17 7 76.2  38 
 PAM  SZ I        1816 35.57         3.9 0.56            153           76.2  38 
 RUS  HZ EP   1   1816 17.53                             144   -0.09 7 99.9 177 
 RUS  HN ES   1   1816 35.86                             144   -0.28 7 99.9 177 
 RUS  HZ I        1816 36.97         4.3 0.34            144           99.9 177 
 ZAR  HN ES   1   1816 52.11                             122   -0.04 6  207 292 
 CHI  HZ EP   1   1816 31.45                             117   -0.17 6  249 196 
 CHI  HN ES   1   1817  1.53                             117    0.48 6  249 196 
 CHI  HZ I        1817  5.76         2.8 0.58            118            249 196 
                                                                                
