 2012 1220 1206 40.8 L   6.775 -73.116150.4  RSN  6 0.4 1.6LRSN                1
 GAP=192        0.79       6.8     6.4  7.8  0.1975E+02  0.1228E+02  0.9644E+01E
 Epicentro: LOS SANTOS - SANTANDER                                             3
 ACTION:UPD 13-01-04 14:29 OP:ep   STATUS:               ID:20121220120640 L   I
 2012-12-20-1200-00M.COL___242                                                 6
 STAT SP IPHASW D HRMM SECON CODA AMPLIT PERI AZIMU VELO AIN AR TRES W  DIS CAZ7
 BAR2 SZ EP   1   12 7  1.21                             171    0.26 7 21.5 200 
 BAR2 SZ ES   1   12 7 16.31                             171   -0.36 7 21.5 200 
 BAR2 SZ I        12 7 20.51         8.4 0.18                          21.5 200 
 GIR2 SZ EP   1   12 7  0.86                             166   -0.26 7 34.7 346 
 GIR2 SZ ES   1   12 7 16.63                             166   -0.34 7 34.7 346 
 GIR2 SZ I        12 7 18.36         5.2 0.12                          34.7 346 
 BRR  HN ES   1   12 7 20.42                             152    0.66 7 75.4 299 
 RUS  HZ EP   1   12 7  5.08                             146    0.28 7 97.6 178 
 RUS  HE ES   1   12 7 23.81                             146    0.29 7 97.6 178 
 RUS  HZ I        12 7 25.20         2.3 0.37                          97.6 178 
 PTB  HZ EP   1   12 7  7.89                             132   -0.50 7  150 260 
 PTB  HN ES   1   12 7 29.47                             132   -0.45 7  150 260 
 PTB  HZ I        12 7 33.88         6.2 0.16                           150 260 
 ZAR  HN ES   1   12 7 40.27                             123    0.43 6  208 293 
 ZAR  HZ I        12 7 45.17         6.7 0.32                           208 293 
                                                                                
