 2010  320 1931 40.7 L   6.801 -73.067143.2  RSN 10 0.3 2.3LRSN                1
 GAP=191        0.56       2.8     5.3  4.7  0.4474E+00  0.5473E+01  0.1150E+01E
 Epicentro: LOS SANTOS - SANTANDER                                             3
 ACTION:UP  10-08-24 09:55 OP:vdl  STATUS:               ID:20100320193140 L   I
 2010-03-20-1928-39S.COL___098                                                 6
 STAT SP IPHASW D HRMM SECON CODA AMPLIT PERI AZIMU VELO SNR AR TRES W  DIS CAZ7
 BAR2 SZ IP       1932  0.20                             169     0.110   27 209 
 BAR2 SZ ES   1   1932 14.97                             169    -0.3 7   27 209 
 BRR  HZ IP       1932  2.03                             149     0.010   79 295 
 BRR  HZ I        1932  2.19        87.6 0.17                            79 295 
 BRR  HE ES   1   1932 19.04                             149     0.4 7   79 295 
 RUS  HZ EP   1   1932  4.43                             143     0.2 7  100 181 
 RUS  HN ES   1   1932 22.40                             143    -0.1 7  100 181 
 RUS  HZ I        1932 24.31        14.9 0.45                           100 181 
 OCA  SZ EP   1   1932  8.70                             129    -0.2 7  161 350 
 OCA  SZ ES   2   1932 30.93                             129     0.0 5  161 350 
 OCA  SZ I        1932 35.19        48.2 0.21                           161 350 
 CHI  HZ EP   2   1932 18.49                             116    -0.1 4  251 197 
 CHI  HE ES   2   1932 47.65                             116    -0.4 4  251 197 
 CHI  HZ I        1932 50.43         6.3 0.34                           251 197 
 HEL  HN ES   2   1932 53.00                             113    -0.7 4  281 256 
 HEL  HZ I        1932 59.38         6.6 0.49                           281 256 
 RREF BZ EP   2   1932 28.28                             110     0.8 3  328 230 
 RREF BN ES   2   1933  4.30                             110     0.3 3  328 230 
 RREF BZ I        1933 12.17         6.8 0.47                           328 230 
 DBB  SZ EP   2   1932 28.37                             108    -0.7 3  348 274 
 TOL  SZ EP   2   1932 30.19                             108     0.6 3  350 226 
 PRA  HZ EP   2   1932 34.23                             106    -0.4 3  396 211 
 PRA  HE ES   1   1933 16.91                             106     0.2 4  396 211 
 PRA  HZ I        1933 21.53         6.8 0.32                           396 211 
                                                                                
