 2013  420 1852  1.0 L   6.767 -73.159142.5  RSN  6 0.4 2.0LRSN                1
 GAP=136        1.18       6.1     6.0  8.5 -0.4052E+01  0.5587E+01  0.4154E+00E
 Epicentro: LOS SANTOS - SANTANDER                                             3
 ACTION:UPD 13-05-22 14:39 OP:EP   STATUS:               ID:20130420185201 L   I
 2013-04-20-1848-40M.COL___217                                                 6
 STAT SP IPHASW D HRMM SECON CODA AMPLIT PERI AZIMU VELO AIN AR TRES W  DIS CAZ7
 BAR2 SZ EP       1852 20.31                             172    0.1610 19.5 188 
 BAR2 SZ ES       1852 34.60                             172   -0.4910 19.5 188 
 BAR2 SZ I        1852 36.02        10.1 0.24            171           19.5 188 
 GIR2 SZ EP       1852 20.22                             166   -0.1410 34.6 354 
 BRR  HZ IP     C 1852 22.00                             152    0.1910 71.8 302 
 BRR  HN ES       1852 39.04                             152    0.9910 71.8 302 
 BRR  HN I        1852 42.63        34.7 0.22            150           71.8 302 
 PAM  SZ IP     D 1852 23.16                             149    0.0810 81.1  39 
 PAM  SZ I        1852 23.36        24.2 0.18            152           81.1  39 
 PAM  SN ES       1852 39.87                             149   -0.4410 81.1  39 
 RUS  HZ EP       1852 24.51                             144    0.3510 97.1 175 
 RUS  HN ES       1852 42.45                             144    0.2110 97.1 175 
 RUS  HN I        1852 43.87         9.5 0.20            146           97.1 175 
 PTB  HZ EP       1852 27.02                             132   -0.48 9  146 260 
 PTB  HE ES       1852 47.61                             132   -0.56 9  146 260 
 PTB  HN I        1852 52.70        13.8 0.48            131            146 260 
                                                                                
