 2010 1020 1517 43.6 L   6.825 -73.092142.7  RSN 11 0.5 2.3LRSN                1
 GAP=165        0.90       5.0     7.9  7.7  0.6608E+01  0.1352E+02  0.1132E+02E
 Epicentro: LOS SANTOS - SANTANDER                                             3
 ACTION:UP  11-02-18 11:10 OP:tino STATUS:               ID:20101020151743 L   I
 2010-10-20-1515-00S.COL___121                                                 6
 STAT SP IPHASW D HRMM SECON CODA AMPLIT PERI AZIMU VELO SNR AR TRES W  DIS CAZ7
 BTL  SZ EP   1   1518  3.15                             171     0.3 7   22 298 
 BTL  SZ ES   2   1518 18.31                             171     0.4 5   22 298 
 BAR2 SZ IP     D 1518  2.87                             168    -0.110   28 202 
 BAR2 SZ ES   2   1518 17.54                             168    -0.6 5   28 202 
 BAR2 SZ I        1518 19.11        78.3 0.23                            28 202 
 BRR  HZ EP   1   1518  4.82                             151     0.1 7   75 294 
 BRR  HE ES   2   1518 21.74                             151     0.6 5   75 294 
 BRR  HZ I        1518 25.04        47.8 0.14                            75 294 
 RUS  HZ EP   1   1518  6.82                             142    -0.5 7  103 179 
 RUS  HZ I        1518  7.97        16.7 0.13                           103 179 
 RUS  HN ES   2   1518 25.24                             142    -0.5 5  103 179 
 OCA  SZ EP   1   1518 11.59                             129     0.1 7  158 351 
 OCA  SZ ES   2   1518 32.79                             129    -0.5 5  158 351 
 OCA  SZ I        1518 37.96        41.6 0.30                           158 351 
 YOP  SZ EP   1   1518 13.53                             126     0.1 7  179 155 
 YOP  SN ES   2   1518 37.79                             126     1.1 4  179 155 
 NOR  SZ EP   1   1518 19.36                             117    -0.6 6  241 235 
 NOR  SN ES   2   1518 47.69                             117    -0.5 4  241 235 
 CHI  HZ EP   1   1518 21.19                             116    -0.5 6  253 196 
 CHI  HZ I        1518 57.53        10.1 0.34                           253 196 
 ROSC BZ EP   1   1518 23.33                             115     1.1 6  258 212 
 ROSC BZ I        1519  0.60        14.0 0.43                           258 212 
 HEL  HZ EP   1   1518 24.72                             113     0.3 6  279 256 
 HEL  HZ I        1519  1.27        10.7 0.46                           279 256 
 PRA  HZ EP   1   1518 37.29                             106    -0.4 4  397 210 
 PRA  HE ES   2   1519 20.47                             106     0.6 3  397 210 
                                                                                
