 2014 1220 1953  3.0 L   6.790 -73.184142.5  RSN 13 0.4 2.3LRSN                1
 GAP=132        0.93       2.5     3.3  4.8 -0.1034E+01  0.4891E+01  0.1357E+01E
 Epicentro: LOS SANTOS - SANTANDER                                             3
 ACTION:UPD 15-02-10 17:05 OP:nd   STATUS:               ID:20141220195303 L   I
 OLDACT:REG 14-12-20 21:03 OP:fm   STATUS:               ID:20141220194748     3
 2014-12-20-1947-48M.COL___299                                                 6
 STAT SP IPHASW D HRMM SECON CODA AMPLIT PERI AZIMU VELO AIN AR TRES W  DIS CAZ7
 BAR2 EZ EP       1953 22.28                             171    0.1010 21.9 180 
 BAR2 EZ ES       1953 37.18                             171    0.0110 21.9 180 
 BAR2 EZ I        1953 39.19        56.0 0.20            169           21.9 180 
 BRR  HZ EP     C 1953 24.34                             153    0.7410 68.1 301 
 BRR  HN ES       1953 40.12                             153    0.4410 68.1 301 
 BRR  HZ I        1953 45.62        41.9 0.26            150           68.1 301 
 PAM  SZ IP     C 1953 25.23                             149    0.1710 80.9  41 
 PAM  SE ES       1953 41.81                             149   -0.4810 80.9  41 
 PAM  SZ I        1953 44.75        34.7 0.52            154           80.9  41 
 RUS  HZ EP       1953 26.35                             143   -0.0010 99.9 174 
 RUS  HE ES       1953 44.12                             143   -0.4710 99.9 174 
 RUS  HZ I        1953 46.29        19.3 0.28            146           99.9 174 
 PTB  HZ EP       1953 29.23                             132   -0.05 9  143 259 
 PTB  HN ES       1953 49.89                             132    0.08 9  143 259 
 PTB  HZ I        1953 53.51        22.9 0.12            131            143 259 
 SPBC HZ EP       1953 31.36                             129    0.47 9  160 218 
 SPBC HN ES       1953 53.17                             129    0.50 9  160 218 
 SPBC HZ I        1953 55.75        41.0 0.12            129            160 218 
 ZAR  HE ES       1953 59.57                             122   -0.14 9  201 293 
 ZAR  HZ I        1954  8.43        17.8 0.10            122            201 293 
 NOR  HZ EP       1953 38.57                             118    0.49 8  231 234 
 NOR  HE ES       1954  5.42                             118   -0.05 8  231 234 
 NOR  HZ I        1954 14.58        18.2 0.20            119            231 234 
 SML  HZ EP       1953 39.35                             117    0.01 8  243 336 
 SML  HN ES       1954  6.93                             117   -0.77 8  243 336 
 SML  HZ I        1954 12.97        37.8 0.24            118            243 336 
 CHI  HZ EP       1953 40.08                             117   -0.18 8  247 194 
 CHI  HN ES       1954  9.34                             117   -0.01 8  247 194 
 CHI  HZ I        1954 14.30         7.4 0.24            118            247 194 
 ROSC BE ES       1954  9.36                             116   -0.56 8  250 210 
 ROSC BZ I        1954 18.87        17.8 0.55            118            250 210 
 HEL  HZ EP       1953 42.49                             114   -0.05 8  268 256 
 HEL  HN ES       1954 12.79                             114   -0.61 8  268 256 
 HEL  HZ I        1954 20.80         7.6 0.32            115            268 256 
 TOL  SZ EP       1953 50.67                             109   -0.00 7  340 224 
 TOL  SE ES       1954 27.42                             109   -0.46 7  340 224 
 TOL  SZ I        1954 33.49        20.8 0.54            110            340 224 
                                                                                
