 2016 1120 1633 46.6 L   6.669 -73.465112.0  RSN  5 0.7 1.3LRSN                1
 GAP=157        1.74      11.9     6.4 12.8 -0.1276E+02  0.2225E+02 -0.1865E+02E
 Epicentro: EL CARMEN - SANTANDER                                              3
 ACTION:UPD 17-10-26 21:10 OP:lp   STATUS:               ID:20161120163346 L   I
 OLDACT:REG 16-11-20 21:37 OP:ar   STATUS:               ID:20161120162651     3
 2016-11-20-1627-00M.COL___334                                                 6
 STAT SP IPHASW D HRMM SECON CODA AMPLIT PERI AZIMU VELO AIN AR TRES W  DIS CAZ7
 BAR2 EZ EP       1634  3.15                             163    0.6610 32.4 105 
 BAR2 EZ ES       1634 15.68                             163    0.8210 32.4 105 
 BAR2 EZ I        1634 16.01        20.3 0.14            167           32.4 105 
 BRR  HZ EP       1634  3.53                             152    0.3010 55.6 331 
 BRR  HE ES       1634 16.03                             152   -0.1610 55.6 331 
 BRR  HZ I        1634 16.94        12.5 0.28            145           55.6 331 
 PTB  HZ EP       1634  6.68                             132   -0.7810  111 263 
 PTB  HE ES       1634 22.78                             132   -0.9310  111 263 
 PTB  HZ I        1634 27.00         2.9 0.11            131            111 263 
 PAM  EZ EP       1634  8.07                             132   -0.2010  112  49 
 PAM  EE ES       1634 24.25                             132   -0.9110  112  49 
 PAM  EZ I        1634 29.24         1.3 0.30            131            112  49 
 ZAR  HZ EP       1634 14.86                             117    0.53 9  179 301 
 ZAR  HE ES       1634 36.85                             117    0.90 9  179 301 
 ZAR  HZ I        1634 46.30         2.2 0.66            116            179 301 
                                                                                
