 2013  820 1258 24.3 L   6.748 -73.144150.9  RSN  6 0.3 1.6LRSN                1
 GAP=139        0.79       4.1     3.6  5.3  0.1518E+01  0.4633E+01 -0.1068E+01E
 Epicentro: LOS SANTOS - SANTANDER                                             3
 OLDACT:REG 13-08-20 15:54 OP:stll STATUS:               ID:20130820124848     3
 ACTION:UPD 14-01-14 09:05 OP:ep   STATUS:               ID:20130820125824 L   I
 OLDACT:UP  13-08-20 18:42 OP:stll STATUS:               ID:20130820124848     3
 2013-08-20-1248-48M.COL___192                                                 6
 STAT SP IPHASW D HRMM SECON CODA AMPLIT PERI AZIMU VELO AIN AR TRES W  DIS CAZ7
 BAR2 SZ EP       1258 44.53                             173    0.0910 17.8 194 
 BAR2 SZ ES       1259  0.47                             173    0.3110 17.8 194 
 BAR2 SZ I        1259  1.52         5.7 0.28            174           17.8 194 
 BRR  HZ EP       1258 46.65                             152    0.4910 74.3 302 
 BRR  HN ES       1259  3.11                             152   -0.1210 74.3 302 
 BRR  HZ I        1259  7.07        10.4 0.32            151           74.3 302 
 PAM  SZ EP       1258 47.40                             150    0.0910 81.8  37 
 PAM  SN ES       1259  4.92                             150   -0.3510 81.8  37 
 PAM  SZ I        1259  6.93         5.6 0.20            152           81.8  37 
 RUS  HZ EP       1258 47.60                             146   -0.5510 94.8 176 
 RUS  HN ES       1259  7.00                             146    0.2310 94.8 176 
 RUS  SZ I        1259  7.60         2.7 1.32            150           94.8 176 
 PTB  HZ EP       1258 51.57                             133   -0.03 9  147 261 
 PTB  HN ES       1259 12.53                             133   -0.39 9  147 261 
 PTB  HZ I        1259 14.58         6.5 0.18            134            147 261 
 PTB  SZ I        1259 14.65         6.5 0.12                           147 261 
 ZAR  HZ EP       1258 57.47                             123    0.15 8  206 294 
 ZAR  HN ES       1259 23.16                             123    0.08 8  206 294 
 ZAR  SZ I        1259 28.20         4.9 1.52            124            206 294 
                                                                                
