 2015  520 1211  5.8 L   6.806 -73.127147.9  RSN 12 0.4 2.2LRSN                1
 GAP=139        0.84       2.5     3.8  4.7 -0.3086E+00  0.5577E+01  0.1290E+01E
 Epicentro: LOS SANTOS - SANTANDER                                             3
 ACTION:UPD 15-09-10 22:05 OP:cam  STATUS:               ID:20150520121105 L   I
 OLDACT:UP  15-05-22 07:05 OP:DRIO STATUS:               ID:20150520121105 L   3
 OLDACT:UP  15-05-21 01:41 OP:mh   STATUS:               ID:20150520120750     3
 OLDACT:UP  15-05-20 22:22 OP:mh   STATUS:               ID:20150520120750     3
 OLDACT:REG 15-05-20 20:43 OP:ar   STATUS:               ID:20150520120750     3
 2015-05-20-1207-50M.COL___288                                                 6
 STAT SP IPHASW D HRMM SECON CODA AMPLIT PERI AZIMU VELO AIN AR TRES W  DIS CAZ7
 BAR2 EZ EP       1211 25.43                             170   -0.3010 24.5 194 
 BAR2 EZ ES   1   1211 41.14                             170   -0.12 7 24.5 194 
 BAR2 EZ I        1211 41.54        20.6 0.20            167           24.5 194 
 BRR  HZ EP       1211 27.22                             152   -0.0610 72.7 297 
 BRR  HN ES       1211 44.39                             152    0.3710 72.7 297 
 BRR  HZ I        1211 47.98        19.0 0.50            149           72.7 297 
 PAM  SZ EP     D 1211 28.46                             152    0.3010 75.5  39 
 PAM  SE ES       1211 45.64                             152    0.0610 75.5  39 
 PAM  SZ I        1211 46.99        14.5 0.40            156           75.5  39 
 RUS  HZ EP       1211 29.73                             144   -0.0910  101 177 
 RUS  HE ES       1211 48.31                             144   -0.2410  101 177 
 RUS  HZ I        1211 49.35        11.1 0.28            145            101 177 
 SPBC HZ EP       1211 34.59                             129   -0.07 9  165 219 
 SPBC HE ES       1211 57.49                             129    0.34 9  165 219 
 SPBC HZ I        1212  1.04        23.9 0.40            129            165 219 
 ZAR  HZ EP   1   1211 38.29                             123   -0.28 6  206 292 
 ZAR  HN ES       1212  3.44                             123   -0.68 8  206 292 
 ZAR  HZ I        1212  8.59        16.8 0.58            122            206 292 
 NOR  HZ EP   1   1211 41.59                             119   -0.31 6  237 235 
 NOR  HN ES       1212  9.99                             119   -0.04 8  237 235 
 NOR  HZ I        1212 14.85         9.3 0.24            119            237 235 
 SML  HZ EP       1211 42.03                             118   -0.56 8  244 335 
 SML  HN ES       1212 11.67                             118    0.40 8  244 335 
 SML  HZ I        1212 16.52        18.6 0.10            119            244 335 
 CHI  HZ EP       1211 43.41                             117   -0.36 8  250 196 
 CHI  HN ES       1212 13.21                             117   -0.16 8  250 196 
 CHI  HZ I        1212 18.19        10.5 0.34            118            250 196 
 ROSC BZ EP       1211 45.00                             117    0.76 8  254 211 
 ROSC BN ES   4   1212 16.11                             117    1.91 0  254 211 
 ROSC BZ I        1212 19.75        27.4 0.40            118            254 211 
 HEL  HZ EP       1211 46.71                             115    0.33 8  274 256 
 HEL  HN ES   4   1212 20.21                             115    2.19 0  274 256 
 HEL  HZ I        1212 23.91         9.3 0.26            115            274 256 
 GUY2CHZ EP       1211 50.41                             113    0.65 7  303 235 
 GUY2CHE ES   4   1212 25.46                             113    1.42 0  303 235 
 GUY2CHZ I        1212 31.77         8.3 0.58                           303 235 
 SJC  HZ EP   4   1211 59.60                             106   -1.92 0  410 327 
 SJC  HN ES   4   1212 40.63                             106   -4.33 0  410 327 
                                                                                
