 2011  620 1912 13.8 L   6.769 -73.124149.3  RSN 15 0.5 3.2LRSN                1
 GAP=141        0.96       4.3     6.1  6.6 -0.1337E+02  0.6119E+01  0.7791E+01E
 Epicentro: LOS SANTOS - SANTANDER                                             3
 ACTION:UP  11-07-14 19:06 OP:ep   STATUS:               ID:20110620191213 L   I
 2011-06-20-1911-00S.COL___140                                                 6
 STAT SP IPHASW D HRMM SECON CODA AMPLIT PERI AZIMU VELO SNR AR TRES W  DIS CAZ7
 BAR2 SZ IP       1912 33.74                             172     0.010   21 198 
 BAR2 SZ ES   1   1912 49.06                             172    -0.3 7   21 198 
 BAR2 SZ I        1912 51.81       313.5 0.24                            21 198 
 BRR  HZ IP       1912 35.68                             152     0.210   75 300 
 BRR  HZ I        1912 37.29       430.2 0.13                            75 300 
 BRR  HN ES   1   1912 53.09                             152     0.6 7   75 300 
 PAM  SZ EP       1912 36.70                             151     0.310   79  37 
 RUS  HZ IP       1912 37.58                             145    -0.110   97 177 
 RUS  HZ I        1912 58.61       110.9 0.32                            97 177 
 BRI  SZ EP       1912 38.34                             141     0.210  111  19 
 BRI  SZ ES   1   1912 57.06                             141    -0.2 7  111  19 
 GRA  SZ EP       1912 39.54                             137     0.010  128  16 
 GRA  SZ ES   1   1912 59.50                             137    -0.1 7  128  16 
 GRA  SZ I        1913  2.16       202.3 0.31                           128  16 
 OCA  SZ EP       1912 42.35                             130    -0.4 9  164 352 
 OCA  SZ ES   2   1913  4.81                             130    -0.5 5  164 352 
 OCA  SZ I        1913  9.34       322.6 0.40                           164 352 
 NOR  SZ EP       1912 49.53                             119    -0.2 8  235 235 
 NOR  SN ES   1   1913 17.50                             119    -0.3 6  235 235 
 CHI  HZ EP       1912 51.54                             118     0.1 8  246 196 
 CHI  HZ I        1913 29.48        79.8 0.45                           246 196 
 ROSC BZ EP   2   1912 53.38                             118     1.5 4  251 212 
 ROSC BZ I        1913 31.55       205.0 0.42                           251 212 
 HEL  HZ EP       1912 53.79                             115    -0.6 8  274 257 
 HEL  HZ I        1913 33.34        95.0 0.12                           274 257 
 RREF HZ EP   3   1912 59.97                             111    -0.1 2  321 230 
 RREF HN ES   2   1913 37.17                             111     1.1 3  321 230 
 DBB  SZ EP       1913  1.80                             110     0.1 7  342 275 
 TOL  SZ EP       1913  3.00                             110     0.9 7  343 225 
 PRA  HZ EP       1913  6.91                             107    -0.3 6  390 210 
 PRA  HN ES   1   1913 47.44                             107    -1.5 4  390 210 
                                                                                
