 2015  220 1244 43.0 L   6.797 -73.216138.8  RSN  8 0.5 1.8LRSN                1
 GAP=127        1.18       4.2     5.7  8.8 -0.1011E+02  0.1472E+02 -0.3628E+00E
 Epicentro: ZAPATOCA - SANTANDER                                               3
 ACTION:UPD 15-04-30 21:27 OP:nd   STATUS:               ID:20150220124443 L   I
 OLDACT:DUP 15-02-21 00:15 OP:fm   STATUS:               ID:20150220123748d    3
 2015-02-20-1237-47M.COL___289                                                 6
 STAT SP IPHASW D HRMM SECON CODA AMPLIT PERI AZIMU VELO AIN AR TRES W  DIS CAZ7
 BAR2 EZ EP       1245  2.19                             170    0.4510 23.0 171 
 BAR2 EZ ES   1   1245 16.76                             170    0.37 7 23.0 171 
 BAR2 EZ I        1245 18.13        12.5 0.18            171           23.0 171 
 PAM  SZ EP       1245  5.14                             148    0.3710 82.7  44 
 PAM  SE ES       1245 21.33                             148   -0.4610 82.7  44 
 PAM  SZ I        1245 24.07        21.2 0.58            151           82.7  44 
 PTB  HZ EP       1245  9.34                             132    0.68 9  140 258 
 PTB  HN ES       1245 28.32                             132   -0.39 9  140 258 
 PTB  HZ I        1245 33.91         5.9 0.18            132            140 258 
 SPBC HZ EP       1245 11.16                             128    0.71 9  158 217 
 SPBC HN ES       1245 31.93                             128    0.04 9  158 217 
 SPBC HZ I        1245 35.62        11.1 0.24            129            158 217 
 NOR  HN ES       1245 44.53                             118   -0.08 8  228 233 
 NOR  HZ I        1245 51.45         4.5 0.26            119            228 233 
 SML  HZ EP       1245 18.55                             116   -0.34 8  241 337 
 SML  HE ES       1245 46.56                             116   -0.35 8  241 337 
 SML  HZ I        1245 53.61        11.5 0.10            117            241 337 
 CHI  HZ EP       1245 19.35                             116   -0.68 8  246 193 
 CHI  HN ES       1245 47.99                             116   -0.97 8  246 193 
 CHI  HZ I        1245 56.49         2.3 0.62            117            246 193 
 GUY2CHN ES       1245 58.82                             111    0.11 7  295 234 
 GUY2CHZ I        1246  6.81         2.8 0.26                           295 234 
                                                                                
