 2010 1220 1846 59.4 L   6.786 -73.150149.3  RSN  5 0.3 2.0LRSN                1
 GAP=182        0.54       4.7     8.9  9.8 -0.1526E+02  0.4195E+02 -0.2187E+02E
 Epicentro: LOS SANTOS - SANTANDER                                             3
 ACTION:UP  11-01-14 15:26 OP:pat  STATUS:               ID:20101220184659 L   I
 2010-12-20-1846-24S.COL___133                                                 6
 STAT SP IPHASW D HRMM SECON CODA AMPLIT PERI AZIMU VELO SNR AR TRES W  DIS CAZ7
 BAR2 SZ EP   1   1847 19.41                             171     0.0 7   22 190 
 BAR2 SZ I        1847 37.28        20.7 0.23                            22 190 
 RUS  HZ EP   1   1847 23.35                             145     0.0 7   99 176 
 RUS  HN ES   1   1847 41.96                             145    -0.1 7   99 176 
 RUS  HZ I        1847 43.00        13.1 0.19                            99 176 
 OCA  SZ EP   1   1847 28.21                             130     0.1 7  162 353 
 OCA  SZ I        1847 57.94        11.3 0.24                           162 353 
 NOR  SZ EP   2   1847 34.29                             119    -0.9 4  234 235 
 NOR  SN ES   2   1848  3.45                             119     0.3 4  234 235 
 CHI  HZ EP   1   1847 37.29                             118     0.2 6  247 195 
 CHI  HE ES   2   1848  6.60                             118     0.1 4  247 195 
 CHI  HZ I        1848 12.59         6.7 0.31                           247 195 
                                                                                
