 2013 1220 1217 10.5 L   6.592 -73.113161.8  RSN  7 0.4 2.0LRSN                1
 GAP=201        0.95       3.8     5.6  6.4  0.2003E+01  0.8440E+01 -0.2900E+01E
 Epicentro: SAN GIL - SANTANDER                                                3
 ACTION:UPD 14-01-13 10:19 OP:ep   STATUS:               ID:20131220121710 L   I
 OLDACT:REG 13-12-20 15:21 OP:nd   STATUS:               ID:20131220121000     3
 2013-12-20-1210-00M.COL___285                                                 6
 STAT SP IPHASW D HRMM SECON CODA AMPLIT PERI AZIMU VELO AIN AR TRES W  DIS CAZ7
 BAR2 SZ IP     C 1217 32.37                             177    0.4910 7.72 270 
 BAR2 SZ ES       1217 47.89                             177   -0.6610 7.72 270 
 BAR2 SZ I        1217 50.87        36.3 0.28            174           7.72 270 
 RUS  HZ IP     D 1217 34.84                             153    0.3810 77.4 178 
 RUS  HN ES       1217 53.60                             153    0.4610 77.4 178 
 RUS  HZ I        1217 55.05        26.5 0.26            155           77.4 178 
 PTB  HZ EP       1217 38.66                             135   -0.25 9  149 268 
 PTB  HN ES       1218  1.38                             135    0.32 9  149 268 
 PTB  HZ I        1218  3.49         9.5 0.12            135            149 268 
 ZAR  HZ EP   2   1217 45.32                             124   -0.03 4  217 297 
 ZAR  HN ES   2   1218 12.74                             124    0.22 4  217 297 
 ZAR  HZ I        1218 16.00        14.5 0.12            125            217 297 
 NOR  HZ EP       1217 46.39                             123    0.15 8  225 240 
 NOR  HN ES       1218 14.18                             123    0.06 8  225 240 
 NOR  HZ I        1218 17.29         6.1 0.60            124            225 240 
 CHI  HZ EP       1217 46.78                             123   -0.17 8  228 198 
 CHI  HN ES       1218 14.61                             123   -0.77 8  228 198 
 CHI  HZ I        1218 17.05         1.7 0.28            124            228 198 
 SML  HZ EP       1217 50.17                             118   -0.30 8  266 337 
 SML  HN ES       1218 21.49                             118   -0.16 8  266 337 
 SML  HZ I        1218 25.45         9.0 0.10            119            266 337 
                                                                                
