 2014 1120 1452 23.5 L   6.750 -73.220142.0  RSN  6 0.4 1.2LRSN                1
 GAP=125        1.09       6.4     6.1  7.7  0.6490E+01  0.1170E+01  0.1501E+00E
 Epicentro: ZAPATOCA - SANTANDER                                               3
 ACTION:UPD 14-12-19 15:45 OP:nd   STATUS:               ID:20141120145223 L   I
 OLDACT:ARG 14-11-20 21:12 OP:stll STATUS:               ID:20141120144746     3
 2014-11-20-1447-46M.COL___298                                                 6
 STAT SP IPHASW D HRMM SECON CODA AMPLIT PERI AZIMU VELO AIN AR TRES W  DIS CAZ7
 BAR2 SZ EP       1452 42.37                             172   -0.2310 17.9 167 
 BAR2 SZ ES       1452 57.59                             172    0.1110 17.9 167 
 BRR  HZ EP       1452 44.56                             153    0.5210 67.2 306 
 BRR  HN ES       1453  0.47                             153    0.4310 67.2 306 
 PAM  SZ EP       1452 45.39                             147   -0.5610 86.9  41 
 RUS  HZ EP       1452 46.75                             144    0.1710 96.0 171 
 RUS  HN ES       1453  4.39                             144   -0.1610 96.0 171 
 RUS  HZ I        1453  6.23         2.2 0.42            144           96.0 171 
 PTB  HZ EP       1452 49.18                             133   -0.19 9  139 260 
 PTB  HN ES       1453  8.83                             133   -0.69 9  139 260 
 PTB  HZ I        1453 12.54         3.1 0.30            132            139 260 
 SPBC HZ EP       1452 51.44                             130    0.60 9  154 218 
                                                                                
