 2011  920 1525  0.1 L   6.781 -73.119138.6  RSN  7 0.3 2.0LRSN                1
 GAP=141        0.59       3.9     5.1  5.6  0.3946E+01 -0.4703E+01 -0.5222E+01E
 Epicentro: LOS SANTOS - SANTANDER                                             3
 ACTION:UPD 12-07-13 15:58 OP:ep   STATUS:               ID:20110920152500 L   I
 2011-09-20-1522-38S.COL___165                                                 6
 STAT SP IPHASW D HRMM SECON CODA AMPLIT PERI AZIMU VELO AIN AR TRES W  DIS CAZ7
 BAR2 SZ EP       1525 18.71                             170   -0.1010 22.0 199 
 BAR2 SZ ES   1   1525 33.06                             170   -0.37 7 22.0 199 
 BAR2 SZ I        1525 34.60        18.3 0.28                          22.0 199 
 BTL  SZ EP       1525 18.97                             170    0.1510 22.4 313 
 BRR  HZ EP       1525 20.63                             150   -0.0310 74.8 299 
 BRR  HE ES   1   1525 37.17                             150    0.44 7 74.8 299 
 BRR  HZ I        1525 42.72        20.1 0.14                          74.8 299 
 PAM  SZ EP       1525 21.62                             149    0.1010 77.2  37 
 PAM  SE ES   2   1525 38.36                             149    0.11 5 77.2  37 
 RUS  HZ EP       1525 23.22                             143    0.2710 98.3 178 
 RUS  HE ES   2   1525 40.28                             143   -0.53 5 98.3 178 
 OCA  SZ EP       1525 27.76                             127   -0.31 9  163 352 
 OCA  SZ I        1525 53.44        15.3 0.17                           163 352 
 ZAR  HN ES   2   1525 57.30                             120   -0.37 4  208 292 
 ZAR  HZ I        1525 59.91         8.1 0.28                           208 292 
                                                                                
