 2014  820 1557 32.2 L   6.881 -73.174149.8  RSN  5 0.5 1.7LRSN                1
 GAP=136        1.22       7.3     6.6  9.7 -0.9831E+01  0.1471E+02 -0.1087E+02E
 Epicentro: BETULIA - SANTANDER                                                3
 ACTION:UPD 14-09-15 21:51 OP:nd   STATUS:               ID:20140820155732 L   I
 OLDACT:UP  14-08-20 21:31 OP:cam  STATUS:               ID:20140820155000     3
 OLDACT:UP  14-08-20 21:30 OP:cam  STATUS:               ID:20140820155000     3
 OLDACT:REG 14-08-20 20:19 OP:cam  STATUS:               ID:20140820155000     3
 2014-08-20-1550-00M.COL___285                                                 6
 STAT SP IPHASW D HRMM SECON CODA AMPLIT PERI AZIMU VELO AIN AR TRES W  DIS CAZ7
 BAR2 SZ EP     C 1557 52.33                             168   -0.1810 31.9 182 
 BAR2 SZ ES       1558  7.75                             168   -0.6110 31.9 182 
 BAR2 SZ I        1558  9.24         9.1 0.40            173           31.9 182 
 BRR  HZ EP       1557 53.91                             155    0.4910 64.5 293 
 BRR  HE ES       1558 10.78                             155    0.7910 64.5 293 
 BRR  HE I        1558 14.14        17.1 0.18            151           64.5 293 
 PAM  SZ EP       1557 55.05                             153    0.4610 73.0  46 
 PAM  SN ES       1558 11.92                             153   -0.1410 73.0  46 
 PAM  SZ I        1558 13.82         5.1 0.42            152           73.0  46 
 PTB  HZ EP       1557 59.09                             133   -0.31 9  147 255 
 PTB  HN ES       1558 20.52                             133   -0.09 9  147 255 
 PTB  HZ I        1558 22.73         4.5 0.28            134            147 255 
 SML  HE ES       1558 35.30                             119   -0.70 8  234 335 
 SML  HZ I        1558 43.44         4.0 0.30            119            234 335 
                                                                                
