 2017  920 1357 54.2 L   6.826 -73.153143.3  RSN  5 0.2 1.3LRSN                1
 GAP=134        0.63       3.3     3.5  5.0  0.2494E+01  0.2104E+01  0.9345E-01E
 Epicentro: LOS SANTOS - SANTANDER                                             3
 ACTION:UPD 17-10-05 19:14 OP:rebc STATUS:               ID:20170920135754 L   I
 OLDACT:REG 17-09-21 01:27 OP:lv   STATUS:               ID:20170920135336     3
 2017-09-20-1354-00M.COL___443                                                 6
 STAT SP IPHASW D HRMM SECON CODA AMPLIT PERI AZIMU VELO AIN AR TRES W  DIS CAZ7
 BAR2 EZ EP       1358 13.60                             169    0.0410 26.1 187 
 BAR2 EZ ES       1358 28.67                             169   -0.0210 26.1 187 
 BAR2 EZ I        1358 29.27         6.0 0.05            169           26.1 187 
 BRR  HZ EP       1358 15.06                             153    0.1310 69.1 297 
 BRR  HE ES       1358 31.55                             153    0.4210 69.1 297 
 PAM  EZ EP       1358 16.11                             151    0.0910 75.7  41 
 PAM  EN ES       1358 32.83                             151   -0.2410 75.7  41 
 PAM  EZ I        1358 34.79         3.6 0.16            151           75.7  41 
 RUS  HZ EP       1358 17.99                             142    0.0910  104 176 
 RUS  HN ES       1358 36.23                             142   -0.1710  104 176 
 RUS  HZ I        1358 38.49         2.0 0.34            143            104 176 
 ZAR  HN ES       1358 50.83                             122   -0.46 9  202 291 
                                                                                
