 2012  520 1823 59.7 L   6.753 -73.142139.9  RSN  5 0.4 1.6LRSN                1
 GAP=139        1.17      10.4     9.8 11.5 -0.1519E+01  0.7158E+01  0.2737E+02E
 Epicentro: LOS SANTOS - SANTANDER                                             3
 ACTION:UP  12-07-05 12:06 OP:pat  STATUS:               ID:20120520182359 L   I
 2012-05-20-1820-00M.COL___200                                                 6
 STAT SP IPHASW D HRMM SECON CODA AMPLIT PERI AZIMU VELO SNR AR TRES W  DIS CAZ7
 BAR2 SZ EP       1824 18.39                             172    -0.110   18 194 
 BAR2 SZ I        1824 18.85         9.3 0.34                            18 194 
 BAR2 SZ ES   1   1824 32.56                             172    -0.6 7   18 194 
 BRR  HZ EP       1824 20.39                             151     0.010   74 302 
 BRR  HZ I        1824 20.79        18.3 0.32                            74 302 
 BRR  HN ES   1   1824 37.20                             151     0.7 7   74 302 
 PAM  SZ EP       1824 21.37                             149    -0.110   81  37 
 PAM  SN ES   2   1824 38.52                             149     0.0 5   81  37 
 RUS  HZ EP       1824 23.12                             144     0.610   95 176 
 PTB  HZ EP       1824 25.64                             131    -0.5 9  147 261 
 PTB  HZ I        1824 48.25         2.8 0.14                           147 261 
                                                                                
