 2013  920 1052 21.7 L   6.805 -73.159144.2  RSN 11 0.5 2.1LRSN                1
 GAP=135        1.07       3.9     5.1  7.0 -0.1289E+01  0.8247E+01  0.2168E+01E
 Epicentro: LOS SANTOS - SANTANDER                                             3
 ACTION:UPD 13-10-22 09:23 OP:ep   STATUS:               ID:20130920105221 L   I
 OLDACT:REG 13-09-20 15:45 OP:jn   STATUS:               ID:20130920104959     3
 2013-09-20-1049-59M.COL___269                                                 6
 STAT SP IPHASW D HRMM SECON CODA AMPLIT PERI AZIMU VELO AIN AR TRES W  DIS CAZ7
 BAR2 SZ EP     C 1052 41.20                             170    0.0210 23.7 186 
 BAR2 SZ ES       1052 55.61                             170   -0.7510 23.7 186 
 BAR2 SZ I        1053  3.07        16.2 0.20            167           23.7 186 
 BRR  HZ EP     C 1052 42.95                             153    0.3310 69.6 299 
 BRR  HE ES       1052 59.85                             153    0.9310 69.6 299 
 BRR  HZ I        1053  2.89        22.5 0.38            154           69.6 299 
 PAM  SZ IP     C 1052 44.06                             150    0.2410 77.9  41 
 PAM  SN ES   1   1053  0.87                             150   -0.17 7 77.9  41 
 PAM  SZ I        1053  2.94        27.4 0.50            158           77.9  41 
 RUS  HZ EP       1052 45.24                             143   -0.1410  101 175 
 RUS  HE ES   1   1053  4.21                             143    0.38 7  101 175 
 RUS  HZ I        1053  7.47         5.4 0.34            145            101 175 
 PTB  HZ EP       1052 48.06                             132   -0.39 9  146 258 
 PTB  HN ES   1   1053  8.31                             132   -0.98 7  146 258 
 PTB  HZ I        1053 12.23        23.8 0.16            133            146 258 
 OCA  HE ES   1   1053 11.48                             129   -0.30 7  160 354 
 OCA  HZ I        1053 15.34        23.3 0.24            135            160 354 
 SPBC HZ EP       1052 50.25                             129    0.19 9  163 218 
 SPBC HN ES   1   1053 12.61                             129    0.45 7  163 218 
 SPBC HZ I        1053 19.53        18.0 0.20            131            163 218 
 ZAR  HZ EP       1052 53.85                             122   -0.06 9  202 292 
 ZAR  HN ES   1   1053 19.31                             122    0.30 6  202 292 
 ZAR  HZ I        1053 25.59        23.5 0.28            125            202 292 
 NOR  HE ES   1   1053 24.65                             118   -0.35 6  234 234 
 NOR  HZ I        1053 31.68        10.4 0.16            121            234 234 
 SML  HN ES   2   1053 25.45                             117   -1.10 4  243 336 
 CHI  HN ES   1   1053 28.90                             117    0.19 6  249 195 
 CHI  HZ I        1053 37.16         4.5 0.32            119            249 195 
 URE  HZ EP   4   1053  1.24                             113   -1.30 0  282 292 
 URE  HN ES   4   1053 32.89                             113   -1.49 0  282 292 
                                                                                
