 2013  620 1355 20.0 L   6.814 -73.147153.2  RSN  6 0.5 2.5LRSN                1
 GAP=186        1.03       6.7     6.9  9.1  0.1016E+02  0.9403E+01  0.1118E+02E
 Epicentro: LOS SANTOS - SANTANDER                                             3
 ACTION:UPD 14-01-08 09:56 OP:ep   STATUS:               ID:20130620135520 L   I
 OLDACT:UP  13-06-20 16:22 OP:cam  STATUS:               ID:20130620134959     3
 OLDACT:REG 13-06-20 15:18 OP:cam  STATUS:               ID:20130620134959     3
 2013-06-20-1349-59M.COL___264                                                 6
 STAT SP IPHASW D HRMM SECON CODA AMPLIT PERI AZIMU VELO AIN AR TRES W  DIS CAZ7
 GIR2 SZ EP       1355 40.45                             168   -0.1110 29.7 350 
 GIR2 SZ ES   1   1355 56.15                             168   -0.42 7 29.7 350 
 BRR  HZ EP   1   1355 42.20                             154    0.24 7 70.4 297 
 BRR  HE ES       1355 59.81                             154    0.7610 70.4 297 
 BRR  HZ I        1356  2.79       514.8 1.22            155           70.4 297 
 RUS  HZ EP   1   1355 44.51                             145   -0.13 7  102 176 
 RUS  HN ES       1356  3.83                             145    0.0010  102 176 
 RUS  HZ I        1356  4.72        14.2 0.30            148            102 176 
 PTB  HZ EP   1   1355 47.45                             134   -0.19 7  148 258 
 PTB  HN ES       1356  8.34                             134   -0.83 9  148 258 
 PTB  HZ I        1356 10.21        13.0 0.40            135            148 258 
 ZAR  HE ES   2   1356 18.50                             124   -0.05 4  203 292 
 NOR  HZ EP   1   1355 57.01                             120    0.71 6  235 234 
 NOR  HN ES   2   1356 25.16                             120    0.58 4  235 234 
                                                                                
