 2017 1020 1156 49.2 L   6.861 -73.130148.1  RSN 25 0.7 2.6LRSN                1
 GAP= 70        1.63       4.2     4.1  6.9  0.7186E+00  0.7859E+01  0.4742E+01E
 Epicentro: LOS SANTOS - SANTANDER                                             3
 ACTION:UPD 17-11-07 19:34 OP:rebc STATUS:               ID:20171020115649 L   I
 OLDACT:UP  17-10-20 23:09 OP:edw  STATUS:               ID:20171020114745d    3
 OLDACT:UP  17-10-20 23:09 OP:edw  STATUS:               ID:20171020114745d    3
 OLDACT:DUP 17-10-20 22:54 OP:edw  STATUS:               ID:20171020114745d    3
 2017-10-20-1148-00M.COL___453                                                 6
 STAT SP IPHASW D HRMM SECON CODA AMPLIT PERI AZIMU VELO AIN AR TRES W  DIS CAZ7
 BAR2 EZ IP     D 1157  9.09                             168   -0.1410 30.3 191 
 BAR2 EZ ES       1157 24.53                             168   -0.3510 30.3 191 
 BAR2 EZ I        1157 25.62        83.5 0.12            166           30.3 191 
 BRR  HZ EP     D 1157 10.85                             153    0.3710 69.9 293 
 BRR  HN ES       1157 27.59                             153    0.4710 69.9 293 
 BRR  HZ I        1157 31.10        87.6 0.34            151           69.9 293 
 PAM  EZ EP       1157 12.10                             153    0.8310 71.1  42 
 PAM  EN ES       1157 29.16                             153    0.6510 71.1  42 
 PAM  EZ I        1157 31.84        40.3 0.62            157           71.1  42 
 RUS  HZ EP     D 1157 13.03                             143   -0.5910  107 177 
 RUS  HN ES       1157 31.94                             143   -0.7610  107 177 
 RUS  HZ I        1157 33.83        22.3 0.32            144            107 177 
 PTB  HZ EP       1157 15.58                             132   -1.02 9  151 256 
 PTB  HE ES       1157 37.44                             132   -0.57 9  151 256 
 PTB  HZ I        1157 42.54        27.7 0.18            131            151 256 
 TAM  HZ EP     C 1157 17.58                             131    0.54 9  155 108 
 TAM  HN ES       1157 38.04                             131   -0.75 9  155 108 
 TAM  HZ I        1157 40.01        36.6 0.62            135            155 108 
 SPBC HZ EP       1157 18.08                             128   -0.36 9  170 218 
 SPBC HN ES       1157 40.35                             128   -0.93 9  170 218 
 SPBC HZ I        1157 47.07        62.8 0.24            129            170 218 
 YPLC HZ IP     D 1157 19.63                             126    0.01 9  182 153 
 YPLC HE ES       1157 43.94                             126    0.55 9  182 153 
 YPLC HZ I        1157 44.56        52.3 0.28            129            182 153 
 ZAR  HZ EP       1157 21.56                             123   -0.11 9  203 290 
 ZAR  HN ES       1157 48.16                             123    1.12 9  203 290 
 ZAR  HZ I        1157 54.86        33.2 0.24            123            203 290 
 TABC EZ EP       1157 26.82                             119    1.06 8  237 210 
 TABC EZ ES       1157 54.28                             119   -0.02 8  237 210 
 TABC EZ I        1158  0.68        34.6 0.54            120            237 210 
 NOR  HZ EP       1157 25.58                             118   -0.02 8  240 233 
 NOR  HN ES       1157 53.24                             118   -0.78 8  240 233 
 NOR  HZ I        1157 57.88        31.6 0.32            119            240 233 
 CHI  HZ EP       1157 27.49                             117   -0.25 8  256 195 
 CHI  HE ES       1157 57.97                             117    0.14 8  256 195 
 CHI  HZ I        1158  2.75        12.8 0.64            118            256 195 
 ROSC BZ EP   4   1157 29.41                             116    1.28 0  259 211 
 ROSC BN ES       1157 59.86                             116    1.33 8  259 211 
 ROSC BZ I        1158  4.29        26.7 0.40            117            259 211 
 URE  HZ EP       1157 29.13                             114   -1.12 7  283 291 
 URE  HN ES       1158  1.81                             114   -0.49 7  283 291 
 URE  HZ I        1158 12.10        31.7 0.18            115            283 291 
 GUY2CHZ EP       1157 34.23                             112    0.75 7  307 234 
 GUY2CHN ES       1158 10.09                             112    2.05 7  307 234 
 GUY2CHZ I        1158 17.23        25.1 0.40                           307 234 
 VIL  EZ EP       1157 33.01                             112   -0.46 7  310 192 
 VIL  EN ES       1158  8.35                             112    0.32 7  310 192 
 VIL  EZ I        1158 10.71        16.5 0.38            113            310 192 
 ELA  HZ EP   4   1157 38.99                             110    2.23 0  335 229 
 ELA  HN ES   4   1158 15.54                             110    1.65 0  335 229 
 ELA  HZ I        1158 26.47        11.9 0.38            111            335 229 
 DBB  EZ EP       1157 37.19                             110    0.31 7  341 273 
 DBB  HN ES   4   1158 10.74                             110   -3.36 0  341 273 
 DBB  EZ I        1158 17.21         9.6 0.18            110            341 273 
 ANIL HZ EP       1157 40.93                             108    1.18 6  363 224 
 ANIL HN ES       1158 17.73                             108   -1.48 6  363 224 
 ANIL HZ I        1158 24.03        28.0 0.26            109            363 224 
 APAC HZ EP       1157 43.06                             106   -0.32 6  398 287 
 APAC HN ES   4   1158 28.36                             106    2.68 0  398 287 
 APAC HZ I        1158 34.22         7.8 0.36            107            398 287 
 PRA  HZ EP       1157 42.87                             106   -0.67 6  399 209 
 PRA  HN ES   4   1158 24.63                             106   -1.33 0  399 209 
 PRA  HZ I        1158 31.66        13.7 0.30            107            399 209 
 ORTC HZ EP       1157 44.37                             106    0.46 6  402 216 
 ORTC HN ES   4   1158 25.24                             106   -1.38 0  402 216 
 ORTC HZ I        1158 30.65         8.4 0.42            107            402 216 
 SJC  HZ EP   4   1157 42.52                             106   -1.73 0  405 326 
 SJC  HN ES   4   1158 24.19                             106   -3.03 0  405 326 
 SJC  HZ I        1158 31.85         5.8 0.28            107            405 326 
 PAL  HZ EP       1157 44.94                             106   -0.04 6  411 238 
 PAL  HN ES       1158 28.67                             106    0.15 6  411 238 
 PAL  HZ I        1158 33.28         6.4 0.48            107            411 238 
 CRJC HZ EP       1157 49.57                             104   -1.34 5  461   3 
 CRJC HN ES   4   1158 36.70                             104   -2.38 0  461   3 
                                                                                
