 2017  120 1015 54.2 L   6.756 -73.112151.1  RSN  6 0.4 1.2LRSN                1
 GAP=143        1.01       4.4     5.9  7.0 -0.2287E+01  0.3584E+01  0.5114E+01E
 Epicentro: LOS SANTOS - SANTANDER                                             3
 ACTION:UPD 17-05-22 16:01 OP:jn   STATUS:               ID:20170120101554 L   I
 OLDACT:UP  17-01-20 21:41 OP:cog  STATUS:               ID:20170120100742     3
 OLDACT:REG 17-01-20 20:04 OP:y    STATUS:               ID:20170120100742     3
 2017-01-20-1008-00M.COL___304                                                 6
 STAT SP IPHASW D HRMM SECON CODA AMPLIT PERI AZIMU VELO AIN AR TRES W  DIS CAZ7
 BAR2 EZ EP       1016 14.15                             172   -0.2210 19.7 203 
 BAR2 EZ ES       1016 29.65                             172   -0.4810 19.7 203 
 BAR2 EZ I        1016 30.37         3.9 0.42            172           19.7 203 
 PAM  EZ EP       1016 17.23                             151    0.1810 79.0  35 
 PAM  EE ES       1016 34.74                             151   -0.1510 79.0  35 
 PAM  EZ I        1016 36.31         4.2 0.52            152           79.0  35 
 RUS  HZ EP       1016 18.38                             146    0.2810 95.6 178 
 RUS  HN ES       1016 37.52                             146    0.7610 95.6 178 
 RUS  HZ I        1016 38.40         1.6 0.38            147           95.6 178 
 PTB  HZ EP   9   1016 19.68                             133   -2.14 0  151 261 
 PTB  HN ES       1016 41.60                             134    0.35 9  151 261 
 PTB  HZ I        1016 44.83         2.1 0.40            133            151 261 
 ZAR  HE ES       1016 53.72                             123    0.22 8  209 293 
 CHI  HZ EP       1016 31.62                             119   -0.15 8  245 196 
 CHI  HN ES       1017  0.44                             119   -0.67 8  245 196 
                                                                                
