 2017  120 1930  9.7 L   7.372 -73.374114.8  RSN  6 0.4 1.5LRSN                1
 GAP=178        1.03       7.1     3.8  7.8 -0.5959E+00  0.5252E+01  0.1604E+01E
 Epicentro: SABANA DE TORRES - SANTANDER                                       3
 ACTION:UPD 17-05-22 16:01 OP:jn   STATUS:               ID:20170120193009 L   I
 OLDACT:REG 17-01-20 21:32 OP:cog  STATUS:               ID:20170120192748     3
 2017-01-20-1928-00M.COL___331                                                 6
 STAT SP IPHASW D HRMM SECON CODA AMPLIT PERI AZIMU VELO AIN AR TRES W  DIS CAZ7
 BRR  HZ EP       1930 25.66                             156   -0.4910 47.5 232 
 BRR  HN ES       1930 38.79                             156   -0.2210 47.5 232 
 BRR  HZ I        1930 41.86        15.8 0.30            156           47.5 232 
 PAM  EZ EP       1930 28.55                             145    0.0610 74.5  93 
 PAM  EE ES       1930 43.30                             145    0.1310 74.5  93 
 PAM  EZ I        1930 45.15         6.6 0.05            149           74.5  93 
 BAR2 EZ EP       1930 29.20                             140   -0.0010 88.8 166 
 BAR2 EZ ES       1930 44.49                             140    0.0510 88.8 166 
 BAR2 EZ I        1930 45.38        10.0 0.17            142           88.8 166 
 PTB  HZ EP       1930 33.83                             123   -0.80 9  151 232 
 PTB  HE ES       1930 54.34                             123    0.23 9  151 232 
 PTB  HZ I        1930 58.11         3.1 0.38            125            151 232 
 ZAR  HE ES       1930 57.16                             121    0.60 9  164 275 
 RUS  HZ EP       1930 37.46                             121    0.57 9  167 169 
                                                                                
