 2015 1020 1054  3.0 L   6.887 -73.100142.8  RSN  4 0.3 1.6LRSN                1
 GAP=222        0.85       7.2     7.9  7.5  0.2960E+02 -0.6158E+01 -0.2745E+02E
 Epicentro: PIEDECUESTA - SANTANDER                                            3
 ACTION:UPD 15-12-22 20:41 OP:cam  STATUS:               ID:20151020105403 L   I
 OLDACT:UP  15-10-20 22:34 OP:drio STATUS:               ID:20151020104747     3
 OLDACT:REG 15-10-20 21:01 OP:cara STATUS:               ID:20151020104747     3
 2015-10-20-1047-47M.COL___337                                                 6
 STAT SP IPHASW D HRMM SECON CODA AMPLIT PERI AZIMU VELO AIN AR TRES W  DIS CAZ7
 BAR2 EZ EP       1054 22.58                             166    0.0910 33.8 196 
 BAR2 EZ ES       1054 37.21                             166   -0.5110 33.8 196 
 BAR2 EZ I        1054 38.74         4.1 0.20            169           33.8 196 
 BRR  HZ EP       1054 24.25                             152    0.4310 71.9 290 
 BRR  HE ES       1054 40.57                             152    0.4810 71.9 290 
 ZAR  HZ EP       1054 35.15                             121   -0.19 8  205 289 
 ZAR  HN ES       1055  0.34                             121   -0.27 8  205 289 
 ZAR  HZ I        1055  6.14         4.2 0.42            121            205 289 
 SML  HZ EP       1054 38.70                             117   -0.01 8  237 333 
 SML  HN ES       1055  6.36                             117   -0.24 8  237 333 
 SML  HZ I        1055 12.55         4.7 0.10            117            237 333 
                                                                                
