 2017  820 1711 13.8 L   6.796 -73.167144.4  RSN  5 0.1 1.3LRSN                1
 GAP=134        0.42       2.2     2.3  3.3  0.1129E+01  0.9003E+00 -0.2975E-01E
 Epicentro: LOS SANTOS - SANTANDER                                             3
 ACTION:UPD 17-09-04 20:22 OP:rebc STATUS:               ID:20170820171113 L   I
 OLDACT:REG 17-08-20 20:25 OP:lv   STATUS:               ID:20170820170738     3
 2017-08-20-1708-00M.COL___408                                                 6
 STAT SP IPHASW D HRMM SECON CODA AMPLIT PERI AZIMU VELO AIN AR TRES W  DIS CAZ7
 BAR2 EZ EP       1711 33.11                             171   -0.1710 22.5 184 
 BAR2 EZ ES       1711 48.35                             171   -0.0910 22.5 184 
 BAR2 EZ I        1711 49.17         7.3 0.26            171           22.5 184 
 BRR  HZ IP     C 1711 34.87                             153    0.1510 69.4 300 
 BRR  HN ES       1711 51.23                             153    0.2110 69.4 300 
 PAM  EZ EP       1711 36.11                             150    0.1010 79.3  41 
 PAM  EN ES       1711 53.22                             150   -0.0910 79.3  41 
 PAM  EZ I        1711 54.88         3.1 0.22            150           79.3  41 
 RUS  HZ EP       1711 37.43                             144    0.0110  100 175 
 RUS  HN ES       1711 55.87                             144    0.0510  100 175 
 RUS  HZ I        1711 56.75         2.1 0.32            144            100 175 
 ZAR  HE ES       1712 10.84                             122   -0.21 9  202 293 
                                                                                
