 2016  720 1619 12.5 L   6.824 -73.317120.0  RSN  7 0.3 1.7LRSN                1
 GAP=104        0.79       2.9     3.3  5.1  0.2192E+00  0.6192E+01  0.1679E+01E
 Epicentro: ZAPATOCA - SANTANDER                                               3
 ACTION:UPD 17-03-29 16:53 OP:lp   STATUS:               ID:20160720161912 L   I
 OLDACT:REG 16-07-20 20:22 OP:lv   STATUS:               ID:20160720161759     3
 2016-07-20-1617-59S.COL___301                                                 6
 STAT SP IPHASW D HRMM SECON CODA AMPLIT PERI AZIMU VELO AIN AR TRES W  DIS CAZ7
 BAR2 EZ EP       1619 28.91                             165   -0.3310 29.7 150 
 BAR2 EZ ES       1619 42.11                             165   -0.1710 29.7 150 
 BRR  HZ IP     C 1619 29.29                             154   -0.6110 53.7 306 
 BRR  HE ES       1619 43.81                             154    0.3510 53.7 306 
 BRR  HZ I        1619 49.96        14.5 0.20            155           53.7 306 
 PAM  EZ EP       1619 33.03                             142    0.1210 88.9  50 
 PAM  EE ES       1619 49.10                             142    0.2910 88.9  50 
 PAM  EZ I        1619 50.80        15.7 0.21            147           88.9  50 
 RUS  HZ EP       1619 34.48                             136    0.1710  106 166 
 RUS  HE ES       1619 51.32                             136    0.0210  106 166 
 RUS  HZ I        1619 52.69         4.8 0.24            141            106 166 
 SPBC HZ EP       1619 38.22                             124   -0.05 9  154 213 
 SPBC HN ES       1619 58.35                             124    0.00 9  154 213 
 SPBC HZ I        1620  0.29         7.2 0.08            128            154 213 
 ZAR  HZ EP       1619 41.01                             119   -0.41 9  186 294 
 ZAR  HN ES       1620  4.14                             119    0.17 9  186 294 
 ZAR  HZ I        1620  6.34         9.1 0.09            122            186 294 
 GUY2CHZ EP       1619 54.09                             108    0.61 7  288 232 
 GUY2CHN ES   2   1620 25.97                             108    0.54 4  288 232 
 GUY2CHZ I        1620 32.92         2.5 0.36                           288 232 
                                                                                
