 2015  720 1320 48.9 L   6.177 -73.903 93.0  RSN  4 0.2 1.2LRSN                1
 GAP=177        0.49       2.4     2.2  6.7 -0.2710E+01  0.6753E+01 -0.1318E+01E
 Epicentro: LANDAZURI - SANTANDER                                              3
 ACTION:UPD 15-09-08 21:49 OP:cam  STATUS:               ID:20150720132048 L   I
 OLDACT:UP  15-07-20 23:35 OP:ak   STATUS:               ID:20150720131751d    3
 OLDACT:UP  15-07-20 23:34 OP:ak   STATUS:               ID:20150720131751d    3
 OLDACT:DUP 15-07-20 23:29 OP:ak   STATUS:               ID:20150720131751d    3
 OLDACT:UP  15-07-20 23:28 OP:ak   STATUS:               ID:20150720131750     3
 OLDACT:UP  15-07-20 23:26 OP:ak   STATUS:               ID:20150720131750     3
 OLDACT:UP  15-07-20 23:22 OP:ak   STATUS:               ID:20150720131750     3
 OLDACT:REG 15-07-20 22:25 OP:ak   STATUS:               ID:20150720131750     3
 2015-07-20-1317-50M.COL___334                                                 6
 STAT SP IPHASW D HRMM SECON CODA AMPLIT PERI AZIMU VELO AIN AR TRES W  DIS CAZ7
 BAR2 EZ EP       1321  6.93                             132    0.1810 92.0  60 
 BAR2 EZ ES       1321 20.53                             132   -0.1710 92.0  60 
 BAR2 EZ I        1321 24.50         4.4 0.34            140           92.0  60 
 NOR  HZ EP       1321 10.10                             122    0.1810  127 238 
 NOR  HE ES       1321 26.53                             122    0.1710  127 238 
 NOR  HZ I        1321 29.38         4.7 0.11            129            127 238 
 ZAR  HZ EP   1   1321 15.54                             113   -0.15 7  180 324 
 ZAR  HN ES       1321 36.66                             113    0.04 9  180 324 
 ZAR  HZ I        1321 42.29         1.9 0.31            117            180 324 
 GUY2CHZ EP       1321 17.71                             111   -0.11 9  193 237 
 GUY2CHN ES       1321 40.12                             111   -0.30 9  193 237 
 GUY2CHZ I        1321 50.04         1.1 0.46                           193 237 
                                                                                
