 2012  520 1825 57.0 L   6.573 -73.043126.0  RSN  4 0.5 1.6LRSN                1
 GAP=254        1.31      16.4    13.7 18.9 -0.1572E+02 -0.6766E+02 -0.1701E+02E
 Epicentro: CURITI - SANTANDER                                                 3
 ACTION:UP  12-07-05 12:06 OP:pat  STATUS:               ID:20120520182557 L   I
 2012-05-20-1820-00M.COL___200                                                 6
 STAT SP IPHASW D HRMM SECON CODA AMPLIT PERI AZIMU VELO SNR AR TRES W  DIS CAZ7
 BAR2 SZ EP       1826 14.60                             173     0.510   16 278 
 PAM  SZ EP       1826 17.74                             142    -0.510   93  24 
 PAM  SN ES   2   1826 34.77                             142     0.0 5   93  24 
 BRR  HZ EP       1826 17.00                             141    -0.710   95 309 
 BRR  HZ I        1826 24.00         8.3 0.50                            95 309 
 BRR  HN ES   1   1826 33.92                             141     0.1 7   95 309 
 OCA  HZ EP       1826 27.24                             120     0.7 9  187 351 
                                                                                
