 2017  120 1824 45.6 L   6.784 -73.317  4.1  RSN  4 0.2 1.0LRSN                1
 GAP=247        0.56       8.6     4.2  7.5  0.3343E+02  0.2445E+02  0.5343E+02E
 Epicentro: ZAPATOCA - SANTANDER                                               3
 ACTION:UPD 17-05-22 16:01 OP:jn   STATUS:               ID:20170120182445 L   I
 OLDACT:DUP 17-01-20 23:47 OP:cog  STATUS:               ID:20170120181746d    3
 2017-01-20-1818-00M.COL___346                                                 6
 STAT SP IPHASW D HRMM SECON CODA AMPLIT PERI AZIMU VELO AIN AR TRES W  DIS CAZ7
 BAR2 EZ EP       1824 49.99                              47   -0.3210 25.9 145 
 BAR2 EZ ES       1824 54.12                              47    0.0910 25.9 145 
 BAR2 EZ I        1824 54.99        26.0 0.14            113           25.9 145 
 BRR  HZ EP   4   1824 53.86                              47   -0.85 0 56.5 309 
 BRR  HN ES   4   1825  1.04                              47   -0.80 0 56.5 309 
 BRR  HZ I        1825  1.55        10.4 0.38            101           56.5 309 
 RUS  HZ EP       1825  2.34                              47    0.2510  102 165 
 RUS  HN ES       1825 14.94                              47   -0.0510  102 165 
 RUS  HZ I        1825 15.99         2.4 0.24             96            102 165 
 PTB  HZ EP       1825  5.87                              47    0.1710  129 258 
 PTB  HN ES       1825 21.27                              47   -0.1310  129 258 
 PTB  HZ I        1825 24.47         1.9 0.36             94            129 258 
                                                                                
