 2016  920 1527  4.2 L   6.845 -73.160157.2  RSN  4 0.3 1.2LRSN                1
 GAP=244        0.63       7.4     5.0  6.1  0.2004E+02  0.1097E+01 -0.1295E+02E
 Epicentro: LOS SANTOS - SANTANDER                                             3
 ACTION:UPD 17-08-17 21:14 OP:lp   STATUS:               ID:20160920152704 L   I
 OLDACT:UP  16-09-21 00:28 OP:edw  STATUS:               ID:20160920151735     3
 OLDACT:REG 16-09-20 20:58 OP:edw  STATUS:               ID:20160920151735     3
 2016-09-20-1518-00M.COL___363                                                 6
 STAT SP IPHASW D HRMM SECON CODA AMPLIT PERI AZIMU VELO AIN AR TRES W  DIS CAZ7
 BAR2 EZ EP       1527 25.62                             170    0.3110 28.1 185 
 BAR2 EZ ES       1527 41.78                             170    0.0110 28.1 185 
 BAR2 EZ I        1527 44.21         3.9 0.21            168           28.1 185 
 RUS  HZ EP       1527 29.29                             145   -0.1610  106 175 
 RUS  HE ES       1527 48.96                             145   -0.1910  106 175 
 RUS  HZ I        1527 49.51         2.4 0.30            147            106 175 
 PTB  HZ EP       1527 32.41                             135    0.33 9  147 257 
 PTB  HN ES       1527 53.79                             135   -0.04 9  147 257 
 PTB  HZ I        1528  0.22         1.9 0.18            134            147 257 
 ZAR  HZ EP   2   1527 36.24                             125   -0.85 4  201 291 
 ZAR  HN ES   2   1528  2.41                             125   -0.33 4  201 291 
                                                                                
