 2014  920 1227  6.9 L   6.813 -73.163146.6  RSN 13 0.5 2.6LRSN                1
 GAP=134        1.15       2.8     4.6  5.7 -0.1396E+01  0.6505E+01  0.1420E+01E
 Epicentro: LOS SANTOS - SANTANDER                                             3
 ACTION:UPD 14-10-03 23:06 OP:nd   STATUS:               ID:20140920122706 L   I
 OLDACT:REG 14-09-20 22:25 OP:carl STATUS:               ID:20140920121819     3
 2014-09-20-1218-19M.COL___293                                                 6
 STAT SP IPHASW D HRMM SECON CODA AMPLIT PERI AZIMU VELO AIN AR TRES W  DIS CAZ7
 BAR2 SZ EP       1227 26.65                             170    0.0510 24.5 185 
 BAR2 SZ ES       1227 41.62                             170   -0.3910 24.5 185 
 BAR2 SZ I        1227 43.68        46.5 0.28            169           24.5 185 
 BRR  HZ IP     C 1227 28.45                             153    0.5010 68.8 298 
 BRR  HN ES       1227 45.63                             153    1.2210 68.8 298 
 BRR  HZ I        1227 49.54        39.9 0.14            152           68.8 298 
 PAM  SZ IP     C 1227 29.53                             151    0.3710 77.5  41 
 PAM  SN ES       1227 46.28                             151   -0.2910 77.5  41 
 PAM  SZ I        1227 48.78        79.0 0.46            155           77.5  41 
 RUS  HZ EP       1227 30.65                             144   -0.1510  102 175 
 RUS  HN ES       1227 49.70                             144    0.2210  102 175 
 RUS  HZ I        1227 51.35        36.6 0.24            145            102 175 
 PTB  HZ EP       1227 33.27                             133   -0.47 9  146 258 
 PTB  HN ES       1227 54.10                             133   -0.61 9  146 258 
 PTB  HZ I        1227 56.43        40.3 0.14            132            146 258 
 OCA  HZ EP       1227 34.66                             130   -0.41 9  159 354 
 OCA  HE ES       1227 57.05                             130   -0.03 9  159 354 
 OCA  HZ I        1228  2.14        35.8 0.22            132            159 354 
 SPBC HZ EP       1227 35.69                             129    0.28 9  163 218 
 SPBC HN ES       1227 56.74                             129   -0.94 9  163 218 
 SPBC HZ I        1228  4.71        50.0 0.22            130            163 218 
 ZAR  HZ EP       1227 39.49                             123    0.38 9  202 292 
 ZAR  HN ES       1228  4.32                             123    0.06 9  202 292 
 ZAR  HZ I        1228  9.49        22.4 0.28            123            202 292 
 SML  HZ EP       1227 42.87                             118   -0.42 8  242 336 
 SML  HN ES       1228 11.36                             118   -0.35 8  242 336 
 SML  HZ I        1228 14.92        61.3 0.28            119            242 336 
 CHI  HZ EP       1227 44.76                             117    0.07 8  250 195 
 CHI  HN ES       1228 14.17                             117   -0.04 8  250 195 
 CHI  HZ I        1228 20.01        18.7 0.22            118            250 195 
 URE  HZ EP   4   1227 45.74                             114   -1.96 0  281 292 
 URE  HN ES   4   1228 17.53                             114   -2.02 0  281 292 
 GUY2CHZ EP   4   1227 51.67                             113    1.26 0  300 234 
 GUY2CHN ES   4   1228 26.58                             113    2.19 0  300 234 
 GUY2CHZ I        1228 36.90        17.3 0.46                           300 234 
 TOL  SZ EP       1227 55.20                             109    0.10 7  343 224 
 TOL  SN ES       1228 33.00                             109    0.26 7  343 224 
 TOL  SZ I        1228 40.25        37.2 0.34            110            343 224 
 PRA  HZ EP       1228  0.56                             107    0.12 6  392 209 
 PRA  HN ES       1228 43.08                             107    0.85 6  392 209 
 PRA  HZ I        1228 51.11        11.8 0.56            108            392 209 
                                                                                
