 2010  920 1541  6.3 L   6.765 -73.137147.2  RSN  5 0.2 1.7LRSN                1
 GAP=160        0.57       3.6     7.3  6.4 -0.6441E+00 -0.1267E+02 -0.7151E+01E
 Epicentro: LOS SANTOS - SANTANDER                                             3
 ACTION:UP  11-02-18 11:04 OP:tino STATUS:               ID:20100920154106 L   I
 2010-09-20-1538-28S.COL___121                                                 6
 STAT SP IPHASW D HRMM SECON CODA AMPLIT PERI AZIMU VELO SNR AR TRES W  DIS CAZ7
 BAR2 SZ EP   1   1541 25.71                             172    -0.3 8   20 195 
 BAR2 SZ ES   1   1541 41.23                             172    -0.2 8   20 195 
 BAR2 SZ I        1541 42.42        13.2 0.39                            20 195 
 BRR  HZ EP   1   1541 27.61                             152    -0.1 8   74 301 
 BRR  HZ I        1541 27.88        15.1 0.16                            74 301 
 BRR  HE ES   1   1541 44.53                             152     0.1 8   74 301 
 RUS  HZ EP   2   1541 30.03                             145     0.2 5   97 176 
 RUS  HN ES   1   1541 48.40                             145     0.1 8   97 176 
 RUS  HZ I        1541 49.60         3.5 0.31                            97 176 
 GUE  SZ EP       1541 31.71                             139     0.310  120  11 
 GRA  SZ EP   2   1541 31.37                             136    -0.5 5  129  17 
 GRA  SZ I        1541 32.58         8.8 0.30                           129  17 
 GRA  SZ ES   1   1541 51.90                             136     0.0 7  129  17 
                                                                                
