 2016  720 1013 18.1 L   6.635 -74.111 50.1  RSN  4 0.1 1.0LRSN                1
 GAP=147        0.36       3.0     1.2 10.7  0.1494E+01  0.7454E+01  0.2713E+02E
 Epicentro: PUERTO PARRA - SANTANDER                                           3
 ACTION:UPD 17-03-29 16:53 OP:lp   STATUS:               ID:20160720101318 L   I
 OLDACT:REG 16-07-20 19:39 OP:lv   STATUS:               ID:20160720100759     3
 2016-07-20-1007-59S.COL___331                                                 6
 STAT SP IPHASW D HRMM SECON CODA AMPLIT PERI AZIMU VELO AIN AR TRES W  DIS CAZ7
 BRR  HZ EP       1013 30.11                             117   -0.1110 68.3  40 
 BRR  HE ES       1013 39.80                             117    0.1210 68.3  40 
 BRR  HZ I        1013 40.48         6.6 0.16            133           68.3  40 
 BAR2 EZ EP       1013 34.54                             106    0.0310  103  93 
 BAR2 EZ ES       1013 47.13                             106   -0.1710  103  93 
 RUS  HZ EP       1013 39.43                             100    0.09 9  140 126 
 RUS  HE ES       1013 55.96                             100    0.06 9  140 126 
 RUS  HZ I        1013 57.18         1.9 0.15            109            140 126 
 HEL  HZ EP       1013 42.18                              97    0.05 9  164 253 
 HEL  HE ES       1014  0.81                              97   -0.06 9  164 253 
 HEL  HZ I        1014  3.16         1.5 0.29            105            164 253 
                                                                                
