 2016  420 1108 32.6 L   6.609 -73.735100.6  RSN  5 0.3 1.4LRSN                1
 GAP=150        0.57       5.2     3.4 11.3 -0.7557E+01  0.8906E+01 -0.8078E+01E
 Epicentro: EL CARMEN - SANTANDER                                              3
 ACTION:UPD 16-05-05 14:22 OP:rebc STATUS:               ID:20160420110832 L   I
 OLDACT:ARG 16-04-20 21:02 OP:ar   STATUS:               ID:20160420110746     3
 2016-04-20-1107-46M.COL___302                                                 6
 STAT SP IPHASW D HRMM SECON CODA AMPLIT PERI AZIMU VELO AIN AR TRES W  DIS CAZ7
 BAR2 EZ EP   2   11 8 48.72                             146    0.04 5 61.1  92 
 BAR2 EZ ES   2   11 9  1.87                             146    0.62 5 61.1  92 
 BAR2 EZ I        11 9  2.81         9.3 0.09            146           61.1  92 
 PTB  HZ EP       11 8 49.83                             138    0.0410 80.2 265 
 PTB  HE ES   2   11 9  3.12                             138   -0.12 5 80.2 265 
 PTB  HZ I        11 9  4.34         5.2 0.44            137           80.2 265 
 RUS  HZ EP   2   11 8 53.30                             130    0.48 5  107 138 
 RUS  HE ES   2   11 9  7.99                             130   -0.63 5  107 138 
 PAM  EN ES       11 9 14.30                             121   -0.15 9  140  55 
 PAM  EZ I        11 9 15.22         4.7 0.26            122            140  55 
 NOR  HN ES   4   11 9 20.94                             115    1.60 0  171 227 
 NOR  HZ I        11 9 23.55         2.9 0.16            114            171 227 
                                                                                
