 2016 1020 1520 21.2 L   6.755 -73.171138.6  RSN  7 0.4 1.6LRSN                1
 GAP=231        0.93       4.6     5.4  7.2  0.3640E+01  0.1516E+02  0.1000E+02E
 Epicentro: LOS SANTOS - SANTANDER                                             3
 ACTION:UPD 16-11-09 19:21 OP:rebc STATUS:               ID:20161020152021 L   I
 OLDACT:REG 16-10-21 02:19 OP:ar   STATUS:               ID:20161020151745     3
 2016-10-20-1518-00M.COL___343                                                 6
 STAT SP IPHASW D HRMM SECON CODA AMPLIT PERI AZIMU VELO AIN AR TRES W  DIS CAZ7
 BAR2 EZ EP       1520 39.85                             172   -0.0610 18.0 184 
 BAR2 EZ ES       1520 54.16                             172   -0.3110 18.0 184 
 BAR2 EZ I        1520 55.83        10.6 0.70            170           18.0 184 
 BRR  HZ EP       1520 41.79                             151    0.1610 71.4 303 
 BRR  HN ES       1520 58.20                             151    0.6710 71.4 303 
 BRR  HZ I        1521  2.87        13.1 0.14            151           71.4 303 
 RUS  HZ EP   2   1520 44.20                             144    0.26 5 95.9 174 
 RUS  HE ES       1521  1.74                             144    0.0910 95.9 174 
 RUS  HZ I        1521  3.60         5.5 0.26            145           95.9 174 
 PTB  HZ EP       1520 46.75                             131   -0.55 9  144 261 
 PTB  HN ES       1521  6.87                             131   -0.75 9  144 261 
 PTB  HZ I        1521 10.25         7.5 0.12            131            144 261 
 NOR  HZ EP   2   1520 56.57                             118    0.56 4  230 235 
 NOR  HE ES       1521 23.65                             118    0.52 8  230 235 
 NOR  HZ I        1521 28.92         3.8 0.34            119            230 235 
 CHI  HZ EP   2   1520 57.63                             116   -0.32 4  243 195 
 CHI  HE ES       1521 26.58                             116    0.01 8  243 195 
 CHI  HZ I        1521 31.14         1.9 0.36            118            243 195 
 GUY2CHZ EP   2   1521  4.23                             111    0.28 4  296 235 
 GUY2CHN ES       1521 37.44                             111    0.19 7  296 235 
 GUY2CHZ I        1521 47.47         2.1 0.56                           296 235 
                                                                                
