 2016 1120 1325  7.2 L   6.804 -73.146150.3  RSN  5 0.3 1.8LRSN                1
 GAP=150        0.69       3.4     3.8  5.0  0.1085E+01  0.5124E+01  0.4957E+01E
 Epicentro: LOS SANTOS - SANTANDER                                             3
 ACTION:UPD 17-10-26 21:10 OP:lp   STATUS:               ID:20161120132507 L   I
 OLDACT:REG 16-11-20 21:16 OP:ar   STATUS:               ID:20161120131646     3
 2016-11-20-1317-00M.COL___334                                                 6
 STAT SP IPHASW D HRMM SECON CODA AMPLIT PERI AZIMU VELO AIN AR TRES W  DIS CAZ7
 BAR2 EZ EP       1325 27.13                             171   -0.3010 23.8 190 
 BAR2 EZ ES       1325 42.94                             171   -0.2410 23.8 190 
 BAR2 EZ I        1325 43.88        23.5 0.32            168           23.8 190 
 BRR  HZ EP       1325 28.99                             153    0.1210 70.9 298 
 BRR  HN ES       1325 46.22                             153    0.4810 70.9 298 
 BRR  HZ I        1325 59.01        20.3 0.44            150           70.9 298 
 PAM  EZ EP       1325 30.21                             152    0.2910 77.0  40 
 PAM  EN ES       1325 47.47                             152   -0.1510 77.0  40 
 PAM  EZ I        1325 49.35        11.5 0.56            158           77.0  40 
 ZAR  HZ EP       1325 39.72                             123   -0.24 9  204 292 
 ZAR  HN ES       1326  5.22                             123   -0.26 9  204 292 
 ZAR  HZ I        1326 11.19         5.7 0.34            125            204 292 
 CHI  HZ EP       1325 45.43                             118    0.19 8  249 195 
 CHI  HN ES       1326 14.96                             118    0.07 8  249 195 
 CHI  HZ I        1326 18.23         2.1 0.42            122            249 195 
                                                                                
