 2014 1120 1229 56.0 L   6.800 -73.161148.0  RSN  5 0.2 1.2LRSN                1
 GAP=135        0.65       3.6     3.4  5.7 -0.1329E+01  0.1161E+01  0.3125E+01E
 Epicentro: LOS SANTOS - SANTANDER                                             3
 ACTION:UPD 14-12-19 15:45 OP:nd   STATUS:               ID:20141120122956 L   I
 OLDACT:DUP 14-11-21 00:47 OP:stll STATUS:               ID:20141120122751d    3
 OLDACT:ARG 14-11-20 21:12 OP:stll STATUS:               ID:20141120122750     3
 2014-11-20-1227-50M.COL___301                                                 6
 STAT SP IPHASW D HRMM SECON CODA AMPLIT PERI AZIMU VELO AIN AR TRES W  DIS CAZ7
 BAR2 SZ EP       1230 15.55                             171   -0.3810 23.1 186 
 BAR2 SZ I        1230 31.59         6.1 0.68            168           23.1 186 
 BRR  HZ EP       1230 17.46                             153    0.1210 69.7 299 
 BRR  HN ES       1230 33.89                             153   -0.0710 69.7 299 
 PAM  SZ I        1230 18.58         7.3 0.18            150           78.5  40 
 PAM  SZ EP       1230 18.58                             151    0.0310 78.5  40 
 PAM  SN ES       1230 36.19                             151    0.0810 78.5  40 
 RUS  HZ EP       1230 19.75                             144   -0.2610  101 175 
 RUS  HN ES       1230 38.97                             144    0.2610  101 175 
 RUS  HZ I        1230 39.09         1.0 0.28            141            101 175 
 PTB  HZ EP       1230 23.46                             133    0.42 9  146 259 
 PTB  HN ES       1230 43.92                             133   -0.17 9  146 259 
 PTB  HZ I        1230 48.82         1.7 0.44            129            146 259 
                                                                                
