 2017 1120 1525 56.3 L   6.815 -73.183148.0  RSN 11 0.7 2.2LRSN                1
 GAP= 75        1.35       4.9     5.1  8.6  0.2693E+01  0.4186E+01 -0.1756E+01E
 Epicentro: ZAPATOCA - SANTANDER                                               3
 ACTION:UPD 17-12-12 19:57 OP:rebc STATUS:               ID:20171120152556 L   I
 OLDACT:UP  17-11-20 23:12 OP:dani STATUS:               ID:20171120151709     3
 OLDACT:UP  17-11-20 23:12 OP:dani STATUS:               ID:20171120151709     3
 OLDACT:UP  17-11-20 23:11 OP:dani STATUS:               ID:20171120151709     3
 OLDACT:REG 17-11-20 21:28 OP:dani STATUS:               ID:20171120151709     3
 2017-11-20-1518-00M.COL___465                                                 6
 STAT SP IPHASW D HRMM SECON CODA AMPLIT PERI AZIMU VELO AIN AR TRES W  DIS CAZ7
 BAR2 EZ EP       1526 16.18                             170   -0.0510 24.6 180 
 BAR2 EZ ES       1526 31.51                             170   -0.2610 24.6 180 
 PAM  EZ EP       1526 19.24                             150    0.3910 78.9  43 
 PAM  EZ I        1526 38.85        28.8 0.76            149           78.9  43 
 PTB  HZ EP       1526 23.37                             133    0.25 9  144 258 
 PTB  HN ES       1526 43.32                             133   -0.71 9  144 258 
 PTB  HZ I        1526 48.77        14.7 0.22            137            144 258 
 TAM  HZ EP       1526 24.48                             130   -0.09 9  160 105 
 ZAR  HZ EP       1526 29.36                             123    0.92 9  200 292 
 ZAR  HN ES       1526 54.87                             123    1.37 9  200 292 
 ZAR  HZ I        1527  0.40        18.2 0.34            126            200 292 
 NOR  HZ EP       1526 32.16                             119    0.25 8  232 234 
 NOR  HN ES       1526 59.44                             119   -0.24 8  232 234 
 NOR  HZ I        1527  6.59        14.8 0.26            122            232 234 
 CHI  HZ EP       1526 34.15                             117   -0.04 8  249 194 
 CHI  HN ES       1527  3.08                             117   -0.65 8  249 194 
 CHI  HZ I        1527  6.55         4.7 0.52            120            249 194 
 URE  HZ EP       1526 36.99                             114    0.00 7  279 292 
 URE  HN ES       1527  8.69                             114   -0.03 7  279 292 
 URE  HZ I        1527 10.20        11.5 0.12            116            279 292 
 GUY2CHZ EP   3   1526 41.07                             113    1.33 2  299 234 
 GUY2CHN ES   4   1527 16.47                             113    2.85 0  299 234 
 GUY2CHZ I        1527 22.37         9.3 0.32                           299 234 
 PRA  HZ EP       1526 49.50                             107   -0.33 6  391 209 
 PRA  HN ES       1527 31.92                             107    0.34 6  391 209 
 PRA  HZ I        1527 38.75         5.2 0.28            109            391 209 
 SJC  HZ EP       1526 50.63                             106   -0.89 6  406 327 
 SJC  HN ES       1527 32.64                             106   -1.94 6  406 327 
 SJC  HZ I        1527 36.79         4.4 0.54            107            406 327 
                                                                                
