 2016  220 1245 18.6 L   6.842 -73.125148.0  RSN 23 0.6 2.7LRSN                1
 GAP=120        1.18       2.8     3.6  5.0 -0.3306E+01  0.2775E+01  0.9677E+00E
 Epicentro: LOS SANTOS - SANTANDER                                             3
 ACTION:UPD 16-03-04 21:27 OP:rebc STATUS:               ID:20160220124518 L   I
 OLDACT:UP  16-02-20 22:20 OP:ak   STATUS:               ID:20160220123748     3
 OLDACT:REG 16-02-20 20:57 OP:ak   STATUS:               ID:20160220123748     3
 2016-02-20-1237-48M.COL___327                                                 6
 STAT SP IPHASW D HRMM SECON CODA AMPLIT PERI AZIMU VELO AIN AR TRES W  DIS CAZ7
 BAR2 EZ IP     D 1245 38.81                             169    0.2010 28.3 193 
 BAR2 EZ ES       1245 53.66                             169   -0.5610 28.3 193 
 BAR2 EZ I        1245 55.44       119.1 0.16            168           28.3 193 
 BRR  HZ IP     C 1245 40.64                             153    0.6410 71.2 294 
 BRR  HN ES       1245 57.41                             153    0.7310 71.2 294 
 BRR  HZ I        1245 58.31        92.2 0.10            149           71.2 294 
 PAM  EZ EP       1245 41.64                             153    0.8710 72.4  40 
 PAM  EN ES       1245 58.54                             153    0.4810 72.4  40 
 PAM  EZ I        1246  0.98       129.7 0.50            155           72.4  40 
 RUS  HZ EP       1245 42.83                             143   -0.0710  105 177 
 RUS  HN ES       1246  1.65                             143   -0.2010  105 177 
 RUS  HZ I        1246  2.57        52.4 0.28            145            105 177 
 PTB  HZ EP       1245 45.54                             132   -0.51 9  151 257 
 PTB  HN ES       1246  6.65                             132   -0.80 9  151 257 
 PTB  HZ I        1246  9.54        45.6 0.16            130            151 257 
 OCA  HZ EP       1245 46.79                             131    0.09 9  156 352 
 OCA  HN ES       1246  8.20                             131   -0.40 9  156 352 
 OCA  HZ I        1246 12.24        76.4 0.16            130            156 352 
 SPBC HZ EP       1245 47.81                             129    0.06 9  168 219 
 SPBC HN ES       1246  9.72                             129   -0.77 9  168 219 
 SPBC HZ I        1246 16.24        78.8 0.22            128            168 219 
 ZAR  HZ EP       1245 51.40                             123    0.15 9  205 291 
 ZAR  HN ES       1246 16.60                             123   -0.11 9  205 291 
 ZAR  HZ I        1246 23.03        33.8 0.28            121            205 291 
 NOR  HZ EP   4   1245 51.88                             118   -3.08 0  239 234 
 NOR  HE ES       1246 23.08                             118   -0.23 8  239 234 
 NOR  HZ I        1246 25.39        29.8 0.16            118            239 234 
 CHI  HZ EP       1245 57.00                             117    0.02 8  254 195 
 CHI  HN ES       1246 26.48                             117   -0.43 8  254 195 
 CHI  HZ I        1246 29.80        27.8 0.58            118            254 195 
 ROSC BZ EP   2   1245 57.95                             117    0.54 4  258 211 
 ROSC BN ES       1246 28.41                             117    0.74 8  258 211 
 ROSC BZ I        1246 32.66        50.0 0.45            117            258 211 
 HEL  HZ EP   4   1246  0.91                             115    1.60 0  275 255 
 HEL  HN ES       1246 31.52                             115    0.46 7  275 255 
 HEL  HZ I        1246 39.69        16.8 0.22            114            275 255 
 URE  HZ EP       1245 59.10                             114   -0.74 7  284 291 
 URE  HN ES   4   1246 30.25                             114   -1.75 0  284 291 
 URE  HZ I        1246 45.86        18.7 0.14            113            284 291 
 SOCV BZ EP       1246  0.61                             113   -0.65 7  297  57 
 SOCV BN ES   4   1246 32.37                             113   -2.15 0  297  57 
 GUY2CHZ EP       1246  3.48                             112    0.65 7  306 234 
 GUY2CHN ES       1246 37.51                             112    0.18 7  306 234 
 GUY2CHZ I        1246 45.11        21.4 0.32                           306 234 
 VIL  SZ EP   2   1246  2.56                             112   -0.13 4  308 192 
 VIL  SN ES       1246 36.30                             112   -0.77 7  308 192 
 ELA  HZ EP   2   1246  6.76                             110    0.66 3  334 229 
 ELA  HN ES       1246 43.56                             110    0.42 7  334 229 
 ELA  HZ I        1246 51.77        12.4 0.56            110            334 229 
 CBOC HZ EP       1246  6.26                             110    0.23 7  337 251 
 CBOC HE ES       1246 42.66                             110   -0.36 7  337 251 
 CBOC HZ I        1246 46.98         5.6 0.16            110            337 251 
 SDV  BZ EP       1246  8.45                             109    0.26 6  356  51 
 SDV  BN ES   4   1246 45.34                             109   -1.52 0  356  51 
 ANIL HZ EP       1246  9.79                             109    0.72 6  362 224 
 ANIL HN ES       1246 49.43                             109    1.01 6  362 224 
 ANIL HZ I        1246 53.43        51.8 0.44            109            362 224 
 ORTC HZ EP       1246 12.86                             106   -0.34 6  401 216 
 ORTC HN ES       1246 55.66                             106   -0.12 6  401 216 
 ORTC HZ I        1247  0.12        14.4 0.26            107            401 216 
 SJC  HZ EP       1246 12.88                             106   -1.06 6  407 326 
 SJC  HN ES   4   1246 54.12                             106   -2.98 0  407 326 
 SJC  HZ I        1247  1.96         7.8 0.22            106            407 326 
 CRJC HZ EP       1246 19.20                             104   -1.41 5  463   3 
 CRJC HN ES   4   1247  6.60                             104   -2.37 0  463   3 
 CRJC HZ I        1247 13.93        11.0 0.35            104            463   3 
                                                                                
