 2014  720 1349 13.6 L   6.534 -73.563107.1  RSN 11 0.5 1.9LRSN                1
 GAP= 73        1.34       3.3     4.1  7.3 -0.2721E+01  0.1157E+02 -0.3796E+01E
 Epicentro: EL CARMEN - SANTANDER                                              3
 ACTION:UPD 15-03-16 20:45 OP:nd   STATUS:               ID:20140720134913 L   I
 OLDACT:REG 14-07-20 21:11 OP:stll STATUS:               ID:20140720134817     3
 2014-07-20-1348-17M.COL___269                                                 6
 STAT SP IPHASW D HRMM SECON CODA AMPLIT PERI AZIMU VELO AIN AR TRES W  DIS CAZ7
 BAR2 SZ IP     C 1349 29.79                             157    0.4110 42.6  81 
 BAR2 SZ ES       1349 41.58                             157   -0.0810 42.6  81 
 BRR  HZ EP       1349 30.66                             146    0.2910 65.5 345 
 BRR  HN ES       1349 44.33                             146    0.9110 65.5 345 
 BRR  HZ I        1349 45.13        11.0 0.46            144           65.5 345 
 RUS  HZ EP       1349 32.61                             138   -0.2010 88.6 143 
 RUS  HZ I        1349 34.05         6.9 0.24            140           88.6 143 
 RUS  HN ES       1349 47.70                             138   -0.0710 88.6 143 
 PTB  HZ IP     D 1349 32.55                             134   -0.4710 98.8 270 
 PTB  HN ES       1349 47.31                             134   -0.8310 98.8 270 
 PTB  HZ I        1349 48.61        20.1 0.30            133           98.8 270 
 SPBC HZ EP       1349 34.58                             130    0.1910  113 210 
 SPBC HN ES       1349 50.48                             130   -0.0810  113 210 
 SPBC HZ I        1349 53.25        20.8 0.26            131            113 210 
 ZAR  HZ EP       1349 41.71                             116    0.70 9  178 307 
 ZAR  HN ES       1350  2.83                             116    0.47 9  178 307 
 ZAR  HZ I        1350  6.54        10.8 0.44            115            178 307 
 NOR  HZ EP       1349 41.20                             116   -0.09 9  180 233 
 NOR  HE ES       1350  2.45                             116   -0.41 9  180 233 
 NOR  HZ I        1350  5.26         9.8 0.16            116            180 233 
 OCA  HZ EP       1349 41.64                             114   -0.93 9  190   8 
 OCA  HN ES       1350  4.64                             114   -0.49 9  190   8 
 OCA  HZ I        1350 12.67         9.9 0.30            114            190   8 
 HEL  HZ EP       1349 46.86                             111    0.60 8  221 260 
 HEL  HN ES       1350 11.35                             111   -0.35 8  221 260 
 HEL  HZ I        1350 15.02         4.8 0.24            111            221 260 
 GUY2CHZ EP       1349 50.66                             108    1.30 8  247 234 
 GUY2CHN ES       1350 17.03                             108   -0.19 8  247 234 
 GUY2CHZ I        1350 22.14         7.6 0.32                           247 234 
 SML  HZ EP       1349 49.35                             107   -0.62 8  257 347 
 SML  HN ES       1350 18.29                             107   -0.01 8  257 347 
 SML  HZ I        1350 23.37        13.7 0.22            106            257 347 
                                                                                
