 2011 1120 1101 33.8 L   6.814 -73.107144.2  RSN  6 0.2 1.4LRSN                1
 GAP=141        0.48       2.6     3.5  5.5  0.1363E+01  0.1524E+01 -0.5516E+00E
 Epicentro: LOS SANTOS - SANTANDER                                             3
 ACTION:UPD 12-07-13 16:11 OP:ep   STATUS:               ID:20111120110133 L   I
 2011-11-20-1100-06S.COL___178                                                 6
 STAT SP IPHASW D HRMM SECON CODA AMPLIT PERI AZIMU VELO AIN AR TRES W  DIS CAZ7
 BAR2 SZ EP   1   11 1 53.16                             169   -0.09 7 25.8 199 
 BAR2 SZ I        11 1 54.51         6.0 0.39                          25.8 199 
 PAM  SZ EP   1   11 1 55.57                             152   -0.01 7 73.6  38 
 PAM  SN ES   1   11 2 12.62                             152    0.02 7 73.6  38 
 PAM  SZ I        11 2 15.42         3.5 0.45                          73.6  38 
 BRR  HZ EP   1   11 1 54.90                             151   -0.01 7 74.3 296 
 BRR  HN ES   1   11 2 11.82                             151    0.41 7 74.3 296 
 BRR  HZ I        11 2 16.06         9.2 0.16                          74.3 296 
 RUS  HZ EP   1   11 1 57.65                             143    0.21 7  102 178 
 RUS  HN ES   1   11 2 15.64                             143   -0.28 7  102 178 
 RUS  HZ I        11 2 17.85         2.3 0.34                           102 178 
 OCA  SZ EP   1   11 2  2.07                             129    0.22 7  159 352 
 OCA  SZ ES   1   11 2 23.46                             129   -0.31 7  159 352 
 ZAR  HN ES   1   11 2 31.70                             121   -0.25 6  207 291 
                                                                                
