 2013 1020 1904 25.2 L   6.797 -73.207136.9  RSN  8 0.3 2.1LRSN                1
 GAP=129        0.60       2.5     3.2  5.6 -0.1291E+01  0.6936E+01 -0.1400E+01E
 Epicentro: ZAPATOCA - SANTANDER                                               3
 ACTION:UPD 13-11-25 09:22 OP:ep   STATUS:               ID:20131020190425 L   I
 OLDACT:UP  13-10-20 19:32 OP:mh   STATUS:               ID:20131020185841     3
 OLDACT:REG 13-10-20 17:18 OP:mh   STATUS:               ID:20131020185841     3
 2013-10-20-1858-41M.COL___217                                                 6
 STAT SP IPHASW D HRMM SECON CODA AMPLIT PERI AZIMU VELO AIN AR TRES W  DIS CAZ7
 BAR2 SZ EP       19 4 43.68                             170   -0.1010 22.7 173 
 BAR2 SZ ES   1   19 4 58.40                             170    0.15 7 22.7 173 
 BRR  HZ EP   1   19 4 45.46                             153    0.36 7 65.6 302 
 BRR  HE ES   4   19 5  2.70                             153    2.10 0 65.6 302 
 BRR  HZ I        19 5  3.57      6188.3 0.02            151           65.6 302 
 PAM  SZ EP   1   19 4 46.85                             147    0.04 7 82.1  43 
 PAM  SN ES   1   19 5  3.93                             147    0.29 7 82.1  43 
 PAM  SZ I        19 5  6.15        10.4 0.45            155           82.1  43 
 RUS  HZ EP   1   19 4 47.92                             142   -0.22 7  101 172 
 RUS  HE ES       19 5  5.93                             142   -0.0810  101 172 
 RUS  HZ I        19 5  7.54         3.4 0.22            146            101 172 
 PTB  HZ EP       19 4 50.98                             131    0.11 9  141 258 
 PTB  HN ES       19 5 10.51                             131   -0.36 9  141 258 
 PTB  HZ I        19 5 18.95         4.1 0.15            132            141 258 
 OCA  HN ES       19 5 14.11                             127   -0.26 9  160 356 
 ZAR  HE ES   2   19 5 21.37                             121    0.53 4  198 293 
 NOR  HZ EP   1   19 4 59.84                             117    0.00 6  229 234 
 NOR  HN ES   2   19 5 27.83                             117    0.99 4  229 234 
 NOR  HZ I        19 5 33.06         3.0 0.17            120            229 234 
                                                                                
