 2011  820 1023 27.0 L   5.982 -73.675115.8  RSN 12 0.4 2.5LRSN                1
 GAP= 84        0.73       2.5     2.9  5.9 -0.2666E+01  0.5682E+01 -0.7767E+00E
 Epicentro: VELEZ - SANTANDER                                                  3
 ACTION:UPD 12-07-13 15:52 OP:ep   STATUS:               ID:20110820102328dL   I
 2011-08-20-1021-17S.COL___150                                                 6
 STAT SP IPHASW D HRMM SECON CODA AMPLIT PERI AZIMU VELO AIN AR TRES W  DIS CAZ7
 RUS  HZ EP       1023 45.73                             148    0.3110 66.2  99 
 RUS  HN ES   1   1023 59.33                             148   -0.42 7 66.2  99 
 RUS  HZ I        1024  1.83        42.9 0.33                          66.2  99 
 BAR2 SZ EP       1023 46.73                             140    0.2210 86.7  39 
 BAR2 SZ ES   1   1024  1.19                             140   -0.51 7 86.7  39 
 BRR  HZ EP       1023 48.98                             129   -0.4810  125 358 
 BRR  HE ES   1   1024  7.30                             129    0.36 7  125 358 
 BRR  HZ I        1024  9.62        97.9 0.18                           125 358 
 NOR  SZ EP   1   1023 50.77                             126   -0.27 7  140 251 
 NOR  SN ES   1   1024  9.58                             126   -0.18 7  140 251 
 CHI  HZ EP   1   1023 52.53                             124    0.06 7  150 182 
 CHI  HN ES   1   1024 12.93                             124    0.63 7  150 182 
 CHI  HZ I        1024 16.42         9.1 0.32                           150 182 
 HEL  HZ EP       1023 58.01                             115   -0.46 8  207 277 
 HEL  HN ES   1   1024 23.43                             115    0.45 6  207 277 
 HEL  HZ I        1024 26.20        36.1 0.32                           207 277 
 GUY  SN ES   1   1024 23.64                             115    0.18 6  208 246 
 BRI  SZ EP   1   1023 59.25                             113    0.09 6  215  27 
 RREF HZ EP   1   1024  0.04                             113   -0.32 6  221 237 
 RREF HN ES   1   1024 26.46                             113    0.10 6  221 237 
 RREF HZ I        1024 32.24        16.6 0.32                           221 237 
 OCA  SZ EP       1024  3.54                             109    0.13 8  253   9 
 OCA  SZ ES   1   1024 32.49                             109    0.71 6  253   9 
 OCA  SZ I        1024 39.02        26.7 0.25                           253   9 
 PRA  HZ EP   1   1024  6.91                             107   -0.04 6  284 208 
 PRA  HZ I        1024 44.15        72.8 0.21                           284 208 
 SJA  SZ EP   1   1024  9.05                             106    0.07 5  301 186 
 SJA  SZ ES   2   1024 41.08                             106   -0.61 4  301 186 
 SJA  SZ I        1024 44.02        64.4 0.41                           301 186 
                                                                                
