 2011  920 1259 47.3 L   6.788 -73.141149.1  RSN 10 0.4 2.4LRSN                1
 GAP=138        0.74       4.0     4.6  5.9 -0.8607E+00  0.4528E+01  0.7966E+01E
 Epicentro: LOS SANTOS - SANTANDER                                             3
 ACTION:UPD 12-07-13 15:58 OP:ep   STATUS:               ID:20110920125947 L   I
 2011-09-20-1300-00M.COL___167                                                 6
 STAT SP IPHASW D HRMM SECON CODA AMPLIT PERI AZIMU VELO AIN AR TRES W  DIS CAZ7
 BTL  SZ EP       13 0  7.47                             172    0.2310 20.2 316 
 BAR2 SZ EP       13 0  7.21                             171   -0.0610 22.1 192 
 BAR2 SZ I        13 0 23.81        76.9 0.22                          22.1 192 
 GIR2 SZ EP       13 0  7.32                             167   -0.0510 32.7 350 
 GIR2 SZ ES   1   13 0 22.83                             167   -0.23 7 32.7 350 
 BRR  HZ EP       13 0  9.04                             153    0.2010 72.3 299 
 BRR  HZ I        13 0  9.23        66.1 0.14                          72.3 299 
 BRR  HN ES   1   13 0 26.43                             153    0.76 7 72.3 299 
 PAM  SZ EP       13 0 10.11                             151    0.2310 78.1  39 
 PAM  SN ES   1   13 0 27.35                             151   -0.17 7 78.1  39 
 RUS  HZ EP       13 0 10.95                             145   -0.3010 99.2 176 
 RUS  HE ES   2   13 0 29.55                             145   -0.40 5 99.2 176 
 OCA  SZ EP       13 0 15.68                             130   -0.29 9  162 353 
 OCA  SZ I        13 0 44.19        19.2 0.20                           162 353 
 ZAR  HZ EP   2   13 0 20.55                             123    0.52 4  205 292 
 ZAR  HE ES   1   13 0 44.60                             123   -0.99 6  205 292 
 ZAR  HZ I        13 0 51.96        21.4 0.38                           205 292 
 NOR  SZ EP       13 0 23.41                             119    0.26 8  234 235 
 NOR  SN ES   2   13 0 51.06                             119   -0.08 4  234 235 
 CHI  HZ EP       13 0 25.11                             118    0.09 8  247 195 
 CHI  HE ES   3   13 0 54.30                             118   -0.17 2  247 195 
                                                                                
