 2016  220 1125  3.0 L   6.748 -73.148144.6  RSN  7 0.3 1.7LRSN                1
 GAP=139        0.85       3.8     3.8  6.2 -0.1757E+01  0.6827E+01 -0.3219E+01E
 Epicentro: LOS SANTOS - SANTANDER                                             3
 ACTION:UPD 16-03-04 21:27 OP:rebc STATUS:               ID:20160220112503 L   I
 OLDACT:UP  16-02-20 22:04 OP:ak   STATUS:               ID:20160220111748     3
 OLDACT:UP  16-02-20 22:04 OP:ak   STATUS:               ID:20160220111748     3
 OLDACT:REG 16-02-20 20:52 OP:ak   STATUS:               ID:20160220111748     3
 2016-02-20-1117-48M.COL___321                                                 6
 STAT SP IPHASW D HRMM SECON CODA AMPLIT PERI AZIMU VELO AIN AR TRES W  DIS CAZ7
 BAR2 EZ IP       1125 22.45                             173    0.0610 17.6 193 
 BAR2 EZ ES       1125 37.54                             173    0.0310 17.6 193 
 BAR2 EZ I        1125 38.51         7.7 0.15            173           17.6 193 
 BRR  HZ EP       1125 24.25                             151    0.0710 73.9 303 
 BRR  HN ES       1125 41.17                             151    0.4710 73.9 303 
 PAM  EN EP       1125 25.65                             149    0.2810 82.0  37 
 PAM  EZ ES       1125 42.46                             149   -0.3710 82.0  37 
 PAM  EN I        1125 43.73        16.1 0.48            150           82.0  37 
 RUS  HZ EP   2   1125 26.35                             145    0.12 5 94.9 176 
 RUS  HE ES       1125 44.13                             145   -0.2210 94.9 176 
 RUS  HZ I        1125 46.19         3.6 0.32            147           94.9 176 
 PTB  HZ EP       1125 29.34                             132   -0.42 9  147 261 
 PTB  HN ES       1125 50.00                             132   -0.63 9  147 261 
 PTB  HZ I        1125 52.63         5.9 0.12            131            147 261 
 SPBC HN ES       1125 53.32                             130    0.52 9  159 220 
 ZAR  HZ EP   1   1125 35.68                             122    0.10 6  206 294 
 ZAR  HN ES       1126  1.09                             122    0.10 8  206 294 
 ZAR  HZ I        1126  9.42         6.5 0.48            122            206 294 
                                                                                
