 2015  120 1432 35.1 L   6.778 -73.142147.1  RSN 16 0.4 2.3LRSN                1
 GAP= 72        0.99       3.3     3.1  5.7  0.1708E-01  0.3973E+01  0.1531E+01E
 Epicentro: LOS SANTOS - SANTANDER                                             3
 ACTION:UPD 15-03-02 15:41 OP:nd   STATUS:               ID:20150120143235 L   I
 OLDACT:REG 15-01-20 19:59 OP:spq  STATUS:               ID:20150120142750     3
 2015-01-20-1427-50M.COL___253                                                 6
 STAT SP IPHASW D HRMM SECON CODA AMPLIT PERI AZIMU VELO AIN AR TRES W  DIS CAZ7
 BAR2 EZ EP       1432 54.79                             171   -0.0510 21.1 192 
 BAR2 EZ ES   1   1433  9.66                             171   -0.58 7 21.1 192 
 BAR2 EZ I        1433 10.65        58.5 0.26            171           21.1 192 
 BRR  HZ EP     C 1432 56.66                             152    0.1910 72.7 300 
 BRR  HN ES       1433 13.71                             152    0.5710 72.7 300 
 BRR  HZ I        1433 17.70        25.1 0.44            151           72.7 300 
 PAM  SZ EP       1432 57.61                             151    0.0710 79.0  38 
 PAM  SE ES       1433 14.61                             151   -0.4410 79.0  38 
 PAM  SZ I        1433 16.76        40.3 0.58            152           79.0  38 
 RUS  HZ EP       1432 58.80                             145   -0.0010 98.2 176 
 RUS  HN ES   1   1433 16.85                             145   -0.45 7 98.2 176 
 RUS  HZ I        1433 18.20        16.1 0.32            146           98.2 176 
 PTB  HZ EP       1433  1.74                             132   -0.42 9  148 260 
 PTB  HE ES   1   1433 22.58                             132   -0.70 7  148 260 
 PTB  HZ I        1433 24.90        17.7 0.16            132            148 260 
 TAM  HZ EP       1433  3.13                             131    0.35 9  154 104 
 TAM  HN ES       1433 24.70                             131    0.32 9  154 104 
 TAM  HZ I        1433 25.54        13.2 0.46            133            154 104 
 OCA  HZ EP   1   1433  3.09                             129   -0.64 7  163 353 
 OCA  HN ES       1433 26.86                             129    0.79 9  163 353 
 OCA  HZ I        1433 31.88        24.1 0.40            130            163 353 
 ZAR  HZ EP       1433  7.62                             122   -0.14 8  205 293 
 ZAR  HN ES       1433 33.41                             122    0.18 8  205 293 
 ZAR  HZ I        1433 39.06        25.9 0.28            122            205 293 
 NOR  HZ EP       1433 11.17                             119    0.38 8  234 235 
 NOR  HN ES       1433 38.95                             119    0.32 8  234 235 
 NOR  HZ I        1433 40.31        16.0 0.16            119            234 235 
 SML  HZ EP       1433 11.33                             117   -0.72 8  246 335 
 SML  HE ES   1   1433 40.44                             117   -0.43 6  246 335 
 SML  HZ I        1433 48.03        28.8 0.10            118            246 335 
 GUY2CHZ EP   1   1433 18.56                             113   -0.09 5  300 235 
 GUY2CHN ES   1   1433 53.21                             113    0.59 5  300 235 
 GUY2CHZ I        1434  1.09         5.1 0.24                           300 235 
 PTGC HZ EP   4   1433 18.02                             112   -0.72 0  306 159 
 PTGC HN ES   4   1433 51.38                             112   -1.41 0  306 159 
 PTGC HZ I        1433 53.85        13.1 0.64            113            306 159 
 RREF HN ES   4   1433 59.83                             111    2.75 0  321 230 
 RREF HZ I        1434  6.51         7.1 0.32            112            321 230 
 TOL  SN ES   4   1434  2.31                             110    1.51 0  342 225 
 TOL  SZ I        1434  7.04         9.2 0.42            110            342 225 
 MON  HZ EP   4   1433 22.24                             109   -2.11 0  355 309 
 MON  HN ES   4   1434  0.89                             109   -1.89 0  355 309 
 MON  HZ I        1434  1.54         4.4 0.22            109            355 309 
 SJC  HZ EP   4   1433 29.00                             106   -1.96 0  411 327 
 SJC  HN ES   4   1434 10.56                             106   -3.97 0  411 327 
 SJC  HZ I        1434 14.75         5.2 0.44            106            411 327 
                                                                                
