 2011 1220 1053 28.8 L   6.818 -73.205138.8  RSN  9 0.3 1.8LRSN                1
 GAP=128        0.66       4.0     4.6  5.5 -0.5016E+01  0.9877E+01  0.2799E+01E
 Epicentro: ZAPATOCA - SANTANDER                                               3
 ACTION:UPD 12-07-13 16:17 OP:ep   STATUS:               ID:20111220105328 L   I
 2011-12-20-1050-00M.COL___192                                                 6
 STAT SP IPHASW D HRMM SECON CODA AMPLIT PERI AZIMU VELO AIN AR TRES W  DIS CAZ7
 BAR2 SZ IP       1053 47.50                             169   -0.1510 25.1 174 
 BAR2 SZ ES   1   1054  2.50                             169    0.17 7 25.1 174 
 GIR2 SZ EP   1   1053 47.45                             168   -0.15 7 28.8   2 
 GIR2 SZ ES   1   1054  2.35                             168    0.11 7 28.8   2 
 BRR  HZ EP       1053 49.24                             154    0.4010 64.5 300 
 BRR  HZ I        1054  7.21        62.4 0.15                          64.5 300 
 PAM  SZ EP   1   1053 50.33                             149   -0.15 7 80.2  44 
 PAM  SN ES   1   1054  7.28                             149   -0.08 7 80.2  44 
 PAM  SZ I        1054  8.06        19.8 0.17                          80.2  44 
 RUS  HZ EP   1   1053 51.84                             142   -0.25 7  103 173 
 RUS  HN ES   1   1054 10.46                             142    0.22 7  103 173 
 PTB  HZ EP   1   1053 54.12                             132   -0.56 7  142 258 
 PTB  HZ I        1053 55.26         0.1 0.14                           142 258 
 PTB  HN ES   1   1054 14.38                             132   -0.46 7  142 258 
 HEL  HZ EP   1   1054  8.97                             114    0.93 6  266 255 
 HEL  HZ I        1054 47.14        12.6 0.56                           266 255 
 RREF HN ES   2   1054 49.87                             110    0.17 3  318 228 
 RREF HZ I        1055  0.59        14.8 0.52                           318 228 
 PRA  HZ EP   1   1054 22.03                             105    0.09 4  391 209 
 PRA  HN ES   1   1055  3.32                             105   -0.06 4  391 209 
                                                                                
