 2013  420 1429 22.0 L   6.777 -73.166140.5  RSN  6 0.5 2.2LRSN                1
 GAP=135        1.22       6.1     6.1  8.0 -0.4153E+01  0.5928E+01  0.5912E+01E
 Epicentro: LOS SANTOS - SANTANDER                                             3
 ACTION:UPD 13-05-22 14:39 OP:EP   STATUS:               ID:20130420142922 L   I
 2013-04-20-1428-39M.COL___212                                                 6
 STAT SP IPHASW D HRMM SECON CODA AMPLIT PERI AZIMU VELO AIN AR TRES W  DIS CAZ7
 BAR2 SZ EP       1429 41.03                             171    0.0610 20.5 185 
 BAR2 SZ ES       1429 55.57                             171   -0.1710 20.5 185 
 BAR2 SZ I        1429 56.77        26.2 0.20            170           20.5 185 
 GIR2 SZ EP       1429 41.19                             166    0.0510 33.5 355 
 GIR2 SZ ES       1429 56.02                             166   -0.0310 33.5 355 
 BRR  HZ EP       1429 43.00                             152    0.4310 70.5 301 
 BRR  HN ES       1429 59.50                             152    0.9110 70.5 301 
 BRR  HN I        1430  0.02        68.0 0.22            152           70.5 301 
 PAM  SZ IP     C 1429 44.05                             149    0.1610 80.8  40 
 PAM  SZ I        1429 44.29        20.9 0.20            151           80.8  40 
 PAM  SN ES       1430  0.21                             149   -0.7410 80.8  40 
 RUS  HZ EP       1429 45.45                             143    0.3610 98.2 175 
 RUS  HN ES       1430  3.16                             143    0.0810 98.2 175 
 RUS  HN I        1430  4.96        21.6 0.24            143           98.2 175 
 PTB  HZ EP       1429 47.66                             131   -0.66 9  145 260 
 PTB  HN ES       1430  8.22                             131   -0.61 9  145 260 
 PTB  HN I        1430 11.19        21.8 0.22            131            145 260 
                                                                                
