 2017  820 1256  3.2 L   6.772 -73.132144.1  RSN 17 0.3 2.3LRSN                1
 GAP=237        0.70       2.8     3.4  3.9  0.2267E+01  0.3481E+01  0.2180E+01E
 Epicentro: LOS SANTOS - SANTANDER                                             3
 ACTION:UPD 17-09-04 20:22 OP:rebc STATUS:               ID:20170820125603 L   I
 OLDACT:REG 17-08-20 16:14 OP:lv   STATUS:               ID:20170820124745     3
 2017-08-20-1248-00M.COL___408                                                 6
 STAT SP IPHASW D HRMM SECON CODA AMPLIT PERI AZIMU VELO AIN AR TRES W  DIS CAZ7
 BAR2 EZ EP       1256 22.48                             172   -0.1110 20.7 196 
 BAR2 EZ ES       1256 37.73                             172    0.0310 20.7 196 
 BAR2 EZ I        1256 40.15        36.8 0.28            164           20.7 196 
 BRR  HZ EP       1256 24.36                             151    0.0210 74.0 300 
 BRR  HE ES       1256 41.28                             151    0.4610 74.0 300 
 BRR  HZ I        1256 45.61        24.7 0.17            147           74.0 300 
 RUS  HZ EP       1256 26.51                             144   -0.0610 97.4 177 
 RUS  HN ES       1256 44.61                             144   -0.1810 97.4 177 
 RUS  HZ I        1256 46.29        16.2 0.32            143           97.4 177 
 SPBC HZ EP       1256 31.47                             129    0.02 9  162 220 
 SPBC HN ES       1256 53.02                             129   -0.45 9  162 220 
 SPBC HZ I        1256 57.21        27.9 0.07            127            162 220 
 ZAR  HZ EP       1256 35.31                             122   -0.50 8  207 293 
 ZAR  HE ES       1257  1.20                             122   -0.04 8  207 293 
 ZAR  HZ I        1257  5.91        13.6 0.20            121            207 293 
 TABC EZ EP   4   1256 40.03                             119    1.36 0  228 211 
 TABC EZ ES   4   1257  4.06                             119   -2.25 0  228 211 
 TABC EZ I        1257  9.83        12.7 0.32            118            228 211 
 NOR  HZ EP       1256 38.67                             118   -0.12 8  234 235 
 NOR  HN ES       1257  6.43                             118   -0.10 8  234 235 
 NOR  HZ I        1257  8.20        15.9 0.16            117            234 235 
 CHI  HZ EP       1256 40.75                             117    0.21 8  246 196 
 CHI  HN ES       1257 10.15                             117    0.50 8  246 196 
 CHI  HZ I        1257 13.83         5.8 0.40            117            246 196 
 ROSC BZ EP   4   1256 42.53                             116    1.49 0  251 212 
 ROSC BN ES   4   1257 13.27                             116    2.73 0  251 212 
 ROSC BZ I        1257 18.44        19.5 0.35            116            251 212 
 HEL  HZ EP   4   1256 44.79                             114    1.37 0  273 257 
 HEL  HE ES       1257 14.78                             114    0.00 8  273 257 
 HEL  HZ I        1257 21.82        11.1 0.36            114            273 257 
 URE  HN ES   4   1257 13.64                             113   -3.03 0  286 292 
 URE  HZ I        1257 24.11        15.3 0.16            113            286 292 
 GUY2CHZ EP   9   1256 48.71                             112    2.03 0  301 235 
 GUY2CHN ES       1257 22.34                                   -0.27 7  301 235 
 GUY2CHZ I        1257 28.96        14.7 0.32                           301 235 
 PTGC HZ IP   4 D 1256 45.56                             111   -1.05 0  305 159 
 PTGC HN ES   4   1257 18.12                             111   -2.34 0  305 159 
 ELA  HZ EP   4   1256 53.30                             110    3.40 0  328 230 
 ELA  HN ES   4   1257 29.11                             110    2.80 0  328 230 
 ELA  HZ I        1257 34.03         8.3 0.34            110            328 230 
 PRA  HZ EP       1256 56.02                             106   -0.43 6  390 210 
 PRA  HN ES   4   1257 36.30                             106   -1.68 0  390 210 
 PRA  HZ I        1257 45.00         5.2 0.32            107            390 210 
 ORTC HZ EP       1256 57.50                             106    0.61 6  394 217 
 ORTC HN ES   4   1257 37.42                             106   -1.34 0  394 217 
 ORTC HZ I        1257 45.62         4.8 0.45            106            394 217 
 PAL  HZ EP       1256 58.98                             106    0.70 6  405 240 
 PAL  HN ES   4   1257 37.84                             106   -3.40 0  405 240 
 PAL  HZ I        1257 45.92         5.9 0.08            106            405 240 
 SJC  HZ EP   4   1256 57.12                             105   -2.00 0  413 327 
 SJC  HN ES   4   1257 37.98                             105   -4.74 0  413 327 
 SJC  HZ I        1257 41.39         3.8 0.24            106            413 327 
                                                                                
