 2016 1020 1626 26.6 L   6.344 -73.633108.8  RSN  6 0.4 1.6LRSN                1
 GAP=138        1.01       5.4     3.9  8.4 -0.5719E+01  0.1161E+02 -0.1058E+01E
 Epicentro: SANTA HELENA DEL OPON - SANTANDER                                  3
 ACTION:UPD 16-11-09 19:21 OP:rebc STATUS:               ID:20161020162626 L   I
 OLDACT:UP  16-10-21 04:02 OP:dnl  STATUS:               ID:20161020160426     3
 OLDACT:UP  16-10-21 04:01 OP:dnl  STATUS:               ID:20161020160426     3
 OLDACT:REG 16-10-21 02:23 OP:ar   STATUS:               ID:20161020160426     3
 2016-10-20-1618-00M.COL___350                                                 6
 STAT SP IPHASW D HRMM SECON CODA AMPLIT PERI AZIMU VELO AIN AR TRES W  DIS CAZ7
 BAR2 EZ EP       1626 43.65                             150    0.3110 56.8  61 
 BAR2 EZ IP     D 1626 43.66                             150    0.3210 56.8  61 
 BAR2 EZ ES       1626 56.75                             150    0.3910 56.8  61 
 BAR2 EZ I        1626 58.31        29.9 0.44            156           56.8  61 
 RUS  HZ EP   2   1626 44.89                             142   -0.30 5 78.7 129 
 RUS  HE ES       1626 58.96                             142   -0.6910 78.7 129 
 RUS  HZ I        1627  0.90         4.1 0.16            146           78.7 129 
 SPBC HZ EP       1626 45.30                             137   -0.2810 90.7 212 
 SPBC HN ES       1627  0.79                             137    0.4410 90.7 212 
 SPBC HZ I        1627  5.19        10.1 0.14            139           90.7 212 
 PTB  HZ EP       1626 45.18                             136   -0.5510 93.6 283 
 PTB  HN ES       1627  0.25                             136   -0.3610 93.6 283 
 PTB  HZ I        1627  2.66         5.5 0.48            140           93.6 283 
 NOR  HZ EP       1626 52.63                             119    0.21 9  162 238 
 NOR  HN ES       1627 12.85                             119    0.33 9  162 238 
 NOR  HZ I        1627 14.67         9.4 0.16            123            162 238 
 GUY2CHZ EP   2   1627  0.51                             110    0.18 4  228 237 
 GUY2CHN ES   4   1627 28.04                             110    1.43 0  228 237 
 GUY2CHZ I        1627 34.45         3.4 0.34                           228 237 
                                                                                
