 2010  820 1637  6.8 L   6.795 -73.040146.4  RSN 19 0.4 3.0LRSN                1
 GAP=134        0.93       3.1     5.4  4.9 -0.7252E+01  0.2145E+01  0.3150E+01E
 Epicentro: CEPITA - SANTANDER                                                 3
 ACTION:UP  10-09-07 10:56 OP:vdl  STATUS:               ID:20100820163706 L   I
 2010-08-20-1636-05S.COL___121                                                 6
 STAT SP IPHASW D HRMM SECON CODA AMPLIT PERI AZIMU VELO SNR AR TRES W  DIS CAZ7
 BAR2 SZ IP       1637 26.53                             169     0.010   28 215 
 BAR2 SZ I        1637 26.71       322.3 0.24                            28 215 
 BAR2 SZ ES   1   1637 42.33                             169     0.3 7   28 215 
 BTL  SZ IP       1637 25.70                             169    -0.910   29 298 
 GIR2 SZ IP       1637 26.63                             166     0.010   36 332 
 GIR2 SZ ES   1   1637 41.84                             166    -0.3 7   36 332 
 BTN  SZ IP       1637 28.74                             150    -0.310   81 355 
 BTN  SZ ES       1637 46.01                             150    -0.310   81 355 
 BRR  HZ IP     C 1637 28.42                             149    -0.210   82 295 
 BRR  HE ES   1   1637 45.79                             149     0.1 7   82 295 
 BRR  HZ I        1637 48.08       429.5 0.12                            82 295 
 RUS  HZ IP     C 1637 30.38                             144    -0.210  100 183 
 RUS  HN ES   1   1637 49.14                             144     0.1 7  100 183 
 RUS  HZ I        1637 50.41       100.4 0.25                           100 183 
 BRI  SZ EP       1637 31.13                             142     0.610  105  15 
 GUE  SZ EP       1637 31.62                             140     0.210  115   6 
 GRA  SZ IP       1637 32.37                             138     0.510  123  12 
 GRA  SZ ES   1   1637 52.14                             138     0.7 7  123  12 
 GRA  SZ I        1637 53.02       253.1 0.32                           123  12 
 OCA  SZ EP       1637 35.12                             129    -0.2 9  163 349 
 OCA  SZ ES   1   1637 57.82                             129     0.2 7  163 349 
 OCA  SZ I        1638  2.85       182.1 0.31                           163 349 
 CHI  HZ EP       1637 44.61                             117    -0.2 8  251 198 
 CHI  HN ES   1   1638 14.73                             117     0.3 6  251 198 
 CVER SZ EP   1   1637 48.22                             114     0.6 6  276 205 
 HEL  HZ EP   1   1637 48.05                             114    -0.2 6  283 256 
 HEL  HN ES   2   1638 21.49                             114     0.9 4  283 256 
 GUY  SZ EP   2   1637 51.41                             112    -0.1 3  311 236 
 GUY  SE ES   1   1638 26.75                             112     0.4 5  311 236 
 RREF HZ EP   1   1637 53.97                             110     0.1 5  330 231 
 RREF HN ES   1   1638 31.59                             110     0.9 5  330 231 
 DBB  SZ EP       1637 55.11                             109    -0.5 6  351 274 
 DBB  SZ I        1638 37.69         8.6 0.18                           351 274 
 SDV  BZ EP   1   1637 55.74                             109    -0.1 5  352  49 
 ANIL HZ EP   1   1637 57.42                             108    -0.1 5  365 226 
 PRA  HZ EP   1   1638  0.70                             106    -0.2 4  397 211 
                                                                                
