 2016  520 1906  5.0 L   6.831 -73.124146.0  RSN 22 0.5 2.5LRSN                1
 GAP= 71        1.12       3.0     3.4  5.2 -0.3872E+00  0.5291E+01  0.3531E+01E
 Epicentro: LOS SANTOS - SANTANDER                                             3
 ACTION:UPD 16-08-18 17:47 OP:cam  STATUS:               ID:20160520190605 L   I
 OLDACT:UP  16-05-24 15:33 OP:dnl  STATUS:               ID:20160520190605 L   3
 OLDACT:UP  16-05-21 02:39 OP:dani STATUS:               ID:20160520185946     3
 OLDACT:UP  16-05-21 02:27 OP:dani STATUS:               ID:20160520185946     3
 OLDACT:UP  16-05-21 02:16 OP:dani STATUS:               ID:20160520185946     3
 OLDACT:REG 16-05-20 22:12 OP:ar   STATUS:               ID:20160520185946     3
 2016-05-20-1859-46M.COL___294                                                 6
 STAT SP IPHASW D HRMM SECON CODA AMPLIT PERI AZIMU VELO AIN AR TRES W  DIS CAZ7
 BAR2 EZ EP       19 6 24.56                             169   -0.1510 27.2 194 
 BAR2 EZ ES       19 6 39.95                             169   -0.1610 27.2 194 
 BAR2 EZ I        19 6 40.64       121.7 0.20            158           27.2 194 
 BRR  HZ EP       19 6 26.32                             153    0.1410 71.8 295 
 BRR  HN ES       19 6 43.16                             153    0.4410 71.8 295 
 BRR  HZ I        19 6 45.03        94.7 0.84            144           71.8 295 
 PAM  EZ EP       19 6 27.50                             152    0.5310 73.2  40 
 PAM  EN ES       19 6 44.45                             152    0.3210 73.2  40 
 RUS  HZ EP       19 6 28.60                             143   -0.3910  104 177 
 RUS  HE ES       19 6 47.17                             143   -0.5510  104 177 
 RUS  HZ I        19 6 48.50        46.7 0.32            139            104 177 
 PTB  HZ EP       19 6 31.37                             132   -0.86 9  151 258 
 PTB  HN ES   4   19 6 52.00                             132   -1.49 0  151 258 
 PTB  HZ I        19 6 55.34        45.5 0.05            125            151 258 
 TAM  HZ EP       19 6 32.60                             131    0.06 9  154 106 
 TAM  HN ES       19 6 54.53                             131    0.48 9  154 106 
 TAM  HZ I        19 6 55.80        20.5 0.44            137            154 106 
 OCA  HZ EP       19 6 32.99                             131   -0.02 9  157 352 
 OCA  HN ES       19 6 54.29                             131   -0.59 9  157 352 
 OCA  HZ I        19 7  1.93        66.9 0.22            131            157 352 
 SPBC HZ EP       19 6 33.53                             129   -0.35 9  167 219 
 SPBC HE ES   4   19 6 55.75                             129   -0.68 0  167 219 
 SPBC HZ I        19 6 57.87        50.6 0.24            123            167 219 
 ZAR  HZ EP   2   19 6 38.52                             122    0.99 4  205 291 
 ZAR  HN ES       19 7  3.36                             122    0.44 9  205 291 
 ZAR  HZ I        19 7  8.93        45.7 0.24            119            205 291 
 NOR  HZ EP       19 6 40.55                             118   -0.59 8  239 234 
 NOR  HN ES       19 7  8.79                             118   -0.55 8  239 234 
 NOR  HZ I        19 7 10.16        20.0 0.18            115            239 234 
 CHI  HZ EP       19 6 42.89                             117   -0.22 8  253 195 
 CHI  HN ES       19 7 13.70                             117    0.84 8  253 195 
 CHI  HZ I        19 7 21.14        10.1 0.34            115            253 195 
 ROSC BZ EP   9   19 6 44.94                             116    1.38 0  257 211 
 ROSC BN ES       19 7 15.92                             116    0.88 8  257 211 
 ROSC BZ I        19 7 22.57        18.7 0.25            114            257 211 
 HEL  HZ EP       19 6 46.25                             115    0.71 8  275 255 
 HEL  HN ES   4   19 7 18.31                             115    1.12 0  275 255 
 HEL  HZ I        19 7 22.90        18.4 0.40            112            275 255 
 URE  HZ EP       19 6 45.67                             114   -0.49 7  285 291 
 URE  HE ES   4   19 7 16.89                             114   -1.39 0  285 291 
 URE  HZ I        19 7 22.22        12.3 0.12            112            285 291 
 VIL  SZ EP       19 6 48.59                             112   -0.24 7  307 192 
 VIL  SN ES       19 7 23.34                             112    0.29 7  307 192 
 ELA  HZ EP   9   19 6 53.46                             110    1.17 0  333 229 
 ELA  HE ES       19 7 31.06                             110    0.69 7  333 229 
 ELA  HZ I        19 7 40.63         9.9 0.32            108            333 229 
 CBOC HZ EP       19 6 52.68                             110    0.40 7  337 252 
 CBOC HN ES       19 7 29.88                             110    0.71 7  337 252 
 CBOC HZ I        19 7 38.47         5.1 0.36            108            337 252 
 PRA  HZ EP       19 6 58.56                             106   -0.43 6  396 210 
 PRA  HN ES       19 7 40.91                             106   -0.21 6  396 210 
 PRA  HZ I        19 7 45.39        12.5 0.34            105            396 210 
 ORTC HZ EP       19 7  0.24                             106    0.85 6  400 216 
 ORTC HN ES   4   19 7 43.47                             106    1.64 0  400 216 
 ORTC HZ I        19 7 49.48        11.4 0.44            105            400 216 
 SJC  HZ EP   4   19 6 59.08                             106   -1.28 0  408 326 
 SJC  HE ES   4   19 7 40.48                             106   -3.08 0  408 326 
 SJC  HZ I        19 7 44.38         8.0 0.44            105            408 326 
 PAL  HZ EP       19 7  0.67                             106    0.09 6  409 239 
 PAL  HE ES   4   19 7 36.11                             106   -7.85 0  409 239 
 PAL  HZ I        1910 10.68        31.6 0.12            104            409 239 
 CRJC HZ EP   4   19 7  5.22                             104   -1.83 0  464   3 
 CRJC HN ES   4   19 7 51.20                             104   -4.28 0  464   3 
 CRJC HZ I        19 7 55.09         7.4 0.34            104            464   3 
                                                                                
