 2011  820 1134 12.7 L   5.935 -73.682122.0  RSN  4 0.3 1.4LRSN                1
 GAP=159        0.52       4.2     3.8  8.9 -0.6133E+01  0.4368E+01 -0.1200E+01E
 Epicentro: PUENTE NACIONAL - SANTANDER                                        3
 ACTION:UPD 12-07-13 15:52 OP:ep   STATUS:               ID:20110820113412 L   I
 2011-08-20-1130-37S.COL___152                                                 6
 STAT SP IPHASW D HRMM SECON CODA AMPLIT PERI AZIMU VELO AIN AR TRES W  DIS CAZ7
 RUS  HZ EP   1   1134 32.08                             150    0.30 7 66.4  94 
 RUS  HN ES   2   1134 46.44                             150   -0.19 5 66.4  94 
 RUS  HZ I        1134 51.74         2.7 0.40                          66.4  94 
 BAR2 SZ EP   1   1134 32.92                             141   -0.23 7 91.3  37 
 BAR2 SZ I        1134 33.79        10.0 0.23                          91.3  37 
 BRR  HZ EP   1   1134 35.77                             130   -0.35 7  130 359 
 BRR  HN ES   1   1134 54.64                             130    0.29 7  130 359 
 NOR  SZ EP   1   1134 37.15                             128    0.19 7  138 253 
 NOR  SN ES   1   1134 55.74                             128   -0.12 7  138 253 
                                                                                
