 2012  920 1503 42.2 L   6.748 -73.171146.0  RSN  4 0.1 1.7LRSN                1
 GAP=231        0.35       3.9     5.0  4.1  0.1303E+02 -0.2892E+01 -0.2250E+01E
 Epicentro: VILLANUEVA - SANTANDER                                             3
 ACTION:UPD 12-10-22 14:19 OP:ep   STATUS:               ID:20120920150342 L   I
 2012-09-20-1500-00M.COL___224                                                 6
 STAT SP IPHASW D HRMM SECON CODA AMPLIT PERI AZIMU VELO AIN AR TRES W  DIS CAZ7
 BAR2 SZ EP   1   15 4  1.56                             173   -0.17 7 17.2 184 
 BAR2 SZ ES   1   15 4 16.85                             173   -0.13 7 17.2 184 
 BAR2 SZ I        15 4 18.20        13.9 0.24                          17.2 184 
 BRR  HZ EP       15 4  3.47                             152    0.0910 71.8 304 
 BRR  HZ I        15 4  5.19        13.5 0.53                          71.8 304 
 BRR  HN ES       15 4 19.97                             152    0.0410 71.8 304 
 RUS  HZ EP   2   15 4  5.55                             145   -0.01 5 95.1 174 
 RUS  HN ES   1   15 4 23.95                             145    0.15 7 95.1 174 
 RUS  HZ I        15 4 26.26         4.0 0.54                          95.1 174 
 PTB  HN ES   2   15 4 29.45                             133   -0.16 5  144 261 
                                                                                
