 2013 1020 1056 24.3 L   6.176 -73.761 96.0  RSN 12 0.5 1.8LRSN                1
 GAP= 66        1.09       2.7     2.8  6.4 -0.1870E+01  0.3661E+01 -0.2074E+01E
 Epicentro: LANDAZURI - SANTANDER                                              3
 ACTION:UPD 13-11-25 09:22 OP:ep   STATUS:               ID:20131020105624 L   I
 OLDACT:UP  13-10-20 18:04 OP:mh   STATUS:               ID:20131020104845     3
 OLDACT:UP  13-10-20 18:01 OP:mh   STATUS:               ID:20131020104845     3
 OLDACT:REG 13-10-20 16:23 OP:mh   STATUS:               ID:20131020104845     3
 2013-10-20-1048-45M.COL___208                                                 6
 STAT SP IPHASW D HRMM SECON CODA AMPLIT PERI AZIMU VELO AIN AR TRES W  DIS CAZ7
 SPBC HZ EP   1   1056 40.10                             142   -0.06 7 67.4 211 
 SPBC HN ES       1056 52.66                             142    0.1010 67.4 211 
 SPBC HZ I        1056 54.79        16.0 0.15            140           67.4 211 
 BAR2 SZ EP       1056 41.59                             138    0.3210 78.8  54 
 BAR2 SZ ES   1   1056 54.94                             138    0.41 7 78.8  54 
 BAR2 SZ I        1056 57.18        54.8 0.18            137           78.8  54 
 RUS  HZ EP   1   1056 41.75                             137   -0.08 7 81.3 113 
 RUS  HN ES       1056 55.82                             137    0.3010 81.3 113 
 RUS  HZ I        1056 57.26         6.9 0.29            134           81.3 113 
 PTB  HZ EP   1   1056 40.97                             135   -0.68 7 86.8 298 
 PTB  HN ES       1056 54.53                             135   -0.6810 86.8 298 
 PTB  HZ I        1056 55.10        11.8 0.17            137           86.8 298 
 NOR  HZ EP       1056 46.19                             120   -0.77 9  140 241 
 NOR  HN ES       1057  4.41                             120   -0.25 9  140 241 
 NOR  HZ I        1057  6.20        14.2 0.14            120            140 241 
 CHI  HZ EP       1056 50.48                             115   -0.32 9  171 179 
 CHI  HN ES   1   1057 11.38                             115   -0.10 7  171 179 
 CHI  HZ I        1057 19.35         5.6 0.50            114            171 179 
 PAM  SZ EP       1056 51.40                             115    0.16 9  174  42 
 PAM  SN ES       1057 11.63                             115   -0.64 9  174  42 
 PAM  SZ I        1057 15.25         3.8 0.13            115            174  42 
 ZAR  HZ EP   1   1056 52.23                             112   -0.14 7  189 320 
 ZAR  HN ES       1057 14.74                             112    0.46 9  189 320 
 HEL  HZ EP       1056 54.13                             112    0.60 9  196 271 
 HEL  HN ES   2   1057 16.27                             112   -0.09 4  196 271 
 HEL  HZ  AMP     1057 21.51        69.6 0.19                           196 271 
 GUY2CHZ EP       1056 55.09                             111    0.18 8  207 239 
 GUY2CHN ES       1057 19.73                             111    0.92 8  207 239 
 SML  HZ EP   1   1057  4.27                             104   -0.17 5  292 353 
 SML  HN ES       1057 36.46                             104    0.68 7  292 353 
 PRA  HZ EP   1   1057  4.35                             104   -1.01 5  299 205 
 PRA  HE ES       1057 37.95                             104    0.54 7  299 205 
 PRA  HZ I        1057 46.98         2.9 0.50            103            299 205 
                                                                                
