 2014 1120 1515  1.4 L   6.744 -73.164136.2  RSN  8 0.6 1.6LRSN                1
 GAP= 94        1.64       6.4     6.8  9.9 -0.1051E+02 -0.3365E+01  0.1733E+02E
 Epicentro: LOS SANTOS - SANTANDER                                             3
 ACTION:UPD 14-12-19 15:45 OP:nd   STATUS:               ID:20141120151501 L   I
 OLDACT:ARG 14-11-20 21:12 OP:stll STATUS:               ID:20141120150747     3
 2014-11-20-1507-47M.COL___306                                                 6
 STAT SP IPHASW D HRMM SECON CODA AMPLIT PERI AZIMU VELO AIN AR TRES W  DIS CAZ7
 BAR2 SZ EP       1515 20.47                             172    0.7410 16.9 187 
 BAR2 SZ ES       1515 34.58                             172    0.5310 16.9 187 
 BAR2 SZ I        1515 36.93         8.5 0.34            172           16.9 187 
 BRR  HZ EP       1515 21.91                             150    0.3310 72.7 304 
 BRR  HN ES       1515 37.72                             150    0.3710 72.7 304 
 PAM  SZ EP       1515 22.81                             147   -0.1610 83.5  38 
 PAM  SE ES       1515 38.46                             147   -1.3610 83.5  38 
 PAM  SZ I        1515 41.98        12.1 0.44            149           83.5  38 
 RUS  HZ EP       1515 23.90                             143    0.1610 94.5 175 
 RUS  HN ES       1515 41.88                             143    0.6910 94.5 175 
 RUS  HZ I        1515 43.66         6.5 0.30            144           94.5 175 
 PTB  HZ EP       1515 26.97                             130   -0.32 9  145 261 
 PTB  HN ES       1515 47.34                             130   -0.16 9  145 261 
 PTB  HZ I        1515 50.84         4.1 0.34            132            145 261 
 TAM  HZ EP       1515 28.31                             128   -0.04 9  156 103 
 SPBC HZ EP       1515 29.15                             128    0.59 9  157 220 
 SPBC HN ES       1515 48.71                             128   -1.06 9  157 220 
 CHI  HZ EP       1515 38.19                             116    0.35 8  242 195 
 CHI  HZ I        1515 40.90         3.4 0.50            117            242 195 
 CHI  HN ES       1516  5.23                             116   -1.05 8  242 195 
                                                                                
