 2016  820 1152 40.9 L   6.840 -73.140149.5  RSN 26 0.5 2.7LRSN                1
 GAP= 65        1.01       2.5     2.5  4.1 -0.5485E+00  0.3199E+01  0.9899E+00E
 Epicentro: LOS SANTOS - SANTANDER                                             3
 ACTION:UPD 16-10-29 15:37 OP:rebc STATUS:               ID:20160820115240 L   I
 OLDACT:UP  16-08-20 21:29 OP:edw  STATUS:               ID:20160820114744     3
 OLDACT:REG 16-08-20 20:24 OP:edw  STATUS:               ID:20160820114744     3
 2016-08-20-1147-44M.COL___350                                                 6
 STAT SP IPHASW D HRMM SECON CODA AMPLIT PERI AZIMU VELO AIN AR TRES W  DIS CAZ7
 BAR2 EZ EP     D 1153  0.76                             169   -0.2710 27.8 190 
 BAR2 EZ ES       1153 16.62                             169   -0.1510 27.8 190 
 BAR2 EZ I        1153 18.57       143.1 0.46                          27.8 190 
 BRR  HZ IP     C 1153  2.57                             154    0.2410 69.7 295 
 BRR  HE ES       1153 18.98                             154   -0.1010 69.7 295 
 BRR  HZ I        1153 23.15        70.1 0.42                          69.7 295 
 PAM  EZ EP       1153  3.74                             152    0.4910 73.6  41 
 PAM  EN ES       1153 21.21                             152    0.4810 73.6  41 
 PAM  EZ I        1153 23.86        61.6 0.34                          73.6  41 
 RUS  HZ EP       1153  5.01                             143   -0.2810  105 177 
 RUS  HE ES       1153 24.28                             143   -0.0710  105 177 
 RUS  HZ I        1153 24.65        53.8 0.38                           105 177 
 PTB  HZ EP   9   1153  7.28                             133   -0.98 0  149 257 
 PTB  HN ES       1153 28.51                             130   -0.15 9  149 257 
 PTB  HZ I        1153 35.73        45.6 0.44                           149 257 
 TAM  HZ IP     C 1153  9.14                             131    0.25 9  156 107 
 TAM  HN ES       1153 30.98                             131    0.22 9  156 107 
 SPBC HZ EP       1153  9.71                             129   -0.29 9  167 218 
 SPBC HE ES       1153 32.57                             129   -0.17 9  167 218 
 SPBC HZ I        1153 34.22        72.6 0.24                           167 218 
 ZAR  HZ EP       1153 13.69                             123    0.26 9  203 291 
 ZAR  HN ES       1153 39.05                             123    0.20 9  203 291 
 ZAR  HZ I        1153 44.09        48.1 0.30                           203 291 
 NOR  HZ EP       1153 16.91                             119   -0.22 8  238 234 
 NOR  HN ES       1153 45.02                             119   -0.41 8  238 234 
 NOR  HZ I        1153 47.59        34.5 0.22                           238 234 
 CHI  HZ EP       1153 19.04                             117   -0.20 8  253 195 
 CHI  HN ES       1153 48.47                             117   -0.71 8  253 195 
 CHI  HZ I        1153 53.59        20.2 0.28                           253 195 
 ROSC HZ EP       1153 19.94                             117    0.31 8  257 211 
 ROSC BN ES       1153 50.27                             117    0.40 8  257 211 
 ROSC HZ I        1153 55.44        54.5 0.45                           257 211 
 HEL  HZ EP       1153 21.59                             115    0.15 8  274 255 
 HEL  HN ES       1153 53.44                             115    0.33 8  274 255 
 HEL  HZ I        1154  1.02        21.5 0.38                           274 255 
 URE  HZ EP       1153 21.25                             114   -0.74 7  283 291 
 URE  HE ES       1153 52.36                             114   -1.71 7  283 291 
 URE  HZ I        1153 58.69        20.0 0.18                           283 291 
 SOCV BZ EP   4   1153 23.58                             113   -0.17 0  298  58 
 SOCV BN ES   4   1153 56.83                             113   -0.38 0  298  58 
 GUY2CHZ EP       1153 24.69                             113   -0.29 7  304 234 
 GUY2CHN ES       1154  0.19                             113    0.79 7  304 234 
 GUY2CHZ I        1154  7.14        24.5 0.66                           304 234 
 VIL  EZ EP       1153 24.76                             112   -0.19 7  308 192 
 VIL  EN ES       1153 58.90                             112   -0.44 7  308 192 
 VIL  EZ I        1154  7.95        37.0 0.54                           308 192 
 PTGC HZ IP   9   1153 24.01                             112   -1.31 0  313 159 
 PTGC HN ES       1153 57.67                             110   -1.03 7  313 159 
 PTGC HZ I        1154  2.14        19.4 0.24                           313 159 
 LL6C HZ EP       1153 26.19                             111   -0.02 7  320 357 
 LL6C HN ES   2   1154  0.96                             111   -0.63 3  320 357 
 ELA  HZ EP       1153 28.52                             111    0.27 7  332 229 
 ELA  HN ES       1154  5.78                             111    0.57 7  332 229 
 ELA  HZ I        1154 17.28        15.3 0.64                           332 229 
 CBOC HZ EP       1153 29.00                             110    0.85 7  336 251 
 CBOC HN ES       1154  5.84                             110    0.80 7  336 251 
 CBOC HZ I        1154 15.46         6.7 0.54                           336 251 
 DBB  EZ EP       1153 29.02                             110    0.50 7  340 273 
 DBB  EZ ES       1154  6.29                             110    0.60 7  340 273 
 DBB  EZ I        1154  8.37        10.7 0.46                           340 273 
 ANIL HZ EP       1153 31.36                             109    0.14 6  361 224 
 ANIL HN ES       1154 10.73                             109    0.23 6  361 224 
 ANIL HZ I        1154 16.98        54.7 0.38                           361 224 
 PRA  HZ EP       1153 34.58                             107   -0.41 6  396 209 
 PRA  HN ES       1154 16.82                             107   -0.40 6  396 209 
 PRA  HZ I        1154 22.99        29.4 0.46                           396 209 
 SJC  HZ EP   4   1153 35.04                             106   -1.10 0  406 327 
 SJC  HN ES   4   1154 16.04                             106   -3.23 0  406 327 
 SJC  HZ I        1154 20.12         8.1 0.38                           406 327 
 PAL  HZ EP       1153 36.42                             106   -0.05 6  408 239 
 PAL  HN ES       1154 19.08                             106   -0.76 6  408 239 
 PAL  HZ I        1154 24.28         8.2 0.24                           408 239 
 CRJC HZ EP   9   1153 41.34                             104   -1.59 0  463   4 
 CRJC HN ES       1154 29.42                             102   -0.34 5  463   4 
 CRJC HZ I        1154 30.53        11.4 0.48                           463   4 
 SMAR HZ EP       1153 45.49                             103   -0.84 4  493 346 
 SMAR HN ES   4   1154 35.00                             103   -2.40 0  493 346 
 MACC HZ EP   4   1153 47.87                             102   -2.32 0  525 189 
 MACC HN ES   4   1154 39.88                             102   -4.39 0  525 189 
                                                                                
