 2010 1220 1045  1.3 L   6.778 -73.132147.0  RSN  8 0.3 2.1LRSN                1
 GAP=160        0.61       4.0     7.6  6.0 -0.1840E+02  0.2125E+02 -0.8380E+01E
 Epicentro: LOS SANTOS - SANTANDER                                             3
 ACTION:UP  11-01-14 15:26 OP:pat  STATUS:               ID:20101220104501 L   I
 2010-12-20-1043-25S.COL___133                                                 6
 STAT SP IPHASW D HRMM SECON CODA AMPLIT PERI AZIMU VELO SNR AR TRES W  DIS CAZ7
 BAR2 SZ EP       1045 21.13                             171     0.110   21 196 
 BAR2 SZ ES   1   1045 36.45                             171     0.0 7   21 196 
 BAR2 SZ I        1045 37.97        49.7 0.47                            21 196 
 RUS  HZ EP   1   1045 24.90                             145    -0.1 7   98 177 
 RUS  HN ES   1   1045 43.40                             145    -0.1 7   98 177 
 RUS  HZ I        1045 44.90        16.6 0.13                            98 177 
 GRA  SZ IP       1045 26.89                             137     0.110  128  16 
 GRA  SZ I        1045 52.74        10.6 0.05                           128  16 
 OCA  SZ EP   1   1045 29.47                             129    -0.5 7  163 353 
 OCA  SZ I        1045 57.64        23.0 0.36                           163 353 
 NOR  SZ EP   1   1045 37.56                             119     0.5 6  235 235 
 NOR  SN ES   2   1046  4.90                             119    -0.1 4  235 235 
 CHI  HZ EP   1   1045 39.11                             118     0.3 6  247 196 
 CHI  HE ES   2   1046  8.11                             118     0.0 4  247 196 
 CHI  HZ I        1046 16.25         6.7 0.34                           247 196 
 RREF HN ES   2   1046 23.80                             111     0.4 3  321 230 
 RREF HZ I        1046 30.66         9.3 0.42                           321 230 
 PRA  HZ EP   1   1045 54.72                             107     0.0 4  391 210 
 PRA  HN ES   1   1046 35.43                             107    -0.9 4  391 210 
                                                                                
