 2012  520 1632 38.2 L   7.228 -73.382118.2  RSN  6 0.3 1.6LRSN                1
 GAP=159        0.66       3.7     5.3  6.3  0.7338E+01  0.5879E+01  0.5161E+01E
 Epicentro: LEBRIJA - SANTANDER                                                3
 ACTION:UP  12-07-05 12:06 OP:pat  STATUS:               ID:20120520163238 L   I
 2012-05-20-1630-00M.COL___200                                                 6
 STAT SP IPHASW D HRMM SECON CODA AMPLIT PERI AZIMU VELO SNR AR TRES W  DIS CAZ7
 BRR  HZ EP       1632 54.78                             161     0.110   39 250 
 BRR  HN ES   1   1633  7.39                             161    -0.1 7   39 250 
 BRR  HZ I        1633  8.34        11.1 0.14                            39 250 
 BAR2 SZ EP       1632 57.37                             146     0.410   74 163 
 BAR2 SZ I        1632 57.38        14.1 0.24                            74 163 
 BAR2 SZ ES   1   1633 11.85                             146     0.3 7   74 163 
 OCA  HE ES   1   1633 16.57                             133    -0.2 7  112   4 
 PTB  HZ EP       1633  2.35                             126    -0.1 9  141 237 
 RUS  HZ EP       1633  3.79                             124    -0.3 9  151 167 
 RUS  HN ES   1   1633 23.81                             124    -0.4 7  151 167 
 ZAR  HZ EP   2   1633  5.20                             121     0.3 5  166 280 
 ZAR  HE ES   2   1633 25.64                             121    -0.1 5  166 280 
 ZAR  HZ I        1633 28.41         3.8 0.26                           166 280 
                                                                                
