 2017 1020 1036 35.6 L   6.799 -73.153141.3  RSN 12 0.4 1.7LRSN                1
 GAP=111        1.02       3.4     3.4  5.6  0.1552E+01  0.5207E+01  0.6200E+01E
 Epicentro: LOS SANTOS - SANTANDER                                             3
 ACTION:UPD 17-11-07 19:34 OP:rebc STATUS:               ID:20171020103635 L   I
 OLDACT:UP  17-10-20 21:39 OP:edw  STATUS:               ID:20171020102417d    3
 OLDACT:UP  17-10-20 21:37 OP:edw  STATUS:               ID:20171020102417d    3
 OLDACT:DUP 17-10-20 21:23 OP:edw  STATUS:               ID:20171020102417d    3
 OLDACT:UP  17-10-20 21:18 OP:edw  STATUS:               ID:20171020102416d    3
 OLDACT:UP  17-10-20 21:15 OP:edw  STATUS:               ID:20171020102416d    3
 OLDACT:DUP 17-10-20 21:10 OP:edw  STATUS:               ID:20171020102416d    3
 2017-10-20-1028-00M.COL___447                                                 6
 STAT SP IPHASW D HRMM SECON CODA AMPLIT PERI AZIMU VELO AIN AR TRES W  DIS CAZ7
 BAR2 EZ EP       1036 54.49                             170   -0.1610 23.1 188 
 BAR2 EZ ES       1037  9.20                             170   -0.3410 23.1 188 
 BAR2 EZ I        1037 11.67        11.4 0.26            168           23.1 188 
 BRR  HZ EP       1036 56.21                             152    0.0210 70.5 299 
 BRR  HN ES       1037 13.04                             152    0.7610 70.5 299 
 BRR  HZ I        1037 17.15        12.3 0.56            153           70.5 299 
 PAM  EZ EP       1036 57.37                             150    0.0310 78.0  40 
 PAM  EN ES       1037 14.16                             150   -0.1710 78.0  40 
 PAM  EZ I        1037 16.94         3.8 0.48            155           78.0  40 
 RUS  HZ EP       1036 58.60                             143   -0.2710  101 176 
 RUS  HN ES       1037 17.47                             143    0.4110  101 176 
 RUS  HZ I        1037 18.88         8.8 0.36            143            101 176 
 PTB  HZ EP       1037  1.23                             131   -0.86 9  147 259 
 PTB  HN ES       1037 21.91                             131   -0.88 9  147 259 
 PTB  HZ I        1037 24.10         9.0 0.80            132            147 259 
 YPLC HZ EP       1037  5.00                             126   -0.06 9  177 151 
 YPLC HN ES       1037 28.46                             126    0.38 9  177 151 
 YPLC HZ I        1037 31.52         8.4 0.24            127            177 151 
 ZAR  HZ EP       1037  8.29                             121    0.65 9  203 292 
 ZAR  HN ES       1037 32.80                             121    0.13 9  203 292 
 ZAR  HZ I        1037 37.77         7.1 0.46            123            203 292 
 TABC EZ EP   2   1037 11.12                             118    0.13 4  229 211 
 NOR  HZ EP       1037 11.14                             118    0.19 8  234 234 
 NOR  HN ES       1037 38.88                             118    0.32 8  234 234 
 NOR  HZ I        1037 43.56         3.9 0.20            119            234 234 
 CHI  HZ EP       1037 12.96                             116   -0.02 8  248 195 
 CHI  HE ES       1037 41.82                             116   -0.35 8  248 195 
 CHI  HZ I        1037 53.56         2.2 0.60            118            248 195 
 GUY2CHZ EP   4   1037 20.13                             112    1.25 0  300 235 
 GUY2CHN ES       1037 53.14                             112    0.47 7  300 235 
 GUY2CHZ I        1037 58.85         2.3 0.28                           300 235 
 PRA  HZ EP       1037 28.89                             106    0.02 6  392 209 
 PRA  HE ES       1038 10.63                             106    0.18 6  392 209 
 PRA  HZ I        1038 15.89         2.0 0.24            107            392 209 
                                                                                
