 2014 1020 1122 10.0 L   6.800 -73.163144.2  RSN  9 0.5 1.8LRSN                1
 GAP=134        1.15       4.0     4.9  7.6 -0.3152E+00  0.7015E+01 -0.2789E+01E
 Epicentro: LOS SANTOS - SANTANDER                                             3
 ACTION:UPD 14-11-29 23:51 OP:nd   STATUS:               ID:20141020112210 L   I
 OLDACT:REG 14-10-21 06:47 OP:fm   STATUS:               ID:20141020111946     3
 2014-10-20-1119-46M.COL___259                                                 6
 STAT SP IPHASW D HRMM SECON CODA AMPLIT PERI AZIMU VELO AIN AR TRES W  DIS CAZ7
 BAR2 SZ EP       1122 30.01                             170    0.5710 23.0 185 
 BAR2 SZ ES   1   1122 45.35                             170    0.75 7 23.0 185 
 BAR2 SZ I        1122 46.11        17.2 0.16            171           23.0 185 
 BRR  HE ES       1122 47.62                             153    0.4410 69.6 299 
 BRR  HZ I        1122 51.59         7.9 0.48            148           69.6 299 
 PAM  SZ EP       1122 32.76                             150    0.6310 78.6  41 
 PAM  SN ES       1122 48.64                             150   -0.7510 78.6  41 
 PAM  SZ I        1122 52.18         7.1 0.68            152           78.6  41 
 RUS  HZ EP       1122 33.47                             143   -0.1510  101 175 
 RUS  HE ES       1122 51.49                             143   -0.5310  101 175 
 RUS  HZ I        1122 53.51         5.6 0.34            148            101 175 
 PTB  HZ EP       1122 36.45                             132   -0.23 9  146 259 
 PTB  HN ES       1122 57.12                             132   -0.36 9  146 259 
 PTB  HZ I        1123  2.16         4.7 0.16            131            146 259 
 SPBC HZ EP       1122 38.65                             129    0.38 9  162 218 
 SPBC HE ES       1123  0.22                             129   -0.10 9  162 218 
 SPBC HZ I        1123  1.86         7.7 0.22            130            162 218 
 ZAR  HE ES       1123  7.30                             122    0.04 9  202 292 
 ZAR  HZ I        1123 14.39         6.0 0.42            121            202 292 
 SML  HZ EP       1122 45.96                             117   -0.51 8  243 336 
 SML  HE ES       1123 14.82                             117   -0.08 8  243 336 
 SML  HZ I        1123 21.49         6.9 0.26            117            243 336 
 URE  HE ES   4   1123 32.40                             113    9.77 0  282 292 
 URE  HZ I        1123 34.99         7.7 0.18            113            282 292 
                                                                                
