 2011  520 1144 16.2 L   6.807 -73.065141.6  RSN  8 0.3 1.4LRSN                1
 GAP=147        0.71       4.1     7.8  5.9  0.1023E+01 -0.2178E+02 -0.5040E+01E
 Epicentro: LOS SANTOS - SANTANDER                                             3
 ACTION:UP  11-06-29 08:54 OP:tino STATUS:               ID:20110520114416 L   I
 2011-05-20-1143-18S.COL___140                                                 6
 STAT SP IPHASW D HRMM SECON CODA AMPLIT PERI AZIMU VELO SNR AR TRES W  DIS CAZ7
 BTL  SZ EP       1144 35.55                             169     0.210   26 299 
 BTL  SZ ES   1   1144 49.66                             169    -0.7 7   26 299 
 BAR2 SZ EP       1144 35.23                             169    -0.210   27 209 
 BAR2 SZ ES   1   1144 50.33                             169     0.0 7   27 209 
 BAR2 SZ I        1144 52.99        10.7 0.21                            27 209 
 GIR2 SZ EP       1144 35.33                             166    -0.110   33 335 
 GIR2 SZ ES   1   1144 50.45                             166     0.0 7   33 335 
 PAM  SZ EP       1144 37.90                             152     0.310   71  34 
 BRR  HZ EP       1144 37.18                             149    -0.210   79 295 
 BRR  HN ES   1   1144 54.29                             149     0.5 7   79 295 
 RUS  HZ EP       1144 39.40                             143    -0.210  101 181 
 RUS  HN ES   1   1144 58.13                             143     0.3 7  101 181 
 RUS  HZ I        1144 59.94         2.7 0.39                           101 181 
 BRI  SZ EP       1144 39.55                             141     0.210  105  16 
 GRA  SZ EP       1144 40.58                             137    -0.210  123  14 
 GRA  SZ I        1144 42.11         4.4 0.45                           123  14 
                                                                                
