 2011  820 1218 11.5 L   6.792 -73.069143.9  RSN  9 0.4 2.4LRSN                1
 GAP=191        0.75       3.0     5.4  5.5 -0.2552E+01  0.7138E+01  0.1985E+01E
 Epicentro: LOS SANTOS - SANTANDER                                             3
 ACTION:UPD 12-07-13 15:52 OP:ep   STATUS:               ID:20110820121811 L   I
 2011-08-20-1217-09S.COL___152                                                 6
 STAT SP IPHASW D HRMM SECON CODA AMPLIT PERI AZIMU VELO AIN AR TRES W  DIS CAZ7
 BAR2 SZ IP       1218 31.08                             170    0.1710 25.4 210 
 BAR2 SZ I        1218 31.26        47.5 0.12                          25.4 210 
 BAR2 SZ ES   1   1218 45.73                             170   -0.34 7 25.4 210 
 BRR  HZ IP     C 1218 32.91                             150    0.0410 79.1 296 
 BRR  HN ES   1   1218 49.98                             150    0.40 7 79.1 296 
 BRR  HZ I        1218 54.57        47.3 0.16                          79.1 296 
 RUS  HZ EP       1218 34.92                             144   -0.0310 99.5 181 
 RUS  HN ES   1   1218 53.45                             144    0.19 7 99.5 181 
 RUS  HZ I        1218 54.52        24.4 0.28                          99.5 181 
 OCA  SZ EP       1218 39.94                             129    0.12 9  162 350 
 OCA  SZ ES   1   1219  1.41                             129   -0.53 7  162 350 
 OCA  SZ I        1219  5.77        35.3 0.27                           162 350 
 NOR  SZ EP   1   1218 46.86                             117   -0.92 6  241 236 
 NOR  SN ES   1   1219 15.49                             117   -0.62 6  241 236 
 CHI  HZ EP   1   1218 49.10                             117   -0.12 6  250 197 
 CHI  HZ I        1218 51.41         7.9 0.08                           250 197 
 CHI  HN ES   1   1219 19.14                             117    0.47 6  250 197 
 HEL  HZ EP   1   1218 53.24                             114    0.77 6  280 256 
 HEL  HN ES   2   1219 25.04                             114    0.58 4  280 256 
 HEL  HZ I        1219 30.09         7.8 0.18                           280 256 
 RREF HZ EP   1   1218 58.69                             110    0.49 5  328 230 
 RREF HN ES   1   1219 34.73                             110    0.07 5  328 230 
 RREF HZ I        1219 40.75        16.2 0.25                           328 230 
 PRA  HZ EP   1   1219  5.04                             106   -0.29 4  396 211 
 PRA  HZ I        1219  6.98        52.4 0.22                           396 211 
 PRA  HN ES   1   1219 46.53                             106   -0.81 4  396 211 
                                                                                
