 2017  120 1113  0.3 L   6.752 -73.139145.4  RSN  4 0.4 1.1LRSN                1
 GAP=139        0.88       4.7     4.3  9.6 -0.6463E+00  0.1360E+02 -0.1845E+01E
 Epicentro: LOS SANTOS - SANTANDER                                             3
 ACTION:UPD 17-05-22 16:01 OP:jn   STATUS:               ID:20170120111300 L   I
 OLDACT:UP  17-01-20 21:45 OP:cog  STATUS:               ID:20170120110741     3
 OLDACT:REG 17-01-20 20:30 OP:cog  STATUS:               ID:20170120110741     3
 2017-01-20-1108-00M.COL___310                                                 6
 STAT SP IPHASW D HRMM SECON CODA AMPLIT PERI AZIMU VELO AIN AR TRES W  DIS CAZ7
 PAM  EZ EP       1113 22.98                             149    0.2510 81.2  37 
 PAM  EE ES       1113 39.92                             149   -0.2810 81.2  37 
 PAM  EZ I        1113 41.86         4.0 0.50            152           81.2  37 
 RUS  HZ EP       1113 23.64                             145   -0.0110 95.2 176 
 RUS  HN ES       1113 42.14                             145    0.2910 95.2 176 
 RUS  HZ I        1113 43.29         0.9 0.36            147           95.2 176 
 PTB  HZ EP       1113 26.82                             132   -0.41 9  148 261 
 PTB  HE ES       1113 47.85                             132   -0.37 9  148 261 
 PTB  HZ I        1113 49.95         1.7 0.12            134            148 261 
 ZAR  HE ES       1113 59.13                             122    0.60 8  207 293 
                                                                                
