 2016  520 1030 39.5 L   6.774 -73.133140.0  RSN  8 0.3 1.7LRSN                1
 GAP=237        0.66       3.2     4.7  4.6  0.1345E+01  0.6075E+01  0.4806E+01E
 Epicentro: LOS SANTOS - SANTANDER                                             3
 ACTION:UPD 16-08-18 17:47 OP:cam  STATUS:               ID:20160520103039 L   I
 OLDACT:DUP 16-05-20 23:25 OP:ar   STATUS:               ID:20160520102749d    3
 OLDACT:UP  16-05-20 22:59 OP:ar   STATUS:               ID:20160520102748     3
 OLDACT:REG 16-05-20 21:12 OP:ar   STATUS:               ID:20160520102748     3
 2016-05-20-1027-48M.COL___306                                                 6
 STAT SP IPHASW D HRMM SECON CODA AMPLIT PERI AZIMU VELO AIN AR TRES W  DIS CAZ7
 BAR2 EZ EP       1030 58.12                             171   -0.2910 20.8 195 
 BAR2 EZ ES       1031 12.79                             171   -0.3510 20.8 195 
 BAR2 EZ I        1031 14.21         9.1 0.20            167           20.8 195 
 BRR  HZ EP       1031  0.01                             151   -0.2010 73.9 300 
 BRR  HN ES       1031 16.83                             151    0.4910 73.9 300 
 BRR  HZ I        1031 21.23         9.2 0.14            149           73.9 300 
 RUS  HZ EP       1031  2.66                             143    0.1710 97.6 177 
 RUS  HN ES       1031 20.71                             143    0.3110 97.6 177 
 RUS  HZ I        1031 22.07         7.1 0.28            145           97.6 177 
 SPBC HZ EP       1031  7.53                             128    0.07 9  162 220 
 SPBC HN ES       1031 28.97                             128   -0.27 9  162 220 
 SPBC HZ I        1031 34.68         9.2 0.24            128            162 220 
 NOR  HZ EP   2   1031 15.51                             117    0.64 4  234 235 
 NOR  HN ES   2   1031 41.99                             117   -0.45 4  234 235 
 NOR  HZ I        1031 43.94         4.1 0.16            118            234 235 
 CHI  HN ES       1031 45.54                             116   -0.05 8  246 196 
 HEL  HZ EP   2   1031 19.18                             113   -0.35 4  273 256 
 HEL  HN ES   2   1031 50.41                             113   -0.32 4  273 256 
 HEL  HZ I        1031 53.02         2.6 0.38            114            273 256 
 PRA  HZ EP       1031 32.77                             106    0.14 6  390 210 
 PRA  HN ES       1032 14.32                             106    0.26 6  390 210 
 PRA  HZ I        1032 19.76         2.1 0.50            107            390 210 
                                                                                
