 2016 1220 1308  3.5 L   6.849 -73.359148.0  RSN  7 0.2 1.3LRSN                1
 GAP=107        0.82       5.4     7.5  6.4 -0.1843E+02 -0.6477E+01  0.1829E+01E
 Epicentro: SAN VICENTE DE CHUCURI - SANTANDER                                 3
 ACTION:UPD 17-01-11 20:17 OP:rebc STATUS:               ID:20161220130802 L   I
 OLDACT:UP  16-12-26 16:20 OP:nlst STATUS:               ID:20161220130802 L   3
 OLDACT:REG 16-12-20 20:16 OP:edw  STATUS:               ID:20161220125750     3
 2016-12-20-1258-00M.COL___366                                                 6
 STAT SP IPHASW D HRMM SECON CODA AMPLIT PERI AZIMU VELO AIN AR TRES W  DIS CAZ7
 BAR2 EZ EP       13 8 23.26                             166   -0.3710 34.4 145 
 BAR2 EZ ES       13 8 39.58                             166    0.2210 34.4 145 
 BAR2 EZ I        13 8 41.87         5.9 0.22            169           34.4 145 
 BRR  HN ES   2   13 8 39.73                             161    0.14 5 48.4 306 
 PAM  EZ EP       13 8 26.97                             147    0.2110 90.8  53 
 PAM  EN ES       13 8 44.66                             147   -0.2710 90.8  53 
 PAM  EZ I        13 8 45.56         2.1 0.20            152           90.8  53 
 RUS  HZ EP       13 8 28.28                             142    0.1510  110 164 
 RUS  HN ES       13 8 47.33                             142   -0.0410  110 164 
 RUS  HZ I        13 8 47.97         2.8 0.40            143            110 164 
 PTB  HZ EP   9   13 8 31.56                             137    2.83 0  126 254 
 PTB  HN ES       13 8 50.56                             130   -0.7110  126 254 
 PTB  HZ I        13 8 55.90         2.3 0.22            130            126 254 
 NOR  HZ EP   4   13 8 34.03                             121   -3.67 0  219 230 
 NOR  HN ES   2   13 9  4.76                             121    0.35 4  219 230 
 NOR  HZ I        13 9 11.61         1.7 0.18            117            219 230 
 CHI  HZ EP   4   13 8 42.44                             118    1.14 0  249 190 
 CHI  HN ES   4   13 9 12.36                             118    1.54 0  249 190 
 CHI  HZ I        13 9 15.40         1.3 0.74            116            249 190 
                                                                                
