 2010 1220 1017  2.3 L   6.586 -72.861  0.0  RSN  9 0.5 2.6LRSN                1
 GAP=158        1.06       4.0     8.9  9.9 -0.8778E+01  0.5575E+02 -0.5881E+01E
 Epicentro: MOLAGAVITA - SANTANDER                                             3
 ACTION:UP  11-01-14 15:26 OP:pat  STATUS:               ID:20101220101702 L   I
 2010-12-20-1015-05S.COL___133                                                 6
 STAT SP IPHASW D HRMM SECON CODA AMPLIT PERI AZIMU VELO SNR AR TRES W  DIS CAZ7
 GRA  SZ EP   1   1017 24.67                              47    -0.8 7  144   3 
 GRA  SZ I        1017 48.44        32.2 0.31                           144   3 
 YOP  SZ EP   1   1017 25.39                              47    -0.2 7  145 160 
 YOP  SZ I        1017 46.84        33.5 0.38                           145 160 
 OCA  SZ EP   1   1017 32.56                              37     0.4 7  190 345 
 OCA  SZ ES   1   1017 56.26                              37     0.9 7  190 345 
 CHI  HZ EP   1   1017 38.25                              37    -0.1 6  237 204 
 CHI  HZ I        1017 41.44        73.1 1.11                           237 204 
 CHI  HN ES   1   1018  7.35                              37     0.9 6  237 204 
 NOR  SZ EP   1   1017 38.82                              37    -0.7 6  250 243 
 NOR  SN ES   1   1018  8.60                              37     0.1 6  250 243 
 HEL  HZ EP   1   1017 45.55                              36    -0.5 5  298 262 
 HEL  HE ES   1   1018 19.46                              36    -0.6 5  298 262 
 HEL  HZ I        1018 23.45        41.5 0.12                           298 262 
 GUY  SZ EP   1   1017 48.53                              36     0.3 5  316 242 
 GUY  SZ I        1018 29.79        40.5 0.31                           316 242 
 RREF HZ EP   1   1017 50.63                              36     0.1 5  333 236 
 RREF HZ I        1018 35.17        19.2 0.66                           333 236 
 PRA  HZ EP   1   1017 57.23                              36     0.4 4  389 215 
                                                                                
