 2011  220 1243 30.6 L   6.798 -73.120138.0  RSN  9 0.4 2.1LRSN                1
 GAP=162        1.07       5.5     9.6  9.5 -0.2303E+02  0.4786E+02 -0.8351E+01E
 Epicentro: LOS SANTOS - SANTANDER                                             3
 ACTION:UP  11-03-28 15:09 OP:jfem STATUS:               ID:20110220124330 L   I
 2011-02-20-1241-29S.COL___137                                                 6
 STAT SP IPHASW D HRMM SECON CODA AMPLIT PERI AZIMU VELO SNR AR TRES W  DIS CAZ7
 BTL  SZ IP       1243 49.94                             171     0.610   21 309 
 BAR2 SZ IP       1243 49.53                             170     0.210   24 197 
 BAR2 SZ I        1243 49.78        39.6 0.20                            24 197 
 BAR2 SZ ES   1   1244  4.15                             170     0.2 7   24 197 
 RUS  HZ EP       1243 53.45                             143    -0.210  100 178 
 RUS  HN ES   1   1244 11.41                             143    -0.1 7  100 178 
 RUS  HZ I        1244 12.82        19.7 0.30                           100 178 
 GRA  SZ IP       1243 54.53                             136    -0.610  125  16 
 GRA  SZ ES   1   1244 14.22                             136     0.0 7  125  16 
 GRA  SZ I        1244 14.93        13.0 0.36                           125  16 
 NOR  SZ EP       1244  5.55                             117    -0.6 8  237 235 
 NOR  SN ES   1   1244 33.28                             117    -0.6 6  237 235 
 CHI  HZ EP       1244  8.23                             116     0.2 8  249 196 
 CHI  HN ES   2   1244 37.04                             116    -0.1 4  249 196 
 CHI  HZ I        1244 47.21         5.9 0.27                           249 196 
 HEL  HZ EP   1   1244 11.53                             113     0.8 6  275 256 
 HEL  HZ I        1244 48.45        10.3 0.40                           275 256 
 RREF HZ EP   2   1244 16.97                             109     0.3 3  324 230 
 RREF HZ I        1244 59.07         6.5 0.59                           324 230 
 DBB  SZ EP       1244 18.43                             108     0.3 7  342 274 
                                                                                
