 2011  720 1115  9.4 L   6.792 -73.062134.6  RSN  5 0.2 1.6LRSN                1
 GAP=165        0.38       2.2     5.0  4.3 -0.1271E+01 -0.8542E+01  0.7315E+00E
 Epicentro: LOS SANTOS - SANTANDER                                             3
 ACTION:UPD 12-07-25 14:02 OP:epov STATUS:               ID:20110720111509 L   I
 2011-07-20-1111-47S.COL___142                                                 6
 STAT SP IPHASW D HRMM SECON CODA AMPLIT PERI AZIMU VELO AIN AR TRES W  DIS CAZ7
 BAR2 SZ EP   1   1115 27.58                             169   -0.19 7 25.7 211 
 BAR2 SZ ES   1   1115 41.79                             169   -0.29 7 25.7 211 
 BAR2 SZ I        1115 43.67        13.0 0.14                          25.7 211 
 GIR2 SZ EP   1   1115 27.83                             165   -0.06 7 34.9 335 
 GIR2 SZ ES   1   1115 42.33                             165    0.05 7 34.9 335 
 BRR  HN ES   1   1115 46.02                             147    0.11 7 79.8 296 
 BRR  HZ I        1115 50.27        16.9 0.17                          79.8 296 
 RUS  HZ EP   1   1115 32.10                             142    0.09 7 99.5 181 
 RUS  HN ES   1   1115 49.84                             142    0.21 7 99.5 181 
 RUS  HZ I        1115 51.71         3.6 0.24                          99.5 181 
 BRI  SZ EP   1   1115 32.07                             139   -0.04 7  106  16 
 BRI  SZ ES   1   1115 49.93                             139    0.13 7  106  16 
 BRI  SZ I        1115 52.26         5.7 0.51                           106  16 
                                                                                
