 2017 1020 1830 11.2 L   6.791 -73.138145.0  RSN 16 0.4 2.2LRSN                1
 GAP=100        1.03       3.2     3.2  5.2 -0.1158E+00  0.2348E+01  0.4646E+01E
 Epicentro: LOS SANTOS - SANTANDER                                             3
 ACTION:UPD 17-11-07 19:34 OP:rebc STATUS:               ID:20171020183011 L   I
 OLDACT:UP  17-10-21 01:21 OP:edw  STATUS:               ID:20171020182740     3
 OLDACT:UP  17-10-21 01:21 OP:edw  STATUS:               ID:20171020182740     3
 OLDACT:REG 17-10-20 20:32 OP:edw  STATUS:               ID:20171020182740     3
 2017-10-20-1828-00M.COL___450                                                 6
 STAT SP IPHASW D HRMM SECON CODA AMPLIT PERI AZIMU VELO AIN AR TRES W  DIS CAZ7
 BAR2 EZ EP       1830 30.51                             171   -0.2210 22.6 193 
 BAR2 EZ ES       1830 45.92                             171   -0.0310 22.6 193 
 BAR2 EZ I        1830 46.58        42.2 0.34            168           22.6 193 
 BRR  HZ EP       1830 32.37                             152    0.0310 72.4 299 
 BRR  HE ES       1830 49.61                             152    0.7910 72.4 299 
 BRR  HZ I        1830 53.16        37.1 0.46            151           72.4 299 
 PAM  EZ EP       1830 33.63                             151    0.2810 77.6  39 
 PAM  EN ES       1830 50.45                             151   -0.1710 77.6  39 
 PAM  EZ I        1830 52.71        57.2 0.50            155           77.6  39 
 RUS  HZ EP       1830 34.39                             144   -0.4210 99.6 177 
 RUS  HE ES       1830 53.39                             144    0.1710 99.6 177 
 RUS  HZ I        1830 54.25        29.8 0.26            144           99.6 177 
 PTB  HZ EP       1830 37.59                             132   -0.58 9  148 259 
 PTB  HN ES       1830 58.66                             132   -0.54 9  148 259 
 PTB  HZ I        1831  3.02        10.0 0.18            132            148 259 
 TAM  HZ IP       1830 38.93                             131    0.21 9  154 105 
 SPBC HZ EP       1830 39.45                             129   -0.18 9  163 219 
 SPBC HN ES       1831  1.00                             129   -0.79 9  163 219 
 SPBC HZ I        1831  7.32        26.6 0.10            129            163 219 
 YPLC HZ EP       1830 40.93                             127    0.11 9  176 151 
 YPLC HN ES       1831  3.79                             127   -0.13 9  176 151 
 YPLC HZ I        1831  7.71        21.7 0.28            129            176 151 
 ZAR  HZ EP       1830 44.16                             122    0.44 9  205 292 
 ZAR  HN ES       1831  8.58                             122   -0.50 9  205 292 
 ZAR  HZ I        1831 15.27        11.5 0.20            123            205 292 
 NOR  HZ EP       1830 47.26                             118    0.36 8  235 235 
 NOR  HN ES       1831 15.51                             118    0.76 8  235 235 
 NOR  HZ I        1831 20.36         8.7 0.28            119            235 235 
 CHI  HZ EP       1830 48.81                             117    0.03 8  248 195 
 CHI  HN ES   1   1831 17.72                             117   -0.38 6  248 195 
 CHI  HZ I        1831 21.51        11.2 0.40            118            248 195 
 ROSC BZ EP   4   1830 51.17                             116    1.93 0  252 211 
 ROSC BN ES       1831 19.90                             116    0.99 8  252 211 
 ROSC BZ I        1831 24.29        23.3 0.40            117            252 211 
 GUY2CHZ EP   4   1830 56.45                             112    1.66 0  301 235 
 GUY2CHN ES   4   1831 31.44                             112    2.64 0  301 235 
 GUY2CHZ I        1831 34.67         4.3 0.32                           301 235 
 DBB  EN ES   4   1831 33.32                             109   -2.53 0  340 274 
 PRA  HZ EP       1831  4.55                             106   -0.10 6  392 210 
 PRA  HN ES       1831 46.20                             106   -0.14 6  392 210 
 PRA  HZ I        1831 51.25         7.9 0.40            107            392 210 
 ORTC HZ EP       1831  4.92                             106   -0.15 6  395 216 
 ORTC HN ES       1831 47.49                             106    0.41 6  395 216 
 ORTC HZ I        1831 51.97         5.2 0.58            107            395 216 
 SJC  HZ EP   4   1831  4.70                             105   -2.19 0  410 327 
 SJC  HN ES   4   1831 46.15                             105   -4.17 0  410 327 
 SJC  HZ I        1831 50.16         3.7 0.74            107            410 327 
 CRJC HZ EP   4   1831 11.02                             103   -2.77 0  469   3 
 CRJC HN ES   4   1831 59.97                             103   -2.63 0  469   3 
                                                                                
