 2010 1120 1935 32.6 L   6.798 -73.088142.0  RSN  6 0.3 2.2LRSN                1
 GAP=165        0.87       4.6     9.5 10.8 -0.6952E+00 -0.5185E+02 -0.1157E+01E
 Epicentro: LOS SANTOS - SANTANDER                                             3
 ACTION:UP  10-12-17 16:53 OP:REBC STATUS:               ID:20101120193532 L   I
 2010-11-20-1933-10S.COL___132                                                 6
 STAT SP IPHASW D HRMM SECON CODA AMPLIT PERI AZIMU VELO SNR AR TRES W  DIS CAZ7
 BTL  SZ EP       1935 52.15                             170     0.410   24 304 
 BAR2 SZ EP       1935 51.95                             170     0.210   25 205 
 BAR2 SZ I        1936  9.34        55.1 0.28                            25 205 
 BRR  HZ EP       1935 53.34                             150    -0.310   77 296 
 BRR  HN ES       1936 10.14                             150     0.010   77 296 
 RUS  HZ EP       1935 55.51                             143    -0.410  100 180 
 RUS  HN ES   1   1936 14.31                             143     0.2 7  100 180 
 RUS  HZ I        1936 15.96        18.1 0.11                           100 180 
 GUE  SZ EP   1   1935 57.41                             139     0.5 7  116   9 
 GRA  SZ EP       1935 57.27                             137    -0.110  124  15 
 GRA  SZ ES   1   1936 16.31                             137    -0.4 7  124  15 
 GRA  SZ I        1936 17.67        17.1 1.30                           124  15 
                                                                                
