 2016  520 1035 12.7 L   6.799 -73.141147.5  RSN 26 0.4 2.8LRSN                1
 GAP= 55        0.92       2.1     2.4  3.8 -0.7409E+00  0.1546E+01  0.6848E+00E
 Epicentro: LOS SANTOS - SANTANDER                                             3
 ACTION:UPD 16-08-18 17:47 OP:cam  STATUS:               ID:20160520103512 L   I
 OLDACT:UP  16-05-24 15:33 OP:dnl  STATUS:               ID:20160520103512 L   3
 OLDACT:UP  16-05-20 22:59 OP:ar   STATUS:               ID:20160520102748     3
 OLDACT:REG 16-05-20 21:12 OP:ar   STATUS:               ID:20160520102748     3
 2016-05-20-1027-48M.COL___306                                                 6
 STAT SP IPHASW D HRMM SECON CODA AMPLIT PERI AZIMU VELO AIN AR TRES W  DIS CAZ7
 BAR2 EZ IP     D 1035 32.46                             171   -0.0410 23.3 191 
 BAR2 EZ ES       1035 47.60                             171   -0.3710 23.3 191 
 BAR2 EZ I        1035 50.13       209.7 0.30            170           23.3 191 
 BRR  HZ IP     C 1035 34.31                             153    0.2910 71.7 298 
 BRR  HN ES       1035 51.30                             153    0.6110 71.7 298 
 BRR  HZ I        1035 55.01       136.3 0.40            150           71.7 298 
 PAM  EZ EP       1035 35.43                             151    0.3810 77.1  39 
 PAM  EN ES       1035 52.39                             151   -0.1210 77.1  39 
 PAM  EZ I        1035 54.73        88.9 0.38            153           77.1  39 
 RUS  HZ EP       1035 36.40                             144   -0.1710  100 176 
 RUS  HN ES       1035 55.19                             144   -0.0310  100 176 
 RUS  HZ I        1035 56.52        64.0 0.28            146            100 176 
 PTB  HZ EP       1035 39.51                             132   -0.30 9  148 259 
 PTB  HN ES       1036  0.49                             132   -0.50 9  148 259 
 PTB  HZ I        1036  6.50        77.5 0.42            131            148 259 
 TAM  HZ EP       1035 40.90                             131    0.47 9  155 105 
 TAM  HN ES       1036  2.37                             131    0.28 9  155 105 
 TAM  HZ I        1036  4.91        40.6 0.26            134            155 105 
 OCA  HZ EP       1035 40.49                             130   -0.63 9  160 353 
 OCA  HN ES       1036  3.33                             130    0.01 9  160 353 
 OCA  HZ I        1036 10.91       145.4 0.20            130            160 353 
 SPBC HZ EP       1035 41.35                             129    0.04 9  163 219 
 SPBC HN ES       1036  3.68                             129    0.02 9  163 219 
 SPBC HZ I        1036  8.02       117.8 0.42            129            163 219 
 ZAR  HZ EP       1035 45.25                             123   -0.02 9  205 292 
 ZAR  HE ES       1036 10.52                             123   -0.18 9  205 292 
 ZAR  HZ I        1036 15.59        81.5 0.34            122            205 292 
 NOR  HZ EP       1035 48.66                             119    0.13 8  235 235 
 NOR  HE ES       1036 16.15                             119   -0.35 8  235 235 
 NOR  HZ I        1036 23.82        44.4 0.22            119            235 235 
 CHI  HZ EP       1035 50.59                             117    0.13 8  249 195 
 CHI  HN ES       1036 19.83                             117   -0.11 8  249 195 
 CHI  HZ I        1036 23.48        49.3 0.54            118            249 195 
 ROSC BZ EP   9   1035 52.96                             117    2.07 0  253 211 
 ROSC BN ES       1036 22.77                             117   -0.01 8  253 211 
 ROSC BZ I        1036 27.11       130.2 0.40            117            253 211 
 HEL  HZ EP       1035 54.03                             115    1.02 8  273 256 
 HEL  HN ES       1036 24.78                             115    0.30 8  273 256 
 HEL  HZ I        1036 30.81        26.2 0.36            115            273 256 
 URE  HZ EP       1035 52.97                             114   -0.90 7  284 292 
 URE  HE ES   4   1036 23.49                             114   -2.52 0  284 292 
 URE  HZ I        1036 36.12        51.7 0.34            114            284 292 
 LL1C HZ EP   4   1035 57.45                             112    1.10 0  307 351 
 LL1C HN ES   4   1036 33.70                             112    3.27 0  307 351 
 PTGC HZ IP     D 1035 55.61                             112   -0.95 7  308 159 
 PTGC HN ES   4   1036 29.08                             112   -1.73 0  308 159 
 PTGC HZ I        1036 30.89        26.2 0.23            113            308 159 
 LL6C HZ EP   9   1035 56.86                             111   -1.59 0  325 357 
 LL6C HN ES       1036 32.32                             111   -0.26 7  325 357 
 LL6C HZ I        1036 38.37        19.7 0.40            111            325 357 
 ELA  HZ EP   4   1036  4.46                             111    4.84 0  329 230 
 ELA  HN ES   4   1036 37.85                             111    1.60 0  329 230 
 ELA  HZ I        1036 45.10        37.7 0.56            111            329 230 
 CBOC HZ EP   4   1036  0.86                             110    1.16 0  334 252 
 CBOC HE ES   2   1036 35.58                             110   -0.80 3  334 252 
 CBOC HZ I        1036 47.16         9.9 0.22            110            334 252 
 ANIL HZ EP   4   1036  4.20                             109    1.64 0  358 225 
 ANIL HN ES       1036 41.44                             109   -0.05 6  358 225 
 ARGC HZ EP       1036  2.91                             108    0.50 6  359 340 
 ARGC HN ES       1036 41.73                             108    0.51 6  359 340 
 ARGC HZ I        1036 48.05        14.7 0.40            109            359 340 
 SDV  BZ EP       1036  2.06                             108   -0.67 6  360  50 
 SDV  BE ES   4   1036 39.81                             108   -1.97 0  360  50 
 SDV  BZ I        1036 44.54         7.6 0.65            110            360  50 
 PRA  HZ EP       1036  6.12                             107   -0.14 6  392 210 
 PRA  HN ES       1036 48.28                             107    0.22 6  392 210 
 PRA  HZ I        1036 52.60        41.7 0.54            107            392 210 
 ORTC HZ EP       1036  6.83                             107    0.17 6  396 216 
 ORTC HN ES       1036 49.79                             107    1.01 6  396 216 
 ORTC HZ I        1036 53.69        26.0 0.20            107            396 216 
 PAL  HZ EP       1036  7.97                             106    0.05 6  406 239 
 PAL  HN ES   4   1036 50.19                             106   -0.83 0  406 239 
 PAL  HZ I        1036 55.96        11.0 0.22            106            406 239 
 CRJC HZ EP   4   1036 12.79                             104   -2.42 0  468   3 
 CRJC HN ES   4   1037  0.88                             104   -3.13 0  468   3 
 CRJC HZ I        1037  7.54        21.2 0.34            104            468   3 
 MACC HZ EP   4   1036 19.52                             102   -1.89 0  521 189 
 MACC HN ES   4   1037 11.55                             102   -3.48 0  521 189 
 MACC HZ I        1037 16.70        18.0 0.84            102            521 189 
                                                                                
