 2017 1020 1237 12.7 L   6.642 -74.075 15.9  RSN  5 0.4 1.2LRSN                1
 GAP=143        1.01       3.5     2.1  6.5 -0.1896E+01  0.6281E-01  0.1047E+02E
 Epicentro: PUERTO PARRA - SANTANDER                                           3
 ACTION:UPD 17-11-07 19:34 OP:rebc STATUS:               ID:20171020123712 L   I
 OLDACT:REG 17-10-20 19:59 OP:edw  STATUS:               ID:20171020122739     3
 2017-10-20-1228-00M.COL___453                                                 6
 STAT SP IPHASW D HRMM SECON CODA AMPLIT PERI AZIMU VELO AIN AR TRES W  DIS CAZ7
 PTB  HZ IP       1237 20.12                             107   -0.0310 43.7 255 
 PTB  HN ES       1237 25.93                             107   -0.0710 43.7 255 
 PTB  HZ I        1237 26.12        11.2 0.14            106           43.7 255 
 BRR  HZ EP       1237 23.32                             101    0.0110 65.2  38 
 BRR  HN ES       1237 31.80                             101    0.1910 65.2  38 
 BAR2 EZ EP       1237 28.66                              97    0.0710 98.8  93 
 BAR2 EZ ES       1237 40.18                              97   -0.8410 98.8  93 
 BAR2 EZ I        1237 40.66         4.8 0.56             97           98.8  93 
 RUS  HZ EP       1237 35.31                              95    0.63 9  138 127 
 RUS  HN ES       1237 52.23                              95    0.37 9  138 127 
 RUS  HZ I        1237 55.11         8.2 0.22             95            138 127 
 NOR  HN ES       1237 53.03                              56   -0.26 9  148 216 
                                                                                
