 2012  920 1400 29.3 L   6.775 -73.039148.0  RSN  5 0.2 1.6LRSN                1
 GAP=152        0.50       4.6     7.7  6.1  0.1382E+02 -0.1788E+02 -0.7552E+01E
 Epicentro: CEPITA - SANTANDER                                                 3
 ACTION:UPD 12-10-22 14:19 OP:ep   STATUS:               ID:20120920140029 L   I
 2012-09-20-1400-00M.COL___224                                                 6
 STAT SP IPHASW D HRMM SECON CODA AMPLIT PERI AZIMU VELO AIN AR TRES W  DIS CAZ7
 BAR2 SZ EP       14 0 49.15                             170   -0.1210 25.7 218 
 BAR2 SZ ES   1   14 1  4.64                             170   -0.19 7 25.7 218 
 BAR2 SZ I        14 1  7.23        12.0 0.34                          25.7 218 
 PAM  SZ EP   1   14 0 51.73                             153    0.22 7 72.8  31 
 BRR  HZ EP   1   14 0 51.02                             149   -0.39 7 82.9 296 
 BRR  HZ I        14 0 51.44        11.2 0.21                          82.9 296 
 BRR  HN ES   1   14 1  8.96                             149    0.33 7 82.9 296 
 RUS  HZ EP   2   14 0 53.27                             145    0.18 5 97.7 183 
 RUS  HE ES   1   14 1 11.76                             145    0.13 7 97.7 183 
 RUS  HZ I        14 1 13.13         3.0 0.27                          97.7 183 
 CHI  HZ EP   2   14 1  7.38                             118    0.15 4  249 198 
 CHI  HZ I        14 1  9.41         2.0 0.20                           249 198 
                                                                                
