 2011  820 1801  1.5 L   6.823 -73.040145.3  RSN  5 0.4 2.5LRSN                1
 GAP=194        0.75       5.0    13.2  7.7  0.3373E+02 -0.1868E+02 -0.1625E+01E
 Epicentro: CEPITA - SANTANDER                                                 3
 ACTION:UPD 12-07-13 15:52 OP:ep   STATUS:               ID:20110820180101 L   I
 2011-08-20-1759-15S.COL___151                                                 6
 STAT SP IPHASW D HRMM SECON CODA AMPLIT PERI AZIMU VELO AIN AR TRES W  DIS CAZ7
 BAR2 SZ IP     D 18 1 21.56                             168    0.3010 30.0 212 
 BAR2 SZ I        18 1 22.11        27.1 0.19                          30.0 212 
 BAR2 SZ ES   1   18 1 36.14                             168   -0.51 7 30.0 212 
 BRR  HZ IP     C 18 1 23.34                             149    0.1510 80.7 293 
 BRR  HZ I        18 1 23.69        65.0 0.12                          80.7 293 
 BRR  HN ES   1   18 1 40.21                             149    0.12 7 80.7 293 
 RUS  HZ EP   1   18 1 25.68                             143    0.27 7  103 183 
 RUS  HZ I        18 1 41.55        65.9 0.64                           103 183 
 RUS  HN ES   1   18 1 44.17                             143    0.13 7  103 183 
 OCA  SZ ES   1   18 1 51.41                             129   -0.34 7  160 349 
 OCA  SZ I        18 1 56.65        19.7 0.28                           160 349 
 CHI  HZ EP   1   18 1 38.99                             116   -0.84 6  254 198 
 CHI  HZ I        18 2  9.60        70.2 0.64                           254 198 
                                                                                
