 2013  820 2157 38.0 L   6.722 -73.156146.8  RSN  6 0.5 1.8LRSN                1
 GAP=138        1.10       7.2     6.4 10.0  0.3038E+01  0.2083E+01 -0.9583E+01E
 Epicentro: VILLANUEVA - SANTANDER                                             3
 ACTION:UPD 14-01-14 09:05 OP:ep   STATUS:               ID:20130820215738 L   I
 OLDACT:REG 13-08-20 21:21 OP:jn   STATUS:               ID:20130820214959     3
 2013-08-20-2149-59M.COL___269                                                 6
 STAT SP IPHASW D HRMM SECON CODA AMPLIT PERI AZIMU VELO AIN AR TRES W  DIS CAZ7
 BAR2 SZ EP       2157 57.60                             174   -0.0010 14.7 191 
 BAR2 SZ ES       2158 13.31                             174    0.4210 14.7 191 
 BAR2 SZ I        2158 13.61        13.9 0.22            175           14.7 191 
 BRR  HZ EP   1   2157 59.79                             152    0.34 7 74.7 305 
 BRR  HN ES   1   2158 16.98                             152    0.79 7 74.7 305 
 PAM  SZ EP       2158  0.84                             149    0.0710 84.9  36 
 PAM  SN ES   1   2158 17.61                             149   -0.93 7 84.9  36 
 PAM  SZ I        2158 20.45        10.5 0.66            149           84.9  36 
 RUS  HZ EP   1   2158  1.59                             146    0.34 7 92.1 175 
 RUS  HN ES   1   2158 18.93                             146   -0.46 7 92.1 175 
 RUS  HZ I        2158 20.91         9.8 0.28            148           92.1 175 
 PTB  HN ES   1   2158 24.84                             133   -0.88 7  145 262 
 ZAR  HN ES   1   2158 36.06                             122   -0.22 6  206 294 
 ZAR  HZ I        2158 38.38         7.6 0.20            123            206 294 
                                                                                
