 2017  720 2342 41.8 L   6.779 -73.143144.6  RSN  4 0.3 1.4LRSN                1
 GAP=236        0.70       5.5     5.3  5.6  0.1480E+02  0.2388E+01  0.2285E+00E
 Epicentro: LOS SANTOS - SANTANDER                                             3
 ACTION:UPD 17-08-30 15:35 OP:rebc STATUS:               ID:20170720234241 L   I
 OLDACT:REG 17-07-21 02:43 OP:dhb  STATUS:               ID:20170720232853     3
 2017-07-20-2338-00M.COL___395                                                 6
 STAT SP IPHASW D HRMM SECON CODA AMPLIT PERI AZIMU VELO AIN AR TRES W  DIS CAZ7
 BAR2 EZ EP       2343  1.12                             171   -0.1710 21.1 192 
 BAR2 EZ ES       2343 16.02                             171   -0.4410 21.1 192 
 BAR2 EZ I        2343 17.79         9.8 0.18            168           21.1 192 
 BRR  HZ EP       2343  3.05                             152    0.1010 72.6 300 
 BRR  HN ES       2343 19.78                             152    0.3710 72.6 300 
 BRR  HZ I        2343 24.07         9.9 0.36            150           72.6 300 
 RUS  HZ EP       2343  5.41                             144    0.1010 98.2 176 
 RUS  HN ES       2343 23.92                             144    0.3010 98.2 176 
 RUS  HZ I        2343 25.01         2.9 0.32            146           98.2 176 
 PTB  HZ EP       2343  8.56                             132   -0.14 9  148 260 
 PTB  HN ES       2343 29.51                             132   -0.14 9  148 260 
 PTB  HZ I        2343 34.86         1.5 0.21            131            148 260 
                                                                                
