 2016  120 2008 42.6 L   6.828 -73.165150.4  RSN  5 0.3 1.7LRSN                1
 GAP=133        0.73       2.8     4.0  6.4 -0.2801E+01  0.8683E+01 -0.4381E+01E
 Epicentro: LOS SANTOS - SANTANDER                                             3
 ACTION:UPD 16-03-09 23:27 OP:cam  STATUS:               ID:20160120200842 L   I
 OLDACT:REG 16-01-21 02:44 OP:drio STATUS:               ID:20160120195750     3
 2016-01-20-1957-50M.COL___312                                                 6
 STAT SP IPHASW D HRMM SECON CODA AMPLIT PERI AZIMU VELO AIN AR TRES W  DIS CAZ7
 PAM  EZ EP       20 9  5.70                             152    0.4610 76.4  42 
 PAM  EE ES       20 9 22.85                             152   -0.0610 76.4  42 
 PAM  EZ I        20 9 23.86         4.3 0.20            156           76.4  42 
 RUS  HZ EP       20 9  6.61                             144   -0.4310  104 175 
 RUS  HN ES       20 9 25.95                             144   -0.1510  104 175 
 RUS  HZ I        20 9 28.65         3.4 0.28            149            104 175 
 PTB  HZ EP       20 9  9.72                             133   -0.10 9  146 257 
 PTB  HN ES       20 9 30.84                             133   -0.21 9  146 257 
 PTB  HZ I        20 9 36.38         7.2 0.18            133            146 257 
 SPBC HZ EP       20 9 11.67                             130    0.11 9  164 218 
 SPBC HN ES       20 9 34.66                             130    0.51 9  164 218 
 SPBC HZ I        20 9 40.77        12.3 0.28            132            164 218 
 SML  HZ EP       20 9 18.96                             119   -0.12 8  240 335 
 SML  HE ES       20 9 47.56                             119    0.02 8  240 335 
 SML  HZ I        20 9 59.24         8.2 0.22            120            240 335 
                                                                                
