 2012  420 2339 15.8 L   6.767 -73.203139.9  RSN  4 0.1 1.2LRSN                1
 GAP=131        0.31       2.3     2.1  3.9 -0.6477E+00  0.2991E+00  0.1757E+01E
 Epicentro: VILLANUEVA - SANTANDER                                             3
 ACTION:UPD 12-07-05 11:55 OP:tino STATUS:               ID:20120420233915 L   I
 2012-04-20-2332-00S.MAN___175                                                 6
 STAT SP IPHASW D HRMM SECON CODA AMPLIT PERI AZIMU VELO AIN AR TRES W  DIS CAZ7
 BRR  HN ES   1   2339 51.94                             153    -0.1 7   68 304 
 PAM  SZ EP   1   2339 37.80                             147    -0.1 7   84  41 
 PAM  SN ES   1   2339 55.12                             147     0.1 7   84  41 
 PAM  SZ I        2339 57.22         2.8 0.39                            84  41 
 RUS  HZ EP   1   2339 38.89                             143     0.1 7   98 172 
 RUS  HN ES   1   2339 56.63                             143    -0.1 7   98 172 
 RUS  HZ I        2339 57.47         2.8 0.35                            98 172 
 PTB  HZ EP   1   2339 41.62                             132    -0.1 7  141 260 
 PTB  HN ES   1   2340  1.94                             132     0.1 7  141 260 
                                                                                
