 2014 1220 2238 32.7 L   6.805 -73.159145.6  RSN 12 0.5 2.0LRSN                1
 GAP=135        1.28       3.2     4.9  6.6 -0.2494E+01  0.8264E+01  0.3205E+00E
 Epicentro: LOS SANTOS - SANTANDER                                             3
 ACTION:UPD 15-02-10 17:05 OP:nd   STATUS:               ID:20141220223832 L   I
 OLDACT:REG 14-12-21 07:15 OP:cam  STATUS:               ID:20141220223817     3
 2014-12-20-2238-17M.COL___299                                                 6
 STAT SP IPHASW D HRMM SECON CODA AMPLIT PERI AZIMU VELO AIN AR TRES W  DIS CAZ7
 BAR2 EZ EP       2238 51.97                             170   -0.3110 23.7 186 
 BAR2 EZ ES       2239  7.63                             170    0.0510 23.7 186 
 BAR2 EZ I        2239  8.83        26.5 0.28            171           23.7 186 
 BRR  HZ EP       2238 54.15                             153    0.4410 69.6 299 
 BRR  HN ES       2239 11.20                             153    1.0810 69.6 299 
 BRR  HZ I        2239 13.76        16.9 0.32            152           69.6 299 
 PAM  SZ EP       2238 55.14                             151    0.2510 77.9  41 
 PAM  SN ES       2239 12.36                             151    0.1310 77.9  41 
 PAM  SZ I        2239 14.44        14.1 0.48            153           77.9  41 
 RUS  HZ EP       2238 56.30                             144   -0.1510  101 175 
 RUS  HN ES       2239 14.72                             144   -0.2810  101 175 
 RUS  HZ I        2239 16.03        12.8 0.38            146            101 175 
 PTB  HZ EP       2238 59.34                             132   -0.15 9  146 259 
 PTB  HN ES       2239 20.06                             132   -0.36 9  146 259 
 PTB  HZ I        2239 22.44        10.2 0.16            132            146 259 
 OCA  HZ EP       2239  1.41                             130    0.52 9  160 354 
 OCA  HN ES       2239 21.39                             130   -1.52 9  160 354 
 OCA  HZ I        2239 30.58        11.4 0.26            131            160 354 
 SPBC HZ EP       2239  1.38                             129    0.28 9  163 218 
 SPBC HN ES       2239 23.04                             129   -0.24 9  163 218 
 SPBC HZ I        2239 24.97        21.8 0.12            130            163 218 
 ZAR  HZ EP       2239  5.38                             123    0.45 9  202 292 
 ZAR  HN ES       2239 30.64                             123    0.54 9  202 292 
 ZAR  HZ I        2239 35.33        10.9 0.36            123            202 292 
 NOR  HZ EP       2239  8.36                             119    0.07 8  234 234 
 NOR  HN ES       2239 35.51                             119   -0.56 8  234 234 
 NOR  HZ I        2239 43.71         6.9 0.12            120            234 234 
 SML  HZ EP       2239  9.06                             118   -0.10 8  243 336 
 SML  HN ES       2239 37.14                             118   -0.48 8  243 336 
 SML  HZ I        2239 39.40        17.3 0.28            119            243 336 
 CHI  HZ EP       2239 10.68                             117    0.31 8  249 195 
 CHI  HN ES       2239 39.93                             117    0.15 8  249 195 
 CHI  HZ I        2239 46.08         6.1 0.34            119            249 195 
 TOL  SN ES       2239 57.79                             109   -0.62 7  343 224 
                                                                                
