 2011  520 2144  5.3 L   6.731 -73.429108.0  RSN  5 0.2 1.7LRSN                1
 GAP=165        0.54       5.6     9.3  7.8  0.3136E+02 -0.3675E+02 -0.1509E+02E
 Epicentro: EL CARMEN DE CHUCURI - SANTANDER                                   3
 ACTION:UP  11-06-29 08:55 OP:tino STATUS:               ID:20110520214405 L   I
 2011-05-20-2142-07S.COL___141                                                 6
 STAT SP IPHASW D HRMM SECON CODA AMPLIT PERI AZIMU VELO SNR AR TRES W  DIS CAZ7
 BTL  SZ EP   1   2144 20.93                             165     0.4 7   27  41 
 BAR2 SZ EP   1   2144 20.94                             163     0.2 7   31 119 
 BAR2 SZ I        2144 21.37        18.7 0.32                            31 119 
 BAR2 SZ ES   2   2144 32.47                             163    -0.2 5   31 119 
 BRR  HZ EP   1   2144 21.05                             152    -0.3 7   52 323 
 BRR  HE ES   1   2144 33.87                             152     0.1 7   52 323 
 BRR  HZ I        2144 35.35        21.8 0.27                            52 323 
 RUS  HZ EP   2   2144 25.53                             134    -0.1 5  100 158 
 RUS  HN ES   2   2144 41.21                             134    -0.2 5  100 158 
 RUS  HZ I        2144 42.97         7.0 0.29                           100 158 
 BRI  SZ EP   1   2144 27.71                             126    -0.2 7  129  33 
 BRI  SZ I        2144 51.28         8.1 0.40                           129  33 
                                                                                
