 2012  920 2043 23.9 L   6.759 -73.165146.3  RSN  7 0.2 1.9LRSN                1
 GAP=136        0.47       3.1     3.0  4.4 -0.1144E+00  0.6351E+00  0.9501E+00E
 Epicentro: LOS SANTOS - SANTANDER                                             3
 ACTION:UPD 12-10-22 14:20 OP:ep   STATUS:               ID:20120920204323 L   I
 2012-09-20-2040-00M.COL___227                                                 6
 STAT SP IPHASW D HRMM SECON CODA AMPLIT PERI AZIMU VELO AIN AR TRES W  DIS CAZ7
 BAR2 SZ EP   1   2043 43.40                             172   -0.12 7 18.5 186 
 BAR2 SZ ES   1   2043 58.66                             172   -0.16 7 18.5 186 
 BAR2 SZ I        2044  1.46        27.7 0.38                          18.5 186 
 GIR2 SZ EP   1   2043 43.85                             166    0.08 7 35.5 355 
 GIR2 SZ ES   1   2043 59.75                             166    0.49 7 35.5 355 
 BRR  HZ EP   1   2043 45.40                             152    0.26 7 71.6 303 
 BRR  HZ I        2043 49.54        21.6 0.42                          71.6 303 
 BRR  HE ES   1   2044  1.60                             152   -0.11 7 71.6 303 
 PAM  SZ EP   1   2043 46.41                             149   -0.07 7 82.2  39 
 PAM  SZ I        2043 46.64         8.2 0.42                          82.2  39 
 PAM  SE ES   1   2044  3.78                             149   -0.31 7 82.2  39 
 RUS  HZ EP   1   2043 47.41                             145    0.00 7 96.2 175 
 RUS  HN ES   1   2044  5.85                             145    0.11 7 96.2 175 
 RUS  HZ I        2044  7.84         6.2 0.38                          96.2 175 
 PTB  HN ES   1   2044 11.30                             133   -0.22 7  145 260 
 PTB  HN I        2044 17.15        23.0 0.26                           145 260 
 ZAR  HN ES   2   2044 21.74                             122    0.05 4  204 294 
 ZAR  HZ I        2044 27.90         6.7 0.25                           204 294 
                                                                                
