 2012 1220 2143 28.8 L   6.708 -73.154142.1  RSN  5 0.3 1.9LRSN                1
 GAP=181        0.85       5.6     6.3  7.8  0.1412E+02  0.1217E+02  0.1198E+02E
 Epicentro: VILLANUEVA - SANTANDER                                             3
 ACTION:UPD 13-01-04 14:29 OP:ep   STATUS:               ID:20121220214328 L   I
 2012-12-20-2140-00M.COL___242                                                 6
 STAT SP IPHASW D HRMM SECON CODA AMPLIT PERI AZIMU VELO AIN AR TRES W  DIS CAZ7
 BAR2 SZ ES       2144  2.26                             174   -0.4310 13.2 194 
 GIR2 SZ ES       2144  3.59                             163   -0.0410 41.2 354 
 BRR  HZ EP       2143 49.56                             150   -0.2910 75.9 306 
 BRR  HN ES       2144  6.82                             150    0.5610 75.9 306 
 BRR  HN I        2144 12.85        15.1 0.22                          75.9 306 
 RUS  HZ EP       2143 51.71                             146    0.2110 90.5 175 
 RUS  HN ES       2144  9.37                             146    0.1710 90.5 175 
 PTB  HN ES       2144 15.69                             132   -0.20 9  145 263 
                                                                                
