 2016  620 2146 17.3 L   6.766 -73.144143.2  RSN 10 0.4 2.1LRSN                1
 GAP=235        1.03       4.8     5.4  7.3  0.6063E+01  0.1064E+02  0.7684E+01E
 Epicentro: LOS SANTOS - SANTANDER                                             3
 ACTION:UPD 16-07-21 22:20 OP:rebc STATUS:               ID:20160620214617 L   I
 OLDACT:UP  16-06-21 02:56 OP:drio STATUS:               ID:20160620213743     3
 OLDACT:UP  16-06-21 02:55 OP:drio STATUS:               ID:20160620213743     3
 OLDACT:REG 16-06-21 02:37 OP:drio STATUS:               ID:20160620213743     3
 2016-06-20-2137-43M.COL___337                                                 6
 STAT SP IPHASW D HRMM SECON CODA AMPLIT PERI AZIMU VELO AIN AR TRES W  DIS CAZ7
 BAR2 EZ EP       2146 36.30                             172   -0.2210 19.7 192 
 BAR2 EZ ES       2146 51.23                             172   -0.3010 19.7 192 
 BAR2 EZ I        2146 52.33        47.0 0.34                          19.7 192 
 BRR  HZ EP       2146 38.33                             151    0.0810 73.2 301 
 BRR  HE ES       2146 55.44                             151    0.8210 73.2 301 
 BRR  HZ I        2147  1.19        20.0 0.44                          73.2 301 
 RUS  HZ EP       2146 40.51                             144    0.0210 96.9 176 
 RUS  HE ES       2146 58.74                             144    0.1310 96.9 176 
 RUS  HZ I        2146 59.75        14.3 0.24                          96.9 176 
 PTB  HZ EP       2146 43.47                             132   -0.51 9  147 260 
 PTB  HN ES       2147  3.98                             132   -0.83 9  147 260 
 PTB  HZ I        2147  5.78        15.9 0.38                           147 260 
 SPBC HN ES       2147  7.27                             129    0.09 9  160 220 
 SPBC HZ I        2147  9.39        21.6 0.22                           160 220 
 ZAR  HZ EP   4   2146 51.04                             122    1.33 0  206 293 
 ZAR  HN ES       2147 15.09                             122    0.07 8  206 293 
 ZAR  HZ I        2147 17.47        11.7 0.30                           206 293 
 NOR  HZ EP   4   2146 51.88                             118   -0.75 0  233 235 
 NOR  HE ES       2147 20.50                             118    0.28 8  233 235 
 NOR  HZ I        2147 25.48         8.0 0.52                           233 235 
 HEL  HE ES   4   2147 27.60                             114   -0.87 0  271 257 
 HEL  HZ I        2147 35.42         4.6 0.26                           271 257 
 GUY2CHZ EP   4   2147  2.41                             112    1.88 0  299 235 
 GUY2CHN ES   4   2147 35.47                             112    1.19 0  299 235 
 GUY2CHZ I        2147 41.98         4.9 0.32                           299 235 
 PRA  HZ EP       2147 10.91                             106    0.58 6  389 210 
 PRA  HN ES       2147 52.07                             106    0.35 6  389 210 
 PRA  HZ I        2147 57.55         4.9 0.70                           389 210 
                                                                                
