 2011  420 2304 52.3 L   6.774 -73.106148.0  RSN  6 0.2 1.9LRSN                1
 GAP=143        0.47       3.4     4.6  5.5 -0.4526E+01 -0.4763E+01  0.2083E+01E
 Epicentro: LOS SANTOS - SANTANDER                                             3
 ACTION:UP  11-06-22 15:32 OP:REBC STATUS:               ID:20110420230452 L   I
 2011-04-20-2302-21S.COL___139                                                 6
 STAT SP IPHASW D HRMM SECON CODA AMPLIT PERI AZIMU VELO SNR AR TRES W  DIS CAZ7
 BAR2 SZ EP       23 5 12.13                             171     0.010   22 203 
 BAR2 SZ ES   2   23 5 27.47                                    -0.2 5   22 203 
 BAR2 SZ I        23 5 29.00        14.2 0.30                            22 203 
 BRR  HZ EP   1   23 5 13.95                             151     0.0 7   76 299 
 BRR  HE ES   1   23 5 31.12                             151     0.2 7   76 299 
 BRR  HZ I        23 5 33.76        28.9 0.13                            76 299 
 PAM  SZ EP   1   23 5 15.07                             152     0.3 7   77  36 
 PAM  SN ES   2   23 5 32.34                             152     0.1 5   77  36 
 RUS  HZ EP   1   23 5 16.04                             145     0.0 7   97 179 
 RUS  HN ES   2   23 5 34.61                             145     0.0 5   97 179 
 RUS  HZ I        23 5 35.75         5.2 0.21                            97 179 
 GRA  SZ EP   1   23 5 17.75                             137    -0.1 7  127  15 
 GRA  SZ ES   2   23 5 37.26                             137    -0.6 5  127  15 
 GRA  SZ I        23 5 39.86        11.7 0.37                           127  15 
 NOR  SE ES   2   23 5 56.23                             119    -0.3 4  237 236 
                                                                                
