 2017 1120 2254 20.2 L   6.829 -73.147146.5  RSN  8 0.4 1.8LRSN                1
 GAP=111        1.02       4.1     4.1  6.4  0.1715E+00  0.7247E+01  0.4424E+01E
 Epicentro: LOS SANTOS - SANTANDER                                             3
 ACTION:UPD 17-12-12 19:57 OP:rebc STATUS:               ID:20171120225420 L   I
 OLDACT:UP  17-11-21 06:21 OP:leo  STATUS:               ID:20171120224427     3
 OLDACT:REG 17-11-21 04:52 OP:y    STATUS:               ID:20171120224427     3
 2017-11-20-2248-00M.COL___486                                                 6
 STAT SP IPHASW D HRMM SECON CODA AMPLIT PERI AZIMU VELO AIN AR TRES W  DIS CAZ7
 BAR2 EZ EP       2254 39.83                             169   -0.1410 26.4 189 
 BAR2 EZ ES       2254 55.25                             169   -0.1510 26.4 189 
 BAR2 EZ I        2254 56.40        19.7 0.14            168           26.4 189 
 PAM  EZ EP       2254 42.74                             152    0.4010 75.0  41 
 PAM  EE ES       2254 59.92                             152    0.3010 75.0  41 
 PAM  EZ I        2255  1.92        16.7 0.46            155           75.0  41 
 RUS  HZ EP       2254 43.85                             143   -0.3910  104 176 
 RUS  HN ES       2255  2.83                             143   -0.1710  104 176 
 RUS  HZ I        2255  3.73         6.3 0.32            146            104 176 
 PTB  HZ EP       2254 46.68                             132   -0.58 9  148 258 
 PTB  HN ES       2255  7.76                             132   -0.62 9  148 258 
 PTB  HZ I        2255 14.95         6.4 0.42            131            148 258 
 YPLC HZ EP       2254 50.33                             126    0.01 9  180 152 
 ZAR  HZ EP       2254 52.65                             123    0.10 9  203 291 
 ZAR  HN ES       2255 18.05                             123    0.27 9  203 291 
 ZAR  HZ I        2255 26.55         8.5 0.28            122            203 291 
 NOR  HZ EP       2254 55.99                             118   -0.16 8  236 234 
 NOR  HE ES       2255 25.22                             118    1.03 8  236 234 
 NOR  HZ I        2255 29.98         4.8 0.12            119            236 234 
 CHI  HZ EP       2254 58.18                             117   -0.08 8  252 195 
 CHI  HE ES       2255 28.58                             117    0.63 8  252 195 
 CHI  HZ I        2255 30.54         3.3 0.28            119            252 195 
                                                                                
