 2013 1020 2331  2.1 L   6.825 -73.159144.6  RSN 12 0.5 2.0LRSN                1
 GAP=134        1.10       3.2     4.9  5.9 -0.4540E+01  0.5194E+01  0.2864E+01E
 Epicentro: LOS SANTOS - SANTANDER                                             3
 ACTION:UPD 13-11-25 09:22 OP:ep   STATUS:               ID:20131020233102 L   I
 OLDACT:REG 13-10-21 02:45 OP:nd   STATUS:               ID:20131020232839     3
 2013-10-20-2328-39M.COL___217                                                 6
 STAT SP IPHASW D HRMM SECON CODA AMPLIT PERI AZIMU VELO AIN AR TRES W  DIS CAZ7
 BAR2 SZ EP       2331 21.91                             169    0.2410 25.9 186 
 BAR2 SZ ES       2331 37.16                             169    0.2410 25.9 186 
 BAR2 SZ I        2331 38.65        26.5 0.38            169           25.9 186 
 BRR  HZ EP       2331 23.76                             153    0.7610 68.6 297 
 BRR  HN ES       2331 40.02                             153    0.7310 68.6 297 
 BRR  HZ I        2331 44.20        11.5 0.30            149           68.6 297 
 PAM  SZ EP       2331 24.69                             151    0.5510 76.2  42 
 PAM  SN ES       2331 40.81                             151   -0.5110 76.2  42 
 PAM  SZ I        2331 44.09        18.0 0.54            154           76.2  42 
 RUS  HZ EP       2331 25.76                             143   -0.2110  103 175 
 RUS  HN ES       2331 44.20                             143   -0.3810  103 175 
 RUS  HZ I        2331 45.93         4.7 0.42            146            103 175 
 PTB  HZ EP       2331 28.88                             132   -0.04 9  147 258 
 PTB  HN ES       2331 49.43                             132   -0.39 9  147 258 
 PTB  HZ I        2331 57.31        14.6 0.44            131            147 258 
 OCA  HZ EP       2331 29.98                             130   -0.08 9  157 354 
 OCA  HN ES       2331 51.01                             130   -0.85 9  157 354 
 OCA  HZ I        2331 57.00         7.1 0.46            131            157 354 
 SPBC HZ EP       2331 30.83                             128    0.17 9  164 218 
 SPBC HN ES       2331 53.27                             128    0.36 9  164 218 
 SPBC HZ I        2331 57.97        13.8 0.20            129            164 218 
 ZAR  HZ EP   4   2331 38.00                             122    3.75 0  202 292 
 ZAR  HN ES   4   2332  2.50                             122    3.19 0  202 292 
 NOR  HZ EP       2331 37.99                             118    0.15 8  235 234 
 NOR  HN ES       2332  4.96                             118   -0.73 8  235 234 
 NOR  HZ I        2332  9.76         6.9 0.28            119            235 234 
 SML  HZ EP   2   2331 37.87                             117   -0.47 4  241 335 
 SML  HN ES   2   2332  6.13                             117   -0.46 4  241 335 
 SML  HZ I        2332 13.93        15.3 0.09            118            241 335 
 CHI  HZ EP       2331 40.02                             117    0.01 8  251 195 
 CHI  HN ES       2332  9.06                             117   -0.50 8  251 195 
 CHI  HZ I        2332 13.08         3.3 0.56            118            251 195 
 GUY2CHZ EP   4   2331 47.97                             112    2.24 0  302 234 
 GUY2CHN ES   4   2332 20.30                             112    0.56 0  302 234 
 GUY2CHZ I        2332 28.77         5.9 0.72                           302 234 
 PRA  HZ EP       2331 56.32                             106    0.52 6  394 209 
 PRA  HN ES       2332 37.52                             106   -0.16 6  394 209 
 PRA  HZ I        2332 44.66         3.5 0.22            107            394 209 
                                                                                
