 2010  820 2043 39.4 L   6.804 -73.032136.0  RSN  4 0.3 1.7LRSN                1
 GAP=247        0.68      11.0    21.1  9.3  0.1598E+03 -0.8395E+02 -0.2444E+02E
 Epicentro: CEPITA - SANTANDER                                                 3
 ACTION:UP  10-09-07 10:56 OP:vdl  STATUS:               ID:20100820204339 L   I
 2010-08-20-2042-53S.COL___120                                                 6
 STAT SP IPHASW D HRMM SECON CODA AMPLIT PERI AZIMU VELO SNR AR TRES W  DIS CAZ7
 BAR2 SZ EP       2043 57.73                             168    -0.310   29 216 
 BTL  SZ EP       2043 58.16                             168     0.110   29 296 
 BTL  SZ ES   1   2044 12.92                             168     0.4 7   29 296 
 BAR2 SZ ES   2   2044 12.10                             168    -0.4 5   29 216 
 BAR2 SZ I        2044 14.07        11.6 0.55                            29 216 
 BRR  HZ EP   2   2043 59.92                             148    -0.3 5   82 294 
 BRR  HZ I        2044  6.29        16.0 0.30                            82 294 
 BRR  HE ES   2   2044 16.49                             148     0.0 5   82 294 
 RUS  HZ EP   2   2044  2.85                             142     0.6 5  101 183 
 RUS  HE ES   2   2044 20.19                             142     0.1 5  101 183 
 RUS  HZ I        2044 21.36         4.4 0.29                           101 183 
                                                                                
