 2016  420 2153 34.2 L   6.850 -73.141142.8  RSN  4 0.5 1.5LRSN                1
 GAP=258        1.10      11.9     8.0 12.4 -0.4264E+01  0.4502E+02 -0.1172E+02E
 Epicentro: LOS SANTOS - SANTANDER                                             3
 ACTION:UPD 16-05-05 14:22 OP:rebc STATUS:               ID:20160420215334 L   I
 OLDACT:REG 16-04-21 04:52 OP:mh   STATUS:               ID:20160420214744     3
 2016-04-20-2147-44M.COL___313                                                 6
 STAT SP IPHASW D HRMM SECON CODA AMPLIT PERI AZIMU VELO AIN AR TRES W  DIS CAZ7
 BAR2 EZ EP       2153 54.16                             168    0.5410 28.9 189 
 BAR2 EZ ES       2154  8.59                             168   -0.1610 28.9 189 
 BAR2 EZ I        2154 10.85         5.5 0.20            169           28.9 189 
 PTB  HZ EP       2154  0.33                             131   -0.76 9  149 257 
 PTB  HN ES       2154 21.83                             131   -0.23 9  149 257 
 PTB  HZ I        2154 23.45         4.5 0.58            129            149 257 
 ZAR  HN ES   1   2154 31.85                             122    0.52 6  202 291 
 ZAR  HZ I        2154 42.10         2.3 0.16            120            202 291 
 NOR  HE ES       2154 38.61                             117    0.40 8  238 233 
 NOR  HZ I        2154 45.59         2.6 0.16            117            238 233 
                                                                                
