 2013 1020 2344 56.5 L   6.812 -73.142147.6  RSN 12 0.4 1.9LRSN                1
 GAP=136        1.03       3.7     4.2  5.9 -0.8954E+00  0.6109E+01  0.3922E+01E
 Epicentro: LOS SANTOS - SANTANDER                                             3
 ACTION:UPD 13-11-25 09:22 OP:ep   STATUS:               ID:20131020234456 L   I
 OLDACT:REG 13-10-21 02:46 OP:nd   STATUS:               ID:20131020233839     3
 2013-10-20-2338-39M.COL___217                                                 6
 STAT SP IPHASW D HRMM SECON CODA AMPLIT PERI AZIMU VELO AIN AR TRES W  DIS CAZ7
 BAR2 SZ IP     D 2345 16.44                             170    0.0610 24.7 190 
 BAR2 SZ ES       2345 32.43                             170    0.5510 24.7 190 
 BAR2 SZ I        2345 34.35        14.9 0.30            170           24.7 190 
 BRR  HZ IP     C 2345 18.22                             153    0.3910 70.9 297 
 BRR  HN ES       2345 34.72                             153    0.2510 70.9 297 
 BRR  HZ I        2345 39.96        12.5 0.14            152           70.9 297 
 PAM  SZ EP       2345 19.08                             152    0.2410 76.1  40 
 PAM  SN ES       2345 35.56                             152   -0.7010 76.1  40 
 PAM  SZ I        2345 38.32        12.9 0.58            155           76.1  40 
 RUS  HZ EP       2345 20.44                             144   -0.0910  102 176 
 RUS  HN ES       2345 39.15                             144   -0.1110  102 176 
 RUS  HZ I        2345 41.39         3.0 0.18            147            102 176 
 PTB  HZ EP       2345 23.36                             132   -0.32 9  148 258 
 PTB  HN ES       2345 44.28                             132   -0.59 9  148 258 
 PTB  HZ I        2345 47.33         9.8 0.32            133            148 258 
 OCA  HZ EP   4   2345 13.66                             130   -11.2 0  159 353 
 OCA  HN ES   4   2345 45.42                             130   -1.52 0  159 353 
 OCA  HZ I        2345 50.49         9.7 0.28            133            159 353 
 SPBC HZ EP       2345 25.47                             129    0.21 9  164 219 
 SPBC HN ES       2345 47.15                             129   -0.54 9  164 219 
 SPBC HZ I        2345 53.93        12.2 0.34            131            164 219 
 ZAR  HZ EP       2345 29.07                             123    0.02 9  204 292 
 ZAR  HN ES       2345 54.88                             123    0.44 9  204 292 
 ZAR  HZ I        2345 59.85        12.6 0.32            124            204 292 
 NOR  HZ EP       2345 31.67                             119   -0.78 8  236 234 
 NOR  HN ES       2346  0.74                             119    0.25 8  236 234 
 NOR  HZ I        2346  3.78         7.9 0.18            121            236 234 
 SML  HZ EP   4   2345 32.61                             118   -0.51 0  243 335 
 SML  HN ES   4   2346  0.26                             118   -1.42 0  243 335 
 SML  HZ I        2346  4.07        12.3 0.26            120            243 335 
 CHI  HZ EP       2345 34.73                             117    0.28 8  250 195 
 CHI  HN ES       2346  4.57                             117    0.52 8  250 195 
 CHI  HZ I        2346  8.36         2.6 0.76            120            250 195 
 GUY2CHZ EP   4   2345 41.62                             113    1.30 0  302 235 
 GUY2CHN ES   4   2346 14.97                             113    0.48 0  302 235 
 GUY2CHZ I        2346 23.10         5.8 0.42                           302 235 
                                                                                
