 2017 1220 2043  9.1 L   6.773 -73.161143.1  RSN  6 0.2 1.8LRSN                1
 GAP=148        0.57       3.5     2.7  4.4 -0.2816E+01  0.2734E+01  0.3256E+01E
 Epicentro: LOS SANTOS - SANTANDER                                             3
 ACTION:UPD 18-01-04 13:22 OP:rebc STATUS:               ID:20171220204309 L   I
 OLDACT:REG 17-12-21 06:12 OP:lv   STATUS:               ID:20171220203736     3
 2017-12-20-2038-00M.COL___446                                                 6
 STAT SP IPHASW D HRMM SECON CODA AMPLIT PERI AZIMU VELO AIN AR TRES W  DIS CAZ7
 BAR2 EZ EP       2043 28.54                             172    0.1610 20.1 187 
 BAR2 EZ ES       2043 43.66                             172    0.2710 20.1 187 
 BAR2 EZ I        2043 45.14        22.9 0.46            169           20.1 187 
 PAM  EZ EP       2043 31.27                             149    0.0010 80.8  39 
 PAM  EN ES       2043 48.27                             149   -0.2710 80.8  39 
 PAM  EZ I        2043 50.70        12.2 0.52            152           80.8  39 
 PTB  HZ EP       2043 35.51                             132   -0.17 9  146 260 
 PTB  HN ES       2043 56.08                             132   -0.31 9  146 260 
 PTB  HZ I        2043 58.24         5.8 0.14            133            146 260 
 ZAR  HN ES       2044  6.81                             122    0.30 9  204 293 
 GUY2CHZ EP   9   2043 54.38                             112    2.11 0  298 235 
 GUY2CHN ES       2044 27.94                                   -0.08 7  298 235 
 GUY2CHZ I        2044 36.34         2.3 0.44                           298 235 
 PRA  HZ EP       2044  2.41                             106    0.25 6  389 210 
 PRA  HN ES       2044 43.33                             106   -0.18 6  389 210 
 PRA  HZ I        2044 50.51         3.3 0.38            106            389 210 
                                                                                
