 2014 1020 2305 31.4 L   6.803 -73.170143.2  RSN  9 0.4 2.3LRSN                1
 GAP=133        1.02       3.2     4.8  5.8 -0.1553E+01  0.5792E+01  0.3087E+00E
 Epicentro: LOS SANTOS - SANTANDER                                             3
 ACTION:UPD 14-11-29 23:52 OP:nd   STATUS:               ID:20141020230531 L   I
 OLDACT:UP  14-10-21 23:08 OP:cam  STATUS:               ID:20141020225744     3
 OLDACT:REG 14-10-21 10:10 OP:fm   STATUS:               ID:20141020225744     3
 2014-10-20-2257-44M.COL___280                                                 6
 STAT SP IPHASW D HRMM SECON CODA AMPLIT PERI AZIMU VELO AIN AR TRES W  DIS CAZ7
 BAR2 SZ EP     D 23 5 50.77                             170    0.0810 23.3 183 
 BAR2 SZ ES       23 6  5.28                             170   -0.4810 23.3 183 
 BAR2 SZ I        23 6  7.02        29.5 0.16            172           23.3 183 
 BRR  HZ EP       23 5 52.68                             153    0.5810 68.7 299 
 BRR  HN ES       23 6  9.15                             153    0.8810 68.7 299 
 BRR  HN I        23 6 13.25        44.5 0.16            151           68.7 299 
 PAM  SZ EP       23 5 53.51                             150    0.1110 78.9  41 
 PAM  SN ES       23 6 10.26                             150   -0.3210 78.9  41 
 PAM  SZ I        23 6 12.53        23.7 0.46            151           78.9  41 
 RUS  HZ EP       23 5 54.80                             143   -0.1010  101 175 
 RUS  HE ES       23 6 13.51                             143    0.2510  101 175 
 PTB  HZ EP       23 5 57.59                             132   -0.30 9  145 259 
 PTB  HN ES       23 6 18.35                             132   -0.23 9  145 259 
 PTB  HZ I        23 6 20.58        10.8 0.12            132            145 259 
 SPBC HN ES       23 6 20.87                             129   -0.63 9  162 218 
 SPBC HN I        23 6 22.47        63.2 0.10            130            162 218 
 SML  HZ EP       23 6  7.32                             117   -0.37 8  242 336 
 SML  HE ES       23 6 35.82                             117   -0.21 8  242 336 
 SML  HE I        23 6 42.64        25.9 0.10            117            242 336 
 CHI  HZ EP       23 6  9.21                             117    0.33 8  248 195 
 CHI  HN ES       23 6 38.41                             117    0.27 8  248 195 
 CHI  HN I        23 6 42.04        10.9 0.40            118            248 195 
 GUY2CHZ EP       23 6 14.59                             112   -0.04 7  299 234 
 GUY2CHZ I        23 6 57.73         5.4 0.44                           299 234 
                                                                                
