 2015  920 2039 26.6 L   6.798 -73.166144.6  RSN 16 0.4 2.0LRSN                1
 GAP=134        1.04       2.5     3.6  5.0 -0.1941E+01  0.5601E+01  0.8924E+00E
 Epicentro: LOS SANTOS - SANTANDER                                             3
 ACTION:UPD 15-10-28 16:27 OP:cam  STATUS:               ID:20150920203926 L   I
 OLDACT:REG 15-09-21 03:50 OP:stll STATUS:               ID:20150920203750     3
 2015-09-20-2037-50M.COL___352                                                 6
 STAT SP IPHASW D HRMM SECON CODA AMPLIT PERI AZIMU VELO AIN AR TRES W  DIS CAZ7
 BAR2 EZ EP       2039 46.08                             171   -0.0210 22.8 185 
 BAR2 EZ ES       2040  0.67                             171   -0.6210 22.8 185 
 BAR2 EZ I        2040  3.19        17.5 0.16            170           22.8 185 
 BRR  HZ EP     C 2039 48.04                             153    0.5010 69.4 300 
 BRR  HN ES       2040  4.87                             153    1.0210 69.4 300 
 BRR  HZ I        2040 10.26        12.4 0.14            151           69.4 300 
 PAM  EZ EP       2039 49.06                             150    0.2510 79.0  41 
 PAM  EN ES       2040  6.31                             150    0.2010 79.0  41 
 PAM  EZ I        2040  8.29         7.2 0.54            154           79.0  41 
 RUS  HZ EP       2039 50.19                             144   -0.0610  101 175 
 RUS  HN ES       2040  8.73                             144    0.0510  101 175 
 RUS  HZ I        2040 11.39        10.9 0.50            147            101 175 
 PTB  HZ EP       2039 52.92                             132   -0.37 9  146 259 
 PTB  HN ES       2040 14.04                             132   -0.05 9  146 259 
 PTB  HZ I        2040 18.75        13.4 0.32            133            146 259 
 OCA  HZ EP       2039 54.55                             129   -0.28 9  160 354 
 OCA  HN ES       2040 16.62                             129   -0.22 9  160 354 
 OCA  HZ I        2040 26.93        15.3 0.32            132            160 354 
 SPBC HZ EP       2039 55.09                             129    0.21 9  162 218 
 SPBC HN ES       2040 16.59                             129   -0.33 9  162 218 
 SPBC HZ I        2040 23.89        16.6 0.38            131            162 218 
 ZAR  HZ EP       2039 58.72                             122   -0.06 9  202 292 
 ZAR  HE ES       2040 23.68                             122   -0.19 9  202 292 
 ZAR  HZ I        2040 29.93        15.3 0.62            123            202 292 
 NOR  HZ EP       2040  2.08                             118    0.01 8  233 234 
 NOR  HE ES       2040 29.38                             118   -0.34 8  233 234 
 NOR  HZ I        2040 33.51         7.5 0.16            120            233 234 
 SML  HZ EP       2040  2.48                             117   -0.62 8  243 336 
 SML  HN ES       2040 31.02                             117   -0.53 8  243 336 
 SML  HZ I        2040 38.92        12.3 0.10            119            243 336 
 CHI  HZ EP       2040  4.16                             117   -0.00 8  248 195 
 CHI  HN ES       2040 33.12                             117   -0.33 8  248 195 
 CHI  HZ I        2040 39.27         5.3 0.24            120            248 195 
 HEL  HZ EP       2040  7.46                             115    0.94 8  270 256 
 HEL  HN ES       2040 37.44                             115   -0.21 8  270 256 
 HEL  HZ I        2040 44.38         4.9 0.30            116            270 256 
 URE  HZ EP   4   2040  6.80                             113   -0.61 0  282 292 
 URE  HN ES   4   2040 37.07                             113   -2.15 0  282 292 
 URE  HZ I        2040 41.12         5.9 0.14            115            282 292 
 GUY2CHZ EP       2040 11.13                             112    1.18 7  299 235 
 GUY2CHE ES       2040 43.59                             112   -0.16 7  299 235 
 GUY2CHZ I        2040 51.66         4.9 0.58                           299 235 
 ELA  HN ES       2040 49.83                             110    0.28 7  327 229 
 ELA  HZ I        2041  0.16         4.0 0.28            112            327 229 
 ORTC HZ EP       2040 19.96                             106   -0.36 6  394 216 
 ORTC HN ES       2041  2.04                             106   -0.17 6  394 216 
 ORTC HZ I        2041  9.88         2.9 0.20            108            394 216 
                                                                                
