 2015 1220 2205 22.9 L   6.802 -73.137151.3  RSN 12 0.4 2.1LRSN                1
 GAP=137        0.90       2.3     3.6  4.5 -0.8935E+00  0.3677E+01  0.6524E+00E
 Epicentro: LOS SANTOS - SANTANDER                                             3
 ACTION:UPD 16-02-04 15:06 OP:cam  STATUS:               ID:20151220220522 L   I
 OLDACT:REG 15-12-21 01:45 OP:mh   STATUS:               ID:20151220215750     3
 2015-12-20-2157-50M.COL___328                                                 6
 STAT SP IPHASW D HRMM SECON CODA AMPLIT PERI AZIMU VELO AIN AR TRES W  DIS CAZ7
 BAR2 EZ EP       22 5 43.06                             171   -0.1710 23.8 192 
 BAR2 EZ ES       22 5 58.87                             171   -0.1910 23.8 192 
 BAR2 EZ I        22 6  0.10        14.2 0.32            170           23.8 192 
 BRR  HZ EP       22 5 45.09                             153    0.3810 71.9 298 
 BRR  HN ES       22 6  2.55                             153    0.8510 71.9 298 
 BRR  HZ I        22 6  7.14        16.7 0.44            151           71.9 298 
 PAM  EZ EP       22 5 45.91                             152    0.2310 76.6  39 
 PAM  EN ES       22 6  3.56                             152    0.1210 76.6  39 
 PAM  EZ I        22 6  7.64         5.8 0.20            155           76.6  39 
 RUS  HZ EP       22 5 47.05                             145   -0.1810  101 177 
 RUS  HN ES       22 6  6.01                             145   -0.1910  101 177 
 RUS  HZ I        22 6  6.54         9.2 0.24            147            101 177 
 PTB  HZ EP       22 5 49.89                             133   -0.54 9  149 259 
 PTB  HN ES       22 6 11.30                             133   -0.59 9  149 259 
 PTB  HZ I        22 6 15.71        13.5 0.48            133            149 259 
 OCA  HZ EP       22 5 51.95                             131    0.30 9  160 353 
 OCA  HN ES       22 6 13.59                             131   -0.48 9  160 353 
 OCA  HZ I        22 6 19.15        26.7 0.20            132            160 353 
 SPBC HZ EP       22 5 52.17                             130    0.25 9  164 219 
 SPBC HN ES       22 6 14.39                             130   -0.15 9  164 219 
 SPBC HZ I        22 6 16.52        15.3 0.12            131            164 219 
 ZAR  HZ EP       22 5 56.13                             123    0.32 9  205 292 
 ZAR  HN ES       22 6 21.79                             123    0.33 9  205 292 
 ZAR  HZ I        22 6 26.71        17.9 0.64            124            205 292 
 NOR  HZ EP       22 5 59.20                             120    0.13 8  236 235 
 NOR  HN ES   1   22 6 27.09                             120   -0.18 6  236 235 
 NOR  HZ I        22 6 34.40         8.1 0.20            121            236 235 
 SML  HZ EP       22 5 59.72                             119   -0.16 8  244 335 
 SML  HN ES       22 6 28.11                             119   -0.60 8  244 335 
 SML  HZ I        22 6 32.93        16.8 0.10            120            244 335 
 CHI  HZ EP       22 6  0.71                             118   -0.27 8  249 195 
 CHI  HN ES       22 6 30.94                             118    0.27 8  249 195 
 CHI  HZ I        22 6 36.39         5.4 0.28            120            249 195 
 PRA  HZ EP       22 6 16.89                             107    0.17 6  393 210 
 PRA  HN ES       22 6 59.11                             107    0.43 6  393 210 
 PRA  HZ I        22 7  2.82         6.1 0.54            109            393 210 
 SJC  HZ EP   4   22 6 17.51                             107   -1.19 0  410 327 
 SJC  HN ES   4   22 7  1.83                             107   -0.38 0  410 327 
                                                                                
