 2011  820 2006  9.1 L   6.867 -73.315118.8  RSN  8 0.3 2.5LRSN                1
 GAP=123        0.63       2.2     4.9  5.1 -0.2240E+01  0.7911E+01  0.1381E+00E
 Epicentro: BETULIA - SANTANDER                                                3
 ACTION:UPD 12-07-13 15:52 OP:ep   STATUS:               ID:20110820200609 L   I
 2011-08-20-2003-46S.COL___151                                                 6
 STAT SP IPHASW D HRMM SECON CODA AMPLIT PERI AZIMU VELO AIN AR TRES W  DIS CAZ7
 BAR2 SZ EP       20 6 25.92                             163    0.1410 33.8 154 
 BAR2 SZ ES   1   20 6 38.49                             163   -0.32 7 33.8 154 
 BAR2 SZ I        20 6 40.19       254.3 0.26                          33.8 154 
 BRR  HZ EP       20 6 26.26                             155    0.0710 51.2 301 
 BRR  HE ES   2   20 6 40.13                             155    0.59 5 51.2 301 
 BRR  HZ I        20 6 41.05        72.2 0.14                          51.2 301 
 BRI  SZ EP       20 6 30.88                             134    0.2410  110  31 
 BRI  SZ ES   2   20 6 47.84                             134    0.37 5  110  31 
 RUS  HZ EP       20 6 30.75                             134   -0.4010  111 167 
 RUS  HE ES   1   20 6 48.31                             134   -0.05 7  111 167 
 OCA  SZ EP       20 6 34.39                             124   -0.17 9  152 360 
 OCA  SZ ES   1   20 6 54.20                             124   -0.25 7  152 360 
 OCA  SZ I        20 6 58.10        76.6 0.30                           152 360 
 NOR  SZ EP       20 6 42.14                             113   -0.09 8  224 230 
 NOR  SE ES   2   20 7  7.51                             113   -0.59 4  224 230 
 CHI  HZ EP       20 6 45.83                             111    0.05 8  252 191 
 CHI  HZ I        20 6 47.32        10.6 0.36                           252 191 
 CHI  HN ES   1   20 7 15.20                             111    0.79 6  252 191 
 HEL  HZ EP   2   20 6 46.52                             110    0.31 4  256 253 
 HEL  HZ I        20 7 19.71        15.8 0.58                           256 253 
                                                                                
