 2014  520 2331 23.2 L   6.792 -73.149146.4  RSN 13 0.5 2.5LRSN                1
 GAP= 71        1.21       3.0     3.3  6.6 -0.1006E+01  0.4592E+01  0.1849E+01E
 Epicentro: LOS SANTOS - SANTANDER                                             3
 ACTION:UPD 15-03-16 16:59 OP:nd   STATUS:               ID:20140520233123 L   I
 OLDACT:REG 14-05-21 07:58 OP:carl STATUS:               ID:20140520232816     3
 2014-05-20-2328-16M.COL___257                                                 6
 STAT SP IPHASW D HRMM SECON CODA AMPLIT PERI AZIMU VELO AIN AR TRES W  DIS CAZ7
 BRR  HZ EP       2331 44.91                             153    0.4510 71.3 299 
 BRR  HN ES       2332  1.97                             153    0.9610 71.3 299 
 BRR  HZ I        2332  2.98        89.6 0.20            151           71.3 299 
 PAM  SZ IP     C 2331 45.82                             151    0.2510 78.3  39 
 PAM  SN ES       2332  2.93                             151   -0.0610 78.3  39 
 PAM  SZ I        2332  5.31        72.5 0.66            153           78.3  39 
 RUS  HZ IP     C 2331 46.90                             144   -0.0910 99.8 176 
 RUS  HN ES       2332  5.67                             144    0.1510 99.8 176 
 RUS  HZ I        2332  6.48        28.5 0.24            146           99.8 176 
 PTB  HZ EP       2331 49.86                             132   -0.35 9  147 259 
 PTB  HN ES       2332 10.61                             132   -0.63 9  147 259 
 PTB  HZ I        2332 12.17        48.4 0.30            132            147 259 
 TAM  HZ IP     C 2331 51.23                             131    0.25 9  155 105 
 TAM  HN ES       2332 12.20                             131   -0.42 9  155 105 
 OCA  HZ EP       2331 51.46                             130   -0.21 9  161 353 
 OCA  HN ES       2332 13.67                             130   -0.18 9  161 353 
 OCA  HZ I        2332 16.49        50.3 0.30            131            161 353 
 SPBC HZ EP       2331 51.74                             129    0.04 9  162 219 
 SPBC HN ES       2332 13.69                             129   -0.21 9  162 219 
 SPBC HZ I        2332 19.99        50.6 0.36            130            162 219 
 ZAR  HZ EP       2331 56.64                             123    0.92 9  204 292 
 ZAR  HN ES       2332 21.62                             123    0.57 9  204 292 
 ZAR  HZ I        2332 27.76        39.0 0.38            123            204 292 
 NOR  HZ EP       2331 59.17                             119    0.25 8  234 235 
 NOR  HE ES       2332 26.09                             119   -0.66 8  234 235 
 NOR  HZ I        2332 31.25        25.1 0.20            120            234 235 
 SML  HZ EP       2331 59.61                             118   -0.35 8  244 335 
 SML  HN ES       2332 27.24                             118   -1.37 8  244 335 
 SML  HZ I        2332 37.14        30.4 0.28            118            244 335 
 CHI  HZ EP       2332  1.07                             117    0.20 8  248 195 
 CHI  HE ES       2332 29.72                             117   -0.50 8  248 195 
 CHI  HZ I        2332 36.16         8.6 0.28            119            248 195 
 ROSC BZ EP   4   2332  3.67                             117    2.38 0  252 211 
 ROSC BN ES   4   2332 30.48                             117   -0.49 0  252 211 
 HEL  HZ EP       2332  3.46                             115    0.04 8  271 256 
 HEL  HN ES       2332 34.49                             115   -0.27 8  271 256 
 HEL  HZ I        2332 41.61        15.9 0.42            116            271 256 
 URE  HZ EP   4   2332  2.98                             114   -1.35 0  284 292 
 URE  HN ES   4   2332 35.54                             114   -0.85 0  284 292 
 GUY2CHZ EP       2332  7.65                             113    0.87 7  300 235 
 GUY2CHN ES       2332 40.64                             113   -0.11 7  300 235 
 GUY2CHZ I        2332 49.66        11.7 0.38                           300 235 
 SJC  HZ EP   4   2332 17.12                             106   -1.76 0  410 327 
 SJC  HN ES   4   2332 55.55                             106   -6.73 0  410 327 
                                                                                
