 2010 1020 2233 30.2 L   6.796 -73.070141.8  RSN  7 0.2 1.9LRSN                1
 GAP=167        0.57       3.3     7.0  5.6  0.2969E+01 -0.1519E+02 -0.4614E+01E
 Epicentro: LOS SANTOS - SANTANDER                                             3
 ACTION:UP  11-02-18 11:11 OP:tino STATUS:               ID:20101020223330 L   I
 2010-10-20-2231-54S.COL___128                                                 6
 STAT SP IPHASW D HRMM SECON CODA AMPLIT PERI AZIMU VELO SNR AR TRES W  DIS CAZ7
 BTL  SZ EP       2233 49.66                             169     0.210   26 302 
 BTL  SZ ES   2   2234  4.19                             169    -0.2 5   26 302 
 BAR2 SZ EP       2233 49.49                             169     0.010   26 209 
 BAR2 SZ ES   1   2234  4.64                             169     0.2 7   26 209 
 BAR2 SZ I        2234  6.08        35.3 0.19                            26 209 
 GIR2 SZ EP   1   2233 49.52                             166     0.0 7   34 336 
 BRR  HZ EP       2233 51.24                             149    -0.210   79 296 
 BRR  HZ I        2234  7.82        17.3 0.35                            79 296 
 BRR  HN ES   1   2234  8.03                             149     0.1 7   79 296 
 RUS  HZ EP       2233 53.36                             143    -0.210  100 181 
 RUS  HN ES   1   2234 11.73                             143     0.0 7  100 181 
 RUS  HZ I        2234 13.33         7.8 0.26                           100 181 
 GUE  SZ EP   2   2233 54.07                             139    -0.4 5  115   8 
 GRA  SZ IP       2233 55.26                             137     0.310  124  14 
 GRA  SZ I        2233 56.41         9.7 0.28                           124  14 
 GRA  SZ ES   2   2234 13.69                             137    -0.6 5  124  14 
                                                                                
