 2016 1020 2122 58.0 L   6.779 -73.146144.0  RSN  6 0.4 1.5LRSN                1
 GAP=137        0.98       5.1     4.8  7.7 -0.6441E+01  0.4803E+01  0.7010E+01E
 Epicentro: LOS SANTOS - SANTANDER                                             3
 ACTION:UPD 16-11-09 19:21 OP:rebc STATUS:               ID:20161020212258 L   I
 OLDACT:REG 16-10-21 03:19 OP:dnl  STATUS:               ID:20161020211734     3
 2016-10-20-2118-00M.COL___340                                                 6
 STAT SP IPHASW D HRMM SECON CODA AMPLIT PERI AZIMU VELO AIN AR TRES W  DIS CAZ7
 BAR2 EZ EP   2   2123 17.29                             171   -0.05 5 21.0 191 
 BAR2 EZ ES       2123 32.00                             171   -0.4510 21.0 191 
 BAR2 EZ I        2123 33.85        12.3 0.26            170           21.0 191 
 BRR  HZ EP   2   2123 19.00                             152    0.02 5 72.3 300 
 BRR  HN ES       2123 36.16                             152    0.7810 72.3 300 
 PAM  EZ EP       2123 20.08                             150   -0.0210 79.2  39 
 PAM  EN ES       2123 37.24                             150   -0.1310 79.2  39 
 PAM  EZ I        2123 40.01         4.0 0.66            152           79.2  39 
 RUS  HZ EP       2123 21.52                             144    0.1510 98.3 176 
 RUS  HN ES       2123 39.82                             144    0.1910 98.3 176 
 RUS  HZ I        2123 41.16         4.8 0.32            144           98.3 176 
 PTB  HZ EP   2   2123 24.05                             132   -0.69 5  147 260 
 PTB  HN ES       2123 44.89                             132   -0.74 9  147 260 
 PTB  HZ I        2123 48.13         3.4 0.38            131            147 260 
 NOR  HZ EP   2   2123 33.59                             118    0.15 4  233 235 
 NOR  HN ES       2124  1.50                             118    0.39 8  233 235 
 NOR  HZ I        2124  6.81         2.5 0.18            118            233 235 
                                                                                
