 2012  620 2040 32.6 L   6.024 -73.985  4.0  RSN  5 0.5 1.2LRSN                1
 GAP=142        0.89       4.1     2.6  7.9  0.1702E+01 -0.8604E+00  0.8646E+00E
 Epicentro: EL PEON - SANTANDER                                                3
 ACTION:UP  12-08-06 17:51 OP:ep   STATUS:               ID:20120620204032 L   I
 2012-06-20-2040-00M.COL___199                                                 6
 STAT SP IPHASW D HRMM SECON CODA AMPLIT PERI AZIMU VELO AIN AR TRES W  DIS CAZ7
 PTB  HZ EP       2040 45.01                              47    0.0810 77.3 318 
 PTB  HN ES   1   2040 54.43                              47   -0.11 7 77.3 318 
 PTB  HZ I        2040 57.50        14.6 0.12                          77.3 318 
 RUS  HZ EP   1   2040 49.44                              47    0.43 7  101  98 
 RUS  HN ES   1   2041  1.28                              47   -0.52 7  101  98 
 RUS  HZ I        2041  2.37         2.9 0.33                           101  98 
 NOR  SZ EP   1   2040 50.28                              47    0.30 7  110 243 
 NOR  SN ES   1   2041  3.00                              47   -0.52 7  110 243 
 HEL  HZ EP   1   2040 59.15                              47   -0.48 7  172 276 
 HEL  HZ I        2041 20.88         4.0 0.30                           172 276 
 GUY  SZ EP   1   2041  1.65                              37    0.83 7  179 240 
                                                                                
