 2015 1120 2140 33.9 L   6.817 -73.140146.3  RSN 18 0.4 2.9LRSN 3.6WRSN        1
 SPEC AVERAGE  MO 14.4 ST0.325 OM  2.5 f0 1.16 R2.1355 AL 0.00 WI 30.0 MW  3.6 3
 SPEC SD       MO  0.2 ST0.390 OM  0.4 f00.612 R1.0546 AL      WI      MW  0.2 3
 GAP=136        1.01       2.5     3.7  5.0 -0.2417E+01  0.5750E+01  0.7708E+00E
 Epicentro: LOS SANTOS - SANTANDER                                             3
 SPEC BAR2EH Z MO 14.2 ST0.358 OM  2.3 f0 1.56 R1.2333 AL-0.00 WI 30.0 MW  3.4 3
 SPEC BAR2EH Z T2141 7 K 0.000 GD  148 VS 5.20 DE 3.50 Q0750.0 QA 1.50 VS 3.50 3
 SPEC BRR HH Z MO 14.1 ST0.782 OM  2.2 f0 2.12 R0.9075 AL-0.00 WI 30.0 MW  3.4 3
 SPEC BRR HH Z T214111 K 0.000 GD  162 VS 5.20 DE 3.50 Q0750.0 QA 1.50 VS 3.50 3
 SPEC PAM EH Z MO 14.6 ST0.063 OM  2.7 f00.622 R3.0932 AL-0.00 WI 30.0 MW  3.7 3
 SPEC PAM EH Z T214111 K 0.000 GD  164 VS 5.20 DE 3.50 Q0750.0 QA 1.50 VS 3.50 3
 SPEC RUS HH Z MO 14.9 ST0.031 OM  2.9 f00.408 R4.7157 AL-0.00 WI 30.0 MW  3.9 3
 SPEC RUS HH Z T214114 K 0.000 GD  178 VS 5.20 DE 3.50 Q0750.0 QA 1.50 VS 3.50 3
 SPEC OCA HH Z MO 14.1 ST  1.4 OM  2.1 f0 2.53 R0.7605 AL-0.00 WI 30.0 MW  3.4 3
 SPEC OCA HH Z T214122 K 0.000 GD  216 VS 5.20 DE 3.50 Q0750.0 QA 1.50 VS 3.50 3
 SPEC SPBCHH Z MO 14.6 ST0.511 OM  2.5 f0 1.32 R1.4576 AL-0.00 WI 30.0 MW  3.6 3
 SPEC SPBCHH Z T214123 K 0.000 GD  220 VS 5.20 DE 3.50 Q0750.0 QA 1.50 VS 3.50 3
 SPEC ROSCBH Z MO 14.6 ST0.199 OM  2.4 f00.946 R2.0338 AL-0.00 WI 30.0 MW  3.7 3
 SPEC ROSCBH Z T214141 K 0.000 GD  293 VS 5.20 DE 3.50 Q0750.0 QA 1.50 VS 3.50 3
 SPEC HEL HH Z MO 14.2 ST0.041 OM  2.0 f00.746 R2.5791 AL-0.00 WI 30.0 MW  3.4 3
 SPEC HEL HH Z T214144 K 0.000 GD  309 VS 5.20 DE 3.50 Q0750.0 QA 1.50 VS 3.50 3
 SPEC ELA HH Z MO 14.5 ST0.062 OM  2.2 f00.699 R2.7525 AL-0.00 WI 30.0 MW  3.6 3
 SPEC ELA HH Z T214156 K 0.000 GD  361 VS 5.20 DE 3.50 Q0750.0 QA 1.50 VS 3.50 3
 SPEC MON HH Z MO 14.4 ST0.103 OM  2.1 f00.875 R2.1989 AL-0.00 WI 30.0 MW  3.5 3
 SPEC MON HH Z T214157 K 0.000 GD  382 VS 5.20 DE 3.50 Q0750.0 QA 1.50 VS 3.50 3
 SPEC ANILHH Z MO 14.2 ST0.215 OM  1.9 f0 1.30 R1.4800 AL-0.00 WI 30.0 MW  3.4 3
 SPEC ANILHH Z T2142 0 K 0.000 GD  387 VS 5.20 DE 3.50 Q0750.0 QA 1.50 VS 3.50 3
 SPEC PRA HH Z MO 14.6 ST0.135 OM  2.3 f00.797 R2.4141 AL-0.00 WI 30.0 MW  3.7 3
 SPEC PRA HH Z T2142 8 K 0.000 GD  420 VS 5.20 DE 3.50 Q0750.0 QA 1.50 VS 3.50 3
 OLDACT:REG 15-11-21 05:15 OP:cara STATUS:               ID:20151120213748     3
 ACTION:UPD 15-12-28 16:12 OP:cam  STATUS:               ID:20151120214033 L   I
 OLDACT:UP  15-11-21 07:13 OP:cara STATUS:               ID:20151120213748     3
 OLDACT:UP  15-11-21 07:11 OP:cara STATUS:               ID:20151120213748     3
 2015-11-20-2137-48M.COL___319                                                 6
 STAT SP IPHASW D HRMM SECON CODA AMPLIT PERI AZIMU VELO AIN AR TRES W  DIS CAZ7
 BAR2 EZ EP     D 2140 53.59                             170   -0.0510 25.2 191 
 BAR2 EZ ES       2141  8.85                             170   -0.1810 25.2 191 
 BAR2 EZ I        2141 11.41       195.6 0.28            168           25.2 191 
 BRR  HZ IP     C 2140 55.48                             153    0.3810 70.9 297 
 BRR  HN ES       2141 12.53                             153    0.9110 70.9 297 
 BRR  HZ I        2141 16.46       118.0 0.34            148           70.9 297 
 PAM  EZ EP       2140 56.48                             152    0.4110 75.5  40 
 PAM  EN ES       2141 13.39                             152    0.0410 75.5  40 
 PAM  EZ I        2141 15.89       102.5 0.44            155           75.5  40 
 RUS  HZ EP       2140 57.53                             143   -0.3110  102 177 
 RUS  HN ES       2141 16.28                             143   -0.2210  102 177 
 RUS  HZ I        2141 17.29        51.2 0.36            147            102 177 
 PTB  HZ EP       2141  0.25                             132   -0.76 9  149 258 
 PTB  HN ES       2141 21.35                             132   -0.80 9  149 258 
 PTB  HZ I        2141 27.81        55.8 0.44            130            149 258 
 OCA  HZ EP       2141  1.63                             130   -0.46 9  159 353 
 OCA  HN ES       2141 24.14                             130    0.06 9  159 353 
 OCA  HZ I        2141 32.16       129.1 0.24            130            159 353 
 SPBC HZ EP       2141  2.69                             129    0.07 9  165 219 
 SPBC HN ES       2141 24.75                             129   -0.26 9  165 219 
 SPBC HZ I        2141 29.34       121.7 0.34            129            165 219 
 ZAR  HZ EP       2141  6.79                             122    0.41 9  204 292 
 ZAR  HE ES       2141 31.68                             122   -0.03 9  204 292 
 ZAR  HZ I        2141 36.83        86.5 0.32            121            204 292 
 NOR  HZ EP       2141  9.71                             118   -0.13 8  236 234 
 NOR  HE ES       2141 37.63                             118   -0.23 8  236 234 
 NOR  HZ I        2141 45.07        36.3 0.24            119            236 234 
 SML  HZ EP     C 2141  9.98                             118   -0.43 8  242 335 
 SML  HN ES       2141 38.71                             118   -0.18 8  242 335 
 SML  HZ I        2141 42.09        67.2 0.10            118            242 335 
 ROSC BZ EP   4   2141 13.34                             117    1.08 0  255 211 
 ROSC BE ES       2141 42.70                             117    0.52 8  255 211 
 ROSC BZ I        2141 48.23       134.9 0.40            118            255 211 
 HEL  HZ EP   4   2141 16.05                             115    1.78 0  273 255 
 HEL  HE ES       2141 46.20                             115    0.45 8  273 255 
 HEL  HZ I        2141 52.08        31.2 0.36            115            273 255 
 VIL  SZ EP   4   2141 14.57                             112   -2.99 0  305 192 
 VIL  SE ES   4   2141 51.89                             112    0.27 0  305 192 
 ELA  HZ EP       2141 21.61                             110    0.64 7  331 229 
 ELA  HN ES       2141 58.20                             110    0.52 7  331 229 
 ELA  HZ I        2142  6.37        38.3 0.50            111            331 229 
 MON  HZ EP   4   2141 20.72                             109   -2.14 0  353 308 
 MON  HN ES   4   2141 59.21                             109   -1.83 0  353 308 
 MON  HZ I        2142 14.59        18.9 0.46            109            353 308 
 ANIL HZ EP       2141 24.29                             108    0.35 6  359 224 
 ANIL HN ES       2142  2.46                             108   -0.50 6  359 224 
 PRA  HZ EP       2141 27.59                             106   -0.08 6  394 210 
 PRA  HN ES       2142 10.14                             106    0.54 6  394 210 
 PRA  HZ I        2142 13.90        49.8 0.52            108            394 210 
 ORTC HZ EP   4   2141 27.79                             106   -0.27 0  397 216 
 ORTC HN ES   4   2142 11.42                             106    1.12 0  397 216 
 ORTC HZ I        2142 15.07        28.4 0.24            107            397 216 
 SJC  HZ EP   4   2141 27.74                             106   -1.61 0  408 327 
 SJC  HN ES   4   2142  8.79                             106   -3.80 0  408 327 
 SJC  HZ I        2142 23.42        18.0 0.74            106            408 327 
                                                                                
