 2011  120 2044 42.1 L   6.766 -73.000146.9  RSN  5 0.2 1.5LRSN                1
 GAP=175        0.50       4.6    17.8  6.3 -0.4979E+02 -0.4011E+02  0.8781E+01E
 Epicentro: CEPITA - SANTANDER                                                 3
 ACTION:UP  11-02-08 08:41 OP:pat  STATUS:               ID:20110120204442 L   I
 2011-01-20-2044-02S.COL___138                                                 6
 STAT SP IPHASW D HRMM SECON CODA AMPLIT PERI AZIMU VELO SNR AR TRES W  DIS CAZ7
 BAR2 SZ EP   1   2045  1.69                             169    -0.3 7   28 226 
 BAR2 SZ ES   2   2045 17.05                             169    -0.4 5   28 226 
 BAR2 SZ I        2045 19.48        10.7 0.27                            28 226 
 BTL  SZ EP   1   2045  2.11                             166     0.0 7   34 300 
 BTL  SZ ES   2   2045 18.15                             166     0.4 5   34 300 
 RUS  HZ EP   1   2045  5.70                             145     0.0 7   97 185 
 RUS  HE ES   2   2045 24.41                             145     0.3 5   97 185 
 RUS  HZ I        2045 25.63         3.8 0.30                            97 185 
 GRA  SZ EP   1   2045  7.62                             137     0.2 7  126  10 
 GRA  SZ ES   2   2045 26.95                             137    -0.2 5  126  10 
 GRA  SZ I        2045 29.47         4.4 0.29                           126  10 
 CHI  HZ EP   1   2045 19.96                             117     0.0 6  250 199 
 CHI  HZ I        2045 57.36         2.6 0.36                           250 199 
                                                                                
