 2011  820 2324 21.0 L   6.782 -73.062147.7  RSN  5 0.3 1.9LRSN                1
 GAP=191        0.62       4.4    10.6  5.7  0.2052E+02 -0.1882E+02 -0.3221E+01E
 Epicentro: LOS SANTOS - SANTANDER                                             3
 ACTION:UPD 12-07-13 15:52 OP:ep   STATUS:               ID:20110820232421 L   I
 2011-08-20-2323-13S.COL___151                                                 6
 STAT SP IPHASW D HRMM SECON CODA AMPLIT PERI AZIMU VELO AIN AR TRES W  DIS CAZ7
 BAR2 SZ EP       2324 40.69                             170   -0.1810 24.9 212 
 BAR2 SZ ES   1   2324 56.42                             170    0.04 7 24.9 212 
 BAR2 SZ I        2324 56.78        11.0 0.52                          24.9 212 
 BRR  HZ EP       2324 42.64                             150   -0.2310 80.3 297 
 BRR  HZ I        2324 42.88        33.7 0.16                          80.3 297 
 BRR  HN ES   1   2325  0.18                             150    0.24 7 80.3 297 
 RUS  HZ EP       2324 45.18                             145    0.4110 98.4 181 
 RUS  HE ES   2   2325  2.72                             145   -0.60 5 98.4 181 
 RUS  HZ I        2325  5.86         6.3 0.50                          98.4 181 
 OCA  SZ EP       2324 49.78                             129    0.03 9  164 350 
 OCA  SZ I        2325 16.12        13.0 0.30                           164 350 
 CHI  HZ EP       2324 58.79                             117   -0.07 8  249 197 
                                                                                
