 2011  220 2155 15.8 L   6.823 -73.135143.5  RSN 15 0.4 3.4LRSN                1
 GAP=104        0.96       3.3     5.0  6.4 -0.4548E+01  0.1033E+02 -0.1017E+01E
 Epicentro: LOS SANTOS - SANTANDER                                             3
 ACTION:UP  11-03-28 15:09 OP:jfem STATUS:               ID:20110220215515 L   I
 2011-02-20-2154-35S.COL___137                                                 6
 STAT SP IPHASW D HRMM SECON CODA AMPLIT PERI AZIMU VELO SNR AR TRES W  DIS CAZ7
 BTL  SZ EP       2155 35.70                             172     0.610   18 306 
 BAR2 SZ IP       2155 35.50                             169     0.210   26 192 
 BAR2 SZ ES   1   2155 50.29                             169    -0.1 7   26 192 
 BAR2 SZ I        2155 53.37       871.7 0.39                            26 192 
 RUS  HZ IP       2155 39.52                             143     0.010  103 177 
 RUS  HE ES   1   2155 58.27                             143     0.2 7  103 177 
 RUS  HZ I        2156  0.25       350.6 0.71                           103 177 
 GRA  SZ IP       2155 40.30                             137    -0.310  123  17 
 GRA  SZ ES   1   2155 59.45                             137    -0.5 7  123  17 
 GRA  SZ I        2156  1.45       346.3 0.35                           123  17 
 OCA  SZ EP       2155 44.16                             130     0.4 9  158 353 
 OCA  SZ I        2156 11.53       367.8 0.31                           158 353 
 YOP  SZ EP       2155 46.04                             126     0.1 9  181 154 
 YOP  SN ES   1   2156  9.24                             126    -0.1 7  181 154 
 YOP  SZ I        2156 14.87       213.9 0.50                           181 154 
 NOR  SZ EP       2155 51.53                             118    -0.2 8  237 234 
 NOR  SN ES   1   2156 18.86                             118    -0.8 6  237 234 
 CHI  HZ EP       2155 53.52                             116    -0.2 8  251 195 
 CHI  HE ES   1   2156 22.79                             116    -0.5 6  251 195 
 CHI  HZ I        2156 27.11       122.3 0.55                           251 195 
 ROSC BE ES   1   2156 24.11                             116     0.1 6  256 211 
 ROSC BZ I        2156 32.74       238.4 0.51                           256 211 
 HEL  HZ EP       2155 56.28                             114     0.1 8  274 255 
 HEL  HN ES   2   2156 26.98                             114    -0.6 4  274 255 
 HEL  HZ I        2156 35.28       217.6 0.53                           274 255 
 VIL  SZ EP       2155 58.80                             112    -0.5 7  304 190 
 VIL  SZ I        2156 37.46        93.4 0.38                           304 190 
 RREF HZ EP       2156  2.52                             110     0.3 7  324 229 
 RREF HZ I        2156 49.80       161.5 0.50                           324 229 
 DBB  SZ EP       2156  3.52                             109     0.2 7  341 274 
 TOL  SZ EP       2156  4.89                             109     0.6 6  346 224 
 SDV  BZ EP       2156  4.83                             108    -0.7 6  358  50 
                                                                                
