 2017  420 2030 14.5 L   6.799 -73.175149.3  RSN 19 0.5 2.5LRSN                1
 GAP=133        1.28       4.3     4.9  6.2  0.2822E+00  0.9441E+01  0.5410E+01E
 Epicentro: LOS SANTOS - SANTANDER                                             3
 ACTION:UPD 17-05-30 21:14 OP:jn   STATUS:               ID:20170420203014 L   I
 OLDACT:UP  17-04-21 03:17 OP:edw  STATUS:               ID:20170420202742     3
 OLDACT:UP  17-04-21 03:16 OP:edw  STATUS:               ID:20170420202742     3
 OLDACT:UP  17-04-21 03:14 OP:edw3 STATUS:               ID:20170420202742     3
 OLDACT:REG 17-04-21 02:45 OP:cara STATUS:               ID:20170420202742     3
 2017-04-20-2028-00M.COL___377                                                 6
 STAT SP IPHASW D HRMM SECON CODA AMPLIT PERI AZIMU VELO AIN AR TRES W  DIS CAZ7
 BAR2 EZ EP       2030 34.53                             171   -0.0310 22.9 182 
 BAR2 EZ ES       2030 49.76                             171   -0.4410 22.9 182 
 BAR2 EZ I        2030 50.60        61.5 0.36            166           22.9 182 
 BRR  HZ IP     D 2030 36.45                             154    0.5610 68.4 300 
 BRR  HN ES       2030 53.40                             154    0.8310 68.4 300 
 BRR  HZ I        2030 57.48        37.2 0.28            150           68.4 300 
 PAM  EZ EP     C 2030 37.33                             150    0.1010 79.6  41 
 PAM  EN ES       2030 54.62                             150   -0.3410 79.6  41 
 PAM  EZ I        2030 56.70        37.0 0.54            157           79.6  41 
 RUS  HZ EP       2030 38.46                             144   -0.1710  101 174 
 RUS  HN ES       2030 57.15                             144   -0.2910  101 174 
 RUS  HZ I        2030 58.79        37.4 0.48            145            101 174 
 PTB  HZ EP       2030 41.61                             133    0.13 9  145 259 
 PTB  HN ES       2031  1.22                             133   -1.30 9  145 259 
 SPBC HZ EP       2030 43.67                             130    0.58 9  161 218 
 SPBC HN ES       2031  5.79                             130    0.41 9  161 218 
 SPBC HZ I        2031 10.34        46.3 0.22            129            161 218 
 ZAR  HZ EP       2030 47.21                             123    0.33 9  201 293 
 ZAR  HN ES       2031 11.97                             123   -0.17 9  201 293 
 ZAR  HZ I        2031 17.88        32.4 0.40            123            201 293 
 NOR  HZ EP       2030 50.63                             119    0.47 8  232 234 
 NOR  HN ES   4   2031 17.12                             119   -0.85 0  232 234 
 NOR  HZ I        2031 27.84        14.2 0.36            119            232 234 
 CHI  HZ EP       2030 52.73                             118    0.42 8  248 194 
 CHI  HN ES       2031 21.85                             118    0.06 8  248 194 
 CHI  HZ I        2031 25.49        18.1 0.64            118            248 194 
 ROSC BZ EP   4   2030 55.04                             117    2.40 0  251 210 
 ROSC BN ES   4   2031 23.65                             117    1.27 0  251 210 
 ROSC BZ I        2031 29.17        41.8 0.45            117            251 210 
 HEL  HZ EP       2030 54.44                             116   -0.12 8  269 256 
 HEL  HN ES       2031 25.95                             116    0.16 8  269 256 
 HEL  HZ I        2031 32.56        16.2 0.28            115            269 256 
 VIL  EZ EP   2   2030 58.34                             113    0.33 4  303 191 
 VIL  EN ES   4   2031 29.85                             113   -2.09 0  303 191 
 VIL  EZ I        2031 35.22        28.6 0.40            113            303 191 
 LL6C HN EP   9   2030 38.39                             111   -22.0 0  325 358 
 LL6C HN ES       2031 15.51                                    1.36 7  325 358 
 ELA  HZ EP   4   2031  3.93                             111    2.71 0  327 229 
 ELA  HN ES   4   2031 40.53                             111    2.87 0  327 229 
 ELA  HZ I        2031 47.20        11.1 0.52            111            327 229 
 CBOC HZ EP       2031  0.71                             111   -0.51 7  330 252 
 CBOC HN ES   4   2031 39.58                             111    1.93 0  330 252 
 CBOC HZ I        2031 46.56         5.2 0.30            111            330 252 
 ANIL HZ EP       2031  3.59                             109   -0.59 6  355 224 
 ANIL HN ES   4   2031 47.44                             109    4.51 0  355 224 
 PRA  HZ EP       2031  8.70                             107    0.74 6  390 209 
 PRA  HN ES   4   2031 48.81                             107   -0.84 0  390 209 
 PRA  HZ I        2031 56.54        15.1 0.74            108            390 209 
 ORTC HZ EP       2031  7.77                             107   -0.55 6  393 216 
 ORTC HN ES   4   2031 49.09                             107   -1.20 0  393 216 
 SJC  HZ EP       2031  8.67                             106   -1.32 6  408 327 
 SJC  HN ES   4   2031 47.55                             106   -5.72 0  408 327 
 SJC  HZ I        2032  1.94         5.3 0.30            107            408 327 
                                                                                
