 2016 1220 2028 46.8 L   6.785 -73.146148.0  RSN  7 0.3 1.9LRSN                1
 GAP=137        0.86       4.2     3.7  6.4 -0.4410E+00  0.6161E+01  0.3649E+01E
 Epicentro: LOS SANTOS - SANTANDER                                             3
 ACTION:UPD 17-01-11 20:17 OP:rebc STATUS:               ID:20161220202846 L   I
 OLDACT:REG 16-12-21 03:02 OP:ar   STATUS:               ID:20161220202743     3
 2016-12-20-2028-00M.COL___381                                                 6
 STAT SP IPHASW D HRMM SECON CODA AMPLIT PERI AZIMU VELO AIN AR TRES W  DIS CAZ7
 BAR2 EZ EP       2029  6.76                             171    0.0410 21.7 191 
 BAR2 EZ ES       2029 22.15                             171   -0.0710 21.7 191 
 BAR2 EZ I        2029 24.41        27.0 0.32            173           21.7 191 
 BRR  HN ES       2029 25.49                             153    0.4910 71.9 300 
 PAM  EZ EP       2029  9.62                             151    0.2410 78.7  39 
 PAM  EN ES       2029 26.64                             151   -0.3210 78.7  39 
 PAM  EZ I        2029 29.72        10.0 0.34            151           78.7  39 
 RUS  HZ EP       2029 10.64                             145   -0.0610 98.9 176 
 RUS  HN ES       2029 29.49                             145    0.1810 98.9 176 
 RUS  HZ I        2029 30.48        10.9 0.36            147           98.9 176 
 PTB  HZ EP       2029 13.66                             133   -0.30 9  147 259 
 PTB  HN ES       2029 34.40                             133   -0.71 9  147 259 
 PTB  HZ I        2029 35.58         6.7 0.09            134            147 259 
 ZAR  HN ES       2029 45.19                             123    0.22 9  205 293 
 ZAR  HZ I        2029 49.88         6.6 0.26            124            205 293 
 GUY2CHZ EP   4   2029 31.84                             113    1.40 0  300 235 
 GUY2CHN ES       2030  4.89                             113    0.44 7  300 235 
 GUY2CHZ I        2030 16.83         4.1 0.42                           300 235 
                                                                                
