 2012  620 2238 52.5 L   6.804 -73.178147.6  RSN  4 0.2 1.5LRSN                1
 GAP=143        0.40       3.3     2.7  5.6 -0.2509E+01  0.2365E+01 -0.7841E-01E
 Epicentro: LOS SANTOS - SANTANDER                                             3
 ACTION:UPD 12-08-06 17:51 OP:ep   STATUS:               ID:20120620223852 L   I
 2012-06-20-2230-00M.COL___199                                                 6
 STAT SP IPHASW D HRMM SECON CODA AMPLIT PERI AZIMU VELO AIN AR TRES W  DIS CAZ7
 BAR2 SZ EP   1   2239 12.25                             171   -0.13 8 23.4 181 
 BAR2 SZ I        2239 31.05         9.3 0.23                          23.4 181 
 PAM  SZ EP   1   2239 15.37                             150    0.31 8 79.4  42 
 PAM  SN ES   1   2239 32.48                             150   -0.15 8 79.4  42 
 RUS  HZ EP   1   2239 16.42                             144   -0.10 8  101 174 
 RUS  HN ES   1   2239 35.31                             144    0.09 8  101 174 
 RUS  HZ I        2239 36.13         2.7 0.28                           101 174 
 PTB  HZ EP   1   2239 19.22                             133   -0.13 7  144 258 
 PTB  HN ES       2239 40.32                             133    0.0610  144 258 
 PTB  HZ I        2239 46.37         5.4 0.28                           144 258 
                                                                                
