 2016  720 2214 32.1 L   6.776 -73.133140.8  RSN  5 0.2 1.4LRSN                1
 GAP=139        0.56       2.9     3.1  4.5  0.1862E+01  0.1741E+01 -0.1868E+00E
 Epicentro: LOS SANTOS - SANTANDER                                             3
 ACTION:UPD 17-03-29 16:53 OP:lp   STATUS:               ID:20160720221432 L   I
 OLDACT:REG 16-07-21 03:44 OP:cara STATUS:               ID:20160720220759     3
 2016-07-20-2207-59S.COL___313                                                 6
 STAT SP IPHASW D HRMM SECON CODA AMPLIT PERI AZIMU VELO AIN AR TRES W  DIS CAZ7
 BAR2 EZ EP       2214 50.68                             171   -0.3610 21.0 195 
 BAR2 HN ES       2215  5.87                             171    0.0210 21.0 195 
 BRR  HZ EP       2214 52.75                             151   -0.0710 73.7 300 
 BRR  HN ES       2215  9.13                             151    0.1210 73.7 300 
 BRR  HZ I        2215  9.57         6.6 0.52            150           73.7 300 
 PAM  EZ IP       2214 53.78                             149   -0.0410 78.6  38 
 PAM  HN ES       2215 10.86                             149    0.0610 78.6  38 
 PAM  EZ I        2215 12.87         5.5 0.56            149           78.6  38 
 RUS  HZ EP       2214 55.53                             144    0.4110 97.8 177 
 RUS  HE ES       2215 12.97                             144   -0.1310 97.8 177 
 RUS  HZ I        2215 13.89         2.0 0.24            145           97.8 177 
 ZAR  HN ES       2215 29.64                             121   -0.02 8  206 293 
 ZAR  HZ I        2215 32.59         2.4 0.24            121            206 293 
                                                                                
