 2014  820 2307 48.5 L   6.802 -73.114147.3  RSN 26 0.4 2.6LRSN                1
 GAP= 73        0.86       2.1     2.5  4.1 -0.6315E+00  0.2393E+01  0.1108E+01E
 Epicentro: LOS SANTOS - SANTANDER                                             3
 ACTION:UPD 14-09-15 21:51 OP:nd   STATUS:               ID:20140820230748 L   I
 OLDACT:REG 14-08-21 05:27 OP:spq  STATUS:               ID:20140820225818     3
 2014-08-20-2258-18M.COL___265                                                 6
 STAT SP IPHASW D HRMM SECON CODA AMPLIT PERI AZIMU VELO AIN AR TRES W  DIS CAZ7
 BAR2 SZ IP     C 23 8  8.20                             170   -0.0910 24.3 198 
 BAR2 SZ ES   1   23 8 23.64                             170   -0.12 7 24.3 198 
 BAR2 SZ I        23 8 24.20       134.2 0.18            169           24.3 198 
 BRR  HZ IP     D 23 8 10.10                             152    0.1610 74.2 297 
 BRR  HE ES       23 8 27.26                             152    0.5610 74.2 297 
 BRR  HZ I        23 8 30.03        55.1 0.25            145           74.2 297 
 PAM  SZ IP     C 23 8 11.18                             152    0.4810 75.1  38 
 PAM  SE ES       23 8 28.08                             152    0.0310 75.1  38 
 PAM  SZ I        23 8 30.23       144.9 0.54            139           75.1  38 
 RUS  HZ EP       23 8 12.13                             144   -0.2310  101 178 
 RUS  HN ES       23 8 31.03                             144    0.0310  101 178 
 RUS  HZ I        23 8 31.80        52.5 0.30            134            101 178 
 PTB  HZ EP       23 8 15.22                             132   -0.64 9  151 259 
 PTB  HE ES       23 8 37.25                             132    0.01 9  151 259 
 PTB  HZ I        23 8 38.77        37.3 0.16            122            151 259 
 TAM  HZ IP     D 23 8 16.49                             132    0.54 9  152 105 
 TAM  HE ES   1   23 8 37.21                             132   -0.18 7  152 105 
 TAM  HZ I        23 8 49.22        18.0 0.26            119            152 105 
 OCA  HZ EP       23 8 16.40                             130   -0.51 9  161 352 
 OCA  HE ES       23 8 38.45                             130   -0.66 9  161 352 
 OCA  HZ I        23 8 45.42        60.0 0.26            118            161 352 
 SPBC HZ EP       23 8 16.78                             129   -0.51 9  166 220 
 SPBC HE ES       23 8 39.48                             129   -0.31 9  166 220 
 SPBC HZ I        23 8 41.65        70.9 0.24            119            166 220 
 ZAR  HZ EP   1   23 8 21.64                             122    0.31 6  207 292 
 ZAR  HN ES       23 8 47.46                             122    0.50 8  207 292 
 ZAR  HZ I        23 8 52.22        45.9 0.28            112            207 292 
 NOR  HZ IP     D 23 8 24.69                             118    0.10 8  238 235 
 NOR  HN ES       23 8 52.25                             118   -0.52 8  238 235 
 NOR  HZ I        23 8 54.32        34.5 0.20            109            238 235 
 SML  HZ EP       23 8 24.80                             118   -0.51 8  245 335 
 SML  HE ES   1   23 8 54.27                             118    0.21 6  245 335 
 SML  HZ I        23 8 55.31        33.4 0.17            108            245 335 
 CHI  HZ EP       23 8 26.46                             117    0.10 8  250 196 
 CHI  HE ES       23 8 55.98                             117    0.06 8  250 196 
 CHI  HZ I        23 8 58.81        15.0 0.30            108            250 196 
 ROSC BZ EP   4   23 8 28.77                             117    1.90 0  255 212 
 ROSC BN ES   4   23 8 58.40                             117    1.57 0  255 212 
 ROSC BZ I        23 9  3.81        35.9 0.35            108            255 212 
 HEL  HN ES   4   23 8 59.65                             115   -1.20 0  275 256 
 HEL  HZ I        23 9  6.87        18.2 0.32            106            275 256 
 VIL  SN ES   1   23 9  6.66                             112    0.62 5  304 192 
 VIL  SZ I        23 9  8.49        18.3 0.50            103            304 192 
 GUY2CHZ EP       23 8 32.82                             112    0.35 7  304 235 
 GUY2CHE ES       23 9  7.52                             112    0.72 7  304 235 
 GUY2CHZ I        23 9 13.10        19.7 0.24                           304 235 
 RREF HZ EP   4   23 8 32.06                             111   -2.92 0  325 230 
 RREF HN ES       23 9 10.92                             111   -0.34 7  325 230 
 RREF HZ I        23 9 16.07        26.9 0.28            102            325 230 
 CBOC HN ES   1   23 9 12.42                             110   -0.34 5  337 252 
 DBB  SZ EP       23 8 36.21                             110   -0.18 7  343 274 
 DBB  SZ ES   1   23 9 13.92                             110    0.14 5  343 274 
 DBB  SZ I        23 9 16.76        38.0 0.39            101            343 274 
 TOL  SZ EP   1   23 8 37.13                             109    0.06 5  346 225 
 TOL  SN ES   4   23 9 16.89                             109    1.90 0  346 225 
 TOL  SZ I        23 9 21.89        43.4 0.40            101            346 225 
 MON  HZ EP   4   23 8 35.66                             109   -2.16 0  356 308 
 MON  HN ES   4   23 9 14.59                             109   -1.73 0  356 308 
 MON  HZ I        23 9 15.19        10.6 0.18            100            356 308 
 ARGC HE ES   1   23 9 17.61                             108    0.45 5  360 340 
 ARGC HZ I        23 9 26.30        18.1 0.42            100            360 340 
 ANIL HZ EP   1   23 8 39.41                             109    0.79 5  360 225 
 ANIL HE ES   4   23 9 19.78                             109    2.04 0  360 225 
 ANIL HZ I        23 9 27.10         4.2 0.28            100            360 225 
 PRA  HZ EP       23 8 42.29                             107    0.04 6  394 210 
 PRA  HE ES   4   23 9 25.21                             107    1.00 0  394 210 
 PRA  HZ I        23 9 29.58        12.3 0.21             98            394 210 
 ORTC HZ EP       23 8 43.04                             106    0.36 6  398 217 
 ORTC HN ES   4   23 9 26.99                             106    2.01 0  398 217 
 ORTC HZ I        23 9 32.63        10.6 0.32             98            398 217 
 SJC  HZ EP   4   23 8 42.53                             106   -1.75 0  411 327 
 SJC  HE ES   4   23 9 24.08                             106   -3.73 0  411 327 
 SJC  HZ I        23 9 28.39        12.7 0.46             97            411 327 
                                                                                
