 2010  220 2109  7.7 L   6.781 -73.040148.8  RSN  9 0.4 2.7LRSN                1
 GAP=194        0.80       3.4     8.4  5.3  0.1682E+00  0.9286E+01  0.3999E+01E
 Epicentro: CEPITA - SANTANDER                                                 3
 ACTION:UP  10-08-24 09:49 OP:vdl  STATUS:               ID:20100220210907 L   I
 2010-02-20-2107-27S.COL___094                                                 6
 STAT SP IPHASW D HRMM SECON CODA AMPLIT PERI AZIMU VELO SNR AR TRES W  DIS CAZ7
 BAR2 SZ IP       21 9 27.72                             170     0.010   26 217 
 BAR2 SZ ES   1   21 9 42.86                             170    -0.5 7   26 217 
 GIR2 SZ EP       21 9 27.81                             165    -0.110   37 333 
 GIR2 SZ ES   1   21 9 43.36                             165    -0.3 7   37 333 
 BRR  HZ IP       21 9 29.61                             149    -0.210   83 296 
 BRR  HZ I        21 9 31.10        94.5 0.12                            83 296 
 BRR  HN ES   1   21 9 47.17                             149     0.1 7   83 296 
 RUS  BZ EP       21 9 31.62                             145     0.010   98 183 
 RUS  BN ES   1   21 9 50.81                             145     0.6 7   98 183 
 RUS  BZ I        21 9 52.27        78.5 0.34                            98 183 
 OCA  SZ EP       21 9 36.58                             130     0.0 9  164 349 
 OCA  SZ ES   1   21 9 59.99                             130     0.9 7  164 349 
 CHI  HZ EP       21 9 45.64                             118    -0.1 8  250 198 
 CHI  HE ES   2   2110 15.61                             118     0.3 4  250 198 
 CHI  HZ I        2110 20.61        22.1 0.64                           250 198 
 HEL  HZ EP   1   21 9 49.23                             114     0.0 6  283 257 
 HEL  HZ I        2110 25.64        19.9 0.14                           283 257 
 RREF BZ EP       21 9 54.81                             111     0.0 7  329 231 
 RREF BZ I        2110 38.60        38.1 0.36                           329 231 
 PRA  HZ EP   1   2110  1.18                             107    -0.6 4  396 211 
 PRA  HZ I        2110  2.79        16.2 0.18                           396 211 
 PRA  HN ES   1   2110 44.73                             107     0.7 4  396 211 
                                                                                
