 2016  920 2022 48.5 L   6.787 -73.193138.0  RSN  4 0.2 1.5LRSN                1
 GAP=240        0.48       5.8     4.4  5.5  0.1446E+02  0.8653E+01 -0.2731E+01E
 Epicentro: ZAPATOCA - SANTANDER                                               3
 ACTION:UPD 17-08-17 21:14 OP:lp   STATUS:               ID:20160920202248 L   I
 OLDACT:REG 16-09-21 03:01 OP:dnl  STATUS:               ID:20160920201736     3
 2016-09-20-2018-00M.COL___360                                                 6
 STAT SP IPHASW D HRMM SECON CODA AMPLIT PERI AZIMU VELO AIN AR TRES W  DIS CAZ7
 BAR2 EZ EP   2   2023  7.43                             171    0.29 5 21.5 177 
 BAR2 EZ ES       2023 21.66                             171   -0.0410 21.5 177 
 BAR2 EZ I        2023 23.05        10.0 0.22            174           21.5 177 
 RUS  HZ EP   2   2023 11.61                             143    0.21 5 99.6 173 
 RUS  HN ES       2023 29.33                             143    0.0510 99.6 173 
 RUS  HZ I        2023 31.37         2.4 0.36            147           99.6 173 
 PTB  HZ EP       2023 13.97                             132   -0.36 9  142 259 
 PTB  HN ES       2023 34.58                             132    0.09 9  142 259 
 PTB  HZ I        2023 37.30         5.5 0.10            131            142 259 
 ZAR  HZ EP   3   2023 20.17                             121    0.18 2  200 293 
 ZAR  HE ES   2   2023 45.06                             121    0.50 4  200 293 
 ZAR  HZ I        2023 51.98         5.6 0.38            121            200 293 
                                                                                
