 2016 1020 2138 14.9 L   6.780 -73.185145.0  RSN  6 0.4 1.6LRSN                1
 GAP=232        0.79       4.9     5.6  7.1  0.1007E+02  0.1783E+02  0.1493E+02E
 Epicentro: LOS SANTOS - SANTANDER                                             3
 ACTION:UPD 16-11-09 19:21 OP:rebc STATUS:               ID:20161020213814 L   I
 OLDACT:REG 16-10-21 03:19 OP:dnl  STATUS:               ID:20161020212744     3
 2016-10-20-2128-00M.COL___340                                                 6
 STAT SP IPHASW D HRMM SECON CODA AMPLIT PERI AZIMU VELO AIN AR TRES W  DIS CAZ7
 BAR2 EZ EP   2   2138 34.25                             171   -0.11 5 20.7 179 
 BAR2 EZ ES       2138 48.99                             171   -0.5710 20.7 179 
 BAR2 EZ I        2138 52.93        12.5 0.46            173           20.7 179 
 BRR  HZ EP   2   2138 36.32                             153    0.53 5 68.5 302 
 BRR  HZ I        2138 51.30        15.9 0.46            144           68.5 302 
 BRR  HN ES       2138 52.24                             153    0.1310 68.5 302 
 RUS  HZ EP   2   2138 38.36                             144   -0.06 5 98.7 173 
 RUS  HE ES       2138 57.39                             144    0.6110 98.7 173 
 RUS  HZ I        2138 58.53         4.9 0.24            140           98.7 173 
 PTB  HZ EP       2138 41.21                             133   -0.14 9  143 259 
 PTB  HE ES       2139  2.10                             133    0.09 9  143 259 
 PTB  HZ I        2139  5.51         4.2 0.12            126            143 259 
 NOR  HZ EP   2   2138 49.77                             119   -0.27 4  230 234 
 NOR  HN ES       2139 17.55                             119    0.08 8  230 234 
 NOR  HZ I        2139 25.23         3.1 0.18            112            230 234 
 CHI  HZ EP   2   2138 52.65                             117    0.48 4  245 194 
 CHI  HE ES       2139 20.80                             117   -0.47 8  245 194 
 CHI  HZ I        2139 27.63         2.3 0.28            110            245 194 
                                                                                
