 2016  720 2047 17.5 L   6.770 -73.118144.4  RSN  5 0.3 1.9LRSN                1
 GAP=142        0.71       3.7     4.0  5.6  0.3056E+01  0.2700E+01 -0.3447E+00E
 Epicentro: LOS SANTOS - SANTANDER                                             3
 ACTION:UPD 17-03-29 16:53 OP:lp   STATUS:               ID:20160720204717 L   I
 OLDACT:DUP 16-07-21 04:27 OP:cara STATUS:               ID:20160720203760d    3
 2016-07-20-2037-59S.COL___313                                                 6
 STAT SP IPHASW D HRMM SECON CODA AMPLIT PERI AZIMU VELO AIN AR TRES W  DIS CAZ7
 BAR2 EZ IP       2047 36.94                             171   -0.0010 20.9 200 
 BAR2 EZ ES       2047 52.41                             171    0.3210 20.9 200 
 BRR  HZ EP       2047 38.84                             151    0.0610 75.5 300 
 BRR  HN ES       2047 55.61                             151    0.2510 75.5 300 
 BRR  HZ I        2047 56.28        17.2 0.32            149           75.5 300 
 PAM  EZ EP       2047 39.91                             150    0.2710 78.1  36 
 PAM  HE ES       2047 56.50                             150   -0.3910 78.1  36 
 PAM  EZ I        2047 59.01        20.8 0.52            151           78.1  36 
 RUS  HZ EP       2047 40.94                             145    0.0510 97.1 178 
 RUS  HN ES       2047 58.81                             145   -0.3010 97.1 178 
 RUS  HZ I        2048  0.68         7.4 0.30            146           97.1 178 
 ZAR  HN ES       2048 15.50                             121   -0.38 8  208 293 
 ZAR  HZ I        2048 21.63         6.8 0.40            121            208 293 
                                                                                
