 2015  620 2056 53.7 L   6.825 -73.164142.0  RSN 20 0.4 2.3LRSN                1
 GAP=133        0.93       2.1     3.3  4.4 -0.1183E+01  0.6031E+01  0.7292E+00E
 Epicentro: LOS SANTOS - SANTANDER                                             3
 ACTION:UPD 15-09-10 22:13 OP:cam  STATUS:               ID:20150620205653 L   I
 OLDACT:REG 15-06-21 06:17 OP:ak   STATUS:               ID:20150620204749     3
 2015-06-20-2047-49M.COL___316                                                 6
 STAT SP IPHASW D HRMM SECON CODA AMPLIT PERI AZIMU VELO AIN AR TRES W  DIS CAZ7
 BAR2 EZ EP     C 2057 12.91                             169   -0.0110 25.9 185 
 BAR2 EZ ES       2057 27.88                             169   -0.0410 25.9 185 
 BAR2 EZ I        2057 30.72        51.9 0.26            167           25.9 185 
 BRR  HZ EP       2057 14.85                             153    0.5910 68.1 297 
 BRR  HN ES       2057 29.94                             153   -0.3610 68.1 297 
 BRR  HZ I        2057 35.66        25.2 0.26            149           68.1 297 
 PAM  SZ EP       2057 15.77                             150    0.3110 76.6  42 
 PAM  SN ES       2057 32.79                             150    0.3610 76.6  42 
 PAM  SZ I        2057 35.01        18.7 0.29            157           76.6  42 
 RUS  HZ EP   1   2057 16.88                             142   -0.41 7  104 175 
 RUS  HN ES       2057 35.24                             142   -0.4610  104 175 
 RUS  HZ I        2057 36.97        13.0 0.14            145            104 175 
 OCA  HZ EP       2057 21.13                             129   -0.30 9  157 354 
 OCA  HN ES       2057 42.94                             129   -0.12 9  157 354 
 OCA  HZ I        2057 47.95        45.9 0.34            132            157 354 
 ZAR  HZ EP       2057 25.64                             122    0.05 9  201 292 
 ZAR  HE ES       2057 51.19                             122    0.71 9  201 292 
 ZAR  HZ I        2057 57.09        22.4 0.23            123            201 292 
 NOR  HZ EP       2057 29.02                             118   -0.19 8  235 234 
 NOR  HN ES       2057 56.54                             118   -0.37 8  235 234 
 NOR  HZ I        2058  1.58        14.6 0.24            119            235 234 
 SML  HZ EP       2057 29.31                             117   -0.43 8  240 335 
 SML  HE ES       2057 57.71                             117   -0.15 8  240 335 
 SML  HZ I        2058  1.39        32.1 0.08            119            240 335 
 CHI  HZ EP       2057 31.08                             116   -0.34 8  251 195 
 CHI  HN ES       2058  0.79                             116   -0.06 8  251 195 
 CHI  HZ I        2058  3.28         7.6 0.22            119            251 195 
 ROSC BZ EP       2057 32.30                             116    0.54 8  254 210 
 ROSC BN ES       2058  2.09                             116    0.64 8  254 210 
 ROSC BZ I        2058 10.53        24.3 0.41            118            254 210 
 HEL  HZ EP       2057 34.20                             114    0.62 8  271 255 
 HEL  HN ES       2058  4.58                             114   -0.11 8  271 255 
 HEL  HZ I        2058 12.25         9.1 0.11            115            271 255 
 URE  HZ EP   4   2057 36.52                             113    2.26 0  281 292 
 URE  HN ES   4   2058  3.59                             113   -2.31 0  281 292 
 URE  HZ I        2058 13.57        11.4 0.28            114            281 292 
 GUY2CHZ EP       2057 37.93                             112    0.80 7  301 234 
 GUY2CHN ES       2058 11.51                             112    0.50 7  301 234 
 GUY2CHZ I        2058 19.73        12.9 0.37                           301 234 
 LL2C HZ EP   2   2057 37.16                             111    0.39 4  303 354 
 LL2C HN ES       2058 10.24                             111   -0.12 7  303 354 
 CBOC HZ EP       2057 40.56                             109    0.22 7  333 252 
 CBOC HN ES       2058 16.45                             109   -0.27 7  333 252 
 CBOC HZ I        2058 35.77         3.2 0.45            111            333 252 
 DBB  SZ EP       2057 40.20                             109   -0.57 7  337 274 
 DBB  SZ ES       2058 16.62                             109   -0.86 7  337 274 
 DBB  SZ I        2058 18.82        18.8 0.36            110            337 274 
 MON  HZ EP   4   2057 38.16                             108   -4.01 0  350 308 
 MON  HN ES   4   2058 17.74                             108   -2.24 0  350 308 
 MON  HZ I        2058 22.46         3.4 0.13            110            350 308 
 PRA  HZ EP       2057 46.73                             106   -0.53 6  393 209 
 PRA  HE ES       2058 29.06                             106    0.03 6  393 209 
 PRA  HZ I        2058 34.70         9.9 0.31            108            393 209 
 ORTC HZ EP       2057 46.71                             106   -0.90 6  397 216 
 ORTC HN ES       2058 29.90                             106    0.23 6  397 216 
 ORTC HZ I        2058 36.82         5.8 0.43            108            397 216 
 SJC  HZ EP   4   2057 47.07                             105   -1.66 0  406 327 
 SJC  HN ES   4   2058 26.06                             105   -5.60 0  406 327 
 SJC  HZ I        2058 35.14         2.5 0.25            107            406 327 
                                                                                
