 2012 1120 2129 58.2 L   6.402 -73.780 94.9  RSN  5 0.2 1.9LRSN                1
 GAP=160        0.65       6.7     5.7 12.2 -0.3310E+02 -0.4004E+02  0.5852E+02E
 Epicentro: SANTA HELENA DEL OPON - SANTANDER                                  3
 ACTION:UPD 12-12-05 15:34 OP:}ep  STATUS:               ID:20121120212958 L   I
 2012-11-20-2130-00M.COL___233                                                 6
 STAT SP IPHASW D HRMM SECON CODA AMPLIT PERI AZIMU VELO AIN AR TRES W  DIS CAZ7
 BAR2 SZ EP       2130 14.61                             141    0.2210 69.3  72 
 BAR2 SZ I        2130 30.05        11.8 0.26                          69.3  72 
 BRR  HZ EP       2130 14.56                             138   -0.2210 78.3   5 
 BRR  HN ES       2130 27.85                             138    0.1810 78.3   5 
 BRR  HN I        2130 28.65        43.8 0.12                          78.3   5 
 GIR2 SZ EP       2130 17.00                             131    0.1910 99.0  41 
 NOR  HZ EP       2130 22.37                             118    0.20 9  152 233 
 NOR  HN ES       2130 40.57                             118   -0.26 9  152 233 
 PAM  SN ES       2130 42.59                             117   -0.38 9  158  49 
                                                                                
