 2013  820 2151  5.1 L   6.778 -73.124150.0  RSN  5 0.4 1.4LRSN                1
 GAP=238        0.77       6.1     6.1  9.7  0.1545E+02 -0.9717E+00  0.8702E-01E
 Epicentro: LOS SANTOS - SANTANDER                                             3
 ACTION:UPD 14-01-14 09:05 OP:ep   STATUS:               ID:20130820215105 L   I
 OLDACT:UP  13-08-20 21:39 OP:jn   STATUS:               ID:20130820214901d    3
 OLDACT:DUP 13-08-20 21:39 OP:jn   STATUS:               ID:20130820214901d    3
 2013-08-20-2149-59M.COL___269                                                 6
 STAT SP IPHASW D HRMM SECON CODA AMPLIT PERI AZIMU VELO AIN AR TRES W  DIS CAZ7
 BRR  HZ EP       2151 27.14                             152    0.2510 74.4 299 
 BRR  HN ES   1   2151 44.12                             152    0.23 7 74.4 299 
 RUS  HZ EP       2151 29.01                             145   -0.0810 98.0 177 
 RUS  HN ES   1   2151 47.75                             145   -0.05 7 98.0 177 
 RUS  HZ I        2151 49.15         1.3 0.28            147           98.0 177 
 PTB  HZ EP   1   2151 32.25                             133   -0.34 7  150 260 
 PTB  HN ES   1   2151 53.29                             133   -0.73 7  150 260 
 PTB  HZ I        2151 59.03         4.9 0.16            131            150 260 
 ZAR  HN ES   1   2152  3.84                             123   -0.08 6  207 293 
 ZAR  HZ I        2152  9.56         4.2 0.26            123            207 293 
 NOR  HE ES   1   2152 10.01                             119    0.77 6  235 235 
                                                                                
