 2017  320 2041 54.9 L   6.798 -73.119148.1  RSN 13 0.4 2.3LRSN                1
 GAP=158        0.90       3.4     3.8  5.2 -0.3716E+01  0.3537E+01  0.6590E+01E
 Epicentro: LOS SANTOS - SANTANDER                                             3
 ACTION:UPD 17-05-25 18:43 OP:jn   STATUS:               ID:20170320204154 L   I
 OLDACT:REG 17-03-21 02:31 OP:cara STATUS:               ID:20170320203745     3
 2017-03-20-2038-00M.COL___388                                                 6
 STAT SP IPHASW D HRMM SECON CODA AMPLIT PERI AZIMU VELO AIN AR TRES W  DIS CAZ7
 BAR2 EZ IP     C 2042 14.77                             170   -0.0210 23.8 197 
 BAR2 EZ ES       2042 30.35                             170    0.0210 23.8 197 
 BAR2 EZ I        2042 31.16        66.7 0.20            168           23.8 197 
 BRR  HZ EP       2042 16.77                             152    0.3510 73.9 298 
 BRR  HN ES       2042 33.60                             152    0.3710 73.9 298 
 BRR  HZ I        2042 34.75        19.2 0.40            150           73.9 298 
 PAM  EZ EP     D 2042 17.41                             152    0.1710 75.7  38 
 PAM  EN ES       2042 34.69                             152    0.0010 75.7  38 
 PAM  EZ I        2042 37.07        19.6 0.52            155           75.7  38 
 PTB  HZ EP       2042 21.85                             132   -0.44 9  151 259 
 PTB  HN ES       2042 43.22                             132   -0.45 9  151 259 
 PTB  HZ I        2042 44.33        21.1 0.14            130            151 259 
 SPBC HZ EP       2042 23.63                             129   -0.08 9  165 220 
 SPBC HN ES       2042 45.88                             129   -0.32 9  165 220 
 SPBC HZ I        2042 48.40        37.5 0.24            128            165 220 
 ZAR  HZ EP       2042 27.67                             122   -0.09 8  207 292 
 ZAR  HN ES       2042 53.00                             122   -0.40 8  207 292 
 ZAR  HE ES       2042 53.66                             122            207 292 
 ZAR  HZ I        2042 58.95        20.2 0.30            122            207 292 
 NOR  HN ES       2042 58.72                             119   -0.42 8  237 235 
 NOR  HZ I        2043  4.59        16.1 0.42            118            237 235 
 CHI  HZ EP       2042 32.81                             117    0.05 8  249 196 
 CHI  HN ES       2043  1.99                             117   -0.33 8  249 196 
 CHI  HZ I        2043 11.05         6.1 0.30            117            249 196 
 URE  HZ EP   4   2042 35.52                             114   -0.85 0  287 292 
 URE  HN ES   4   2043  4.25                             114   -4.48 0  287 292 
 URE  HZ I        2043 16.24        11.6 0.18            113            287 292 
 GUY2CHZ EP       2042 39.60                             113    0.76 7  303 235 
 GUY2CHN ES       2043 13.97                             113    0.83 7  303 235 
 GUY2CHZ  IAML    2043 21.25        15.8 0.38                           303 235 
 PTGC HZ EP   4   2042 37.59                             112   -1.11 0  307 159 
 PTGC HE ES   4   2043 10.30                             112   -2.58 0  307 159 
 ELA  HZ EP   4   2042 45.06                             111    3.00 0  331 230 
 ELA  HE ES       2043 19.72                             111    0.85 7  331 230 
 ELA  HZ I        2043 27.59         8.2 0.34            110            331 230 
 ANIL HZ EP       2042 44.28                             109   -0.71 6  359 225 
 ANIL HE ES       2043 24.48                             109    0.40 6  359 225 
 ANIL HZ I        2043 32.65        20.7 0.34            108            359 225 
 PRA  HZ EP       2042 48.14                             107   -0.48 6  393 210 
 PRA  HE ES       2043 30.88                             107    0.33 6  393 210 
 PRA  HZ I        2043 37.23         9.8 0.26            106            393 210 
                                                                                
