 2015 1020 2143 20.2 L   6.807 -73.117147.6  RSN 11 0.5 1.9LRSN                1
 GAP=140        1.06       3.1     4.3  6.1  0.6058E-01  0.9487E+01  0.1430E+01E
 Epicentro: LOS SANTOS - SANTANDER                                             3
 ACTION:UPD 15-12-22 20:41 OP:cam  STATUS:               ID:20151020214320 L   I
 OLDACT:REG 15-10-21 03:20 OP:ak   STATUS:               ID:20151020213748     3
 2015-10-20-2137-48M.COL___322                                                 6
 STAT SP IPHASW D HRMM SECON CODA AMPLIT PERI AZIMU VELO AIN AR TRES W  DIS CAZ7
 BAR2 EZ EP       2143 40.18                             170    0.0710 24.8 197 
 BAR2 EZ ES       2143 56.21                             170    0.6010 24.8 197 
 BAR2 EZ I        2144  1.09        15.2 0.18            168           24.8 197 
 BRR  HZ EP       2143 41.80                             152    0.0910 73.6 297 
 BRR  HN ES       2143 58.23                             152   -0.2310 73.6 297 
 PAM  EZ EP       2143 42.84                             152    0.3510 74.8  38 
 PAM  EN ES       2143 59.65                             152   -0.2010 74.8  38 
 PAM  EZ I        2144  1.26        11.6 0.18            156           74.8  38 
 RUS  HZ EP       2143 44.09                             144   -0.1110  101 178 
 RUS  HE ES       2144  2.90                             144   -0.0010  101 178 
 RUS  HZ I        2144  4.25         6.3 0.24            146            101 178 
 SPBC HZ EP       2143 49.14                             129    0.03 9  166 220 
 SPBC HN ES       2144 11.41                             129   -0.23 9  166 220 
 SPBC HZ I        2144 15.46        11.9 0.21            130            166 220 
 ZAR  HZ EP       2143 53.28                             122    0.22 8  207 292 
 ZAR  HE ES       2144 19.16                             122    0.49 8  207 292 
 ZAR  HZ I        2144 24.38        15.1 0.40            123            207 292 
 NOR  HZ EP   4   2143 54.73                             118   -1.66 0  238 235 
 NOR  HN ES       2144 23.81                             118   -0.78 8  238 235 
 NOR  HZ I        2144 31.23         7.0 0.14            119            238 235 
 SML  HZ EP   1   2143 56.35                             118   -0.67 6  244 335 
 SML  HE ES       2144 24.74                             118   -0.98 8  244 335 
 SML  HZ I        2144 33.23        12.1 0.12            119            244 335 
 CHI  HZ EP       2143 58.52                             117    0.32 8  250 196 
 CHI  HN ES       2144 26.92                             117   -0.90 8  250 196 
 CHI  HZ I        2144 35.89         2.8 0.48            119            250 196 
 URE  HZ EP   4   2144  0.34                             114   -1.34 0  286 292 
 URE  HE ES       2144 34.43                             114    0.42 7  286 292 
 URE  HZ I        2144 44.31         6.8 0.08            114            286 292 
 GUY2CHZ EP       2144  4.93                             112    0.67 7  304 235 
 GUY2CHE ES       2144 39.07                             112    0.46 7  304 235 
 GUY2CHZ I        2144 48.40         4.5 0.70                           304 235 
 SJC  HZ EP   4   2144 14.34                             106   -1.63 0  410 327 
 SJC  HE ES   4   2144 55.69                             106   -3.76 0  410 327 
                                                                                
