 2017  920 2330 47.0 L   6.799 -73.148140.0  RSN  4 0.3 1.3LRSN                1
 GAP=136        0.75       3.9     5.7  6.7 -0.3620E+00 -0.2557E+01  0.1885E+01E
 Epicentro: LOS SANTOS - SANTANDER                                             3
 ACTION:UPD 17-10-05 19:14 OP:rebc STATUS:               ID:20170920233047 L   I
 OLDACT:UP  17-09-21 08:08 OP:mg   STATUS:               ID:20170920232740     3
 OLDACT:UP  17-09-21 08:08 OP:mg   STATUS:               ID:20170920232740     3
 OLDACT:UP  17-09-21 08:07 OP:mg   STATUS:               ID:20170920232740     3
 OLDACT:REG 17-09-21 05:25 OP:mg   STATUS:               ID:20170920232740     3
 2017-09-20-2328-00M.COL___450                                                 6
 STAT SP IPHASW D HRMM SECON CODA AMPLIT PERI AZIMU VELO AIN AR TRES W  DIS CAZ7
 BAR2 EZ EP   4   2331  6.62                             170    0.69 0 23.2 189 
 BAR2 EZ ES   1   2331 20.02                             170   -0.68 7 23.2 189 
 BAR2 EZ I        2331 21.72         5.0 0.09            167           23.2 189 
 BRR  HZ EP       2331  7.55                             152    0.0310 71.1 299 
 BRR  HN ES       2331 23.65                             152    0.1310 71.1 299 
 BRR  HZ I        2331 26.58         7.4 0.41            153           71.1 299 
 PAM  EZ EP       2331  8.59                             150   -0.0310 77.6  40 
 PAM  EN ES       2331 25.62                             150    0.1410 77.6  40 
 PAM  EZ I        2331 26.01         2.1 0.34            155           77.6  40 
 RUS  HZ EP       2331  9.91                             143   -0.2710  100 176 
 RUS  HN ES       2331 28.65                             143    0.3910  100 176 
 RUS  HZ I        2331 34.05         2.2 0.32            143            100 176 
                                                                                
