 2014  120 2326 46.1 L   6.804 -73.157148.4  RSN 10 0.4 2.1LRSN                1
 GAP=135        1.10       3.4     4.4  6.4 -0.1510E+01  0.7019E+01  0.3230E+01E
 Epicentro: LOS SANTOS - SANTANDER                                             3
 ACTION:UPD 14-03-13 09:57 OP:ep   STATUS:               ID:20140120232646 L   I
 OLDACT:REG 14-01-21 05:01 OP:carl STATUS:               ID:20140120232000     3
 2014-01-20-2320-00M.COL___279                                                 6
 STAT SP IPHASW D HRMM SECON CODA AMPLIT PERI AZIMU VELO AIN AR TRES W  DIS CAZ7
 BAR2 SZ EP       2327  6.13                             171    0.1110 23.6 187 
 BAR2 SZ ES       2327 21.38                             171   -0.2110 23.6 187 
 BRR  HZ EP       2327  8.19                             153    0.7610 69.9 299 
 BRR  HN ES       2327 25.11                             153    1.0210 69.9 299 
 PAM  SZ EP       2327  8.88                             151    0.2910 77.8  40 
 PAM  SN ES       2327 25.86                             151   -0.2910 77.8  40 
 RUS  HZ EP       2327  9.94                             144   -0.1810  101 175 
 RUS  HN ES       2327 28.73                             144   -0.1510  101 175 
 RUS  HZ I        2327 29.62        12.9 0.30            145            101 175 
 PTB  HZ EP       2327 12.79                             133   -0.36 9  147 259 
 PTB  HN ES       2327 33.79                             133   -0.49 9  147 259 
 PTB  HZ I        2327 35.97        18.5 0.50            131            147 259 
 OCA  HE ES       2327 36.13                             130   -0.59 9  160 354 
 OCA  HZ I        2327 40.18        23.7 0.20            130            160 354 
 SPBC HN ES       2327 37.05                             130   -0.04 9  163 219 
 SPBC HZ I        2327 39.29        17.6 0.38            129            163 219 
 ZAR  HZ EP       2327 18.05                             123   -0.50 9  203 292 
 ZAR  HN ES       2327 43.85                             123   -0.04 9  203 292 
 ZAR  HZ I        2327 50.02        14.8 0.44            122            203 292 
 NOR  HZ EP       2327 22.39                             119    0.52 8  234 234 
 NOR  HN ES       2327 49.62                             119   -0.19 8  234 234 
 NOR  HZ I        2327 53.70        12.1 0.16            119            234 234 
 CHI  HZ EP       2327 24.06                             118    0.13 8  249 195 
 CHI  HN ES       2327 53.48                             118    0.02 8  249 195 
 CHI  HZ I        2327 57.50         4.0 0.64            118            249 195 
                                                                                
