 2016 1120 2349 20.6 L   6.705 -73.140136.0  RSN  4 0.1 1.2LRSN                1
 GAP=166        0.44       4.4     2.6  4.4 -0.5600E+01  0.5399E+01 -0.5620E+01E
 Epicentro: VILLANUEVA - SANTANDER                                             3
 ACTION:UPD 17-10-26 21:10 OP:lp   STATUS:               ID:20161120234920 L   I
 OLDACT:REG 16-11-21 04:24 OP:lv   STATUS:               ID:20161120234743     3
 2016-11-20-2348-00M.COL___343                                                 6
 STAT SP IPHASW D HRMM SECON CODA AMPLIT PERI AZIMU VELO AIN AR TRES W  DIS CAZ7
 BAR2 EZ ES       2349 53.01                             174   -0.1110 13.3 201 
 PAM  EZ EP       2349 42.39                             146    0.1010 85.4  35 
 PAM  EN ES       2349 59.24                             146    0.0210 85.4  35 
 PAM  EZ I        2350  1.96         2.7 0.20            144           85.4  35 
 PTB  HZ EP       2349 46.51                             130   -0.16 9  147 263 
 PTB  HN ES       2350  7.26                             130    0.24 9  147 263 
 PTB  HZ I        2350  8.59         1.6 0.19            130            147 263 
 ZAR  HN ES       2350 18.00                             119   -0.13 8  209 295 
 ZAR  HZ I        2350 23.27         1.9 0.18            119            209 295 
                                                                                
