 2012 1020 2151 11.6 L   6.818 -73.136150.2  RSN 22 0.5 4.4LRSN 4.4WRSN        1
 SPEC AVERAGE  MO 15.7 ST166.3 OM  3.5 f0 2.51 R0.6853 AL 1.94 WI 30.8 MW  4.4 3
 SPEC SD       MO  0.2 ST156.0 OM  0.6 f00.865 R0.3337 AL      WI      MW  0.1 3
 GAP= 66        0.90       3.1     3.3  4.8  0.7574E+00  0.5233E+01  0.4855E+01E
 Epicentro: LOS SANTOS - SANTANDER                                             3
 SPEC SMARHH N MO 15.8 ST331.4 OM  3.7 f0 3.41 R0.4311 AL 1.75 WI 23.1 MW  4.5 3
 SPEC SMARHH N T2153 4 K 0.000 GD  517 VS 4.20 DE 3.00 Q0230.0 QA 0.60 VS 4.20 3
 SPEC ZAR HH Z MO 15.5 ST 72.9 OM  3.0 f0 2.47 R0.5951 AL 1.77 WI 23.9 MW  4.3 3
 SPEC ZAR HH Z T215143 K 0.000 GD  253 VP 7.60 DE 3.00 Q0230.0 QA 0.60 VS 4.20 3
 SPEC TAM HH Z MO 15.6 ST 14.9 OM  3.1 f0 1.42 R1.0352 AL 1.06 WI 17.2 MW  4.3 3
 SPEC TAM HH Z T215139 K 0.000 GD  215 VP 7.60 DE 3.00 Q0230.0 QA 0.60 VS 4.20 3
 SPEC POP2HH Z MO 15.3 ST 16.3 OM  2.4 f0 1.75 R0.8400 AL 1.53 WI 53.3 MW  4.2 3
 SPEC POP2HH Z T215230 K 0.000 GD  633 VP 7.60 DE 3.00 Q0230.0 QA 0.60 VS 4.20 3
 SPEC RREFHH Z MO 15.8 ST365.1 OM  3.1 f0 3.49 R0.4212 AL 2.04 WI 34.8 MW  4.5 3
 SPEC RREFHH Z T215157 K 0.000 GD  357 VP 7.60 DE 3.00 Q0230.0 QA 0.60 VS 4.20 3
 SPEC ROSCBH Z MO 16.0 ST163.9 OM  3.4 f0 2.26 R0.6504 AL 3.19 WI 27.0 MW  4.6 3
 SPEC ROSCBH Z T215151 K 0.000 GD  295 VP 7.60 DE 3.00 Q0230.0 QA 0.60 VS 4.20 3
 SPEC NOR HH E MO 16.0 ST308.0 OM  4.2 f0 2.78 R0.5288 AL 2.20 WI 30.3 MW  4.6 3
 SPEC NOR HH E T215215 K 0.000 GD  280 VS 4.20 DE 3.00 Q0230.0 QA 0.60 VS 4.20 3
 SPEC OCA HH Z MO 15.3 ST 44.1 OM  2.8 f0 2.56 R0.5742 AL 1.63 WI 21.7 MW  4.1 3
 SPEC OCA HH Z T215139 K 0.000 GD  218 VP 7.60 DE 3.00 Q0230.0 QA 0.60 VS 4.20 3
 SPEC RUS HH Z MO 15.6 ST  3.8 OM  3.2 f00.881 R1.6686 AL 1.15 WI 17.9 MW  4.3 3
 SPEC RUS HH Z T215135 K 0.000 GD  182 VP 7.60 DE 3.00 Q0230.0 QA 0.60 VS 4.20 3
 SPEC FLO2HH Z MO 15.7 ST172.4 OM  2.7 f0 3.01 R0.4884 AL 2.36 WI 55.5 MW  4.4 3
 SPEC FLO2HH Z T215233 K 0.000 GD  660 VP 7.60 DE 3.00 Q0230.0 QA 0.60 VS 4.20 3
 SPEC HEL HH Z MO 15.7 ST 75.7 OM  3.1 f0 2.16 R0.6806 AL 1.68 WI 32.2 MW  4.4 3
 SPEC HEL HH Z T215151 K 0.000 GD  312 VP 7.60 DE 3.00 Q0230.0 QA 0.60 VS 4.20 3
 SPEC CHI HH Z MO 15.7 ST 82.3 OM  3.1 f0 2.27 R0.6476 AL 1.87 WI 27.7 MW  4.4 3
 SPEC CHI HH Z T215149 K 0.000 GD  292 VP 7.60 DE 3.00 Q0230.0 QA 0.60 VS 4.20 3
 SPEC BRR HH N MO 15.7 ST510.6 OM  4.1 f0 4.23 R0.3475 AL 3.04 WI 36.3 MW  4.4 3
 SPEC BRR HH N T215150 K 0.000 GD  166 VS 4.20 DE 3.00 Q0230.0 QA 0.60 VS 4.20 3
 ACTION:UPD 12-11-22 17:04 OP:ep   STATUS:               ID:20121020215111 L   I
 2012-10-20-2150-00M.COL___233                                                 6
 STAT SP IPHASW D HRMM SECON CODA AMPLIT PERI AZIMU VELO AIN AR TRES W  DIS CAZ7
 BAR2 SZ IP       2151 31.79                             170   -0.0110 25.5 191 
 BAR2 SZ ES   1   2151 47.16                             170   -0.41 7 25.5 191 
 BAR2 SZ I        2151 48.34      4512.9 0.38                          25.5 191 
 GIR2 SZ IP       2151 31.86                             168    0.1110 29.5 348 
 GIR2 SZ ES   1   2151 46.88                             168   -0.59 7 29.5 348 
 BRR  HZ IP     D 2151 33.69                             153    0.4710 71.2 297 
 BRR  HN ES   1   2151 51.03                             153    0.93 7 71.2 297 
 BRR  HZ I        2151 54.31      1468.2 0.20                          71.2 297 
 PAM  SZ IP       2151 34.64                             152    0.4810 75.2  40 
 PAM  SN ES   1   2151 51.71                             152   -0.05 7 75.2  40 
 RUS  HZ IP     D 2151 35.58                             144   -0.3410  103 177 
 RUS  HN ES   1   2151 54.01                             144   -0.89 7  103 177 
 TAM  HZ I        2151 39.90      2799.7 0.32                           155 106 
 TAM  HZ IP     D 2151 39.94                             131    0.35 9  155 106 
 TAM  HN ES   1   2152  1.42                             131    0.00 7  155 106 
 OCA  HZ EP       2151 39.87                             131   -0.21 9  158 353 
 OCA  HN ES   1   2152  1.77                             131   -0.53 7  158 353 
 YOP  SZ IP       2151 42.23                             127    0.14 9  180 154 
 YOP  SZ I        2151 42.42      1879.5 0.46                           180 154 
 YOP  SN ES   2   2152  6.95                             127    1.07 4  180 154 
 ZAR  HZ EP       2151 43.88                             123   -0.47 9  204 292 
 ZAR  HE ES   1   2152 10.06                             123    0.16 6  204 292 
 NOR  HZ IP     C 2151 47.56                             119   -0.24 8  237 234 
 NOR  HE ES   2   2152 15.88                             119   -0.16 4  237 234 
 NOR  HN I        2152 20.70      3069.7 0.34                           237 234 
 CHI  HZ IP     D 2151 49.43                             118   -0.35 8  251 195 
 CHI  HN ES   2   2152 19.11                             118   -0.46 4  251 195 
 ROSC BZ IP     D 2151 51.25                             117    1.05 8  255 211 
 ROSC BZ I        2152 25.88      2266.2 0.40                           255 211 
 HEL  HZ EP   1   2151 51.76                             115   -0.44 6  274 255 
 HEL  HN ES   2   2152 24.52                             115    0.65 4  274 255 
 GUY  SZ EP       2151 55.86                             113   -0.04 7  306 235 
 GUY  SN ES   2   2152 31.79                             113    1.34 4  306 235 
 RREF HZ EP       2151 57.73                             111   -0.44 7  324 229 
 RREF HN ES   2   2152 34.77                             111    0.27 3  324 229 
 RREF HZ I        2152 40.19      1150.1 0.26                           324 229 
 DBB  SZ IP       2151 59.27                             110   -0.08 7  340 274 
 DBB  SZ I        2152 37.75       945.6 0.86                           340 274 
 ANIL HZ EP       2152  2.04                             109    0.22 6  359 224 
 ANIL HN ES   2   2152 40.87                             109   -0.13 3  359 224 
 PAL  HZ EP   4   2152  7.29                             106    0.16 0  408 239 
 GUA  SZ EP   3   2152 13.15                             104   -1.94 1  476 173 
 GUA  SN ES   3   2153  3.78                             104   -0.84 1  476 173 
 GUA  SZ I        2153  8.45       395.3 0.24                           476 173 
 SMAR HZ EP   2   2152 16.41                             103   -0.97 2  495 346 
 POP2 HZ IP       2152 31.21                             100   -0.75 3  615 220 
 FLO2 HZ EP       2152 33.78                              99   -1.29 2  643 206 
 CRU  SZ EP       2152 44.76                              98    0.14 1  719 216 
                                                                                
