 2013  220 2156  8.9 L   6.812 -73.168148.6  RSN  9 0.4 2.4LRSN                1
 GAP=133        0.86       3.8     4.3  6.6  0.1969E+01 -0.4271E+00 -0.2592E+01E
 Epicentro: LOS SANTOS - SANTANDER                                             3
 ACTION:UPD 13-03-12 09:34 OP:ep   STATUS:               ID:20130220215608 L   I
 2013-02-20-2150-00M.COL___238                                                 6
 STAT SP IPHASW D HRMM SECON CODA AMPLIT PERI AZIMU VELO AIN AR TRES W  DIS CAZ7
 BAR2 SZ EP   1   2156 28.49                             171   -0.44 7 24.4 184 
 BAR2 SZ ES   1   2156 44.59                             171    0.07 7 24.4 184 
 BAR2 SZ I        2156 46.52        36.0 0.32            171           24.4 184 
 BRR  HZ IP     D 2156 30.85                             154    0.6110 68.4 299 
 BRR  HN ES   1   2156 47.43                             154    0.57 7 68.4 299 
 BRR  HN I        2156 48.60        59.5 0.42            151           68.4 299 
 PAM  SZ EP     D 2156 31.81                             151    0.3210 77.9  42 
 PAM  SN ES   2   2156 48.76                             151   -0.32 5 77.9  42 
 PAM  SN I        2156 49.44        18.6 0.42            153           77.9  42 
 RUS  HZ EP       2156 32.93                             144   -0.1510  102 175 
 RUS  HE ES   1   2156 51.87                             144   -0.04 7  102 175 
 RUS  HE I        2156 54.58        13.2 0.48            146            102 175 
 PTB  HZ EP       2156 35.58                             133   -0.37 9  146 258 
 PTB  HN ES       2156 56.37                             133   -0.65 9  146 258 
 PTB  HN I        2157  2.37        38.3 0.44            132            146 258 
 OCA  HZ EP   1   2156 37.09                             131   -0.23 7  159 354 
 OCA  HN ES   2   2156 58.97                             131   -0.49 5  159 354 
 OCA  HN I        2157  4.39        62.6 0.26            130            159 354 
 ZAR  HN ES       2157  6.94                             124    0.42 9  201 292 
 ZAR  HN I        2157 12.19        36.2 0.42            122            201 292 
 SML  HZ EP   1   2156 45.19                             118   -0.29 6  241 336 
 SML  HN ES   2   2157 13.52                             118   -0.46 4  241 336 
 SML  HN I        2157 23.72        26.2 0.10            118            241 336 
 CHI  HZ EP   1   2156 47.41                             118    0.54 6  249 195 
 CHI  HN ES   2   2157 16.40                             118   -0.06 4  249 195 
 CHI  HN I        2157 21.61         9.8 0.28            118            249 195 
                                                                                
