 2010  820 2139 29.3 L   6.820 -73.021140.0  RSN  6 0.3 1.5LRSN                1
 GAP=172        0.49       4.5     8.0  6.9 -0.5731E+01 -0.1267E+02 -0.8945E+01E
 Epicentro: CEPITA - SANTANDER                                                 3
 ACTION:UP  10-09-07 10:56 OP:vdl  STATUS:               ID:20100820213929 L   I
 2010-08-20-2138-05S.COL___119                                                 6
 STAT SP IPHASW D HRMM SECON CODA AMPLIT PERI AZIMU VELO SNR AR TRES W  DIS CAZ7
 BTL  SZ EP   1   2139 47.92                             167    -0.5 7   29 292 
 BTL  SZ ES   2   2140  3.17                             167    -0.1 5   29 292 
 BAR2 SZ ES   2   2140  3.65                             166     0.3 5   31 215 
 BAR2 SZ I        2140  5.06         5.7 0.62                            31 215 
 BRR  HZ EP   1   2139 50.69                             147     0.1 7   83 293 
 BRR  HZ I        2139 51.13         8.0 0.47                            83 293 
 BRR  HN ES   2   2140  7.14                             147     0.0 5   83 293 
 RUS  HZ EP   3   2139 52.73                             142     0.1 2  103 184 
 RUS  HN ES   2   2140 10.94                             142     0.1 5  103 184 
 GUE  SZ EP   3   2139 53.89                             139     0.8 2  112   5 
 GRA  SZ EP   1   2139 53.70                             137     0.1 7  120  12 
 GRA  SZ I        2139 56.28         3.5 0.34                           120  12 
 GRA  SZ ES   2   2140 12.38                             137    -0.1 5  120  12 
                                                                                
