 2012  720 2216 56.7 L   6.733 -73.140136.4  RSN  7 0.4 2.0LRSN                1
 GAP=140        1.12       5.2     5.2  8.2 -0.1515E+01  0.1053E+02  0.1856E+01E
 Epicentro: JORDAN - SANTANDER                                                 3
 ACTION:UPD 12-08-14 11:46 OP:ep   STATUS:               ID:20120720221656 L   I
 2012-07-20-2210-00M.COL___215                                                 6
 STAT SP IPHASW D HRMM SECON CODA AMPLIT PERI AZIMU VELO AIN AR TRES W  DIS CAZ7
 BAR2 SZ EP       2217 15.33                             173     0.210   16 197 
 BAR2 SZ ES       2217 29.27                             173    -0.210   16 197 
 BAR2 SZ I        2217 31.51        21.5 0.13            172             16 197 
 BRR  HZ EP       2217 17.20                             149     0.110   76 303 
 BRR  HZ I        2217 17.72        32.5 0.10            147             76 303 
 BRR  HN ES       2217 33.68                             149     0.610   76 303 
 PAM  SZ EP       2217 18.29                             147     0.010   83  36 
 PAM  SE ES       2217 34.79                             147    -0.410   83  36 
 RUS  HZ EP       2217 19.62                             144     0.610   93 176 
 RUS  HN ES       2217 36.16                             144    -0.210   93 176 
 PTB  HZ EP       2217 22.20                             130    -0.7 9  147 262 
 PTB  HE ES   1   2217 42.85                             130    -0.4 7  147 262 
 PTB  HZ I        2217 45.91        19.0 0.05            129            147 262 
 ZAR  HE ES   1   2217 54.08                             120     0.0 6  208 294 
 ZAR  HZ I        2218  0.11         7.0 0.12            119            208 294 
 NOR  SN ES   1   2217 58.86                             117     0.2 6  231 236 
