 2015  320 2225  7.1 L   6.799 -73.149149.2  RSN  9 0.4 1.7LRSN                1
 GAP=136        0.87       3.6     4.4  6.0 -0.2548E+01  0.4769E+01 -0.1120E+01E
 Epicentro: LOS SANTOS - SANTANDER                                             3
 ACTION:UPD 15-04-30 16:27 OP:nd   STATUS:               ID:20150320222507 L   I
 OLDACT:REG 15-03-21 03:36 OP:spq  STATUS:               ID:20150320221749     3
 2015-03-20-2217-49M.COL___275                                                 6
 STAT SP IPHASW D HRMM SECON CODA AMPLIT PERI AZIMU VELO AIN AR TRES W  DIS CAZ7
 BAR2 EZ EP   1   2225 26.97                             171   -0.12 7 23.1 189 
 BAR2 EZ ES   1   2225 42.15                             171   -0.57 7 23.1 189 
 BAR2 EZ I        2225 43.38        12.7 0.18            169           23.1 189 
 BRR  HZ EP       2225 28.82                             153    0.2610 70.9 299 
 BRR  HN ES       2225 46.14                             153    0.8110 70.9 299 
 BRR  HZ I        2225 47.59         9.6 0.46            150           70.9 299 
 PAM  SZ EP       2225 29.71                             151    0.0510 77.8  40 
 PAM  SN ES   1   2225 47.54                             151    0.25 7 77.8  40 
 PAM  SZ I        2225 48.76         3.1 0.44            155           77.8  40 
 RUS  HE ES   1   2225 49.61                             145   -0.31 7  100 176 
 RUS  HZ I        2225 50.20         3.8 0.48            146            100 176 
 PTB  HZ EP       2225 33.97                             133   -0.30 9  147 259 
 PTB  HN ES       2225 54.85                             133   -0.64 9  147 259 
 PTB  HZ I        2226  0.19         5.8 0.38            131            147 259 
 SPBC HZ EP       2225 36.02                             130    0.24 9  163 219 
 SPBC HE ES       2225 58.29                             130    0.10 9  163 219 
 SPBC HZ I        2226  3.73        10.5 0.10            130            163 219 
 ZAR  HZ EP   1   2225 39.71                             123    0.02 6  204 292 
 ZAR  HN ES   1   2226  5.19                             123    0.04 6  204 292 
 ZAR  HZ I        2226 11.08         5.2 0.29            123            204 292 
 SML  HZ EP   1   2225 43.48                             118   -0.39 6  244 335 
 SML  HE ES   1   2226 12.11                             118   -0.48 6  244 335 
 SML  HZ I        2226 15.65        10.6 0.10            119            244 335 
 PRA  HZ EP   2   2226  0.65                             107   -0.00 3  392 210 
 PRA  HE ES   1   2226 43.13                             107    0.67 4  392 210 
 PRA  HZ I        2226 47.55         1.5 0.64            108            392 210 
                                                                                
