 2010  820 2253  0.2 L   7.396 -73.132134.0  RSN  5 0.3 1.8LRSN                1
 GAP=150        0.43       5.7     8.5  8.2 -0.2953E+02 -0.1512E+01  0.1607E+02E
 Epicentro: EL PLAYON - SANTANDER                                              3
 ACTION:UP  10-09-07 10:56 OP:vdl  STATUS:               ID:20100820225300 L   I
 2010-08-20-2250-27S.COL___120                                                 6
 STAT SP IPHASW D HRMM SECON CODA AMPLIT PERI AZIMU VELO SNR AR TRES W  DIS CAZ7
 BTL  SZ EP       2253 19.51                             156    -0.110   55 196 
 BTL  SZ ES   3   2253 34.21                             156    -0.5 2   55 196 
 GRA  SZ ES   1   2253 35.40                             153     0.0 7   65  34 
 GRA  SZ I        2253 37.30        15.0 0.25                            65  34 
 BRR  HZ EP   3   2253 20.85                             151     0.7 2   72 244 
 BRR  HE ES   2   2253 35.57                             151    -0.1 5   72 244 
 BAR2 SZ ES   2   2253 38.75                             144     0.4 5   89 184 
 BAR2 SZ I        2253 40.13        12.9 0.09                            89 184 
 RUS  HN ES   3   2253 50.79                             126    -0.1 2  166 178 
                                                                                
