 2016  920 2326  9.7 L   6.804 -73.157147.3  RSN  8 0.5 2.3LRSN                1
 GAP=135        1.19       4.2     5.1  7.9 -0.2134E+01  0.7415E+01  0.1322E+01E
 Epicentro: LOS SANTOS - SANTANDER                                             3
 ACTION:UPD 17-08-17 21:14 OP:lp   STATUS:               ID:20160920232609 L   I
 OLDACT:REG 16-09-21 03:07 OP:dnl  STATUS:               ID:20160920231740     3
 2016-09-20-2318-00M.COL___354                                                 6
 STAT SP IPHASW D HRMM SECON CODA AMPLIT PERI AZIMU VELO AIN AR TRES W  DIS CAZ7
 BAR2 EZ EP       2326 29.56                             170    0.0810 23.5 187 
 BAR2 EZ ES       2326 44.51                             170   -0.4210 23.5 187 
 BAR2 EZ I        2326 47.85        21.7 0.56            175           23.5 187 
 BRR  HZ EP       2326 31.37                             153    0.4710 69.9 299 
 BRR  HE ES       2326 48.55                             153    1.0810 69.9 299 
 BRR  HZ I        2326 52.24        31.6 0.44            151           69.9 299 
 PAM  EZ EP       2326 32.42                             151    0.3610 77.9  40 
 PAM  EE ES       2326 49.54                             151    0.0010 77.9  40 
 PAM  EZ I        2326 51.74        45.8 0.48            151           77.9  40 
 RUS  HZ EP       2326 33.45                             144   -0.1410  101 175 
 RUS  HE ES       2326 52.26                             144   -0.0010  101 175 
 RUS  HZ I        2326 53.47        20.1 0.34            150            101 175 
 PTB  HZ EP       2326 36.39                             133   -0.26 9  147 259 
 PTB  HN ES       2326 57.27                             133   -0.43 9  147 259 
 PTB  HZ I        2326 59.35        14.5 0.16            134            147 259 
 OCA  HZ EP   2   2326 37.93                             130   -0.11 5  160 354 
 OCA  HE ES       2326 59.19                             130   -0.98 9  160 354 
 OCA  HZ I        2327 11.37        66.4 0.26            130            160 354 
 SPBC HZ EP       2326 38.52                             129    0.29 9  163 219 
 SPBC HN ES       2327  0.20                             129   -0.32 9  163 219 
 SPBC HZ I        2327  2.33        27.3 0.14            133            163 219 
 ZAR  HZ EP   4   2326 44.16                             123    2.09 0  203 292 
 ZAR  HN ES       2327  7.40                             123    0.05 9  203 292 
 ZAR  HZ I        2327 13.39        17.1 0.30            124            203 292 
                                                                                
