 2012  820 2122 32.8 L   6.713 -73.165150.8  RSN  5 0.2 1.5LRSN                1
 GAP=138        0.57       4.2     4.4  6.6  0.4012E+01 -0.1036E+02 -0.1905E+01E
 Epicentro: VILLANUEVA - SANTANDER                                             3
 ACTION:UPD 12-09-10 11:57 OP:ep   STATUS:               ID:20120820212232 L   I
 2012-08-20-2120-00M.COL___217                                                 6
 STAT SP IPHASW D HRMM SECON CODA AMPLIT PERI AZIMU VELO AIN AR TRES W  DIS CAZ7
 BAR2 SZ EP       2122 52.70                             175   -0.1310 13.5 188 
 BAR2 SZ I        2123  8.70         7.0 0.37                          13.5 188 
 BRR  HZ EP       2122 54.92                             152    0.2910 74.5 306 
 BRR  HN ES       2123 11.82                             152    0.1310 74.5 306 
 BRR  HZ I        2123 13.06         6.2 0.23                          74.5 306 
 PAM  SZ EP       2122 55.79                             149   -0.2510 86.3  37 
 PAM  SZ I        2123 15.00         3.4 0.64                          86.3  37 
 RUS  HZ EP       2122 56.49                             147    0.1310 91.2 174 
 RUS  HE ES   1   2123 14.80                             147    0.03 7 91.2 174 
 PTB  HZ EP   1   2122 59.89                             134    0.09 7  144 262 
 PTB  HN ES   1   2123 20.43                             134   -0.47 7  144 262 
                                                                                
