 2010  820 2024  3.4 L   6.801 -73.009137.2  RSN  6 0.3 1.7LRSN                1
 GAP=174        0.85       4.9    11.0 10.8 -0.1516E+02 -0.3752E+02  0.3426E+01E
 Epicentro: CEPITA - SANTANDER                                                 3
 ACTION:UP  10-09-07 10:56 OP:vdl  STATUS:               ID:20100820202403 L   I
 2010-08-20-2021-56S.COL___120                                                 6
 STAT SP IPHASW D HRMM SECON CODA AMPLIT PERI AZIMU VELO SNR AR TRES W  DIS CAZ7
 BAR2 SZ EP       2024 22.26                             167     0.110   30 220 
 BAR2 SZ I        2024 40.25        13.3 0.40                            30 220 
 BTL  SZ EP       2024 22.45                             167     0.310   31 294 
 BTL  SZ ES   2   2024 36.62                             167    -0.2 5   31 294 
 BRR  HZ EP       2024 24.22                             147    -0.310   85 294 
 BRR  HE ES   2   2024 41.09                             147     0.2 5   85 294 
 BRR  HZ I        2024 43.40        17.2 0.08                            85 294 
 RUS  HZ EP       2024 26.20                             142    -0.110  101 185 
 RUS  HN ES   2   2024 44.26                             142     0.1 5  101 185 
 RUS  HZ I        2024 46.20         4.8 0.30                           101 185 
 GUE  SZ EP       2024 27.65                             138     0.510  114   5 
 GRA  SZ EP       2024 27.04                             136    -0.510  122  11 
 GRA  SZ ES   1   2024 46.34                             136    -0.1 7  122  11 
 GRA  SZ I        2024 49.30         8.4 0.56                           122  11 
                                                                                
