 2015  120 2351 44.5 L   6.818 -73.155147.2  RSN  4 0.5 1.5LRSN                1
 GAP=177        1.02       8.4     6.3 14.6 -0.2130E+02  0.3390E+02  0.1290E+02E
 Epicentro: LOS SANTOS - SANTANDER                                             3
 ACTION:UPD 15-03-02 15:41 OP:nd   STATUS:               ID:20150120235144 L   I
 OLDACT:UP  15-01-21 06:39 OP:mh   STATUS:               ID:20150120234747     3
 OLDACT:UP  15-01-21 06:39 OP:mh   STATUS:               ID:20150120234747     3
 OLDACT:REG 15-01-21 04:58 OP:mh   STATUS:               ID:20150120234747     3
 2015-01-20-2347-47M.COL___256                                                 6
 STAT SP IPHASW D HRMM SECON CODA AMPLIT PERI AZIMU VELO AIN AR TRES W  DIS CAZ7
 PAM  SZ EP   1   2352  7.50                             151    0.64 7 76.5  41 
 PAM  SN ES       2352 24.04                             151   -0.2310 76.5  41 
 PAM  SZ I        2352 26.78         4.3 0.46            156           76.5  41 
 PTB  HZ EP       2352 10.96                             132   -0.62 9  147 258 
 PTB  HN ES       2352 32.48                             132   -0.19 9  147 258 
 PTB  HZ I        2352 34.64         3.2 0.14            134            147 258 
 SPBC HN ES   1   2352 36.17                             129    0.54 7  164 218 
 SPBC HZ I        2352 40.96         4.2 0.20            131            164 218 
 ZAR  HN ES       2352 42.60                             123    0.44 9  202 292 
 ZAR  HZ I        2352 48.80         3.1 0.43            125            202 292 
                                                                                
