 2015 1120 2126 39.3 L   6.777 -73.130133.3  RSN  7 0.3 1.8LRSN                1
 GAP=237        0.84       3.9     4.4  5.5  0.4677E+01  0.7283E+01  0.1641E+00E
 Epicentro: LOS SANTOS - SANTANDER                                             3
 ACTION:UPD 15-12-28 16:12 OP:cam  STATUS:               ID:20151120212639 L   I
 OLDACT:REG 15-11-21 05:15 OP:cara STATUS:               ID:20151120211748     3
 2015-11-20-2117-48M.COL___319                                                 6
 STAT SP IPHASW D HRMM SECON CODA AMPLIT PERI AZIMU VELO AIN AR TRES W  DIS CAZ7
 BAR2 EZ EP       2126 57.55                             170    0.1310 21.3 196 
 BAR2 EZ ES       2127 11.18                             170   -0.3510 21.3 196 
 BAR2 EZ I        2127 13.86        20.5 0.34            168           21.3 196 
 BRR  HZ EP       2126 59.75                             149    0.4310 73.9 300 
 BRR  HN ES       2127 14.89                             149   -0.0110 73.9 300 
 BRR  HZ I        2127 18.06        15.7 0.26            148           73.9 300 
 RUS  HZ EP       2127  1.48                             142   -0.2010 98.0 177 
 RUS  HN ES       2127 19.43                             142    0.3210 98.0 177 
 RUS  HZ I        2127 21.76         6.1 0.38            144           98.0 177 
 PTB  HZ EP       2127  4.69                             129   -0.74 9  149 260 
 PTB  HZ EPg      2127  5.51                             129    0.08 9  149 260 
 PTB  HN ES       2127 25.40                             129   -0.38 9  149 260 
 PTB  HZ I        2127 30.97         8.8 0.32            129            149 260 
 SPBC HN ES       2127 28.57                             126    0.31 9  162 220 
 ZAR  HZ EP       2127 11.18                             119   -0.09 8  207 293 
 ZAR  HE ES       2127 36.64                             119    0.46 8  207 293 
 ZAR  HZ I        2127 42.38         7.6 0.28            121            207 293 
 NOR  HZ EP       2127 14.43                             116    0.06 8  235 235 
 NOR  HN ES       2127 41.72                             116    0.03 8  235 235 
 NOR  HZ I        2127 45.94         4.3 0.22            117            235 235 
                                                                                
