 2015  620 2308 37.9 L   6.801 -73.136147.1  RSN 20 0.4 2.4LRSN                1
 GAP=138        0.91       2.0     3.2  4.3 -0.1407E+01  0.5193E+01  0.4509E+00E
 Epicentro: LOS SANTOS - SANTANDER                                             3
 ACTION:UPD 15-09-10 22:14 OP:cam  STATUS:               ID:20150620230837 L   I
 OLDACT:REG 15-06-21 06:26 OP:ak   STATUS:               ID:20150620230748     3
 2015-06-20-2307-48M.COL___313                                                 6
 STAT SP IPHASW D HRMM SECON CODA AMPLIT PERI AZIMU VELO AIN AR TRES W  DIS CAZ7
 BAR2 EZ IP     C 23 8 57.54                             170   -0.1710 23.7 193 
 BAR2 EZ ES       23 9 12.78                             170   -0.3710 23.7 193 
 BAR2 EZ I        23 9 14.42        34.4 0.28            170           23.7 193 
 BRR  HZ IP     C 23 8 59.47                             152    0.2210 72.1 298 
 BRR  HE ES       23 9 16.65                             152    0.7510 72.1 298 
 PAM  SZ EP       23 9  0.49                             151    0.2710 76.6  39 
 PAM  SN ES       23 9 17.75                             151    0.1310 76.6  39 
 PAM  SZ I        23 9 19.82        41.4 0.47            153           76.6  39 
 RUS  HZ EP       23 9  1.42                             144   -0.3810  101 177 
 RUS  HN ES       23 9 20.28                             144   -0.1510  101 177 
 RUS  HZ I        23 9 21.32        20.7 0.23            146            101 177 
 OCA  HZ EP       23 9  6.14                             130   -0.18 9  160 353 
 OCA  HN ES       23 9 27.78                             130   -0.70 9  160 353 
 OCA  HZ I        23 9 34.12        49.1 0.19            130            160 353 
 ZAR  HZ EP   1   23 9 10.79                             122    0.25 6  205 292 
 ZAR  HN ES       23 9 35.58                             122   -0.41 9  205 292 
 ZAR  HZ I        23 9 42.02        26.5 0.22            122            205 292 
 NOR  HZ EP       23 9 13.43                             119   -0.39 8  236 235 
 NOR  HN ES       23 9 41.38                             119   -0.45 8  236 235 
 NOR  HZ I        23 9 48.76        19.6 0.48            119            236 235 
 SML  HZ EP       23 9 14.49                             118   -0.15 8  244 335 
 SML  HN ES       23 9 43.74                             118    0.45 8  244 335 
 SML  HZ I        23 9 49.21        27.2 0.07            118            244 335 
 CHI  HZ EP       23 9 15.57                             117   -0.16 8  249 195 
 CHI  HN ES       23 9 45.23                             117    0.00 8  249 195 
 CHI  HZ I        23 9 48.89        14.4 0.39            118            249 195 
 ROSC BZ EP   1   23 9 16.55                             117    0.38 6  253 211 
 ROSC BN ES       23 9 46.90                             117    0.88 8  253 211 
 ROSC BZ I        23 9 53.85        22.9 0.32            118            253 211 
 HEL  HZ EP   1   23 9 19.06                             115    0.75 6  273 256 
 HEL  HN ES       23 9 49.41                             115   -0.41 8  273 256 
 HEL  HZ I        23 9 56.46        12.4 0.30            115            273 256 
 GUY2CHZ EP       23 9 21.76                             112    0.07 7  302 235 
 GUY2CHE ES       23 9 56.77                             112    0.93 7  302 235 
 GUY2CHZ I        2310  4.21        17.9 0.35                           302 235 
 LL2C HZ EP       23 9 21.88                             112    0.34 7  306 354 
 LL2C HN ES       23 9 55.74                             112    0.16 7  306 354 
 LL2C HZ I        2310  3.99        37.5 0.18            113            306 354 
 CBOC HZ EP       23 9 25.38                             110    0.38 7  335 252 
 CBOC HN ES       2310  1.64                             110   -0.09 7  335 252 
 CBOC HZ I        2310  2.26         4.1 0.14            110            335 252 
 DBB  SZ EP   1   23 9 25.65                             110    0.09 5  341 274 
 DBB  SZ ES       2310  2.38                             110   -0.35 7  341 274 
 DBB  SZ I        2310  5.62        36.1 0.65            110            341 274 
 MON  HZ EP   4   23 9 24.11                             109   -2.93 0  354 308 
 MON  HN ES   4   2310  2.66                             109   -2.71 0  354 308 
 MON  HZ I        2310  6.02         4.1 0.12            109            354 308 
 PRA  HZ EP       23 9 31.33                             107   -0.22 6  393 210 
 PRA  HN ES       2310 13.52                             107    0.13 6  393 210 
 PRA  HZ I        2310 19.20        13.9 0.42            107            393 210 
 ORTC HZ EP   1   23 9 31.42                             106   -0.54 4  396 216 
 ORTC HE ES       2310 14.56                             106    0.44 6  396 216 
 ORTC HZ I        2310 21.37         6.3 0.43            107            396 216 
 PAL  HZ EP       23 9 32.84                             106   -0.39 6  407 239 
 PAL  HN ES       2310 15.54                             106   -0.84 6  407 239 
 PAL  HZ I        2310 21.00         4.3 0.38            106            407 239 
 SJC  HZ EP   4   23 9 31.90                             106   -1.66 0  410 327 
 SJC  HN ES   4   2310 11.46                             106   -5.52 0  410 327 
 SJC  HZ I        2310 18.99         3.6 0.43            106            410 327 
                                                                                
