 2014  820 2110 17.3 L   6.792 -73.114150.0  RSN 17 0.4 2.3LRSN                1
 GAP=141        0.83       2.3     3.3  4.4 -0.1472E+01  0.3586E+01  0.1071E+01E
 Epicentro: LOS SANTOS - SANTANDER                                             3
 ACTION:UPD 14-09-15 21:51 OP:nd   STATUS:               ID:20140820211017 L   I
 OLDACT:REG 14-08-21 04:58 OP:spq  STATUS:               ID:20140820210818     3
 2014-08-20-2108-18M.COL___275                                                 6
 STAT SP IPHASW D HRMM SECON CODA AMPLIT PERI AZIMU VELO AIN AR TRES W  DIS CAZ7
 BAR2 SZ IP     C 2110 37.39                             171   -0.0810 23.4 199 
 BAR2 SZ ES   1   2110 52.79                             171   -0.39 7 23.4 199 
 BAR2 SZ I        2110 55.09        49.4 0.27            168           23.4 199 
 BRR  HZ EP       2110 39.47                             152    0.3310 74.7 298 
 BRR  HN ES       2110 56.63                             152    0.4910 74.7 298 
 BRR  HZ I        2111  2.33        23.9 0.34            150           74.7 298 
 PAM  SZ EP     C 2110 40.16                             152    0.2510 75.9  37 
 PAM  SE ES       2110 57.43                             152   -0.1010 75.9  37 
 PAM  SZ I        2110 59.55        24.7 0.20            157           75.9  37 
 RUS  HZ EP       2110 41.21                             145   -0.2210 99.6 178 
 RUS  HE ES       2111  0.24                             145    0.0110 99.6 178 
 RUS  HZ I        2111  1.21        10.7 0.42            147           99.6 178 
 PTB  HZ EP       2110 44.21                             132   -0.73 9  151 259 
 PTB  HE ES       2111  5.90                             132   -0.58 9  151 259 
 PTB  HZ I        2111 11.26        21.2 0.20            132            151 259 
 OCA  HZ EP   1   2110 45.73                             130   -0.37 7  162 352 
 OCA  HE ES       2111  8.68                             130    0.15 9  162 352 
 OCA  HZ I        2111 15.79        16.1 0.38            132            162 352 
 SPBC HZ EP       2110 46.29                             130   -0.02 9  165 220 
 SPBC HE ES       2111  9.23                             130    0.32 9  165 220 
 SPBC HZ I        2111 13.45        28.4 0.25            130            165 220 
 ZAR  HZ EP   1   2110 49.96                             123   -0.46 6  208 292 
 ZAR  HN ES       2111 16.37                             123    0.14 8  208 292 
 ZAR  HZ I        2111 20.93        14.9 0.48            123            208 292 
 NOR  HZ EP       2110 53.58                             119    0.02 8  237 235 
 NOR  HE ES       2111 22.32                             119    0.50 8  237 235 
 NOR  HZ I        2111 27.17        12.8 0.26            120            237 235 
 SML  HZ EP       2110 54.27                             118   -0.17 8  246 335 
 SML  HN ES   1   2111 23.30                             118   -0.09 6  246 335 
 SML  HZ I        2111 26.24        25.8 0.09            120            246 335 
 CHI  HZ EP   1   2110 55.26                             118   -0.02 6  249 196 
 CHI  HE ES   1   2111 25.12                             118    0.24 6  249 196 
 CHI  HZ I        2111 33.40         6.1 0.62            120            249 196 
 HEL  HZ EP   1   2110 58.73                             115    0.61 6  275 256 
 HEL  HN ES   4   2111 35.14                             115    5.21 0  275 256 
 HEL  HZ I        2111 36.28         9.1 0.30            116            275 256 
 GUY2CHZ EP       2111  1.99                             113    0.58 7  304 235 
 GUY2CHN ES   4   2111 41.27                             113    5.49 0  304 235 
 GUY2CHZ I        2111 44.25        12.8 0.76                           304 235 
 RREF HZ EP   4   2111  1.63                             111   -2.27 0  324 230 
 RREF HE ES       2111 39.43                             111   -0.80 7  324 230 
 RREF HZ I        2111 42.21         7.8 0.22            113            324 230 
 TOL  SZ EP   1   2111  6.58                             110    0.60 5  345 225 
 TOL  SN ES   4   2111 46.25                             110    2.33 0  345 225 
 TOL  SZ I        2111 51.36        19.2 0.40            111            345 225 
 ANIL HE ES   4   2111 50.56                             109    3.90 0  359 225 
 ANIL HZ I        2111 51.50         2.6 0.40            110            359 225 
 PRA  HZ EP       2111 11.16                             107    0.04 6  393 210 
 PRA  HE ES   4   2111 55.85                             107    2.78 0  393 210 
 PRA  HZ I        2111 59.34         8.6 0.29            109            393 210 
 SJC  HZ EP   4   2111 11.66                             106   -1.68 0  412 327 
 SJC  HN ES   4   2111 52.89                             106   -4.14 0  412 327 
                                                                                
