 2014 1220 2228  9.1 L   6.806 -73.161144.6  RSN 16 0.5 2.5LRSN                1
 GAP=118        1.09       3.0     4.0  5.0  0.7724E-01  0.4804E+01  0.2444E+01E
 Epicentro: LOS SANTOS - SANTANDER                                             3
 ACTION:UPD 15-02-10 17:05 OP:nd   STATUS:               ID:20141220222809 L   I
 OLDACT:UP  14-12-21 09:46 OP:cam  STATUS:               ID:20141220222648     3
 OLDACT:UP  14-12-21 09:45 OP:cam  STATUS:               ID:20141220222648     3
 OLDACT:REG 14-12-21 08:58 OP:cam  STATUS:               ID:20141220222648     3
 2014-12-20-2226-48M.COL___302                                                 6
 STAT SP IPHASW D HRMM SECON CODA AMPLIT PERI AZIMU VELO AIN AR TRES W  DIS CAZ7
 BAR2 EZ EP     D 2228 28.78                             170    0.1610 23.8 186 
 BAR2 EZ ES       2228 43.42                             170   -0.4010 23.8 186 
 BAR2 EZ I        2228 46.57        62.0 0.26            168           23.8 186 
 BRR  HZ EP       2228 30.14                             153    0.1010 69.4 299 
 BRR  HN ES       2228 47.18                             153    0.8210 69.4 299 
 BRR  HZ I        2228 50.75        36.8 0.30            151           69.4 299 
 PAM  SZ EP       2228 31.61                             150    0.3710 77.9  41 
 PAM  SN ES       2228 48.60                             150    0.1110 77.9  41 
 PAM  SZ I        2228 49.49        41.1 0.20            156           77.9  41 
 RUS  HZ EP       2228 32.80                             143   -0.0110  101 175 
 RUS  HN ES       2228 51.13                             143   -0.1610  101 175 
 RUS  HZ I        2228 53.03        22.4 0.46            144            101 175 
 PTB  HZ EP       2228 35.08                             132   -0.78 9  146 258 
 PTB  HN ES       2228 55.99                             132   -0.72 9  146 258 
 PTB  HZ I        2228 58.48        32.7 0.16            132            146 258 
 SPBC HZ EP       2228 37.57                             129    0.09 9  163 218 
 SPBC HN ES       2228 59.77                             129    0.17 9  163 218 
 SPBC HZ I        2229  6.88        39.1 0.24            129            163 218 
 ZAR  HZ EP       2228 42.27                             122    0.97 9  202 292 
 ZAR  HN ES       2229  6.43                             122    0.02 9  202 292 
 ZAR  HZ I        2229 11.89        36.0 0.38            123            202 292 
 NOR  HZ EP       2228 44.98                             118    0.30 8  234 234 
 NOR  HN ES       2229 12.03                             118   -0.39 8  234 234 
 NOR  HZ I        2229 20.32        16.6 0.28            119            234 234 
 SML  HZ EP       2228 45.19                             117   -0.35 8  242 336 
 SML  HN ES       2229 13.11                             117   -0.83 8  242 336 
 SML  HZ I        2229 18.00        40.8 0.30            119            242 336 
 CHI  HZ EP       2228 46.99                             117    0.21 8  249 195 
 CHI  HN ES       2229 16.45                             117    0.30 8  249 195 
 CHI  HZ I        2229 21.68        22.5 0.30            118            249 195 
 HEL  HZ EP       2228 49.45                             115    0.34 8  271 256 
 HEL  HN ES   4   2229 21.08                             115    0.77 0  271 256 
 HEL  HZ I        2229 27.40        16.6 0.24            116            271 256 
 VIL  SZ EP       2228 52.19                             112   -0.33 7  304 191 
 VIL  SN ES   4   2229 25.31                             112   -1.07 0  304 191 
 VIL  SZ I        2229 29.58        30.1 0.36            113            304 191 
 PTGC HZ EP       2228 52.10                             111   -0.96 7  310 158 
 DBB  SZ EP       2228 56.17                             109   -0.18 7  338 274 
 DBB  SZ ES   4   2229 28.62                             109   -4.58 0  338 274 
 DBB  SZ I        2229 35.12        42.0 0.64            110            338 274 
 TOL  SZ EP       2228 57.56                             109    0.31 7  343 224 
 ORTC HZ EP       2229  3.32                             106    0.37 6  395 216 
 ORTC HN ES       2229 45.33                             106    0.39 6  395 216 
 ORTC HZ I        2229 50.20         7.6 0.20            107            395 216 
 SJC  HZ EP   4   2229  2.95                             106   -1.52 0  408 327 
                                                                                
