 2011 1120 2158 47.6 L   6.763 -73.094148.0  RSN  6 0.2 2.1LRSN                1
 GAP=145        0.53       2.3     3.6  3.9 -0.1035E+01  0.1078E+01 -0.6624E+00E
 Epicentro: LOS SANTOS - SANTANDER                                             3
 ACTION:UPD 12-07-13 16:11 OP:ep   STATUS:               ID:20111120215847 L   I
 2011-11-20-2156-24S.COL___178                                                 6
 STAT SP IPHASW D HRMM SECON CODA AMPLIT PERI AZIMU VELO AIN AR TRES W  DIS CAZ7
 BAR2 SZ EP       2159  7.40                             171   -0.0210 21.2 207 
 BAR2 SZ ES   1   2159 22.74                             171   -0.17 7 21.2 207 
 BAR2 SZ I        2159 24.29        27.3 0.41                          21.2 207 
 PAM  SZ EP       2159 10.23                             151    0.2210 77.3  34 
 PAM  SN ES   1   2159 27.03                             151   -0.49 7 77.3  34 
 BRR  HZ EP       2159  9.26                             151   -0.1010 78.2 299 
 BRR  HE ES       2159 26.51                             151    0.1510 78.2 299 
 BRR  HZ I        2159 29.08        22.2 0.32                          78.2 299 
 RUS  HZ EP       2159 11.22                             146   -0.0110 96.2 179 
 RUS  HE ES       2159 29.90                             146    0.2110 96.2 179 
 OCA  SZ EP       2159 16.36                             129   -0.15 9  165 351 
 OCA  SZ ES   1   2159 39.46                             129    0.38 7  165 351 
 OCA  SZ I        2159 45.15        13.1 0.26                           165 351 
 NOR  SZ EP   1   2159 23.66                             119   -0.01 6  237 236 
 NOR  SE ES   1   2159 51.51                             119   -0.32 6  237 236 
                                                                                
