 2012  720 2303 16.0 L   6.783 -73.048150.5  RSN  4 0.4 1.5LRSN                1
 GAP=183        0.90      12.5     9.5  9.5 -0.4135E+02  0.1630E+02  0.1054E+02E
 Epicentro: LOS SANTOS - SANTANDER                                             3
 ACTION:UPD 12-08-14 11:46 OP:ep   STATUS:               ID:20120720230316 L   I
 2012-07-20-2300-00M.COL___215                                                 6
 STAT SP IPHASW D HRMM SECON CODA AMPLIT PERI AZIMU VELO AIN AR TRES W  DIS CAZ7
 BAR2 SZ EP   1   23 3 36.70                             170     0.4 7   26 215 
 BAR2 SZ ES   1   23 3 51.90                             170    -0.1 7   26 215 
 BAR2 SZ I        23 3 55.03         5.5 0.19            141             26 215 
 PAM  SZ EP   1   23 3 38.36                             153    -0.1 7   73  32 
 PAM  SN ES   1   23 3 55.68                             153    -0.3 7   73  32 
 BRR  HZ EP       23 3 38.61                             150     0.310   82 296 
 BRR  HN ES   1   23 3 55.74                             150     0.1 7   82 296 
 BRR  HZ I        23 3 59.52         7.1 0.21            128             82 296 
 PTB  HZ EP   1   23 3 43.54                             131    -0.8 7  158 260 
 PTB  HZ I        23 4 10.63         2.6 0.27            110            158 260 
