 2017 1220 2008 56.4 L   6.793 -73.097142.7  RSN 13 0.4 2.3LRSN                1
 GAP=117        0.87       2.8     3.9  4.7 -0.3942E+01  0.4885E+01  0.4116E+00E
 Epicentro: LOS SANTOS - SANTANDER                                             3
 ACTION:UPD 18-01-04 13:22 OP:rebc STATUS:               ID:20171220200856 L   I
 OLDACT:REG 17-12-21 06:11 OP:lv   STATUS:               ID:20171220195610     3
 2017-12-20-2008-00M.COL___467                                                 6
 STAT SP IPHASW D HRMM SECON CODA AMPLIT PERI AZIMU VELO AIN AR TRES W  DIS CAZ7
 BAR2 EZ EP       20 9 15.38                             170   -0.2910 24.1 203 
 BAR2 EZ ES       20 9 30.43                             170   -0.2810 24.1 203 
 BAR2 EZ I        20 9 33.12        26.3 0.50            168           24.1 203 
 PAM  EZ EP       20 9 18.21                             151    0.0910 74.7  36 
 PAM  EN ES       20 9 35.56                             151    0.4910 74.7  36 
 PAM  EZ I        20 9 36.53        13.8 0.16            155           74.7  36 
 PTB  HZ EP   9   20 9 22.27                             130   -1.32 0  153 260 
 PTB  HN ES       20 9 43.36                                   -0.12 9  153 260 
 PTB  HZ I        20 9 49.25        17.2 0.28            131            153 260 
 SPBC HZ EP       20 9 24.29                             128   -0.64 9  166 221 
 SPBC HN ES       20 9 46.97                             128   -0.22 9  166 221 
 SPBC HZ I        20 9 53.50        42.4 0.34            128            166 221 
 YPLC HZ EP       20 9 25.51                             126   -0.14 9  174 153 
 YPLC HN ES       20 9 48.94                             126    0.48 9  174 153 
 YPLC HZ I        20 9 50.41        12.8 0.26            129            174 153 
 ROSC BZ EP   9   20 9 36.31                             116    1.72 0  255 212 
 ROSC BN ES       2010  5.39                                   -0.71 8  255 212 
 DRL03HZ EP       20 9 37.84                             112   -0.19 7  290 352 
 DRL03HE ES       2010 10.55                             112    0.04 7  290 352 
 GUY2CHZ EP       20 9 40.35                             111    0.04 7  305 235 
 GUY2CHN ES       2010 15.18                             111    0.61 7  305 235 
 GUY2CHZ I        2010 22.57         9.9 0.32                           305 235 
 PTGC HZ EP   9   20 9 38.25                             111   -1.56 0  306 160 
 PTGC HE ES       2010 11.93                                   -0.18 7  306 160 
 ANIL HZ EP       20 9 47.36                             108    0.90 6  361 225 
 ANIL HN ES       2010 25.64                             108    0.13 6  361 225 
 ANIL HZ I        2010 29.44        20.3 0.28            109            361 225 
 PRA  HZ EP       20 9 49.10                             106   -0.95 6  394 210 
 PRA  HN ES       2010 32.00                             106    0.11 6  394 210 
 PRA  HZ I        2010 36.04         6.5 0.52            107            394 210 
 ORTC HZ EP       20 9 50.41                             106   -0.10 6  398 217 
 ORTC HN ES       2010 33.03                             106    0.30 6  398 217 
 ORTC HZ I        2010 38.04         4.8 0.46            107            398 217 
 SJC  HZ EP   9   20 9 49.61                             105   -2.68 0  413 326 
 SJC  HN ES       2010 33.13                                   -0.07 6  413 326 
                                                                                
