 2014  420 2105 22.0 L   6.762 -73.144151.4  RSN  5 0.4 1.5LRSN                1
 GAP=138        0.93       5.2     4.6  8.7 -0.8372E+00  0.5163E+01  0.7625E+00E
 Epicentro: LOS SANTOS - SANTANDER                                             3
 ACTION:UPD 14-05-13 23:10 OP:nd   STATUS:               ID:20140420210523dL   I
 OLDACT:REG 14-04-21 02:55 OP:cam  STATUS:               ID:20140420210236     3
 2014-04-20-2102-36M.COL___239                                                 6
 STAT SP IPHASW D HRMM SECON CODA AMPLIT PERI AZIMU VELO AIN AR TRES W  DIS CAZ7
 BRR  HZ EP       21 5 44.10                             153    0.2110 73.5 301 
 BRR  HN ES       21 6  1.61                             153    0.6510 73.5 301 
 BRR  HZ I        21 6  3.93         8.7 0.16            153           73.5 301 
 PAM  SZ EP       21 5 45.01                             151   -0.0010 80.6  38 
 PAM  SN ES       21 6  2.52                             151   -0.4310 80.6  38 
 PAM  SZ I        21 6  4.13         3.5 0.66            155           80.6  38 
 RUS  HZ EP   1   21 5 46.49                             146    0.47 7 96.4 176 
 RUS  HN ES       21 6  4.72                             146   -0.0310 96.4 176 
 RUS  HZ I        21 6  6.28         2.6 0.44            148           96.4 176 
 PTB  HZ EP   1   21 5 49.07                             133   -0.32 7  147 260 
 PTB  HN ES       21 6 10.22                             133   -0.53 9  147 260 
 PTB  HZ I        21 6 15.83         7.3 0.42            134            147 260 
 ZAR  HE ES   1   21 6 20.66                             123   -0.09 6  206 293 
                                                                                
