 2016 1120 2218 30.4 L   6.788 -73.148141.6  RSN  8 0.4 1.7LRSN                1
 GAP=151        0.96       4.0     4.1  6.0 -0.2252E+01  0.5368E+01  0.9271E+01E
 Epicentro: LOS SANTOS - SANTANDER                                             3
 ACTION:UPD 17-10-26 21:10 OP:lp   STATUS:               ID:20161120221830 L   I
 OLDACT:REG 16-11-21 04:21 OP:lv   STATUS:               ID:20161120221745     3
 2016-11-20-2218-00M.COL___343                                                 6
 STAT SP IPHASW D HRMM SECON CODA AMPLIT PERI AZIMU VELO AIN AR TRES W  DIS CAZ7
 BAR2 EZ EP       2218 49.32                             171   -0.2110 22.0 190 
 BAR2 EZ ES       2219  4.09                             171   -0.3410 22.0 190 
 BAR2 EZ I        2219  6.65        15.7 0.25            169           22.0 190 
 BRR  HZ EP       2218 51.18                             152    0.0310 71.6 300 
 BRR  HE ES       2219  8.04                             152    0.7310 71.6 300 
 PAM  EZ EP       2218 52.24                             150   -0.0310 78.6  39 
 PAM  EE ES       2219  9.32                             150    0.0110 78.6  39 
 PAM  EZ I        2219 11.53         5.9 0.43            154           78.6  39 
 PTB  HZ EP       2218 56.28                             131   -0.73 9  147 259 
 PTB  HN ES       2219 17.16                             131   -0.58 9  147 259 
 PTB  HZ I        2219 21.84         6.4 0.15            131            147 259 
 ZAR  HZ EP       2219  3.06                             121    0.44 9  204 293 
 ZAR  HN ES       2219 27.77                             121    0.03 9  204 293 
 ZAR  HZ I        2219 34.59         5.2 0.25            122            204 293 
 NOR  HZ EP       2219  6.07                             118    0.26 8  234 235 
 NOR  HN ES       2219 33.45                             118    0.04 8  234 235 
 NOR  HZ I        2219 40.64         3.5 0.15            119            234 235 
 CHI  HZ EP       2219  7.92                             116    0.17 8  247 195 
 CHI  HN ES       2219 37.52                             116    0.66 8  247 195 
 CHI  HZ I        2219 40.17         1.8 0.21            118            247 195 
 PRA  HZ EP       2219 23.23                             106   -0.43 6  391 210 
 PRA  HN ES       2220  5.26                             106    0.09 6  391 210 
 PRA  HZ I        2220  8.35         1.8 0.32            107            391 210 
                                                                                
