 2011  520 2116 11.2 L   6.777 -73.125140.1  RSN  8 0.4 2.0LRSN                1
 GAP=140        0.70       4.8     6.3  7.6 -0.1043E+02 -0.5668E+01  0.4218E+01E
 Epicentro: LOS SANTOS - SANTANDER                                             3
 ACTION:UP  11-06-29 08:55 OP:tino STATUS:               ID:20110520211611 L   I
 2011-05-20-2100-00M.COL___142                                                 6
 STAT SP IPHASW D HRMM SECON CODA AMPLIT PERI AZIMU VELO SNR AR TRES W  DIS CAZ7
 BAR2 SZ EP   1   2116 30.04                             171    -0.1 7   21 197 
 BAR2 SZ ES   2   2116 43.97                             171    -0.9 5   21 197 
 BAR2 SZ I        2116 46.70        28.9 0.41                            21 197 
 BTL  SZ EP   1   2116 30.80                             171     0.6 7   22 315 
 BRR  HZ EP   1   2116 31.83                             150    -0.1 7   74 299 
 BRR  HE ES   1   2116 48.31                             150     0.2 7   74 299 
 BRR  HZ I        2116 49.49        37.4 0.09                            74 299 
 PAM  SZ EP   1   2116 32.90                             150     0.0 7   78  37 
 PAM  SN ES   2   2116 50.24                             150     0.5 5   78  37 
 RUS  HZ EP   1   2116 34.22                             143     0.0 7   98 177 
 RUS  HN ES   2   2116 52.40                             143     0.2 5   98 177 
 RUS  HZ I        2116 54.70        13.2 0.34                            98 177 
 BRI  SZ EP   1   2116 34.56                             140    -0.1 7  110  19 
 BRI  SZ I        2116 58.04        15.2 0.49                           110  19 
 GRA  SZ EP   2   2116 35.75                             135    -0.4 5  127  16 
 GRA  SZ ES   2   2116 55.14                             135    -0.4 5  127  16 
 GRA  SZ I        2117  1.08        11.4 0.33                           127  16 
 NOR  SZ EP   2   2116 46.76                             117     0.1 4  235 235 
 NOR  SN ES   2   2117 14.00                             117    -0.3 4  235 235 
                                                                                
