 2016 1120 2052  4.6 L   6.721 -73.118148.7  RSN  6 0.4 1.7LRSN                1
 GAP=172        1.03       6.7     5.0  7.1 -0.1150E+02  0.8813E+01  0.6655E+01E
 Epicentro: JORDAN - SANTANDER                                                 3
 ACTION:UPD 17-10-26 21:10 OP:lp   STATUS:               ID:20161120205204 L   I
 OLDACT:REG 16-11-21 04:19 OP:lv   STATUS:               ID:20161120204744     3
 2016-11-20-2048-00M.COL___343                                                 6
 STAT SP IPHASW D HRMM SECON CODA AMPLIT PERI AZIMU VELO AIN AR TRES W  DIS CAZ7
 BAR2 EZ EP       2052 24.55                             174    0.0610 15.9 206 
 BAR2 EZ ES       2052 40.40                             174    0.4210 15.9 206 
 BRR  HZ EP       2052 26.56                             151    0.0610 78.3 303 
 BRR  HZ I        2052 43.42        13.4 0.46            145           78.3 303 
 BRR  HE ES       2052 44.12                             151    0.5510 78.3 303 
 PAM  EZ EP       2052 27.37                             150   -0.1010 82.5  34 
 PAM  EE ES       2052 44.72                             150   -0.5610 82.5  34 
 PAM  EZ I        2052 49.38         3.5 0.24            147           82.5  34 
 PTB  HZ EP       2052 31.58                             132   -0.40 9  149 262 
 PTB  HN ES       2052 52.83                             132   -0.48 9  149 262 
 PTB  HZ I        2052 60.00         7.5 0.22            128            149 262 
 ZAR  HZ EP       2052 38.54                             122    0.63 8  210 294 
 ZAR  HN ES       2053  3.64                             122   -0.22 8  210 294 
 ZAR  HZ I        2053 10.96         6.9 0.24            118            210 294 
 NOR  HZ EP       2052 40.77                             119    0.50 8  232 237 
 NOR  HN ES       2053  7.66                             119   -0.42 8  232 237 
 NOR  HZ I        2053 15.83         4.1 0.26            117            232 237 
 SJC  HZ EP   4   2052 58.80                             106   -2.54 0  418 327 
 SJC  HN ES   4   2053 39.43                             106   -6.14 0  418 327 
                                                                                
