 2017  920 2302 19.4 L   6.788 -73.119147.5  RSN  7 0.2 1.5LRSN                1
 GAP=141        0.52       2.2     2.7  3.6 -0.3447E+00  0.3235E+01  0.1200E+01E
 Epicentro: LOS SANTOS - SANTANDER                                             3
 ACTION:UPD 17-10-05 19:14 OP:rebc STATUS:               ID:20170920230219 L   I
 OLDACT:UP  17-09-21 08:04 OP:mg   STATUS:               ID:20170920225741d    3
 OLDACT:UP  17-09-21 08:03 OP:mg   STATUS:               ID:20170920225741d    3
 OLDACT:UP  17-09-21 08:03 OP:mg   STATUS:               ID:20170920225741d    3
 OLDACT:UP  17-09-21 08:02 OP:mg   STATUS:               ID:20170920225741d    3
 OLDACT:DUP 17-09-21 07:56 OP:mg   STATUS:               ID:20170920225741d    3
 2017-09-20-2258-00M.COL___450                                                 6
 STAT SP IPHASW D HRMM SECON CODA AMPLIT PERI AZIMU VELO AIN AR TRES W  DIS CAZ7
 BAR2 EZ EP       23 2 39.03                             171   -0.2410 22.7 198 
 BAR2 EZ ES   1   23 2 54.98                             171    0.25 7 22.7 198 
 BAR2 EZ I        23 2 55.56         8.6 0.21            168           22.7 198 
 BRR  HZ EP       23 2 41.10                             152    0.1410 74.5 298 
 BRR  HN ES       23 2 58.00                             152    0.2510 74.5 298 
 BRR  HZ I        23 3  0.10         8.5 0.31            150           74.5 298 
 PAM  EZ IP     C 23 2 42.04                             151    0.2410 76.6  37 
 PAM  EN ES       23 2 58.88                             151   -0.3510 76.6  37 
 PAM  EZ I        23 3  1.58         3.0 0.35            155           76.6  37 
 RUS  HZ EP       23 2 43.22                             145   -0.0410 99.1 178 
 RUS  HN ES       23 3  1.81                             145   -0.0210 99.1 178 
 RUS  HZ I        23 3  2.93         4.1 0.40            145           99.1 178 
 ZAR  HZ EP       23 2 52.28                             122   -0.06 8  207 292 
 ZAR  HN ES   1   23 3 17.82                             122   -0.18 6  207 292 
 ZAR  HZ I        23 3 22.79         3.3 0.07            122            207 292 
 NOR  HZ EP       23 2 55.52                             119    0.07 8  236 235 
 NOR  HN ES       23 3 23.27                             119   -0.27 8  236 235 
 NOR  HZ I        23 3 28.19         2.3 0.22            119            236 235 
 CHI  HZ EP   2   23 2 57.57                             117    0.39 4  248 196 
 CHI  HN ES   1   23 3 26.78                             117    0.16 6  248 196 
 CHI  HZ I        23 3 33.78         2.1 0.48            118            248 196 
                                                                                
