 2014  320 2017 55.7 L   6.814 -73.154146.0  RSN 12 0.4 2.0LRSN                1
 GAP=135        0.88       2.8     3.6  5.2 -0.9748E+00  0.6112E+01 -0.1021E+01E
 Epicentro: LOS SANTOS - SANTANDER                                             3
 ACTION:UPD 14-04-09 23:19 OP:nd   STATUS:               ID:20140320201755 L   I
 OLDACT:REG 14-03-20 21:32 OP:nd   STATUS:               ID:20140320201043     3
 2014-03-20-2010-43M.COL___245                                                 6
 STAT SP IPHASW D HRMM SECON CODA AMPLIT PERI AZIMU VELO AIN AR TRES W  DIS CAZ7
 BAR2 SZ EP       2018 14.65                             170   -0.6910 24.7 187 
 BAR2 SZ ES       2018 30.46                             170   -0.2410 24.7 187 
 BAR2 SZ I        2018 33.39        24.6 0.38            168           24.7 187 
 BRR  HZ EP       2018 17.34                             153    0.6010 69.6 298 
 BRR  HN ES   2   2018 33.65                             153    0.46 5 69.6 298 
 BRR  HZ I        2018 35.69        13.2 0.40            152           69.6 298 
 PAM  SZ EP       2018 18.24                             151    0.3810 76.8  41 
 PAM  SN ES       2018 35.24                             151    0.0610 76.8  41 
 PAM  SZ I        2018 37.62        24.3 0.56            156           76.8  41 
 RUS  HZ EP       2018 19.80                             143    0.2610  102 176 
 RUS  HN ES       2018 38.16                             143   -0.0210  102 176 
 RUS  HZ I        2018 40.69         9.6 0.46            145            102 176 
 PTB  HZ EP       2018 22.53                             132   -0.05 9  147 258 
 PTB  HN ES       2018 43.49                             132   -0.10 9  147 258 
 PTB  HZ I        2018 45.74        12.0 0.12            133            147 258 
 SPBC HZ EP       2018 24.35                             129    0.12 9  164 218 
 SPBC HN ES       2018 46.42                             129   -0.10 9  164 218 
 SPBC HZ I        2018 51.47        18.3 0.20            130            164 218 
 ZAR  HZ EP       2018 27.29                             123   -0.67 9  203 292 
 ZAR  HN ES       2018 53.77                             123    0.61 9  203 292 
 ZAR  HZ I        2019  0.88         7.6 0.32            124            203 292 
 NOR  HZ EP       2018 31.55                             118    0.14 8  235 234 
 NOR  HN ES       2018 59.30                             118   -0.00 8  235 234 
 NOR  HZ I        2019  3.73         9.1 0.20            120            235 234 
 SML  HZ EP       2018 32.04                             118   -0.06 8  242 335 
 SML  HN ES       2018 59.94                             118   -0.58 8  242 335 
 SML  HZ I        2019  3.35        24.0 0.22            120            242 335 
 CHI  HZ EP       2018 33.60                             117    0.10 8  250 195 
 CHI  HN ES   2   2019  2.61                             117   -0.41 4  250 195 
 CHI  HZ I        2019 11.35         4.5 0.64            119            250 195 
 GUY2CHZ EP   4   2018 40.67                             112    1.38 0  301 234 
 GUY2CHN ES   4   2019 16.92                             112    3.60 0  301 234 
 GUY2CHZ I        2019 20.82         5.5 0.28                           301 234 
 SJC  HZ EP   4   2018 49.61                             106   -1.40 0  407 327 
 SJC  HN ES   4   2019 32.24                             106   -1.94 0  407 327 
 SJC  HZ I        2019 35.09         2.7 0.56            107            407 327 
                                                                                
