 2011  420 2114 26.1 L   6.803 -73.098144.7  RSN  9 0.4 1.8LRSN                1
 GAP=143        0.80       4.4     7.2  7.1 -0.9485E+01  0.1883E+01 -0.3853E+01E
 Epicentro: LOS SANTOS - SANTANDER                                             3
 ACTION:UP  11-06-22 15:32 OP:REBC STATUS:               ID:20110420211426 L   I
 2011-04-20-2111-47S.COL___139                                                 6
 STAT SP IPHASW D HRMM SECON CODA AMPLIT PERI AZIMU VELO SNR AR TRES W  DIS CAZ7
 BTL  SZ EP   1   2114 46.17                             171     0.6 7   23 304 
 BAR2 SZ EP   1   2114 45.39                             170    -0.2 7   25 202 
 BAR2 SZ I        2114 46.29        14.6 0.14                            25 202 
 BAR2 SZ ES   1   2115  0.69                             170    -0.1 7   25 202 
 GIR2 SZ EP   1   2114 45.75                             167     0.1 7   32 341 
 PAM  SZ EP   1   2114 48.43                             152     0.5 7   74  37 
 PAM  SZ I        2114 48.76         7.3 0.14                            74  37 
 PAM  SN ES   2   2115  5.29                             152     0.3 5   74  37 
 BRR  HZ EP   1   2114 47.14                             151    -0.2 7   76 296 
 BRR  HN ES   1   2115  4.21                             151     0.2 7   76 296 
 BRR  HZ I        2115  7.77        22.1 0.20                            76 296 
 RUS  HZ EP   1   2114 49.70                             143     0.0 7  101 179 
 RUS  HZ I        2114 51.01         8.5 0.14                           101 179 
 RUS  HN ES   1   2115  8.12                             143     0.0 7  101 179 
 GRA  SZ EP   1   2114 50.41                             137    -0.6 7  124  15 
 GRA  SZ ES   1   2115 10.05                             137    -0.5 7  124  15 
 OCA  SZ EP   1   2114 54.66                             129     0.3 7  161 351 
 OCA  SZ I        2115 18.74         9.8 0.24                           161 351 
 NOR  SZ EP   2   2115  2.26                             118     0.1 4  239 235 
 NOR  SN ES   2   2115 29.69                             118    -0.7 4  239 235 
                                                                                
