 2011 1220 2034 37.4 L   6.785 -73.116149.5  RSN 19 0.3 4.0LRSN                1
 GAP=104        0.67       1.9     2.5  3.3 -0.1199E+01  0.1485E+01  0.1552E+01E
 Epicentro: LOS SANTOS - SANTANDER                                             3
 ACTION:UPD 12-07-13 16:17 OP:ep   STATUS:               ID:20111220203437 L   I
 2011-12-20-2030-00M.COL___191                                                 6
 STAT SP IPHASW D HRMM SECON CODA AMPLIT PERI AZIMU VELO AIN AR TRES W  DIS CAZ7
 BAR2 SZ IP       2034 57.36                             171   -0.0910 22.5 199 
 BAR2 SZ ES   1   2035 13.13                             171    0.04 7 22.5 199 
 BAR2 SZ I        2035 13.70      1964.8 0.46                          22.5 199 
 GIR2 SZ IP       2034 57.45                             167   -0.1110 33.6 345 
 GIR2 SZ ES   1   2035 12.99                             167   -0.31 7 33.6 345 
 BRR  HZ IP     C 2034 59.27                             152    0.1210 74.9 298 
 BRR  HZ I        2034 59.65      2860.0 0.24                          74.9 298 
 BRR  HE ES   1   2035 16.67                             152    0.55 7 74.9 298 
 PAM  SZ IP       2035  0.13                             152    0.1810 76.6  37 
 PAM  SN ES   1   2035 17.61                             152    0.05 7 76.6  37 
 RUS  HZ IP     D 2035  1.19                             145   -0.1810 98.7 178 
 RUS  HN ES   1   2035 19.92                             145   -0.16 7 98.7 178 
 RUS  HZ I        2035 21.33       771.0 0.39                          98.7 178 
 BRI  SZ IP       2035  1.90                             142    0.2410  109  19 
 BRI  SZ ES   1   2035 20.17                             142   -0.43 7  109  19 
 PTB  HN ES   1   2035 25.74                             132   -0.66 7  151 260 
 OCA  SZ EP       2035  6.19                             130    0.01 9  162 352 
 OCA  SZ ES   1   2035 29.01                             130    0.37 7  162 352 
 OCA  SZ I        2035 33.91      2823.5 0.33                           162 352 
 YOP  SZ IP       2035  7.80                             128    0.39 9  176 154 
 YOP  SN ES   1   2035 31.33                             128    0.50 7  176 154 
 NOR  SZ EP       2035 13.18                             119   -0.34 8  236 235 
 NOR  SE ES   1   2035 41.63                             119   -0.07 6  236 235 
 CHI  HZ IP     D 2035 14.90                             118   -0.31 8  248 196 
 CHI  HZ I        2035 18.13       380.5 0.41                           248 196 
 CHI  HN ES   1   2035 44.67                             118   -0.05 6  248 196 
 HEL  HZ EP       2035 18.75                             115    0.65 8  275 256 
 HEL  HN ES   1   2035 49.94                             115    0.08 6  275 256 
 HEL  HZ I        2035 57.18       620.4 0.39                           275 256 
 VIL  SZ EP   1   2035 20.27                             113   -0.60 5  302 192 
 VIL  SE ES   1   2035 54.94                             113    0.16 5  302 192 
 VIL  SZ I        2036  5.12       239.2 0.48                           302 192 
 RREF HZ EP       2035 24.16                             111    0.31 7  323 230 
 RREF HN ES   1   2035 59.86                             111   -0.24 5  323 230 
 RREF HZ I        2036  6.91       611.1 0.59                           323 230 
 DBB  SZ EP       2035 25.28                             110   -0.13 7  343 274 
 DBB  SZ ES   2   2036  2.54                             110   -0.33 3  343 274 
 TOL  SZ EP       2035 26.46                             110    0.54 7  345 225 
 TOL  SZ ES   1   2036  3.74                             110   -0.05 5  345 225 
 COD  HE ES   2   2036  4.05                             109   -0.12 3  350 354 
 COD  HZ I        2036 12.18       622.0 0.48                           350 354 
 SDV  BZ IP     D 2035 26.56                             109   -0.84 6  359  50 
 PRA  HZ EP       2035 30.77                             107   -0.29 6  392 210 
 PRA  HN ES   1   2036 13.06                             107    0.14 4  392 210 
                                                                                
