 2013  320 2124 22.1 L   6.803 -73.133148.9  RSN 12 0.4 2.2LRSN                1
 GAP=138        0.85       3.0     3.9  4.8 -0.1491E+01  0.4025E+01  0.1113E+01E
 Epicentro: LOS SANTOS - SANTANDER                                             3
 ACTION:UPD 13-04-09 14:03 OP:ep   STATUS:               ID:20130320212422 L   I
 2013-03-20-2120-00M.COL___245                                                 6
 STAT SP IPHASW D HRMM SECON CODA AMPLIT PERI AZIMU VELO AIN AR TRES W  DIS CAZ7
 BAR2 SZ EP       2124 42.23                             170    0.0810 24.0 193 
 BAR2 SZ ES   1   2124 57.05                             170   -0.71 7 24.0 193 
 BAR2 SZ I        2124 58.29        75.8 0.28            169           24.0 193 
 BRR  HZ IP     D 2124 44.05                             153    0.3710 72.3 298 
 BRR  HN ES       2125  1.05                             153    0.5710 72.3 298 
 BRR  HZ I        2125  4.87        32.8 0.30            148           72.3 298 
 PAM  SZ EP       2124 44.94                             152    0.3310 76.2  39 
 PAM  SN ES       2125  2.08                             152   -0.0710 76.2  39 
 PAM  SZ I        2125  4.31        27.3 0.60            154           76.2  39 
 RUS  HZ EP       2124 46.27                             144    0.0610  101 177 
 RUS  HN ES   1   2125  4.45                             144   -0.54 7  101 177 
 RUS  HZ I        2125  6.21         9.4 0.36            146            101 177 
 PTB  HZ EP   1   2124 48.78                             132   -0.71 7  149 259 
 PTB  HN ES   1   2125 10.06                             132   -0.76 7  149 259 
 PTB  HZ I        2125 15.54        20.8 0.40            130            149 259 
 ZAR  HZ EP   2   2124 54.24                             123   -0.66 4  205 292 
 ZAR  HN ES   1   2125 20.57                             123    0.11 6  205 292 
 ZAR  HZ I        2125 25.66        21.0 0.20            121            205 292 
 NOR  HZ EP       2124 58.60                             119    0.41 8  236 235 
 NOR  HN ES   1   2125 26.39                             119    0.08 6  236 235 
 NOR  HZ I        2125 29.98         8.6 0.14            118            236 235 
 SML  HZ EP       2124 58.91                             118   -0.06 8  244 335 
 SML  HN ES   2   2125 28.01                             118    0.32 4  244 335 
 SML  HZ I        2125 34.09        15.9 0.09            117            244 335 
 CHI  HZ EP       2125  0.37                             118    0.29 8  249 195 
 CHI  HN ES   1   2125 30.14                             118    0.46 6  249 195 
 CHI  HZ I        2125 33.95         7.9 0.38            118            249 195 
 HEL  HZ EP   1   2125  2.08                             115   -0.59 6  274 256 
 HEL  HN ES   2   2125 34.69                             115    0.41 4  274 256 
 HEL  HZ I        2125 41.60         7.6 0.44            115            274 256 
 COD  HZ EP       2125 10.01                             109   -0.60 6  348 354 
 COD  HN ES   2   2125 47.63                             109   -0.79 3  348 354 
 COD  HZ I        2125 56.21         2.1 0.36            110            348 354 
 PRA  HZ EP   1   2125 15.76                             107   -0.12 4  393 210 
 PRA  HN ES   2   2125 57.87                             107    0.07 3  393 210 
 PRA  HZ I        2126  3.35         9.4 0.48            107            393 210 
                                                                                
