 2015  220 2348 27.9 L   6.786 -73.164142.2  RSN  6 0.3 1.4LRSN                1
 GAP=135        0.87       4.1     4.2  6.4 -0.4126E+01  0.3380E+01  0.1075E+01E
 Epicentro: LOS SANTOS - SANTANDER                                             3
 ACTION:UPD 15-04-30 21:28 OP:nd   STATUS:               ID:20150220234827 L   I
 OLDACT:REG 15-02-21 04:42 OP:stll STATUS:               ID:20150220234746     3
 2015-02-20-2347-46M.COL___284                                                 6
 STAT SP IPHASW D HRMM SECON CODA AMPLIT PERI AZIMU VELO AIN AR TRES W  DIS CAZ7
 BAR2 EZ EP       2348 47.20                             171    0.1010 21.5 185 
 BAR2 EZ ES       2349  1.96                             171   -0.0810 21.5 185 
 BAR2 EZ I        2349  3.13         6.9 0.22            169           21.5 185 
 BRR  HZ EP       2348 49.09                             152    0.4510 70.2 300 
 BRR  HN ES       2349  5.32                             152    0.5310 70.2 300 
 PAM  SZ EP       2348 49.94                             149    0.0210 79.8  40 
 PAM  SN ES       2349  6.57                             149   -0.5010 79.8  40 
 PAM  SZ I        2349  8.94         4.5 0.52            152           79.8  40 
 RUS  HZ EP       2348 51.41                             143    0.1810 99.2 175 
 RUS  HN ES       2349  9.49                             143    0.0910 99.2 175 
 RUS  HZ I        2349 11.47         3.0 0.40            143           99.2 175 
 PTB  HZ EP       2348 53.98                             132   -0.42 9  145 259 
 PTB  HN ES       2349 14.62                             132   -0.43 9  145 259 
 PTB  HZ I        2349 17.69         2.6 0.10            132            145 259 
 SPBC HN ES       2349 17.69                             129   -0.06 9  161 219 
 SPBC HZ I        2349 23.16         5.3 0.22            129            161 219 
                                                                                
