 2013 1020 2322 17.3 L   6.777 -73.146140.0  RSN  9 0.3 1.8LRSN                1
 GAP=138        0.85       3.4     3.6  5.3 -0.1766E+00  0.3676E+01  0.3046E+01E
 Epicentro: LOS SANTOS - SANTANDER                                             3
 ACTION:UPD 13-11-25 09:22 OP:ep   STATUS:               ID:20131020232217 L   I
 OLDACT:REG 13-10-21 02:45 OP:nd   STATUS:               ID:20131020231839     3
 2013-10-20-2318-39M.COL___217                                                 6
 STAT SP IPHASW D HRMM SECON CODA AMPLIT PERI AZIMU VELO AIN AR TRES W  DIS CAZ7
 BAR2 SZ EP       2322 36.32                             171    0.1110 20.8 191 
 BAR2 SZ ES       2322 50.99                             171    0.0410 20.8 191 
 BAR2 SZ I        2322 52.33        28.7 0.16            168           20.8 191 
 BRR  HZ EP       2322 38.23                             151    0.3010 72.4 300 
 BRR  HN ES       2322 54.60                             151    0.6110 72.4 300 
 BRR  HZ I        2322 56.05         7.2 0.34            151           72.4 300 
 PAM  SZ EP       2322 38.79                             149   -0.2710 79.4  38 
 PAM  SN ES       2322 55.64                             149   -0.3610 79.4  38 
 PAM  SZ I        2322 59.08         6.7 0.20            155           79.4  38 
 RUS  HZ EP       2322 40.29                             143   -0.0410 98.0 176 
 RUS  HN ES       2322 58.53                             143    0.2610 98.0 176 
 RUS  HZ I        2323  3.33         2.7 0.18            143           98.0 176 
 PTB  HZ EP       2322 43.40                             131   -0.38 9  147 260 
 PTB  HN ES       2323  3.77                             131   -0.65 9  147 260 
 PTB  HZ I        2323  7.20        10.1 0.12            131            147 260 
 SPBC HZ EP       2322 45.41                             128    0.21 9  161 220 
 SPBC HN ES       2323  6.73                             128   -0.21 9  161 220 
 SPBC HZ I        2323 13.87         4.8 0.18            128            161 220 
 ZAR  HZ EP   2   2322 50.31                             121    0.81 4  205 293 
 ZAR  HN ES       2323 14.68                             121    0.08 9  205 293 
 ZAR  HZ I        2323 23.86         8.4 0.64            122            205 293 
 CHI  HZ EP       2322 54.50                             116    0.06 8  246 195 
 CHI  HN ES   4   2323 18.12                             116   -5.27 0  246 195 
 CHI  HZ I        2323 30.65         3.7 0.62            117            246 195 
 GUY2CHZ EP   4   2323  2.86                             111    2.35 0  300 235 
 GUY2CHZ I        2323 26.75         8.1 0.64                           300 235 
 GUY2CHN ES   4   2323 36.23                             111    2.05 0  300 235 
                                                                                
