 2015  320 2304 24.5 L   6.805 -73.123146.6  RSN  6 0.4 1.5LRSN                1
 GAP=139        0.85       4.6     4.7  6.6  0.4688E+01  0.6342E+01 -0.3699E+01E
 Epicentro: LOS SANTOS - SANTANDER                                             3
 ACTION:UPD 15-04-30 16:27 OP:nd   STATUS:               ID:20150320230424 L   I
 OLDACT:REG 15-03-21 03:40 OP:spq  STATUS:               ID:20150320225749     3
 2015-03-20-2257-49M.COL___272                                                 6
 STAT SP IPHASW D HRMM SECON CODA AMPLIT PERI AZIMU VELO AIN AR TRES W  DIS CAZ7
 BAR2 EZ EP       23 4 44.22                             170   -0.0110 24.5 196 
 BAR2 EZ ES   1   23 4 59.14                             170   -0.49 7 24.5 196 
 BAR2 EZ I        23 5  0.65         7.5 0.11            170           24.5 196 
 BRR  HZ EP     D 23 4 45.94                             152    0.1210 73.1 297 
 BRR  HN ES       23 5  2.93                             152    0.4610 73.1 297 
 BRR  HZ I        23 5  5.14         5.9 0.60            151           73.1 297 
 PAM  SZ EP       23 4 47.00                             151    0.3410 75.4  38 
 PAM  SN ES       23 5  4.00                             151    0.0410 75.4  38 
 PAM  SZ I        23 5  5.52         4.7 0.42            154           75.4  38 
 RUS  HZ EP   1   23 4 48.16                             144   -0.18 7  101 177 
 RUS  HE ES   1   23 5  6.63                             144   -0.32 7  101 177 
 RUS  HZ I        23 5  7.73         3.8 0.24            146            101 177 
 ZAR  HZ EP   1   23 4 57.82                             122    0.63 6  206 292 
 ZAR  HN ES       23 5 22.45                             122   -0.25 8  206 292 
 ZAR  HZ I        23 5 27.95         4.2 0.42            123            206 292 
 SML  HZ EP   1   23 5  0.87                             117   -0.33 6  244 335 
 SML  HE ES   1   23 5 28.84                             117   -1.01 6  244 335 
                                                                                
