 2017 1020 2005 56.7 L   6.804 -73.180144.6  RSN  8 0.5 1.8LRSN                1
 GAP=132        1.10       4.7     4.8  8.1 -0.4922E+01  0.1418E+02 -0.1769E+01E
 Epicentro: ZAPATOCA - SANTANDER                                               3
 ACTION:UPD 17-11-07 19:34 OP:rebc STATUS:               ID:20171020200556 L   I
 OLDACT:REG 17-10-21 02:59 OP:dnl  STATUS:               ID:20171020195612     3
 2017-10-20-1958-00M.COL___462                                                 6
 STAT SP IPHASW D HRMM SECON CODA AMPLIT PERI AZIMU VELO AIN AR TRES W  DIS CAZ7
 BAR2 EZ EP   2   20 6 16.04                             171   -0.12 5 23.4 181 
 BAR2 EZ ES       20 6 30.91                             171   -0.4510 23.4 181 
 BAR2 EZ I        20 6 32.69        13.3 0.56            170           23.4 181 
 BRR  HZ EP       20 6 18.02                             153    0.5210 67.7 300 
 BRR  HN ES       20 6 34.69                             153    0.9510 67.7 300 
 BRR  HZ I        20 6 36.04        12.6 0.38            151           67.7 300 
 PAM  EZ EP       20 6 18.83                             150   -0.0610 79.5  42 
 PAM  EE ES       20 6 36.11                             150   -0.1110 79.5  42 
 PAM  EZ I        20 6 38.06        14.6 0.50            153           79.5  42 
 RUS  HZ EP   3   20 6 20.95                             144    0.59 2  101 174 
 RUS  HN ES       20 6 38.88                             144    0.0410  101 174 
 RUS  HZ I        20 6 39.64        10.0 0.24            146            101 174 
 PTB  HZ EP       20 6 22.70                             133   -0.52 9  144 258 
 PTB  HN ES       20 6 43.09                             133   -0.83 9  144 258 
 PTB  HZ I        20 6 49.24         3.6 0.16            132            144 258 
 SPBC HZ EP   2   20 6 25.01                             129    0.12 5  161 218 
 SPBC HE ES       20 6 46.95                             129    0.05 9  161 218 
 SPBC HZ I        20 6 49.30        13.2 0.26            130            161 218 
 ZAR  HZ EP   2   20 6 27.88                             123   -0.79 4  200 292 
 ZAR  HE ES       20 6 53.55                             123   -0.07 9  200 292 
 ZAR  HZ I        20 7  0.53         4.2 0.24            122            200 292 
 NOR  HZ EP   2   20 6 32.64                             119    0.61 4  232 234 
 NOR  HE ES       20 7  0.10                             119    0.49 8  232 234 
 NOR  HZ I        20 7  5.50         4.7 0.20            119            232 234 
                                                                                
