 2013 1120 2216 43.0 L   6.777 -73.173137.1  RSN  7 0.5 1.6LRSN 2.5WRSN        1
 SPEC AVERAGE  MO 12.8 ST  2.6 OM  1.6 f0 6.65 R0.3623 AL 0.00 WI 20.0 MW  2.5 3
 SPEC SD       MO  0.1 ST  2.7 OM  0.7 f0 2.94 R0.1733 AL      WI      MW  0.1 3
 GAP=134        1.26       5.0     5.9  8.3 -0.6098E+01  0.4166E+01  0.1011E+02E
 Epicentro: LOS SANTOS - SANTANDER                                             3
 SPEC BAR2SH Z MO 12.9 ST  1.3 OM  1.1 f0 6.32 R0.3044 AL-0.00 WI 20.0 MW  2.6 3
 SPEC BAR2SH Z T221714 K 0.050 GD  138 VS 5.20 DE 3.20 Q0750.0 QA 1.50 VS 5.20 3
 SPEC BRR HH Z MO 13.0 ST  6.3 OM  1.1 f0 10.4 R0.1850 AL-0.00 WI 20.0 MW  2.6 3
 SPEC BRR HH Z T221718 K 0.050 GD  153 VS 5.20 DE 3.20 Q0750.0 QA 1.50 VS 5.20 3
 SPEC PTB HH Z MO 12.7 ST0.097 OM  0.7 f0 3.22 R0.5975 AL-0.00 WI 20.0 MW  2.4 3
 SPEC PTB HH Z T221727 K 0.050 GD  198 VS 5.20 DE 3.20 Q0750.0 QA 1.50 VS 5.20 3
 OLDACT:DUP 13-11-21 02:49 OP:stll STATUS:               ID:20131120220806d    3
 ACTION:UPD 14-01-09 16:29 OP:ep   STATUS:               ID:20131120221643 L   I
 OLDACT:UP  13-11-21 02:55 OP:stll STATUS:               ID:20131120220806d    3
 2013-11-20-2208-05M.COL___232                                                 6
 STAT SP IPHASW D HRMM SECON CODA AMPLIT PERI AZIMU VELO AIN AR TRES W  DIS CAZ7
 BAR2 SZ EP       2217  0.79                             171   -0.7810 20.5 183 
 BAR2 SZ ES       2217 15.61                             171   -0.4110 20.5 183 
 BAR2 SZ I        2217 18.26        22.2 0.38            169           20.5 183 
 BRR  HZ IP     D 2217  3.67                             151    0.4910 69.9 302 
 BRR  HN ES       2217 19.72                             151    0.8410 69.9 302 
 BRR  SZ I        2217 21.16        10.3 0.30            155           69.9 302 
 PAM  SZ EP       2217  4.85                             148    0.2710 81.2  40 
 PAM  SN ES       2217 21.26                             148   -0.1310 81.2  40 
 PAM  SZ I        2217 22.45         5.3 0.14            153           81.2  40 
 RUS  HZ EP       2217  6.02                             143    0.2410 98.3 174 
 RUS  HN ES       2217 23.49                             143   -0.0210 98.3 174 
 RUS  SZ I        2217 31.56         3.8 3.58            144           98.3 174 
 PTB  HZ EP       2217  8.43                             131   -0.57 9  144 260 
 PTB  HN ES       2217 28.66                             131   -0.58 9  144 260 
 PTB  SZ I        2217 33.36         5.0 0.12            134            144 260 
 SPBC HN ES       2217 32.08                             128    0.13 9  159 219 
 CHI  HZ EP       2217 19.79                             116   -0.13 8  245 195 
 CHI  HE ES       2217 49.46                             116    0.77 8  245 195 
                                                                                
