 2011  320 2315 34.6 L   6.669 -73.335154.0  RSN  4 0.3 1.9LRSN                1
 GAP=219        0.77      11.1    13.2 15.7  0.1946E+02  0.1512E+03 -0.2208E+02E
 Epicentro: GALAN - SANTANDER                                                  3
 ACTION:UP  11-06-16 14:34 OP:jfem STATUS:               ID:20110320231534 L   I
 2011-03-20-2315-28S.COL___132                                                 6
 STAT SP IPHASW D HRMM SECON CODA AMPLIT PERI AZIMU VELO SNR AR TRES W  DIS CAZ7
 BAR2 SZ EP       2315 54.90                             172    -0.210   19 117 
 BAR2 SZ I        2316 11.55        32.9 0.17                            19 117 
 RUS  HZ EP       2315 58.79                             148     0.410   90 162 
 RUS  HN ES   1   2316 16.95                             148    -0.1 7   90 162 
 RUS  HZ I        2316 18.62        10.0 0.25                            90 162 
 CHI  HZ EP   1   2316 10.35                             121    -0.4 6  230 191 
 CHI  HZ I        2316 47.95         5.7 0.36                           230 191 
 HEL  HZ EP       2316 12.72                             118     0.1 8  248 258 
 HEL  HZ I        2316 53.09         5.0 0.29                           248 258 
                                                                                
