 2017  520 2315 23.1 L   6.803 -73.180145.2  RSN 12 0.4 2.1LRSN                1
 GAP=109        1.17       3.7     4.0  7.2  0.1669E+01  0.4122E+01  0.5352E+01E
 Epicentro: ZAPATOCA - SANTANDER                                               3
 ACTION:UPD 17-06-16 13:37 OP:jn   STATUS:               ID:20170520231523 L   I
 OLDACT:REG 17-05-21 03:20 OP:osc  STATUS:               ID:20170520230636     3
 2017-05-20-2308-00M.COL___359                                                 6
 STAT SP IPHASW D HRMM SECON CODA AMPLIT PERI AZIMU VELO AIN AR TRES W  DIS CAZ7
 BRR  HZ EP       2315 43.72                             154   -0.2710 67.8 300 
 BRR  HE ES       2316  0.90                             154    0.6110 67.8 300 
 BRR  HZ I        2316  5.28        18.5 0.32            151           67.8 300 
 PAM  EZ EP       2315 45.39                             150    0.0110 79.6  42 
 PAM  EE ES       2316  2.79                             150    0.0310 79.6  42 
 PAM  EZ I        2316  4.69        23.0 0.46            157           79.6  42 
 RUS  HZ EP       2315 46.48                             144   -0.3510  101 174 
 RUS  HN ES       2316  5.31                             144   -0.0410  101 174 
 RUS  HZ I        2316  6.41        18.8 0.32            144            101 174 
 PTB  HZ EP       2315 49.30                             133   -0.39 9  144 258 
 PTB  HN ES       2316  9.87                             133   -0.56 9  144 258 
 PTB  HZ I        2316 17.32        12.8 0.44            131            144 258 
 SPBC HZ EP       2315 51.49                             129    0.14 9  161 218 
 SPBC HN ES       2316 12.82                             129   -0.57 9  161 218 
 SPBC HZ I        2316 16.12        17.0 0.18            129            161 218 
 YPLC HZ EP       2315 52.91                             126   -0.14 9  179 150 
 YPLC HE ES       2316 17.01                             126    0.59 9  179 150 
 YPLC HZ I        2316 17.92        23.8 0.26            129            179 150 
 ZAR  HZ EP       2315 54.99                             123   -0.14 9  200 292 
 ZAR  HN ES       2316 20.17                             123    0.05 9  200 292 
 ZAR  HZ I        2316 31.50         6.6 0.20            123            200 292 
 TABC EZ EP   4   2316  0.14                             119    1.50 0  228 210 
 NOR  HZ EP       2315 59.21                             119    0.73 8  232 234 
 NOR  HE ES       2316 26.66                             119    0.57 8  232 234 
 NOR  HZ I        2316 34.37        10.3 0.18            119            232 234 
 CHI  HZ EP       2316  0.84                             117    0.15 8  248 194 
 CHI  HN ES       2316 29.98                             117   -0.03 8  248 194 
 CHI  HZ I        2316 36.16         5.8 0.30            118            248 194 
 ROSC BZ EP   4   2316  1.50                             117    0.50 0  251 210 
 ROSC BE ES   4   2316 34.01                             117    3.44 0  251 210 
 ROSC BZ I        2316 40.74        10.5 0.40            118            251 210 
 PTGC HZ EP   9   2316  5.77                             111   -1.34 0  310 158 
 PTGC HE ES       2316 38.57                                   -1.54 7  310 158 
 ORTC HZ EP   9   2316 17.81                             106    1.04 0  393 216 
 ORTC HN ES       2317  0.66                                    0.99 6  393 216 
 ORTC HZ I        2317  6.44         4.3 0.32            107            393 216 
                                                                                
