 2010 1220 2208  7.2 L   6.738 -73.229138.0  RSN 11 0.4 2.4LRSN                1
 GAP=129        0.90       3.3     8.1  7.7 -0.9926E+01  0.3143E+02 -0.1941E+01E
 Epicentro: VILLANUEVA - SANTANDER                                             3
 ACTION:UP  11-01-14 15:26 OP:pat  STATUS:               ID:20101220220807 L   I
 2010-12-20-2200-00M.COL___134                                                 6
 STAT SP IPHASW D HRMM SECON CODA AMPLIT PERI AZIMU VELO SNR AR TRES W  DIS CAZ7
 BAR2 SZ IP       22 8 25.49                             173    -0.310   17 163 
 BAR2 SZ ES   1   22 8 40.43                             173     0.1 7   17 163 
 BTL  SZ EP       22 8 25.60                             171    -0.310   20 348 
 RUS  HZ EP       22 8 29.34                             144    -0.510   95 170 
 RUS  HN ES   1   22 8 48.02                             144     0.6 7   95 170 
 RUS  HZ I        22 8 49.13        37.8 0.28                            95 170 
 GRA  SZ EP       22 8 33.29                             133     0.7 9  135  20 
 GRA  SZ ES   1   22 8 52.80                             133     0.4 7  135  20 
 GRA  SZ I        22 8 55.81        36.6 0.21                           135  20 
 OCA  SZ EP       22 8 35.40                             127    -0.1 9  166 357 
 OCA  SZ ES   1   22 8 56.92                             127    -0.7 7  166 357 
 OCA  SZ I        22 9  2.36        41.4 0.36                           166 357 
 YOP  SN ES   2   22 8 59.33                             125    -0.1 4  177 150 
 YOP  SZ I        22 9  0.72        21.2 0.44                           177 150 
 NOR  SZ EP       22 8 41.66                             118     0.4 8  223 235 
 NOR  SN ES   3   22 9  8.36                             118     0.5 2  223 235 
 CHI  HZ EP       22 8 43.57                             116     0.0 8  240 193 
 CHI  HN ES   2   22 9 11.29                             116    -0.6 4  240 193 
 CHI  HZ I        22 9 15.83        10.4 0.71                           240 193 
 HEL  HN ES   3   22 9 16.19                             114     0.2 2  262 257 
 RREF HZ EP   2   22 8 51.90                             110     0.2 3  310 229 
 RREF HN ES   2   22 9 26.70                             110     0.3 3  310 229 
 RREF HZ I        22 9 35.11        17.4 0.17                           310 229 
 PRA  HZ EP       22 8 59.54                             106     0.3 6  382 209 
 PRA  HN ES   1   22 9 39.46                             106    -0.4 4  382 209 
                                                                                
