 2017  120 2004 51.1 L   6.219 -73.626 28.6  RSN 18 0.4 2.8LRSN                1
 GAP= 99        0.91       2.3     2.1  4.4 -0.5661E+00  0.5534E+01 -0.3225E+01E
 Epicentro: LA PAZ - SANTANDER                                                 3
 ACTION:UPD 17-05-22 16:01 OP:jn   STATUS:               ID:20170120200451 L   I
 OLDACT:UP  17-01-21 03:45 OP:and  STATUS:               ID:20170120195744     3
 OLDACT:UP  17-01-21 03:44 OP:and  STATUS:               ID:20170120195744     3
 OLDACT:UP  17-01-21 03:42 OP:and  STATUS:               ID:20170120195744     3
 OLDACT:UP  17-01-21 03:40 OP:and  STATUS:               ID:20170120195744     3
 OLDACT:UP  17-01-21 03:40 OP:and  STATUS:               ID:20170120195744     3
 OLDACT:UP  17-01-21 03:39 OP:and  STATUS:               ID:20170120195744     3
 OLDACT:UP  17-01-21 03:38 OP:and  STATUS:               ID:20170120195744     3
 OLDACT:UP  17-01-21 03:38 OP:and  STATUS:               ID:20170120195744     3
 OLDACT:UP  17-01-21 03:34 OP:and  STATUS:               ID:20170120195744     3
 OLDACT:REG 17-01-21 02:36 OP:and  STATUS:               ID:20170120195744     3
 2017-01-20-1958-00M.COL___358                                                 6
 STAT SP IPHASW D HRMM SECON CODA AMPLIT PERI AZIMU VELO AIN AR TRES W  DIS CAZ7
 BAR2 EZ IP     C 20 5  2.38                             105    0.0510 64.2  50 
 BAR2 HN ES       20 5 11.54                             105    0.4610 64.2  50 
 BAR2 EZ I        20 5 11.99      1600.8 0.11             47           64.2  50 
 RUS  HZ IP     C 20 5  3.25                             103   -0.1910 70.1 121 
 RUS  HN ES       20 5 12.97                             103   -0.0810 70.1 121 
 RUS  HZ I        20 5 15.65       540.7 0.20             47           70.1 121 
 PTB  HZ EP     D 20 5  6.67                              61    0.0310 98.4 291 
 PTB  HN ES       20 5 18.70                              61   -0.0610 98.4 291 
 PTB  HZ I        20 5 19.66       502.1 0.14             47           98.4 291 
 BRR  HZ IP     C 20 5  6.60                              61   -0.0610 98.7 354 
 BRR  HE ES       20 5 19.08                              61    0.3010 98.7 354 
 BRR  HZ I        20 5 20.04       523.3 0.12             47           98.7 354 
 NOR  HZ EP       20 5 14.05                              61    0.22 9  156 242 
 NOR  HN ES       20 5 32.26                              61    0.72 9  156 242 
 NOR  HZ I        20 5 39.10        86.3 0.18             47            156 242 
 PAM  EZ EP       20 5 14.87                              61   -0.14 9  161  40 
 PAM  EN ES       20 5 34.20                              61    0.55 9  161  40 
 PAM  EZ I        20 5 35.33       134.1 0.22             47            161  40 
 ROSC BZ EP   4   20 5 22.79                              61    6.66 0  171 207 
 ROSC BN ES   4   20 5 45.23                              61    9.58 0  171 207 
 ROSC BZ I        20 6  2.81        39.7 0.30             37            171 207 
 CHI  HZ EP   4   20 5 18.88                              61    2.05 0  176 184 
 CHI  HZ I        20 5 51.16        33.6 0.26             37            176 184 
 ZAR  HZ EP       20 5 18.24                              61   -0.57 9  196 316 
 ZAR  HN ES       20 5 39.66                              61   -0.76 9  196 316 
 ZAR  HZ I        20 5 51.05       187.4 0.30             37            196 316 
 TAM  HZ EP       20 5 19.51                              61   -0.42 9  204  83 
 TAM  HN ES       20 5 42.30                              61   -0.10 9  204  83 
 TAM  HZ I        20 5 47.00        71.9 0.28             37            204  83 
 ELA  HZ EP   4   20 5 28.42                              61    2.54 0  247 233 
 ELA  HZ I        20 6  0.41        35.2 0.21             37            247 233 
 CBOC HZ EP   4   20 5 30.77                              60    2.88 0  267 262 
 URE  HZ EP       20 5 28.53                              60    0.42 8  270 309 
 URE  HN ES   3   20 5 58.05                              60    1.08 2  270 309 
 URE  HZ I        20 6  4.98        86.2 0.16             37            270 309 
 PTGC HZ EP       20 5 28.80                              60   -0.23 7  278 143 
 PTGC HZ I        20 6 13.23        46.9 0.38             36            278 143 
 DBB  EZ EP   9   20 5 34.85                              60    3.12 0  299 287 
 DBB  EN ES       20 6  7.15                              60    0.62 7  299 287 
 DBB  EZ I        20 6 14.21        22.8 0.22             36            299 287 
 ORTC HZ EP   4   20 5 35.77                              60    2.46 0  312 215 
 ORTC HN ES   4   20 6  9.86                              60    3.64 0  312 215 
 ORTC HZ I        20 6 15.87        20.1 0.44             36            312 215 
 LL6C HZ EP   9   20 5 23.74                              60   -19.2 0  391   6 
 LL6C HE ES   3   20 6  5.43                                    1.24 1  391   6 
 SJC  HZ EP       20 5 48.83                              60   -0.44 5  441 337 
 SJC  HN ES       20 6 33.70                              60   -0.93 5  441 337 
 SJC  HZ I        20 6 36.30         9.5 0.20             36            441 337 
 CRJC HZ EP   9   20 5 59.07                              60   -2.09 0  537   9 
 CRJC HE ES       20 6 53.76                              60    0.05 4  537   9 
 CRJC HZ I        20 7  7.84        16.1 0.18             36            537   9 
                                                                                
