 2012 1220 2001  2.5 L   6.726 -73.171141.2  RSN  7 0.4 2.1LRSN                1
 GAP=137        1.02       6.5     4.4  6.5 -0.7961E+00  0.6484E+01  0.8912E+01E
 Epicentro: VILLANUEVA - SANTANDER                                             3
 ACTION:UPD 13-01-04 14:29 OP:ep   STATUS:               ID:20121220200102 L   I
 2012-12-20-2000-00M.COL___243                                                 6
 STAT SP IPHASW D HRMM SECON CODA AMPLIT PERI AZIMU VELO AIN AR TRES W  DIS CAZ7
 BAR2 SZ EP       20 1 21.04                             174   -0.4010 14.8 185 
 BAR2 SZ ES       20 1 36.27                             174    0.0610 14.8 185 
 BAR2 SZ I        20 1 38.00        81.7 0.92                          14.8 185 
 GIR2 SZ EP       20 1 22.00                             164    0.1210 39.1 356 
 GIR2 SZ ES       20 1 36.85                             164   -0.1410 39.1 356 
 BRR  HZ EP       20 1 23.60                             151    0.3210 73.2 305 
 BRR  HN ES       20 1 40.25                             151    0.7710 73.2 305 
 BRR  HN I        20 1 41.42        25.7 0.32                          73.2 305 
 PAM  SZ EP       20 1 24.69                             147   -0.0610 85.6  37 
 PAM  SN ES       20 1 41.69                             147   -0.4210 85.6  37 
 PAM  SN I        20 1 42.96        10.0 0.44                          85.6  37 
 RUS  HZ EP       20 1 25.75                             145    0.5110 92.6 174 
 PTB  HZ EP       20 1 28.30                             132   -0.42 9  144 262 
 PTB  HN ES       20 1 48.59                             132   -0.58 9  144 262 
 PTB  HN I        20 1 54.91        12.9 0.34                           144 262 
 ZAR  HZ EP       20 1 34.95                             121    0.22 9  205 295 
 ZAR  HN ES       20 1 59.78                             121   -0.08 9  205 295 
 ZAR  HN I        20 2  7.50        11.4 0.22                           205 295 
                                                                                
