 2017 1020 2312 19.9 L   6.724 -73.203146.0  RSN  4 0.2 1.5LRSN                1
 GAP=224        0.49       6.1     7.3  6.0  0.3755E+02 -0.5438E+00 -0.6118E+01E
 Epicentro: VILLANUEVA - SANTANDER                                             3
 ACTION:UPD 17-11-07 19:34 OP:rebc STATUS:               ID:20171020231219 L   I
 OLDACT:REG 17-10-21 06:33 OP:dnl  STATUS:               ID:20171020230014     3
 2017-10-20-2308-00M.COL___462                                                 6
 STAT SP IPHASW D HRMM SECON CODA AMPLIT PERI AZIMU VELO AIN AR TRES W  DIS CAZ7
 BAR2 EZ EP   2   2312 39.18                             174   -0.26 5 14.8 171 
 BAR2 EZ I        2313  0.76         4.4 0.54             94           14.8 171 
 BRR  HZ EP       2312 40.86                             153   -0.1910 70.4 307 
 BRR  HE ES       2312 57.72                             153    0.1910 70.4 307 
 BRR  HZ I        2312 58.97        11.9 0.18             37           70.4 307 
 RUS  HZ EP   2   2312 43.46                             146    0.30 5 92.9 172 
 RUS  HE ES       2313  1.26                             146   -0.0210 92.9 172 
 RUS  HZ I        2313  3.28         2.3 0.58             37           92.9 172 
 ZAR  HZ EP   2   2312 52.67                             123    0.54 4  202 295 
 ZAR  HE ES       2313 17.12                             123   -0.13 9  202 295 
 ZAR  HZ I        2313 23.76         7.0 0.18             37            202 295 
                                                                                
