 2011 1120 2051 28.9 L   6.777 -73.099140.2  RSN  6 0.3 1.8LRSN                1
 GAP=144        0.55       2.7     4.1  4.7  0.1617E+01 -0.2311E+01 -0.1187E+01E
 Epicentro: LOS SANTOS - SANTANDER                                             3
 ACTION:UPD 12-07-13 16:11 OP:ep   STATUS:               ID:20111120205128 L   I
 2011-11-20-2049-12S.COL___178                                                 6
 STAT SP IPHASW D HRMM SECON CODA AMPLIT PERI AZIMU VELO AIN AR TRES W  DIS CAZ7
 BAR2 SZ EP   1   2051 47.37                             170   -0.42 7 22.4 204 
 BAR2 SZ ES   1   2052  2.67                             170    0.10 7 22.4 204 
 BAR2 SZ I        2052  4.25        16.9 0.19                          22.4 204 
 PAM  SZ EP       2051 50.64                             150    0.2310 76.3  35 
 PAM  SN ES   1   2052  6.87                             150   -0.36 7 76.3  35 
 BRR  HZ EP       2051 49.71                             149   -0.0310 76.9 298 
 BRR  HE ES       2052  6.24                             149    0.2010 76.9 298 
 BRR  HZ I        2052  9.24        12.8 0.25                          76.9 298 
 RUS  HZ EP       2051 51.87                             143    0.0110 97.8 179 
 RUS  HN ES   1   2052  9.82                             143    0.02 7 97.8 179 
 RUS  HZ I        2052 12.04         6.1 0.31                          97.8 179 
 OCA  SZ EP   1   2051 57.33                             128    0.29 7  163 351 
 OCA  SZ ES   1   2052 18.92                             128   -0.11 7  163 351 
 OCA  SZ I        2052 21.53        10.5 0.24                           163 351 
 ZAR  HN ES   2   2052 26.35                             120   -0.68 4  210 292 
 ZAR  HZ I        2052 31.88         6.9 0.30                           210 292 
                                                                                
