 2016 1020 2244 42.3 L   6.468 -73.755 93.2  RSN  8 0.3 1.3LRSN                1
 GAP= 88        0.87       2.8     2.5  6.2 -0.1850E+01  0.2321E+01  0.5397E+01E
 Epicentro: SANTA HELENA DEL OPON - SANTANDER                                  3
 ACTION:UPD 16-11-09 19:21 OP:rebc STATUS:               ID:20161020224442 L   I
 OLDACT:REG 16-10-21 03:21 OP:dnl  STATUS:               ID:20161020223746     3
 2016-10-20-2238-00M.COL___337                                                 6
 STAT SP IPHASW D HRMM SECON CODA AMPLIT PERI AZIMU VELO AIN AR TRES W  DIS CAZ7
 BAR2 EZ ES       2245 10.47                             143    0.3310 64.9  78 
 BAR2 EZ I        2245 11.87        16.4 0.16            139           64.9  78 
 BRR  HZ EP       2244 58.33                             140    0.2610 70.9   4 
 BRR  HE ES       2245 10.32                             140   -0.0510 70.9   4 
 BRR  HZ I        2245 14.45         7.2 0.28            140           70.9   4 
 PTB  HZ EP       2244 58.54                             137   -0.1310 77.9 276 
 PTB  HN ES       2245 11.07                             137   -0.3710 77.9 276 
 PTB  HZ I        2245 12.50         5.7 0.08            138           77.9 276 
 RUS  HZ EP       2245  0.43                             131   -0.6710 97.9 130 
 RUS  HZ I        2245 15.86         1.6 0.10            127           97.9 130 
 RUS  HN ES       2245 15.97                             131    0.2010 97.9 130 
 PAM  EZ EP       2245  6.27                             118   -0.32 9  151  50 
 PAM  EE ES       2245 25.71                             118    0.17 9  151  50 
 NOR  HZ EP       2245  7.34                             116    0.49 9  159 231 
 NOR  HE ES       2245 25.84                             116   -0.17 9  159 231 
 NOR  HZ I        2245 28.11         4.4 0.12            115            159 231 
 CHI  HN ES       2245 35.61                             110   -0.22 9  203 179 
 CHI  HZ I        2245 40.04         1.3 0.18            109            203 179 
 GUY2CHZ EP       2245 15.17                             108    0.18 8  225 232 
 GUY2CHN ES       2245 41.01                             108    0.52 8  225 232 
 GUY2CHZ I        2245 46.30         2.4 0.28                           225 232 
                                                                                
