 2011  920 2007 47.4 L   5.802 -73.806115.5  RSN  6 0.2 1.8LRSN                1
 GAP= 94        0.38       2.4     3.0  7.5 -0.1159E+01  0.7301E+01 -0.2061E+01E
 Epicentro: JESUS MARIA - SANTANDER                                            3
 ACTION:UPD 12-07-13 15:58 OP:ep   STATUS:               ID:20110920200747 L   I
 2011-09-20-2004-27S.COL___165                                                 6
 STAT SP IPHASW D HRMM SECON CODA AMPLIT PERI AZIMU VELO AIN AR TRES W  DIS CAZ7
 RUS  HZ EP   2   20 8  6.79                             143    0.06 5 80.7  83 
 RUS  HN ES   2   20 8 21.64                             143   -0.17 5 80.7  83 
 RUS  HZ I        20 8 23.08         6.1 0.18                          80.7  83 
 BAR2 SZ EP   2   20 8  9.31                             133    0.42 5  111  38 
 BAR2 SZ ES   2   20 8 25.69                             133    0.02 5  111  38 
 BAR2 SZ I        20 8 27.37        34.1 0.42                           111  38 
 NOR  SZ EP   2   20 8  9.50                             130    0.02 5  121 257 
 NOR  SN ES   2   20 8 26.59                             130   -0.13 5  121 257 
 CHI  HZ EP   2   20 8 10.59                             128   -0.25 5  130 176 
 CHI  HZ I        20 8 16.09         5.9 0.23                           130 176 
 CHI  HN ES   2   20 8 29.41                             128    0.28 5  130 176 
 BRR  HZ EP   2   20 8 11.28                             125   -0.47 5  145   4 
 BRR  HZ I        20 8 18.18        17.5 0.38                           145   4 
 BRR  HN ES   2   20 8 30.71                             125   -0.04 5  145   4 
 ZAR  HN ES   2   20 8 45.49                             113    0.30 4  220 328 
 ZAR  HZ I        20 8 51.05         4.6 0.35                           220 328 
                                                                                
