 2011  220 2009 53.1 L   6.779 -73.166133.9  RSN  6 0.3 1.7LRSN                1
 GAP=157        0.72       4.4    10.1  7.3 -0.2889E+02  0.2300E+02 -0.3377E+01E
 Epicentro: LOS SANTOS - SANTANDER                                             3
 ACTION:UP  11-03-28 15:09 OP:jfem STATUS:               ID:20110220200953 L   I
 2011-02-20-2006-45S.COL___137                                                 6
 STAT SP IPHASW D HRMM SECON CODA AMPLIT PERI AZIMU VELO SNR AR TRES W  DIS CAZ7
 BTL  SZ EP       2010 11.67                             171     0.510   19 324 
 BAR2 SZ EP   1   2010 11.35                             171     0.1 7   21 185 
 BAR2 SZ ES   1   2010 25.21                             171    -0.2 7   21 185 
 BAR2 SZ I        2010 27.42        19.2 0.28                            21 185 
 RUS  HZ EP   1   2010 15.67                             142     0.1 7   98 175 
 RUS  HZ I        2010 16.84         6.7 0.07                            98 175 
 RUS  HN ES   2   2010 32.76                             142    -0.3 5   98 175 
 GRA  SZ EP       2010 17.08                             134    -0.510  129  18 
 GRA  SZ ES   1   2010 36.82                             134     0.2 7  129  18 
 GRA  SZ I        2010 37.83         8.2 0.28                           129  18 
 NOR  SZ EP   1   2010 28.01                             116     0.2 6  232 235 
 NOR  SN ES   2   2010 54.44                             116    -0.5 4  232 235 
 CHI  HZ EP   1   2010 29.83                             115     0.0 6  246 195 
 CHI  HE ES   1   2010 58.41                             115    -0.1 6  246 195 
 CHI  HZ I        2011  1.76         2.4 0.38                           246 195 
                                                                                
