 2010  820 2156 54.5 L   6.788 -73.074143.7  RSN 10 0.5 2.5LRSN                1
 GAP=167        1.20       4.7    11.3  8.4 -0.1262E+02 -0.3166E+01  0.2034E+01E
 Epicentro: LOS SANTOS - SANTANDER                                             3
 ACTION:UP  10-09-07 10:56 OP:vdl  STATUS:               ID:20100820215654 L   I
 2010-08-20-2154-11S.COL___120                                                 6
 STAT SP IPHASW D HRMM SECON CODA AMPLIT PERI AZIMU VELO SNR AR TRES W  DIS CAZ7
 BAR2 SZ IP       2157 13.75                             171    -0.110   25 209 
 BAR2 SZ ES   1   2157 28.23                             171    -0.8 7   25 209 
 BAR2 SZ I        2157 29.78        58.5 0.39                            25 209 
 GIR2 SZ EP       2157 14.80                             166     0.810   35 338 
 GIR2 SZ ES   2   2157 29.69                             166     0.5 5   35 338 
 BRR  HZ IP     C 2157 15.50                             150    -0.310   79 297 
 BRR  HZ I        2157 15.75        92.3 0.08                            79 297 
 BRR  HN ES   1   2157 32.65                             150     0.1 7   79 297 
 RUS  HZ EP       2157 17.92                             144     0.010   99 181 
 RUS  HN ES   1   2157 36.43                             144     0.3 7   99 181 
 RUS  HZ I        2157 37.59        25.3 0.30                            99 181 
 GUE  SZ EP       2157 19.72                             138     0.710  116   8 
 GRA  SZ EP   1   2157 18.54                                    -0.9 7  125  14 
 GRA  SZ ES   3   2157 38.65                             136    -0.3 2  125  14 
 OCA  SZ EP       2157 22.29                             128    -0.5 9  163 350 
 OCA  SZ ES   2   2157 44.59                             128    -0.4 5  163 350 
 CHI  HZ EP       2157 32.03                             117    -0.1 8  250 197 
 CHI  HN ES   1   2158  1.16                             117    -0.4 6  250 197 
 CHI  HZ I        2158  3.78        19.1 0.38                           250 197 
 RREF HZ EP   1   2157 41.87                             110     0.8 5  327 230 
 RREF HN ES   2   2158 17.88                             110     0.4 3  327 230 
 RREF HZ I        2158 23.27        11.8 0.44                           327 230 
 PRA  HZ EP   2   2157 48.30                             106     0.1 3  395 211 
 PRA  HE ES   2   2158 29.32                             106    -0.8 3  395 211 
 PRA  HZ I        2158 33.79        13.1 0.62                           395 211 
                                                                                
