 2010  720 2323 27.7 L   6.734 -73.087150.9  RSN  6 0.5 2.1LRSN                1
 GAP=166        1.04       8.8    14.4 11.2  0.4726E+02 -0.8515E+02 -0.3022E+02E
 Epicentro: JORDAN - SANTANDER                                                 3
 ACTION:UPD 10-12-01 15:19 OP:pat  STATUS:               ID:20100720232327 L   I
 2010-07-20-2317-43S.COL___123                                                 6
 STAT SP IPHASW D HRMM SECON CODA AMPLIT PERI AZIMU VELO AIN AR TRES W  DIS CAZ7
 BAR2 SZ EP       2323 48.33                             173     0.510   19 214 
 BAR2 SZ ES   1   2324  3.36                             173    -0.2 7   19 214 
 BAR2 SZ I        2324  4.28        28.7 0.35                            19 214 
 GIR2 SZ ES   2   2324  3.79                             164    -0.4 5   40 343 
 BRR  HZ EP       2323 49.94                             150     0.010   80 301 
 BRR  HZ I        2323 50.23        66.3 0.09                            80 301 
 BRR  HN ES       2324  7.24                             150     0.010   80 301 
 RUS  HZ EP   1   2323 50.51                             147    -0.9 7   93 180 
 RUS  HN ES   2   2324 10.85                             147     0.9 5   93 180 
 RUS  HZ I        2324 11.80         7.0 0.12                            93 180 
 GUE  SZ EP   1   2323 53.22                             139    -0.1 7  123   8 
 GRA  SZ EP   1   2323 54.06                             137     0.2 7  131  14 
                                                                                
