 2010  220 2232 28.4 L   6.774 -73.072148.5  RSN  7 0.3 2.1LRSN                1
 GAP=190        0.57       2.9    11.2  5.2  0.5003E+01 -0.1043E+01  0.6927E+00E
 Epicentro: LOS SANTOS - SANTANDER                                             3
 ACTION:UP  10-08-24 09:49 OP:vdl  STATUS:               ID:20100220223228 L   I
 2010-02-20-2230-54S.COL___094                                                 6
 STAT SP IPHASW D HRMM SECON CODA AMPLIT PERI AZIMU VELO SNR AR TRES W  DIS CAZ7
 BAR2 SZ EP       2232 48.35                             171     0.010   24 211 
 BAR2 SZ ES   1   2233  3.45                             171    -0.5 7   24 211 
 GIR2 SZ EP   1   2232 48.43                             166    -0.1 7   36 338 
 BRR  HN ES   2   2233  7.79                             150     0.4 5   80 298 
 RUS  BZ IP       2232 52.23                             145     0.110   98 181 
 RUS  BE ES   1   2233 11.11                             145     0.4 7   98 181 
 RUS  BZ I        2233 12.27        17.0 0.50                            98 181 
 OCA  SZ EP   1   2232 57.10                             129    -0.2 7  164 350 
 OCA  SZ ES   1   2233 19.88                             129     0.1 7  164 350 
 CHI  HZ EP   1   2233  6.43                             118     0.3 6  248 197 
 CHI  HE ES   2   2233 34.88                             118    -0.8 4  248 197 
 CHI  HZ I        2233 43.95         8.8 0.24                           248 197 
 PRA  HZ EP   1   2233 22.00                             107    -0.2 4  394 211 
                                                                                
