 2012  820 2038 44.4 L   6.711 -73.108147.5  RSN  4 0.1 1.6LRSN                1
 GAP=145        0.35       3.1     5.1  5.7  0.8298E+01 -0.1860E+02 -0.7119E+01E
 Epicentro: JORDAN - SANTANDER                                                 3
 ACTION:UPD 12-09-10 11:57 OP:ep   STATUS:               ID:20120820203844 L   I
 2012-08-20-2030-00M.COL___217                                                 6
 STAT SP IPHASW D HRMM SECON CODA AMPLIT PERI AZIMU VELO AIN AR TRES W  DIS CAZ7
 BAR2 SZ EP       2039  3.91                             174   -0.1710 15.5 212 
 BAR2 SZ I        2039 20.27        11.1 0.18                          15.5 212 
 BRR  HZ EP       2039  6.24                             150    0.0310 79.9 303 
 BRR  HZ I        2039  7.11         9.3 0.06                          79.9 303 
 BRR  HN ES       2039 23.26                             150    0.0110 79.9 303 
 PAM  SZ EP       2039  7.15                             149    0.0510 82.9  33 
 PAM  SZ I        2039  7.51        10.6 0.16                          82.9  33 
 RUS  HZ EP   1   2039  7.69                             147    0.09 7 90.5 178 
 RUS  HN ES   1   2039 25.75                             147    0.04 7 90.5 178 
 RUS  HZ I        2039 28.11         3.2 0.43                          90.5 178 
                                                                                
