 2014 1220 2306 55.7 L   7.469 -73.226130.3  RSN  7 0.5 1.9LRSN                1
 GAP=136        1.33       5.4     5.5  9.2  0.4571E+01  0.1204E+02 -0.8582E+01E
 Epicentro: EL PLAYON - SANTANDER                                              3
 ACTION:UPD 15-02-10 17:05 OP:nd   STATUS:               ID:20141220230655 L   I
 OLDACT:UP  14-12-21 08:55 OP:cam  STATUS:               ID:20141220225817d    3
 OLDACT:DUP 14-12-21 08:52 OP:cam  STATUS:               ID:20141220225817d    3
 2014-12-20-2258-16M.COL___302                                                 6
 STAT SP IPHASW D HRMM SECON CODA AMPLIT PERI AZIMU VELO AIN AR TRES W  DIS CAZ7
 PAM  SZ EP       23 7 15.56                             154    0.3310 59.9 104 
 PAM  SN ES       23 7 30.48                             154   -0.0110 59.9 104 
 PAM  SZ I        23 7 31.77        10.6 0.18            157           59.9 104 
 BRR  HZ IP     D 23 7 15.44                             151    0.5210 66.9 233 
 BRR  HN ES       23 7 30.61                             151    0.6910 66.9 233 
 BRR  HZ I        23 7 31.18        30.1 0.34            151           66.9 233 
 BAR2 EZ EP       23 7 17.20                             141   -0.1110 97.0 177 
 BAR2 EZ ES       23 7 33.66                             141   -0.5310 97.0 177 
 BAR2 EZ I        23 7 34.77        25.5 0.38            142           97.0 177 
 PTB  HZ EP       23 7 23.78                             124    0.12 9  170 233 
 PTB  HN ES       23 7 44.46                             124   -1.03 9  170 233 
 PTB  HZ I        23 7 48.42         5.4 0.14            125            170 233 
 SML  HZ EP       23 7 23.50                             123   -0.53 9  174 328 
 SML  HN ES       23 7 45.53                             123   -0.62 9  174 328 
 SML  HZ I        23 7 47.05        14.5 0.10            124            174 328 
 RUS  HZ EP       23 7 24.61                             123   -0.15 9  175 175 
 ZAR  HZ EP       23 7 25.45                             122    0.80 9  180 271 
 ZAR  HN ES       23 7 47.57                             122    0.33 9  180 271 
 ZAR  HZ I        23 7 50.05        10.5 0.16            123            180 271 
                                                                                
