 2016  220 2350  1.2 L   6.758 -73.141140.0  RSN 12 0.6 2.1LRSN                1
 GAP=139        1.02       4.5     4.7  7.2 -0.2084E+01  0.8486E+01  0.7370E+01E
 Epicentro: LOS SANTOS - SANTANDER                                             3
 ACTION:UPD 16-03-04 21:27 OP:rebc STATUS:               ID:20160220235001 L   I
 OLDACT:REG 16-02-21 03:16 OP:dnl  STATUS:               ID:20160220234749     3
 2016-02-20-2347-49M.COL___330                                                 6
 STAT SP IPHASW D HRMM SECON CODA AMPLIT PERI AZIMU VELO AIN AR TRES W  DIS CAZ7
 BAR2 EZ ES       2350 34.45                             172   -0.3210 18.9 194 
 BAR2 EZ I        2350 37.10        27.8 0.18            168           18.9 194 
 BRR  HZ EP       2350 22.12                             151    0.2210 73.9 301 
 BRR  HN ES       2350 38.68                             151    0.6510 73.9 301 
 BRR  HZ I        2350 43.40        25.2 0.26            152           73.9 301 
 PAM  EZ EP     C 2350 22.89                             149   -0.1310 80.7  37 
 PAM  EE ES       2350 39.89                             149   -0.1410 80.7  37 
 PAM  EZ I        2350 42.79        47.1 0.60            156           80.7  37 
 RUS  HZ EP   2   2350 24.63                             144    0.57 5 96.0 176 
 RUS  HE ES   2   2350 42.78                             144    0.90 5 96.0 176 
 RUS  HZ I        2350 44.26         9.6 0.23            145           96.0 176 
 PTB  HZ EP       2350 27.13                             131   -0.55 9  147 261 
 PTB  HN ES       2350 48.04                             131   -0.29 9  147 261 
 PTB  HZ I        2350 53.03         7.9 0.10            132            147 261 
 SPBC HZ EP   2   2350 29.60                             128    0.64 5  160 220 
 SPBC HE ES   2   2350 51.69                             128    1.08 5  160 220 
 SPBC HZ I        2350 56.86        13.9 0.18            130            160 220 
 ZAR  HZ EP   2   2350 34.41                             121    0.89 4  206 293 
 ZAR  HN ES       2350 58.23                             121   -0.49 8  206 293 
 ZAR  HZ I        2351  4.25        24.0 0.28            124            206 293 
 NOR  HZ EP   2   2350 36.86                             118    0.49 4  232 235 
 NOR  HE ES   2   2351  4.90                             118    1.11 4  232 235 
 NOR  HZ I        2351  7.81         6.2 0.34            120            232 235 
 CHI  HZ EP   2   2350 38.77                             116    0.65 4  244 196 
 CHI  HN ES       2351  6.18                             116   -0.73 8  244 196 
 CHI  HZ I        2351 12.76         4.3 0.26            119            244 196 
 URE  HZ EP   4   2350 44.72                             112    2.47 0  286 293 
 URE  HN ES   4   2351 11.49                             112   -2.78 0  286 293 
 URE  HZ I        2351 15.28        17.4 0.16            115            286 293 
 GUY2CHZ EP   2   2350 44.38                             111    0.08 4  299 236 
 GUY2CHE ES   4   2351 19.54                             111    1.62 0  299 236 
 GUY2CHZ I        2351 26.57         3.8 0.32                           299 236 
 MON  HN ES   4   2351 26.03                             107   -2.69 0  357 309 
 MON  HZ I        2351 26.90         4.7 0.14            110            357 309 
                                                                                
