 2010  620 2007 57.7 L   6.790 -73.091149.0  RSN  5 0.1 1.1LRSN                1
 GAP=162        0.31       2.8     4.5  4.4  0.1556E+01 -0.4432E+01 -0.1225E+01E
 Epicentro: LOS SANTOS - SANTANDER                                             3
 ACTION:UP  10-08-24 10:11 OP:vdl  STATUS:               ID:20100620200757 L   I
 2010-06-20-2004-52S.COL___118                                                 6
 STAT SP IPHASW D HRMM SECON CODA AMPLIT PERI AZIMU VELO SNR AR TRES W  DIS CAZ7
 BAR2 SZ EP   2   20 8 17.49                             170    -0.3 5   24 205 
 BAR2 SZ ES   2   20 8 33.35                             170     0.0 5   24 205 
 BRR  HZ IP     C 20 8 19.55                             151     0.010   77 297 
 BRR  HZ I        20 8 19.88         3.9 0.07                            77 297 
 BRR  HN ES   1   20 8 36.63                             151     0.0 7   77 297 
 RUS  HZ EP   2   20 8 21.87                             145     0.2 5   99 179 
 RUS  HZ I        20 8 22.98         1.1 0.15                            99 179 
 RUS  HN ES   2   20 8 40.45                             145     0.0 5   99 179 
 BRI  SZ EP   2   20 8 21.91                             142     0.1 5  107  18 
 GRA  SZ ES   2   20 8 43.11                             138     0.0 5  125  15 
                                                                                
