 2013  820 2250 33.6 L   6.736 -73.362130.3  RSN  4 0.3 1.5LRSN                1
 GAP=172        0.73       6.4     5.1  7.9  0.8940E+01  0.1254E+02 -0.3199E+01E
 Epicentro: GALAN - SANTANDER                                                  3
 ACTION:UPD 14-01-14 09:05 OP:ep   STATUS:               ID:20130820225033 L   I
 OLDACT:REG 13-08-20 21:23 OP:jn   STATUS:               ID:20130820224959     3
 2013-08-20-2249-59M.COL___269                                                 6
 STAT SP IPHASW D HRMM SECON CODA AMPLIT PERI AZIMU VELO AIN AR TRES W  DIS CAZ7
 BAR2 SZ EP   1   2250 51.77                             168    0.38 7 25.5 129 
 BAR2 SZ ES       2251  5.12                             168   -0.1710 25.5 129 
 BAR2 SZ I        2251  5.87        11.7 0.32            165           25.5 129 
 BRR  HZ EP     D 2250 52.41                             155    0.1910 56.4 317 
 BRR  HZ I        2251  5.66         6.5 0.28            141           56.4 317 
 BRR  HN ES   1   2251  6.59                             155   -0.18 7 56.4 317 
 RUS  HE ES   1   2251 12.88                             141    0.01 7 98.2 162 
 PTB  HZ EP   1   2250 56.31                             134   -0.71 7  123 260 
 PTB  HN ES       2251 15.58                             134    0.2510  123 260 
 PTB  HZ I        2251 19.68         3.7 0.20            125            123 260 
                                                                                
