 2010 1020 2048 30.8 L   6.786 -73.098143.9  RSN  9 0.3 2.4LRSN                1
 GAP=164        0.66       3.7     6.5  6.5 -0.2072E+01 -0.1006E+02 -0.5914E+01E
 Epicentro: LOS SANTOS - SANTANDER                                             3
 ACTION:UP  11-02-18 11:10 OP:tino STATUS:               ID:20101020204830 L   I
 2010-10-20-2046-29S.COL___128                                                 6
 STAT SP IPHASW D HRMM SECON CODA AMPLIT PERI AZIMU VELO SNR AR TRES W  DIS CAZ7
 BAR2 SZ IP       2048 50.17                             170     0.010   23 204 
 BAR2 SZ ES   1   2049  4.93                             170    -0.4 7   23 204 
 BAR2 SZ I        2049  6.42        71.2 0.39                            23 204 
 BTL  SZ IP       2048 50.44                             170     0.210   24 308 
 BRR  HZ IP     D 2048 51.94                             150    -0.110   77 298 
 BRR  HZ I        2048 52.13        82.9 0.12                            77 298 
 BRR  HN ES   1   2049  9.05                             150     0.4 7   77 298 
 RUS  HZ EP       2048 54.54                             144     0.310   99 179 
 RUS  HE ES   1   2049 12.42                             144    -0.1 7   99 179 
 RUS  HZ I        2049 14.72        16.3 0.34                            99 179 
 GUE  SZ EP       2048 55.12                             139    -0.310  117   9 
 GRA  SZ IP       2048 55.92                             136     0.010  126  15 
 NOR  SE ES   2   2049 34.29                             118    -0.6 4  238 236 
 CHI  HE ES   3   2049 37.71                             117     0.0 2  249 196 
 CHI  HZ I        2049 40.35         6.0 0.33                           249 196 
 PRA  HE ES   2   2050  6.04                             106    -0.2 3  393 210 
 PRA  HZ I        2050 10.03        15.2 0.31                           393 210 
                                                                                
