 2011 1120 2127 53.3 L   6.762 -73.149144.0  RSN  8 0.3 2.2LRSN                1
 GAP=138        0.69       3.1     4.8  5.1 -0.1329E+01  0.3670E+01 -0.1122E+01E
 Epicentro: LOS SANTOS - SANTANDER                                             3
 ACTION:UPD 12-07-13 16:11 OP:ep   STATUS:               ID:20111120212753 L   I
 2011-11-20-2124-55S.COL___178                                                 6
 STAT SP IPHASW D HRMM SECON CODA AMPLIT PERI AZIMU VELO AIN AR TRES W  DIS CAZ7
 BAR2 SZ EP       2128 12.53                             172   -0.1210 19.2 191 
 BAR2 SZ ES       2128 27.93                             172    0.1910 19.2 191 
 BAR2 SZ I        2128 28.95        35.5 0.33                          19.2 191 
 BRR  HZ EP       2128 14.39                             152    0.0210 73.0 302 
 BRR  HZ I        2128 14.61        59.8 0.10                          73.0 302 
 BRR  HN ES   1   2128 31.17                             152    0.37 7 73.0 302 
 PAM  SZ EP       2128 15.57                             150    0.0210 80.8  38 
 PAM  SN ES       2128 32.64                             150   -0.2610 80.8  38 
 RUS  HZ EP       2128 16.99                             145    0.4010 96.5 176 
 RUS  HN ES   1   2128 34.36                             145   -0.39 7 96.5 176 
 OCA  SZ EP       2128 21.46                             129   -0.41 9  164 353 
 OCA  SZ ES   1   2128 44.66                             129    0.51 7  164 353 
 OCA  SZ I        2128 48.58        13.6 0.53                           164 353 
 ZAR  HN ES   2   2128 50.48                             122   -0.62 4  205 293 
 ZAR  HZ I        2128 56.21         9.5 0.19                           205 293 
 NOR  SE ES   2   2128 55.83                             118   -0.39 4  232 235 
 CHI  HZ EP   2   2128 30.76                             117    0.29 4  245 195 
 CHI  HZ I        2128 31.28         6.3 0.12                           245 195 
                                                                                
