 2010 1120 2306 25.2 L   6.793 -73.059135.1  RSN  7 0.4 1.5LRSN                1
 GAP=168        0.92       6.0    12.5 15.3  0.6024E+01 -0.9677E+02 -0.1157E+01E
 Epicentro: LOS SANTOS - SANTANDER                                             3
 ACTION:UP  10-12-17 16:53 OP:REBC STATUS:               ID:20101120230625 L   I
 2010-11-20-2304-19S.COL___132                                                 6
 STAT SP IPHASW D HRMM SECON CODA AMPLIT PERI AZIMU VELO SNR AR TRES W  DIS CAZ7
 BAR2 SZ EP       23 6 43.57                             169     0.010   26 212 
 BAR2 SZ I        23 6 59.87         9.2 0.09                            26 212 
 BTL  SZ EP       23 6 43.83                             169     0.210   27 301 
 GIR2 SZ EP   3   23 6 43.33                             165    -0.3 2   35 335 
 BRR  HZ EP       23 6 45.37                             148    -0.410   80 296 
 BRR  HZ I        23 6 58.84        13.3 0.39                            80 296 
 BRR  HE ES   1   23 7  1.83                             148     0.1 7   80 296 
 RUS  HZ EP       23 6 47.55                             142    -0.310  100 182 
 RUS  HZ I        23 6 48.46         3.3 0.06                           100 182 
 RUS  HE ES   2   23 7  5.92                             142     0.5 5  100 182 
 GUE  SZ EP       23 6 49.31                             137     0.510  116   7 
 GRA  SZ ES   2   23 7  7.22                             135    -0.9 5  124  13 
 GRA  SZ I        23 7 10.94         3.7 0.54                           124  13 
                                                                                
