 2010 1120 2121 12.2 L   6.759 -73.078150.0  RSN  8 0.2 1.5LRSN                1
 GAP=167        0.47       2.5     5.5  4.3 -0.6211E+00 -0.7712E+01 -0.2200E+01E
 Epicentro: LOS SANTOS - SANTANDER                                             3
 ACTION:UP  10-12-17 16:53 OP:REBC STATUS:               ID:20101120212112 L   I
 2010-11-20-2119-34S.COL___132                                                 6
 STAT SP IPHASW D HRMM SECON CODA AMPLIT PERI AZIMU VELO SNR AR TRES W  DIS CAZ7
 BAR2 SZ ES   3   2121 47.48                             171    -0.5 2   22 212 
 BAR2 SZ I        2121 50.17         8.1 0.19                            22 212 
 BTL  SZ EP       2121 32.69                             169     0.310   27 310 
 BTL  SZ ES   1   2121 48.29                             169     0.1 7   27 310 
 GIR2 SZ EP   3   2121 32.73                             165     0.2 2   38 340 
 BRR  HZ EP       2121 34.16                             151    -0.110   80 299 
 BRR  HZ I        2121 34.38        11.1 0.16                            80 299 
 BRR  HN ES   1   2121 51.58                             151     0.0 7   80 299 
 RUS  HZ EP       2121 36.08                             146     0.110   96 180 
 RUS  HN ES   1   2121 54.42                             146    -0.2 7   96 180 
 RUS  HZ I        2121 56.42         2.6 0.23                            96 180 
 GUE  SZ EP       2121 37.30                             140    -0.210  120   8 
 GRA  SZ EP       2121 38.07                             137     0.110  128  14 
 GRA  SZ ES   1   2121 58.22                             137     0.1 7  128  14 
 GRA  SZ I        2121 59.30         5.5 0.34                           128  14 
 OCA  SZ EP       2121 41.20                             130    -0.1 9  166 351 
                                                                                
