 2011  520 2047  0.4 L   6.764 -73.144147.7  RSN  5 0.2 1.6LRSN                1
 GAP=138        0.49       4.6     6.9  6.7  0.6134E-01 -0.2283E+01  0.3556E+00E
 Epicentro: LOS SANTOS - SANTANDER                                             3
 ACTION:UP  11-06-29 08:55 OP:tino STATUS:               ID:20110520204700 L   I
 2011-05-20-2046-14S.COL___141                                                 6
 STAT SP IPHASW D HRMM SECON CODA AMPLIT PERI AZIMU VELO SNR AR TRES W  DIS CAZ7
 BAR2 SZ EP   1   2047 20.06                             172    -0.2 7   19 193 
 BAR2 SZ ES   2   2047 35.26                             172    -0.4 5   19 193 
 BAR2 SZ I        2047 36.30        10.4 0.14                            19 193 
 BTL  SZ EP   1   2047 20.59                             171     0.3 7   22 321 
 BRR  HZ EP   1   2047 21.71                             152    -0.2 7   73 301 
 BRR  HE ES   2   2047 38.83                             152     0.2 5   73 301 
 BRR  HZ I        2047 40.29        13.4 0.41                            73 301 
 PAM  SZ EP   1   2047 23.08                             150     0.1 7   80  38 
 PAM  SE ES   2   2047 40.64                             150     0.0 5   80  38 
 RUS  HZ EP   1   2047 23.99                             145    -0.1 7   97 176 
 RUS  HN ES   2   2047 42.89                             145     0.3 5   97 176 
 RUS  HZ I        2047 44.28         3.3 0.40                            97 176 
                                                                                
