 2014 1020 2331 12.8 L   6.793 -73.150147.0  RSN 11 0.6 1.7LRSN                1
 GAP=136        1.29       4.0     5.6  8.1  0.6346E+00  0.7972E+01  0.5135E+01E
 Epicentro: LOS SANTOS - SANTANDER                                             3
 ACTION:UPD 14-11-29 23:52 OP:nd   STATUS:               ID:20141020233112 L   I
 OLDACT:REG 14-10-21 10:11 OP:fm   STATUS:               ID:20141020232748     3
 2014-10-20-2327-48M.COL___271                                                 6
 STAT SP IPHASW D HRMM SECON CODA AMPLIT PERI AZIMU VELO AIN AR TRES W  DIS CAZ7
 BAR2 SZ EP   1   2331 33.03                             171    0.48 7 22.5 189 
 BAR2 SZ ES   1   2331 48.71                             171    0.74 7 22.5 189 
 BAR2 SZ I        2331 50.72        10.6 0.26            170           22.5 189 
 BRR  HZ EP   1   2331 34.37                             153    0.30 7 71.1 299 
 BRR  HN ES       2331 51.56                             153    0.8910 71.1 299 
 BRR  HZ I        2331 56.35        15.1 0.36            154           71.1 299 
 PAM  SZ EP       2331 35.86                             151    0.6710 78.2  39 
 PAM  SN ES       2331 51.96                             151   -0.7010 78.2  39 
 PAM  SZ I        2331 56.13         3.8 0.48            155           78.2  39 
 RUS  HZ EP       2331 36.58                             144   -0.0310 99.9 176 
 RUS  HE ES       2331 54.47                             144   -0.7310 99.9 176 
 RUS  HZ I        2331 57.00         4.0 0.28            146           99.9 176 
 PTB  HZ EP   1   2331 39.16                             132   -0.64 7  147 259 
 PTB  HE ES       2332  0.21                             132   -0.66 9  147 259 
 PTB  HZ I        2332  3.30         4.2 0.12            134            147 259 
 SPBC HE ES   1   2332  3.72                             129    0.18 7  162 219 
 SPBC HZ I        2332  8.96         5.7 0.26            131            162 219 
 ZAR  HN ES       2332 10.92                             123    0.27 9  204 292 
 SML  HZ EP   1   2331 49.35                             118   -0.18 6  244 335 
 SML  HE ES       2332 17.35                             118   -0.85 8  244 335 
 SML  HZ I        2332 19.90         7.0 0.34            120            244 335 
 CHI  HZ EP       2331 50.90                             117    0.44 8  248 195 
 CHI  HN ES       2332 19.80                             117   -0.05 8  248 195 
 CHI  HZ I        2332 23.87         2.9 0.68            120            248 195 
 GUY2CHZ EP   4   2331 57.62                             113    1.26 0  300 235 
 GUY2CHN ES   4   2332 32.70                             113    2.35 0  300 235 
 GUY2CHZ I        2332 38.21         2.0 0.34                           300 235 
 MON  HN ES   4   2332 36.53                             109   -3.58 0  354 309 
 PRA  HZ EP   1   2332  6.61                             107    0.36 4  391 210 
 PRA  HE ES       2332 47.77                             107   -0.18 6  391 210 
 PRA  HZ I        2332 53.18         3.0 0.52            109            391 210 
                                                                                
