 2012  520 2336  1.2 L   6.752 -73.137144.7  RSN  6 0.4 1.7LRSN                1
 GAP=140        0.96       6.2     5.6  8.4  0.5420E+01  0.9748E+01  0.2688E+01E
 Epicentro: LOS SANTOS - SANTANDER                                             3
 ACTION:UP  12-07-05 12:06 OP:pat  STATUS:               ID:20120520233601 L   I
 2012-05-20-2329-35M.COL___190                                                 6
 STAT SP IPHASW D HRMM SECON CODA AMPLIT PERI AZIMU VELO SNR AR TRES W  DIS CAZ7
 BAR2 SZ EP       2336 20.45                             172    -0.110   18 196 
 BAR2 SZ I        2336 20.85        14.1 0.09                            18 196 
 BAR2 SZ ES   1   2336 35.99                             172     0.3 7   18 196 
 BRR  HE ES   1   2336 39.23                             151     0.3 7   75 302 
 PAM  SZ EP   1   2336 23.66                             149     0.2 7   81  37 
 PAM  SE ES   1   2336 40.33                             149    -0.5 7   81  37 
 RUS  HZ EP       2336 24.60                             145     0.210   95 176 
 RUS  HN ES   1   2336 42.77                             145     0.2 7   95 176 
 RUS  HZ I        2336 45.41         5.0 0.25                            95 176 
 PTB  HZ EP   1   2336 27.31                             132    -0.7 7  148 261 
 PTB  HN ES   1   2336 48.24                             132    -0.7 7  148 261 
 PTB  HZ I        2336 54.22         6.8 0.31                           148 261 
 ZAR  HZ EP   1   2336 34.25                             122     0.4 6  207 293 
 ZAR  HE ES   1   2336 59.86                             122     0.5 6  207 293 
                                                                                
