 2014  520 2029 30.2 L   7.406 -73.190128.0  RSN 10 0.5 2.2LRSN                1
 GAP=130        1.25       4.9     5.0  7.6 -0.2707E+01  0.1281E+02  0.3775E+01E
 Epicentro: EL PLAYON - SANTANDER                                              3
 ACTION:UPD 15-03-16 16:59 OP:nd   STATUS:               ID:20140520202930 L   I
 OLDACT:REG 14-05-21 07:52 OP:carl STATUS:               ID:20140520202816     3
 2014-05-20-2028-16M.COL___260                                                 6
 STAT SP IPHASW D HRMM SECON CODA AMPLIT PERI AZIMU VELO AIN AR TRES W  DIS CAZ7
 PAM  SZ EP       2029 49.87                             156    0.6110 54.7  98 
 PAM  SN ES       2030  4.10                             156   -0.0010 54.7  98 
 PAM  SZ I        2030  6.28        16.9 0.40            159           54.7  98 
 BRR  HZ EP       2029 48.68                             151   -0.5210 66.4 240 
 BRR  HN ES       2030  4.79                             151    0.8010 66.4 240 
 BRR  HZ I        2030  5.38        49.6 0.12            149           66.4 240 
 RUS  HZ EP       2029 58.37                             124   -0.05 9  168 176 
 RUS  HN ES       2030 19.47                             124   -0.94 9  168 176 
 RUS  HZ I        2030 24.20         8.9 0.32            125            168 176 
 PTB  HZ EP       2029 58.22                             124    0.24 9  170 236 
 PTB  HN ES       2030 18.81                             124   -0.81 9  170 236 
 PTB  HZ I        2030 23.96        18.4 0.42            124            170 236 
 SML  HZ EP       2029 58.48                             122   -0.78 9  182 328 
 ZAR  HZ EP       2029 59.55                             121    0.06 9  184 273 
 ZAR  HN ES       2030 22.40                             121    0.08 9  184 273 
 ZAR  HZ I        2030 26.27        22.4 0.46            123            184 273 
 SPBC HZ EP       2030  2.83                             117   -0.27 8  217 207 
 SPBC HE ES       2030 29.50                             117    0.76 8  217 207 
 SPBC HZ I        2030 37.36        18.3 0.30            118            217 207 
 NOR  HZ EP       2030 10.00                             111    0.38 7  276 222 
 NOR  HE ES       2030 40.26                             111   -0.07 7  276 222 
 NOR  HZ I        2030 48.53        10.2 0.16            112            276 222 
 GUY2CHZ EP       2030 18.32                             106    0.64 7  341 225 
 GUY2CHE ES       2030 54.24                             106   -0.46 7  341 225 
 GUY2CHZ I        2031  8.49         5.5 0.42                           341 225 
 RREF HZ EP       2030 21.25                             105    0.44 6  366 221 
 RREF HN ES       2031  0.61                             105    0.34 6  366 221 
                                                                                
