 2015  920 2157 34.7 L   6.721 -73.148146.8  RSN  4 0.2 1.3LRSN                1
 GAP=159        0.54       9.4     5.1  8.7 -0.2968E+02 -0.2721E+02  0.4840E+02E
 Epicentro: JORDAN - SANTANDER                                                 3
 ACTION:UPD 15-10-28 16:27 OP:cam  STATUS:               ID:20150920215734 L   I
 OLDACT:DUP 15-09-21 06:55 OP:stll STATUS:               ID:20150920214746d    3
 2015-09-20-2147-45M.COL___355                                                 6
 STAT SP IPHASW D HRMM SECON CODA AMPLIT PERI AZIMU VELO AIN AR TRES W  DIS CAZ7
 BAR2 EZ EP       2157 54.43                             174    0.1210 14.7 195 
 BAR2 EZ I        2157 54.71         3.8 0.10            172           14.7 195 
 BRR  HZ EP       2157 56.32                             151    0.1210 75.5 304 
 BRR  HZ I        2157 56.54         4.8 0.30            152           75.5 304 
 BRR  HN ES       2158 13.10                             151    0.1310 75.5 304 
 PAM  EZ EP       2157 57.19                             149   -0.2610 84.5  36 
 PAM  EZ I        2157 57.50         4.5 0.26            150           84.5  36 
 PTB  HZ EP       2158  1.74                             133    0.15 9  146 262 
 PTB  HN ES       2158 22.29                             133   -0.27 9  146 262 
 PTB  HZ I        2158 24.18         1.6 0.16            132            146 262 
                                                                                
