 2016  220 2257 48.9 L   6.747 -73.129140.0  RSN  7 0.4 1.7LRSN                1
 GAP=141        0.80       5.7     4.5  8.0 -0.4070E+01  0.1666E+02  0.1798E+01E
 Epicentro: LOS SANTOS - SANTANDER                                             3
 ACTION:UPD 16-03-04 21:27 OP:rebc STATUS:               ID:20160220225748 L   I
 OLDACT:REG 16-02-21 03:13 OP:dnl  STATUS:               ID:20160220224749     3
 2016-02-20-2247-49M.COL___331                                                 6
 STAT SP IPHASW D HRMM SECON CODA AMPLIT PERI AZIMU VELO AIN AR TRES W  DIS CAZ7
 BAR2 EZ ES   2   2258 22.03                             172   -0.45 5 18.1 199 
 BAR2 EZ I        2258 24.91        14.8 0.16            171           18.1 199 
 BRR  HZ EP   2   2258 10.11                             150    0.37 5 75.7 302 
 BRR  HE ES   2   2258 26.47                             150    0.51 5 75.7 302 
 BRR  HZ I        2258 31.23        12.4 0.10            150           75.7 302 
 PAM  EZ EP       2258 10.96                             149    0.1910 80.9  36 
 PAM  EN ES       2258 27.60                             149   -0.1910 80.9  36 
 PAM  EZ I        2258 30.19        14.0 0.60            154           80.9  36 
 RUS  HZ EP   2   2258 12.36                             144    0.66 5 94.7 177 
 RUS  HN ES   2   2258 30.03                             144    0.58 5 94.7 177 
 RUS  HZ I        2258 31.54         3.3 0.30            150           94.7 177 
 PTB  HZ EP       2258 14.90                             131   -0.62 9  149 261 
 PTB  HN ES   2   2258 35.62                             131   -0.62 5  149 261 
 PTB  HZ I        2258 38.55         8.3 0.10            133            149 261 
 ZAR  HZ EP       2258 21.25                             121   -0.18 8  208 293 
 ZAR  HE ES       2258 47.22                             121    0.45 8  208 293 
 ZAR  HZ I        2258 52.95         8.5 0.30            124            208 293 
 NOR  HZ EP   4   2258 26.55                             118    2.41 0  233 236 
 NOR  HN ES   2   2258 51.93                             118    0.33 4  233 236 
 NOR  HZ I        2258 53.96         3.9 0.15            121            233 236 
                                                                                
