 2016 1220 2017 53.1 L   6.085 -73.677118.8  RSN 25 0.6 3.1LRSN 3.7WRSN        1
 SPEC AVERAGE  MO 14.6 ST0.882 OM  3.0 f0 1.36 R1.6942 AL 0.00 WI 30.0 MW  3.7 3
 SPEC SD       MO  0.2 ST  1.3 OM  0.6 f00.715 R0.5669 AL      WI      MW  0.1 3
 GAP= 40        1.35       2.7     2.7  6.4 -0.4450E+00  0.4595E+01  0.3625E+01E
 Epicentro: CHIPATA - SANTANDER                                                3
 SPEC CHI HH Z MO 14.4 ST0.336 OM  2.4 f0 1.28 R1.5031 AL-0.00 WI 30.0 MW  3.6 3
 SPEC CHI HH Z T201838 K 0.000 GD  200 VS 5.20 DE 3.50 Q0750.0 QA 1.50 Q1 0.00 3
 SPEC ZAR HH Z MO 14.4 ST  4.1 OM  2.3 f0 3.01 R0.6392 AL-0.00 WI 30.0 MW  3.5 3
 SPEC ZAR HH Z T201846 K 0.000 GD  235 VS 5.20 DE 3.50 Q0750.0 QA 1.50 Q1 0.00 3
 SPECGUY2CHH Z MO 14.7 ST0.201 OM  2.6 f00.869 R2.2140 AL-0.00 WI 30.0 MW  3.7 3
 SPECGUY2CHH Z T201848 K 0.000 GD  241 VS 5.20 DE 3.50 Q0750.0 QA 1.50 Q1 0.00 3
 SPEC VIL EH Z MO 15.0 ST0.320 OM  2.9 f00.799 R2.4080 AL-0.00 WI 30.0 MW  3.9 3
 SPEC VIL EH Z T201849 K 0.000 GD  248 VS 5.20 DE 3.50 Q0750.0 QA 1.50 Q1 0.00 3
 SPEC ELA HH Z MO 14.5 ST0.229 OM  2.4 f0 1.03 R1.8680 AL-0.00 WI 30.0 MW  3.6 3
 SPEC ELA HH Z T201853 K 0.000 GD  262 VS 5.20 DE 3.50 Q0750.0 QA 1.50 Q1 0.00 3
 SPEC ANILHH Z MO 14.6 ST0.851 OM  2.4 f0 1.55 R1.2413 AL-0.00 WI 30.0 MW  3.7 3
 SPEC ANILHH Z T201859 K 0.000 GD  285 VS 5.20 DE 3.50 Q0750.0 QA 1.50 Q1 0.00 3
 SPEC CBOCHH Z MO 14.5 ST0.165 OM  2.3 f00.969 R1.9856 AL-0.00 WI 30.0 MW  3.6 3
 SPEC CBOCHH Z T201857 K 0.000 GD  285 VS 5.20 DE 3.50 Q0750.0 QA 1.50 Q1 0.00 3
 OLDACT:REG 16-12-21 03:50 OP:ar   STATUS:               ID:20161220201444     3
 ACTION:UPD 17-01-11 20:17 OP:rebc STATUS:               ID:20161220201753 L   I
 OLDACT:UP  16-12-21 03:52 OP:ar   STATUS:               ID:20161220201444     3
 2016-12-20-2015-00M.COL___384                                                 6
 STAT SP IPHASW D HRMM SECON CODA AMPLIT PERI AZIMU VELO AIN AR TRES W  DIS CAZ7
 RUS  HZ IP     D 2018 12.25                             148    0.3310 69.1 108 
 RUS  HE ES       2018 26.27                             148   -0.3710 69.1 108 
 BAR2 EZ EP       2018 12.97                             144    0.7810 78.4  44 
 BAR2 EZ ES       2018 27.48                             144    0.3710 78.4  44 
 PTB  HZ IP       2018 12.79                             137   -0.7410 99.8 300 
 PTB  HN ES       2018 28.67                             137   -0.8310 99.8 300 
 PTB  HZ I        2018 30.39       262.0 0.12            138           99.8 300 
 BRR  HZ IP     C 2018 15.19                             133    0.5410  113 358 
 BRR  HN ES       2018 32.26                             133    0.7610  113 358 
 NOR  HZ EP       2018 17.39                             126   -0.26 9  144 246 
 NOR  HN ES       2018 36.46                             126   -0.37 9  144 246 
 NOR  HZ I        2018 38.24       346.5 0.30            126            144 246 
 ROSC BZ EP       2018 20.06                             124    0.87 9  155 207 
 ROSC BN ES   4   2018 41.91                             124    2.33 0  155 207 
 ROSC BZ I        2018 46.27        78.3 0.55            125            155 207 
 CHI  HZ IP     D 2018 19.63                             123   -0.21 9  161 182 
 CHI  HN ES       2018 40.11                             123   -0.62 9  161 182 
 CHI  HZ I        2018 46.01       139.3 0.38            124            161 182 
 PAM  EZ IP     D 2018 22.24                             120    0.77 9  176  38 
 PAM  EN ES       2018 43.31                             120   -0.33 9  176  38 
 PAM  EZ I        2018 46.40        94.4 0.18            123            176  38 
 ZAR  HZ IP     C 2018 23.62                             116   -0.17 9  203 320 
 ZAR  HN ES       2018 47.75                             116   -0.01 9  203 320 
 ZAR  HZ I        2018 53.68       173.4 0.42            118            203 320 
 GUY2CHZ EP       2018 25.40                             115    0.27 8  210 243 
 GUY2CHN ES       2018 50.28                             115    0.14 8  210 243 
 GUY2CHZ I        2018 56.05       162.3 0.48                           210 243 
 TAM  HZ EP       2018 25.73                             115    0.89 8  212  79 
 TAM  HE ES       2018 48.76                             115   -0.88 8  212  79 
 TAM  HZ I        2018 49.64        81.7 0.12            117            212  79 
 VIL  EZ EP       2018 25.59                             114   -0.03 8  218 180 
 VIL  EE ES       2018 50.89                             114   -0.13 8  218 180 
 VIL  EZ I        2018 55.29       239.6 0.58            115            218 180 
 ELA  HZ EP       2018 28.53                             112    0.63 8  234 235 
 ELA  HN ES       2018 55.29                             112    0.20 8  234 235 
 ELA  HZ I        2019  1.91        59.1 0.32            114            234 235 
 CBOC HZ EP       2018 30.94                             110    0.57 8  260 265 
 CBOC HN ES       2018 59.42                             110   -0.05 8  260 265 
 CBOC HZ I        2019  7.57        60.0 0.78            111            260 265 
 ANIL HZ EP       2018 30.73                             110    0.16 8  260 227 
 ANIL HN ES       2019  0.53                             110    0.70 8  260 227 
 PTGC HZ EP       2018 30.80                             109   -0.52 8  270 141 
 PTGC HN ES       2019  0.24                             109   -0.92 8  270 141 
 PTGC HZ I        2019  2.75        79.1 0.62            111            270 141 
 URE  HZ EP       2018 31.04                             108   -0.97 7  276 312 
 URE  HE ES   4   2019  0.05                             108   -2.35 0  276 312 
 URE  HZ I        2019  7.50        93.2 0.40            110            276 312 
 ORTC HZ EP       2018 34.21                             107   -0.31 7  297 216 
 ORTC HZ E        2018 34.22                                            297 216 
 ORTC HN ES       2019  7.84                             107    0.98 7  297 216 
 ORTC HZ I        2019 12.05        38.8 0.38            108            297 216 
 DBB  EZ EP       2018 34.71                             107   -0.04 7  298 290 
 DBB  EN ES       2019  6.91                             107   -0.36 7  298 290 
 DBB  EZ I        2019 10.26        72.5 0.32            108            298 290 
 PAL  HZ EP       2018 37.79                             105    0.90 7  317 246 
 YOT  HZ EP       2018 43.17                             102   -0.81 6  376 232 
 APAC HZ EP       2018 43.54                             102   -0.54 6  378 302 
 APAC HN ES       2019 23.30                             102   -0.59 6  378 302 
 APAC HZ I        2019 27.80        38.5 0.72            103            378 302 
 LL1C HZ EP   9   2018 48.93                             102    4.36 0  383   2 
 LL1C HN ES       2019 28.27                             102   -0.84 6  383   2 
 MACC HE ES   4   2019 31.91                             100   -4.33 0  436 182 
 SJC  HZ IP     D 2018 51.77                              99   -1.33 5  453 339 
 SJC  HN ES   4   2019 36.91                              99   -3.03 0  453 339 
 SJC  HZ I        2019 40.18        30.6 0.42            101            453 339 
 GARC HZ EP       2018 55.20                              98   -0.91 5  476 205 
 GARC HN ES   4   2019 41.24                              98   -4.06 0  476 205 
 GARC HZ I        2019 46.76        29.0 0.26            100            476 205 
 CRJC HZ EP   4   2019  6.73                              96    1.52 0  553   9 
 CRJC HN ES   4   2020  0.15                              96   -1.35 0  553   9 
                                                                                
