 2011 1020 2308 23.7 L   6.770 -73.135153.5  RSN  6 0.2 1.8LRSN                1
 GAP=187        0.42       5.0     6.1  4.7  0.1816E+02  0.1393E+01  0.4895E+01E
 Epicentro: LOS SANTOS - SANTANDER                                             3
 ACTION:UPD 12-07-13 16:05 OP:ep   STATUS:               ID:20111020230823 L   I
 2011-10-20-2300-00M.COL___175                                                 6
 STAT SP IPHASW D HRMM SECON CODA AMPLIT PERI AZIMU VELO AIN AR TRES W  DIS CAZ7
 BAR2 SZ EP   1   23 8 44.02                             172   -0.17 7 20.3 195 
 BAR2 SZ I        23 8 44.64        10.9 0.15                          20.3 195 
 BAR2 SZ ES   2   23 9  0.21                             172    0.02 5 20.3 195 
 BTL  SZ EP   2   23 8 44.37                             171    0.14 5 22.0 318 
 GIR2 SZ EP   1   23 8 44.53                             167    0.16 7 34.7 349 
 GIR2 SZ ES   1   23 9  0.19                             167   -0.32 7 34.7 349 
 BRR  HZ EP   1   23 8 46.01                             153    0.19 7 73.9 300 
 BRR  HZ I        23 8 47.52        21.3 0.13                          73.9 300 
 BRR  HN ES   1   23 9  3.30                             153    0.21 7 73.9 300 
 RUS  HZ EP   1   23 8 47.94                             146   -0.03 7 97.2 177 
 RUS  HZ I        23 8 48.72         3.6 0.22                          97.2 177 
 RUS  HN ES   2   23 9  7.00                             146    0.08 5 97.2 177 
 ZAR  HN ES   2   23 9 22.37                             123   -0.41 4  206 293 
 ZAR  HZ I        23 9 28.49        11.1 0.46                           206 293 
                                                                                
