 2013  520 2049 28.3 L   6.801 -73.069143.1  RSN  9 0.4 1.8LRSN                1
 GAP=146        0.79       3.8     3.7  6.0  0.1965E+00  0.6411E+01  0.3256E+01E
 Epicentro: LOS SANTOS - SANTANDER                                             3
 ACTION:UPD 13-06-20 09:52 OP:ep   STATUS:               ID:20130520204928 L   I
 2013-05-20-2047-50M.COL___219                                                 6
 STAT SP IPHASW D HRMM SECON CODA AMPLIT PERI AZIMU VELO AIN AR TRES W  DIS CAZ7
 BAR2 SZ EP   1   2049 47.71                             169   -0.01 7 26.2 209 
 BAR2 SZ ES   1   2050  3.30                             169    0.47 7 26.2 209 
 BAR2 SZ I        2050  3.60        14.7 0.16            168           26.2 209 
 GIR2 SZ IP     C 2049 47.72                             166   -0.0510 33.7 336 
 GIR2 SZ ES   1   2050  2.79                             166   -0.13 7 33.7 336 
 GIR2 SZ I        2050  3.71        15.7 0.18            162           33.7 336 
 PAM  SZ EP   1   2049 49.88                             152   -0.09 7 72.2  34 
 PAM  SN ES   1   2050  7.48                             152    0.63 7 72.2  34 
 PAM  SZ I        2050  8.98        10.7 0.28            154           72.2  34 
 BRR  HZ IP     C 2049 49.55                             149   -0.1010 78.7 296 
 BRR  HN ES   1   2050  6.28                             149    0.01 7 78.7 296 
 BRR  HZ I        2050 13.95        14.5 0.34            147           78.7 296 
 RUS  HZ EP       2049 51.63                             143   -0.1910  100 181 
 RUS  HN ES       2050  9.72                             143   -0.4210  100 181 
 RUS  HZ I        2050 11.29         4.5 0.28            147            100 181 
 PTB  HZ EP   4   2049 53.83                             130   -2.03 0  156 259 
 PTB  HE ES       2050 17.34                             130    0.01 9  156 259 
 PTB  HZ I        2050 17.59        14.5 0.16            130            156 259 
 ZAR  HN ES       2050 26.80                             121   -0.44 8  212 291 
 ZAR  HZ I        2050 35.11         7.5 0.22            121            212 291 
 NOR  HZ EP   4   2050  3.73                             117   -0.94 0  242 236 
 NOR  HN ES   4   2050 32.94                             117   -0.07 0  242 236 
 NOR  HZ I        2050 37.19         7.0 0.40            118            242 236 
 GUY2CHZ EP   1   2050 13.33                             111    0.71 5  308 236 
 GUY2CHN ES       2050 47.90                             111    0.74 7  308 236 
 GUY2CHZ I        2050 52.99         3.2 0.60                           308 236 
                                                                                
