 2010 1020 2250 25.5 L   6.797 -73.096147.3  RSN  4 0.2 1.5LRSN                1
 GAP=234        0.47       6.8    12.2  5.2  0.6773E+02 -0.2491E+02 -0.1125E+02E
 Epicentro: LOS SANTOS - SANTANDER                                             3
 ACTION:UP  11-02-18 11:11 OP:tino STATUS:               ID:20101020225025 L   I
 2010-10-20-2249-06S.COL___128                                                 6
 STAT SP IPHASW D HRMM SECON CODA AMPLIT PERI AZIMU VELO SNR AR TRES W  DIS CAZ7
 BTL  SZ EP   1   2250 45.57                             170     0.3 7   23 305 
 BTL  SZ ES   2   2251  0.98                             170     0.2 5   23 305 
 BAR2 SZ EP       2250 45.18                             170    -0.110   25 203 
 BAR2 SZ ES   1   2251  0.53                             170    -0.3 7   25 203 
 BAR2 SZ I        2251  2.01        11.2 0.25                            25 203 
 BRR  HZ EP       2250 47.01                             151    -0.110   76 297 
 BRR  HN ES   1   2251  4.03                             151     0.1 7   76 297 
 BRR  HZ I        2251  6.79         5.9 0.44                            76 297 
 RUS  HZ EP       2250 49.41                             144     0.110  100 179 
 RUS  HN ES   1   2251  8.08                             144     0.1 7  100 179 
 RUS  HZ I        2251  9.67         3.7 0.51                           100 179 
                                                                                
