 2017  120 2243 39.7 L   6.797 -73.144146.5  RSN  7 0.3 1.7LRSN                1
 GAP=137        0.82       3.8     3.5  6.1 -0.7559E+00  0.4630E+01  0.1968E+01E
 Epicentro: LOS SANTOS - SANTANDER                                             3
 ACTION:UPD 17-05-22 16:01 OP:jn   STATUS:               ID:20170120224339 L   I
 OLDACT:UP  17-01-21 04:42 OP:and  STATUS:               ID:20170120223749     3
 OLDACT:UP  17-01-21 04:42 OP:and  STATUS:               ID:20170120223749     3
 OLDACT:REG 17-01-21 02:50 OP:and  STATUS:               ID:20170120223749     3
 2017-01-20-2238-00M.COL___327                                                 6
 STAT SP IPHASW D HRMM SECON CODA AMPLIT PERI AZIMU VELO AIN AR TRES W  DIS CAZ7
 BAR2 EZ EP       2243 59.41                             171   -0.0510 23.0 191 
 BAR2 EZ ES       2244 14.86                             171    0.0210 23.0 191 
 BAR2 EZ I        2244 15.66        15.3 0.24            169           23.0 191 
 BRR  HZ EP       2244  1.15                             153    0.1610 71.5 299 
 BRR  HN ES  2    2244 18.26                             153    0.6910 71.5 299 
 PAM  EZ EP       2244  2.09                             151    0.0410 77.5  39 
 PAM  EN ES       2244 19.07                             151   -0.3810 77.5  39 
 PAM  EZ I        2244 20.66         4.3 0.14            153           77.5  39 
 RUS  HZ EP       2244  3.67                             144    0.1310  100 176 
 RUS  HE ES       2244 22.08                             144   -0.0310  100 176 
 RUS  HZ I        2244 23.90        12.4 0.32            145            100 176 
 PTB  HZ EP   2   2244  6.63                             132   -0.15 5  148 259 
 PTB  HN ES       2244 27.16                             132   -0.71 9  148 259 
 PTB  HZ I        2244 32.44         6.3 0.22            130            148 259 
 ZAR  HZ EP   4   2244 13.63                             122    1.36 0  204 292 
 ZAR  HE ES       2244 37.52                             122   -0.12 9  204 292 
 ZAR  HZ I        2244 45.17         6.5 0.32            121            204 292 
 NOR  HZ EP   2   2244 15.70                             119    0.19 4  235 235 
 NOR  HN ES       2244 43.61                             119    0.20 8  235 235 
 NOR  HZ I        2244 49.14         3.6 0.18            118            235 235 
 CHI  HN ES   4   2244 48.56                             117    1.69 0  248 195 
                                                                                
