 2017 1220 2159 47.1 L   6.786 -73.139140.0  RSN  4 0.0 1.5LRSN                1
 GAP=154        0.27       2.6     1.5  2.2 -0.3410E+00  0.8674E+00 -0.1697E+01E
 Epicentro: LOS SANTOS - SANTANDER                                             3
 ACTION:UPD 18-01-04 13:22 OP:rebc STATUS:               ID:20171220215947 L   I
 OLDACT:REG 17-12-21 06:16 OP:lv   STATUS:               ID:20171220215227     3
 2017-12-20-2158-00M.COL___446                                                 6
 STAT SP IPHASW D HRMM SECON CODA AMPLIT PERI AZIMU VELO AIN AR TRES W  DIS CAZ7
 BAR2 EZ EP       22 0  5.98                             171    0.0210 22.0 193 
 BAR2 EZ ES       22 0 20.70                             171   -0.0110 22.0 193 
 BAR2 EZ I        22 0 21.70         8.3 0.28            172           22.0 193 
 PAM  EZ EP       22 0  8.70                             149   -0.0110 78.1  38 
 PAM  EE ES       22 0 25.59                             149    0.0010 78.1  38 
 PAM  EZ I        22 0 27.63         6.7 0.50            151           78.1  38 
 PTB  HZ EP   9   22 0 11.98                             131   -1.62 0  148 259 
 PTB  HN ES       22 0 32.67                                   -0.01 9  148 259 
 PTB  HZ I        22 0 36.41         3.5 0.14            131            148 259 
 ZAR  HZ EP       22 0 19.25                             121   -0.01 8  205 292 
 ZAR  HE ES       22 0 44.39                             121    0.01 8  205 292 
 ZAR  HZ I        22 0 45.55         4.0 0.12            122            205 292 
                                                                                
