 2010  620 2146  1.6 L   6.780 -73.119139.5  RSN  4 0.1 1.4LRSN                1
 GAP=159        0.35       4.3     7.3  5.6  0.2208E+02 -0.2042E+02 -0.1268E+02E
 Epicentro: LOS SANTOS - SANTANDER                                             3
 ACTION:UP  10-08-24 10:11 OP:vdl  STATUS:               ID:20100620214601 L   I
 2010-06-20-2142-19S.COL___118                                                 6
 STAT SP IPHASW D HRMM SECON CODA AMPLIT PERI AZIMU VELO SNR AR TRES W  DIS CAZ7
 BAR2 SZ EP   2   2146 20.29                             171    -0.2 5   22 199 
 BAR2 SZ ES   2   2146 35.04                             171    -0.1 5   22 199 
 BRR  HZ IP     C 2146 22.37                             150     0.010   75 299 
 BRR  HZ I        2146 22.72         8.1 0.12                            75 299 
 BRR  HE ES   1   2146 38.45                             150     0.0 7   75 299 
 RUS  HZ EP   2   2146 24.38                             143    -0.2 5   98 178 
 RUS  HN ES   1   2146 42.64                             143     0.1 7   98 178 
 RUS  HZ I        2146 44.79         2.8 0.36                            98 178 
 BRI  SZ EP   2   2146 25.14                             140     0.1 5  110  19 
                                                                                
