 2012  620 2108 48.9 L   6.789 -73.186151.3  RSN  4 0.1 1.8LRSN                1
 GAP=142        0.31       4.1     2.8  4.0  0.1952E+01  0.7920E+00 -0.5233E+01E
 Epicentro: LOS SANTOS - SANTANDER                                             3
 ACTION:UPD 12-08-06 17:51 OP:ep   STATUS:               ID:20120620210848 L   I
 2012-06-20-2100-00M.COL___199                                                 6
 STAT SP IPHASW D HRMM SECON CODA AMPLIT PERI AZIMU VELO AIN AR TRES W  DIS CAZ7
 BAR2 SZ EP   1   21 9  9.09                             171   -0.07 7 21.8 179 
 BAR2 SZ ES   1   21 9 24.89                             171   -0.08 7 21.8 179 
 BAR2 SZ I        21 9 25.77        19.0 0.17                          21.8 179 
 PAM  SZ EP   2   21 9 12.13                             151    0.21 5 81.2  41 
 RUS  HZ EP   1   21 9 13.12                             145   -0.01 7 99.8 173 
 RUS  HN ES   1   21 9 32.11                             145    0.06 7 99.8 173 
 RUS  HZ I        21 9 32.87         5.9 0.21                          99.8 173 
 PTB  HZ EP   1   21 9 15.83                             134   -0.07 7  143 259 
 PTB  HN ES   1   21 9 37.05                             134    0.07 7  143 259 
 PTB  HZ I        21 9 38.97         7.2 0.18                           143 259 
                                                                                
