 2012  220 2148 58.3 L   6.781 -73.172138.6  RSN 15 0.5 2.9LRSN                1
 GAP=112        0.90       3.7     3.6  5.9  0.1387E+01  0.5973E+01  0.6868E+01E
 ACTION:UP  12-03-07 16:32 OP:epov STATUS:               ID:20120220214858 L   I
 2012-02-20-2147-00S.MAN___184                                                 6
 STAT SP IPHASW D HRMM SECON CODA AMPLIT PERI AZIMU VELO AIN AR TRES W  DIS CAZ7
 BAR2 SZ EP       2149 16.95                             171   -0.0210 20.9 183 
 BAR2 SZ ES   1   2149 31.30                             171   -0.27 7 20.9 183 
 BAR2 SZ I        2149 32.89       215.5 0.34                          20.9 183 
 BRR  HZ IP     D 2149 18.74                             152    0.1910 69.7 301 
 BRR  HN ES   1   2149 35.35                             152    0.98 7 69.7 301 
 BRR  HZ I        2149 39.15       124.6 0.12                          69.7 301 
 PAM  SZ EP       2149 19.85                             148   -0.0810 80.9  40 
 PAM  SN ES   1   2149 36.52                             148   -0.32 7 80.9  40 
 RUS  HZ EP       2149 20.95                             143   -0.2210 98.7 174 
 RUS  HN ES   1   2149 38.92                             143   -0.12 7 98.7 174 
 RUS  HZ I        2149 41.65       125.7 0.23                          98.7 174 
 PTB  HZ EP   1   2149 23.46                             131   -0.88 7  144 259 
 PTB  HN ES   1   2149 44.02                             131   -0.67 7  144 259 
 YOP  SZ EP   1   2149 27.73                             125   -0.01 7  178 152 
 YOP  SN ES   1   2149 51.61                             125    0.88 7  178 152 
 YOP  SZ I        2149 54.67        60.4 0.28                           178 152 
 ZAR  HZ EP   1   2149 30.04                             121   -0.01 6  202 293 
 ZAR  HN ES   1   2149 55.16                             121    0.32 6  202 293 
 ZAR  HZ I        2150  1.35       120.2 0.14                           202 293 
 NOR  SZ EP   1   2149 32.84                             117   -0.35 6  231 234 
 NOR  SN ES   1   2150  0.54                             117    0.11 6  231 234 
 CHI  HZ EP   1   2149 35.26                             116    0.00 6  246 195 
 CHI  HN ES   1   2150  4.01                             116   -0.11 6  246 195 
 CHI  HZ I        2150  9.88        29.7 0.34                           246 195 
 HEL  HZ EP   1   2149 38.83                             114    1.09 6  269 256 
 HEL  HE ES   1   2150  7.74                             114   -0.79 6  269 256 
 HEL  HZ I        2150 15.62        51.9 0.44                           269 256 
 GUY  SN ES   1   2150 15.78                             111    0.74 5  300 235 
 GUY  SZ I        2150 23.85        79.0 0.33                           300 235 
 VIL  SZ EP   1   2149 40.82                             111   -0.23 5  301 191 
 VIL  SZ I        2150 23.87        27.7 0.45                           301 191 
 RREF HZ EP   1   2149 43.59                             110   -0.09 5  318 229 
 RREF HZ I        2150 29.46        46.2 0.36                           318 229 
 TOL  SZ EP   1   2149 46.44                             108    0.62 5  340 225 
 PRA  HZ EP   1   2149 51.15                             105    0.00 4  389 209 
                                                                                
