 2017 1220 2226 43.5 L   7.466 -73.428116.3  RSN  9 0.5 1.8LRSN                1
 GAP= 92        1.27       3.4     4.9  9.4 -0.3476E+01  0.2106E+02 -0.3049E+01E
 Epicentro: SABANA DE TORRES - SANTANDER                                       3
 ACTION:UPD 18-01-04 13:22 OP:rebc STATUS:               ID:20171220222643 L   I
 OLDACT:REG 17-12-21 06:17 OP:lv   STATUS:               ID:20171220221710     3
 2017-12-20-2218-00M.COL___446                                                 6
 STAT SP IPHASW D HRMM SECON CODA AMPLIT PERI AZIMU VELO AIN AR TRES W  DIS CAZ7
 PAM  EZ EP       2227  3.52                             143    0.5310 81.7 100 
 PAM  EN ES       2227 18.58                             143    0.3910 81.7 100 
 PAM  EZ I        2227 19.76        14.5 0.24            145           81.7 100 
 OCA  HZ EP       2227  2.78                             141   -0.0910 86.3   8 
 OCA  HN ES       2227 17.59                             141   -0.3910 86.3   8 
 OCA  HZ I        2227 18.20        37.9 0.24            143           86.3   8 
 BAR2 EZ EP       2227  4.28                             136    0.1610  100 164 
 BAR2 EZ ES       2227 19.60                             136   -0.6010  100 164 
 BAR2 EZ I        2227 21.04         8.3 0.38            137            100 164 
 PTB  HZ EP       2227  8.18                             123   -0.60 9  153 228 
 PTB  HN ES       2227 28.94                             123    0.45 9  153 228 
 PTB  HZ I        2227 30.07         4.6 0.18            124            153 228 
 ZAR  HZ EP       2227  9.62                             122    0.35 9  158 271 
 ZAR  HN ES       2227 30.01                             122    0.65 9  158 271 
 ZAR  HZ I        2227 32.26         8.5 0.44            123            158 271 
 DRL03HZ EP       2227 15.74                             114    0.54 8  213 359 
 DRL03HN ES       2227 39.19                             114   -0.72 8  213 359 
 SPBC HZ EP       2227 15.96                             114    0.66 8  213 200 
 SPBC HN ES       2227 39.33                             114   -0.77 8  213 200 
 SPBC HZ I        2227 44.99         5.3 0.16            115            213 200 
 GUY2CHZ EP   4   2227 30.74                             104    1.70 0  328 221 
 GUY2CHN ES       2228  4.00                             104   -0.56 7  328 221 
 SJC  HZ EP       2227 28.32                             104   -0.58 7  331 324 
 SJC  HN ES   4   2228  2.22                             104   -2.08 0  331 324 
                                                                                
