 2011 1120 2250 32.6 L   6.772 -73.105138.4  RSN  4 0.1 1.4LRSN                1
 GAP=143        0.32       2.7     4.7  5.8 -0.4426E+00 -0.3371E+01 -0.2534E+01E
 Epicentro: LOS SANTOS - SANTANDER                                             3
 ACTION:UPD 12-07-13 16:11 OP:ep   STATUS:               ID:20111120225032 L   I
 2011-11-20-2246-57S.COL___178                                                 6
 STAT SP IPHASW D HRMM SECON CODA AMPLIT PERI AZIMU VELO AIN AR TRES W  DIS CAZ7
 BAR2 SZ EP   2   2250 51.04                             171   -0.30 5 21.7 203 
 BAR2 SZ I        2251  7.32         5.5 0.41                          21.7 203 
 BRR  HZ EP   2   2250 53.26                             149   -0.06 5 76.6 299 
 BRR  HZ I        2250 59.92         6.4 0.38                          76.6 299 
 BRR  HE ES   2   2251  9.53                             149    0.08 5 76.6 299 
 PAM  SZ EP   1   2250 54.13                             149    0.08 7 77.1  36 
 PAM  SE ES   2   2251 10.73                             149   -0.03 5 77.1  36 
 RUS  HZ EP   2   2250 55.55                             143    0.13 5 97.3 179 
 RUS  HN ES   1   2251 13.20                             143    0.00 7 97.3 179 
                                                                                
