 2011  120 2207 27.3 L   6.762 -72.986144.3  RSN  5 0.5 1.5LRSN                1
 GAP=177        0.99       9.9    40.6 13.5 -0.2957E+03 -0.1339E+03  0.2072E+02E
 Epicentro: CEPITA - SANTANDER                                                 3
 ACTION:UP  11-02-08 08:41 OP:pat  STATUS:               ID:20110120220727 L   I
 2011-01-20-2205-07S.COL___138                                                 6
 STAT SP IPHASW D HRMM SECON CODA AMPLIT PERI AZIMU VELO SNR AR TRES W  DIS CAZ7
 BAR2 SZ EP   1   22 7 46.54                             167    -0.3 8   29 229 
 BAR2 SZ ES   2   22 8  1.47                             167    -0.7 5   29 229 
 BAR2 SZ I        22 8  4.10        13.0 0.33                            29 229 
 BTL  SZ EP   1   22 7 47.86                             164     0.8 8   36 299 
 RUS  HZ EP   1   22 7 50.47                             145    -0.1 8   97 186 
 RUS  HZ I        22 7 51.57         3.0 0.09                            97 186 
 RUS  HN ES   2   22 8  9.49                             145     0.7 5   97 186 
 GRA  SZ IP       22 7 52.39                             137     0.010  126   9 
 GRA  SZ ES   2   22 8 11.60                             137    -0.4 5  126   9 
 GRA  SZ I        22 8 12.84         5.6 0.28                           126   9 
 CHI  HZ EP   1   22 8  4.67                             116    -0.4 6  250 199 
 CHI  HZ I        22 8 37.75         1.9 0.32                           250 199 
                                                                                
