 2010  620 2233 19.7 L   6.794 -73.104140.8  RSN  4 0.4 1.4LRSN                1
 GAP=160        0.60       5.4    10.7 10.1 -0.2372E+01 -0.2279E+02 -0.3237E+01E
 Epicentro: LOS SANTOS - SANTANDER                                             3
 ACTION:UP  10-08-24 10:11 OP:vdl  STATUS:               ID:20100620223319 L   I
 2010-06-20-2230-20S.COL___118                                                 6
 STAT SP IPHASW D HRMM SECON CODA AMPLIT PERI AZIMU VELO SNR AR TRES W  DIS CAZ7
 BAR2 SZ EP   2   2233 38.20                             170    -0.5 5   24 201 
 BAR2 SZ ES   2   2233 53.03                             170    -0.6 5   24 201 
 BRR  HZ EP   2   2233 40.61                             150     0.1 5   76 297 
 BRR  HE ES   2   2233 57.04                             150     0.2 5   76 297 
 BRR  HZ I        2234  1.22         8.7 0.47                            76 297 
 RUS  HZ EP   2   2233 42.69                             143    -0.2 5  100 179 
 RUS  HN ES   2   2234  1.63                             143     0.7 5  100 179 
 RUS  HZ I        2234  2.75         2.0 0.41                           100 179 
 BRI  SZ EP   2   2233 43.25                             141     0.2 5  108  18 
 BRI  SZ ES   2   2234  1.34                             141     0.1 5  108  18 
                                                                                
