 2014  720 2010 28.1 L   6.769 -73.160153.2  RSN  5 0.5 1.8LRSN                1
 GAP=199        1.28       6.9     9.2 11.9  0.3209E+02 -0.2463E+02 -0.3245E+02E
 Epicentro: LOS SANTOS - SANTANDER                                             3
 ACTION:UPD 15-03-16 20:45 OP:nd   STATUS:               ID:20140720201028 L   I
 OLDACT:UP  14-07-21 03:12 OP:cam  STATUS:               ID:20140720201000     3
 OLDACT:REG 14-07-21 02:37 OP:cam  STATUS:               ID:20140720201000     3
 2014-07-20-2010-00M.COL___282                                                 6
 STAT SP IPHASW D HRMM SECON CODA AMPLIT PERI AZIMU VELO AIN AR TRES W  DIS CAZ7
 BRR  HZ EP       2010 50.40                             154    0.3310 71.6 302 
 BRR  HZ I        2011  1.09        14.8 0.36            150           71.6 302 
 BRR  HN ES       2011  7.96                             154    0.7410 71.6 302 
 BRR  HN I        2011 11.13        21.2 0.16            150           71.6 302 
 RUS  HZ EP       2010 52.82                             146    0.4610 97.3 175 
 RUS  HN ES       2011 10.53                             146   -0.7510 97.3 175 
 RUS  HZ I        2011 11.89         2.9 0.40            146           97.3 175 
 PTB  HZ EP       2010 55.53                             134    0.04 9  146 260 
 PTB  HN ES       2011 16.54                             134   -0.32 9  146 260 
 PTB  HZ I        2011 22.77         3.2 0.14            132            146 260 
 ZAR  HN ES       2011 26.82                             124    0.11 9  204 293 
 ZAR  HN I        2011 32.72         6.7 0.18            122            204 293 
 SML  HZ EP       2011  5.38                             119   -0.03 8  246 336 
 SML  HE ES       2011 33.57                             119   -0.95 8  246 336 
 SML  HE I        2011 35.64         7.7 0.12            118            246 336 
                                                                                
