 2017  320 2314 26.1 L   6.820 -73.196143.1  RSN  8 0.3 1.6LRSN                1
 GAP=133        0.85       3.4     3.6  5.2 -0.2170E+01  0.4140E+01  0.4995E+01E
 Epicentro: ZAPATOCA - SANTANDER                                               3
 ACTION:UPD 17-05-25 18:43 OP:jn   STATUS:               ID:20170320231426 L   I
 OLDACT:REG 17-03-21 02:41 OP:cara STATUS:               ID:20170320230749     3
 2017-03-20-2308-00M.COL___382                                                 6
 STAT SP IPHASW D HRMM SECON CODA AMPLIT PERI AZIMU VELO AIN AR TRES W  DIS CAZ7
 BAR2 EZ IP     C 2314 45.33                             170   -0.1610 25.2 177 
 BAR2 EZ ES       2315  0.14                             170   -0.4410 25.2 177 
 BAR2 EZ I        2315  2.78        12.7 0.72            170           25.2 177 
 BRR  HZ EP       2314 47.28                             154    0.6010 65.3 299 
 BRR  HN ES       2315  3.14                             154    0.4510 65.3 299 
 PAM  EZ IP     C 2314 48.34                             150    0.1410 79.4  44 
 PAM  EN ES       2315  5.34                             150   -0.0610 79.4  44 
 PAM  EZ I        2315  7.51         7.0 0.50            152           79.4  44 
 PTB  HZ EP       2314 52.06                             132   -0.38 9  143 258 
 PTB  HN ES       2315 12.67                             132   -0.28 9  143 258 
 PTB  HZ I        2315 15.08         5.6 0.42            133            143 258 
 SPBC HZ EP       2314 54.32                             129    0.05 9  161 217 
 SPBC HE ES       2315 16.78                             129    0.56 9  161 217 
 SPBC HZ I        2315 18.98         9.2 0.22            130            161 217 
 ZAR  HZ EP       2314 57.65                             123   -0.15 9  198 292 
 ZAR  HN ES       2315 22.08                             123   -0.41 9  198 292 
 ZAR  HZ I        2315 27.97         3.1 0.24            124            198 292 
 CHI  HZ EP       2315  3.49                             116   -0.28 8  249 194 
 CHI  HE ES       2315 32.96                             116   -0.16 8  249 194 
 CHI  HZ I        2315 36.08         2.0 0.36            118            249 194 
 GUY2CHZ EP       2315  9.57                             112    0.31 7  298 234 
 GUY2CHE ES       2315 43.02                             112    0.12 7  298 234 
 GUY2CHZ  IAML    2315 51.32         2.2 0.28                           298 234 
                                                                                
