 2014  820 2309 40.2 L   6.781 -73.085154.5  RSN 12 0.3 1.8LRSN                1
 GAP=145        0.68       2.2     3.3  4.2 -0.1755E+01  0.3984E+01  0.6111E+00E
 Epicentro: LOS SANTOS - SANTANDER                                             3
 ACTION:UPD 14-09-15 21:51 OP:nd   STATUS:               ID:20140820230940 L   I
 OLDACT:REG 14-08-21 05:28 OP:spq  STATUS:               ID:20140820230818     3
 2014-08-20-2308-18M.COL___265                                                 6
 STAT SP IPHASW D HRMM SECON CODA AMPLIT PERI AZIMU VELO AIN AR TRES W  DIS CAZ7
 BAR2 SZ EP   1   2310  0.67                             171   -0.18 7 23.5 207 
 BAR2 SZ ES   1   2310 16.70                             171   -0.29 7 23.5 207 
 BAR2 SZ I        2310 18.53        24.2 0.34            170           23.5 207 
 PAM  SZ EP       2310  3.56                             153    0.3810 75.0  35 
 PAM  SE ES       2310 21.05                             153   -0.0910 75.0  35 
 PAM  SZ I        2310 23.02         8.8 0.56            155           75.0  35 
 BRR  HZ IP     D 2310  2.76                             152    0.1110 78.1 298 
 BRR  HE ES       2310 20.24                             152    0.0510 78.1 298 
 BRR  HZ I        2310 21.77        14.8 0.40            152           78.1 298 
 RUS  HZ EP   1   2310  4.23                             146   -0.39 7 98.2 180 
 RUS  HE ES   1   2310 23.73                             146    0.03 7 98.2 180 
 RUS  HZ I        2310 26.32         3.4 0.42            147           98.2 180 
 PTB  HZ EP       2310  7.92                             133   -0.49 9  154 260 
 PTB  HN ES   1   2310 30.57                             133    0.13 7  154 260 
 PTB  HZ I        2310 31.00         5.5 0.30            133            154 260 
 OCA  HN ES       2310 32.51                             131    0.22 9  163 351 
 OCA  HZ I        2310 35.91         8.5 0.24            133            163 351 
 SPBC HZ EP       2310  9.62                             130    0.02 9  166 221 
 SPBC HE ES       2310 32.50                             130   -0.06 9  166 221 
 SPBC HZ I        2310 35.88         6.9 0.34            131            166 221 
 ZAR  HZ EP       2310 13.67                             123   -0.23 8  211 292 
 ZAR  HN ES   1   2310 40.85                             123    0.62 6  211 292 
 ZAR  HZ I        2310 44.43         5.9 0.26            124            211 292 
 NOR  HZ EP       2310 17.29                             120    0.42 8  239 236 
 NOR  HN ES       2310 45.23                             120   -0.27 8  239 236 
 NOR  HZ I        2310 48.73         3.9 0.18            121            239 236 
 CHI  HE ES   1   2310 48.82                             119    0.70 6  248 197 
 CHI  HZ I        2310 53.85         2.5 0.29            120            248 197 
 SML  HZ EP   1   2310 17.38                             119   -0.42 6  249 334 
 SML  HN ES   1   2310 46.79                             119   -0.38 6  249 334 
 SML  HZ I        2310 49.43         7.6 0.08            120            249 334 
 GUY2CHZ EP   1   2310 24.92                             114    0.25 5  306 236 
 GUY2CHE ES   4   2311  3.91                             114    4.52 0  306 236 
 GUY2CHZ I        2311  7.14         2.8 0.34                           306 236 
                                                                                
