 2011  520 2207 11.5 L   6.770 -73.054144.7  RSN 14 0.3 2.8LRSN                1
 GAP=150        0.64       3.1     4.5  4.6 -0.6809E+01  0.4087E+00  0.2742E+01E
 Epicentro: LOS SANTOS - SANTANDER                                             3
 ACTION:UP  11-06-29 08:55 OP:tino STATUS:               ID:20110520220711 L   I
 2011-05-20-2203-00S.COL___141                                                 6
 STAT SP IPHASW D HRMM SECON CODA AMPLIT PERI AZIMU VELO SNR AR TRES W  DIS CAZ7
 BAR2 SZ IP       22 7 31.01                             170     0.010   24 216 
 BAR2 SZ I        22 7 31.59       138.6 0.36                            24 216 
 BAR2 SZ ES   1   22 7 46.55                             170     0.3 7   24 216 
 BTL  SZ IP       22 7 31.20                             168     0.110   29 305 
 GIR2 SZ IP       22 7 31.20                             165    -0.110   38 336 
 GIR2 SZ ES   2   22 7 45.81                             165    -0.8 5   38 336 
 PAM  SZ IP       22 7 33.77                             152     0.310   74  32 
 PAM  SN ES   2   22 7 50.82                             152     0.3 5   74  32 
 BRR  HZ IP     C 22 7 32.92                             149    -0.310   82 297 
 BRR  HZ I        22 7 33.20       264.2 0.16                            82 297 
 BRR  HE ES   1   22 7 50.32                             149     0.2 7   82 297 
 RUS  HZ EP   1   22 7 34.84                             144    -0.1 7   97 182 
 RUS  HN ES   2   22 7 53.17                             144     0.0 5   97 182 
 RUS  HZ I        22 7 56.42        54.3 0.41                            97 182 
 BRI  SZ IP       22 7 35.56                             141     0.310  108  15 
 BRI  SZ ES   2   22 7 52.95                             141    -0.9 5  108  15 
 BRI  SZ I        22 7 57.38        71.9 0.24                           108  15 
 GRA  SZ IP       22 7 36.83                             137     0.110  126  13 
 GRA  SZ ES   1   22 7 56.30                             137    -0.1 7  126  13 
 GRA  SZ I        22 7 57.51       104.5 0.30                           126  13 
 OCA  SZ EP   2   22 7 39.68                             129    -0.5 5  165 350 
 OCA  SZ ES   2   22 8  2.35                             129    -0.2 5  165 350 
 OCA  SZ I        22 8  6.24        85.2 0.23                           165 350 
 NOR  SZ ES   2   22 8 16.40                             117     0.1 4  241 237 
 HEL  HZ EP   2   22 7 52.73                             114     0.0 4  281 257 
 HEL  HE ES   2   22 8 25.68                             114     0.9 4  281 257 
 HEL  HZ I        22 8 29.74        26.5 0.34                           281 257 
 VIL  SZ EP   2   22 7 54.52                             112    -0.2 4  302 194 
 VIL  SE ES   2   22 8 28.06                             112    -0.4 4  302 194 
 VIL  SZ I        22 8 37.54        12.9 0.46                           302 194 
 RREF HZ EP   1   22 7 57.93                             110    -0.3 5  327 231 
 RREF HE ES   2   22 8 34.34                             110    -0.4 3  327 231 
 RREF HZ I        22 8 42.64        41.3 0.29                           327 231 
 PRA  HZ EP   1   22 8  5.35                             106     0.1 4  394 211 
 PRA  HE ES   2   22 8 46.78                             106    -0.4 3  394 211 
                                                                                
