 2016 1220 2226 45.9 L   7.387 -73.728 11.6  RSN  8 0.5 2.4LRSN                1
 GAP=177        1.23       4.3     2.7  5.9  0.1020E+01  0.1079E-01  0.4316E+01E
 Epicentro: PUERTO WILCHES - SANTANDER                                         3
 ACTION:UPD 17-01-11 20:17 OP:rebc STATUS:               ID:20161220222645 L   I
 OLDACT:UP  16-12-21 04:59 OP:ar   STATUS:               ID:20161220221744     3
 OLDACT:UP  16-12-21 04:56 OP:ar   STATUS:               ID:20161220221744     3
 OLDACT:UP  16-12-21 04:53 OP:ar   STATUS:               ID:20161220221744     3
 OLDACT:REG 16-12-21 03:08 OP:ar   STATUS:               ID:20161220221744     3
 2016-12-20-2218-00M.COL___381                                                 6
 STAT SP IPHASW D HRMM SECON CODA AMPLIT PERI AZIMU VELO AIN AR TRES W  DIS CAZ7
 BRR  HZ IP     C 2226 51.88                             106    0.5610 31.0 177 
 BRR  HZ I        2226 55.87       464.6 0.10            114           31.0 177 
 BRR  HE ES       2226 55.98                             106    0.4110 31.0 177 
 BAR2 EZ EP       2227  2.67                              94   -0.2310  107 145 
 BAR2 EZ I        2227 17.26        96.9 0.14             97            107 145 
 PAM  EZ IP     D 2227  4.60                              94    0.3610  114  93 
 PAM  HN ES       2227 18.11                              94   -0.4610  114  93 
 PAM  EZ I        2227 22.14        87.6 0.76             97            114  93 
 PTB  HZ EP       2227  4.43                              94   -0.8010  124 221 
 PTB  HN ES   2   2227 19.12                              94   -1.21 5  124 221 
 PTB  HZ I        2227 20.08        75.3 0.28             96            124 221 
 ZAR  HZ EP       2227  5.48                              94   -0.0010  125 275 
 ZAR  HN ES       2227 20.99                              94    0.2110  125 275 
 ZAR  HZ I        2227 22.97        84.2 0.16             96            125 275 
 RUS  HZ IP     D 2227 13.74                              56    0.18 9  180 157 
 RUS  HN ES       2227 34.62                              56   -0.54 9  180 157 
 RUS  HZ I        2227 36.02       101.1 0.32             56            180 157 
 NOR  HZ EP   4   2227 21.54                              56    1.27 0  238 212 
 NOR  HN ES   4   2227 44.94                              56   -2.16 0  238 212 
 NOR  HZ I        2227 49.13         7.7 0.12             56            238 212 
 GUY2CHZ EP   4   2227 30.84                              55    2.33 0  300 217 
 GUY2CHN ES       2228  2.70                              55    0.92 7  300 217 
                                                                                
