 2011  120 2325 34.7 L   6.796 -73.002148.3  RSN  5 0.3 1.8LRSN                1
 GAP=250        0.57       9.8    11.0  8.6 -0.3056E+02  0.1933E+01  0.5179E+02E
 Epicentro: CEPITA - SANTANDER                                                 3
 ACTION:UP  11-02-08 08:41 OP:pat  STATUS:               ID:20110120232534 L   I
 2011-01-20-2321-20S.COL___138                                                 6
 STAT SP IPHASW D HRMM SECON CODA AMPLIT PERI AZIMU VELO SNR AR TRES W  DIS CAZ7
 BAR2 SZ EP   1   2325 54.60                             168    -0.2 7   30 222 
 BAR2 SZ ES   2   2326  9.94                             168    -0.5 5   30 222 
 BAR2 SZ I        2326 11.27        17.3 0.14                            30 222 
 BTL  SZ ES   2   2326 11.16                             167     0.6 5   32 295 
 RUS  HZ EP   1   2325 58.71                             144     0.0 7  100 185 
 RUS  HZ I        2325 59.51         6.4 0.27                           100 185 
 CHI  HZ EP   1   2326 13.09                             117     0.1 6  253 199 
 CHI  HN ES   2   2326 43.15                             117     0.3 4  253 199 
 CHI  HZ I        2326 45.30         3.7 0.38                           253 199 
 RREF HZ EP   1   2326 22.36                             110     0.1 5  334 231 
 RREF HE ES   2   2326 59.07                             110    -0.4 3  334 231 
 RREF HZ I        2327  6.50         4.4 0.36                           334 231 
                                                                                
