 2014  820 2035 31.5 L   6.796 -73.112146.2  RSN 12 0.3 1.8LRSN                1
 GAP=141        0.76       2.8     3.6  4.8 -0.2235E+01  0.3390E+01  0.3802E+00E
 Epicentro: LOS SANTOS - SANTANDER                                             3
 ACTION:UPD 14-09-15 21:51 OP:nd   STATUS:               ID:20140820203531 L   I
 OLDACT:REG 14-08-21 04:50 OP:spq  STATUS:               ID:20140820202818     3
 2014-08-20-2028-18M.COL___266                                                 6
 STAT SP IPHASW D HRMM SECON CODA AMPLIT PERI AZIMU VELO AIN AR TRES W  DIS CAZ7
 BAR2 SZ EP     D 2035 51.14                             170   -0.0910 23.9 199 
 BAR2 SZ ES   1   2036  6.37                             170   -0.22 7 23.9 199 
 BAR2 SZ I        2036  7.53        33.5 0.20            166           23.9 199 
 BRR  HZ EP       2035 53.01                             151    0.0710 74.7 297 
 BRR  HE ES       2036 10.22                             151    0.6010 74.7 297 
 BRR  HZ I        2036 14.27        16.4 0.34            148           74.7 297 
 PAM  SZ EP       2035 53.95                             152    0.2710 75.4  37 
 PAM  SN ES   1   2036 10.93                             152   -0.02 7 75.4  37 
 PAM  SZ I        2036 11.83         5.9 0.18            156           75.4  37 
 RUS  HZ EP       2035 55.10                             144   -0.1910100.0 178 
 RUS  HE ES       2036 13.71                             144   -0.1010100.0 178 
 RUS  HZ I        2036 14.46         3.0 0.25            144          100.0 178 
 PTB  HZ EP       2035 58.17                             132   -0.70 9  151 259 
 PTB  HE ES       2036 19.93                             132   -0.26 9  151 259 
 PTB  HZ I        2036 21.10         6.1 0.57            129            151 259 
 SPBC HZ EP       2036  0.26                             129   -0.01 9  165 220 
 SPBC HN ES       2036 22.69                             129    0.01 9  165 220 
 SPBC HZ I        2036 30.22         6.9 0.18            127            165 220 
 NOR  HZ EP   1   2036  7.60                             118    0.00 6  238 235 
 NOR  HE ES       2036 35.79                             118    0.07 8  238 235 
 NOR  HZ I        2036 45.64         4.7 0.22            117            238 235 
 SML  HZ EP   1   2036  9.10                             117    0.70 6  246 335 
 SML  HE ES   1   2036 36.62                             117   -0.53 6  246 335 
 SML  HZ I        2036 42.16         4.8 0.10            118            246 335 
 CHI  HE ES   1   2036 39.39                             117    0.59 6  249 196 
 CHI  HZ I        2036 45.69         2.9 0.48            117            249 196 
 GUY2CHZ EP   1   2036 15.73                             112    0.24 5  304 235 
 GUY2CHE ES   4   2036 54.52                             112    4.75 0  304 235 
 GUY2CHZ I        2036 57.74         3.7 0.34                           304 235 
 RREF HN ES   1   2036 54.39                             111    0.16 5  324 230 
 RREF HZ I        2036 57.22         3.1 0.24            110            324 230 
 TOL  SN ES   4   2036 59.44                             109    1.49 0  346 225 
 TOL  SZ I        2037  5.40         7.6 0.40            109            346 225 
                                                                                
