 2017  120 2304 10.6 L   6.710 -73.115148.1  RSN  5 0.3 1.6LRSN                1
 GAP=144        0.58       7.5     4.6  4.7 -0.1977E+02  0.1284E+01  0.2647E+01E
 Epicentro: JORDAN - SANTANDER                                                 3
 ACTION:UPD 17-05-22 16:01 OP:jn   STATUS:               ID:20170120230410 L   I
 OLDACT:UP  17-01-21 04:46 OP:and  STATUS:               ID:20170120225745     3
 OLDACT:UP  17-01-21 04:45 OP:and  STATUS:               ID:20170120225745     3
 OLDACT:UP  17-01-21 04:45 OP:and  STATUS:               ID:20170120225745     3
 OLDACT:REG 17-01-21 02:51 OP:and  STATUS:               ID:20170120225745     3
 2017-01-20-2258-00M.COL___318                                                 6
 STAT SP IPHASW D HRMM SECON CODA AMPLIT PERI AZIMU VELO AIN AR TRES W  DIS CAZ7
 BRR  HZ EP   2   23 4 32.78                             149    0.29 5 79.3 304 
 BRR  HN ES       23 4 49.77                             149    0.2310 79.3 304 
 PAM  EZ EP       23 4 33.51                             148    0.0710 83.4  33 
 PAM  EN ES       23 4 51.00                             148   -0.2510 83.4  33 
 PAM  EZ I        23 4 52.94         7.3 0.50            152           83.4  33 
 RUS  HZ EP   9   23 4 35.71                             148    1.81 0 90.4 178 
 RUS  HN ES       23 4 53.58                             145   -0.2910 90.4 178 
 RUS  HZ I        23 4 54.64         7.1 0.38            146           90.4 178 
 PTB  HZ EP       23 4 37.98                             131    0.05 9  150 263 
 PTB  HN ES   2   23 4 58.71                             131   -0.53 5  150 263 
 PTB  HZ I        23 5  1.07         3.7 0.16            134            150 263 
 ZAR  HN ES   3   23 5  8.97                             121   -0.97 2  211 294 
                                                                                
