 2017 1020 2303 15.0 L   6.789 -73.150145.9  RSN 19 0.3 2.4LRSN                1
 GAP=100        0.75       2.3     2.2  3.7 -0.6487E-01  0.1402E+01  0.2544E+01E
 Epicentro: LOS SANTOS - SANTANDER                                             3
 ACTION:UPD 17-11-07 19:34 OP:rebc STATUS:               ID:20171020230315 L   I
 OLDACT:UP  17-10-21 07:05 OP:dnl  STATUS:               ID:20171020225542     3
 OLDACT:UP  17-10-21 07:05 OP:dnl  STATUS:               ID:20171020225542     3
 OLDACT:REG 17-10-21 06:32 OP:dnl  STATUS:               ID:20171020225542     3
 2017-10-20-2258-00M.COL___453                                                 6
 STAT SP IPHASW D HRMM SECON CODA AMPLIT PERI AZIMU VELO AIN AR TRES W  DIS CAZ7
 BAR2 EZ EP       23 3 34.40                             171   -0.1910 22.1 189 
 BAR2 EZ ES       23 3 49.66                             171   -0.2310 22.1 189 
 BAR2 EZ I        23 3 52.26        82.6 0.26            169           22.1 189 
 BRR  HZ IP     C 23 3 36.24                             153    0.1010 71.4 300 
 BRR  HE ES       23 3 53.45                             153    0.7910 71.4 300 
 BRR  HZ I        23 3 54.12        44.4 0.28            151           71.4 300 
 PAM  EZ IP     C 23 3 37.25                             151   -0.0210 78.6  39 
 PAM  EE ES       23 3 54.58                             151   -0.0910 78.6  39 
 PAM  EZ I        23 3 57.71        26.1 0.46            153           78.6  39 
 RUS  HZ EP       23 3 38.42                             144   -0.2310 99.4 176 
 RUS  HN ES       23 3 57.10                             144   -0.0210 99.4 176 
 RUS  HZ I        23 3 58.48        29.1 0.30            144           99.4 176 
 PTB  HZ EP       23 3 41.39                             132   -0.49 9  147 259 
 PTB  HN ES   4   23 4  1.62                             132   -1.26 0  147 259 
 PTB  HZ I        23 4  8.60        20.5 0.46            131            147 259 
 TAM  HZ EP       23 3 42.84                             131    0.17 9  155 105 
 TAM  HN ES       23 4  4.23                             131   -0.04 9  155 105 
 TAM  HZ I        23 4  7.47        23.2 0.40            133            155 105 
 SPBC HZ EP       23 3 43.39                             129    0.03 9  162 219 
 SPBC HN ES       23 4  5.27                             129   -0.24 9  162 219 
 SPBC HZ I        23 4  8.38        36.9 0.22            128            162 219 
 YPLC HZ EP       23 3 44.85                             127    0.16 9  176 151 
 YPLC HE ES       23 4  8.07                             127    0.20 9  176 151 
 YPLC HZ I        23 4 11.61        27.6 0.24            128            176 151 
 ZAR  HZ EP   2   23 3 47.29                             123   -0.13 4  204 293 
 ZAR  HN ES       23 4 12.60                             123   -0.14 9  204 293 
 ZAR  HZ I        23 4 17.78        39.8 0.44            122            204 293 
 TABC EZ EP   4   23 3 52.03                             120    1.44 0  229 211 
 TABC EZ ES   4   23 4 21.60                             120    3.23 0  229 211 
 TABC EZ I        23 4 26.63        25.9 0.40            119            229 211 
 NOR  HZ EP       23 3 50.65                             119    0.06 8  234 235 
 NOR  HE ES       23 4 18.26                             119   -0.11 8  234 235 
 NOR  HZ I        23 4 25.28        14.9 0.16            118            234 235 
 CHI  HE EP       23 3 52.84                             117    0.31 8  247 195 
 CHI  HN ES       23 4 21.78                             117   -0.05 8  247 195 
 CHI  HE I        23 4 28.24        22.8 0.54            117            247 195 
 ROSC BZ EP   9   23 3 54.58                             117    1.63 0  251 211 
 ROSC BE ES       23 4 25.24                             116    1.03 8  251 211 
 ROSC BZ I        23 4 29.09        46.8 0.40            116            251 211 
 GUY2CHZ EP   4   23 3 59.61                             113    1.15 0  300 235 
 GUY2CHE ES   4   23 4 36.44                             113    4.05 0  300 235 
 GUY2CHZ I        23 4 40.66        11.7 0.32                           300 235 
 VIL  EZ EP       23 3 58.13                             112   -0.11 7  302 192 
 VIL  EN ES       23 4 31.89                             112   -0.11 7  302 192 
 VIL  EZ I        23 4 35.13        27.8 0.38            112            302 192 
 LL6C HZ EP   4   23 3 59.70                             111   -1.11 0  326 358 
 LL6C HN ES   4   23 4 33.00                             111   -3.57 0  326 358 
 LL6C HZ I        23 4 40.47         6.9 0.46            111            326 358 
 PRA  HZ EP       23 4  8.27                             107   -0.07 6  391 210 
 PRA  HE ES   4   23 4 49.42                             107   -0.55 0  391 210 
 PRA  HZ I        23 4 56.63        18.0 0.38            107            391 210 
 ORTC HZ EP       23 4  9.00                             107    0.26 6  394 216 
 ORTC HN ES       23 4 51.12                             107    0.43 6  394 216 
 ORTC HZ I        23 4 58.33         6.0 0.24            106            394 216 
 SJC  HZ EP   4   23 4  8.46                             106   -2.16 0  410 327 
 SJC  HN ES   4   23 4 49.85                             106   -4.18 0  410 327 
 SJC  HZ I        23 5  4.24         5.7 0.68            106            410 327 
                                                                                
