 2010  620 2316 37.1 L   6.788 -73.100148.9  RSN 16 0.5 3.6LRSN                1
 GAP=129        0.99       3.5     5.7  5.9 -0.1067E+02  0.4458E+01  0.2581E+01E
 Epicentro: LOS SANTOS - SANTANDER                                             3
 ACTION:UP  10-08-24 10:11 OP:vdl  STATUS:               ID:20100620231636 L   I
 2010-06-20-2313-26S.COL___118                                                 6
 STAT SP IPHASW D HRMM SECON CODA AMPLIT PERI AZIMU VELO SNR AR TRES W  DIS CAZ7
 BAR2 SZ IP       2316 56.89                             171    -0.210   24 203 
 BAR2 SZ ES   1   2317 12.33                             171    -0.3 7   24 203 
 BRR  HZ IP     C 2316 58.79                             151     0.010   76 298 
 BRR  HN ES   1   2317 15.79                             151     0.0 7   76 298 
 BRR  HZ I        2317 19.10       867.4 0.10                            76 298 
 RUS  HZ IP     C 2317  0.71                             145    -0.310   99 179 
 RUS  HN ES   1   2317 19.60                             145    -0.1 7   99 179 
 BRI  SZ IP       2317  1.43                             142     0.210  108  18 
 BRI  SZ ES   1   2317 20.57                             142     0.5 7  108  18 
 GUE  SZ EP       2317  2.81                             140     0.710  117  10 
 GRA  SZ IP       2317  2.67                             138     0.110  126  15 
 GRA  SZ ES       2317 22.56                             138     0.110  126  15 
 OCA  SZ IP       2317  5.25                             130    -0.5 9  162 351 
 OCA  SZ ES   1   2317 27.75                             130    -0.5 7  162 351 
 OCA  SZ I        2317 32.20       632.8 0.35                           162 351 
 CHI  HZ EP   2   2317 14.40                             118    -0.5 4  249 196 
 CHI  HE ES   2   2317 44.09                             118    -0.4 4  249 196 
 CHI  HZ I        2317 47.59       193.4 0.67                           249 196 
 ROSC BZ IP     C 2317 16.50                             117     1.0 8  254 212 
 ROSC BE ES   1   2317 45.33                             117    -0.2 6  254 212 
 ROSC BZ I        2317 53.19       339.2 0.44                           254 212 
 CVER SZ EP   1   2317 18.13                             115     0.5 6  273 203 
 HEL  HZ EP   1   2317 17.57                             115    -0.4 6  277 256 
 HEL  HE ES   2   2317 49.78                             115     0.0 4  277 256 
 HEL  HZ I        2317 55.22       168.1 0.61                           277 256 
 GUY  HZ EP   1   2317 21.18                             113     0.0 5  305 236 
 GUY  HE ES   1   2317 56.14                             113     0.5 5  305 236 
 RREF HZ EP   1   2317 22.96                             111    -0.7 5  325 230 
 RREF HN ES   1   2318  0.05                             111     0.0 5  325 230 
 RREF HZ I        2318  9.33       370.4 0.31                           325 230 
 DBB  SZ EP   1   2317 24.63                             110    -0.6 5  345 274 
 TOL  SZ EP   1   2317 26.56                             110     0.8 5  346 225 
 SDV  BZ IP     D 2317 26.06                             109    -0.8 6  357  50 
 SDV  BZ I        2317 27.57        76.4 0.35                           357  50 
                                                                                
