 2014 1120 2203 38.6 L   6.753 -73.147146.0  RSN 11 0.6 2.2LRSN                1
 GAP=138        1.61       5.2     6.7  8.8 -0.3423E+01  0.1333E+02  0.9370E+00E
 Epicentro: LOS SANTOS - SANTANDER                                             3
 ACTION:UPD 14-12-19 15:45 OP:nd   STATUS:               ID:20141120220338 L   I
 OLDACT:UP  14-11-24 10:06 OP:CAM  STATUS:               ID:20141120220338 L   3
 OLDACT:REG 14-11-21 09:35 OP:cam  STATUS:               ID:20141120215817     3
 2014-11-20-2158-17M.COL___307                                                 6
 STAT SP IPHASW D HRMM SECON CODA AMPLIT PERI AZIMU VELO AIN AR TRES W  DIS CAZ7
 BAR2 SZ EP       22 3 58.18                             173    0.0410 18.2 192 
 BAR2 SZ ES       22 4 12.37                             173   -1.0210 18.2 192 
 BAR2 SZ I        22 4 14.21        42.3 0.40            172           18.2 192 
 BRR  HZ IP     C 22 4  0.35                             152    0.4610 73.7 302 
 BRR  HE ES       22 4 17.74                             152    1.2310 73.7 302 
 BRR  HZ I        22 4 20.32        35.4 0.48            149           73.7 302 
 PAM  SZ IP     C 22 4  1.37                             149    0.3110 81.5  37 
 PAM  SN ES       22 4 18.59                             149   -0.0110 81.5  37 
 PAM  SZ I        22 4 21.24        28.4 0.54            152           81.5  37 
 RUS  HZ EP       22 4  2.14                             145    0.1610 95.4 176 
 RUS  HN ES       22 4 20.50                             145    0.2610 95.4 176 
 RUS  HZ I        22 4 21.65        22.1 0.34            149           95.4 176 
 PTB  HZ EP       22 4  4.97                             132   -0.49 9  147 261 
 PTB  HN ES       22 4 25.04                             132   -1.40 9  147 261 
 PTB  HZ I        22 4 29.90        30.4 0.12            132            147 261 
 SPBC HZ EP       22 4  6.25                             130   -0.45 9  159 220 
 SPBC HN ES       22 4 29.59                             130    0.94 9  159 220 
 OCA  HZ EP       22 4  7.22                             129   -0.16 9  165 353 
 OCA  HE ES       22 4 29.29                             129   -0.56 9  165 353 
 OCA  HZ I        22 4 33.67        16.4 0.36            130            165 353 
 ZAR  HZ EP       22 4 11.61                             122    0.38 8  206 293 
 ZAR  HN ES       22 4 37.07                             122    0.38 8  206 293 
 ZAR  HZ I        22 4 43.35        26.8 0.50            122            206 293 
 CHI  HZ EP       22 4 15.48                             118   -0.26 8  244 195 
 HEL  HZ EP       22 4 18.67                             115    0.02 8  271 257 
 HEL  HN ES   4   22 4 49.37                             115   -0.53 0  271 257 
 HEL  HZ I        22 4 57.58         5.9 0.38            116            271 257 
 SJC  HZ EP   4   22 4 33.21                             105   -1.43 0  413 327 
 SJC  HN ES   4   22 5 14.85                             105   -3.53 0  413 327 
 SJC  HZ I        22 5 19.23         3.7 0.36            106            413 327 
                                                                                
