 2016  120 2316  6.2 L   6.806 -73.165146.4  RSN 14 0.4 2.2LRSN                1
 GAP=134        0.87       2.2     3.4  4.7 -0.1484E+01  0.5360E+01  0.1167E+00E
 Epicentro: LOS SANTOS - SANTANDER                                             3
 ACTION:UPD 16-03-09 23:27 OP:cam  STATUS:               ID:20160120231606 L   I
 OLDACT:UP  16-01-21 04:13 OP:drio STATUS:               ID:20160120230746     3
 OLDACT:REG 16-01-21 02:54 OP:drio STATUS:               ID:20160120230746     3
 2016-01-20-2307-46M.COL___319                                                 6
 STAT SP IPHASW D HRMM SECON CODA AMPLIT PERI AZIMU VELO AIN AR TRES W  DIS CAZ7
 BAR2 EZ EP       2316 26.03                             170    0.1510 23.7 185 
 BAR2 EZ ES       2316 41.16                             170   -0.0910 23.7 185 
 BAR2 EZ I        2316 43.38        21.5 0.18            169           23.7 185 
 PAM  EZ EP       2316 28.87                             151    0.3710 78.2  41 
 PAM  EN ES       2316 45.97                             151    0.0610 78.2  41 
 PAM  EZ I        2316 50.06        10.8 0.58            155           78.2  41 
 RUS  HZ EP       2316 29.89                             144   -0.1510  101 175 
 RUS  HE ES       2316 48.71                             144    0.0510  101 175 
 RUS  HZ I        2316 49.93        11.4 0.28            146            101 175 
 PTB  HZ EP       2316 32.54                             133   -0.47 9  146 258 
 PTB  HN ES       2316 53.87                             133   -0.08 9  146 258 
 PTB  HZ I        2316 57.45        17.0 0.14            132            146 258 
 OCA  HZ EP       2316 34.67                             130    0.23 9  159 354 
 OCA  HN ES       2316 56.16                             130   -0.33 9  159 354 
 OCA  HZ I        2317  1.89        58.3 0.30            132            159 354 
 SPBC HZ EP       2316 34.86                             129    0.22 9  162 218 
 SPBC HN ES       2316 56.84                             129   -0.00 9  162 218 
 SPBC HZ I        2317  3.99        33.8 0.22            130            162 218 
 ZAR  HZ EP       2316 38.77                             123    0.34 9  202 292 
 ZAR  HE ES       2317  4.30                             123    0.71 9  202 292 
 ZAR  HZ I        2317  9.81        17.0 0.44            124            202 292 
 NOR  HZ EP       2316 41.97                             119    0.18 8  233 234 
 NOR  HN ES       2317  8.70                             119   -0.88 8  233 234 
 NOR  HZ I        2317 13.20        12.5 0.18            120            233 234 
 SML  HZ EP       2316 42.37                             118   -0.30 8  242 336 
 SML  HE ES       2317 10.65                             118   -0.48 8  242 336 
 SML  HZ I        2317 15.61        25.4 0.24            120            242 336 
 CHI  HZ EP       2316 43.35                             117   -0.56 8  249 195 
 CHI  HN ES       2317 13.65                             117    0.30 8  249 195 
 CHI  HZ I        2317 23.00         4.4 0.44            119            249 195 
 HEL  HZ EP   4   2316 48.23                             115    2.03 0  270 256 
 HEL  HE ES   4   2317 16.44                             115   -0.99 0  270 256 
 HEL  HZ I        2317 25.59         7.7 0.30            116            270 256 
 GUY2CHZ EP   4   2316 51.30                             112    1.65 0  300 234 
 GUY2CHN ES       2317 24.28                             112    0.71 7  300 234 
 GUY2CHZ I        2317 32.20         6.8 0.34                           300 234 
 PRA  HZ EP       2316 59.56                             107   -0.09 6  392 209 
 PRA  HN ES       2317 40.98                             107   -0.40 6  392 209 
 PRA  HZ I        2317 49.37         5.6 0.26            108            392 209 
 ORTC HZ EP       2317  0.40                             106    0.37 6  395 216 
 ORTC HN ES   4   2317 43.46                             106    1.42 0  395 216 
 ORTC HZ I        2317 46.85         3.3 0.20            108            395 216 
 SJC  HZ EP   4   2317  0.33                             106   -1.22 0  408 327 
 SJC  HE ES   4   2317 41.12                             106   -3.62 0  408 327 
                                                                                
