 2011  520 2238  5.2 L   6.777 -73.106137.2  RSN  6 0.3 1.6LRSN                1
 GAP=143        0.66       4.3     7.3  8.0 -0.6404E+01 -0.1112E+02  0.4140E+01E
 Epicentro: LOS SANTOS - SANTANDER                                             3
 ACTION:UP  11-06-29 08:55 OP:tino STATUS:               ID:20110520223805 L   I
 2011-05-20-2236-53S.COL___141                                                 6
 STAT SP IPHASW D HRMM SECON CODA AMPLIT PERI AZIMU VELO SNR AR TRES W  DIS CAZ7
 BAR2 SZ EP   1   2238 23.63                             170    -0.2 7   22 202 
 BAR2 SZ ES   2   2238 38.45                             170     0.1 5   22 202 
 BAR2 SZ I        2238 39.45        12.2 0.33                            22 202 
 BTL  SZ EP   1   2238 23.78                             170    -0.1 7   24 311 
 BRR  HZ EP   1   2238 25.57                             149    -0.2 7   76 299 
 BRR  HZ I        2238 26.00        13.6 0.11                            76 299 
 BRR  HE ES   1   2238 41.94                             149     0.1 7   76 299 
 PAM  SE ES   2   2238 42.98                             149    -0.1 5   77  36 
 RUS  HZ EP   1   2238 27.79                             143    -0.2 7   98 179 
 RUS  HN ES   2   2238 46.02                             143     0.3 5   98 179 
 RUS  HZ I        2238 48.07         3.9 0.35                            98 179 
 GRA  SZ EP   1   2238 30.51                             135     0.7 7  127  15 
 GRA  SZ ES   1   2238 48.72                             135    -0.3 7  127  15 
 GRA  SZ I        2238 51.55         7.1 0.41                           127  15 
                                                                                
