 2015  620 2134 33.1 L   6.930 -73.129143.8  RSN  9 0.4 1.9LRSN                1
 GAP=216        0.88       3.7     5.4  5.8 -0.7998E+00  0.1095E+02  0.1915E+00E
 Epicentro: PIEDECUESTA - SANTANDER                                            3
 ACTION:UPD 15-09-10 22:14 OP:cam  STATUS:               ID:20150620213433 L   I
 OLDACT:REG 15-06-21 06:19 OP:ak   STATUS:               ID:20150620212746     3
 2015-06-20-2127-46M.COL___316                                                 6
 STAT SP IPHASW D HRMM SECON CODA AMPLIT PERI AZIMU VELO AIN AR TRES W  DIS CAZ7
 BAR2 EZ EP       2134 53.22                             165    0.3510 37.8 189 
 BAR2 EZ ES       2135  8.31                             165    0.0110 37.8 189 
 BAR2 EZ I        2135  9.59        12.6 0.20            156           37.8 189 
 BRR  HZ EP   4   2134 50.50                             154   -3.31 0 67.3 287 
 BRR  HN ES   1   2135  9.43                             154   -0.54 7 67.3 287 
 BRR  HZ I        2135 12.15        12.9 0.30            148           67.3 287 
 ZAR  HZ EP   1   2135  5.58                             122    0.51 6  201 288 
 ZAR  HN ES       2135 30.21                             122    0.19 9  201 288 
 ZAR  HZ I        2135 39.70         6.5 0.31            117            201 288 
 SML  HZ EP   1   2135  8.95                             118    0.66 6  232 333 
 SML  HN ES       2135 35.51                             118   -0.23 8  232 333 
 NOR  HZ EP       2135  9.55                             117   -0.24 8  245 232 
 NOR  HN ES       2135 38.53                             117    0.10 8  245 232 
 NOR  HZ I        2135 41.43         5.2 0.16            111            245 232 
 HEL  HZ EP       2135 13.17                             114   -0.66 7  278 253 
 HEL  HN ES       2135 46.17                             114    0.56 7  278 253 
 HEL  HZ I        2135 58.05         3.7 0.42            108            278 253 
 GUY2CHZ EP       2135 18.25                             111    0.52 7  311 233 
 GUY2CHN ES       2135 52.15                             111   -0.41 7  311 233 
 GUY2CHZ I        2135 59.83         5.3 0.36                           311 233 
 MON  HZ EP       2135 20.60                             109   -0.57 6  346 306 
 MON  HN ES   4   2135 54.95                             109   -3.73 0  346 306 
 PRA  HZ EP       2135 27.55                             105   -0.57 6  405 209 
 PRA  HZ I        2136 15.82         3.6 0.45            101            405 209 
                                                                                
