 2017  420 2146 48.1 L   6.792 -73.098143.7  RSN  4 0.3 1.6LRSN                1
 GAP=143        0.86       4.6     4.9  8.5  0.4454E+01  0.6489E+01  0.3575E+01E
 Epicentro: LOS SANTOS - SANTANDER                                             3
 ACTION:UPD 17-05-30 21:14 OP:jn   STATUS:               ID:20170420214648 L   I
 OLDACT:UP  17-04-21 03:30 OP:edw  STATUS:               ID:20170420213740     3
 OLDACT:REG 17-04-21 02:51 OP:cara STATUS:               ID:20170420213740     3
 2017-04-20-2138-00M.COL___377                                                 6
 STAT SP IPHASW D HRMM SECON CODA AMPLIT PERI AZIMU VELO AIN AR TRES W  DIS CAZ7
 PAM  EZ IP     D 2147 10.33                             151    0.3910 74.9  36 
 PAM  EN ES       2147 26.56                             151   -0.4210 74.9  36 
 PAM  EZ I        2147 29.44         4.0 0.18            155           74.9  36 
 BRR  HZ EP       2147  9.45                             150    0.1310 76.3 297 
 BRR  HN ES       2147 26.32                             150    0.4410 76.3 297 
 BRR  HZ I        2147 33.72        18.8 0.44            151           76.3 297 
 RUS  HZ EP       2147 11.39                             144   -0.1710 99.5 179 
 RUS  HN ES       2147 29.84                             144   -0.0310 99.5 179 
 RUS  HZ I        2147 30.59         5.9 0.24            150           99.5 179 
 ZAR  HN ES       2147 46.12                             121   -0.46 8  209 292 
                                                                                
