 2015  620 2351 42.8 L   6.761 -73.116150.4  RSN  6 0.4 1.6LRSN                1
 GAP=142        0.82       3.3     4.7  6.7 -0.3504E+01  0.1522E+02 -0.4687E+01E
 Epicentro: LOS SANTOS - SANTANDER                                             3
 ACTION:UPD 15-09-10 22:14 OP:cam  STATUS:               ID:20150620235142 L   I
 OLDACT:REG 15-06-21 06:30 OP:ak   STATUS:               ID:20150620234748     3
 2015-06-20-2347-48M.COL___313                                                 6
 STAT SP IPHASW D HRMM SECON CODA AMPLIT PERI AZIMU VELO AIN AR TRES W  DIS CAZ7
 BAR2 EZ EP   1   2352  2.81                             172   -0.10 7 20.1 201 
 BAR2 EZ ES       2352 18.44                             172   -0.1710 20.1 201 
 BAR2 EZ I        2352 21.74         6.2 0.30            168           20.1 201 
 PAM  SZ EP   1   2352  6.03                             151    0.46 7 78.7  36 
 PAM  SN ES       2352 23.79                             151    0.4410 78.7  36 
 PAM  SZ I        2352 26.78        11.1 0.62            157           78.7  36 
 RUS  HZ EP   1   2352  6.21                             146   -0.48 7 96.1 178 
 RUS  HE ES       2352 25.10                             146   -0.2310 96.1 178 
 RUS  HZ I        2352 28.96         4.0 0.38            149           96.1 178 
 OCA  HZ EP       2352 11.56                             130   -0.33 9  165 352 
 OCA  HN ES       2352 34.56                             130   -0.04 9  165 352 
 ZAR  HZ EP   1   2352 16.19                             123    0.17 6  209 293 
 ZAR  HN ES       2352 41.56                             123   -0.38 8  209 293 
 ZAR  HZ I        2352 50.94         3.6 0.15            124            209 293 
 NOR  HZ EP   1   2352 19.01                             119    0.19 6  235 236 
 NOR  HN ES       2352 47.63                             119    0.71 8  235 236 
 NOR  HZ I        2352 56.01         2.2 0.21            121            235 236 
                                                                                
