 2015  620 2250  8.2 L   6.882 -73.375115.1  RSN 17 0.4 2.3LRSN                1
 GAP= 91        0.99       2.2     3.1  5.1 -0.4891E+00  0.7327E+01  0.6031E+00E
 Epicentro: SAN VICENTE DE CHUCURI - SANTANDER                                 3
 ACTION:UPD 15-09-10 22:14 OP:cam  STATUS:               ID:20150620225008 L   I
 OLDACT:REG 15-06-21 06:25 OP:ak   STATUS:               ID:20150620224746     3
 2015-06-20-2247-46M.COL___316                                                 6
 STAT SP IPHASW D HRMM SECON CODA AMPLIT PERI AZIMU VELO AIN AR TRES W  DIS CAZ7
 BAR2 EZ IP     D 2250 24.85                             160    0.1610 38.5 146 
 BAR2 EZ ES       2250 37.03                             160   -0.5010 38.5 146 
 BAR2 EZ I        2250 39.48        87.7 0.35            160           38.5 146 
 BRR  HZ IP     C 2250 24.80                             157    0.1910 44.7 304 
 BRR  HN ES       2250 37.68                             157    0.2910 44.7 304 
 BRR  HZ I        2250 39.25        73.7 0.13            154           44.7 304 
 PAM  SZ EP       2250 28.77                             140    0.5310 90.1  56 
 PAM  SN ES       2250 44.17                             140    0.3110 90.1  56 
 PAM  SZ I        2250 46.77        26.2 0.19            138           90.1  56 
 RUS  HZ EP       2250 29.96                             132   -0.3310  114 164 
 RUS  HN ES       2250 47.46                             132   -0.0310  114 164 
 RUS  HZ I        2250 48.30        22.3 0.18            130            114 164 
 OCA  HZ EP       2250 32.96                             124   -0.35 9  150   2 
 OCA  HN ES       2250 52.35                             124   -0.52 9  150   2 
 ZAR  HZ EP       2250 36.16                             119    0.22 9  177 292 
 ZAR  HN ES       2250 58.48                             119    0.93 9  177 292 
 ZAR  HZ I        2251  1.27        43.7 0.28            116            177 292 
 NOR  HZ EP       2250 40.81                             113    0.04 8  220 229 
 NOR  HN ES       2251  6.34                             113    0.19 8  220 229 
 NOR  HZ I        2251 10.89        16.6 0.18            110            220 229 
 SML  HZ EP       2250 41.42                             112    0.14 8  226 340 
 SML  HN ES       2251  6.26                             112   -0.80 8  226 340 
 SML  HZ I        2251 12.37        58.8 0.06            110            226 340 
 HEL  HZ EP   1   2250 45.22                             110    0.68 6  250 252 
 HEL  HN ES       2251 12.56                             110   -0.31 8  250 252 
 HEL  HZ I        2251 18.00        17.9 0.34            107            250 252 
 CHI  HZ EP   1   2250 45.52                             110    0.68 6  252 189 
 CHI  HN ES       2251 12.72                             110   -0.67 8  252 189 
 CHI  HZ I        2251 24.04         4.6 0.34            107            252 189 
 GUY2CHZ EP   1   2250 49.06                             107    0.16 6  287 230 
 GUY2CHN ES       2251 20.34                             107   -0.28 7  287 230 
 GUY2CHZ I        2251 26.57         8.8 0.70                           287 230 
 LL2C HZ EP   4   2250 46.04                             106   -3.31 0  296 359 
 LL2C HN ES   4   2251 23.42                             106    1.99 0  296 359 
 LL2C HZ I        2251 31.85        25.5 0.29            104            296 359 
 DBB  SZ EP       2250 51.74                             105    0.16 7  314 273 
 DBB  SZ ES       2251 24.69                             105   -0.70 7  314 273 
 DBB  SZ I        2251 29.93        32.5 0.54            102            314 273 
 MON  HZ EP   4   2250 51.38                             104   -1.82 0  328 310 
 MON  HN ES   4   2251 26.08                             104   -2.20 0  328 310 
 MON  HZ I        2251 29.22         6.7 0.41            102            328 310 
 PRA  HZ EP       2251  0.82                             101    0.40 6  388 206 
 PRA  HN ES       2251 41.11                             101   -0.02 6  388 206 
 PRA  HZ I        2251 50.54         6.7 0.32             99            388 206 
 SJC  HZ EP       2250 59.99                             101   -0.42 6  388 329 
 SJC  HN ES   4   2251 37.20                             101   -3.92 0  388 329 
 SJC  HZ I        2251 53.76         4.2 0.45             99            388 329 
 ORTC HZ EP   4   2251  2.00                             101    1.54 0  389 212 
 ORTC HE ES   4   2251 42.69                             101    1.49 0  389 212 
 ORTC HZ I        2251 50.45         2.3 0.19             99            389 212 
                                                                                
