 2013  820 2303 46.3 L   6.707 -73.196147.9  RSN  5 0.2 1.4LRSN                1
 GAP=134        0.52       4.5     4.2  5.4  0.4231E+01 -0.8273E+00 -0.3625E+01E
 Epicentro: VILLANUEVA - SANTANDER                                             3
 ACTION:UPD 14-01-14 09:05 OP:ep   STATUS:               ID:20130820230346 L   I
 OLDACT:REG 13-08-20 21:23 OP:jn   STATUS:               ID:20130820225959     3
 2013-08-20-2259-59M.COL___269                                                 6
 STAT SP IPHASW D HRMM SECON CODA AMPLIT PERI AZIMU VELO AIN AR TRES W  DIS CAZ7
 BAR2 SZ ES   1   23 4 21.26                             175   -0.16 7 12.8 173 
 BAR2 SZ I        23 4 22.26         7.5 0.18            162           12.8 173 
 BRR  HZ EP   1   23 4  8.16                             153    0.41 7 72.2 308 
 BRR  HN ES   1   23 4 24.65                             153    0.18 7 72.2 308 
 BRR  HZ I        23 4 26.20         4.5 0.14            143           72.2 308 
 PAM  SZ EP   1   23 4  9.16                             148   -0.31 7 88.9  38 
 PAM  SZ I        23 4 29.21         3.5 0.40            127           88.9  38 
 RUS  HZ EP   1   23 4  9.78                             147    0.17 7 90.9 172 
 RUS  HN ES   1   23 4 27.84                             147    0.06 7 90.9 172 
 RUS  HZ I        23 4 29.77         3.7 0.34            143           90.9 172 
 PTB  HZ EP   1   23 4 12.62                             134   -0.20 7  141 263 
 PTB  HN ES   1   23 4 33.29                             134   -0.20 7  141 263 
 PTB  HZ I        23 4 34.78         4.8 0.10            131            141 263 
                                                                                
