 2012  420 2252 14.9 L   6.716 -73.168148.3  RSN  4 0.3 1.7LRSN                1
 GAP=241        0.56       9.1     5.6  6.7  0.1328E+02  0.8425E+01  0.5049E+01E
 Epicentro: VILLANUEVA - SANTANDER                                             3
 ACTION:UPD 12-07-05 11:55 OP:tino STATUS:               ID:20120420225214 L   I
 2012-04-20-2250-00M.COL___186                                                 6
 STAT SP IPHASW D HRMM SECON CODA AMPLIT PERI AZIMU VELO AIN AR TRES W  DIS CAZ7
 BAR2 SZ EP   1   2252 34.58                             175    -0.1 7   14 187 
 BAR2 SZ ES   1   2252 49.90                             175    -0.2 7   14 187 
 BAR2 SZ I        2252 51.13         9.2 0.26                            14 187 
 BRR  HZ EP   1   2252 36.75                             152     0.2 7   74 306 
 BRR  HN ES   1   2252 53.54                             152     0.2 7   74 306 
 PTB  HZ EP   1   2252 41.87                             133     0.1 7  144 262 
 PTB  HN ES   1   2253  2.76                             133     0.1 7  144 262 
 PTB  HZ I        2253  3.97         6.6 0.43                           144 262 
 ZAR  HN ES   2   2253 12.52                             122    -0.7 4  205 295 
                                                                                
