 2015  720 2100  5.9 L   6.560 -73.513112.7  RSN 20 0.4 2.6LRSN                1
 GAP= 63        0.86       2.1     2.7  6.0 -0.1314E+01  0.9521E+01 -0.5650E-01E
 Epicentro: EL CARMEN - SANTANDER                                              3
 ACTION:UPD 15-09-08 21:49 OP:cam  STATUS:               ID:20150720210005 L   I
 OLDACT:REG 15-07-21 03:45 OP:spq  STATUS:               ID:20150720205748     3
 2015-07-20-2057-48M.COL___340                                                 6
 STAT SP IPHASW D HRMM SECON CODA AMPLIT PERI AZIMU VELO AIN AR TRES W  DIS CAZ7
 BAR2 EZ IP     D 21 0 22.22                             161    0.1810 36.7  84 
 BAR2 EZ ES   1   21 0 34.45                             161   -0.16 7 36.7  84 
 RUS  HZ EP     D 21 0 25.14                             140   -0.4010 87.8 147 
 RUS  HN ES   1   21 0 40.66                             140   -0.18 7 87.8 147 
 PAM  EZ EP       21 0 28.85                             129    0.0910  125  46 
 PAM  EN ES       21 0 46.67                             129    0.1110  125  46 
 PAM  EZ I        21 0 48.36        75.2 0.24            130            125  46 
 ZAR  HZ EP       21 0 34.24                             117    0.33 9  181 305 
 ZAR  HN ES       21 0 56.50                             117    0.77 9  181 305 
 ZAR  HZ I        21 0 58.83        51.1 0.48            117            181 305 
 NOR  HZ EP       21 0 33.76                             116   -0.79 9  186 234 
 NOR  HN ES   4   21 0 55.37                             116   -1.50 0  186 234 
 NOR  HZ I        21 0 57.71        39.5 0.16            116            186 234 
 OCA  HZ EP     C 21 0 34.34                             116   -0.41 9  187   7 
 OCA  HN ES       21 0 57.37                             116    0.14 9  187   7 
 OCA  HZ I        21 1  3.33        84.3 0.24            117            187   7 
 ROSC BZ EP       21 0 38.35                             113    0.73 8  210 205 
 ROSC BN ES   4   21 1  3.80                             113    1.45 0  210 205 
 ROSC BZ I        21 1  8.98        26.4 0.40            114            210 205 
 CHI  HZ EP   1   21 0 38.31                             113    0.13 6  215 186 
 CHI  HN ES   1   21 1  3.27                             113   -0.06 6  215 186 
 CHI  HZ I        21 1  8.14        14.6 0.30            113            215 186 
 HEL  HZ EP       21 0 39.32                             112   -0.14 8  227 260 
 HEL  HN ES       21 1  4.79                             112   -0.84 8  227 260 
 HEL  HZ I        21 1  7.42        20.9 0.36            111            227 260 
 GUY2CHZ EP       21 0 42.98                             109    0.41 8  253 234 
 GUY2CHN ES       21 1 11.33                             109    0.17 8  253 234 
 GUY2CHZ I        21 1 14.68        31.5 0.34                           253 234 
 SML  HZ EP       21 0 42.06                             108   -0.22 8  255 346 
 SML  HE ES   4   21 1 11.85                             108    1.22 0  255 346 
 SML  HZ I        21 1 15.92        55.6 0.22            109            255 346 
 CBOC HZ EP       21 0 46.51                             106    0.32 7  287 255 
 CBOC HN ES       21 1 17.17                             106   -0.43 7  287 255 
 CBOC HZ I        21 1 22.35        10.5 0.32            106            287 255 
 TOL  SZ EP       21 0 47.72                             105    0.25 7  296 223 
 TOL  SE ES   4   21 1 21.27                             105    1.39 0  296 223 
 TOL  SZ I        21 1 22.52        19.8 0.66            106            296 223 
 DBB  SZ ES   1   21 1 20.22                             105   -0.39 5  302 280 
 DBB  SZ I        21 1 23.88        51.9 0.28            105            302 280 
 PTGC HZ EP   4   21 0 46.69                             105   -1.10 0  303 150 
 PTGC HE ES   4   21 1 19.03                             105   -1.42 0  303 150 
 PTGC HZ I        21 1 22.25        34.8 0.44            105            303 150 
 ANIL HZ EP   4   21 0 50.31                             104    1.25 0  310 223 
 ANIL HN ES       21 1 22.87                             104    0.17 7  310 223 
 ANIL HZ I        21 1 32.70        39.2 0.42            105            310 223 
 MON  HZ EP       21 0 51.91                             102   -0.48 7  341 316 
 MON  HE ES       21 1 28.83                             102    0.19 7  341 316 
 MON  HZ I        21 1 31.15         7.8 0.36            103            341 316 
 ORTC HZ EP       21 0 53.62                             102    0.09 6  350 213 
 ORTC HE ES       21 1 31.16                             102    0.50 6  350 213 
 ORTC HZ I        21 1 37.85        10.3 0.50            102            350 213 
 PAL  HZ EP       21 0 54.40                             102    0.03 6  357 239 
 PAL  HE ES       21 1 32.24                             102    0.07 6  357 239 
 PAL  HZ I        21 1 41.92         5.2 0.38            102            357 239 
 SJC  HZ EP   1   21 1  0.14                              99   -0.81 4  412 334 
 SJC  HN ES   4   21 1 41.47                              99   -2.41 0  412 334 
 SJC  HZ I        21 1 56.05         5.8 0.40             99            412 334 
                                                                                
