 2013  220 2144 37.2 L   6.774 -73.178141.0  RSN  7 0.2 1.9LRSN                1
 GAP=134        0.49       2.7     3.6  5.9  0.1224E+00 -0.8233E-01  0.6437E+01E
 Epicentro: LOS SANTOS - SANTANDER                                             3
 ACTION:UPD 13-03-12 09:34 OP:ep   STATUS:               ID:20130220214437 L   I
 2013-02-20-2140-00M.COL___238                                                 6
 STAT SP IPHASW D HRMM SECON CODA AMPLIT PERI AZIMU VELO AIN AR TRES W  DIS CAZ7
 BAR2 SZ EP   1   2144 55.83                             171   -0.33 7 20.1 181 
 BAR2 SZ I        2145 12.63         9.9 0.20            172           20.1 181 
 BRR  HZ EP       2144 58.01                             152    0.3110 69.5 302 
 BRR  HN ES   1   2145 13.76                             152    0.04 7 69.5 302 
 BRR  HN I        2145 15.89        19.5 0.40            149           69.5 302 
 PAM  SZ EP   1   2144 58.92                             148   -0.23 7 81.9  40 
 PAM  SN ES   2   2145 16.18                             148   -0.13 5 81.9  40 
 PAM  SN I        2145 17.12        13.0 0.50            148           81.9  40 
 RUS  HZ EP   1   2145  0.50                             143    0.24 7 98.1 174 
 RUS  HN ES   2   2145 18.58                             143    0.30 5 98.1 174 
 RUS  HN I        2145 20.32        14.2 0.42            143           98.1 174 
 PTB  HZ EP   1   2145  3.16                             132   -0.21 7  144 260 
 PTB  HN ES   2   2145 23.38                             132   -0.44 5  144 260 
 PTB  HN I        2145 29.06        12.4 0.34            129            144 260 
 ZAR  HN ES   2   2145 34.15                             122    0.19 4  202 293 
 ZAR  HN I        2145 40.57         7.7 0.44            120            202 293 
 CHI  HZ EP   1   2145 14.32                             116    0.12 6  245 195 
 CHI  HN ES       2145 42.98                             116   -0.11 8  245 195 
                                                                                
