 2010  720 2341 13.5 L   6.798 -73.049146.6  RSN 18 0.6 3.6LRSN                1
 GAP=133        1.42       4.2     7.4  6.7 -0.1252E+02  0.5619E+01  0.3098E+01E
 Epicentro: LOS SANTOS - SANTANDER                                             3
 ACTION:UPD 10-12-01 15:19 OP:pat  STATUS:               ID:20100720234113 L   I
 2010-07-20-2336-53S.COL___123                                                 6
 STAT SP IPHASW D HRMM SECON CODA AMPLIT PERI AZIMU VELO AIN AR TRES W  DIS CAZ7
 BAR2 SZ EP       2341 33.38                             169     0.010   27 213 
 BAR2 SZ ES       2341 48.82                             169     0.010   27 213 
 BAR2 SZ I        2341 50.01       823.1 0.46                            27 213 
 GIR2 SZ EP       2341 33.47                             166     0.110   35 333 
 GIR2 SZ ES   2   2341 47.45                             166    -1.5 5   35 333 
 BRR  HZ IP       2341 35.29                             150    -0.110   81 295 
 BRR  HN ES       2341 52.19                             150    -0.210   81 295 
 BRR  HZ I        2341 56.07       711.8 0.17                            81 295 
 RUS  HZ EP       2341 37.05                             144    -0.310  100 182 
 RUS  HN ES       2341 55.57                             144    -0.310  100 182 
 RUS  HZ I        2341 57.10       368.0 0.27                           100 182 
 BRI  SZ EP       2341 37.92                             142     0.610  105  15 
 BRI  SZ I        2341 58.65       181.1 0.39                           105  15 
 GUE  SZ EP       2341 38.33                             140     0.110  115   7 
 GUE  SZ I        2341 40.25       156.5 0.07                           115   7 
 GRA  SZ IP       2341 39.21                             138     0.610  123  13 
 GRA  SZ ES   1   2341 58.60                             138     0.4 7  123  13 
 GRA  SZ I        2342  1.37       576.9 0.13                           123  13 
 OCA  SZ EP       2341 41.78                             129    -0.3 9  162 349 
 OCA  SZ ES   1   2342  4.92                             129     0.6 7  162 349 
 OCA  SZ I        2342  9.22       655.5 0.44                           162 349 
 CHI  HZ EP       2341 51.16                             117    -0.4 8  251 198 
 CHI  HN ES       2342 22.18                             117     0.9 8  251 198 
 CHI  HZ I        2342 26.57       191.3 0.85                           251 198 
 ROSC BZ EP       2341 52.97                             116     0.7 8  258 213 
 ROSC BZ I        2342 29.23       393.1 0.12                           258 213 
 CVER SZ EP       2341 53.61                             115    -0.8 7  276 204 
 CVER SZ I        2341 55.21       430.9 0.21                           276 204 
 HEL  HZ EP       2341 54.62                             114    -0.3 7  282 256 
 HEL  HN ES   2   2342 27.03                             114    -0.2 4  282 256 
 HEL  HZ I        2342 30.81       147.7 0.90                           282 256 
 GUY  SZ EP       2341 58.35                             112     0.2 7  310 236 
 GUY  SN ES   1   2342 34.32                             112     1.3 5  310 236 
 GUY  SZ I        2342 44.08       816.1 0.76                           310 236 
 RREF HZ EP   1   2342  0.11                             110    -0.5 5  330 231 
 RREF HZ I        2342 42.15       318.1 1.71                           330 231 
 DBB  SZ EP       2342  1.10                             109    -1.2 6  350 274 
 DBB  SZ I        2342 40.54        49.8 0.07                           350 274 
 SDV  BZ EP       2342  2.56                             109    -0.1 6  352  49 
 SDV  BZ I        2342  3.76       129.6 0.67                           352  49 
 ANIL HZ EP   1   2342  4.88                             108     0.6 5  365 226 
 ANIL HN ES   1   2342 44.54                             108     0.8 5  365 226 
 ANIL HZ I        2342 47.54       577.6 0.10                           365 226 
 PRA  HZ EP       2342  6.67                             106    -1.0 6  397 211 
 PRA  HN ES   1   2342 49.25                             106    -0.7 4  397 211 
 PRA  HZ I        2342 54.93       292.6 0.14                           397 211 
                                                                                
