 2016  420 2048 58.7 L   6.773 -73.182133.6  RSN  6 0.4 1.7LRSN                1
 GAP=133        0.97       4.7     4.4  7.4 -0.3408E+01  0.1337E+02 -0.3187E+01E
 Epicentro: LOS SANTOS - SANTANDER                                             3
 ACTION:UPD 16-05-05 14:22 OP:rebc STATUS:               ID:20160420204858 L   I
 OLDACT:UP  16-04-21 05:06 OP:mh   STATUS:               ID:20160420204750     3
 OLDACT:UP  16-04-21 05:06 OP:mh   STATUS:               ID:20160420204750     3
 OLDACT:REG 16-04-21 04:51 OP:mh   STATUS:               ID:20160420204750     3
 2016-04-20-2047-50M.COL___311                                                 6
 STAT SP IPHASW D HRMM SECON CODA AMPLIT PERI AZIMU VELO AIN AR TRES W  DIS CAZ7
 BAR2 EZ EP       2049 16.78                             171   -0.0110 20.0 180 
 BAR2 EZ ES       2049 30.97                             171    0.0710 20.0 180 
 BAR2 EZ I        2049 32.85        12.7 0.20            171           20.0 180 
 PAM  EZ EP       2049 19.68                             147   -0.2510 82.2  40 
 PAM  EN ES       2049 36.63                             147    0.1210 82.2  40 
 PAM  EZ I        2049 37.99         5.6 0.43            151           82.2  40 
 RUS  HZ EP   1   2049 20.70                             142   -0.36 7 98.0 174 
 RUS  HN ES   1   2049 38.63                             142    0.11 7 98.0 174 
 RUS  HZ I        2049 40.04         6.7 0.28            146           98.0 174 
 PTB  HZ EP       2049 23.84                             130   -0.43 9  143 260 
 PTB  HN ES       2049 43.60                             130   -0.62 9  143 260 
 PTB  HZ I        2049 48.38         6.2 0.46            131            143 260 
 SPBC HZ EP       2049 26.65                             127    0.84 9  158 219 
 SPBC HN ES   1   2049 47.02                             127    0.05 7  158 219 
 SPBC HZ I        2049 50.30         8.0 0.15            129            158 219 
 ZAR  HZ EP       2049 30.02                             120   -0.08 9  202 293 
 ZAR  HN ES       2049 55.22                             120    0.62 9  202 293 
 ZAR  HZ I        2050  3.15         8.1 0.50            121            202 293 
                                                                                
