 2017 1220 2228 34.2 L   6.675 -73.139145.2  RSN  4 0.3 1.3LRSN                1
 GAP=174        0.71       7.3     4.2  6.4 -0.1430E+02  0.1272E+02 -0.1389E+02E
 Epicentro: VILLANUEVA - SANTANDER                                             3
 ACTION:UPD 18-01-04 13:22 OP:rebc STATUS:               ID:20171220222834 L   I
 OLDACT:DUP 17-12-21 06:41 OP:lv   STATUS:               ID:20171220221711d    3
 2017-12-20-2218-00M.COL___446                                                 6
 STAT SP IPHASW D HRMM SECON CODA AMPLIT PERI AZIMU VELO AIN AR TRES W  DIS CAZ7
 BAR2 EZ ES       2229  8.92                             176    0.2610 10.3 208 
 PAM  EZ EP       2228 57.32                             147    0.3110 88.1  33 
 PAM  EN ES       2229 14.46                             147   -0.3510 88.1  33 
 PAM  EZ I        2229 16.65         4.1 0.44            147           88.1  33 
 PTB  HZ EP       2229  0.59                             132   -0.39 9  146 264 
 PTB  HE ES       2229 21.77                             132   -0.11 9  146 264 
 PTB  HZ I        2229 22.80         2.1 0.14            133            146 264 
 ZAR  HZ EP       2229  7.39                             121    0.15 8  210 296 
 ZAR  HE ES       2229 33.19                             121    0.17 8  210 296 
                                                                                
