 2012  720 2225 20.5 L   6.750 -73.193145.9  RSN  4 0.4 1.5LRSN                1
 GAP=228        0.95       9.2     8.9  9.5  0.4027E+02  0.3338E+00 -0.1092E+01E
 Epicentro: VILLANUEVA - SANTANDER                                             3
 ACTION:UPD 12-08-14 11:46 OP:ep   STATUS:               ID:20120720222520 L   I
 2012-07-20-2220-00M.COL___215                                                 6
 STAT SP IPHASW D HRMM SECON CODA AMPLIT PERI AZIMU VELO AIN AR TRES W  DIS CAZ7
 BAR2 SZ EP       2225 40.08                             173     0.010   17 176 
 BAR2 SZ ES   1   2225 54.57                             173    -0.8 7   17 176 
 BAR2 SZ I        2225 56.32         5.3 0.17            170             17 176 
 BRR  HZ EP       2225 41.77                             153     0.110   70 305 
 BRR  HZ I        2225 42.04        10.8 0.18            153             70 305 
 BRR  HN ES   1   2225 58.52                             153     0.5 7   70 305 
 RUS  HZ EP       2225 43.93                             145     0.010   96 173 
 RUS  HE ES   1   2226  2.71                             145     0.5 7   96 173 
 RUS  HZ I        2226  3.81         3.1 0.34            144             96 173 
 PTB  HZ EP   1   2225 46.61                             133    -0.4 7  142 261 
 PTB  HN ES   1   2226  7.49                             133    -0.1 7  142 261 
 PTB  HZ I        2226  9.96         3.9 0.21            133            142 261 
