 2016  120 2353 26.3 L   6.187 -73.663109.0  RSN 14 0.5 2.2LRSN                1
 GAP= 67        1.25       2.7     3.2  6.2 -0.2595E+01  0.5348E+01 -0.1805E+01E
 Epicentro: LA PAZ - SANTANDER                                                 3
 ACTION:UPD 16-03-09 23:27 OP:cam  STATUS:               ID:20160120235326 L   I
 OLDACT:REG 16-01-21 02:55 OP:drio STATUS:               ID:20160120234751     3
 2016-01-20-2347-51M.COL___319                                                 6
 STAT SP IPHASW D HRMM SECON CODA AMPLIT PERI AZIMU VELO AIN AR TRES W  DIS CAZ7
 BAR2 EZ EP       2353 44.26                             145    0.4010 69.5  50 
 BAR2 EZ ES       2353 57.92                             145    0.3810 69.5  50 
 RUS  HZ EP       2353 44.26                             144   -0.1310 72.0 117 
 RUS  HE ES       2353 58.33                             144   -0.1610 72.0 117 
 RUS  HZ I        2353 59.47        16.4 0.34            145           72.0 117 
 SPBC HZ EP       2353 44.00                             143   -0.0110 74.5 217 
 SPBC HN ES       2353 58.35                             143    0.5410 74.5 217 
 SPBC HZ I        2353 59.53        56.4 0.34            143           74.5 217 
 PTB  HZ EP       2353 44.81                             135   -0.8110 96.0 294 
 PTB  HN ES       2353 59.82                             135   -0.8610 96.0 294 
 PTB  HZ I        2354  2.94        28.0 0.24            134           96.0 294 
 NOR  HZ EP       2353 50.55                             121   -0.34 9  150 243 
 NOR  HN ES       2354  9.51                             121   -0.54 9  150 243 
 NOR  HZ I        2354 11.83        29.1 0.40            121            150 243 
 PAM  EZ EP       2353 53.33                             119    0.21 9  166  40 
 PAM  EN ES       2354 13.93                             119   -0.09 9  166  40 
 PAM  EZ I        2354 18.78         9.6 0.40            118            166  40 
 CHI  HZ EP       2353 53.26                             118   -0.44 9  172 183 
 CHI  HN ES       2354 15.01                             118   -0.05 9  172 183 
 CHI  HZ I        2354 17.02         9.5 0.28            118            172 183 
 ZAR  HZ EP       2353 55.69                             114   -0.04 9  196 318 
 ZAR  HN ES       2354 19.18                             114    0.51 9  196 318 
 ZAR  HZ I        2354 20.90        51.2 0.42            113            196 318 
 HEL  HZ EP       2353 58.34                             113    0.94 8  206 270 
 HEL  HE ES       2354 21.49                             113   -0.16 8  206 270 
 HEL  HZ I        2354 27.39         8.6 0.26            112            206 270 
 GUY2CHZ EP       2353 59.35                             112    0.68 8  216 241 
 GUY2CHN ES       2354 24.85                             112    0.95 8  216 241 
 GUY2CHZ I        2354 30.89        12.1 0.50                           216 241 
 OCA  HZ EP       2354  0.36                             110    0.55 8  230   9 
 OCA  HE ES       2354 26.10                             110    0.17 8  230   9 
 OCA  HZ I        2354 32.33        29.0 0.38            109            230   9 
 SML  HZ EP       2354  6.13                             104   -0.76 7  293 351 
 SML  HE ES       2354 38.31                             104   -0.23 7  293 351 
 SML  HZ I        2354 43.61        17.3 0.26            104            293 351 
 PRA  HZ EP       2354  7.83                             104   -0.63 7  305 206 
 PRA  HN ES       2354 40.97                             104   -0.35 7  305 206 
 PRA  HZ I        2354 46.80        14.1 0.26            103            305 206 
 ORTC HZ EP       2354  8.13                             104   -0.53 7  307 215 
 ORTC HE ES       2354 42.59                             104    0.90 7  307 215 
 ORTC HZ I        2354 48.04         7.0 0.40            103            307 215 
                                                                                
