 2012  120 2124 56.5 L   6.745 -73.194143.8  RSN  6 0.2 1.6LRSN                1
 GAP=228        0.40       3.9     4.1  4.7  0.9731E+01  0.8747E+00 -0.3348E+01E
 Epicentro: VILLANUEVA - SANTANDER                                             3
 ACTION:UP  12-02-03 08:19 OP:REBC STATUS:               ID:20120120212455 L   I
 2012-01-20-2120-00M.COL___187                                                 6
 STAT SP IPHASW D HRMM SECON CODA AMPLIT PERI AZIMU VELO SNR AR TRES W  DIS CAZ7
 BAR2 SZ ES   2   2125 30.84                             173     0.1 5   17 176 
 BAR2 SZ I        2125 32.10        20.9 0.11                            17 176 
 BRR  HZ EP       2125 17.45                             153     0.110   70 305 
 BRR  HE ES   3   2125 33.40                             153    -0.2 2   70 305 
 RUS  HZ EP   1   2125 19.43                             145    -0.2 7   95 173 
 RUS  HN ES       2125 37.67                             145     0.010   95 173 
 RUS  HZ I        2125 39.34         7.1 0.36                            95 173 
 PTB  HZ EP   2   2125 22.33                             133    -0.4 5  141 261 
 PTB  HN ES   1   2125 43.18                             133     0.0 7  141 261 
 PTB  HZ I        2125 48.34         2.9 0.22                           141 261 
 ZAR  HE ES   2   2125 53.41                             122    -0.1 4  202 294 
 ZAR  HZ I        2125 58.79         4.0 0.24                           202 294 
 CHI  HZ EP   1   2125 33.46                             117     0.2 6  241 194 
 CHI  HZ I        2126  8.39         2.3 0.28                           241 194 
                                                                                
