 2012 1120 2041 13.4 L   6.815 -73.158140.1  RSN 26 0.6 3.2LRSN 3.7WRSN        1
 SPEC AVERAGE  MO 14.6 ST 20.8 OM  2.7 f0 3.25 R0.4688 AL 2.41 WI 29.8 MW  3.7 3
 SPEC SD       MO  0.2 ST 13.2 OM  0.5 f00.635 R0.0836 AL      WI      MW  0.1 3
 GAP= 70        1.34       2.5     3.3  5.0 -0.5475E+00  0.5283E+01  0.1332E+01E
 Epicentro: LOS SANTOS - SANTANDER                                             3
 SPEC ZAR HH N MO 14.7 ST 29.4 OM  2.9 f0 3.60 R0.4083 AL 2.35 WI 38.5 MW  3.7 3
 SPEC ZAR HH N T2042 9 K 0.000 GD  245 VS 4.20 DE 3.00 Q0230.0 QA 0.60 VS 4.20 3
 SPEC TAM HH Z MO 14.5 ST  8.8 OM  2.0 f0 2.80 R0.5250 AL 1.64 WI 15.7 MW  3.6 3
 SPEC TAM HH Z T204140 K 0.000 GD  210 VP 7.60 DE 3.00 Q0230.0 QA 0.60 VS 4.20 3
 SPEC SJC HH N MO 14.7 ST  8.5 OM  2.7 f0 2.30 R0.6391 AL 2.13 WI 37.1 MW  3.7 3
 SPEC SJC HH N T204248 K 0.000 GD  430 VS 4.20 DE 3.00 Q0230.0 QA 0.60 VS 4.20 3
 SPEC PRA HH N MO 14.5 ST 17.0 OM  2.5 f0 3.42 R0.4298 AL 2.57 WI 24.9 MW  3.6 3
 SPEC PRA HH N T204247 K 0.000 GD  417 VS 4.20 DE 3.00 Q0230.0 QA 0.60 VS 4.20 3
 SPEC ROSCBH Z MO 14.6 ST 12.8 OM  2.0 f0 2.85 R0.5158 AL 2.67 WI 29.4 MW  3.7 3
 SPEC ROSCBH Z T204151 K 0.000 GD  290 VP 7.60 DE 3.00 Q0230.0 QA 0.60 VS 4.20 3
 SPEC MON HH E MO 14.4 ST 10.2 OM  2.5 f0 2.98 R0.4933 AL 2.13 WI 27.9 MW  3.6 3
 SPEC MON HH E T204238 K 0.000 GD  378 VS 4.20 DE 3.00 Q0230.0 QA 0.60 VS 4.20 3
 SPEC NOR HH N MO 14.9 ST 50.5 OM  3.1 f0 3.57 R0.4118 AL 3.04 WI 27.1 MW  3.9 3
 SPEC NOR HH N T204212 K 0.000 GD  273 VS 4.20 DE 3.00 Q0230.0 QA 0.60 VS 4.20 3
 SPEC ANILHH Z MO 14.8 ST 27.8 OM  2.1 f0 3.11 R0.4727 AL 1.91 WI 37.6 MW  3.8 3
 SPEC ANILHH Z T2042 3 K 0.000 GD  384 VP 7.60 DE 3.00 Q0230.0 QA 0.60 VS 4.20 3
 SPEC CHI HH N MO 14.4 ST 10.2 OM  2.6 f0 3.03 R0.4851 AL 2.68 WI 43.6 MW  3.6 3
 SPEC CHI HH N T204218 K 0.000 GD  286 VS 4.20 DE 3.00 Q0230.0 QA 0.60 VS 4.20 3
 SPEC BRR HH Z MO 14.3 ST 32.8 OM  2.0 f0 4.79 R0.3069 AL 2.97 WI 16.5 MW  3.5 3
 SPEC BRR HH Z T204134 K 0.000 GD  156 VP 7.60 DE 3.00 Q0230.0 QA 0.60 VS 4.20 3
 ACTION:UPD 12-12-05 15:34 OP:}ep  STATUS:               ID:20121120204113 L   I
 2012-11-20-2040-00M.COL___233                                                 6
 STAT SP IPHASW D HRMM SECON CODA AMPLIT PERI AZIMU VELO AIN AR TRES W  DIS CAZ7
 BAR2 SZ IP       2041 32.55                             169    0.1310 24.8 186 
 BAR2 SZ ES       2041 47.11                             169   -0.1110 24.8 186 
 BAR2 SZ I        2041 48.03       403.0 0.28                          24.8 186 
 GIR2 SZ IP       2041 32.66                             167    0.2710 29.4 352 
 GIR2 SZ ES       2041 47.33                             167    0.1610 29.4 352 
 BRR  HZ IP     D 2041 34.50                             152    0.6310 69.2 298 
 BRR  HZ I        2041 34.62       210.8 0.26                          69.2 298 
 BRR  HE ES       2041 50.22                             152    0.4210 69.2 298 
 PAM  SZ IP       2041 35.44                             150    0.4110 77.0  41 
 PAM  SZ I        2041 35.80       387.7 0.22                          77.0  41 
 PAM  SN ES       2041 52.36                             150    0.4910 77.0  41 
 RUS  HZ IP     C 2041 36.47                             142   -0.3010  102 175 
 RUS  HN ES       2041 54.14                             142   -0.8310  102 175 
 RUS  HN I        2041 55.39       312.0 0.40                           102 175 
 PTB  HZ EP       2041 39.13                             131   -0.73 9  147 258 
 PTB  HN ES       2041 59.55                             131   -0.92 9  147 258 
 PTB  HN I        2042  2.40       243.9 0.26                           147 258 
 TAM  HZ IP     D 2041 40.88                             129    0.04 9  157 105 
 TAM  HN ES       2042  2.16                             129   -0.05 9  157 105 
 TAM  HN I        2042  2.82       399.9 0.30                           157 105 
 OCA  HZ EP       2041 40.73                             129   -0.41 9  158 354 
 OCA  HN ES       2042  2.39                             129   -0.36 9  158 354 
 ZAR  HZ EP       2041 45.69                             121    0.36 9  202 292 
 ZAR  HN ES       2042 11.02                             121    0.82 9  202 292 
 ZAR  HN I        2042 17.21       217.0 0.22                           202 292 
 NOR  HZ EP       2041 48.55                             117   -0.29 8  235 234 
 NOR  HN ES       2042 15.48                             117   -0.96 8  235 234 
 NOR  HN I        2042 21.89       166.9 0.26                           235 234 
 SML  HZ IPg      2041 49.72                             116    0.19 8  242 335 
 SML  HE ES       2042 17.60                             116   -0.08 8  242 335 
 SML  HN I        2042 21.95       190.9 0.30                           242 335 
 CHI  HZ EP       2041 50.72                             116   -0.25 8  250 195 
 CHI  HN ES       2042 19.53                             116   -0.71 8  250 195 
 CHI  HN I        2042 25.73        91.0 0.24                           250 195 
 ROSC BZ EP       2041 52.27                             115    0.93 8  254 211 
 ROSC BN ES       2042 21.64                             115    0.74 8  254 211 
 ROSC BZ I        2042 28.79        76.9 0.45                           254 211 
 HEL  HZ EP       2041 53.88                             114    0.61 8  271 255 
 HEL  HE ES       2042 25.00                             114    0.66 8  271 255 
 HEL  HN I        2042 34.81        56.0 0.36                           271 255 
 CVER SZ EP       2041 54.59                             113    0.95 8  273 202 
 GUY  SZ EP   1   2041 58.35                             111    1.30 5  303 235 
 GUY  SN ES       2042 30.56                             111   -0.49 7  303 235 
 VIL  SZ EP       2041 56.42                             111   -0.34 7  305 191 
 VIL  SN ES       2042 29.74                             111   -0.81 7  305 191 
 RREF HZ EP       2042  0.37                             110    1.02 7  322 229 
 RREF HN ES       2042 35.83                             110    0.67 7  322 229 
 RREF HZ I        2042 46.06        44.2 0.52                           322 229 
 DBB  SZ EP       2042  0.61                             108    0.08 7  338 274 
 DBB  SZ ES       2042 36.99                             108   -0.26 7  338 274 
 DBB  SZ I        2042 43.39        72.1 0.46                           338 274 
 TOL  SZ EP       2042  2.30                             108    0.79 7  344 224 
 COD  HZ EP       2042  0.92                             108   -0.47 6  346 355 
 COD  HN ES       2042 38.76                             108   -0.03 6  346 355 
 COD  HN I        2042 41.40        26.4 0.30                           346 355 
 MON  HZ IPg      2042  0.52                             108   -1.47 6  352 308 
 MON  HN ES       2042 38.98                             108   -0.87 6  352 308 
 MON  HN I        2042 42.42        58.6 0.26                           352 308 
 ANIL HZ EP       2042  4.09                             107    1.02 6  358 224 
 ANIL HE ES       2042 42.44                             107    0.67 6  358 224 
 ANIL HZ I        2042 47.52       138.0 0.26                           358 224 
 PRA  HZ EP       2042  6.37                             105   -0.50 6  393 209 
 PRA  HN ES       2042 47.79                             105   -0.75 6  393 209 
 PRA  HN I        2042 52.98        36.1 0.42                           393 209 
 SJC  HN IPg      2042  7.63                             105   -0.94 6  407 327 
 SJC  HN ESg      2042 51.07                             105   -0.50 6  407 327 
 SJC  HN I        2042 52.16        65.1 0.46                           407 327 
 SMAR HZ EP       2042 17.87                             101   -1.07 4  495 346 
 SMAR HE I        2043  8.41        32.3 0.20                           495 346 
                                                                                
