 2010  620 2119 18.8 L   7.560 -73.186147.2  RSN  4 0.1 1.8LRSN                1
 GAP=175        0.35      15.2    12.6  3.3 -0.1869E+03  0.5909E+01 -0.6069E+01E
 Epicentro: EL PLAYON - SANTANDER                                              3
 ACTION:UP  10-08-24 10:11 OP:vdl  STATUS:               ID:20100620211918 L   I
 2010-06-20-2114-44S.COL___117                                                 6
 STAT SP IPHASW D HRMM SECON CODA AMPLIT PERI AZIMU VELO SNR AR TRES W  DIS CAZ7
 GUE  SZ EP   1   2119 39.01                             164    -0.2 7   41  44 
 GUE  SZ ES   1   2119 55.30                             164     0.2 7   41  44 
 BRI  SZ EP   1   2119 39.30                             162     0.1 7   46  68 
 BRI  SZ ES   1   2119 55.00                             162    -0.1 7   46  68 
 GRA  SZ IP       2119 39.50                             158     0.010   55  50 
 GRA  SZ ES   1   2119 55.58                             158    -0.1 7   55  50 
 BRR  HZ IP     C 2119 40.44                             151     0.010   77 229 
 BRR  HZ I        2119 40.63        11.0 0.08                            77 229 
 BRR  HN ES       2119 57.22                             151     0.010   77 229 
                                                                                
