 2016 1220 2205 31.2 L   6.781 -73.162140.9  RSN  5 0.3 1.3LRSN                1
 GAP=135        0.78       4.3     4.3  6.3 -0.4030E+01  0.7558E+01 -0.2658E+01E
 Epicentro: LOS SANTOS - SANTANDER                                             3
 ACTION:UPD 17-01-11 20:17 OP:rebc STATUS:               ID:20161220220530 L   I
 OLDACT:UP  16-12-26 16:20 OP:nlst STATUS:               ID:20161220220530 L   3
 OLDACT:UP  16-12-21 04:48 OP:ar   STATUS:               ID:20161220215745     3
 OLDACT:REG 16-12-21 03:07 OP:ar   STATUS:               ID:20161220215745     3
 2016-12-20-2158-00M.COL___381                                                 6
 STAT SP IPHASW D HRMM SECON CODA AMPLIT PERI AZIMU VELO AIN AR TRES W  DIS CAZ7
 BAR2 EZ ES       22 6  4.93                             171   -0.0910 21.0 186 
 BAR2 EZ I        22 6  5.70         7.7 0.32            171           21.0 186 
 BRR  HZ EP       22 5 52.10                             152    0.3010 70.7 301 
 BRR  HN ES   2   22 6  8.44                             152    0.58 5 70.7 301 
 PAM  EZ IP     C 22 5 53.06                             149   -0.0110 80.1  40 
 PAM  EE ES       22 6  9.95                             149   -0.1810 80.1  40 
 PAM  EZ I        22 6 11.48         2.8 0.58            151           80.1  40 
 RUS  HZ EP       22 5 54.75                             143    0.4110 98.6 175 
 RUS  HN ES       22 6 12.30                             143   -0.0810 98.6 175 
 RUS  HZ I        22 6 14.40         2.4 0.40            144           98.6 175 
 PTB  HZ EP       22 5 56.96                             131   -0.62 9  146 259 
 PTB  HE ES       22 6 18.22                             131    0.07 9  146 259 
 PTB  HZ I        22 6 21.15         2.3 0.14            132            146 259 
                                                                                
