 2010  820 2239 39.7 L   6.810 -73.035140.3  RSN  8 0.4 2.1LRSN                1
 GAP=171        0.85       4.3    10.6  7.6 -0.1574E+02 -0.2501E+00  0.1639E+01E
 Epicentro: CEPITA - SANTANDER                                                 3
 ACTION:UP  10-09-07 10:56 OP:vdl  STATUS:               ID:20100820223939 L   I
 2010-08-20-2238-27S.COL___120                                                 6
 STAT SP IPHASW D HRMM SECON CODA AMPLIT PERI AZIMU VELO SNR AR TRES W  DIS CAZ7
 BAR2 SZ IP       2239 59.10                             167     0.210   29 214 
 BAR2 SZ ES   1   2240 13.32                             167    -0.5 7   29 214 
 BAR2 SZ I        2240 15.40        34.9 0.15                            29 214 
 GIR2 SZ EP   2   2240  0.06                             166     1.2 5   34 329 
 BRR  HZ IP     C 2240  0.90                             148    -0.110   82 294 
 BRR  HZ I        2240  1.17        35.6 0.18                            82 294 
 BRR  HN ES   2   2240 17.91                             148     0.4 5   82 294 
 RUS  HZ EP       2240  3.19                             142     0.110  102 183 
 RUS  HN ES   2   2240 20.92                             142    -0.3 5  102 183 
 RUS  HZ I        2240 23.15        16.1 0.16                           102 183 
 GRA  SZ IP       2240  3.88                             137    -0.310  122  12 
 GRA  SZ I        2240  5.30        15.8 0.49                           122  12 
 GRA  SZ ES   1   2240 23.39                             137     0.2 7  122  12 
 OCA  SZ EP   1   2240  7.18                             128    -0.5 7  161 349 
 OCA  SZ I        2240 35.55        16.7 0.18                           161 349 
 CHI  HZ EP   3   2240 17.97                             115     0.3 2  253 198 
 CHI  HE ES   2   2240 47.62                             115     0.4 4  253 198 
 CHI  HZ I        2240 53.15         3.7 0.35                           253 198 
 PRA  HZ EP       2240 33.79                             105    -0.1 6  399 211 
 PRA  HE ES   3   2241 15.24                                    -0.9 1  399 211 
 PRA  HZ I        2241 21.82         5.7 0.55                           399 211 
                                                                                
