 2017  920 2150 19.6 L   6.785 -73.104144.3  RSN  5 0.2 1.4LRSN                1
 GAP=161        0.63       5.0     6.1  5.5 -0.2070E+02  0.1097E+02 -0.1378E+01E
 Epicentro: LOS SANTOS - SANTANDER                                             3
 ACTION:UPD 17-10-05 19:14 OP:rebc STATUS:               ID:20170920215019 L   I
 OLDACT:UP  17-09-21 07:15 OP:mg   STATUS:               ID:20170920214738     3
 OLDACT:REG 17-09-21 05:07 OP:mg   STATUS:               ID:20170920214738     3
 2017-09-20-2148-00M.COL___450                                                 6
 STAT SP IPHASW D HRMM SECON CODA AMPLIT PERI AZIMU VELO AIN AR TRES W  DIS CAZ7
 BAR2 EZ EP       2150 38.69                             170   -0.3610 23.0 202 
 BAR2 EZ ES       2150 53.92                             170   -0.3010 23.0 202 
 BAR2 EZ I        2150 56.23         4.9 0.48            167           23.0 202 
 PAM  EZ EP       2150 41.60                             151    0.0310 75.9  36 
 PAM  EN ES       2150 58.98                             151    0.2710 75.9  36 
 PAM  EZ I        2151  0.94         5.6 0.54            154           75.9  36 
 RUS  HZ EP       2150 43.14                             144    0.0610 98.7 179 
 RUS  HN ES   1   2151  1.65                             144    0.27 7 98.7 179 
 RUS  HZ I        2151  4.02         4.9 0.44            142           98.7 179 
 NOR  HZ EP   1   2150 55.43                             118   -0.12 6  238 235 
 NOR  HN ES       2151 23.87                             118    0.28 8  238 235 
 NOR  HZ I        2151 26.43         1.7 0.15            119            238 235 
 CHI  HZ EP   9   2150 55.98                             117   -1.20 0  248 196 
 CHI  HN ES   4   2151 25.44                             117    0.15 0  248 196 
 CHI  HZ I        2151 31.68         1.3 0.19            117            248 196 
                                                                                
