 2013  920 2111 20.3 L   6.373 -73.555116.8  RSN  9 0.3 2.2LRSN                1
 GAP= 76        0.83       2.8     2.9  5.1 -0.1333E+01  0.4306E+01 -0.1069E+01E
 Epicentro: SANTA HELENA DEL OPON - SANTANDER                                  3
 ACTION:UPD 13-10-22 09:23 OP:ep   STATUS:               ID:20130920211120 L   I
 OLDACT:UP  13-09-20 22:37 OP:cam  STATUS:               ID:20130920210959     3
 OLDACT:REG 13-09-20 22:06 OP:cam  STATUS:               ID:20130920210959     3
 2013-09-20-2109-59M.COL___269                                                 6
 STAT SP IPHASW D HRMM SECON CODA AMPLIT PERI AZIMU VELO AIN AR TRES W  DIS CAZ7
 BAR2 SZ EP       2111 37.50                             156    0.1610 47.8  60 
 BAR2 SZ ES       2111 50.70                             156    0.0410 47.8  60 
 BAR2 SZ I        2111 51.44       189.9 0.46            155           47.8  60 
 RUS  HZ EP     D 2111 39.13                             146   -0.1710 74.5 135 
 RUS  HE ES       2111 54.01                             146   -0.1310 74.5 135 
 RUS  HZ I        2111 57.62        18.0 0.46            145           74.5 135 
 BRR  HZ EP       2111 39.36                             142    0.1510 83.0 348 
 BRR  HE ES       2111 54.53                             142    0.5410 83.0 348 
 PTB  HZ EP     C 2111 40.30                             136   -0.4110  101 280 
 PTB  HN ES       2111 56.20                             136   -0.4510  101 280 
 PTB  HZ I        2111 56.66        24.5 0.14            136            101 280 
 PAM  SZ EP       2111 44.95                             126   -0.21 9  143  41 
 PAM  SN ES       2112  4.46                             126   -0.12 9  143  41 
 PAM  SZ I        2112  8.03         9.9 0.40            125            143  41 
 NOR  HZ EP       2111 47.64                             120    0.16 9  171 238 
 NOR  HE ES       2112  8.77                             120    0.07 9  171 238 
 NOR  HZ I        2112 11.66        17.5 0.68            121            171 238 
 ZAR  HZ EP       2111 50.02                             117    0.56 9  190 311 
 ZAR  HN ES   4   2112 13.90                             117    1.68 0  190 311 
 CHI  HZ EP   1   2111 51.08                             117    0.67 6  194 186 
 GUY2CHZ EP   4   2111 57.13                             112    1.80 0  237 238 
 SML  HZ EP   1   2111 58.26                             108   -0.73 6  274 348 
 SML  HE ES       2112 29.02                             108   -0.17 8  274 348 
 SML  HZ I        2112 35.31        28.6 0.10            108            274 348 
                                                                                
