 2017 1220 2034 58.7 L   6.758 -73.128136.8  RSN  4 0.4 1.4LRSN                1
 GAP=162        0.92       8.0     4.9  8.7 -0.1433E+02  0.1745E+02 -0.1184E+02E
 Epicentro: LOS SANTOS - SANTANDER                                             3
 ACTION:UPD 18-01-04 13:22 OP:rebc STATUS:               ID:20171220203458 L   I
 OLDACT:REG 17-12-21 06:12 OP:lv   STATUS:               ID:20171220202413     3
 2017-12-20-2028-00M.COL___446                                                 6
 STAT SP IPHASW D HRMM SECON CODA AMPLIT PERI AZIMU VELO AIN AR TRES W  DIS CAZ7
 BAR2 EZ EP       2035 17.47                             172    0.3210 19.3 198 
 BAR2 EZ ES       2035 31.49                             172   -0.0710 19.3 198 
 BAR2 EZ I        2035 33.16         8.6 0.16            171           19.3 198 
 PAM  EZ EP       2035 20.46                             148    0.3610 79.8  36 
 PAM  EN ES       2035 36.53                             148   -0.2810 79.8  36 
 PAM  EZ I        2035 38.26         3.8 0.28            151           79.8  36 
 PTB  HZ EP       2035 24.31                             130   -0.72 9  149 261 
 PTB  HN ES       2035 45.85                             130    0.26 9  149 261 
 PTB  HZ I        2035 48.55         3.2 0.44            131            149 261 
 ZAR  HN ES       2035 56.19                             120    0.09 8  208 293 
                                                                                
