 2014  320 2320 36.6 L   6.793 -73.140149.6  RSN 17 0.4 2.4LRSN                1
 GAP=138        0.90       2.6     3.5  4.9 -0.1920E+01  0.3541E+01 -0.1416E+01E
 Epicentro: LOS SANTOS - SANTANDER                                             3
 ACTION:UPD 14-04-09 23:19 OP:nd   STATUS:               ID:20140320232036 L   I
 OLDACT:REG 14-03-20 21:50 OP:nd   STATUS:               ID:20140320231844     3
 2014-03-20-2318-44M.COL___243                                                 6
 STAT SP IPHASW D HRMM SECON CODA AMPLIT PERI AZIMU VELO AIN AR TRES W  DIS CAZ7
 BAR2 SZ EP       2320 56.57                             171   -0.1010 22.7 192 
 BAR2 SZ ES   1   2321 11.77                             171   -0.56 7 22.7 192 
 BAR2 SZ I        2321 13.56        76.9 0.44            169           22.7 192 
 BRR  HZ EP       2320 58.57                             153    0.3610 72.1 299 
 BRR  HN ES       2321 15.79                             153    0.7310 72.1 299 
 BRR  HZ I        2321 20.91        32.4 0.42            148           72.1 299 
 PAM  SZ EP       2320 59.53                             151    0.3010 77.6  39 
 PAM  SN ES       2321 16.83                             151   -0.0510 77.6  39 
 PAM  SZ I        2321 19.19        15.7 0.58            154           77.6  39 
 RUS  HZ EP       2321  0.78                             145    0.1210 99.8 176 
 RUS  HN ES       2321 19.41                             145   -0.0310 99.8 176 
 RUS  HZ I        2321 20.35        27.5 0.26            147           99.8 176 
 PTB  HZ EP       2321  3.26                             133   -0.66 9  148 259 
 PTB  HN ES       2321 24.59                             133   -0.64 9  148 259 
 PTB  HZ I        2321 27.73        37.4 0.28            131            148 259 
 OCA  HZ EP       2321  5.27                             130   -0.01 9  161 353 
 OCA  HN ES   2   2321 27.65                             130   -0.00 5  161 353 
 OCA  HZ I        2321 32.65        19.2 0.18            130            161 353 
 ZAR  HZ EP   1   2321  9.21                             123   -0.17 6  205 292 
 ZAR  HN ES   1   2321 34.60                             123   -0.35 6  205 292 
 ZAR  HZ I        2321 40.79        31.7 0.38            122            205 292 
 NOR  HZ EP       2321 12.42                             119   -0.13 8  235 235 
 NOR  HN ES       2321 40.74                             119    0.14 8  235 235 
 NOR  HZ I        2321 44.99        28.1 0.20            119            235 235 
 SML  HZ EP       2321 13.12                             118   -0.42 8  245 335 
 SML  HN ES   2   2321 42.52                             118    0.17 4  245 335 
 SML  HZ I        2321 49.52        32.5 0.10            118            245 335 
 CHI  HZ EP       2321 14.67                             118    0.23 8  248 195 
 CHI  HN ES       2321 43.86                             118   -0.11 8  248 195 
 CHI  HZ I        2321 50.00        12.1 0.26            119            248 195 
 HEL  HZ EP   4   2321 18.50                             116    1.45 0  272 256 
 HEL  HN ES       2321 49.40                             116    0.80 8  272 256 
 HEL  HZ I        2321 55.92        12.1 0.34            115            272 256 
 URE  HZ EP   4   2321 16.47                             114   -1.48 0  285 292 
 URE  HN ES   4   2321 47.60                             114   -2.60 0  285 292 
 URE  HZ I        2322  1.76        21.2 0.22            114            285 292 
 GUY2CHZ EP   4   2321 21.94                             113    1.55 0  301 235 
 GUY2CHN ES   4   2321 57.28                             113    2.73 0  301 235 
 GUY2CHZ I        2322  2.55        13.1 0.48                           301 235 
 PTGC HZ EP   4   2321 19.58                             112   -0.94 0  308 159 
 PTGC HN ES   4   2321 52.87                             112   -1.91 0  308 159 
 PTGC HZ I        2321 53.62        15.7 0.58            114            308 159 
 RREF HZ EP   4   2321 24.06                             112    1.16 0  322 230 
 RREF HN ES   4   2322  2.67                             112    3.65 0  322 230 
 RREF HZ I        2322  8.14        15.0 0.34            112            322 230 
 COD  HZ EP       2321 25.73                             110    0.51 6  349 355 
 COD  HN ES       2322  2.73                             110   -0.41 6  349 355 
 COD  HZ I        2322 11.51         6.6 0.80            110            349 355 
 SJC  HZ EP   4   2321 30.87                             106   -1.53 0  410 327 
 SJC  HN ES   4   2322 12.51                             106   -3.41 0  410 327 
 SJC  HZ I        2322 16.35         5.2 0.50            106            410 327 
                                                                                
