 2010 1120 2223 50.7 L   6.801 -73.036138.1  RSN  5 0.4 1.5LRSN                1
 GAP=171        1.17      11.5    16.9 23.1 -0.9946E+02 -0.2242E+03  0.1448E+03E
 Epicentro: CEPITA - SANTANDER                                                 3
 ACTION:UP  10-12-17 16:53 OP:REBC STATUS:               ID:20101120222350 L   I
 2010-11-20-2221-27S.COL___132                                                 6
 STAT SP IPHASW D HRMM SECON CODA AMPLIT PERI AZIMU VELO SNR AR TRES W  DIS CAZ7
 BTL  SZ EP       2224 10.07                             168     0.610   29 297 
 BRR  HZ EP       2224 11.13                             148    -0.510   82 294 
 BRR  HZ I        2224 11.38        11.0 0.17                            82 294 
 BRR  HE ES   1   2224 28.23                             148     0.2 7   82 294 
 RUS  HZ EP   1   2224 13.40                             142    -0.3 7  101 183 
 RUS  HZ I        2224 33.14         2.5 0.66                           101 183 
 GUE  SZ EP       2224 14.87                             139     0.310  114   6 
 GRA  SZ ES   1   2224 33.40                             136    -0.5 7  123  12 
                                                                                
