 2015  220 2151  1.8 L   6.842 -73.162141.6  RSN 15 0.5 2.4LRSN                1
 GAP= 69        1.37       3.4     4.2  6.5 -0.1747E+01  0.7053E+01  0.3589E+01E
 Epicentro: LOS SANTOS - SANTANDER                                             3
 ACTION:UPD 15-04-30 21:28 OP:nd   STATUS:               ID:20150220215101 L   I
 OLDACT:REG 15-02-21 04:37 OP:stll STATUS:               ID:20150220214748     3
 2015-02-20-2147-48M.COL___290                                                 6
 STAT SP IPHASW D HRMM SECON CODA AMPLIT PERI AZIMU VELO AIN AR TRES W  DIS CAZ7
 BAR2 EZ IP     C 2151 21.17                             168    0.1210 27.7 185 
 BAR2 EZ ES       2151 36.33                             168    0.2810 27.7 185 
 BAR2 EZ I        2151 39.78        36.5 0.44            165           27.7 185 
 BRR  HZ IP     C 2151 22.73                             153    0.4210 67.5 296 
 BRR  HZ I        2151 22.88        55.9 0.14            147           67.5 296 
 BRR  HN ES       2151 38.90                             153    0.6010 67.5 296 
 PAM  SZ EP     C 2151 23.66                             151    0.2010 75.1  43 
 PAM  SN ES       2151 39.99                             151   -0.3410 75.1  43 
 RUS  HZ EP       2151 25.46                             142   -0.0610  105 175 
 RUS  HE ES       2151 44.08                             142    0.0810  105 175 
 RUS  HZ I        2151 45.76        14.2 0.28            139            105 175 
 PTB  HZ EP       2151 27.83                             131   -0.55 9  147 257 
 PTB  HE ES       2151 48.75                             131   -0.35 9  147 257 
 PTB  HZ I        2151 52.32        28.6 0.26            126            147 257 
 OCA  HZ EP       2151 28.87                             130   -0.49 9  155 354 
 OCA  HE ES       2151 51.73                             130    0.89 9  155 354 
 TAM  HZ IP     C 2151 29.73                             129    0.28 9  158 106 
 TAM  HN ES       2151 50.25                             129   -0.75 9  158 106 
 NOR  HZ EP       2151 37.56                             117    0.11 8  236 233 
 NOR  HN ES       2152  3.95                             117   -1.29 8  236 233 
 NOR  HZ I        2152 13.99        15.0 0.16            114            236 233 
 SML  HZ EP       2151 36.96                             117   -0.72 8  239 335 
 SML  HN ES       2152  5.25                             117   -0.40 8  239 335 
 SML  HZ I        2152 10.69        41.1 0.10            114            239 335 
 CHI  HZ EP       2151 40.15                             116    0.42 8  253 195 
 CHI  HN ES       2152  8.92                             116   -0.38 8  253 195 
 CHI  HZ I        2152 14.06         7.1 0.30            113            253 195 
 GUY2CHZ EP       2151 46.36                             111    0.98 7  302 234 
 GUY2CHN ES       2152 19.71                             111    0.35 7  302 234 
 GUY2CHZ I        2152 28.03         8.8 0.40                           302 234 
 DBB  SZ EP       2151 48.71                             109   -0.18 7  337 273 
 DBB  SZ I        2152 29.10        25.3 0.48            106            337 273 
 PRA  HZ EP       2151 55.74                             106    0.17 6  395 209 
 PRA  HN ES       2152 37.93                             106    0.44 6  395 209 
 PRA  HZ I        2152 43.66         7.7 0.30            103            395 209 
 ORTC HZ EP       2151 57.02                             106    1.10 6  398 216 
 ORTC HE ES       2152 37.63                             106   -0.48 6  398 216 
 ORTC HZ I        2152 45.39         7.7 0.40            103            398 216 
 CRJC HZ EP   9   2152  1.08                             103   -2.59 0  463   4 
 CRJC HN ES       2152 46.73                                   -2.60 5  463   4 
                                                                                
