 2013  620 2308 33.3 L   6.791 -73.151143.5  RSN 11 0.5 2.8LRSN                1
 GAP=182        0.93       3.6     5.4  6.5 -0.4958E+01  0.7030E+01  0.1279E+01E
 Epicentro: LOS SANTOS - SANTANDER                                             3
 ACTION:UPD 14-01-08 09:56 OP:ep   STATUS:               ID:20130620230833 L   I
 OLDACT:UP  13-06-20 23:14 OP:mh   STATUS:               ID:20130620230751     3
 OLDACT:UP  13-06-20 23:03 OP:mh   STATUS:               ID:20130620230751     3
 OLDACT:REG 13-06-20 21:23 OP:mh   STATUS:               ID:20130620230751     3
 2013-06-20-2307-51M.COL___224                                                 6
 STAT SP IPHASW D HRMM SECON CODA AMPLIT PERI AZIMU VELO AIN AR TRES W  DIS CAZ7
 BAR2 SZ IP     D 23 8 52.59                             171   -0.0610 22.2 189 
 BAR2 SZ ES   1   23 9  7.48                             171   -0.26 7 22.2 189 
 BRR  HZ IP     C 23 8 54.46                             152    0.2410 71.2 300 
 BRR  HN ES   1   23 9 11.07                             152    0.55 7 71.2 300 
 BRR  HN I        23 9 12.92       136.7 0.22            146           71.2 300 
 RUS  HZ EP   1   23 8 56.49                             144   -0.28 7 99.6 176 
 RUS  HN ES   1   23 9 15.17                             144    0.10 7 99.6 176 
 RUS  HN I        23 9 16.74        47.8 0.38            144           99.6 176 
 PTB  HZ EP       23 8 59.20                             132   -0.83 9  147 259 
 PTB  HN ES       23 9 20.48                             132   -0.38 9  147 259 
 PTB  HN I        23 9 26.06       134.0 0.32            128            147 259 
 OCA  HZ EP   1   23 9  1.80                             129    0.25 7  161 353 
 OCA  HN ES       23 9 23.82                             129    0.26 9  161 353 
 OCA  HN I        23 9 26.25       122.8 0.22            129            161 353 
 NOR  HZ EP   1   23 9  8.79                             118   -0.01 6  234 235 
 NOR  HN ES       23 9 36.47                             118    0.00 8  234 235 
 NOR  HN I        23 9 41.46        79.1 0.16            116            234 235 
 SML  HZ EP   1   23 9  9.03                             117   -0.86 6  244 336 
 SML  HN ES   4   23 9 37.29                             117   -1.13 0  244 336 
 SML  HN I        23 9 42.26        72.2 0.10            116            244 336 
 HEL  HZ EP   1   23 9 14.18                             114    0.86 6  271 256 
 HEL  HN ES   2   23 9 44.72                             114    0.20 4  271 256 
 HEL  HN I        23 9 54.21        15.8 0.24            113            271 256 
 GUY2CHZ EP   1   23 9 17.55                             112    0.85 5  300 235 
 GUY2CHE ES   4   23 9 52.73                             112    2.20 0  300 235 
 GUY2CHE I        23 9 59.96        24.6 0.40                           300 235 
 RREF HZ EP   4   23 9 20.53                             110    1.30 0  321 229 
 RREF HN ES   4   23 9 57.33                             110    2.29 0  321 229 
 RREF HZ I        2310  3.89        16.5 0.38            110            321 229 
 PRA  HZ EP   1   23 9 26.51                             106   -0.11 4  391 210 
 PRA  HN ES       2310  8.96                             106    0.77 6  391 210 
 PRA  HN I        2310 14.26        12.0 0.84            106            391 210 
                                                                                
