 2011  920 2343  2.3 L   6.830 -73.087146.3  RSN 12 0.3 2.1LRSN                1
 GAP=143        0.41       2.4     3.3  4.4 -0.9878E+00  0.5336E+01  0.2052E+01E
 Epicentro: LOS SANTOS - SANTANDER                                             3
 ACTION:UPD 12-07-13 15:58 OP:ep   STATUS:               ID:20110920234302 L   I
 2011-09-20-2341-16S.COL___165                                                 6
 STAT SP IPHASW D HRMM SECON CODA AMPLIT PERI AZIMU VELO AIN AR TRES W  DIS CAZ7
 BTL  SZ EP   2   2343 22.20                             171    0.21 5 22.3 296 
 BAR2 SZ EP   1   2343 21.82                             169   -0.30 7 28.3 202 
 BAR2 SZ ES   2   2343 37.08                             169   -0.49 5 28.3 202 
 BAR2 SZ I        2343 38.64        29.1 0.32                          28.3 202 
 PAM  SZ EP   2   2343 24.56                             153    0.35 5 70.8  37 
 PAM  SN ES   2   2343 41.82                             153    0.53 5 70.8  37 
 BRR  HZ EP   1   2343 23.72                             151   -0.05 7 75.6 294 
 BRR  HZ I        2343 24.04        61.0 0.14                          75.6 294 
 BRR  HN ES   2   2343 41.04                             151    0.52 5 75.6 294 
 RUS  HZ EP   2   2343 26.20                             143   -0.14 5  104 180 
 RUS  HN ES   2   2343 44.76                             143   -0.32 5  104 180 
 RUS  HZ I        2343 46.15         9.5 0.23                           104 180 
 OCA  SZ EP   2   2343 30.28                             130   -0.17 5  158 351 
 OCA  SZ ES   2   2343 52.16                             130   -0.23 5  158 351 
 OCA  SZ I        2343 58.22        22.4 0.37                           158 351 
 ZAR  HZ EP   2   2343 35.13                             122   -0.17 4  209 291 
 ZAR  HN ES   2   2344  0.86                             122   -0.16 4  209 291 
 ZAR  HZ I        2344  5.66        15.8 0.38                           209 291 
 NOR  SZ EP   2   2343 39.03                             118    0.18 4  242 235 
 NOR  SN ES   2   2344  7.57                             118    0.22 4  242 235 
 CHI  HZ EP   2   2343 40.79                             117    0.21 4  254 196 
 CHI  HZ I        2343 42.53         3.7 0.25                           254 196 
 CHI  HN ES   2   2344 11.03                             117    0.60 4  254 196 
 HEL  HZ EP   2   2343 43.27                             114   -0.07 4  279 255 
 HEL  HE ES   2   2344 15.26                             114   -0.09 4  279 255 
 HEL  HZ I        2344 20.89         7.1 0.38                           279 255 
 RREF HZ EP   2   2343 49.55                             110    0.26 3  329 230 
 RREF HN ES   2   2344 25.84                             110   -0.09 3  329 230 
 RREF HZ I        2344 34.07         6.8 0.27                           329 230 
 PRA  HZ EP   2   2343 56.26                             106   -0.31 3  398 210 
 PRA  HE ES   2   2344 39.10                             106    0.22 3  398 210 
                                                                                
