 2016  120 2250 19.9 L   5.795 -73.999103.0  RSN  8 0.5 1.8LRSN                1
 GAP=115        1.16       4.0     3.4  7.9  0.1209E+01  0.3963E+01  0.6582E+01E
 Epicentro: FLORIAN - SANTANDER                                                3
 ACTION:UPD 16-03-09 23:27 OP:cam  STATUS:               ID:20160120225019 L   I
 OLDACT:UP  16-01-21 04:03 OP:drio STATUS:               ID:20160120224748     3
 OLDACT:REG 16-01-21 02:51 OP:drio STATUS:               ID:20160120224748     3
 2016-01-20-2247-48M.COL___320                                                 6
 STAT SP IPHASW D HRMM SECON CODA AMPLIT PERI AZIMU VELO AIN AR TRES W  DIS CAZ7
 SPBC HZ EP       2250 34.14                             170    0.1110 17.8 207 
 SPBC HN ES       2250 45.55                             170    0.4810 17.8 207 
 SPBC HZ I        2250 46.28        55.0 0.18            166           17.8 207 
 PTB  HZ EP       2250 38.97                             133    0.2410 96.6 328 
 PTB  HN ES       2250 53.20                             133   -0.2310 96.6 328 
 PTB  HZ I        2250 53.59        11.3 0.16            133           96.6 328 
 NOR  HZ EP       2250 38.82                             132   -0.2410 99.7 255 
 NOR  HN ES       2250 53.41                             132   -0.6110 99.7 255 
 RUS  HZ EP       2250 40.45                             132    0.6010  102  84 
 RUS  HN ES       2250 55.32                             132   -0.1110  102  84 
 CHI  HZ EP       2250 41.95                             124   -0.7210  132 167 
 CHI  HE ES       2251  0.04                             124   -0.4110  132 167 
 CHI  HZ I        2251  2.77         4.1 0.38            122            132 167 
 GUY2CHZ EP       2250 45.95                             117   -0.15 9  164 247 
 GUY2CHN ES       2251  7.29                             117    0.75 9  164 247 
 GUY2CHZ I        2251 14.09         7.9 0.44                           164 247 
 HEL  HZ EP   4   2250 48.42                             115    1.26 0  175 285 
 HEL  HE ES       2251  8.25                             115   -0.18 9  175 285 
 HEL  HZ I        2251 13.46        10.3 0.24            114            175 285 
 PRA  HZ EP   4   2250 54.04                             106   -1.31 0  250 203 
 PRA  HN ES       2251 23.72                             106    0.70 8  250 203 
 PRA  HZ I        2251 29.51         3.6 0.20            105            250 203 
                                                                                
