 2010  620 2012  5.3 L   6.808 -73.093144.0  RSN  4 0.2 1.2LRSN                1
 GAP=161        0.53       6.3    11.9  8.8  0.5256E+02 -0.5750E+02 -0.2563E+02E
 Epicentro: LOS SANTOS - SANTANDER                                             3
 ACTION:UP  10-08-24 10:11 OP:vdl  STATUS:               ID:20100620201205 L   I
 2010-06-20-2008-52S.COL___118                                                 6
 STAT SP IPHASW D HRMM SECON CODA AMPLIT PERI AZIMU VELO SNR AR TRES W  DIS CAZ7
 BAR2 SZ ES   2   2012 39.55                             170    -0.5 5   26 203 
 BRR  HZ EP   1   2012 26.52                             151    -0.1 7   76 296 
 BRR  HN ES   1   2012 43.26                             151     0.1 7   76 296 
 BRR  HZ I        2012 45.72         3.2 0.13                            76 296 
 RUS  HZ EP   1   2012 28.75                             143    -0.2 7  101 179 
 RUS  HE ES   1   2012 47.66                             143     0.3 7  101 179 
 RUS  HZ I        2012 48.07         2.4 0.17                           101 179 
 BRI  SZ EP   2   2012 29.13                             142     0.3 5  106  18 
                                                                                
