 2012  920 2040 18.5 L   6.778 -73.133141.9  RSN  8 0.3 2.2LRSN                1
 GAP=139        0.67       4.3     3.9  5.7  0.8988E+00  0.5050E+01  0.2479E+01E
 Epicentro: LOS SANTOS - SANTANDER                                             3
 ACTION:UPD 12-10-22 14:19 OP:ep   STATUS:               ID:20120920204018 L   I
 2012-09-20-2040-00M.COL___227                                                 6
 STAT SP IPHASW D HRMM SECON CODA AMPLIT PERI AZIMU VELO AIN AR TRES W  DIS CAZ7
 BAR2 SZ EP   1   2040 37.48                             171   -0.16 7 21.3 195 
 BAR2 SZ ES   1   2040 52.31                             171   -0.25 7 21.3 195 
 BAR2 SZ I        2040 54.26        47.7 0.28                          21.3 195 
 GIR2 SZ EP   1   2040 37.80                             166   -0.01 7 33.9 349 
 GIR2 SZ ES   1   2040 52.45                             166   -0.40 7 33.9 349 
 BRR  HZ EP   1   2040 39.45                             151    0.06 7 73.6 300 
 BRR  HN ES   1   2040 56.42                             151    0.75 7 73.6 300 
 BRR  HZ I        2040 59.79        31.6 0.23                          73.6 300 
 PAM  SZ EP   1   2040 40.37                             150   -0.02 7 78.4  38 
 PAM  SN ES   1   2040 57.59                             150    0.15 7 78.4  38 
 PAM  SN I        2040 58.59        31.7 0.22                          78.4  38 
 RUS  HZ EP   1   2040 41.46                             144   -0.25 7 98.1 177 
 RUS  HN ES   1   2041  0.16                             144    0.36 7 98.1 177 
 RUS  HZ I        2041  1.31        14.2 0.52                          98.1 177 
 PTB  HN ES   1   2041  5.78                             131   -0.34 7  149 260 
 PTB  HN I        2041  6.21        22.8 0.18                           149 260 
 ZAR  HE ES   1   2041 15.92                             121   -0.32 6  206 293 
 ZAR  HZ I        2041 21.94        20.4 0.36                           206 293 
 HEL  HZ EP   1   2040 59.13                             114    0.51 6  273 256 
 HEL  HZ I        2041 36.28        10.0 0.32                           273 256 
                                                                                
