 2014  220 2201 38.7 L   6.822 -73.182141.7  RSN  9 0.4 1.7LRSN                1
 GAP=131        0.77       2.7     3.6  6.0 -0.1507E+01  0.8010E+01 -0.9318E-01E
 Epicentro: ZAPATOCA - SANTANDER                                               3
 ACTION:UPD 14-03-10 08:11 OP:ep   STATUS:               ID:20140220220138 L   I
 OLDACT:UP  14-02-21 02:02 OP:mh   STATUS:               ID:20140220220000     3
 OLDACT:REG 14-02-20 22:14 OP:mh   STATUS:               ID:20140220220000     3
 2014-02-20-2200-00M.COL___215                                                 6
 STAT SP IPHASW D HRMM SECON CODA AMPLIT PERI AZIMU VELO AIN AR TRES W  DIS CAZ7
 PAM  SZ EP   1   22 2  0.80                             150    0.29 7 78.2  43 
 PAM  SN ES       22 2 17.98                             150    0.4410 78.2  43 
 PAM  SZ I        22 2 20.31        10.6 0.48            153           78.2  43 
 RUS  HZ EP       22 2  1.94                             142   -0.3010  103 174 
 RUS  HN ES       22 2 20.32                             142   -0.2910  103 174 
 RUS  HZ I        22 2 23.57         4.3 0.19            147            103 174 
 PTB  HZ EP       22 2  4.94                             132   -0.07 9  144 258 
 PTB  HN ES       22 2 25.35                             132   -0.19 9  144 258 
 PTB  HZ I        22 2 28.36         5.5 0.20            132            144 258 
 SPBC HN ES   1   22 2 28.80                             128    0.04 7  163 217 
 ZAR  HZ EP   1   22 2 11.21                             122    0.83 6  199 292 
 ZAR  HN ES   2   22 2 35.35                             122    0.24 4  199 292 
 ZAR  HZ I        22 2 43.20         3.7 0.07            123            199 292 
 NOR  HZ EP   1   22 2 14.64                             118    0.66 6  233 233 
 NOR  HN ES       22 2 41.68                             118    0.17 8  233 233 
 NOR  HZ I        22 2 45.91         3.5 0.22            120            233 233 
 SML  HZ EP   1   22 2 14.11                             117   -0.55 6  240 336 
 SML  HN ES       22 2 42.19                             117   -0.53 8  240 336 
 SML  HZ I        22 2 50.55        13.6 0.08            118            240 336 
 CHI  HZ EP       22 2 16.17                             116   -0.13 8  250 194 
 PRA  HZ EP   1   22 2 32.28                             106    0.20 4  392 209 
 PRA  HE ES   1   22 3 13.92                             106    0.19 4  392 209 
 PRA  HZ I        22 3 19.39         1.5 0.25            108            392 209 
                                                                                
