 2017  720 2208 52.5 L   5.923 -73.895100.8  RSN 11 0.4 1.6LRSN                1
 GAP=107        1.11       2.8     2.9  6.2 -0.2340E+01  0.4762E+01 -0.1717E+01E
 Epicentro: LA BELLEZA - SANTANDER                                             3
 ACTION:UPD 17-08-30 15:35 OP:rebc STATUS:               ID:20170720220852 L   I
 OLDACT:REG 17-07-21 02:35 OP:dhb  STATUS:               ID:20170720220739     3
 2017-07-20-2208-00M.COL___395                                                 6
 STAT SP IPHASW D HRMM SECON CODA AMPLIT PERI AZIMU VELO AIN AR TRES W  DIS CAZ7
 SPBC HZ IP     C 22 9  6.80                             159   -0.2210 35.8 213 
 SPBC HN ES       22 9 18.69                             159    0.3610 35.8 213 
 SPBC HZ I        22 9 19.80        32.2 0.02            158           35.8 213 
 RUS  HZ IP     D 22 9 10.79                             135   -0.4610 89.9  92 
 RUS  HN ES       22 9 25.51                             135   -0.3410 89.9  92 
 RUS  HZ I        22 9 26.91         5.4 0.17            139           89.9  92 
 PTB  HZ EP       22 9 10.18                             134   -0.6210 92.2 318 
 PTB  HN ES       22 9 24.55                             134   -0.5010 92.2 318 
 PTB  HZ I        22 9 27.48         4.6 0.09            136           92.2 318 
 TABC EZ EP       22 9 12.93                             130    0.2310  106 199 
 TABC EZ ES       22 9 28.91                             130    0.4710  106 199 
 TABC EZ I        22 9 37.74         8.0 0.42            131            106 199 
 BAR2 EZ IP     C 22 9 12.75                             129    0.1910  108  47 
 BAR2 EZ ES       22 9 28.26                             129    0.0910  108  47 
 NOR  HZ EP       22 9 12.43                             127   -0.5410  115 250 
 NOR  HN ES       22 9 28.82                             127   -0.1010  115 250 
 NOR  HZ I        22 9 30.57        11.1 0.16            129            115 250 
 BRR  HZ IP     C 22 9 15.42                             122    0.7710  132   9 
 BRR  HN ES       22 9 32.21                             122    0.3010  132   9 
 BRR  HZ I        22 9 36.45        10.0 0.30            126            132   9 
 GUY2CHZ IP     C 22 9 20.53                             114    0.11 9  180 245 
 GUY2CHE ES       22 9 42.61                             114    0.44 9  180 245 
 GUY2CHZ I        22 9 46.44         4.7 0.31                           180 245 
 HEL  HZ EP       22 9 19.97                             113   -0.65 9  183 279 
 HEL  HN ES       22 9 42.76                             113    0.23 9  183 279 
 HEL  HZ I        22 9 46.01         4.9 0.22            115            183 279 
 ZAR  HZ EP       22 9 23.40                             110    0.94 9  204 329 
 ZAR  HN ES       22 9 45.60                             110   -0.21 9  204 329 
 ZAR  HZ I        22 9 48.94         9.3 0.31            113            204 329 
 ORTC HZ EP       22 9 30.04                             104   -0.02 8  268 214 
 ORTC HN ES       22 9 59.08                             104   -0.25 8  268 214 
 ORTC HZ I        2210  5.89         2.7 0.20            106            268 214 
                                                                                
