 2016 1020 2113 45.2 L   6.677 -73.129141.0  RSN  4 0.4 1.3LRSN                1
 GAP=230        0.99       7.9     8.7  9.1  0.3226E+02  0.2645E+02  0.2230E+01E
 Epicentro: VILLANUEVA - SANTANDER                                             3
 ACTION:UPD 16-11-09 19:21 OP:rebc STATUS:               ID:20161020211345 L   I
 OLDACT:REG 16-10-21 03:18 OP:dnl  STATUS:               ID:20161020210750     3
 2016-10-20-2108-00M.COL___340                                                 6
 STAT SP IPHASW D HRMM SECON CODA AMPLIT PERI AZIMU VELO AIN AR TRES W  DIS CAZ7
 BAR2 EZ ES       2114 18.11                             175   -0.6210 11.1 212 
 BAR2 EZ I        2114 22.13         5.5 0.26            172           11.1 212 
 BRR  HZ EP       2114  6.37                             149    0.0410 80.1 306 
 BRR  HN ES       2114 23.38                             149    0.5410 80.1 306 
 RUS  HZ EP   2   2114  8.02                             147    0.54 5 86.9 177 
 RUS  HN ES       2114 25.19                             147    0.3010 86.9 177 
 RUS  HZ I        2114 28.40         3.3 0.30            147           86.9 177 
 PTB  HZ EP       2114 11.34                             131   -0.38 9  148 264 
 PTB  HN ES       2114 32.37                             131   -0.07 9  148 264 
 PTB  HZ I        2114 34.58         2.9 0.58            133            148 264 
                                                                                
