 2011  120 2143 34.3 L   6.834 -73.085147.8  RSN  4 0.1 1.4LRSN                1
 GAP=204        0.38       4.5    19.2  5.9 -0.3428E+02  0.3012E+02  0.9877E+00E
 Epicentro: LOS SANTOS - SANTANDER                                             3
 ACTION:UP  11-02-08 08:41 OP:pat  STATUS:               ID:20110120214334 L   I
 2011-01-20-2142-51S.COL___137                                                 6
 STAT SP IPHASW D HRMM SECON CODA AMPLIT PERI AZIMU VELO SNR AR TRES W  DIS CAZ7
 BAR2 SZ EP   1   2143 54.07                             169    -0.2 7   29 202 
 BAR2 SZ ES   2   2144  9.72                             169    -0.1 5   29 202 
 BAR2 SZ I        2144 10.82         7.4 0.24                            29 202 
 GIR2 SZ EP   1   2143 54.34                             168     0.2 7   30 336 
 RUS  HZ EP   1   2143 58.47                             143     0.0 7  104 180 
 RUS  HN ES   2   2144 17.46                             143     0.1 5  104 180 
 RUS  HZ I        2144 19.14         3.2 0.27                           104 180 
 CHI  HZ EP   1   2144 12.58                             117    -0.1 6  254 196 
 CHI  HE ES   2   2144 42.69                             117     0.1 4  254 196 
 CHI  HZ I        2144 47.96         2.0 0.39                           254 196 
                                                                                
