 2010  620 2309 33.8 L   6.036 -73.675115.9  RSN  6 0.3 1.5LRSN                1
 GAP=132        0.56       4.7     4.4 10.6 -0.2759E+01  0.2348E+02 -0.2053E+01E
 Epicentro: VELEZ - SANTANDER                                                  3
 ACTION:UP  10-08-24 10:11 OP:vdl  STATUS:               ID:20100620230933 L   I
 2010-06-20-2305-12S.COL___118                                                 6
 STAT SP IPHASW D HRMM SECON CODA AMPLIT PERI AZIMU VELO SNR AR TRES W  DIS CAZ7
 RUS  HZ IP     D 23 9 52.02                             148    -0.210   67 104 
 RUS  HZ I        23 9 52.51         5.3 0.31                            67 104 
 RUS  HN ES   2   2310  6.92                             148     0.3 5   67 104 
 BRR  HZ EP   2   23 9 56.09                             131     0.5 5  119 358 
 BRR  HE ES   2   2310 12.58                             131    -0.1 5  119 358 
 BRR  HZ I        2310 15.29         5.9 0.13                           119 358 
 HEL  HZ EP   2   2310  4.80                             115    -0.3 4  206 275 
 HEL  HZ I        2310 22.68         2.8 0.65                           206 275 
 HEL  HE ES   2   2310 29.23                             115    -0.4 4  206 275 
 GUE  SZ EP   2   2310  6.20                             114     0.1 4  215  23 
 RREF HZ EP   2   2310  7.90                             113     0.4 4  224 236 
 RREF HE ES   2   2310 34.21                             113     0.5 4  224 236 
 RREF HZ I        2310 40.10         3.1 0.24                           224 236 
 OCA  SZ ES   3   2310 37.96                             110     0.7 2  247   9 
 OCA  SZ I        2310 46.41         3.4 0.63                           247   9 
                                                                                
