 2011 1121 0644 37.5 L   6.749 -73.146149.0  RSN  7 0.4 1.7LRSN                1
 GAP=139        0.72       4.5     5.0  6.8  0.1115E+01  0.4944E+01 -0.4715E+01E
 Epicentro: LOS SANTOS - SANTANDER                                             3
 ACTION:UPD 12-07-13 16:11 OP:ep   STATUS:               ID:20111121064437 L   I
 2011-11-21-0643-05S.COL___176                                                 6
 STAT SP IPHASW D HRMM SECON CODA AMPLIT PERI AZIMU VELO AIN AR TRES W  DIS CAZ7
 BAR2 SZ EP   1    644 57.49                             173    0.09 7 17.9 193 
 BAR2 SZ ES   1    645 12.66                             173   -0.28 7 17.9 193 
 BAR2 SZ I         645 14.25        19.8 0.28                          17.9 193 
 BRR  HZ IP     C  644 59.39                             152    0.2610 74.0 302 
 BRR  HE ES   1    645 16.74                             152    0.72 7 74.0 302 
 BRR  HZ I         645 19.64        10.6 0.19                          74.0 302 
 PAM  SZ EP   1    645  0.39                             150    0.09 7 81.8  37 
 PAM  SN ES   1    645 17.66                             150   -0.44 7 81.8  37 
 RUS  HZ EP   1    645  1.22                             146    0.06 7 95.0 176 
 RUS  HN ES   1    645 19.66                             146    0.03 7 95.0 176 
 RUS  HZ I         645 21.37         7.0 0.41                          95.0 176 
 OCA  SZ EP   1    645  6.41                             129   -0.15 7  166 353 
 OCA  SZ I         645 32.37         3.6 0.15                           166 353 
 ZAR  HE ES   1    645 35.43                             123   -0.57 6  206 294 
 ZAR  HZ I         645 41.74         5.7 0.13                           206 294 
 NOR  SN ES   2    645 40.05                             119   -0.75 4  231 236 
                                                                                
