 2013  921 0931 25.9 L   6.795 -73.154148.5  RSN 14 0.5 2.3LRSN 3.1WRSN        1
 SPEC AVERAGE  MO 13.7 ST381.0 OM  2.2 f0 19.9 R0.2993 AL 0.00 WI 20.0 MW  3.1 3
 SPEC SD       MO  0.4 ST333.4 OM  0.4 f0 12.1 R0.6647 AL      WI      MW  0.3 3
 GAP=136        1.13       3.2     4.5  6.0 -0.1894E+01  0.6497E+01  0.1942E+01E
 Epicentro: LOS SANTOS - SANTANDER                                             3
 SPEC BAR2SH Z MO 13.5 ST 85.5 OM  1.9 f0 13.5 R0.1151 AL-0.00 WI 20.0 MW  2.9 3
 SPEC BAR2SH Z T 93159 K 0.000 GD  150 VS 4.20 DE 3.20 Q0300.0 QA 0.60 VS 4.20 3
 SPEC PAM SH Z MO 13.2 ST353.9 OM  1.6 f0 26.3 R0.0591 AL-0.00 WI 20.0 MW  2.8 3
 SPEC PAM SH Z T 932 4 K 0.000 GD  167 VS 4.20 DE 3.20 Q0300.0 QA 0.60 VS 4.20 3
 SPEC CHI HH Z MO 14.5 ST0.091 OM  2.6 f00.647 R2.4019 AL-0.00 WI 20.0 MW  3.6 3
 SPEC CHI HH Z T 93231 K 0.000 GD  289 VS 4.20 DE 3.20 Q0300.0 QA 0.60 VS 4.20 3
 SPEC BRR HH Z MO 13.5 ST539.0 OM  1.9 f0 24.2 R0.0642 AL-0.00 WI 20.0 MW  3.0 3
 SPEC BRR HH Z T 932 3 K 0.000 GD  164 VS 4.20 DE 3.20 Q0300.0 QA 0.60 VS 4.20 3
 SPEC PTB HH Z MO 13.6 ST999.9 OM  1.9 f0 40.0 R0.0388 AL-0.00 WI 20.0 MW  3.0 3
 SPEC PTB HH Z T 93212 K 0.000 GD  208 VS 4.20 DE 3.20 Q0300.0 QA 0.60 VS 4.20 3
 SPEC OCA HH Z MO 13.6 ST393.1 OM  1.9 f0 19.8 R0.0785 AL-0.00 WI 20.0 MW  3.0 3
 SPEC OCA HH Z T 93214 K 0.000 GD  219 VS 4.20 DE 3.20 Q0300.0 QA 0.60 VS 4.20 3
 SPEC SPBCHH Z MO 13.8 ST299.9 OM  2.1 f0 15.5 R0.1003 AL-0.00 WI 20.0 MW  3.2 3
 SPEC SPBCHH Z T 93215 K 0.000 GD  219 VS 4.20 DE 3.20 Q0300.0 QA 0.60 VS 4.20 3
 SPEC PRA HH Z MO 13.7 ST 62.9 OM  1.7 f0 10.1 R0.1539 AL-0.00 WI 20.0 MW  3.1 3
 SPEC PRA HH Z T 93258 K 0.000 GD  418 VS 4.20 DE 3.20 Q0300.0 QA 0.60 VS 4.20 3
 SPEC NOR HH Z MO 13.7 ST432.6 OM  1.9 f0 18.9 R0.0822 AL-0.00 WI 20.0 MW  3.1 3
 SPEC NOR HH Z T 93228 K 0.000 GD  277 VS 4.20 DE 3.20 Q0300.0 QA 0.60 VS 4.20 3
 SPEC SML HH Z MO 14.2 ST999.9 OM  2.3 f0 40.0 R0.0388 AL-0.00 WI 20.0 MW  3.4 3
 SPEC SML HH Z T 93229 K 0.000 GD  285 VS 4.20 DE 3.20 Q0300.0 QA 0.60 VS 4.20 3
 SPECGUY2CHH Z MO      ST      OM  1.8 f0 6.05 R 0.257 AL-0.00 WI 20.0 MW  0.0 3
 SPECGUY2CHH Z T 93242 K       GD      VS 4.20 DE 3.20 Q0300.0 QA 0.60 VS 4.20 3
 SPEC RUS HH Z MO 13.3 ST 23.9 OM  1.7 f0 9.71 R0.1600 AL-0.00 WI 20.0 MW  2.8 3
 SPEC RUS HH Z T 932 6 K 0.000 GD  179 VS 4.20 DE 3.20 Q0300.0 QA 0.60 VS 4.20 3
 ACTION:UPD 13-10-22 09:24 OP:ep   STATUS:               ID:20130921093125 L   I
 OLDACT:UP  13-09-21 14:45 OP:jn   STATUS:               ID:20130921092959     3
 OLDACT:REG 13-09-21 08:27 OP:jn   STATUS:               ID:20130921092959     3
 2013-09-21-0929-59M.COL___269                                                 6
 STAT SP IPHASW D HRMM SECON CODA AMPLIT PERI AZIMU VELO AIN AR TRES W  DIS CAZ7
 BAR2 SZ EP        931 46.02                             171    0.1310 22.7 188 
 BAR2 SZ ES        932  1.29                             171   -0.1610 22.7 188 
 BAR2 SZ I         932  3.55        32.0 0.24            169           22.7 188 
 BRR  HZ EP     C  931 47.83                             153    0.4710 70.7 299 
 BRR  HN ES        932  5.25                             153    1.1910 70.7 299 
 BRR  SZ I         932  7.47        15.2 0.12            152           70.7 299 
 BRR  HZ I         932 11.13        17.1 0.12                          70.7 299 
 PAM  SZ EP        931 48.77                             151    0.2710 78.3  40 
 PAM  SN ES        932  6.25                             151    0.1410 78.3  40 
 PAM  SZ I         932  8.04        19.6 0.58            155           78.3  40 
 RUS  HZ EP        931 49.85                             144   -0.0810  100 176 
 RUS  HN ES        932  7.92                             144   -0.7210  100 176 
 RUS  HZ I         932  9.84        15.4 0.38            146            100 176 
 RUS  SZ I         932 10.73        19.7 0.58                           100 176 
 PTB  HZ EP        931 52.63                             133   -0.41 9  147 259 
 PTB  HN ES        932 13.74                             133   -0.45 9  147 259 
 PTB  HZ I         932 19.91        23.6 0.40            133            147 259 
 PTB  SZ I         932 20.41        20.1 0.52                           147 259 
 OCA  HZ EP        931 54.23                             130   -0.27 9  161 353 
 OCA  HN ES        932 16.19                             130   -0.59 9  161 353 
 OCA  SZ I         932 21.54        23.1 0.30            132            161 353 
 OCA  HZ I         932 21.75        24.6 0.30                           161 353 
 SPBC HZ EP        931 54.88                             130    0.32 9  162 219 
 SPBC HN ES   1    932 16.72                             130   -0.17 7  162 219 
 SPBC SZ I         932 20.93        30.1 0.36            130            162 219 
 SPBC HZ I         932 21.05        33.1 0.26                           162 219 
 ZAR  HE ES   1    932 24.05                             123    0.15 6  203 292 
 NOR  HZ EP   1    932  2.34                             119    0.62 6  234 234 
 NOR  HE ES   1    932 29.82                             119    0.19 6  234 234 
 NOR  SZ I         932 35.27        16.1 0.30            120            234 234 
 NOR  HZ I         932 35.32        16.2 0.30                           234 234 
 SML  HZ EP   1    932  2.36                             118   -0.37 6  244 336 
 SML  HN ES   1    932 30.72                             118   -0.70 6  244 336 
 SML  SZ I         932 34.54        61.2 0.08            120            244 336 
 SML  HZ I         932 34.55        53.7 0.10                           244 336 
 CHI  HZ EP        932  4.28                             118    0.57 8  248 195 
 CHI  HN ES   1    932 32.79                             118   -0.39 6  248 195 
 CHI  SZ I         932 41.51         7.5 0.40            119            248 195 
 CHI  HZ I         932 43.42         6.1 0.28                           248 195 
 URE  HE ES   1    932 38.23                             114   -0.92 6  283 292 
 GUY2CHZ EP   1    932 10.27                             113    0.71 5  300 235 
 GUY2CHN ES   1    932 44.05                             113    0.47 5  300 235 
 GUY2CSZ I         932 51.09        10.2 0.48                           300 235 
 GUY2CHZ I         932 52.88        12.7 0.80                           300 235 
 PRA  HZ EP   1    932 19.38                             107   -0.07 4  391 209 
 PRA  HN ES   1    933  0.13                             107   -1.06 4  391 209 
 PRA  SZ I         933  6.53         9.3 1.30            108            391 209 
 PRA  HZ I         933  7.26         5.8 0.20                           391 209 
                                                                                
