 2013 1121 0601 32.2 L   6.824 -73.122146.3  RSN 17 0.6 2.3LRSN                1
 GAP= 71        1.33       3.6     3.7  7.0 -0.6561E+00  0.4902E+01  0.1094E+01E
 Epicentro: LOS SANTOS - SANTANDER                                             3
 ACTION:UPD 14-01-09 16:29 OP:ep   STATUS:               ID:20131121060132 L   I
 OLDACT:UP  13-11-21 13:06 OP:mh   STATUS:               ID:20131121060000     3
 OLDACT:REG 13-11-21 09:44 OP:mh   STATUS:               ID:20131121060000     3
 2013-11-21-0600-00M.COL___282                                                 6
 STAT SP IPHASW D HRMM SECON CODA AMPLIT PERI AZIMU VELO AIN AR TRES W  DIS CAZ7
 BAR2 SZ EP        6 1 52.04                             169    0.0410 26.4 195 
 BAR2 SZ ES   1    6 2  7.69                             169    0.27 7 26.4 195 
 BAR2 SZ I         6 2  9.90        55.5 0.19            172           26.4 195 
 BRR  HZ IP        6 1 54.03                             152    0.5210 72.3 296 
 BRR  HN ES        6 2 10.91                             152    0.8110 72.3 296 
 BRR  HZ I         6 2 15.21        21.4 0.14            151           72.3 296 
 PAM  SZ EP   1    6 1 54.84                             152    0.54 7 73.7  39 
 PAM  SZ I         6 2 14.22        27.9 0.19            152           73.7  39 
 RUS  HZ EP   1    6 1 55.85                             143   -0.37 7  103 178 
 RUS  HN ES        6 2 14.12                             143   -0.8110  103 178 
 RUS  HZ I         6 2 15.88        17.5 0.42            146            103 178 
 PTB  HZ EP        6 1 58.68                             131   -0.85 9  151 258 
 PTB  HN ES        6 2 19.99                             131   -0.83 9  151 258 
 PTB  HZ I         6 2 25.92        28.8 0.21            133            151 258 
 TAM  HZ EP        6 2  0.16                             131    0.37 9  153 106 
 TAM  HN ES        6 2 21.39                             131    0.10 9  153 106 
 OCA  HZ EP        6 1 59.61                             130   -0.77 9  158 352 
 OCA  HN ES        6 2 22.61                             130    0.28 9  158 352 
 OCA  HZ I         6 2 28.02        23.5 0.14            130            158 352 
 SPBC HZ EP   1    6 2  1.00                             128   -0.13 7  167 219 
 SPBC HN ES        6 2 23.63                             128   -0.03 9  167 219 
 SPBC HZ I         6 2 30.07        37.2 0.23            131            167 219 
 ZAR  HZ EP        6 2  4.65                             122   -0.22 8  206 291 
 ZAR  HN ES        6 2 30.24                             122   -0.08 8  206 291 
 ZAR  HZ I         6 2 36.51        28.6 0.10            123            206 291 
 NOR  HZ EP   1    6 2  8.04                             118   -0.35 6  238 234 
 NOR  HN ES        6 2 36.18                             118   -0.41 8  238 234 
 NOR  HZ I         6 2 40.26        16.2 0.15            120            238 234 
 SML  HZ EP   1    6 2  8.20                             118   -0.56 6  242 334 
 SML  HN ES        6 2 36.97                             118   -0.28 8  242 334 
 SML  HZ I         6 2 41.79        38.2 0.08            118            242 334 
 CHI  HZ EP   1    6 2  9.79                             117   -0.53 6  252 196 
 CHI  HN ES   1    6 2 39.84                             117   -0.17 6  252 196 
 ROSC BZ EP        6 2 11.41                             116    0.63 8  256 211 
 ROSC BN ES   4    6 2 43.48                             116    2.64 0  256 211 
 HEL  HZ EP   1    6 2 13.72                             115    0.89 6  275 255 
 HEL  HN ES        6 2 44.50                             115    0.01 8  275 255 
 HEL  HZ I         6 2 50.95         9.8 0.37            116            275 255 
 GUY2CHZ EP        6 2 16.22                             112   -0.06 7  305 235 
 GUY2CHN ES        6 2 52.74                             112    2.10 7  305 235 
 RREF HZ EP        6 2 19.51                             111    0.69 7  325 229 
 RREF HN ES   4    6 2 57.53                             111    2.37 0  325 229 
 RREF HZ I         6 3  0.81        13.4 0.18            112            325 229 
 CBOC HZ EP        6 2 19.78                             110    0.23 7  337 252 
 CBOC HN ES        6 2 56.15                             110   -0.31 7  337 252 
 CBOC HZ I         6 3  5.36         3.4 0.33            111            337 252 
                                                                                
