 2012 1021 0247 14.4 L   6.759 -73.083148.0  RSN  4 0.1 1.4LRSN                1
 GAP=147        0.32       3.2     4.1  4.9  0.2937E+01 -0.1895E+01  0.3096E+01E
 Epicentro: LOS SANTOS - SANTANDER                                             3
 ACTION:UPD 12-11-22 17:05 OP:ep   STATUS:               ID:20121021024714 L   I
 2012-10-21-0240-00M.COL___231                                                 6
 STAT SP IPHASW D HRMM SECON CODA AMPLIT PERI AZIMU VELO AIN AR TRES W  DIS CAZ7
 BAR2 SZ EP   2    247 34.07                             171   -0.23 5 21.5 211 
 BAR2 SZ I         247 34.75         7.7 0.20                          21.5 211 
 PAM  SZ EP   2    247 36.88                             151    0.03 5 76.9  33 
 PAM  SE ES   2    247 54.37                             151    0.02 5 76.9  33 
 PAM  SZ I         247 56.82         5.8 0.54                          76.9  33 
 BRR  HZ EP        247 36.40                             150    0.1010 79.5 299 
 BRR  HZ I         247 43.71         5.6 0.12                          79.5 299 
 BRR  HN ES   1    247 53.30                             150   -0.07 7 79.5 299 
 RUS  HZ EP   1    247 37.99                             146   -0.08 7 95.8 180 
 RUS  HN ES   2    247 56.63                             146    0.12 5 95.8 180 
 RUS  HN I         247 58.89         2.0 0.15                          95.8 180 
                                                                                
