 2016 1121 0409 39.8 L   6.761 -73.146140.6  RSN  7 0.2 1.5LRSN                1
 GAP=154        0.95       8.2     4.5  6.4 -0.2308E+01  0.5664E+01 -0.4513E+01E
 Epicentro: LOS SANTOS - SANTANDER                                             3
 ACTION:UPD 17-10-26 21:10 OP:lp   STATUS:               ID:20161121040939 L   I
 OLDACT:UP  16-11-21 17:53 OP:edw  STATUS:               ID:20161121040705     3
 OLDACT:UP  16-11-21 17:53 OP:edw  STATUS:               ID:20161121040705     3
 OLDACT:UP  16-11-21 17:51 OP:edw  STATUS:               ID:20161121040705     3
 OLDACT:REG 16-11-21 14:25 OP:edw  STATUS:               ID:20161121040705     3
 2016-11-21-0408-00M.COL___340                                                 6
 STAT SP IPHASW D HRMM SECON CODA AMPLIT PERI AZIMU VELO AIN AR TRES W  DIS CAZ7
 BAR2 EZ EP        4 9 58.80                             171    0.0510 19.0 192 
 BAR2 EZ ES        410 13.47                             171   -0.0510 19.0 192 
 BAR2 EZ I         410 14.76         5.3 0.14            169           19.0 192 
 BRR  HZ EP        410  0.61                             151    0.0710 73.3 302 
 BRR  HN ES        410 16.99                             151    0.2910 73.3 302 
 BRR  HZ I         410 18.49         7.8 0.38            149           73.3 302 
 PAM  EZ EP     C  410  1.86                             148    0.1510 80.8  38 
 PAM  EN ES        410 18.37                             148   -0.4110 80.8  38 
 PAM  EZ I         410 19.02         4.3 0.38            152           80.8  38 
 PTB  HZ EP   9    410  5.90                             130   -0.40 0  147 260 
 PTB  HN ES        410 25.44                             132   -1.11 9  147 260 
 PTB  HZ I         410 29.53         6.5 0.12            129            147 260 
 ZAR  HZ EP        410 12.04                             120   -0.07 8  206 293 
 ZAR  HN ES        410 37.22                             120   -0.07 8  206 293 
 ZAR  HZ I         410 41.48         3.4 0.28            120            206 293 
 CBOC HZ EP   2    410 26.18                             108   -0.19 3  332 253 
 CBOC HE ES   2    411  2.87                             108    0.19 3  332 253 
 CBOC HZ I         411  6.82         0.9 0.20            108            332 253 
 SJC  HZ EP   4    410 33.96                             104   -1.69 0  413 327 
 SJC  HN ES   4    411 14.78                             104   -4.41 0  413 327 
 SJC  HZ I         411 18.18         1.4 0.40            105            413 327 
                                                                                
