 2014  521 0424 43.1 L   6.830 -73.175148.7  RSN  7 0.5 1.9LRSN                1
 GAP=151        1.06      11.1     7.6 11.3 -0.6029E+02 -0.2857E+02  0.7858E+02E
 Epicentro: LOS SANTOS - SANTANDER                                             3
 ACTION:UPD 15-03-16 16:59 OP:nd   STATUS:               ID:20140521042443 L   I
 OLDACT:UP  14-05-21 13:52 OP:cam  STATUS:               ID:20140521042002d    3
 OLDACT:UP  14-05-21 13:52 OP:cam  STATUS:               ID:20140521042002d    3
 OLDACT:DUP 14-05-21 13:49 OP:cam  STATUS:               ID:20140521042002d    3
 OLDACT:UP  14-05-21 13:49 OP:cam  STATUS:               ID:20140521042001d    3
 OLDACT:DUP 14-05-21 13:42 OP:cam  STATUS:               ID:20140521042001d    3
 2014-05-21-0420-00M.COL___252                                                 6
 STAT SP IPHASW D HRMM SECON CODA AMPLIT PERI AZIMU VELO AIN AR TRES W  DIS CAZ7
 BRR  HZ IP     D  425  4.70                             154    0.3310 66.8 297 
 BRR  HN ES        425 21.66                             154    0.7410 66.8 297 
 BRR  HZ I         425 25.33        18.7 0.12            152           66.8 297 
 PAM  SZ IP     D  425  5.81                             151    0.1610 77.0  43 
 PAM  SN ES        425 22.79                             151   -0.4110 77.0  43 
 PAM  SZ I         425 24.40        12.3 0.18            154           77.0  43 
 PTB  HZ EP        425  9.65                             133   -0.47 9  145 257 
 PTB  HN ES        425 30.47                             133   -0.70 9  145 257 
 PTB  HZ I         425 36.03         8.9 0.30            134            145 257 
 NOR  HN ES        425 46.89                             119   -0.02 8  234 233 
 CHI  HN ES   2    425 51.20                             117    0.21 4  251 194 
 HEL  HZ EP   4    425 25.76                             115    2.52 0  270 255 
 GUY2CHZ EP   1    425 27.24                             113    0.44 5  300 234 
 PRA  HZ EP   1    425 37.24                             107    0.33 4  393 209 
                                                                                
