 2012 1221 0214  0.5 L   6.746 -73.170147.0  RSN  5 0.3 1.6LRSN                1
 GAP=230        0.77       6.1     5.7  6.2  0.1849E+02  0.3956E+01  0.5695E+00E
 Epicentro: VILLANUEVA - SANTANDER                                             3
 ACTION:UPD 13-01-04 14:29 OP:ep   STATUS:               ID:20121221021400 L   I
 2012-12-21-0210-00M.COL___243                                                 6
 STAT SP IPHASW D HRMM SECON CODA AMPLIT PERI AZIMU VELO AIN AR TRES W  DIS CAZ7
 BAR2 SZ EP        214 19.97                             173   -0.2010 17.1 185 
 BAR2 SZ ES        214 35.05                             173   -0.4610 17.1 185 
 BAR2 SZ I         214 36.36        12.3 0.21                          17.1 185 
 BRR  HZ EP        214 22.12                             152    0.3010 71.9 304 
 BRR  HE ES        214 38.72                             152    0.2610 71.9 304 
 BRR  HZ I         214 39.84         9.6 0.38                          71.9 304 
 RUS  HZ EP        214 23.91                             146   -0.0610 94.9 174 
 RUS  HE ES        214 42.73                             146    0.4510 94.9 174 
 RUS  HE I         214 43.85         5.8 0.16                          94.9 174 
 PTB  HZ EP        214 27.00                             133   -0.23 9  144 261 
 PTB  HN ES        214 47.91                             133   -0.18 9  144 261 
 PTB  HZ I         214 49.34         3.5 0.31                           144 261 
 ZAR  HE ES   2    214 58.72                             123    0.36 4  204 294 
 ZAR  HZ I         215  6.42         3.7 0.27                           204 294 
                                                                                
