 2010  721 0733 29.0 L   6.784 -73.009144.8  RSN 16 0.7 3.0LRSN                1
 GAP=136        1.55       5.4     9.4  9.0 -0.2298E+02  0.4286E+01  0.1202E+02E
 Epicentro: CEPITA - SANTANDER                                                 3
 ACTION:UPD 10-12-01 15:19 OP:pat  STATUS:               ID:20100721073329 L   I
 2010-07-21-0730-31S.COL___123                                                 6
 STAT SP IPHASW D HRMM SECON CODA AMPLIT PERI AZIMU VELO AIN AR TRES W  DIS CAZ7
 BAR2 SZ IP        733 48.48                             168    -0.210   29 222 
 BAR2 SZ ES   1    734  3.64                             168    -0.3 7   29 222 
 BAR2 SZ I         734  4.61       134.7 0.34                            29 222 
 GIR2 SZ IP        733 48.45                             165    -0.310   38 328 
 GIR2 SZ ES   1    734  4.08                             165    -0.1 7   38 328 
 BRR  HZ IP     C  733 50.23                             148    -0.710   86 295 
 BRR  HN ES   1    734  7.38                             148    -0.7 7   86 295 
 BRR  HZ I         734  9.19       164.7 0.06                            86 295 
 RUS  HZ IP     C  733 52.58                             144     0.010   99 185 
 RUS  HZ I         733 53.78        84.0 0.11                            99 185 
 RUS  HE ES   1    734 11.29                             144     0.4 7   99 185 
 GUE  SZ EP   1    733 52.36                             139    -1.3 7  116   5 
 GRA  SZ IP     C  733 55.17                             137     1.110  124  11 
 GRA  SZ ES   1    734 14.51                             137     1.0 7  124  11 
 GRA  SZ I         734 16.91        77.1 0.33                           124  11 
 OCA  SZ EP   1    733 56.77                             129    -0.9 7  165 348 
 OCA  SZ ES   1    734 20.84                             129     0.8 7  165 348 
 OCA  SZ I         734 23.15       133.4 0.48                           165 348 
 CHI  HZ EP        734  6.91                             116     0.0 8  251 199 
 CHI  HE ES   1    734 36.79                             116     0.2 6  251 199 
 CHI  HZ I         734 43.61        39.0 0.52                           251 199 
 ROSC BZ EP   1    734  8.50                             116     0.7 6  259 214 
 ROSC BN ES        734 38.32                             116     0.3 8  259 214 
 ROSC BZ I         734 44.58        48.7 0.24                           259 214 
 CVER SZ EP   1    734 10.32                             114     0.5 6  277 205 
 CVER SZ I         734 52.59        62.2 0.48                           277 205 
 HEL  HZ EP   1    734  9.62                             113    -1.2 6  286 257 
 HEL  HN ES   1    734 44.35                             113     1.0 6  286 257 
 HEL  HZ I         734 48.16        44.4 0.36                           286 257 
 RREF HZ EP   1    734 16.80                             110     0.5 5  332 231 
 RREF HE ES   1    734 54.05                             110     0.8 5  332 231 
 RREF HZ I         735  1.61        52.0 0.54                           332 231 
 SDV  BZ EP   1    734 18.01                             108     0.2 5  350  48 
 SDV  BZ I         734 57.25        16.5 0.30                           350  48 
 TOL  SZ EP   1    734 18.47                             108     0.1 5  353 227 
 ANIL HZ EP   1    734 20.18                             108     0.3 5  367 226 
 ANIL HE ES   1    735  0.10                             108     0.5 5  367 226 
 ANIL HZ I         735  6.26        91.2 0.11                           367 226 
 PRA  HZ EP   1    734 22.41                             106    -0.8 4  398 212 
 PRA  HE ES   1    735  4.18                             106    -1.3 4  398 212 
 PRA  HZ I         735  9.35        62.7 0.09                           398 212 
                                                                                
