 2013  921 0531 54.3 L   6.710 -73.175147.2  RSN  4 0.1 1.3LRSN                1
 GAP=227        0.43       4.0     3.9  3.6  0.8189E+01  0.2215E+01  0.2057E+01E
 Epicentro: VILLANUEVA - SANTANDER                                             3
 ACTION:UPD 13-10-22 09:23 OP:ep   STATUS:               ID:20130921053154 L   I
 OLDACT:REG 13-09-21 08:17 OP:jn   STATUS:               ID:20130921052959     3
 2013-09-21-0529-59M.COL___269                                                 6
 STAT SP IPHASW D HRMM SECON CODA AMPLIT PERI AZIMU VELO AIN AR TRES W  DIS CAZ7
 BAR2 SZ EP        532 13.92                             175   -0.0610 13.1 184 
 BAR2 SZ ES        532 29.25                             175   -0.0510 13.1 184 
 BAR2 SZ I         532 31.65         4.8 0.28            167           13.1 184 
 BRR  HZ EP        532 15.88                             152    0.0810 73.8 306 
 BRR  HN ES        532 32.55                             152    0.0310 73.8 306 
 BRR  HZ I         532 40.04         4.2 0.40            150           73.8 306 
 RUS  HZ EP        532 17.79                             147    0.2210 91.0 174 
 RUS  HN ES   1    532 35.61                             147   -0.08 7 91.0 174 
 RUS  HZ I         532 40.52         1.2 0.24            147           91.0 174 
 PTB  HZ EP        532 20.72                             133   -0.28 9  143 262 
 PTB  HN ES   1    532 41.95                             133    0.16 7  143 262 
 PTB  HZ I         532 49.34         4.4 0.48            132            143 262 
                                                                                
