 2013  421 0552 43.8 L   6.545 -73.546135.0  RSN 11 0.5 2.3LRSN                1
 GAP= 62        1.06       3.5     4.4  7.1 -0.3361E+01  0.8265E+01  0.1492E+01E
 Epicentro: EL CARMEN DE CHUCURI - SANTANDER                                   3
 ACTION:UPD 13-05-22 14:39 OP:EP   STATUS:               ID:20130421055243 L   I
 2013-04-21-0550-00M.COL___250                                                 6
 STAT SP IPHASW D HRMM SECON CODA AMPLIT PERI AZIMU VELO AIN AR TRES W  DIS CAZ7
 BAR2 SZ EP        553  2.48                             162   -0.1210 40.5  83 
 BAR2 SZ I         553 18.51        50.7 0.26            162           40.5  83 
 BRR  HZ EP        553  3.69                             153    0.3110 64.8 344 
 BRR  HN ES   1    553 19.86                             153    1.18 7 64.8 344 
 BRR  HZ I         553 21.09        19.1 0.12            155           64.8 344 
 GIR2 SZ IP     C  553  4.00                             151    0.0710 70.7  33 
 GIR2 SZ ES        553 19.65                             151    0.0010 70.7  33 
 GIR2 SZ I         553 20.36        55.7 0.40            152           70.7  33 
 RUS  HZ EP        553  5.24                             145   -0.3410 88.5 145 
 RUS  HN ES   1    553 22.28                             145   -0.32 7 88.5 145 
 PTB  HZ EP        553  5.69                             141   -0.1210  101 270 
 PTB  HN ES   1    553 22.52                             141   -0.48 7  101 270 
 PTB  HZ I         553 24.40        41.6 0.09            141            101 270 
 NOR  HZ EP        553 12.63                             123   -0.70 9  182 234 
 NOR  HN ES   1    553 36.71                             123    0.32 7  182 234 
 NOR  HZ I         553 41.47        17.1 0.20            122            182 234 
 OCA  HZ EP        553 14.12                             122   -0.02 9  189   8 
 OCA  HN ES        553 37.55                             122   -0.28 9  189   8 
 OCA  HZ I         553 39.28        40.0 0.36            123            189   8 
 HEL  HZ EP   2    553 18.99                             118    0.98 4  223 260 
 HEL  HN ES   1    553 44.66                             118   -0.06 6  223 260 
 HEL  HZ I         553 52.36        10.4 0.42            117            223 260 
 SML  HZ EP        553 21.68                             114    0.50 8  256 347 
 SML  HN ES   1    553 50.57                             114    0.20 6  256 347 
 SML  HZ I         553 55.13        12.0 0.24            114            256 347 
 URE  HN ES   1    553 49.36                             114   -1.20 6  257 301 
 PRA  HZ EP        553 32.17                             107    0.57 6  347 205 
 PRA  HN ES   1    554 10.05                             107    1.14 5  347 205 
 PRA  HZ I         554 16.18         4.9 0.32            106            347 205 
                                                                                
