 2014  421 0533 17.0 L   6.800 -73.121145.1  RSN 18 0.5 2.3LRSN                1
 GAP=140        1.11       2.9     4.1  6.5 -0.2337E+01  0.8555E+01  0.2320E+01E
 Epicentro: LOS SANTOS - SANTANDER                                             3
 ACTION:UPD 14-05-13 23:10 OP:nd   STATUS:               ID:20140421053317 L   I
 OLDACT:REG 14-04-21 14:38 OP:spq  STATUS:               ID:20140421052813     3
 2014-04-21-0528-13M.COL___230                                                 6
 STAT SP IPHASW D HRMM SECON CODA AMPLIT PERI AZIMU VELO AIN AR TRES W  DIS CAZ7
 PAM  SZ EP        533 39.33                             151    0.3010 75.7  38 
 PAM  SN ES        533 56.62                             151    0.4010 75.7  38 
 PAM  SZ I         533 58.44        21.5 0.56            159           75.7  38 
 RUS  HZ EP        533 40.37                             144   -0.2910  100 178 
 RUS  HN ES        533 59.06                             144   -0.0610  100 178 
 PTB  HZ EP        533 43.28                             131   -0.87 9  150 259 
 PTB  HN ES        534  4.71                             131   -0.62 9  150 259 
 PTB  HZ I         534 12.16        26.1 0.34            132            150 259 
 OCA  HZ EP        533 45.25                             129   -0.03 9  161 352 
 OCA  HN ES        534  7.56                             129    0.21 9  161 352 
 OCA  HZ I         534 12.42        28.0 0.34            134            161 352 
 SPBC HZ EP        533 45.48                             129   -0.12 9  165 220 
 SPBC HN ES        534  8.10                             129    0.19 9  165 220 
 SPBC HZ I         534 14.66        48.4 0.28            131            165 220 
 ZAR  HZ EP        533 49.00                             122   -0.65 8  207 292 
 ZAR  HN ES        534 15.24                             122    0.11 8  207 292 
 ZAR  HZ I         534 21.04        25.3 0.46            124            207 292 
 NOR  HZ EP        533 52.54                             118   -0.38 8  237 235 
 NOR  HN ES   1    534 20.82                             118   -0.12 6  237 235 
 NOR  HZ I         534 24.22        17.7 0.20            121            237 235 
 SML  HZ EP        533 52.85                             117   -0.85 8  245 335 
 SML  HN ES   1    534 22.44                             117    0.10 6  245 335 
 SML  HZ I         534 24.47        24.7 0.30            121            245 335 
 CHI  HZ EP        533 54.75                             117    0.03 8  249 196 
 CHI  HN ES        534 23.54                             117   -0.62 8  249 196 
 CHI  HZ I         534 31.67         7.1 0.24            120            249 196 
 ROSC BZ EP        533 56.22                             116    1.00 8  254 212 
 ROSC BN ES   4    534 28.46                             116    3.42 0  254 212 
 ROSC BZ I         534 34.40        19.9 0.40            119            254 212 
 HEL  HZ EP        533 57.83                             114    0.37 8  275 256 
 HEL  HN ES        534 29.91                             114    0.88 8  275 256 
 HEL  HZ I         534 36.15         9.6 0.32            117            275 256 
 URE  HZ EP   4    533 56.48                             113   -1.83 0  286 292 
 URE  HN ES   4    534 26.50                             113   -4.05 0  286 292 
 URE  HZ I         534 37.33        14.2 0.28            116            286 292 
 GUY2CHZ EP        534  1.32                             112    0.50 7  303 235 
 GUY2CHN ES   1    534 35.11                             112    0.11 5  303 235 
 GUY2CHZ I         534 43.75        11.9 0.54                           303 235 
 RREF HZ EP        534  4.46                             110    1.12 7  324 230 
 RREF HN ES   4    534 42.08                             110    2.59 0  324 230 
 RREF HZ I         534 45.13        12.1 0.28            113            324 230 
 CBOC HZ EP        534  4.09                             110   -0.08 7  336 252 
 CBOC HN ES        534 41.46                             110    0.48 7  336 252 
 CBOC HZ I         534 52.02         4.4 0.60            112            336 252 
 PRA  HZ EP        534 10.73                             106    0.09 6  393 210 
 PRA  HN ES        534 51.49                             106   -1.00 6  393 210 
 PRA  HZ I         534 57.14         7.9 0.52            109            393 210 
 ORTC HZ EP        534 11.44                             106    0.37 6  397 216 
 ORTC HN ES        534 53.74                             106    0.49 6  397 216 
 ORTC HZ I         534 57.88         6.3 0.52            109            397 216 
 SJC  HZ EP   4    534 10.48                             105   -2.23 0  411 327 
 SJC  HN ES   4    534 51.40                             105   -4.77 0  411 327 
 SJC  HZ I         534 56.41         3.5 0.66            109            411 327 
                                                                                
