 2010 1021 0947  7.6 L   6.787 -73.112140.2  RSN 16 0.4 2.7LRSN                1
 GAP=139        0.78       2.6     4.7  5.2 -0.3598E+01  0.2943E+01  0.2526E+01E
 Epicentro: LOS SANTOS - SANTANDER                                             3
 ACTION:UP  11-02-18 11:11 OP:tino STATUS:               ID:20101021094707 L   I
 2010-10-21-0944-48S.COL___128                                                 6
 STAT SP IPHASW D HRMM SECON CODA AMPLIT PERI AZIMU VELO SNR AR TRES W  DIS CAZ7
 BAR2 SZ EP   1    947 26.57                             170     0.1 7   23 200 
 BAR2 SZ ES   1    947 41.04                             170    -0.3 7   23 200 
 BAR2 SZ I         947 42.91       209.4 0.07                            23 200 
 GIR2 SZ EP        947 26.64                             166     0.010   33 344 
 BRR  HZ IP     D  947 28.42                             150     0.110   75 298 
 BRR  HE ES   1    947 45.03                             150     0.5 7   75 298 
 BRR  HZ I         947 49.53        96.9 0.07                            75 298 
 RUS  HZ IP     C  947 30.54                             143    -0.110   99 178 
 RUS  HN ES   1    947 48.38                             143    -0.3 7   99 178 
 RUS  HZ I         947 50.49        63.5 0.41                            99 178 
 GUE  SZ EP   1    947 31.88                             138     0.1 7  117  10 
 GRA  SZ IP        947 32.42                             136     0.110  126  16 
 GRA  SZ ES   1    947 51.82                             136     0.2 7  126  16 
 GRA  SZ I         947 53.03        55.2 0.39                           126  16 
 OCA  SZ EP   1    947 35.13                             128    -0.5 7  162 352 
 OCA  SZ ES   1    947 57.26                             128    -0.2 7  162 352 
 OCA  SZ I         948  1.48        95.7 0.32                           162 352 
 YOP  SZ EP   1    947 37.23                             125     0.3 7  176 154 
 NOR  SZ EP   1    947 43.02                             117    -0.2 6  237 235 
 NOR  SN ES   1    948 10.37                             117    -0.7 6  237 235 
 NOR  SZ I         948 12.16         5.3 0.26                           237 235 
 CHI  HZ EP   1    947 44.78                             116    -0.1 6  248 196 
 CHI  HE ES   1    948 13.87                             116    -0.2 6  248 196 
 CHI  HZ I         948 21.35        25.9 0.37                           248 196 
 ROSC BZ EP   1    947 46.51                             115     1.0 6  254 212 
 ROSC BE ES   1    948 15.30                             115     0.3 6  254 212 
 ROSC BZ I         948 22.78        29.4 0.43                           254 212 
 CVER SZ EP   1    947 48.23                             114     0.6 6  272 203 
 HEL  HZ EP   1    947 47.60                             113    -0.3 6  275 256 
 HEL  HN ES   2    948 20.29                             113     1.0 4  275 256 
 HEL  HZ I         948 26.63        22.1 0.15                           275 256 
 VIL  SZ EP   2    947 50.38                             111    -0.1 4  301 191 
 DBB  SZ EP   1    947 54.89                             108    -0.4 5  343 274 
 PRA  HZ EP   1    948  0.14                             105    -0.8 4  393 210 
 PRA  HE ES   2    948 43.02                             105     0.4 3  393 210 
 PRA  HZ I         948 49.17       115.9 0.21                           393 210 
                                                                                
