 2011  921 0652 22.6 L   5.743 -73.928 99.9  RSN 13 0.3 2.8LRSN                1
 GAP= 66        0.65       1.6     1.7  5.2 -0.4114E+00  0.7276E+00 -0.1342E+01E
 Epicentro: ALBANIA - SANTANDER                                                3
 ACTION:UPD 12-07-13 15:58 OP:ep   STATUS:               ID:20110921065222 L   I
 2011-09-21-0649-03S.COL___165                                                 6
 STAT SP IPHASW D HRMM SECON CODA AMPLIT PERI AZIMU VELO AIN AR TRES W  DIS CAZ7
 RUS  HZ EP        652 41.76                             134    0.0610 95.0  80 
 RUS  HE ES   1    652 55.80                             134   -0.78 7 95.0  80 
 RUS  HZ I         652 57.72        46.3 0.25                          95.0  80 
 NOR  SZ EP        652 42.24                             130    0.1110  106 259 
 NOR  SN ES        652 57.49                             130    0.1310  106 259 
 CHI  HZ EP        652 44.50                             125    0.0410  125 170 
 CHI  HE ES        653  1.32                             125   -0.1810  125 170 
 CHI  HZ I         653  6.87        44.3 0.27                           125 170 
 BAR2 SZ IP     D  652 44.43                             125    0.2110  125  41 
 BAR2 SZ ES   1    653  1.49                             125    0.41 7  125  41 
 BAR2 SZ I         653  2.81       238.2 0.14                           125  41 
 BTL  SZ EP        652 46.62                             120   -0.11 9  149  29 
 BRR  HZ EP        652 46.70                             119   -0.11 9  153   9 
 BRR  HZ I         652 47.12       295.6 0.12                           153   9 
 BRR  HE ES   1    653  6.12                             119    0.43 7  153   9 
 YOP  SZ IP        652 49.50                             116    0.39 9  172 104 
 YOP  SE ES   1    653 10.07                             116    0.29 7  172 104 
 YOP  SZ I         653 12.48       105.1 0.23                           172 104 
 VIL  SZ EP   1    652 50.26                             115    0.03 7  182 172 
 VIL  SN ES   1    653 11.47                             115   -0.31 7  182 172 
 VIL  SZ I         653 15.92        40.5 0.31                           182 172 
 HEL  HZ EP        652 50.92                             114    0.18 9  184 286 
 HEL  HN ES   1    653 12.66                             114   -0.02 7  184 286 
 HEL  HZ I         653 16.99        40.5 0.49                           184 286 
 ANIL HZ EP   1    652 54.26                             111    0.17 6  214 230 
 ANIL HE ES   1    653 18.79                             111    0.15 6  214 230 
 ZAR  HZ EP   1    652 53.49                             110   -0.80 6  219 332 
 ZAR  HE ES   1    653 18.58                             110   -0.41 6  219 332 
 ZAR  HZ I         653 23.02        95.6 0.33                           219 332 
 PRA  HZ EP   1    652 57.33                             108   -0.41 6  248 205 
 PRA  HN ES   1    653 25.28                             108    0.14 6  248 205 
 PRA  HZ I         653 30.09       116.7 0.23                           248 205 
 OCA  SZ EP        653  1.78                             105   -0.33 7  284  14 
 OCA  SZ ES   1    653 33.03                             105    0.11 6  284  14 
 OCA  SZ I         653 40.81        65.2 0.22                           284  14 
                                                                                
