 2017  321 0441 45.2 L   6.747 -73.138150.0  RSN  4 0.2 1.2LRSN                1
 GAP=160        0.52       5.5     3.3  4.6 -0.8633E+01  0.2318E+00  0.1280E+01E
 Epicentro: LOS SANTOS - SANTANDER                                             3
 ACTION:UPD 17-05-25 18:43 OP:jn   STATUS:               ID:20170321044145 L   I
 OLDACT:DUP 17-03-21 16:16 OP:dnl  STATUS:               ID:20170321043748d    3
 2017-03-21-0438-00M.COL___388                                                 6
 STAT SP IPHASW D HRMM SECON CODA AMPLIT PERI AZIMU VELO AIN AR TRES W  DIS CAZ7
 BAR2 EZ EP        442  5.29                             173    0.0810 17.8 196 
 BAR2 EZ ES        442 20.90                             173    0.0610 17.8 196 
 BAR2 EZ I         442 21.73         5.3 0.22            173           17.8 196 
 BRR  HZ EP        442  7.07                             152    0.0910 74.9 302 
 BRR  HN ES        442 24.25                             152    0.2510 74.9 302 
 BRR  HZ I         442 28.14         3.0 0.14            148           74.9 302 
 PAM  EZ IP     D  442  8.17                             150    0.0910 81.5  36 
 PAM  EN ES        442 25.66                             150   -0.2910 81.5  36 
 PAM  EZ I         442 27.42         3.2 0.50            151           81.5  36 
 PTB  HZ EP   2    442 12.30                             133   -0.17 5  148 261 
 PTB  HE ES        442 33.48                             133   -0.28 9  148 261 
 PTB  HZ I         442 37.99         1.2 0.48            132            148 261 
                                                                                
