 2011  921 0538 26.1 L   7.414 -73.209129.9  RSN  6 0.3 1.6LRSN                1
 GAP=106        0.60       3.2     5.2  5.6  0.6880E+00  0.5561E+01 -0.2997E+01E
 Epicentro: EL PLAYON - SANTANDER                                              3
 ACTION:UPD 12-07-13 15:58 OP:ep   STATUS:               ID:20110921053826 L   I
 2011-09-21-0534-29S.COL___165                                                 6
 STAT SP IPHASW D HRMM SECON CODA AMPLIT PERI AZIMU VELO AIN AR TRES W  DIS CAZ7
 BTL  SZ EP        538 45.03                             156    0.0710 55.2 187 
 PAM  SZ EP   1    538 45.70                             155    0.29 7 56.9  98 
 PAM  SZ I         538 46.04         6.1 0.17                          56.9  98 
 PAM  SN ES   1    539  0.20                             155   -0.31 7 56.9  98 
 BRR  HZ EP        538 45.22                             151    0.0810 65.0 239 
 BRR  HZ I         538 45.44        10.1 0.12                          65.0 239 
 BRR  HE ES   1    539  0.24                             151    0.21 7 65.0 239 
 BAR2 SZ EP        538 47.18                             143   -0.0110 90.9 178 
 BAR2 SZ ES        539  3.43                             143   -0.2510 90.9 178 
 BAR2 SZ I         539  4.56         7.7 0.12                          90.9 178 
 OCA  SZ EP   1    538 47.55                             142    0.39 7 92.0 352 
 OCA  SZ I         538 48.03         8.5 0.25                          92.0 352 
 OCA  SZ ES   1    539  3.58                             142   -0.03 7 92.0 352 
 SJC  HZ EP   1    539 13.30                             106   -0.82 5  350 322 
                                                                                
