 2012 1221 0702 32.9 L   6.764 -73.168157.6  RSN  4 0.3 1.4LRSN                1
 GAP=232        0.76       7.5     7.6  8.3  0.2659E+02 -0.6720E+01  0.1901E+01E
 Epicentro: LOS SANTOS - SANTANDER                                             3
 ACTION:UPD 13-01-04 14:29 OP:ep   STATUS:               ID:20121221070232 L   I
 2012-12-21-0700-00M.COL___243                                                 6
 STAT SP IPHASW D HRMM SECON CODA AMPLIT PERI AZIMU VELO AIN AR TRES W  DIS CAZ7
 BAR2 SZ EP        7 2 53.35                             173   -0.5710 19.0 185 
 BAR2 SZ I         7 3 11.72         4.2 0.41                          19.0 185 
 BRR  HZ IP     C  7 2 55.64                             154    0.2710 71.1 302 
 BRR  HZ I         7 2 55.90         4.4 0.21                          71.1 302 
 BRR  HN ES        7 3 12.97                             154    0.1010 71.1 302 
 RUS  HZ EP   1    7 2 58.05                             147    0.43 7 96.8 174 
 RUS  HN ES   1    7 3 16.99                             147    0.12 7 96.8 174 
 RUS  HN I         7 3 18.27         2.4 0.28                          96.8 174 
 PTB  HZ EP        7 3  0.64                             135    0.02 9  145 260 
 PTB  HE ES   1    7 3 21.98                             135   -0.23 7  145 260 
 PTB  HZ I         7 3 29.00         3.7 0.50                           145 260 
                                                                                
