 2015  521 0758 26.8 L   6.827 -73.093150.0  RSN  4 0.3 1.4LRSN                1
 GAP=227        0.72      13.0     9.2  8.8  0.8869E+02 -0.3889E+02 -0.7323E+02E
 Epicentro: LOS SANTOS - SANTANDER                                             3
 ACTION:UPD 15-09-10 22:05 OP:cam  STATUS:               ID:20150521075826 L   I
 OLDACT:REG 15-05-21 13:36 OP:spq  STATUS:               ID:20150521074747     3
 2015-05-21-0747-47M.COL___285                                                 6
 STAT SP IPHASW D HRMM SECON CODA AMPLIT PERI AZIMU VELO AIN AR TRES W  DIS CAZ7
 BAR2 EZ EP        758 47.08                             169    0.0210 27.7 201 
 BAR2 EZ ES   1    759  2.36                             169   -0.48 7 27.7 201 
 BAR2 EZ I         759  4.37         4.0 0.22            165           27.7 201 
 BRR  HZ EP        758 48.99                             152    0.3410 75.1 294 
 BRR  HN ES        759  5.95                             152    0.2810 75.1 294 
 BRR  HZ I         759  9.78         5.0 0.28            148           75.1 294 
 ZAR  HE ES        759 25.61                             123   -0.25 8  208 291 
 ZAR  HZ I         759 31.59         2.4 0.30            122            208 291 
 SML  HZ EP        759  3.38                             118   -0.29 8  244 334 
                                                                                
