 2015 1121 0449  1.4 L   6.755 -73.182140.1  RSN  7 0.7 1.4LRSN                1
 GAP=134        1.35       5.5     7.0  9.8 -0.5296E+01  0.2250E+02 -0.1589E+02E
 Epicentro: LOS SANTOS - SANTANDER                                             3
 ACTION:UPD 15-12-28 16:12 OP:cam  STATUS:               ID:20151121044901 L   I
 OLDACT:REG 15-11-21 12:48 OP:dnl  STATUS:               ID:20151121044742     3
 2015-11-21-0447-42M.COL___319                                                 6
 STAT SP IPHASW D HRMM SECON CODA AMPLIT PERI AZIMU VELO AIN AR TRES W  DIS CAZ7
 BAR2 EZ ES        449 34.77                             173   -0.2110 18.0 180 
 BAR2 EZ I         449 38.66         7.3 0.23            173           18.0 180 
 BRR  HZ EP        449 22.52                             152    0.6110 70.3 304 
 BRR  HN ES   2    449 39.37                             152    1.47 5 70.3 304 
 PAM  EZ EP        449 23.66                             147    0.2110 83.8  39 
 PAM  EN ES        449 40.93                             147    0.3110 83.8  39 
 PAM  EZ I         449 43.11         3.4 0.27            151           83.8  39 
 RUS  HZ EP        449 24.46                             144    0.1710 96.0 173 
 RUS  HN ES        449 41.19                             144   -0.9310 96.0 173 
 RUS  HZ I         449 44.66         3.1 0.13            147           96.0 173 
 PTB  HZ EP        449 27.64                             132    0.15 9  143 260 
 PTB  HN ES        449 47.37                             132   -0.45 9  143 260 
 PTB  HZ I         449 51.12         2.3 0.17            134            143 260 
 SPBC HZ EP   2    449 29.93                             129    1.05 5  157 219 
 SPBC HN ES   2    449 51.59                             129    1.29 5  157 219 
 SPBC HZ I         449 53.52         3.9 0.25            131            157 219 
 SML  HZ EP        449 37.28                             116   -0.78 8  247 337 
 SML  HE ES        450  6.20                             116   -0.43 8  247 337 
 SML  HZ I         450  9.11         5.5 0.26            118            247 337 
                                                                                
