 2011  221 0851  8.6 L   6.818 -73.160135.5  RSN  5 0.2 1.5LRSN                1
 GAP=159        0.41       2.5    10.9  5.2 -0.1434E+02  0.1883E+02 -0.2494E+01E
 Epicentro: LOS SANTOS - SANTANDER                                             3
 ACTION:UP  11-03-28 15:10 OP:jfem STATUS:               ID:20110221085108 L   I
 2011-02-21-0847-17S.COL___137                                                 6
 STAT SP IPHASW D HRMM SECON CODA AMPLIT PERI AZIMU VELO SNR AR TRES W  DIS CAZ7
 BAR2 SZ EP   1    851 27.10                             169     0.0 8   25 186 
 BAR2 SZ ES   2    851 41.64                             169     0.2 5   25 186 
 BAR2 SZ I         851 43.69         8.5 0.20                            25 186 
 RUS  HZ EP   2    851 31.47                             141    -0.1 5  103 175 
 RUS  HN ES   2    851 49.30                             141    -0.1 5  103 175 
 RUS  HZ I         851 51.25         6.4 0.26                           103 175 
 GRA  SZ EP        851 32.84                             135     0.010  124  18 
 GRA  SZ ES   1    851 51.75                             135     0.0 7  124  18 
 GRA  SZ I         851 55.44         5.0 0.41                           124  18 
 OCA  SZ EP   1    851 36.24                             127     0.3 7  158 354 
 OCA  SZ ES   2    851 56.85                             127    -0.4 5  158 354 
 OCA  SZ I         852  0.66         5.7 0.46                           158 354 
 CHI  HZ EP   1    851 45.89                             115    -0.1 6  250 195 
 CHI  HZ I         852 19.49         1.1 0.07                           250 195 
                                                                                
