 2015  921 0530 58.7 L   6.784 -73.089148.1  RSN 14 0.5 1.6LRSN                1
 GAP=162        1.13       3.6     5.2  9.0 -0.4927E+01  0.9004E+01  0.8716E+01E
 Epicentro: LOS SANTOS - SANTANDER                                             3
 ACTION:UPD 15-10-28 16:27 OP:cam  STATUS:               ID:20150921053058 L   I
 OLDACT:UP  15-09-21 15:49 OP:mh   STATUS:               ID:20150921052745     3
 OLDACT:UP  15-09-21 15:42 OP:mh   STATUS:               ID:20150921052745     3
 OLDACT:UP  15-09-21 15:38 OP:mh   STATUS:               ID:20150921052745     3
 OLDACT:REG 15-09-21 12:41 OP:mh   STATUS:               ID:20150921052745     3
 2015-09-21-0527-45M.COL___355                                                 6
 STAT SP IPHASW D HRMM SECON CODA AMPLIT PERI AZIMU VELO AIN AR TRES W  DIS CAZ7
 BAR2 EZ EP        531 19.23                             171    0.6210 23.6 206 
 BAR2 EZ I         531 35.88         4.0 0.24            171           23.6 206 
 PAM  EN ES        531 37.91                             152   -0.5310 75.0  35 
 BRR  HZ EP        531 21.20                             151    0.7410 77.5 297 
 BRR  HZ I         531 40.72        15.6 0.70            155           77.5 297 
 PTB  HZ EP        531 26.07                             131   -0.31 9  154 260 
 PTB  HN ES        531 47.40                             131   -0.57 9  154 260 
 PTB  HZ I         531 52.97         4.0 0.18            135            154 260 
 OCA  HZ EP        531 26.62                             130   -0.81 9  163 351 
 OCA  HN ES        531 50.39                             130    0.55 9  163 351 
 OCA  HZ I         531 53.78         8.6 0.30            133            163 351 
 SPBC HZ EP        531 28.14                             129    0.52 9  166 221 
 SPBC HN ES        531 50.68                             129    0.49 9  166 221 
 SPBC HZ I         531 57.14         7.7 0.22            132            166 221 
 ZAR  HZ EP   1    531 32.42                             122    0.47 6  210 292 
 ZAR  HN ES        531 57.95                             122    0.05 8  210 292 
 ZAR  HZ I         532  3.79         3.5 0.39            125            210 292 
 NOR  HE ES        532  2.86                             118   -0.45 8  239 236 
 NOR  HZ I         532  6.77         2.7 0.20            121            239 236 
 SML  HN ES        532  4.69                             117   -0.25 8  248 334 
 CHI  HZ EP        531 36.15                             118   -0.37 8  249 197 
 CHI  HN ES   1    532  5.57                             118   -0.46 6  249 197 
 CHI  HZ I         532 12.29         1.3 0.52            120            249 197 
 HEL  HZ EP        531 39.36                             115   -0.29 7  278 256 
 HEL  HN ES        532 11.70                             115    0.11 7  278 256 
 HEL  HZ I         532 17.79         1.9 0.36            117            278 256 
 URE  HN ES   4    532  9.75                             113   -3.53 0  290 292 
 URE  HZ I         532 19.05         1.8 0.11            116            290 292 
 GUY2CHZ EP   4    531 45.28                             112    2.41 0  305 236 
 GUY2CHN ES   4    532 19.40                             112    2.07 0  305 236 
 GUY2CHZ I         532 25.81         2.0 0.60                           305 236 
 PRA  HZ EP        531 52.53                             107    0.05 6  394 210 
 PRA  HN ES        532 34.41                             107   -0.02 6  394 210 
 PRA  HZ I         532 40.73         1.4 0.30            109            394 210 
                                                                                
