 2017  221 0202 59.9 L   6.750 -73.111144.6  RSN  4 0.1 1.3LRSN                1
 GAP=143        0.34       2.5     2.7  4.1  0.3980E+01 -0.3754E+01 -0.3723E+01E
 Epicentro: LOS SANTOS - SANTANDER                                             3
 ACTION:UPD 17-05-24 15:38 OP:jn   STATUS:               ID:20170221020259 L   I
 OLDACT:DUP 17-02-21 15:23 OP:dani STATUS:               ID:20170221015742d    3
 2017-02-21-0158-00M.COL___379                                                 6
 STAT SP IPHASW D HRMM SECON CODA AMPLIT PERI AZIMU VELO AIN AR TRES W  DIS CAZ7
 BRR  HZ EP        2 3 21.12                             150   -0.1210 77.2 301 
 BRR  HN ES        2 3 37.96                             150    0.0510 77.2 301 
 BRR  HZ I         2 3 38.68         5.3 0.32             47           77.2 301 
 PAM  EZ EP        2 3 22.09                             150    0.0110 79.5  35 
 PAM  EZ I         2 4  0.43         3.5 0.24             37           79.5  35 
 RUS  HZ EP        2 3 23.19                             145    0.0910 94.9 178 
 RUS  HN ES        2 3 41.17                             145   -0.0510 94.9 178 
 RUS  HZ I         2 3 42.34         2.5 0.24             47           94.9 178 
 ZAR  HE ES        2 3 58.53                             121    0.02 8  210 293 
                                                                                
