 2014  421 0750 54.4 L   6.595 -73.440112.0  RSN 13 0.5 1.9LRSN                1
 GAP= 58        1.24       2.9     3.4  8.2 -0.1730E+01  0.4555E+01 -0.2745E+01E
 Epicentro: EL CARMEN DE CHUCURI - SANTANDER                                   3
 ACTION:UPD 14-05-13 23:10 OP:nd   STATUS:               ID:20140421075054 L   I
 OLDACT:REG 14-04-21 15:20 OP:spq  STATUS:               ID:20140421074813     3
 2014-04-21-0748-13M.COL___230                                                 6
 STAT SP IPHASW D HRMM SECON CODA AMPLIT PERI AZIMU VELO AIN AR TRES W  DIS CAZ7
 RUS  HZ EP        751 13.59                             140   -0.2710 87.2 153 
 RUS  HN ES        751 29.62                             140    0.5510 87.2 153 
 RUS  HZ I         751 32.77         9.0 0.16            143           87.2 153 
 PTB  HZ EP   1    751 14.19                             131   -1.19 7  113 267 
 PTB  HN ES        751 31.26                             131   -0.5110  113 267 
 PTB  HZ I         751 34.79        19.7 0.18            133            113 267 
 PAM  SZ EP        751 16.30                             131   -0.0410  116  45 
 PAM  SN ES        751 33.90                             131    0.4110  116  45 
 PAM  SZ I         751 38.15        14.2 0.56            134            116  45 
 SPBC HZ EP        751 16.23                             128   -0.4710  126 214 
 SPBC HN ES        751 33.70                             128   -0.4310  126 214 
 SPBC HZ I         751 35.17        15.3 0.12            130            126 214 
 OCA  HZ EP        751 21.82                             117   -0.81 9  182   4 
 OCA  HN ES        751 45.23                             117    0.54 9  182   4 
 OCA  HZ I         751 53.14        16.5 0.30            119            182   4 
 TAM  HZ EP        751 22.30                             117   -0.30 9  183  95 
 TAM  HN ES   1    751 44.36                             117   -0.27 7  183  95 
 TAM  HZ I         751 46.25        11.0 0.18            120            183  95 
 ZAR  HZ EP        751 22.90                             117    0.11 9  185 302 
 ZAR  HN ES   1    751 45.21                             117    0.24 7  185 302 
 ZAR  HZ I         751 50.99        12.3 0.32            118            185 302 
 CHI  HZ EP        751 27.53                             112    0.40 8  220 188 
 CHI  HN ES        751 53.08                             112    0.38 8  220 188 
 CHI  HZ I         752  2.14         4.7 0.36            115            220 188 
 HEL  HZ EP        751 29.52                             111    0.67 8  235 259 
 HEL  HN ES        751 56.74                             111    0.99 8  235 259 
 HEL  HZ I         752  1.37         4.6 0.24            112            235 259 
 SML  HZ EP        751 29.97                             109   -0.51 8  254 344 
 SML  HN ES   1    751 59.26                             109    0.60 6  254 344 
 GUY2CHZ EP   4    751 33.05                             108    1.05 0  262 235 
 GUY2CHN ES   4    752  2.92                             108    1.56 0  262 235 
 GUY2CHZ I         752 10.79         6.5 0.78                           262 235 
 URE  HZ EP   4    751 30.43                             108   -1.29 0  264 299 
 URE  HN ES   4    751 58.97                             108   -1.90 0  264 299 
 CBOC HZ EP   4    751 36.46                             105    0.82 0  296 254 
 CBOC HN ES   4    752  9.34                             105    1.50 0  296 254 
 PRA  HZ EP        751 43.45                             102    0.76 6  357 207 
 PRA  HN ES        752 20.16                             102   -0.23 6  357 207 
 PRA  HZ I         752 30.28         3.8 0.32            103            357 207 
 SJC  HZ EP   4    751 48.82                              99   -0.57 0  412 332 
 SJC  HN ES   4    752 27.80                              99   -4.52 0  412 332 
 SJC  HZ I         752 36.65         2.1 0.26            101            412 332 
                                                                                
