 2016  621 0652 55.5 L   6.758 -73.157137.5  RSN  8 0.5 1.5LRSN                1
 GAP=246        1.12       5.5     6.3  7.5  0.1577E+01  0.1489E+02  0.1319E+02E
 Epicentro: LOS SANTOS - SANTANDER                                             3
 ACTION:UPD 16-07-21 22:21 OP:rebc STATUS:               ID:20160621065255 L   I
 OLDACT:REG 16-06-21 14:47 OP:ak   STATUS:               ID:20160621064742     3
 2016-06-21-0647-42M.COL___316                                                 6
 STAT SP IPHASW D HRMM SECON CODA AMPLIT PERI AZIMU VELO AIN AR TRES W  DIS CAZ7
 BAR2 EZ EP        653 13.89                             172   -0.1110 18.6 189 
 BAR2 EZ ES        653 28.20                             172   -0.2710 18.6 189 
 BAR2 EZ I         653 30.00         6.8 0.42                          18.6 189 
 BRR  HZ EP        653 16.23                             151    0.4410 72.4 302 
 BRR  HN ES        653 32.36                             151    0.7110 72.4 302 
 BRR  HZ I         653 35.96         5.7 0.32                          72.4 302 
 PTB  HZ EP   1    653 20.80                             131   -0.77 7  146 261 
 PTB  HN ES        653 41.61                             131   -0.33 9  146 261 
 PTB  HZ I         653 44.04         3.9 0.22                           146 261 
 SPBC HZ EP        653 22.54                             128   -0.37 9  159 220 
 SPBC HN ES        653 44.05                             128   -0.27 9  159 220 
 SPBC HZ I         653 50.62         5.7 0.42                           159 220 
 ZAR  HZ EP   1    653 26.73                             120   -0.71 6  205 293 
 ZAR  HN ES        653 52.56                             120    0.17 9  205 293 
 ZAR  HZ I         653 58.25         2.0 0.20                           205 293 
 GUY2CHZ EP   2    653 38.30                             111    0.03 4  298 235 
 GUY2CHE ES        654 12.19                             111    0.52 7  298 235 
 GUY2CHZ I         654 18.39         1.4 0.38                           298 235 
 CBOC HZ EP        653 42.24                             108    0.50 7  331 253 
 CBOC HN ES        654 16.86                             108   -0.98 7  331 253 
 PRA  HZ EP        653 48.68                             105    0.52 6  387 210 
 PRA  HN ES        654 30.31                             105    1.05 6  387 210 
 PRA  HZ I         654 35.10         1.6 0.20                           387 210 
                                                                                
