 2015  221 0122 45.4 L   7.451 -73.671 91.6  RSN  5 0.5 1.3LRSN                1
 GAP=123        1.31       4.3     5.4 10.7 -0.6426E+01  0.1373E+02 -0.1286E+02E
 Epicentro: SABANA DE TORRES - SANTANDER                                       3
 ACTION:UPD 15-04-30 21:28 OP:nd   STATUS:               ID:20150221012245 L   I
 OLDACT:REG 15-02-21 12:33 OP:fm   STATUS:               ID:20150221011744     3
 2015-02-21-0117-44M.COL___287                                                 6
 STAT SP IPHASW D HRMM SECON CODA AMPLIT PERI AZIMU VELO AIN AR TRES W  DIS CAZ7
 BRR  HZ EP        122 59.57                             156    0.7110 38.3 187 
 BRR  HN ES        123  9.64                             156    0.3110 38.3 187 
 BRR  HZ I         123 10.84        13.8 0.12            162           38.3 187 
 OCA  HZ EP        123  3.90                             130    0.5010 95.4  24 
 OCA  HE ES        123 17.61                             130    0.1810 95.4  24 
 OCA  HZ I         123 20.36         4.8 0.38            131           95.4  24 
 PAM  SZ EP        123  5.34                             127    0.2710  108  97 
 PAM  SN ES        123 19.51                             127   -0.8810  108  97 
 PAM  SZ I         123 21.30         2.3 0.44            131            108  97 
 PTB  HZ EP        123  6.87                             120   -0.1510  133 221 
 PTB  HN ES        123 23.34                             120   -0.5310  133 221 
 PTB  HZ I         123 24.56         1.8 0.26            123            133 221 
 SML  HZ EP        123  9.61                             116    0.14 9  156 344 
 SML  HN ES        123 27.52                             116   -0.70 9  156 344 
 SML  HZ I         123 35.11         5.2 0.10            116            156 344 
                                                                                
