 2014  521 0358 21.3 L   6.780 -73.119151.8  RSN  5 0.3 1.8LRSN                1
 GAP=199        0.82      13.4     9.0 10.5 -0.9467E+02 -0.3310E+02  0.9655E+02E
 Epicentro: LOS SANTOS - SANTANDER                                             3
 ACTION:UPD 15-03-16 16:59 OP:nd   STATUS:               ID:20140521035821 L   I
 OLDACT:UP  14-05-21 13:39 OP:cam  STATUS:               ID:20140521035000     3
 OLDACT:REG 14-05-21 12:47 OP:cam  STATUS:               ID:20140521035000     3
 2014-05-21-0350-00M.COL___252                                                 6
 STAT SP IPHASW D HRMM SECON CODA AMPLIT PERI AZIMU VELO AIN AR TRES W  DIS CAZ7
 BRR  HZ IP     C  358 43.46                             152    0.1910 74.8 299 
 BRR  HN ES        359  0.61                             152    0.1810 74.8 299 
 BRR  HZ I         359  1.63        12.4 0.14            159           74.8 299 
 PAM  SZ EP   1    358 44.46                             152    0.34 7 77.4  37 
 PAM  SN ES        359  1.76                             152   -0.1910 77.4  37 
 PAM  SZ I         359  3.28        11.4 0.72            157           77.4  37 
 PTB  HZ EP        358 48.27                             133   -0.68 9  150 260 
 PTB  HN ES   4    359  9.24                             133   -1.30 0  150 260 
 PTB  HZ I         359 10.83         7.6 0.38            136            150 260 
 NOR  HE ES        359 25.70                             120   -0.00 8  236 235 
 NOR  HZ I         359 29.82         4.8 0.20            122            236 235 
 GUY2CHZ EP        359  5.71                             113    0.43 7  302 235 
                                                                                
