 2014  221 0047 52.0 L   6.801 -73.129140.1  RSN 11 0.4 2.1LRSN                1
 GAP= 72        0.86       3.3     3.6  6.2  0.5039E+00  0.9238E+01  0.7731E+00E
 Epicentro: LOS SANTOS - SANTANDER                                             3
 ACTION:UPD 14-03-10 08:11 OP:ep   STATUS:               ID:20140221004752 L   I
 OLDACT:REG 14-02-21 08:38 OP:fm   STATUS:               ID:20140221004000     3
 2014-02-21-0040-00M.COL___213                                                 6
 STAT SP IPHASW D HRMM SECON CODA AMPLIT PERI AZIMU VELO AIN AR TRES W  DIS CAZ7
 BAR2 SZ EP   1    048 10.93                             170   -0.04 7 23.8 194 
 BAR2 SZ ES   1    048 25.49                             170   -0.27 7 23.8 194 
 BAR2 SZ I         048 28.09        32.6 0.29            171           23.8 194 
 PAM  SZ EP        048 13.88                             150    0.3310 76.1  39 
 PAM  SN ES        048 30.68                             150    0.3310 76.1  39 
 PAM  SZ I         048 33.29        22.1 0.61            152           76.1  39 
 RUS  HZ EP        048 15.15                             143   -0.0610  101 177 
 RUS  HN ES        048 32.85                             143   -0.4510  101 177 
 RUS  HZ I         048 34.55        11.1 0.26            146            101 177 
 PTB  HZ EP   1    048 18.37                             130   -0.32 7  150 259 
 PTB  HN ES   4    048 38.19                             130   -1.31 0  150 259 
 PTB  HZ I         048 40.90        11.4 0.17            133            150 259 
 TAM  HZ EP   1 C  048 19.25                             129    0.18 7  153 105 
 TAM  HN ES   1    048 40.65                             129    0.46 7  153 105 
 OCA  HN ES   1    048 40.85                             128   -0.80 7  160 352 
 OCA  HZ I         048 44.60        14.1 0.26            130            160 352 
 ZAR  HZ EP        048 24.31                             121    0.05 8  206 292 
 ZAR  HN ES        048 49.83                             121    0.40 8  206 292 
 ZAR  HZ I         048 51.34        11.6 0.16            123            206 292 
 NOR  HN E      D  041 54.29                                            236 235 
 NOR  HZ EP        048 27.63                             117    0.05 8  236 235 
 NOR  HN ES   1    048 56.07                             117    0.73 6  236 235 
 NOR  HZ I         048 56.86         7.9 0.16            120            236 235 
 SML  HZ EP   1    048 27.49                             116   -0.90 6  244 335 
 SML  HN ES   4    048 55.31                             116   -1.47 0  244 335 
 CHI  HZ EP   1    048 29.29                             116   -0.17 6  249 196 
 CHI  HN ES   4    049  1.97                             116    3.29 0  249 196 
 URE  HZ EP   4    048 32.50                             112   -0.50 0  286 292 
 URE  HE ES   4    049  2.90                             112   -2.07 0  286 292 
 URE  HZ I         049  5.10         9.7 0.15            114            286 292 
                                                                                
