 2014  821 0914 40.2 L   6.802 -73.170146.2  RSN 12 0.5 1.9LRSN                1
 GAP=133        1.12       3.3     4.4  6.0 -0.7049E+00  0.6978E+01  0.8300E+00E
 Epicentro: LOS SANTOS - SANTANDER                                             3
 ACTION:UPD 14-09-15 21:51 OP:nd   STATUS:               ID:20140821091440 L   I
 OLDACT:UP  14-08-21 16:38 OP:cam  STATUS:               ID:20140821091000     3
 OLDACT:REG 14-08-21 13:22 OP:cam  STATUS:               ID:20140821091000     3
 2014-08-21-0910-00M.COL___285                                                 6
 STAT SP IPHASW D HRMM SECON CODA AMPLIT PERI AZIMU VELO AIN AR TRES W  DIS CAZ7
 BAR2 SZ EP     D  914 59.81                             171   -0.0610 23.3 183 
 BAR2 SZ ES        915 15.20                             171   -0.0110 23.3 183 
 BAR2 SZ I         915 16.32        30.8 0.28            170           23.3 183 
 BRR  HZ EP   1    915  1.40                             153    0.16 7 68.7 299 
 BRR  HE ES        915 18.71                             153    1.0510 68.7 299 
 BRR  HZ I         915 21.11        12.6 0.26            152           68.7 299 
 PAM  SZ IP     C  915  2.83                             150    0.2910 78.9  41 
 PAM  SN ES        915 19.77                             150   -0.2010 78.9  41 
 PAM  SZ I         915 22.84         7.3 0.38            153           78.9  41 
 RUS  HZ EP        915  3.79                             144   -0.2210  101 175 
 RUS  HN ES        915 22.22                             144   -0.3810  101 175 
 RUS  HZ I         915 23.82         6.6 0.30            146            101 175 
 PTB  HZ EP        915  6.36                             133   -0.60 9  145 259 
 PTB  HN ES        915 27.16                             133   -0.67 9  145 259 
 PTB  HZ I         915 30.11         7.6 0.16            132            145 259 
 SPBC HZ EP        915  8.76                             129    0.18 9  162 218 
 SPBC HN ES        915 30.70                             129   -0.02 9  162 218 
 SPBC HZ I         915 37.53        12.3 0.32            130            162 218 
 ZAR  HZ EP        915 13.10                             123    0.71 9  201 292 
 ZAR  HE ES        915 37.18                             123   -0.33 9  201 292 
 ZAR  HZ I         915 40.00         4.2 0.22            123            201 292 
 NOR  HZ EP        915 16.51                             119    0.79 8  233 234 
 NOR  HN ES        915 43.54                             119    0.10 8  233 234 
 NOR  HZ I         915 50.71         6.7 0.16            120            233 234 
 SML  HZ EP        915 16.61                             118   -0.08 8  242 336 
 SML  HE ES        915 44.55                             118   -0.61 8  242 336 
 SML  HZ I         915 54.25        10.7 0.10            119            242 336 
 CHI  HZ EP   1    915 18.05                             117    0.19 6  248 195 
 CHI  HN ES        915 47.56                             117    0.31 8  248 195 
 CHI  HZ I         915 50.89         3.6 0.62            119            248 195 
 HEL  HZ EP   4    915 21.03                             115    0.89 0  270 256 
 GUY2CHZ EP   4    915 24.98                             113    1.39 0  299 234 
 RREF HZ EP   4    915 24.71                             111   -1.43 0  320 229 
 PRA  HZ EP        915 32.83                             107   -0.77 6  391 209 
 SJC  HZ EP   4    915 33.95                             106   -1.62 0  408 327 
 SJC  HN ES   4    916 14.68                             106   -4.08 0  408 327 
 SJC  HN I         916 18.76         2.7 0.52            107            408 327 
                                                                                
