 2013  221 0801  8.1 L   6.786 -73.155149.3  RSN  9 0.4 1.5LRSN                1
 GAP=136        0.81       3.3     5.2  6.7  0.2327E+01  0.8964E+01  0.1611E+01E
 Epicentro: LOS SANTOS - SANTANDER                                             3
 ACTION:UPD 13-03-12 09:34 OP:ep   STATUS:               ID:20130221080108 L   I
 2013-02-21-0800-00M.COL___238                                                 6
 STAT SP IPHASW D HRMM SECON CODA AMPLIT PERI AZIMU VELO AIN AR TRES W  DIS CAZ7
 BAR2 SZ EP   1    8 1 28.04                             171   -0.04 7 21.6 188 
 BAR2 SZ ES   1    8 1 43.52                             171   -0.18 7 21.6 188 
 BRR  HZ EP   1    8 1 30.10                             153    0.51 7 71.1 300 
 BRR  HE ES   1    8 1 47.28                             153    0.91 7 71.1 300 
 BRR  HZ I         8 1 50.39         4.1 0.30            150           71.1 300 
 PAM  SN ES   1    8 1 48.23                             151   -0.24 7 79.3  39 
 PAM  SZ I         8 1 50.25         5.3 0.54            154           79.3  39 
 RUS  HZ EP   1    8 1 32.24                             145    0.18 7 99.1 175 
 RUS  HN ES   1    8 1 50.81                             145    0.04 7 99.1 175 
 PTB  HZ EP   1    8 1 34.78                             133   -0.42 7  146 259 
 PTB  HN ES   1    8 1 55.60                             133   -0.77 7  146 259 
 PTB  HZ I         8 1 57.43         3.1 0.60            132            146 259 
 OCA  HN ES   1    8 1 58.78                             130   -0.41 7  162 354 
 ZAR  HN ES   1    8 2  6.48                             123    0.32 6  204 293 
 ZAR  HZ I         8 2 15.34         1.7 0.22            123            204 293 
 SML  HZ EP   1    8 1 44.92                             118   -0.08 6  245 336 
 SML  HN ES   1    8 2 13.67                             118   -0.13 6  245 336 
 SML  HZ I         8 2 15.96         4.5 0.10            119            245 336 
 CHI  HZ EP   1    8 1 46.25                             118    0.48 6  247 195 
 CHI  HN ES   1    8 2 14.86                             118   -0.31 6  247 195 
 CHI  HZ I         8 2 16.87         1.6 0.56            120            247 195 
                                                                                
