 2017  221 0454 17.1 L   6.803 -73.125149.6  RSN 13 0.6 1.7LRSN                1
 GAP=121        0.95       3.4     4.2  5.4  0.2225E+01  0.6219E+01  0.2559E+01E
 Epicentro: LOS SANTOS - SANTANDER                                             3
 ACTION:UPD 17-05-24 15:38 OP:jn   STATUS:               ID:20170221045417 L   I
 OLDACT:UP  17-02-21 16:36 OP:dani STATUS:               ID:20170221044741     3
 OLDACT:UP  17-02-21 16:35 OP:dani STATUS:               ID:20170221044741     3
 OLDACT:UP  17-02-21 16:26 OP:dani STATUS:               ID:20170221044741     3
 OLDACT:REG 17-02-21 14:16 OP:dani STATUS:               ID:20170221044741     3
 2017-02-21-0448-00M.COL___379                                                 6
 STAT SP IPHASW D HRMM SECON CODA AMPLIT PERI AZIMU VELO AIN AR TRES W  DIS CAZ7
 BAR2 EZ EP        454 37.27                             171    0.0310 24.1 195 
 BAR2 EZ ES        454 52.58                             171   -0.3510 24.1 195 
 BAR2 EZ I         454 56.26         6.4 0.42            168           24.1 195 
 BRR  HZ EP        454 39.14                             153    0.3310 73.1 297 
 BRR  HN ES        454 56.45                             153    0.7410 73.1 297 
 BRR  HZ I         455  1.64         9.2 0.14            152           73.1 297 
 PAM  EZ EP        454 40.04                             152    0.3710 75.7  38 
 PAM  EN ES        454 57.15                             152   -0.0910 75.7  38 
 PAM  EZ I         454 59.56         6.4 0.40            157           75.7  38 
 RUS  HZ EP        454 41.02                             144   -0.2610  101 177 
 RUS  HE ES        454 59.78                             144   -0.3310  101 177 
 RUS  HZ I         455  0.75         3.6 0.38            146            101 177 
 PTB  HZ EP        454 44.23                             132   -0.40 9  150 259 
 PTB  HN ES        455  5.39                             132   -0.68 9  150 259 
 PTB  HZ I         455  8.89         5.5 0.12            133            150 259 
 ZAR  HZ EP        454 49.80                             123   -0.24 8  206 292 
 ZAR  HE ES        455 16.03                             123    0.33 8  206 292 
 ZAR  HZ I         455 20.85         6.8 0.36            124            206 292 
 NOR  HZ EP   3    454 54.62                             119    1.31 2  237 235 
 NOR  HN ES   3    455 20.01                             119   -1.51 2  237 235 
 NOR  HZ I         455 25.41         3.5 0.20            120            237 235 
 CHI  HZ EP        454 55.21                             118    0.06 8  250 196 
 CHI  HN ES        455 25.46                             118    0.67 8  250 196 
 CHI  HZ I         455 30.30         1.9 0.26            120            250 196 
 HEL  HZ EP   3    454 59.15                             115    1.35 2  274 256 
 URE  HZ EP   3    454 57.18                             114   -1.44 2  286 292 
 URE  HE ES   4    455 28.70                             114   -2.27 0  286 292 
 URE  HZ I         455 31.67         4.4 0.11            116            286 292 
 PTGC HZ EP   3    455  0.01                             112   -1.09 2  308 159 
 PRA  HZ EP        455 11.57                             107    0.62 6  393 210 
 PRA  HE ES   3 C  455 54.08                             107    1.15 1  393 210 
 PRA  HZ I         455 58.95         2.5 0.48            109            393 210 
 SJC  HZ EP   3    455 11.47                             106   -1.47 1  410 327 
 SJC  HN ES        455 55.79                             106   -0.68 6  410 327 
                                                                                
