 2012  721 0833 10.7 L   6.770 -73.130144.9  RSN 10 0.4 1.9LRSN                1
 GAP=140        0.98       4.3     4.8  7.6 -0.1370E+01  0.8525E+01  0.5467E+01E
 Epicentro: LOS SANTOS - SANTANDER                                             3
 ACTION:UPD 12-08-14 11:46 OP:ep   STATUS:               ID:20120721083310 L   I
 2012-07-21-0830-00M.COL___215                                                 6
 STAT SP IPHASW D HRMM SECON CODA AMPLIT PERI AZIMU VELO AIN AR TRES W  DIS CAZ7
 BAR2 SZ EP        833 30.19                             172     0.010   20 197 
 BAR2 SZ ES   1    833 44.95                             172    -0.4 7   20 197 
 BAR2 SZ I         833 47.66        28.4 0.25            165             20 197 
 BRR  HZ EP        833 32.29                             151     0.410   74 300 
 BRR  HN ES   1    833 48.93                             151     0.4 7   74 300 
 BRR  HZ I         833 53.72        18.1 0.15            149             74 300 
 PAM  SZ EP        833 33.22                             150     0.310   79  37 
 PAM  SN ES   1    833 50.07                             150    -0.2 7   79  37 
 RUS  HZ EP        833 34.14                             145     0.010   97 177 
 RUS  HE ES   1    833 52.65                             145     0.3 7   97 177 
 RUS  HZ I         833 54.20        10.1 0.27            144             97 177 
 PTB  HZ EP        833 36.89                             132    -0.8 9  149 260 
 PTB  HN ES   1    833 57.99                             132    -0.8 7  149 260 
 PTB  HZ I         834  3.36         8.3 0.08            130            149 260 
 OCA  HN ES   1    834  1.16                             129    -0.4 7  164 353 
 ZAR  HZ EP   2    833 43.45                             122     0.1 4  207 293 
 ZAR  HN ES   1    834  9.27                             122     0.4 6  207 293 
 ZAR  HZ I         834 14.42        15.8 0.24            123            207 293 
 NOR  SZ EP   2    833 46.22                             118    -0.1 4  234 235 
 NOR  SN ES   1    834 14.64                             118     0.5 6  234 235 
 CHI  HZ EP   1    833 47.62                             117    -0.4 6  246 196 
 CHI  HN ES   2    834 17.46                             117     0.3 4  246 196 
 CHI  HZ I         834 27.77         2.6 0.37            118            246 196 
 HEL  HZ EP   2    833 51.62                             114     0.7 4  273 257 
 HEL  HN ES   2    834 23.14                             114     0.8 4  273 257 
 HEL  HZ I         834 29.34         4.2 0.36            115            273 257 
