 2015  121 0544  8.0 L   6.796 -73.152144.3  RSN  9 0.4 1.4LRSN                1
 GAP=136        0.99       3.1     4.2  6.5 -0.2790E+00  0.6464E+01 -0.1367E+01E
 Epicentro: LOS SANTOS - SANTANDER                                             3
 ACTION:UPD 15-03-02 15:41 OP:nd   STATUS:               ID:20150121054408 L   I
 OLDACT:REG 15-01-21 12:25 OP:carl STATUS:               ID:20150121053742     3
 2015-01-21-0537-42M.COL___265                                                 6
 STAT SP IPHASW D HRMM SECON CODA AMPLIT PERI AZIMU VELO AIN AR TRES W  DIS CAZ7
 BAR2 EZ EP        544 27.43                             171   -0.0510 22.8 188 
 BAR2 EZ ES        544 42.80                             171    0.1610 22.8 188 
 BAR2 EZ I         544 44.65         2.9 0.28            169           22.8 188 
 BRR  HZ EP        544 29.34                             152    0.3410 70.8 299 
 BRR  HN ES        544 46.06                             152    0.7110 70.8 299 
 BRR  HZ I         544 50.24         6.6 0.12            150           70.8 299 
 PAM  SZ EP        544 30.47                             150    0.3310 78.2  40 
 PAM  SN ES        544 47.16                             150   -0.2210 78.2  40 
 PAM  SZ I         544 49.43         4.3 0.62            155           78.2  40 
 RUS  HZ EP        544 31.79                             144    0.1710  100 176 
 RUS  HN ES        544 49.50                             144   -0.5110  100 176 
 PTB  HE ES        544 55.64                             132   -0.06 9  147 259 
 PTB  HZ I         545  2.05         3.2 0.24            132            147 259 
 OCA  HE ES        544 57.56                             129   -0.72 9  161 353 
 SPBC HZ EP        544 36.40                             129    0.05 9  162 219 
 SPBC HN ES        544 58.43                             129   -0.00 9  162 219 
 SPBC HZ I         545  2.06         4.3 0.16            130            162 219 
 ZAR  HZ EP        544 40.13                             122   -0.21 9  204 292 
 ZAR  HN ES        545  4.90                             122   -0.63 9  204 292 
 ZAR  HZ I         545 13.57         3.4 0.26            123            204 292 
 SML  HE ES        545 13.56                             117    0.46 8  244 335 
                                                                                
