 2012  721 0639 30.2 L   6.771 -73.148140.5  RSN  9 0.4 1.8LRSN                1
 GAP=138        0.84       3.6     4.2  6.7 -0.2413E+00  0.6903E+01  0.2816E+01E
 Epicentro: LOS SANTOS - SANTANDER                                             3
 ACTION:UPD 12-08-14 11:46 OP:ep   STATUS:               ID:20120721063930 L   I
 2012-07-21-0638-50M.COL___205                                                 6
 STAT SP IPHASW D HRMM SECON CODA AMPLIT PERI AZIMU VELO AIN AR TRES W  DIS CAZ7
 BAR2 SZ EP        639 49.12                             171     0.010   20 191 
 BAR2 SZ ES   1    640  3.72                             171    -0.1 7   20 191 
 BAR2 SZ I         640  5.15        23.2 0.34            165             20 191 
 BRR  HZ IP        639 50.88                             151     0.110   73 301 
 BRR  HN ES   1    640  7.32                             151     0.4 7   73 301 
 BRR  HZ I         640  8.77        24.6 0.16            149             73 301 
 PAM  SZ EP        639 51.99                             149     0.010   80  38 
 PAM  SN ES   1    640  8.82                             149    -0.2 7   80  38 
 RUS  HZ EP   1    639 53.15                             144     0.0 7   97 176 
 RUS  HZ I         639 54.33         7.0 0.13            141             97 176 
 RUS  HN ES   1    640 11.21                             144     0.1 7   97 176 
 PTB  HZ EP   1    639 55.94                             131    -0.7 7  147 260 
 PTB  HN ES   1    640 16.65                             131    -0.6 7  147 260 
 PTB  HZ I         640 22.31         6.1 0.26            128            147 260 
 OCA  HN ES   1    640 20.61                             128     0.2 7  163 353 
 ZAR  HZ EP   1    640  2.86                             121     0.5 6  205 293 
 ZAR  HN ES   1    640 27.14                             121    -0.3 6  205 293 
 ZAR  HZ I         640 31.86         5.7 0.23            120            205 293 
 CHI  HZ EP   1    640  6.82                             116    -0.4 6  246 195 
 CHI  HN ES   1    640 36.71                             116     0.6 6  246 195 
 CHI  HZ I         640 45.87         3.0 0.44            115            246 195 
 HEL  HN ES   1    640 41.76                             114     0.7 6  271 256 
 HEL  HZ I         640 47.82         3.3 0.52            113            271 256 
