 2010  221 0327  5.4 L   6.794 -73.063143.0  RSN 13 0.5 3.0LRSN                1
 GAP=191        0.84       3.9     7.9  6.2 -0.4470E+01  0.1746E+02  0.7731E+01E
 Epicentro: LOS SANTOS - SANTANDER                                             3
 ACTION:UP  10-08-24 09:49 OP:vdl  STATUS:               ID:20100221032705 L   I
 2010-02-21-0325-24S.COL___094                                                 6
 STAT SP IPHASW D HRMM SECON CODA AMPLIT PERI AZIMU VELO SNR AR TRES W  DIS CAZ7
 BAR2 SZ IP        327 24.93                             169     0.110   26 211 
 BAR2 SZ ES   2    327 39.35                             169    -0.5 5   26 211 
 GIR2 SZ IP        327 24.91                             166     0.010   35 335 
 GIR2 SZ ES   1    327 40.15                             166     0.1 7   35 335 
 BRR  HZ IP        327 26.71                             149    -0.110   80 296 
 BRR  HE ES   2    327 44.10                             149     0.6 5   80 296 
 BRR  HZ I         327 45.32       123.4 0.10                            80 296 
 RUS  BZ EP        327 28.89                             143     0.010  100 181 
 RUS  BE ES   2    327 47.18                             143     0.1 5  100 181 
 OCA  SZ EP        327 33.29                             129    -0.4 9  162 350 
 OCA  SZ ES   2    327 55.41                             129    -0.4 5  162 350 
 OCA  SZ I         327 59.26       184.3 0.22                           162 350 
 CHI  HZ EP        327 43.03                             116    -0.2 8  251 197 
 CHI  HE ES   2    328 12.32                             116    -0.3 4  251 197 
 ROSC BZ EP        327 44.67                             116     0.8 8  257 213 
 ROSC BN ES   2    328 13.09                             116    -0.8 4  257 213 
 ROSC BZ I         328 22.88        53.4 0.30                           257 213 
 HEL  HZ IP        327 46.83                             113     0.3 7  281 256 
 HEL  HN ES   3    328 18.78                             113     0.3 2  281 256 
 HEL  HZ I         328 24.43        50.9 0.25                           281 256 
 RREF BZ EP        327 53.12                             110     0.9 7  328 231 
 RREF BN ES   2    328 28.15                             110    -0.6 3  328 231 
 RREF BZ I         328 39.89        41.1 0.33                           328 231 
 DBB  SZ EP   3    327 52.70                             108    -1.2 2  349 274 
 TOL  SZ EP        327 54.22                             108    -0.1 6  350 226 
 TOL  SZ ES   3    328 31.63                             108    -0.8 2  350 226 
 ANIL BZ EP        327 55.69                             108    -0.2 6  363 226 
 ANIL BZ I         328 42.85        78.4 0.21                           363 226 
 PRA  HZ EP        327 58.45                             106    -0.9 6  396 211 
 PRA  HE ES   2    328 41.19                             106    -0.2 3  396 211 
 PRA  HZ I         328 45.97        28.6 0.34                           396 211 
                                                                                
