 2010 1121 0743 53.3 L   6.801 -73.112142.9  RSN 13 0.4 2.2LRSN                1
 GAP=162        0.71       2.8     5.2  5.2 -0.5604E+01  0.4959E+01  0.1497E+01E
 Epicentro: LOS SANTOS - SANTANDER                                             3
 ACTION:UP  10-12-17 16:54 OP:REBC STATUS:               ID:20101121074353 L   I
 2010-11-21-0741-03S.COL___132                                                 6
 STAT SP IPHASW D HRMM SECON CODA AMPLIT PERI AZIMU VELO SNR AR TRES W  DIS CAZ7
 BTL  SZ IP        744 12.83                             171     0.210   22 307 
 BAR2 SZ IP        744 12.66                             170     0.010   24 199 
 BAR2 SZ ES   1    744 27.51                             170    -0.2 7   24 199 
 BAR2 SZ I         744 28.96        50.9 0.12                            24 199 
 BRR  HZ IP     D  744 14.51                             151     0.110   75 297 
 BRR  HN ES   1    744 31.25                             151     0.5 7   75 297 
 BRR  HZ I         744 35.64        35.5 0.17                            75 297 
 RUS  HZ EP   1    744 16.63                             143    -0.2 7  100 178 
 RUS  HN ES   1    744 34.90                             143    -0.2 7  100 178 
 RUS  HZ I         744 36.29        23.7 0.28                           100 178 
 GRA  SZ IP        744 18.49                             137     0.310  125  16 
 GRA  SZ ES   1    744 37.62                             137     0.0 7  125  16 
 GRA  SZ I         744 39.44        18.9 0.31                           125  16 
 OCA  SZ EP   1    744 21.17                             129    -0.3 7  161 352 
 OCA  SZ ES   1    744 42.69                             129    -0.7 7  161 352 
 OCA  SZ I         744 47.73        17.3 0.43                           161 352 
 NOR  SZ EP   2    744 28.42                             117    -0.8 4  238 235 
 NOR  SE ES   2    744 56.40                             117    -0.9 4  238 235 
 CHI  HZ EP   2    744 31.26                             116     0.3 4  250 196 
 CHI  HE ES   2    745  0.20                             116    -0.2 4  250 196 
 ROSC BZ EP   1    744 31.89                             116     0.4 6  255 212 
 ROSC BE ES   1    745  1.62                             116     0.3 6  255 212 
 ROSC BZ I         745  7.28         9.8 0.36                           255 212 
 HEL  HZ EP   2    744 34.09                             114     0.3 4  276 256 
 HEL  HE ES   2    745  5.16                             114    -0.2 4  276 256 
 HEL  HZ I         745 11.52         9.9 0.27                           276 256 
 RREF HZ EP   2    744 40.12                             110     0.4 3  325 230 
 RREF HE ES   2    745 16.26                             110     0.4 3  325 230 
 RREF HZ I         745 22.90         7.0 0.23                           325 230 
 TOL  SZ EP   2    744 42.49                             108     0.7 3  346 225 
 PRA  HZ EP   1    744 46.41                             106    -0.6 4  394 210 
 PRA  HE ES   2    745 28.03                             106    -0.8 3  394 210 
                                                                                
