 2012  221 0951 36.7 L   6.747 -73.201145.9  RSN  4 0.2 1.1LRSN                1
 GAP=171        0.45       6.6     4.4  5.5  0.7685E+01  0.6837E+01  0.8598E+01E
 ACTION:UP  12-03-07 16:32 OP:epov STATUS:               ID:20120221095136 L   I
 2012-02-21-0950-00M.COL___191                                                 6
 STAT SP IPHASW D HRMM SECON CODA AMPLIT PERI AZIMU VELO AIN AR TRES W  DIS CAZ7
 BAR2 SZ EP   1    951 56.06                             173   -0.21 7 17.2 173 
 BAR2 SZ ES   1    952 11.45                             173   -0.06 7 17.2 173 
 BAR2 SZ I         952 13.70         3.7 0.27                          17.2 173 
 GIR2 SZ ES   2    952 12.25                             165    0.19 5 36.7   1 
 RUS  HZ EP   1    952  0.01                             145   -0.11 7 95.3 172 
 RUS  HZ I         952  1.17         1.4 0.48                          95.3 172 
 RUS  HN ES   2    952 18.67                             145    0.30 5 95.3 172 
 PTB  HZ EP   1    952  3.42                             133    0.35 7  141 261 
 PTB  HN ES   1    952 23.45                             133   -0.17 7  141 261 
                                                                                
