 2016  921 0751 41.5 L   6.810 -73.147144.0  RSN 15 0.5 2.2LRSN                1
 GAP=183        1.23       3.8     5.5  6.5  0.1622E+01  0.7847E+01  0.2269E+01E
 Epicentro: LOS SANTOS - SANTANDER                                             3
 ACTION:UPD 17-08-17 21:14 OP:lp   STATUS:               ID:20160921075141 L   I
 OLDACT:UP  16-09-21 14:41 OP:drio STATUS:               ID:20160921074740     3
 OLDACT:REG 16-09-21 13:08 OP:and  STATUS:               ID:20160921074740     3
 2016-09-21-0748-00M.COL___339                                                 6
 STAT SP IPHASW D HRMM SECON CODA AMPLIT PERI AZIMU VELO AIN AR TRES W  DIS CAZ7
 BAR2 EZ EP        752  0.95                             170    0.0510 24.4 189 
 BAR2 EZ ES        752 15.51                             170   -0.5510 24.4 189 
 BAR2 EZ I         752 17.14        43.2 0.26            164           24.4 189 
 BRR  HZ IP     C  752  2.71                             152    0.3310 70.5 298 
 BRR  HN ES        752 19.92                             152    1.2210 70.5 298 
 BRR  HZ I         752 23.03        29.9 0.28            148           70.5 298 
 RUS  HZ EP        752  4.99                             143   -0.1310  102 176 
 RUS  HE ES        752 23.89                             143    0.3210  102 176 
 RUS  HZ I         752 24.64        19.1 0.28            141            102 176 
 PTB  HZ EP        752  7.43                             132   -0.86 9  148 258 
 PTB  HE ES        752 28.57                             132   -0.64 9  148 258 
 PTB  HZ I         752 30.54        20.1 0.42            128            148 258 
 OCA  HZ EP        752  9.59                             129    0.06 9  159 353 
 OCA  HN ES        752 30.95                             129   -0.47 9  159 353 
 SPBC HZ EP        752  9.74                             128   -0.15 9  164 219 
 SPBC HN ES        752 32.01                             128   -0.06 9  164 219 
 SPBC HZ I         752 36.28        31.8 0.22            126            164 219 
 ZAR  HZ EP        752 14.10                             122    0.37 9  203 292 
 ZAR  HN ES        752 38.37                             122   -0.53 9  203 292 
 ZAR  HZ I         752 45.10        15.5 0.24            121            203 292 
 NOR  HZ EP        752 17.16                             118    0.02 8  235 234 
 NOR  HE ES   4    752 43.09                             118   -1.88 0  235 234 
 NOR  HZ I         752 54.25         9.3 0.16            117            235 234 
 CHI  HZ EP        752 18.98                             117   -0.19 8  250 195 
 CHI  HE ES        752 48.53                             117   -0.06 8  250 195 
 CHI  HZ I         752 50.59         9.4 0.34            116            250 195 
 ROSC BZ EP   4    752 20.96                             116    1.38 0  254 211 
 ROSC BE ES   4    752 51.59                             116    2.28 0  254 211 
 ROSC BZ I         752 55.58        22.7 0.40            115            254 211 
 HEL  HZ EP   4    752 22.88                             114    1.29 0  272 256 
 HEL  HN ES        752 53.24                             114    0.34 8  272 256 
 HEL  HZ I         752 58.98         7.0 0.28            113            272 256 
 GUY2CHZ EP        752 25.96                             112    0.92 7  302 235 
 GUY2CHE ES   4    753  1.46                             112    2.42 0  302 235 
 GUY2CHZ I         753  7.15         7.8 0.32                           302 235 
 PTGC HZ EP   4    752 24.22                             111   -1.14 0  310 159 
 PTGC HN ES   4    752 57.93                             111   -1.67 0  310 159 
 PTGC HZ I         753  4.40         4.6 0.32            112            310 159 
 CBOC HZ EP        752 28.96                             110    0.64 7  334 252 
 CBOC HN ES   4    753  3.80                             110   -1.07 0  334 252 
 CBOC HZ I         753 16.03         2.1 0.38            109            334 252 
 PAL  HZ EP        752 36.26                             106   -0.35 6  406 239 
 PAL  HE ES   4    753 18.09                             106   -1.54 0  406 239 
 PAL  HZ I         753 24.84         2.0 0.40            105            406 239 
                                                                                
