 2017  621 0613 39.4 L   6.730 -73.227151.4  RSN  5 0.3 1.4LRSN                1
 GAP=270        0.87       5.2     7.7  9.3 -0.5421E+01 -0.1021E+02  0.1628E+02E
 Epicentro: VILLANUEVA - SANTANDER                                             3
 ACTION:UPD 17-09-14 16:53 OP:jn   STATUS:               ID:20170621061339 L   I
 OLDACT:REG 17-06-21 12:43 OP:lv   STATUS:               ID:20170621060742     3
 2017-06-21-0608-00M.COL___348                                                 6
 STAT SP IPHASW D HRMM SECON CODA AMPLIT PERI AZIMU VELO AIN AR TRES W  DIS CAZ7
 BRR  HZ EP        614  0.63                             155   -0.3110 67.9 308 
 BRR  HN ES        614 18.03                             155    0.2510 67.9 308 
 PTB  HZ EP        614  5.63                             135   -0.27 9  138 261 
 PTB  HN ES        614 26.00                             135   -0.60 9  138 261 
 PTB  HZ I         614 28.78         2.9 0.10            139            138 261 
 SPBC HZ EP        614  7.59                             133    0.36 9  151 218 
 SPBC HN ES        614 29.11                             133    0.15 9  151 218 
 SPBC HZ I         614 36.36         3.7 0.10            134            151 218 
 ZAR  HE ES        614 37.28                             124    0.43 9  199 295 
 GUY2CHZ EP   4    614 24.19                             114    2.28 0  289 235 
 GUY2CHN ES        614 55.25                             114    0.15 7  289 235 
 GUY2CHZ I         615  5.26         1.4 0.11                           289 235 
                                                                                
