 2011  721 0758 35.6 L   6.728 -73.072131.2  RSN  4 0.3 1.2LRSN                1
 GAP=168        0.63       4.6     7.9  7.7 -0.6066E+01 -0.2140E+02  0.1755E+01E
 Epicentro: JORDAN - SANTANDER                                                 3
 ACTION:UPD 12-07-25 14:02 OP:epov STATUS:               ID:20110721075835 L   I
 2011-07-21-0757-48S.COL___142                                                 6
 STAT SP IPHASW D HRMM SECON CODA AMPLIT PERI AZIMU VELO AIN AR TRES W  DIS CAZ7
 BAR2 SZ EP   1    758 53.30                             171   -0.14 7 19.3 219 
 BAR2 SZ I         758 53.62         4.4 0.10                          19.3 219 
 BAR2 SZ ES   1    759  7.26                             171   -0.06 7 19.3 219 
 BRR  HZ EP   1    758 55.43                             146   -0.51 7 82.2 301 
 BRR  HZ I         758 55.71         5.1 0.11                          82.2 301 
 BRR  HE ES   1    759 12.11                             146    0.33 7 82.2 301 
 RUS  HZ EP   1    758 57.54                             143    0.17 7 92.4 181 
 RUS  HZ I         758 58.25         1.1 0.11                          92.4 181 
 GRA  SZ EP   1    759  0.54                             132    0.43 7  131  13 
 GRA  SZ ES   1    759 19.01                             132   -0.19 7  131  13 
 GRA  SZ I         759 20.04         2.7 0.46                           131  13 
                                                                                
