 2012  121 0411 38.9 L   6.810 -73.118143.4  RSN  5 0.2 1.3LRSN                1
 GAP=140        0.43       3.8     3.9  5.2 -0.7803E+00  0.3645E+01  0.5986E+01E
 Epicentro: LOS SANTOS - SANTANDER                                             3
 ACTION:UP  12-02-03 08:19 OP:REBC STATUS:               ID:20120121041139 L   I
 2012-01-21-0410-00M.COL___186                                                 6
 STAT SP IPHASW D HRMM SECON CODA AMPLIT PERI AZIMU VELO SNR AR TRES W  DIS CAZ7
 BAR2 SZ ES   3    412 12.92                             170    -0.4 2   25 197 
 BRR  HZ EP        411 59.89                             151     0.010   73 297 
 BRR  HN ES   1    412 16.36                             151     0.1 7   73 297 
 BRR  HZ I         412 17.66         6.2 0.09                            73 297 
 PAM  SZ EP   1    412  0.90                             151     0.3 7   75  38 
 PAM  SN ES   1    412 17.46                             151    -0.2 7   75  38 
 RUS  HZ EP   1    412  2.31                             143    -0.1 7  102 178 
 RUS  HE ES   2    412 21.09                             143     0.3 5  102 178 
 RUS  HZ I         412 21.83         2.0 0.19                           102 178 
 PTB  HZ EP   1    412  5.76                             131    -0.2 7  151 259 
                                                                                
