 2016  621 0223 24.8 L   6.816 -73.083149.5  RSN 11 0.4 1.7LRSN                1
 GAP=245        0.82       3.4     4.2  5.0  0.2541E+01  0.5639E+01  0.2896E+01E
 Epicentro: LOS SANTOS - SANTANDER                                             3
 ACTION:UPD 16-07-21 22:21 OP:rebc STATUS:               ID:20160621022324 L   I
 OLDACT:DUP 16-06-21 16:05 OP:ak   STATUS:               ID:20160621021748d    3
 OLDACT:REG 16-06-21 14:27 OP:ak   STATUS:               ID:20160621021747     3
 2016-06-21-0217-47M.COL___337                                                 6
 STAT SP IPHASW D HRMM SECON CODA AMPLIT PERI AZIMU VELO AIN AR TRES W  DIS CAZ7
 BAR2 EZ EP        223 45.20                             169    0.2810 27.1 204 
 BAR2 EZ ES        224  0.70                             169    0.0510 27.1 204 
 BAR2 EZ I         224  8.15         8.2 0.26                          27.1 204 
 BRR  HZ EP        223 46.91                             151    0.2810 76.6 295 
 BRR  HN ES        224  3.73                             151    0.0510 76.6 295 
 BRR  HZ I         224  7.30        10.2 0.38                          76.6 295 
 RUS  HZ EP        223 49.01                             144    0.0110  102 180 
 RUS  HE ES        224  7.29                             144   -0.6110  102 180 
 RUS  HZ I         224 10.18         4.5 0.32                           102 180 
 PTB  HZ EP   1    223 51.91                             131   -0.78 7  155 259 
 PTB  HN ES   4    224 13.15                             131   -1.32 0  155 259 
 PTB  HZ I         224 14.37         6.6 0.14                           155 259 
 SPBC HZ EP        223 54.43                             129    0.33 9  169 220 
 SPBC HN ES        224 17.74                             129    0.75 9  169 220 
 SPBC HZ I         224 20.02         6.8 0.10                           169 220 
 ZAR  HZ EP   1    223 57.76                             122   -0.29 6  210 291 
 ZAR  HN ES        224 23.86                             122   -0.16 8  210 291 
 ZAR  HZ I         224 28.47         8.1 0.32                           210 291 
 NOR  HZ EP        224  0.97                             118   -0.46 8  241 235 
 NOR  HN ES        224 29.99                             118   -0.04 8  241 235 
 NOR  HZ I         224 32.59         3.5 0.32                           241 235 
 CHI  HZ EP   2    224  2.70                             117   -0.37 4  252 197 
 CHI  HN ES        224 32.86                             117   -0.08 8  252 197 
 HEL  HZ EP   2    224  6.34                             115    0.38 4  279 256 
 HEL  HN ES        224 37.85                             115   -0.25 7  279 256 
 HEL  HZ I         224 44.20         3.5 0.54                           279 256 
 GUY2CHZ EP   9    224 10.91                             112    1.60 0  308 235 
 GUY2CHN ES        224 45.76                                    0.11 7  308 235 
 GUY2CHZ I         224 53.39         2.7 0.50                           308 235 
 ORTC HZ EP        224 20.10                             107    0.63 6  401 217 
 ORTC HN ES        225  2.03                             107   -0.11 6  401 217 
                                                                                
