 2014 1221 0632 15.0 L   6.807 -73.140147.4  RSN 22 0.4 2.3LRSN                1
 GAP= 71        0.88       2.1     2.6  4.1 -0.5946E+00  0.2503E+01  0.4642E+00E
 Epicentro: LOS SANTOS - SANTANDER                                             3
 ACTION:UPD 15-02-10 17:06 OP:nd   STATUS:               ID:20141221063215 L   I
 OLDACT:DUP 14-12-21 17:24 OP:spq  STATUS:               ID:20141221062750d    3
 2014-12-21-0627-49M.COL___299                                                 6
 STAT SP IPHASW D HRMM SECON CODA AMPLIT PERI AZIMU VELO AIN AR TRES W  DIS CAZ7
 BAR2 EZ EP        632 34.65                             170   -0.2010 24.2 191 
 BAR2 EZ ES   1    632 50.03                             170   -0.30 7 24.2 191 
 BAR2 EZ I         632 50.99        35.6 0.22            169           24.2 191 
 BRR  HZ IP     D  632 36.66                             153    0.3210 71.4 298 
 BRR  HE ES        632 53.81                             153    0.8310 71.4 298 
 BRR  HZ I         632 56.91        21.6 0.07            148           71.4 298 
 PAM  SZ IP     D  632 37.52                             151    0.1810 76.4  40 
 PAM  SE ES        632 54.78                             151    0.0310 76.4  40 
 PAM  SZ I         632 56.97        25.4 0.24            154           76.4  40 
 RUS  HZ EP        632 38.55                             144   -0.4210  101 176 
 RUS  HN ES        632 57.58                             144   -0.0810  101 176 
 RUS  HZ I         632 58.63        16.5 0.32            146            101 176 
 PTB  HZ EP        632 41.73                             132   -0.45 9  149 259 
 PTB  HN ES        633  2.70                             132   -0.66 9  149 259 
 PTB  HZ I         633  8.73        28.3 0.07            130            149 259 
 TAM  HZ EP        632 42.95                             131    0.17 9  155 105 
 TAM  HN ES        633  4.58                             131    0.14 9  155 105 
 TAM  HZ I         633  6.21        12.1 0.30            135            155 105 
 OCA  HZ EP        632 42.84                             130   -0.54 9  160 353 
 OCA  HN ES        633  5.56                             130    0.05 9  160 353 
 OCA  HZ I         633 10.25        26.4 0.08            130            160 353 
 SPBC HZ EP        632 43.72                             129   -0.01 9  164 219 
 SPBC HN ES        633  6.10                             129   -0.02 9  164 219 
 SPBC HZ I         633 13.55        37.6 0.28            129            164 219 
 ZAR  HZ EP        632 47.90                             123    0.31 9  204 292 
 ZAR  HN ES        633 13.21                             123    0.21 9  204 292 
 ZAR  HZ I         633 20.55        22.7 0.32            121            204 292 
 NOR  HZ EP        632 50.74                             119   -0.19 8  236 234 
 NOR  HN ES        633 19.30                             119    0.35 8  236 234 
 NOR  HZ I         633 22.51        19.4 0.20            118            236 234 
 SML  HZ EP        632 51.23                             118   -0.45 8  243 335 
 SML  HN ES   1    633 20.01                             118   -0.27 6  243 335 
 SML  HZ I         633 27.57        45.0 0.28            117            243 335 
 CHI  HZ EP        632 52.75                             117   -0.15 8  250 195 
 CHI  HE ES        633 22.15                             117   -0.30 8  250 195 
 CHI  HZ I         633 26.22         7.0 0.44            118            250 195 
 ROSC BZ EP   4    632 54.36                             117    1.04 0  254 211 
 ROSC BN ES   4    633 24.86                             117    1.65 0  254 211 
 ROSC BZ I         633 30.77        21.7 0.50            117            254 211 
 HEL  HZ EP        632 56.35                             115    0.96 8  273 256 
 HEL  HN ES   4    633 28.39                             115    1.50 0  273 256 
 HEL  HZ I         633 36.05         6.1 0.28            114            273 256 
 TOL  SZ EP        633  4.14                             110    0.70 7  344 225 
 TOL  SE ES   1    633 40.99                             110   -0.23 5  344 225 
 TOL  SZ I         633 45.91        21.4 0.24            110            344 225 
 MON  HZ EP   4    633  1.98                             109   -2.09 0  354 308 
 MON  HN ES   4    633 40.85                             109   -1.49 0  354 308 
 MON  HZ I         633 55.33         5.3 0.30            109            354 308 
 ANIL HZ EP   4    633  7.02                             109    2.03 0  358 224 
 ANIL HN ES   4    633 46.81                             109    2.84 0  358 224 
 ANIL HZ I         633 48.86         2.7 0.30            109            358 224 
 ARGC HZ EP        633  5.04                             109    0.37 6  359 340 
 ARGC HE ES   1    633 42.68                             109   -0.72 5  359 340 
 ARGC HZ I         633 56.97         6.7 0.50            109            359 340 
 ORTC HZ EP        633  9.63                             107    0.53 6  396 216 
 ORTC HE ES        633 51.24                             107   -0.05 6  396 216 
 ORTC HZ I         633 58.50         6.4 0.42            107            396 216 
 PAL  HZ EP        633 10.19                             106   -0.14 6  407 239 
 PAL  HE ES   1    633 53.43                             106   -0.05 4  407 239 
 PAL  HZ I         634  5.24         3.3 0.58            106            407 239 
 SJC  HZ EP   4    633  8.53                             106   -2.06 0  409 327 
 SJC  HN ES   4    633 50.30                             106   -3.64 0  409 327 
 SJC  HZ I         633 56.17         3.2 0.46            106            409 327 
 SMAR HZ EP   1    633 20.23                             103   -0.62 3  496 346 
 SMAR HE ES   4    634  8.02                             103   -4.19 0  496 346 
                                                                                
