 2014 1221 0321 20.3 L   6.793 -73.082150.4  RSN  5 0.3 1.1LRSN                1
 GAP=145        0.65       4.3     4.1  5.6 -0.3099E+01  0.1626E+01  0.2661E+01E
 Epicentro: LOS SANTOS - SANTANDER                                             3
 ACTION:UPD 15-02-10 17:06 OP:nd   STATUS:               ID:20141221032120 L   I
 OLDACT:DUP 14-12-21 15:16 OP:spq  STATUS:               ID:20141221031744d    3
 2014-12-21-0317-43M.COL___302                                                 6
 STAT SP IPHASW D HRMM SECON CODA AMPLIT PERI AZIMU VELO AIN AR TRES W  DIS CAZ7
 BAR2 EZ EP   1    321 40.42                             170   -0.10 7 24.8 206 
 BAR2 EZ ES   1    321 56.91                             170    0.61 7 24.8 206 
 BAR2 EZ I         321 58.79         1.9 0.21            169           24.8 206 
 PAM  SZ EP        321 43.09                             153    0.2810 73.8  35 
 PAM  SE ES        322  0.04                             153   -0.3310 73.8  35 
 PAM  SZ I         322  2.18         3.5 0.54            157           73.8  35 
 BRR  HZ EP        321 42.29                             151   -0.0410 77.8 297 
 BRR  HN ES        321 59.59                             151    0.0710 77.8 297 
 BRR  HZ I         322  2.99         1.8 0.14            151           77.8 297 
 RUS  HZ EP   1    321 44.31                             145   -0.13 7 99.5 180 
 RUS  HE ES   1    322  3.07                             145   -0.20 7 99.5 180 
 RUS  HZ I         322  5.01         1.4 0.38            147           99.5 180 
 PTB  HZ EP   1    321 48.50                             132    0.24 7  154 260 
 PTB  HE ES   1    322  9.67                             132   -0.40 7  154 260 
 PTB  HZ I         322 14.03         1.7 0.28            133            154 260 
                                                                                
