 2011 1221 0554 58.6 L   7.395 -73.213132.0  RSN  7 0.4 2.1LRSN                1
 GAP=101        0.85       5.6     6.8  7.3 -0.1771E+02  0.1375E+02 -0.1326E+02E
 Epicentro: EL PLAYON - SANTANDER                                              3
 ACTION:UPD 12-07-13 16:17 OP:ep   STATUS:               ID:20111221055458 L   I
 2011-12-21-0550-00M.COL___189                                                 6
 STAT SP IPHASW D HRMM SECON CODA AMPLIT PERI AZIMU VELO AIN AR TRES W  DIS CAZ7
 GIR2 SZ EP        555 16.78                             164    0.0710 35.0 176 
 PAM  SN ES   1    555 33.04                             156   -0.39 7 57.0  96 
 BRR  HZ EP        555 18.01                             152    0.2210 63.6 240 
 BRR  HN ES        555 32.37                             152   -0.4210 63.6 240 
 BRR  HZ I         555 34.15        17.0 0.12                          63.6 240 
 OCA  SZ EP        555 20.18                             142    0.1710 94.1 353 
 OCA  SZ I         555 20.99        17.5 0.29                          94.1 353 
 OCA  SZ ES   1    555 37.35                             142    0.60 7 94.1 353 
 PTB  HZ EP   1    555 26.80                             125    0.50 7  167 236 
 PTB  HE ES   1    555 47.95                             125    0.02 7  167 236 
 COD  HZ EP   1    555 38.13                             111   -0.64 6  282 355 
 COD  HZ I         555 45.69        13.3 0.76                           282 355 
 SJC  HZ EP   1    555 45.96                             106   -0.90 5  351 322 
                                                                                
