 2013  321 0755 24.8 L   6.792 -73.133139.7  RSN 15 0.5 2.6LRSN 2.9WRSN        1
 SPEC AVERAGE  MO 13.5 ST  2.4 OM  2.0 f0 3.57 R0.4420 AL 1.85 WI 23.3 MW  2.9 3
 SPEC SD       MO  0.2 ST  2.3 OM  0.4 f00.915 R0.1200 AL      WI      MW  0.1 3
 GAP= 72        1.11       2.9     3.7  5.6 -0.3873E+00  0.4468E+01  0.2989E+01E
 Epicentro: LOS SANTOS - SANTANDER                                             3
 SPEC ZAR HH N MO 13.7 ST  4.6 OM  1.9 f0 4.08 R0.3603 AL 1.02 WI 22.6 MW  3.1 3
 SPEC ZAR HH N T 75620 K 0.000 GD  248 VS 4.20 DE 3.20 Q0300.0 QA 0.60 VS 4.20 3
 SPEC PTB HH E MO 13.3 ST  1.4 OM  1.6 f0 3.71 R0.3962 AL 1.34 WI 29.8 MW  2.8 3
 SPEC PTB HH E T 756 7 K 0.000 GD  204 VS 4.20 DE 3.20 Q0300.0 QA 0.60 VS 4.20 3
 SPEC RUS HH N MO 13.1 ST0.617 OM  1.5 f0 3.21 R0.4579 AL 1.91 WI 17.2 MW  2.7 3
 SPEC RUS HH N T 756 3 K 0.000 GD  171 VS 4.20 DE 3.20 Q0300.0 QA 0.60 VS 4.20 3
 SPEC PRA HH N MO 13.3 ST  2.3 OM  1.3 f0 4.33 R0.3395 AL 1.53 WI 15.4 MW  2.8 3
 SPEC PRA HH N T 75658 K 0.000 GD  416 VS 4.20 DE 3.20 Q0300.0 QA 0.60 VS 4.20 3
 SPEC HEL HH N MO 13.4 ST  1.2 OM  1.5 f0 3.33 R0.4414 AL 1.67 WI 38.6 MW  2.9 3
 SPEC HEL HH N T 75632 K 0.000 GD  306 VS 4.20 DE 3.20 Q0300.0 QA 0.60 VS 4.20 3
 SPEC PAM SH N MO 13.8 ST  1.0 OM  2.2 f0 2.27 R0.6476 AL 2.80 WI 14.7 MW  3.1 3
 SPEC PAM SH N T 756 2 K 0.000 GD  159 VS 4.20 DE 3.20 Q0300.0 QA 0.60 VS 4.20 3
 SPEC CHI HH N MO 13.4 ST0.545 OM  1.6 f0 2.41 R0.6100 AL 1.75 WI 20.2 MW  2.9 3
 SPEC CHI HH N T 75627 K 0.000 GD  284 VS 4.20 DE 3.20 Q0300.0 QA 0.60 VS 4.20 3
 SPEC BRR HH N MO 13.6 ST  7.6 OM  2.0 f0 5.19 R0.2832 AL 2.74 WI 28.0 MW  3.0 3
 SPEC BRR HH N T 756 0 K 0.000 GD  157 VS 4.20 DE 3.20 Q0300.0 QA 0.60 VS 4.20 3
 ACTION:UPD 13-04-09 14:03 OP:ep   STATUS:               ID:20130321075000 L   I
 2013-03-21-0750-00M.COL___245                                                 6
 STAT SP IPHASW D HRMM SECON CODA AMPLIT PERI AZIMU VELO AIN AR TRES W  DIS CAZ7
 BAR2 SZ IP        755 43.72                             170    0.0310 22.7 194 
 BAR2 SZ ES        755 58.41                             170   -0.0210 22.7 194 
 BAR2 SZ I         755 59.64       110.2 0.20            168           22.7 194 
 BRR  HZ IP     C  755 45.58                             151    0.1810 72.8 299 
 BRR  HN ES        756  2.02                             151    0.5610 72.8 299 
 BRR  HZ I         756  5.61        56.6 0.32            150           72.8 299 
 PAM  SZ EP        755 46.66                             150    0.2910 77.3  38 
 PAM  SN ES        756  3.14                             150   -0.0510 77.3  38 
 PAM  SN I         756  4.81       122.0 0.44            154           77.3  38 
 RUS  HZ EP        755 47.68                             143   -0.2110 99.6 177 
 RUS  HN ES        756  5.85                             143   -0.0510 99.6 177 
 RUS  HN I         756  7.91        60.2 0.34            144           99.6 177 
 PTB  HZ EP        755 50.70                             130   -0.69 9  149 259 
 PTB  HE ES        756 11.55                             130   -0.58 9  149 259 
 PTB  HE I         756 16.90        41.0 0.44            130            149 259 
 TAM  HZ IP     D  755 52.05                             129    0.19 9  154 105 
 OCA  HZ EP        755 51.93                             128   -0.82 9  161 353 
 OCA  HE ES        756 14.15                             128   -0.40 9  161 353 
 OCA  HN I         756 16.94       130.0 0.26            130            161 353 
 ZAR  HZ EP        755 56.57                             121   -0.46 8  206 292 
 ZAR  HN ES        756 22.23                             121    0.07 8  206 292 
 ZAR  HN I         756 26.97        57.1 0.30            122            206 292 
 CTAB SZ EP   4    756  1.87                             118    1.68 0  230 211 
 SML  HZ EP   4    755 59.72                             116   -1.53 0  245 335 
 SML  HN ES        756 30.54                             116    0.86 8  245 335 
 SML  HN I         756 31.89        78.6 0.10            118            245 335 
 CHI  HZ EP        756  2.00                             116   -0.11 8  248 196 
 CHI  HN ES        756 31.06                             116   -0.15 8  248 196 
 CHI  HN I         756 36.59        24.3 0.60            117            248 196 
 ROSC BZ EP        756  3.86                             115    1.27 8  253 211 
 ROSC BN ES   4    756 32.68                             115    0.62 0  253 211 
 HEL  HZ EP        756  5.47                             113    0.64 8  273 256 
 HEL  HN ES        756 36.20                             113    0.14 8  273 256 
 HEL  HN I         756 44.94        10.0 0.36            114            273 256 
 RREF HE ES        756 46.48                             110   -0.09 7  322 230 
 PRA  HZ EP        756 17.56                             105   -0.54 6  392 210 
 PRA  HN ES        757  0.03                             105    0.35 6  392 210 
 PRA  HN I         757  4.07         7.3 0.26            107            392 210 
 SJC  HN ES   4    756 58.28                             105   -5.40 0  411 327 
 SJC  HN I         757  1.89         7.9 0.20            106            411 327 
                                                                                
