 2010 1121 0108 24.6 L   6.757 -73.147144.7  RSN  6 0.4 1.6LRSN                1
 GAP=182        0.86       5.4     9.9  7.9  0.1079E+02  0.5293E+01 -0.2286E+01E
 Epicentro: LOS SANTOS - SANTANDER                                             3
 ACTION:UP  10-12-17 16:54 OP:REBC STATUS:               ID:20101121010824 L   I
 2010-11-21-0103-45S.COL___131                                                 6
 STAT SP IPHASW D HRMM SECON CODA AMPLIT PERI AZIMU VELO SNR AR TRES W  DIS CAZ7
 BAR2 SZ EP   1    1 8 43.65                             172    -0.4 7   19 192 
 BAR2 SZ ES   1    1 8 58.53                             172    -0.6 7   19 192 
 BAR2 SZ I         1 9  0.60         9.3 0.22                            19 192 
 BRR  HZ IP     C  1 8 45.77                             151     0.010   74 302 
 BRR  HZ I         1 8 45.98         7.3 0.16                            74 302 
 BRR  HE ES   1    1 9  2.50                             151     0.2 7   74 302 
 RUS  HZ EP   1    1 8 47.82                             145    -0.1 7   96 176 
 RUS  HE ES   1    1 9  6.80                             145     0.7 7   96 176 
 RUS  HZ I         1 9  8.26         4.6 0.48                            96 176 
 OCA  SZ EP   1    1 8 53.70                             128     0.4 7  165 353 
 OCA  SZ I         1 9 20.92         5.2 0.31                           165 353 
 NOR  SZ EP   2    1 8 59.79                             118    -0.2 4  232 236 
 NOR  SE ES   2    1 9 27.46                             118    -0.1 4  232 236 
 CHI  HZ EP   2    1 9  1.24                             117    -0.5 4  244 195 
 CHI  HE ES   2    1 9 30.85                             117     0.2 4  244 195 
 CHI  HZ I         1 9 33.80         2.0 0.23                           244 195 
                                                                                
