 2017  821 0520 27.5 L   6.795 -73.097147.1  RSN  8 0.4 1.6LRSN                1
 GAP=143        0.93       3.6     4.9  6.2 -0.4227E+01  0.8251E+01  0.2038E+01E
 Epicentro: LOS SANTOS - SANTANDER                                             3
 ACTION:UPD 17-09-04 20:22 OP:rebc STATUS:               ID:20170821052027 L   I
 OLDACT:UP  17-08-21 16:02 OP:osc  STATUS:               ID:20170821051746d    3
 OLDACT:DUP 17-08-21 15:56 OP:osc  STATUS:               ID:20170821051746d    3
 OLDACT:UP  17-08-21 15:55 OP:osc  STATUS:               ID:20170821051745     3
 OLDACT:REG 17-08-21 12:59 OP:osc  STATUS:               ID:20170821051745     3
 2017-08-21-0518-00M.COL___411                                                 6
 STAT SP IPHASW D HRMM SECON CODA AMPLIT PERI AZIMU VELO AIN AR TRES W  DIS CAZ7
 BAR2 EZ EP        520 47.09                             170   -0.2310 24.3 203 
 BAR2 EZ ES        521  2.47                             170   -0.3010 24.3 203 
 BAR2 EZ I         521  3.73        10.7 0.18            169           24.3 203 
 PAM  EZ EP        520 50.03                             152    0.3310 74.5  36 
 PAM  EE ES        521  7.24                             152    0.2310 74.5  36 
 PAM  EZ I         521  9.27         8.6 0.52            155           74.5  36 
 BRR  HZ EP        520 48.88                             151   -0.2110 76.2 297 
 BRR  HE ES        521  6.16                             151    0.2410 76.2 297 
 BRR  HZ I         521  9.88        11.9 0.46            149           76.2 297 
 RUS  HZ EP        520 51.17                             144   -0.1610 99.8 179 
 RUS  HN ES        521  9.84                             144   -0.0710 99.8 179 
 RUS  HZ I         521 11.05         1.9 0.28            147           99.8 179 
 SPBC HZ EP        520 55.96                             129   -0.43 9  166 221 
 SPBC HN ES        521 18.53                             129   -0.39 9  166 221 
 SPBC HZ I         521 23.25         3.6 0.10            130            166 221 
 ZAR  HZ EP        521  0.62                             122    0.04 8  209 292 
 ZAR  HE ES   2    521 25.56                             122   -0.81 4  209 292 
 ZAR  HZ I         521 31.31         3.9 0.26            122            209 292 
 NOR  HE ES        521 32.97                             118    0.95 8  239 235 
 CHI  HE ES        521 35.47                             117    0.55 8  250 196 
 GUY2CHN ES   4    521 50.33                             112    4.27 0  305 235 
                                                                                
