 2015  221 0735 16.6 L   6.742 -73.176145.8  RSN  7 0.5 1.2LRSN                1
 GAP=197        1.18       4.4     6.7  8.6  0.1088E+01  0.3591E+01 -0.4640E+01E
 Epicentro: VILLANUEVA - SANTANDER                                             3
 ACTION:UPD 15-04-30 21:28 OP:nd   STATUS:               ID:20150221073516 L   I
 OLDACT:DUP 15-02-21 15:57 OP:fm   STATUS:               ID:20150221072742d    3
 2015-02-21-0727-41M.COL___284                                                 6
 STAT SP IPHASW D HRMM SECON CODA AMPLIT PERI AZIMU VELO AIN AR TRES W  DIS CAZ7
 BAR2 EZ EP        735 36.59                             173    0.5010 16.6 182 
 BAR2 EZ I         735 56.24         1.5 0.16            173           16.6 182 
 BRR  HZ EP        735 38.13                             153    0.3810 71.7 304 
 BRR  HN ES        735 54.84                             153    0.5710 71.7 304 
 BRR  HZ I         735 58.74         3.3 0.52            157           71.7 304 
 RUS  HZ EP        735 40.15                             146    0.2510 94.5 174 
 RUS  HE ES        735 57.63                             146   -0.4610 94.5 174 
 RUS  HZ I         736  0.62         1.0 0.42            148           94.5 174 
 PTB  HZ EP        735 43.04                             133   -0.10 9  143 261 
 PTB  HN ES        736  3.45                             133   -0.42 9  143 261 
 PTB  HZ I         736 10.68         2.0 0.28            138            143 261 
 SPBC HZ EP        735 44.59                             131    0.18 9  156 220 
 SPBC HN ES        736  5.40                             131   -0.72 9  156 220 
 SPBC HZ I         736 14.95         3.4 0.34            134            156 220 
 SML  HZ EP        735 53.28                             117   -0.40 8  248 337 
 SML  HE ES        736 22.05                             117   -0.58 8  248 337 
 SML  HZ I         736 26.57         2.7 0.10            120            248 337 
 GUY2CHZ EP        735 59.07                             113   -0.39 7  295 235 
 GUY2CHN ES        736 33.84                             113    0.93 7  295 235 
 GUY2CHZ I         736 41.90         0.9 0.46                           295 235 
                                                                                
