 2016  821 0505 35.5 L   6.823 -73.186150.0  RSN  6 0.4 1.7LRSN                1
 GAP=240        0.77       4.3     5.2  6.5  0.6839E+01  0.6912E+01  0.9220E+01E
 Epicentro: ZAPATOCA - SANTANDER                                               3
 ACTION:UPD 16-10-29 15:37 OP:rebc STATUS:               ID:20160821050535 L   I
 OLDACT:REG 16-08-21 13:02 OP:dnl  STATUS:               ID:20160821045636     3
 2016-08-21-0457-00M.COL___368                                                 6
 STAT SP IPHASW D HRMM SECON CODA AMPLIT PERI AZIMU VELO AIN AR TRES W  DIS CAZ7
 BAR2 EZ EP        5 5 55.40                             170   -0.3110 25.5 179 
 BAR2 EZ ES        5 6 11.25                             170   -0.2010 25.5 179 
 BAR2 EZ I         5 6 13.31         9.5 0.42                          25.5 179 
 BRR  HZ EP   2    5 5 57.25                             155    0.39 5 66.0 298 
 BRR  HN ES        5 6 13.98                             155    0.4910 66.0 298 
 BRR  HZ I         5 6 17.53         9.2 0.28                          66.0 298 
 PTB  HZ EP   2    5 6  2.21                             134   -0.28 5  144 258 
 PTB  HE ES        5 6 23.68                             134    0.15 9  144 258 
 PTB  HZ I         5 6 25.37         7.7 0.80                           144 258 
 SPBC HZ EP        5 6  4.49                             130    0.22 9  162 217 
 SPBC HN ES        5 6 26.38                             130   -0.32 9  162 217 
 SPBC HZ I         5 6 33.60         7.9 0.16                           162 217 
 ZAR  HZ EP   2    5 6  8.49                             124    0.76 4  199 292 
 ZAR  HE ES        5 6 32.32                             124   -0.53 9  199 292 
 ZAR  HZ I         5 6 38.39         4.5 0.24                           199 292 
 CHI  HZ EP   2    5 6 13.45                             118   -0.15 4  250 194 
 CHI  HN ES        5 6 43.62                             118    0.33 8  250 194 
 CHI  HZ I         5 6 46.17         2.3 0.34                           250 194 
                                                                                
