 2012  721 0821 15.7 L   6.754 -73.205149.1  RSN  5 0.4 1.4LRSN                1
 GAP=227        1.04      10.2     9.3 10.4  0.5932E+02  0.5672E+01 -0.1151E+01E
 Epicentro: VILLANUEVA - SANTANDER                                             3
 ACTION:UPD 12-08-14 11:46 OP:ep   STATUS:               ID:20120721082115 L   I
 2012-07-21-0820-00M.COL___215                                                 6
 STAT SP IPHASW D HRMM SECON CODA AMPLIT PERI AZIMU VELO AIN AR TRES W  DIS CAZ7
 BAR2 SZ EP   1    821 35.68                             173     0.1 7   18 172 
 BAR2 SZ ES   1    821 50.26                             173    -0.9 7   18 172 
 BAR2 SZ I         821 51.44         5.5 0.38            170             18 172 
 BRR  HZ EP        821 37.02                             154     0.010   68 305 
 BRR  HZ I         821 37.20        11.6 0.16            151             68 305 
 BRR  HE ES   1    821 54.33                             154     0.7 7   68 305 
 RUS  HZ EP        821 39.49                             146     0.110   96 172 
 RUS  HN ES   1    821 58.41                             146     0.4 7   96 172 
 RUS  HZ I         821 59.17         2.2 0.30            146             96 172 
 PTB  HZ EP   1    821 41.88                             134    -0.4 7  140 260 
 PTB  HN ES   1    822  2.91                             134    -0.1 7  140 260 
 PTB  HZ I         822  5.31         1.5 0.09            132            140 260 
 ZAR  HN ES   1    822 12.99                             124    -0.1 6  200 294 
 ZAR  HZ I         822 18.76         2.6 0.06            122            200 294 
