 2012 1021 0413  2.8 L   6.792 -73.066149.9  RSN  4 0.1 1.7LRSN                1
 GAP=147        0.32       2.6     3.9  4.1  0.3903E+01 -0.3955E+01  0.1017E+01E
 Epicentro: LOS SANTOS - SANTANDER                                             3
 ACTION:UPD 12-11-22 17:05 OP:ep   STATUS:               ID:20121021041302 L   I
 2012-10-21-0410-00M.COL___231                                                 6
 STAT SP IPHASW D HRMM SECON CODA AMPLIT PERI AZIMU VELO AIN AR TRES W  DIS CAZ7
 BAR2 SZ EP   2    413 23.00                             170    0.05 5 25.6 210 
 BAR2 SZ I         413 39.37        19.0 0.27                          25.6 210 
 PAM  SZ EP   2    413 25.23                             153    0.05 5 72.8  34 
 PAM  SN ES   2    413 42.63                             153   -0.02 5 72.8  34 
 PAM  SZ I         413 45.44         4.5 0.29                          72.8  34 
 BRR  HZ EP        413 24.72                             151   -0.1310 79.4 296 
 BRR  HE ES        413 42.12                             151    0.0610 79.4 296 
 BRR  HZ I         413 43.88         6.3 0.16                          79.4 296 
 RUS  HZ EP        413 26.96                             145    0.0910 99.5 181 
 RUS  HN ES   1    413 45.57                             145   -0.08 7 99.5 181 
 RUS  HN I         413 46.49         9.8 0.23                          99.5 181 
                                                                                
