 2010  821 0222 11.8 L   6.795 -73.125144.5  RSN  9 0.5 2.1LRSN                1
 GAP=161        1.34       5.1     9.0  8.9 -0.1279E+02 -0.4883E+01  0.2658E+01E
 Epicentro: LOS SANTOS - SANTANDER                                             3
 ACTION:UP  10-09-07 10:56 OP:vdl  STATUS:               ID:20100821022211 L   I
 2010-08-21-0218-47S.COL___120                                                 6
 STAT SP IPHASW D HRMM SECON CODA AMPLIT PERI AZIMU VELO SNR AR TRES W  DIS CAZ7
 BTL  SZ IP        222 32.16                             171     1.010   21 311 
 BTL  SZ ES   1    222 47.16                                     0.8 7   21 311 
 BAR2 SZ IP        222 31.08                             170    -0.110   23 196 
 BAR2 SZ ES   1    222 45.77                             170    -0.6 7   23 196 
 BAR2 SZ I         222 47.34        34.3 0.34                            23 196 
 BRR  HZ EP        222 32.87                             151     0.010   74 298 
 BRR  HE ES        222 49.75                             151     0.410   74 298 
 BRR  HZ I         222 50.53        39.9 0.11                            74 298 
 RUS  HZ EP   1    222 35.37                             144     0.0 7  100 177 
 RUS  HZ I         222 36.32        11.2 0.13                           100 177 
 RUS  HN ES   1    222 52.72                             144    -1.0 7  100 177 
 GUE  SZ EP        222 35.99                             139    -0.410  117  11 
 GRA  SZ EP        222 36.84                                     0.010  126  16 
 GRA  SZ ES        222 56.40                             136    -0.110  126  16 
 GRA  SZ I         222 57.57        12.2 0.26                           126  16 
 OCA  SZ EP   1    222 39.82                             129    -0.2 7  161 352 
 OCA  SZ ES   1    223  1.69                             129    -0.4 7  161 352 
 OCA  SZ I         223  6.16        23.7 0.45                           161 352 
 CHI  HZ EP   1    222 49.37                             117     0.0 6  249 196 
 CHI  HE ES   1    223 19.45                             117     0.7 6  249 196 
 CHI  HZ I         223 25.32         4.7 0.34                           249 196 
 HEL  HZ EP   2    222 52.14                             114     0.0 4  274 256 
 HEL  HE ES   1    223 22.76                             114    -0.9 6  274 256 
 HEL  HZ I         223 31.13        10.7 0.41                           274 256 
                                                                                
