 2011  121 0959 45.9 L   6.764 -73.036151.6  RSN  4 0.3 1.3LRSN                1
 GAP=171        0.60       7.3    27.1  7.0 -0.1724E+03 -0.2696E+02  0.1345E+02E
 Epicentro: CEPITA - SANTANDER                                                 3
 ACTION:UP  11-02-08 08:41 OP:pat  STATUS:               ID:20110121095945 L   I
 2011-01-21-0955-50S.COL___137                                                 6
 STAT SP IPHASW D HRMM SECON CODA AMPLIT PERI AZIMU VELO SNR AR TRES W  DIS CAZ7
 BAR2 SZ EP   1   10 0  5.82                             170    -0.5 7   25 221 
 BAR2 SZ ES   1   10 0 22.17                             170     0.0 7   25 221 
 BAR2 SZ I        10 0 23.50         4.9 0.13                            25 221 
 RUS  HZ EP   1   10 0  9.81                             146    -0.2 7   97 183 
 RUS  HN ES   2   10 0 28.93                             146     0.2 5   97 183 
 RUS  HZ I        10 0 30.22         1.7 0.23                            97 183 
 GRA  SZ EP   2   10 0 12.17                             138     0.4 5  127  12 
 GRA  SZ ES   1   10 0 32.05                             138     0.1 7  127  12 
 GRA  SZ I        10 0 33.30         3.1 0.61                           127  12 
 CHI  HZ EP   1   10 0 24.02                             118     0.1 6  248 198 
 CHI  HN ES   1   10 0 53.85                             118     0.3 6  248 198 
 CHI  HZ I        10 0 57.12         1.5 0.58                           248 198 
                                                                                
