 2016  521 0404 34.3 L   7.391 -73.278121.4  RSN  5 0.3 1.3LRSN                1
 GAP=259        0.73       7.7     5.0  7.1  0.2075E+02 -0.1979E+01 -0.2020E+02E
 Epicentro: EL PLAYON - SANTANDER                                              3
 ACTION:UPD 16-08-18 17:47 OP:cam  STATUS:               ID:20160521040433 L   I
 OLDACT:UP  16-07-18 16:38 OP:cam  STATUS:               ID:20160521040433 L   3
 OLDACT:UP  16-07-18 16:38 OP:cam  STATUS:               ID:20160521040433 L   3
 OLDACT:UP  16-05-24 15:33 OP:dnl  STATUS:               ID:20160521040433 L   3
 OLDACT:UP  16-05-21 15:57 OP:mh   STATUS:               ID:20160521035745     3
 OLDACT:REG 16-05-21 12:56 OP:mh   STATUS:               ID:20160521035745     3
 2016-05-21-0357-45M.COL___295                                                 6
 STAT SP IPHASW D HRMM SECON CODA AMPLIT PERI AZIMU VELO AIN AR TRES W  DIS CAZ7
 BRR  HZ EP        4 4 51.66                             153   -0.3310 57.3 237 
 BRR  HN ES        4 5  5.59                             153   -0.2210 57.3 237 
 BRR  HZ I         4 5  6.08         7.4 0.16            141           57.3 237 
 BAR2 EZ EP        4 4 54.62                             141    0.1910 89.0 173 
 BAR2 EZ ES        4 5 10.42                             141    0.2610 89.0 173 
 BAR2 EZ I         4 5 11.10         5.6 0.06            133           89.0 173 
 PTB  HZ EP        4 5  0.27                             123   -0.39 9  161 234 
 PTB  HN ES        4 5 21.22                             123   -0.03 9  161 234 
 PTB  HZ I         4 5 23.82         2.2 0.19            116            161 234 
 ZAR  HZ EP   1    4 5  2.54                             121    0.43 7  175 274 
 ZAR  HE ES        4 5 24.15                             121    0.32 9  175 274 
 ZAR  HZ I         4 5 28.94         1.7 0.34            115            175 274 
 NOR  HN ES   4    4 5 45.37                             110    3.07 0  268 221 
 NOR  HZ I         4 5 48.57         1.9 0.24            105            268 221 
                                                                                
