 2014 1221 0847 21.4 L   6.801 -73.115152.4  RSN  8 0.3 1.3LRSN                1
 GAP=140        0.78       3.5     3.8  5.7  0.6035E+00  0.3785E+01 -0.2274E+01E
 Epicentro: LOS SANTOS - SANTANDER                                             3
 ACTION:UPD 15-02-10 17:06 OP:nd   STATUS:               ID:20141221084721 L   I
 OLDACT:REG 14-12-21 12:55 OP:spq  STATUS:               ID:20141221083745     3
 2014-12-21-0837-45M.COL___299                                                 6
 STAT SP IPHASW D HRMM SECON CODA AMPLIT PERI AZIMU VELO AIN AR TRES W  DIS CAZ7
 BAR2 EZ EP        847 41.87                             170    0.0310 24.3 198 
 BAR2 EZ ES   1    847 57.87                             170    0.08 7 24.3 198 
 BAR2 EZ I         848  0.15         3.4 0.18            167           24.3 198 
 BRR  HZ EP        847 43.77                             153    0.3410 74.2 297 
 BRR  HE ES        848  1.05                             153    0.4410 74.2 297 
 BRR  HZ I         848  4.57         3.3 0.40            149           74.2 297 
 PAM  SZ EP        847 44.58                             153    0.3910 75.2  38 
 PAM  SE ES        848  1.49                             153   -0.4910 75.2  38 
 PAM  SZ I         848  2.30         3.7 0.22            158           75.2  38 
 RUS  HZ EP        847 45.85                             145    0.0510  101 178 
 RUS  HE ES   1    848  4.56                             145   -0.27 7  101 178 
 RUS  HZ I         848  6.52         1.4 0.36            146            101 178 
 PTB  HN ES   1    848 10.47                             133   -0.44 7  151 259 
 PTB  HZ I         848 15.39         2.8 0.44            131            151 259 
 SPBC HE ES   1    848 13.31                             130   -0.10 7  165 220 
 SPBC HZ I         848 21.48         3.7 0.24            130            165 220 
 ZAR  HZ EP        847 54.10                             123   -0.49 8  207 292 
 ZAR  HN ES        848 20.62                             123    0.12 8  207 292 
 ZAR  HZ I         848 27.02         3.5 0.42            123            207 292 
 SML  HZ EP   1    847 58.68                             119    0.14 6  245 335 
 SML  HN ES   1    848 27.00                             119   -0.52 6  245 335 
 SML  HZ I         848 33.16         2.0 0.10            120            245 335 
                                                                                
