 2013  921 0641 51.1 L   6.710 -73.143142.0  RSN  5 0.4 1.0LRSN                1
 GAP=231        0.97       6.8     7.5 11.1  0.1703E+02 -0.3391E+01 -0.1804E+02E
 Epicentro: VILLANUEVA - SANTANDER                                             3
 ACTION:UPD 13-10-22 09:24 OP:ep   STATUS:               ID:20130921064151 L   I
 OLDACT:REG 13-09-21 08:19 OP:jn   STATUS:               ID:20130921063959     3
 2013-09-21-0639-59M.COL___269                                                 6
 STAT SP IPHASW D HRMM SECON CODA AMPLIT PERI AZIMU VELO AIN AR TRES W  DIS CAZ7
 BAR2 SZ EP        642 10.27                             174    0.1510 13.7 198 
 BAR2 SZ I         642 27.98         2.3 0.26            171           13.7 198 
 BRR  HZ EP        642 12.13                             150   -0.0410 76.7 305 
 BRR  HN ES   1    642 29.05                             150    0.45 7 76.7 305 
 RUS  HZ EP        642 14.05                             146    0.2710 90.6 176 
 RUS  HN ES        642 31.01                             146   -0.4610 90.6 176 
 RUS  HZ I         642 33.52         1.2 0.44            149           90.6 176 
 PTB  HZ EP        642 17.33                             131   -0.32 9  146 263 
 PTB  HN ES   1    642 37.72                             131   -0.62 7  146 263 
 PTB  HZ I         642 40.42         1.8 0.12            136            146 263 
 SPBC HE ES   1    642 40.93                             130    0.87 7  156 221 
                                                                                
