 2012  221 0539  2.7 L   6.805 -73.205136.2  RSN  9 0.3 2.1LRSN                1
 GAP=129        0.54       2.5     3.4  4.2 -0.2742E+01  0.4747E+01  0.2135E+00E
 ACTION:UP  12-03-07 16:32 OP:epov STATUS:               ID:20120221053902 L   I
 2012-02-21-0538-59S.COL___191                                                 6
 STAT SP IPHASW D HRMM SECON CODA AMPLIT PERI AZIMU VELO AIN AR TRES W  DIS CAZ7
 BAR2 SZ EP   1    539 21.33                             170    0.09 7 23.7 174 
 BAR2 SZ ES   1    539 35.86                             170    0.20 7 23.7 174 
 BAR2 SZ I         539 37.23        25.2 0.16                          23.7 174 
 GIR2 SZ EP   1    539 21.42                             167    0.17 7 30.3   3 
 GIR2 SZ ES   1    539 35.30                             167   -0.39 7 30.3   3 
 BRR  HZ EP   1    539 23.19                             153    0.67 7 65.2 301 
 BRR  HZ I         539 44.10        47.3 0.16                          65.2 301 
 PAM  SZ EP   1    539 24.32                             148    0.11 7 81.3  43 
 PAM  SN ES   1    539 41.06                             148    0.12 7 81.3  43 
 PAM  SZ I         539 43.34        23.3 0.37                          81.3  43 
 RUS  HZ EP   1    539 25.59                             141   -0.08 7  102 172 
 RUS  HN ES   1    539 43.31                             141   -0.23 7  102 172 
 RUS  HZ I         539 45.54        22.9 0.26                           102 172 
 PTB  HZ EP   1    539 28.26                             131   -0.10 7  141 258 
 PTB  HN ES   1    539 48.46                             131    0.12 7  141 258 
 OCA  SZ EP   1    539 30.10                             128   -0.11 7  159 355 
 OCA  SZ ES   1    539 51.25                             128   -0.38 7  159 355 
 NOR  SZ EP   1    539 37.03                             117   -0.36 6  230 233 
 NOR  SN ES   1    540  4.42                             117    0.00 6  230 233 
 CHI  HZ EP   1    539 39.77                             115   -0.04 6  248 194 
 CHI  HZ I         540 12.50         4.6 0.31                           248 194 
                                                                                
