 2016 1221 0944 35.8 L   6.836 -73.139146.4  RSN 15 0.7 2.4LRSN                1
 GAP=106        1.55       5.3     4.5  8.0 -0.1057E+01  0.1002E+02  0.1289E+02E
 Epicentro: LOS SANTOS - SANTANDER                                             3
 ACTION:UPD 17-01-11 20:17 OP:rebc STATUS:               ID:20161221093745 L   I
 OLDACT:UP  16-12-21 16:53 OP:cog  STATUS:               ID:20161221093745 L   3
 OLDACT:UPD 16-12-21 15:44 OP:CARA STATUS:               ID:20161221093745 L   3
 2016-12-21-0938-00M.COL___357                                                 6
 STAT SP IPHASW D HRMM SECON CODA AMPLIT PERI AZIMU VELO AIN AR TRES W  DIS CAZ7
 BAR2 EZ EP        944 55.33                             169   -0.2610 27.4 190 
 BAR2 EZ ES        945 10.74                             169   -0.2910 27.4 190 
 BAR2 EZ I         945 13.16        77.8 0.32            167           27.4 190 
 BRR  HZ EP        944 57.33                             153    0.3810 70.0 295 
 BRR  HE ES        945 14.32                             153    0.8710 70.0 295 
 BRR  HZ I         945 17.08        37.5 0.16            151           70.0 295 
 PAM  EZ EP        944 58.19                             152    0.3210 73.8  41 
 PAM  EE ES        945 15.35                             152    0.2610 73.8  41 
 PAM  EZ I         945 17.54        50.0 0.50            156           73.8  41 
 RUS  HZ EP        944 59.28                             143   -0.6210  105 177 
 RUS  HN ES        945 18.33                             143   -0.3710  105 177 
 RUS  HZ I         945 19.24        38.6 0.28            143            105 177 
 PTB  HZ EP        945  1.84                             132   -1.12 9  149 257 
 PTB  HN ES        945 23.09                             132   -1.05 9  149 257 
 PTB  HZ I         945 26.08        24.6 0.26            131            149 257 
 TAM  HZ EP        945  3.72                             131    0.16 9  155 106 
 TAM  HN ES        945 25.57                             131    0.36 9  155 106 
 TAM  HZ I         945 26.24        10.2 0.40            134            155 106 
 ZAR  HZ EP        945  7.79                             123   -0.41 9  203 291 
 ZAR  HN ES        945 33.09                             123   -0.39 9  203 291 
 ZAR  HZ I         945 43.79        20.6 0.22            123            203 291 
 CHI  HZ EP        945 13.65                             117   -0.32 8  253 195 
 CHI  HE ES        945 43.35                             117   -0.40 8  253 195 
 CHI  HZ I         945 52.76        10.6 0.38            118            253 195 
 ROSC BZ EP        945 14.52                             116    0.15 8  257 211 
 ROSC BE ES        945 44.47                             116    0.02 8  257 211 
 ROSC BZ I         945 50.53        17.0 0.55            117            257 211 
 GUY2CHZ EP        945 20.63                             112    0.87 7  304 234 
 GUY2CHE ES        945 56.51                             112    2.45 7  304 234 
 GUY2CHZ I         946  0.58        13.9 0.38                           304 234 
 PTGC HZ EP   4    945 18.47                             111   -1.60 0  312 159 
 PTGC HE ES   4    945 51.73                             111   -2.88 0  312 159 
 PTGC HZ I         945 51.91        16.7 0.34            113            312 159 
 ELA  HZ EP   4    945 24.89                             110    1.85 0  332 229 
 ELA  HE ES   4    945 58.77                             110   -1.12 0  332 229 
 ELA  HZ I         946 14.61        11.5 0.46            111            332 229 
 CBOC HZ EP        945 23.55                             110    0.59 7  336 251 
 CBOC HE ES        945 59.67                             110   -0.08 7  336 251 
 CBOC HZ I         946  3.33         4.9 0.48            110            336 251 
 ANIL HZ EP   4    945 27.73                             108    1.71 0  361 224 
 ANIL HE ES        946  5.69                             108    0.50 6  361 224 
 ORTC HZ EP        945 29.78                             106   -0.39 6  399 216 
 ORTC HE ES        946 12.89                             106    0.31 6  399 216 
 ORTC HZ I         946 19.22         8.5 0.40            107            399 216 
                                                                                
