 2017  121 0903 10.9 L   6.757 -73.138142.7  RSN  4 0.3 1.0LRSN                1
 GAP=243        0.77       7.8     6.0  7.3  0.3045E+02  0.5788E+01 -0.8887E+01E
 Epicentro: LOS SANTOS - SANTANDER                                             3
 ACTION:UPD 17-05-22 16:01 OP:jn   STATUS:               ID:20170121090310 L   I
 OLDACT:REG 17-01-21 12:56 OP:dani STATUS:               ID:20170121085740     3
 2017-01-21-0858-00M.COL___343                                                 6
 STAT SP IPHASW D HRMM SECON CODA AMPLIT PERI AZIMU VELO AIN AR TRES W  DIS CAZ7
 BAR2 EZ EP        9 3 30.03                             172   -0.0910 18.9 195 
 BAR2 EZ ES        9 3 44.88                             172   -0.2010 18.9 195 
 BAR2 EZ I         9 3 45.81         3.0 0.30            169           18.9 195 
 RUS  HZ EP        9 3 34.32                             144    0.2810 95.8 176 
 RUS  HN ES        9 3 52.28                             144    0.2110 95.8 176 
 RUS  HZ I         9 3 53.38         1.1 0.24            144           95.8 176 
 PTB  HZ EP        9 3 37.17                             131   -0.49 9  148 261 
 PTB  HN ES        9 3 58.34                             131   -0.16 9  148 261 
 PTB  HZ I         9 4  0.38         2.0 0.21            131            148 261 
 ZAR  HN ES        9 4  9.31                             121    0.49 8  207 293 
                                                                                
