 2013  921 0514 55.7 L   6.790 -73.148146.3  RSN  8 0.4 1.4LRSN                1
 GAP=137        1.04       4.2     4.8  7.0 -0.5021E+00  0.6837E+01  0.1066E+01E
 Epicentro: LOS SANTOS - SANTANDER                                             3
 ACTION:UPD 13-10-22 09:23 OP:ep   STATUS:               ID:20130921051455 L   I
 OLDACT:REG 13-09-21 08:17 OP:jn   STATUS:               ID:20130921050959     3
 2013-09-21-0509-59M.COL___269                                                 6
 STAT SP IPHASW D HRMM SECON CODA AMPLIT PERI AZIMU VELO AIN AR TRES W  DIS CAZ7
 BAR2 SZ EP        515 15.62                             171    0.2110 22.2 190 
 BAR2 SZ ES        515 30.63                             171   -0.1310 22.2 190 
 BAR2 SZ I         515 32.13         6.6 0.28            171           22.2 190 
 BRR  HZ EP        515 17.36                             152    0.3910 71.6 299 
 BRR  HN ES        515 34.42                             152    0.8910 71.6 299 
 BRR  HZ I         515 38.30         3.8 0.30            152           71.6 299 
 PAM  SZ EP        515 18.26                             151    0.1910 78.4  39 
 PAM  SN ES        515 35.13                             151   -0.3610 78.4  39 
 PAM  SZ I         515 37.63         5.3 0.56            154           78.4  39 
 RUS  HZ EP        515 19.48                             144    0.0110 99.5 176 
 RUS  HN ES        515 37.54                             144   -0.4310 99.5 176 
 RUS  HZ I         515 39.11         2.2 0.40            147           99.5 176 
 PTB  HZ EP        515 22.44                             132   -0.28 9  147 259 
 PTB  HN ES        515 43.38                             132   -0.37 9  147 259 
 PTB  HZ I         515 49.21         3.5 0.14            133            147 259 
 SPBC HZ EP        515 24.48                             129    0.29 9  162 219 
 SPBC HN ES   1    515 46.59                             129    0.22 7  162 219 
 SPBC HZ I         515 48.91         4.4 0.22            131            162 219 
 ZAR  HN ES   1    515 52.98                             122   -0.62 6  204 292 
 SML  HN ES   1    516  0.33                             117   -0.84 6  245 335 
                                                                                
