 2013  121 0454 44.7 L   6.050 -74.227 72.4  RSN 12 0.5 2.1LRSN 2.6WRSN        1
 SPEC AVERAGE  MO 12.9 ST  1.3 OM  1.7 f0 4.44 R0.3374 AL 1.98 WI 23.4 MW  2.6 3
 SPEC SD       MO  0.1 ST0.789 OM  0.6 f00.620 R0.0456 AL      WI      MW  0.1 3
 GAP= 63        1.16       2.7     2.6  9.8 -0.1558E+01 -0.1985E+01  0.9499E+01E
 Epicentro: LA BELLEZA - SANTANDER                                             3
 SPEC ZAR HH N MO 13.1 ST  2.5 OM  1.5 f0 5.39 R0.2727 AL 1.90 WI 33.6 MW  2.7 3
 SPEC ZAR HH N T 45529 K 0.000 GD  157 VS 4.20 DE 3.00 Q0230.0 QA 0.60 VS 4.20 3
 SPEC RREFHH Z MO 13.0 ST  1.3 OM  0.6 f0 4.46 R0.3296 AL 2.08 WI 19.3 MW  2.6 3
 SPEC RREFHH Z T 45510 K 0.000 GD  192 VP 7.60 DE 3.00 Q0230.0 QA 0.60 VS 4.20 3
 SPEC HEL HH N MO 12.9 ST0.859 OM  1.4 f0 4.24 R0.3467 AL 1.71 WI 20.0 MW  2.6 3
 SPEC HEL HH N T 45523 K 0.000 GD  139 VS 4.20 DE 3.00 Q0230.0 QA 0.60 VS 4.20 3
 SPEC CHI HH N MO 12.7 ST0.385 OM  1.2 f0 3.67 R0.4005 AL 2.23 WI 20.9 MW  2.4 3
 SPEC CHI HH N T 45529 K 0.000 GD  152 VS 4.20 DE 3.00 Q0230.0 QA 0.60 VS 4.20 3
 ACTION:UPD 13-02-15 09:15 OP:ep   STATUS:               ID:20130121045444 L   I
 2013-01-21-0450-00M.COL___241                                                 6
 STAT SP IPHASW D HRMM SECON CODA AMPLIT PERI AZIMU VELO AIN AR TRES W  DIS CAZ7
 PTB  HZ EP        454 57.24                             136   -0.4110 59.8 335 
 PTB  HN ES        455  7.78                             136    0.0210 59.8 335 
 PTB  HN I         455  8.27        91.5 0.16             90           59.8 335 
 RUS  HZ EP        455  4.98                             114   -0.2710  128  98 
 RUS  HN ES        455 20.75                             114   -0.5410  128  98 
 RUS  HE I         455 29.17         8.6 0.42             90            128  98 
 BAR2 SZ EP        455  5.35                             113    0.1510  130  63 
 BAR2 SZ I         455  5.45        25.7 0.22             90            130  63 
 BAR2 SZ ES        455 21.23                             113    0.0310  130  63 
 BRR  HZ EP        455  4.71                             113   -0.1710  130  26 
 BRR  HN ES        455 21.28                             113    0.6510  130  26 
 BRR  HN I         455 22.40        60.8 0.44             90            130  26 
 HEL  HZ EP        455  6.62                             110   -0.43 9  145 276 
 HEL  HN ES        455 24.06                             110   -0.43 9  145 276 
 HEL  HN I         455 26.63        16.7 0.22             90            145 276 
 CHI  HZ EP        455  9.63                             107    0.02 9  166 161 
 CHI  HN ES        455 29.70                             107    0.65 9  166 161 
 CHI  HE I         455 30.88         9.2 0.46             90            166 161 
 ZAR  HN ES        455 30.60                             106    0.82 9  174 336 
 ZAR  HN I         455 37.45        14.9 0.16             56            174 336 
 RREF HZ EP        455 10.96                             106   -0.25 9  178 224 
 RREF HN ES        455 31.48                             106   -0.42 9  178 224 
 RREF HZ I         455 34.90        10.0 0.62             90            178 224 
 TOL  SZ EP        455 13.67                             104   -0.11 9  202 217 
 ANIL HE ES        455 40.57                             103    1.23 8  216 217 
 ANIL HN I         455 43.52        21.2 0.52             56            216 217 
 PAM  SZ EP        455 16.14                             102   -0.09 8  221  50 
 PAM  SN I         455 48.03         9.1 0.28             56            221  50 
 OCA  HN ES        455 48.80                             100   -0.15 8  262  22 
 OCA  HN I         455 53.34        28.0 0.26             56            262  22 
                                                                                
