 2016  821 0624 40.4 L   6.789 -73.166146.7  RSN  5 0.5 1.5LRSN                1
 GAP=244        1.11       7.1     8.2  9.2  0.1135E+02  0.2046E+02  0.1112E+02E
 Epicentro: LOS SANTOS - SANTANDER                                             3
 ACTION:UPD 16-10-29 15:37 OP:rebc STATUS:               ID:20160821062440 L   I
 OLDACT:REG 16-08-21 13:05 OP:dnl  STATUS:               ID:20160821061731     3
 2016-08-21-0618-00M.COL___368                                                 6
 STAT SP IPHASW D HRMM SECON CODA AMPLIT PERI AZIMU VELO AIN AR TRES W  DIS CAZ7
 BAR2 EZ EP   2    624 59.66                             171   -0.49 5 21.8 185 
 BAR2 EZ ES        625 15.00                             171   -0.5310 21.8 185 
 BAR2 EZ I         625 16.04        11.4 0.28                          21.8 185 
 BRR  HZ EP        625  1.86                             153    0.2510 69.8 300 
 BRR  HE ES        625 18.86                             153    0.7310 69.8 300 
 BRR  HZ I         625 19.44         6.5 0.44                          69.8 300 
 PTB  HZ EP        625  6.83                             133   -0.43 9  145 259 
 PTB  HN ES        625 27.71                             133   -0.47 9  145 259 
 PTB  HZ I         625 35.10         2.5 0.42                           145 259 
 SPBC HZ EP        625  9.18                             130    0.40 9  161 219 
 SPBC HN ES        625 31.26                             130    0.36 9  161 219 
 SPBC HZ I         625 37.98         3.3 0.12                           161 219 
 ZAR  HZ EP   4    625 14.80                             123    2.03 0  202 293 
 ZAR  HE ES        625 37.77                             123   -0.23 9  202 293 
 ZAR  HZ I         625 41.07         3.0 0.12                           202 293 
                                                                                
