 2015  121 0340 37.5 L   6.804 -73.123144.9  RSN  8 0.5 1.4LRSN                1
 GAP=139        1.32       4.7     5.7  8.9 -0.2289E+01  0.1044E+02  0.2929E+01E
 Epicentro: LOS SANTOS - SANTANDER                                             3
 ACTION:UPD 15-03-02 15:41 OP:nd   STATUS:               ID:20150121034037 L   I
 OLDACT:DUP 15-01-21 14:08 OP:carl STATUS:               ID:20150121033738d    3
 2015-01-21-0337-37M.COL___265                                                 6
 STAT SP IPHASW D HRMM SECON CODA AMPLIT PERI AZIMU VELO AIN AR TRES W  DIS CAZ7
 BAR2 EZ EP        340 57.04                             170    0.0210 24.3 196 
 BAR2 EZ ES        341 12.50                             170    0.2410 24.3 196 
 BAR2 EZ I         341 14.55         5.5 0.32            169           24.3 196 
 BRR  HZ IP     C  340 58.90                             152    0.2510 73.3 297 
 BRR  HN ES        341 16.15                             152    0.9910 73.3 297 
 BRR  HZ I         341 18.03         4.3 0.12            151           73.3 297 
 PAM  SZ EP        340 59.99                             151    0.5110 75.5  38 
 PAM  SN ES        341 16.06                             151   -0.5910 75.5  38 
 PAM  SZ I         341 21.26         2.9 0.44            155           75.5  38 
 RUS  HZ EP        341  1.51                             144    0.3510  101 178 
 RUS  HE ES        341 19.41                             144   -0.2210  101 178 
 RUS  HZ I         341 20.57         3.0 0.30            146            101 178 
 PTB  HZ EP        341  4.19                             131   -0.42 9  150 259 
 PTB  HN ES        341 24.92                             131   -0.85 9  150 259 
 PTB  HZ I         341 30.67         3.5 0.14            132            150 259 
 OCA  HE ES        341 27.00                             129   -0.73 9  160 352 
 SPBC HZ EP        341  6.15                             128    0.06 9  165 220 
 SPBC HN ES        341 28.14                             128   -0.27 9  165 220 
 SPBC HZ I         341 34.48         5.0 0.38            130            165 220 
 ZAR  HN ES        341 36.02                             122    0.48 8  206 292 
 ZAR  HZ I         341 40.95         5.4 0.30            123            206 292 
                                                                                
