 2017  821 0724 19.2 L   6.838 -73.128139.9  RSN  6 0.3 1.4LRSN                1
 GAP=246        0.77       4.8     4.6  6.5  0.3230E+01  0.1350E+02  0.1856E+01E
 Epicentro: LOS SANTOS - SANTANDER                                             3
 ACTION:UPD 17-09-04 20:22 OP:rebc STATUS:               ID:20170821072419 L   I
 OLDACT:REG 17-08-21 13:15 OP:osc  STATUS:               ID:20170821071738     3
 2017-08-21-0718-00M.COL___411                                                 6
 STAT SP IPHASW D HRMM SECON CODA AMPLIT PERI AZIMU VELO AIN AR TRES W  DIS CAZ7
 BAR2 EZ EP        724 38.14                             168   -0.1210 27.8 192 
 BAR2 EZ ES        724 53.47                             168    0.3710 27.8 192 
 BAR2 EZ I         724 54.72         3.8 0.22            164           27.8 192 
 RUS  HZ EP        724 42.66                             141   -0.0510  105 177 
 RUS  HN ES        725  0.82                             141   -0.2110  105 177 
 SPBC HZ EP        724 47.50                             127   -0.22 9  168 219 
 SPBC HE ES        725  9.93                             127   -0.01 9  168 219 
 SPBC HZ I         725 16.38         4.5 0.30            127            168 219 
 ZAR  HE ES        725 16.15                             121   -0.21 9  204 291 
 NOR  HN ES        725 22.60                             117   -0.41 8  239 234 
 GUY2CHZ EP        725  3.84                             111    0.81 7  305 234 
 GUY2CHE ES        725 37.60                             111    0.41 7  305 234 
                                                                                
