 2014 1221 0811  5.1 L   6.756 -73.130142.2  RSN  7 0.4 1.3LRSN                1
 GAP= 95        0.81       4.5     3.5  5.6  0.3292E+01  0.1822E+01  0.2681E+01E
 Epicentro: LOS SANTOS - SANTANDER                                             3
 ACTION:UPD 15-02-10 17:06 OP:nd   STATUS:               ID:20141221081105 L   I
 OLDACT:REG 14-12-21 12:53 OP:spq  STATUS:               ID:20141221080738     3
 2014-12-21-0807-38M.COL___299                                                 6
 STAT SP IPHASW D HRMM SECON CODA AMPLIT PERI AZIMU VELO AIN AR TRES W  DIS CAZ7
 BAR2 EZ ES   1    811 38.54                             172   -0.59 7 19.0 198 
 BAR2 EZ I         811 39.99         5.8 0.46            171           19.0 198 
 BRR  HZ EP        811 26.13                             151    0.0310 75.1 301 
 BRR  HN ES        811 42.72                             151    0.2510 75.1 301 
 BRR  HZ I         811 43.90         4.5 0.22            151           75.1 301 
 PAM  SZ EP        811 27.02                             149   -0.0910 80.1  36 
 PAM  SN ES        811 44.13                             149   -0.1410 80.1  36 
 PAM  SZ I         811 46.58         2.3 0.52            152           80.1  36 
 RUS  HZ EP        811 28.22                             144    0.0710 95.6 177 
 RUS  HE ES   1    811 46.50                             144    0.38 7 95.6 177 
 RUS  HZ I         811 48.75         1.5 0.40            146           95.6 177 
 PTB  HZ EP   1    811 31.23                             131   -0.63 7  149 261 
 PTB  HN ES   2    811 52.28                             131   -0.45 5  149 261 
 PTB  HZ I         811 55.22         3.8 0.18            132            149 261 
 TAM  HZ EP        811 32.57                             130    0.34 9  152 103 
 ZAR  HZ EP        811 37.28                             121   -0.40 8  208 293 
 ZAR  HE ES        812  3.63                             121    0.54 8  208 293 
 ZAR  HZ I         812  6.72         1.9 0.42            122            208 293 
                                                                                
