 2015  521 0218 48.4 L   5.809 -73.806112.4  RSN  6 0.4 1.4LRSN                1
 GAP=156        0.76       4.6     4.0  6.2 -0.1113E+02  0.5994E+01 -0.7738E+01E
 Epicentro: JESUS MARIA - SANTANDER                                            3
 ACTION:UPD 15-09-10 22:05 OP:cam  STATUS:               ID:20150521021848 L   I
 OLDACT:REG 15-05-21 12:38 OP:spq  STATUS:               ID:20150521020746     3
 2015-05-21-0207-46M.COL___291                                                 6
 STAT SP IPHASW D HRMM SECON CODA AMPLIT PERI AZIMU VELO AIN AR TRES W  DIS CAZ7
 SPBC HZ EP   1    219  4.02                             162   -0.09 7 34.2 240 
 SPBC HE ES        219 16.40                             162   -0.0110 34.2 240 
 SPBC HZ I         219 18.99        10.7 0.31            163           34.2 240 
 RUS  HZ EP   1    219  7.46                             142    0.07 7 80.6  83 
 RUS  HE ES   1    219 22.19                             142   -0.04 7 80.6  83 
 RUS  HZ I         219 23.44         4.1 0.20            145           80.6  83 
 BAR2 EZ EP   1    219  9.44                             132   -0.10 7  111  39 
 BAR2 EZ ES   1    219 26.40                             132    0.33 7  111  39 
 BAR2 EZ I         219 27.31         9.7 0.16            135            111  39 
 NOR  HN ES   1    219 26.59                             129   -0.70 7  121 257 
 NOR  HZ I         219 28.18         4.4 0.13            132            121 257 
 BRR  HZ EP        219 12.05                             124   -0.37 9  144   4 
 BRR  HN ES        219 31.37                             124    0.18 9  144   4 
 BRR  HZ I         219 32.70         3.8 0.30            126            144   4 
 GUY2CHZ EP        219 17.39                             117    0.09 9  184 250 
 GUY2CHN ES   1    219 40.79                             117    0.91 7  184 250 
 GUY2CHZ I         219 47.43         1.7 0.54                           184 250 
                                                                                
