 2015  721 0444 11.6 L   6.826 -73.120147.1  RSN  6 0.1 1.6LRSN                1
 GAP=186        0.39       1.5     2.6  4.1  0.6435E+00  0.3994E+01 -0.8464E+00E
 Epicentro: LOS SANTOS - SANTANDER                                             3
 ACTION:UPD 15-09-08 21:49 OP:cam  STATUS:               ID:20150721044411 L   I
 OLDACT:REG 15-07-21 13:07 OP:stll STATUS:               ID:20150721043748     3
 2015-07-21-0437-48M.COL___340                                                 6
 STAT SP IPHASW D HRMM SECON CODA AMPLIT PERI AZIMU VELO AIN AR TRES W  DIS CAZ7
 BAR2 EZ EP        444 31.54                             169    0.1210 26.7 195 
 BAR2 EZ I         444 31.62         6.3 0.22            170           26.7 195 
 BAR2 EZ ES        444 46.93                             169    0.0110 26.7 195 
 RUS  HZ EP        444 35.63                             143   -0.0010  103 178 
 RUS  HZ I         444 36.30         2.7 0.42            145            103 178 
 RUS  HN ES        444 54.42                             143    0.0110  103 178 
 OCA  HZ EP   4    444 37.23                             130   -2.51 0  158 352 
 OCA  HN ES        445  1.54                             130   -0.19 9  158 352 
 OCA  HZ I         445  7.48         7.7 0.24            129            158 352 
 ZAR  HN ES        445  9.94                             122    0.18 8  206 291 
 ZAR  HZ I         445 15.97         6.1 0.50            121            206 291 
 NOR  HE ES        445 15.83                             118   -0.22 8  239 234 
 NOR  HZ I         445 19.15         3.1 0.20            118            239 234 
 SML  HE ES        445 16.67                             118    0.05 8  242 334 
                                                                                
