 2012 1221 0835 50.0 L   6.443 -73.569106.0  RSN  5 0.2 1.6LRSN                1
 GAP=207        0.40       4.2     2.6  5.6 -0.7139E+00 -0.4895E+00  0.5513E+01E
 Epicentro: SANTA HELENA DEL OPON - SANTANDER                                  3
 ACTION:UPD 13-01-04 14:29 OP:ep   STATUS:               ID:20121221083550 L   I
 2012-12-21-0830-00M.COL___243                                                 6
 STAT SP IPHASW D HRMM SECON CODA AMPLIT PERI AZIMU VELO AIN AR TRES W  DIS CAZ7
 BAR2 SZ EP   1    836  6.05                             155    0.28 7 45.8  69 
 BRR  HZ EP     C  836  7.23                             142   -0.0810 75.1 348 
 BRR  HN ES   1    836 20.89                             142    0.07 7 75.1 348 
 BRR  HZ I         836 26.74        11.4 0.37                          75.1 348 
 GIR2 SZ EP   1    836  7.76                             140   -0.26 7 81.6  31 
 PTB  HZ IP     C  836  9.23                             133   -0.0510 98.7 276 
 PTB  HE ES   1    836 24.28                             133   -0.05 7 98.7 276 
 PTB  HZ I         836 25.03         5.8 0.16                          98.7 276 
 ZAR  HZ EP   1    836 18.15                             115    0.21 7  184 309 
 ZAR  HE ES   1    836 39.77                             115    0.04 7  184 309 
 ZAR  HZ I         836 43.04         5.6 0.31                           184 309 
                                                                                
