 2014  921 0151 41.7 L   6.816 -73.132149.6  RSN  5 0.3 1.1LRSN                1
 GAP=137        0.71       3.7     4.0  6.1 -0.2213E+00 -0.2447E+00 -0.7805E+00E
 Epicentro: LOS SANTOS - SANTANDER                                             3
 ACTION:UPD 14-10-03 23:06 OP:nd   STATUS:               ID:20140921015141 L   I
 OLDACT:DUP 14-09-21 14:53 OP:spq  STATUS:               ID:20140921014821d    3
 2014-09-21-0148-20M.COL___287                                                 6
 STAT SP IPHASW D HRMM SECON CODA AMPLIT PERI AZIMU VELO AIN AR TRES W  DIS CAZ7
 BRR  HZ EP        152  3.40                             153    0.0710 71.7 297 
 BRR  HE ES        152 20.47                             153    0.3010 71.7 297 
 BRR  HZ I         152 23.19         3.5 0.55            149           71.7 297 
 PAM  SZ EP        152  4.38                             152    0.1510 75.0  40 
 PAM  SE ES   1    152 21.58                             152   -0.19 7 75.0  40 
 PAM  SZ I         152 23.40         2.2 0.56            152           75.0  40 
 RUS  HZ EP        152  6.38                             144    0.3910  102 177 
 RUS  HE ES   1    152 24.30                             144   -0.60 7  102 177 
 RUS  HZ I         152 25.56         1.2 0.20            149            102 177 
 PTB  HZ EP        152  9.06                             133   -0.13 9  150 258 
 PTB  HE ES        152 30.49                             133   -0.10 9  150 258 
 PTB  HZ I         152 35.44         1.3 0.32            132            150 258 
 SML  HZ EP   1    152 17.88                             118   -0.60 6  243 335 
 SML  HE ES   1    152 46.97                             118   -0.16 6  243 335 
 SML  HZ I         152 57.51         1.3 0.10            118            243 335 
                                                                                
