 2016  521 0654 53.6 L   6.746 -73.132145.8  RSN  7 0.4 1.4LRSN                1
 GAP=235        0.85       4.5     5.2  6.4  0.8045E+01  0.8736E+01  0.2508E+01E
 Epicentro: LOS SANTOS - SANTANDER                                             3
 ACTION:UPD 16-08-18 17:47 OP:cam  STATUS:               ID:20160521065453 L   I
 OLDACT:REG 16-05-21 13:03 OP:mh   STATUS:               ID:20160521064744     3
 2016-05-21-0647-44M.COL___289                                                 6
 STAT SP IPHASW D HRMM SECON CODA AMPLIT PERI AZIMU VELO AIN AR TRES W  DIS CAZ7
 BAR2 EZ EP     D  655 13.11                             173   -0.0410 17.9 198 
 BAR2 EZ ES        655 28.48                             173    0.0910 17.9 198 
 BAR2 EZ I         655 33.53         3.8 0.24            169           17.9 198 
 BRR  HZ EP     D  655 15.00                             151   -0.0110 75.5 302 
 BRR  HN ES        655 32.15                             151    0.4510 75.5 302 
 BRR  HZ I         655 35.36         5.4 0.24            151           75.5 302 
 RUS  HZ EP   2    655 17.50                             146    0.56 5 94.5 177 
 RUS  HN ES        655 34.75                             146   -0.3810 94.5 177 
 RUS  HZ I         655 37.96         2.0 0.28            146           94.5 177 
 PTB  HZ EP   2    655 19.85                             132   -0.77 5  148 261 
 PTB  HN ES        655 40.90                             132   -0.79 9  148 261 
 PTB  HZ I         655 43.47         3.0 0.18            132            148 261 
 SPBC HZ EP        655 22.00                             130    0.23 9  160 221 
 SPBC HN ES        655 44.06                             130    0.33 9  160 221 
 SPBC HZ I         655 48.84         4.1 0.14            130            160 221 
 ZAR  HZ EP   2    655 26.22                             122   -0.22 4  208 294 
 ZAR  HN ES        655 52.19                             122    0.14 8  208 294 
 ZAR  HZ I         655 57.37         5.4 0.52            123            208 294 
 PRA  HZ EP   2    655 46.59                             107   -0.03 3  388 210 
 PRA  HE ES   2    656 28.89                             107    0.94 3  388 210 
 PRA  HZ I         656 36.28         0.7 0.32            108            388 210 
                                                                                
