 2014 1121 0839 37.6 L   6.811 -73.141143.3  RSN 28 0.5 2.8LRSN                1
 GAP= 55        1.17       2.5     2.8  4.7 -0.4961E+00  0.3055E+01  0.9079E+00E
 Epicentro: LOS SANTOS - SANTANDER                                             3
 ACTION:UPD 14-12-19 15:45 OP:nd   STATUS:               ID:20141121083937 L   I
 OLDACT:REG 14-11-21 13:09 OP:fm   STATUS:               ID:20141121083740     3
 2014-11-21-0837-40M.COL___301                                                 6
 STAT SP IPHASW D HRMM SECON CODA AMPLIT PERI AZIMU VELO AIN AR TRES W  DIS CAZ7
 BAR2 SZ EP     C  839 57.23                             170    0.2810 24.6 191 
 BAR2 SZ ES        840 11.93                             170   -0.1210 24.6 191 
 BAR2 SZ I         840 13.23       146.6 0.32            168           24.6 191 
 BRR  HZ IP     D  839 59.09                             152    0.6310 71.0 297 
 BRR  HN ES        840 15.55                             152    0.8110 71.0 297 
 BRR  HZ I         840 20.54       188.2 0.66            152           71.0 297 
 PAM  SZ IP     D  840  0.02                             151    0.5510 76.1  40 
 PAM  SN ES        840 16.84                             151    0.3110 76.1  40 
 PAM  SZ I         840 19.27        81.3 0.32            155           76.1  40 
 RUS  HZ EP        840  1.26                             143    0.0810  102 176 
 RUS  HE ES        840 19.29                             143   -0.3010  102 176 
 RUS  HZ I         840 20.89        47.7 0.38            144            102 176 
 PTB  HZ EP        840  4.22                             131   -0.20 9  148 258 
 PTB  HN ES        840 24.65                             131   -0.70 9  148 258 
 PTB  HZ I         840 28.04        69.8 0.20            131            148 258 
 TAM  HZ EP     D  840  5.63                             130    0.57 9  155 105 
 TAM  HN ES        840 25.67                             130   -0.81 9  155 105 
 TAM  HZ I         840 26.00        66.1 0.40            134            155 105 
 OCA  HZ EP        840  5.43                             129   -0.17 9  159 353 
 OCA  HN ES        840 26.82                             129   -0.62 9  159 353 
 OCA  HZ I         840 30.46        85.2 0.42            132            159 353 
 SPBC HZ EP        840  6.31                             128    0.29 9  164 219 
 SPBC HE ES        840 27.62                             128   -0.57 9  164 219 
 SPBC HZ I         840 34.62        93.7 0.24            129            164 219 
 ZAR  HZ EP        840 10.02                             122    0.15 9  204 292 
 ZAR  HN ES        840 35.11                             122    0.06 9  204 292 
 ZAR  HZ I         840 41.28        78.0 0.26            123            204 292 
 NOR  HZ EP        840 12.32                             118   -0.97 8  236 234 
 NOR  HN ES        840 41.33                             118    0.19 8  236 234 
 NOR  HZ I         840 47.11        80.8 0.18            119            236 234 
 CHI  HZ EP        840 15.82                             116    0.53 8  250 195 
 CHI  HE ES        840 45.36                             116    0.66 8  250 195 
 CHI  HZ I         840 48.24        20.1 0.28            118            250 195 
 ROSC BZ EP        840 15.53                             116   -0.18 8  254 211 
 ROSC BN ES        840 45.71                             116    0.26 8  254 211 
 ROSC BZ I         840 53.46        59.5 0.40            117            254 211 
 HEL  HZ EP        840 17.72                             114   -0.04 8  273 256 
 HEL  HN ES        840 49.47                             114    0.38 8  273 256 
 HEL  HZ I         840 56.14        40.4 0.26            115            273 256 
 URE  HZ EP        840 17.40                             113   -1.13 7  284 292 
 URE  HN ES        840 49.63                             113   -0.84 7  284 292 
 URE  HZ I         840 50.88        85.4 0.12            114            284 292 
 VIL  SZ EP        840 20.70                             111   -0.34 7  305 192 
 VIL  SE ES        840 54.52                             111   -0.41 7  305 192 
 VIL  SZ I         841  3.95        34.2 0.38            113            305 192 
 PTGC HZ EP        840 20.62                             111   -0.82 7  310 159 
 PTGC HN ES   4    840 53.79                             111   -1.86 0  310 159 
 PTGC HZ I         840 55.75        21.1 0.16            113            310 159 
 RREF HZ EP   9    840 20.79                             110   -2.96 0  323 229 
 RREF HN ES        840 56.87                                    0.07 7  323 229 
 RREF HZ I         841  2.70        30.2 0.28            111            323 229 
 CBOC HZ EP     C  840 25.40                             109    0.91 7  334 252 
 CBOC HN ES        841  0.43                             109   -0.65 7  334 252 
 CBOC HZ I         841  6.24        11.0 0.22            110            334 252 
 DBB  SZ EP        840 25.28                             109    0.27 7  340 274 
 TOL  SZ EP   4    840 27.12                             109    1.24 0  345 225 
 TOL  SE ES        841  3.92                             109    0.37 7  345 225 
 TOL  SZ I         841  9.38        50.3 0.62            110            345 225 
 MON  HZ EP   4 D  840 25.01                             108   -1.44 0  353 308 
 MON  HN ES   4    841  2.05                             108   -2.51 0  353 308 
 MON  HZ I         841  6.61        17.4 0.16            109            353 308 
 ARGC HZ EP        840 27.66                             108    0.63 6  358 340 
 ARGC HN ES        841  6.16                             108    0.56 6  358 340 
 ARGC HZ I         841  7.11        13.5 0.28            109            358 340 
 SDV  BZ EP        840 26.59                             108   -0.81 6  359  50 
 SDV  BE ES   4    841  5.01                             108   -1.24 0  359  50 
 SDV  BZ I         841  6.98        19.4 0.45            110            359  50 
 ORTC HZ EP        840 32.07                             106    0.50 6  397 216 
 ORTC HN ES        841 14.20                             106    0.52 6  397 216 
 ORTC HZ I         841 21.79        14.6 0.44            107            397 216 
 PAL  HZ EP     C  840 33.50                             105    0.71 6  407 239 
 PAL  HE ES        841 15.58                             105   -0.26 6  407 239 
 PAL  HZ I         841 21.77        14.5 0.20            106            407 239 
 SJC  HZ EP   4    840 31.47                             105   -1.51 0  408 327 
 SJC  HN ES   4    841 12.92                             105   -3.26 0  408 327 
 SJC  HZ I         841 16.78        24.0 0.48            107            408 327 
 LCBC HZ EP   1    840 34.61                             105    0.17 4  422 303 
 LCBC HN ES        841 18.25                             105   -0.54 5  422 303 
 LCBC HZ I         841 22.51        18.1 0.22            106            422 303 
 MACC HZ EP   4    840 44.58                             101   -1.81 0  522 189 
 MACC HN ES   4    841 36.20                             101   -3.86 0  522 189 
 MACC HZ I         841 41.77         5.5 0.48            102            522 189 
 GARC HZ EP   4    840 50.48                             100   -2.46 0  574 207 
 GARC HE ES   4    841 48.68                             100   -3.04 0  574 207 
                                                                                
