 2016  621 0244 22.6 L   6.755 -73.172147.4  RSN  6 0.4 1.6LRSN                1
 GAP=231        0.85       5.2     5.7  6.3  0.1515E+02  0.7488E+01  0.3041E+01E
 Epicentro: LOS SANTOS - SANTANDER                                             3
 ACTION:UPD 16-07-21 22:21 OP:rebc STATUS:               ID:20160621024422 L   I
 OLDACT:DUP 16-06-21 16:32 OP:ak   STATUS:               ID:20160621023747d    3
 OLDACT:DUP 16-06-21 16:23 OP:ak   STATUS:               ID:20160621023746d    3
 2016-06-21-0237-45M.COL___337                                                 6
 STAT SP IPHASW D HRMM SECON CODA AMPLIT PERI AZIMU VELO AIN AR TRES W  DIS CAZ7
 BAR2 EZ EP        244 42.42                             173    0.1010 18.0 184 
 BAR2 EZ ES        244 57.60                             173   -0.1210 18.0 184 
 BAR2 EZ I         244 59.96        11.1 0.22                          18.0 184 
 BRR  HZ EP        244 44.11                             153    0.1910 71.2 303 
 BRR  HN ES        245  0.71                             153    0.1610 71.2 303 
 BRR  HZ I         245  1.50         4.8 0.32                          71.2 303 
 RUS  HZ EP        244 45.89                             145   -0.2810 95.9 174 
 RUS  HE ES        245  4.49                             145   -0.0810 95.9 174 
 RUS  HZ I         245  6.06         5.9 0.28                          95.9 174 
 PTB  HZ EP   1    244 48.47                             133   -0.88 7  144 261 
 PTB  HN ES   1    245  9.68                             133   -0.55 7  144 261 
 PTB  HZ I         245 12.63         3.3 0.12                           144 261 
 SPBC HZ EP        244 51.30                             130    0.62 9  157 219 
 SPBC HN ES   1    245 12.92                             130    0.33 7  157 219 
 SPBC HZ I         245 20.24         6.8 0.28                           157 219 
 ZAR  HZ EP   2    244 54.57                             123   -0.49 4  203 294 
 ZAR  HN ES        245 20.59                             123    0.20 9  203 294 
                                                                                
