 2015  221 0142 19.7 L   6.235 -73.313154.0  RSN  5 0.3 1.5LRSN                1
 GAP=126        0.86       5.1     4.8  6.7  0.6862E+00  0.1286E+02  0.7724E+01E
 Epicentro: OIBA - SANTANDER                                                   3
 ACTION:UPD 15-04-30 21:28 OP:nd   STATUS:               ID:20150221014219 L   I
 OLDACT:REG 15-02-21 12:33 OP:fm   STATUS:               ID:20150221013742     3
 2015-02-21-0137-42M.COL___287                                                 6
 STAT SP IPHASW D HRMM SECON CODA AMPLIT PERI AZIMU VELO AIN AR TRES W  DIS CAZ7
 BAR2 EZ EP        142 40.38                             164   -0.4110 42.1  20 
 BAR2 EZ ES        142 57.27                             164    0.0110 42.1  20 
 BAR2 EZ I         142 58.46         5.6 0.40            163           42.1  20 
 RUS  HZ EP        142 41.62                             163    0.3310 45.6 146 
 RUS  HE ES        142 58.11                             163   -0.0410 45.6 146 
 RUS  HZ I         143  0.15         4.6 0.22            167           45.6 146 
 BRR  HZ EP        142 43.58                             144   -0.3510  106 335 
 BRR  HN ES        143  3.24                             144    0.3910  106 335 
 BRR  HZ I         143  8.98        11.8 0.36            143            106 335 
 PTB  HZ EP        142 45.72                             138   -0.1610  131 285 
 PTB  HN ES        143  6.36                             138    0.0310  131 285 
 PTB  HZ I         143  8.07         3.5 0.16            138            131 285 
 GUY2CHZ EP        142 59.15                             118    0.73 8  253 244 
 GUY2CHE ES        143 28.21                             118   -0.43 8  253 244 
 GUY2CHZ I         143 36.99         0.9 0.38                           253 244 
                                                                                
