 2017  521 0727 41.6 L   6.756 -73.066148.0  RSN  8 0.4 1.8LRSN                1
 GAP=215        1.04       5.3     6.3  8.0  0.1735E+02 -0.1289E+02  0.1176E+01E
 Epicentro: LOS SANTOS - SANTANDER                                             3
 ACTION:UPD 17-06-16 13:37 OP:jn   STATUS:               ID:20170521072741 L   I
 OLDACT:UP  17-05-21 16:06 OP:edw  STATUS:               ID:20170521071726     3
 OLDACT:UP  17-05-21 16:05 OP:edw  STATUS:               ID:20170521071726     3
 OLDACT:UP  17-05-21 16:05 OP:edw  STATUS:               ID:20170521071726     3
 OLDACT:REG 17-05-21 14:56 OP:edw  STATUS:               ID:20170521071726     3
 2017-05-21-0718-00M.COL___356                                                 6
 STAT SP IPHASW D HRMM SECON CODA AMPLIT PERI AZIMU VELO AIN AR TRES W  DIS CAZ7
 BRR  HZ IP     C  728  3.50                             150   -0.1310 81.3 299 
 BRR  HN ES        728 20.79                             150    0.0210 81.3 299 
 BRR  HZ I         728 24.64        10.9 0.32            151           81.3 299 
 RUS  HZ EP        728  6.00                             146    0.7410 95.5 181 
 RUS  HN ES        728 23.87                             146    0.2010 95.5 181 
 RUS  HZ I         728 25.80        10.1 0.28            147           95.5 181 
 PTB  HZ EP        728  9.16                             131   -0.35 9  156 261 
 PTB  HN ES   4    728 29.48                             131   -1.77 0  156 261 
 PTB  HZ I         728 34.71         6.0 0.82            133            156 261 
 SPBC HZ EP        728 10.99                             130    0.48 9  165 222 
 SPBC HN ES        728 32.63                             130   -0.39 9  165 222 
 SPBC HZ I         728 35.60         9.7 0.12            131            165 222 
 YPLC HZ EP        728  9.93                             129   -0.85 9  168 153 
 YPLC HN ES        728 33.49                             129   -0.03 9  168 153 
 YPLC HZ I         728 38.90         6.9 0.26            131            168 153 
 ZAR  HZ EP   9    728 13.11                             122   -2.16 0  214 292 
 ZAR  HN ES        728 39.90                             123    0.56 8  214 292 
 ZAR  HZ I         728 45.29         7.0 0.52            124            214 292 
 CHI  HN ES        728 48.36                             118   -0.18 8  246 197 
 CHI  HZ I         728 51.54         2.5 0.36            120            246 197 
 PTGC HZ EP        728 24.92                             113    0.19 7  301 160 
 PTGC HN ES        728 58.58                             113    0.24 7  301 160 
 PTGC HZ I         729  0.91         2.5 0.40            115            301 160 
                                                                                
