 2013  121 0422 44.7 L   6.727 -73.375130.5  RSN  4 0.2 1.6LRSN                1
 GAP=166        0.54       3.8     3.6  5.4  0.6512E+01 -0.6939E+00  0.1894E+01E
 Epicentro: GALAN - SANTANDER                                                  3
 ACTION:UPD 13-02-15 09:15 OP:ep   STATUS:               ID:20130121042244 L   I
 2013-01-21-0420-00M.COL___241                                                 6
 STAT SP IPHASW D HRMM SECON CODA AMPLIT PERI AZIMU VELO AIN AR TRES W  DIS CAZ7
 BAR2 SZ IP     C  423  2.85        10.6 0.16            168    0.2710 26.0 125 
 BAR2 SZ I         423 16.65        10.6 0.16            164           26.0 125 
 BRR  HZ IP     C  423  3.54                             155    0.1510 56.2 318 
 BRR  HZ I         423  3.69         9.4 0.14            155           56.2 318 
 BRR  HE ES        423 17.76                             155   -0.2010 56.2 318 
 BRR  HN I         423 18.90         8.5 0.16            155           56.2 318 
 RUS  HZ EP        423  6.52                             141   -0.2710 97.7 161 
 RUS  HN ES        423 24.04                             141    0.0510 97.7 161 
 PTB  HZ EP        423  7.95                             134   -0.1210  121 260 
 PTB  HN ES        423 26.40                             134    0.1210  121 260 
 PTB  HN I         423 30.01         5.3 0.26            135            121 260 
                                                                                
