 2012 1221 0517 48.2 L   6.768 -73.201157.9  RSN  5 0.3 1.5LRSN                1
 GAP=223        0.53       5.2     5.2  5.2  0.1479E+02 -0.9530E+00 -0.7035E+00E
 Epicentro: VILLANUEVA - SANTANDER                                             3
 ACTION:UPD 13-01-04 14:29 OP:ep   STATUS:               ID:20121221051748 L   I
 2012-12-21-0510-00M.COL___243                                                 6
 STAT SP IPHASW D HRMM SECON CODA AMPLIT PERI AZIMU VELO AIN AR TRES W  DIS CAZ7
 BAR2 SZ EP        518  9.31                             173    0.0610 19.5 174 
 BAR2 SZ I         518 26.57         8.1 0.21                          19.5 174 
 BRR  HZ EP   1    518 10.28                             156   -0.24 7 67.8 304 
 BRR  HE ES        518 28.00                             156    0.0810 67.8 304 
 BRR  HZ I         518 28.15         5.4 0.53                          67.8 304 
 RUS  HZ EP   1    518 13.43                             147    0.44 7 97.7 172 
 RUS  HE ES   2    518 31.62                             147   -0.69 5 97.7 172 
 RUS  HE I         518 32.68         4.7 0.17                          97.7 172 
 PTB  HZ EP        518 15.57                             136   -0.06 9  141 260 
 PTB  HN ES   1    518 37.08                             136    0.07 7  141 260 
 PTB  HZ I         518 40.08         3.0 0.20                           141 260 
 MON  HZ EP   1    518 37.15                             111   -0.28 5  351 309 
 MON  HN ES   1    519 15.84                             111    0.03 5  351 309 
                                                                                
