 2015 1121 0321 27.9 L   6.798 -73.162143.7  RSN 11 0.4 1.6LRSN                1
 GAP=135        0.95       2.9     3.8  6.7 -0.1456E+01  0.6231E+01  0.1716E+01E
 Epicentro: LOS SANTOS - SANTANDER                                             3
 ACTION:UPD 15-12-28 16:12 OP:cam  STATUS:               ID:20151121032127 L   I
 OLDACT:REG 15-11-21 12:42 OP:dnl  STATUS:               ID:20151121031748     3
 2015-11-21-0317-48M.COL___319                                                 6
 STAT SP IPHASW D HRMM SECON CODA AMPLIT PERI AZIMU VELO AIN AR TRES W  DIS CAZ7
 BAR2 EZ EP        321 47.37                             171    0.1210 22.9 186 
 BAR2 EZ ES   2    322  1.87                             171   -0.49 5 22.9 186 
 BAR2 EZ I         322  3.48        19.7 0.13            170           22.9 186 
 BRR  HZ EP        321 49.34                             153    0.6110 69.8 299 
 BRR  HE ES        322  5.44                             153    0.4610 69.8 299 
 PAM  EZ EP        321 49.97                             150    0.0110 78.7  40 
 PAM  EE ES        322  7.27                             150    0.1010 78.7  40 
 PAM  EZ I         322  8.93         2.1 0.18            152           78.7  40 
 RUS  HZ EP        321 51.26                             143   -0.1610  100 175 
 RUS  HN ES        322  9.73                             143   -0.0510  100 175 
 RUS  HZ I         322 10.91         4.2 0.22            144            100 175 
 PTB  HZ EP        321 53.93                             132   -0.59 9  146 259 
 PTB  HN ES        322 14.71                             132   -0.58 9  146 259 
 PTB  HZ I         322 17.77         4.8 0.11            131            146 259 
 OCA  HN ES        322 17.36                             129   -0.63 9  160 354 
 OCA  HZ I         322 22.27                             129            160 354 
 SPBC HZ EP   2    321 56.09                             129   -0.01 5  162 219 
 SPBC HN ES        322 18.29                             129    0.18 9  162 219 
 SPBC HZ I         322 20.91         5.5 0.21            128            162 219 
 ZAR  HN ES        322 25.62                             122    0.51 9  203 292 
 ZAR  HZ I         322 30.48         2.1 0.11            121            203 292 
 NOR  HZ EP        322  3.92                             118    0.60 8  233 234 
 NOR  HN ES        322 30.53                             118   -0.44 8  233 234 
 NOR  HZ I         322 37.96         4.1 0.22            118            233 234 
 SML  HE ES        322 32.66                             117   -0.11 8  243 336 
 PRA  HZ EP   2    322 20.85                             106   -0.36 3  391 209 
 PRA  HN ES   2    323  3.52                             106    0.72 3  391 209 
 PRA  HZ I         323 10.08         2.5 0.28            106            391 209 
                                                                                
