 2010  221 0624  8.7 L   6.772 -73.522111.1  RSN  6 0.3 1.7LRSN                1
 GAP=126        0.54       3.3     7.8  5.8  0.1073E+02  0.5703E+01 -0.1653E+00E
 Epicentro: EL CARMEN DE CHUCURI - SANTANDER                                   3
 ACTION:UP  10-08-24 09:50 OP:vdl  STATUS:               ID:20100221062408 L   I
 2010-02-21-0622-04S.COL___094                                                 6
 STAT SP IPHASW D HRMM SECON CODA AMPLIT PERI AZIMU VELO SNR AR TRES W  DIS CAZ7
 BAR2 SZ IP        624 25.12                             158     0.310   42 118 
 BAR2 SZ ES   2    624 37.38                             158    -0.1 5   42 118 
 BRR  HZ IP        624 24.41                             157    -0.110   43 331 
 BRR  HZ I         624 24.91        13.7 0.12                            43 331 
 BRR  HN ES   2    624 37.13                             157     0.3 5   43 331 
 GIR2 SZ IP        624 25.24                             154     0.210   50  47 
 GIR2 SZ ES   2    624 37.38                             154    -0.5 5   50  47 
 RUS  BZ EP        624 29.95                             133     0.010  109 153 
 RUS  BN ES   2    624 46.00                             133    -0.5 5  109 153 
 RUS  BZ I         624 47.92         7.6 0.41                           109 153 
 OCA  SZ EP        624 34.69                             120    -0.2 9  164   8 
 OCA  SZ ES   2    624 55.57                             120     0.2 5  164   8 
 OCA  SZ I         625  4.30        13.7 0.34                           164   8 
 PRA  HN ES   3    625 36.92                             101    -0.7 2  370 204 
                                                                                
