 2016  721 0325 27.0 L   6.767 -73.154148.8  RSN  5 0.3 1.3LRSN                1
 GAP=234        0.69       4.0     5.1  5.5  0.9248E+01  0.5001E+01  0.2363E+01E
 Epicentro: LOS SANTOS - SANTANDER                                             3
 ACTION:UPD 17-03-29 16:53 OP:lp   STATUS:               ID:20160721032527 L   I
 OLDACT:REG 16-07-21 13:34 OP:ar   STATUS:               ID:20160721031759     3
 2016-07-21-0317-59S.COL___334                                                 6
 STAT SP IPHASW D HRMM SECON CODA AMPLIT PERI AZIMU VELO AIN AR TRES W  DIS CAZ7
 BAR2 EZ EP        325 46.66                             172   -0.2510 19.5 189 
 BAR2 EZ ES        326  2.20                             172   -0.2510 19.5 189 
 BRR  HZ EP        325 48.36                             153   -0.1610 72.2 301 
 BRR  HN ES        326  5.76                             153    0.4410 72.2 301 
 BRR  HZ I         326  9.62         2.6 0.11            153           72.2 301 
 RUS  HZ EP        325 50.91                             145    0.1210 97.0 175 
 RUS  HN ES        326  9.49                             145    0.1410 97.0 175 
 RUS  HZ I         326 10.36         3.1 0.32            148           97.0 175 
 SPBC HZ EP        325 55.75                             130    0.35 9  160 220 
 SPBC HN ES        326 17.31                             130   -0.25 9  160 220 
 SPBC HZ I         326 19.37         2.5 0.13            132            160 220 
 ZAR  HE ES        326 25.02                             123   -0.18 9  205 293 
                                                                                
