 2011  621 0611 14.0 L   6.777 -73.086149.7  RSN  8 0.3 1.6LRSN                1
 GAP=163        0.50       2.8     5.5  5.8 -0.5085E+01 -0.2991E+00 -0.1499E+01E
 Epicentro: LOS SANTOS - SANTANDER                                             3
 ACTION:UP  11-07-14 19:06 OP:ep   STATUS:               ID:20110621061114 L   I
 2011-06-21-0607-28S.COL___140                                                 6
 STAT SP IPHASW D HRMM SECON CODA AMPLIT PERI AZIMU VELO SNR AR TRES W  DIS CAZ7
 BAR2 SZ EP   1    611 33.95                             171    -0.2 7   23 208 
 BAR2 SZ ES   2    611 49.30                             171    -0.5 5   23 208 
 BAR2 SZ I         611 51.71        11.4 0.28                            23 208 
 BRR  HZ EP        611 35.91                             151    -0.110   78 298 
 BRR  HZ I         611 36.19        14.6 0.21                            78 298 
 BRR  HN ES   2    611 53.32                             151     0.2 5   78 298 
 RUS  HZ EP   1    611 37.98                             145     0.0 7   98 180 
 RUS  HZ I         611 39.06         2.3 0.14                            98 180 
 RUS  HE ES   2    611 56.99                             145     0.4 5   98 180 
 BRI  SZ EP   1    611 38.55                             142     0.3 7  109  17 
 GRA  SZ EP   1    611 39.82                             138     0.2 7  126  14 
 GRA  SZ ES   2    611 59.46                             138    -0.2 5  126  14 
 GRA  SZ I         612  1.09         6.1 0.30                           126  14 
 OCA  SZ EP   1    611 42.89                             130    -0.1 7  164 351 
 OCA  SZ ES   2    612  5.65                             130     0.1 5  164 351 
 OCA  SZ I         612  7.95         5.3 0.18                           164 351 
 NOR  SZ EP   2    611 49.73                             119    -0.7 4  239 236 
 NOR  SN ES   2    612 19.20                             119     0.4 4  239 236 
 CHI  HN ES   2    612 21.45                             118     0.1 4  248 197 
 CHI  HZ I         612 24.97         2.7 0.11                           248 197 
                                                                                
