 2015 1221 0237  1.7 L   6.822 -73.073142.9  RSN  6 0.3 1.5LRSN                1
 GAP=190        0.73       3.6     5.6  5.4  0.9414E+01  0.6773E+01 -0.4904E+00E
 Epicentro: LOS SANTOS - SANTANDER                                             3
 ACTION:UPD 16-02-04 15:06 OP:cam  STATUS:               ID:20151221023701 L   I
 OLDACT:DUP 15-12-21 15:54 OP:cara STATUS:               ID:20151221022751d    3
 OLDACT:REG 15-12-21 14:10 OP:cara STATUS:               ID:20151221022750     3
 2015-12-21-0227-50M.COL___331                                                 6
 STAT SP IPHASW D HRMM SECON CODA AMPLIT PERI AZIMU VELO AIN AR TRES W  DIS CAZ7
 BAR2 EZ EP        237 20.69                             168   -0.3710 28.1 205 
 BAR2 EZ ES        237 35.99                             168   -0.2010 28.1 205 
 BAR2 EZ I         237 37.17         4.6 0.20            165           28.1 205 
 BRR  HZ EP        237 23.02                             150    0.1510 77.3 294 
 BRR  HE ES        237 39.76                             150    0.3510 77.3 294 
 BRR  HZ I         237 49.91         5.9 0.48            147           77.3 294 
 RUS  HZ EP        237 25.62                             143    0.3210  103 181 
 RUS  HN ES        237 43.80                             143    0.0710  103 181 
 RUS  HZ I         237 45.15         2.0 0.24            148            103 181 
 PTB  HZ EP        237 28.75                             130   -0.43 9  156 259 
 PTB  HN ES   4    237 48.99                             130   -1.64 0  156 259 
 PTB  HZ I         237 55.08         2.8 0.22            130            156 259 
 OCA  HE ES        237 51.38                             129   -0.08 9  159 350 
 OCA  HZ I         237 55.54         6.9 0.48            132            159 350 
 ZAR  HZ EP        237 34.95                             121    0.34 8  211 291 
 ZAR  HN ES        238  0.13                             121   -0.18 8  211 291 
 ZAR  HZ I         238  6.11         6.5 0.32            122            211 291 
                                                                                
