 2016 1021 0516 36.0 L   6.807 -73.099146.5  RSN  4 0.2 1.1LRSN                1
 GAP=243        0.45       2.8     4.4  4.3  0.2558E+01 -0.6012E+01 -0.3919E+00E
 Epicentro: LOS SANTOS - SANTANDER                                             3
 ACTION:UPD 16-11-09 19:21 OP:rebc STATUS:               ID:20161021051636 L   I
 OLDACT:UP  16-10-21 17:18 OP:and  STATUS:               ID:20161021050745     3
 OLDACT:UP  16-10-21 17:16 OP:and  STATUS:               ID:20161021050745     3
 OLDACT:REG 16-10-21 13:23 OP:y    STATUS:               ID:20161021050745     3
 2016-10-21-0508-00M.COL___336                                                 6
 STAT SP IPHASW D HRMM SECON CODA AMPLIT PERI AZIMU VELO AIN AR TRES W  DIS CAZ7
 BRR  HZ IP     D  516 57.24                             151   -0.2210 75.4 296 
 BRR  HN ES        517 14.36                             151    0.1510 75.4 296 
 RUS  HZ EP   2    517  0.17                             144    0.31 5  101 179 
 RUS  HN ES        517 18.41                             144   -0.0610  101 179 
 RUS  HZ I         517 19.69         1.3 0.36            143            101 179 
 PTB  HZ EP   9    517  2.16                             131   -1.34 0  153 259 
 PTB  HN ES        517 23.44                             133   -0.17 9  153 259 
 PTB  HZ I         517 25.11         2.7 0.05            131            153 259 
 SPBC HZ EP        517  5.04                             128    0.12 9  167 220 
 SPBC HE ES        517 27.44                             128   -0.04 9  167 220 
 SPBC HZ I         517 28.86         1.6 0.10            128            167 220 
                                                                                
