 2014 1221 0239  9.1 L   6.759 -73.136148.0  RSN  6 0.4 1.3LRSN                1
 GAP=140        0.88       4.4     4.6  6.5 -0.1403E+01  0.3926E+01 -0.1236E+01E
 Epicentro: LOS SANTOS - SANTANDER                                             3
 ACTION:UPD 15-02-10 17:06 OP:nd   STATUS:               ID:20141221023909 L   I
 OLDACT:REG 14-12-21 12:31 OP:spq  STATUS:               ID:20141221023746     3
 2014-12-21-0237-46M.COL___302                                                 6
 STAT SP IPHASW D HRMM SECON CODA AMPLIT PERI AZIMU VELO AIN AR TRES W  DIS CAZ7
 BAR2 EZ EP   1    239 28.81                             172   -0.13 7 19.1 196 
 BAR2 EZ ES   1    239 44.34                             172   -0.06 7 19.1 196 
 BAR2 EZ I         239 46.29         3.2 0.23            173           19.1 196 
 BRR  HZ EP        239 30.76                             152    0.0710 74.4 301 
 BRR  HN ES        239 48.17                             152    0.6510 74.4 301 
 BRR  HZ I         239 51.64         4.3 0.60            151           74.4 301 
 PAM  SZ EP        239 31.63                             150   -0.1110 80.3  37 
 PAM  SN ES        239 49.00                             150   -0.3910 80.3  37 
 PAM  SZ I         239 50.47         2.0 0.38            152           80.3  37 
 RUS  HZ EP        239 32.84                             146    0.0710 96.0 177 
 RUS  HN ES   1    239 51.69                             146    0.48 7 96.0 177 
 RUS  HZ I         239 53.99         1.6 0.52            149           96.0 177 
 PTB  HZ EP        239 36.07                             133   -0.22 9  148 261 
 PTB  HN ES        239 56.91                             133   -0.58 9  148 261 
 PTB  HZ I         240  0.22         2.1 0.17            133            148 261 
 SML  HZ EP   1    239 47.09                             117    0.73 6  248 335 
 SML  HN ES   1    240 15.37                             117   -0.05 6  248 335 
 SML  HZ I         240 21.42         3.4 0.10            119            248 335 
                                                                                
