 2010 1121 0613 55.2 L   6.735 -73.366 29.6  RSN  4 0.2 1.2LRSN                1
 GAP=156        0.46       2.3     3.2  2.2  0.5053E+01  0.5920E+00  0.8117E+00E
 Epicentro: GALAN - SANTANDER                                                  3
 ACTION:UP  10-12-17 16:54 OP:REBC STATUS:               ID:20101121061355 L   I
 2010-11-21-0612-35S.COL___131                                                 6
 STAT SP IPHASW D HRMM SECON CODA AMPLIT PERI AZIMU VELO SNR AR TRES W  DIS CAZ7
 BAR2 SZ IP        614  1.61                             136    -0.110   26 128 
 BAR2 SZ ES   1    614  6.85                             136     0.1 7   26 128 
 BAR2 SZ I         614  8.36        22.8 0.34                            26 128 
 BRR  HZ EP   1    614  4.79                             110    -0.3 7   56 317 
 BRR  HZ I         614  5.20        10.3 0.15                            56 317 
 BRR  HE ES   1    614 13.09                             110     0.3 7   56 317 
 RUS  HZ EP   1    614 11.14                              61    -0.1 7   98 161 
 RUS  HN ES   1    614 23.82                              61     0.1 7   98 161 
 RUS  HZ I         614 24.75         5.0 0.23                            98 161 
 GRA  SZ EP   2    614 16.12                              61    -0.1 5  142  26 
 GRA  SZ ES   2    614 32.73                              61     0.1 5  142  26 
 GRA  SZ I         614 35.41         4.2 0.37                           142  26 
                                                                                
