 2012  421 0916 13.8 L   6.834 -73.159137.9  RSN 10 0.4 2.3LRSN                1
 GAP=133        0.93       3.9     4.7  7.5 -0.9750E+00  0.1417E+02  0.4540E+01E
 Epicentro: LOS SANTOS - SANTANDER                                             3
 ACTION:UPD 12-07-05 11:55 OP:tino STATUS:               ID:20120421091613 L   I
 2012-04-21-0910-00M.COL___186                                                 6
 STAT SP IPHASW D HRMM SECON CODA AMPLIT PERI AZIMU VELO AIN AR TRES W  DIS CAZ7
 BAR2 SZ EP   1    916 32.57                             168     0.0 7   27 185 
 BAR2 SZ ES   1    916 46.86                             168    -0.3 7   27 185 
 BAR2 SZ I         916 49.21        24.4 0.26                            27 185 
 BRR  HZ EP   1    916 34.20                             152     0.3 7   68 296 
 BRR  HN ES   2    916 50.67                             152     1.1 5   68 296 
 BRR  HZ I         916 54.14        55.6 0.14                            68 296 
 PAM  SZ EP   1    916 35.16                             150     0.1 7   76  42 
 PAM  SN ES   1    916 51.54                             150    -0.1 7   76  42 
 PAM  SZ I         916 54.11        57.9 0.31                            76  42 
 RUS  HZ EP   1    916 36.80                             141    -0.3 7  104 175 
 RUS  HN ES   1    916 55.59                             141     0.4 7  104 175 
 RUS  HZ I         916 57.88        18.0 0.30                           104 175 
 PTB  HZ EP   1    916 39.14                             130    -0.9 7  147 257 
 PTB  HN ES   1    917  0.08                             130    -0.5 7  147 257 
 PTB  HZ I         917  5.41        16.7 0.13                           147 257 
 OCA  SZ ES   1    917  2.16                             128    -0.3 7  156 354 
 ZAR  HZ EP   1    916 46.26                             121     0.8 6  201 291 
 ZAR  HN ES   1    917 10.21                             121     0.1 6  201 291 
 ZAR  HZ I         917 15.93        34.3 0.28                           201 291 
 NOR  SZ EP   1    916 49.05                             117    -0.1 6  236 234 
 NOR  SN ES   1    917 16.79                             117     0.0 6  236 234 
 CHI  HZ EP   1    916 51.26                             115    -0.2 6  252 195 
 CHI  HN ES   1    917 21.23                             115     0.5 6  252 195 
 CHI  HZ I         917 25.12         9.3 0.22                           252 195 
 HEL  HZ EP   1    916 54.00                             113     0.5 6  272 255 
 HEL  HN ES   1    917 24.29                             113    -0.3 6  272 255 
 HEL  HZ I         917 31.31        14.9 0.22                           272 255 
                                                                                
