 2011 1121 0300 29.1 L   6.776 -73.112148.8  RSN  4 0.1 1.3LRSN                1
 GAP=142        0.33       2.6     3.6  4.5 -0.2819E+00 -0.6339E+00  0.6460E+00E
 Epicentro: LOS SANTOS - SANTANDER                                             3
 ACTION:UPD 12-07-13 16:11 OP:ep   STATUS:               ID:20111121030029 L   I
 2011-11-21-0300-00M.COL___179                                                 6
 STAT SP IPHASW D HRMM SECON CODA AMPLIT PERI AZIMU VELO AIN AR TRES W  DIS CAZ7
 BAR2 SZ EP   1    3 0 48.94                             171   -0.12 7 21.7 201 
 BAR2 SZ I         3 1  4.82         6.9 0.89                          21.7 201 
 BRR  HZ EP   1    3 0 50.74                             152   -0.09 7 75.7 299 
 BRR  HE ES   1    3 1  7.86                             152    0.07 7 75.7 299 
 BRR  HZ I         3 1  9.84         3.3 0.20                          75.7 299 
 PAM  SZ EP   1    3 0 51.81                             151    0.18 7 77.2  36 
 PAM  SE ES   1    3 1  9.12                             151   -0.08 7 77.2  36 
 RUS  HZ EP   2    3 0 52.96                             145    0.01 5 97.7 178 
 RUS  HN ES   1    3 1 11.59                             145    0.04 7 97.7 178 
 RUS  HZ I         3 1 13.12         1.7 0.31                          97.7 178 
                                                                                
