 2014  721 0534 14.8 L   6.791 -73.097148.7  RSN 10 0.5 1.4LRSN                1
 GAP=188        1.11       3.8     6.3  8.3 -0.3463E+01  0.1081E+02 -0.3890E+01E
 Epicentro: LOS SANTOS - SANTANDER                                             3
 ACTION:UPD 15-03-16 20:45 OP:nd   STATUS:               ID:20140721053414 L   I
 OLDACT:DUP 14-07-21 14:38 OP:spq  STATUS:               ID:20140721052819d    3
 2014-07-21-0528-18M.COL___260                                                 6
 STAT SP IPHASW D HRMM SECON CODA AMPLIT PERI AZIMU VELO AIN AR TRES W  DIS CAZ7
 BAR2 SZ EP        534 34.31                             170   -0.4910 23.9 203 
 BAR2 SZ ES   1    534 50.37                             170   -0.02 7 23.9 203 
 BAR2 SZ I         534 51.65         3.0 0.23            167           23.9 203 
 BRR  HZ IP     D  534 37.08                             151    0.5210 76.4 297 
 BRR  HN ES        534 54.11                             151    0.5710 76.4 297 
 BRR  HZ I         535  0.78        10.1 0.36            148           76.4 297 
 RUS  HN ES   1    534 56.76                             145   -0.68 7 99.4 179 
 RUS  HZ I         534 58.74         1.5 0.42            148           99.4 179 
 PTB  HZ EP        534 41.97                             132   -0.49 9  153 260 
 PTB  HN ES   1    535  3.17                             132   -0.88 7  153 260 
 PTB  HZ I         535  8.79         2.8 0.26            131            153 260 
 OCA  HN ES        535  5.97                             130    0.09 9  162 351 
 OCA  HZ I         535  9.86         2.2 0.32            133            162 351 
 SPBC HZ EP        534 43.86                             129    0.08 9  166 221 
 SPBC HN ES        535  7.00                             129    0.62 9  166 221 
 SPBC HZ I         535 13.05         3.9 0.32            131            166 221 
 ZAR  HN ES        535 13.49                             122   -0.38 8  209 292 
 ZAR  HZ I         535 19.35         2.9 0.18            123            209 292 
 NOR  HN ES        535 19.95                             119    0.52 8  239 235 
 NOR  HZ I         535 23.19         2.5 0.22            120            239 235 
 SML  HZ EP        534 52.31                             118    0.38 8  247 334 
 SML  HE ES        535 20.62                             118   -0.27 8  247 334 
 SML  HZ I         535 23.52         3.8 0.08            120            247 334 
 HEL  HN ES   1    535 27.12                             115   -0.50 6  277 256 
 HEL  HZ I         535 35.60         1.1 0.24            116            277 256 
                                                                                
