 2016  621 0047 48.6 L   6.739 -73.141142.5  RSN 15 0.4 2.2LRSN                1
 GAP=140        0.95       2.9     3.3  4.7 -0.1103E+01  0.4964E+01  0.3565E+01E
 Epicentro: LOS SANTOS - SANTANDER                                             3
 ACTION:UPD 16-07-21 22:21 OP:rebc STATUS:               ID:20160621004748 L   I
 OLDACT:DUP 16-06-21 15:26 OP:ak   STATUS:               ID:20160621003743d    3
 OLDACT:REG 16-06-21 14:13 OP:ak   STATUS:               ID:20160621003742     3
 2016-06-21-0037-42M.COL___337                                                 6
 STAT SP IPHASW D HRMM SECON CODA AMPLIT PERI AZIMU VELO AIN AR TRES W  DIS CAZ7
 BAR2 EZ IP     C  048  7.63                             173   -0.0810 16.9 196 
 BAR2 EZ ES        048 22.59                             173   -0.0310 16.9 196 
 BAR2 EZ I         048 23.66        35.8 0.28                          16.9 196 
 BRR  HZ IP     C  048  9.71                             151    0.1010 75.0 303 
 BRR  HN ES        048 26.74                             151    0.7410 75.0 303 
 BRR  HZ I         048 29.80        32.0 0.12                          75.0 303 
 PAM  EZ EP        048 10.80                             149    0.0310 82.4  36 
 PAM  EN ES        048 28.11                             149    0.0510 82.4  36 
 PAM  EZ I         048 30.65        18.2 0.38                          82.4  36 
 RUS  HZ EP        048 11.44                             145   -0.0910 93.8 176 
 RUS  HN ES        048 29.31                             145   -0.1210 93.8 176 
 RUS  HZ I         048 30.96        38.5 0.34                          93.8 176 
 PTB  HZ EP        048 14.29                             131   -0.94 9  147 261 
 PTB  HN ES        048 35.07                             131   -0.93 9  147 261 
 PTB  HZ I         048 37.23        17.2 0.20                           147 261 
 SPBC HZ EP        048 16.35                             129   -0.02 9  158 221 
 SPBC HN ES        048 37.83                             129   -0.21 9  158 221 
 SPBC HZ I         048 40.75        18.7 0.19                           158 221 
 ZAR  HZ EP        048 20.67                             121   -0.47 8  207 294 
 ZAR  HN ES        048 46.74                             121    0.21 8  207 294 
 ZAR  HZ I         048 52.84        32.2 0.28                           207 294 
 NOR  HZ EP        048 23.56                             118   -0.20 8  231 236 
 NOR  HE ES        048 51.15                             118   -0.04 8  231 236 
 NOR  HZ I         048 53.19        15.0 0.38                           231 236 
 CHI  HZ EP        048 25.39                             117   -0.02 8  242 196 
 CHI  HN ES        048 54.31                             117    0.17 8  242 196 
 CHI  HZ I         048 57.49         8.0 0.32                           242 196 
 ROSC BZ EP        048 26.60                             117    0.67 8  247 212 
 ROSC BE ES        048 55.38                             117    0.33 8  247 212 
 ROSC BZ I         049  4.56        12.8 0.40                           247 212 
 HEL  HZ EP        048 28.58                             114    0.07 8  271 257 
 HEL  HE ES        049  0.21                             114    0.56 8  271 257 
 HEL  HZ I         049  7.04         9.6 0.32                           271 257 
 GUY2CHZ EP        048 32.23                             112    0.57 7  298 236 
 GUY2CHN ES        049  5.12                             112   -0.13 7  298 236 
 GUY2CHZ I         049 14.02         7.8 0.56                           298 236 
 CBOC HZ EP        048 35.52                             109    0.33 7  332 253 
 CBOC HN ES        049 11.69                             109    0.15 7  332 253 
 CBOC HZ I         049 22.54         2.8 0.26                           332 253 
 PRA  HZ EP        048 40.51                             106   -0.83 6  386 210 
 PRA  HN ES        049 22.66                             106    0.17 6  386 210 
 PRA  HZ I         049 31.20         5.5 0.34                           386 210 
 ORTC HZ EP        048 42.39                             106    0.59 6  390 217 
 ORTC HN ES        049 23.47                             106    0.17 6  390 217 
 ORTC HZ I         049 30.18         4.1 0.40                           390 217 
                                                                                
