 2010  421 0935 57.2 L   6.814 -73.081134.3  RSN  7 0.5 1.8LRSN                1
 GAP=190        0.95       6.5    12.5  8.7 -0.3849E+02 -0.1240E+02  0.5366E+01E
 Epicentro: LOS SANTOS - SANTANDER                                             3
 ACTION:UPD 10-08-24 10:00 OP:vdl  STATUS:               ID:20100421093557 L   I
 2010-04-21-0932-36S.COL___104                                                 6
 STAT SP IPHASW D HRMM SECON CODA AMPLIT PERI AZIMU VELO AIN AR TRES W  DIS CAZ7
 BAR2 SZ EP        936 15.54                             169     0.010   27 205 
 BAR2 SZ ES   2    936 30.08                             169     0.2 5   27 205 
 GIR2 SZ EP        936 15.60                             166     0.010   32 337 
 GIR2 SZ ES   2    936 28.68                             166    -1.2 5   32 337 
 BRR  HZ EP        936 17.97                             149     0.510   77 295 
 BRR  HE ES   2    936 33.83                             149     0.5 5   77 295 
 GUE  SZ EP        936 20.71                             137     0.010  114   9 
 GUE  SZ ES   2    936 38.40                             137    -0.5 5  114   9 
 GRA  SZ EP        936 21.54                             135     0.410  122  14 
 GRA  SZ ES   2    936 40.33                             135     0.5 5  122  14 
 OCA  SZ EP        936 24.23                             127    -0.4 9  160 351 
 OCA  SZ ES   2    936 45.12                             127    -0.9 5  160 351 
 OCA  SZ I         936 47.78         9.8 0.04                           160 351 
 PRA  HZ EP        936 50.19                             105    -0.8 6  397 210 
 PRA  HZ I         937 36.06         1.3 0.31                           397 210 
                                                                                
