 2015 1021 0509 37.8 L   6.775 -73.115142.3  RSN  7 0.3 1.5LRSN                1
 GAP=142        0.75       2.8     3.9  5.1 -0.7328E+00  0.4316E+01  0.3157E+01E
 Epicentro: LOS SANTOS - SANTANDER                                             3
 ACTION:UPD 15-12-22 20:41 OP:cam  STATUS:               ID:20151021050937 L   I
 OLDACT:REG 15-10-21 12:18 OP:mh   STATUS:               ID:20151021050747     3
 2015-10-21-0507-47M.COL___322                                                 6
 STAT SP IPHASW D HRMM SECON CODA AMPLIT PERI AZIMU VELO AIN AR TRES W  DIS CAZ7
 BAR2 EZ EP        5 9 57.04                             171    0.0510 21.5 200 
 BAR2 EZ ES        510 12.02                             171    0.0710 21.5 200 
 BAR2 EZ I         510 13.00         8.7 0.48            168           21.5 200 
 BRR  HZ EP     C  5 9 58.84                             150   -0.0010 75.5 299 
 BRR  HN ES        510 15.74                             150    0.4910 75.5 299 
 BRR  HZ I         510 15.82         8.2 0.12            149           75.5 299 
 PAM  EZ EP        5 9 59.90                             150    0.2310 77.5  36 
 PAM  EN ES        510 16.44                             150   -0.2810 77.5  36 
 PAM  EZ I         510 18.52         4.2 0.14            153           77.5  36 
 RUS  HE ES        510 18.71                             144   -0.4010 97.6 178 
 RUS  HZ I         510 20.23         4.3 0.20            143           97.6 178 
 SPBC HZ EP        510  6.21                             128    0.16 9  163 221 
 SPBC HN ES        510 28.01                             128   -0.07 9  163 221 
 SPBC HZ I         510 34.32         4.9 0.18            127            163 221 
 ZAR  HN ES        510 35.45                             121   -0.50 8  208 292 
 ZAR  HZ I         510 40.11         5.6 0.32            121            208 292 
 CHI  HZ EP        510 14.93                             116   -0.20 8  247 196 
 CHI  HN ES        510 44.66                             116    0.42 8  247 196 
 CHI  HZ I         510 51.30         1.9 0.56            116            247 196 
                                                                                
