 2011  921 0637 27.3 L   6.783 -73.195144.5  RSN  5 0.1 1.3LRSN                1
 GAP=201        0.37       2.6     5.7  3.6  0.4978E+01  0.4398E+00  0.2061E+01E
 Epicentro: ZAPATOCA - SANTANDER                                               3
 ACTION:UPD 12-07-13 15:58 OP:ep   STATUS:               ID:20110921063727 L   I
 2011-09-21-0635-37S.COL___165                                                 6
 STAT SP IPHASW D HRMM SECON CODA AMPLIT PERI AZIMU VELO AIN AR TRES W  DIS CAZ7
 BTL  SZ EP        637 46.72                             173    0.0710 17.0 332 
 BAR2 SZ EP        637 46.55                             171   -0.1710 21.2 176 
 BAR2 SZ ES   1    638  1.78                             171   -0.10 7 21.2 176 
 BAR2 SZ I         638  3.15         6.7 0.25                          21.2 176 
 BRR  HZ EP   1    637 48.31                             154    0.22 7 67.4 302 
 BRR  HN ES   1    638  4.26                             154   -0.06 7 67.4 302 
 BRR  HZ I         638  8.64         4.4 0.18                          67.4 302 
 RUS  HZ EP   1    637 50.85                             144    0.03 7 99.2 173 
 RUS  HE ES   1    638  9.37                             144    0.20 7 99.2 173 
 RUS  HZ I         638 10.79         1.9 0.31                          99.2 173 
 CHI  HZ EP   1    638  4.44                             117   -0.13 6  245 194 
 CHI  HE ES   1    638 33.61                             117   -0.04 6  245 194 
 CHI  HZ I         638 43.15         1.3 0.27                           245 194 
                                                                                
