 2012 1221 0532  3.0 L   6.753 -73.138138.0  RSN  8 0.4 1.8LRSN                1
 GAP=140        0.90       4.0     4.4  5.9  0.6535E-01  0.6800E+01  0.2087E+01E
 Epicentro: LOS SANTOS - SANTANDER                                             3
 ACTION:UPD 13-01-04 14:29 OP:ep   STATUS:               ID:20121221053203 L   I
 2012-12-21-0530-00M.COL___243                                                 6
 STAT SP IPHASW D HRMM SECON CODA AMPLIT PERI AZIMU VELO AIN AR TRES W  DIS CAZ7
 BAR2 SZ EP        532 21.51                             172   -0.1010 18.4 195 
 BAR2 SZ ES        532 36.35                             172    0.2310 18.4 195 
 BAR2 SZ I         532 37.90        25.3 0.13                          18.4 195 
 GIR2 SZ EP        532 21.79                             165   -0.1310 36.6 350 
 BRR  HZ EP     D  532 23.67                             150    0.1410 74.6 302 
 BRR  HE ES        532 40.09                             150    0.5610 74.6 302 
 BRR  HZ I         532 44.56        11.2 0.23                          74.6 302 
 PAM  SZ EP        532 24.61                             149   -0.0210 81.0  37 
 PAM  SZ I         532 24.88        24.2 0.16                          81.0  37 
 PAM  SN ES        532 41.37                             149   -0.1310 81.0  37 
 RUS  HZ EP        532 25.73                             144    0.1210 95.3 176 
 RUS  HN ES        532 43.18                             144   -0.0710 95.3 176 
 RUS  HN I         532 45.84         5.8 0.32                          95.3 176 
 PTB  HZ EP        532 28.36                             131   -0.99 9  148 261 
 PTB  HE ES   1    532 49.57                             131   -0.32 7  148 261 
 PTB  HZ I         532 53.77         4.9 0.13                           148 261 
 ZAR  HZ EP   1    532 35.74                             121    0.48 6  207 293 
 ZAR  HE ES   1    533  0.32                             121   -0.09 6  207 293 
 ZAR  HZ I         533  5.43         7.0 0.29                           207 293 
 PRA  HZ EP   1    532 56.25                             106    0.46 4  388 210 
 PRA  HN ES   1    533 37.75                             106    0.80 4  388 210 
 PRA  HZ I         533 42.89         2.4 0.24                           388 210 
                                                                                
