 2012  421 0251 46.7 L   6.708 -73.122145.6  RSN  7 0.4 2.0LRSN                1
 GAP=143        0.95       5.6     5.2  8.3  0.1212E+01  0.1542E+02 -0.1892E+01E
 Epicentro: JORDAN - SANTANDER                                                 3
 ACTION:UPD 12-07-05 11:55 OP:tino STATUS:               ID:20120421025146 L   I
 2012-04-21-0250-00M.COL___186                                                 6
 STAT SP IPHASW D HRMM SECON CODA AMPLIT PERI AZIMU VELO AIN AR TRES W  DIS CAZ7
 BAR2 SZ EP   1    252  6.02                             174    -0.2 7   14 207 
 BAR2 SZ ES   1    252 20.90                             174    -0.5 7   14 207 
 BAR2 SZ I         252 22.61        18.1 0.23                            14 207 
 BRR  HZ EP   1    252  8.22                             150    -0.1 7   79 304 
 BRR  HZ I         252  8.50        34.5 0.19                            79 304 
 BRR  HN ES   1    252 25.76                             150     0.7 7   79 304 
 PAM  SZ EP   1    252  9.09                             149    -0.2 7   84  34 
 PAM  SN ES   1    252 27.03                             149     0.1 7   84  34 
 RUS  HZ EP   1    252 10.46                             147     0.7 7   90 177 
 RUS  HN ES        252 27.72                             147     0.010   90 177 
 RUS  HZ I         252 30.19         8.3 0.25                            90 177 
 PTB  HZ EP   1    252 13.15                             132    -0.6 7  149 263 
 PTB  HN ES   1    252 34.33                             132    -0.5 7  149 263 
 PTB  HZ I         252 41.65        11.3 0.44                           149 263 
 ZAR  HN ES   1    252 45.77                             121     0.1 6  210 294 
 ZAR  HZ I         252 50.96        11.4 0.36                           210 294 
 HEL  HZ EP   1    252 26.95                             115     0.0 6  272 258 
 HEL  HN ES   1    252 58.75                             115     0.4 6  272 258 
 HEL  HZ I         253  5.00         5.5 0.26                           272 258 
                                                                                
