 2010  421 0215 59.3 L   6.770 -73.024143.3  RSN 11 0.5 2.4LRSN                1
 GAP=150        0.77       5.2     7.2  5.9 -0.1419E+02 -0.9494E+01  0.6448E+01E
 Epicentro: CEPITA - SANTANDER                                                 3
 ACTION:UPD 10-08-24 10:00 OP:vdl  STATUS:               ID:20100421021559 L   I
 2010-04-21-0214-21S.COL___104                                                 6
 STAT SP IPHASW D HRMM SECON CODA AMPLIT PERI AZIMU VELO AIN AR TRES W  DIS CAZ7
 BAR2 SZ IP        216 18.96                             169     0.210   26 222 
 BAR2 SZ ES   1    216 33.60                             169    -0.3 7   26 222 
 GIR2 SZ ES   2    216 33.59                             165    -0.7 5   39 331 
 BRR  HZ IP     C  216 21.23                             149     0.210   85 296 
 BRR  HN ES   1    216 38.45                             149     0.5 7   85 296 
 BRR  HZ I         216 42.87        34.4 0.19                            85 296 
 OCA  SZ EP   1    216 27.54                             129    -0.4 7  166 349 
 OCA  SZ I         216 53.83        49.7 0.49                           166 349 
 CHI  HZ EP   2    216 37.07                             117     0.1 4  249 198 
 CHI  HE ES   2    217  6.11                             117    -0.2 4  249 198 
 CHI  HZ I         217  9.83        14.8 0.57                           249 198 
 ROSC BZ EP   2    216 38.73                             116     0.9 4  257 214 
 ROSC BZ I         217 13.75        17.8 0.36                           257 214 
 HEL  HZ EP   2    216 41.00                             114     0.2 4  284 257 
 HEL  HZ I         217 16.42        10.3 0.29                           284 257 
 RREF BZ EP   2    216 46.58                             110     0.3 3  330 231 
 RREF BE ES   2    217 22.24                             110    -0.7 3  330 231 
 RREF BZ I         217 30.73        11.3 0.67                           330 231 
 SDV  BZ IP     D  216 48.41                             109     0.1 6  352  48 
 DBB  SZ EP   2    216 47.09                             109    -1.2 3  353 275 
 PRA  HZ EP   1    216 52.69                             106    -0.6 4  396 212 
 PRA  HN ES   2    217 35.14                             106    -0.1 3  396 212 
 PRA  HZ I         217 39.41        10.5 0.72                           396 212 
                                                                                
