 2016 1221 0006 19.8 L   5.915 -73.649126.3  RSN  5 0.2 1.2LRSN                1
 GAP= 91        0.65       2.8     2.8  6.4  0.6110E+00  0.6867E+01  0.5774E+01E
 Epicentro: BARBOSA - SANTANDER                                                3
 ACTION:UPD 17-01-11 20:17 OP:rebc STATUS:               ID:20161221000003 L   I
 OLDACT:UP  16-12-21 16:59 OP:cog  STATUS:               ID:20161221000003 L   3
 OLDACT:UPD 16-12-21 15:44 OP:CARA STATUS:               ID:20161221000003 L   3
 2016-12-21-0000-15M.COL___381                                                 6
 STAT SP IPHASW D HRMM SECON CODA AMPLIT PERI AZIMU VELO AIN AR TRES W  DIS CAZ7
 RUS  HZ EP        0 6 39.29                             152    0.1810 62.7  92 
 RUS  HN ES        0 6 54.19                             152    0.0510 62.7  92 
 RUS  HZ I         0 6 56.27         2.2 0.26            157           62.7  92 
 BAR2 EZ ES        0 6 56.90                             142    0.0710 90.9  35 
 BAR2 EZ I         0 6 58.03         9.9 0.44            148           90.9  35 
 PTB  HZ EP        0 6 42.16                             135    0.0810  113 308 
 PTB  HE ES        0 6 59.00                             135   -0.4310  113 308 
 PTB  HZ I         0 7  1.23         2.4 0.18            139            113 308 
 NOR  HZ EP        0 6 44.72                             129    0.07 9  141 254 
 NOR  HN ES        0 7  4.42                             129    0.41 9  141 254 
 NOR  HZ I         0 7  8.55         2.4 0.16            132            141 254 
 CHI  HZ EP        0 6 45.03                             129   -0.28 9  142 184 
 CHI  HN ES        0 7  5.01                             129   -0.17 9  142 184 
 CHI  HZ I         0 7  7.77         1.2 0.34            132            142 184 
 GUY2CHZ EP   4    0 6 52.45                             118    0.67 0  205 248 
 GUY2CHN ES   4    0 7 20.14                             118    3.44 0  205 248 
                                                                                
