 2013 1221 0952 22.0 L   6.781 -73.201138.0  RSN  5 0.4 1.0LRSN                1
 GAP=239        0.77       7.9     5.5 10.1  0.2472E+02 -0.5142E+01 -0.3190E+02E
 Epicentro: ZAPATOCA - SANTANDER                                               3
 ACTION:UPD 14-01-13 10:19 OP:ep   STATUS:               ID:20131221095222 L   I
 OLDACT:REG 13-12-21 08:57 OP:jn   STATUS:               ID:20131221095000     3
 2013-12-21-0950-00M.COL___285                                                 6
 STAT SP IPHASW D HRMM SECON CODA AMPLIT PERI AZIMU VELO AIN AR TRES W  DIS CAZ7
 BAR2 SZ EP        952 40.56                             171   -0.0410 21.0 174 
 BAR2 SZ ES   2    952 54.68                             171   -0.47 5 21.0 174 
 RUS  HZ EP        952 44.78                             143   -0.0610 99.1 172 
 RUS  HN ES        953  2.98                             143    0.2910 99.1 172 
 RUS  HZ I         953  4.91         1.5 0.40            143           99.1 172 
 PTB  HZ EP        952 47.45                             132   -0.25 9  141 259 
 PTB  HN ES        953  7.47                             132   -0.32 9  141 259 
 PTB  HZ I         953 10.93         1.4 0.24            132            141 259 
 SPBC HN ES   2    953 11.07                             128    0.37 5  158 218 
 ZAR  HN ES   1    953 18.79                             121    0.87 6  199 293 
                                                                                
