 2011  621 0545 16.9 L   6.804 -73.115136.0  RSN  4 0.2 1.1LRSN                1
 GAP=231        0.50       8.9    14.1  7.2  0.9870E+02 -0.3193E+02 -0.1443E+02E
 Epicentro: LOS SANTOS - SANTANDER                                             3
 ACTION:UP  11-07-14 19:06 OP:ep   STATUS:               ID:20110621054516 L   I
 2011-06-21-0542-25S.COL___140                                                 6
 STAT SP IPHASW D HRMM SECON CODA AMPLIT PERI AZIMU VELO SNR AR TRES W  DIS CAZ7
 BTL  SZ EP   1    545 35.41                             171     0.1 7   21 307 
 BTL  SZ ES   2    545 49.86                             171     0.2 5   21 307 
 BAR2 SZ ES   2    545 49.37                             169    -0.4 5   25 198 
 BAR2 SZ I         545 51.35         3.6 0.43                            25 198 
 BRR  HZ EP   1    545 36.87                             150    -0.3 7   74 297 
 BRR  HE ES   1    545 53.10                             150     0.1 7   74 297 
 BRR  HZ I         545 54.80         3.3 0.17                            74 297 
 RUS  HZ EP   2    545 39.95                             142     0.2 5  101 178 
 RUS  HE ES   2    545 57.53                             142     0.0 5  101 178 
 RUS  HZ I         545 57.76         1.1 0.33                           101 178 
                                                                                
