 2015  121 0924 44.4 L   6.814 -73.151146.9  RSN 11 0.5 1.6LRSN                1
 GAP=135        1.32       3.5     5.3  7.3 -0.1325E+01  0.9255E+01  0.7311E+00E
 Epicentro: LOS SANTOS - SANTANDER                                             3
 ACTION:UPD 15-03-02 15:41 OP:nd   STATUS:               ID:20150121092444 L   I
 OLDACT:REG 15-01-21 12:32 OP:carl STATUS:               ID:20150121091750     3
 2015-01-21-0917-50M.COL___265                                                 6
 STAT SP IPHASW D HRMM SECON CODA AMPLIT PERI AZIMU VELO AIN AR TRES W  DIS CAZ7
 BAR2 EZ EP        925  4.45                             170    0.2410 24.8 188 
 BAR2 EZ ES        925 20.23                             170    0.5810 24.8 188 
 BAR2 EZ I         925 20.75        12.1 0.18            169           24.8 188 
 BRR  HZ EP        925  6.42                             153    0.8010 69.9 298 
 BRR  HN ES        925 22.69                             153    0.5410 69.9 298 
 PAM  SZ EP        925  7.38                             151    0.6710 76.6  41 
 PAM  SN ES        925 23.40                             151   -0.6910 76.6  41 
 PAM  SZ I         925 26.60         6.3 0.62            154           76.6  41 
 RUS  HZ EP        925  8.03                             144   -0.3710  102 176 
 RUS  HN ES        925 26.94                             144   -0.1610  102 176 
 RUS  HZ I         925 28.96         4.4 0.24            146            102 176 
 PTB  HZ EP        925 11.67                             132    0.22 9  147 258 
 PTB  HN ES        925 31.69                             132   -0.85 9  147 258 
 PTB  HZ I         925 39.29         5.0 0.26            131            147 258 
 OCA  HN ES        925 34.08                             130   -0.61 9  159 353 
 SPBC HZ EP        925 13.37                             129    0.28 9  164 218 
 SPBC HN ES        925 35.11                             129   -0.33 9  164 218 
 ZAR  HZ EP        925 16.32                             123   -0.50 9  203 292 
 ZAR  HN ES        925 42.48                             123    0.39 9  203 292 
 ZAR  HZ I         925 49.18         2.8 0.42            122            203 292 
 NOR  HN ES        925 48.65                             119    0.43 8  235 234 
 NOR  HZ I         925 53.63         2.9 0.30            119            235 234 
 SML  HZ EP        925 20.79                             118   -0.14 8  242 335 
 SML  HN ES        925 48.98                             118   -0.42 8  242 335 
 SML  HZ I         925 58.03         3.9 0.24            118            242 335 
 CHI  HZ EP        925 22.66                             117    0.33 8  250 195 
 CHI  HE ES        925 50.98                             117   -0.92 8  250 195 
 CHI  HZ I         925 55.87         1.6 0.46            118            250 195 
                                                                                
