 2014 1121 0802 22.0 L   6.477 -73.579 94.3  RSN  5 0.5 1.1LRSN                1
 GAP=134        1.31       7.1     6.1 11.4  0.2506E+02  0.3406E+02  0.2042E+02E
 Epicentro: SANTA HELENA DEL OPON - SANTANDER                                  3
 ACTION:UPD 14-12-19 15:45 OP:nd   STATUS:               ID:20141121080222 L   I
 OLDACT:DUP 14-11-21 17:26 OP:fm   STATUS:               ID:20141121075749d    3
 2014-11-21-0757-48M.COL___301                                                 6
 STAT SP IPHASW D HRMM SECON CODA AMPLIT PERI AZIMU VELO AIN AR TRES W  DIS CAZ7
 BAR2 SZ EP        8 2 35.65                             152   -0.8010 45.6  74 
 BAR2 SZ ES        8 2 48.04                             152    0.2910 45.6  74 
 BAR2 SZ I         8 2 50.14         8.7 0.22            159           45.6  74 
 BRR  HN ES        8 2 50.18                             140   -0.1010 71.2 348 
 RUS  HZ EP        8 2 40.14                             135    0.4610 84.7 140 
 RUS  HN ES        8 2 53.57                             135    0.0810 84.7 140 
 RUS  HZ I         8 2 55.52         1.0 0.48            140           84.7 140 
 PTB  HZ EP        8 2 40.44                             131    0.2710 97.3 274 
 PTB  HN ES        8 2 53.86                             131   -0.5010 97.3 274 
 PTB  HZ I         8 2 58.34         2.5 0.28            132           97.3 274 
 ZAR  HZ EP        8 2 48.41                             113   -0.56 9  181 309 
 ZAR  HN ES        8 3 10.97                             113    0.94 9  181 309 
 ZAR  HZ I         8 3 13.00         2.7 0.44            115            181 309 
                                                                                
