 2017  521 0836 33.6 L   6.741 -73.140156.1  RSN  7 0.5 1.6LRSN                1
 GAP=191        0.99       5.5     6.5  7.9  0.2255E+02 -0.1696E+02 -0.9237E+01E
 Epicentro: LOS SANTOS - SANTANDER                                             3
 ACTION:UPD 17-06-16 13:37 OP:jn   STATUS:               ID:20170521083633 L   I
 OLDACT:UP  17-05-21 16:28 OP:edw  STATUS:               ID:20170521082741     3
 OLDACT:UP  17-05-21 16:27 OP:edw  STATUS:               ID:20170521082741     3
 OLDACT:UP  17-05-21 16:26 OP:edw  STATUS:               ID:20170521082741     3
 OLDACT:UP  17-05-21 16:26 OP:edw  STATUS:               ID:20170521082741     3
 OLDACT:REG 17-05-21 14:57 OP:edw  STATUS:               ID:20170521082741     3
 2017-05-21-0828-00M.COL___356                                                 6
 STAT SP IPHASW D HRMM SECON CODA AMPLIT PERI AZIMU VELO AIN AR TRES W  DIS CAZ7
 BRR  HZ EP        836 56.27                             153    0.2110 75.1 303 
 BRR  HE ES        837 13.58                             153   -0.0210 75.1 303 
 BRR  HZ I         837 15.94         4.0 0.62            149           75.1 303 
 RUS  HZ EP        836 58.31                             148    0.4010 94.0 176 
 RUS  HN ES        837 16.90                             148   -0.0010 94.0 176 
 RUS  HZ I         837 17.97         4.5 0.34            143           94.0 176 
 PTB  HZ EP        837  1.37                             134    0.01 9  147 261 
 PTB  HN ES        837 22.27                             134   -0.77 9  147 261 
 PTB  HZ I         837 29.90         3.9 0.42            129            147 261 
 SPBC HZ EP   4    837  3.77                             132    1.31 0  159 221 
 SPBC HN ES        837 25.45                             132    0.45 9  159 221 
 SPBC HZ I         837 27.85         5.1 0.12            127            159 221 
 ZAR  HZ EP   2    837  7.90                             124    0.87 4  207 294 
 ZAR  HN ES        837 33.26                             124    0.13 8  207 294 
 ZAR  HZ I         837 38.74         3.3 0.28            120            207 294 
 ROSC BE ES   4    837 34.51                             119   -6.96 0  248 212 
 HEL  HE ES   4    837 48.85                             117    2.90 0  271 257 
 PTGC HZ EP        837 17.43                             114    0.23 7  302 158 
 PTGC HZ I         837 32.59         3.7 0.50            111            302 158 
 PTGC HE ES        837 50.39                             114   -0.84 7  302 158 
 SJC  HZ EP        837 29.38                             107   -0.79 6  415 327 
 SJC  HN ES   4    838 10.13                             107   -4.19 0  415 327 
                                                                                
