 2016 1021 0230 45.5 L   6.812 -73.114150.0  RSN  4 0.1 1.6LRSN                1
 GAP=140        0.39       2.5     5.7  4.0 -0.3970E+01  0.1065E+02 -0.8489E+00E
 Epicentro: LOS SANTOS - SANTANDER                                             3
 *BAR2-BRR-RUS-PAM                                                             3
 ACTION:UPD 16-11-09 19:21 OP:rebc STATUS:               ID:20161021023045 L   I
 OLDACT:UP  16-10-21 19:33 OP:and  STATUS:               ID:20161021022748d    3
 OLDACT:DUP 16-10-21 19:28 OP:and  STATUS:               ID:20161021022748d    3
 OLDACT:UP  16-10-21 19:16 OP:and  STATUS:               ID:20161021022746     3
 OLDACT:UP  16-10-21 19:14 OP:and  STATUS:               ID:20161021022746     3
 OLDACT:REG 16-10-21 13:08 OP:and  STATUS:               ID:20161021022746     3
 2016-10-21-0228-00M.COL___341                                                 6
 STAT SP IPHASW D HRMM SECON CODA AMPLIT PERI AZIMU VELO AIN AR TRES W  DIS CAZ7
 BAR2 EZ EP     C  231  5.66                             170   -0.0510 25.5 197 
 BAR2 EZ ES        231 21.36                             170   -0.0910 25.5 197 
 BAR2 EZ I         231 21.77        16.0 0.23            156           25.5 197 
 BRR  HZ IP     C  231  7.35                             152    0.0810 73.7 296 
 PAM  EZ IP   3 C  231  8.54                             153    0.53 2 74.1  38 
 PAM  EN ES        231 25.56                             153    0.0210 74.1  38 
 RUS  HZ EP        231  9.62                             144   -0.1510  102 178 
 RUS  HZ I         231 23.19         2.7 0.15            128            102 178 
 RUS  HN ES        231 28.85                             144    0.1610  102 178 
                                                                                
