 2017 1221 0202 19.6 L   6.843 -73.166140.0  RSN  6 0.6 1.6LRSN                1
 GAP=112        1.23       6.0     5.0  9.4  0.5024E+01  0.1201E+02  0.2152E+02E
 Epicentro: ZAPATOCA - SANTANDER                                               3
 ACTION:UPD 18-01-04 13:22 OP:rebc STATUS:               ID:20171221020219 L   I
 OLDACT:UP  17-12-21 14:11 OP:dani STATUS:               ID:20171221015135     3
 OLDACT:REG 17-12-21 12:59 OP:dani STATUS:               ID:20171221015135     3
 2017-12-21-0158-00M.COL___455                                                 6
 STAT SP IPHASW D HRMM SECON CODA AMPLIT PERI AZIMU VELO AIN AR TRES W  DIS CAZ7
 BAR2 EZ EP        2 2 38.39                             168   -0.2310 27.7 184 
 BAR2 EZ ES        2 2 52.98                             168   -0.4910 27.7 184 
 BAR2 EZ I         2 2 54.76         8.1 0.18            167           27.7 184 
 PAM  EZ EP        2 2 41.31                             150    0.2410 75.3  43 
 PAM  EN ES        2 2 58.25                             150    0.4310 75.3  43 
 PAM  EZ I         2 3  0.57         5.2 0.48            154           75.3  43 
 PTB  HZ EP        2 2 45.32                             131   -0.66 9  147 257 
 PTB  HE ES        2 3  6.46                             131   -0.10 9  147 257 
 PTB  HZ I         2 3 11.08         3.3 0.07            132            147 257 
 YPLC HZ EP        2 2 48.98                             124   -0.51 9  182 151 
 YPLC HN ES        2 3 13.18                             124    0.36 9  182 151 
 YPLC HZ I         2 3 13.97         7.2 0.23            126            182 151 
 ZAR  HN ES        2 3 16.41                             122    0.45 9  200 291 
 PRA  HZ EP        2 3 13.08                             105   -0.19 6  395 209 
 PRA  HN ES        2 3 56.80                             105    1.66 6  395 209 
 PRA  HZ I         2 3 59.82         1.8 0.48            106            395 209 
                                                                                
