 2015 1021 0655 39.2 L   6.817 -73.140143.6  RSN 23 0.5 2.6LRSN 3.2WRSN        1
 SPEC AVERAGE  MO 13.9 ST0.329 OM  2.1 f0 1.62 R1.3775 AL 0.00 WI 35.0 MW  3.2 3
 SPEC SD       MO  0.2 ST0.405 OM  0.3 f00.714 R0.5231 AL      WI      MW  0.2 3
 GAP= 71        0.96       2.4     2.8  4.7 -0.7436E+00  0.4592E+01  0.1887E+01E
 Epicentro: LOS SANTOS - SANTANDER                                             3
 SPEC RUS HH Z MO 13.8 ST0.140 OM  1.8 f0 1.58 R1.2177 AL-0.00 WI 35.0 MW  3.1 3
 SPEC RUS HH Z T 65619 K 0.000 GD  176 VS 5.20 DE 3.50 Q0750.0 QA 1.50 VS 3.50 3
 SPEC TAM HH Z MO 13.7 ST0.138 OM  1.7 f0 1.60 R1.2025 AL-0.00 WI 35.0 MW  3.1 3
 SPEC TAM HH Z T 65626 K 0.000 GD  211 VS 5.20 DE 3.50 Q0750.0 QA 1.50 VS 3.50 3
 SPEC OCA HH Z MO 14.1 ST0.589 OM  2.1 f0 1.90 R1.0126 AL-0.00 WI 35.0 MW  3.4 3
 SPEC OCA HH Z T 65627 K 0.000 GD  214 VS 5.20 DE 3.50 Q0750.0 QA 1.50 VS 3.50 3
 SPEC ZAR HH Z MO 13.8 ST  1.2 OM  1.7 f0 3.14 R0.6127 AL-0.00 WI 35.0 MW  3.2 3
 SPEC ZAR HH Z T 65635 K 0.000 GD  249 VS 5.20 DE 3.50 Q0750.0 QA 1.50 VS 3.50 3
 SPEC CHI HH Z MO 13.9 ST0.048 OM  1.7 f0 1.01 R1.9050 AL-0.00 WI 35.0 MW  3.2 3
 SPEC CHI HH Z T 65645 K 0.000 GD  289 VS 5.20 DE 3.50 Q0750.0 QA 1.50 VS 3.50 3
 SPEC HEL HH Z MO 13.9 ST0.075 OM  1.7 f0 1.15 R1.6730 AL-0.00 WI 35.0 MW  3.2 3
 SPEC HEL HH Z T 65649 K 0.000 GD  308 VS 5.20 DE 3.50 Q0750.0 QA 1.50 VS 3.50 3
 SPECGUY2CHH Z MO 14.0 ST0.058 OM  1.8 f00.953 R2.0189 AL-0.00 WI 35.0 MW  3.3 3
 SPECGUY2CHH Z T 65655 K 0.000 GD  335 VS 5.20 DE 3.50 Q0750.0 QA 1.50 Q1 0.00 3
 SPEC MON HH Z MO 14.2 ST0.083 OM  1.9 f00.953 R2.0189 AL-0.00 WI 35.0 MW  3.4 3
 SPEC MON HH Z T 657 2 K 0.000 GD  381 VS 5.20 DE 3.50 Q0750.0 QA 1.50 VS 3.50 3
 OLDACT:UP  15-10-21 16:53 OP:mh   STATUS:               ID:20151021064749     3
 OLDACT:UP  15-10-21 16:51 OP:mh   STATUS:               ID:20151021064749     3
 OLDACT:REG 15-10-21 12:23 OP:mh   STATUS:               ID:20151021064749     3
 ACTION:UPD 15-12-22 20:41 OP:cam  STATUS:               ID:20151021065539 L   I
 OLDACT:UP  15-10-21 16:53 OP:mh   STATUS:               ID:20151021064749     3
 2015-10-21-0647-49M.COL___322                                                 6
 STAT SP IPHASW D HRMM SECON CODA AMPLIT PERI AZIMU VELO AIN AR TRES W  DIS CAZ7
 BAR2 EZ IP     C  655 58.49                             170   -0.0910 25.3 191 
 BAR2 EZ ES        656 13.33                             170   -0.3910 25.3 191 
 BAR2 EZ I         656 15.38        89.9 0.38            169           25.3 191 
 BRR  HZ IP     C  656  0.38                             152    0.3110 70.9 297 
 BRR  HN ES        656 17.05                             152    0.6810 70.9 297 
 BRR  HZ I         656 20.13        62.8 0.14            148           70.9 297 
 PAM  EZ EP        656  1.28                             151    0.2310 75.6  40 
 PAM  EN ES        656 18.50                             151    0.3910 75.6  40 
 PAM  EZ I         656 20.41        36.9 0.42            152           75.6  40 
 RUS  HZ EP   1    656  2.39                             143   -0.45 7  102 176 
 RUS  HN ES        656 21.08                             143   -0.2210  102 176 
 RUS  HZ I         656 21.62        41.3 0.40            145            102 176 
 TAM  HZ EP   1    656  6.66                             130   -0.01 7  155 106 
 TAM  HN ES        656 28.16                             130    0.05 9  155 106 
 TAM  HZ I         656 28.74        19.0 0.52            134            155 106 
 OCA  HZ EP   1    656  6.61                             129   -0.54 7  159 353 
 OCA  HN ES        656 28.82                             129   -0.15 9  159 353 
 OCA  HZ I         656 34.16       122.7 0.26            128            159 353 
 SPBC HZ EP   1    656  7.35                             128   -0.33 7  165 219 
 SPBC HN ES        656 29.44                             128   -0.47 9  165 219 
 SPBC HZ I         656 31.77       107.2 0.28            128            165 219 
 ZAR  HZ EP   1    656 11.93                             122    0.47 6  204 292 
 ZAR  HN ES        656 36.86                             122    0.21 9  204 292 
 ZAR  HZ I         656 43.31        86.9 0.30            120            204 292 
 NOR  HZ EP        656 14.29                             118   -0.65 8  236 234 
 NOR  HN ES        656 42.51                             118   -0.34 8  236 234 
 SML  HZ EP   1    656 14.66                             117   -0.86 6  242 335 
 SML  HN ES        656 43.20                             117   -0.67 8  242 335 
 SML  HZ I         656 48.83        47.3 0.10            116            242 335 
 CHI  HZ EP   1    656 16.50                             116   -0.46 6  251 195 
 CHI  HE ES        656 46.62                             116    0.18 8  251 195 
 CHI  HZ I         656 55.09        14.9 0.42            117            251 195 
 ROSC BZ EP   1    656 18.30                             116    0.92 6  255 211 
 ROSC BN ES   4    656 47.37                             116    0.19 0  255 211 
 ROSC BZ I         656 51.69        37.0 0.45            116            255 211 
 HEL  HZ EP   1    656 19.87                             114    0.48 6  273 255 
 HEL  HN ES        656 50.74                             114   -0.02 8  273 255 
 HEL  HZ I         656 55.30        16.6 0.30            113            273 255 
 URE  HZ EP   4    656 18.93                             113   -1.19 0  284 292 
 URE  HN ES   4    656 48.64                             113   -3.42 0  284 292 
 URE  HZ I         657  1.73        34.6 0.18            112            284 292 
 GUY2CHZ EP        656 23.70                             112    0.84 7  303 235 
 GUY2CHN ES        656 56.74                             112   -0.19 7  303 235 
 GUY2CHZ I         657  6.25        20.6 0.44                           303 235 
 VIL  SZ EP        656 22.93                             111    0.22 7  305 192 
 VIL  SE ES   4    656 56.43                             111   -0.24 0  305 192 
 PTGC HZ EP   4    656 21.15                             111   -1.95 0  310 159 
 PTGC HN ES   4    656 54.32                             111   -3.05 0  310 159 
 PTGC HZ I         656 56.42        13.2 0.22            112            310 159 
 ELA  HZ EP   4    656 28.07                             110    1.95 0  331 229 
 ELA  HN ES        657  3.36                             110    0.62 7  331 229 
 ELA  HZ I         657 10.72        19.6 0.42            110            331 229 
 CBOC HZ EP        656 26.89                             109    0.76 7  335 252 
 CBOC HN ES        657  2.03                             109   -0.72 7  335 252 
 CBOC HZ I         657 11.18         6.2 0.66            109            335 252 
 DBB  SZ EP   1    656 26.43                             109   -0.18 5  340 274 
 DBB  SZ ES   4    657  1.68                             109   -1.94 0  340 274 
 DBB  SZ I         657 16.93        64.4 0.44            108            340 274 
 MON  HZ EP   4    656 25.61                             108   -2.40 0  353 308 
 MON  HN ES   4    657  4.03                             108   -2.08 0  353 308 
 MON  HZ I         657 19.48        22.1 0.46            108            353 308 
 ANIL HN ES   1    657  8.85                             108    0.82 5  359 224 
 ORTC HZ EP        656 33.08                             106   -0.15 6  397 216 
 ORTC HN ES        657 15.46                             106    0.06 6  397 216 
 ORTC HZ I         657 19.24         8.5 0.24            106            397 216 
                                                                                
