 2010  721 0717 51.0 L   6.709 -73.181152.0  RSN  6 0.4 1.4LRSN                1
 GAP=155        0.90       9.7    17.2 14.3  0.7834E+02 -0.1545E+03 -0.8295E+02E
 Epicentro: VILLANUEVA - SANTANDER                                             3
 ACTION:UPD 10-12-01 15:19 OP:pat  STATUS:               ID:20100721071751 L   I
 2010-07-21-0714-32S.COL___123                                                 6
 STAT SP IPHASW D HRMM SECON CODA AMPLIT PERI AZIMU VELO AIN AR TRES W  DIS CAZ7
 BAR2 SZ EP   1    718 10.79                             175    -0.4 8   13 181 
 BAR2 SZ ES   2    718 26.36                             175    -0.6 5   13 181 
 BAR2 SZ I         718 27.09         5.6 0.13                            13 181 
 GIR2 SZ EP   3    718 11.14                             164    -0.5 3   41 358 
 BRR  HZ EP   1    718 12.90                             153     0.0 8   73 307 
 BRR  HN ES   1    718 30.35                             153     0.3 8   73 307 
 BRR  HZ I         718 31.18         6.3 0.07                            73 307 
 RUS  HZ EP   2    718 14.95                             148     0.3 5   91 173 
 RUS  HE ES   2    718 33.60                             148     0.4 5   91 173 
 RUS  HZ I         718 34.61         2.2 0.41                            91 173 
 GRA  SZ EP        718 18.06                             136     0.410  136  18 
 GRA  SZ I         718 40.27         2.6 0.52                           136  18 
 OCA  SZ EP   1    718 20.02                             129    -0.6 7  170 355 
 OCA  SZ I         718 46.03         3.2 0.20                           170 355 
                                                                                
