 2017  821 0430 40.4 L   6.845 -73.140140.2  RSN  9 0.4 1.5LRSN                1
 GAP=135        1.01       3.6     4.6  6.3 -0.1151E+01  0.1005E+02  0.3467E+01E
 Epicentro: LOS SANTOS - SANTANDER                                             3
 ACTION:UPD 17-09-04 20:22 OP:rebc STATUS:               ID:20170821043040 L   I
 OLDACT:REG 17-08-21 12:54 OP:osc  STATUS:               ID:20170821042743     3
 2017-08-21-0428-00M.COL___411                                                 6
 STAT SP IPHASW D HRMM SECON CODA AMPLIT PERI AZIMU VELO AIN AR TRES W  DIS CAZ7
 BAR2 EZ EP        430 59.63                             168    0.1510 28.3 190 
 BAR2 EZ ES        431 13.96                             168   -0.4010 28.3 190 
 BAR2 EZ I         431 18.07         5.9 0.34            168           28.3 190 
 BRR  HZ EP        431  0.50                             152   -0.3610 69.6 295 
 BRR  HE ES        431 17.61                             152    0.7910 69.6 295 
 PAM  EZ EP        431  1.81                             151    0.0310 73.2  42 
 PAM  EE ES        431 18.30                             151   -0.1510 73.2  42 
 PAM  EZ I         431 20.77         6.4 0.44            155           73.2  42 
 RUS  HZ EP        431  4.05                             141    0.0710  105 177 
 RUS  HN ES        431 22.22                             141   -0.1510  105 177 
 RUS  HZ I         431 24.16         1.6 0.26            144            105 177 
 SPBC HZ EP        431  8.69                             127   -0.21 9  167 218 
 SPBC HE ES        431 31.03                             127   -0.09 9  167 218 
 SPBC HZ I         431 35.62         5.5 0.15            129            167 218 
 ZAR  HZ EP        431 12.38                             121    0.01 9  203 291 
 ZAR  HE ES        431 37.26                             121   -0.04 9  203 291 
 ZAR  HZ I         431 43.22         7.0 0.46            123            203 291 
 NOR  HZ EP   2    431 15.31                             117   -0.88 4  238 234 
 NOR  HE ES        431 43.41                             117   -0.70 8  238 234 
 NOR  HZ I         431 46.64         2.6 0.26            119            238 234 
 CHI  HN ES        431 48.89                             115    0.95 8  254 195 
 GUY2CHZ EP        431 24.72                             111    0.57 7  305 234 
 GUY2CHE ES   4    432  0.96                             111    2.69 0  305 234 
 GUY2CHZ I         432  6.16         2.0 0.46                           305 234 
                                                                                
