 2012  121 0802  7.6 L   6.751 -73.187150.0  RSN  5 0.2 1.3LRSN                1
 GAP=134        0.60       4.8     5.0  7.0  0.6469E+01 -0.9932E+01 -0.2200E+01E
 Epicentro: VILLANUEVA - SANTANDER                                             3
 ACTION:UP  12-02-03 08:19 OP:REBC STATUS:               ID:20120121080207 L   I
 2012-01-21-0800-00M.COL___186                                                 6
 STAT SP IPHASW D HRMM SECON CODA AMPLIT PERI AZIMU VELO SNR AR TRES W  DIS CAZ7
 BAR2 SZ EP   1    8 2 27.23                             173    -0.4 7   18 178 
 BAR2 SZ I         8 2 46.24         4.1 0.55                            18 178 
 BRR  HZ EP        8 2 29.36                             154     0.210   70 304 
 BRR  HZ I         8 2 29.64         3.6 0.11                            70 304 
 BRR  HN ES        8 2 46.10                             154     0.110   70 304 
 PAM  SZ EP   1    8 2 30.50                             149    -0.2 7   85  40 
 RUS  HZ EP   1    8 2 31.72                             146     0.3 7   96 173 
 RUS  HE ES   1    8 2 50.07                             146     0.0 7   96 173 
 PTB  HZ EP   1    8 2 34.53                             134     0.1 7  142 261 
 PTB  HN ES   1    8 2 55.06                             134    -0.3 7  142 261 
                                                                                
