 2014  321 0146  6.3 L   6.788 -73.146141.7  RSN 18 0.4 2.4LRSN                1
 GAP=137        0.90       2.3     3.5  4.9 -0.1683E+01  0.6351E+01  0.1178E+01E
 Epicentro: LOS SANTOS - SANTANDER                                             3
 ACTION:UPD 14-04-09 23:19 OP:nd   STATUS:               ID:20140321014606 L   I
 OLDACT:UP  14-03-21 10:48 OP:mh   STATUS:               ID:20140321013820     3
 OLDACT:UP  14-03-21 10:47 OP:mh   STATUS:               ID:20140321013820     3
 OLDACT:REG 14-03-21 07:56 OP:mh   STATUS:               ID:20140321013820     3
 2014-03-21-0138-20M.COL___244                                                 6
 STAT SP IPHASW D HRMM SECON CODA AMPLIT PERI AZIMU VELO AIN AR TRES W  DIS CAZ7
 BAR2 SZ EP        146 25.38                             171   -0.0010 22.0 191 
 BAR2 SZ ES        146 40.28                             171   -0.0110 22.0 191 
 BAR2 SZ I         146 43.26        75.5 0.49            166           22.0 191 
 PAM  SZ EP     C  146 28.13                             150    0.0110 78.4  39 
 PAM  SN ES        146 45.49                             150    0.3310 78.4  39 
 PAM  SZ I         146 47.87        27.7 0.39            155           78.4  39 
 RUS  HZ EP        146 29.24                             143   -0.2810 99.2 176 
 RUS  HN ES   1    146 47.64                             143   -0.02 7 99.2 176 
 RUS  HZ I         146 51.05        23.6 0.30            142           99.2 176 
 PTB  HZ EP        146 32.00                             131   -0.88 9  147 259 
 PTB  HN ES        146 53.42                             131   -0.22 9  147 259 
 PTB  HZ I         146 59.29        30.3 0.34            129            147 259 
 SPBC HZ EP   1    146 34.02                             128   -0.34 7  162 219 
 SPBC HN ES   2    146 55.92                             128   -0.34 5  162 219 
 SPBC HZ I         147  2.33        93.7 0.05            126            162 219 
 OCA  HZ EP        146 34.60                             128    0.21 9  162 353 
 OCA  HN ES        146 56.34                             128    0.01 9  162 353 
 OCA  HZ I         147  1.31        27.0 0.38            130            162 353 
 ZAR  HZ EP        146 37.83                             121   -0.67 9  205 292 
 ZAR  HN ES        147  3.94                             121    0.29 9  205 292 
 ZAR  HZ I         147 10.24        18.8 0.51            121            205 292 
 NOR  HZ EP   1    146 41.26                             118   -0.42 6  234 235 
 NOR  HN ES   1    147  9.53                             118    0.23 6  234 235 
 NOR  HZ I         147 13.16        26.8 0.18            117            234 235 
 SML  HZ EP        146 42.25                             116   -0.55 8  245 335 
 SML  HE ES        147 11.77                             116    0.47 8  245 335 
 SML  HZ I         147 13.37        28.4 0.08            117            245 335 
 CHI  HZ EP        146 43.52                             116   -0.08 8  247 195 
 CHI  HN ES        147 12.38                             116   -0.34 8  247 195 
 CHI  HZ I         147 21.15         7.8 0.18            116            247 195 
 ROSC BZ EP        146 44.86                             116    0.82 8  252 211 
 ROSC BN ES   4    147 17.45                             116    3.95 0  252 211 
 ROSC BZ I         147 23.28        24.0 0.37            115            252 211 
 URE  HZ EP   4    146 45.34                             113   -1.86 0  284 292 
 URE  HN ES   4    147 16.40                             113   -2.72 0  284 292 
 URE  HZ I         147 26.27         8.0 0.22            112            284 292 
 GUY2CHZ EP   1    146 50.37                             112    0.77 5  300 235 
 GUY2CHN ES        147 23.77                             112    0.37 7  300 235 
 GUY2CHZ I         147 32.24        14.0 0.21                           300 235 
 RREF HZ EP        146 52.45                             110    0.31 7  321 230 
 RREF HE ES        147 27.79                             110   -0.12 7  321 230 
 RREF HZ I         147 36.48        13.9 0.17            110            321 230 
 CBOC HZ EP   1    146 52.96                             109   -0.01 5  333 252 
 CBOC HN ES   1    147 29.37                             109   -0.02 5  333 252 
 CBOC HZ I         147 43.50         4.8 0.49            109            333 252 
 DBB  SZ EP   4    146 52.39                             109   -1.20 0  340 274 
 TOL  SZ EP        146 55.18                             109    0.93 7  343 225 
 ORTC HZ EP   1    146 59.87                             106   -0.05 4  394 216 
 ORTC HN ES        147 42.46                             106    0.69 6  394 216 
 ORTC HZ I         147 48.37         7.0 0.41            105            394 216 
 SJC  HZ EP   4    146 59.64                             105   -2.19 0  410 327 
 SJC  HN ES   4    147 40.31                             105   -4.86 0  410 327 
 SJC  HZ I         147 45.51         3.5 0.29            105            410 327 
                                                                                
