 2010  421 0913 21.0 L   6.800 -73.001142.8  RSN  4 0.4 1.7LRSN                1
 GAP=224        0.68       6.4    11.7  8.8  0.5234E+01 -0.1085E+02  0.2445E+02E
 Epicentro: CEPITA - SANTANDER                                                 3
 ACTION:UPD 10-08-24 10:00 OP:vdl  STATUS:               ID:20100421091321 L   I
 2010-04-21-0900-00S.COL___100                                                 6
 STAT SP IPHASW D HRMM SECON CODA AMPLIT PERI AZIMU VELO AIN AR TRES W  DIS CAZ7
 BAR2 SZ EP        913 40.52                             168     0.110   31 221 
 BAR2 SZ ES   2    913 55.28                             168    -0.3 5   31 221 
 BRR  HZ EP        913 42.93                             148     0.210   86 293 
 BRR  HN ES   1    913 59.71                             148     0.1 7   86 293 
 BRR  HZ I         914  2.14         6.3 0.10                            86 293 
 OCA  SZ ES   2    914 10.67                             128    -0.8 5  163 348 
 OCA  SZ I         914 16.39         7.0 0.22                           163 348 
 PRA  HZ EP        914 15.41                             106     0.0 6  400 212 
 PRA  HE ES   2    914 56.73                             106    -1.0 3  400 212 
 PRA  HZ I         915  3.27         1.5 0.39                           400 212 
                                                                                
