 2012  821 0222 43.1 L   6.766 -72.977142.9  RSN  5 0.4 1.6LRSN                1
 GAP=161        0.80       7.2     6.8 12.1  0.1528E+02  0.7201E+00  0.1268E+02E
 Epicentro: CEPITA - SANTANDER                                                 3
 ACTION:UPD 12-09-10 11:57 OP:ep   STATUS:               ID:20120821022243 L   I
 2012-08-21-0220-00M.COL___217                                                 6
 STAT SP IPHASW D HRMM SECON CODA AMPLIT PERI AZIMU VELO AIN AR TRES W  DIS CAZ7
 BAR2 SZ EP        223  2.29                             168   -0.2110 29.7 230 
 PAM  SZ EP   1    223  5.07                             152    0.50 7 70.5  26 
 PAM  SZ I         223  5.53         7.0 0.22                          70.5  26 
 PAM  SN ES   2    223 21.37                             152    0.02 5 70.5  26 
 BRR  HZ EP   1    223  4.35                             146   -0.71 7 89.6 295 
 BRR  HZ I         223  5.88         6.6 0.09                          89.6 295 
 BRR  HN ES   1    223 22.02                             146   -0.20 7 89.6 295 
 RUS  HZ EP   1    223  6.47                             144    0.17 7 97.3 187 
 RUS  HE ES   2    223 24.80                             144    0.39 5 97.3 187 
 ZAR  HE ES   1    223 44.63                             119    0.63 6  223 291 
                                                                                
