 2013  721 0643 27.8 L   6.837 -73.146144.4  RSN 14 0.5 2.3LRSN                1
 GAP=135        0.98       3.0     4.4  5.7 -0.2587E+01  0.6695E+01  0.1397E+01E
 Epicentro: LOS SANTOS - SANTANDER                                             3
 ACTION:UPD 13-08-12 10:39 OP:ep   STATUS:               ID:20130721064327 L   I
 OLDACT:UP  13-07-21 11:59 OP:mh   STATUS:               ID:20130721063959     3
 OLDACT:REG 13-07-21 08:11 OP:mh   STATUS:               ID:20130721063959     3
 2013-07-21-0639-59M.COL___265                                                 6
 STAT SP IPHASW D HRMM SECON CODA AMPLIT PERI AZIMU VELO AIN AR TRES W  DIS CAZ7
 GIR2 SZ EP   1    643 47.56                             169    0.30 7 27.2 349 
 GIR2 SZ ES   1    644  2.11                             169   -0.28 7 27.2 349 
 GIR2 SZ I         644  3.99        22.1 0.12            165           27.2 349 
 BAR2 SZ EP        643 47.50                             169    0.1010 27.4 188 
 BAR2 SZ ES   1    644  2.25                             169   -0.41 7 27.4 188 
 BAR2 SZ I         644  3.40        32.8 0.22            168           27.4 188 
 BRR  HZ IP     C  643 49.31                             153    0.5710 69.3 296 
 BRR  HN ES        644  5.93                             153    0.8910 69.3 296 
 BRR  HN I         644  7.10        97.1 0.18            148           69.3 296 
 PAM  SZ EP   1    643 50.45                             152    0.72 7 74.3  42 
 PAM  SN ES   1    644  6.47                             152   -0.34 7 74.3  42 
 PAM  SN I         644  8.56        37.6 0.34            154           74.3  42 
 RUS  HZ EP   1    643 51.74                             142   -0.03 7  105 176 
 RUS  HN ES   1    644  9.92                             142   -0.51 7  105 176 
 RUS  HZ I         644 11.03        20.2 0.24            144            105 176 
 PTB  HZ EP   1    643 53.84                             132   -0.94 7  149 257 
 PTB  HN ES   1    644 15.10                             132   -0.69 7  149 257 
 PTB  HZ I         644 16.71        16.1 0.32            129            149 257 
 OCA  HZ EP   1    643 55.84                             130    0.17 7  156 353 
 OCA  HN ES        644 16.89                             130   -0.48 9  156 353 
 OCA  HN I         644 22.98        38.4 0.40            129            156 353 
 SPBC HZ EP     D  643 56.47                             128   -0.08 9  166 218 
 SPBC HN ES        644 19.41                             128    0.47 9  166 218 
 SPBC HN I         644 22.12        46.2 0.10            127            166 218 
 ZAR  HZ EP   1    644  0.42                             122    0.37 6  203 291 
 ZAR  HE ES   1    644 25.16                             122   -0.00 6  203 291 
 ZAR  HZ I         644 31.09        10.0 0.39            121            203 291 
 NOR  HZ EP   1    644  3.52                             118   -0.24 6  237 234 
 NOR  HN ES   1    644 31.18                             118   -0.59 6  237 234 
 NOR  HN I         644 41.40        35.0 0.16            117            237 234 
 SML  HZ EP   1    644  3.98                             118   -0.01 6  240 335 
 SML  HN ES        644 31.62                             118   -0.56 8  240 335 
 SML  HN I         644 38.52        45.5 0.26            117            240 335 
 ROSC BZ EP   4    644  8.13                             116    1.85 0  256 211 
 HEL  HZ EP   4    644  9.81                             114    1.71 0  273 255 
 HEL  HN ES        644 39.82                             114    0.32 8  273 255 
 HEL  HZ I         644 47.00         6.7 0.34            114            273 255 
 PRA  HZ EP   1    644 21.25                             106   -0.49 4  396 209 
 PRA  HN ES   1    645  4.11                             106    0.33 4  396 209 
 PRA  HN I         645  9.45         5.6 0.44            106            396 209 
 ORTC HZ EP   1    644 21.86                             106   -0.25 4  399 216 
 ORTC HN ES   2    645  3.92                             106   -0.51 3  399 216 
                                                                                
