 2011  521 0045  5.9 L   6.825 -73.112148.0  RSN  6 0.2 1.4LRSN                1
 GAP=162        0.45       3.3     7.6  5.5  0.3281E+01 -0.5189E+01 -0.4007E+01E
 Epicentro: LOS SANTOS - SANTANDER                                             3
 ACTION:UP  11-06-29 08:55 OP:tino STATUS:               ID:20110521004505 L   I
 2011-05-21-0040-04S.COL___141                                                 6
 STAT SP IPHASW D HRMM SECON CODA AMPLIT PERI AZIMU VELO SNR AR TRES W  DIS CAZ7
 BTL  SZ EP   1    045 25.66                             172    -0.1 7   20 301 
 BAR2 SZ EP   1    045 25.59                             169    -0.3 7   27 197 
 BAR2 SZ I         045 38.30         6.3 0.58                            27 197 
 BAR2 SZ ES   1    045 41.55                             169     0.1 7   27 197 
 GIR2 SZ EP   2    045 25.74                             168     0.0 5   30 342 
 BRR  HZ EP   1    045 27.44                             152     0.0 7   73 295 
 BRR  HZ I         045 41.11        15.7 0.23                            73 295 
 BRR  HE ES   2    045 44.23                             152     0.1 5   73 295 
 RUS  HZ EP   1    045 29.99                             144    -0.1 7  103 178 
 RUS  HZ I         045 30.86         1.6 0.17                           103 178 
 RUS  HE ES   1    045 48.99                             144     0.1 7  103 178 
 GRA  SZ EP   2    045 31.62                             138     0.6 5  122  16 
 GRA  SZ ES   2    045 50.43                             138    -0.2 5  122  16 
 GRA  SZ I         045 52.02         2.8 0.56                           122  16 
                                                                                
