 2017 1121 0357 32.6 L   6.745 -73.155134.0  RSN  5 0.3 1.2LRSN                1
 GAP=138        0.83       3.3     3.9  8.4 -0.9501E+00  0.1403E+02 -0.2712E+01E
 Epicentro: LOS SANTOS - SANTANDER                                             3
 ACTION:UPD 17-12-12 19:57 OP:rebc STATUS:               ID:20171121035732 L   I
 OLDACT:UP  17-11-21 16:00 OP:edw  STATUS:               ID:20171121034230     3
 OLDACT:REG 17-11-21 12:31 OP:edw  STATUS:               ID:20171121034230     3
 2017-11-21-0348-00M.COL___489                                                 6
 STAT SP IPHASW D HRMM SECON CODA AMPLIT PERI AZIMU VELO AIN AR TRES W  DIS CAZ7
 PAM  EZ EP        357 53.45                             147   -0.5110 82.8  37 
 PAM  EE ES        358 10.62                             147    0.0210 82.8  37 
 PAM  EZ I         358 12.29         5.2 0.62            149           82.8  37 
 RUS  HZ EP        357 54.69                             143   -0.1010 94.6 175 
 RUS  HN ES        358 12.44                             143    0.3710 94.6 175 
 RUS  HZ I         358 13.66         1.9 0.22            145           94.6 175 
 PTB  HZ EP        357 58.35                             130   -0.12 9  146 261 
 PTB  HE ES        358 18.24                             130   -0.38 9  146 261 
 PTB  HZ I         358 20.41         1.8 0.28            132            146 261 
 OCA  HN ES        358 22.73                             126    0.25 9  166 354 
 ZAR  HZ EP        358  5.08                             120    0.59 8  206 294 
 ZAR  HE ES        358 29.37                             120    0.03 8  206 294 
                                                                                
