 2016  621 0230  7.3 L   6.683 -73.222149.5  RSN  4 0.5 1.2LRSN                1
 GAP=206        1.08      12.2     8.5  9.9  0.2911E+02  0.3010E+02  0.2307E+01E
 Epicentro: BARICHARA - SANTANDER                                              3
 ACTION:UPD 16-07-21 22:21 OP:rebc STATUS:               ID:20160621023007 L   I
 OLDACT:REG 16-06-21 14:28 OP:ak   STATUS:               ID:20160621022746     3
 2016-06-21-0227-46M.COL___337                                                 6
 STAT SP IPHASW D HRMM SECON CODA AMPLIT PERI AZIMU VELO AIN AR TRES W  DIS CAZ7
 BAR2 EZ EP   2    230 27.10                             176   -0.07 5 10.9 156 
 BAR2 EZ ES        230 42.37                             176   -0.3210 10.9 156 
 BAR2 EZ I         230 43.06         3.3 0.27                          10.9 156 
 BRR  HZ EP        230 29.70                             153    0.8510 71.7 311 
 BRR  HN ES        230 45.58                             153   -0.1010 71.7 311 
 BRR  HZ I         230 46.16         3.4 0.27                          71.7 311 
 PTB  HZ EP        230 33.19                             135   -0.45 9  137 263 
 PTB  HN ES        230 54.62                             135    0.42 9  137 263 
 PTB  HZ I         230 56.86         1.5 0.14                           137 263 
 ZAR  HZ EP   2    230 39.13                             123   -0.60 4  202 296 
 ZAR  HN ES        231  4.66                             123   -0.38 9  202 296 
 ZAR  HZ I         231  9.70         1.5 0.30                           202 296 
                                                                                
