 2015  221 0933 21.1 L   6.791 -73.178149.2  RSN  8 0.5 1.8LRSN                1
 GAP=133        1.19       4.4     6.0  8.9 -0.7882E+01  0.1643E+02 -0.1661E+01E
 Epicentro: LOS SANTOS - SANTANDER                                             3
 ACTION:UPD 15-04-30 21:28 OP:nd   STATUS:               ID:20150221093321 L   I
 OLDACT:DUP 15-02-21 16:47 OP:fm   STATUS:               ID:20150221092741d    3
 2015-02-21-0927-40M.COL___284                                                 6
 STAT SP IPHASW D HRMM SECON CODA AMPLIT PERI AZIMU VELO AIN AR TRES W  DIS CAZ7
 BAR2 EZ EP        933 41.61                             171    0.5010 22.0 181 
 BAR2 EZ ES        933 56.32                             171   -0.4010 22.0 181 
 BAR2 EZ I         933 58.15        22.5 0.18            172           22.0 181 
 BRR  HZ EP        933 42.89                             154    0.4310 68.5 301 
 BRR  HE ES        933 59.65                             154    0.5110 68.5 301 
 BRR  HZ I         934  1.57         6.8 0.14            151           68.5 301 
 PAM  SZ EP        933 44.20                             150    0.3510 80.5  41 
 PAM  SN ES        934  1.53                             150   -0.0810 80.5  41 
 PAM  SZ I         934  3.83         7.5 0.46            151           80.5  41 
 RUS  HZ EP        933 44.80                             145   -0.3310 99.9 174 
 RUS  HN ES        934  3.34                             145   -0.5510 99.9 174 
 RUS  HZ I         934  5.43         9.1 0.24            147           99.9 174 
 SPBC HN ES        934 12.39                             130    0.61 9  160 218 
 SPBC HZ I         934 15.26        12.0 0.34            130            160 218 
 NOR  HN ES        934 24.04                             119   -0.34 8  231 234 
 NOR  HZ I         934 29.05         4.3 0.16            120            231 234 
 SML  HN ES        934 25.59                             118   -0.93 8  243 336 
 SML  HZ I         934 34.35         8.6 0.10            118            243 336 
 GUY2CHN ES        934 38.06                             113   -0.23 7  298 235 
 GUY2CHZ I         934 49.51         2.0 0.28                           298 235 
                                                                                
