 2014  421 0914 10.7 L   6.782 -73.180150.6  RSN  4 0.5 1.3LRSN                1
 GAP=197        1.18       7.6     8.5 15.2  0.3461E+02 -0.3551E+02 -0.7142E+02E
 Epicentro: LOS SANTOS - SANTANDER                                             3
 ACTION:UPD 14-05-13 23:10 OP:nd   STATUS:               ID:20140421091410 L   I
 OLDACT:REG 14-04-21 15:49 OP:spq  STATUS:               ID:20140421090805     3
 2014-04-21-0908-05M.COL___230                                                 6
 STAT SP IPHASW D HRMM SECON CODA AMPLIT PERI AZIMU VELO AIN AR TRES W  DIS CAZ7
 RUS  HZ EP        914 35.48                             145    0.6710 99.0 174 
 RUS  HN ES        914 53.27                             145   -0.3510 99.0 174 
 RUS  HZ I         914 55.25         2.1 0.38            151           99.0 174 
 PTB  HZ EP        914 37.74                             134    0.04 9  144 259 
 PTB  HN ES        914 58.56                             134   -0.20 9  144 259 
 PTB  HZ I         915  1.21         2.9 0.14            136            144 259 
 ZAR  HZ EP        914 42.27                             124   -0.91 9  201 293 
 ZAR  HN ES        915  9.23                             124    0.71 9  201 293 
 ZAR  HZ I         915 17.67         1.6 0.36            126            201 293 
 SML  HZ EP        914 47.66                             118    0.04 8  244 336 
 SML  HN ES        915 16.32                             118   -0.10 8  244 336 
 SML  HZ I         915 19.76         3.0 0.10            121            244 336 
                                                                                
