 2011 1121 0716  3.4 L   6.773 -73.083143.1  RSN  4 0.2 1.4LRSN                1
 GAP=146        0.43       3.3     5.2  6.2  0.2781E+01 -0.7836E+01 -0.5151E+00E
 Epicentro: LOS SANTOS - SANTANDER                                             3
 ACTION:UPD 12-07-13 16:11 OP:ep   STATUS:               ID:20111121071603 L   I
 2011-11-21-0714-55S.COL___176                                                 6
 STAT SP IPHASW D HRMM SECON CODA AMPLIT PERI AZIMU VELO AIN AR TRES W  DIS CAZ7
 BAR2 SZ EP   1    716 22.55                             171   -0.14 7 22.8 209 
 BAR2 SZ I         716 43.65         7.9 0.47                          22.8 209 
 PAM  SZ EP   1    716 25.54                             151    0.33 7 75.6  34 
 PAM  SE ES   2    716 41.94                             151   -0.30 5 75.6  34 
 BRR  HZ EP   1    716 24.53                             150   -0.16 7 78.7 298 
 BRR  HE ES   1    716 41.39                             150    0.08 7 78.7 298 
 BRR  HZ I         716 42.91         5.8 0.16                          78.7 298 
 RUS  HZ EP   1    716 26.57                             144   -0.08 7 97.4 180 
 RUS  HE ES   1    716 44.88                             144    0.09 7 97.4 180 
 RUS  HZ I         716 45.48         1.9 0.55                          97.4 180 
                                                                                
