 2010 1221 0434 24.3 L   6.756 -73.131146.2  RSN  7 0.2 1.9LRSN                1
 GAP=184        0.40       2.0     4.3  3.4 -0.1034E+01  0.4705E+01  0.2699E-01E
 Epicentro: LOS SANTOS - SANTANDER                                             3
 ACTION:UP  11-01-14 15:26 OP:pat  STATUS:               ID:20101221043424 L   I
 2010-12-21-0432-32S.COL___133                                                 6
 STAT SP IPHASW D HRMM SECON CODA AMPLIT PERI AZIMU VELO SNR AR TRES W  DIS CAZ7
 BAR2 SZ EP   1    434 43.68                             172    -0.2 7   19 198 
 BAR2 SZ ES   1    434 59.15                             172     0.0 7   19 198 
 BAR2 SZ I         435  0.67        29.0 0.31                            19 198 
 BTL  SZ EP        434 44.03                             170     0.110   24 320 
 BTL  SZ ES   1    434 59.49                             170     0.2 7   24 320 
 RUS  HZ EP   1    434 47.56                             145    -0.2 7   96 177 
 RUS  HN ES   1    435  6.05                             145     0.0 7   96 177 
 RUS  HZ I         435  7.77        17.5 0.61                            96 177 
 OCA  SZ EP   1    434 53.12                             129     0.0 7  165 353 
 OCA  SZ ES   1    435 15.49                             129    -0.1 7  165 353 
 OCA  SZ I         435 17.94         7.6 0.31                           165 353 
 NOR  SZ EP   2    435  0.03                             119     0.1 4  233 236 
 NOR  SN ES   2    435 27.95                             119     0.3 4  233 236 
 CHI  HZ EP   1    435  1.85                             118     0.3 6  244 196 
 CHI  HN ES   2    435 30.11                             118    -0.5 4  244 196 
 CHI  HZ I         435 33.69         3.2 0.63                           244 196 
 HEL  HZ EP   2    435  4.71                             115     0.2 4  272 257 
 HEL  HE ES   2    435 35.59                             115    -0.4 4  272 257 
 HEL  HZ I         435 43.14         5.5 0.51                           272 257 
                                                                                
