 2014  121 0129 51.1 L   6.810 -73.166142.4  RSN 12 0.4 1.8LRSN                1
 GAP=134        0.87       3.3     4.1  6.0 -0.3793E+01  0.9337E+01 -0.1559E+01E
 Epicentro: LOS SANTOS - SANTANDER                                             3
 ACTION:UPD 14-03-13 09:57 OP:ep   STATUS:               ID:20140121012951 L   I
 OLDACT:REG 14-01-21 07:01 OP:nd   STATUS:               ID:20140121012747     3
 2014-01-21-0127-47M.COL___240                                                 6
 STAT SP IPHASW D HRMM SECON CODA AMPLIT PERI AZIMU VELO AIN AR TRES W  DIS CAZ7
 BAR2 SZ EP        130 10.40                             170    0.0510 24.2 184 
 BAR2 SZ ES        130 25.47                             170    0.1110 24.2 184 
 BAR2 SZ I         130 28.34        17.0 0.46            168           24.2 184 
 BRR  HZ EP        130 12.27                             153    0.5210 68.7 299 
 BRR  HN ES   2    130 28.46                             153    0.61 5 68.7 299 
 BRR  HZ I         130 37.68         8.5 0.20            148           68.7 299 
 PAM  SZ IP     C  130 13.31                             150    0.3110 77.9  41 
 PAM  SN ES        130 30.16                             150    0.0910 77.9  41 
 PAM  SZ I         130 32.65        10.6 0.50            156           77.9  41 
 RUS  HZ EP        130 14.52                             143   -0.1110  102 175 
 RUS  HN ES        130 32.47                             143   -0.5010  102 175 
 RUS  HZ I         130 35.67         5.5 0.48            149            102 175 
 PTB  HZ EP        130 17.25                             132   -0.37 9  146 258 
 PTB  HN ES        130 38.22                             132   -0.09 9  146 258 
 PTB  HZ I         130 40.73         8.3 0.12            131            146 258 
 SPBC HZ EP        130 19.34                             128    0.04 9  163 218 
 SPBC HN ES        130 41.03                             128   -0.27 9  163 218 
 SPBC HZ I         130 45.51        12.8 0.20            131            163 218 
 ZAR  HZ EP   4    130 22.35                             122   -0.73 0  202 292 
 ZAR  HN ES   4    130 45.64                             122   -2.37 0  202 292 
 ZAR  HZ I         131  1.87         5.2 0.40            123            202 292 
 NOR  HZ EP        130 26.79                             118    0.27 8  234 234 
 NOR  HN ES        130 54.60                             118    0.46 8  234 234 
 NOR  HZ I         131  2.03         6.6 0.18            120            234 234 
 SML  HZ EP   4    130 26.56                             117   -0.77 0  242 336 
 SML  HN ES        130 54.79                             117   -0.80 8  242 336 
 SML  HZ I         131  3.01         9.1 0.26            119            242 336 
 CHI  HZ EP   4    130 28.48                             116   -0.20 0  249 195 
 CHI  HN ES   4    130 57.94                             116   -0.05 0  249 195 
 CHI  HZ I         131  3.84         2.0 0.56            121            249 195 
 GUY2CHZ EP   4    130 36.51                             112    2.08 0  300 234 
 GUY2CHN ES   4    131 10.91                             112    2.69 0  300 234 
 GUY2CHZ I         131 15.57         3.8 0.46                           300 234 
 SJC  HZ EP   4    130 44.64                             105   -1.66 0  407 327 
 SJC  HN ES   4    131 25.91                             105   -3.45 0  407 327 
 SJC  HZ I         131 31.34         1.7 0.48            108            407 327 
                                                                                
