 2014  621 0343 32.9 L   6.817 -73.132143.0  RSN 19 0.5 2.6LRSN                1
 GAP= 71        1.15       2.7     3.3  5.3 -0.1046E+01  0.5619E+01  0.2112E+01E
 Epicentro: LOS SANTOS - SANTANDER                                             3
 ACTION:UPD 14-07-01 22:55 OP:nd   STATUS:               ID:20140621034332 L   I
 OLDACT:REG 14-06-21 13:30 OP:carl STATUS:               ID:20140621033814     3
 2014-06-21-0338-14M.COL___256                                                 6
 STAT SP IPHASW D HRMM SECON CODA AMPLIT PERI AZIMU VELO AIN AR TRES W  DIS CAZ7
 BAR2 SZ IP     D  343 52.19                             169   -0.0010 25.5 193 
 BAR2 SZ ES        344  6.37                             169   -0.9110 25.5 193 
 BAR2 SZ I         344  8.21        75.1 0.22            168           25.5 193 
 BRR  HZ IP     C  343 54.01                             152    0.2810 71.7 297 
 BRR  HN ES        344 11.05                             152    1.0410 71.7 297 
 BRR  HZ I         344 14.68        73.0 0.14            150           71.7 297 
 PAM  SZ EP        343 54.90                             151    0.2710 75.0  40 
 PAM  SN ES        344 11.78                             151    0.1710 75.0  40 
 PAM  SZ I         344 14.06        88.9 0.50            155           75.0  40 
 RUS  HZ EP        343 56.24                             143   -0.2210  102 177 
 RUS  HN ES        344 14.92                             143    0.0510  102 177 
 RUS  HZ I         344 16.65        56.2 0.38            144            102 177 
 PTB  HZ EP   4 D  343 58.75                             131   -1.02 0  150 258 
 PTB  HN ES   4    344 19.28                             131   -1.48 0  150 258 
 PTB  HZ I         344 25.26        61.7 0.26            131            150 258 
 TAM  HZ IP     C  344  0.56                             130    0.34 9  154 106 
 TAM  HN ES        344 22.06                             130    0.50 9  154 106 
 TAM  HZ I         344 22.63        23.0 0.30            134            154 106 
 OCA  HZ EP        344  0.65                             129   -0.14 9  159 353 
 OCA  HN ES        344 22.00                             129   -0.58 9  159 353 
 OCA  HZ I         344 25.93        31.3 0.24            131            159 353 
 SPBC HZ EP        344  1.22                             128   -0.15 9  166 219 
 SPBC HN ES        344 23.25                             128   -0.36 9  166 219 
 SPBC HZ I         344 25.81        65.6 0.24            128            166 219 
 ZAR  HZ EP        344  5.08                             122   -0.11 9  205 291 
 ZAR  HN ES        344 30.02                             122   -0.40 9  205 291 
 ZAR  HZ I         344 36.11        63.3 0.26            122            205 291 
 NOR  HZ EP        344  8.48                             118   -0.19 8  237 234 
 NOR  HN ES        344 36.03                             118   -0.58 8  237 234 
 NOR  HZ I         344 42.12        28.1 0.14            118            237 234 
 SML  HZ EP        344  8.87                             117   -0.34 8  243 335 
 SML  HN ES        344 37.27                             117   -0.30 8  243 335 
 SML  HZ I         344 40.72        54.5 0.22            118            243 335 
 CHI  HZ EP        344 10.53                             116   -0.11 8  251 195 
 CHI  HN ES        344 39.34                             116   -0.77 8  251 195 
 CHI  HZ I         344 43.31        17.7 0.40            118            251 195 
 ROSC BZ EP   4    344 11.61                             116    0.53 0  255 211 
 ROSC BN ES   4    344 42.46                             116    1.56 0  255 211 
 ROSC BZ I         344 46.90        41.7 0.45            117            255 211 
 HEL  HZ EP        344 13.74                             114    0.60 8  274 256 
 HEL  HN ES        344 45.05                             114    0.48 8  274 256 
 HEL  HZ I         344 49.67        17.6 0.38            115            274 256 
 URE  HZ EP   4    344 11.00                             113   -2.87 0  285 291 
 URE  HN ES   4    344 43.16                             113   -2.71 0  285 291 
 GUY2CHZ EP        344 16.83                             112    0.23 7  304 235 
 GUY2CHN ES        344 52.25                             112    1.53 7  304 235 
 GUY2CHZ I         344 58.66        17.0 0.24                           304 235 
 RREF HZ EP        344 18.67                             110   -0.48 7  324 229 
 RREF HN ES        344 55.26                             110    0.00 7  324 229 
 RREF HZ I         345  2.77        17.7 0.30            111            324 229 
 CBOC HZ EP        344 20.38                             109    0.49 7  336 252 
 CBOC HN ES   4    344 56.47                             109   -0.10 0  336 252 
 CBOC HZ I         345  6.25         6.0 0.24            110            336 252 
 PRA  HZ EP        344 26.11                             106   -0.45 6  394 210 
 PRA  HN ES        345  8.47                             106    0.03 6  394 210 
 PRA  HZ I         345 13.53        22.7 0.26            107            394 210 
 ORTC HZ EP        344 26.66                             106   -0.30 6  398 216 
 ORTC HN ES        345  9.70                             106    0.54 6  398 216 
 ORTC HZ I         345 16.52        11.5 0.36            107            398 216 
                                                                                
