 2016  421 0542  0.6 L   6.799 -73.195143.2  RSN  5 0.2 1.3LRSN                1
 GAP=144        0.56       3.1     3.1  4.3 -0.4289E+01  0.3870E+01 -0.8216E+00E
 Epicentro: ZAPATOCA - SANTANDER                                               3
 ACTION:UPD 16-05-05 14:23 OP:rebc STATUS:               ID:20160421054200 L   I
 OLDACT:ARG 16-04-21 12:49 OP:cara STATUS:               ID:20160421053748     3
 2016-04-21-0537-48M.COL___298                                                 6
 STAT SP IPHASW D HRMM SECON CODA AMPLIT PERI AZIMU VELO AIN AR TRES W  DIS CAZ7
 BAR2 EZ IP        542 19.95                             171    0.0110 22.9 177 
 BAR2 EZ ES        542 35.02                             171    0.0110 22.9 177 
 BAR2 EZ I         542 35.88         6.5 0.32            170           22.9 177 
 PAM  EZ EP        542 23.13                             149    0.3310 81.1  42 
 PAM  EE ES        542 40.02                             149   -0.0710 81.1  42 
 PAM  EZ I         542 41.89         4.7 0.54            154           81.1  42 
 RUS  HZ EP        542 23.85                             143   -0.3110  101 173 
 RUS  HE ES        542 42.44                             143   -0.0710  101 173 
 RUS  HZ I         542 44.10         1.8 0.44            146            101 173 
 PTB  HZ EP        542 26.64                             133   -0.26 9  142 258 
 PTB  HN ES        542 47.34                             133   -0.05 9  142 258 
 PTB  HZ I         542 54.72         2.0 0.52            132            142 258 
 SPBC HZ EP        542 28.75                             129    0.15 9  160 217 
 SPBC HE ES        542 50.72                             129    0.30 9  160 217 
 SPBC HZ I         542 56.64         2.2 0.10            130            160 217 
                                                                                
