 2017  121 0141 10.9 L   6.787 -73.146150.1  RSN  9 0.4 1.6LRSN                1
 GAP=137        0.87       3.4     3.6  5.5  0.2068E+00  0.4915E+01  0.4889E+01E
 Epicentro: LOS SANTOS - SANTANDER                                             3
 ACTION:UPD 17-05-22 16:01 OP:jn   STATUS:               ID:20170121014110 L   I
 OLDACT:REG 17-01-21 12:21 OP:dani STATUS:               ID:20170121013742     3
 2017-01-21-0138-00M.COL___343                                                 6
 STAT SP IPHASW D HRMM SECON CODA AMPLIT PERI AZIMU VELO AIN AR TRES W  DIS CAZ7
 BAR2 EZ EP        141 30.83                             171   -0.1710 21.9 190 
 BAR2 EZ ES        141 46.65                             171   -0.0410 21.9 190 
 BAR2 EZ I         141 48.64        15.9 0.34            169           21.9 190 
 BRR  HZ EP        141 32.68                             153    0.1510 71.8 300 
 BRR  HN ES        141 49.69                             153    0.2710 71.8 300 
 BRR  HZ I         141 53.02        11.3 0.26            152           71.8 300 
 PAM  EZ EP        141 33.78                             151    0.1510 78.6  39 
 PAM  EN ES        141 51.03                             151   -0.3310 78.6  39 
 PAM  EZ I         141 53.76         5.4 0.54            156           78.6  39 
 RUS  HZ EP        141 34.73                             145   -0.2310 99.1 176 
 RUS  HE ES        141 54.19                             145    0.4610 99.1 176 
 RUS  HZ I         141 54.74         3.3 0.26            146           99.1 176 
 PTB  HZ EP        141 37.58                             133   -0.59 9  147 259 
 PTB  HN ES        141 59.23                             133   -0.23 9  147 259 
 PTB  HZ I         142  5.82         4.7 0.18            133            147 259 
 ZAR  HN ES        142  9.48                             123    0.25 9  205 293 
 NOR  HZ EP        141 47.39                             119    0.62 8  234 235 
 NOR  HN ES        142 14.74                             119   -0.02 8  234 235 
 NOR  HZ I         142 22.80         3.1 0.19            121            234 235 
 CHI  HZ EP        141 49.20                             118    0.53 8  247 195 
 CHI  HE ES        142 17.54                             118   -0.60 8  247 195 
 CHI  HZ I         142 21.43         1.8 0.27            120            247 195 
 URE  HN ES   2    142 23.88                             114   -0.58 4  284 292 
                                                                                
