 2015 1221 0048 22.1 L   6.803 -73.154140.1  RSN 12 0.4 2.0LRSN                1
 GAP=135        0.90       2.5     3.3  4.6 -0.8629E+00  0.5177E+01  0.7046E+00E
 Epicentro: LOS SANTOS - SANTANDER                                             3
 ACTION:UPD 16-02-04 15:06 OP:cam  STATUS:               ID:20151221004822 L   I
 OLDACT:REG 15-12-21 13:57 OP:cara STATUS:               ID:20151221003748     3
 2015-12-21-0037-48M.COL___329                                                 6
 STAT SP IPHASW D HRMM SECON CODA AMPLIT PERI AZIMU VELO AIN AR TRES W  DIS CAZ7
 BAR2 EZ IP        048 40.88                             170   -0.1510 23.5 188 
 BAR2 EZ ES        048 55.52                             170   -0.2910 23.5 188 
 BAR2 EZ I         048 56.98        27.3 0.22            169           23.5 188 
 BRR  HZ IP        048 42.95                             152    0.3910 70.2 299 
 BRR  HN ES        048 59.06                             152    0.5210 70.2 299 
 BRR  HZ I         049  0.89        19.7 0.18            150           70.2 299 
 PAM  EZ IP     D  048 43.85                             150    0.1410 77.7  40 
 PAM  EN ES        049  0.77                             150    0.1810 77.7  40 
 PAM  EZ I         049  2.92        17.4 0.56            152           77.7  40 
 RUS  HZ EP        048 44.82                             143   -0.4810  101 176 
 RUS  HN ES        049  3.76                             143    0.3410  101 176 
 RUS  HZ I         049  5.17        11.9 0.38            144            101 176 
 PTB  HZ EP        048 47.74                             131   -0.77 9  147 259 
 PTB  HN ES        049  8.72                             131   -0.41 9  147 259 
 PTB  HZ I         049 11.10        14.0 0.26            130            147 259 
 SPBC HZ EP        048 50.03                             128   -0.09 9  163 219 
 SPBC HN ES        049 11.81                             128   -0.18 9  163 219 
 SPBC HZ I         049 15.28        17.2 0.10            128            163 219 
 ZAR  HZ EP        048 54.57                             121    0.52 9  203 292 
 ZAR  HN ES        049 18.95                             121   -0.05 9  203 292 
 ZAR  HZ I         049 25.04        10.8 0.28            121            203 292 
 NOR  HZ IP        048 57.42                             117   -0.00 8  234 234 
 NOR  HN ES        049 24.85                             117   -0.14 8  234 234 
 NOR  HZ I         049 32.06        10.3 0.16            117            234 234 
 SML  HZ EP        048 58.05                             116   -0.26 8  243 335 
 SML  HN ES        049 26.11                             116   -0.47 8  243 335 
 SML  HZ I         049 34.73         9.6 0.24            117            243 335 
 CHI  HZ EP        048 59.47                             116   -0.01 8  249 195 
 CHI  HN ES        049 28.65                             116    0.00 8  249 195 
 CHI  HZ I         049 36.47         3.4 0.50            117            249 195 
 GUY2CHZ EP        049  5.72                             111    0.36 7  301 235 
 GUY2CHN ES        049 39.94                             111    0.81 7  301 235 
 GUY2CHZ I         049 45.80         2.8 0.12                           301 235 
 CBOC HZ EP        049  9.22                             109    0.55 7  333 252 
 CBOC HN ES        049 44.97                             109   -0.05 7  333 252 
 CBOC HZ I         049 53.25         1.7 0.36            109            333 252 
                                                                                
