 2017  621 0749 40.5 L   6.777 -73.073146.4  RSN  8 0.4 1.7LRSN                1
 GAP=222        0.98       4.8     4.9  8.0  0.6142E+01 -0.7724E+01  0.8779E+01E
 Epicentro: LOS SANTOS - SANTANDER                                             3
 ACTION:UPD 17-09-14 16:53 OP:jn   STATUS:               ID:20170621074940 L   I
 OLDACT:REG 17-06-21 13:00 OP:lv   STATUS:               ID:20170621074726     3
 2017-06-21-0748-00M.COL___349                                                 6
 STAT SP IPHASW D HRMM SECON CODA AMPLIT PERI AZIMU VELO AIN AR TRES W  DIS CAZ7
 BRR  HZ EP        750  2.32                             150    0.1510 79.5 297 
 BRR  HN ES        750 19.32                             150    0.2210 79.5 297 
 BRR  HZ I         750 23.89         9.1 0.11            150           79.5 297 
 PTB  HZ EP   9    750  7.51                             130   -0.66 0  155 260 
 PTB  HN ES        750 28.39                                   -0.72 9  155 260 
 PTB  HZ I         750 30.54         4.1 0.09            132            155 260 
 SPBC HZ EP        750  9.52                             128    0.20 9  166 222 
 SPBC HN ES        750 31.83                             128    0.00 9  166 222 
 SPBC HZ I         750 38.34         8.3 0.07            130            166 222 
 ZAR  HZ EP        750 13.66                             121   -0.16 8  212 292 
 ZAR  HN ES        750 39.09                             121   -0.75 8  212 292 
 ZAR  HZ I         750 45.26         6.5 0.36            123            212 292 
 HEL  HZ EP        750 22.33                             114    0.82 7  279 257 
 HEL  HN ES        750 53.15                             114   -0.37 7  279 257 
 HEL  HZ I         750 58.91         2.9 0.20            116            279 257 
 URE  HN ES   4    750 53.00                             113   -2.30 0  292 292 
 PTGC HZ EP        750 23.60                             112   -0.17 7  303 160 
 PTGC HN ES        750 57.11                             112   -0.42 7  303 160 
 GUY2CHZ EP   4    750 25.90                             112    1.21 0  306 236 
 GUY2CHN ES        750 59.72                             112    0.55 7  306 236 
 CBOC HZ EP   4    750 29.30                             109    1.10 0  340 253 
 CBOC HN ES        751  5.16                             109   -0.26 7  340 253 
 CBOC HZ I         751 10.20         0.9 0.30            111            340 253 
                                                                                
