 2010  921 0100 33.1 L   6.775 -73.112136.8  RSN 18 0.4 3.2LRSN                1
 GAP=163        0.99       3.4     6.0  6.3 -0.8117E+01  0.7275E+01  0.4700E+01E
 Epicentro: LOS SANTOS - SANTANDER                                             3
 ACTION:UP  11-02-18 11:04 OP:tino STATUS:               ID:20100921010033 L   I
 2010-09-21-0057-18S.COL___121                                                 6
 STAT SP IPHASW D HRMM SECON CODA AMPLIT PERI AZIMU VELO SNR AR TRES W  DIS CAZ7
 BAR2 SZ EP   1    1 0 51.57                             171     0.0 7   22 201 
 BAR2 SZ ES   2    1 1  5.89                             171    -0.1 5   22 201 
 BAR2 SZ I         1 1  7.47       729.2 0.26                            22 201 
 BTL  SZ EP        1 0 52.11                             170     0.510   23 313 
 GIR2 SZ EP   1    1 0 51.88                             165     0.1 7   35 345 
 URB  SZ EP   1    1 0 52.37                             156    -0.2 7   57 334 
 URB  SZ ES   1    1 1  7.26                             156    -0.6 7   57 334 
 BRR  HZ IP     C  1 0 53.71                             149     0.210   76 299 
 BRR  HZ I         1 0 54.07       523.3 0.09                            76 299 
 BRR  HN ES   1    1 1 10.41                             149     0.9 7   76 299 
 RUS  HZ EP   1    1 0 55.95                             143     0.2 7   98 178 
 RUS  HE ES   1    1 1 13.42                             143     0.0 7   98 178 
 RUS  HZ I         1 1 16.46       199.7 0.41                            98 178 
 GUE  SZ EP   1    1 0 57.00                             137    -0.1 7  119  10 
 GRA  SZ IP        1 0 57.81                             134     0.210  127  15 
 GRA  SZ ES   1    1 1 16.64                             134    -0.2 7  127  15 
 GRA  SZ I         1 1 19.51       306.2 0.35                           127  15 
 OCA  SZ EP   1    1 1  0.52                             127    -0.5 7  164 352 
 OCA  SZ ES   1    1 1 22.79                             127     0.0 7  164 352 
 OCA  SZ I         1 1 29.97       253.2 0.52                           164 352 
 NOR  SZ EP        1 1  7.70                             116    -0.8 8  236 236 
 NOR  SE ES        1 1 35.25                             116    -0.8 8  236 236 
 CHI  HZ EP        1 1 10.14                             115     0.1 8  247 196 
 CHI  HN ES        1 1 38.51                             115    -0.5 8  247 196 
 CHI  HZ I         1 1 45.26        42.7 0.34                           247 196 
 CVER SZ EP   1    1 1 12.74                             113    -0.1 6  271 203 
 CVER SZ I         1 1 55.70        64.6 0.51                           271 203 
 HEL  HZ EP   2    1 1 13.74                             113     0.6 4  275 257 
 HEL  HZ I         1 1 53.35        73.6 0.27                           275 257 
 GUY  SZ EP   1    1 1 17.23                             110     0.8 5  303 236 
 GUY  SN ES   2    1 1 50.95                             110     0.7 4  303 236 
 GUY  SZ I         1 1 56.74       247.9 0.37                           303 236 
 RREF HZ EP   1    1 1 19.24                             109     0.3 5  323 230 
 RREF HN ES   2    1 1 55.57                             109     0.8 3  323 230 
 RREF HZ I         1 2  3.83        54.5 0.28                           323 230 
 DBB  SZ EP        1 1 20.33                             108    -0.3 7  343 275 
 DBB  SZ I         1 2  0.54        27.6 0.35                           343 275 
 TOL  SZ EP   1    1 1 21.76                             108     0.7 5  344 225 
 ANIL HZ EP   2    1 1 22.51                             107    -0.1 3  358 225 
 ANIL HE ES   2    1 2  1.38                             107     0.1 3  358 225 
 ANIL HZ I         1 2  7.80        86.3 0.15                           358 225 
                                                                                
