 2013 1021 0854 58.2 L   5.917 -73.645116.3  RSN  8 0.5 1.5LRSN                1
 GAP= 91        1.26       3.4     4.7  9.7 -0.2621E+00  0.1826E+02  0.3698E+01E
 Epicentro: BARBOSA - SANTANDER                                                3
 ACTION:UPD 13-11-25 09:22 OP:ep   STATUS:               ID:20131021085458 L   I
 OLDACT:REG 13-10-21 08:03 OP:carl STATUS:               ID:20131021084843     3
 2013-10-21-0848-43M.COL___208                                                 6
 STAT SP IPHASW D HRMM SECON CODA AMPLIT PERI AZIMU VELO AIN AR TRES W  DIS CAZ7
 RUS  HZ EP        855 15.99                             150   -0.3710 62.3  92 
 RUS  HE ES        855 30.68                             150    0.1310 62.3  92 
 RUS  HZ I         855 31.54         6.7 0.24            156           62.3  92 
 BAR2 SZ EP        855 17.92                             139   -0.0710 90.6  34 
 BAR2 SZ ES        855 33.64                             139    0.1910 90.6  34 
 BAR2 SZ I         855 37.16        17.6 0.58            145           90.6  34 
 PTB  HZ EP        855 19.44                             132   -0.1610  113 308 
 PTB  HE ES        855 35.11                             132   -1.2010  113 308 
 PTB  HZ I         855 38.96         3.8 0.10            135            113 308 
 BRR  HZ EP        855 21.15                             128   -0.1710  132 357 
 BRR  HE ES        855 39.91                             128    0.5310  132 357 
 NOR  HZ EP        855 22.59                             126    0.29 9  141 254 
 NOR  HE ES        855 42.05                             126    0.94 9  141 254 
 NOR  HZ I         855 45.91         4.8 0.20            128            141 254 
 CHI  HZ EP        855 22.73                             126   -0.20 9  143 184 
 CHI  HN ES        855 42.32                             126    0.08 9  143 184 
 CHI  HZ I         855 46.76         2.3 0.42            130            143 184 
 ZAR  HZ EP        855 31.34                             113    0.70 8  220 322 
 ZAR  HN ES        855 55.84                             113   -0.14 8  220 322 
 ZAR  HZ I         856  1.74         2.4 0.26            117            220 322 
 PRA  HE ES        856  7.78                             107   -0.48 7  280 210 
                                                                                
