 2012  121 0216 29.2 L   6.817 -73.111135.3  RSN  5 0.3 1.7LRSN                1
 GAP=140        0.72       3.7     4.6  7.5 -0.2834E+01  0.2268E+01 -0.7113E+00E
 Epicentro: LOS SANTOS - SANTANDER                                             3
 ACTION:UP  12-02-03 08:19 OP:REBC STATUS:               ID:20120121021629 L   I
 2012-01-21-0210-00M.COL___186                                                 6
 STAT SP IPHASW D HRMM SECON CODA AMPLIT PERI AZIMU VELO SNR AR TRES W  DIS CAZ7
 PAM  SZ EP        216 50.16                             150     0.110   74  38 
 PAM  SE ES   1    217  5.95                             150    -0.4 7   74  38 
 BRR  HZ EP        216 49.42                             150     0.110   74 296 
 BRR  HE ES   1    217  5.72                             150     0.6 7   74 296 
 BRR  HZ I         217 10.54        12.4 0.24                            74 296 
 RUS  HZ EP   1    216 52.33                             141     0.3 7  102 178 
 RUS  HE ES   1    217  9.72                             141    -0.1 7  102 178 
 PTB  HZ EP   1    216 55.29                             129    -0.4 7  152 258 
 PTB  HE ES   1    217 16.03                             129    -0.4 7  152 258 
 OCA  SZ EP   1    216 56.70                             127     0.1 7  159 352 
 OCA  SZ ES   1    217 17.66                             127    -0.3 7  159 352 
 OCA  SZ I         217 19.85         5.9 0.42                           159 352 
                                                                                
