 2010 1121 0238 20.6 L   6.117 -73.443137.6  RSN  4 0.1 1.2LRSN                1
 GAP=127        0.31       4.2     8.1  8.2  0.1531E+02  0.5371E+02  0.1723E+02E
 Epicentro: SUAITA - SANTANDER                                                 3
 ACTION:UP  10-12-17 16:54 OP:REBC STATUS:               ID:20101121023820 L   I
 2010-11-21-0234-39S.COL___131                                                 6
 STAT SP IPHASW D HRMM SECON CODA AMPLIT PERI AZIMU VELO SNR AR TRES W  DIS CAZ7
 RUS  HZ EP   2    238 40.31                             160    -0.1 5   47 122 
 RUS  HN ES   2    238 55.86                             160     0.0 5   47 122 
 RUS  HZ I         238 56.13         1.3 0.10                            47 122 
 BAR2 SZ ES   1    238 56.26                             155     0.0 7   60  29 
 BAR2 SZ I         238 57.17         7.6 0.20                            60  29 
 BRR  HZ EP   2    238 44.02                             138     0.1 5  114 345 
 BRR  HZ I         238 46.35         2.9 0.04                           114 345 
 BRR  HE ES   2    239  1.99                             138    -0.1 5  114 345 
 NOR  SZ EP   2    238 49.13                             126     0.0 5  170 249 
                                                                                
