 2011  121 0411 49.5 L   6.880 -73.317116.0  RSN  5 0.4 1.3LRSN                1
 GAP=169        1.01       4.4    19.5 11.1 -0.4332E+02  0.9709E+02 -0.1070E+02E
 Epicentro: BETULIA - SANTANDER                                                3
 ACTION:UP  11-02-08 08:41 OP:pat  STATUS:               ID:20110121041149 L   I
 2011-01-21-0407-52S.COL___137                                                 6
 STAT SP IPHASW D HRMM SECON CODA AMPLIT PERI AZIMU VELO SNR AR TRES W  DIS CAZ7
 BAR2 SZ EP   1    412  5.91                             162     0.0 8   35 155 
 BAR2 SZ I         412  6.28        13.3 0.06                            35 155 
 BAR2 SZ ES   1    412 18.79                             162     0.0 8   35 155 
 RUS  HZ EP   1    412 10.54                             133    -0.9 8  112 167 
 RUS  HN ES   2    412 28.55                             133    -0.1 5  112 167 
 RUS  HZ I         412 31.70         1.3 0.59                           112 167 
 GRA  SZ IP        412 12.49                             129     0.310  125  27 
 GRA  SZ I         412 13.89         3.8 0.34                           125  27 
 GRA  SZ ES   1    412 30.12                             129     0.3 7  125  27 
 OCA  SZ EP   1    412 14.42                             124    -0.2 7  150 360 
 OCA  SZ ES   1    412 34.07                             124    -0.2 7  150 360 
 OCA  SZ I         412 42.80         5.8 0.31                           150 360 
 CHI  HZ EP   1    412 26.29                             110     0.0 6  253 190 
 CHI  HN ES   1    412 55.79                             110     0.9 6  253 190 
 CHI  HZ I         413  0.75         1.2 0.50                           253 190 
                                                                                
