 2012  721 0038  2.1 L   6.763 -73.164146.2  RSN  6 0.2 1.6LRSN                1
 GAP=136        0.42       2.4     2.9  3.7 -0.8691E+00  0.2281E+01  0.1710E+01E
 Epicentro: LOS SANTOS - SANTANDER                                             3
 ACTION:UPD 12-08-14 11:46 OP:ep   STATUS:               ID:20120721003802 L   I
 2012-07-21-0030-00M.COL___215                                                 6
 STAT SP IPHASW D HRMM SECON CODA AMPLIT PERI AZIMU VELO AIN AR TRES W  DIS CAZ7
 BAR2 SZ EP   1    038 21.77                             172     0.1 8   19 186 
 BAR2 SZ ES   1    038 37.07                             172     0.1 8   19 186 
 BAR2 SZ I         038 38.35        14.2 0.14            168             19 186 
 BRR  HZ EP   1    038 23.68                             152     0.4 8   72 302 
 BRR  HZ I         038 23.91        19.1 0.18            149             72 302 
 BRR  HN ES   1    038 39.82                             152     0.0 8   72 302 
 PAM  SZ EP   1    038 24.48                             149    -0.1 8   82  39 
 PAM  SN ES   1    038 42.10                             149    -0.1 8   82  39 
 RUS  HN ES   1    038 43.86                             145    -0.1 8   97 175 
 RUS  HZ I         038 45.71         4.2 0.22            146             97 175 
 PTB  HZ EP        038 28.76                             133    -0.110  145 260 
 PTB  HN ES   1    038 49.56                             133    -0.1 7  145 260 
 PTB  HZ I         038 56.93         2.8 0.26            131            145 260 
 CHI  HZ EP   1    038 39.20                             118    -0.1 6  244 195 
 CHI  HZ I         038 40.28         1.7 0.17            118            244 195 
 CHI  HN ES   1    039  8.50                             118     0.1 6  244 195 
