 2017 1021 0035 38.7 L   6.795 -73.133148.0  RSN  6 0.5 1.4LRSN                1
 GAP=138        1.17       6.3     6.1  8.3 -0.4682E+01  0.8895E+01  0.7922E+01E
 Epicentro: LOS SANTOS - SANTANDER                                             3
 ACTION:UPD 17-11-07 19:34 OP:rebc STATUS:               ID:20171021003538 L   I
 OLDACT:REG 17-10-21 12:49 OP:dani STATUS:               ID:20171021002742     3
 2017-10-21-0028-00M.COL___459                                                 6
 STAT SP IPHASW D HRMM SECON CODA AMPLIT PERI AZIMU VELO AIN AR TRES W  DIS CAZ7
 BAR2 EZ EP        035 58.37                             171   -0.2710 23.1 194 
 BAR2 EZ ES   1    036 14.80                             171    0.64 7 23.1 194 
 BRR  HZ EP        036  0.29                             152    0.0710 72.7 298 
 BRR  HN ES        036 17.51                             152    0.5310 72.7 298 
 BRR  HZ I         036 19.95         6.9 0.22            152           72.7 298 
 PAM  EZ EP        036  1.19                             152    0.0210 76.9  38 
 PAM  EN ES        036 18.47                             152   -0.1910 76.9  38 
 PAM  EZ I         036 20.24         3.4 0.56            156           76.9  38 
 RUS  HZ EP        036  2.58                             145   -0.0910 99.9 177 
 RUS  HN ES        036 21.28                             145   -0.0510 99.9 177 
 RUS  HZ I         036 24.01         3.3 0.34            147           99.9 177 
 PTB  HZ EP        036  5.41                             132   -0.61 9  149 259 
 PTB  HN ES        036 26.71                             132   -0.57 9  149 259 
 PTB  HZ I         036 34.06         2.6 0.42            133            149 259 
 GUY2CHZ EP        036 23.84                             113    1.28 7  302 235 
                                                                                
