 2016 1021 0455 24.0 L   6.788 -73.156149.6  RSN  7 0.3 1.4LRSN                1
 GAP=235        0.63       4.8     4.9  5.9 -0.2796E+01  0.6156E+01  0.9538E+00E
 Epicentro: LOS SANTOS - SANTANDER                                             3
 ACTION:UPD 16-11-09 19:21 OP:rebc STATUS:               ID:20161021045524 L   I
 OLDACT:UP  16-10-21 16:48 OP:and  STATUS:               ID:20161021044746d    3
 OLDACT:DUP 16-10-21 16:42 OP:and  STATUS:               ID:20161021044746d    3
 OLDACT:UP  16-10-21 16:39 OP:and  STATUS:               ID:20161021044745     3
 OLDACT:UP  16-10-21 16:38 OP:and  STATUS:               ID:20161021044745     3
 OLDACT:UP  16-10-21 16:36 OP:and  STATUS:               ID:20161021044745     3
 OLDACT:REG 16-10-21 13:22 OP:y    STATUS:               ID:20161021044745     3
 2016-10-21-0448-00M.COL___340                                                 6
 STAT SP IPHASW D HRMM SECON CODA AMPLIT PERI AZIMU VELO AIN AR TRES W  DIS CAZ7
 BAR2 EZ EP   2    455 44.10                             171    0.06 5 21.8 188 
 BAR2 EZ ES        455 59.87                             171    0.1810 21.8 188 
 BRR  HZ EP        455 45.54                             154    0.0210 70.8 300 
 BRR  HE ES   2    456  2.74                             154    0.41 5 70.8 300 
 RUS  HZ EP   2    455 48.21                             145    0.19 5 99.3 175 
 RUS  HN ES   2    456  6.28                             145   -0.49 5 99.3 175 
 RUS  HZ I         456  7.56         3.0 0.28            141           99.3 175 
 PTB  HZ EP   2    455 51.14                             133    0.00 5  146 259 
 PTB  HN ES        456 11.76                             133   -0.56 9  146 259 
 PTB  HZ I         456 17.12         1.4 0.20            129            146 259 
 SPBC HZ EP        455 52.64                             130    0.03 9  161 219 
 SPBC HN ES        456 15.02                             130    0.09 9  161 219 
 SPBC HZ I         456 17.41         5.3 0.18            126            161 219 
 NOR  HN ES   2    456 28.52                             120    0.87 4  233 235 
 NOR  HZ I         456 32.31         1.9 0.20            117            233 235 
 PRA  HN ES   4    457  2.58                             107    3.46 0  390 210 
 PRA  HZ I         457  5.93         1.0 0.27            106            390 210 
                                                                                
