 2016 1121 0746  3.6 L   6.785 -73.187140.1  RSN  5 0.3 1.4LRSN                1
 GAP=253        0.68       3.6     6.5  6.5  0.5479E+01 -0.4776E+01  0.8691E+01E
 Epicentro: ZAPATOCA - SANTANDER                                               3
 ACTION:UPD 17-10-26 21:10 OP:lp   STATUS:               ID:20161121074603 L   I
 OLDACT:DUP 16-11-21 16:20 OP:cog  STATUS:               ID:20161121073744d    3
 2016-11-21-0738-00M.COL___343                                                 6
 STAT SP IPHASW D HRMM SECON CODA AMPLIT PERI AZIMU VELO AIN AR TRES W  DIS CAZ7
 BRR  HZ EP        746 23.96                             153   -0.0110 68.1 302 
 BRR  HE ES        746 39.98                             153    0.1410 68.1 302 
 BRR  HZ I         746 45.12         3.6 0.16            152           68.1 302 
 PTB  HZ EP        746 29.16                             132   -0.52 9  143 259 
 PTB  HN ES        746 49.73                             132   -0.28 9  143 259 
 PTB  HZ I         746 51.75         2.3 0.06            132            143 259 
 ZAR  HZ EP        746 35.67                             122    0.35 9  200 293 
 ZAR  HE ES        747  0.26                             122    0.21 9  200 293 
 ZAR  HZ I         747  5.20         2.3 0.40            123            200 293 
 CHI  HE ES        747  9.71                             116    0.09 8  246 194 
 PRA  HZ EP        746 56.36                             106   -0.15 6  388 209 
 PRA  HN ES        747 38.21                             106    0.45 6  388 209 
 PRA  HZ I         747 46.79         1.3 0.32            107            388 209 
                                                                                
