 2014 1221 0622 49.7 L   6.280 -73.649112.2  RSN  5 0.2 1.0LRSN                1
 GAP=163        0.60       3.9     2.9  5.4  0.2492E+01 -0.8877E+00 -0.4980E-01E
 Epicentro: SANTA HELENA DEL OPON - SANTANDER                                  3
 ACTION:UPD 15-02-10 17:06 OP:nd   STATUS:               ID:20141221062249 L   I
 OLDACT:REG 14-12-21 12:46 OP:spq  STATUS:               ID:20141221061743     3
 2014-12-21-0617-43M.COL___299                                                 6
 STAT SP IPHASW D HRMM SECON CODA AMPLIT PERI AZIMU VELO AIN AR TRES W  DIS CAZ7
 BAR2 EZ EP        623  7.19                             149    0.1410 62.1  56 
 BAR2 EZ ES   1    623 20.16                             149   -0.44 7 62.1  56 
 BAR2 EZ I         623 21.45         4.0 0.11            152           62.1  56 
 RUS  HZ EP   1    623  8.63                             144    0.29 7 75.9 124 
 RUS  HN ES   1    623 22.94                             144    0.04 7 75.9 124 
 RUS  HZ I         623 25.58         1.6 0.32            149           75.9 124 
 BRR  HZ EP        623  8.88                             138    0.0110 91.7 356 
 BRR  HN ES        623 24.18                             138    0.3310 91.7 356 
 BRR  HZ I         623 29.30         2.0 0.42            141           91.7 356 
 PTB  HZ EP        623  9.09                             137    0.0210 93.8 288 
 PTB  HN ES        623 24.01                             137   -0.1910 93.8 288 
 PTB  HZ I         623 26.59         2.4 0.66            141           93.8 288 
 PAM  SZ EP        623 15.44                             121   -0.30 9  157  42 
                                                                                
