 2016  521 0253 43.5 L   6.798 -73.103145.7  RSN  9 0.6 1.8LRSN                1
 GAP=142        1.28       4.5     5.6  7.9 -0.6377E+01  0.1357E+02 -0.4616E+01E
 Epicentro: LOS SANTOS - SANTANDER                                             3
 ACTION:UPD 16-08-18 17:47 OP:cam  STATUS:               ID:20160521025343 L   I
 OLDACT:UP  16-07-18 16:34 OP:cam  STATUS:               ID:20160521025343 L   3
 OLDACT:UP  16-05-24 15:33 OP:dnl  STATUS:               ID:20160521025343 L   3
 OLDACT:UP  16-05-21 15:03 OP:mh   STATUS:               ID:20160521024742     3
 OLDACT:UP  16-05-21 15:02 OP:mh   STATUS:               ID:20160521024742     3
 OLDACT:REG 16-05-21 12:53 OP:mh   STATUS:               ID:20160521024742     3
 2016-05-21-0247-42M.COL___295                                                 6
 STAT SP IPHASW D HRMM SECON CODA AMPLIT PERI AZIMU VELO AIN AR TRES W  DIS CAZ7
 BAR2 EZ EP        254  3.68                             170    0.5810 24.4 201 
 BAR2 EZ ES        254 18.38                             170   -0.0410 24.4 201 
 BAR2 EZ I         254 19.40        20.4 0.26            170           24.4 201 
 PAM  EZ EP        254  4.88                             152   -0.6210 74.6  37 
 PAM  EN ES        254 22.84                             152    0.1410 74.6  37 
 PAM  EZ I         254 25.11        11.3 0.54            153           74.6  37 
 BRR  HZ EP        254  5.40                             151    0.5610 75.5 297 
 BRR  HN ES        254 21.75                             151    0.2310 75.5 297 
 RUS  HN ES        254 25.79                             144    0.1310  100 179 
 RUS  HN I         254 27.51         8.3 0.42            146            100 179 
 PTB  HZ EP        254 10.02                             131   -0.82 9  152 259 
 PTB  HE ES        254 31.97                             131   -0.22 9  152 259 
 PTB  HZ I         254 32.87         7.7 0.36            131            152 259 
 OCA  HZ EP        254 11.69                             129   -0.15 9  161 351 
 OCA  HE ES        254 33.38                             129   -0.60 9  161 351 
 OCA  HZ I         254 37.18        15.4 0.26            130            161 351 
 SPBC HZ EP        254 12.51                             129    0.29 9  166 220 
 SPBC HN ES        254 34.19                             129   -0.46 9  166 220 
 SPBC HZ I         254 36.60         6.9 0.10            129            166 220 
 ZAR  HZ EP        254 16.72                             122    0.36 8  208 292 
 ZAR  HN ES        254 42.76                             122    0.74 8  208 292 
 ZAR  HZ I         254 48.23         6.5 0.38            122            208 292 
 NOR  HZ EP   2    254 21.42                             118    1.84 4  238 235 
 NOR  HN ES   1    254 46.68                             118   -1.08 6  238 235 
 NOR  HZ I         254 52.43         3.2 0.28            119            238 235 
                                                                                
