 2014 1221 0125 22.7 L   6.776 -73.134152.0  RSN  4 0.4 1.0LRSN                1
 GAP=139        0.83       5.9     5.0  8.5 -0.4987E+01 -0.3891E+01  0.6353E+01E
 Epicentro: LOS SANTOS - SANTANDER                                             3
 ACTION:UPD 15-02-10 17:06 OP:nd   STATUS:               ID:20141221012522 L   I
 OLDACT:DUP 14-12-21 13:50 OP:spq  STATUS:               ID:20141221011750d    3
 2014-12-21-0117-49M.COL___302                                                 6
 STAT SP IPHASW D HRMM SECON CODA AMPLIT PERI AZIMU VELO AIN AR TRES W  DIS CAZ7
 BRR  HZ EP        125 44.94                             153    0.3110 73.7 300 
 BRR  HN ES        126  2.20                             153    0.4410 73.7 300 
 BRR  HZ I         126  6.39         3.0 0.48            155           73.7 300 
 PAM  SZ EP        125 45.60                             151   -0.0310 78.7  38 
 PAM  SN ES   1    126  2.96                             151   -0.58 7 78.7  38 
 PAM  SZ I         126  5.48         2.2 0.48            155           78.7  38 
 RUS  HZ EP   1    125 46.90                             146    0.05 7 97.8 177 
 RUS  HE ES   1    126  5.89                             146    0.18 7 97.8 177 
 RUS  HZ I         126  8.34         0.6 0.22            149           97.8 177 
 PTB  HZ EP   1    125 50.13                             133   -0.10 7  149 260 
 PTB  HN ES        126 11.17                             133   -0.55 9  149 260 
 PTB  HZ I         126 14.30         1.4 0.23            137            149 260 
                                                                                
