 2016  821 0837 12.7 L   6.774 -72.957146.2  RSN  5 0.4 1.6LRSN                1
 GAP=266        0.91       5.2    10.5  7.8 -0.3328E+01 -0.4389E+01  0.1283E+02E
 Epicentro: CEPITA - SANTANDER                                                 3
 ACTION:UPD 16-10-29 15:37 OP:rebc STATUS:               ID:20160821083712 L   I
 OLDACT:REG 16-08-21 13:14 OP:dnl  STATUS:               ID:20160821082737     3
 2016-08-21-0828-00M.COL___362                                                 6
 STAT SP IPHASW D HRMM SECON CODA AMPLIT PERI AZIMU VELO AIN AR TRES W  DIS CAZ7
 BAR2 EZ EP        837 32.10                             167   -0.5210 32.0 231 
 BAR2 EZ ES        837 48.19                             167    0.0610 32.0 231 
 BAR2 EZ I         837 49.91         8.0 0.22                          32.0 231 
 BRR  HZ EP        837 35.55                             146    0.3810 91.2 294 
 BRR  HE ES        837 52.82                             146    0.1510 91.2 294 
 BRR  HZ I         837 55.69         4.8 0.26                          91.2 294 
 SPBC HZ EP        837 42.57                             127    0.17 9  175 225 
 SPBC HN ES        838  4.95                             127   -0.59 9  175 225 
 SPBC HZ I         838  7.11         5.7 0.28                           175 225 
 ZAR  HZ EP   2    837 47.13                             120   -0.21 4  224 291 
 ZAR  HN ES   4    838 11.38                             120   -2.96 0  224 291 
 ZAR  HZ I         838 16.99         3.5 0.50                           224 291 
 CHI  HZ EP   2    837 50.40                             117   -0.44 4  252 200 
 CHI  HN ES        838 21.19                             117    0.62 8  252 200 
 CHI  HZ I         838 25.25         2.1 0.56                           252 200 
                                                                                
