 2016  121 0102 11.1 L   6.844 -73.157143.6  RSN  7 0.4 1.7LRSN                1
 GAP=200        0.95       3.5     5.1  6.8  0.4970E+01  0.7156E+01 -0.2301E+01E
 Epicentro: LOS SANTOS - SANTANDER                                             3
 ACTION:UPD 16-03-09 23:27 OP:cam  STATUS:               ID:20160121010211 L   I
 OLDACT:REG 16-01-21 13:18 OP:ar   STATUS:               ID:20160121005746     3
 2016-01-21-0057-46M.COL___321                                                 6
 STAT SP IPHASW D HRMM SECON CODA AMPLIT PERI AZIMU VELO AIN AR TRES W  DIS CAZ7
 BAR2 EZ EP        1 2 30.97                             169    0.4210 28.0 186 
 BAR2 EZ ES        1 2 46.05                             169    0.3110 28.0 186 
 BAR2 EZ I         1 2 48.04        12.6 0.24            172           28.0 186 
 RUS  HZ EP        1 2 34.92                             142   -0.0610  106 176 
 RUS  HN ES        1 2 53.51                             142   -0.1210  106 176 
 RUS  HZ I         1 2 54.44         7.1 0.26            146            106 176 
 PTB  HZ EP        1 2 37.37                             132   -0.47 9  148 257 
 PTB  HN ES        1 2 58.04                             132   -0.69 9  148 257 
 PTB  HZ I         1 3  0.26         5.1 0.14            132            148 257 
 ZAR  HE ES        1 3  8.45                             122    0.42 9  201 291 
 ZAR  HZ I         1 3 14.10         8.1 0.46            123            201 291 
 SML  HZ EP        1 2 47.11                             118    0.08 8  239 335 
 SML  HN ES        1 3 14.86                             118   -0.23 8  239 335 
 SML  HZ I         1 3 23.12         5.5 0.20            118            239 335 
 CHI  HZ EP        1 2 49.06                             116   -0.07 8  253 195 
 CHI  HN ES        1 3 18.43                             116   -0.39 8  253 195 
 CHI  HZ I         1 3 20.63         3.0 0.34            118            253 195 
 GUY2CHZ EP   2    1 2 55.46                             112    0.67 4  303 234 
 GUY2CHN ES        1 3 29.73                             112    0.84 7  303 234 
 GUY2CHZ I         1 3 38.59         1.8 0.26                           303 234 
                                                                                
