 2017 1221 0555 51.1 L   6.819 -73.163142.7  RSN  8 0.4 1.7LRSN                1
 GAP= 67        0.99       4.5     3.1  6.6  0.1341E+01  0.5176E+01  0.7283E+01E
 Epicentro: LOS SANTOS - SANTANDER                                             3
 ACTION:UPD 18-01-04 13:22 OP:rebc STATUS:               ID:20171221055551 L   I
 OLDACT:UP  17-12-21 16:25 OP:dani STATUS:               ID:20171221054427     3
 OLDACT:REG 17-12-21 13:15 OP:dani STATUS:               ID:20171221054427     3
 2017-12-21-0548-00M.COL___449                                                 6
 STAT SP IPHASW D HRMM SECON CODA AMPLIT PERI AZIMU VELO AIN AR TRES W  DIS CAZ7
 BAR2 EZ EP        556 10.14                             170   -0.2210 25.2 185 
 BAR2 EZ ES        556 25.46                             170    0.0410 25.2 185 
 BAR2 EZ I         556 26.43        13.0 0.22            157           25.2 185 
 PAM  EZ EP        556 13.17                             150    0.2410 77.0  42 
 PAM  EN ES        556 30.18                             150    0.1910 77.0  42 
 PAM  EZ I         556 31.56         7.7 0.36            147           77.0  42 
 PTB  HZ EP        556 16.90                             132   -0.75 9  146 258 
 PTB  HN ES        556 37.99                             132   -0.40 9  146 258 
 PTB  HZ I         556 43.08         5.4 0.64            125            146 258 
 TAM  HZ EP        556 18.45                             129   -0.27 9  157 106 
 TAM  HE ES        556 40.76                             129    0.46 9  157 106 
 TAM  HZ I         556 50.25         6.0 0.40            120            157 106 
 OCA  HN ES        556 40.40                             129   -0.25 9  158 354 
 YPLC HZ EP        556 20.64                             125   -0.27 9  180 151 
 YPLC HZ I         556 47.43         5.0 0.28            115            180 151 
 ZAR  HZ EP        556 23.23                             122    0.18 9  202 292 
 ZAR  HN ES        556 48.18                             122    0.18 9  202 292 
 ZAR  HZ I         556 54.41         6.8 0.15            117            202 292 
 CBOC HZ EP        556 38.41                             109    0.69 7  332 252 
 CBOC HN ES        557 15.11                             109    1.00 7  332 252 
 CBOC HZ I         557 22.03         0.9 0.46            104            332 252 
                                                                                
