 2017  121 0039 20.2 L   6.818 -73.184135.5  RSN  4 0.1 1.0LRSN                1
 GAP=131        0.46       3.8     2.8  8.0  0.1091E+01 -0.1438E+01 -0.1804E+02E
 Epicentro: ZAPATOCA - SANTANDER                                               3
 ACTION:UPD 17-05-22 16:01 OP:jn   STATUS:               ID:20170121003920 L   I
 OLDACT:UP  17-01-21 14:13 OP:dani STATUS:               ID:20170121003542     3
 OLDACT:REG 17-01-21 12:17 OP:dani STATUS:               ID:20170121003542     3
 2017-01-21-0038-00M.COL___343                                                 6
 STAT SP IPHASW D HRMM SECON CODA AMPLIT PERI AZIMU VELO AIN AR TRES W  DIS CAZ7
 BRR  HZ EP        039 40.23                             152    0.2410 66.5 299 
 PAM  EZ EP        039 41.28                             148   -0.1510 78.6  43 
 RUS  HZ EP        039 43.28                             141    0.1310  103 174 
 RUS  HN ES        040  1.00                             141   -0.0410  103 174 
 RUS  HZ I         040  2.16         2.1 0.27            144            103 174 
 PTB  HZ EP        039 45.85                             130   -0.17 9  144 258 
 PTB  HE ES        040  6.11                             130   -0.03 9  144 258 
 PTB  HZ I         040  9.65         1.4 0.16            132            144 258 
                                                                                
