 2017 1121 0139 29.0 L   6.802 -73.416111.5  RSN  4 0.2 1.2LRSN                1
 GAP=236        0.61       5.2     3.0  5.4  0.2652E+01  0.7254E+01  0.2923E+01E
 Epicentro: SAN VICENTE DE CHUCURI - SANTANDER                                 3
 ACTION:UPD 17-12-12 19:57 OP:rebc STATUS:               ID:20171121013929 L   I
 OLDACT:UP  17-11-21 14:36 OP:edw  STATUS:               ID:20171121013244     3
 OLDACT:UP  17-11-21 14:35 OP:edw  STATUS:               ID:20171121013244     3
 OLDACT:UP  17-11-21 14:33 OP:edw  STATUS:               ID:20171121013244     3
 OLDACT:REG 17-11-21 12:23 OP:edw  STATUS:               ID:20171121013244     3
 2017-11-21-0138-00M.COL___486                                                 6
 STAT SP IPHASW D HRMM SECON CODA AMPLIT PERI AZIMU VELO AIN AR TRES W  DIS CAZ7
 BAR2 EZ EP        139 45.31                             162    0.3710 34.7 132 
 BAR2 EZ ES        139 57.30                             162   -0.0410 34.7 132 
 BAR2 EZ I         139 59.52        11.8 0.18            163           34.7 132 
 RUS  HZ EP        139 49.78                             133   -0.3910  107 160 
 RUS  HN ES        140  6.70                             133    0.0410  107 160 
 RUS  HZ I         140  7.94         1.2 0.26            135            107 160 
 PTB  HZ EP        139 50.47                             129   -0.1210  119 256 
 PTB  HN ES        140  7.26                             129   -0.1310  119 256 
 PTB  HZ I         140 11.29         2.6 0.26            130            119 256 
 NOR  HZ EP        140  0.56                             113    0.18 8  211 230 
 NOR  HN ES        140 24.98                             113    0.16 8  211 230 
 NOR  HZ I         140 31.26         1.4 0.18            114            211 230 
                                                                                
