 2017 1021 0452 22.4 L   6.772 -73.158148.9  RSN  5 0.4 1.4LRSN                1
 GAP=234        0.91       5.5     5.9  6.7  0.6934E+01  0.4616E+01  0.3147E+01E
 Epicentro: LOS SANTOS - SANTANDER                                             3
 ACTION:UPD 17-11-07 19:34 OP:rebc STATUS:               ID:20171021045222 L   I
 OLDACT:REG 17-10-21 13:18 OP:dani STATUS:               ID:20171021044509     3
 2017-10-21-0448-00M.COL___447                                                 6
 STAT SP IPHASW D HRMM SECON CODA AMPLIT PERI AZIMU VELO AIN AR TRES W  DIS CAZ7
 BAR2 EZ EP        452 42.14                             172   -0.2010 20.1 188 
 BAR2 HN ES        452 57.63                             172   -0.2710 20.1 188 
 BAR2 EZ I         452 59.04         4.9 0.17            170           20.1 188 
 BRR  HZ EP        452 43.96                             153    0.0610 71.5 301 
 BRR  HN ES        453  1.23                             153    0.5610 71.5 301 
 BRR  HZ I         453  4.42         4.2 0.43            154           71.5 301 
 RUS  HZ EP        452 46.17                             145   -0.0810 97.6 175 
 RUS  HN ES        453  4.85                             145    0.0010 97.6 175 
 RUS  HZ I         453  7.68         2.9 0.39            146           97.6 175 
 PTB  HZ EP        452 49.08                             133   -0.37 9  146 260 
 PTB  HN ES        453 10.02                             133   -0.53 9  146 260 
 PTB  HZ I         453 12.14         3.5 0.07            134            146 260 
 SPBC HZ EP        452 51.42                             130    0.59 9  160 219 
 SPBC HN ES        453 13.28                             130    0.27 9  160 219 
 SPBC HZ I         453 17.10         3.9 0.08            131            160 219 
                                                                                
