 2010  821 0548 36.0 L   6.770 -73.074148.4  RSN  9 0.3 2.1LRSN                1
 GAP=167        0.88       3.5     9.1  6.7 -0.1004E+02 -0.4461E+01  0.5809E+00E
 Epicentro: LOS SANTOS - SANTANDER                                             3
 ACTION:UP  10-09-07 10:57 OP:vdl  STATUS:               ID:20100821054836 L   I
 2010-08-21-0545-42S.COL___120                                                 6
 STAT SP IPHASW D HRMM SECON CODA AMPLIT PERI AZIMU VELO SNR AR TRES W  DIS CAZ7
 BAR2 SZ EP        548 55.90                             171    -0.110   23 212 
 BAR2 SZ ES   1    549 11.34                             171    -0.2 7   23 212 
 BAR2 SZ I         549 12.72        24.0 0.39                            23 212 
 GIR2 SZ EP        548 55.97                             166    -0.210   37 339 
 BRR  HZ IP     C  548 57.77                             150    -0.210   80 298 
 BRR  HZ I         548 58.06        45.4 0.21                            80 298 
 BRR  HN ES   1    549 15.28                             150     0.2 7   80 298 
 RUS  HZ EP   1    548 59.53                             145    -0.3 7   97 181 
 RUS  HN ES   1    549 18.46                             145     0.1 7   97 181 
 RUS  HZ I         549 19.75        11.2 0.21                            97 181 
 GUE  SZ EP        549  1.87                             140     0.710  118   8 
 GRA  SZ IP        549  1.67                             137     0.110  127  14 
 GRA  SZ I         549  2.84        15.6 0.27                           127  14 
 GRA  SZ ES   1    549 21.38                             137    -0.1 7  127  14 
 OCA  SZ EP        549  4.33                             129    -0.6 9  165 351 
 OCA  SZ ES   1    549 27.78                             129     0.3 7  165 351 
 OCA  SZ I         549 32.45        14.3 0.34                           165 351 
 CHI  HZ EP   1    549 13.89                             118     0.1 6  248 197 
 CHI  HN ES   2    549 43.56                             118     0.4 4  248 197 
 CHI  HZ I         549 51.05         4.1 0.35                           248 197 
 PRA  HZ EP   1    549 29.49                             107    -0.3 4  393 211 
 PRA  HN ES   1    550 12.22                             107     0.5 4  393 211 
 PRA  HZ I         550 17.63         4.6 0.31                           393 211 
                                                                                
