 2017 1221 0629 24.4 L   6.791 -73.125149.5  RSN  4 0.3 1.5LRSN                1
 GAP=158        0.66       6.0     3.6  5.8 -0.6733E+01  0.8910E+01 -0.7237E+01E
 Epicentro: LOS SANTOS - SANTANDER                                             3
 ACTION:UPD 18-01-04 13:22 OP:rebc STATUS:               ID:20171221062924 L   I
 OLDACT:REG 17-12-21 13:20 OP:dani STATUS:               ID:20171221061820     3
 2017-12-21-0628-00M.COL___449                                                 6
 STAT SP IPHASW D HRMM SECON CODA AMPLIT PERI AZIMU VELO AIN AR TRES W  DIS CAZ7
 BAR2 EZ EP        629 44.56                             171    0.1310 22.9 196 
 BAR2 EZ ES        629 59.86                             171   -0.2210 22.9 196 
 BAR2 EZ I         630  2.11         5.1 0.24            173           22.9 196 
 PAM  EZ EP        629 47.23                             152    0.3010 76.7  38 
 PAM  EN ES        630  4.47                             152   -0.0710 76.7  38 
 PAM  EZ I         630  6.00         3.8 0.20            152           76.7  38 
 PTB  HZ EP        629 51.43                             132   -0.38 9  150 259 
 PTB  HN ES        630 13.64                             132    0.41 9  150 259 
 PTB  HZ I         630 15.16         4.2 0.44            133            150 259 
 ZAR  HZ EP        629 57.15                             123   -0.15 8  206 292 
 ZAR  HN ES        630 22.91                             123   -0.08 8  206 292 
 ZAR  HZ I         630 28.38         6.3 0.34            123            206 292 
                                                                                
