 2015 1021 0738 20.4 L   6.805 -73.108150.2  RSN 21 0.5 2.6LRSN                1
 GAP= 73        0.94       2.5     2.8  4.6 -0.7148E+00  0.3905E+01  0.8173E+00E
 Epicentro: LOS SANTOS - SANTANDER                                             3
 ACTION:UPD 15-12-22 20:41 OP:cam  STATUS:               ID:20151021073820 L   I
 OLDACT:UP  15-11-01 03:30 OP:DRIO STATUS:               ID:20151021073820 L   3
 OLDACT:UP  15-10-21 17:50 OP:mh   STATUS:               ID:20151021073749     3
 OLDACT:UP  15-10-21 17:45 OP:mh   STATUS:               ID:20151021073749     3
 OLDACT:REG 15-10-21 12:24 OP:mh   STATUS:               ID:20151021073749     3
 2015-10-21-0737-49M.COL___322                                                 6
 STAT SP IPHASW D HRMM SECON CODA AMPLIT PERI AZIMU VELO AIN AR TRES W  DIS CAZ7
 BAR2 EZ IP        738 40.45                             170   -0.1310 24.9 199 
 BAR2 EZ ES        738 55.67                             170   -0.6610 24.9 199 
 BAR2 EZ I         738 57.87        96.3 0.26            167           24.9 199 
 PAM  EZ EP   1    738 43.13                             152    0.23 7 74.3  37 
 PAM  EN ES        739  0.51                             152    0.0510 74.3  37 
 PAM  EZ I         739  2.02        39.3 0.20            154           74.3  37 
 BRR  HZ EP        738 42.31                             152    0.1110 74.6 297 
 BRR  HN ES        738 59.67                             152    0.4510 74.6 297 
 BRR  HZ I         739  3.22        58.2 0.12            148           74.6 297 
 RUS  HZ EP   1    738 44.17                             145   -0.43 7  101 178 
 RUS  HE ES        739  3.22                             145   -0.2710  101 178 
 RUS  HZ I         739  3.59        42.1 0.44            144            101 178 
 TAM  HZ EP   1    738 48.03                             132   -0.03 7  151 106 
 TAM  HE ES        739 10.15                             132    0.49 9  151 106 
 TAM  HZ I         739 10.40        25.9 0.22            134            151 106 
 OCA  HZ EP        738 48.46                             131   -0.58 9  160 352 
 OCA  HE ES        739 12.31                             131    0.92 9  160 352 
 OCA  HZ I         739 14.26       157.4 0.20            129            160 352 
 SPBC HZ EP   1    738 49.41                             129   -0.10 7  166 220 
 SPBC HE ES        739 12.46                             129    0.23 9  166 220 
 SPBC HZ I         739 12.49        80.5 0.22            127            166 220 
 ZAR  HZ EP   1    738 52.91                             123   -0.58 6  208 292 
 ZAR  HE ES        739 18.92                             123   -0.39 8  208 292 
 ZAR  HZ I         739 24.69        61.3 0.38            120            208 292 
 NOR  HZ EP   2    738 57.00                             119    0.23 4  238 235 
 NOR  HN ES        739 24.85                             119   -0.30 8  238 235 
 NOR  HZ I         739 31.77        27.1 0.48            117            238 235 
 SML  HZ EP   1    738 56.53                             118   -0.86 6  245 334 
 SML  HN ES   1    739 25.56                             118   -0.70 6  245 334 
 SML  HZ I         739 34.98        60.9 0.10            117            245 334 
 CHI  HZ EP        738 58.48                             118   -0.03 8  250 196 
 CHI  HN ES        739 27.98                             118   -0.27 8  250 196 
 CHI  HZ I         739 35.87         8.6 0.42            117            250 196 
 ROSC BZ EP   1    738 59.93                             117    0.90 6  255 212 
 ROSC BN ES   4    739 31.27                             117    2.09 0  255 212 
 ROSC BZ I         739 35.02        25.0 0.33            116            255 212 
 HEL  HZ EP        739  1.71                             115    0.43 7  276 256 
 HEL  HN ES        739 33.21                             115    0.03 7  276 256 
 HEL  HZ I         739 38.44        13.7 0.50            113            276 256 
 URE  HZ EP   4    739  4.77                             114    2.70 0  287 291 
 URE  HN ES   4    739 31.83                             114   -2.76 0  287 291 
 URE  HZ I         739 32.97        29.0 0.14            112            287 291 
 GUY2CHZ EP   4    739  5.79                             113    1.18 0  305 235 
 GUY2CHN ES   4    739 41.39                             113    2.27 0  305 235 
 GUY2CHZ I         739 47.95        15.8 0.30                           305 235 
 ELA  HZ EP   9    739 10.39                             111    2.57 0  333 230 
 ELA  HN ES        739 47.38                             111   -0.02 7  333 230 
 ELA  HZ I         739 53.68        12.9 0.62            110            333 230 
 CBOC HZ EP   1    739  8.36                             110    0.41 5  338 252 
 CBOC HE ES        739 45.86                             110    0.80 7  338 252 
 CBOC HZ I         740  0.07         6.8 0.46            109            338 252 
 DBB  SZ EP   1    739  8.11                             110   -0.40 5  344 274 
 MON  HZ EP   9    739  7.64                             109   -2.25 0  357 308 
 MON  HN ES        739 45.88                             109   -0.38 6  357 308 
 MON  HZ I         740  0.80        16.1 0.68            108            357 308 
 ANIL HZ EP   9    739 12.17                             109    1.43 0  361 225 
 ANIL HE ES        739 51.66                             109    0.21 6  361 225 
 ANIL HZ I         739 59.08        37.1 0.30            108            361 225 
 PAL  HZ EP        739 16.23                             106    0.09 6  410 239 
 PAL  HE ES        740  0.16                             106    0.53 6  410 239 
 PAL  HZ I         740  7.50         4.2 0.40            105            410 239 
                                                                                
