 2013 1121 0355 43.5 L   6.807 -73.151142.8  RSN  7 0.3 1.3LRSN                1
 GAP=135        0.65       2.7     2.9  5.7  0.7748E+00  0.4527E+01 -0.1035E+01E
 Epicentro: LOS SANTOS - SANTANDER                                             3
 ACTION:UPD 14-01-09 16:29 OP:ep   STATUS:               ID:20131121035543 L   I
 OLDACT:UP  13-11-21 12:22 OP:mh   STATUS:               ID:20131121035000     3
 OLDACT:REG 13-11-21 09:39 OP:mh   STATUS:               ID:20131121035000     3
 2013-11-21-0350-00M.COL___282                                                 6
 STAT SP IPHASW D HRMM SECON CODA AMPLIT PERI AZIMU VELO AIN AR TRES W  DIS CAZ7
 BAR2 SZ EP   1    356  3.08                             170    0.27 7 24.0 188 
 BRR  HZ EP   1    356  4.75                             152    0.45 7 70.3 298 
 BRR  HN ES   1    356 20.41                             152   -0.09 7 70.3 298 
 BRR  HZ I         356 25.82         3.7 0.13            152           70.3 298 
 PAM  SZ EP        356  5.56                             150    0.1510 77.2  40 
 PAM  SN ES        356 22.47                             150   -0.0110 77.2  40 
 PAM  SZ I         356 24.83         3.2 0.29            155           77.2  40 
 RUS  HZ EP        356  7.09                             143    0.0510  101 176 
 RUS  HN ES        356 25.23                             143   -0.1610  101 176 
 RUS  HZ I         356 27.17         1.8 0.10            148            101 176 
 PTB  HZ EP        356  9.73                             131   -0.48 9  147 258 
 PTB  HN ES        356 31.03                             131    0.01 9  147 258 
 PTB  HZ I         356 35.18         2.5 0.10            134            147 258 
 ZAR  HZ EP   1    356 15.74                             122    0.06 6  203 292 
 ZAR  HN ES        356 41.15                             122    0.38 9  203 292 
 ZAR  HZ I         356 46.83         2.3 0.10            125            203 292 
 SML  HZ EP   4    356 17.78                             117   -2.10 0  243 335 
 SML  HN ES        356 47.80                             117   -0.43 8  243 335 
 SML  HZ I         356 50.22         4.9 0.08            120            243 335 
                                                                                
