 2012  221 0151 10.6 L   6.778 -73.126147.8  RSN  7 0.3 1.6LRSN                1
 GAP=140        0.52       3.2     3.6  4.4 -0.2399E+01  0.3443E+01  0.3434E+01E
 ACTION:UP  12-03-07 16:32 OP:epov STATUS:               ID:20120221015110 L   I
 2012-02-21-0150-00M.COL___191                                                 6
 STAT SP IPHASW D HRMM SECON CODA AMPLIT PERI AZIMU VELO AIN AR TRES W  DIS CAZ7
 BAR2 SZ EP   1    151 30.33                             171   -0.06 7 21.5 197 
 BAR2 SZ ES   1    151 45.55                             171   -0.31 7 21.5 197 
 BAR2 SZ I         151 46.81        16.7 0.14                          21.5 197 
 BRR  HZ EP   1    151 32.13                             152    0.04 7 74.3 299 
 BRR  HE ES   1    151 49.32                             152    0.42 7 74.3 299 
 BRR  HZ I         151 52.30        11.6 0.28                          74.3 299 
 PAM  SZ EP   1    151 33.28                             151    0.26 7 77.9  37 
 PAM  SN ES   1    151 50.43                             151   -0.11 7 77.9  37 
 PAM  SZ I         151 52.46         1.9 0.27                          77.9  37 
 RUS  HZ EP   1    151 34.15                             145   -0.17 7 98.0 177 
 RUS  HN ES   1    151 52.95                             145    0.09 7 98.0 177 
 RUS  HZ I         151 54.09         5.2 0.26                          98.0 177 
 PTB  HZ EP   1    151 37.29                             132   -0.55 7  149 260 
 PTB  HN ES   2    151 59.08                             132   -0.04 5  149 260 
 NOR  SZ EP   1    151 46.43                             119   -0.01 6  235 235 
 NOR  SN ES   1    152 14.41                             119   -0.02 6  235 235 
 CHI  HZ EP   1    151 48.52                             118    0.35 6  247 196 
 CHI  HN ES   2    152 17.99                             118    0.47 4  247 196 
 CHI  HZ I         152 26.31         2.9 0.59                           247 196 
                                                                                
