 2012  621 0548 44.5 L   6.741 -73.145148.9  RSN  4 0.4 1.5LRSN                1
 GAP=233        0.66      15.8    10.5 16.3  0.5813E+02  0.5611E+02  0.1390E+03E
 Epicentro: JORDAN - SANTANDER                                                 3
 ACTION:UPD 12-08-06 17:51 OP:ep   STATUS:               ID:20120621054844 L   I
 2012-06-21-0540-00M.COL___199                                                 6
 STAT SP IPHASW D HRMM SECON CODA AMPLIT PERI AZIMU VELO AIN AR TRES W  DIS CAZ7
 BAR2 SZ EP        549  4.01                             176   -0.3910 17.0 194 
 BAR2 SZ I         549 21.47         7.6 0.38                          17.0 194 
 BRR  HZ EP        549  6.55                             149    0.3710 74.6 303 
 BRR  HN ES   2    549 23.18                             149    0.09 5 74.6 303 
 BRR  HZ I         549 27.12         6.1 0.44                          74.6 303 
 RUS  HZ EP   3    549  8.99                             148    0.88 2 94.1 176 
 PTB  HZ EP        549 11.58                             132   -0.06 9  147 261 
 PTB  HN ES   3    549 32.66                             132   -0.14 2  147 261 
                                                                                
