 2012  821 0204 13.4 L   6.726 -73.216145.2  RSN  5 0.3 1.4LRSN                1
 GAP=218        0.69       6.9     6.6  8.0  0.2536E+02 -0.1182E+01 -0.6228E+01E
 Epicentro: VILLANUEVA - SANTANDER                                             3
 ACTION:UPD 12-09-10 11:57 OP:ep   STATUS:               ID:20120821020413 L   I
 2012-08-21-0200-00M.COL___217                                                 6
 STAT SP IPHASW D HRMM SECON CODA AMPLIT PERI AZIMU VELO AIN AR TRES W  DIS CAZ7
 BAR2 SZ EP   1    2 4 32.53                             174   -0.25 7 15.3 166 
 BAR2 SZ ES   1    2 4 47.42                             174   -0.51 7 15.3 166 
 BAR2 SZ I         2 4 48.96         6.1 0.14                          15.3 166 
 BRR  HZ EP        2 4 34.32                             153    0.0010 69.1 308 
 BRR  HN ES   1    2 4 51.17                             153    0.49 7 69.1 308 
 BRR  HZ I         2 4 54.65         8.3 0.14                          69.1 308 
 RUS  HZ EP   1    2 4 36.61                             146    0.07 7 93.3 171 
 RUS  HZ I         2 4 37.86         1.8 0.15                          93.3 171 
 RUS  HN ES   1    2 4 55.06                             146    0.44 7 93.3 171 
 PTB  HN ES   1    2 4 59.48                             134   -0.34 7  139 262 
 ZAR  HE ES   2    2 5 10.59                             123    0.26 4  200 295 
                                                                                
