 2014  921 0314 25.3 L   6.651 -73.635109.3  RSN  5 0.3 0.9LRSN                1
 GAP=118        0.69       3.4     3.7  5.4  0.2455E+01  0.1617E+01 -0.3164E+01E
 Epicentro: EL CARMEN - SANTANDER                                              3
 ACTION:UPD 14-10-03 23:06 OP:nd   STATUS:               ID:20140921031425 L   I
 OLDACT:REG 14-09-21 12:52 OP:spq  STATUS:               ID:20140921030818     3
 2014-09-21-0308-18M.COL___287                                                 6
 STAT SP IPHASW D HRMM SECON CODA AMPLIT PERI AZIMU VELO AIN AR TRES W  DIS CAZ7
 BAR2 SZ ES   1    314 54.00                             154   -0.51 7 50.4  97 
 BAR2 SZ I         314 54.86         3.9 0.12            157           50.4  97 
 BRR  HZ EP        314 41.39                             153   -0.0310 51.2 350 
 BRR  HN ES        314 54.17                             153    0.2010 51.2 350 
 BRR  HZ I         314 55.25         2.4 0.54            152           51.2 350 
 PTB  HZ EP     C  314 44.40                             137    0.0910 91.7 262 
 PTB  HN ES        314 58.97                             137   -0.1310 91.7 262 
 PTB  HZ I         315  3.56         1.1 0.26            136           91.7 262 
 RUS  HZ EP   1    314 46.21                             134    0.21 7  104 144 
 RUS  HN ES   1    315  2.38                             134    0.27 7  104 144 
 RUS  HZ I         315  3.20         1.3 0.30            136            104 144 
 SML  HZ EP        314 59.60                             109   -0.49 8  243 349 
 SML  HN ES   1    315 27.76                             109    0.57 6  243 349 
 SML  HZ I         315 31.49         1.0 0.24            109            243 349 
                                                                                
