 2017  321 0718 23.6 L   6.851 -73.077155.4  RSN 29 0.4 3.1LRSN 3.7WRSN        1
 SPEC AVERAGE  MO 14.6 ST0.251 OM  2.6 f00.975 R2.1996 AL 0.00 WI 40.0 MW  3.7 3
 SPEC SD       MO  0.1 ST0.276 OM  0.3 f00.397 R0.6676 AL      WI      MW  0.1 3
 GAP=123        0.83       2.3     3.3  4.5 -0.2315E+00  0.3244E+01  0.3006E+01E
 Epicentro: LOS SANTOS - SANTANDER                                             3
 SPEC PAM EH Z MO 14.3 ST0.515 OM  2.4 f0 1.56 R1.2333 AL-0.00 WI 40.0 MW  3.5 3
 SPEC PAM EH Z T 719 2 K 0.000 GD  169 VS 5.20 DE 3.50 Q0750.0 QA 1.50 VS 5.20 3
 SPEC CHI HH Z MO 14.5 ST0.118 OM  2.3 f00.852 R2.2582 AL-0.00 WI 40.0 MW  3.6 3
 SPEC CHI HH Z T 71931 K 0.000 GD  299 VS 5.20 DE 3.50 Q0750.0 QA 1.50 VS 5.20 3
 SPEC ROSCBH Z MO 14.8 ST0.123 OM  2.6 f00.683 R2.8170 AL-0.00 WI 40.0 MW  3.8 3
 SPEC ROSCBH Z T 71935 K 0.000 GD  304 VS 5.20 DE 3.50 Q0750.0 QA 1.50 VS 5.20 3
 SPECGUY2CHH Z MO 14.8 ST  0.1 OM  2.5 f00.696 R  2.76 AL-0.00 WI 40.0 MW  3.8 3
 SPECGUY2CHH Z T 71944 K       GD347.7 VS 5.20 DE 3.50 Q0750.0 QA 1.50 VS 5.20 3
 SPEC ELA HH Z MO 14.6 ST0.164 OM  2.3 f00.885 R2.1740 AL-0.00 WI 40.0 MW  3.7 3
 SPEC ELA HH Z T 71950 K 0.000 GD  372 VS 5.20 DE 3.50 Q0750.0 QA 1.50 VS 5.20 3
 SPEC ANILHH Z MO 14.5 ST0.600 OM  2.2 f0 1.44 R1.3361 AL-0.00 WI 40.0 MW  3.6 3
 SPEC ANILHH Z T 71955 K 0.000 GD  398 VS 5.20 DE 3.50 Q0750.0 QA 1.50 VS 5.20 3
 SPEC PRA HH Z MO 14.7 ST0.174 OM  2.4 f00.797 R2.4141 AL-0.00 WI 40.0 MW  3.8 3
 SPEC PRA HH Z T 720 0 K 0.000 GD  430 VS 5.20 DE 3.50 Q0750.0 QA 1.50 VS 5.20 3
 SPEC MACCHH Z MO 14.7 ST0.062 OM  2.2 f00.608 R3.1645 AL-0.00 WI 40.0 MW  3.7 3
 SPEC MACCHH Z T 72022 K 0.000 GD  549 VS 5.20 DE 3.50 Q0750.0 QA 1.50 VS 5.20 3
 OLDACT:UP  17-03-21 17:30 OP:dnl  STATUS:               ID:20170321071743     3
 OLDACT:UP  17-03-21 17:29 OP:dnl  STATUS:               ID:20170321071743     3
 OLDACT:UP  17-03-21 17:28 OP:dnl  STATUS:               ID:20170321071743     3
 OLDACT:REG 17-03-21 14:29 OP:dnl  STATUS:               ID:20170321071743     3
 ACTION:UPD 17-05-25 18:43 OP:jn   STATUS:               ID:20170321071823 L   I
 OLDACT:UP  17-03-21 17:31 OP:dnl  STATUS:               ID:20170321071743     3
 2017-03-21-0718-00M.COL___382                                                 6
 STAT SP IPHASW D HRMM SECON CODA AMPLIT PERI AZIMU VELO AIN AR TRES W  DIS CAZ7
 BAR2 EZ IP     C  718 44.27                             168   -0.2510 30.9 202 
 BAR2 EZ ES   4    718 58.86                             168   -2.01 0 30.9 202 
 BAR2 EZ I         719  0.38       528.3 0.20            164           30.9 202 
 PAM  EZ IP     D  718 47.10                             155    0.7810 68.2  38 
 PAM  EN ES        719  3.92                             155   -0.1610 68.2  38 
 PAM  EZ I         719  5.63       147.4 0.20            157           68.2  38 
 BRR  HZ IP     C  718 46.19                             153    0.1910 75.6 292 
 BRR  HE ES        719  3.01                             153   -0.5010 75.6 292 
 BRR  HZ I         719  7.07       262.7 0.32            149           75.6 292 
 PTB  HZ EP   4    718 50.89                             132   -1.20 0  156 257 
 PTB  HN ES   4    719 11.75                             132   -2.60 0  156 257 
 PTB  HZ I         719 14.38       156.2 0.16            128            156 257 
 SPBC HZ IP     C  718 53.23                             129   -0.44 9  172 220 
 SPBC HN ES        719 17.39                             129    0.23 9  172 220 
 SPBC HZ I         719 20.15       161.7 0.36            126            172 220 
 ZAR  HZ EP        718 57.28                             124    0.12 8  209 290 
 ZAR  HN ES        719 23.30                             124   -0.07 8  209 290 
 ZAR  HZ I         719 29.02       195.2 0.26            121            209 290 
 CHI  HZ EP        719  2.53                             118   -0.09 8  256 196 
 CHI  HE ES        719 33.13                             118    0.05 8  256 196 
 CHI  HZ I         719 42.17        46.3 0.50            115            256 196 
 ROSC BZ IP   4 C  719  4.17                             118    1.00 0  262 212 
 ROSC BN ES   4    719 36.55                             118    2.49 0  262 212 
 ROSC BZ I         719 41.16       145.8 0.35            115            262 212 
 URE  HZ EP        719  5.15                             115   -0.52 7  289 290 
 URE  HN ES   4    719 35.98                             115   -2.53 0  289 290 
 URE  HZ I         719 45.91        81.7 0.18            112            289 290 
 LL1C HZ EP   4    719  9.72                             114    2.61 0  302 350 
 LL1C HN ES        719 41.79                             114    0.70 7  302 350 
 GUY2CHZ EP        719  9.29                             113    0.60 7  311 235 
 GUY2CHN ES   4    719 45.59                             113    1.71 0  311 235 
 GUY2CHZ  IAML     719 49.56        79.8 0.32                           311 235 
 VIL  EZ EP        719  8.19                             113   -0.04 7  311 193 
 VIL  EN ES        719 43.65                             113    0.57 7  311 193 
 VIL  EZ I         719 50.42        63.6 0.36            111            311 193 
 PTGC HZ IP     C  719  7.48                             113   -0.68 7  311 160 
 PTGC HN ES   4    719 40.50                             113   -2.46 0  311 160 
 PTGC HZ I         719 44.91        39.7 0.24            111            311 160 
 ELA  HZ EP   4    719 13.65                             111    1.75 0  339 230 
 ELA  HN ES   4    719 52.02                             111    2.41 0  339 230 
 ELA  HZ I         719 54.66        42.4 0.56            109            339 230 
 CBOC HZ EP        719 12.69                             111    0.78 7  343 252 
 CBOC HN ES        719 49.38                             111   -0.24 7  343 252 
 CBOC HZ I         719 52.14        26.4 0.24            109            343 252 
 DBB  EZ EP        719 12.48                             111    0.22 6  347 273 
 DBB  EN ES   4    719 49.07                             111   -1.18 0  347 273 
 DBB  EZ I         719 56.84        36.6 0.42            108            347 273 
 ARGC HZ EP   9    719 15.55                             110    2.26 0  357 339 
 ARGC HE ES        719 54.13                             109   -0.21 6  357 339 
 ARGC HZ I         720  0.68        16.1 0.52            108            357 339 
 ANIL HZ EP   4    719 16.64                             109    1.82 0  367 225 
 ANIL HN ES   4    719 57.17                             109    2.36 0  367 225 
 ANIL HZ I         720  2.14       109.7 0.30            107            367 225 
 PRA  HZ EP        719 17.79                             107   -0.65 6  401 210 
 PRA  HE ES   4    720  2.29                             107    1.05 0  401 210 
 PRA  HZ I         720  8.87        58.5 0.40            105            401 210 
 APAC HZ EP   2    719 18.91                             107    0.18 3  404 287 
 APAC HN ES        720  1.63                             107   -0.13 6  404 287 
 ORTC HZ EP        719 19.34                             107    0.46 6  404 217 
 ORTC HN ES        720  2.18                             107    0.16 6  404 217 
 ORTC HZ I         720  6.20        44.2 0.48            105            404 217 
 APAC HZ I         720  3.35        22.5 0.34            105            404 287 
 SJC  HZ EP        719 18.67                             107   -0.72 6  409 326 
 SJC  HN ES   4    720  0.27                             107   -2.67 0  409 326 
 SJC  HZ I         720  4.49        41.5 0.46            106            409 326 
 CRJC HZ EP        719 25.12                             105   -0.51 5  462   3 
 CRJC HN ES   4    720 12.03                             105   -2.01 0  462   3 
 CRJC HZ I         720 13.69        32.4 0.18            104            462   3 
 GUA  EZ EP   2    719 26.91                             104   -0.65 2  479 174 
 GUA  EN ES   4    720 15.84                             104   -1.63 0  479 174 
 GUA  EZ I         720 17.92        16.6 0.20            103            479 174 
 YOT  HZ EP   2    719 27.24                             104   -0.76 2  481 229 
 YOT  HN ES        720 17.96                             104   -0.30 5  481 229 
 MACC HZ EP   4    719 31.44                             103   -1.89 0  527 189 
 MACC HN ES   4    720 24.08                             103   -3.66 0  527 189 
 MACC HZ I         720 31.06         9.9 0.54            101            527 189 
 GARC HZ EP   4    719 38.43                             101   -1.62 0  581 208 
 GARC HE ES   4    720 34.26                             101   -5.46 0  581 208 
 GARC HZ I         720 44.41        16.7 0.24            100            581 208 
 POP2 HZ EP        719 45.02                             100    0.14 3  622 220 
 POP2 HN ES        720 48.05                             100   -0.26 3  622 220 
 POP2 HZ I         720 52.65         3.1 0.34             99            622 220 
 FLO2 HZ EP   2    719 47.11                             100   -0.77 1  649 206 
 FLO2 HE ES   4    720 48.17                             100   -5.49 0  649 206 
                                                                                
