 2016  221 0028 50.6 L   6.759 -73.150148.2  RSN  4 0.4 1.2LRSN                1
 GAP=138        0.93       5.2     4.9  8.2 -0.2860E+01  0.3465E+01  0.5089E+01E
 Epicentro: LOS SANTOS - SANTANDER                                             3
 ACTION:UPD 16-03-04 21:27 OP:rebc STATUS:               ID:20160221002850 L   I
 OLDACT:DUP 16-02-21 13:05 OP:drio STATUS:               ID:20160221001748d    3
 2016-02-21-0017-47M.COL___331                                                 6
 STAT SP IPHASW D HRMM SECON CODA AMPLIT PERI AZIMU VELO AIN AR TRES W  DIS CAZ7
 BRR  HZ EP        029 12.31                             152    0.2110 73.0 302 
 BRR  HE ES        029 29.47                             152    0.5910 73.0 302 
 PAM  EZ EP        029 13.40                             150    0.1110 81.2  38 
 PAM  EE ES        029 30.51                             150   -0.4910 81.2  38 
 PAM  EZ I         029 31.89         2.8 0.18            151           81.2  38 
 RUS  HZ EP        029 14.50                             146    0.2410 96.1 176 
 RUS  HE ES        029 32.72                             146   -0.0010 96.1 176 
 RUS  HZ I         029 33.34         1.5 0.34            146           96.1 176 
 PTB  HZ EP        029 17.31                             133   -0.32 9  146 261 
 PTB  HN ES        029 38.27                             133   -0.46 9  146 261 
 PTB  HZ I         029 41.18         3.7 0.44            133            146 261 
                                                                                
