 2011  721 0328 56.3 L   6.784 -73.100148.9  RSN  7 0.2 1.8LRSN                1
 GAP=161        0.46       2.2     3.9  4.0 -0.2627E+01  0.2044E+01 -0.4140E+00E
 Epicentro: LOS SANTOS - SANTANDER                                             3
 ACTION:UPD 12-07-25 14:02 OP:epov STATUS:               ID:20110721032856 L   I
 2011-07-21-0327-23S.COL___142                                                 6
 STAT SP IPHASW D HRMM SECON CODA AMPLIT PERI AZIMU VELO AIN AR TRES W  DIS CAZ7
 BAR2 SZ EP   1    329 16.13                             171   -0.18 7 23.1 203 
 BAR2 SZ ES   1    329 31.58                             171   -0.34 7 23.1 203 
 BAR2 SZ I         329 32.90        24.8 0.20                          23.1 203 
 GIR2 SZ EP        329 16.69                             166    0.2510 34.2 342 
 BRR  HZ EP   1    329 18.12                             151    0.02 7 76.5 298 
 BRR  HE ES   1    329 35.30                             151    0.20 7 76.5 298 
 RUS  HZ EP   1    329 20.02                             145   -0.21 7 98.6 179 
 RUS  HZ I         329 20.83         4.3 0.22                          98.6 179 
 RUS  HE ES   1    329 39.19                             145    0.30 7 98.6 179 
 BRI  SZ EP   1    329 20.67                             142    0.17 7  108  18 
 BRI  SZ ES   1    329 39.20                             142   -0.17 7  108  18 
 BRI  SZ I         329 42.37         7.4 0.23                           108  18 
 OCA  SZ EP   1    329 24.92                             130   -0.18 7  163 351 
 OCA  SZ ES   1    329 47.54                             130   -0.01 7  163 351 
 OCA  SZ I         329 51.48         8.0 0.18                           163 351 
 NOR  SZ EP   1    329 32.61                             119    0.05 6  238 236 
 NOR  SE ES   1    330  0.66                             119   -0.18 6  238 236 
                                                                                
