 2011  921 0706 21.3 L   6.747 -73.122142.8  RSN  9 0.4 1.9LRSN                1
 GAP=185        0.69       3.2     5.2  5.0  0.1620E+01  0.5102E+01  0.2010E+00E
 Epicentro: JORDAN - SANTANDER                                                 3
 ACTION:UPD 12-07-13 15:58 OP:ep   STATUS:               ID:20110921070621 L   I
 2011-09-21-0704-19S.COL___165                                                 6
 STAT SP IPHASW D HRMM SECON CODA AMPLIT PERI AZIMU VELO AIN AR TRES W  DIS CAZ7
 BAR2 SZ EP        7 6 40.47                             172   -0.0310 18.4 201 
 BAR2 SZ ES        7 6 55.02                             172   -0.4410 18.4 201 
 BAR2 SZ I         7 6 57.39        15.8 0.23                          18.4 201 
 BTL  SZ EP   1    7 6 40.56                             170   -0.06 7 24.9 320 
 BRR  HZ EP        7 6 42.21                             150   -0.2410 76.4 301 
 BRR  HZ I         7 6 42.88        18.1 0.13                          76.4 301 
 BRR  HN ES        7 6 59.55                             150    0.6110 76.4 301 
 RUS  HZ EP   1    7 6 44.56                             145    0.22 7 94.6 177 
 RUS  HN ES   1    7 7  2.55                             145    0.24 7 94.6 177 
 RUS  HZ I         7 7  4.60         8.1 0.51                          94.6 177 
 OCA  SZ EP   1    7 6 49.96                             128   -0.02 7  166 352 
 OCA  SZ ES   1    7 7 12.41                             128    0.07 7  166 352 
 OCA  SZ I         7 7 15.53         8.4 0.17                           166 352 
 ZAR  HZ EP   2    7 6 53.75                             121   -0.30 4  209 293 
 ZAR  HE ES   2    7 7 18.60                             121   -1.00 4  209 293 
 ZAR  HZ I         7 7 24.39        10.5 0.44                           209 293 
 NOR  SZ EP   2    7 6 56.59                             118   -0.16 4  234 236 
 NOR  SE ES   1    7 7 24.23                             118   -0.16 6  234 236 
 CHI  HZ EP   2    7 6 58.11                             117   -0.20 4  244 196 
 CHI  HE ES   2    7 7 27.65                             117    0.48 4  244 196 
 CHI  HZ I         7 7 34.17         2.9 0.31                           244 196 
 HEL  HZ EP   1    7 7  1.89                             114    0.38 6  273 257 
 HEL  HZ I         7 7 40.34         5.4 0.49                           273 257 
                                                                                
