 2017 1121 0852 11.3 L   6.809 -73.169146.1  RSN  5 0.3 1.3LRSN                1
 GAP=142        0.84       4.9     4.3  8.0 -0.5823E+01  0.1269E+02 -0.5140E+01E
 Epicentro: LOS SANTOS - SANTANDER                                             3
 ACTION:UPD 17-12-12 19:58 OP:rebc STATUS:               ID:20171121085211 L   I
 OLDACT:UP  17-11-21 15:51 OP:dani STATUS:               ID:20171121084655     3
 OLDACT:REG 17-11-21 12:54 OP:edw  STATUS:               ID:20171121084655     3
 2017-11-21-0848-00M.COL___474                                                 6
 STAT SP IPHASW D HRMM SECON CODA AMPLIT PERI AZIMU VELO AIN AR TRES W  DIS CAZ7
 BAR2 EZ EP        852 30.99                             170   -0.0410 24.0 184 
 BAR2 EZ ES        852 46.61                             170    0.2410 24.0 184 
 BAR2 EZ I         852 46.93         7.3 0.32            171           24.0 184 
 PAM  EZ EP        852 34.04                             151    0.3910 78.3  41 
 PAM  EN ES        852 50.86                             151   -0.1810 78.3  41 
 PAM  EZ I         852 52.98         5.0 0.46            152           78.3  41 
 PTB  HZ EP        852 37.81                             133   -0.32 9  145 258 
 PTB  HN ES        852 58.65                             133   -0.37 9  145 258 
 PTB  HZ I         853  2.18         1.1 0.18            133            145 258 
 OCA  HN ES        853  1.27                             130   -0.30 9  159 354 
 ZAR  HN ES        853  9.22                             123    0.59 9  201 292 
                                                                                
