 2013  121 0924 29.0 L   6.786 -73.126146.6  RSN  9 0.5 1.9LRSN                1
 GAP=140        1.06       4.7     5.5  7.5  0.3221E+01  0.1360E+02  0.4870E+01E
 Epicentro: LOS SANTOS - SANTANDER                                             3
 ACTION:UPD 13-02-15 09:15 OP:ep   STATUS:               ID:20130121092429 L   I
 2013-01-21-0920-00M.COL___241                                                 6
 STAT SP IPHASW D HRMM SECON CODA AMPLIT PERI AZIMU VELO AIN AR TRES W  DIS CAZ7
 BAR2 SZ EP        924 48.68                             171   -0.0510 22.3 196 
 BAR2 SZ ES        925  3.62                             171   -0.4810 22.3 196 
 BAR2 SZ I         925  5.82        12.8 0.26            169           22.3 196 
 BRR  HZ EP        924 50.76                             152    0.3510 73.8 299 
 BRR  HN ES        925  7.66                             152    0.5710 73.8 299 
 BRR  HN I         925 12.88        16.2 0.18            151           73.8 299 
 PAM  SZ EP        924 51.70                             151    0.3810 77.3  38 
 PAM  SN ES        925  8.74                             151    0.0410 77.3  38 
 PAM  SN I         925  9.66        16.4 0.46            156           77.3  38 
 RUS  HZ EP        924 52.65                             144   -0.0810 98.9 177 
 RUS  HN ES   2    925 11.29                             144    0.07 5 98.9 177 
 RUS  HN I         925 14.91         5.2 0.30            146           98.9 177 
 PTB  HZ EP        924 55.83                             132   -0.39 9  150 260 
 OCA  HN ES        925 19.11                             130   -0.72 9  162 352 
 OCA  HN I         925 23.38        30.6 0.22            133            162 352 
 ZAR  HZ EP        925  1.88                             122    0.09 8  207 292 
 ZAR  HN ES        925 27.82                             122    0.48 8  207 292 
 ZAR  HN I         925 32.74        12.9 0.28            124            207 292 
 CHI  HN ES   2    925 36.35                             117    0.33 4  248 196 
 CHI  HN I         925 39.49         4.3 0.24            120            248 196 
 URE  HN ES   2    925 40.68                             113   -2.03 4  286 292 
                                                                                
