 2016  121 0127 14.6 L   6.824 -73.191149.5  RSN  5 0.3 1.7LRSN                1
 GAP=130        0.67       2.6     3.6  6.0 -0.2343E+01  0.7191E+01 -0.3860E+01E
 Epicentro: ZAPATOCA - SANTANDER                                               3
 ACTION:UPD 16-03-09 23:27 OP:cam  STATUS:               ID:20160121012714 L   I
 OLDACT:UP  16-01-21 14:05 OP:ar   STATUS:               ID:20160121011750     3
 OLDACT:REG 16-01-21 13:19 OP:ar   STATUS:               ID:20160121011750     3
 2016-01-21-0117-50M.COL___321                                                 6
 STAT SP IPHASW D HRMM SECON CODA AMPLIT PERI AZIMU VELO AIN AR TRES W  DIS CAZ7
 PAM  EZ EP        127 37.59                             151    0.3010 78.7  44 
 PAM  EN ES        127 55.01                             151    0.0210 78.7  44 
 PAM  EZ I         127 56.71         5.9 0.50            154           78.7  44 
 RUS  HZ EP        127 38.64                             144   -0.3010  104 173 
 RUS  HN ES        127 57.71                             144   -0.2210  104 173 
 RUS  HZ I         127 58.32         4.3 0.34            146            104 173 
 PTB  HZ EP        127 41.43                             134   -0.06 9  143 257 
 PTB  HN ES        128  2.19                             134   -0.27 9  143 257 
 PTB  HZ I         128  3.91         4.2 0.12            134            143 257 
 SPBC HZ EP        127 43.46                             130    0.17 9  162 217 
 SPBC HE ES        128  6.19                             130    0.51 9  162 217 
 SPBC HZ I         128 11.42         8.5 0.48            132            162 217 
 SML  HZ EP        127 50.72                             119   -0.23 8  239 336 
 SML  HN ES        128 19.43                             119    0.12 8  239 336 
 SML  HZ I         128 22.80         7.5 0.28            120            239 336 
                                                                                
