 2011  421 0235 24.3 L   6.772 -73.098145.9  RSN  9 0.5 1.7LRSN                1
 GAP=144        1.24       7.4     9.5 10.0 -0.3386E+02  0.1040E+02  0.1104E+02E
 Epicentro: LOS SANTOS - SANTANDER                                             3
 ACTION:UP  11-06-22 15:32 OP:REBC STATUS:               ID:20110421023524 L   I
 2011-04-21-0234-18S.COL___139                                                 6
 STAT SP IPHASW D HRMM SECON CODA AMPLIT PERI AZIMU VELO SNR AR TRES W  DIS CAZ7
 BAR2 SZ EP        235 43.77                             171    -0.110   22 205 
 BAR2 SZ ES   1    235 58.69                             171    -0.5 7   22 205 
 BAR2 SZ I         236  4.20        19.0 0.82                            22 205 
 BTL  SZ EP        235 44.99                             170     1.010   25 311 
 BRR  HZ IP     D  235 45.76                             151     0.010   77 299 
 BRR  HZ I         235 47.22        16.7 0.09                            77 299 
 BRR  HN ES   1    236  2.97                             151     0.4 7   77 299 
 PAM  SZ EP        235 46.58                             151     0.110   77  35 
 PAM  SN ES   1    236  3.92                             151     0.2 7   77  35 
 PAM  SZ I         236  5.85         2.6 0.29                            77  35 
 RUS  HZ EP        235 47.66                             145    -0.110   97 179 
 RUS  HZ I         236  7.69         4.4 0.16                            97 179 
 BRI  SZ EP   3    235 48.53                             141     0.3 2  110  18 
 GRA  SZ EP   2    235 50.17                             137     0.5 5  127  15 
 GRA  SZ ES   1    236  8.59                             137    -0.9 7  127  15 
 OCA  SZ EP        235 52.52                             129    -0.4 9  164 351 
 OCA  SZ I         236 19.79         8.2 0.28                           164 351 
 NOR  SZ IP        235 59.99                             118    -0.3 8  237 236 
 NOR  SN ES   1    236 28.12                             118    -0.2 6  237 236 
 MON  HZ EP   4    236 11.54                             108    -2.4 0  360 308 
                                                                                
