 2012 1221 0814 33.2 L   6.349 -73.565109.1  RSN  7 0.4 1.6LRSN                1
 GAP=132        0.74       4.6     4.0  6.7  0.4804E+01  0.9500E+01  0.1880E+01E
 Epicentro: SANTA HELENA DEL OPON - SANTANDER                                  3
 ACTION:UPD 13-01-04 14:29 OP:ep   STATUS:               ID:20121221081433 L   I
 2012-12-21-0810-00M.COL___243                                                 6
 STAT SP IPHASW D HRMM SECON CODA AMPLIT PERI AZIMU VELO AIN AR TRES W  DIS CAZ7
 BAR2 SZ IP        814 49.72                             153    0.2110 50.1  58 
 BAR2 SZ ES   1    815  1.88                             153   -0.38 7 50.1  58 
 BAR2 SZ I         815  4.04        23.4 0.28                          50.1  58 
 RUS  HZ EP     D  814 51.40                             144    0.0410 73.4 133 
 RUS  HN ES   1    815  5.57                             144    0.03 7 73.4 133 
 RUS  HN I         815  9.19         5.8 0.20                          73.4 133 
 BRR  HZ IP        814 51.57                             139   -0.0110 85.3 349 
 BRR  HZ I         814 55.00         7.8 0.40                          85.3 349 
 BRR  HN ES   1    815  6.46                             139    0.53 7 85.3 349 
 GIR2 SZ EP        814 52.17                             137   -0.0210 90.5  27 
 PTB  HZ EP        814 52.57                             134   -0.3310  101 282 
 PTB  HN ES   1    815  8.07                             134   -0.22 7  101 282 
 PTB  HZ I         815 11.47         9.5 0.21                           101 282 
 HEL  HZ EP   1    815  6.34                             111    0.77 6  218 265 
 HEL  HZ I         815 35.09         3.1 0.32                           218 265 
 MON  HZ EP   1    815 20.42                             101   -0.74 5  355 319 
                                                                                
