 2016  721 0731 21.1 L   6.795 -73.052149.8  RSN  4 0.2 1.7LRSN                1
 GAP=247        0.65       4.0     6.1  5.2  0.5296E+01  0.2406E+00  0.1951E+01E
 Epicentro: LOS SANTOS - SANTANDER                                             3
 ACTION:UPD 17-03-29 16:53 OP:lp   STATUS:               ID:20160721073121 L   I
 OLDACT:REG 16-07-21 14:18 OP:ar   STATUS:               ID:20160721072759     3
 2016-07-21-0727-59S.COL___307                                                 6
 STAT SP IPHASW D HRMM SECON CODA AMPLIT PERI AZIMU VELO AIN AR TRES W  DIS CAZ7
 BAR2 EZ EP        731 41.24                             169   -0.0110 26.7 213 
 BAR2 EZ ES        731 56.70                             169   -0.2910 26.7 213 
 BRR  HZ EP        731 43.09                             150   -0.1110 80.7 295 
 BRR  HN ES        732  0.70                             150    0.2310 80.7 295 
 BRR  HZ I         732  5.40         4.8 0.12            144           80.7 295 
 RUS  HZ EP        731 45.55                             145    0.3910 99.9 182 
 RUS  HN ES        732  3.99                             145    0.0310 99.9 182 
 SPBC HZ EP        731 50.09                             129   -0.38 9  170 222 
 SPBC HN ES        732 13.50                             129    0.09 9  170 222 
 SPBC HZ I         732 18.93         7.9 0.26            126            170 222 
                                                                                
