 2014  321 0806 19.4 L   6.819 -73.183143.0  RSN 10 0.4 1.9LRSN                1
 GAP=131        0.85       2.3     3.5  6.2 -0.8818E+00  0.6904E+01  0.9500E+00E
 Epicentro: ZAPATOCA - SANTANDER                                               3
 ACTION:UPD 14-04-09 23:19 OP:nd   STATUS:               ID:20140321080619 L   I
 OLDACT:UP  14-03-21 13:23 OP:mh   STATUS:               ID:20140321075805     3
 OLDACT:UP  14-03-21 13:22 OP:mh   STATUS:               ID:20140321075805     3
 OLDACT:REG 14-03-21 08:07 OP:mh   STATUS:               ID:20140321075805     3
 2014-03-21-0758-05M.COL___238                                                 6
 STAT SP IPHASW D HRMM SECON CODA AMPLIT PERI AZIMU VELO AIN AR TRES W  DIS CAZ7
 PAM  SZ EP        8 6 41.53                             150    0.1610 78.6  43 
 PAM  SN ES        8 6 58.41                             150   -0.1210 78.6  43 
 PAM  SZ I         8 7  1.05        20.0 0.36            156           78.6  43 
 RUS  HZ EP        8 6 42.76                             143   -0.2810  103 174 
 RUS  HN ES        8 7  1.69                             143    0.2010  103 174 
 RUS  HZ I         8 7  3.08         8.0 0.28            147            103 174 
 PTB  HZ EP        8 6 45.47                             132   -0.32 9  144 258 
 PTB  HN ES        8 7  6.07                             132   -0.32 9  144 258 
 PTB  HZ I         8 7 13.81         8.5 0.27            134            144 258 
 OCA  HN ES        8 7  9.37                             129    0.40 9  158 355 
 OCA  HZ I         8 7 15.07         9.2 0.22            133            158 355 
 SPBC HZ EP        8 6 47.81                             129    0.24 9  162 217 
 SPBC HN ES        8 7  9.73                             129    0.16 9  162 217 
 SPBC HZ I         8 7 14.87         9.1 0.13            131            162 217 
 ZAR  HZ EP        8 6 51.41                             122    0.25 9  199 292 
 ZAR  HN ES        8 7 16.30                             122    0.34 9  199 292 
 ZAR  HZ I         8 7 22.23         7.9 0.09            125            199 292 
 NOR  HZ EP   1    8 6 54.45                             118   -0.26 6  233 233 
 NOR  HN ES        8 7 22.17                             118   -0.11 8  233 233 
 SML  HZ EP   1    8 6 55.20                             117   -0.26 6  240 336 
 SML  HN ES        8 7 23.00                             117   -0.60 8  240 336 
 SML  HZ I         8 7 28.21        11.8 0.10            121            240 336 
 CHI  HZ EP        8 6 56.74                             116   -0.29 8  250 194 
 CHI  HN ES        8 7 26.22                             116   -0.17 8  250 194 
 CHI  HZ I         8 7 36.13         2.6 0.09            120            250 194 
 GUY2CHZ EP   1    8 7  4.16                             112    1.55 5  299 234 
 GUY2CHE ES   4    8 7 38.84                             112    2.51 0  299 234 
 SJC  HZ EP   4    8 7 10.98                             105   -3.40 0  405 327 
 SJC  HN ES   4    8 7 54.19                             105   -3.09 0  405 327 
                                                                                
