 2016  621 0428 35.9 L   6.800 -73.132140.6  RSN  9 0.5 1.6LRSN                1
 GAP=239        1.20       5.7     6.1  7.8  0.8142E+01  0.1657E+02  0.3353E+01E
 Epicentro: LOS SANTOS - SANTANDER                                             3
 ACTION:UPD 16-07-21 22:21 OP:rebc STATUS:               ID:20160621042835 L   I
 OLDACT:REG 16-06-21 14:35 OP:ak   STATUS:               ID:20160621041740     3
 2016-06-21-0417-40M.COL___328                                                 6
 STAT SP IPHASW D HRMM SECON CODA AMPLIT PERI AZIMU VELO AIN AR TRES W  DIS CAZ7
 BAR2 EZ EP        428 54.55                             170   -0.3710 23.7 194 
 BAR2 EZ ES        429  9.98                             170    0.2310 23.7 194 
 BAR2 EZ I         429 11.86         8.4 0.24                          23.7 194 
 BRR  HZ EP        428 56.70                             151    0.1210 72.5 298 
 BRR  HN ES        429 13.23                             151    0.5310 72.5 298 
 BRR  HZ I         429 14.05         8.1 0.32                          72.5 298 
 RUS  HZ EP   1    428 59.46                             143    0.31 7  101 177 
 RUS  HN ES        429 17.20                             143   -0.0810  101 177 
 PTB  HZ EP        429  1.73                             131   -0.87 9  149 259 
 PTB  HN ES        429 22.55                             131   -0.86 9  149 259 
 PTB  HZ I         429 25.94         5.0 0.12                           149 259 
 SPBC HZ EP        429  3.94                             128   -0.17 9  164 219 
 SPBC HN ES        429 26.09                             128   -0.02 9  164 219 
 SPBC HZ I         429 29.87         5.6 0.12                           164 219 
 ZAR  HZ EP        429  8.98                             121    0.81 8  205 292 
 ZAR  HN ES        429 33.00                             121   -0.33 8  205 292 
 ZAR  HZ I         429 36.05         5.0 0.11                           205 292 
 NOR  HZ EP        429 11.57                             117    0.09 8  236 235 
 NOR  HZ I         429 45.10         2.3 0.24                           236 235 
 HEL  HN ES        429 47.60                             114    0.28 8  274 256 
 GUY2CHZ EP   4    429 21.47                             111    2.04 0  302 235 
 GUY2CHN ES        429 54.32                             111    0.95 7  302 235 
 GUY2CHZ I         430  3.46         1.8 0.48                           302 235 
                                                                                
