 2011 1221 0343 12.3 L   6.780 -73.193143.1  RSN  6 0.3 1.7LRSN                1
 GAP=173        0.65       6.6     6.7  6.8  0.1405E+02  0.1073E+02  0.2822E+01E
 Epicentro: VILLANUEVA - SANTANDER                                             3
 ACTION:UPD 12-07-13 16:17 OP:ep   STATUS:               ID:20111221034312 L   I
 2011-12-21-0340-00M.COL___189                                                 6
 STAT SP IPHASW D HRMM SECON CODA AMPLIT PERI AZIMU VELO AIN AR TRES W  DIS CAZ7
 BAR2 SZ EP        343 31.45                             172   -0.0610 20.8 177 
 BAR2 SZ ES   1    343 46.18                             172   -0.35 7 20.8 177 
 BAR2 SZ I         343 50.81         9.4 0.29                          20.8 177 
 GIR2 SZ EP   1    343 31.49                             166   -0.16 7 33.0 360 
 BRR  HZ EP        343 33.28                             153    0.3610 67.8 302 
 BRR  HE ES   2    343 49.54                             153    0.50 5 67.8 302 
 BRR  HE I         343 55.01        30.9 0.15                          67.8 302 
 RUS  HZ EP   1    343 35.93                             144    0.31 7 98.9 173 
 RUS  HE ES   2    343 53.90                             144    0.06 5 98.9 173 
 RUS  HZ I         343 56.13         5.0 0.40                          98.9 173 
 PTB  HZ EP        343 38.04                             133   -0.46 9  142 259 
 PTB  HE ES   2    343 59.12                             133    0.15 5  142 259 
 CHI  HZ EP   2    343 49.69                             117    0.26 4  245 194 
 CHI  HZ I         344 23.61         2.0 0.67                           245 194 
                                                                                
