 2011 1021 0510 29.5 L   6.726 -73.451113.7  RSN  5 0.3 1.6LRSN                1
 GAP=143        0.47       7.8     8.1  6.8  0.5297E+02  0.2276E+02  0.2138E+02E
 Epicentro: EL CARMEN DE CHUCURI - SANTANDER                                   3
 ACTION:UPD 12-07-13 16:05 OP:ep   STATUS:               ID:20111021051029 L   I
 2011-10-21-0510-06S.COL___171                                                 6
 STAT SP IPHASW D HRMM SECON CODA AMPLIT PERI AZIMU VELO AIN AR TRES W  DIS CAZ7
 BAR2 SZ IP        510 45.79                             162    0.2410 33.2 116 
 BAR2 SZ ES   2    510 58.26                             162    0.16 5 33.2 116 
 BAR2 SZ I         510 58.89        18.6 0.08                          33.2 116 
 GIR2 SZ EP   3    510 46.09                             154    0.02 2 48.3  36 
 BRR  HZ EP   2    510 45.32                             154   -0.69 5 51.1 326 
 BRR  HE ES   1    510 58.80                             154   -0.12 7 51.1 326 
 BRR  HZ I         510 59.48        14.2 0.15                          51.1 326 
 RUS  HZ EP   2    510 49.97                             136   -0.25 5  101 156 
 RUS  HN ES   2    511  6.27                             136   -0.15 5  101 156 
 RUS  HZ I         511  8.19         4.2 0.30                           101 156 
 ZAR  HZ EP   2    510 57.24                             118    0.16 4  177 299 
 ZAR  HE ES   2    511 18.75                             118    0.12 4  177 299 
 ZAR  HZ I         511 21.84         3.8 0.37                           177 299 
                                                                                
