 2011 1221 0452  6.4 L   6.751 -73.147148.0  RSN  7 0.4 1.7LRSN                1
 GAP=139        0.98       4.9     7.1  6.9  0.3571E+01 -0.1676E+01  0.9690E+00E
 Epicentro: LOS SANTOS - SANTANDER                                             3
 ACTION:UPD 12-07-13 16:17 OP:ep   STATUS:               ID:20111221045206 L   I
 2011-12-21-0450-00M.COL___189                                                 6
 STAT SP IPHASW D HRMM SECON CODA AMPLIT PERI AZIMU VELO AIN AR TRES W  DIS CAZ7
 BAR2 SZ EP        452 25.96                             173   -0.2810 18.0 193 
 BAR2 SZ ES        452 41.28                             173   -0.4010 18.0 193 
 BAR2 SZ I         452 44.54        10.0 0.48                          18.0 193 
 BRR  HZ EP        452 27.99                             152    0.0210 73.9 302 
 BRR  HZ I         452 28.39        15.7 0.12                          73.9 302 
 BRR  HN ES        452 45.46                             152    0.6910 73.9 302 
 PAM  SZ EP   1    452 28.96                             150   -0.18 7 81.7  37 
 RUS  HZ EP   1    452 30.72                             146    0.69 7 95.2 176 
 RUS  HN ES   1    452 48.46                             146    0.03 7 95.2 176 
 RUS  HZ I         452 51.53         4.1 0.35                          95.2 176 
 PTB  HZ EP        452 32.84                             133   -0.65 9  147 261 
 PTB  HE ES   1    452 54.35                             133   -0.24 7  147 261 
 OCA  SZ EP   1    452 35.35                             129   -0.07 7  166 353 
 OCA  SZ ES   1    452 58.14                             129    0.11 7  166 353 
 OCA  SZ I         453  3.83         6.8 0.34                           166 353 
 CHI  HZ EP        452 44.22                             118    0.53 8  243 195 
 CHI  HZ I         453 21.71         2.2 0.47                           243 195 
                                                                                
