 2012 1121 0903  5.5 L   6.759 -73.169144.0  RSN 10 0.2 2.1LRSN                1
 GAP= 71        0.50       2.7     2.3  3.6 -0.2978E+00  0.1923E+01  0.1706E+01E
 Epicentro: LOS SANTOS - SANTANDER                                             3
 ACTION:UPD 12-12-05 15:34 OP:}ep  STATUS:               ID:20121121090305 L   I
 2012-11-21-0900-00M.COL___234                                                 6
 STAT SP IPHASW D HRMM SECON CODA AMPLIT PERI AZIMU VELO AIN AR TRES W  DIS CAZ7
 BAR2 SZ EP        9 3 24.85                             172    0.0310 18.5 185 
 BAR2 SZ ES   1    9 3 40.29                             172    0.39 7 18.5 185 
 BAR2 SZ I         9 3 41.01        30.1 0.19                          18.5 185 
 GIR2 SZ EP        9 3 25.06                             165   -0.0210 35.5 356 
 PAM  SZ EP        9 3 27.88                             149    0.0410 82.5  39 
 PAM  SZ I         9 3 28.22        36.4 0.19                          82.5  39 
 PAM  SN ES        9 3 45.26                             149   -0.0110 82.5  39 
 RUS  HZ EP        9 3 28.69                             145   -0.0710 96.3 174 
 RUS  HE ES   1    9 3 46.81                             145   -0.10 7 96.3 174 
 RUS  HE I         9 3 48.48        32.4 0.44                          96.3 174 
 PTB  HZ EP        9 3 31.66                             132   -0.35 9  144 260 
 PTB  HE ES   1    9 3 52.49                             132   -0.20 7  144 260 
 PTB  HZ I         9 3 56.22        10.9 0.11                           144 260 
 TAM  HZ EP        9 3 33.06                             130   -0.11 9  157 103 
 ZAR  HZ EP   1    9 3 37.74                             122   -0.02 6  203 294 
 ZAR  HN ES   1    9 4  3.00                             122    0.08 6  203 294 
 ZAR  HZ I         9 4  9.27        11.5 0.38                           203 294 
 CHI  HZ EP   1    9 3 42.69                             117    0.14 6  244 195 
 HEL  HZ EP   1    9 3 45.94                             115    0.72 6  268 257 
 HEL  HZ I         9 4 25.07         4.9 0.36                           268 257 
 PRA  HZ EP   1    9 3 58.66                             106    0.32 4  387 210 
 PRA  HZ I         9 4 46.93         3.5 0.27                           387 210 
                                                                                
