 2017 1121 0919 13.1 L   6.871 -73.124146.0  RSN 18 0.8 2.2LRSN                1
 GAP= 66        1.68       3.9     4.4  8.3 -0.4128E+00  0.8484E+01  0.5725E+01E
 Epicentro: LOS SANTOS - SANTANDER                                             3
 ACTION:UPD 17-12-12 19:58 OP:rebc STATUS:               ID:20171121091913 L   I
 OLDACT:UP  17-11-21 15:32 OP:dani STATUS:               ID:20171121091213d    3
 OLDACT:UP  17-11-21 15:32 OP:dani STATUS:               ID:20171121091213d    3
 OLDACT:UP  17-11-21 15:31 OP:dani STATUS:               ID:20171121091213d    3
 OLDACT:UP  17-11-21 15:08 OP:dani STATUS:               ID:20171121091212     3
 OLDACT:REG 17-11-21 12:56 OP:edw  STATUS:               ID:20171121091212     3
 2017-11-21-0918-00M.COL___468                                                 6
 STAT SP IPHASW D HRMM SECON CODA AMPLIT PERI AZIMU VELO AIN AR TRES W  DIS CAZ7
 BAR2 EZ EP        919 33.00                             167    0.0310 31.5 192 
 BAR2 EZ ES        919 48.66                             167    0.2110 31.5 192 
 BAR2 EZ I         919 53.90        21.3 0.38            165           31.5 192 
 PAM  EZ EP        919 35.44                             153    0.5110 69.9  42 
 PAM  EE ES        919 52.37                             153    0.4310 69.9  42 
 PAM  EZ I         919 53.07        23.2 0.42            152           69.9  42 
 PTB  HZ EP        919 39.64                             131   -0.84 9  152 256 
 PTB  HN ES        920  0.99                             131   -0.82 9  152 256 
 PTB  HZ I         920  3.50        27.3 0.16            128            152 256 
 OCA  HZ EP        919 40.78                             131    0.03 9  153 352 
 OCA  HN ES        920  2.24                             131   -0.07 9  153 352 
 OCA  HZ I         920  7.17        57.3 0.30            129            153 352 
 TAM  HZ EP        919 41.26                             130    0.45 9  155 108 
 TAM  HZ I         920  1.85        12.8 0.24            128            155 108 
 TAM  HE ES        920  2.80                             130    0.39 9  155 108 
 SPBC HZ EP        919 42.39                             128    0.02 9  171 218 
 SPBC HN ES        920  4.33                             128   -0.85 9  171 218 
 SPBC HZ I         920 11.56        21.6 0.56            125            171 218 
 YPLC HZ EP        919 43.55                             126    0.04 9  183 153 
 YPLC HE ES   4    920  3.16                             126   -4.05 0  183 153 
 YPLC HZ I         920  9.76        12.2 0.26            123            183 153 
 ZAR  HZ EP        919 45.41                             123   -0.11 9  203 290 
 ZAR  HN ES        920 11.41                             123    0.62 9  203 290 
 ZAR  HZ I         920 16.53        44.8 0.32            120            203 290 
 NOR  HZ EP        919 49.18                             118   -0.39 8  241 233 
 NOR  HE ES        920 17.69                             118   -0.31 8  241 233 
 NOR  HZ I         920 22.49        10.3 0.22            115            241 233 
 CHI  HZ EP        919 51.96                             116    0.23 8  257 195 
 CHI  HN ES        920 21.23                             116   -0.61 8  257 195 
 CHI  HZ I         920 25.96         4.5 0.22            114            257 195 
 ROSC BZ EP        919 53.81                             116    1.68 8  261 211 
 ROSC BN ES        920 24.07                             116    1.52 8  261 211 
 ROSC BZ I         920 31.41        11.8 0.40            113            261 211 
 HEL  HZ EP        919 54.28                             114    0.45 7  276 254 
 HEL  HZ I         920 31.70         9.9 0.34            112            276 254 
 DRL03HZ EP        919 53.73                             114   -0.18 7  281 352 
 DRL03HN ES        920 25.09                             114   -0.62 7  281 352 
 URE  HZ EP        919 53.02                             114   -1.11 7  283 290 
 URE  HN ES        920 25.74                             114   -0.38 7  283 290 
 URE  HZ I         920 35.93        13.4 0.64            111            283 290 
 GUY2CHZ EP        919 57.97                             112    0.49 7  308 234 
 GUY2CHZ I         920 41.48        12.5 0.68                           308 234 
 PTGC HZ EP        919 56.70                             111   -1.03 7  315 160 
 PTGC HE ES        920 29.93                             111   -2.59 7  315 160 
 PTGC HZ I         920 36.34         5.6 0.24            109            315 160 
 CBOC HZ EP        920  1.44                             110    0.85 7  338 251 
 CBOC HN ES        920 37.78                             110    0.17 7  338 251 
 CBOC HZ I         920 47.85         3.1 0.50            107            338 251 
 PRA  HZ EP        920  8.28                             106    0.69 6  400 209 
 PRA  HE ES        920 51.44                             106    1.37 6  400 209 
 PRA  HZ I         920 54.19         4.0 0.68            104            400 209 
                                                                                
