 2014  621 0235 52.2 L   6.826 -73.139146.8  RSN  8 0.4 1.9LRSN                1
 GAP=184        1.06       4.1     5.6  6.7 -0.3140E+01  0.9647E+01  0.4063E+01E
 Epicentro: LOS SANTOS - SANTANDER                                             3
 ACTION:UPD 14-07-01 22:55 OP:nd   STATUS:               ID:20140621023552 L   I
 OLDACT:REG 14-06-21 13:29 OP:carl STATUS:               ID:20140621022814     3
 2014-06-21-0228-14M.COL___256                                                 6
 STAT SP IPHASW D HRMM SECON CODA AMPLIT PERI AZIMU VELO AIN AR TRES W  DIS CAZ7
 BAR2 SZ EP        236 12.27                             169    0.3110 26.2 191 
 BAR2 SZ ES        236 27.44                             169    0.0210 26.2 191 
 BAR2 SZ I         236 28.61        13.4 0.38            168           26.2 191 
 BRR  HZ EP        236 14.17                             153    0.8010 70.6 296 
 BRR  HN ES        236 30.26                             153    0.3310 70.6 296 
 BRR  HZ I         236 36.53         9.3 0.14            153           70.6 296 
 RUS  HZ EP        236 15.94                             143   -0.2610  103 177 
 RUS  HN ES        236 34.96                             143   -0.0010  103 177 
 RUS  HZ I         236 37.72         7.8 0.34            146            103 177 
 PTB  HZ EP        236 18.85                             132   -0.47 9  149 258 
 PTB  HN ES        236 40.32                             132   -0.19 9  149 258 
 PTB  HZ I         236 42.55        10.1 0.14            133            149 258 
 OCA  HN ES        236 41.67                             130   -0.56 9  158 353 
 SPBC HZ EP        236 21.06                             129    0.08 9  166 219 
 SPBC HN ES        236 43.11                             129   -0.36 9  166 219 
 SPBC HZ I         236 48.29        13.9 0.20            131            166 219 
 NOR  HZ EP        236 27.61                             118   -0.57 8  237 234 
 NOR  HN ES        236 55.92                             118   -0.36 8  237 234 
 NOR  HZ I         237  0.54         6.6 0.20            121            237 234 
 GUY2CHZ EP        236 36.70                             112    0.64 7  303 234 
 GUY2CHN ES        237 11.02                             112    0.71 7  303 234 
 GUY2CHZ I         237 18.91         5.6 0.80                           303 234 
                                                                                
