 2016  221 0828 57.3 L   6.797 -73.158147.1  RSN  8 0.3 1.4LRSN                1
 GAP=135        0.83       3.1     3.6  5.3 -0.2458E+00  0.3048E+01  0.3930E+01E
 Epicentro: LOS SANTOS - SANTANDER                                             3
 ACTION:UPD 16-03-04 21:28 OP:rebc STATUS:               ID:20160221082857 L   I
 OLDACT:REG 16-02-21 12:42 OP:drio STATUS:               ID:20160221082747     3
 2016-02-21-0827-47M.COL___309                                                 6
 STAT SP IPHASW D HRMM SECON CODA AMPLIT PERI AZIMU VELO AIN AR TRES W  DIS CAZ7
 BAR2 EZ EP        829 17.10                             171    0.0110 22.8 187 
 BAR2 EZ ES        829 32.39                             171   -0.1210 22.8 187 
 BAR2 EZ I         829 33.37        11.1 0.26            171           22.8 187 
 BRR  HZ EP        829 18.71                             153    0.1710 70.2 299 
 BRR  HN ES        829 35.96                             153    0.8510 70.2 299 
 PAM  EZ EP        829 19.89                             151    0.1610 78.5  40 
 PAM  EN ES        829 36.79                             151   -0.4310 78.5  40 
 PAM  EZ I         829 44.46         2.3 0.44            153           78.5  40 
 RUS  HZ EP        829 20.99                             144   -0.1910  100 175 
 RUS  HE ES        829 39.81                             144    0.0210  100 175 
 RUS  HZ I         829 41.00         4.0 0.26            146            100 175 
 PTB  HZ EP        829 24.32                             133    0.06 9  146 259 
 PTB  HN ES        829 44.78                             133   -0.50 9  146 259 
 PTB  HZ I         829 50.83         2.7 0.18            135            146 259 
 SPBC HZ EP        829 25.78                             129   -0.03 9  162 219 
 SPBC HE ES        829 48.03                             129   -0.01 9  162 219 
 SPBC HZ I         829 52.77         5.9 0.20            132            162 219 
 ZAR  HN ES        829 54.64                             123   -0.37 9  203 292 
 CHI  HZ EP        829 35.23                             117    0.22 8  248 195 
 CHI  HE ES        830  4.55                             117    0.13 8  248 195 
 CHI  HZ I         830  7.90         1.7 0.70            120            248 195 
                                                                                
