 2016  321 0332 41.0 L   6.798 -73.130148.4  RSN 24 0.5 2.4LRSN                1
 GAP= 54        1.11       2.8     2.6  4.8 -0.1632E+01  0.3098E+01 -0.5133E-01E
 Epicentro: LOS SANTOS - SANTANDER                                             3
 ACTION:UPD 16-05-13 21:25 OP:cam  STATUS:               ID:20160321033241 L   I
 OLDACT:REG 16-03-21 12:37 OP:ak   STATUS:               ID:20160321032742     3
 2016-03-21-0327-42M.COL___283                                                 6
 STAT SP IPHASW D HRMM SECON CODA AMPLIT PERI AZIMU VELO AIN AR TRES W  DIS CAZ7
 BAR2 EZ IP     C  333  1.18                             171    0.2110 23.5 194 
 BAR2 EZ ES        333 16.54                             171    0.0110 23.5 194 
 BAR2 EZ I         333 18.03        75.4 0.18            168           23.5 194 
 PAM  EZ EP        333  4.16                             152    0.7010 76.4  38 
 PAM  EE ES        333 21.48                             152    0.5210 76.4  38 
 PAM  EZ I         333 24.46        25.2 0.54            156           76.4  38 
 RUS  HZ EP        333  4.96                             144   -0.0510  100 177 
 RUS  HN ES        333 23.75                             144    0.0310  100 177 
 RUS  HZ I         333 25.15        35.7 0.24            146            100 177 
 PTB  HZ EP        333  7.59                             132   -0.76 9  149 259 
 PTB  HN ES        333 28.88                             132   -0.79 9  149 259 
 PTB  HZ I         333 34.89        42.1 0.12            132            149 259 
 TAM  HZ IP     D  333  9.41                             131    0.67 9  153 105 
 TAM  HN ES        333 29.67                             131   -0.70 9  153 105 
 TAM  HZ I         333 30.19        21.7 0.26            136            153 105 
 OCA  HZ EP        333 10.02                             130    0.45 9  161 353 
 OCA  HN ES        333 31.76                             130   -0.08 9  161 353 
 OCA  HZ I         333 37.18        45.3 0.16            132            161 353 
 SPBC HZ EP        333  9.94                             129    0.13 9  164 220 
 SPBC HN ES        333 32.31                             129    0.04 9  164 220 
 SPBC HZ I         333 38.91        74.5 0.32            130            164 220 
 ZAR  HZ EP        333 13.87                             123    0.06 8  206 292 
 ZAR  HN ES        333 39.79                             123    0.41 8  206 292 
 ZAR  HZ I         333 47.73        33.0 0.41            123            206 292 
 NOR  HZ EP        333 16.86                             119   -0.18 8  236 235 
 NOR  HN ES        333 45.01                             119   -0.13 8  236 235 
 NOR  HZ I         333 51.84        33.6 0.22            119            236 235 
 CHI  HZ EP        333 18.85                             118   -0.04 8  249 196 
 CHI  HN ES        333 47.76                             118   -0.67 8  249 196 
 CHI  HZ I         333 55.19         7.6 0.26            119            249 196 
 ROSC BZ EP   9    333 20.90                             117    1.54 0  253 211 
 ROSC BN ES        333 51.35                                    0.54 8  253 211 
 ROSC BZ I         333 58.31        23.4 0.35            118            253 211 
 HEL  HZ EP        333 22.02                             115    0.48 8  274 256 
 HEL  HN ES        333 53.16                             115    0.00 8  274 256 
 HEL  HZ I         334  0.21        17.6 0.36            116            274 256 
 URE  HZ EP        333 21.95                             114   -0.45 7  286 292 
 URE  HE ES        333 53.92                             114   -0.76 7  286 292 
 URE  HZ I         334  4.21        18.7 0.22            115            286 292 
 SOCV BZ EP        333 23.08                             113   -0.95 7  300  57 
 SOCV BN ES   4    333 55.19                             113   -2.39 0  300  57 
 GUY2CHZ EP        333 25.32                             113    0.43 7  303 235 
 GUY2CHN ES        333 59.84                             113    0.72 7  303 235 
 GUY2CHZ I         334  7.28        22.4 0.26                           303 235 
 PTGC HZ EP   1    333 23.93                             112   -0.97 5  308 159 
 PTGC HE ES   4    333 57.45                             112   -1.68 0  308 159 
 ELA  HZ EP   4    333 31.43                             111    3.32 0  330 230 
 ELA  HN ES        334  4.30                             111   -0.55 7  330 230 
 ELA  HZ I         334 16.34        17.3 0.44            112            330 230 
 CBOC HZ EP        333 28.54                             110    0.32 7  335 252 
 CBOC HN ES        334  5.34                             110    0.29 7  335 252 
 CBOC HZ I         334 16.98         5.4 0.30            111            335 252 
 MON  HZ EP   9    333 28.05                             109   -2.24 0  355 308 
 MON  HN ES        334  5.64                                   -0.84 6  355 308 
 MON  HZ I         334  8.64         4.2 0.42            110            355 308 
 ANIL HZ EP        333 31.77                             109    0.72 6  358 225 
 ANIL HN ES   4    334 12.51                             109    2.44 0  358 225 
 ANIL HZ I         334 17.48        28.3 0.40            110            358 225 
 SDV  BZ EP        333 30.91                             109   -0.11 6  359  50 
 SDV  BE ES   4    334  8.39                             109   -1.63 0  359  50 
 SDV  BZ I         334 10.46         2.9 0.40            111            359  50 
 ORTC HZ EP        333 35.71                             107    0.58 6  396 216 
 ORTC HN ES        334 17.96                             107    0.62 6  396 216 
 ORTC HZ I         334 23.76         5.8 0.27            108            396 216 
 PAL  HZ EP        333 36.78                             106    0.35 6  407 239 
 PAL  HE ES        334 19.26                             106   -0.39 6  407 239 
 PAL  HZ I         334 25.64         5.9 0.36            107            407 239 
 SJC  HZ EP        333 35.82                             106   -0.97 6  410 327 
 SJC  HN ES   4    334 16.81                             106   -3.49 0  410 327 
 SJC  HZ I         334 21.66         3.7 0.56            107            410 327 
                                                                                
