 2016  121 0441 26.8 L   6.602 -73.568106.6  RSN 13 0.5 1.6LRSN                1
 GAP= 54        1.20       3.2     3.5  7.2 -0.3928E+01  0.9663E+01 -0.4775E+01E
 Epicentro: EL CARMEN - SANTANDER                                              3
 ACTION:UPD 16-03-09 23:27 OP:cam  STATUS:               ID:20160121044126 L   I
 OLDACT:REG 16-01-21 13:35 OP:ar   STATUS:               ID:20160121043742     3
 2016-01-21-0437-42M.COL___321                                                 6
 STAT SP IPHASW D HRMM SECON CODA AMPLIT PERI AZIMU VELO AIN AR TRES W  DIS CAZ7
 BAR2 EZ EP     C  441 42.72                             157    0.2710 42.6  91 
 BAR2 EZ ES        441 55.39                             157    0.7010 42.6  91 
 RUS  HZ EP        441 45.64                             135   -0.7910 95.0 146 
 RUS  HN ES        442  1.54                             135   -0.2310 95.0 146 
 RUS  HZ I         442  2.89         5.7 0.34            137           95.0 146 
 PTB  HZ EP        441 45.56                             134   -0.5310 98.5 266 
 PTB  HN ES        442  0.55                             134   -0.6010 98.5 266 
 PTB  HZ I         442  1.91         6.2 0.10            132           98.5 266 
 SPBC HZ EP        441 47.76                             128   -0.3110  119 208 
 SPBC HN ES        442  4.36                             128   -0.3310  119 208 
 SPBC HZ I         442  7.93        13.3 0.06            128            119 208 
 PAM  EZ EP        441 49.16                             126   -0.1210  126  50 
 PAM  EN ES        442  7.03                             126    0.1910  126  50 
 PAM  EZ I         442 10.58         3.5 0.23            126            126  50 
 ZAR  HZ EP        441 53.72                             117    0.13 9  173 305 
 ZAR  HE ES   4    442 17.71                             117    3.20 0  173 305 
 ZAR  HZ I         442 19.59         7.1 0.15            115            173 305 
 OCA  HZ EP        441 54.26                             115   -0.60 9  183   9 
 OCA  HN ES        442 17.03                             115    0.27 9  183   9 
 OCA  HZ I         442 26.44        14.7 0.26            114            183   9 
 NOR  HZ EP        441 54.90                             115    0.05 9  184 232 
 NOR  HN ES        442 16.68                             115   -0.08 9  184 232 
 NOR  HZ I         442 20.73         5.6 0.18            114            184 232 
 CHI  HZ EP        441 59.12                             111   -0.08 8  219 185 
 CHI  HN ES        442 25.47                             111    0.97 8  219 185 
 CHI  HZ I         442 33.85         1.2 0.36            111            219 185 
 HEL  HE ES        442 25.80                             110    0.82 8  222 258 
 HEL  HZ I         442 33.57         2.9 0.42            110            222 258 
 SML  HZ EP        442  2.46                             107    0.25 8  249 347 
 SML  HN ES   4    442 32.23                             107    2.37 0  249 347 
 SML  HZ I         442 35.04         8.9 0.09            107            249 347 
 GUY2CHZ EP        442  3.70                             107    0.75 8  251 233 
 GUY2CHE ES   4    442 33.29                             107    2.13 0  251 233 
 GUY2CHZ I         442 37.41         3.1 0.26                           251 233 
 CBOC HZ EP   4    442  8.04                             105    1.73 0  283 253 
 CBOC HN ES        442 37.36                             105    0.21 7  283 253 
 CBOC HZ I         442 41.34         1.0 0.18            104            283 253 
                                                                                
