 2011  221 0829 29.1 L   6.797 -73.156139.2  RSN  6 0.2 1.8LRSN                1
 GAP=158        0.58       3.8    15.4  5.0 -0.3794E+02  0.2604E+02 -0.6432E+01E
 Epicentro: LOS SANTOS - SANTANDER                                             3
 ACTION:UP  11-03-28 15:10 OP:jfem STATUS:               ID:20110221082929 L   I
 2011-02-21-0827-24S.COL___137                                                 6
 STAT SP IPHASW D HRMM SECON CODA AMPLIT PERI AZIMU VELO SNR AR TRES W  DIS CAZ7
 BTL  SZ EP        829 48.19                             172     0.310   18 318 
 BAR2 SZ EP        829 48.01                             170     0.010   23 188 
 BAR2 SZ ES        830  2.59                             170    -0.110   23 188 
 BAR2 SZ I         830  4.28        20.0 0.37                            23 188 
 RUS  HZ EP   2    829 52.46                             143     0.2 5  100 175 
 RUS  HN ES   1    830 10.03                             143    -0.2 7  100 175 
 RUS  HZ I         830 14.46        11.3 0.38                           100 175 
 GRA  SZ EP        829 53.73                             135    -0.110  126  18 
 GRA  SZ ES   1    830 13.34                             135     0.2 7  126  18 
 GRA  SZ I         830 16.50         7.0 0.31                           126  18 
 OCA  SZ EP   1    829 56.56                             128    -0.4 7  161 354 
 OCA  SZ I         830 23.79         8.2 0.37                           161 354 
 CHI  HZ EP        830  6.46                             116     0.0 8  248 195 
                                                                                
