 2017  521 0844 45.5 L   7.483 -73.181135.4  RSN 12 0.4 2.0LRSN                1
 GAP=165        0.80       4.0     4.7  6.0  0.9862E+01 -0.4132E+01 -0.1373E+01E
 Epicentro: EL PLAYON - SANTANDER                                              3
 ACTION:UPD 17-06-16 13:37 OP:jn   STATUS:               ID:20170521084445 L   I
 OLDACT:UP  17-05-21 16:35 OP:edw  STATUS:               ID:20170521083743     3
 OLDACT:UP  17-05-21 16:34 OP:edw  STATUS:               ID:20170521083743     3
 OLDACT:REG 17-05-21 14:58 OP:edw  STATUS:               ID:20170521083743     3
 2017-05-21-0838-00M.COL___355                                                 6
 STAT SP IPHASW D HRMM SECON CODA AMPLIT PERI AZIMU VELO AIN AR TRES W  DIS CAZ7
 BRR  HZ IP     D  845  5.59                             150   -0.0010 71.9 235 
 BRR  HN ES        845 20.93                             150   -0.3310 71.9 235 
 BRR  HZ I         845 21.61        17.9 0.28            139           71.9 235 
 PTB  HZ EP        845 14.12                             124   -0.23 9  175 234 
 PTB  HN ES        845 36.62                             124   -0.22 9  175 234 
 PTB  HZ I         845 38.44        14.5 0.36            117            175 234 
 RUS  HZ EP        845 14.54                             124   -0.52 9  176 176 
 RUS  HN ES        845 38.66                             124    0.56 9  176 176 
 RUS  HZ I         845 42.02         2.9 0.22            119            176 176 
 ZAR  HZ EP        845 15.68                             123    0.35 9  185 270 
 ZAR  HN ES        845 39.26                             123    0.66 9  185 270 
 ZAR  HZ I         845 42.19        14.4 0.48            117            185 270 
 SPBC HZ EP        845 20.09                             117    0.42 8  225 206 
 SPBC HN ES        845 46.15                             117   -0.16 8  225 206 
 SPBC HZ I         845 50.48        10.5 0.34            112            225 206 
 LL6C HN EP   9    845  3.62                             114   -18.6 0  249 358 
 LL6C HN ES        845 32.19                                   -0.05 8  249 358 
 NOR  HZ EP        845 26.26                             111    0.24 7  283 221 
 NOR  HN ES        845 57.45                             111   -0.16 7  283 221 
 NOR  HZ I         846  2.80         7.3 0.38            107            283 221 
 HEL  HZ EP   4    845 29.51                             110    1.55 0  296 241 
 HEL  HN ES   4    846  4.22                             110    3.15 0  296 241 
 HEL  HZ I         846  7.25         3.6 0.40            106            296 241 
 ROSC BN ES   4    845 57.50                             109   -8.12 0  318 203 
 DBB  EN ES   4    846  5.80                             107   -3.29 0  338 261 
 SJC  HZ EP   2    845 33.04                             107   -0.27 3  346 321 
 SJC  HN ES   2    846 10.51                             107   -0.09 3  346 321 
 APAC HN ES        846 16.35                             105   -0.75 6  378 277 
 PTGC HN ES        846 17.61                             105   -0.20 6  381 162 
 ORTC HZ EP        845 46.51                             102    0.16 5  457 210 
 ORTC HN ES   4    846 35.06                             102    1.25 0  457 210 
 ORTC HZ I         846 47.10         2.2 0.56             99            457 210 
                                                                                
