 2012  521 0636 58.0 L   6.794 -73.131148.0  RSN 14 0.4 3.3LRSN                1
 GAP=139        0.97       3.4     4.6  6.0 -0.1219E+01  0.8361E+01  0.6936E+01E
 Epicentro: LOS SANTOS - SANTANDER                                             3
 ACTION:UP  12-07-05 12:06 OP:pat  STATUS:               ID:20120521063658 L   I
 2012-05-21-0620-39M.COL___187                                                 6
 STAT SP IPHASW D HRMM SECON CODA AMPLIT PERI AZIMU VELO SNR AR TRES W  DIS CAZ7
 BAR2 SZ IP        637 18.05                             171     0.210   23 194 
 BAR2 SZ ES   1    637 32.70                             171    -0.7 7   23 194 
 BAR2 SZ I         637 34.33       443.2 0.27                            23 194 
 BRR  HZ IP     C  637 19.85                             152     0.410   73 298 
 BRR  HE ES        637 36.88                             152     0.710   73 298 
 BRR  HZ I         637 39.06       284.4 0.14                            73 298 
 PAM  SZ EP        637 20.87                             151     0.510   77  38 
 PAM  SE ES        637 37.68                             151    -0.210   77  38 
 RUS  HZ EP        637 22.05                             144     0.210  100 177 
 RUS  HN ES   1    637 40.19                             144    -0.3 7  100 177 
 RUS  HZ I         637 42.00       342.3 0.29                           100 177 
 PTB  HZ EP        637 24.75                             132    -0.5 9  149 259 
 OCA  HZ EP   1    637 26.14                             130    -0.4 7  161 353 
 OCA  HN ES   1    637 47.89                             130    -0.9 7  161 353 
 OCA  HZ I         637 52.76       539.0 0.46                           161 353 
 ZAR  HZ EP   1    637 30.48                             123    -0.2 6  206 292 
 ZAR  HE ES   1    637 56.03                             123    -0.3 6  206 292 
 ZAR  HZ I         638  3.23       144.7 0.37                           206 292 
 NOR  SZ EP   1    637 34.04                             119     0.1 6  236 235 
 NOR  SE ES   1    638  2.25                             119     0.3 6  236 235 
 CHI  HZ EP        637 36.11                             118     0.4 8  248 196 
 CHI  HE ES   1    638  4.89                             118    -0.4 6  248 196 
 CHI  HZ I         638  8.97       160.3 0.58                           248 196 
 HEL  HZ EP   1    637 38.54                             115     0.1 6  273 256 
 HEL  HN ES   1    638 10.03                             115     0.0 6  273 256 
 HEL  HZ I         638 16.37       118.3 0.23                           273 256 
 VIL  SZ EP   1    637 41.47                             112     0.0 5  303 192 
 VIL  SN ES   1    638 15.26                             112    -0.1 5  303 192 
 VIL  SZ I         638 18.90       112.4 0.43                           303 192 
 RREF HZ EP   1    637 44.19                             111    -0.1 5  323 230 
 RREF HE ES   2    638 20.76                             111     0.3 3  323 230 
 RREF HZ I         638 30.39       178.5 0.45                           323 230 
 PRA  HZ EP   1    637 51.44                             107    -0.1 4  392 210 
 PRA  HN ES   1    638 32.92                             107    -0.5 4  392 210 
 YOT  HZ EP        638  0.48                             103    -0.7 5  473 229 
 YOT  HZ I         638  4.83        19.1 0.42                           473 229 
                                                                                
