 2011  921 0854 13.1 L   6.504 -73.557109.2  RSN 10 0.3 1.7LRSN                1
 GAP= 65        0.61       2.2     2.8  4.6  0.4945E+00  0.6539E+01  0.1890E+01E
 Epicentro: EL CARMEN DE CHUCURI - SANTANDER                                   3
 ACTION:UPD 12-07-13 15:58 OP:ep   STATUS:               ID:20110921085413 L   I
 2011-09-21-0852-11S.COL___165                                                 6
 STAT SP IPHASW D HRMM SECON CODA AMPLIT PERI AZIMU VELO AIN AR TRES W  DIS CAZ7
 BAR2 SZ EP        854 29.26                             157    0.2210 42.6  77 
 BAR2 SZ ES        854 41.39                             157   -0.1110 42.6  77 
 BTL  SZ EP        854 29.79                             151    0.0410 55.9  35 
 BRR  HZ EP        854 30.10                             145   -0.1410 68.8 346 
 BRR  HZ I         854 30.42        19.9 0.12                          68.8 346 
 BRR  HE ES   1    854 43.68                             145    0.04 7 68.8 346 
 RUS  HZ EP        854 32.10                             139   -0.0810 85.6 142 
 RUS  HE ES   1    854 47.16                             139    0.06 7 85.6 142 
 RUS  HZ I         854 49.33         5.6 0.34                          85.6 142 
 NOR  SZ EP   1    854 40.88                             117    0.21 7  179 234 
 NOR  SE ES   1    855  1.93                             117   -0.27 7  179 234 
 ZAR  HZ EP   1    854 41.02                             116    0.20 7  181 307 
 ZAR  HE ES   1    855  3.00                             116    0.53 7  181 307 
 ZAR  HZ I         855  6.09        10.5 0.37                           181 307 
 OCA  SZ EP        854 42.08                             114   -0.37 9  194   8 
 OCA  SZ I         855 10.79        13.8 0.50                           194   8 
 CHI  HZ EP   1    854 44.53                             113    0.12 6  208 185 
 CHI  HE ES   1    855  9.14                             113    0.28 6  208 185 
 CHI  HZ I         855 20.05         2.7 0.32                           208 185 
 HEL  HZ EP   1    854 46.38                             111    0.60 6  221 261 
 HEL  HE ES   1    855 10.64                             111   -0.67 6  221 261 
 HEL  HZ I         855 15.14         2.2 0.38                           221 261 
 PRA  HZ EP   1    854 58.92                             102   -0.65 5  342 206 
 PRA  HN ES   2    855 36.01                             102    0.17 3  342 206 
                                                                                
