 2014 1121 0055 48.4 L   5.763 -73.994111.6  RSN  8 0.4 1.9LRSN                1
 GAP=123        1.09       3.3     4.2  7.6 -0.1605E+01 -0.3474E+01  0.8279E+00E
 Epicentro: FLORIAN - SANTANDER                                                3
 ACTION:UPD 14-12-19 15:45 OP:nd   STATUS:               ID:20141121005548 L   I
 OLDACT:DUP 14-11-21 13:25 OP:fm   STATUS:               ID:20141121004750d    3
 2014-11-21-0047-49M.COL___304                                                 6
 STAT SP IPHASW D HRMM SECON CODA AMPLIT PERI AZIMU VELO AIN AR TRES W  DIS CAZ7
 SPBC HZ EP     D  056  4.03                             172    0.5210 15.0 215 
 SPBC HN ES        056 15.19                             172   -0.1210 15.0 215 
 SPBC HZ I         056 16.79        65.1 0.42            169           15.0 215 
 NOR  HZ EP        056  8.83                             135    0.5810 99.4 257 
 NOR  HN ES        056 23.98                             135    0.2410 99.4 257 
 NOR  HZ I         056 26.35        18.6 0.16            134           99.4 257 
 PTB  HZ EP        056  7.78                             135   -0.4610 99.9 329 
 PTB  HN ES        056 23.09                             135   -0.6410 99.9 329 
 PTB  HZ I         056 25.73         9.9 0.22            135           99.9 329 
 ROSC BZ EP        056  8.94                             133   -0.5510  108 199 
 ROSC BN ES        056 26.16                             133    0.2010  108 199 
 ROSC BZ I         056 29.46        10.6 0.30            132            108 199 
 BAR2 SZ EP        056 11.04                             127   -0.1210  128  44 
 BAR2 SZ ES        056 29.60                             127    0.6710  128  44 
 BAR2 SZ I         056 30.69        34.5 0.36            129            128  44 
 CHI  HZ EP        056 11.23                             127   -0.2010  129 167 
 CHI  HN ES        056 29.07                             127   -0.3410  129 167 
 CHI  HZ I         056 32.21         7.2 0.24            128            129 167 
 HEL  HN ES   1    056 38.26                             118    0.23 7  176 286 
 HEL  HZ I         056 42.77         5.2 0.44            118            176 286 
 ORTC HN ES   1    056 51.84                             109    0.32 6  248 214 
 ORTC HZ I         056 57.09         7.3 0.48            109            248 214 
                                                                                
