 2011  621 0355 31.8 L   6.532 -73.276125.5  RSN  6 0.2 1.2LRSN                1
 GAP=160        0.51       3.7     6.9  5.2  0.7092E+01 -0.6105E+01 -0.2339E+01E
 Epicentro: PALMAR - SANTANDER                                                 3
 ACTION:UP  11-07-14 19:06 OP:ep   STATUS:               ID:20110621035531 L   I
 2011-06-21-0353-56S.COL___140                                                 6
 STAT SP IPHASW D HRMM SECON CODA AMPLIT PERI AZIMU VELO SNR AR TRES W  DIS CAZ7
 BAR2 SZ EP   1    355 48.73                             174     0.0 7   12  57 
 BAR2 SZ ES   1    356  2.21                             174     0.2 7   12  57 
 BAR2 SZ I         356  3.76         5.5 0.54                            12  57 
 BTL  SZ EP   1    355 49.61                             160     0.0 7   43   1 
 GIR2 SZ EP   2    355 50.48                             152     0.1 5   61   9 
 GIR2 SZ ES   2    356  4.67                             152    -0.2 5   61   9 
 RUS  HZ EP   1    355 51.91                             148     0.3 7   74 163 
 RUS  HN ES   2    356  6.69                             148    -0.4 5   74 163 
 RUS  HZ I         356  7.12         2.4 0.58                            74 163 
 BRR  HZ EP   1    355 50.94                             146    -0.4 7   80 323 
 BRR  HE ES   1    356  6.71                             146     0.1 7   80 323 
 BRR  HZ I         356  8.94         5.7 0.43                            80 323 
 GRA  SZ EP   1    355 58.55                             125     0.2 7  158  19 
 GRA  SZ ES   2    356 18.95                             125    -0.2 5  158  19 
 GRA  SZ I         356 21.53         1.9 0.39                           158  19 
                                                                                
