 2012  221 0030  6.8 L   6.758 -73.151150.9  RSN  8 0.4 1.6LRSN                1
 GAP=138        0.82       5.2     5.5  6.2 -0.7765E+00  0.7318E+01  0.4891E+01E
 ACTION:UP  12-03-07 16:32 OP:epov STATUS:               ID:20120221003006 L   I
 2012-02-21-0030-00M.COL___191                                                 6
 STAT SP IPHASW D HRMM SECON CODA AMPLIT PERI AZIMU VELO AIN AR TRES W  DIS CAZ7
 BAR2 SZ EP   1    030 26.85                             173   -0.16 7 18.7 191 
 BAR2 SZ ES   1    030 42.45                             173   -0.29 7 18.7 191 
 BAR2 SZ I         030 43.65        17.0 0.37                          18.7 191 
 GIR2 SZ EP   1    030 27.36                             166    0.11 7 35.8 352 
 GIR2 SZ ES   1    030 43.68                             166    0.51 7 35.8 352 
 BRR  HZ EP        030 28.77                             153    0.1210 73.0 302 
 BRR  HN ES   1    030 46.37                             153    0.71 7 73.0 302 
 PAM  SZ EP   1    030 29.79                             150   -0.05 7 81.3  38 
 PAM  SN ES   1    030 47.20                             150   -0.58 7 81.3  38 
 PAM  SZ I         030 49.51         3.9 0.36                          81.3  38 
 RUS  HZ EP   1    030 30.85                             146    0.06 7 96.0 176 
 RUS  HN ES   1    030 49.47                             146    0.01 7 96.0 176 
 RUS  HZ I         030 50.75         4.4 0.24                          96.0 176 
 PTB  HZ EP   1    030 33.55                             133   -0.56 7  146 261 
 PTB  HN ES   1    030 54.76                             133   -0.62 7  146 261 
 ZAR  HZ EP   1    030 39.80                             123    0.04 6  205 293 
 CHI  HZ EP   1    030 45.07                             119    0.73 6  244 195 
                                                                                
