 2014  121 0143 16.1 L   6.785 -73.212136.4  RSN  5 0.5 1.3LRSN                1
 GAP=131        1.08       4.6     9.2 10.4  0.6373E+01  0.3835E+02 -0.1012E+02E
 Epicentro: ZAPATOCA - SANTANDER                                               3
 ACTION:UPD 14-03-13 09:57 OP:ep   STATUS:               ID:20140121014316 L   I
 OLDACT:DUP 14-01-21 07:36 OP:nd   STATUS:               ID:20140121014001d    3
 2014-01-21-0140-00M.COL___279                                                 6
 STAT SP IPHASW D HRMM SECON CODA AMPLIT PERI AZIMU VELO AIN AR TRES W  DIS CAZ7
 BAR2 SZ EP        143 34.21                             170   -0.3210 21.6 171 
 BAR2 SZ ES   2    143 48.72                             170   -0.21 5 21.6 171 
 BAR2 SZ I         143 50.64         7.4 0.40            171           21.6 171 
 BRR  HZ EP        143 36.68                             153    0.7910 65.7 303 
 BRR  HN ES   2    143 51.99                             153    0.64 5 65.7 303 
 BRR  HZ I         143 56.54         6.5 0.56            151           65.7 303 
 PAM  SZ EP        143 37.73                             147    0.0510 83.4  43 
 PAM  SE ES        143 54.69                             147    0.1510 83.4  43 
 PAM  SZ I         143 56.09         1.5 0.24            153           83.4  43 
 RUS  HZ EP        143 39.18                             142    0.3310 99.8 172 
 RUS  HN ES        143 56.07                             142   -0.5410 99.8 172 
 RUS  HZ I         143 58.45         2.1 0.36            147           99.8 172 
 SML  HZ EP        143 51.86                             115   -0.16 8  242 337 
 SML  HN ES        144 19.33                             115   -0.73 8  242 337 
 SML  HZ I         144 22.91         3.0 0.10            119            242 337 
                                                                                
