 2013 1121 0846 54.7 L   6.686 -73.201149.3  RSN  4 0.1 1.6LRSN                1
 GAP=233        0.41       4.6     3.5  4.3  0.1107E+02 -0.1056E+01 -0.7587E+01E
 Epicentro: VILLANUEVA - SANTANDER                                             3
 ACTION:UPD 14-01-09 16:30 OP:ep   STATUS:               ID:20131121084654 L   I
 OLDACT:DUP 13-11-21 14:05 OP:mh   STATUS:               ID:20131121084001d    3
 2013-11-21-0840-00M.COL___282                                                 6
 STAT SP IPHASW D HRMM SECON CODA AMPLIT PERI AZIMU VELO AIN AR TRES W  DIS CAZ7
 BAR2 SZ EP   1    847 14.43                             176   -0.14 7 10.5 169 
 BAR2 SZ ES   1    847 29.97                             176   -0.09 7 10.5 169 
 BAR2 SZ I         847 30.47        13.1 0.16            176           10.5 169 
 RUS  HZ EP        847 17.91                             148   -0.0810 88.6 172 
 RUS  HN ES        847 36.33                             148    0.1810 88.6 172 
 PTB  HZ EP   1    847 21.34                             134    0.09 7  140 263 
 PTB  HN ES        847 41.76                             134   -0.20 9  140 263 
 PTB  HZ I         847 45.04         5.2 0.11            134            140 263 
 ZAR  HZ EP        847 27.34                             123    0.00 9  204 296 
 ZAR  HN ES        847 53.01                             123    0.22 9  204 296 
 ZAR  HZ I         847 59.98         2.7 0.18            123            204 296 
                                                                                
