 2015  821 0729 59.1 L   6.727 -73.092148.7  RSN  4 0.4 1.5LRSN                1
 GAP=272        1.05       7.1    11.5  8.3 -0.6461E+01  0.2012E+02  0.2339E+01E
 Epicentro: JORDAN - SANTANDER                                                 3
 ACTION:UPD 15-09-15 23:03 OP:cam  STATUS:               ID:20150821072959 L   I
 OLDACT:REG 15-08-21 13:30 OP:spq  STATUS:               ID:20150821072747     3
 2015-08-21-0727-47M.COL___335                                                 6
 STAT SP IPHASW D HRMM SECON CODA AMPLIT PERI AZIMU VELO AIN AR TRES W  DIS CAZ7
 BAR2 EZ EP        730 19.06                             173    0.0810 18.0 214 
 BAR2 EZ ES        730 34.57                             173    0.0810 18.0 214 
 BRR  HZ EP        730 20.31                             150   -0.7810 80.4 302 
 BRR  HN ES        730 38.52                             150    0.2710 80.4 302 
 BRR  HZ I         730 43.35         3.1 0.12            140           80.4 302 
 SPBC HZ EP        730 28.16                             130    0.55 9  161 222 
 SPBC HE ES        730 49.49                             130   -0.36 9  161 222 
 SPBC HZ I         731  0.36         2.6 0.38            125            161 222 
 ZAR  HZ EP        730 32.88                             122    0.27 8  213 294 
 ZAR  HE ES   4    730 57.19                             122   -1.57 0  213 294 
 ZAR  HZ I         731  4.30         4.7 0.22            119            213 294 
                                                                                
