 2017 1121 0338 35.2 L   6.803 -73.152156.1  RSN  5 0.5 1.3LRSN                1
 GAP=244        1.19       8.2     7.4  9.6  0.2527E+02  0.9326E+01 -0.1848E+02E
 Epicentro: LOS SANTOS - SANTANDER                                             3
 ACTION:UPD 17-12-12 19:57 OP:rebc STATUS:               ID:20171121033835 L   I
 OLDACT:UP  17-11-21 15:48 OP:edw  STATUS:               ID:20171121033231     3
 OLDACT:REG 17-11-21 12:30 OP:edw  STATUS:               ID:20171121033231     3
 2017-11-21-0338-00M.COL___489                                                 6
 STAT SP IPHASW D HRMM SECON CODA AMPLIT PERI AZIMU VELO AIN AR TRES W  DIS CAZ7
 BAR2 EZ EP        338 56.32                             171    0.2510 23.5 188 
 BAR2 EZ ES        339 12.53                             171    0.1710 23.5 188 
 RUS  HZ EP        339  0.63                             146    0.6310  101 176 
 RUS  HN ES        339 18.56                             146   -0.7910  101 176 
 RUS  HZ I         339 22.34         1.7 0.20            144            101 176 
 PTB  HZ EP        339  3.28                             134    0.31 9  147 259 
 PTB  HE ES        339 25.18                             134    0.55 9  147 259 
 PTB  HZ I         339 30.48         2.4 0.42            133            147 259 
 SPBC HZ EP        339  4.28                             131   -0.21 9  163 219 
 SPBC HE ES        339 27.27                             131   -0.07 9  163 219 
 SPBC HZ I         339 30.94         4.9 0.20            130            163 219 
 ZAR  HZ EP        339  7.49                             125   -0.76 9  203 292 
 ZAR  HN ES        339 33.72                             125   -0.32 9  203 292 
                                                                                
