 2010  821 0431 23.8 L   6.807 -73.091143.4  RSN  6 0.4 1.5LRSN                1
 GAP=165        0.98       5.4    11.1  8.7 -0.5026E+01 -0.2850E+02 -0.8398E+01E
 Epicentro: LOS SANTOS - SANTANDER                                             3
 ACTION:UP  10-09-07 10:56 OP:vdl  STATUS:               ID:20100821043123 L   I
 2010-08-21-0430-12S.COL___120                                                 6
 STAT SP IPHASW D HRMM SECON CODA AMPLIT PERI AZIMU VELO SNR AR TRES W  DIS CAZ7
 BTL  SZ IP        431 43.11                             172    -0.110   23 302 
 BTL  SZ ES   1    431 58.52                             172     0.3 7   23 302 
 BAR2 SZ EP        431 43.00                             171    -0.210   26 203 
 BAR2 SZ I         431 43.60         5.6 0.18                            26 203 
 BAR2 SZ ES   1    431 57.93                             171    -0.4 7   26 203 
 BRR  HZ IP     C  431 44.79                             152    -0.210   76 296 
 BRR  HZ I         431 45.19        11.0 0.10                            76 296 
 BRR  HN ES   1    432  1.78                             152     0.2 7   76 296 
 RUS  HZ EP   1    431 47.00                             144    -0.4 7  101 180 
 RUS  HE ES   1    432  6.36                             144     0.6 7  101 180 
 RUS  HZ I         432  7.28         3.4 0.30                           101 180 
 GUE  SZ EP   1    431 49.01                             140     0.8 7  115   9 
 GRA  SZ IP        431 48.78                             137     0.110  123  15 
 GRA  SZ ES   1    432  7.58                             137    -0.4 7  123  15 
 GRA  SZ I         432  9.44         4.6 0.30                           123  15 
                                                                                
