 2010  921 0424 10.1 L   6.777 -73.084146.0  RSN  7 0.3 1.8LRSN                1
 GAP=166        0.67       3.3     7.8  6.8 -0.6732E+01 -0.1490E+02  0.2816E+01E
 Epicentro: LOS SANTOS - SANTANDER                                             3
 ACTION:UP  11-02-18 11:04 OP:tino STATUS:               ID:20100921042410 L   I
 2010-09-21-0422-33S.COL___118                                                 6
 STAT SP IPHASW D HRMM SECON CODA AMPLIT PERI AZIMU VELO SNR AR TRES W  DIS CAZ7
 BAR2 SZ EP        424 29.61                             171    -0.210   23 208 
 BAR2 SZ ES   2    424 44.46                             171    -0.6 5   23 208 
 BAR2 SZ I         424 47.65        21.7 0.28                            23 208 
 BRR  HZ EP        424 31.54                             150    -0.210   78 298 
 BRR  HN ES   1    424 48.93                             150     0.4 7   78 298 
 BRR  HZ I         424 50.93        14.0 0.12                            78 298 
 RUS  HZ EP   1    424 33.68                             145     0.0 7   98 180 
 RUS  HN ES   2    424 52.70                             145     0.6 5   98 180 
 RUS  HZ I         424 53.96        11.7 0.26                            98 180 
 GUE  SZ EP   1    424 35.43                             139     0.5 7  118   9 
 GRA  SZ EP        424 35.36                             137    -0.110  126  14 
 GRA  SZ ES   1    424 55.28                             137     0.1 7  126  14 
 GRA  SZ I         424 56.52         7.0 0.29                           126  14 
 OCA  SZ EP   1    424 38.64                             129    -0.1 7  164 351 
 OCA  SZ ES   2    425  0.75                             129    -0.4 5  164 351 
 OCA  SZ I         425  4.79         9.2 0.34                           164 351 
 CHI  HZ EP   1    424 47.89                             117     0.1 6  248 197 
 CHI  HZ I         424 48.61         3.6 0.06                           248 197 
 CHI  HE ES   2    425 16.97                             117    -0.2 4  248 197 
                                                                                
