 2010  821 0126 22.2 L   6.769 -73.073143.7  RSN  6 0.3 1.5LRSN                1
 GAP=167        0.71       5.4     9.5  8.9  0.2247E+02 -0.5226E+02 -0.2523E+02E
 Epicentro: LOS SANTOS - SANTANDER                                             3
 ACTION:UP  10-09-07 10:56 OP:vdl  STATUS:               ID:20100821012622 L   I
 2010-08-21-0124-31S.COL___120                                                 6
 STAT SP IPHASW D HRMM SECON CODA AMPLIT PERI AZIMU VELO SNR AR TRES W  DIS CAZ7
 BAR2 SZ EP   1    126 41.60                             171     0.0 7   23 212 
 BAR2 SZ ES   1    126 56.90                             171     0.2 7   23 212 
 BAR2 SZ I         126 57.70         7.8 0.35                            23 212 
 BTL  SZ EP        126 41.83                             169     0.210   27 308 
 BRR  HZ EP        126 43.46                             149    -0.210   80 298 
 BRR  HZ I         126 43.64         7.7 0.13                            80 298 
 BRR  HE ES        127  0.36                             149     0.010   80 298 
 RUS  HZ EP   1    126 45.85                             144     0.4 7   97 181 
 RUS  HE ES   1    127  3.14                             144    -0.5 7   97 181 
 RUS  HZ I         127  6.00         3.6 0.46                            97 181 
 GUE  SZ EP   1    126 46.44                             138    -0.4 7  119   8 
 GRA  SZ EP        126 47.44                             136     0.110  127  14 
 GRA  SZ I         127 11.27         3.4 0.39                           127  14 
                                                                                
