 2012 1121 0642 53.6 L   7.346 -73.104 10.4  RSN  6 0.3 1.5LRSN                1
 GAP=176        0.57       3.4     2.6  4.9  0.6186E-01  0.9392E+01  0.3381E+01E
 Epicentro: MATANZA - SANTANDER                                                3
 ACTION:UPD 12-12-05 15:34 OP:}ep  STATUS:               ID:20121121064253 L   I
 2012-11-21-0640-00M.COL___234                                                 6
 STAT SP IPHASW D HRMM SECON CODA AMPLIT PERI AZIMU VELO AIN AR TRES W  DIS CAZ7
 GIR2 SZ EP   1    642 59.03                             104   -0.20 7 31.2 198 
 PAM  SZ EP        643  1.89                             100    0.2910 44.7  91 
 PAM  SN ES   1    643  7.35                             100   -0.45 7 44.7  91 
 PAM  SZ I         643  8.80        24.3 0.07                          44.7  91 
 BAR2 SZ EP   2    643  7.27                              95    0.04 5 83.8 186 
 RUS  HZ EP   1    643 19.39                              56    0.34 7  161 179 
 RUS  HN ES   1    643 38.71                              56   -0.14 7  161 179 
 RUS  HN I         643 43.03         8.4 0.31                           161 179 
 PTB  HZ EP   1    643 20.20                              56    0.07 7  174 239 
 PTB  HN ES   1    643 40.87                              56    0.08 7  174 239 
 PTB  HZ I         643 41.84         4.1 0.21                           174 239 
 ZAR  HZ EP   1    643 22.86                              56    0.21 6  194 275 
 ZAR  HE ES   1    643 44.85                              56   -0.43 6  194 275 
 ZAR  HZ I         643 46.61         6.7 0.18                           194 275 
                                                                                
