 2011 1221 0054 18.1 L   6.353 -73.588109.6  RSN  5 0.2 1.6LRSN                1
 GAP=150        0.43       3.0     2.1  4.4  0.1465E+01  0.6659E+00 -0.3209E+00E
 Epicentro: SANTA HELENA DEL OPON - SANTANDER                                  3
 ACTION:UPD 12-07-13 16:17 OP:ep   STATUS:               ID:20111221005418 L   I
 2011-12-21-0050-00M.COL___189                                                 6
 STAT SP IPHASW D HRMM SECON CODA AMPLIT PERI AZIMU VELO AIN AR TRES W  DIS CAZ7
 BAR2 SZ EP        054 34.66                             153    0.0610 52.1  59 
 BAR2 SZ I         054 34.93        18.7 0.12                          52.1  59 
 BAR2 SZ ES   1    054 47.21                             153   -0.26 7 52.1  59 
 RUS  HZ EP   1    054 36.40                             143   -0.08 7 75.6 132 
 RUS  HE ES   1    054 51.03                             143    0.20 7 75.6 132 
 BRR  HZ EP   1    054 36.79                             139    0.32 7 84.5 351 
 BRR  HZ I         054 44.18         7.3 0.30                          84.5 351 
 BRR  HN ES   1    054 50.97                             139    0.16 7 84.5 351 
 GIR2 SZ IP        054 37.08                             137   -0.1410 91.3  28 
 PTB  HZ EP        054 37.56                             135   -0.0810 98.2 282 
 PTB  HN ES        054 52.85                             135   -0.0310 98.2 282 
                                                                                
