 2017  821 0554 27.7 L   6.754 -73.139150.9  RSN  5 0.3 1.0LRSN                1
 GAP=235        0.81       4.7     6.0  6.5  0.1260E+02  0.6547E+01  0.2870E+01E
 Epicentro: LOS SANTOS - SANTANDER                                             3
 ACTION:UPD 17-09-04 20:22 OP:rebc STATUS:               ID:20170821055427 L   I
 OLDACT:REG 17-08-21 13:00 OP:osc  STATUS:               ID:20170821054739     3
 2017-08-21-0548-00M.COL___411                                                 6
 STAT SP IPHASW D HRMM SECON CODA AMPLIT PERI AZIMU VELO AIN AR TRES W  DIS CAZ7
 BAR2 HZ EP        554 48.22                             173    0.3410 18.5 195 
 BAR2 HZ ES        555  3.42                             173   -0.1910 18.5 195 
 BRR  HZ EP        554 49.49                             152   -0.1110 74.4 302 
 BRR  HE ES        555  7.10                             152    0.4310 74.4 302 
 RUS  HZ EP        554 51.50                             146   -0.1210 95.5 176 
 RUS  HN ES        555  9.91                             146   -0.3610 95.5 176 
 RUS  HZ I         555 10.67         0.9 0.32            143           95.5 176 
 SPBC HZ EP        554 56.49                             131    0.19 9  160 220 
 SPBC HE ES        555 18.86                             131    0.28 9  160 220 
 SPBC HZ I         555 24.35         1.9 0.42            128            160 220 
 ZAR  HE ES        555 26.01                             123   -0.54 8  207 293 
                                                                                
