 2012 1021 0943 19.1 L   6.796 -73.119140.0  RSN  6 0.3 1.8LRSN                1
 GAP=140        0.69       4.1     3.8  5.3  0.9422E+00  0.6810E+01  0.1350E+01E
 Epicentro: LOS SANTOS - SANTANDER                                             3
 ACTION:UPD 12-11-22 17:05 OP:ep   STATUS:               ID:20121021094319 L   I
 2012-10-21-0940-00M.COL___231                                                 6
 STAT SP IPHASW D HRMM SECON CODA AMPLIT PERI AZIMU VELO AIN AR TRES W  DIS CAZ7
 BAR2 SZ EP        943 38.25                             170    0.1810 23.6 197 
 BAR2 SZ ES   1    943 52.49                             170   -0.35 7 23.6 197 
 BAR2 SZ I         943 57.21        14.2 0.40                          23.6 197 
 BRR  HZ EP        943 39.48                             151   -0.3410 74.0 298 
 BRR  HN ES        943 56.39                             151    0.4310 74.0 298 
 BRR  HZ I         943 57.59        15.2 0.19                          74.0 298 
 PAM  SZ EP        943 40.74                             150    0.1010 75.9  38 
 PAM  SZ I         943 41.04        20.7 0.19                          75.9  38 
 PAM  SE ES        943 57.46                             150    0.0410 75.9  38 
 RUS  HZ EP   1    943 42.24                             143   -0.03 7100.0 178 
 RUS  HE ES   1    944  0.23                             143   -0.09 7100.0 178 
 RUS  HE I         944  3.48         9.9 0.24                         100.0 178 
 ZAR  HZ EP        943 51.13                             121   -0.37 8  207 292 
 ZAR  HE ES   1    944 16.36                             121   -0.40 6  207 292 
 ZAR  HZ I         944 20.94         6.1 0.32                           207 292 
 HEL  HZ EP   1    943 59.85                             113    0.50 6  275 256 
 HEL  HN ES   2    944 31.50                             113    0.77 4  275 256 
 HEL  HZ I         944 36.89         2.9 0.43                           275 256 
                                                                                
