 2012  121 0749 15.7 L   6.747 -73.141150.1  RSN  6 0.3 1.6LRSN                1
 GAP=139        0.72       4.4     4.9  7.8 -0.4423E+01 -0.1913E+01  0.3947E+01E
 Epicentro: LOS SANTOS - SANTANDER                                             3
 ACTION:UP  12-02-03 08:19 OP:REBC STATUS:               ID:20120121074915 L   I
 2012-01-21-0744-35S.COL___156                                                 6
 STAT SP IPHASW D HRMM SECON CODA AMPLIT PERI AZIMU VELO SNR AR TRES W  DIS CAZ7
 BAR2 SZ EP        749 35.65                             173    -0.110   18 195 
 BRR  HZ EP        749 37.60                             152     0.110   75 302 
 BRR  HE ES   1    749 54.94                             152     0.5 7   75 302 
 PAM  SZ EP        749 38.55                             150     0.010   82  37 
 PAM  SE ES   1    749 56.00                             150    -0.5 7   82  37 
 RUS  HZ EP   1    749 39.96                             146     0.5 7   95 176 
 RUS  HE ES   2    749 57.98                             146     0.0 5   95 176 
 RUS  HZ I         750  4.08         4.4 0.18                            95 176 
 PTB  HZ EP   1    749 42.46                             133    -0.5 7  147 261 
 PTB  HE ES   1    750  3.86                             133    -0.4 7  147 261 
 OCA  SZ EP   1    749 44.83                             129     0.0 7  166 353 
 OCA  SZ ES   1    750  7.90                             129     0.3 7  166 353 
 OCA  SZ I         750 21.17         6.5 0.13                           166 353 
                                                                                
