 2010 1221 0801 12.3 L   6.771 -73.169144.0  RSN 13 0.4 2.4LRSN                1
 GAP=156        0.77       2.9     5.2  6.2 -0.6597E+01  0.1301E+02 -0.6320E+00E
 Epicentro: LOS SANTOS - SANTANDER                                             3
 ACTION:UP  11-01-14 15:26 OP:pat  STATUS:               ID:20101221080112 L   I
 2010-12-21-0759-38S.COL___133                                                 6
 STAT SP IPHASW D HRMM SECON CODA AMPLIT PERI AZIMU VELO SNR AR TRES W  DIS CAZ7
 BTL  SZ EP        8 1 31.70                             172     0.010   20 326 
 BAR2 SZ IP        8 1 31.46                             172    -0.210   20 185 
 BAR2 SZ ES   1    8 1 46.84                             172     0.1 7   20 185 
 BAR2 SZ I         8 1 48.37        53.1 0.28                            20 185 
 RUS  HZ EP        8 1 35.29                             144    -0.410   98 174 
 RUS  HN ES   1    8 1 54.17                             144     0.2 7   98 174 
 RUS  HZ I         8 1 55.55        35.8 0.50                            98 174 
 GRA  SZ IP        8 1 38.25                             136     0.510  130  18 
 GRA  SZ ES   1    8 1 57.87                             136     0.3 7  130  18 
 GRA  SZ I         8 1 58.90        34.2 0.30                           130  18 
 OCA  SZ EP        8 1 40.37                             129    -0.4 9  163 354 
 OCA  SZ ES   1    8 2  2.89                             129    -0.1 7  163 354 
 OCA  SZ I         8 2  6.84        39.3 0.25                           163 354 
 NOR  SZ EP   1    8 1 47.32                             119    -0.2 6  231 235 
 NOR  SN ES   1    8 2 15.00                             119     0.0 6  231 235 
 CHI  HZ EP   1    8 1 49.46                             117    -0.1 6  245 195 
 CHI  HE ES   1    8 2 18.38                             117    -0.2 6  245 195 
 CHI  HZ I         8 2 25.06        15.4 0.82                           245 195 
 ROSC BZ EP   1    8 1 49.72                             117    -0.2 6  249 211 
 ROSC BZ I         8 2 26.09        23.4 0.32                           249 211 
 HEL  HZ EP   1    8 1 52.51                             115     0.4 6  269 256 
 HEL  HE ES   1    8 2 22.61                             115    -0.5 6  269 256 
 HEL  HZ I         8 2 30.20        14.5 0.43                           269 256 
 VIL  SN ES   2    8 2 28.64                             112     0.2 4  298 189 
 VIL  SZ I         8 2 34.84        10.9 0.53                           298 189 
 RREF HZ EP   2    8 1 58.24                             111     0.3 3  318 229 
 RREF HE ES   1    8 2 34.21                             111     0.7 5  318 229 
 RREF HZ I         8 2 41.34        18.2 0.42                           318 229 
 TOL  SZ EP   2    8 2  0.75                             109     0.7 3  339 225 
 PRA  HZ EP   1    8 2  5.27                             106    -0.1 4  388 209 
 PRA  HE ES   1    8 2 47.50                             106     0.8 4  388 209 
                                                                                
