 2014 1221 0831 11.1 L   5.839 -73.758123.6  RSN  5 0.3 1.0LRSN                1
 GAP=230        0.73       5.9     4.6  8.0  0.1509E+02  0.1282E+02  0.8158E+01E
 Epicentro: JESUS MARIA - SANTANDER                                            3
 ACTION:UPD 15-02-10 17:06 OP:nd   STATUS:               ID:20141221083111 L   I
 OLDACT:REG 14-12-21 12:54 OP:spq  STATUS:               ID:20141221082739     3
 2014-12-21-0827-39M.COL___299                                                 6
 STAT SP IPHASW D HRMM SECON CODA AMPLIT PERI AZIMU VELO AIN AR TRES W  DIS CAZ7
 RUS  HZ EP        831 31.18                             147    0.3110 75.0  85 
 RUS  HE ES   1    831 45.88                             147   -0.39 7 75.0  85 
 RUS  HZ I         831 47.75         0.9 0.59            145           75.0  85 
 BAR2 EZ ES   1    831 49.25                             137   -0.38 7  105  37 
 PTB  HZ EP   1    831 32.65                             136   -0.19 7  109 315 
 PTB  HN ES        831 49.98                             136    0.2010  109 315 
 PTB  HZ I         831 52.43         1.4 0.42            135            109 315 
 BRR  HZ EP        831 35.67                             128    0.04 9  140   2 
 BRR  HE ES        831 55.16                             128    0.41 9  140   2 
 BRR  HZ I         832  4.09         2.0 0.40            126            140   2 
 ZAR  HZ EP   1    831 43.72                             115   -0.21 6  220 326 
 ZAR  HN ES        832  9.08                             115   -0.43 8  220 326 
 ZAR  HZ I         832  9.80         1.4 0.40            116            220 326 
                                                                                
