 2014 1121 0730 21.9 L   6.780 -73.153146.0  RSN  5 0.5 1.0LRSN                1
 GAP=235        1.13       8.7     8.0  8.3  0.4371E+02  0.7231E+01 -0.7310E+01E
 Epicentro: LOS SANTOS - SANTANDER                                             3
 ACTION:UPD 14-12-19 15:45 OP:nd   STATUS:               ID:20141121073021 L   I
 OLDACT:REG 14-11-21 13:06 OP:fm   STATUS:               ID:20141121072745     3
 2014-11-21-0727-45M.COL___301                                                 6
 STAT SP IPHASW D HRMM SECON CODA AMPLIT PERI AZIMU VELO AIN AR TRES W  DIS CAZ7
 BAR2 SZ EP        730 41.63                             171    0.1110 21.1 189 
 BAR2 SZ ES        730 56.78                             171   -0.0410 21.1 189 
 BAR2 SZ I         731  1.24         3.0 0.46            168           21.1 189 
 BRR  HZ EP        730 43.33                             152    0.2310 71.6 300 
 BRR  HN ES        730 59.56                             152   -0.0710 71.6 300 
 BRR  HZ I         731  2.19         2.5 0.64            151           71.6 300 
 RUS  HZ EP        730 44.81                             145   -0.7110 98.5 176 
 RUS  HN ES        731  4.31                             145    0.3610 98.5 176 
 RUS  HZ I         731  6.18         0.8 0.50            146           98.5 176 
 PTB  HZ EP        730 48.41                             132   -0.37 9  147 260 
 PTB  HE ES        731 10.02                             132    0.27 9  147 260 
 PTB  HZ I         731 14.84         1.5 0.24            133            147 260 
 ZAR  HZ EP        730 55.29                             122    0.91 9  204 293 
 ZAR  HE ES        731 19.08                             122   -0.62 9  204 293 
 ZAR  HZ I         731 26.63         1.2 0.26            124            204 293 
                                                                                
