 2016  821 0932 41.1 L   6.808 -73.287128.0  RSN  4 0.4 1.2LRSN                1
 GAP=209        0.80       4.8     6.0  7.8  0.8746E+01  0.1839E+02  0.4470E+01E
 Epicentro: ZAPATOCA - SANTANDER                                               3
 ACTION:UPD 16-10-29 15:37 OP:rebc STATUS:               ID:20160821093241 L   I
 OLDACT:REG 16-08-21 13:16 OP:dnl  STATUS:               ID:20160821092735     3
 2016-08-21-0928-00M.COL___362                                                 6
 STAT SP IPHASW D HRMM SECON CODA AMPLIT PERI AZIMU VELO AIN AR TRES W  DIS CAZ7
 BAR2 EZ EP        932 59.21                             167    0.5010 26.5 154 
 BAR2 EZ ES        933 12.11                             167   -0.3110 26.5 154 
 BAR2 EZ I         933 13.50         6.2 0.36                          26.5 154 
 BRR  HZ EP        932 59.67                             154    0.0810 57.4 305 
 BRR  HN ES        933 13.81                             154   -0.1810 57.4 305 
 BRR  HZ I         933 14.50         3.1 0.10                          57.4 305 
 SPBC HZ EP   2    933  6.56                             126   -0.92 5  155 214 
 SPBC HN ES        933 28.14                             126    0.12 9  155 214 
 ZAR  HZ EP   2    933 10.18                             120   -0.73 4  189 294 
 ZAR  HN ES        933 34.33                             120    0.19 9  189 294 
 ZAR  HZ I         933 37.63         1.1 0.13                           189 294 
                                                                                
