 2017 1221 0859  6.6 L   6.766 -73.170139.3  RSN  4 0.4 1.1LRSN                1
 GAP=145        0.98       8.5     5.1  8.6 -0.1472E+02  0.1999E+02 -0.1837E+02E
 Epicentro: LOS SANTOS - SANTANDER                                             3
 ACTION:UPD 18-01-04 13:22 OP:rebc STATUS:               ID:20171221085906 L   I
 OLDACT:REG 17-12-21 13:30 OP:dani STATUS:               ID:20171221085748     3
 2017-12-21-0858-00M.COL___451                                                 6
 STAT SP IPHASW D HRMM SECON CODA AMPLIT PERI AZIMU VELO AIN AR TRES W  DIS CAZ7
 BAR2 EZ EP        859 25.61                             172    0.2310 19.2 184 
 BAR2 EZ ES        859 40.29                             172    0.2610 19.2 184 
 BAR2 EZ I         859 41.62         3.8 0.38            175           19.2 184 
 PAM  EZ EP        859 28.27                             148   -0.1610 82.0  39 
 PAM  EN ES        859 45.28                             148   -0.1810 82.0  39 
 PAM  EZ I         859 48.65         1.6 0.24            147           82.0  39 
 PTB  HZ EP        859 32.10                             131   -0.65 9  144 260 
 PTB  HN ES        859 52.98                             131   -0.15 9  144 260 
 PTB  HZ I         859 55.51         1.5 0.38            132            144 260 
 ZAR  HZ EP        859 39.37                             121    0.84 9  203 293 
 ZAR  HE ES        9 0  3.35                             121   -0.08 9  203 293 
 ZAR  HZ I         9 0 10.67         1.4 0.10            122            203 293 
                                                                                
