 2017  121 0227 38.9 L   6.754 -73.138147.7  RSN  7 0.4 1.8LRSN                1
 GAP=140        0.93       4.2     3.9  5.9 -0.8928E+00  0.7347E+01  0.1190E+01E
 Epicentro: LOS SANTOS - SANTANDER                                             3
 ACTION:UPD 17-05-22 16:01 OP:jn   STATUS:               ID:20170121022738 L   I
 OLDACT:UP  17-01-21 14:51 OP:dani STATUS:               ID:20170121021743d    3
 OLDACT:UP  17-01-21 14:51 OP:dani STATUS:               ID:20170121021743d    3
 OLDACT:DUP 17-01-21 14:47 OP:dani STATUS:               ID:20170121021743d    3
 OLDACT:UP  17-01-21 14:47 OP:dani STATUS:               ID:20170121021742     3
 OLDACT:UP  17-01-21 14:47 OP:dani STATUS:               ID:20170121021742     3
 OLDACT:REG 17-01-21 12:24 OP:dani STATUS:               ID:20170121021742     3
 2017-01-21-0218-00M.COL___343                                                 6
 STAT SP IPHASW D HRMM SECON CODA AMPLIT PERI AZIMU VELO AIN AR TRES W  DIS CAZ7
 BAR2 EZ EP        227 58.61                             173   -0.0910 18.5 195 
 BAR2 EZ ES        228 14.14                             173    0.0110 18.5 195 
 BAR2 EZ I         228 15.30        10.8 0.20            171           18.5 195 
 BRR  HZ EP        228  0.78                             152    0.3210 74.4 302 
 BRR  HN ES        228 17.76                             152    0.4910 74.4 302 
 BRR  HZ I         228 22.37         9.4 0.10            150           74.4 302 
 PAM  EZ EP     D  228  1.77                             150    0.2210 80.9  37 
 PAM  EN ES        228 18.81                             150   -0.4010 80.9  37 
 PAM  EZ I         228 21.55         8.0 0.38            153           80.9  37 
 RUS  HZ EP        228  2.25                             146   -0.2510 95.4 176 
 RUS  HE ES        228 21.12                             146    0.2210 95.4 176 
 RUS  HZ I         228 22.50         8.0 0.21            148           95.4 176 
 PTB  HZ EP        228  5.64                             132   -0.39 9  148 261 
 PTB  HN ES        228 26.48                             132   -0.71 9  148 261 
 PTB  HZ I         228 29.12        11.3 0.16            132            148 261 
 ZAR  HZ EP        228 11.49                             122   -0.28 8  207 293 
 ZAR  HE ES        228 37.64                             122    0.25 8  207 293 
 ZAR  HZ I         228 45.02         7.8 0.25            123            207 293 
 NOR  HZ EP        228 15.19                             119    0.67 8  232 236 
 NOR  HE ES        228 42.31                             119    0.02 8  232 236 
 NOR  HZ I         228 50.57         5.1 0.22            120            232 236 
                                                                                
