 2013  321 0308  8.8 L   6.769 -73.143142.7  RSN  6 0.4 1.9LRSN                1
 GAP=138        1.07       5.3     4.7  7.2  0.2461E+01  0.8857E+01 -0.1759E+01E
 Epicentro: LOS SANTOS - SANTANDER                                             3
 ACTION:UPD 13-04-09 14:03 OP:ep   STATUS:               ID:20130321030808 L   I
 2013-03-21-0300-00M.COL___245                                                 6
 STAT SP IPHASW D HRMM SECON CODA AMPLIT PERI AZIMU VELO AIN AR TRES W  DIS CAZ7
 BAR2 SZ EP        3 8 27.91                             172   -0.1110 20.0 193 
 BAR2 SZ ES        3 8 43.16                             172    0.1710 20.0 193 
 BAR2 SZ I         3 8 45.05        13.9 0.20            170           20.0 193 
 BRR  HZ EP        3 8 29.83                             151    0.0810 73.2 301 
 BRR  HN ES        3 8 46.62                             151    0.5410 73.2 301 
 BRR  HN I         3 8 46.99        24.9 0.32            151           73.2 301 
 PAM  SZ EP        3 8 30.88                             149    0.0210 79.9  38 
 PAM  SN ES        3 8 47.59                             149   -0.4610 79.9  38 
 PAM  SN I         3 8 48.74        13.7 0.38            153           79.9  38 
 RUS  HZ EP        3 8 32.12                             144    0.1010 97.1 176 
 RUS  HN ES        3 8 50.23                             144    0.1110 97.1 176 
 RUS  HN I         3 8 52.07        10.1 0.34            145           97.1 176 
 PTB  HZ EP        3 8 34.87                             131   -0.64 9  147 260 
 PTB  HN ES        3 8 55.87                             131   -0.46 9  147 260 
 PTB  HN I         3 9  1.09         6.9 0.44            131            147 260 
 ZAR  HZ EP        3 8 42.22                             121    0.98 8  206 293 
 ZAR  HN ES        3 9  6.22                             121   -0.30 8  206 293 
 ZAR  HN I         3 9 10.87         7.7 0.58            122            206 293 
                                                                                
