 2017 1021 0756  0.4 L   6.867 -73.108147.4  RSN  5 0.5 0.8LRSN                1
 GAP=249        0.99      10.3     7.3  9.6  0.3178E+02  0.7410E+01 -0.2162E+02E
 Epicentro: LOS SANTOS - SANTANDER                                             3
 ACTION:UPD 17-11-07 19:34 OP:rebc STATUS:               ID:20171021075600 L   I
 OLDACT:UP  17-10-21 17:48 OP:dani STATUS:               ID:20171021074410     3
 OLDACT:UP  17-10-21 17:47 OP:dani STATUS:               ID:20171021074410     3
 OLDACT:REG 17-10-21 13:33 OP:dani STATUS:               ID:20171021074410     3
 2017-10-21-0748-00M.COL___435                                                 6
 STAT SP IPHASW D HRMM SECON CODA AMPLIT PERI AZIMU VELO AIN AR TRES W  DIS CAZ7
 BAR2 EZ EP        756 20.52                             168    0.0610 31.5 195 
 BAR2 EZ ES        756 36.30                             168    0.2310 31.5 195 
 BAR2 EZ I         756 38.61         2.4 0.23            168           31.5 195 
 RUS  HZ EP        756 24.52                             143   -0.3610  108 179 
 RUS  HN ES        756 43.84                             143   -0.1010  108 179 
 RUS  HZ I         756 44.16         1.1 0.37            146            108 179 
 PTB  HZ EP        756 28.60                             131    0.54 9  153 256 
 PTB  HE ES        756 48.91                             131   -0.69 9  153 256 
 PTB  HZ I         756 54.39         0.4 0.27            132            153 256 
 SPBC HN ES   2    756 53.86                             128    1.05 4  172 219 
 ZAR  HN ES   2    756 59.03                             123    0.41 4  205 290 
                                                                                
