 2010  421 0510 55.7 L   6.780 -73.092149.0  RSN 13 0.6 2.9LRSN                1
 GAP=147        1.16       5.7     9.2  7.9 -0.2936E+02 -0.8552E+01  0.1475E+02E
 Epicentro: LOS SANTOS - SANTANDER                                             3
 ACTION:UPD 10-08-24 10:00 OP:vdl  STATUS:               ID:20100421051055 L   I
 2010-04-21-0509-23S.COL___104                                                 6
 STAT SP IPHASW D HRMM SECON CODA AMPLIT PERI AZIMU VELO AIN AR TRES W  DIS CAZ7
 BAR2 SZ IP        511 15.35                             171    -0.410   23 206 
 BAR2 SZ ES   1    511 30.68                             171    -0.7 7   23 206 
 GIR2 SZ ES   2    511 31.47                             167    -0.2 5   35 341 
 BRR  HZ IP     D  511 17.72                             151     0.110   78 298 
 BRR  HN ES   1    511 34.93                             151     0.3 7   78 298 
 BRR  HZ I         511 38.54       121.2 0.13                            78 298 
 GRA  SZ IP        511 22.27                             138     1.010  126  15 
 GRA  SZ ES   1    511 41.43                             138     0.2 7  126  15 
 OCA  SZ EP   1    511 23.93                             130    -0.7 7  163 351 
 OCA  SZ ES   1    511 47.03                             130    -0.1 7  163 351 
 OCA  SZ I         511 51.18       146.9 0.56                           163 351 
 CHI  HZ EP   1    511 33.49                             118    -0.1 6  248 197 
 CHI  HZ I         511 34.33        28.6 0.14                           248 197 
 CHI  HN ES   2    512  3.18                             118     0.1 4  248 197 
 ROSC BZ IP     C  511 35.07                             117     0.9 8  254 212 
 ROSC BN ES   2    512  5.01                             117     0.9 4  254 212 
 ROSC BZ I         512 10.14        35.8 0.49                           254 212 
 HEL  HZ EP   2    511 35.82                             115    -0.9 4  277 257 
 HEL  HZ I         512 15.79        45.2 0.40                           277 257 
 RREF BZ EP   2    511 42.57                             111     0.2 3  325 230 
 RREF BE ES   1    512 18.61                             111    -0.1 5  325 230 
 RREF BZ I         512 26.72        32.8 0.18                           325 230 
 TOL  SZ EP   1    511 44.65                             110     0.2 5  346 226 
 DBB  SZ EP   1    511 43.00                             110    -1.0 5  346 275 
 SDV  BZ EP        511 44.87                             109    -0.7 6  357  49 
 PRA  HZ EP   1    511 48.91                             107    -0.6 4  393 210 
 PRA  HN ES   2    512 31.00                             107    -0.4 3  393 210 
 PRA  HZ I         512 37.00        33.7 0.82                           393 210 
                                                                                
