 2011  921 0549 36.9 L   6.809 -73.098141.8  RSN  5 0.2 1.4LRSN                1
 GAP=188        0.50       3.3     8.7  5.7  0.1499E+02 -0.2066E+02 -0.8768E+01E
 Epicentro: LOS SANTOS - SANTANDER                                             3
 ACTION:UPD 12-07-13 15:58 OP:ep   STATUS:               ID:20110921054936 L   I
 2011-09-21-0547-13S.COL___165                                                 6
 STAT SP IPHASW D HRMM SECON CODA AMPLIT PERI AZIMU VELO AIN AR TRES W  DIS CAZ7
 BTL  SZ EP        549 56.39                             171    0.3310 22.4 303 
 BAR2 SZ EP        549 56.18                             169    0.0510 25.7 201 
 BAR2 SZ ES   1    550 11.18                             169    0.07 7 25.7 201 
 BAR2 SZ I         550 13.13         5.1 0.29                          25.7 201 
 BRR  HZ EP        549 57.72                             150   -0.1810 75.5 296 
 BRR  HZ I         549 58.17        13.4 0.13                          75.5 296 
 BRR  HN ES   1    550 14.32                             150    0.07 7 75.5 296 
 RUS  HZ EP   1    550  0.14                             143   -0.20 7  101 179 
 RUS  HE ES   1    550 18.39                             143   -0.21 7  101 179 
 RUS  HZ I         550 21.39         1.8 0.14                           101 179 
 OCA  SZ EP        550  5.02                             129    0.12 9  160 351 
 OCA  SZ ES   1    550 26.40                             129   -0.33 7  160 351 
 OCA  SZ I         550 31.41         4.4 0.22                           160 351 
                                                                                
