 2011  721 0717 30.0 L   6.757 -73.123143.6  RSN  5 0.2 1.2LRSN                1
 GAP=162        0.49       3.6     7.7  5.4  0.1232E+02 -0.1398E+02 -0.7395E+01E
 Epicentro: LOS SANTOS - SANTANDER                                             3
 ACTION:UPD 12-07-25 14:02 OP:epov STATUS:               ID:20110721071730 L   I
 2011-07-21-0714-33S.COL___142                                                 6
 STAT SP IPHASW D HRMM SECON CODA AMPLIT PERI AZIMU VELO AIN AR TRES W  DIS CAZ7
 BAR2 SZ ES   1    718  4.42                             172    0.10 7 19.3 200 
 BAR2 SZ I         718  5.26         5.1 0.26                          19.3 200 
 GIR2 SZ EP   1    717 49.62                             165    0.07 7 36.5 348 
 GIR2 SZ ES   1    718  5.03                             165    0.22 7 36.5 348 
 BRR  HZ EP   1    717 51.29                             151    0.13 7 75.7 301 
 BRR  HZ I         717 53.28         3.3 0.12                          75.7 301 
 BRR  HE ES   1    718  7.47                             151   -0.21 7 75.7 301 
 RUS  HZ EP   2    717 53.72                             145    0.56 5 95.6 177 
 RUS  HE ES        718 11.06                             145   -0.1910 95.6 177 
 RUS  HZ I         718 12.64         1.3 0.46                          95.6 177 
 GRA  SZ EP   1    717 55.11                             135   -0.25 7  130  16 
                                                                                
