 2014  721 0731 28.1 L   6.866 -73.310120.0  RSN  8 0.4 1.4LRSN                1
 GAP=155        0.88       2.7     4.0  7.6 -0.7481E+00  0.7496E+01 -0.6179E+01E
 Epicentro: BETULIA - SANTANDER                                                3
 ACTION:UPD 15-03-16 20:45 OP:nd   STATUS:               ID:20140721073128 L   I
 OLDACT:REG 14-07-21 13:16 OP:mh   STATUS:               ID:20140721072817     3
 2014-07-21-0728-17M.COL___257                                                 6
 STAT SP IPHASW D HRMM SECON CODA AMPLIT PERI AZIMU VELO AIN AR TRES W  DIS CAZ7
 BAR2 SZ IP     D  731 45.41                             164    0.4810 33.4 155 
 BAR2 SZ ES   1    731 57.77                             164   -0.29 7 33.4 155 
 BAR2 SZ I         731 59.79        22.8 0.28            167           33.4 155 
 RUS  HZ EP   1    731 50.45                             135    0.21 7  111 167 
 RUS  HN ES   1    732  7.66                             135    0.14 7  111 167 
 RUS  HZ I         732  9.88         1.7 0.31            139            111 167 
 PTB  HZ IP     D  731 50.72                             129   -0.8110  132 254 
 PTB  HN ES        732 10.33                             129    0.5110  132 254 
 PTB  HZ I         732 12.83         3.9 0.16            130            132 254 
 OCA  HZ EP   1    731 53.58                             125   -0.09 7  152 360 
 OCA  HN ES        732 13.23                             125   -0.40 9  152 360 
 OCA  HZ I         732 14.56         5.6 0.28            127            152 360 
 SPBC HZ EP        731 54.38                             123    0.11 9  159 212 
 SPBC HN ES        732 14.34                             123   -0.36 9  159 212 
 SPBC HZ I         732 16.62         3.2 0.16            125            159 212 
 ZAR  HZ EP        731 56.81                             119   -0.07 9  184 292 
 ZAR  HN ES        732 19.31                             119   -0.02 9  184 292 
 ZAR  HZ I         732 24.44         2.2 0.20            120            184 292 
 SML  HZ IP     D  732  2.10                             113    0.26 8  230 339 
 SML  HE ES        732 28.52                             113    0.34 8  230 339 
 SML  HZ I         732 32.24         5.0 0.06            115            230 339 
 HEL  HZ EP   4    732  6.54                             110    1.20 0  257 253 
 HEL  HN ES   1    732 34.51                             110    0.11 6  257 253 
 HEL  HZ I         732 40.61         1.3 0.22            112            257 253 
                                                                                
