 2012  321 0729 54.6 L   6.775 -73.143148.9  RSN  6 0.3 1.6LRSN                1
 GAP=138        0.58       5.7     4.9  8.0  0.1939E+00  0.2728E+01 -0.2524E+01E
 ACTION:UP  12-03-31 23:21 OP:EP   STATUS:               ID:20120321072954 L   I
 2012-03-21-0730-00M.COL___202                                                 6
 STAT SP IPHASW D HRMM SECON CODA AMPLIT PERI AZIMU VELO SNR AR TRES W  DIS CAZ7
 BAR2 SZ EP   1    730 14.44                             172    -0.1 7   21 192 
 BAR2 SZ ES   2    730 30.37                             172     0.2 5   21 192 
 BAR2 SZ I         730 33.66         6.9 0.29                            21 192 
 BRR  HZ EP   2    730 16.52                             153     0.3 5   73 300 
 BRR  HN ES   2    730 33.53                             153     0.5 5   73 300 
 BRR  HZ I         730 37.04        11.5 0.13                            73 300 
 PAM  SZ EP   1    730 17.37                             151     0.1 7   79  38 
 PAM  SE ES   2    730 34.52                             151    -0.5 5   79  38 
 RUS  HZ EP   2    730 19.05                             145     0.6 5   98 176 
 RUS  HN ES   2    730 36.88                             145    -0.2 5   98 176 
 RUS  HZ I         730 38.59         4.3 0.24                            98 176 
 PTB  HZ EP   2    730 21.39                             133    -0.4 5  147 260 
 PTB  HE ES   2    730 42.76                             133    -0.3 5  147 260 
 PTB  HZ I         730 44.67         4.6 0.14                           147 260 
 ZAR  HN ES   2    730 52.90                             123    -0.1 4  205 293 
 ZAR  HZ I         730 57.84         6.5 0.20                           205 293 
                                                                                
