 2012  321 0720  9.6 L   6.783 -73.104142.0  RSN 21 0.5 3.9LRSN                1
 GAP=105        0.94       3.5     4.0  5.3 -0.1889E+01  0.3229E+01  0.5216E+01E
 ACTION:UP  12-03-31 23:21 OP:EP   STATUS:               ID:20120321072009 L   I
 2012-03-21-0720-00M.COL___202                                                 6
 STAT SP IPHASW D HRMM SECON CODA AMPLIT PERI AZIMU VELO SNR AR TRES W  DIS CAZ7
 BAR2 SZ IP        720 28.74                             170     0.010   23 202 
 BAR2 SZ ES   1    720 43.41                             170    -0.3 7   23 202 
 BAR2 SZ I         720 44.98      2804.9 0.26                            23 202 
 BRR  HZ IP     C  720 30.61                             150     0.010   76 298 
 BRR  HE ES   1    720 47.58                             150     0.5 7   76 298 
 BRR  HZ I         720 50.93      1790.7 0.15                            76 298 
 PAM  SZ IP        720 31.59                             150     0.210   76  36 
 PAM  SN ES   1    720 48.41                             150     0.1 7   76  36 
 RUS  HZ IP     C  720 32.56                             144    -0.310   99 179 
 RUS  HN ES   1    720 50.80                             144    -0.2 7   99 179 
 RUS  HZ I         720 52.12       596.7 0.32                            99 179 
 PTB  HZ EP   2    720 35.27                             130    -1.4 5  152 260 
 PTB  HE ES   2    720 57.17                             130    -0.6 5  152 260 
 PTB  HZ I         721  2.10       434.3 0.39                           152 260 
 YOP  SZ IP        720 39.37                             126     0.3 9  175 154 
 YOP  SN ES   2    721  2.57                             126     0.6 4  175 154 
 CTAU SZ EP        720 42.67                             122     0.3 9  203 211 
 CTAU SZ ES   2    721  8.17                             122     0.2 4  203 211 
 ZAR  HZ EP   2    720 41.84                             121    -0.5 4  209 292 
 ZAR  HN ES   2    721  7.41                             121    -0.4 4  209 292 
 ZAR  HZ I         721 13.87       704.4 0.45                           209 292 
 CTAB SZ EP        720 46.14                             118     0.9 8  231 212 
 CTAB SZ ES   2    721 12.79                             118    -0.2 4  231 212 
 NOR  SZ EP   2    720 44.78                             117    -0.6 4  237 235 
 NOR  SN ES   2    721 13.20                             117    -0.1 4  237 235 
 CHI  HZ EP        720 46.67                             116    -0.4 8  248 196 
 CHI  HN ES   1    721 15.27                             116    -1.0 6  248 196 
 CHI  HZ I         721 22.27       373.4 0.52                           248 196 
 ROSC BZ IP     C  720 48.39                             116     0.8 8  254 212 
 ROSC BZ I         721 22.45       825.1 0.37                           254 212 
 CVER SZ EP        720 50.11                             114     0.3 8  272 203 
 CVER SZ ES   2    721 21.20                             114     0.1 4  272 203 
 HEL  HZ EP   2    720 50.06                             114     0.0 4  276 256 
 HEL  HN ES   2    721 21.50                             114    -0.2 4  276 256 
 HEL  HZ I         721 27.13       485.4 0.48                           276 256 
 VIL  SZ EP   2    720 52.52                             111    -0.2 4  303 192 
 VIL  SE ES   2    721 26.56                             111     0.1 4  303 192 
 VIL  SZ I         721 32.13       372.0 0.32                           303 192 
 GUY  SZ EP   2    720 53.25                             111    -0.4 4  306 236 
 GUY  SN ES   2    721 27.97                             111     0.0 4  306 236 
 GUY  SZ I         721 34.22       881.8 0.44                           306 236 
 RREF HZ EP   2    720 55.61                             110    -0.2 3  324 230 
 RREF HN ES   2    721 31.81                             110    -0.1 3  324 230 
 DBB  SZ EP        720 58.26                             108     0.8 7  344 275 
 DBB  SZ ES   2    721 34.72                             108    -0.1 3  344 275 
 TOL  SZ EP   2    720 58.10                             108     0.2 3  345 225 
 TOL  SZ ES   2    721 35.43                             108    -0.2 3  345 225 
 SDV  BZ IP     D  720 58.22                             108    -1.0 6  358  49 
 SDV  BZ I         720 59.24       271.3 0.34                           358  49 
 PRA  HZ EP        721  2.27                             106    -0.8 6  393 210 
 PRA  HN ES   2    721 44.62                             106    -0.2 3  393 210 
                                                                                
