 2017 1221 0339 49.3 L   6.808 -73.113154.0  RSN  4 0.4 1.3LRSN                1
 GAP=160        0.58       5.9     3.4  5.8 -0.3320E+01  0.6925E+01 -0.5039E+01E
 Epicentro: LOS SANTOS - SANTANDER                                             3
 ACTION:UPD 18-01-04 13:22 OP:rebc STATUS:               ID:20171221033949 L   I
 OLDACT:UP  17-12-21 15:04 OP:dani STATUS:               ID:20171221033316     3
 OLDACT:UP  17-12-21 15:03 OP:dani STATUS:               ID:20171221033316     3
 OLDACT:UP  17-12-21 15:01 OP:dani STATUS:               ID:20171221033316     3
 OLDACT:REG 17-12-21 13:06 OP:dani STATUS:               ID:20171221033316     3
 2017-12-21-0338-00M.COL___449                                                 6
 STAT SP IPHASW D HRMM SECON CODA AMPLIT PERI AZIMU VELO AIN AR TRES W  DIS CAZ7
 BAR2 EZ EP        340 10.09                             170    0.0910 25.1 198 
 BAR2 EZ ES        340 26.18                             170    0.0710 25.1 198 
 BAR2 EZ I         340 27.31         2.7 0.27            174           25.1 198 
 PAM  EZ EP   1    340 12.17                             153   -0.10 7 74.4  38 
 PAM  EN ES   1    340 30.13                             153   -0.03 7 74.4  38 
 PAM  EZ I         340 33.07         3.6 0.24            151           74.4  38 
 PTB  HZ EP        340 17.04                             133   -0.28 9  151 259 
 PTB  HN ES        340 39.18                             133    0.03 9  151 259 
 PTB  HZ I         340 41.36         1.6 0.14            134            151 259 
 ZAR  HZ EP   3    340 24.93                             124    2.29 2  207 292 
 ZAR  HE ES        340 48.64                             124    0.02 8  207 292 
 ZAR  HZ I         340 54.32         3.8 0.26            124            207 292 
                                                                                
