 2011  221 0315 25.4 L   6.813 -73.142144.2  RSN  9 0.4 2.7LRSN                1
 GAP=161        0.80       4.8     5.3  7.0  0.2973E+01  0.1168E+02 -0.4855E+01E
 Epicentro: LOS SANTOS - SANTANDER                                             3
 ACTION:UP  11-03-28 15:09 OP:jfem STATUS:               ID:20110221031525 L   I
 2011-02-21-0312-38S.COL___137                                                 6
 STAT SP IPHASW D HRMM SECON CODA AMPLIT PERI AZIMU VELO SNR AR TRES W  DIS CAZ7
 BAR2 SZ EP        315 45.05                             170     0.210   25 191 
 BAR2 SZ ES   1    316  0.53                             170     0.5 7   25 191 
 BAR2 SZ I         316  2.98       148.2 0.43                            25 191 
 RUS  HZ EP   1    315 49.04                             143     0.0 7  102 176 
 RUS  HN ES   1    316  6.93                             143    -0.6 7  102 176 
 RUS  HZ I         316  9.33        52.1 0.32                           102 176 
 OCA  SZ EP   1    315 52.72                             129    -0.7 7  159 353 
 OCA  SZ I         316 25.19        51.9 0.28                           159 353 
 YOP  SZ EP        315 55.76                             126     0.3 9  180 154 
 YOP  SE ES   1    316 18.62                             126    -0.2 7  180 154 
 YOP  SZ I         316 24.35        51.4 0.45                           180 154 
 NOR  SZ EP   1    316  1.20                             118     0.1 6  236 234 
 NOR  SN ES   1    316 29.01                             118     0.0 6  236 234 
 NOR  SZ I         316 34.77        15.4 0.41                           236 234 
 CHI  HZ EP   2    316  2.96                             117    -0.2 4  250 195 
 CHI  HE ES   1    316 32.63                             117     0.0 6  250 195 
 CHI  HZ I         316 39.68        33.8 0.35                           250 195 
 HEL  HZ EP   2    316  5.99                             114     0.4 4  273 256 
 HEL  HN ES   2    316 36.43                             114    -0.5 4  273 256 
 HEL  HZ I         316 43.91        41.8 0.41                           273 256 
 DBB  SZ EP        316 13.09                             109     0.3 7  340 274 
 TOL  SZ EP   2    316 13.46                             109    -0.2 3  345 225 
                                                                                
