 2017  421 0331 50.0 L   6.485 -73.475126.0  RSN  4 0.4 1.5LRSN                1
 GAP=160        0.65       3.6     4.1  7.5  0.3517E+01  0.1272E+02 -0.2020E+01E
 Epicentro: SIMACOTA - SANTANDER                                               3
 ACTION:UPD 17-05-30 21:14 OP:jn   STATUS:               ID:20170421033150 L   I
 OLDACT:UP  17-04-21 15:44 OP:cog  STATUS:               ID:20170421032740     3
 OLDACT:UP  17-04-21 15:43 OP:cog  STATUS:               ID:20170421032740     3
 OLDACT:REG 17-04-21 13:24 OP:cog  STATUS:               ID:20170421032740     3
 2017-04-21-0328-00M.COL___371                                                 6
 STAT SP IPHASW D HRMM SECON CODA AMPLIT PERI AZIMU VELO AIN AR TRES W  DIS CAZ7
 BAR2 EZ EP        332  7.82                             163    0.2810 34.4  70 
 BAR2 EZ ES        332 21.30                             163    0.0510 34.4  70 
 BAR2 EZ I         332 22.13        12.6 0.46            166           34.4  70 
 RUS  HZ EP        332 10.41                             146    0.2110 78.6 147 
 RUS  HN ES        332 25.68                             146   -0.3010 78.6 147 
 RUS  HZ I         332 26.96         4.2 0.24            150           78.6 147 
 PAM  EZ EP   3    332 12.54                             131   -1.58 2  128  42 
 PAM  EE ES        332 32.90                             131   -0.0710  128  42 
 PAM  EZ I         332 35.55         3.0 0.42            132            128  42 
 ZAR  HZ EP   4    332 21.21                             119    1.61 0  189 306 
 ZAR  HE ES        332 42.61                             119   -0.11 9  189 306 
 ZAR  HZ I         332 48.39         4.0 0.40            119            189 306 
                                                                                
