 2011  221 0638  8.8 L   6.784 -73.089136.8  RSN 11 0.4 1.9LRSN                1
 GAP=106        0.80       3.9     7.6  6.2 -0.1246E+02  0.3458E+01 -0.2038E+01E
 Epicentro: LOS SANTOS - SANTANDER                                             3
 ACTION:UP  11-03-28 15:09 OP:jfem STATUS:               ID:20110221063808 L   I
 2011-02-21-0635-06S.COL___137                                                 6
 STAT SP IPHASW D HRMM SECON CODA AMPLIT PERI AZIMU VELO SNR AR TRES W  DIS CAZ7
 BAR2 SZ EP   1    638 27.57                             170     0.2 7   24 206 
 BAR2 SZ ES   1    638 41.51                             170    -0.3 7   24 206 
 BAR2 SZ I         638 43.65        35.6 0.19                            24 206 
 BTL  SZ EP        638 27.62                             169     0.210   25 307 
 RUS  HZ EP        638 31.53                             142     0.010   99 180 
 RUS  HE ES   1    638 49.06                             142    -0.2 7   99 180 
 RUS  HZ I         638 51.44        10.8 0.30                            99 180 
 GRA  SZ EP        638 33.37                             135     0.110  126  14 
 GRA  SZ ES   1    638 52.38                             135     0.1 7  126  14 
 GRA  SZ I         638 53.73        12.6 0.26                           126  14 
 OCA  SZ EP   1    638 36.55                             127    -0.1 7  163 351 
 OCA  SZ I         639  2.24        12.4 0.10                           163 351 
 YOP  SZ EP   1    638 38.37                             125     0.6 7  175 155 
 YOP  SZ I         638 39.37         7.7 0.26                           175 155 
 NOR  SZ EP   2    638 43.73                             116    -0.8 4  239 236 
 CHI  HZ EP   1    638 45.95                             115    -0.1 6  249 197 
 CHI  HZ I         639 22.64         2.9 0.48                           249 197 
 HEL  HZ EP   2    638 49.89                             112     0.7 4  278 256 
 HEL  HZ I         639 27.62         5.5 0.57                           278 256 
 RREF HZ EP   1    638 55.13                             109     0.1 5  325 230 
 RREF HE ES   2    639 30.31                             109    -0.7 3  325 230 
 RREF HZ I         639 44.21         3.7 0.11                           325 230 
 SDV  BZ EP        638 57.32                             107    -0.8 6  357  49 
 SDV  BZ I         639 39.70         2.1 0.67                           357  49 
                                                                                
