 2010  821 0513  2.4 L   6.791 -73.042140.6  RSN 11 0.3 1.8LRSN                1
 GAP=170        0.77       3.0     6.7  4.9 -0.2545E+01 -0.1905E+01  0.2043E+01E
 Epicentro: LOS SANTOS - SANTANDER                                             3
 ACTION:UP  10-09-07 10:56 OP:vdl  STATUS:               ID:20100821051302 L   I
 2010-08-21-0510-37S.COL___120                                                 6
 STAT SP IPHASW D HRMM SECON CODA AMPLIT PERI AZIMU VELO SNR AR TRES W  DIS CAZ7
 BAR2 SZ EP        513 21.45                             169     0.010   27 215 
 BAR2 SZ ES   1    513 35.91                             169    -0.5 7   27 215 
 BAR2 SZ I         513 37.56        18.9 0.29                            27 215 
 BTL  SZ IP        513 21.63                             168     0.110   29 300 
 BTL  SZ ES   1    513 36.31                             168    -0.1 7   29 300 
 GIR2 SZ EP   1    513 21.59                             165     0.0 7   36 332 
 BRR  HZ IP     C  513 23.23                             148    -0.410   82 295 
 BRR  HZ I         513 23.47        27.7 0.12                            82 295 
 BRR  HE ES        513 40.36                             148     0.110   82 295 
 RUS  HZ EP   1    513 25.49                             143    -0.1 7   99 183 
 RUS  HN ES   1    513 44.27                             143     0.6 7   99 183 
 RUS  HZ I         513 45.31         8.4 0.32                            99 183 
 GRA  SZ EP   1    513 27.35                             136     0.3 7  124  12 
 GRA  SZ I         513 55.75         3.4 0.24                           124  12 
 OCA  SZ EP        513 30.65                             128     0.1 9  163 349 
 OCA  SZ ES   1    513 52.61                             128     0.1 7  163 349 
 OCA  SZ I         514  0.15         7.2 0.30                           163 349 
 CHI  HZ EP   1    513 39.43                             116    -0.6 6  251 198 
 CHI  HN ES   1    514  9.40                             116     0.0 6  251 198 
 CHI  HZ I         514 11.47         5.4 0.39                           251 198 
 HEL  HZ EP   2    513 44.35                             113     0.8 4  283 257 
 HEL  HZ I         514 19.17         3.2 0.36                           283 257 
 RREF HZ EP   1    513 49.34                             109     0.1 5  330 231 
 RREF HN ES   2    514 25.70                             109    -0.1 3  330 231 
 RREF HZ I         514 33.63         3.6 0.33                           330 231 
 PRA  HZ EP   1    513 55.84                             105    -0.5 4  397 211 
 PRA  HN ES   1    514 39.04                             105     0.7 4  397 211 
 PRA  HZ I         514 42.21         3.5 0.29                           397 211 
                                                                                
