 2017 1121 0551 24.9 L   6.778 -73.164136.1  RSN  7 0.5 1.6LRSN                1
 GAP=146        1.15       4.6     5.4  7.7 -0.9448E+01  0.1459E+02  0.1827E+01E
 Epicentro: LOS SANTOS - SANTANDER                                             3
 ACTION:UPD 17-12-12 19:58 OP:rebc STATUS:               ID:20171121055124 L   I
 OLDACT:UP  17-11-21 17:12 OP:edw  STATUS:               ID:20171121054739     3
 OLDACT:REG 17-11-21 12:40 OP:edw  STATUS:               ID:20171121054739     3
 2017-11-21-0548-00M.COL___479                                                 6
 STAT SP IPHASW D HRMM SECON CODA AMPLIT PERI AZIMU VELO AIN AR TRES W  DIS CAZ7
 BAR2 EZ EP        551 43.36                             171    0.0110 20.7 186 
 BAR2 EZ ES        551 58.00                             171    0.2910 20.7 186 
 BAR2 EZ I         551 59.28        11.3 0.26            168           20.7 186 
 PAM  EZ EP     D  551 46.34                             148    0.0110 80.5  40 
 PAM  EN ES        552  3.21                             148    0.2010 80.5  40 
 PAM  EZ I         552  4.09         3.7 0.16            153           80.5  40 
 PTB  HZ EP        551 51.11                             130    0.21 9  145 260 
 PTB  HN ES        552 10.37                             130   -0.79 9  145 260 
 PTB  HZ I         552 15.42         3.3 0.18            129            145 260 
 OCA  HZ EP        551 52.06                             127   -0.66 9  162 354 
 OCA  HN ES        552 13.87                             127   -0.52 9  162 354 
 OCA  HZ I         552 14.45        12.0 0.40            129            162 354 
 ZAR  HZ EP        551 57.82                             120    1.15 9  203 293 
 ZAR  HN ES        552 21.90                             120    0.48 9  203 293 
 ZAR  HZ I         552 29.89         3.6 0.26            120            203 293 
 NOR  HZ EP        551 59.97                             117    0.18 8  232 235 
 NOR  HN ES        552 26.74                             117   -0.24 8  232 235 
 NOR  HZ I         552 34.63         2.1 0.18            117            232 235 
 PRA  HZ EP        552 17.44                             105   -0.33 6  389 209 
 PRA  HE ES        552 58.80                             105   -0.19 6  389 209 
 PRA  HZ I         553  5.43         1.0 0.62            106            389 209 
                                                                                
