 2012  721 0637 45.3 L   6.774 -73.155147.7  RSN 12 0.4 2.1LRSN                1
 GAP=137        0.91       4.0     4.5  6.7 -0.1688E+01  0.9873E+01  0.5470E+01E
 Epicentro: LOS SANTOS - SANTANDER                                             3
 ACTION:UPD 12-08-14 11:46 OP:ep   STATUS:               ID:20120721063745 L   I
 2012-07-21-0630-00M.COL___215                                                 6
 STAT SP IPHASW D HRMM SECON CODA AMPLIT PERI AZIMU VELO AIN AR TRES W  DIS CAZ7
 BAR2 SZ EP        638  5.12                             172     0.010   20 189 
 BAR2 SZ ES   1    638 20.13                             172    -0.4 7   20 189 
 BAR2 SZ I         638 21.29        32.3 0.18            169             20 189 
 BRR  HZ EP        638  7.16                             153     0.510   72 301 
 BRR  HN ES   1    638 24.36                             153     1.0 7   72 301 
 PAM  SZ EP   1    638  8.12                             150     0.2 7   80  39 
 PAM  SN ES   1    638 25.31                             150    -0.2 7   80  39 
 RUS  HZ EP   1    638  8.76                             145    -0.3 7   98 175 
 RUS  HE ES   1    638 27.60                             145     0.0 7   98 175 
 RUS  HZ I         638 28.55        14.4 0.38            147             98 175 
 PTB  HZ EP        638 11.78                             133    -0.5 9  146 260 
 PTB  HN ES   1    638 32.87                             133    -0.5 7  146 260 
 PTB  HZ I         638 37.97        11.4 0.14            130            146 260 
 OCA  HN ES   1    638 36.01                             130    -0.4 7  163 354 
 OCA  HZ I         638 40.82        26.2 0.19            129            163 354 
 ZAR  HZ EP   1    638 17.84                             123    -0.1 6  204 293 
 ZAR  HE ES   1    638 43.24                             123    -0.1 6  204 293 
 ZAR  HZ I         638 50.65        15.7 0.24            121            204 293 
 NOR  SZ EP   1    638 20.74                             119    -0.1 6  232 235 
 NOR  SN ES   1    638 48.33                             119    -0.3 6  232 235 
 CHI  HZ EP   1    638 22.78                             118     0.0 6  246 195 
 CHI  HZ I         638 23.82         5.3 0.33            119            246 195 
 CHI  HN ES   2    638 52.95                             118     0.9 4  246 195 
 HEL  HZ EP   1    638 25.70                             115     0.3 6  270 256 
 HEL  HN ES   1    638 56.77                             115     0.0 6  270 256 
 HEL  HZ I         639  5.75         6.4 0.33            115            270 256 
 RREF HN ES   1    639  7.28                             111     0.2 5  319 230 
 RREF HZ I         639 14.56         6.1 0.35            111            319 230 
 PRA  HZ EP   1    638 39.08                             107     0.5 4  389 210 
