 2013  421 0820 48.5 L   6.785 -73.172144.4  RSN  9 0.4 1.8LRSN                1
 GAP=156        1.02       4.9     7.0  6.2  0.9871E+01  0.2016E+01  0.1776E+01E
 Epicentro: LOS SANTOS - SANTANDER                                             3
 ACTION:UPD 13-05-22 14:39 OP:EP   STATUS:               ID:20130421082048 L   I
 2013-04-21-0820-00M.COL___250                                                 6
 STAT SP IPHASW D HRMM SECON CODA AMPLIT PERI AZIMU VELO AIN AR TRES W  DIS CAZ7
 BAR2 SZ EP     D  821  8.06                             171    0.1210 21.3 183 
 BAR2 SZ ES        821 22.97                             171   -0.1210 21.3 183 
 BAR2 SZ I         821 24.43        23.6 0.20            168           21.3 183 
 GIR2 SZ EP        821  8.01                             167   -0.0510 32.6 356 
 GIR2 SZ ES        821 22.86                             167   -0.4410 32.6 356 
 GIR2 SZ I         821 24.76        11.3 0.48            165           32.6 356 
 BRR  HZ EP        821 10.08                             153    0.6710 69.5 301 
 BRR  HN ES   1    821 26.68                             153    0.96 7 69.5 301 
 BRR  HZ I         821 27.43        12.4 0.34            149           69.5 301 
 RUS  HZ IP     C  821 12.09                             144    0.0710 99.2 174 
 RUS  HN ES   1    821 29.95                             144   -0.41 7 99.2 174 
 RUS  HZ I         821 31.85         2.8 0.18            145           99.2 174 
 PTB  HZ EP        821 14.65                             132   -0.43 9  145 259 
 PTB  HN ES   1    821 35.59                             132   -0.20 7  145 259 
 PTB  HZ I         821 43.17         8.5 0.24            130            145 259 
 OCA  HZ EP   4    821 18.33                             129    1.49 0  162 354 
 OCA  HE ES   1    821 39.02                             129    0.08 7  162 354 
 OCA  HZ I         821 41.09         9.4 0.24            130            162 354 
 YOP  SZ EP        821 18.79                             126    0.35 9  179 152 
 SML  HZ EP        821 24.46                             117   -0.63 8  244 336 
 SML  HN ES   4    821 52.62                             117   -1.01 0  244 336 
 SML  HZ I         821 56.01        11.7 0.10            117            244 336 
 SJC  HZ EP   4    821 42.58                             105   -1.43 0  409 327 
 SJC  HN ES   4    822 23.52                             105   -3.77 0  409 327 
 SJC  HZ I         822 27.72         1.9 0.56            106            409 327 
                                                                                
