 2014  321 0711 17.5 L   6.801 -73.180136.6  RSN 13 0.5 2.3LRSN                1
 GAP=132        1.01       2.9     4.7  5.9 -0.5194E+01  0.1391E+02 -0.2504E+01E
 Epicentro: LOS SANTOS - SANTANDER                                             3
 ACTION:UPD 14-04-09 23:19 OP:nd   STATUS:               ID:20140321071117 L   I
 OLDACT:UP  14-03-21 12:48 OP:mh   STATUS:               ID:20140321070807     3
 OLDACT:REG 14-03-21 08:06 OP:mh   STATUS:               ID:20140321070807     3
 2014-03-21-0708-07M.COL___238                                                 6
 STAT SP IPHASW D HRMM SECON CODA AMPLIT PERI AZIMU VELO AIN AR TRES W  DIS CAZ7
 BAR2 SZ EP     D  711 36.42                             170    0.3710 23.1 181 
 BAR2 SZ ES        711 50.95                             170    0.4510 23.1 181 
 BAR2 SZ I         711 53.63        34.5 0.17            171           23.1 181 
 PAM  SZ EP        711 39.39                             148    0.4610 79.7  42 
 PAM  SN ES        711 55.94                             148    0.3210 79.7  42 
 PAM  SZ I         711 58.56        70.6 0.42            153           79.7  42 
 RUS  HZ EP        711 40.37                             142   -0.0510  101 174 
 RUS  HN ES        711 57.64                             142   -0.6410  101 174 
 PTB  HZ EP   1    711 43.14                             131   -0.28 7  144 258 
 PTB  HN ES   1    712  3.42                             131   -0.20 7  144 258 
 PTB  HZ I         712 11.12        23.5 0.25            131            144 258 
 OCA  HZ EP        711 44.79                             128   -0.30 9  160 354 
 OCA  HN ES        712  6.02                             128   -0.57 9  160 354 
 OCA  HZ I         712 11.74        29.5 0.18            130            160 354 
 SPBC HZ EP        711 45.26                             127    0.14 9  161 218 
 SPBC HN ES        712  6.36                             127   -0.29 9  161 218 
 ZAR  HZ EP        711 49.36                             121    0.34 9  201 293 
 ZAR  HN ES   4    712 15.23                             121    1.64 0  201 293 
 NOR  HZ EP        711 52.12                             117   -0.30 8  232 234 
 NOR  HN ES        712 19.71                             117    0.08 8  232 234 
 SML  HZ EP        711 52.71                             116   -0.77 8  242 336 
 SML  HN ES   4    712 23.65                             116    2.14 0  242 336 
 CHI  HZ EP        711 54.70                             115    0.06 8  248 194 
 CHI  HN ES     C  712 23.06                             115   -0.53 8  248 194 
 URE  HZ EP   1    711 58.62                             112    0.85 6  280 292 
 URE  HN ES   4    712 27.73                             112   -1.43 0  280 292 
 GUY2CHZ EP   4    712  2.10                             111    1.71 0  298 234 
 GUY2CHE ES   4    712 35.87                             111    2.05 0  298 234 
 RREF HZ EP   4    712  4.59                             109    1.62 0  319 229 
 RREF HN ES   4    712 40.58                             109    2.16 0  319 229 
 CBOC HZ EP        712  4.22                             108    0.55 7  330 252 
 CBOC HN ES        712 39.81                             108    0.15 7  330 252 
 CBOC HZ I         712 45.08         3.5 0.40            111            330 252 
 ORTC HZ EP        712 10.60                             105   -0.30 6  393 216 
 ORTC HN ES        712 53.70                             105    1.17 6  393 216 
 ORTC HZ I         712 58.30         7.9 0.41            107            393 216 
 SJC  HZ EP   4    712 10.79                             104   -1.76 0  407 327 
 SJC  HN ES   4    712 52.55                             104   -2.92 0  407 327 
                                                                                
