 2010 1021 0417 10.0 L   6.781 -73.117148.2  RSN  4 0.1 1.5LRSN                1
 GAP=162        0.33       3.4     6.6  6.3  0.1410E+02 -0.2697E+02 -0.1234E+02E
 Epicentro: LOS SANTOS - SANTANDER                                             3
 ACTION:UP  11-02-18 11:11 OP:tino STATUS:               ID:20101021041710 L   I
 2010-10-21-0415-54S.COL___128                                                 6
 STAT SP IPHASW D HRMM SECON CODA AMPLIT PERI AZIMU VELO SNR AR TRES W  DIS CAZ7
 BAR2 SZ EP   1    417 29.86                             171    -0.1 7   22 199 
 BAR2 SZ I         417 46.60         9.9 0.13                            22 199 
 BRR  HZ IP     C  417 31.74                             152     0.110   75 299 
 BRR  HZ I         417 32.01        16.5 0.17                            75 299 
 BRR  HN ES   1    417 48.49                             152    -0.1 7   75 299 
 RUS  HZ EP   1    417 33.81                             145    -0.1 7   98 178 
 RUS  HN ES   1    417 52.53                             145     0.1 7   98 178 
 RUS  HZ I         417 53.81         2.3 0.46                            98 178 
 GRA  SZ EP   1    417 35.61                             137     0.0 7  127  16 
 GRA  SZ I         418  1.22         3.7 0.14                           127  16 
                                                                                
