 2013  221 0218 38.8 L   6.825 -73.216142.6  RSN  6 0.4 1.4LRSN                1
 GAP=127        0.82       4.7     5.5  8.5 -0.6480E+00  0.1077E+02 -0.5121E+01E
 Epicentro: ZAPATOCA - SANTANDER                                               3
 ACTION:UPD 13-03-12 09:34 OP:ep   STATUS:               ID:20130221021838 L   I
 2013-02-21-0217-50M.COL___194                                                 6
 STAT SP IPHASW D HRMM SECON CODA AMPLIT PERI AZIMU VELO AIN AR TRES W  DIS CAZ7
 BAR2 SZ EP   1    218 58.04                             169   -0.10 7 26.0 172 
 BAR2 SZ ES   1    219 12.36                             169   -0.84 7 26.0 172 
 BAR2 SZ I         219 14.88        11.3 0.22            170           26.0 172 
 BRR  HN ES   2    219 15.89                             155    0.82 5 63.1 300 
 PAM  SZ EP   1    219  1.19                             149    0.29 7 80.5  45 
 PAM  SN ES   1    219 18.32                             149    0.20 7 80.5  45 
 PAM  SZ I         219 20.38         2.3 0.46            154           80.5  45 
 RUS  HZ EP   1    219  2.21                             142   -0.32 7  104 172 
 RUS  HN ES   1    219 21.54                             142    0.51 7  104 172 
 RUS  HZ I         219 22.26         2.5 0.40            146            104 172 
 PTB  HZ EP   1    219  5.05                             133    0.15 7  141 257 
 PTB  HN ES   1    219 25.21                             133   -0.03 7  141 257 
 PTB  HZ I         219 31.15         4.2 0.20            133            141 257 
 SML  HE ES   1    219 42.27                             117   -0.33 6  238 337 
                                                                                
