 2012 1221 0035 24.6 L   6.808 -73.158146.1  RSN  9 0.3 2.1LRSN                1
 GAP=182        0.68       3.4     4.5  5.8  0.5260E+01  0.4568E+00 -0.4462E+00E
 Epicentro: LOS SANTOS - SANTANDER                                             3
 ACTION:UPD 13-01-04 14:29 OP:ep   STATUS:               ID:20121221003524 L   I
 2012-12-21-0030-00M.COL___243                                                 6
 STAT SP IPHASW D HRMM SECON CODA AMPLIT PERI AZIMU VELO AIN AR TRES W  DIS CAZ7
 BAR2 SZ EP        035 44.22                             170   -0.0610 24.0 186 
 BAR2 SZ I         036  0.72        35.5 0.24                          24.0 186 
 GIR2 SZ EP        035 44.18                             168   -0.1010 30.2 353 
 BRR  HZ IP     C  035 46.07                             153    0.3810 69.6 298 
 BRR  HZ I         035 46.36        34.8 0.18                          69.6 298 
 BRR  HE ES   1    036  2.71                             153    0.56 7 69.6 298 
 RUS  HZ EP        035 48.40                             144   -0.0510  102 175 
 RUS  HN ES        036  6.87                             144   -0.1910  102 175 
 RUS  HN I         036  8.19        28.9 0.22                           102 175 
 PTB  HZ EP        035 51.04                             132   -0.45 9  147 258 
 PTB  HN ES   1    036 12.01                             132   -0.45 7  147 258 
 PTB  HZ I         036 14.51        16.9 0.19                           147 258 
 OCA  HZ EP   1    035 52.53                             130   -0.30 7  159 354 
 ZAR  HZ EP   1    035 57.18                             123    0.28 6  202 292 
 ZAR  HE ES   1    036 22.02                             123   -0.08 6  202 292 
 ZAR  HZ I         036 27.98        11.5 0.27                           202 292 
 CHI  HZ EP        036  2.73                             117    0.37 8  249 195 
 CHI  HN ES   1    036 32.13                             117    0.31 6  249 195 
 CHI  HZ I         036 38.78         3.8 0.36                           249 195 
 PRA  HZ EP   1    036 18.29                             107    0.15 4  392 209 
 PRA  HZ I         037  6.84         4.5 0.21                           392 209 
                                                                                
