 2012  221 0138 33.2 L   6.821 -73.090146.0  RSN  6 0.4 1.6LRSN                1
 GAP=143        0.66       3.9     6.8  6.2 -0.4788E+01 -0.1123E+01  0.9353E+01E
 ACTION:UP  12-03-07 16:32 OP:epov STATUS:               ID:20120221013833 L   I
 2012-02-21-0137-59S.COL___191                                                 6
 STAT SP IPHASW D HRMM SECON CODA AMPLIT PERI AZIMU VELO AIN AR TRES W  DIS CAZ7
 BAR2 SZ EP   1    138 52.62                             169   -0.32 7 27.3 202 
 BAR2 SZ ES   2    139  7.66                             169   -0.68 5 27.3 202 
 BAR2 SZ I         139  9.16         6.1 0.35                          27.3 202 
 GIR2 SZ EP   1    138 52.81                             168   -0.06 7 30.7 338 
 GIR2 SZ ES   1    139  8.53                             168    0.30 7 30.7 338 
 PAM  SZ EP   1    138 55.42                             153    0.32 7 71.7  37 
 PAM  SE ES   1    139 12.36                             153    0.16 7 71.7  37 
 PAM  SZ I         139 14.37         9.4 0.55                          71.7  37 
 BRR  HZ EP   1    138 54.40                             151   -0.22 7 75.6 295 
 BRR  HE ES   1    139 11.41                             151    0.08 7 75.6 295 
 RUS  HZ EP   1    138 56.80                             143   -0.32 7  103 180 
 RUS  HN ES   1    139 15.67                             143   -0.11 7  103 180 
 RUS  HZ I         139 17.21         6.1 0.33                           103 180 
 CHI  HZ EP   1    139 11.20                             117   -0.13 6  253 196 
 CHI  HN ES   1    139 41.97                             117    0.89 6  253 196 
 CHI  HZ I         139 44.80         2.5 0.53                           253 196 
                                                                                
