 2016 1221 0150 48.6 L   6.855 -73.131153.8  RSN  7 0.4 1.5LRSN                1
 GAP=136        0.91       5.5     4.8  6.8 -0.3165E+01  0.9622E+01  0.1194E+02E
 Epicentro: LOS SANTOS - SANTANDER                                             3
 ACTION:UPD 17-01-11 20:17 OP:rebc STATUS:               ID:20161221015048 L   I
 OLDACT:UP  16-12-21 14:50 OP:cog  STATUS:               ID:20161221014746     3
 OLDACT:REG 16-12-21 12:58 OP:cog  STATUS:               ID:20161221014746     3
 2016-12-21-0148-00M.COL___381                                                 6
 STAT SP IPHASW D HRMM SECON CODA AMPLIT PERI AZIMU VELO AIN AR TRES W  DIS CAZ7
 BAR2 EZ EP        151  9.54                             169    0.2410 29.6 191 
 BAR2 EZ ES        151 25.33                             169   -0.1510 29.6 191 
 BAR2 EZ I         151 27.72         9.7 0.28            167           29.6 191 
 BRR  HN ES        151 28.22                             154    0.5610 70.0 294 
 PAM  EZ EP   3    151 12.88                             154    1.54 2 71.7  42 
 PAM  EN ES        151 28.61                             154   -0.4810 71.7  42 
 PAM  EZ I         151 32.17         4.4 0.52            158           71.7  42 
 RUS  HZ EP        151 13.78                             144    0.2410  107 177 
 RUS  HN ES        151 33.10                             144    0.0810  107 177 
 PTB  HZ EP        151 15.86                             133   -0.60 9  151 257 
 PTB  HE ES        151 37.85                             133   -0.36 9  151 257 
 PTB  HZ I         151 44.94         3.2 0.34            133            151 257 
 NOR  HZ EP        151 25.59                             120    0.29 8  240 234 
 NOR  HN ES        151 54.07                             120    0.13 8  240 234 
 NOR  HZ I         152  1.79         2.5 0.16            120            240 234 
 GUY2CHZ EP   4    151 36.16                             113    3.05 0  306 234 
 GUY2CHN ES   3    152  7.24                             113   -0.60 2  306 234 
 GUY2CHZ I         152 16.68         1.6 0.26                           306 234 
                                                                                
