 2013  921 0417 13.0 L   6.680 -73.190144.9  RSN  5 0.3 1.3LRSN                1
 GAP=223        0.85       5.3     5.5  6.5  0.8609E+01  0.5892E+01  0.3102E+01E
 Epicentro: VILLANUEVA - SANTANDER                                             3
 ACTION:UPD 13-10-22 09:23 OP:ep   STATUS:               ID:20130921041713 L   I
 OLDACT:DUP 13-09-21 11:44 OP:jn   STATUS:               ID:20130921040960d    3
 OLDACT:REG 13-09-21 08:08 OP:jn   STATUS:               ID:20130921040959     3
 2013-09-21-0409-59M.COL___269                                                 6
 STAT SP IPHASW D HRMM SECON CODA AMPLIT PERI AZIMU VELO AIN AR TRES W  DIS CAZ7
 BAR2 SZ EP        417 32.07                             176   -0.2510 9.72 175 
 BAR2 SZ ES        417 47.06                             176   -0.3410 9.72 175 
 BAR2 SZ I         417 48.31         4.3 0.18            174           9.72 175 
 BRR  HZ EP        417 34.36                             151    0.1210 74.6 309 
 BRR  HN ES        417 51.37                             151    0.5510 74.6 309 
 BRR  HZ I         417 54.52         3.9 0.32            152           74.6 309 
 RUS  HZ EP        417 35.83                             147    0.0510 87.8 172 
 RUS  HN ES        417 53.69                             147    0.1410 87.8 172 
 RUS  HZ I         417 55.84         2.0 0.32            148           87.8 172 
 PTB  HZ EP        417 38.93                             133   -0.34 9  141 264 
 PTB  HN ES        417 59.35                             133   -0.42 9  141 264 
 PTB  HZ I         418  0.83         3.0 0.10            134            141 264 
 SPBC HZ EP   1    417 40.76                             132    0.58 7  150 221 
 SPBC HN ES   1    418  1.65                             132    0.26 7  150 221 
 SPBC HZ I         418  4.93         3.1 0.50            132            150 221 
                                                                                
