 2011 1221 0626 25.1 L   6.803 -73.375128.3  RSN  4 0.1 1.3LRSN                1
 GAP=119        0.38       5.0     3.5  4.0  0.4745E+01  0.1339E+01  0.4216E+01E
 Epicentro: ZAPATOCA - SANTANDER                                               3
 ACTION:UPD 12-07-13 16:17 OP:ep   STATUS:               ID:20111221062625 L   I
 2011-12-21-0620-00M.COL___189                                                 6
 STAT SP IPHASW D HRMM SECON CODA AMPLIT PERI AZIMU VELO AIN AR TRES W  DIS CAZ7
 BAR2 SZ EP        626 43.00                             165    0.1110 31.5 138 
 BAR2 SZ ES   1    626 56.67                             165   -0.07 7 31.5 138 
 BAR2 SZ I         626 57.38         5.8 0.36                          31.5 138 
 GIR2 SZ EP   1    626 42.69                             163   -0.21 7 36.5  33 
 BRR  HZ EP        626 43.40                             157    0.1410 50.2 312 
 BRR  HZ I         626 43.79         3.8 0.04                          50.2 312 
 BRR  HN ES        626 57.39                             157   -0.0210 50.2 312 
 PTB  HZ EP   1    626 48.28                             133   -0.16 7  123 256 
 PTB  HN ES   2    627  6.67                             133    0.04 5  123 256 
                                                                                
