 2015  521 0123 12.1 L   6.821 -73.021149.2  RSN  4 0.1 1.4LRSN                1
 GAP=212        0.33       4.4     9.1  4.5  0.3603E+02 -0.2880E+02 -0.1401E+02E
 Epicentro: CEPITA - SANTANDER                                                 3
 ACTION:UPD 15-09-10 22:05 OP:cam  STATUS:               ID:20150521012312 L   I
 OLDACT:REG 15-05-21 12:33 OP:spq  STATUS:               ID:20150521011738     3
 2015-05-21-0117-38M.COL___291                                                 6
 STAT SP IPHASW D HRMM SECON CODA AMPLIT PERI AZIMU VELO AIN AR TRES W  DIS CAZ7
 BAR2 EZ EP   1    123 32.45                             168    0.09 7 30.9 215 
 BAR2 EZ ES   1    123 48.18                             168    0.05 7 30.9 215 
 BAR2 EZ I         123 49.92         3.8 0.28            171           30.9 215 
 BRR  HZ EP        123 34.31                             149   -0.0310 82.6 293 
 BRR  HE ES        123 51.70                             149    0.0610 82.6 293 
 BRR  HZ I         123 53.72         5.7 0.50            152           82.6 293 
 RUS  HZ EP        123 36.42                             144    0.0210  103 184 
 RUS  HE ES   1    123 55.15                             144   -0.17 7  103 184 
 RUS  HZ I         123 56.86         1.2 0.30            147            103 184 
 SML  HZ EP   1    123 49.53                             118    0.13 6  248 332 
 SML  HN ES   1    124 18.21                             118   -0.24 6  248 332 
 SML  HZ I         124 20.31         4.8 0.10            120            248 332 
                                                                                
