 2010  521 0725 37.5 L   6.828 -73.173144.0  RSN  4 0.2 2.1LRSN                1
 GAP=172        0.44       4.8    19.8  7.2  0.1155E+02 -0.4422E+02 -0.2110E+02E
 Epicentro: LOS SANTOS - SANTANDER                                             3
 ACTION:UP  10-08-24 10:06 OP:vdl  STATUS:               ID:20100521072537 L   I
 2010-05-21-0723-44S.COL___111                                                 6
 STAT SP IPHASW D HRMM SECON CODA AMPLIT PERI AZIMU VELO SNR AR TRES W  DIS CAZ7
 BAR2 SZ EP        725 56.79                             169    -0.110   26 183 
 BAR2 SZ ES   1    726 12.28                             169     0.2 7   26 183 
 GUE  SZ EP   2    726  1.79                             140     0.0 5  114  14 
 GRA  SZ EP   1    726  2.38                             137     0.0 7  124  19 
 OCA  SZ EP   1    726  5.57                             130     0.3 7  157 354 
 OCA  SZ ES   2    726 26.69                             130    -0.3 5  157 354 
 OCA  SZ I         726 32.37        14.2 0.24                           157 354 
                                                                                
