 2013  721 0257 47.5 L   6.774 -73.196156.0  RSN  4 0.3 1.5LRSN                1
 GAP=233        0.72       6.5     8.8 10.3 -0.2308E+02 -0.4239E+02  0.3104E+02E
 Epicentro: VILLANUEVA - SANTANDER                                             3
 ACTION:UPD 13-08-12 10:39 OP:ep   STATUS:               ID:20130721025747 L   I
 OLDACT:UP  13-07-21 09:34 OP:mh   STATUS:               ID:20130721024959     3
 OLDACT:REG 13-07-21 08:02 OP:mh   STATUS:               ID:20130721024959     3
 2013-07-21-0249-59M.COL___266                                                 6
 STAT SP IPHASW D HRMM SECON CODA AMPLIT PERI AZIMU VELO AIN AR TRES W  DIS CAZ7
 BAR2 SZ EP   1    258  7.72                             172   -0.61 7 20.2 176 
 BAR2 SZ I         258 24.74         3.6 0.36            155           20.2 176 
 BRR  HZ EP   1    258  9.75                             155    0.14 7 67.9 303 
 BRR  HN ES        258 27.08                             155    0.2410 67.9 303 
 BRR  HN I         258 27.40         8.3 0.30            171           67.9 303 
 PTB  HZ EP   1    258 14.80                             136   -0.02 7  142 260 
 PTB  HN ES        258 35.80                             136   -0.32 9  142 260 
 PTB  HZ I         258 37.77         2.5 0.12            145            142 260 
 SPBC HZ EP   1    258 16.80                             132    0.49 7  157 218 
 SPBC HN ES        258 38.86                             132    0.10 9  157 218 
 SPBC HN I         258 43.25         7.6 0.16            133            157 218 
                                                                                
