 2012 1121 0751 53.1 L   6.793 -73.175138.3  RSN  6 0.3 1.5LRSN                1
 GAP=133        0.60       4.5     4.2  6.9  0.9026E-01  0.5196E+01  0.1894E+00E
 Epicentro: LOS SANTOS - SANTANDER                                             3
 ACTION:UPD 12-12-05 15:34 OP:}ep  STATUS:               ID:20121121075153 L   I
 2012-11-21-0750-00M.COL___234                                                 6
 STAT SP IPHASW D HRMM SECON CODA AMPLIT PERI AZIMU VELO AIN AR TRES W  DIS CAZ7
 BAR2 SZ EP   1    752 11.75                             170   -0.01 7 22.2 182 
 BAR2 SZ ES   2    752 26.57                             170    0.22 5 22.2 182 
 BAR2 SZ I         752 29.35         7.6 0.30                          22.2 182 
 PAM  SZ EP   1    752 14.46                             148   -0.19 7 80.1  41 
 PAM  SN ES   2    752 31.83                             148    0.33 5 80.1  41 
 RUS  HZ EP   1    752 15.90                             142   -0.14 7  100 174 
 RUS  HN ES   1    752 33.85                             142   -0.11 7  100 174 
 RUS  HN I         752 35.58         3.9 0.32                           100 174 
 PTB  HZ EP   1    752 18.69                             131   -0.42 7  144 259 
 PTB  HN ES   1    752 39.30                             131   -0.13 7  144 259 
 ZAR  HN ES   2    752 50.11                             121    0.66 4  201 293 
 ZAR  HZ I         752 55.58         5.8 0.31                           201 293 
 CHI  HZ EP   1    752 30.92                             116    0.75 6  247 194 
                                                                                
