 2013  521 0650 46.7 L   6.753 -73.164145.2  RSN  6 0.3 1.7LRSN                1
 GAP=136        0.78       4.0     4.0  5.1 -0.1791E+01  0.2318E+01  0.2278E+01E
 Epicentro: LOS SANTOS - SANTANDER                                             3
 ACTION:UPD 13-06-20 09:52 OP:ep   STATUS:               ID:20130521065046 L   I
 2013-05-21-0648-50M.COL___218                                                 6
 STAT SP IPHASW D HRMM SECON CODA AMPLIT PERI AZIMU VELO AIN AR TRES W  DIS CAZ7
 BAR2 SZ EP        651  6.18                             173    0.0710 17.9 187 
 BAR2 SZ ES        651 21.00                             173   -0.2910 17.9 187 
 BAR2 SZ I         651 23.57         6.3 0.30            172           17.9 187 
 GIR2 SZ EP        651  6.27                             165   -0.1310 36.2 355 
 GIR2 SZ ES        651 22.32                             165    0.5310 36.2 355 
 BRR  HZ EP        651  8.01                             152    0.2210 72.1 303 
 BRR  HN ES        651 24.55                             152    0.2710 72.1 303 
 BRR  HN I         651 26.01        20.2 0.16            152           72.1 303 
 PAM  SZ EP        651  9.14                             149    0.0110 82.7  38 
 PAM  SN ES        651 26.17                             149   -0.4910 82.7  38 
 PAM  SN I         651 28.23        13.7 0.42            152           82.7  38 
 RUS  HZ EP        651 10.24                             145    0.2510 95.5 175 
 RUS  HN ES        651 28.23                             145    0.0410 95.5 175 
 RUS  HN I         651 29.44         4.9 0.30            147           95.5 175 
 PTB  HZ EP        651 13.12                             132   -0.19 9  145 261 
 PTB  HN ES        651 33.73                             132   -0.37 9  145 261 
 PTB  HN I         651 38.92        10.3 0.66            133            145 261 
                                                                                
