 2017  821 0616 26.9 L   6.745 -73.046146.0  RSN  7 0.4 1.2LRSN                1
 GAP=152        1.08       4.6     5.3  7.2 -0.3550E+01  0.1099E+02  0.4983E+01E
 Epicentro: JORDAN - SANTANDER                                                 3
 ACTION:UPD 17-09-04 20:22 OP:rebc STATUS:               ID:20170821061626 L   I
 OLDACT:DUP 17-08-21 16:15 OP:osc  STATUS:               ID:20170821060744d    3
 2017-08-21-0608-00M.COL___411                                                 6
 STAT SP IPHASW D HRMM SECON CODA AMPLIT PERI AZIMU VELO AIN AR TRES W  DIS CAZ7
 BAR2 EZ EP        616 46.52                             171   -0.0310 22.6 222 
 BAR2 EZ ES        617  2.02                             171    0.1510 22.6 222 
 PAM  EZ EP        616 48.99                             151   -0.0810 76.1  30 
 PAM  EE ES        617  6.53                             151    0.1710 76.1  30 
 PAM  EZ I         617  8.30         1.9 0.22            153           76.1  30 
 BRR  HZ EP        616 48.21                             149   -0.6310 83.8 299 
 BRR  HN ES        617  5.54                             149   -0.4010 83.8 299 
 RUS  HZ EP        616 50.35                             146    0.1110 94.3 182 
 RUS  HN ES        617  8.82                             146    0.3810 94.3 182 
 RUS  HZ I         617 10.62         1.1 0.26            146           94.3 182 
 SPBC HZ EP        616 55.18                             129   -0.49 9  166 223 
 SPBC HE ES        617 17.85                             129   -0.26 9  166 223 
 SPBC HZ I         617 20.56         3.6 0.12            130            166 223 
 ZAR  HE ES        617 27.90                             121    0.91 8  217 293 
 GUY2CHZ EP        617 12.09                             112    0.92 7  307 237 
 GUY2CHE ES        617 45.39                             112   -0.30 7  307 237 
 GUY2CHZ I         617 52.82         1.2 0.26                           307 237 
                                                                                
