 2015  321 0408 43.7 L   7.421 -73.210125.5  RSN  7 0.6 1.5LRSN                1
 GAP=107        1.54       4.5     7.2 10.2  0.3298E+01  0.1663E+02 -0.1396E+00E
 Epicentro: EL PLAYON - SANTANDER                                              3
 ACTION:UPD 15-04-30 16:27 OP:nd   STATUS:               ID:20150321040843 L   I
 OLDACT:REG 15-03-21 12:44 OP:stll STATUS:               ID:20150321035750     3
 2015-03-21-0357-50M.COL___272                                                 6
 STAT SP IPHASW D HRMM SECON CODA AMPLIT PERI AZIMU VELO AIN AR TRES W  DIS CAZ7
 PAM  SZ EP        4 9  3.35                             154    0.7410 57.0  99 
 PAM  SE ES        4 9 17.62                             154    0.2910 57.0  99 
 PAM  SZ I         4 9 19.89         7.1 0.40            157           57.0  99 
 BRR  HZ EP        4 9  2.93                             151    0.5510 65.4 238 
 BRR  HZ I         4 9  3.44         6.0 0.16            150           65.4 238 
 BRR  HE ES        4 9 17.43                             151    0.5210 65.4 238 
 OCA  HZ EP        4 9  4.71                             142    0.3510 91.3 352 
 OCA  HZ I         4 9  5.27        11.4 0.22            144           91.3 352 
 OCA  HE ES        4 9 20.03                             142   -0.4110 91.3 352 
 BAR2 EZ EP        4 9  4.70                             142    0.2010 91.6 178 
 BAR2 EZ ES        4 9 20.24                             142   -0.4610 91.6 178 
 BAR2 EZ I         4 9 22.47         7.0 0.16            143           91.6 178 
 PTB  HZ EP        4 9 11.37                             123    0.14 9  169 235 
 PTB  HE ES        4 9 33.11                             123    0.43 9  169 235 
 PTB  HZ I         4 9 37.87         4.4 0.26            124            169 235 
 RUS  HZ EP        4 9 11.76                             123   -0.18 9  170 175 
 RUS  HE ES        4 9 32.50                             123   -1.44 9  170 175 
 RUS  HZ I         4 9 34.65         1.4 0.20            125            170 175 
 SML  HZ EP        4 9 12.29                             121   -0.06 9  180 328 
 SML  HE ES        4 9 33.55                             121   -1.12 9  180 328 
 SML  HZ I         4 9 35.82        10.9 0.10            123            180 328 
                                                                                
