 2017  721 0724 30.3 L   6.696 -73.185146.6  RSN  6 0.4 1.5LRSN                1
 GAP=225        0.84       5.1     5.9  8.9  0.8287E+01 -0.1963E+01  0.2350E+00E
 Epicentro: VILLANUEVA - SANTANDER                                             3
 ACTION:UPD 17-08-30 15:35 OP:rebc STATUS:               ID:20170721072430 L   I
 OLDACT:UP  17-07-21 18:15 OP:dnl  STATUS:               ID:20170721071735     3
 OLDACT:UP  17-07-21 18:15 OP:dnl  STATUS:               ID:20170721071735     3
 OLDACT:REG 17-07-21 12:37 OP:dnl  STATUS:               ID:20170721071735     3
 2017-07-21-0718-00M.COL___377                                                 6
 STAT SP IPHASW D HRMM SECON CODA AMPLIT PERI AZIMU VELO AIN AR TRES W  DIS CAZ7
 BAR2 EZ ES   2    725  4.18                             175   -0.95 5 11.5 179 
 BAR2 EZ I         725  6.34         9.8 0.26            176           11.5 179 
 BRR  HZ EP        724 51.55                             152   -0.1810 73.9 308 
 BRR  HE ES        725  8.88                             152    0.4710 73.9 308 
 BRR  HZ I         725 13.37         5.0 0.14            152           73.9 308 
 RUS  HZ EP        724 53.63                             147    0.2210 89.6 173 
 RUS  HN ES        725 11.37                             147   -0.0310 89.6 173 
 RUS  HZ I         725 12.93         3.4 0.36            151           89.6 173 
 PTB  HZ EP   2    724 56.17                             134   -0.65 5  142 263 
 PTB  HN ES        725 17.15                             134   -0.34 9  142 263 
 PTB  HZ I         725 18.31         2.6 0.10            135            142 263 
 SPBC HN ES        725 19.48                             132    0.23 9  152 220 
 SPBC HZ I         725 22.46         3.9 0.36            134            152 220 
 ZAR  HZ EP   4    725  3.92                             123    1.02 0  205 296 
 ZAR  HN ES   4    725 26.59                             123   -1.72 0  205 296 
 ZAR  HZ I         725 30.36         3.7 0.44            125            205 296 
                                                                                
