 2012  721 0938 51.6 L   6.762 -73.160144.2  RSN  5 0.3 1.4LRSN                1
 GAP=136        0.74       5.3     5.0  7.1 -0.6252E+00 -0.1580E-01 -0.5016E+01E
 Epicentro: LOS SANTOS - SANTANDER                                             3
 ACTION:UPD 12-08-14 11:46 OP:ep   STATUS:               ID:20120721093851 L   I
 2012-07-21-0930-00M.COL___215                                                 6
 STAT SP IPHASW D HRMM SECON CODA AMPLIT PERI AZIMU VELO AIN AR TRES W  DIS CAZ7
 BAR2 SZ EP   1    939 10.68                             172    -0.3 7   19 187 
 BAR2 SZ ES   1    939 25.86                             172    -0.2 7   19 187 
 BAR2 SZ I         939 27.37         9.9 0.21            172             19 187 
 BRR  HZ EP        939 12.84                             152     0.210   72 302 
 BRR  HN ES   1    939 29.52                             152     0.5 7   72 302 
 BRR  HZ I         939 32.38         6.0 0.12            152             72 302 
 PAM  SZ EP        939 13.92                             149     0.010   82  39 
 PAM  SN ES   2    939 30.78                             149    -0.5 5   82  39 
 RUS  HZ EP   1    939 14.94                             145     0.0 7   97 175 
 RUS  HN ES   1    939 33.32                             145     0.2 7   97 175 
 RUS  HZ I         939 35.27         3.6 0.43            147             97 175 
 PTB  HZ EP   1    939 18.05                             132    -0.2 7  145 260 
 PTB  HN ES   1    939 38.47                             132    -0.5 7  145 260 
 PTB  HZ I         939 41.53         2.6 0.12            133            145 260 
