 2016 1121 0502 22.7 L   6.741 -73.182146.3  RSN  4 0.1 1.2LRSN                1
 GAP=141        0.38       4.4     2.6  3.7 -0.6803E+01  0.3140E+01 -0.2738E+01E
 Epicentro: VILLANUEVA - SANTANDER                                             3
 ACTION:UPD 17-10-26 21:10 OP:lp   STATUS:               ID:20161121050222 L   I
 OLDACT:REG 16-11-21 14:29 OP:edw  STATUS:               ID:20161121045643     3
 2016-11-21-0457-00M.COL___340                                                 6
 STAT SP IPHASW D HRMM SECON CODA AMPLIT PERI AZIMU VELO AIN AR TRES W  DIS CAZ7
 BAR2 EZ EP        5 2 42.43                             173    0.1410 16.4 180 
 BAR2 EZ ES        5 2 57.65                             173    0.0910 16.4 180 
 BAR2 EZ I         5 2 59.06         5.5 0.19            172           16.4 180 
 PAM  EZ EP        5 2 45.43                             149   -0.0310 85.0  39 
 PAM  EN ES        5 3  3.10                             149   -0.1010 85.0  39 
 PTB  HZ EP        5 2 49.25                             133   -0.02 9  143 261 
 PTB  HN ES        5 3  9.82                             133   -0.16 9  143 261 
 PTB  HZ I         5 3 12.73         1.6 0.08            134            143 261 
 ZAR  HN ES   2    5 3 20.65                             123    0.32 4  203 294 
                                                                                
