 2015  721 0449  5.6 L   6.797 -73.165141.6  RSN 16 0.4 2.4LRSN                1
 GAP=134        0.86       2.4     3.1  4.6 -0.1004E+01  0.6460E+01  0.4820E+00E
 Epicentro: LOS SANTOS - SANTANDER                                             3
 ACTION:UPD 15-09-08 21:49 OP:cam  STATUS:               ID:20150721044905 L   I
 OLDACT:REG 15-07-21 13:07 OP:stll STATUS:               ID:20150721044750     3
 2015-07-21-0447-50M.COL___340                                                 6
 STAT SP IPHASW D HRMM SECON CODA AMPLIT PERI AZIMU VELO AIN AR TRES W  DIS CAZ7
 BAR2 EZ IP     C  449 24.88                             170    0.1910 22.7 185 
 BAR2 EZ ES        449 39.27                             170   -0.3310 22.7 185 
 BAR2 EZ I         449 40.96        55.1 0.14            168           22.7 185 
 PAM  EZ EP     D  449 27.69                             149    0.2410 79.0  41 
 PAM  EZ I         449 27.95        38.5 0.24            151           79.0  41 
 PAM  EN ES        449 44.66                             149    0.1410 79.0  41 
 RUS  HZ EP        449 28.74                             143   -0.1710  100 175 
 RUS  HN ES        449 47.15                             143    0.0510  100 175 
 RUS  HZ I         449 48.39        19.9 0.26            142            100 175 
 CPBEREZ EP        449 31.77                             131   -0.24 9  146 259 
 CPBEREE ES        449 52.65                             131    0.02 9  146 259 
 ZAR  HZ EP        449 37.34                             122   -0.22 9  202 292 
 ZAR  HE ES        450  3.12                             122    0.61 9  202 292 
 ZAR  HZ I         450  8.92        27.5 0.34            119            202 292 
 NOR  HZ EP        449 40.84                             118   -0.02 8  233 234 
 NOR  HN ES        450  8.19                             118   -0.18 8  233 234 
 NOR  HZ I         450 16.50        20.9 0.14            115            233 234 
 SML  HZ EP        449 42.05                             117    0.14 8  243 336 
 SML  HN ES        450  9.45                             117   -0.80 8  243 336 
 SML  HZ I         450 13.53        27.7 0.32            115            243 336 
 CHI  HZ EP        449 42.58                             116   -0.37 8  248 195 
 CHI  HN ES        450 11.81                             116   -0.29 8  248 195 
 CHI  HZ I         450 17.50         8.6 0.22            115            248 195 
 ROSC BZ EP        449 44.07                             116    0.75 8  251 211 
 ROSC BN ES        450 13.16                             116    0.41 8  251 211 
 ROSC BZ I         450 22.28        21.3 0.40            114            251 211 
 HEL  HZ EP        449 45.50                             114    0.16 8  270 256 
 HEL  HN ES        450 17.25                             114    0.90 8  270 256 
 HEL  HZ I         450 23.28         9.7 0.22            112            270 256 
 GUY2CHZ EP        449 49.05                             112    0.28 7  299 235 
 GUY2CHE ES        450 22.41                             112   -0.05 7  299 235 
 GUY2CHZ I         450 31.07        14.3 0.60                           299 235 
 PTGC HZ EP   4    449 47.75                             111   -1.55 0  309 158 
 PTGC HZ I         449 48.21        17.3 0.20            110            309 158 
 PTGC HN ES   4    450 19.22                             111   -4.19 0  309 158 
 CBOC HZ EP        449 52.48                             109    0.41 7  331 252 
 CBOC HZ I         449 53.46         5.2 0.20            107            331 252 
 CBOC HN ES        450 27.43                             109   -0.91 7  331 252 
 DBB  SZ EP        449 52.43                             109   -0.21 7  337 274 
 DBB  SZ I         450 31.56        19.8 0.44            107            337 274 
 ORTC HZ EP        449 58.66                             106   -0.52 6  394 216 
 ORTC HN ES        450 40.65                             106   -0.33 6  394 216 
 ORTC HZ I         450 48.50         6.0 0.22            104            394 216 
 PAL  HZ EP        450  0.45                             105    0.09 6  404 239 
 PAL  HZ I         450  1.74         5.0 0.42            104            404 239 
 PAL  HE ES        450 42.79                             105   -0.30 6  404 239 
                                                                                
