 2017 1021 0508 52.5 L   6.761 -73.114144.5  RSN  5 0.2 1.2LRSN                1
 GAP=142        0.48       3.7     3.8  4.2 -0.2113E+01 -0.1798E+01  0.4548E+01E
 Epicentro: LOS SANTOS - SANTANDER                                             3
 ACTION:UPD 17-11-07 19:34 OP:rebc STATUS:               ID:20171021050852 L   I
 OLDACT:UP  17-10-21 15:54 OP:dani STATUS:               ID:20171021050742     3
 OLDACT:UP  17-10-21 15:54 OP:dani STATUS:               ID:20171021050742     3
 OLDACT:UP  17-10-21 15:54 OP:dani STATUS:               ID:20171021050742     3
 OLDACT:REG 17-10-21 13:20 OP:dani STATUS:               ID:20171021050742     3
 2017-10-21-0508-00M.COL___447                                                 6
 STAT SP IPHASW D HRMM SECON CODA AMPLIT PERI AZIMU VELO AIN AR TRES W  DIS CAZ7
 BAR2 EZ EP        5 9 11.90                             172   -0.0410 20.1 202 
 BAR2 EZ ES        5 9 26.89                             172   -0.2010 20.1 202 
 BAR2 EZ I         5 9 29.37         3.4 0.37            170           20.1 202 
 BRR  HZ EP        5 9 13.66                             150   -0.1810 76.4 300 
 BRR  HN ES        5 9 30.67                             150    0.2010 76.4 300 
 BRR  HZ I         5 9 31.52         3.2 0.14            155           76.4 300 
 PAM  EZ EP        5 9 14.76                             150    0.0810 78.7  36 
 PAM  EE ES        5 9 31.95                             150   -0.0210 78.7  36 
 PAM  EZ I         5 9 33.68         3.5 0.56            153           78.7  36 
 RUS  HZ EP        5 9 16.04                             145    0.2110 96.0 178 
 RUS  HN ES   4    5 9 34.54                             145    0.54 0 96.0 178 
 RUS  HZ I         5 9 36.61         2.0 0.07            145           96.0 178 
 PTB  HZ EP   3    5 9 18.79                             131   -0.85 2  150 261 
                                                                                
