 2010 1021 0649  5.7 L   6.815 -73.046146.8  RSN  4 0.4 1.4LRSN                1
 GAP=170        0.77       5.9    14.9 14.8  0.4515E+02 -0.1513E+03 -0.4944E+02E
 Epicentro: LOS SANTOS - SANTANDER                                             3
 ACTION:UP  11-02-18 11:11 OP:tino STATUS:               ID:20101021064905 L   I
 2010-10-21-0646-05S.COL___128                                                 6
 STAT SP IPHASW D HRMM SECON CODA AMPLIT PERI AZIMU VELO SNR AR TRES W  DIS CAZ7
 BRR  HZ EP   1    649 27.53                             149     0.0 7   80 294 
 BRR  HE ES   1    649 44.42                             149    -0.1 7   80 294 
 BRR  HZ I         649 48.78         4.7 0.19                            80 294 
 RUS  HZ EP   1    649 30.08                             143     0.4 7  102 182 
 RUS  HN ES   1    649 48.24                             143    -0.1 7  102 182 
 RUS  HZ I         649 50.20         1.9 0.49                           102 182 
 GRA  SZ EP   1    649 30.23                             138    -0.4 7  121  13 
 GRA  SZ I         649 31.50         4.8 0.49                           121  13 
 OCA  SZ EP   1    649 34.00                             129    -0.1 7  160 349 
 OCA  SZ ES   2    649 57.08                             129     0.8 5  160 349 
 OCA  SZ I         650  1.30         4.9 0.36                           160 349 
                                                                                
