 2017  421 0741 20.2 L   6.812 -73.158138.9  RSN 11 0.5 2.1LRSN                1
 GAP=110        1.11       4.1     3.7  6.1  0.8985E+00  0.5390E+01  0.6507E+01E
 Epicentro: LOS SANTOS - SANTANDER                                             3
 ACTION:UPD 17-05-30 21:14 OP:jn   STATUS:               ID:20170421074120 L   I
 OLDACT:UP  17-04-21 17:00 OP:cog  STATUS:               ID:20170421072700     3
 OLDACT:REG 17-04-21 13:53 OP:cog  STATUS:               ID:20170421072700     3
 2017-04-21-0738-00M.COL___359                                                 6
 STAT SP IPHASW D HRMM SECON CODA AMPLIT PERI AZIMU VELO AIN AR TRES W  DIS CAZ7
 BAR2 EZ EP        741 38.98                             170   -0.0810 24.5 186 
 BAR2 EZ ES        741 53.51                             170   -0.2410 24.5 186 
 BAR2 EZ I         741 55.35        52.5 0.16            168           24.5 186 
 BRR  HZ EP        741 40.82                             152    0.2810 69.3 298 
 BRR  HN ES        741 56.49                             152    0.1210 69.3 298 
 BRR  HZ I         741 59.01        17.1 0.10            150           69.3 298 
 PAM  EZ EP        741 41.76                             149    0.0510 77.2  41 
 PAM  EN ES        741 58.91                             149    0.4410 77.2  41 
 PAM  EZ I         742  1.20        20.1 0.50            153           77.2  41 
 PTB  HZ EP        741 45.99                             131   -0.56 9  147 258 
 PTB  HN ES        742  6.21                             131   -0.87 9  147 258 
 SPBC HZ EP        741 48.00                             127   -0.24 9  163 218 
 SPBC HN ES        742 10.58                             127    0.50 9  163 218 
 SPBC HZ I         742 12.59        44.6 0.38            128            163 218 
 YPLC HZ EP        741 49.43                             125   -0.29 9  179 151 
 YPLC HN ES        742 12.72                             125   -0.01 9  179 151 
 ZAR  HZ EP        741 51.53                             121   -0.52 9  202 292 
 ZAR  HE ES        742 16.66                             121   -0.21 9  202 292 
 ZAR  HZ I         742 23.74         6.9 0.00            121            202 292 
 NOR  HN ES   4    742 20.47                             117   -2.61 0  234 234 
 ROSC BZ EP   9    741 59.33                             115    1.29 0  253 211 
 ROSC BE ES        742 28.76                             116   -0.06 8  253 211 
 ROSC BZ I         742 34.28         8.7 0.50            116            253 211 
 HEL  HZ EP        742  1.14                             113    1.14 8  271 255 
 HEL  HN ES        742 31.82                             113    0.81 8  271 255 
 HEL  HZ I         742 37.01         7.9 0.30            114            271 255 
 CBOC HZ EP        742  7.32                             109    0.55 7  333 252 
 CBOC HE ES   4    742 41.21                             109   -1.86 0  333 252 
 CBOC HZ I         742 49.20         2.0 0.60            109            333 252 
 PRA  HZ EP        742 12.92                             105   -0.67 6  393 209 
 PRA  HE ES        742 55.51                             105    0.31 6  393 209 
                                                                                
