 2016  721 0841 58.1 L   6.814 -73.110151.8  RSN  5 0.5 1.8LRSN                1
 GAP=242        1.14       6.7     8.5  8.3  0.2805E+02  0.1169E+02 -0.8495E+00E
 Epicentro: LOS SANTOS - SANTANDER                                             3
 ACTION:UPD 17-03-29 16:53 OP:lp   STATUS:               ID:20160721084158 L   I
 OLDACT:REG 16-07-21 14:21 OP:ar   STATUS:               ID:20160721083759     3
 2016-07-21-0837-59S.COL___307                                                 6
 STAT SP IPHASW D HRMM SECON CODA AMPLIT PERI AZIMU VELO AIN AR TRES W  DIS CAZ7
 BAR2 EZ EP        842 18.42                             170   -0.1010 25.8 198 
 BAR2 EZ ES        842 33.69                             170   -0.7510 25.8 198 
 BRR  HZ EP        842 20.71                             153    0.6410 74.0 296 
 BRR  HN ES        842 37.53                             153    0.3310 74.0 296 
 BRR  HZ I         843  3.05        14.6 0.38            151           74.0 296 
 RUS  HZ EP        842 22.75                             145    0.1910  102 178 
 RUS  HN ES        842 41.89                             145    0.2710  102 178 
 SPBC HZ EP        842 27.47                             130    0.04 9  167 220 
 SPBC HN ES        842 50.19                             130   -0.10 9  167 220 
 SPBC HZ I         842 56.39         7.0 0.30            139            167 220 
 ZAR  HZ EP        842 30.36                             123   -0.91 8  207 291 
 ZAR  HN ES        842 57.32                             123    0.18 8  207 291 
 ZAR  HZ I         843  1.86         5.1 0.48            129            207 291 
                                                                                
