 2017 1221 0646 12.6 L   6.771 -73.163145.3  RSN  5 0.2 1.6LRSN                1
 GAP=147        0.60       3.5     3.0  4.8 -0.3507E+01  0.5515E+01 -0.4308E+01E
 Epicentro: LOS SANTOS - SANTANDER                                             3
 ACTION:UPD 18-01-04 13:22 OP:rebc STATUS:               ID:20171221064612 L   I
 OLDACT:UP  17-12-21 16:51 OP:dani STATUS:               ID:20171221063259d    3
 OLDACT:DUP 17-12-21 16:48 OP:dani STATUS:               ID:20171221063259d    3
 OLDACT:REG 17-12-21 13:20 OP:dani STATUS:               ID:20171221063257     3
 2017-12-21-0638-00M.COL___455                                                 6
 STAT SP IPHASW D HRMM SECON CODA AMPLIT PERI AZIMU VELO AIN AR TRES W  DIS CAZ7
 BAR2 EZ EP        646 32.21                             172    0.0810 19.9 186 
 BAR2 EZ ES        646 47.50                             172    0.1510 19.9 186 
 BAR2 EZ I         646 48.30        16.9 0.28            171           19.9 186 
 PAM  EZ EP        646 35.05                             150    0.0410 81.0  39 
 PAM  EN ES        646 52.42                             150   -0.0510 81.0  39 
 PAM  EZ I         646 55.35         4.5 0.64            153           81.0  39 
 PTB  HZ EP        646 39.02                             132   -0.31 9  145 260 
 PTB  HN ES        646 59.94                             132   -0.22 9  145 260 
 PTB  HZ I         647  7.40         3.3 0.34            133            145 260 
 OCA  HZ EP        646 41.44                             129    0.27 9  163 354 
 OCA  HN ES        647  3.11                             129   -0.33 9  163 354 
 ZAR  HZ EP        646 44.98                             122    0.00 9  204 293 
 ZAR  HN ES        647 10.65                             122    0.42 9  204 293 
 ZAR  HZ I         647 16.91         7.0 0.32            123            204 293 
                                                                                
