 2011 1021 0246 58.5 L   6.713 -73.069151.1  RSN  6 0.3 1.6LRSN                1
 GAP=190        0.42       4.2     6.5  5.8  0.1207E+02  0.7325E+01 -0.4198E+00E
 Epicentro: JORDAN - SANTANDER                                                 3
 ACTION:UPD 12-07-13 16:05 OP:ep   STATUS:               ID:20111021024658 L   I
 2011-10-21-0245-19S.COL___171                                                 6
 STAT SP IPHASW D HRMM SECON CODA AMPLIT PERI AZIMU VELO AIN AR TRES W  DIS CAZ7
 BAR2 SZ EP   2    247 18.38                             173   -0.26 5 18.3 223 
 BAR2 SZ I         247 19.92         9.1 0.65                          18.3 223 
 BAR2 SZ ES   2    247 34.42                             173    0.03 5 18.3 223 
 GIR2 SZ EP   2    247 18.72                             163   -0.39 5 42.7 341 
 GIR2 SZ ES   2    247 34.85                             163   -0.38 5 42.7 341 
 BRR  HZ EP   2    247 21.01                             149    0.11 5 83.4 302 
 BRR  HN ES   2    247 38.76                             149    0.36 5 83.4 302 
 BRR  HZ I         247 39.48        11.8 0.44                          83.4 302 
 RUS  HZ EP   2    247 22.40                             148    0.33 5 90.8 181 
 RUS  HN ES   2    247 40.57                             148    0.08 5 90.8 181 
 RUS  HZ I         247 44.32         2.7 0.39                          90.8 181 
 OCA  SZ ES   2    247 51.77                             129    0.39 4  171 351 
 OCA  SZ I         247 55.01         5.1 0.25                           171 351 
 ZAR  HZ EP   2    247 32.47                             122    0.03 4  216 294 
 ZAR  HE ES   2    247 58.66                             122   -0.29 4  216 294 
 ZAR  HZ I         248  2.77         5.3 0.49                           216 294 
                                                                                
