 2014  421 0854 41.7 L   6.809 -73.098144.5  RSN 19 0.5 2.4LRSN                1
 GAP=123        1.06       2.6     3.4  6.2 -0.8828E+00  0.5225E+01  0.3302E+01E
 Epicentro: LOS SANTOS - SANTANDER                                             3
 ACTION:UPD 14-05-13 23:10 OP:nd   STATUS:               ID:20140421085441 L   I
 OLDACT:REG 14-04-21 15:44 OP:spq  STATUS:               ID:20140421084817     3
 2014-04-21-0848-17M.COL___230                                                 6
 STAT SP IPHASW D HRMM SECON CODA AMPLIT PERI AZIMU VELO AIN AR TRES W  DIS CAZ7
 PAM  SZ EP        855  4.50                             152    0.9610 73.3  37 
 PAM  SN ES        855 20.92                             152    0.3410 73.3  37 
 PAM  SZ I         855 23.37        73.5 0.46            157           73.3  37 
 RUS  HZ EP        855  5.70                             143    0.3210  101 179 
 RUS  HN ES        855 24.04                             143    0.1810  101 179 
 RUS  HZ I         855 25.83        29.5 0.28            145            101 179 
 PTB  HZ EP        855  8.71                             131   -0.35 9  153 259 
 PTB  HN ES        855 30.09                             131   -0.31 9  153 259 
 PTB  HZ I         855 32.24        22.5 0.16            132            153 259 
 OCA  HZ EP        855  9.72                             129   -0.17 9  160 351 
 OCA  HN ES        855 31.15                             129   -0.72 9  160 351 
 OCA  HZ I         855 35.57        24.7 0.28            133            160 351 
 SPBC HZ EP        855 10.75                             128    0.26 9  167 220 
 SPBC HN ES        855 32.50                             128   -0.46 9  167 220 
 SPBC HZ I         855 39.99        33.5 0.20            129            167 220 
 ZAR  HZ EP        855 14.31                             121   -0.22 8  209 291 
 ZAR  HN ES        855 40.78                             121    0.64 8  209 291 
 ZAR  HZ I         855 46.01        29.0 0.28            123            209 291 
 NOR  HZ EP        855 18.29                             118    0.41 8  240 235 
 NOR  HN ES        855 45.84                             118   -0.26 8  240 235 
 NOR  HZ I         855 50.27        21.3 0.14            119            240 235 
 SML  HZ EP   1    855 17.71                             117   -0.69 6  245 334 
 SML  HN ES   1    855 46.66                             117   -0.37 6  245 334 
 SML  HZ I         855 51.58        25.1 0.22            120            245 334 
 CHI  HZ EP        855 19.80                             117    0.22 8  251 196 
 CHI  HN ES        855 48.50                             117   -0.64 8  251 196 
 ROSC BZ EP   4    855 21.90                             116    1.76 0  256 212 
 ROSC BN ES   4    855 50.19                             116    0.06 0  256 212 
 ROSC BZ I         855 59.35        15.1 0.30            118            256 212 
 HEL  HZ EP        855 22.68                             114    0.24 7  277 256 
 HEL  HN ES        855 53.93                             114   -0.29 7  277 256 
 HEL  HZ I         856  0.87        11.8 0.44            116            277 256 
 URE  HZ EP   4    855 21.83                             113   -1.38 0  288 291 
 URE  HN ES   4    855 51.53                             113   -4.07 0  288 291 
 URE  HZ I         855 54.56        15.3 0.36            115            288 291 
 GUY2CHZ EP   1    855 25.13                             112   -0.67 5  306 235 
 GUY2CHN ES        856  0.35                             112    0.15 7  306 235 
 GUY2CHZ I         856 10.12        11.2 0.26                           306 235 
 PTGC HZ EP        855 25.14                             111   -0.25 7  308 160 
 PTGC HN ES        855 58.42                             111   -1.05 7  308 160 
 PTGC HZ I         856  0.85        15.1 0.22            114            308 160 
 RREF HZ EP   4    855 31.12                             110    2.80 0  326 230 
 RREF HN ES        856  5.61                             110    0.93 7  326 230 
 RREF HZ I         856 15.94        12.1 0.30            112            326 230 
 CBOC HZ EP        855 29.80                             109    0.63 7  339 252 
 CBOC HN ES        856  5.72                             109   -0.48 7  339 252 
 CBOC HZ I         856 10.80         4.4 0.50            111            339 252 
 PRA  HZ EP        855 35.39                             106   -0.19 6  395 210 
 PRA  HN ES        856 17.72                             106    0.11 6  395 210 
 PRA  HZ I         856 23.75         9.2 0.26            108            395 210 
 ORTC HZ EP        855 36.24                             106    0.21 6  399 217 
 ORTC HN ES        856 18.94                             106    0.52 6  399 217 
 ORTC HZ I         856 25.17         6.5 0.24            108            399 217 
 SJC  HZ EP   4    855 36.21                             105   -1.25 0  411 326 
 SJC  HN ES   4    856 17.63                             105   -3.33 0  411 326 
 SJC  HZ I         856 21.03         7.0 0.48            107            411 326 
                                                                                
