 2017  521 0948 11.5 L   6.798 -73.140147.7  RSN 14 0.5 2.3LRSN                1
 GAP=213        1.15       4.6     4.5  7.1  0.8452E+01  0.1654E+01  0.8385E+00E
 Epicentro: LOS SANTOS - SANTANDER                                             3
 ACTION:UPD 17-06-16 13:37 OP:jn   STATUS:               ID:20170521094811 L   I
 OLDACT:UP  17-05-21 16:28 OP:dnl  STATUS:               ID:20170521093231     3
 OLDACT:REG 17-05-21 15:03 OP:edw  STATUS:               ID:20170521093231     3
 2017-05-21-0938-00M.COL___344                                                 6
 STAT SP IPHASW D HRMM SECON CODA AMPLIT PERI AZIMU VELO AIN AR TRES W  DIS CAZ7
 BRR  HZ IP     D  948 32.89                             153   -0.0010 71.8 298 
 BRR  HN ES        948 50.12                             153    0.5510 71.8 298 
 BRR  HZ I         948 53.79        29.3 0.46            152           71.8 298 
 RUS  HZ EP        948 35.11                             144   -0.3210  100 176 
 RUS  HE ES        948 53.80                             144   -0.2910  100 176 
 RUS  HZ I         948 55.16        39.3 0.30            145            100 176 
 PTB  HZ EP        948 38.11                             132   -0.57 9  148 259 
 PTB  HN ES   4    948 58.63                             132   -1.24 0  148 259 
 PTB  HZ I         949  4.51        14.1 0.30            132            148 259 
 SPBC HZ EP        948 40.14                             130   -0.03 9  163 219 
 SPBC HN ES        949  2.17                             130   -0.36 9  163 219 
 SPBC HZ I         949  4.67        39.0 0.38            130            163 219 
 YPLC HZ EP     D  948 41.54                             127    0.14 9  176 151 
 YPLC HN ES        949  5.52                             127    0.81 9  176 151 
 YPLC HZ I         949  8.34        28.1 0.26            129            176 151 
 ZAR  HZ EP        948 44.28                             123    0.14 9  205 292 
 ZAR  HE ES        949  9.10                             123   -0.49 9  205 292 
 ZAR  HZ I         949 15.20        18.2 0.24            124            205 292 
 NOR  HZ EP        948 47.63                             119    0.24 8  235 235 
 NOR  HE ES        949 15.60                             119    0.23 8  235 235 
 NOR  HZ I         949 22.72        12.9 0.54            120            235 235 
 CHI  HZ EP        948 49.40                             118    0.09 8  249 195 
 CHI  HN ES        949 18.75                             118   -0.04 8  249 195 
 CHI  HZ I         949 22.13        11.8 0.42            119            249 195 
 ROSC BZ EP   9    948 51.26                             117    1.51 0  253 211 
 ROSC BN ES        949 20.07                                   -1.02 8  253 211 
 ROSC BZ I         949 24.93        20.1 0.35            118            253 211 
 HEL  HZ EP   2    948 52.54                             115    0.67 4  273 256 
 HEL  HN ES        949 22.73                             115   -0.63 8  273 256 
 HEL  HZ I         949 28.53         5.4 0.26            116            273 256 
 VIL  EZ EP   4    948 53.59                             112   -1.42 0  303 192 
 VIL  EN ES   4    949 27.71                             112   -1.22 0  303 192 
 VIL  EZ I         949 32.28        14.4 0.40            114            303 192 
 PTGC HZ EP        948 54.35                             112   -1.06 7  308 159 
 PTGC HN ES   4    949 27.82                             112   -1.83 0  308 159 
 PTGC HZ I         949 30.14        15.5 0.42            114            308 159 
 CBOC HZ EP        948 59.50                             110    0.94 7  334 252 
 CBOC HN ES        949 36.05                             110    0.80 7  334 252 
 ORTC HZ EP   2    949  6.17                             107    0.66 3  396 216 
 ORTC HN ES   4    949 49.06                             107    1.42 0  396 216 
 ORTC HZ I         949 52.32         5.2 0.52            108            396 216 
                                                                                
