 2010  921 0319 12.0 L   6.773 -73.083143.6  RSN  7 0.2 1.4LRSN                1
 GAP=166        0.43       2.3     5.5  4.6 -0.2666E+01 -0.4909E+01  0.1941E+01E
 Epicentro: LOS SANTOS - SANTANDER                                             3
 ACTION:UP  11-02-18 11:04 OP:tino STATUS:               ID:20100921031912 L   I
 2010-09-21-0316-12S.COL___121                                                 6
 STAT SP IPHASW D HRMM SECON CODA AMPLIT PERI AZIMU VELO SNR AR TRES W  DIS CAZ7
 BAR2 SZ EP   1    319 31.30                             170    -0.1 7   23 209 
 BAR2 SZ ES   2    319 46.12                             170    -0.3 5   23 209 
 BAR2 SZ I         319 47.68         9.8 0.19                            23 209 
 BTL  SZ EP   1    319 31.74                             169     0.3 7   26 308 
 BRR  HZ EP   1    319 33.32                             150     0.0 7   79 298 
 BRR  HE ES   1    319 50.03                             150     0.0 7   79 298 
 BRR  HZ I         319 53.96         5.1 0.10                            79 298 
 RUS  HZ EP   2    319 35.37                             144     0.1 5   97 180 
 RUS  HZ I         319 36.17         2.5 0.08                            97 180 
 RUS  HE ES   2    319 53.80                             144     0.3 5   97 180 
 GRA  SZ EP   2    319 37.16                             136     0.0 5  127  14 
 GRA  SZ ES   1    319 56.61                             136    -0.1 7  127  14 
 GRA  SZ I         319 58.78         2.6 0.37                           127  14 
 OCA  SZ EP   1    319 40.33                             128    -0.2 7  164 351 
 OCA  SZ ES   2    320  2.89                             128     0.1 5  164 351 
 OCA  SZ I         320  4.90         5.0 0.29                           164 351 
 CHI  HZ EP   1    319 49.53                             117     0.1 6  248 197 
 CHI  HN ES   2    320 18.25                             117    -0.5 4  248 197 
 CHI  HZ I         320 26.08         1.4 0.43                           248 197 
                                                                                
