 2011 1021 0818 38.4 L   6.740 -73.115140.7  RSN  8 0.3 1.6LRSN                1
 GAP=143        0.41       2.7     3.6  4.6  0.2054E+00  0.3829E+01  0.2707E+00E
 Epicentro: JORDAN - SANTANDER                                                 3
 ACTION:UPD 12-07-13 16:05 OP:ep   STATUS:               ID:20111021081838 L   I
 2011-10-21-0813-36S.COL___171                                                 6
 STAT SP IPHASW D HRMM SECON CODA AMPLIT PERI AZIMU VELO AIN AR TRES W  DIS CAZ7
 BAR2 SZ EP   1    818 57.32                             172    0.02 7 17.9 204 
 BAR2 SZ ES   2    819 11.64                             172   -0.41 5 17.9 204 
 BAR2 SZ I         819 14.06         9.2 0.23                          17.9 204 
 GIR2 SZ EP   2    818 57.64                             164   -0.03 5 38.5 347 
 GIR2 SZ ES   2    819 12.86                             164    0.15 5 38.5 347 
 BRR  HZ EP   1    818 59.36                             149    0.01 7 77.4 302 
 BRR  HN ES   2    819 15.96                             149    0.25 5 77.4 302 
 BRR  HZ I         819 17.96         7.3 0.18                          77.4 302 
 PAM  SZ EP   2    819  0.51                             149    0.25 5 80.7  35 
 PAM  SE ES   2    819 17.69                             149    0.37 5 80.7  35 
 RUS  HZ EP   1    819  1.06                             145   -0.08 7 93.8 178 
 RUS  HE ES   2    819 18.82                             145   -0.07 5 93.8 178 
 RUS  HZ I         819 21.12         4.8 0.56                          93.8 178 
 OCA  SZ EP   2    819  6.53                             127   -0.44 5  167 352 
 OCA  SZ ES   2    819 28.85                             127   -0.43 5  167 352 
 OCA  SZ I         819 33.40         5.4 0.33                           167 352 
 ZAR  HZ EP   2    819 11.65                             120    0.56 4  210 293 
 ZAR  HE ES   2    819 36.36                             120   -0.24 4  210 293 
 ZAR  HZ I         819 41.91         6.3 0.33                           210 293 
 NOR  SN ES   2    819 41.39                             117    0.13 4  234 236 
                                                                                
