 2014  821 0542 59.6 L   6.801 -73.152143.9  RSN 10 0.4 1.7LRSN                1
 GAP=136        1.04       3.6     4.9  5.7 -0.2454E+01  0.8277E+01 -0.4893E+00E
 Epicentro: LOS SANTOS - SANTANDER                                             3
 ACTION:UPD 14-09-15 21:51 OP:nd   STATUS:               ID:20140821054259 L   I
 OLDACT:UP  14-08-21 15:47 OP:cam  STATUS:               ID:20140821054000     3
 OLDACT:REG 14-08-21 13:13 OP:cam  STATUS:               ID:20140821054000     3
 2014-08-21-0540-00M.COL___285                                                 6
 STAT SP IPHASW D HRMM SECON CODA AMPLIT PERI AZIMU VELO AIN AR TRES W  DIS CAZ7
 BAR2 SZ EP        543 19.03                             170   -0.0210 23.3 188 
 BAR2 SZ ES        543 33.89                             170   -0.3010 23.3 188 
 BAR2 SZ I         543 35.26        17.1 0.18            171           23.3 188 
 BRR  HZ EP        543 20.87                             152    0.3110 70.6 299 
 BRR  HN ES        543 37.75                             152    0.8810 70.6 299 
 BRR  HZ I         543 41.89         7.5 0.16            151           70.6 299 
 PAM  SZ EP     D  543 21.94                             150    0.2610 77.7  40 
 PAM  SN ES        543 38.83                             150   -0.0410 77.7  40 
 PAM  SZ I         543 40.31         5.9 0.40            153           77.7  40 
 RUS  HZ EP        543 23.18                             143   -0.0410  101 176 
 RUS  HE ES        543 41.31                             143   -0.3010  101 176 
 RUS  HZ I         543 42.92         3.5 0.18            146            101 176 
 PTB  HZ EP        543 25.54                             132   -0.86 9  147 259 
 PTB  HN ES        543 46.92                             132   -0.35 9  147 259 
 PTB  HZ I         543 48.83         5.7 0.24            132            147 259 
 SPBC HZ EP     C  543 28.24                             129    0.27 9  163 219 
 SPBC HN ES        543 50.11                             129    0.05 9  163 219 
 SPBC HZ I         543 55.58         7.4 0.18            130            163 219 
 SML  HZ EP        543 35.81                             117   -0.32 8  243 335 
 SML  HN ES        544  4.09                             117   -0.49 8  243 335 
 SML  HZ I         544  8.67         6.5 0.26            119            243 335 
 HEL  HZ EP        543 40.19                             114    0.50 8  271 256 
 GUY2CHZ EP        543 43.17                             112    0.06 7  301 235 
 PRA  HZ EP        543 53.75                             106    0.68 6  392 209 
                                                                                
