 2017 1021 0137 52.3 L   6.514 -73.568108.0  RSN 14 0.7 2.3LRSN                1
 GAP= 99        1.56       4.0     4.0  8.2  0.7076E-01  0.9116E+01  0.1306E+01E
 Epicentro: SANTA HELENA DEL OPON - SANTANDER                                  3
 ACTION:UPD 17-11-07 19:34 OP:rebc STATUS:               ID:20171021013752 L   I
 OLDACT:UP  17-10-21 14:21 OP:dani STATUS:               ID:20171021012532     3
 OLDACT:REG 17-10-21 12:54 OP:dani STATUS:               ID:20171021012532     3
 2017-10-21-0128-00M.COL___453                                                 6
 STAT SP IPHASW D HRMM SECON CODA AMPLIT PERI AZIMU VELO AIN AR TRES W  DIS CAZ7
 BAR2 EZ EP     D  138  8.48                             157    0.3010 43.6  79 
 BAR2 EZ ES        138 21.59                             157    1.0210 43.6  79 
 BAR2 EZ I         138 22.74       117.2 0.50            160           43.6  79 
 RUS  HZ EP     D  138 11.01                             139   -0.4210 87.2 142 
 RUS  HN ES        138 26.03                             139   -0.3210 87.2 142 
 RUS  HZ I         138 28.03        24.4 0.20            138           87.2 142 
 PTB  HZ EP     D  138 10.77                             135   -0.9310 98.2 272 
 PTB  HN ES        138 25.67                             135   -1.1710 98.2 272 
 PTB  HZ I         138 26.45        51.9 0.16            134           98.2 272 
 SPBC HZ EP        138 12.45                             131   -0.4510  110 210 
 SPBC HN ES        138 28.92                             131   -0.0510  110 210 
 SPBC HZ I         138 33.86        39.4 0.22            129            110 210 
 PAM  EZ EP        138 15.68                             126    0.1310  133  46 
 PAM  EN ES        138 33.67                             126   -0.0310  133  46 
 NOR  HZ EP        138 19.56                             117   -0.23 9  178 234 
 NOR  HE ES        138 41.76                             117    0.52 9  178 234 
 NOR  HZ I         138 44.10        21.7 0.28            116            178 234 
 ZAR  HZ EP        138 20.00                             117    0.20 9  179 307 
 ZAR  HN ES        138 42.71                             117    1.45 9  179 307 
 ZAR  HZ I         138 44.86        29.4 0.30            118            179 307 
 YPLC HZ EP     C  138 19.93                             116   -0.13 9  180 133 
 YPLC HN ES        138 41.62                             116   -0.10 9  180 133 
 YPLC HZ I         138 44.07        54.9 0.30            117            180 133 
 ROSC BZ EP   9    138 25.52                             113    2.56 0  203 204 
 ROSC BN ES        138 50.42                             112    0.98 9  203 204 
 ROSC BZ I         138 53.23        12.4 0.36            113            203 204 
 CHI  HZ EP        138 23.28                             113   -0.40 8  209 185 
 CHI  HN ES        138 48.65                             113    0.48 8  209 185 
 CHI  HZ I         138 58.60         5.7 0.44            112            209 185 
 GUY2CHZ EP        138 28.20                             109    0.36 8  245 234 
 GUY2CHN ES   3    138 57.85                             109    2.28 2  245 234 
 GUY2CHZ I         139  2.44        10.0 0.68                           245 234 
 URE  HZ EP        138 27.90                             108   -0.73 8  257 302 
 URE  HN ES   3    138 55.85                             108   -1.12 2  257 302 
 URE  HZ I         138 59.17        14.4 0.17            108            257 302 
 DBB  EZ EP        138 33.88                             104    0.38 7  297 281 
 PRA  HZ EP        138 38.51                             102   -0.31 7  342 205 
 PRA  HN ES        139 16.52                             102    1.42 7  342 205 
 PRA  HZ I         139 22.24         7.5 0.26            102            342 205 
                                                                                
