 2016  821 0906 33.3 L   6.780 -73.122147.4  RSN 15 0.5 2.3LRSN                1
 GAP=140        1.11       3.1     4.1  6.1 -0.2371E+01  0.8678E+01  0.1166E+01E
 Epicentro: LOS SANTOS - SANTANDER                                             3
 ACTION:UPD 16-10-29 15:37 OP:rebc STATUS:               ID:20160821090633 L   I
 OLDACT:REG 16-08-21 13:15 OP:dnl  STATUS:               ID:20160821085730     3
 2016-08-21-0858-00M.COL___362                                                 6
 STAT SP IPHASW D HRMM SECON CODA AMPLIT PERI AZIMU VELO AIN AR TRES W  DIS CAZ7
 BAR2 EZ EP        9 6 53.14                             171    0.0210 21.8 198 
 BAR2 EZ ES        9 7  8.55                             171   -0.0110 21.8 198 
 BAR2 EZ I         9 7 10.01        57.4 0.22                          21.8 198 
 BRR  HZ EP     C  9 6 55.17                             152    0.3310 74.5 299 
 BRR  HN ES        9 7 12.43                             152    0.8110 74.5 299 
 BRR  HZ I         9 7 14.84        47.9 0.10                          74.5 299 
 PAM  EZ EP        9 6 56.27                             151    0.5510 77.5  37 
 PAM  EN ES        9 7 13.22                             151    0.0410 77.5  37 
 PAM  EZ I         9 7 14.61        18.0 0.20                          77.5  37 
 RUS  HZ EP   2    9 6 57.23                             145    0.16 5 98.3 177 
 RUS  HE ES        9 7 15.17                             145   -0.4210 98.3 177 
 RUS  HZ I         9 7 16.47        20.9 0.24                          98.3 177 
 PTB  HZ EP        9 6 59.57                             132   -1.05 9  150 260 
 PTB  HN ES        9 7 20.95                             132   -0.96 9  150 260 
 PTB  HZ I         9 7 23.32        21.9 0.16                           150 260 
 OCA  HE ES        9 7 24.04                             129   -0.32 9  163 352 
 SPBC HZ EP        9 7  1.94                             129   -0.01 9  163 220 
 SPBC HZ I         9 7 30.90        43.8 0.30                           163 220 
 OCA  HZ EP        9 7  1.69                             129   -0.31 9  163 352 
 OCA  HZ I         9 7 29.15        29.8 0.18                           163 352 
 SPBC HN ES        9 7 24.17                             129   -0.10 9  163 220 
 ZAR  HZ EP        9 7  6.15                             122   -0.06 8  207 292 
 ZAR  HN ES        9 7 32.18                             122    0.32 8  207 292 
 ZAR  HZ I         9 7 39.43        28.5 0.58                           207 292 
 NOR  HZ EP   2    9 7  8.83                             119   -0.42 4  236 235 
 NOR  HN ES        9 7 37.60                             119    0.34 8  236 235 
 NOR  HZ I         9 7 43.80        21.4 0.24                           236 235 
 CHI  HZ EP   2    9 7 10.46                             118   -0.50 4  247 196 
 CHI  HN ES        9 7 40.37                             118    0.05 8  247 196 
 CHI  HZ I         9 7 43.24         4.7 0.42                           247 196 
 HEL  HZ EP   2    9 7 14.26                             115    0.41 4  274 256 
 HEL  HN ES        9 7 45.24                             115   -0.21 8  274 256 
 HEL  HZ I         9 7 52.19        11.1 0.36                           274 256 
 URE  HZ EP   4    9 7 13.33                             114   -1.51 0  287 292 
 URE  HN ES        9 7 46.83                             114   -0.38 7  287 292 
 URE  HZ I         9 7 56.20        13.1 0.22                           287 292 
 GUY2CHZ EP        9 7 18.01                             113    0.90 7  302 235 
 GUY2CHN ES        9 7 52.38                             113    1.12 7  302 235 
 GUY2CHZ I         9 7 59.39        13.5 0.40                           302 235 
 CBOC HZ EP   2    9 7 20.73                             110    0.21 3  335 253 
 CBOC HN ES   4    9 7 54.92                             110   -2.41 0  335 253 
 CBOC HZ I         9 8  8.97         3.6 0.32                           335 253 
 PRA  HZ EP   2    9 7 26.57                             107   -0.27 3  391 210 
 PRA  HE ES        9 8  8.40                             107   -0.17 6  391 210 
 PRA  HZ I         9 8 14.79         4.2 0.26                           391 210 
                                                                                
