 2013  221 0706 31.1 L   6.790 -73.178151.9  RSN  6 0.3 1.1LRSN                1
 GAP=133        0.73       4.3     5.0  8.0  0.7888E+00  0.4741E+01 -0.8556E+00E
 Epicentro: LOS SANTOS - SANTANDER                                             3
 ACTION:UPD 13-03-12 09:34 OP:ep   STATUS:               ID:20130221070631 L   I
 2013-02-21-0700-00M.COL___238                                                 6
 STAT SP IPHASW D HRMM SECON CODA AMPLIT PERI AZIMU VELO AIN AR TRES W  DIS CAZ7
 BAR2 SZ EP   1    7 6 51.41                             171   -0.07 7 21.9 181 
 BRR  HZ EP        7 6 53.21                             154    0.3910 68.6 301 
 BRR  HN ES   1    7 7 10.08                             154    0.36 7 68.6 301 
 BRR  HZ I         7 7 15.67         2.1 0.17            153           68.6 301 
 PAM  SZ EP   1    7 6 54.22                             151    0.03 7 80.5  41 
 PAM  SE ES   1    7 7 11.61                             151   -0.56 7 80.5  41 
 PAM  SZ I         7 7 13.87         2.7 0.62            157           80.5  41 
 RUS  HZ EP   1    7 6 55.32                             145   -0.13 7 99.8 174 
 RUS  HE ES   1    7 7 14.75                             145    0.35 7 99.8 174 
 RUS  HZ I         7 7 15.13         1.3 0.20            151           99.8 174 
 PTB  HZ EP   1    7 6 57.99                             134   -0.30 7  144 259 
 PTB  HN ES   1    7 7 18.89                             134   -0.57 7  144 259 
 PTB  HZ I         7 7 25.32         1.6 0.42            136            144 259 
 SML  HN ES   1    7 7 37.03                             119    0.16 6  243 336 
                                                                                
