 2014 1121 0217 31.6 L   6.359 -73.576 83.6  RSN  5 0.6 1.0LRSN                1
 GAP=182        1.45       7.2     5.9 16.8  0.1338E+02  0.2609E+02 -0.3131E+02E
 Epicentro: SANTA HELENA DEL OPON - SANTANDER                                  3
 ACTION:UPD 14-12-19 15:45 OP:nd   STATUS:               ID:20141121021731 L   I
 OLDACT:REG 14-11-21 12:46 OP:fm   STATUS:               ID:20141121020750     3
 2014-11-21-0207-50M.COL___304                                                 6
 STAT SP IPHASW D HRMM SECON CODA AMPLIT PERI AZIMU VELO AIN AR TRES W  DIS CAZ7
 RUS  HZ EP        217 47.22                             135   -0.3110 75.1 133 
 RUS  HN ES        218  0.45                             135    0.5010 75.1 133 
 RUS  HZ I         218  3.42         1.7 0.20            147           75.1 133 
 SPBC HN ES        218  1.85                             127   -0.5310 95.5 215 
 SPBC HZ I         218  5.09         3.9 0.30            138           95.5 215 
 PTB  HZ EP        217 48.11                             126   -1.0710 99.4 282 
 PTB  HN ES        218  3.04                             126    0.1510 99.4 282 
 PTB  HZ I         218  8.68         1.5 0.28            133           99.4 282 
 NOR  HZ EP        217 57.37                             111    0.65 9  168 239 
 NOR  HE ES        218 16.79                             111    0.47 9  168 239 
 NOR  HZ I         218 17.88         2.4 0.16            119            168 239 
 ZAR  HN ES        218 21.05                             109    0.46 9  189 312 
 ZAR  HZ I         218 25.78         2.4 0.26            114            189 312 
                                                                                
