 2010  421 0416 39.7 L   6.512 -73.472111.6  RSN 10 0.4 1.7LRSN                1
 GAP=132        0.64       4.0     5.5  5.1 -0.4627E+01  0.2257E+01 -0.9135E-01E
 Epicentro: SIMACOTA - SANTANDER                                               3
 ACTION:UPD 10-08-24 10:00 OP:vdl  STATUS:               ID:20100421041639 L   I
 2010-04-21-0415-31S.COL___104                                                 6
 STAT SP IPHASW D HRMM SECON CODA AMPLIT PERI AZIMU VELO AIN AR TRES W  DIS CAZ7
 BAR2 SZ EP   2    416 55.73                             163     0.2 5   33  74 
 BAR2 SZ ES   1    417  7.98                             163     0.0 7   33  74 
 GIR2 SZ ES   2    417 10.59                             146    -0.6 5   70  26 
 BRR  HZ IP     D  416 57.22                             145    -0.110   71 338 
 BRR  HN ES   1    417 10.94                             145    -0.1 7   71 338 
 BRR  HZ I         417 12.91         9.0 0.14                            71 338 
 GUE  SZ EP   1    417  5.80                             122     0.2 7  158  22 
 GUE  SZ ES   1    417 25.83                             122     0.1 7  158  22 
 GRA  SZ EP   2    417  7.07                             119     0.5 5  169  26 
 OCA  SZ EP   2    417  8.38                             116    -0.6 4  192   5 
 OCA  SZ ES   1    417 32.46                             116     0.6 7  192   5 
 OCA  SZ I         417 36.77        14.8 0.13                           192   5 
 HEL  HZ EP   3    417 13.51                             111    -0.1 2  230 261 
 HEL  HZ I         417 42.20         2.8 0.28                           230 261 
 PRA  HZ EP   2    417 27.01                             102     0.1 3  347 207 
 PRA  HE ES   2    418  4.17                             102     0.5 3  347 207 
 PRA  HZ I         418  6.31         2.2 0.29                           347 207 
 MON  HN ES   2    418  3.18                             102    -0.6 3  348 316 
 MON  HZ I         418  5.57         1.0 0.83                           348 316 
 SDV  BZ IP     C  417 33.91                              99    -0.6 6  409  50 
                                                                                
