 2017 1221 0505 59.1 L   6.892 -73.286120.5  RSN 10 0.5 2.2LRSN                1
 GAP= 71        1.18       3.9     3.6  7.1  0.2579E+01  0.4685E+01  0.4218E+01E
 Epicentro: BETULIA - SANTANDER                                                3
 ACTION:UPD 18-01-04 13:22 OP:rebc STATUS:               ID:20171221050559 L   I
 OLDACT:UP  17-12-21 16:03 OP:dani STATUS:               ID:20171221045645     3
 OLDACT:UP  17-12-21 16:03 OP:dani STATUS:               ID:20171221045645     3
 OLDACT:UP  17-12-21 16:02 OP:dani STATUS:               ID:20171221045645     3
 OLDACT:REG 17-12-21 13:11 OP:dani STATUS:               ID:20171221045645     3
 2017-12-21-0457-00M.COL___449                                                 6
 STAT SP IPHASW D HRMM SECON CODA AMPLIT PERI AZIMU VELO AIN AR TRES W  DIS CAZ7
 BAR2 EZ EP        5 6 15.88                             163   -0.1710 35.1 161 
 BAR2 EZ ES        5 6 28.90                             163   -0.3810 35.1 161 
 BAR2 EZ I         5 6 30.27        78.9 0.44            164           35.1 161 
 PAM  EZ EP        5 6 19.35                             144    0.3710 81.5  53 
 PAM  EN ES        5 6 35.40                             144    0.9010 81.5  53 
 PAM  EZ I         5 6 37.54        23.6 0.28            146           81.5  53 
 PTB  HZ EP   9    5 6 21.24                             128   -1.66 0  135 253 
 PTB  HE ES        5 6 39.67                             129   -0.1410  135 253 
 PTB  HZ I         5 6 43.07        18.8 0.44            129            135 253 
 OCA  HZ EP        5 6 24.10                             125   -0.33 9  149 359 
 OCA  HN ES        5 6 43.93                             125   -0.27 9  149 359 
 OCA  HZ I         5 6 45.77        66.7 0.24            127            149 359 
 TAM  HZ EP        5 6 26.71                             121   -0.02 9  173 107 
 TAM  HN ES        5 6 47.17                             121   -1.11 9  173 107 
 TAM  HZ I         5 6 47.88        12.5 0.30            123            173 107 
 ZAR  HZ EP        5 6 27.83                             119   -0.23 9  186 291 
 ZAR  HN ES        5 6 50.79                             119    0.13 9  186 291 
 ZAR  HZ I         5 6 55.69        18.0 0.58            120            186 291 
 YPLC HZ EP        5 6 28.86                             118   -0.10 9  193 149 
 YPLC HN ES        5 6 53.05                             118    0.80 9  193 149 
 YPLC HZ I         5 6 54.76        27.1 0.40            120            193 149 
 URE  HZ EP   9    5 6 35.29                             110   -1.67 0  266 291 
 URE  HN ES        5 7  4.53                             109   -0.30 8  266 291 
 URE  HZ I         5 7  6.32        14.2 0.14            111            266 291 
 GUY2CHZ EP        5 6 41.61                             107    0.68 7  295 231 
 GUY2CHN ES        5 7 13.31                             107   -0.25 7  295 231 
 GUY2CHZ I         5 7 19.86         4.8 0.25                           295 231 
 LL6C HZ EP   3    5 6 43.75                             106    1.13 2  314   0 
                                                                                
