 2010 1021 0845  3.6 L   6.733 -73.202147.5  RSN  4 0.3 1.3LRSN                1
 GAP=153        0.60       5.7    11.7 11.5  0.2886E+02 -0.9407E+02 -0.3020E+02E
 Epicentro: VILLANUEVA - SANTANDER                                             3
 ACTION:UP  11-02-18 11:11 OP:tino STATUS:               ID:20101021084503 L   I
 2010-10-21-0843-18S.COL___128                                                 6
 STAT SP IPHASW D HRMM SECON CODA AMPLIT PERI AZIMU VELO SNR AR TRES W  DIS CAZ7
 BRR  HZ IP     D  845 24.93                             153     0.010   70 306 
 BRR  HZ I         845 25.10         9.9 0.19                            70 306 
 BRR  HN ES   1    845 41.50                             153     0.0 7   70 306 
 RUS  HZ EP   1    845 27.20                             146     0.1 7   94 172 
 RUS  HZ I         845 27.87         1.3 0.15                            94 172 
 RUS  HN ES   2    845 45.10                             146    -0.3 5   94 172 
 GRA  SZ EP        845 29.93                             135     0.110  135  19 
 GRA  SZ I         845 51.75         2.1 0.12                           135  19 
 OCA  SZ EP   2    845 31.97                             129    -0.7 5  167 356 
 OCA  SZ I         845 58.58         2.6 0.40                           167 356 
                                                                                
