 2013  221 0637 20.3 L   6.771 -73.163147.9  RSN 10 0.3 2.0LRSN                1
 GAP= 71        0.71       2.2     2.8  4.1  0.5141E+00  0.1767E+01  0.2845E+00E
 Epicentro: LOS SANTOS - SANTANDER                                             3
 ACTION:UPD 13-03-12 09:34 OP:ep   STATUS:               ID:20130221063720 L   I
 2013-02-21-0635-50M.COL___188                                                 6
 STAT SP IPHASW D HRMM SECON CODA AMPLIT PERI AZIMU VELO AIN AR TRES W  DIS CAZ7
 BAR2 SZ IP        637 40.07                             172   -0.0310 19.8 186 
 BAR2 SZ ES        637 55.82                             172    0.2610 19.8 186 
 BAR2 SZ I         637 56.77        30.6 0.28            172           19.8 186 
 BRR  HZ IP     C  637 42.14                             153    0.4910 71.1 302 
 BRR  HE ES   1    637 58.69                             153    0.37 7 71.1 302 
 BRR  HE I         638  3.84        35.2 0.20            150           71.1 302 
 PAM  SZ EP        637 43.27                             150    0.3310 81.1  39 
 PAM  SZ I         637 43.50         9.6 0.25            152           81.1  39 
 PAM  SE ES        638  0.39                             150   -0.2310 81.1  39 
 RUS  HZ EP        637 43.78                             145   -0.2410 97.5 175 
 RUS  HE ES        638  2.35                             145   -0.1910 97.5 175 
 RUS  HE I         638  3.43        25.3 0.27            148           97.5 175 
 PTB  HZ EP        637 46.80                             133   -0.39 9  145 260 
 PTB  HN ES   1    638  7.45                             133   -0.73 7  145 260 
 PTB  HZ I         638 11.88        10.1 0.16            132            145 260 
 TAM  HZ EP        637 48.30                             131    0.08 9  156 104 
 TAM  HZ I         637 48.46        10.0 0.15            135            156 104 
 TAM  HN ES   1    638  9.93                             131   -0.09 7  156 104 
 OCA  HZ EP   1    637 48.79                             130   -0.24 7  163 354 
 OCA  HE ES        638 11.23                             130   -0.24 9  163 354 
 ZAR  HZ EP   1    637 53.20                             123    0.40 6  204 293 
 ZAR  HN ES   1    638 18.49                             123    0.32 6  204 293 
 ZAR  HZ I         638 26.54         8.6 0.61            122            204 293 
 CHI  HZ EP        637 57.69                             118    0.00 8  245 195 
 CHI  HN ES        638 27.16                             118    0.28 8  245 195 
 SML  HZ EP   1    637 57.06                             118   -0.19 6  246 336 
 SML  HN ES   1    638 26.06                             118   -0.04 6  246 336 
 SML  HZ I         638 31.32        10.3 0.11            118            246 336 
                                                                                
