 2014 1221 0036 13.9 L   6.163 -73.669112.0  RSN 12 0.4 1.7LRSN                1
 GAP= 68        0.92       2.5     2.7  5.7 -0.1669E+01  0.3743E+00  0.2671E+00E
 Epicentro: LA PAZ - SANTANDER                                                 3
 ACTION:UPD 15-02-10 17:06 OP:nd   STATUS:               ID:20141221003613 L   I
 OLDACT:REG 14-12-21 12:18 OP:spq  STATUS:               ID:20141221002746     3
 2014-12-21-0027-46M.COL___302                                                 6
 STAT SP IPHASW D HRMM SECON CODA AMPLIT PERI AZIMU VELO AIN AR TRES W  DIS CAZ7
 RUS  HZ EP        036 32.02                             146   -0.1710 71.4 115 
 RUS  HE ES   1    036 46.13                             146   -0.36 7 71.4 115 
 RUS  HZ I         036 47.26         6.1 0.34            147           71.4 115 
 BAR2 EZ EP        036 32.00                             145    0.1510 71.8  49 
 BAR2 EZ ES   1    036 46.44                             145    0.55 7 71.8  49 
 BAR2 EZ I         036 47.19        28.4 0.14            147           71.8  49 
 SPBC HZ EP        036 31.95                             145    0.2910 72.0 218 
 SPBC HN ES        036 46.06                             145    0.5210 72.0 218 
 SPBC HZ I         036 47.27        20.2 0.35            144           72.0 218 
 PTB  HZ EP        036 32.63                             136   -0.8310 96.5 296 
 PTB  HN ES   1    036 47.69                             136   -1.07 7 96.5 296 
 PTB  HZ I         036 50.75         6.2 0.12            136           96.5 296 
 BRR  HZ EP        036 34.13                             134   -0.0010  105 357 
 BRR  HN ES        036 50.19                             134    0.2410  105 357 
 BRR  HZ I         036 52.26         8.8 0.16            135            105 357 
 NOR  HZ EP        036 38.66                             123    0.23 9  148 244 
 NOR  HN ES        036 57.39                             123   -0.21 9  148 244 
 NOR  HZ I         037  0.62         7.6 0.38            123            148 244 
 PAM  SZ EP        036 41.30                             119    0.20 9  169  39 
 PAM  SN ES   1    037  2.21                             119   -0.14 7  169  39 
 PAM  SZ I         037  3.28         3.6 0.36            121            169  39 
 CHI  HZ EP        036 40.97                             119   -0.15 9  170 182 
 CHI  HN ES   1    037  2.24                             119   -0.14 7  170 182 
 CHI  HZ I         037  7.94         3.2 0.74            120            170 182 
 ZAR  HZ EP   1    036 43.95                             115    0.36 6  197 318 
 ZAR  HN ES        037  6.93                             115    0.15 9  197 318 
 ZAR  HZ I         037  9.32         6.8 0.28            115            197 318 
 TAM  HZ EP   1    036 44.76                             113   -0.30 6  210  82 
 TAM  HN ES   1    037  8.84                             113   -0.56 6  210  82 
 TAM  HZ I         037  9.57         6.7 0.32            114            210  82 
 OCA  HE ES   1    037 14.63                             111    0.38 6  233  10 
 OCA  HZ I         037 18.06         6.4 0.28            111            233  10 
 TOL  SZ EP        036 50.70                             109    0.39 8  253 226 
 TOL  SN ES   1    037 18.96                             109    0.22 6  253 226 
 TOL  SZ I         037 25.78         5.2 0.36            109            253 226 
                                                                                
