 2016  421 0303 58.7 L   6.786 -73.210132.8  RSN  4 0.3 1.1LRSN                1
 GAP=144        0.83       5.4     4.9  8.1 -0.1124E+02  0.1693E+02 -0.1340E+02E
 Epicentro: ZAPATOCA - SANTANDER                                               3
 ACTION:UPD 16-05-05 14:23 OP:rebc STATUS:               ID:20160421030358 L   I
 OLDACT:ARG 16-04-21 12:49 OP:cara STATUS:               ID:20160421025743     3
 2016-04-21-0257-43M.COL___304                                                 6
 STAT SP IPHASW D HRMM SECON CODA AMPLIT PERI AZIMU VELO AIN AR TRES W  DIS CAZ7
 BAR2 EZ EP        3 4 17.08                             170    0.3310 21.7 172 
 BAR2 EZ ES        3 4 31.30                             170    0.4810 21.7 172 
 BAR2 EZ I         3 4 34.13         3.2 0.24            170           21.7 172 
 PAM  EZ EP        3 4 19.85                             146   -0.1010 83.2  43 
 PAM  EZ I         3 4 20.18         5.3 0.20            150           83.2  43 
 PAM  EN ES        3 4 36.25                             146   -0.2610 83.2  43 
 RUS  HN ES        3 4 38.31                             141   -0.3510 99.8 172 
 RUS  HZ I         3 4 41.04         1.3 0.38            143           99.8 172 
 PTB  HZ EP        3 4 24.17                             130    0.20 9  140 259 
 PTB  HN ES        3 4 43.35                             130   -0.32 9  140 259 
 PTB  HZ I         3 4 46.62         1.3 0.46            132            140 259 
                                                                                
