 2014 1021 0236 45.5 L   6.546 -73.513109.6  RSN 13 0.5 2.4LRSN                1
 GAP= 80        1.07       2.9     4.6  6.7 -0.5319E+01  0.1647E+02 -0.3510E+01E
 Epicentro: EL CARMEN - SANTANDER                                              3
 ACTION:UPD 14-11-29 23:52 OP:nd   STATUS:               ID:20141021022706dL   I
 OLDACT:UP  14-10-22 18:05 OP:mh   STATUS:               ID:20141021022760dL   3
 OLDACT:UP  14-10-22 17:54 OP:mh   STATUS:               ID:20141021022760dL   3
 OLDACT:DUP 14-10-22 17:30 OP:mh   STATUS:               ID:20141021022760dL   3
 2014-10-21-0227-51M.COL___268                                                 6
 STAT SP IPHASW D HRMM SECON CODA AMPLIT PERI AZIMU VELO AIN AR TRES W  DIS CAZ7
 BAR2 SZ EP     C  237  1.72                             160    0.4810 36.9  82 
 BAR2 SZ ES   1    237 14.02                             160    0.47 7 36.9  82 
 BAR2 SZ I         237 15.72       244.0 0.32            168           36.9  82 
 BRR  HZ EP        237  2.42                             147   -0.0610 65.8 341 
 BRR  HN ES   1    237 16.21                             147    0.46 7 65.8 341 
 BRR  HZ I         237 16.75        67.9 0.12            146           65.8 341 
 RUS  HZ EP     D  237  4.78                             139    0.0810 86.5 147 
 RUS  HN ES        237 19.89                             139    0.1810 86.5 147 
 RUS  HZ I         237 22.55        26.9 0.40            145           86.5 147 
 SPBC HZ EP   1    237  6.66                             130   -0.13 7  117 212 
 SPBC HN ES        237 22.19                             130   -1.2210  117 212 
 SPBC HZ I         237 26.59        62.7 0.14            131            117 212 
 PAM  SZ EP        237  7.73                             128   -0.4510  126  46 
 PAM  SN ES        237 25.87                             128   -0.0210  126  46 
 PAM  SZ I         237 26.95        31.9 0.16            132            126  46 
 OCA  HZ EP        237 13.98                             115   -0.32 9  188   7 
 OCA  HN ES        237 36.92                             115    0.14 9  188   7 
 OCA  HZ I         237 45.21        37.6 0.28            118            188   7 
 HEL  HZ EP        237 18.65                             111   -0.19 8  226 260 
 HEL  HN ES   1    237 45.13                             111    0.26 6  226 260 
 HEL  HZ I         237 51.32        21.5 0.30            112            226 260 
 GUY2CHZ EP        237 22.53                             108    0.63 8  252 235 
 GUY2CHN ES   4    237 52.43                             108    2.12 0  252 235 
 GUY2CHZ I         237 56.89        15.7 0.58                           252 235 
 SML  HZ EP        237 21.57                             108   -0.31 8  257 346 
 SML  HN ES   1    237 50.10                             108   -0.18 6  257 346 
 SML  HZ I         237 55.03        38.4 0.10            109            257 346 
 CBOC HZ EP        237 25.85                             105    0.26 7  287 255 
 CBOC HN ES   4    237 55.34                             105   -1.54 0  287 255 
 CBOC HZ I         238  9.11         4.6 0.52            107            287 255 
 MON  HZ EP   4    237 30.32                             102   -1.67 0  342 316 
 MON  HN ES   4    238  6.50                             102   -1.78 0  342 316 
 MON  HZ I         238  8.00         9.4 0.44            103            342 316 
 PRA  HZ EP        237 31.96                             101   -0.78 6  348 206 
 PRA  HN ES   1    238 10.02                             101    0.42 5  348 206 
 PRA  HZ I         238 13.62        11.5 0.18            103            348 206 
 ORTC HZ EP        237 33.62                             101    0.77 6  349 213 
 ORTC HN ES        238 10.44                             101    0.63 6  349 213 
 ORTC HZ I         238 15.10         5.8 0.18            103            349 213 
                                                                                
