 2012 1021 0454  5.1 L   6.564 -73.483117.7  RSN  7 0.2 1.7LRSN                1
 GAP=111        0.49       2.6     2.8  4.3  0.1963E+01  0.3863E+01  0.2075E+01E
 Epicentro: EL CARMEN DE CHUCURI - SANTANDER                                   3
 ACTION:UPD 12-11-22 17:05 OP:ep   STATUS:               ID:20121021045405 L   I
 2012-10-21-0450-00M.COL___231                                                 6
 STAT SP IPHASW D HRMM SECON CODA AMPLIT PERI AZIMU VELO AIN AR TRES W  DIS CAZ7
 BAR2 SZ EP        454 21.98                             163    0.2910 33.4  85 
 BAR2 SZ ES   1    454 34.57                             163   -0.04 7 33.4  85 
 BRR  HZ EP        454 22.69                             149   -0.2210 65.1 337 
 BRR  HN ES        454 36.82                             149    0.0210 65.1 337 
 BRR  HZ I         454 42.57        14.5 0.10                          65.1 337 
 RUS  HZ EP        454 24.94                             142   -0.1610 86.5 149 
 RUS  HE ES   2    454 41.00                             142    0.31 5 86.5 149 
 RUS  HE I         454 43.90        12.6 0.49                          86.5 149 
 PAM  SZ EP   1    454 27.98                             131   -0.11 7  122  45 
 PAM  SE ES   1    454 45.80                             131   -0.21 7  122  45 
 PAM  SZ I         454 50.56         4.3 0.58                           122  45 
 ZAR  HZ EP   1    454 34.03                             118    0.39 7  183 304 
 ZAR  HN ES   1    454 55.69                             118   -0.20 7  183 304 
 ZAR  HZ I         454 58.51        11.3 0.46                           183 304 
 OCA  HN ES   1    454 57.05                             118    0.29 7  186   6 
 HEL  HZ EP   1    454 39.19                             113   -0.07 6  230 260 
 HEL  HZ I         455 10.22         4.4 0.27                           230 260 
                                                                                
