 2013  821 0317 23.8 L   6.756 -73.186146.7  RSN  7 0.3 1.6LRSN                1
 GAP=229        0.82       4.4     4.7  5.6  0.8319E+01  0.4794E+01 -0.4775E+00E
 Epicentro: VILLANUEVA - SANTANDER                                             3
 ACTION:UPD 14-01-14 09:05 OP:ep   STATUS:               ID:20130821031723 L   I
 OLDACT:REG 13-08-21 09:14 OP:nd   STATUS:               ID:20130821030959     3
 2013-08-21-0309-59M.COL___269                                                 6
 STAT SP IPHASW D HRMM SECON CODA AMPLIT PERI AZIMU VELO AIN AR TRES W  DIS CAZ7
 BAR2 SZ EP        317 43.30                             173   -0.1910 18.1 179 
 BAR2 SZ ES        317 58.64                             173   -0.1710 18.1 179 
 BAR2 SZ I         317 59.75        10.2 0.20            172           18.1 179 
 BRR  HZ IP     C  317 45.08                             153    0.0710 69.9 304 
 BRR  HN ES        318  1.96                             153    0.4310 69.9 304 
 BRR  HZ I         318  6.01         6.8 0.32            150           69.9 304 
 RUS  HZ EP        317 47.46                             145    0.0910 96.1 173 
 RUS  HN ES        318  5.62                             145   -0.1010 96.1 173 
 RUS  HZ I         318  7.03         4.7 0.20            150           96.1 173 
 PTB  HZ EP        317 49.84                             133   -0.57 9  143 260 
 PTB  HN ES        318 10.62                             133   -0.52 9  143 260 
 PTB  HZ I         318 18.33         5.7 0.36            133            143 260 
 SPBC HZ EP        317 52.16                             130    0.37 9  157 219 
 SPBC HN ES        318 14.00                             130    0.41 9  157 219 
 SPBC HZ I         318 15.75         5.3 0.38            132            157 219 
 ZAR  HZ EP        317 56.24                             123    0.12 9  202 294 
 ZAR  HN ES        318 21.40                             123    0.10 9  202 294 
 ZAR  HZ I         318 31.43         4.1 0.40            123            202 294 
 CBOC HZ EP   4    318 11.74                             110    1.60 0  328 253 
 CBOC HN ES   4    318 37.86                             110   -8.39 0  328 253 
 CBOC HZ I         318 45.83         1.0 0.56            112            328 253 
                                                                                
