 2015  221 0932 41.2 L   6.804 -73.140144.5  RSN 10 0.5 1.7LRSN                1
 GAP=137        1.18       3.8     4.8  6.4 -0.1373E+01  0.9455E+01 -0.5271E+00E
 Epicentro: LOS SANTOS - SANTANDER                                             3
 ACTION:UPD 15-04-30 21:28 OP:nd   STATUS:               ID:20150221093241 L   I
 OLDACT:REG 15-02-21 12:50 OP:fm   STATUS:               ID:20150221092740     3
 2015-02-21-0927-40M.COL___284                                                 6
 STAT SP IPHASW D HRMM SECON CODA AMPLIT PERI AZIMU VELO AIN AR TRES W  DIS CAZ7
 BAR2 EZ EP        933  0.95                             170    0.2210 23.8 191 
 BAR2 EZ ES        933 15.72                             170   -0.2210 23.8 191 
 BAR2 EZ I         933 18.68         8.2 0.36            173           23.8 191 
 BRR  HZ EP        933  2.67                             152    0.3910 71.6 298 
 BRR  HN ES        933 19.68                             152    0.9910 71.6 298 
 BRR  HZ I         933 28.20         7.5 0.28            151           71.6 298 
 PAM  SZ EP     D  933  3.70                             151    0.4210 76.7  39 
 PAM  SE ES        933 19.96                             151   -0.5110 76.7  39 
 PAM  SZ I         933 26.69         2.6 0.42            154           76.7  39 
 RUS  HZ EP        933  5.15                             143    0.2610  101 176 
 RUS  HE ES        933 23.27                             143   -0.0810  101 176 
 RUS  HZ I         933 24.80         4.2 0.30            151            101 176 
 PTB  HZ EP        933  7.63                             132   -0.54 9  148 259 
 PTB  HN ES        933 28.43                             132   -0.75 9  148 259 
 PTB  HZ I         933 34.67         6.6 0.38            134            148 259 
 SPBC HZ EP        933  9.84                             129    0.13 9  164 219 
 SPBC HN ES        933 31.52                             129   -0.40 9  164 219 
 SPBC HZ I         933 34.56         8.2 0.20            134            164 219 
 ZAR  HZ EP        933 13.40                             122   -0.25 9  205 292 
 ZAR  HN ES        933 39.49                             122    0.56 9  205 292 
 ZAR  HZ I         933 46.19         5.0 0.38            125            205 292 
 SML  HZ EP        933 16.98                             117   -0.81 8  244 335 
 SML  HE ES        933 45.98                             117   -0.31 8  244 335 
 SML  HZ I         933 53.73         9.0 0.26            120            244 335 
 GUY2CHZ EP        933 25.44                             112    0.56 7  302 235 
 GUY2CHN ES        933 58.89                             112   -0.02 7  302 235 
 GUY2CHZ I         934  8.30         2.6 0.48                           302 235 
 PRA  HZ EP        933 35.00                             106    0.21 6  393 210 
                                                                                
