 2017  821 0247 31.5 L   6.832 -73.109151.2  RSN 19 0.6 2.1LRSN                1
 GAP=104        1.24       3.5     3.4  5.8  0.9124E-01  0.4872E+01  0.4685E+01E
 Epicentro: LOS SANTOS - SANTANDER                                             3
 ACTION:UPD 17-09-04 20:22 OP:rebc STATUS:               ID:20170821024731 L   I
 OLDACT:UP  17-08-21 14:24 OP:osc  STATUS:               ID:20170821023741d    3
 OLDACT:DUP 17-08-21 13:58 OP:osc  STATUS:               ID:20170821023741d    3
 2017-08-21-0238-00M.COL___411                                                 6
 STAT SP IPHASW D HRMM SECON CODA AMPLIT PERI AZIMU VELO AIN AR TRES W  DIS CAZ7
 BAR2 EZ IP     C  247 51.54                             169   -0.3310 27.8 197 
 BAR2 EZ ES        248  7.26                             169   -0.5110 27.8 197 
 BAR2 EZ I         248  7.81        32.1 0.12            166           27.8 197 
 PAM  EZ EP        247 54.50                             153    0.5110 72.0  39 
 PAM  EE ES        248 11.76                             153    0.2210 72.0  39 
 PAM  EZ I         248 12.18        14.8 0.32            157           72.0  39 
 BRR  HZ IP     C  247 53.40                             153    0.0610 73.2 295 
 BRR  HE ES        248 10.73                             153    0.3410 73.2 295 
 BRR  HZ I         248 13.69        13.6 0.13            151           73.2 295 
 RUS  HZ EP        247 55.48                             144   -0.5410  104 178 
 RUS  HN ES        248 14.31                             144   -0.8410  104 178 
 RUS  HZ I         248 15.03         9.6 0.20            143            104 178 
 TAM  HZ EP        247 59.84                             132    0.50 9  152 107 
 TAM  HE ES        248 21.75                             132    0.69 9  152 107 
 SPBC HZ EP        248  0.50                             129   -0.41 9  169 219 
 SPBC HE ES        248 23.03                             129   -0.83 9  169 219 
 SPBC HZ I         248 25.61        16.9 0.09            128            169 219 
 YPLC HZ EP        248  1.82                             127    0.01 9  178 153 
 YPLC HE ES        248 25.84                             127    0.38 9  178 153 
 YPLC HZ I         248 28.39        10.9 0.32            128            178 153 
 ZAR  HZ EP        248  4.13                             123   -0.41 8  207 291 
 ZAR  HE ES        248 30.38                             123    0.05 8  207 291 
 ZAR  HZ I         248 35.66        20.9 0.48            123            207 291 
 TABC EZ EP        248  8.48                             120    0.37 8  235 211 
 TABC EZ ES        248 37.30                             120    0.62 8  235 211 
 TABC EZ I         248 42.62        15.4 0.40            119            235 211 
 NOR  HZ EP        248  7.98                             119   -0.13 8  240 234 
 NOR  HE ES   4    248 35.74                             119   -0.94 0  240 234 
 NOR  HZ I         248 38.50         8.5 0.44            118            240 234 
 CHI  HZ EP        248  9.34                             118   -0.64 8  253 196 
 CHI  HE ES        248 39.74                             118   -0.27 8  253 196 
 CHI  HZ I         248 42.73         3.8 0.26            118            253 196 
 ROSC BZ EP   4    248 12.16                             117    1.69 0  258 211 
 ROSC BE ES        248 41.45                             117    0.58 8  258 211 
 ROSC BZ I         248 49.38        15.3 0.30            117            258 211 
 HEL  HZ EP        248 13.39                             115    0.88 7  277 255 
 HEL  HN ES        248 45.50                             115    0.99 7  277 255 
 HEL  HZ I         248 51.99         4.9 0.32            115            277 255 
 URE  HZ EP        248 12.62                             114   -0.48 7  286 291 
 URE  HE ES   2    248 43.68                             114   -1.88 4  286 291 
 GUY2CHZ EP   4    248 17.92                             113    1.96 0  307 235 
 GUY2CHE ES        248 51.25                             113    0.61 7  307 235 
 GUY2CHZ I         248 58.10        10.3 0.42                           307 235 
 PTGC HZ EP        248 14.88                             112   -0.93 7  311 160 
 PTGC HN ES   4    248 48.11                             112   -2.27 0  311 160 
 ELA  HZ EP   9    248 20.44                             111    1.25 0  335 229 
 ELA  HE ES        248 58.07                             111    0.42 7  335 229 
 ELA  HZ I         249  4.06         4.9 0.46            111            335 229 
 PRA  HZ EP        248 26.11                             107    0.31 6  397 210 
 PRA  HE ES        249  8.73                             107    0.57 6  397 210 
 PRA  HZ I         249 14.02         5.7 0.28            107            397 210 
 ORTC HZ E         239 36.39                                            401 216 
 ORTC HZ EP        248 25.77                             107   -0.44 6  401 216 
 ORTC HE ES        249  9.28                             107    0.38 6  401 216 
 ORTC HZ I         249 15.73         3.2 0.34            107            401 216 
 SJC  HZ EP   4    248 25.76                             106   -1.38 0  408 326 
 SJC  HE ES   4    249  8.27                             106   -2.29 0  408 326 
                                                                                
