 2010 1221 0508 13.7 L   6.777 -73.123142.0  RSN  9 0.5 1.9LRSN                1
 GAP=161        0.99       4.4     8.4  7.6 -0.1797E+02  0.2360E+02 -0.3785E+01E
 Epicentro: LOS SANTOS - SANTANDER                                             3
 ACTION:UP  11-01-14 15:26 OP:pat  STATUS:               ID:20101221050813 L   I
 2010-12-21-0506-10S.COL___133                                                 6
 STAT SP IPHASW D HRMM SECON CODA AMPLIT PERI AZIMU VELO SNR AR TRES W  DIS CAZ7
 BAR2 SZ EP   1    5 8 32.53                             171    -0.3 7   22 198 
 BTL  SZ EP        5 8 32.80                             171    -0.110   22 314 
 BTL  SZ ES   1    5 8 48.46                             171     0.6 7   22 314 
 BAR2 SZ ES   1    5 8 47.24                             171    -0.5 7   22 198 
 BAR2 SZ I         5 8 48.44        33.6 0.19                            22 198 
 RUS  HZ EP   1    5 8 36.54                             144    -0.4 7   98 177 
 RUS  HN ES   1    5 8 55.11                             144     0.1 7   98 177 
 RUS  HZ I         5 8 56.01         8.3 0.15                            98 177 
 GRA  SZ IP        5 8 39.49                             136     0.710  127  16 
 GRA  SZ ES   1    5 8 58.23                             136    -0.1 7  127  16 
 GRA  SZ I         5 9  0.14        15.2 0.39                           127  16 
 OCA  SZ EP   1    5 8 41.35                             128    -0.7 7  163 352 
 OCA  SZ ES   1    5 9  3.81                             128    -0.3 7  163 352 
 OCA  SZ I         5 9  6.32        13.2 0.21                           163 352 
 NOR  SZ EP   1    5 8 49.20                             117    -0.1 6  235 235 
 NOR  SE ES   2    5 9 16.65                             117    -0.4 4  235 235 
 CHI  HZ EP   2    5 8 50.52                             116    -0.5 4  247 196 
 CHI  HE ES   2    5 9 20.47                             116     0.4 4  247 196 
 CHI  HZ I         5 9 26.84         2.4 0.36                           247 196 
 HEL  HZ EP   2    5 8 53.48                             114    -0.5 4  274 256 
 HEL  HE ES   2    5 9 24.96                             114    -0.4 4  274 256 
 HEL  HZ I         5 9 33.33         4.8 0.14                           274 256 
 RREF HZ EP   1    5 9  0.44                             110     0.7 5  322 230 
 RREF HE ES   1    5 9 36.40                             110     0.8 5  322 230 
 RREF HZ I         5 9 41.56         4.1 0.26                           322 230 
                                                                                
