 2011  721 0238 29.4 L   6.723 -73.199148.9  RSN  6 0.2 1.8LRSN                1
 GAP=150        0.48       3.7     8.3  5.6  0.1530E+02 -0.2144E+02 -0.1043E+02E
 Epicentro: VILLANUEVA - SANTANDER                                             3
 ACTION:UPD 12-07-25 14:02 OP:epov STATUS:               ID:20110721023829 L   I
 2011-07-21-0237-02S.COL___142                                                 6
 STAT SP IPHASW D HRMM SECON CODA AMPLIT PERI AZIMU VELO AIN AR TRES W  DIS CAZ7
 BAR2 SZ EP   1    238 49.11                             174   -0.20 7 14.5 173 
 BAR2 SZ ES   1    239  4.44                             174   -0.37 7 14.5 173 
 BAR2 SZ I         239  5.20        11.4 0.23                          14.5 173 
 GIR2 SZ EP   1    238 49.52                             164   -0.21 7 39.4   1 
 BRR  HZ EP   1    238 50.75                             153   -0.16 7 70.9 307 
 BRR  HE ES   1    239  7.84                             153    0.18 7 70.9 307 
 BRR  HZ I         239 12.29        15.9 0.21                          70.9 307 
 RUS  HZ EP   1    238 53.08                             147    0.12 7 92.7 172 
 RUS  HE ES   1    239 11.63                             147    0.33 7 92.7 172 
 RUS  HZ I         239 12.41         5.9 0.41                          92.7 172 
 BRI  SZ EP   1    238 54.58                             139    0.17 7  119  22 
 BRI  SZ I         239 16.88         6.8 0.36                           119  22 
 OCA  SZ EP   1    238 58.77                             129    0.03 7  168 355 
 OCA  SZ I         239 21.50         8.4 0.29                           168 355 
 OCA  SZ ES   2    239 21.92                             129    0.32 5  168 355 
                                                                                
