 2011  921 0217 54.5 L   6.033 -73.620118.2  RSN  6 0.2 1.4LRSN                1
 GAP=106        0.52       2.3     3.4  5.9 -0.1786E+01  0.5614E+01  0.2856E+00E
 Epicentro: CHIPATA - SANTANDER                                                3
 ACTION:UPD 12-07-13 15:58 OP:ep   STATUS:               ID:20110921021754 L   I
 2011-09-21-0215-38S.COL___165                                                 6
 STAT SP IPHASW D HRMM SECON CODA AMPLIT PERI AZIMU VELO AIN AR TRES W  DIS CAZ7
 RUS  HZ EP        218 12.71                             151   -0.0710 61.4 105 
 RUS  HE ES   1    218 27.22                             151    0.14 7 61.4 105 
 RUS  HZ I         218 28.91         3.0 0.38                          61.4 105 
 BAR2 SZ EP   1    218 13.30                             144   -0.24 7 78.5  38 
 BAR2 SZ ES   1    218 28.28                             144   -0.14 7 78.5  38 
 BAR2 SZ I         218 29.62        10.1 0.52                          78.5  38 
 BTL  SZ EP        218 15.95                             135    0.2910  105  22 
 BRR  HZ EP   1    218 16.14                             131   -0.42 7  119 355 
 BRR  HE ES   1    218 33.96                             131    0.16 7  119 355 
 BRR  HZ I         218 46.51         9.5 0.46                           119 355 
 NOR  SN ES   1    218 38.82                             125    0.00 7  148 249 
 CHI  HZ EP   1    218 20.95                             123    0.30 7  156 185 
 CHI  HE ES   1    218 40.91                             123   -0.18 7  156 185 
 CHI  HZ I         218 45.61         1.9 0.45                           156 185 
                                                                                
