 2011  321 0342 32.5 L   6.818 -73.158137.2  RSN 11 0.4 2.3LRSN                1
 GAP=135        0.99       3.2     4.9  7.5 -0.2088E+01  0.1647E+02  0.1497E+01E
 Epicentro: LOS SANTOS - SANTANDER                                             3
 ACTION:UP  11-06-16 14:34 OP:jfem STATUS:               ID:20110321034232 L   I
 2011-03-21-0340-57S.COL___131                                                 6
 STAT SP IPHASW D HRMM SECON CODA AMPLIT PERI AZIMU VELO SNR AR TRES W  DIS CAZ7
 BAR2 SZ IP        342 51.17                             169     0.010   25 186 
 BAR2 SZ ES   1    343  5.73                             169     0.1 7   25 186 
 BAR2 SZ I         343  8.50        66.6 0.23                            25 186 
 RUS  HZ EP   1    342 55.56                             141     0.0 7  103 175 
 RUS  HN ES   1    343 13.69                             141     0.1 7  103 175 
 RUS  HZ I         343 15.43        40.2 0.20                           103 175 
 GRA  SZ IP        342 57.02                             135     0.210  124  18 
 GRA  SZ ES        343 15.60                             135    -0.210  124  18 
 GRA  SZ I         343 17.38        16.9 0.29                           124  18 
 OCA  SZ EP        342 59.50                             128    -0.4 9  158 354 
 OCA  SZ ES   1    343 21.87                             128     0.5 7  158 354 
 OCA  SZ I         343 28.80        23.5 0.21                           158 354 
 YOP  SZ EP        343  1.75                             124    -0.4 9  181 153 
 YOP  SN ES        343 25.46                             124     0.1 9  181 153 
 YOP  SZ I         343 29.11        25.3 0.41                           181 153 
 NOR  SZ EP        343  7.21                             117    -0.5 8  235 234 
 NOR  SN ES   1    343 35.32                             117     0.1 6  235 234 
 HEL  HZ EP   1    343 13.06                             113     0.9 6  271 255 
 HEL  HN ES   1    343 42.51                             113    -0.6 6  271 255 
 HEL  HZ I         343 50.33        18.4 0.35                           271 255 
 GUY  SZ EP        343 16.67                             111     0.9 7  301 234 
 GUY  SN ES   1    343 48.92                             111    -0.5 5  301 234 
 GUY  SZ I         343 59.60        17.5 0.40                           301 234 
 RREF HZ EP        343 18.54                             109     0.2 7  322 229 
 RREF HZ I         344  0.44         9.2 0.25                           322 229 
 DBB  SZ EP   1    343 19.69                             108     0.2 5  338 274 
 DBB  SZ I         343 59.57         3.0 0.41                           338 274 
 PRA  HZ EP   2    343 25.73                             105    -0.1 3  393 209 
                                                                                
