 2011  521 0416 44.0 L   6.760 -73.106138.8  RSN  9 0.3 1.8LRSN                1
 GAP=143        0.58       3.2     4.0  5.0 -0.4067E+01  0.3313E+01 -0.2080E+01E
 Epicentro: LOS SANTOS - SANTANDER                                             3
 ACTION:UP  11-06-29 08:55 OP:tino STATUS:               ID:20110521041644 L   I
 2011-05-21-0413-35S.COL___141                                                 6
 STAT SP IPHASW D HRMM SECON CODA AMPLIT PERI AZIMU VELO SNR AR TRES W  DIS CAZ7
 BAR2 SZ EP   1    417  2.70                             171     0.0 7   20 204 
 BAR2 SZ ES   1    417 17.36                             171     0.0 7   20 204 
 BAR2 SZ I         417 18.63        21.6 0.17                            20 204 
 BTL  SZ EP   1    417  2.96                             169     0.2 7   25 314 
 GIR2 SZ EP   1    417  2.85                             164    -0.1 7   37 345 
 BRR  HZ EP   1    417  4.71                             149     0.0 7   77 300 
 BRR  HE ES   1    417 21.06                             149     0.1 7   77 300 
 BRR  HZ I         417 22.80        18.2 0.21                            77 300 
 PAM  SZ EP   1    417  5.63                             149     0.1 7   78  35 
 PAM  SN ES   2    417 22.21                             149    -0.1 5   78  35 
 RUS  HZ EP   1    417  6.22                             144    -0.5 7   96 178 
 RUS  HE ES   1    417 24.61                             144     0.2 7   96 178 
 RUS  HZ I         417 26.74         8.6 0.34                            96 178 
 BRI  SZ EP   1    417  7.50                             139     0.1 7  111  18 
 GRA  SZ EP   1    417  8.82                             135     0.0 7  129  15 
 GRA  SZ ES   1    417 28.14                             135    -0.1 7  129  15 
 GRA  SZ I         417 29.59         8.1 0.30                           129  15 
 HEL  HZ EP   1    417 24.91                             113     0.7 6  275 257 
 HEL  HN ES   1    417 55.03                             113    -0.5 6  275 257 
 HEL  HZ I         418  1.98         3.8 0.34                           275 257 
                                                                                
