 2012  721 0224 24.3 L   6.639 -73.235148.8  RSN  4 0.5 1.2LRSN                1
 GAP=177        1.04      13.1    10.5 12.5  0.3628E+02  0.3146E+02  0.3933E+01E
 Epicentro: BARICHARA - SANTANDER                                              3
 ACTION:UPD 12-08-14 11:46 OP:ep   STATUS:               ID:20120721022424 L   I
 2012-07-21-0220-00M.COL___215                                                 6
 STAT SP IPHASW D HRMM SECON CODA AMPLIT PERI AZIMU VELO AIN AR TRES W  DIS CAZ7
 BAR2 SZ EP   1    224 43.64                             177    -0.5 7    8 132 
 BAR2 SZ ES   1    224 59.23                             177    -0.3 7    8 132 
 BAR2 SZ I         225  0.56         3.5 0.32            176              8 132 
 BRR  HZ EP   1    224 45.92                             152     0.0 7   74 314 
 BRR  HZ I         224 46.90         4.3 0.12            151             74 314 
 BRR  HN ES   1    225  3.34                             152     0.5 7   74 314 
 RUS  HN ES   2    225  5.96                             149     0.8 5   84 168 
 PTB  HZ EP   1    224 51.00                             135     0.5 7  136 265 
 PTB  HN ES   1    225 10.34                             135    -0.5 7  136 265 
 PTB  HZ I         225 13.81         1.0 0.25            134            136 265 
