 2011  421 0337 52.5 L   5.984 -74.117 73.5  RSN  9 0.5 1.4LRSN                1
 GAP=134        1.02       6.3     5.2 16.2 -0.2338E+02  0.9001E+01 -0.1495E+02E
 Epicentro: LA BELLEZA - SANTANDER                                             3
 ACTION:UP  11-06-22 15:32 OP:REBC STATUS:               ID:20110421033752 L   I
 2011-04-21-0335-47S.COL___139                                                 6
 STAT SP IPHASW D HRMM SECON CODA AMPLIT PERI AZIMU VELO SNR AR TRES W  DIS CAZ7
 NOR  SZ IP        338  8.93                             122    -0.110   95 241 
 NOR  SN ES   1    338 22.22                             122     0.3 7   95 241 
 RUS  HZ EP   2    338 11.56                             117    -0.1 5  115  95 
 RUS  HN ES   2    338 25.88                             117    -0.8 5  115  95 
 RUS  HZ I         338 27.60         4.1 0.17                           115  95 
 BAR2 SZ ES   2    338 28.01                             115     0.3 5  123  57 
 BRR  HZ EP        338 12.34                             113    -0.710  132  20 
 BRR  HN ES   1    338 28.91                             113     0.0 7  132  20 
 BRR  HZ I         338 31.63         8.3 0.14                           132  20 
 BTL  SZ IP        338 15.20                             111     1.0 9  140  42 
 HEL  HZ EP        338 16.33                             109    -0.1 9  158 278 
 HEL  HN ES   3    338 35.02                             109    -0.1 2  158 278 
 HEL  HZ I         338 39.23         5.0 0.14                           158 278 
 GUY  SZ EP   3    338 17.25                             108    -0.1 2  164 239 
 GUY  SN ES   3    338 36.50                             108    -0.2 2  164 239 
 RREF HZ EP        338 19.62                             106     0.1 9  182 229 
 PAM  SZ EP   3    338 24.06                             103     0.5 2  217  46 
 PAM  SN ES   2    338 47.29                             103    -0.5 4  217  46 
 PAM  SZ I         338 49.26         1.4 0.47                           217  46 
                                                                                
