 2016  921 0324 28.6 L   6.753 -73.171147.5  RSN  4 0.2 1.2LRSN                1
 GAP=231        0.39       4.8     5.6  4.8  0.1472E+02 -0.1697E+01  0.1618E+01E
 Epicentro: LOS SANTOS - SANTANDER                                             3
 ACTION:UPD 17-08-17 21:14 OP:lp   STATUS:               ID:20160921032428 L   I
 OLDACT:UP  16-09-21 14:38 OP:and  STATUS:               ID:20160921031732     3
 OLDACT:REG 16-09-21 12:58 OP:and  STATUS:               ID:20160921031732     3
 2016-09-21-0318-00M.COL___360                                                 6
 STAT SP IPHASW D HRMM SECON CODA AMPLIT PERI AZIMU VELO AIN AR TRES W  DIS CAZ7
 BAR2 HZ EP   2    324 48.13                             173   -0.23 5 17.8 184 
 BAR2 HN ES   2    325  3.45                             173   -0.31 5 17.8 184 
 BRR  HZ IP     C  324 49.93                             153   -0.0510 71.5 303 
 BRR  HN ES        325  6.75                             153    0.1210 71.5 303 
 RUS  HZ EP   2    324 52.58                             146    0.39 5 95.6 174 
 RUS  HN ES   2    325 10.67                             146    0.09 5 95.6 174 
 RUS  HZ I         325 13.69         1.5 0.30            142           95.6 174 
 PTB  HZ EP   2    324 55.30                             133   -0.10 5  144 261 
 PTB  HN ES   2    325 16.15                             133   -0.14 5  144 261 
 PTB  HZ I         325 17.99         3.1 0.18            132            144 261 
                                                                                
