 2017  921 0752 21.5 L   6.804 -73.110145.2  RSN  5 0.2 1.0LRSN                1
 GAP=141        0.49       2.5     2.7  3.9  0.1436E+01  0.1267E+01 -0.4056E-01E
 Epicentro: LOS SANTOS - SANTANDER                                             3
 ACTION:UPD 17-10-05 19:14 OP:rebc STATUS:               ID:20170921075221 L   I
 OLDACT:DUP 17-09-21 18:47 OP:osc  STATUS:               ID:20170921074743d    3
 OLDACT:REG 17-09-21 14:16 OP:leo  STATUS:               ID:20170921074742     3
 2017-09-21-0748-00M.COL___413                                                 6
 STAT SP IPHASW D HRMM SECON CODA AMPLIT PERI AZIMU VELO AIN AR TRES W  DIS CAZ7
 BAR2 EZ EP        752 40.72                             170   -0.3410 24.8 199 
 BAR2 EZ ES        752 56.24                             170   -0.1010 24.8 199 
 BAR2 EZ I         752 56.67         3.2 0.16            175           24.8 199 
 BRR  HZ EP        752 42.80                             151    0.0510 74.5 297 
 BRR  HN ES        752 59.55                             151    0.2110 74.5 297 
 BRR  HZ I         753  3.49         2.6 0.42            152           74.5 297 
 PAM  EZ EP        752 43.63                             152    0.1710 74.6  37 
 PAM  EN ES        753  0.54                             152   -0.0710 74.6  37 
 PAM  EZ I         753  5.70         0.9 0.34            150           74.6  37 
 RUS  HZ EP        752 45.29                             144    0.1010  101 178 
 RUS  HN ES        753  3.76                             144    0.0810  101 178 
 ZAR  HE ES        753 19.67                             122   -0.13 8  208 292 
                                                                                
