 2013  821 0620 12.8 L   6.821 -73.193138.8  RSN 17 0.5 2.1LRSN                1
 GAP=130        1.15       2.9     4.7  5.7 -0.3180E+01  0.7377E+01  0.1008E+01E
 Epicentro: ZAPATOCA - SANTANDER                                               3
 ACTION:UPD 14-01-14 09:05 OP:ep   STATUS:               ID:20130821062012 L   I
 OLDACT:REG 13-08-21 09:56 OP:nd   STATUS:               ID:20130821062000     3
 2013-08-21-0620-00M.COL___268                                                 6
 STAT SP IPHASW D HRMM SECON CODA AMPLIT PERI AZIMU VELO AIN AR TRES W  DIS CAZ7
 BAR2 SZ IP     D  620 31.83                             169    0.1810 25.3 177 
 BAR2 SZ ES        620 46.48                             169    0.1410 25.3 177 
 BAR2 SZ I         620 48.06        52.3 0.18            167           25.3 177 
 BRR  HZ IP     C  620 33.61                             153    0.7210 65.5 299 
 BRR  HN ES        620 49.13                             153    0.5810 65.5 299 
 BRR  HZ I         620 51.54        21.2 0.14            148           65.5 299 
 PAM  SZ IP     D  620 34.74                             149    0.3410 79.1  43 
 PAM  SN ES        620 51.45                             149    0.2110 79.1  43 
 PAM  SZ I         620 54.12        19.6 0.60            154           79.1  43 
 RUS  HZ EP        620 36.10                             142    0.0110  103 173 
 RUS  HN ES        620 53.66                             142   -0.5910  103 173 
 RUS  HZ I         620 56.19        20.4 0.30            143            103 173 
 PTB  HZ EP        620 38.74                             131   -0.05 9  143 258 
 PTB  HN ES        620 58.92                             131   -0.13 9  143 258 
 PTB  HZ I         621  1.65        20.0 0.26            129            143 258 
 OCA  HZ EP        620 39.64                             129   -0.68 9  157 355 
 OCA  HN ES        621  1.31                             129   -0.47 9  157 355 
 OCA  HZ I         621  5.03        13.8 0.22            129            157 355 
 SPBC HZ EP        620 40.79                             128    0.14 9  162 217 
 SPBC HN ES        621  1.56                             128   -0.80 9  162 217 
 SPBC HZ I         621  5.40        22.8 0.18            127            162 217 
 ZAR  HZ EP   4    620 46.31                             122    2.09 0  198 292 
 ZAR  HN ES   4    621 10.08                             122    1.36 0  198 292 
 ZAR  HZ I         621 14.90        21.0 0.34            120            198 292 
 NOR  HZ EP        620 47.89                             117    0.06 8  232 233 
 NOR  HN ES        621 14.55                             117   -0.60 8  232 233 
 NOR  HZ I         621 21.50         8.6 0.18            117            232 233 
 SML  HZ EP        620 48.28                             116   -0.31 8  239 336 
 SML  HE ES        621 16.12                             116   -0.38 8  239 336 
 SML  HZ I         621 22.39        18.0 0.10            116            239 336 
 CHI  HZ EP        620 49.31                             116   -0.92 8  250 194 
 CHI  HN ES        621 20.05                             116    0.63 8  250 194 
 CHI  HZ I         621 29.10         5.4 0.32            116            250 194 
 ROSC BZ EP   4    620 50.19                             115   -0.29 0  252 210 
 ROSC BN ES   4    621 23.17                             115    3.30 0  252 210 
 HEL  HZ EP   2    620 52.98                             114    0.80 4  268 255 
 HEL  HN ES   2    621 23.91                             114    1.03 4  268 255 
 HEL  HZ I         621 32.67         5.8 0.28            113            268 255 
 URE  HZ EP   4    620 56.37                             113    3.46 0  278 292 
 URE  HN ES   4    621 24.15                             113   -0.04 0  278 292 
 URE  HZ I         621 34.23         6.4 0.38            112            278 292 
 GUY2CHZ EP   2    620 56.29                             111    0.52 4  298 234 
 GUY2CHN ES   4    621 31.88                             111    2.59 0  298 234 
 GUY2CHZ I         621 38.21         2.9 0.28                           298 234 
 CBOC HZ EP        620 59.86                             109    0.90 7  329 251 
 CBOC HN ES   4    621 34.09                             109   -0.86 0  329 251 
 CBOC HZ I         621 46.12         2.5 0.42            109            329 251 
 PRA  HZ EP        621  6.58                             105    0.55 6  391 209 
 PRA  HN ES        621 47.89                             105    0.34 6  391 209 
 PRA  HZ I         621 53.14         6.4 0.34            106            391 209 
 SJC  HZ EP   4    621  6.45                             105   -1.14 0  404 327 
 SJC  HN ES   4    621 46.55                             105   -3.77 0  404 327 
 SJC  HZ I         621 51.36         3.3 0.54            105            404 327 
                                                                                
