 2011  621 0451 31.4 L   6.723 -73.135143.9  RSN  5 0.2 1.1LRSN                1
 GAP=186        0.45       6.1    11.4  5.2  0.5482E+02 -0.1691E+02 -0.7397E+01E
 Epicentro: JORDAN - SANTANDER                                                 3
 ACTION:UP  11-07-14 19:06 OP:ep   STATUS:               ID:20110621045131 L   I
 2011-06-21-0440-00M.COL___126                                                 6
 STAT SP IPHASW D HRMM SECON CODA AMPLIT PERI AZIMU VELO SNR AR TRES W  DIS CAZ7
 BAR2 SZ EP   1    451 50.43                             173    -0.2 7   15 200 
 BAR2 SZ I         451 52.20         4.1 0.63                            15 200 
 BAR2 SZ ES   1    452  5.57                             173    -0.1 7   15 200 
 BTL  SZ EP   2    451 51.19                             169     0.3 5   26 326 
 BTL  SZ ES   2    452  6.27                             169     0.2 5   26 326 
 GIR2 SZ EP   2    451 51.02                             164    -0.1 5   40 351 
 BRR  HZ EP   1    451 52.89                             150     0.2 7   77 304 
 BRR  HZ I         451 53.91         3.2 0.04                            77 304 
 BRR  HE ES   1    452  9.11                             150    -0.1 7   77 304 
 RUS  HZ EP   1    451 54.23                             146    -0.1 7   92 176 
 RUS  HZ I         452  5.49         1.4 0.63                            92 176 
 RUS  HE ES   1    452 12.42                             146     0.2 7   92 176 
                                                                                
