 2016 1121 0049 14.7 L   6.759 -73.132145.1  RSN  6 0.3 1.7LRSN                1
 GAP=160        0.98       7.0     5.5  6.3 -0.1753E+02  0.4787E+01  0.5783E+01E
 Epicentro: LOS SANTOS - SANTANDER                                             3
 ACTION:UPD 17-10-26 21:10 OP:lp   STATUS:               ID:20161121004914 L   I
 OLDACT:UP  16-11-21 15:20 OP:edw  STATUS:               ID:20161121004745     3
 OLDACT:UP  16-11-21 15:18 OP:edw  STATUS:               ID:20161121004745     3
 OLDACT:UP  16-11-21 15:18 OP:edw  STATUS:               ID:20161121004745     3
 OLDACT:REG 16-11-21 12:15 OP:edw  STATUS:               ID:20161121004745     3
 2016-11-21-0048-00M.COL___340                                                 6
 STAT SP IPHASW D HRMM SECON CODA AMPLIT PERI AZIMU VELO AIN AR TRES W  DIS CAZ7
 BAR2 EZ EP        049 34.01                             172   -0.1810 19.2 197 
 BAR2 EZ ES        049 49.55                             172    0.1710 19.2 197 
 BAR2 EZ I         049 49.95        11.7 0.24            173           19.2 197 
 BRR  HZ EP        049 35.95                             151   -0.0510 74.8 301 
 BRR  HN ES        049 52.62                             151    0.0210 74.8 301 
 PAM  EZ EP        049 37.11                             149    0.0810 80.1  37 
 PAM  EN ES        049 54.17                             149   -0.2510 80.1  37 
 PAM  EZ I         049 57.02         6.4 0.38            149           80.1  37 
 PTB  HZ EP   9    049 40.81                             131   -0.88 0  148 261 
 PTB  HN ES        050  0.97                             133   -0.87 9  148 261 
 PTB  HZ I         050  2.57         5.2 0.14            130            148 261 
 ZAR  HZ EP        049 48.17                             121    0.72 8  207 293 
 ZAR  HN ES   2    050 12.36                             121   -0.61 4  207 293 
 ZAR  HZ I         050 17.96         4.8 0.26            120            207 293 
 NOR  HZ EP        049 49.74                             118   -0.52 8  233 236 
 NOR  HE ES        050 18.20                             118    0.22 8  233 236 
 NOR  HZ I         050 22.85         3.2 0.34            118            233 236 
 URE  HN ES   4    050 26.87                             113   -1.52 0  287 293 
 SJC  HZ EP   4    050  8.59                             105   -2.22 0  414 327 
 SJC  HN ES   4    050 49.87                             105   -4.69 0  414 327 
                                                                                
