 2016  721 0335 36.4 L   6.795 -73.116149.8  RSN  5 0.2 1.3LRSN                1
 GAP=240        0.49       2.8     3.6  3.5  0.4942E+01  0.2291E+01 -0.8063E-01E
 Epicentro: LOS SANTOS - SANTANDER                                             3
 ACTION:UPD 17-03-29 16:53 OP:lp   STATUS:               ID:20160721033536 L   I
 OLDACT:REG 16-07-21 13:35 OP:ar   STATUS:               ID:20160721032759     3
 2016-07-21-0327-59S.COL___340                                                 6
 STAT SP IPHASW D HRMM SECON CODA AMPLIT PERI AZIMU VELO AIN AR TRES W  DIS CAZ7
 BAR2 EZ EP        335 56.26                             171   -0.2710 23.6 198 
 BAR2 EZ ES        336 12.13                             171   -0.1010 23.6 198 
 BRR  HZ EP        335 58.33                             152    0.1510 74.4 298 
 BRR  HN ES        336 15.22                             152    0.0710 74.4 298 
 BRR  HZ I         336 22.02         2.7 0.26            151           74.4 298 
 RUS  HZ EP        336  0.43                             145   -0.0810 99.9 178 
 RUS  HN ES        336 19.56                             145    0.2510 99.9 178 
 RUS  HZ I         336 20.05         2.9 0.34            147           99.9 178 
 SPBC HZ EP        336  5.31                             130   -0.07 9  165 220 
 SPBC HN ES        336 27.91                             130   -0.07 9  165 220 
 SPBC HZ I         336 32.23         3.1 0.24            131            165 220 
 ZAR  HZ EP        336  9.74                             123    0.28 8  207 292 
 ZAR  HE ES        336 35.07                             123   -0.17 8  207 292 
                                                                                
