 2015  621 0915 25.6 L   6.824 -73.138148.0  RSN 17 0.4 2.0LRSN                1
 GAP=136        0.93       2.2     3.5  4.5 -0.1311E+01  0.6017E+01  0.1706E+01E
 Epicentro: LOS SANTOS - SANTANDER                                             3
 ACTION:UPD 15-09-10 22:14 OP:cam  STATUS:               ID:20150621091525 L   I
 OLDACT:REG 15-06-21 12:59 OP:drio STATUS:               ID:20150621090746     3
 2015-06-21-0907-46M.COL___322                                                 6
 STAT SP IPHASW D HRMM SECON CODA AMPLIT PERI AZIMU VELO AIN AR TRES W  DIS CAZ7
 BAR2 EZ EP        915 45.41                             170   -0.1610 26.0 191 
 BAR2 EZ I         916  1.37        24.3 0.18            168           26.0 191 
 BAR2 EZ ES        916  1.47                             170    0.3410 26.0 191 
 BRR  HZ EP        915 47.20                             153    0.2210 70.7 296 
 BRR  HN ES        916  4.44                             153    0.8010 70.7 296 
 BRR  HZ I         916  8.08        12.0 0.36            150           70.7 296 
 PAM  SZ EP        915 48.23                             152    0.3110 74.8  40 
 PAM  SN ES        916  5.07                             152   -0.2510 74.8  40 
 PAM  SZ I         916  7.40        15.4 0.46            156           74.8  40 
 RUS  HZ EP        915 49.36                             144   -0.4110  103 177 
 RUS  HN ES        916  8.21                             144   -0.4010  103 177 
 RUS  HZ I         916  9.14        11.2 0.32            145            103 177 
 OCA  HZ EP        915 54.17                             131    0.31 9  158 353 
 OCA  HE ES        916 15.62                             131   -0.28 9  158 353 
 OCA  HZ I         916 18.54        25.2 0.24            132            158 353 
 ZAR  HZ EP        915 58.22                             123    0.04 9  204 291 
 ZAR  HN ES        916 23.47                             123   -0.12 9  204 291 
 ZAR  HZ I         916 32.42        11.3 0.36            122            204 291 
 NOR  HZ EP        916  1.77                             119    0.06 8  237 234 
 NOR  HE ES        916 28.86                             119   -1.00 8  237 234 
 NOR  HZ I         916 34.59         8.9 0.18            119            237 234 
 SML  HZ EP        916  1.75                             118   -0.40 8  242 335 
 SML  HE ES        916 30.22                             118   -0.42 8  242 335 
 SML  HZ I         916 34.63        11.3 0.10            119            242 335 
 CHI  HZ EP        916  3.55                             117   -0.18 8  251 195 
 CHI  HN ES        916 33.10                             117   -0.36 8  251 195 
 CHI  HZ I         916 39.86         4.3 0.52            118            251 195 
 ROSC BZ EP        916  4.55                             117    0.41 8  255 211 
 ROSC BN ES        916 34.51                             117    0.31 8  255 211 
 ROSC BZ I         916 40.78         9.3 0.45            117            255 211 
 HEL  HZ EP        916  5.95                             115   -0.15 8  274 255 
 HEL  HE ES        916 37.27                             115   -0.41 8  274 255 
 HEL  HZ I         916 45.21         3.9 0.22            115            274 255 
 GUY2CHZ EP        916  9.92                             113    0.35 7  303 234 
 GUY2CHE ES        916 44.20                             113    0.34 7  303 234 
 GUY2CHZ I         916 51.37         7.9 0.32                           303 234 
 CBOC HZ EP        916 12.96                             110    0.16 7  335 252 
 CBOC HN ES        916 49.17                             110   -0.44 7  335 252 
 CBOC HZ I         916 55.76         1.7 0.68            110            335 252 
 TOL  SZ EP        916 15.18                             110    0.94 6  346 224 
 TOL  SN ES        916 52.53                             110    0.36 6  346 224 
 TOL  SZ I         917  1.88         5.0 0.42            110            346 224 
 MON  HZ EP   4    916 13.00                             109   -1.59 0  353 308 
 MON  HE ES   4    916 51.48                             109   -1.31 0  353 308 
 MON  HZ I         917  5.78         2.1 0.64            109            353 308 
 PRA  HZ EP        916 18.95                             107   -0.57 6  395 209 
 PRA  HE ES        917  1.57                             107   -0.00 6  395 209 
 PRA  HZ I         917  7.70         4.7 0.48            107            395 209 
 ORTC HZ EP        916 20.50                             107    0.59 6  398 216 
 ORTC HN ES        917  2.64                             107    0.38 6  398 216 
 ORTC HZ I         917 11.49         3.4 0.48            107            398 216 
                                                                                
