 2015  521 0012 52.1 L   6.860 -73.283125.9  RSN 13 0.5 1.9LRSN                1
 GAP=109        0.97       2.8     4.1  6.4 -0.7019E+00  0.1004E+02 -0.6916E+00E
 Epicentro: BETULIA - SANTANDER                                                3
 ACTION:UPD 15-09-10 22:05 OP:cam  STATUS:               ID:20150521001252 L   I
 OLDACT:REG 15-05-21 12:30 OP:spq  STATUS:               ID:20150521000750     3
 2015-05-21-0007-50M.COL___291                                                 6
 STAT SP IPHASW D HRMM SECON CODA AMPLIT PERI AZIMU VELO AIN AR TRES W  DIS CAZ7
 BAR2 EZ EP        013  9.62                             165    0.0210 31.7 159 
 BAR2 EZ ES   1    013 23.11                             165   -0.12 7 31.7 159 
 BAR2 EZ I         013 23.81        32.9 0.36            166           31.7 159 
 BRR  HZ EP        013 10.05                             155   -0.1510 54.7 300 
 BRR  HE ES        013 24.19                             155   -0.1210 54.7 300 
 BRR  HZ I         013 26.13        14.6 0.12            153           54.7 300 
 PAM  SE ES   1    013 29.56                             145    0.84 7 83.5  51 
 PAM  SZ I         013 31.27        18.8 0.28            148           83.5  51 
 RUS  HZ EP        013 14.65                             137   -0.0310  109 168 
 RUS  HE ES        013 32.49                             137    0.2110  109 168 
 RUS  HZ I         013 33.28         5.2 0.24            138            109 168 
 OCA  HZ EP   1    013 18.02                             126   -0.17 7  153 359 
 OCA  HE ES        013 37.74                             126   -0.79 9  153 359 
 SPBC HZ EP        013 19.10                             125    0.29 9  160 213 
 SPBC HN ES   1    013 39.00                             125   -0.63 7  160 213 
 SPBC HZ I         013 45.32        11.0 0.14            125            160 213 
 ZAR  HZ EP        013 21.33                             120   -0.25 9  187 292 
 ZAR  HN ES        013 45.23                             120    0.68 9  187 292 
 ZAR  HZ I         013 47.99        16.7 0.30            120            187 292 
 NOR  HE ES        013 51.84                             115   -0.38 8  227 231 
 NOR  HZ I         013 56.55         5.4 0.22            116            227 231 
 SML  HZ EP        013 26.31                             114   -0.04 8  232 338 
 SML  HN ES   1    013 53.55                             114    0.49 6  232 338 
 SML  HZ I         013 57.04        17.2 0.28            115            232 338 
 HEL  HN ES   1    014  0.26                             112    0.84 6  259 254 
 HEL  HZ I         014  4.09         6.5 0.26            112            259 254 
 GUY2CHZ EP   4    013 36.31                             109    2.37 0  293 232 
 GUY2CHN ES   1    014  5.86                             109   -0.69 5  293 232 
 GUY2CHZ I         014 13.57         4.4 0.32                           293 232 
 CBOC HZ EP   1    013 37.56                             107    0.70 5  321 250 
 MON  HZ EP   4    013 36.85                             106   -1.69 0  338 309 
 MON  HE ES   4    014 13.41                             106   -1.33 0  338 309 
 MON  HZ I         014 16.47         1.6 0.28            107            338 309 
                                                                                
