 2014 1121 0931  3.4 L   6.762 -73.153153.9  RSN  8 0.4 1.5LRSN                1
 GAP=226        1.01       4.6     5.3  6.4  0.7531E+01  0.8566E+01 -0.7712E+00E
 Epicentro: LOS SANTOS - SANTANDER                                             3
 ACTION:UPD 14-12-19 15:45 OP:nd   STATUS:               ID:20141121093103 L   I
 OLDACT:UP  14-11-21 19:34 OP:fm   STATUS:               ID:20141121092743     3
 OLDACT:UP  14-11-21 19:32 OP:fm   STATUS:               ID:20141121092743     3
 OLDACT:REG 14-11-21 13:13 OP:fm   STATUS:               ID:20141121092743     3
 2014-11-21-0927-43M.COL___301                                                 6
 STAT SP IPHASW D HRMM SECON CODA AMPLIT PERI AZIMU VELO AIN AR TRES W  DIS CAZ7
 BAR2 SZ EP        931 24.08                             173    0.1310 19.1 190 
 BAR2 SZ ES        931 39.71                             173   -0.2610 19.1 190 
 BAR2 SZ I         931 41.03         7.1 0.44            166           19.1 190 
 BRR  HZ EP     C  931 26.07                             153    0.5510 72.6 302 
 BRR  HN ES        931 43.37                             153    0.6010 72.6 302 
 RUS  HZ EP        931 27.07                             147   -0.6210 96.5 175 
 RUS  HN ES        931 46.58                             147   -0.0510 96.5 175 
 RUS  HZ I         931 49.67         2.0 0.44            145           96.5 175 
 PTB  HZ EP        931 30.62                             134   -0.30 9  146 260 
 PTB  HN ES        931 51.91                             134   -0.47 9  146 260 
 PTB  HZ I         931 58.02         4.5 0.20            132            146 260 
 SPBC HZ EP        931 32.54                             132    0.33 9  159 220 
 SPBC HN ES        931 54.51                             132   -0.15 9  159 220 
 SPBC HZ I         932  2.26         8.8 0.40            129            159 220 
 ZAR  HZ EP        931 36.72                             124    0.23 9  205 293 
 ZAR  HN ES        932  2.09                             124   -0.20 9  205 293 
 ZAR  HZ I         932  7.65         3.9 0.50            124            205 293 
 NOR  HZ EP        931 39.64                             121    0.33 8  232 235 
 NOR  HN ES        932  7.73                             121    0.43 8  232 235 
 NOR  HZ I         932 13.40         2.8 0.16            120            232 235 
 MON  HN ES        932 30.76                             110   -0.86 6  356 309 
 MON  HZ I         932 33.84         0.9 0.32            111            356 309 
                                                                                
