 2012  221 0505 27.7 L   6.690 -73.172142.6  RSN  5 0.4 0.9LRSN                1
 GAP=177        0.71       6.2     6.7  8.4  0.1542E+02  0.1383E+02  0.1574E+02E
 ACTION:UP  12-03-07 16:32 OP:epov STATUS:               ID:20120221050527 L   I
 2012-02-21-0500-00M.COL___191                                                 6
 STAT SP IPHASW D HRMM SECON CODA AMPLIT PERI AZIMU VELO AIN AR TRES W  DIS CAZ7
 BAR2 SZ EP   2    5 5 46.36                             175   -0.40 5 10.8 186 
 BAR2 SZ I         5 6  2.41         2.5 0.48                          10.8 186 
 GIR2 SZ ES   1    5 6  2.47                             162   -0.26 7 43.1 357 
 BRR  HZ EP   1    5 5 48.64                             150   -0.12 7 75.4 308 
 BRR  HZ I         5 5 49.45         2.8 0.48                          75.4 308 
 BRR  HE ES   1    5 6  5.66                             150    0.48 7 75.4 308 
 RUS  HZ EP   1    5 5 50.95                             147    0.64 7 88.7 174 
 RUS  HZ I         5 5 51.20         0.7 0.22                          88.7 174 
 RUS  HN ES   1    5 6  7.71                             147   -0.23 7 88.7 174 
 PTB  HZ EP   1    5 5 53.65                             132   -0.33 7  143 263 
 PTB  HN ES   1    5 6 14.42                             132   -0.05 7  143 263 
                                                                                
