 2015 1021 0716  4.5 L   6.682 -73.602106.5  RSN  7 0.5 1.6LRSN                1
 GAP=102        1.16       3.9     5.6  9.1 -0.3999E+01  0.3002E+02  0.2307E+01E
 Epicentro: EL CARMEN - SANTANDER                                              3
 ACTION:UPD 15-12-22 20:41 OP:cam  STATUS:               ID:20151021071604 L   I
 OLDACT:UP  15-10-21 17:07 OP:mh   STATUS:               ID:20151021070749     3
 OLDACT:REG 15-10-21 12:23 OP:mh   STATUS:               ID:20151021070749     3
 2015-10-21-0707-49M.COL___322                                                 6
 STAT SP IPHASW D HRMM SECON CODA AMPLIT PERI AZIMU VELO AIN AR TRES W  DIS CAZ7
 BAR2 EZ EP   1    716 20.78                             154    0.39 7 47.5 102 
 BAR2 EZ ES        716 32.59                             154   -0.2110 47.5 102 
 BAR2 EZ I         716 33.33        13.6 0.34            152           47.5 102 
 BRR  HZ EP   1    716 19.79                             153   -0.31 7 48.5 346 
 BRR  HN ES        716 31.79                             153   -0.4910 48.5 346 
 BRR  HZ I         716 32.43         7.7 0.24            152           48.5 346 
 SPBC HZ EP   1    716 25.52                             126   -0.86 7  125 205 
 SPBC HN ES        716 44.27                             126    0.8110  125 205 
 SPBC HZ I         716 48.71         8.1 0.16            125            125 205 
 ZAR  HZ EP   1    716 29.76                             118   -0.64 7  165 303 
 ZAR  HN ES        716 51.14                             118    0.51 9  165 303 
 ZAR  HZ I         716 52.70         6.5 0.38            116            165 303 
 OCA  HN ES        716 53.52                             116    0.66 9  175  10 
 OCA  HZ I         716 59.44         9.0 0.16            114            175  10 
 HEL  HZ EP        716 36.58                             110   -0.39 8  220 256 
 HEL  HN ES        717  1.97                             110   -0.34 8  220 256 
 HEL  HZ I         717  3.62         3.4 0.66            109            220 256 
 URE  HN ES   4    717  3.48                             108   -2.94 0  244 299 
 GUY2CHZ EP        716 41.10                             107    0.16 8  253 231 
 GUY2CHE ES        717  9.55                             107    0.17 8  253 231 
 GUY2CHZ I         717 13.68         3.0 0.40                           253 231 
                                                                                
