 2016  821 0921  6.4 L   6.806 -73.166144.5  RSN 23 0.5 2.7LRSN                1
 GAP= 70        1.08       2.7     2.9  4.9 -0.1279E+01  0.3641E+01  0.8385E+00E
 Epicentro: LOS SANTOS - SANTANDER                                             3
 ACTION:UPD 16-10-29 15:37 OP:rebc STATUS:               ID:20160821092106 L   I
 OLDACT:UP  16-08-21 16:31 OP:dnl  STATUS:               ID:20160821091737     3
 OLDACT:REG 16-08-21 13:15 OP:dnl  STATUS:               ID:20160821091737     3
 2016-08-21-0918-00M.COL___362                                                 6
 STAT SP IPHASW D HRMM SECON CODA AMPLIT PERI AZIMU VELO AIN AR TRES W  DIS CAZ7
 BAR2 EZ EP        921 25.81                             170   -0.1210 23.8 184 
 BAR2 EZ ES        921 40.99                             170   -0.1410 23.8 184 
 BAR2 EZ I         921 42.02       179.7 0.32                          23.8 184 
 BRR  HZ IP     C  921 27.59                             153    0.2710 68.9 299 
 BRR  HN ES        921 44.68                             153    1.0710 68.9 299 
 BRR  HZ I         921 48.63       100.8 0.38                          68.9 299 
 PAM  EZ EP        921 28.65                             150    0.0710 78.3  41 
 PAM  EN ES        921 46.04                             150    0.2010 78.3  41 
 PAM  EZ I         921 48.28        95.4 0.70                          78.3  41 
 RUS  HZ EP   2    921 29.69                             143   -0.44 5  101 175 
 RUS  HE ES        921 48.60                             143   -0.0110  101 175 
 RUS  HZ I         921 49.45        41.7 0.50                           101 175 
 PTB  HZ EP        921 32.40                             132   -0.72 9  146 258 
 PTB  HN ES        921 53.14                             132   -0.79 9  146 258 
 PTB  HZ I         921 59.25        62.0 0.66                           146 258 
 TAM  HZ IP     D  921 34.28                             130    0.04 9  157 105 
 TAM  HN ES        921 55.89                             130   -0.03 9  157 105 
 TAM  HZ I         921 58.12        18.0 0.48                           157 105 
 OCA  HZ EP        921 33.85                             130   -0.71 9  159 354 
 OCA  HN ES        921 56.52                             130    0.02 9  159 354 
 OCA  HZ I         921 59.67       117.4 0.20                           159 354 
 SPBC HZ EP        921 34.75                             129   -0.01 9  162 218 
 SPBC HN ES        921 56.48                             129   -0.38 9  162 218 
 SPBC HZ I         922  2.55        68.9 0.42                           162 218 
 ZAR  HZ EP        921 38.38                             122   -0.18 9  202 292 
 ZAR  HN ES        922  3.46                             122   -0.16 9  202 292 
 ZAR  HZ I         922 10.60        64.0 0.32                           202 292 
 NOR  HZ EP        921 42.17                             118    0.22 8  233 234 
 NOR  HE ES        922  9.69                             118    0.05 8  233 234 
 NOR  HZ I         922 16.17        24.8 0.20                           233 234 
 CHI  HZ EP        921 44.09                             117    0.01 8  249 195 
 CHI  HN ES        922 13.16                             117   -0.28 8  249 195 
 CHI  HZ I         922 16.83        20.6 0.58                           249 195 
 ROSC BZ EP   4    921 45.67                             117    1.24 0  252 211 
 ROSC BN ES   4    922 15.95                             117    1.88 0  252 211 
 ROSC BZ I         922 20.47        47.1 0.45                           252 211 
 HEL  HZ EP   4    921 47.68                             115    1.31 0  270 256 
 HEL  HN ES        922 17.95                             115    0.44 8  270 256 
 HEL  HZ I         922 25.96        16.5 0.24                           270 256 
 URE  HZ EP   4    921 46.12                             114   -1.07 0  281 292 
 URE  HE ES   4    922 16.93                             114   -2.04 0  281 292 
 URE  HZ I         922 29.64        32.1 0.34                           281 292 
 GUY2CHZ EP        921 51.10                             112    1.27 7  300 234 
 GUY2CHN ES        922 24.21                             112    0.53 7  300 234 
 GUY2CHZ I         922 31.18        13.1 0.64                           300 234 
 PTGC HZ EP   4    921 48.97                             111   -1.44 0  310 158 
 PTGC HN ES   4    922 22.44                             111   -2.26 0  310 158 
 PTGC HZ I         922 28.85        15.9 0.20                           310 158 
 CBOC HZ EP        921 54.18                             110    1.10 7  332 252 
 CBOC HN ES        922 28.85                             110   -0.62 7  332 252 
 ANIL HZ EP   9    921 57.18                             108    1.11 0  356 224 
 ANIL HE ES        922 36.07                                    0.18 6  356 224 
 ANIL HZ I         922 45.88        48.1 0.34                           356 224 
 ARGC HZ EP        921 56.07                             108    0.19 6  358 341 
 ARGC HN ES        922 33.87                             108   -0.58 6  358 341 
 ARGC HZ I         922 43.18         9.9 0.32                           358 341 
 PRA  HZ EP        921 59.50                             106   -0.36 6  392 209 
 PRA  HE ES        922 41.67                             106    0.14 6  392 209 
 PRA  HZ I         922 47.02        31.4 0.30                           392 209 
 PAL  HZ EP        922  1.57                             106    0.19 6  404 239 
 PAL  HN ES   4    922 42.53                             106   -1.70 0  404 239 
 PAL  HZ I         922 51.17         5.9 0.22                           404 239 
 SJC  HZ EP   4    921 59.56                             106   -2.19 0  407 327 
 SJC  HN ES   4    922 40.59                             106   -4.30 0  407 327 
 SJC  HZ I         922 48.95        10.4 0.28                           407 327 
 CRJC HZ EP   4    922  6.06                             103   -2.78 0  467   4 
 CRJC HN ES   4    922 53.05                             103   -4.45 0  467   4 
 CRJC HZ I         923  5.93        11.7 0.18                           467   4 
                                                                                
