 2017  921 0833 51.8 L   6.839 -73.111144.7  RSN 14 0.6 1.9LRSN                1
 GAP=114        1.41       4.5     5.4  7.3  0.3238E+01  0.1537E+02  0.1142E+02E
 Epicentro: LOS SANTOS - SANTANDER                                             3
 ACTION:UPD 17-10-05 19:14 OP:rebc STATUS:               ID:20170921083351 L   I
 OLDACT:UP  17-09-21 16:19 OP:osc  STATUS:               ID:20170921082736     3
 OLDACT:UP  17-09-21 16:17 OP:osc  STATUS:               ID:20170921082736     3
 OLDACT:REG 17-09-21 14:22 OP:leo  STATUS:               ID:20170921082736     3
 2017-09-21-0828-00M.COL___407                                                 6
 STAT SP IPHASW D HRMM SECON CODA AMPLIT PERI AZIMU VELO AIN AR TRES W  DIS CAZ7
 BAR2 EZ EP        834 11.09                             168   -0.3110 28.4 196 
 BAR2 EZ ES        834 26.22                             168   -0.4810 28.4 196 
 BAR2 EZ I         834 27.46        19.1 0.20            163           28.4 196 
 PAM  EZ EP        834 13.78                             152    0.2310 71.6  39 
 PAM  EE ES        834 30.92                             152    0.3910 71.6  39 
 PAM  EZ I         834 32.39         9.6 0.36            160           71.6  39 
 BRR  HZ EP        834 12.89                             152   -0.0110 72.8 294 
 BRR  HN ES        834 29.99                             152    0.6110 72.8 294 
 BRR  HZ I         834 33.54        11.9 0.16            149           72.8 294 
 RUS  HZ EP        834 15.16                             142   -0.5710  105 178 
 RUS  HE ES        834 34.00                             142   -0.4010  105 178 
 RUS  HZ I         834 35.53         9.8 0.30            142            105 178 
 YPLC HZ EP        834 21.57                             126   -0.12 9  179 153 
 YPLC HE ES        834 45.45                             126    0.43 9  179 153 
 YPLC HZ I         834 48.25         6.8 0.34            128            179 153 
 ZAR  HZ EP        834 23.77                             122   -0.60 8  206 291 
 ZAR  HE ES        834 49.22                             122   -0.56 8  206 291 
 ZAR  HZ I         834 54.96         9.1 0.26            122            206 291 
 NOR  HZ EP        834 27.83                             118   -0.22 8  240 234 
 NOR  HN ES        834 56.01                             118   -0.34 8  240 234 
 NOR  HZ I         835  0.14         6.5 0.22            118            240 234 
 CHI  HZ EP        834 29.54                             116   -0.44 8  254 196 
 CHI  HN ES        834 59.17                             116   -0.61 8  254 196 
 CHI  HZ I         835  5.37         4.1 0.38            117            254 196 
 ROSC BZ EP    3   834 31.48                             116    1.02 8  258 211 
 ROSC BE ES    4   835  2.82                             116    2.19 8  258 211 
 ROSC BZ I         835  7.96         8.7 0.60            116            258 211 
 HEL  HZ EP        834 33.00                             114    0.53 7  277 255 
 HEL  HN ES   4    835  3.14                             114   -1.07 0  277 255 
 HEL  HZ I         835 11.63         4.6 0.64            114            277 255 
 GUY2CHZ EP        834 36.63                             112    0.65 7  307 235 
 GUY2CHE ES   4    835 13.39                             112    2.94 0  307 235 
 GUY2CHZ I         835 17.61         4.7 0.32                           307 235 
 CBOC HZ EP        834 39.41                             109    0.19 7  339 252 
 CBOC HE ES   4    835 14.91                             109   -1.32 0  339 252 
 CBOC HZ I         835 32.64         1.6 0.56            110            339 252 
 PRA  HZ EP        834 45.70                             106   -0.22 6  398 210 
 PRA  HE ES        835 27.46                             106   -0.69 6  398 210 
 PRA  HZ I         835 34.15         5.1 0.26            107            398 210 
 ORTC HZ EP        834 46.14                             106   -0.19 6  401 216 
 ORTC HN ES        835 28.46                             106   -0.43 6  401 216 
 ORTC HZ I         835 35.56         3.2 0.42            107            401 216 
                                                                                
