 2010  221 0921 51.6 L   6.787 -73.058136.5  RSN  5 0.2 1.1LRSN                1
 GAP=192        0.35       4.5     8.9  6.9  0.2583E+02 -0.2430E+02 -0.3423E+01E
 Epicentro: LOS SANTOS - SANTANDER                                             3
 ACTION:UP  10-08-24 09:50 OP:vdl  STATUS:               ID:20100221092151 L   I
 2010-02-21-0917-11S.COL___094                                                 6
 STAT SP IPHASW D HRMM SECON CODA AMPLIT PERI AZIMU VELO SNR AR TRES W  DIS CAZ7
 BAR2 SZ EP        922 10.23                             169     0.110   26 213 
 BAR2 SZ ES   3    922 24.63                             169     0.0 2   26 213 
 GIR2 SZ ES   3    922 24.82                             165     0.0 2   36 335 
 BRR  HZ EP        922 12.27                             148     0.010   80 296 
 BRR  HN ES   2    922 28.38                             148    -0.1 5   80 296 
 BRR  HZ I         922 33.10         3.1 0.12                            80 296 
 RUS  BZ EP        922 14.19                             142    -0.110   99 182 
 RUS  BZ I         922 34.23         2.0 0.23                            99 182 
 OCA  SZ EP   2    922 19.68                             127     0.2 5  163 350 
 OCA  SZ ES   3    922 40.51                             127    -0.7 2  163 350 
                                                                                
