 2017 1221 0846 45.0 L   6.654 -73.059170.0  RSN 10 0.4 2.2LRSN                1
 GAP=124        0.99       4.0     3.9  6.1  0.2061E+01  0.7302E+01  0.4077E+01E
 Epicentro: CURITI - SANTANDER                                                 3
 ACTION:UPD 18-01-04 13:22 OP:rebc STATUS:               ID:20171221084645 L   I
 OLDACT:UP  17-12-21 17:54 OP:dani STATUS:               ID:20171221083329     3
 OLDACT:REG 17-12-21 13:28 OP:dani STATUS:               ID:20171221083329     3
 2017-12-21-0838-00M.COL___451                                                 6
 STAT SP IPHASW D HRMM SECON CODA AMPLIT PERI AZIMU VELO AIN AR TRES W  DIS CAZ7
 BAR2 EZ EP     D  847  7.28                             175   -0.1510 15.3 243 
 BAR2 EZ ES        847 25.07                             175    0.1410 15.3 243 
 BAR2 EZ I         847 27.57        44.6 0.32            173           15.3 243 
 PAM  EZ EP     D  847 10.24                             152   -0.0410 85.5  28 
 PAM  EN ES        847 30.24                             152    0.2410 85.5  28 
 PAM  EZ I         847 32.80        12.8 0.50            154           85.5  28 
 PTB  HZ EP        847 13.79                             136   -0.86 9  155 265 
 PTB  HN ES        847 37.28                             136   -0.50 9  155 265 
 PTB  HZ I         847 38.66        12.6 0.36            136            155 265 
 YPLC HZ EP        847 14.63                             135   -0.35 9  158 152 
 YPLC HE ES        847 38.58                             135    0.20 9  158 152 
 YPLC HZ I         847 40.00        12.3 0.20            138            158 152 
 OCA  HZ EP        847 16.83                             132    0.00 9  178 351 
 OCA  HN ES        847 41.65                             132   -0.02 9  178 351 
 OCA  HZ I         847 43.18        31.3 0.22            133            178 351 
 ZAR  HZ EP        847 20.41                             125   -0.22 8  219 295 
 ZAR  HN ES        847 48.90                             125    0.47 8  219 295 
 ZAR  HZ I         847 55.70        14.5 0.24            126            219 295 
 URE  HZ EP   9    847 27.66                             117   -1.33 0  299 294 
 URE  HN ES        848  2.03                             117    0.05 7  299 294 
 URE  HZ I         848  6.37         6.2 0.14            118            299 294 
 GUY2CHZ EP        847 30.82                             117    1.09 7  300 238 
 GUY2CHN ES   4    848  8.25                             117    3.62 0  300 238 
 GUY2CHZ I         848 13.97         6.1 0.30                           300 238 
 CBOC HZ EP        847 34.39                             114    0.86 7  338 255 
 CBOC HN ES        848 11.51                             114    0.11 7  338 255 
 CBOC HZ I         848 14.47         3.8 0.48            115            338 255 
 DBB  HZ EP        847 34.69                             113   -0.11 6  351 277 
                                                                                
