 2017 1021 0649 46.0 L   6.786 -73.128145.0  RSN  9 0.5 1.6LRSN                1
 GAP=238        0.96       4.1     5.0  5.9  0.6147E+01  0.5740E+01  0.4139E+01E
 Epicentro: LOS SANTOS - SANTANDER                                             3
 ACTION:UPD 17-11-07 19:34 OP:rebc STATUS:               ID:20171021064946 L   I
 OLDACT:UP  17-10-21 17:06 OP:dani STATUS:               ID:20171021064737     3
 OLDACT:REG 17-10-21 13:26 OP:dani STATUS:               ID:20171021064737     3
 2017-10-21-0648-00M.COL___447                                                 6
 STAT SP IPHASW D HRMM SECON CODA AMPLIT PERI AZIMU VELO AIN AR TRES W  DIS CAZ7
 BAR2 EZ EP        650  5.32                             171   -0.2210 22.2 196 
 BAR2 EZ ES        650 20.52                             171   -0.2410 22.2 196 
 BAR2 EZ I         650 21.72        11.7 0.42            167           22.2 196 
 BRR  HZ EP        650  7.17                             152   -0.0610 73.6 299 
 BRR  HN ES        650 24.34                             152    0.5710 73.6 299 
 BRR  HZ I         650 25.74         3.0 0.12            148           73.6 299 
 RUS  HZ EP        650  9.25                             144   -0.3310 98.9 177 
 RUS  HN ES        650 28.28                             144    0.3310 98.9 177 
 RUS  HZ I         650 29.95         7.7 0.34            144           98.9 177 
 PTB  HZ EP   3    650 11.06                             131   -2.01 2  149 260 
 PTB  HN ES        650 33.57                             131   -0.60 9  149 260 
 PTB  HZ I         650 35.13         3.7 0.16            129            149 260 
 SPBC HZ EP        650 14.25                             129   -0.21 9  163 220 
 SPBC HN ES        650 37.00                             129    0.35 9  163 220 
 SPBC HZ I         650 42.33         9.4 0.10            128            163 220 
 ZAR  HZ EP        650 19.15                             122    0.49 8  206 292 
 ZAR  HN ES        650 43.80                             122   -0.32 8  206 292 
 ZAR  HZ I         650 53.96         4.4 0.15            121            206 292 
 NOR  HZ EP        650 22.54                             118    0.76 8  235 235 
 NOR  HN ES        650 49.58                             118   -0.09 8  235 235 
 NOR  HZ I         650 54.98         2.4 0.14            118            235 235 
 CHI  HZ EP        650 23.42                             117   -0.15 8  248 196 
 CHI  HN ES        650 52.77                             117   -0.09 8  248 196 
 CHI  HZ I         650 55.31         1.5 0.29            117            248 196 
 ROSC BZ EP   3    650 25.75                             117    1.69 2  252 212 
                                                                                
