 2017 1021 0253 52.3 L   6.158 -73.740106.9  RSN  6 0.5 1.3LRSN                1
 GAP=101        1.09       4.3     4.3  8.4 -0.2155E+01  0.5551E+01  0.8534E+00E
 Epicentro: LANDAZURI - SANTANDER                                              3
 ACTION:UPD 17-11-07 19:34 OP:rebc STATUS:               ID:20171021025352 L   I
 OLDACT:UP  17-10-21 15:08 OP:dani STATUS:               ID:20171021023937     3
 OLDACT:REG 17-10-21 13:11 OP:dani STATUS:               ID:20171021023937     3
 2017-10-21-0248-00M.COL___444                                                 6
 STAT SP IPHASW D HRMM SECON CODA AMPLIT PERI AZIMU VELO AIN AR TRES W  DIS CAZ7
 SPBC HZ EP        254  8.96                             145   -0.2710 66.9 213 
 SPBC HE ES        254 22.89                             145    0.4410 66.9 213 
 SPBC HZ I         254 23.97         7.8 0.20            150           66.9 213 
 BAR2 EZ EP        254 10.34                             141    0.0810 78.2  52 
 BAR2 EZ ES        254 24.47                             141    0.1910 78.2  52 
 RUS  HZ EP        254 10.23                             141   -0.4110 78.5 112 
 RUS  HN ES     D  254 24.75                             141   -0.2010 78.5 112 
 RUS  HZ I         254 27.91         3.0 0.40            146           78.5 112 
 PTB  HZ EP   3    254  9.82                             137   -1.06 2 89.7 298 
 PTB  HE ES        254 24.61                             137   -0.7710 89.7 298 
 PTB  HZ I         254 27.61         2.3 0.15            139           89.7 298 
 BRR  HZ EP        254 12.11                             132   -0.0810  105   2 
 BRR  HE ES        254 28.31                             132    0.6010  105   2 
 BRR  HZ I         254 33.08         5.9 0.36            134            105   2 
 GUY2CHZ EP        254 24.07                             112    0.55 8  207 240 
 GUY2CHE ES   3    254 50.08                             112    2.20 2  207 240 
 GUY2CHZ I         254 54.10         3.2 0.76                           207 240 
 GUY2CHZ E         254 57.43                                            207 240 
                                                                                
