 2014  121 0856 42.1 L   6.588 -73.450116.0  RSN 12 0.4 1.7LRSN                1
 GAP= 63        1.04       2.8     3.2  6.3 -0.1458E+01  0.7229E+01 -0.1959E+01E
 Epicentro: EL CARMEN DE CHUCURI - SANTANDER                                   3
 ACTION:UPD 14-03-13 09:57 OP:ep   STATUS:               ID:20140121085642 L   I
 OLDACT:REG 14-01-21 06:54 OP:nd   STATUS:               ID:20140121085000     3
 2014-01-21-0850-00M.COL___279                                                 6
 STAT SP IPHASW D HRMM SECON CODA AMPLIT PERI AZIMU VELO AIN AR TRES W  DIS CAZ7
 BAR2 SZ EP        856 58.46                             165    0.1510 29.6  89 
 BAR2 SZ ES        857 11.21                             165    0.2310 29.6  89 
 BAR2 SZ I         857 12.81        36.6 0.62            166           29.6  89 
 RUS  HZ IP     D  857  1.79                             141   -0.1310 86.9 152 
 RUS  HN ES        857 17.12                             141   -0.2910 86.9 152 
 RUS  HZ I         857 18.84         6.3 0.28            141           86.9 152 
 PTB  HZ EP        857  2.38                             133   -0.9310  111 267 
 PTB  HN ES        857 19.93                             133    0.0510  111 267 
 PTB  HZ I         857 22.49         8.2 0.44            128            111 267 
 PAM  SZ EP        857  4.43                             132   -0.0710  117  45 
 PAM  SN ES        857 21.76                             132   -0.2410  117  45 
 PAM  SZ I         857 25.57         6.9 0.22            128            117  45 
 SPBC HZ EP        857  4.82                             130    0.2310  124 214 
 SPBC HN ES        857 22.62                             130    0.4610  124 214 
 SPBC HZ I         857 24.32         9.5 0.22            126            124 214 
 ZAR  HZ EP   4    857  9.89                             118   -0.78 0  185 303 
 ZAR  HN ES        857 33.37                             118    0.39 9  185 303 
 ZAR  HZ I         857 40.96         4.8 0.10            113            185 303 
 NOR  HZ EP        857 11.33                             116   -0.35 9  194 234 
 NOR  HN ES        857 34.79                             116    0.02 9  194 234 
 NOR  HZ I         857 42.01         4.3 0.16            113            194 234 
 CHI  HZ EP        857 15.78                             113    0.86 8  219 188 
 CHI  HN ES        857 40.43                             113   -0.11 8  219 188 
 CHI  HZ I         857 44.83         2.9 0.22            111            219 188 
 HEL  HZ EP        857 16.98                             112    0.39 8  234 259 
 HEL  HN ES        857 42.82                             112   -0.70 8  234 259 
 HEL  HZ I         857 50.20         2.9 0.40            108            234 259 
 SML  HZ EP        857 18.13                             110   -0.28 8  254 344 
 SML  HN ES        857 47.34                             110    0.58 8  254 344 
 SML  HZ I         857 51.53        10.1 0.10            106            254 344 
 GUY2CHZ EP   4 D  857 21.03                             109    1.33 0  260 235 
 GUY2CHN ES   4    857 50.74                             109    1.68 0  260 235 
 GUY2CHZ I         857 58.70         2.8 0.32                           260 235 
 SJC  HZ EP   4    857 35.09                             100   -2.12 0  413 333 
 SJC  HZ I         858 10.50         1.4 0.78             97            413 333 
 SJC  HN ES   4    858 15.93                             100   -4.29 0  413 333 
                                                                                
