 2016 1021 0830  0.7 L   6.290 -73.549112.0  RSN 12 0.3 1.3LRSN                1
 GAP= 80        0.78       2.9     3.3  5.4 -0.3500E+01  0.4027E+01  0.1323E+01E
 Epicentro: EL GUACAMAYO - SANTANDER                                           3
 ACTION:UPD 16-11-09 19:21 OP:rebc STATUS:               ID:20161021083000 L   I
 OLDACT:UP  16-10-21 18:11 OP:and  STATUS:               ID:20161021082744     3
 OLDACT:UP  16-10-21 18:08 OP:and  STATUS:               ID:20161021082744     3
 OLDACT:UP  16-10-21 18:03 OP:and  STATUS:               ID:20161021082744     3
 OLDACT:REG 16-10-21 14:08 OP:cog  STATUS:               ID:20161021082744     3
 2016-10-21-0828-00M.COL___333                                                 6
 STAT SP IPHASW D HRMM SECON CODA AMPLIT PERI AZIMU VELO AIN AR TRES W  DIS CAZ7
 BAR2 EZ IP     D  830 17.67                             152    0.2210 52.5  50 
 BAR2 EZ ES        830 30.66                             152    0.1210 52.5  50 
 BAR2 EZ I         830 32.29         5.7 0.18            150           52.5  50 
 RUS  HZ EP   2    830 19.22                             146    0.48 5 67.7 130 
 RUS  HN ES        830 32.34                             146   -0.5010 67.7 130 
 RUS  HZ I         830 34.89         3.3 0.19            140           67.7 130 
 SPBC HZ EP        830 19.86                             137   -0.0710 91.3 219 
 SPBC HE ES        830 34.93                             137   -0.0410 91.3 219 
 SPBC HZ I         830 37.92         7.2 0.10            135           91.3 219 
 BRR  HZ EP   2    830 19.51                             136   -0.37 5 92.2 349 
 BRR  HN ES        830 34.79                             136   -0.0810 92.2 349 
 BRR  HZ I         830 35.68         4.2 0.11            138           92.2 349 
 PTB  HZ IP   9 D  830 19.30                             133   -1.62 0  104 285 
 PTB  HN ES        830 34.22                                   -0.8910  104 285 
 PTB  HZ I         830 35.19         4.6 0.10            134            104 285 
 PAM  EZ EP   2    830 26.36                             122    0.48 5  149  39 
 PAM  EE ES   2    830 45.71                             122    0.15 5  149  39 
 PAM  EZ I         830 50.35         3.4 0.38            120            149  39 
 NOR  HZ EP   2    830 26.84                             118   -0.31 5  167 241 
 NOR  HN ES        830 47.97                             118    0.15 9  167 241 
 NOR  HZ I         830 51.11         5.1 0.18            117            167 241 
 CHI  HZ EP   2    830 29.03                             116   -0.51 4  185 186 
 CHI  HN ES   2    830 52.86                             116    0.79 4  185 186 
 CHI  HZ I         831  0.37         0.9 0.15            113            185 186 
 OCA  HN ES   2    830 58.12                             111    0.26 4  217   7 
 HEL  HZ EP   2    830 33.05                             111   -0.29 4  219 267 
 HEL  HN ES   4    830 57.38                             111   -1.45 0  219 267 
 GUY2CHZ EP   2    830 35.22                             110    0.19 4  233 240 
 GUY2CHN ES   2    831  2.49                             110    0.64 4  233 240 
 GUY2CHZ I         831  7.12         1.6 0.34                           233 240 
 PRA  HZ EP   2    830 44.19                             102   -0.57 3  321 208 
                                                                                
