 2013  121 0814  3.6 L   6.773 -73.131141.6  RSN  6 0.4 1.5LRSN                1
 GAP=140        1.08       5.6     5.7  7.4 -0.4203E+01  0.6773E+01  0.4723E+01E
 Epicentro: LOS SANTOS - SANTANDER                                             3
 ACTION:UPD 13-02-15 09:15 OP:ep   STATUS:               ID:20130121081403 L   I
 2013-01-21-0810-00M.COL___241                                                 6
 STAT SP IPHASW D HRMM SECON CODA AMPLIT PERI AZIMU VELO AIN AR TRES W  DIS CAZ7
 BAR2 SZ EP        814 22.90                             171    0.2210 20.8 196 
 BAR2 SZ ES        814 38.03                             171    0.4710 20.8 196 
 BAR2 SZ I         814 39.43         6.5 0.26            152           20.8 196 
 BRR  HZ EP        814 24.67                             151    0.2010 74.1 300 
 BRR  HZ I         814 24.97         7.3 0.24            147           74.1 300 
 BRR  HN ES        814 41.23                             151    0.4810 74.1 300 
 PAM  SZ IP     C  814 25.73                             150    0.2810 78.6  37 
 PAM  SN ES        814 41.76                             150   -0.7410 78.6  37 
 RUS  HN ES        814 44.49                             144   -0.2710 97.5 177 
 PTB  HZ EP        814 29.92                             131   -0.42 9  149 260 
 PTB  HN ES        814 50.70                             131   -0.49 9  149 260 
 PTB  HN I         814 55.96         6.1 0.26            119            149 260 
 CHI  HZ EP        814 41.06                             116    0.25 8  246 196 
 CHI  HN I         815 14.35         1.6 0.28            105            246 196 
                                                                                
