 2015 1121 0357 27.4 L   6.839 -73.120147.8  RSN 23 0.7 2.7LRSN                1
 GAP= 67        1.44       3.6     3.9  6.4 -0.1916E+01  0.6118E+01  0.5143E+01E
 Epicentro: LOS SANTOS - SANTANDER                                             3
 ACTION:UPD 15-12-28 16:12 OP:cam  STATUS:               ID:20151121035727 L   I
 OLDACT:DUP 15-11-21 15:33 OP:dnl  STATUS:               ID:20151121034739d    3
 2015-11-21-0347-38M.COL___319                                                 6
 STAT SP IPHASW D HRMM SECON CODA AMPLIT PERI AZIMU VELO AIN AR TRES W  DIS CAZ7
 BAR2 EZ IP     C  357 47.36                             169   -0.0210 28.2 194 
 BAR2 EZ ES        358  2.54                             169   -0.4210 28.2 194 
 BAR2 EZ I         358  5.15        73.6 0.11            168           28.2 194 
 BRR  HZ EP     C  357 49.31                             153    0.5110 71.8 294 
 BRR  HN ES        358  6.47                             153    0.9710 71.8 294 
 BRR  HZ I         358 10.96        46.6 0.23            151           71.8 294 
 PAM  EZ EP     D  357 50.12                             153    0.5810 72.2  40 
 PAM  EN ES        358  7.27                             153    0.4710 72.2  40 
 PAM  EZ I         358  9.57        67.0 0.20            154           72.2  40 
 RUS  HZ IP     C  357 51.19                             143   -0.4610  105 178 
 RUS  HN ES        358 10.06                             143   -0.5110  105 178 
 PTB  HZ EP        357 53.83                             132   -1.04 9  151 257 
 PTB  HN ES        358 15.06                             132   -1.23 9  151 257 
 PTB  HZ I         358 22.78        75.3 0.34            131            151 257 
 TAM  HZ IP     C  357 55.55                             131    0.45 9  154 107 
 TAM  HZ I         358 16.48        20.3 0.20            132            154 107 
 TAM  HN ES        358 17.35                             131    0.65 9  154 107 
 OCA  HZ EP        357 55.31                             131   -0.19 9  156 352 
 OCA  HN ES        358 16.33                             131   -1.09 9  156 352 
 OCA  HZ I         358 21.56       111.4 0.23            131            156 352 
 SPBC HZ EP        357 56.18                             128   -0.36 9  168 219 
 SPBC HN ES   1    358 18.32                             128   -0.96 7  168 219 
 SPBC HZ I         358 25.96        59.7 0.14            128            168 219 
 ZAR  HZ EP        358  0.15                             123    0.06 9  205 291 
 ZAR  HN ES        358 25.81                             123    0.23 9  205 291 
 ZAR  HZ I         358 31.41        69.1 0.50            122            205 291 
 NOR  HZ EP        358  3.43                             118   -0.34 8  240 234 
 NOR  HN ES        358 32.26                             118    0.13 8  240 234 
 NOR  HZ I         358 37.41        32.4 0.20            118            240 234 
 SML  HZ EP        358  3.50                             118   -0.35 8  241 334 
 SML  HE ES   2    358 32.31                             118    0.03 4  241 334 
 SML  HZ I         358 35.57        64.3 0.09            118            241 334 
 ROSC BZ EP        358  6.81                             116    0.61 8  258 211 
 ROSC BN ES        358 37.73                             116    1.28 8  258 211 
 ROSC BZ I         358 44.80        58.1 0.52            116            258 211 
 HEL  HZ EP        358  9.06                             115    0.92 7  276 255 
 HEL  HE ES   2    358 40.83                             115    0.91 4  276 255 
 HEL  HZ I         358 47.32        20.2 0.36            114            276 255 
 URE  HZ EP   4    358  7.45                             114   -1.24 0  285 291 
 URE  HN ES   4    358 39.69                             114   -1.20 0  285 291 
 URE  HZ I         358 51.31        32.1 0.31            113            285 291 
 VIL  SZ EP        358 11.43                             112   -0.03 7  308 192 
 VIL  SN ES   2    358 45.95                             112    0.13 4  308 192 
 PTGC HZ EP        358 10.43                             112   -1.26 7  312 159 
 PTGC HN ES   4    358 43.41                             112   -2.83 0  312 159 
 PTGC HZ I         358 46.26        17.8 0.22            112            312 159 
 ELA  HZ EP   4    358 16.65                             110    1.74 0  334 229 
 ELA  HE ES        358 52.61                             110    0.65 7  334 229 
 ELA  HZ I         359  0.21        22.4 0.51            110            334 229 
 CBOC HZ EP        358 15.95                             110    1.09 7  338 252 
 CBOC HN ES        358 52.01                             110    0.13 7  338 252 
 CBOC HZ I         358 59.74         7.5 0.47            110            338 252 
 ANIL HZ EP   2    358 17.44                             108   -0.43 3  362 224 
 ANIL HN ES        358 58.21                             108    0.97 6  362 224 
 ANIL HZ I         359  9.81        35.7 0.56            108            362 224 
 PRA  HZ EP   1    358 21.17                             106   -0.43 4  397 210 
 PRA  HN ES        359  2.99                             106   -0.88 6  397 210 
 PRA  HZ I         359  7.25        21.7 0.36            106            397 210 
 ORTC HZ EP        358 21.82                             106   -0.18 6  401 216 
 ORTC HN ES        359  4.24                             106   -0.34 6  401 216 
 ORTC HZ I         359 10.66        12.9 0.51            106            401 216 
 SJC  HZ EP   4    358 21.13                             106   -1.66 0  407 326 
 SJC  HN ES   4    359  2.89                             106   -3.10 0  407 326 
 SJC  HZ I         359  7.12        11.4 0.42            106            407 326 
 PAL  HZ EP        358 23.38                             106    0.20 6  410 239 
 PAL  HE ES        359  6.62                             106   -0.06 6  410 239 
 PAL  HZ I         359  9.67         4.9 0.28            106            410 239 
                                                                                
