 2013 1121 0958 19.2 L   6.812 -73.146144.0  RSN  7 0.5 1.8LRSN                1
 GAP=136        1.04       4.8     5.5  7.1 -0.2809E+01  0.1091E+02  0.3353E+01E
 Epicentro: LOS SANTOS - SANTANDER                                             3
 ACTION:UPD 14-01-09 16:30 OP:ep   STATUS:               ID:20131121095819 L   I
 OLDACT:REG 13-11-21 14:24 OP:mher STATUS:               ID:20131121095747     3
 2013-11-21-0957-47M.COL___228                                                 6
 STAT SP IPHASW D HRMM SECON CODA AMPLIT PERI AZIMU VELO AIN AR TRES W  DIS CAZ7
 BAR2 SZ EP   1    958 38.54                             170   -0.08 7 24.6 189 
 BAR2 SZ ES        958 53.51                             170   -0.2710 24.6 189 
 BAR2 SZ I         958 55.00        20.4 0.16            168           24.6 189 
 BRR  HZ EP   1    958 40.35                             152    0.25 7 70.6 298 
 BRR  HN ES        958 56.94                             152    0.5310 70.6 298 
 BRR  HZ I         959  0.58        10.5 0.12            152           70.6 298 
 PAM  SZ EP   1    958 41.57                             151    0.43 7 76.4  40 
 PAM  SN ES        958 58.05                             151   -0.2310 76.4  40 
 PAM  SZ I         958 59.62         8.9 0.16            157           76.4  40 
 RUS  HZ EP        958 42.69                             143   -0.1510  102 176 
 RUS  HN ES        959  1.53                             143    0.2310  102 176 
 RUS  HZ I         959  3.48         6.1 0.30            145            102 176 
 PTB  HZ EP        958 45.18                             132   -0.84 9  148 258 
 PTB  HN ES   1    959  5.97                             132   -0.99 7  148 258 
 PTB  HZ I         959 11.34        13.4 0.14            132            148 258 
 SPBC HZ EP        958 47.73                             129    0.10 9  164 219 
 SPBC HN ES        959 10.30                             129    0.48 9  164 219 
 SPBC HZ I         959 16.84        12.9 0.24            129            164 219 
 ZAR  HZ EP   1    958 51.85                             122    0.40 6  204 292 
 ZAR  HE ES   2    959 17.34                             122    0.71 4  204 292 
                                                                                
