 2012  221 0415  5.3 L   6.741 -73.194144.5  RSN  6 0.4 1.5LRSN                1
 GAP=172        0.76       6.2     6.5  7.3  0.1091E+02  0.8490E+01  0.7202E+01E
 ACTION:UP  12-03-07 16:32 OP:epov STATUS:               ID:20120221041505 L   I
 2012-02-21-0410-00M.COL___191                                                 6
 STAT SP IPHASW D HRMM SECON CODA AMPLIT PERI AZIMU VELO AIN AR TRES W  DIS CAZ7
 BAR2 SZ EP   1    415 24.69                             173   -0.02 7 16.5 176 
 BAR2 SZ ES   1    415 39.23                             173   -0.58 7 16.5 176 
 BAR2 SZ I         415 41.00         4.4 0.17                          16.5 176 
 GIR2 SZ EP   1    415 24.66                             165   -0.39 7 37.3   0 
 GIR2 SZ ES   1    415 40.38                             165   -0.04 7 37.3   0 
 BRR  HZ EP   1    415 26.42                             153    0.12 7 70.1 305 
 BRR  HE ES   1    415 43.37                             153    0.73 7 70.1 305 
 BRR  HZ I         415 45.35         9.7 0.17                          70.1 305 
 RUS  HZ EP   1    415 28.94                             145    0.39 7 94.6 173 
 RUS  HN ES   1    415 46.89                             145    0.24 7 94.6 173 
 RUS  HZ I         415 49.74         4.1 0.27                          94.6 173 
 PTB  HZ EP   1    415 31.43                             133   -0.21 7  141 261 
 PTB  HN ES   1    415 51.84                             133   -0.30 7  141 261 
 RREF HZ I         416 32.07         2.2 0.63                           314 230 
                                                                                
