 2013  221 0945  5.5 L   6.803 -73.177147.0  RSN 14 0.5 2.2LRSN                1
 GAP= 69        1.09       2.9     3.5  5.3  0.6484E+00  0.4551E+01 -0.7770E+00E
 Epicentro: LOS SANTOS - SANTANDER                                             3
 ACTION:UPD 13-03-12 09:34 OP:ep   STATUS:               ID:20130221094505 L   I
 2013-02-21-0940-00M.COL___238                                                 6
 STAT SP IPHASW D HRMM SECON CODA AMPLIT PERI AZIMU VELO AIN AR TRES W  DIS CAZ7
 BAR2 SZ EP        945 25.18                             171   -0.0610 23.3 182 
 BAR2 SZ ES        945 40.62                             171   -0.0510 23.3 182 
 BAR2 SZ I         945 43.27        51.8 0.34            164           23.3 182 
 BRR  HZ EP        945 27.29                             154    0.7210 68.0 300 
 BRR  HE ES        945 43.83                             154    0.7910 68.0 300 
 BRR  HZ I         945 49.03        20.6 0.22            151           68.0 300 
 PAM  SZ EP        945 28.16                             150    0.2310 79.4  42 
 PAM  SN ES        945 45.38                             150   -0.0710 79.4  42 
 PAM  SZ I         945 47.48        18.7 0.20            148           79.4  42 
 RUS  HZ IP     D  945 29.16                             144   -0.2210  101 174 
 RUS  HN ES        945 47.45                             144   -0.5910  101 174 
 RUS  HZ I         945 49.13        11.7 0.40            136            101 174 
 PTB  HZ EP        945 31.94                             133   -0.30 9  144 258 
 PTB  HN ES        945 52.34                             133   -0.78 9  144 258 
 PTB  HZ I         946  0.71        27.9 0.48            127            144 258 
 TAM  HZ EP   1    945 33.25                             130   -0.30 7  158 105 
 TAM  HZ I         945 54.32        12.1 0.34            124            158 105 
 TAM  HN ES   1    945 55.19                             130   -0.27 7  158 105 
 OCA  HZ EP        945 33.52                             130   -0.29 9  160 354 
 OCA  HN ES        945 56.02                             130    0.11 9  160 354 
 OCA  HZ I         946  1.28        19.0 0.48            126            160 354 
 ZAR  HZ EP        945 38.00                             123    0.35 9  201 292 
 ZAR  HN ES        946  3.00                             123    0.24 9  201 292 
 ZAR  HZ I         946  9.71        18.7 0.30            118            201 292 
 SML  HZ EP        945 42.27                             118    0.30 8  242 336 
 SML  HN ES        946 10.18                             118   -0.27 8  242 336 
 CHI  HZ EP        945 43.24                             117    0.07 8  248 194 
 CHI  HN ES        946 13.46                             117    0.88 8  248 194 
 CHI  HZ I         946 18.44         5.4 0.54            111            248 194 
 HEL  HZ EP        945 45.31                             115   -0.07 8  269 256 
 HEL  HE ES   1    946 16.78                             115    0.26 6  269 256 
 HEL  HZ I         946 24.36         7.5 0.36            110            269 256 
 URE  HZ EP        945 45.22                             114   -1.01 7  281 292 
 URE  HN ES   1    946 17.28                             114   -0.74 6  281 292 
 URE  HZ I         946 19.15         9.4 0.13            109            281 292 
 RREF HZ EP   1    945 52.48                             111    1.09 5  319 229 
 RREF HZ I         946 36.23        11.0 0.28            106            319 229 
 COD  HZ EP   1    945 54.29                             109    0.47 5  348 355 
 COD  HN ES   1    946 31.15                             109   -0.38 5  348 355 
                                                                                
