 2017  121 0137 52.1 L   6.773 -73.147148.9  RSN  5 0.2 1.5LRSN                1
 GAP=138        0.54       2.8     2.5  4.7  0.4773E+00  0.1953E+01  0.1246E+01E
 Epicentro: LOS SANTOS - SANTANDER                                             3
 ACTION:UPD 17-05-22 16:01 OP:jn   STATUS:               ID:20170121013753dL   I
 OLDACT:UP  17-01-21 14:30 OP:dani STATUS:               ID:20170121012359     3
 OLDACT:REG 17-01-21 12:21 OP:dani STATUS:               ID:20170121012359     3
 2017-01-21-0128-00M.COL___343                                                 6
 STAT SP IPHASW D HRMM SECON CODA AMPLIT PERI AZIMU VELO AIN AR TRES W  DIS CAZ7
 BRR  HZ EP        138 13.86                             153    0.1910 72.5 301 
 BRR  HE ES        138 30.85                             153    0.3710 72.5 301 
 BRR  HZ I         138 31.84        12.2 0.40            154           72.5 301 
 PAM  EZ EP        138 14.82                             151    0.0210 79.8  38 
 PAM  EE ES        138 32.25                             151   -0.2510 79.8  38 
 PAM  EZ I         138 34.00         5.2 0.46            152           79.8  38 
 RUS  HZ EP        138 16.05                             145    0.1010 97.6 176 
 RUS  HN ES        138 34.49                             145   -0.0610 97.6 176 
 RUS  HZ I         138 35.85         4.1 0.30            147           97.6 176 
 PTB  HZ EP        138 19.20                             133   -0.07 9  147 260 
 PTB  HE ES        138 40.27                             133   -0.18 9  147 260 
 PTB  HZ I         138 42.24         2.5 0.18            134            147 260 
 ZAR  HN ES        138 50.19                             123   -0.21 9  205 293 
                                                                                
