 2017  221 0406 31.4 L   6.756 -73.185154.3  RSN  4 0.2 1.1LRSN                1
 GAP=230        0.49       4.2     4.2  5.8  0.1215E+02 -0.3641E+01 -0.4016E+01E
 Epicentro: LOS SANTOS - SANTANDER                                             3
 ACTION:UPD 17-05-24 15:38 OP:jn   STATUS:               ID:20170221040631 L   I
 OLDACT:REG 17-02-21 14:08 OP:dani STATUS:               ID:20170221035741     3
 2017-02-21-0358-00M.COL___379                                                 6
 STAT SP IPHASW D HRMM SECON CODA AMPLIT PERI AZIMU VELO AIN AR TRES W  DIS CAZ7
 BRR  HZ EP        4 6 53.27                             154   -0.1410 70.0 304 
 BRR  HE ES        4 7 10.52                             154   -0.0510 70.0 304 
 BRR  HZ I         4 7 13.44         4.2 0.32            157           70.0 304 
 RUS  HZ EP        4 6 55.70                             147    0.0110 96.2 173 
 RUS  HN ES        4 7 14.77                             147    0.1310 96.2 173 
 RUS  HZ I         4 7 16.13         1.2 0.38            150           96.2 173 
 PTB  HE ES        4 7 19.65                             135   -0.20 9  143 260 
 ZAR  HE ES        4 7 30.10                             124    0.32 9  202 294 
                                                                                
