 2014  121 0437 59.4 L   5.930 -73.635123.1  RSN 15 0.5 1.9LRSN                1
 GAP= 90        1.24       3.6     2.9  6.5 -0.2095E+01  0.3088E+01 -0.5300E+01E
 Epicentro: BARBOSA - SANTANDER                                                3
 ACTION:UPD 14-03-13 09:57 OP:ep   STATUS:               ID:20140121043759 L   I
 OLDACT:REG 14-01-21 06:43 OP:nd   STATUS:               ID:20140121043000     3
 2014-01-21-0430-00M.COL___279                                                 6
 STAT SP IPHASW D HRMM SECON CODA AMPLIT PERI AZIMU VELO AIN AR TRES W  DIS CAZ7
 SPBC HZ EP        438 17.56                             153    0.1110 57.3 238 
 SPBC HN ES        438 31.19                             153   -0.3410 57.3 238 
 SPBC HZ I         438 33.14        28.8 0.32            146           57.3 238 
 RUS  HZ EP        438 18.34                             152    0.0910 61.2  94 
 RUS  HN ES        438 32.91                             152   -0.0410 61.2  94 
 RUS  HZ I         438 35.55         9.9 0.72            143           61.2  94 
 BAR2 SZ EP        438 20.10                             142    0.3810 88.7  34 
 BAR2 SZ ES        438 35.86                             142    0.3010 88.7  34 
 BAR2 SZ I         438 37.18        95.6 0.18            132           88.7  34 
 PTB  HZ EP        438 20.57                             134   -0.8310  113 307 
 PTB  HN ES        438 38.91                             134    0.3510  113 307 
 PTB  HZ I         438 43.79        10.0 0.18            125            113 307 
 NOR  HZ EP        438 24.24                             127    0.07 9  143 254 
 NOR  HN ES        438 44.41                             127    0.93 9  143 254 
 NOR  HZ I         438 47.00        18.1 0.14            119            143 254 
 CHI  HZ EP        438 24.49                             127   -0.31 9  144 184 
 CHI  HN ES        438 44.65                             127    0.04 9  144 184 
 PAM  SZ EP        438 29.70                             120    0.43 9  187  34 
 PAM  SE ES        438 52.56                             120   -0.01 9  187  34 
 PAM  SZ I         438 57.14         5.6 0.26            112            187  34 
 GUY2CHZ EP   4    438 31.65                             117    0.26 0  207 248 
 GUY2CHN ES   4    438 56.82                             117    0.47 0  207 248 
 GUY2CHZ I         439  4.50         5.2 0.36                           207 248 
 HEL  HZ EP        438 32.56                             116    0.79 8  212 278 
 HEL  HN ES        438 55.96                             116   -1.05 8  212 278 
 HEL  HZ I         439  3.16         5.4 0.36            109            212 278 
 TAM  HZ EP        438 31.51                             116    0.17 8  212  75 
 TAM  HN ES        438 55.28                             116   -0.98 8  212  75 
 TAM  HZ I         438 58.08         6.7 0.22            109            212  75 
 ZAR  HZ EP        438 32.83                             115    0.67 8  219 322 
 ZAR  HN ES        438 57.38                             115   -0.33 8  219 322 
 ZAR  HZ I         439  3.45         8.7 0.26            108            219 322 
 OCA  HZ EP   4    438 39.43                             111    2.78 0  258   8 
 OCA  HN ES   4    439  6.73                             111    1.02 0  258   8 
 OCA  HZ I         439 11.66         6.4 0.50            105            258   8 
 CBOC HZ EP        438 37.61                             110    0.29 8  263 269 
 CBOC HN ES        439  6.08                             110   -0.81 8  263 269 
 CBOC HZ I         439  9.00         3.5 0.24            105            263 269 
 ORTC HZ EP   4    438 38.82                             109   -0.95 0  286 219 
 ORTC HN ES   4    439  8.20                             109   -3.05 0  286 219 
 ORTC HZ I         439 17.09         3.7 0.48            103            286 219 
 SML  HZ EP        438 43.61                             106   -0.18 7  321 351 
 SML  HN ES        439 18.22                             106   -0.20 7  321 351 
 SML  HZ I         439 24.46         6.4 0.10            102            321 351 
                                                                                
