 2014  421 0057 41.4 L   6.788 -73.164149.1  RSN  6 0.5 1.4LRSN                1
 GAP=135        1.13       5.7     6.6 10.7 -0.7499E+01  0.6528E+01  0.2218E+01E
 Epicentro: LOS SANTOS - SANTANDER                                             3
 ACTION:UPD 14-05-13 23:10 OP:nd   STATUS:               ID:20140421005741 L   I
 OLDACT:REG 14-04-21 13:39 OP:spq  STATUS:               ID:20140421004814     3
 2014-04-21-0048-14M.COL___236                                                 6
 STAT SP IPHASW D HRMM SECON CODA AMPLIT PERI AZIMU VELO AIN AR TRES W  DIS CAZ7
 BRR  HZ EP        058  3.31                             153    0.4810 70.1 300 
 BRR  HN ES        058 20.23                             153    0.6710 70.1 300 
 BRR  HZ I         058 24.36         4.4 0.19            152           70.1 300 
 PAM  SZ EP        058  4.33                             151    0.2410 79.7  40 
 PAM  SN ES        058 21.14                             151   -0.6610 79.7  40 
 PAM  SZ I         058 23.80         4.1 0.68            155           79.7  40 
 RUS  HZ EP   1    058  5.49                             145    0.12 7 99.4 175 
 RUS  HN ES   1    058 24.33                             145    0.24 7 99.4 175 
 PTB  HZ EP   1    058  7.96                             133   -0.46 7  146 259 
 PTB  HN ES   1    058 29.34                             133   -0.18 7  146 259 
 PTB  HZ I         058 35.13         4.4 0.10            134            146 259 
 SPBC HE ES   1    058 31.35                             130   -0.83 7  161 219 
 SML  HE ES   1    058 46.35                             118   -0.63 6  244 336 
                                                                                
