 2012  721 0931 15.6 L   6.700 -73.225145.9  RSN  4 0.4 1.5LRSN                1
 GAP=208        0.78      15.5    16.5  9.7  0.2063E+03  0.1674E+02 -0.1503E+02E
 Epicentro: VILLANUEVA - SANTANDER                                             3
 ACTION:UPD 12-08-14 11:46 OP:ep   STATUS:               ID:20120721093115 L   I
 2012-07-21-0930-00M.COL___215                                                 6
 STAT SP IPHASW D HRMM SECON CODA AMPLIT PERI AZIMU VELO AIN AR TRES W  DIS CAZ7
 BAR2 SZ EP   1    931 34.88                             175    -0.2 7   13 158 
 BAR2 SZ ES   1    931 49.78                             175    -0.5 7   13 158 
 BAR2 SZ I         931 51.46         4.9 0.32            175             13 158 
 BRR  HZ EP        931 36.75                             153     0.110   70 310 
 BRR  HZ I         931 37.21         9.9 0.11            154             70 310 
 BRR  HN ES   1    931 53.57                             153     0.4 7   70 310 
 RUS  HN ES   2    931 57.12                             146     0.5 5   91 170 
 ZAR  HZ EP   2    931 47.95                             123     0.3 4  201 296 
 ZAR  HN ES   2    932 11.84                             123    -0.8 4  201 296 
