 2015  621 0752 30.7 L   6.781 -73.084150.6  RSN 15 0.4 1.9LRSN                1
 GAP=169        0.95       2.5     3.6  4.6  0.7456E+00  0.3739E+01  0.1821E+01E
 Epicentro: LOS SANTOS - SANTANDER                                             3
 ACTION:UPD 15-09-10 22:14 OP:cam  STATUS:               ID:20150621075230 L   I
 OLDACT:REG 15-06-21 12:56 OP:drio STATUS:               ID:20150621074747     3
 2015-06-21-0747-47M.COL___322                                                 6
 STAT SP IPHASW D HRMM SECON CODA AMPLIT PERI AZIMU VELO AIN AR TRES W  DIS CAZ7
 BAR2 EZ EP        752 51.06                             171    0.1810 23.5 207 
 BAR2 EZ ES        753  6.62                             171   -0.0310 23.5 207 
 BAR2 EZ I         753  9.03         9.5 0.20            168           23.5 207 
 BRR  HZ EP        752 52.96                             151    0.2210 78.2 298 
 BRR  HE ES        753 10.40                             151    0.4510 78.2 298 
 BRR  HZ I         753 14.77        11.3 0.16            149           78.2 298 
 RUS  HZ EP        752 54.68                             145   -0.0510 98.2 180 
 RUS  HE ES        753 13.70                             145    0.2010 98.2 180 
 RUS  HZ I         753 17.14         5.4 0.22            147           98.2 180 
 OCA  HZ EP        753  0.13                             130    0.49 9  163 351 
 OCA  HE ES        753 22.08                             130   -0.16 9  163 351 
 ZAR  HZ EP        753  3.65                             123   -0.51 8  211 292 
 ZAR  HE ES        753 29.46                             123   -0.82 8  211 292 
 ZAR  HZ I         753 35.51        11.6 0.16            123            211 292 
 NOR  HZ EP        753  6.95                             119   -0.19 8  239 236 
 NOR  HE ES        753 34.66                             119   -0.94 8  239 236 
 NOR  HZ I         753 38.74         8.8 0.14            120            239 236 
 CHI  HZ EP        753  9.34                             118    0.72 8  248 197 
 CHI  HN ES        753 37.99                             118   -0.23 8  248 197 
 CHI  HZ I         753 46.16         3.3 0.22            120            248 197 
 SML  HZ EP        753  7.68                             118   -0.41 8  249 334 
 SML  HN ES   4    753 35.89                             118   -1.39 0  249 334 
 SML  HZ I         753 47.65        14.7 0.10            119            249 334 
 HEL  HZ EP        753 11.90                             115    0.10 7  278 257 
 HEL  HE ES        753 44.05                             115    0.17 7  278 257 
 HEL  HZ I         753 50.75         5.5 0.24            116            278 257 
 PTGC HZ EP        753 13.70                             113   -0.55 7  304 160 
 PTGC HN ES        753 47.45                             113   -0.79 7  304 160 
 GUY2CHZ EP        753 15.00                             113    0.01 7  306 236 
 GUY2CHE ES        753 50.04                             113    0.47 7  306 236 
 GUY2CHZ I         753 57.34         4.3 0.30                           306 236 
 CBOC HZ EP        753 19.17                             110    0.72 7  339 253 
 CBOC HE ES        753 55.74                             110    0.02 7  339 253 
 CBOC HZ I         754  6.51         2.4 0.56            111            339 253 
 TOL  SZ EP        753 19.40                             110   -0.10 6  347 226 
 TOL  SE ES        753 57.64                             110    0.05 6  347 226 
 TOL  SZ I         754  4.36         3.6 0.40            111            347 226 
 MON  HZ EP        753 20.61                             109   -0.02 6  360 308 
 MON  HE ES   4    753 58.23                             109   -1.36 0  360 308 
 MON  HZ I         754  0.50         2.6 0.72            110            360 308 
 PRA  HZ EP        753 25.33                             107    0.79 6  394 211 
 PRA  HE ES        754  6.83                             107    0.27 6  394 211 
 PRA  HZ I         754 11.66         3.0 0.56            109            394 211 
 SJC  HZ EP   4    753 25.10                             106   -1.94 0  415 326 
 SJC  HE ES   4    754  6.64                             106   -4.37 0  415 326 
                                                                                
