 2010  221 0931 21.1 L   6.858 -73.058134.9  RSN  5 0.2 1.4LRSN                1
 GAP=192        0.40       3.4     9.1  6.0  0.1321E+02 -0.1474E+02 -0.7094E+01E
 Epicentro: LOS SANTOS - SANTANDER                                             3
 ACTION:UP  10-08-24 09:50 OP:vdl  STATUS:               ID:20100221093121 L   I
 2010-02-21-0920-00S.COL___094                                                 6
 STAT SP IPHASW D HRMM SECON CODA AMPLIT PERI AZIMU VELO SNR AR TRES W  DIS CAZ7
 GIR2 SZ EP        931 39.41                             167     0.010   29 329 
 GIR2 SZ ES   3    931 54.49                             167     0.8 2   29 329 
 BAR2 SZ EP        931 39.70                             165     0.010   33 205 
 BAR2 SZ ES   2    931 53.79                             165    -0.4 5   33 205 
 BRR  HZ EP        931 41.52                             148     0.010   77 291 
 BRR  HN ES   3    931 57.85                             148     0.4 2   77 291 
 BRR  HZ I         932  1.46         5.0 0.10                            77 291 
 RUS  BZ EP        931 44.47                             139     0.110  107 181 
 RUS  BN ES   3    932  2.06                             139    -0.3 2  107 181 
 RUS  BZ I         932  3.43         2.2 0.18                           107 181 
 OCA  SZ EP        931 48.11                             128    -0.1 9  155 349 
 OCA  SZ ES   3    932  9.33                             128     0.1 2  155 349 
 OCA  SZ I         932 14.66         5.3 0.60                           155 349 
                                                                                
