 2017  421 0645  3.4 L   6.384 -73.444127.1  RSN  6 0.4 1.7LRSN                1
 GAP=213        0.97       7.9     3.9  7.1 -0.5733E+01  0.3074E+01  0.2754E+01E
 Epicentro: CHIMA - SANTANDER                                                  3
 ACTION:UPD 17-05-30 21:14 OP:jn   STATUS:               ID:20170421064503 L   I
 OLDACT:UP  17-04-21 16:27 OP:cog  STATUS:               ID:20170421062820     3
 OLDACT:REG 17-04-21 13:47 OP:cog  STATUS:               ID:20170421062820     3
 2017-04-21-0638-00M.COL___365                                                 6
 STAT SP IPHASW D HRMM SECON CODA AMPLIT PERI AZIMU VELO AIN AR TRES W  DIS CAZ7
 BAR2 EZ EP        645 21.28                             163    0.1110 37.0  51 
 BAR2 EZ ES        645 35.04                             163   -0.0110 37.0  51 
 BAR2 EZ I         645 37.18        18.4 0.53            161           37.0  51 
 BRR  HZ EP        645 23.29                             144   -0.2010 85.3 340 
 BRR  HN ES        645 39.01                             144   -0.1710 85.3 340 
 BRR  HZ I         645 39.89         6.6 0.12            139           85.3 340 
 PTB  HZ EP        645 24.96                             136   -0.7710  113 279 
 PTB  HN ES        645 43.67                             136    0.5010  113 279 
 PAM  EZ EP        645 28.90                             131    0.6910  134  38 
 PAM  EN ES        645 47.36                             131   -0.2210  134  38 
 ZAR  HZ EP        645 34.18                             119    0.09 9  199 308 
 ZAR  HE ES        645 58.09                             119    0.04 9  199 308 
 ZAR  HZ I         646  7.71         5.7 0.30            117            199 308 
 HEL  HZ EP   9    645 39.86                             115    1.70 0  232 265 
 HEL  HN ES        646  7.20                             114    0.21 8  232 265 
                                                                                
