 2017  621 0856 50.8 L   6.771 -73.109150.8  RSN  6 0.3 1.7LRSN                1
 GAP=282        0.79       4.5     7.5  7.7 -0.4730E+01 -0.2175E+02  0.5178E+01E
 Epicentro: LOS SANTOS - SANTANDER                                             3
 ACTION:UPD 17-09-14 16:53 OP:jn   STATUS:               ID:20170621085650 L   I
 OLDACT:UP  17-06-30 07:30 OP:dnl  STATUS:               ID:20170621085650 L   3
 OLDACT:UP  17-06-21 17:43 OP:dhb  STATUS:               ID:20170621084729     3
 OLDACT:REG 17-06-21 13:16 OP:lv   STATUS:               ID:20170621084729     3
 2017-06-21-0848-00M.COL___343                                                 6
 STAT SP IPHASW D HRMM SECON CODA AMPLIT PERI AZIMU VELO AIN AR TRES W  DIS CAZ7
 BRR  HZ EP        857 12.66                             152   -0.1610 76.4 299 
 BRR  HN ES        857 29.99                             152    0.0210 76.4 299 
 BRR  HZ I         857 33.03         6.7 0.13            150           76.4 299 
 PTB  HZ EP   9    857 17.71                             132   -0.82 0  151 260 
 PTB  HE ES        857 39.64                             133    0.33 9  151 260 
 PTB  HZ I         857 44.57         3.1 0.24            132            151 260 
 SPBC HZ EP        857 19.61                             130   -0.13 9  163 221 
 SPBC HE ES        857 42.41                             130    0.13 9  163 221 
 SPBC HZ I         857 44.67         9.0 0.20            131            163 221 
 ZAR  HZ EP        857 24.86                             123    0.73 8  209 293 
 ZAR  HN ES        857 49.65                             123   -0.44 8  209 293 
 ZAR  HZ I         857 53.67         4.6 0.26            123            209 293 
 NOR  HE ES        857 55.13                             119   -0.11 8  236 236 
 GUY2CHZ EP   4    857 37.88                             113    3.03 0  303 236 
 GUY2CHE ES   4    858 10.16                             113    0.98 0  303 236 
 GUY2CHZ I         858 17.27         2.0 0.16                           303 236 
                                                                                
