 2016  121 0230 33.4 L   6.815 -73.180143.3  RSN 10 0.3 1.7LRSN                1
 GAP=132        0.82       2.3     3.6  5.7 -0.2078E+01  0.5269E+01 -0.1166E+01E
 Epicentro: ZAPATOCA - SANTANDER                                               3
 ACTION:UPD 16-03-09 23:27 OP:cam  STATUS:               ID:20160121023033 L   I
 OLDACT:UP  16-01-21 14:47 OP:ar   STATUS:               ID:20160121022748     3
 OLDACT:REG 16-01-21 13:25 OP:ar   STATUS:               ID:20160121022748     3
 2016-01-21-0227-48M.COL___318                                                 6
 STAT SP IPHASW D HRMM SECON CODA AMPLIT PERI AZIMU VELO AIN AR TRES W  DIS CAZ7
 BAR2 EZ ES   2    231  7.89                             170    0.02 5 24.6 181 
 BAR2 EZ I         231  8.55        10.6 0.26             47           24.6 181 
 PAM  EZ EP        230 55.89                             150    0.4510 78.6  42 
 PAM  EN ES        231 12.74                             150    0.1210 78.6  42 
 PAM  EZ I         231 14.70         8.7 0.58             47           78.6  42 
 RUS  HZ EP        230 56.91                             143   -0.1510  103 174 
 RUS  HN ES        231 15.34                             143   -0.1710  103 174 
 RUS  HZ I         231 16.14         3.5 0.24             47            103 174 
 PTB  HZ EP        231  0.38                             132    0.51 9  144 258 
 PTB  HE ES        231 20.28                             132   -0.23 9  144 258 
 PTB  HZ I         231 23.84         5.1 0.16             47            144 258 
 OCA  HZ EP        231  0.47                             129   -0.87 9  158 354 
 OCA  HN ES        231 23.01                             129   -0.11 9  158 354 
 OCA  HZ I         231 28.23        14.5 0.26             47            158 354 
 SPBC HZ EP        231  1.36                             129   -0.26 9  162 218 
 SPBC HN ES        231 23.87                             129    0.24 9  162 218 
 SPBC HZ I         231 26.17         4.8 0.05             47            162 218 
 SML  HZ EP        231  9.66                             117    0.09 8  241 336 
 SML  HN ES        231 38.07                             117    0.30 8  241 336 
 SML  HZ I         231 45.20         7.6 0.26             37            241 336 
 CHI  HZ EP        231 11.46                             116    0.42 8  249 194 
 CHI  HN ES        231 40.21                             116   -0.19 8  249 194 
 CHI  HZ I         231 43.64         1.8 0.26             37            249 194 
 HEL  HZ EP   4    231 17.00                             115    3.86 0  269 255 
 HEL  HN ES        231 44.04                             115   -0.09 8  269 255 
 HEL  HZ I         232 20.77         2.8 0.30             37            269 255 
 GUY2CHZ EP   9    231 20.34                             112    3.67 0  299 234 
 GUY2CHN ES        231 54.30                             110    0.22 7  299 234 
 GUY2CHZ I         231 58.21         1.9 0.24                           299 234 
                                                                                
