 2013 1021 0538 50.1 L   6.795 -73.116147.7  RSN 11 0.4 1.7LRSN                1
 GAP=141        1.05       3.0     4.7  6.2 -0.1263E+01  0.9011E+01  0.1067E+01E
 Epicentro: LOS SANTOS - SANTANDER                                             3
 ACTION:UPD 13-11-25 09:22 OP:ep   STATUS:               ID:20131021053850 L   I
 OLDACT:REG 13-10-21 07:59 OP:carl STATUS:               ID:20131021053843     3
 2013-10-21-0538-43M.COL___214                                                 6
 STAT SP IPHASW D HRMM SECON CODA AMPLIT PERI AZIMU VELO AIN AR TRES W  DIS CAZ7
 BAR2 SZ EP        539  9.98                             170    0.0210 23.6 198 
 BAR2 SZ ES        539 25.10                             170   -0.3610 23.6 198 
 BAR2 SZ I         539 27.66         9.6 0.38            169           23.6 198 
 BRR  HZ EP        539 12.01                             152    0.3810 74.4 298 
 BRR  HN ES        539 29.31                             152    0.8810 74.4 298 
 BRR  HZ I         539 34.79         4.2 0.30            151           74.4 298 
 PAM  SN ES        539 30.01                             152    0.1810 75.7  37 
 RUS  HZ EP        539 13.92                             144   -0.0610 99.9 178 
 RUS  HN ES        539 32.20                             144   -0.4210 99.9 178 
 RUS  HZ I         539 35.59         2.6 0.22            146           99.9 178 
 PTB  HZ EP        539 17.22                             132   -0.28 9  151 259 
 PTB  HN ES        539 38.13                             132   -0.75 9  151 259 
 PTB  HZ I         539 43.78         5.5 0.26            132            151 259 
 OCA  HN ES        539 41.07                             130    0.16 9  161 352 
 OCA  HN I         539 42.78        21.3 0.18            133            161 352 
 SPBC HZ EP        539 18.94                             129    0.04 9  165 220 
 SPBC HN ES        539 41.47                             129    0.10 9  165 220 
 SPBC HZ I         539 46.59         5.3 0.14            131            165 220 
 ZAR  HN ES        539 48.48                             122   -0.19 8  207 292 
 NOR  HE ES        539 55.06                             119    0.71 8  237 235 
 NOR  HZ I         539 57.52         6.0 0.18            120            237 235 
 SML  HZ EP        539 26.83                             118   -0.20 8  246 335 
 SML  HN ES        539 55.19                             118   -0.65 8  246 335 
 SML  HZ I         539 57.94         7.7 0.10            120            246 335 
 PRA  HZ EP        539 44.51                             107    0.69 6  393 210 
 PRA  HN ES        540 25.71                             107   -0.01 6  393 210 
 PRA  HZ I         540 30.67         1.5 0.52            109            393 210 
                                                                                
