 2014 1021 0624 27.4 L   6.786 -72.819  6.8  RSN  5 0.4 1.0LRSN                1
 GAP=184        0.96       2.7     3.8  9.6 -0.4478E+01  0.9643E+01 -0.7181E+00E
 Epicentro: SAN ANDRES - SANTANDER                                             3
 ACTION:UPD 14-11-29 23:52 OP:nd   STATUS:               ID:20141021061743dL   I
 OLDACT:DUP 14-10-23 22:01 OP:spq  STATUS:               ID:20141021061743dL   3
 2014-10-21-0617-42M.COL___268                                                 6
 STAT SP IPHASW D HRMM SECON CODA AMPLIT PERI AZIMU VELO AIN AR TRES W  DIS CAZ7
 BAR2 SZ EP     C  624 35.30                              94    0.1410 45.5 242 
 BAR2 SZ ES   1    624 40.41                              94   -0.79 7 45.5 242 
 BAR2 SZ I         624 41.09         9.6 0.16             47           45.5 242 
 PAM  SZ EP        624 38.37                              93    0.3710 62.6  12 
 PAM  SN ES        624 45.72                              93   -0.5510 62.6  12 
 PAM  SZ I         624 46.86         7.2 0.07             47           62.6  12 
 RUS  HZ EP   1    624 44.52                              92    0.40 7  103 196 
 RUS  HE ES   1    624 57.09                              92   -0.08 7  103 196 
 RUS  HZ I         624 59.27         2.5 0.15             47            103 196 
 BRR  HZ EP   4    624 45.25                              92    1.36 0  105 290 
 BRR  HN ES        624 57.10                              92    0.3510  105 290 
 BRR  HZ I         624 58.76         4.2 0.14             47            105 290 
 PTB  HZ EP   4    624 57.24                              56    1.92 0  183 262 
 PTB  HN ES   1    625 16.99                              56   -0.11 7  183 262 
 PTB  HZ I         625 19.13         2.6 0.32             37            183 262 
                                                                                
