 2012  821 0220 35.9 L   6.769 -73.143143.6  RSN  6 0.4 1.6LRSN                1
 GAP=138        0.79       5.1     4.5  7.7  0.1369E+01  0.1520E+01 -0.3787E+01E
 Epicentro: LOS SANTOS - SANTANDER                                             3
 ACTION:UPD 12-09-10 11:57 OP:ep   STATUS:               ID:20120821022035 L   I
 2012-08-21-0220-00M.COL___217                                                 6
 STAT SP IPHASW D HRMM SECON CODA AMPLIT PERI AZIMU VELO AIN AR TRES W  DIS CAZ7
 BAR2 SZ EP        220 55.05                             172   -0.1110 20.1 192 
 BAR2 SZ ES   1    221  9.65                             172   -0.57 7 20.1 192 
 BAR2 SZ I         221 13.02        13.4 0.30                          20.1 192 
 BRR  HZ EP        220 57.02                             151    0.1410 73.1 301 
 BRR  HZ I         220 57.50        15.3 0.18                          73.1 301 
 BRR  HN ES   1    221 13.95                             151    0.67 7 73.1 301 
 PAM  SZ EP        220 57.94                             150   -0.0510 79.9  38 
 PAM  SN ES   1    221 15.13                             150   -0.13 7 79.9  38 
 RUS  HZ EP   1    220 59.15                             144    0.00 7 97.2 176 
 RUS  HZ I         220 59.92         2.1 0.15                          97.2 176 
 RUS  HN ES   1    221 17.85                             144    0.53 7 97.2 176 
 PTB  HN ES   1    221 22.88                             132   -0.61 7  147 260 
 ZAR  HN ES   1    221 33.72                             122    0.08 6  206 293 
 ZAR  HZ I         221 39.04         3.7 0.14                           206 293 
                                                                                
