 2010  921 0224 49.7 L   6.760 -73.111151.5  RSN  4 0.1 1.3LRSN                1
 GAP=223        0.34       7.8    14.6  8.7  0.9970E+02 -0.9532E+02 -0.4029E+02E
 Epicentro: LOS SANTOS - SANTANDER                                             3
 ACTION:UP  11-02-18 11:04 OP:tino STATUS:               ID:20100921022449 L   I
 2010-09-21-0224-04S.COL___121                                                 6
 STAT SP IPHASW D HRMM SECON CODA AMPLIT PERI AZIMU VELO SNR AR TRES W  DIS CAZ7
 BAR2 SZ EP   1    225  9.82                             172    -0.1 7   20 203 
 BAR2 SZ I         225 26.27         5.3 0.25                            20 203 
 BTL  SZ EP   1    225 10.14                             170     0.1 7   25 315 
 BRR  HZ EP   1    225 11.74                             152     0.0 7   77 300 
 BRR  HZ I         225 12.10         5.4 0.11                            77 300 
 BRR  HN ES   1    225 29.01                             152     0.0 7   77 300 
 RUS  HZ EP   1    225 13.75                             146     0.1 7   96 178 
 RUS  HE ES   2    225 32.41                             146     0.0 5   96 178 
 RUS  HZ I         225 33.11         1.2 0.34                            96 178 
                                                                                
