 2014 1121 0854 22.1 L   6.827 -73.150152.5  RSN  4 0.2 1.2LRSN                1
 GAP=245        0.55       5.2     4.7  7.3  0.1696E+02 -0.1280E+02 -0.2257E+02E
 Epicentro: LOS SANTOS - SANTANDER                                             3
 ACTION:UPD 14-12-19 15:45 OP:nd   STATUS:               ID:20141121085422 L   I
 OLDACT:DUP 14-11-21 18:52 OP:fm   STATUS:               ID:20141121084744d    3
 2014-11-21-0847-43M.COL___301                                                 6
 STAT SP IPHASW D HRMM SECON CODA AMPLIT PERI AZIMU VELO AIN AR TRES W  DIS CAZ7
 RUS  HZ EP        854 46.94                             144    0.1610  104 176 
 RUS  HN ES        855  5.90                             144   -0.0910  104 176 
 RUS  HZ I         855  7.19         1.0 0.34            151            104 176 
 PTB  HZ EP        854 49.88                             133    0.20 9  148 258 
 PTB  HN ES        855 10.90                             133   -0.26 9  148 258 
 PTB  HZ I         855 19.01         2.5 0.26            135            148 258 
 SPBC HZ EP        854 51.07                             130   -0.29 9  165 218 
 SPBC HN ES        855 14.40                             130    0.25 9  165 218 
 SPBC HZ I         855 16.87         3.3 0.58            134            165 218 
 ZAR  HZ EP        854 54.72                             124   -0.16 9  202 291 
 ZAR  HN ES        855 20.59                             124    0.18 9  202 291 
 ZAR  HZ I         855 27.75         1.8 0.32            126            202 291 
                                                                                
