 2017  421 0549 46.7 L   6.814 -73.147143.1  RSN  7 0.4 1.7LRSN                1
 GAP=111        0.97       4.2     4.0  6.5  0.3231E+01  0.6946E+01  0.1033E+02E
 Epicentro: LOS SANTOS - SANTANDER                                             3
 ACTION:UPD 17-05-30 21:14 OP:jn   STATUS:               ID:20170421054946 L   I
 OLDACT:UP  17-04-21 16:16 OP:cog  STATUS:               ID:20170421054648d    3
 OLDACT:DUP 17-04-21 16:07 OP:cog  STATUS:               ID:20170421054648d    3
 2017-04-21-0548-00M.COL___365                                                 6
 STAT SP IPHASW D HRMM SECON CODA AMPLIT PERI AZIMU VELO AIN AR TRES W  DIS CAZ7
 BAR2 EZ EP        550  5.70                             170   -0.3210 24.8 189 
 BAR2 EZ ES        550 20.50                             170   -0.6110 24.8 189 
 BAR2 EZ I         550 24.21        17.3 0.60            171           24.8 189 
 BRR  HZ EP        550  7.63                             152    0.1410 70.3 297 
 BRR  HN ES        550 24.30                             152    0.5810 70.3 297 
 BRR  HZ I         550 27.06         6.6 0.14            152           70.3 297 
 PAM  EZ EP        550  8.66                             151    0.1210 76.3  40 
 PAM  EE ES        550 25.48                             151   -0.1210 76.3  40 
 PAM  EZ I         550 27.79         7.1 0.57            153           76.3  40 
 YPLC HZ EP        550 16.16                             126   -0.26 9  178 152 
 YPLC HN ES        550 40.37                             126    0.74 9  178 152 
 ZAR  HZ EP        550 18.86                             122   -0.01 9  203 292 
 ZAR  HN ES        550 44.12                             122    0.14 9  203 292 
 ZAR  HZ I         550 49.03         4.1 0.37            123            203 292 
 NOR  HZ EP   3    550 22.85                             118    0.52 2  235 234 
 NOR  HN ES        550 49.61                             118   -0.53 8  235 234 
 PRA  HZ EP        550 39.76                             106   -0.49 6  393 209 
 PRA  HN ES        551 22.70                             106    0.66 6  393 209 
                                                                                
