 2015 1121 0401 34.7 L   7.135 -73.220114.2  RSN  4 0.3 1.3LRSN                1
 GAP=267        0.83       5.6     7.2  6.7  0.1448E+02 -0.9830E+00  0.7868E+01E
 Epicentro: LEBRIJA - SANTANDER                                                3
 ACTION:UPD 15-12-28 16:12 OP:cam  STATUS:               ID:20151121040134 L   I
 OLDACT:REG 15-11-21 12:44 OP:dnl  STATUS:               ID:20151121035735     3
 2015-11-21-0357-35M.COL___319                                                 6
 STAT SP IPHASW D HRMM SECON CODA AMPLIT PERI AZIMU VELO AIN AR TRES W  DIS CAZ7
 BRR  HZ EP        4 1 51.11                             153   -0.4010 54.5 267 
 BRR  HN ES        4 2  4.59                             153   -0.0210 54.5 267 
 BRR  HZ I         4 2  5.55         4.1 0.16            154           54.5 267 
 BAR2 EZ EP        4 1 52.36                             150    0.1810 60.1 176 
 BAR2 EZ ES        4 2  6.20                             150    0.3910 60.1 176 
 BAR2 EZ I         4 2  7.37         8.9 0.16            152           60.1 176 
 RUS  HZ EP        4 1 59.17                             126    0.18 9  138 174 
 RUS  HN ES        4 2 17.30                             126   -0.62 9  138 174 
 SPBC HZ EP        4 2  3.97                             117    0.18 9  189 210 
 SPBC HN ES        4 2 26.59                             117    0.13 9  189 210 
                                                                                
