 2014 1221 0450 50.0 L   6.723 -73.152146.8  RSN  6 0.4 1.3LRSN                1
 GAP=139        0.99       5.6     5.4  8.2 -0.5515E+01 -0.3730E+00  0.3564E+01E
 Epicentro: VILLANUEVA - SANTANDER                                             3
 ACTION:UPD 15-02-10 17:06 OP:nd   STATUS:               ID:20141221045050 L   I
 OLDACT:REG 14-12-21 12:40 OP:spq  STATUS:               ID:20141221044740     3
 2014-12-21-0447-40M.COL___302                                                 6
 STAT SP IPHASW D HRMM SECON CODA AMPLIT PERI AZIMU VELO AIN AR TRES W  DIS CAZ7
 BAR2 EZ EP   1    451  9.82                             174    0.21 7 14.9 193 
 BAR2 EZ ES   1    451 24.51                             174   -0.40 7 14.9 193 
 BAR2 EZ I         451 26.74         4.9 0.46            174           14.9 193 
 BRR  HZ EP        451 11.75                             151    0.2710 75.1 304 
 BRR  HN ES        451 28.93                             151    0.7010 75.1 304 
 BRR  HZ I         451 34.69         3.8 0.42            153           75.1 304 
 PAM  SZ EP        451 12.72                             149   -0.0410 84.5  36 
 PAM  SE ES   1    451 29.96                             149   -0.55 7 84.5  36 
 PAM  SZ I         451 32.24         2.2 0.44            153           84.5  36 
 RUS  HZ EP        451 13.45                             146    0.1910 92.2 175 
 RUS  HE ES   1    451 31.44                             146    0.03 7 92.2 175 
 RUS  HZ I         451 32.98         2.4 0.32            150           92.2 175 
 PTB  HZ EP        451 16.55                             133   -0.31 9  146 262 
 PTB  HN ES        451 37.10                             133   -0.71 9  146 262 
 PTB  HZ I         451 37.88         2.7 0.54            135            146 262 
 SPBC HN ES   1    451 40.08                             131    0.37 7  156 221 
 SPBC HZ I         451 44.67         2.6 0.18            134            156 221 
                                                                                
