 2017 1121 0451  8.8 L   6.806 -73.182145.7  RSN 10 0.4 1.4LRSN                1
 GAP=132        0.94       3.5     3.9  6.0 -0.1176E+01  0.9097E+01  0.2963E+01E
 Epicentro: ZAPATOCA - SANTANDER                                               3
 ACTION:UPD 17-12-12 19:57 OP:rebc STATUS:               ID:20171121045108 L   I
 OLDACT:UP  17-11-21 16:40 OP:edw  STATUS:               ID:20171121044441d    3
 OLDACT:UP  17-11-21 16:39 OP:edw  STATUS:               ID:20171121044441d    3
 OLDACT:UP  17-11-21 16:39 OP:edw  STATUS:               ID:20171121044441d    3
 OLDACT:DUP 17-11-21 16:33 OP:edw  STATUS:               ID:20171121044441d    3
 OLDACT:UP  17-11-21 16:32 OP:edw  STATUS:               ID:20171121044440     3
 OLDACT:UP  17-11-21 16:28 OP:edw  STATUS:               ID:20171121044440     3
 OLDACT:REG 17-11-21 12:34 OP:edw  STATUS:               ID:20171121044440     3
 2017-11-21-0448-00M.COL___480                                                 6
 STAT SP IPHASW D HRMM SECON CODA AMPLIT PERI AZIMU VELO AIN AR TRES W  DIS CAZ7
 BAR2 EZ EP        451 28.09                             170   -0.3010 23.7 180 
 BAR2 EZ ES        451 43.37                             170   -0.3310 23.7 180 
 BAR2 EZ I         451 44.43         5.5 0.34            168           23.7 180 
 PAM  EZ EP        451 31.36                             150    0.2610 79.5  42 
 PAM  EN ES        451 48.87                             150    0.3610 79.5  42 
 PAM  EZ I         451 49.07         2.9 0.28            154           79.5  42 
 RUS  HZ EP        451 32.61                             143    0.0310  102 174 
 RUS  HN ES        451 51.25                             143    0.0910  102 174 
 RUS  HZ I         451 52.02         3.2 0.18            143            102 174 
 PTB  HZ EP        451 35.26                             133   -0.12 9  144 258 
 PTB  HN ES        451 55.83                             133   -0.31 9  144 258 
 PTB  HZ I         452  2.37         1.9 0.20            132            144 258 
 SPBC HN ES   2    451 59.27                             129    0.12 5  161 218 
 ZAR  HZ EP        451 39.92                             123   -0.87 9  200 292 
 ZAR  HN ES        452  6.29                             123    0.52 9  200 292 
 NOR  HZ EP        451 44.32                             119    0.14 8  232 234 
 NOR  HN ES        452 12.14                             119    0.33 8  232 234 
 CHI  HZ EP        451 45.93                             117   -0.49 8  248 194 
 CHI  HN ES        452 15.69                             117   -0.10 8  248 194 
 CHI  HZ I         452 20.97         1.8 0.38            117            248 194 
 GUY2CHZ EP   1    451 53.04                             112    1.00 5  298 234 
 GUY2CHN ES   4    452 28.47                             112    2.67 0  298 234 
 GUY2CHZ I         452 34.73         1.1 0.64                           298 234 
 PRA  HZ EP   4    451 57.71                             107   -4.41 0  391 209 
 PRA  HN ES        452 44.50                             107    0.76 6  391 209 
 PRA  HZ I         452 52.03         1.2 0.34            107            391 209 
                                                                                
