 2012 1221 0000 45.5 L   6.690 -73.181148.0  RSN  5 0.3 1.5LRSN                1
 GAP=175        0.61       4.7     5.5  5.3  0.1328E+02  0.2578E+01 -0.2677E+00E
 Epicentro: VILLANUEVA - SANTANDER                                             3
 ACTION:UPD 13-01-04 14:29 OP:ep   STATUS:               ID:20121221000045 L   I
 2012-12-21-0000-00M.COL___243                                                 6
 STAT SP IPHASW D HRMM SECON CODA AMPLIT PERI AZIMU VELO AIN AR TRES W  DIS CAZ7
 BAR2 SZ ES   1    0 1 20.58                             176    0.03 7 10.8 181 
 GIR2 SZ EP   1    0 1  5.16                             163   -0.60 7 43.0 358 
 BRR  HZ EP        0 1  7.17                             152    0.1310 74.7 308 
 BRR  HN ES        0 1 24.06                             152    0.1810 74.7 308 
 BRR  HZ I         0 1 28.51         9.1 0.33                          74.7 308 
 RUS  HZ EP        0 1  8.90                             148    0.2710 88.9 173 
 RUS  HN ES        0 1 26.57                             148   -0.1310 88.9 173 
 RUS  HZ I         0 1 28.56         2.7 0.33                          88.9 173 
 PTB  HZ EP        0 1 12.08                             134   -0.02 9  142 263 
 PTB  HZ I         0 1 13.13         5.0 0.14                           142 263 
 PTB  HN ES   1    0 1 32.63                             134   -0.25 7  142 263 
                                                                                
