 2013  421 0833 49.9 L   6.528 -73.585108.0  RSN  6 0.4 1.5LRSN                1
 GAP=119        0.85       6.6     3.9  7.9  0.3913E+01  0.5234E+01  0.1537E+02E
 Epicentro: EL CARMEN DE CHUCURI - SANTANDER                                   3
 ACTION:UPD 13-05-22 14:39 OP:EP   STATUS:               ID:20130421083349 L   I
 2013-04-21-0830-00M.COL___250                                                 6
 STAT SP IPHASW D HRMM SECON CODA AMPLIT PERI AZIMU VELO AIN AR TRES W  DIS CAZ7
 BAR2 SZ IP     D  834  5.87                             156    0.0010 45.0  81 
 BAR2 SZ ES        834 18.30                             156   -0.0210 45.0  81 
 BAR2 SZ I         834 19.53        29.9 0.50             47           45.0  81 
 BRR  HN ES   1    834 20.53                             147    0.67 7 65.5 348 
 GIR2 SZ IP     C  834  7.17                             143   -0.4210 74.6  35 
 GIR2 SZ I         834 23.17         5.7 0.40             47           74.6  35 
 RUS  HZ EP        834  9.42                             138    0.1810 89.6 142 
 RUS  HN ES   2    834 24.39                             138    0.07 5 89.6 142 
 RUS  HZ I         834 26.08         6.7 0.50             47           89.6 142 
 PTB  HZ IP     D  834  8.97                             135   -0.2010 96.4 271 
 PTB  HN ES        834 23.99                             135   -0.1910 96.4 271 
 PTB  HZ I         834 29.27         7.0 0.10             47           96.4 271 
 HEL  HZ EP   2    834 23.74                             111    1.45 4  218 260 
 HEL  HN ES   4    834 49.92                             111    2.37 0  218 260 
 HEL  HZ I         834 57.00         2.4 0.30             37            218 260 
                                                                                
