 2017 1221 0849  1.1 L   5.975 -74.193  0.0  RSN  5 0.7 1.1LRSN                1
 GAP=179        1.28       4.4     3.6  8.6 -0.6015E+01 -0.8716E+00 -0.1110E+02E
 Epicentro: LA BELLEZA - SANTANDER                                             3
 ACTION:UPD 18-01-04 13:22 OP:rebc STATUS:               ID:20171221084901 L   I
 OLDACT:UP  17-12-21 17:57 OP:dani STATUS:               ID:20171221084344     3
 OLDACT:UP  17-12-21 17:56 OP:dani STATUS:               ID:20171221084344     3
 OLDACT:REG 17-12-21 13:29 OP:dani STATUS:               ID:20171221084344     3
 2017-12-21-0848-00M.COL___442                                                 6
 STAT SP IPHASW D HRMM SECON CODA AMPLIT PERI AZIMU VELO AIN AR TRES W  DIS CAZ7
 PTB  HZ EP     D  849 12.48                              47   -0.2310 68.9 335 
 PTB  HN ES        849 22.31                              47    0.5310 68.9 335 
 PTB  HZ I         849 22.69         4.5 0.18             47           68.9 335 
 BAR2 EZ EP   3    849 19.47                              47   -2.88 2  131  59 
 BAR2 EZ ES        849 39.70                              47    0.7710  131  59 
 BAR2 EZ I         849 40.72         3.2 0.34             47            131  59 
 GUY2CHZ EP        849 26.38                              47    0.28 9  154 237 
 GUY2CHN ES        849 45.69                              47    0.08 9  154 237 
 GUY2CHZ I         849 46.71         2.1 0.28                           154 237 
 ZAR  HN ES        849 51.66                              37   -0.75 9  183 336 
 PAM  EZ EP        849 35.18                              37   -0.38 8  224  47 
 PAM  EN ES        850  2.00                              37   -0.45 8  224  47 
 PAM  EZ I         850  3.65         2.6 0.44             37            224  47 
                                                                                
