 2016  721 0554 25.8 L   6.785 -73.116151.3  RSN  5 0.4 1.5LRSN                1
 GAP=239        1.10       6.4     8.2  8.0  0.2516E+02  0.1180E+02 -0.5427E+00E
 Epicentro: LOS SANTOS - SANTANDER                                             3
 ACTION:UPD 17-03-29 16:53 OP:lp   STATUS:               ID:20160721055425 L   I
 OLDACT:REG 16-07-21 14:13 OP:ar   STATUS:               ID:20160721054759     3
 2016-07-21-0547-59S.COL___313                                                 6
 STAT SP IPHASW D HRMM SECON CODA AMPLIT PERI AZIMU VELO AIN AR TRES W  DIS CAZ7
 BAR2 EZ EP        554 46.17                             171    0.0710 22.5 199 
 BAR2 EZ ES        555  1.19                             171   -0.7310 22.5 199 
 BRR  HZ EP        554 48.17                             152    0.3910 74.9 298 
 BRR  HN ES        555  5.58                             152    0.6810 74.9 298 
 BRR  HZ I         555  6.10         4.3 0.12            148           74.9 298 
 RUS  HZ EP        554 50.00                             145    0.0110 98.7 178 
 RUS  HE ES        555  8.91                             145    0.0710 98.7 178 
 RUS  HZ I         555 10.26         3.5 0.44            142           98.7 178 
 SPBC HZ EP        554 55.13                             130    0.30 9  164 220 
 SPBC HN ES        555 17.45                             130    0.00 9  164 220 
 SPBC HZ I         555 23.79         4.2 0.18            127            164 220 
 ZAR  HZ EP        554 58.25                             123   -0.76 8  208 292 
 ZAR  HN ES        555 24.62                             123   -0.28 8  208 292 
 ZAR  HZ I         555 29.27         3.6 0.22            121            208 292 
                                                                                
