 2013  221 0028 50.8 L   6.759 -73.145141.2  RSN  9 0.4 2.1LRSN                1
 GAP=139        0.84       3.7     4.5  7.1  0.1439E+01  0.8681E+01  0.3221E+01E
 Epicentro: LOS SANTOS - SANTANDER                                             3
 ACTION:UPD 13-03-12 09:34 OP:ep   STATUS:               ID:20130221002850 L   I
 2013-02-21-0027-42M.COL___194                                                 6
 STAT SP IPHASW D HRMM SECON CODA AMPLIT PERI AZIMU VELO AIN AR TRES W  DIS CAZ7
 BAR2 SZ EP   1    029  9.98                             172    0.16 7 18.9 193 
 BAR2 SZ ES   1    029 24.43                             172   -0.21 7 18.9 193 
 BAR2 SZ I         029 26.84        48.6 0.24            169           18.9 193 
 BRR  HZ EP     C  029 11.87                             151    0.2510 73.6 302 
 BRR  HN ES   1    029 28.60                             151    0.76 7 73.6 302 
 BRR  HZ I         029 31.94        18.5 0.16            148           73.6 302 
 PAM  SZ EP   1    029 13.00                             149    0.23 7 80.9  37 
 PAM  SN ES   1    029 29.58                             149   -0.31 7 80.9  37 
 PAM  SZ I         029 32.47        29.6 0.46            153           80.9  37 
 RUS  HZ EP   1    029 13.96                             144    0.16 7 96.1 176 
 RUS  HN ES   1    029 31.51                             144   -0.21 7 96.1 176 
 RUS  HZ I         029 32.99        11.8 0.46            145           96.1 176 
 PTB  HZ EP   1    029 16.84                             131   -0.52 7  147 261 
 PTB  HN ES   1    029 37.30                             131   -0.76 7  147 261 
 PTB  HZ I         029 39.98        27.8 0.18            130            147 261 
 OCA  HN ES   4    029 39.81                             128   -1.55 0  165 353 
 ZAR  HN ES   1    029 49.07                             121    0.67 6  206 293 
 ZAR  HZ I         029 56.87        15.5 0.30            121            206 293 
 CHI  HZ EP   1    029 27.83                             117    0.03 6  244 195 
 CHI  HN ES   1    029 56.86                             117    0.22 6  244 195 
 CHI  HZ I         030  4.85         4.5 0.50            117            244 195 
 SML  HN ES   1    029 55.57                             116   -0.81 6  248 336 
 HEL  HN ES   1    030  1.72                             114   -0.08 6  271 257 
 HEL  HZ I         030  9.00        11.5 0.30            114            271 257 
 URE  HN ES   4    030  1.87                             112   -2.04 0  286 293 
                                                                                
