 2010  421 0558 43.7 L   6.748 -73.053141.2  RSN  6 0.4 1.7LRSN                1
 GAP=208        0.64       8.0     9.8  8.1 -0.3451E+02 -0.1944E+02  0.6321E+01E
 Epicentro: LOS SANTOS - SANTANDER                                             3
 ACTION:UPD 10-08-24 10:00 OP:vdl  STATUS:               ID:20100421055843 L   I
 2010-04-21-0555-26S.COL___104                                                 6
 STAT SP IPHASW D HRMM SECON CODA AMPLIT PERI AZIMU VELO AIN AR TRES W  DIS CAZ7
 BAR2 SZ EP   2    559  2.76                             171    -0.1 5   23 220 
 BAR2 SZ ES   2    559 17.84                             171     0.2 5   23 220 
 BRR  HZ IP     D  559  5.00                             148    -0.110   83 299 
 BRR  HE ES   1    559 21.90                             148     0.1 7   83 299 
 BRR  HZ I         559 26.44         5.6 0.12                            83 299 
 GUE  SZ EP   2    559  7.62                             137    -0.7 5  121   7 
 GRA  SZ EP   2    559  9.24                             135     0.4 5  129  12 
 OCA  SZ EP   2    559 12.85                             127     0.4 5  167 350 
 OCA  SZ I         559 38.82        10.1 0.29                           167 350 
 RREF BZ EP   2    559 31.06                             110     0.9 3  326 231 
 RREF BN ES   2    6 0  5.91                             110    -0.5 3  326 231 
 RREF BZ I         6 0 14.96         2.4 0.55                           326 231 
                                                                                
