 2010  421 0959  6.4 L   7.383 -73.154132.7  RSN  5 0.1 1.6LRSN                1
 GAP=147        0.44       5.7     6.5  5.5 -0.2944E+02 -0.1471E+02  0.1749E+02E
 Epicentro: EL PLAYON - SANTANDER                                              3
 ACTION:UPD 10-08-24 10:00 OP:vdl  STATUS:               ID:20100421095906 L   I
 2010-04-21-0957-27S.COL___104                                                 6
 STAT SP IPHASW D HRMM SECON CODA AMPLIT PERI AZIMU VELO AIN AR TRES W  DIS CAZ7
 GIR2 SZ EP   1    959 24.49                             165    -0.2 7   34 187 
 GUE  SZ EP        959 25.76                             156     0.010   56  27 
 GUE  SZ ES   1    959 40.81                             156    -0.1 7   56  27 
 GRA  SZ IP        959 26.43                             151     0.210   68  35 
 GRA  SZ ES   1    959 41.51                             151    -0.1 7   68  35 
 BRR  HZ EP        959 25.86                             151    -0.210   69 244 
 BRR  HN ES   1    959 41.55                             151     0.2 7   69 244 
 BRR  HZ I         959 42.40         7.7 0.12                            69 244 
 BAR2 SZ EP        959 27.67                             145     0.110   88 182 
                                                                                
