 2014  221 0703 47.5 L   6.004 -73.819102.0  RSN  5 0.2 1.1LRSN                1
 GAP=109        0.44       1.7     2.4  4.4  0.6388E+00  0.4484E+01 -0.1092E+01E
 Epicentro: EL PEON - SANTANDER                                                3
 ACTION:UPD 14-03-10 08:11 OP:ep   STATUS:               ID:20140221070347 L   I
 OLDACT:UP  14-02-24 03:17 OP:Migu STATUS:               ID:20140221070347 L   3
 OLDACT:REG 14-02-21 10:01 OP:y    STATUS:               ID:20140221070000     3
 2014-02-21-0700-00M.COL___213                                                 6
 STAT SP IPHASW D HRMM SECON CODA AMPLIT PERI AZIMU VELO AIN AR TRES W  DIS CAZ7
 SPBC HE ES   1    7 4 14.51                             153   -0.08 7 47.9 216 
 RUS  HZ EP        7 4  5.58                             138   -0.0910 82.4  99 
 RUS  HN ES        7 4 19.92                             138    0.0510 82.4  99 
 RUS  HZ I         7 4 23.79         1.7 0.60            139           82.4  99 
 BAR2 SZ ES   1    7 4 21.32                             133    0.03 7 95.9  47 
 BAR2 SZ I         7 4 22.93        16.1 0.55            135           95.9  47 
 CHI  HZ EP   1    7 4 12.61                             119    0.32 7  152 176 
 CHI  HN ES        7 4 31.61                             119   -0.03 9  152 176 
 CHI  HZ I         7 4 33.76         1.0 0.52            121            152 176 
 ZAR  HZ EP        7 4 16.84                             111   -0.28 9  201 325 
 ZAR  HE ES        7 4 40.46                             111    0.21 9  201 325 
 ZAR  HZ I         7 4 41.41         1.3 0.34            113            201 325 
                                                                                
