 2014 1221 0040 24.0 L   6.749 -73.161146.5  RSN  4 0.2 0.9LRSN                1
 GAP=137        0.44       3.5     3.4  4.8 -0.4441E+01  0.3581E+01 -0.2858E+01E
 Epicentro: LOS SANTOS - SANTANDER                                             3
 ACTION:UPD 15-02-10 17:06 OP:nd   STATUS:               ID:20141221004024 L   I
 OLDACT:REG 14-12-21 12:19 OP:spq  STATUS:               ID:20141221003744     3
 2014-12-21-0037-44M.COL___302                                                 6
 STAT SP IPHASW D HRMM SECON CODA AMPLIT PERI AZIMU VELO AIN AR TRES W  DIS CAZ7
 BAR2 EZ EP   1    040 43.76                             173    0.15 7 17.5 188 
 BAR2 EZ ES   1    040 58.66                             173   -0.26 7 17.5 188 
 BAR2 EZ I         041  1.32         2.5 0.20            173           17.5 188 
 PAM  SZ EP        040 46.65                             149    0.0310 82.8  38 
 PAM  SN ES   1    041  4.32                             149    0.05 7 82.8  38 
 PAM  SZ I         041  6.35         2.2 0.44            153           82.8  38 
 RUS  HZ EP   1    040 47.10                             145   -0.33 7 95.1 175 
 RUS  HE ES   1    041  5.99                             145    0.27 7 95.1 175 
 RUS  HZ I         041  7.73         0.9 0.26            149           95.1 175 
 PTB  HZ EP   1    040 50.84                             133    0.06 7  145 261 
 PTB  HE ES   1    041 11.70                             133    0.02 7  145 261 
 PTB  HZ I         041 14.34         0.7 0.20            135            145 261 
                                                                                
