 2010  421 0915  8.8 L   6.785 -73.013141.2  RSN  6 0.3 2.0LRSN                1
 GAP=211        0.67       5.6     8.1  6.4 -0.1538E+02 -0.1271E+02 -0.8321E+01E
 Epicentro: CEPITA - SANTANDER                                                 3
 ACTION:UPD 10-08-24 10:00 OP:vdl  STATUS:               ID:20100421091508 L   I
 2010-04-21-0915-02S.COL___104                                                 6
 STAT SP IPHASW D HRMM SECON CODA AMPLIT PERI AZIMU VELO AIN AR TRES W  DIS CAZ7
 BAR2 SZ EP        915 28.16                             168     0.210   28 221 
 BAR2 SZ ES   1    915 42.59                             168    -0.4 7   28 221 
 GIR2 SZ EP        915 28.22                             164     0.110   38 329 
 GIR2 SZ ES   2    915 42.98                             164    -0.2 5   38 329 
 BRR  HZ EP        915 30.32                             147     0.010   85 295 
 BRR  HZ I         915 30.55        17.2 0.13                            85 295 
 BRR  HN ES   1    915 47.36                             147     0.3 7   85 295 
 GUE  SZ EP        915 33.06                             138     0.010  116   5 
 GRA  SZ EP        915 33.72                             136     0.310  124  11 
 GRA  SZ ES   1    915 52.85                             136     0.1 7  124  11 
 OCA  SZ EP        915 36.60                             128    -0.5 9  164 348 
 OCA  SZ I         916  1.27        12.6 0.25                           164 348 
                                                                                
