 2016  321 0130 59.3 L   6.798 -73.143140.0  RSN 12 0.4 1.8LRSN                1
 GAP=137        0.97       2.8     3.6  5.8 -0.2306E+01  0.7314E+01  0.5254E+00E
 Epicentro: LOS SANTOS - SANTANDER                                             3
 ACTION:UPD 16-05-13 21:25 OP:cam  STATUS:               ID:20160321013059 L   I
 OLDACT:REG 16-03-21 12:31 OP:ak   STATUS:               ID:20160321012746     3
 2016-03-21-0127-46M.COL___287                                                 6
 STAT SP IPHASW D HRMM SECON CODA AMPLIT PERI AZIMU VELO AIN AR TRES W  DIS CAZ7
 BAR2 EZ EP        131 18.32                             170    0.0610 23.2 191 
 BAR2 EZ ES        131 33.56                             170    0.5310 23.2 191 
 BAR2 EZ I         131 34.36        10.8 0.16            169           23.2 191 
 PAM  EZ EP        131 21.33                             150    0.4010 77.4  39 
 PAM  EN ES        131 37.74                             150   -0.0410 77.4  39 
 PAM  EZ I         131 40.47        14.8 0.60            154           77.4  39 
 RUS  HZ EP        131 22.45                             143   -0.0510  100 176 
 RUS  HN ES        131 40.54                             143   -0.0310  100 176 
 RUS  HZ I         131 42.19         5.2 0.31            145            100 176 
 PTB  HZ EP        131 25.90                             131    0.05 9  148 259 
 PTB  HN ES        131 46.24                             131   -0.30 9  148 259 
 PTB  HZ I         131 49.24         7.4 0.26            132            148 259 
 OCA  HZ EP        131 26.70                             128   -0.52 9  160 353 
 OCA  HN ES        131 48.36                             128   -0.61 9  160 353 
 OCA  HZ I         131 51.64        22.8 0.30            131            160 353 
 SPBC HN ES        131 48.72                             128   -0.56 9  163 219 
 SPBC HZ I         131 59.11         7.0 0.13            130            163 219 
 ZAR  HZ EP   2    131 30.83                             121   -0.61 4  204 292 
 ZAR  HN ES        131 57.21                             121    0.73 9  204 292 
 ZAR  HZ I         132  2.35         8.7 0.46            123            204 292 
 NOR  HZ EP   2    131 34.83                             117    0.09 4  235 235 
 NOR  HE ES        132  2.45                             117    0.09 8  235 235 
 NOR  HZ I         132  7.51         4.0 0.34            119            235 235 
 CHI  HZ EP        131 36.75                             116    0.05 8  249 195 
 CHI  HN ES        132  5.38                             116   -0.47 8  249 195 
 HEL  HZ EP        131 39.95                             114    0.68 8  272 256 
 HEL  HN ES        132  9.88                             114   -0.56 8  272 256 
 GUY2CHZ EP        131 43.44                             111    0.75 7  301 235 
 GUY2CHN ES        132 16.64                             111    0.13 7  301 235 
 GUY2CHZ I         132 23.86         1.8 0.27                           301 235 
 MON  HZ EP   9    131 46.13                             107   -2.02 0  354 308 
 MON  HN ES        132 24.59                                    0.38 6  354 308 
 MON  HZ I         132 25.49         2.1 0.20            109            354 308 
 SJC  HZ EP   4    131 53.30                             105   -1.44 0  410 327 
 SJC  HE ES   4    132 34.41                             105   -3.55 0  410 327 
                                                                                
