 2010  921 0842 56.8 L   6.794 -73.098146.4  RSN 17 0.4 2.9LRSN                1
 GAP=164        0.82       2.7     5.0  4.7 -0.6008E+01  0.6811E+01  0.3502E+00E
 Epicentro: LOS SANTOS - SANTANDER                                             3
 ACTION:UP  11-02-18 11:04 OP:tino STATUS:               ID:20100921084256 L   I
 2010-09-21-0840-55S.COL___121                                                 6
 STAT SP IPHASW D HRMM SECON CODA AMPLIT PERI AZIMU VELO SNR AR TRES W  DIS CAZ7
 BTL  SZ EP        843 16.77                             170     0.210   23 306 
 BAR2 SZ IP        843 16.51                             170     0.010   24 203 
 BAR2 SZ ES        843 31.72                             170    -0.210   24 203 
 BAR2 SZ I         843 34.52       189.7 0.53                            24 203 
 GIR2 SZ EP   1    843 16.56                             166    -0.1 7   33 342 
 BRR  HZ IP     C  843 18.38                             151     0.110   76 297 
 BRR  HE ES   1    843 35.60                             151     0.5 7   76 297 
 BRR  HZ I         843 40.38       134.8 0.17                            76 297 
 RUS  HZ EP        843 20.32                             144    -0.310  100 179 
 RUS  HE ES        843 39.07                             144     0.010  100 179 
 RUS  HZ I         843 40.44        70.1 0.33                           100 179 
 GUE  SZ EP        843 21.44                             140    -0.110  116   9 
 GRA  SZ IP        843 22.29                             137     0.210  125  15 
 GRA  SZ ES        843 41.75                             137     0.010  125  15 
 GRA  SZ I         843 44.63       131.5 0.36                           125  15 
 OCA  SZ EP        843 24.77                             130    -0.5 9  162 351 
 OCA  SZ ES   1    843 47.95                             130     0.4 7  162 351 
 OCA  SZ I         843 53.06       119.8 0.39                           162 351 
 NOR  SZ EP   1    843 32.38                             118    -0.6 6  239 235 
 NOR  SN ES   1    844  1.01                             118    -0.2 6  239 235 
 CHI  HZ EP        843 34.43                             117    -0.2 8  249 196 
 CHI  HN ES   2    844  4.05                             117    -0.1 4  249 196 
 CHI  HZ I         844 12.74        40.7 0.83                           249 196 
 ROSC BZ EP        843 36.07                             117     0.9 8  255 212 
 ROSC BN ES   1    844  5.24                             117     0.1 6  255 212 
 ROSC BZ I         844 14.31        80.2 0.50                           255 212 
 CVER SZ EP   1    843 37.68                             115     0.3 6  274 203 
 CVER SZ I         843 39.51       102.0 0.30                           274 203 
 HEL  HZ EP   2    843 37.65                             114     0.0 4  277 256 
 HEL  HN ES   2    844  9.30                             114    -0.1 4  277 256 
 HEL  HZ I         844 15.47        38.9 0.24                           277 256 
 RREF HZ EP        843 43.38                             111     0.0 7  325 230 
 RREF HN ES   2    844 19.82                             111     0.1 3  325 230 
 RREF HZ I         844 25.06        58.9 0.29                           325 230 
 DBB  SZ EP   1    843 43.98                             109    -1.0 5  345 274 
 DBB  SZ I         844 23.42        11.1 0.39                           345 274 
 TOL  SZ EP   1    843 45.86                             109     0.4 5  347 225 
 TOL  SZ ES   2    844 22.63                             109    -0.8 3  347 225 
 ANIL HZ EP   2    843 47.94                             108     0.9 3  361 225 
 ANIL HN ES   1    844 26.69                             108     0.5 5  361 225 
                                                                                
