 2016  421 0720 35.4 L   6.824 -73.230135.6  RSN  4 0.1 1.1LRSN                1
 GAP=149        0.42       3.6     3.2  3.9 -0.8524E+01  0.1591E+01  0.7946E+00E
 Epicentro: ZAPATOCA - SANTANDER                                               3
 ACTION:UPD 16-05-05 14:23 OP:rebc STATUS:               ID:20160421072035 L   I
 OLDACT:ARG 16-04-21 12:49 OP:cara STATUS:               ID:20160421071747     3
 2016-04-21-0717-47M.COL___297                                                 6
 STAT SP IPHASW D HRMM SECON CODA AMPLIT PERI AZIMU VELO AIN AR TRES W  DIS CAZ7
 BAR2 EZ IP        720 53.99                             169    0.1110 26.1 168 
 BAR2 EZ ES        721  8.20                             169   -0.0910 26.1 168 
 BAR2 EZ I         721  9.48         4.1 0.28            172           26.1 168 
 PAM  EZ IP        720 56.60                             147   -0.2310 81.8  46 
 PAM  EN ES        721 13.70                             147    0.1510 81.8  46 
 PAM  EZ I         721 15.24         2.3 0.64            150           81.8  46 
 PTB  HN ES        721 20.55                             131   -0.00 9  139 257 
 PTB  HZ I         721 26.79         1.6 0.22            130            139 257 
 SPBC HZ EP        721  2.91                             127    0.11 9  160 216 
 SPBC HN ES        721 24.12                             127   -0.04 9  160 216 
 SPBC HZ I         721 27.15         1.7 0.12            129            160 216 
                                                                                
