 2016 1221 0801 39.2 L   6.468 -73.589107.5  RSN  6 0.5 1.0LRSN                1
 GAP= 97        1.14       5.3     5.3 10.8  0.1248E+01  0.3172E+02 -0.2972E+01E
 Epicentro: SANTA HELENA DEL OPON - SANTANDER                                  3
 ACTION:UPD 17-01-11 20:17 OP:rebc STATUS:               ID:20161221075751dL   I
 OLDACT:DUP 16-12-21 16:27 OP:cog  STATUS:               ID:20161221075751dL   3
 2016-12-21-0758-00M.COL___369                                                 6
 STAT SP IPHASW D HRMM SECON CODA AMPLIT PERI AZIMU VELO AIN AR TRES W  DIS CAZ7
 BAR2 EZ ES        8 2  8.38                             155    0.6910 47.0  73 
 RUS  HZ EP        8 1 58.17                             139    0.0810 84.7 139 
 RUS  HE ES        8 2 12.39                             139   -0.4410 84.7 139 
 RUS  HZ I         8 2 15.35         1.3 0.30            142           84.7 139 
 PTB  HZ EP        8 1 57.79                             135   -0.6110 96.3 275 
 PTB  HZ I         8 2 13.20         2.6 0.16            130           96.3 275 
 PAM  EZ EP        8 2  3.26                             124    0.31 9  138  46 
 PAM  EE ES        8 2 21.06                             124   -0.41 9  138  46 
 PAM  EZ I         8 2 22.18         2.2 0.26            127            138  46 
 ZAR  HE ES        8 2 28.39                             116   -0.00 9  180 309 
 GUY2CHZ EP        8 2 14.76                             109    0.58 8  240 235 
                                                                                
