 2016  621 0225 16.9 L   6.850 -73.113139.7  RSN  7 0.5 1.4LRSN                1
 GAP=248        1.22       6.7     6.4  9.7  0.7395E+01  0.2115E+02 -0.9128E+01E
 Epicentro: LOS SANTOS - SANTANDER                                             3
 ACTION:UPD 16-07-21 22:21 OP:rebc STATUS:               ID:20160621022516 L   I
 OLDACT:DUP 16-06-21 16:13 OP:ak   STATUS:               ID:20160621021749d    3
 OLDACT:DUP 16-06-21 16:05 OP:ak   STATUS:               ID:20160621021748d    3
 OLDACT:REG 16-06-21 14:27 OP:ak   STATUS:               ID:20160621021747     3
 2016-06-21-0217-47M.COL___337                                                 6
 STAT SP IPHASW D HRMM SECON CODA AMPLIT PERI AZIMU VELO AIN AR TRES W  DIS CAZ7
 BAR2 EZ EP        225 36.21                             168    0.2610 29.6 195 
 BAR2 EZ ES        225 50.87                             168    0.0610 29.6 195 
 BAR2 EZ I         225 53.07         7.5 0.36                          29.6 195 
 RUS  HZ EP        225 40.47                             141   -0.0010  106 178 
 RUS  HN ES        225 59.19                             141    0.3410  106 178 
 RUS  HZ I         226  0.39         2.7 0.36                           106 178 
 PTB  HZ EP        225 43.30                             130   -0.52 9  152 257 
 PTB  HN ES        226  4.07                             130   -0.74 9  152 257 
 PTB  HZ I         226  6.81         2.3 0.16                           152 257 
 SPBC HZ EP        225 44.98                             126   -0.61 9  170 219 
 SPBC HE ES        226  7.30                             126   -0.66 9  170 219 
 SPBC HZ I         226 12.24         4.6 0.18                           170 219 
 ZAR  HZ EP        225 49.52                             121    0.42 8  205 290 
 ZAR  HE ES        226 14.56                             121    0.35 8  205 290 
 ZAR  HZ I         226 20.22         1.9 0.22                           205 290 
 NOR  HE ES        226 21.77                             116    0.68 8  241 234 
 GUY2CHN ES        226 36.23                             111    0.94 7  307 234 
                                                                                
