 2015 1121 0008 39.2 L   6.780 -73.117140.2  RSN  5 0.4 1.6LRSN                1
 GAP=281        0.88       5.3     8.1  9.2 -0.5565E+01 -0.1954E+02  0.1852E+02E
 Epicentro: LOS SANTOS - SANTANDER                                             3
 ACTION:UPD 15-12-28 16:12 OP:cam  STATUS:               ID:20151121000839 L   I
 OLDACT:REG 15-11-21 12:13 OP:dnl  STATUS:               ID:20151121000000     3
 2015-11-21-0000-00M.COL___319                                                 6
 STAT SP IPHASW D HRMM SECON CODA AMPLIT PERI AZIMU VELO AIN AR TRES W  DIS CAZ7
 BRR  HZ EP        0 9  0.41                             150    0.4210 75.0 299 
 BRR  HZ ES        0 9 16.07                             150   -0.1210 75.0 299 
 BRR  HZ I         0 9 20.78        10.5 0.35            145           75.0 299 
 PTB  HZ EP        0 9  5.17                             130   -0.81 9  150 260 
 PTB  HN ES        0 9 26.59                             130   -0.26 9  150 260 
 PTB  HZ I         0 9 27.87         4.0 0.08            128            150 260 
 SPBC HZ EP        0 9  7.39                             128    0.07 9  163 220 
 SPBC HN ES        0 9 29.36                             128    0.13 9  163 220 
 SPBC HZ I         0 9 31.16         4.3 0.07            127            163 220 
 ZAR  HN ES        0 9 37.37                             121    0.34 8  208 292 
 ZAR  HZ I         0 9 43.36         6.7 0.45            119            208 292 
 NOR  HZ EP        0 9 14.85                             117    0.09 8  236 235 
 NOR  HE ES        0 9 42.72                             117    0.23 8  236 235 
 NOR  HZ I         0 9 50.54         2.3 0.42            117            236 235 
                                                                                
