 2010 1021 0545 31.1 L   6.610 -73.453120.2  RSN  4 0.2 1.1LRSN                1
 GAP=121        0.47       6.7     8.8  8.1  0.4342E+02  0.2579E+02  0.2761E+02E
 Epicentro: EL CARMEN DE CHUCURI - SANTANDER                                   3
 ACTION:UP  11-02-18 11:11 OP:tino STATUS:               ID:20101021054531 L   I
 2010-10-21-0542-00S.COL___122                                                 6
 STAT SP IPHASW D HRMM SECON CODA AMPLIT PERI AZIMU VELO SNR AR TRES W  DIS CAZ7
 BAR2 SZ IP        545 48.05                             165     0.210   30  94 
 BAR2 SZ I         546  1.84        12.4 0.58                            30  94 
 BRR  HZ EP   1    545 48.87                             151    -0.1 7   62 333 
 BRR  HN ES   1    546  2.89                             151     0.0 7   62 333 
 BRR  HZ I         546 11.99         3.5 0.05                            62 333 
 RUS  HZ EP   1    545 51.32                             141    -0.2 7   89 153 
 RUS  HN ES   2    546  7.46                             141     0.0 5   89 153 
 RUS  HZ I         546  8.10         1.0 0.35                            89 153 
 HEL  HZ EP   2    546  6.03                             113     0.2 4  234 259 
 HEL  HZ I         546 37.82         1.1 0.21                           234 259 
                                                                                
