 2015  121 0700 11.4 L   6.799 -73.148152.3  RSN  7 0.4 1.4LRSN                1
 GAP=136        1.05       4.7     4.7  7.2 -0.1143E+01  0.7152E+01  0.2799E+01E
 Epicentro: LOS SANTOS - SANTANDER                                             3
 ACTION:UPD 15-03-02 15:41 OP:nd   STATUS:               ID:20150121070011 L   I
 OLDACT:REG 15-01-21 12:27 OP:carl STATUS:               ID:20150121065742     3
 2015-01-21-0657-42M.COL___265                                                 6
 STAT SP IPHASW D HRMM SECON CODA AMPLIT PERI AZIMU VELO AIN AR TRES W  DIS CAZ7
 BAR2 EZ ES        7 0 47.50                             171   -0.2610 23.2 189 
 BAR2 EZ I         7 0 49.67         4.2 0.34            171           23.2 189 
 BRR  HZ EP        7 0 33.79                             154    0.5210 71.0 299 
 BRR  HZ I         7 0 50.69        13.4 0.98            147           71.0 299 
 BRR  HN ES        7 0 50.86                             154    0.5410 71.0 299 
 PAM  SZ EP        7 0 34.67                             152    0.3210 77.6  40 
 PAM  SE ES        7 0 51.88                             152   -0.3510 77.6  40 
 PAM  SZ I         7 0 54.31         2.9 0.60            150           77.6  40 
 RUS  HZ EP        7 0 35.28                             145   -0.5410  101 176 
 RUS  HN ES        7 0 54.99                             145    0.1410  101 176 
 RUS  HZ I         7 0 56.62         2.7 0.28            145            101 176 
 PTB  HZ EP        7 0 38.61                             133   -0.30 9  148 259 
 PTB  HE ES        7 0 59.75                             133   -0.60 9  148 259 
 PTB  HZ I         7 1  6.57         2.8 0.30            128            148 259 
 SPBC HZ EP        7 0 40.57                             130    0.16 9  163 219 
 SPBC HN ES        7 1  3.53                             130    0.51 9  163 219 
 SPBC HZ I         7 1 10.20         3.7 0.24            127            163 219 
 ZAR  HZ EP   4    7 0 47.01                             124    2.73 0  204 292 
 ZAR  HN ES        7 1  9.72                             124   -0.19 9  204 292 
 ZAR  HZ I         7 1 18.61         1.9 0.18            119            204 292 
                                                                                
