 2013  221 0950 32.9 L   6.772 -73.202147.4  RSN  7 0.2 1.2LRSN                1
 GAP=229        0.48       4.8     4.0  4.2  0.1128E+02  0.3874E+01  0.7462E+01E
 Epicentro: VILLANUEVA - SANTANDER                                             3
 ACTION:UPD 13-03-12 09:34 OP:ep   STATUS:               ID:20130221095032 L   I
 2013-02-21-0950-00M.COL___238                                                 6
 STAT SP IPHASW D HRMM SECON CODA AMPLIT PERI AZIMU VELO AIN AR TRES W  DIS CAZ7
 BAR2 SZ ES   1    951  7.95                             172   -0.10 7 20.0 174 
 BRR  HZ EP   1    950 53.98                             154   -0.01 7 67.4 303 
 BRR  HN ES   1    951 10.73                             154    0.26 7 67.4 303 
 RUS  HZ EP        950 56.68                             145    0.0710 98.1 172 
 RUS  HE ES   2    951 14.99                             145   -0.13 5 98.1 172 
 RUS  HZ I         951 15.84         1.6 0.20            148           98.1 172 
 PTB  HZ EP        950 59.00                             134   -0.37 9  141 260 
 PTB  HN ES        951 20.08                             134    0.03 9  141 260 
 PTB  HZ I         951 22.69         2.6 0.18            132            141 260 
 ZAR  HN ES   1    951 29.88                             123   -0.11 6  200 294 
 ZAR  HZ I         951 40.89         2.4 0.30            121            200 294 
 CHI  HZ EP        951 10.30                             118    0.14 8  244 194 
 HEL  HZ EP   1    951 12.85                             116    0.43 6  265 256 
                                                                                
