 2012  121 0523 43.0 L   6.728 -73.116144.0  RSN  4 0.3 1.4LRSN                1
 GAP=235        0.62       7.9     8.7  8.2  0.3576E+02 -0.6038E+01 -0.4961E+01E
 Epicentro: JORDAN - SANTANDER                                                 3
 ACTION:UP  12-02-03 08:19 OP:REBC STATUS:               ID:20120121052343 L   I
 2012-01-21-0520-00M.COL___186                                                 6
 STAT SP IPHASW D HRMM SECON CODA AMPLIT PERI AZIMU VELO SNR AR TRES W  DIS CAZ7
 BAR2 SZ EP   1    524  2.27                             173    -0.1 7   17 206 
 BAR2 SZ ES   2    524 16.71                             173    -0.7 5   17 206 
 BAR2 SZ I         524 19.08         4.8 0.26                            17 206 
 BRR  HZ EP        524  4.35                             150    -0.110   78 303 
 BRR  HZ I         524  4.69         6.0 0.10                            78 303 
 BRR  HE ES   1    524 21.45                             150     0.4 7   78 303 
 RUS  HZ EP   2    524  6.36                             146     0.3 5   92 178 
 RUS  HN ES   2    524 24.36                             146     0.4 5   92 178 
 PTB  HZ EP   2    524  9.67                             131    -0.4 5  150 262 
 PTB  HE ES   2    524 30.92                             131    -0.2 5  150 262 
                                                                                
