 2011  321 0142 40.9 L   6.886 -73.165140.0  RSN  6 0.4 1.7LRSN                1
 GAP=182        0.86       4.3     9.1  8.5 -0.5772E+01  0.3513E+02 -0.1357E+01E
 Epicentro: BETULIA - SANTANDER                                                3
 ACTION:UP  11-06-16 14:34 OP:jfem STATUS:               ID:20110321014240 L   I
 2011-03-21-0139-27S.COL___131                                                 6
 STAT SP IPHASW D HRMM SECON CODA AMPLIT PERI AZIMU VELO SNR AR TRES W  DIS CAZ7
 BAR2 SZ EP        143  0.10                             166     0.010   33 184 
 BAR2 SZ ES   1    143 15.20                             166     0.2 7   33 184 
 BAR2 SZ I         143 16.84        11.6 0.33                            33 184 
 RUS  HZ EP   1    143  4.55                             140    -0.3 7  110 175 
 RUS  HN ES   1    143 23.65                             140     0.2 7  110 175 
 RUS  HZ I         143 25.52         6.1 0.47                           110 175 
 OCA  SZ EP   1    143  7.88                             130     0.0 7  151 354 
 OCA  SZ ES   1    143 28.62                             130    -0.2 7  151 354 
 OCA  SZ I         143 33.08         5.6 0.17                           151 354 
 NOR  SZ EP   1    143 17.63                             117     0.9 6  239 232 
 NOR  SN ES   1    143 44.06                             117    -0.6 6  239 232 
 CHI  HZ EP        143 18.79                             115    -0.4 8  257 194 
 CHI  HZ I         143 52.94         4.3 0.36                           257 194 
 HEL  HZ EP   1    143 21.28                             114     0.4 6  272 254 
                                                                                
