 2015  421 0318 27.5 L   6.808 -73.126141.0  RSN 10 0.5 1.9LRSN                1
 GAP=185        1.08       3.5     4.6  6.2 -0.1716E+01  0.7856E+01 -0.6324E-01E
 Epicentro: LOS SANTOS - SANTANDER                                             3
 ACTION:UPD 15-06-03 16:56 OP:cam  STATUS:               ID:20150421031827 L   I
 OLDACT:REG 15-04-21 12:30 OP:ak   STATUS:               ID:20150421030748     3
 2015-04-21-0307-48M.COL___274                                                 6
 STAT SP IPHASW D HRMM SECON CODA AMPLIT PERI AZIMU VELO AIN AR TRES W  DIS CAZ7
 BAR2 EZ IP     D  318 46.57                             170   -0.0510 24.6 195 
 BAR2 EZ ES        319  1.09                             170   -0.4210 24.6 195 
 BAR2 EZ I         319  4.58        12.2 0.27            167           24.6 195 
 BRR  HZ IP     C  318 48.50                             151    0.2310 72.8 297 
 BRR  HN ES        319  5.26                             151    0.8310 72.8 297 
 BRR  HZ I         319  9.25         9.2 0.11            149           72.8 297 
 RUS  HZ EP        318 51.01                             143    0.1310  101 177 
 RUS  HE ES        319  9.29                             143    0.2110  101 177 
 PTB  HZ EP        318 53.66                             130   -0.68 9  150 259 
 PTB  HN ES        319 14.76                             130   -0.48 9  150 259 
 PTB  HZ I         319 21.77        16.2 0.38            131            150 259 
 OCA  HZ EP        318 55.27                             129   -0.16 9  160 352 
 OCA  HN ES        319 17.27                             129    0.09 9  160 352 
 SPBC HZ EP        318 55.63                             128   -0.25 9  165 219 
 SPBC HE ES        319 17.95                             128   -0.03 9  165 219 
 SPBC HZ I         319 25.69        11.6 0.13            129            165 219 
 ZAR  HZ EP   1    318 59.12                             121   -0.74 6  206 292 
 ZAR  HN ES        319 24.84                             121   -0.23 8  206 292 
 ZAR  HZ I         319 30.80        13.2 0.28            123            206 292 
 NOR  HZ EP   1    319  3.20                             117   -0.05 6  237 235 
 NOR  HN ES        319 30.52                             117   -0.58 8  237 235 
 HEL  HZ EP        319  8.60                             114    0.82 8  274 256 
 HEL  HN ES        319 39.16                             114   -0.00 8  274 256 
 HEL  HZ I         319 45.57         5.7 0.36            115            274 256 
 GUY2CHZ EP        319 11.69                             111    0.50 7  303 235 
 GUY2CHN ES        319 46.21                             111    0.97 7  303 235 
 GUY2CHZ I         319 51.79         3.7 0.44                           303 235 
                                                                                
