 2016  621 0325 40.6 L   6.784 -73.137150.1  RSN 23 0.4 2.6LRSN                1
 GAP=121        0.89       2.6     2.8  3.9 -0.6340E+00  0.3194E+01  0.1563E+01E
 Epicentro: LOS SANTOS - SANTANDER                                             3
 ACTION:UPD 16-07-21 22:21 OP:rebc STATUS:               ID:20160621032540 L   I
 OLDACT:REG 16-06-21 14:31 OP:ak   STATUS:               ID:20160621031745     3
 2016-06-21-0317-45M.COL___328                                                 6
 STAT SP IPHASW D HRMM SECON CODA AMPLIT PERI AZIMU VELO AIN AR TRES W  DIS CAZ7
 BAR2 EZ IP     D  326  0.80                             171    0.0810 21.8 193 
 BAR2 EZ ES        326 16.18                             171   -0.2410 21.8 193 
 BAR2 EZ I         326 19.28        65.3 0.34                          21.8 193 
 BRR  HZ IP     D  326  2.70                             153    0.3810 73.0 299 
 BRR  HN ES        326 19.97                             153    0.7110 73.0 299 
 BRR  HZ I         326 20.98        64.6 0.15                          73.0 299 
 PAM  EZ EP        326  3.69                             151    0.3710 78.2  38 
 PAM  EN ES        326 20.97                             151   -0.0810 78.2  38 
 PAM  EZ I         326 23.08       114.1 0.56                          78.2  38 
 RUS  HZ EP        326  4.66                             145    0.0110 98.7 177 
 RUS  HN ES        326 23.26                             145   -0.1510 98.7 177 
 RUS  HZ I         326 25.10        39.7 0.24                          98.7 177 
 PTB  HZ EP        326  7.40                             133   -0.58 9  148 260 
 PTB  HN ES        326 28.89                             133   -0.45 9  148 260 
 PTB  HZ I         326 34.65        33.4 0.14                           148 260 
 SPBC HZ EP        326  9.63                             130    0.27 9  162 220 
 SPBC HN ES        326 31.74                             130   -0.06 9  162 220 
 SPBC HZ I         326 36.86       115.2 0.30                           162 220 
 ZAR  HZ EP        326 13.24                             123   -0.25 8  206 293 
 ZAR  HN ES        326 39.19                             123    0.04 8  206 293 
 ZAR  HZ I         326 45.89        37.2 0.30                           206 293 
 NOR  HZ EP        326 16.54                             119   -0.02 8  234 235 
 NOR  HN ES        326 44.48                             119   -0.13 8  234 235 
 NOR  HZ I         326 52.30        42.1 0.16                           234 235 
 CHI  HZ EP        326 18.96                             118    0.58 8  247 196 
 CHI  HN ES        326 47.23                             118   -0.62 8  247 196 
 CHI  HZ I         326 51.79        14.0 0.50                           247 196 
 ROSC BZ EP   9    326 20.32                             118    1.47 0  252 211 
 ROSC BN ES        326 50.22                                    0.06 8  252 211 
 ROSC BZ I         326 55.83        26.6 0.55                           252 211 
 HEL  HZ EP        326 21.50                             116    0.41 8  273 256 
 HEL  HN ES        326 52.57                             116   -0.11 8  273 256 
 HEL  HZ I         326 58.97        18.0 0.26                           273 256 
 URE  HZ EP        326 21.21                             114   -0.85 7  285 292 
 URE  HN ES   4    326 52.18                             114   -2.22 0  285 292 
 URE  HZ I         327  2.73        25.6 0.18                           285 292 
 GUY2CHZ EP   1    326 25.06                             113    0.68 5  301 235 
 GUY2CHN ES        326 58.37                             113   -0.17 7  301 235 
 GUY2CHZ I         327  8.65        26.7 0.50                           301 235 
 PTGC HZ EP        326 23.67                             112   -0.75 7  307 159 
 PTGC HE ES   4    326 56.90                             112   -1.70 0  307 159 
 PTGC HZ I         327  1.78        22.1 0.40                           307 159 
 CBOC HZ EP        326 28.58                             111    0.84 7  334 252 
 CBOC HN ES        327  4.61                             111    0.10 7  334 252 
 CBOC HZ I         327 10.87         8.3 0.54                           334 252 
 DBB  SZ EP        326 28.08                             110   -0.30 7  341 275 
 DBB  SZ ES        327  5.33                             110   -0.33 7  341 275 
 DBB  SZ I         327  8.77        40.8 0.42                           341 275 
 ANIL HZ EP   2    326 31.51                             109    1.01 3  357 225 
 ANIL HN ES   4    327 11.32                             109    1.89 0  357 225 
 ANIL HZ I         327 18.39        39.0 0.44                           357 225 
 PRA  HZ EP        326 34.30                             107    0.16 6  391 210 
 PRA  HN ES        327 15.88                             107   -0.03 6  391 210 
 PRA  HZ I         327 21.66        12.5 0.16                           391 210 
 ORTC HZ EP        326 34.97                             107    0.40 6  395 216 
 ORTC HN ES        327 17.44                             107    0.78 6  395 216 
 ORTC HZ I         327 20.85         6.9 0.50                           395 216 
 PAL  HZ EP        326 35.92                             107    0.02 6  406 239 
 PAL  HE ES        327 18.99                             107   -0.04 6  406 239 
 PAL  HZ I         327 23.25         8.7 0.22                           406 239 
 SJC  HZ EP   4    326 34.89                             106   -1.65 0  411 327 
 SJC  HN ES   4    327 16.27                             106   -3.92 0  411 327 
 SJC  HZ I         327 20.52         8.4 0.28                           411 327 
 CRJC HZ EP   9    326 41.04                             104   -2.39 0  469   3 
 CRJC HN ES        327 29.86                                   -0.19 5  469   3 
 CRJC HZ I         327 34.07        16.4 0.14                           469   3 
 SMAR HZ EP        326 45.67                             103   -1.15 4  499 346 
 SMAR HN ES   4    327 34.05                             103   -4.42 0  499 346 
 SMAR HZ I         327 37.46         7.4 0.28                           499 346 
                                                                                
