 2016 1221 0135 28.6 L   5.943 -73.965  8.3  RSN  4 0.6 0.7LRSN                1
 GAP=150        0.96       6.2     3.3 12.2  0.1214E+02  0.2642E+02  0.5791E+02E
 Epicentro: LA BELLEZA - SANTANDER                                             3
 ACTION:UPD 17-01-11 20:17 OP:rebc STATUS:               ID:20161221013528 L   I
 OLDACT:UP  16-12-21 14:41 OP:cog  STATUS:               ID:20161221012748     3
 OLDACT:REG 16-12-21 12:52 OP:cog  STATUS:               ID:20161221012748     3
 2016-12-21-0128-00M.COL___381                                                 6
 STAT SP IPHASW D HRMM SECON CODA AMPLIT PERI AZIMU VELO AIN AR TRES W  DIS CAZ7
 PTB  HZ EP        135 42.90                              93    0.7310 85.5 321 
 PTB  HN ES        135 52.25                              93   -0.5110 85.5 321 
 PTB  HZ I         135 55.41         3.1 0.13             47           85.5 321 
 RUS  HZ EP   3    135 44.54                              93    0.02 2 97.8  93 
 RUS  HN ES        135 56.79                              93   -0.1610 97.8  93 
 NOR  HZ EP   3    135 46.78                              92    1.08 2  109 247 
 NOR  HN ES   2    135 58.48                              92   -0.57 5  109 247 
 GUY2CHZ EP   3    135 54.73                              56   -1.10 2  174 243 
 GUY2CHN ES        136 17.16                              56    0.07 9  174 243 
 GUY2CHZ I         136 20.22         0.8 0.40                           174 243 
                                                                                
