 2014  821 0952 44.0 L   6.823 -73.133140.0  RSN 11 0.5 2.1LRSN                1
 GAP=137        1.20       5.5     5.0  6.9 -0.5681E+01  0.7509E+01  0.1074E+02E
 Epicentro: LOS SANTOS - SANTANDER                                             3
 ACTION:UPD 14-09-15 21:51 OP:nd   STATUS:               ID:20140821095244 L   I
 OLDACT:UP  14-08-21 16:42 OP:cam  STATUS:               ID:20140821095000     3
 OLDACT:REG 14-08-21 13:23 OP:cam  STATUS:               ID:20140821095000     3
 2014-08-21-0950-00M.COL___285                                                 6
 STAT SP IPHASW D HRMM SECON CODA AMPLIT PERI AZIMU VELO AIN AR TRES W  DIS CAZ7
 BAR2 SZ IP     D  953  2.90                             169   -0.1410 26.1 192 
 BAR2 SZ ES        953 17.86                             169    0.0010 26.1 192 
 BAR2 SZ I         953 18.94        27.3 0.16            168           26.1 192 
 BRR  HZ EP     C  953  4.42                             152   -0.1510 71.3 296 
 BRR  HE ES        953 21.30                             152    0.7110 71.3 296 
 BRR  HZ I         953 22.09        18.8 0.16            151           71.3 296 
 PAM  SZ EP        953  5.22                             151   -0.2510 74.5  40 
 PAM  SE ES        953 22.26                             151    0.0810 74.5  40 
 PAM  SZ I         953 23.40        21.7 0.28            154           74.5  40 
 RUS  HZ EP   1    953  7.65                             142    0.24 7  103 177 
 PTB  HZ EP     D  953  9.89                             130   -0.83 9  150 258 
 PTB  HN ES        953 31.09                             130   -0.44 9  150 258 
 PTB  HZ I         953 32.94        23.5 0.52            131            150 258 
 SPBC HZ EP        953 11.93                             127   -0.45 9  166 219 
 SPBC HE ES        953 34.98                             127    0.49 9  166 219 
 SPBC HZ I         953 39.40        13.4 0.34            128            166 219 
 ZAR  HZ EP        953 16.82                             121    0.67 9  204 291 
 ZAR  HN ES        953 40.69                             121   -0.51 9  204 291 
 ZAR  HZ I         953 46.30        22.7 0.34            122            204 291 
 NOR  HZ EP        953 19.25                             117   -0.48 8  237 234 
 NOR  HE ES        953 47.45                             117   -0.12 8  237 234 
 NOR  HZ I         953 50.59         8.1 0.24            118            237 234 
 CHI  HZ EP        953 21.58                             116   -0.16 8  252 195 
 HEL  HZ EP        953 25.08                             114    0.89 8  274 255 
 URE  HZ EP   4    953 26.96                             113    2.08 0  284 291 
 GUY2CHZ EP        953 28.78                             111    1.09 7  304 235 
                                                                                
