 2010  821 0711  5.5 L   7.163 -73.336113.6  RSN  4 0.5 1.2LRSN                1
 GAP=130        1.22       9.6    14.2 14.4 -0.8615E+02 -0.6425E+02  0.2810E+02E
 Epicentro: LEBRIJA - SANTANDER                                                3
 ACTION:UP  10-09-07 10:57 OP:vdl  STATUS:               ID:20100821071105 L   I
 2010-08-21-0707-02S.COL___120                                                 6
 STAT SP IPHASW D HRMM SECON CODA AMPLIT PERI AZIMU VELO SNR AR TRES W  DIS CAZ7
 BRR  HZ EP   1    711 21.21                             159    -0.4 7   42 262 
 BRR  HE ES   1    711 34.13                             159     0.0 7   42 262 
 BRR  HZ I         711 34.81         4.0 0.20                            42 262 
 BAR2 SZ EP        711 23.56                             148     0.310   65 165 
 BAR2 SZ I         711 23.81         6.9 0.15                            65 165 
 BAR2 SZ ES   2    711 36.67                             148    -0.4 5   65 165 
 GUE  SZ EP        711 25.32                             140     0.510   87  32 
 GUE  SZ ES   1    711 40.61                             140     0.6 7   87  32 
 GRA  SZ EP   1    711 24.81                             136    -0.9 7   99  36 
 GRA  SZ ES   1    711 40.83                             136    -0.6 7   99  36 
 GRA  SZ I         711 42.83         1.9 0.41                            99  36 
                                                                                
