 2016  821 0938 60.0 L   6.824 -73.153143.3  RSN  4 0.4 1.2LRSN                1
 GAP=250        1.02       6.7     8.2  8.8  0.1622E+02  0.1902E+02  0.9477E+01E
 Epicentro: LOS SANTOS - SANTANDER                                             3
 ACTION:UPD 16-10-29 15:37 OP:rebc STATUS:               ID:20160821093860 L   I
 OLDACT:DUP 16-08-21 16:13 OP:ak   STATUS:               ID:20160821092737d    3
 OLDACT:DUP 16-08-21 16:09 OP:ak   STATUS:               ID:20160821092736d    3
 OLDACT:REG 16-08-21 13:16 OP:dnl  STATUS:               ID:20160821092735     3
 2016-08-21-0928-00M.COL___362                                                 6
 STAT SP IPHASW D HRMM SECON CODA AMPLIT PERI AZIMU VELO AIN AR TRES W  DIS CAZ7
 BAR2 EZ EP        939 18.96                             169   -0.4310 25.8 187 
 BAR2 EZ ES        939 34.22                             169   -0.2910 25.8 187 
 BAR2 EZ I         939 41.13         3.8 0.34                          25.8 187 
 BRR  HZ EP        939 21.09                             153    0.3210 69.2 297 
 BRR  HN ES        939 37.55                             153    0.5810 69.2 297 
 BRR  HZ I         939 40.38         3.3 0.08                          69.2 297 
 SPBC HZ EP        939 28.70                             128    0.25 9  165 218 
 SPBC HN ES        939 50.71                             128    0.06 9  165 218 
 SPBC HZ I         939 57.23         2.1 0.21                           165 218 
 ZAR  HZ EP   2    939 32.64                             122    0.54 4  202 292 
 ZAR  HN ES        939 56.42                             122   -0.72 9  202 292 
 ZAR  HZ I         940  3.40                                            202 292 
                                                                                
