 2012 1021 0805 34.3 L   6.788 -73.106144.1  RSN  6 0.4 1.8LRSN                1
 GAP=142        0.69       4.4     5.5  6.2  0.9430E-01  0.3757E+01  0.2367E+01E
 Epicentro: LOS SANTOS - SANTANDER                                             3
 ACTION:UPD 12-11-22 17:05 OP:ep   STATUS:               ID:20121021080534 L   I
 2012-10-21-0800-00M.COL___231                                                 6
 STAT SP IPHASW D HRMM SECON CODA AMPLIT PERI AZIMU VELO AIN AR TRES W  DIS CAZ7
 BAR2 SZ EP   1    8 5 53.77                             170    0.00 7 23.2 201 
 BAR2 SZ ES   1    8 6  8.95                             170    0.03 7 23.2 201 
 BAR2 SZ I         8 6 10.31        21.5 0.19                          23.2 201 
 BRR  HZ EP        8 5 55.32                             151   -0.2510 75.7 298 
 BRR  HN ES   1    8 6 12.75                             151    0.62 7 75.7 298 
 BRR  HZ I         8 6 15.34         5.4 0.19                          75.7 298 
 PAM  SZ EP        8 5 56.36                             151    0.0810 75.8  36 
 PAM  SN ES   1    8 6 13.34                             151   -0.05 7 75.8  36 
 PAM  SZ I         8 6 16.23        10.7 0.58                          75.8  36 
 RUS  HZ EP   1    8 5 57.72                             144   -0.09 7 99.0 179 
 RUS  HE ES   1    8 6 15.84                             144   -0.28 7 99.0 179 
 RUS  HZ I         8 6 17.78         6.3 0.26                          99.0 179 
 ZAR  HE ES   2    8 6 31.81                             121   -0.93 4  209 292 
 ZAR  HE I         8 6 37.50         8.4 0.25                           209 292 
 ROSC BZ EP   1    8 6 13.11                             116    0.62 6  254 212 
 ROSC BZ I         8 6 41.88         5.9 0.50                           254 212 
                                                                                
