 2010  821 0739 17.5 L   6.838 -73.139148.4  RSN  7 0.2 1.7LRSN                1
 GAP=172        0.46       3.7     6.2  4.1 -0.1044E+02 -0.6234E+01  0.1543E+01E
 Epicentro: LOS SANTOS - SANTANDER                                             3
 ACTION:UP  10-09-07 10:57 OP:vdl  STATUS:               ID:20100821073917 L   I
 2010-08-21-0737-22S.COL___120                                                 6
 STAT SP IPHASW D HRMM SECON CODA AMPLIT PERI AZIMU VELO SNR AR TRES W  DIS CAZ7
 BTL  SZ EP        739 37.36                             173     0.110   17 302 
 BTL  SZ ES   1    739 52.46                             173    -0.3 7   17 302 
 GIR2 SZ EP   1    739 37.30                             169    -0.1 7   27 347 
 BAR2 SZ EP   2    739 37.55                             169     0.0 5   28 190 
 BAR2 SZ ES   2    739 53.18                             169     0.0 5   28 190 
 BAR2 SZ I         739 53.74         4.6 0.20                            28 190 
 BRR  HZ EP   1    739 38.85                             153     0.0 7   70 295 
 BRR  HE ES   1    739 55.65                             153     0.2 7   70 295 
 BRR  HZ I         739 59.77         8.9 0.09                            70 295 
 GRA  SZ EP        739 42.60                             139     0.010  121  18 
 GRA  SZ I         739 43.89         5.6 0.32                           121  18 
 GRA  SZ ES   1    740  2.47                             139     0.3 7  121  18 
 OCA  SZ EP   1    739 45.22                             131    -0.4 7  156 353 
 OCA  SZ ES   2    740  7.59                             131     0.0 5  156 353 
 OCA  SZ I         740 10.76         5.0 0.25                           156 353 
 PRA  HZ EP   1    740 11.82                             107     0.3 4  396 209 
 PRA  HZ I         740 59.79         3.1 0.35                           396 209 
                                                                                
