 2014  921 0755  0.5 L   6.731 -73.186143.0  RSN  4 0.3 1.0LRSN                1
 GAP=271        0.55       6.6     5.1  6.7  0.8401E+01  0.1078E+02 -0.6264E+01E
 Epicentro: VILLANUEVA - SANTANDER                                             3
 ACTION:UPD 14-10-03 23:07 OP:nd   STATUS:               ID:20140921075500 L   I
 OLDACT:REG 14-09-21 18:43 OP:spq  STATUS:               ID:20140921074946     3
 2014-09-21-0749-46M.COL___233                                                 6
 STAT SP IPHASW D HRMM SECON CODA AMPLIT PERI AZIMU VELO AIN AR TRES W  DIS CAZ7
 BAR2 SZ ES   1    755 34.84                             174    0.24 8 15.3 178 
 BAR2 SZ I         755 35.89         2.9 0.20            169           15.3 178 
 RUS  HZ EP   1    755 23.39                             145   -0.07 8 93.4 173 
 RUS  HN ES   1    755 41.07                             145   -0.31 8 93.4 173 
 RUS  HZ I         755 43.13         1.3 0.20            146           93.4 173 
 PTB  HZ EP        755 26.80                             133    0.0910  142 262 
 PTB  HN ES   1    755 46.83                             133   -0.34 7  142 262 
 PTB  HZ I         755 52.53         0.8 0.22            132            142 262 
 SPBC HN ES   1    755 49.72                             130    0.35 7  154 219 
 SPBC HZ I         755 52.92         1.8 0.34            130            154 219 
                                                                                
