 2010  221 0654 13.7 L   6.816 -73.012136.0  RSN  5 0.3 1.6LRSN                1
 GAP=197        0.61       5.0    12.4  8.7  0.3111E+02 -0.5005E+02 -0.2025E+02E
 Epicentro: CEPITA - SANTANDER                                                 3
 ACTION:UP  10-08-24 09:50 OP:vdl  STATUS:               ID:20100221065413 L   I
 2010-02-21-0640-00S.COL___096                                                 6
 STAT SP IPHASW D HRMM SECON CODA AMPLIT PERI AZIMU VELO SNR AR TRES W  DIS CAZ7
 BAR2 SZ EP   3    654 31.92                             166    -0.4 2   31 217 
 BAR2 SZ ES   2    654 46.27                             166    -0.6 5   31 217 
 GIR2 SZ EP        654 32.67                             165     0.310   35 325 
 GIR2 SZ ES   3    654 47.02                             165     0.1 2   35 325 
 BRR  HZ EP        654 34.39                             146    -0.210   84 293 
 BRR  HN ES   2    654 51.40                             146     0.5 5   84 293 
 BRR  HZ I         654 56.39         5.5 0.15                            84 293 
 RUS  BZ EP        654 36.69                             141     0.010  102 184 
 RUS  BN ES   2    654 54.64                             141     0.1 5  102 184 
 OCA  SZ EP        654 41.17                             127    -0.2 9  161 348 
 OCA  SZ ES   3    655  3.50                             127     0.6 2  161 348 
 OCA  SZ I         655  8.63         8.5 0.09                           161 348 
                                                                                
