 2016  921 0341 28.8 L   6.150 -73.474126.4  RSN  4 0.2 1.4LRSN                1
 GAP=146        0.41       4.6     4.9  5.2 -0.1098E+02  0.3922E+01  0.5169E+01E
 Epicentro: SAN BENITO - SANTANDER                                             3
 ACTION:UPD 17-08-17 21:14 OP:lp   STATUS:               ID:20160921034128 L   I
 OLDACT:UP  16-09-21 15:00 OP:and  STATUS:               ID:20160921033739     3
 OLDACT:UP  16-09-21 14:54 OP:and  STATUS:               ID:20160921033739     3
 OLDACT:UP  16-09-21 14:49 OP:and  STATUS:               ID:20160921033739     3
 OLDACT:REG 16-09-21 12:58 OP:and  STATUS:               ID:20160921033739     3
 2016-09-21-0338-00M.COL___354                                                 6
 STAT SP IPHASW D HRMM SECON CODA AMPLIT PERI AZIMU VELO AIN AR TRES W  DIS CAZ7
 RUS  HZ EP        341 47.44                             157   -0.0410 51.8 123 
 RUS  HE ES   2    342  1.98                             157   -0.10 5 51.8 123 
 RUS  HZ I         342  2.92         2.2 0.22            162           51.8 123 
 BAR2 EZ EP        341 47.64                             154    0.1810 58.6  33 
 BAR2 EZ ES        342  1.93                             154   -0.1110 58.6  33 
 BAR2 EZ I         342  2.74        14.8 0.58            161           58.6  33 
 SPBC HZ EP   4    341 50.67                             143    1.66 0 86.1 230 
 SPBC HN ES   2    342  5.10                             143    0.31 5 86.1 230 
 SPBC HZ I         342  9.43         4.8 0.12            141           86.1 230 
 NOR  HZ EP   2    341 55.91                             123   -0.34 5  168 247 
 NOR  HN ES   3    342 17.43                             123   -0.26 2  168 247 
                                                                                
