 2016  321 0532 18.1 L   6.802 -73.142145.6  RSN 10 0.4 1.6LRSN                1
 GAP=137        0.99       3.0     4.2  6.2 -0.2793E+01  0.9582E+01 -0.2127E+01E
 Epicentro: LOS SANTOS - SANTANDER                                             3
 ACTION:UPD 16-05-13 21:25 OP:cam  STATUS:               ID:20160321053218 L   I
 OLDACT:UP  16-03-29 11:51 OP:dnl  STATUS:               ID:20160321053218 L   3
 OLDACT:REG 16-03-21 12:43 OP:ak   STATUS:               ID:20160321052741     3
 2016-03-21-0527-41M.COL___283                                                 6
 STAT SP IPHASW D HRMM SECON CODA AMPLIT PERI AZIMU VELO AIN AR TRES W  DIS CAZ7
 BAR2 EZ EP        532 38.10                             170    0.3910 23.6 191 
 BAR2 EZ ES        532 52.58                             170   -0.4410 23.6 191 
 BAR2 EZ I         532 54.35        19.5 0.22            171           23.6 191 
 PAM  EZ EP        532 40.94                             151    0.6710 76.9  39 
 PAM  EN ES        532 57.85                             151    0.2910 76.9  39 
 PAM  EZ I         533  0.54         4.6 0.68            154           76.9  39 
 RUS  HZ EP        532 41.78                             143   -0.0710  101 176 
 RUS  HE ES        533  0.30                             143   -0.0810  101 176 
 RUS  HZ I         533  1.45         3.1 0.30            148            101 176 
 PTB  HZ EP        532 44.59                             132   -0.50 9  148 259 
 PTB  HN ES        533  5.82                             132   -0.32 9  148 259 
 PTB  HZ I         533 13.11         6.9 0.38            133            148 259 
 OCA  HZ EP        532 46.01                             129   -0.36 9  160 353 
 OCA  HN ES        533  8.03                             129   -0.40 9  160 353 
 OCA  HZ I         533 14.15         6.0 0.53            131            160 353 
 SPBC HZ EP        532 47.02                             129    0.40 9  164 219 
 SPBC HN ES        533  8.89                             129    0.01 9  164 219 
 SPBC HZ I         533 11.74         6.5 0.22            131            164 219 
 ZAR  HZ EP        532 50.93                             122    0.37 9  204 292 
 ZAR  HE ES        533 16.35                             122    0.47 9  204 292 
 ZAR  HZ I         533 21.62         4.0 0.18            123            204 292 
 CHI  HZ EP   2    532 55.13                             117   -0.69 4  249 195 
 CHI  HN ES        533 24.95                             117   -0.30 8  249 195 
 CHI  HZ I         533 27.92         1.6 0.26            120            249 195 
 GUY2CHZ EP   4    533  3.22                             112    1.47 0  302 235 
 GUY2CHE ES        533 36.24                             112    0.44 7  302 235 
 GUY2CHZ I         533 44.07         1.9 0.32                           302 235 
 MON  HZ EP   4    533  4.58                             108   -2.52 0  354 308 
 MON  HN ES   4    533 43.97                             108   -1.36 0  354 308 
 SJC  HZ EP        533 12.69                             105   -0.96 6  409 327 
 SJC  HN ES   4    533 54.61                             105   -2.37 0  409 327 
                                                                                
