 2012  721 0554 16.7 L   6.725 -73.166149.5  RSN  4 0.1 1.4LRSN                1
 GAP=229        0.36       3.9     3.8  4.6  0.6126E+01  0.1958E+01 -0.2172E+01E
 Epicentro: VILLANUEVA - SANTANDER                                             3
 ACTION:UPD 12-08-14 11:46 OP:ep   STATUS:               ID:20120721055416 L   I
 2012-07-21-0550-00M.COL___215                                                 6
 STAT SP IPHASW D HRMM SECON CODA AMPLIT PERI AZIMU VELO AIN AR TRES W  DIS CAZ7
 BAR2 SZ EP   1    554 36.60                             174     0.0 7   15 187 
 BAR2 SZ I         554 36.94         4.4 0.06            164             15 187 
 BAR2 SZ ES   2    554 51.85                             174    -0.3 5   15 187 
 BRR  HZ EP   1    554 38.41                             152     0.0 7   74 305 
 BRR  HZ I         554 38.55         8.2 0.24            146             74 305 
 BRR  HN ES   1    554 55.39                             152     0.1 7   74 305 
 RUS  HN ES   1    554 58.71                             147     0.1 7   93 174 
 PTB  HZ EP   1    554 43.56                             134    -0.1 7  144 262 
 PTB  HN ES   1    555  4.62                             134     0.0 7  144 262 
 PTB  HZ I         555 11.48         1.6 0.37            128            144 262 
