 2013  921 0119 11.9 L   6.804 -73.148145.3  RSN 11 0.4 1.9LRSN                1
 GAP=136        1.03       3.6     5.1  6.0 -0.9396E+00  0.1019E+02  0.2976E+01E
 Epicentro: LOS SANTOS - SANTANDER                                             3
 ACTION:UPD 13-10-22 09:23 OP:ep   STATUS:               ID:20130921011911 L   I
 OLDACT:REG 13-09-21 09:54 OP:jn   STATUS:               ID:20130921011748     3
 2013-09-21-0117-48M.COL___241                                                 6
 STAT SP IPHASW D HRMM SECON CODA AMPLIT PERI AZIMU VELO AIN AR TRES W  DIS CAZ7
 BAR2 SZ EP        119 31.48                             170    0.0210 23.7 189 
 BAR2 SZ ES        119 46.03                             170   -0.7010 23.7 189 
 BAR2 SZ I         119 48.21        17.0 0.22            166           23.7 189 
 BRR  HZ EP        119 33.33                             153    0.3810 70.8 298 
 BRR  HN ES        119 50.29                             153    0.9010 70.8 298 
 BRR  HZ I         119 53.52        12.3 0.30            145           70.8 298 
 PAM  SZ EP        119 34.47                             151    0.4410 77.2  40 
 PAM  SN ES        119 51.19                             151   -0.1210 77.2  40 
 PAM  SZ I         119 53.67        13.7 0.48            153           77.2  40 
 RUS  HZ EP        119 35.49                             144   -0.1210  101 176 
 RUS  HN ES        119 54.12                             144   -0.0110  101 176 
 RUS  HZ I         119 55.29         9.7 0.26            143            101 176 
 PTB  HZ EP        119 38.25                             132   -0.54 9  148 259 
 PTB  HZ I         120  1.35        12.5 0.16            127            148 259 
 SPBC HZ EP        119 40.37                             129    0.02 9  163 219 
 SPBC HE ES   1    120  2.20                             129   -0.37 7  163 219 
 SPBC HZ I         120  6.93        16.2 0.20            125            163 219 
 ZAR  HN ES   1    120  9.14                             122   -0.36 6  204 292 
 ZAR  HZ I         120 14.70         9.7 0.38            118            204 292 
 NOR  HZ EP        119 47.61                             118    0.03 8  235 234 
 NOR  HE ES   1    120 15.95                             118    0.52 6  235 234 
 NOR  HZ I         120 24.88         5.8 0.14            115            235 234 
 SML  HZ EP   1    119 47.76                             117   -0.66 6  243 335 
 SML  HE ES   1    120 16.31                             117   -0.62 6  243 335 
 CHI  HZ EP        119 50.14                             117    0.56 8  249 195 
 CHI  HN ES   1    120 18.95                             117   -0.04 6  249 195 
 CHI  HZ I         120 22.32         5.2 0.36            115            249 195 
 GUY2CHZ EP   1    119 55.11                             112   -0.35 5  301 235 
 GUY2CHZ I         120 37.78         5.7 0.34                           301 235 
                                                                                
