 2012  421 0722 38.0 L   6.608 -73.426107.6  RSN  7 0.4 1.5LRSN                1
 GAP=105        0.91       4.9     3.9  8.4  0.8886E+00  0.1089E+02  0.1393E+01E
 Epicentro: EL CARMEN DE CHUCURI - SANTANDER                                   3
 ACTION:UPD 12-07-05 11:55 OP:tino STATUS:               ID:20120421072238 L   I
 2012-04-21-0720-00M.COL___186                                                 6
 STAT SP IPHASW D HRMM SECON CODA AMPLIT PERI AZIMU VELO AIN AR TRES W  DIS CAZ7
 BAR2 SZ EP   1    722 53.54                             165     0.3 7   27  94 
 BAR2 SZ ES   1    723  5.15                             165     0.1 7   27  94 
 BAR2 SZ I         723  7.83        13.9 0.26                            27  94 
 BRR  HZ EP   1    722 54.50                             147    -0.2 7   64 330 
 BRR  HZ I         723  2.10         8.0 0.09                            64 330 
 BRR  HN ES   1    723  7.96                             147     0.3 7   64 330 
 RUS  HZ EP   1    722 57.61                             138     0.4 7   88 154 
 RUS  HN ES   1    723 12.00                             138    -0.1 7   88 154 
 PAM  SZ EP   1    722 58.88                             130    -0.6 7  114  45 
 PAM  SN ES   1    723 15.99                             130    -0.2 7  114  45 
 PTB  HN ES   1    723 14.41                             129    -0.7 7  114 266 
 PTB  HZ I         723 17.80         4.1 0.18                           114 266 
 ZAR  HN ES   1    723 28.95                             115     0.6 7  186 302 
 ZAR  HZ I         723 31.70         3.2 0.13                           186 302 
 HEL  HZ EP   1    723 12.83                             109     0.3 6  237 259 
 HEL  HN ES   1    723 39.19                             109    -0.3 6  237 259 
 HEL  HZ I         723 43.32         2.9 0.34                           237 259 
                                                                                
