 2017 1021 0734  2.5 L   6.865 -73.133146.5  RSN  4 0.2 1.1LRSN                1
 GAP=281        0.65       5.9     4.4  5.7  0.2656E+01  0.4944E+01 -0.5293E+01E
 Epicentro: LOS SANTOS - SANTANDER                                             3
 ACTION:UPD 17-11-07 19:34 OP:rebc STATUS:               ID:20171021073402 L   I
 OLDACT:UP  17-10-21 17:31 OP:dani STATUS:               ID:20171021072548     3
 OLDACT:REG 17-10-21 13:30 OP:dani STATUS:               ID:20171021072548     3
 2017-10-21-0728-00M.COL___444                                                 6
 STAT SP IPHASW D HRMM SECON CODA AMPLIT PERI AZIMU VELO AIN AR TRES W  DIS CAZ7
 BAR2 EZ EP        734 22.45                             168    0.1010 30.7 190 
 BAR2 EZ ES        734 38.05                             168    0.1810 30.7 190 
 BAR2 EZ I         734 39.58         2.4 0.34            162           30.7 190 
 RUS  HZ EP        734 26.61                             142   -0.2010  108 177 
 RUS  HN ES        734 45.56                             142   -0.2410  108 177 
 RUS  HZ I         734 47.25         2.2 0.26            139            108 177 
 PTB  HZ EP        734 29.97                             132    0.22 9  151 256 
 PTB  HE ES        734 50.65                             132   -0.39 9  151 256 
 PTB  HZ I         734 51.14         1.5 0.22            131            151 256 
 SPBC HZ EP        734 31.61                             128   -0.03 9  170 218 
 SPBC HN ES        734 54.79                             128    0.39 9  170 218 
 SPBC HZ I         735  0.54         1.9 0.13            126            170 218 
                                                                                
