 2015  421 0241 40.2 L   6.826 -73.135142.9  RSN 13 0.5 2.0LRSN                1
 GAP=137        1.11       3.7     4.2  5.8 -0.1244E+01  0.7973E+01  0.3404E+01E
 Epicentro: LOS SANTOS - SANTANDER                                             3
 ACTION:UPD 15-06-03 16:56 OP:cam  STATUS:               ID:20150421024140 L   I
 OLDACT:REG 15-04-21 12:27 OP:ak   STATUS:               ID:20150421023748     3
 2015-04-21-0237-48M.COL___274                                                 6
 STAT SP IPHASW D HRMM SECON CODA AMPLIT PERI AZIMU VELO AIN AR TRES W  DIS CAZ7
 BAR2 EZ EP     C  241 59.53                             169   -0.0010 26.4 192 
 BAR2 EZ ES        242 14.51                             169   -0.1210 26.4 192 
 BAR2 EZ I         242 16.07        36.3 0.20            169           26.4 192 
 BRR  HZ EP   1    242  1.46                             152    0.45 7 70.9 296 
 BRR  HN ES        242 18.07                             152    0.8210 70.9 296 
 BRR  HZ I         242 25.40        14.3 0.18            150           70.9 296 
 PAM  SZ IP     C  242  2.45                             151    0.5410 74.4  40 
 PAM  SN ES        242 18.83                             151   -0.0310 74.4  40 
 PAM  SZ I         242 21.94        14.5 0.62            155           74.4  40 
 RUS  HZ EP        242  3.96                             142    0.1010  103 177 
 RUS  HE ES        242 21.91                             142   -0.4210  103 177 
 RUS  HZ I         242 23.39        12.3 0.22            146            103 177 
 PTB  HZ EP        242  6.46                             131   -0.62 9  150 258 
 PTB  HN ES        242 27.36                             131   -0.70 9  150 258 
 PTB  HZ I         242 29.97        12.4 0.23            132            150 258 
 SPBC HZ EP        242  8.59                             128   -0.16 9  166 219 
 SPBC HN ES        242 30.71                             128   -0.32 9  166 219 
 SPBC HZ I         242 33.35        25.1 0.22            130            166 219 
 ZAR  HZ EP        242 12.13                             122   -0.32 9  204 291 
 ZAR  HN ES        242 37.55                             122   -0.06 9  204 291 
 ZAR  HZ I         242 48.30         9.0 0.28            123            204 291 
 CHI  HZ EP   1    242 17.62                             116   -0.44 6  252 195 
 CHI  HN ES        242 47.49                             116   -0.12 8  252 195 
 CHI  HZ I         242 55.34         5.0 0.48            119            252 195 
 ROSC BZ EP        242 19.22                             116    0.73 8  256 211 
 HEL  HZ EP        242 20.40                             114   -0.06 8  274 255 
 HEL  HN ES        242 52.16                             114    0.28 8  274 255 
 HEL  HZ I         242 58.55         5.6 0.24            116            274 255 
 GUY2CHZ EP   4    242 25.52                             112    1.56 0  304 234 
 GUY2CHN ES        242 58.18                             112    0.07 7  304 234 
 GUY2CHZ I         243  6.08         5.4 0.26                           304 234 
 TOL  SZ EP        242 29.45                             109    0.79 6  346 224 
 TOL  SN ES        243  7.32                             109    0.85 6  346 224 
 SJC  HZ EP        242 34.14                             105   -1.30 6  407 327 
 SJC  HE ES   4    243 15.36                             105   -3.19 0  407 327 
 SJC  HZ I         243 18.90         1.5 0.45            107            407 327 
                                                                                
