 2016  121 0650 16.1 L   6.838 -73.168142.9  RSN 10 0.5 1.7LRSN                1
 GAP=140        1.13       3.3     4.8  7.2 -0.4651E+01  0.7687E+01 -0.6128E+00E
 Epicentro: ZAPATOCA - SANTANDER                                               3
 ACTION:UPD 16-03-09 23:27 OP:cam  STATUS:               ID:20160121065016 L   I
 OLDACT:UP  16-01-21 17:42 OP:ar   STATUS:               ID:20160121064741     3
 OLDACT:REG 16-01-21 13:41 OP:ar   STATUS:               ID:20160121064741     3
 2016-01-21-0647-41M.COL___317                                                 6
 STAT SP IPHASW D HRMM SECON CODA AMPLIT PERI AZIMU VELO AIN AR TRES W  DIS CAZ7
 BAR2 EZ EP        650 35.69                             169    0.2210 27.2 183 
 BAR2 EZ ES        650 50.15                             169   -0.4310 27.2 183 
 BAR2 EZ I         650 52.68         7.0 0.18            169           27.2 183 
 PAM  EZ EP        650 38.44                             151    0.5310 75.9  43 
 PAM  EN ES        650 55.37                             151    0.4310 75.9  43 
 PAM  EZ I         650 56.35         6.0 0.22            155           75.9  43 
 PTB  HZ EP        650 42.14                             132   -0.55 9  146 257 
 PTB  HN ES        651  3.48                             132    0.05 9  146 257 
 PTB  HZ I         651  5.20         6.3 0.28            132            146 257 
 OCA  HZ EP        650 43.14                             130   -0.63 9  156 354 
 OCA  HN ES        651  4.83                             130   -0.52 9  156 354 
 OCA  HZ I         651 10.26         8.3 0.22            132            156 354 
 SPBC HZ EP        650 44.43                             128   -0.11 9  165 217 
 SPBC HN ES        651  6.38                             128   -0.35 9  165 217 
 SPBC HZ I         651 13.99         7.0 0.14            129            165 217 
 ZAR  HZ EP   4    650 45.23                             122   -2.73 0  200 291 
 ZAR  HN ES        651 13.10                             122    0.29 9  200 291 
 ZAR  HZ I         651 19.62         8.6 0.38            123            200 291 
 NOR  HN ES        651 20.00                             118    0.51 8  235 233 
 NOR  HZ I         651 24.59         3.6 0.16            119            235 233 
 SML  HZ EP        650 51.35                             117   -0.69 8  239 335 
 SML  HN ES        651 20.96                             117    0.88 8  239 335 
 SML  HZ I         651 22.31         6.0 0.24            119            239 335 
 CHI  HZ EP        650 54.54                             116    0.53 8  252 194 
 CHI  HN ES        651 23.63                             116    0.05 8  252 194 
 CHI  HZ I         651 26.01         1.3 0.34            118            252 194 
 GUY2CHZ EP   9    651  1.85                             112    2.23 0  302 234 
 GUY2CHN ES        651 35.40                             112   -0.40 7  302 234 
 GUY2CHZ I         651 43.77         2.8 0.60                           302 234 
                                                                                
