 2017  421 0743 21.0 L   6.866 -73.112146.0  RSN 13 0.5 2.1LRSN                1
 GAP=153        1.04       5.2     4.5  5.3 -0.3902E+01  0.7896E+01  0.8277E-01E
 Epicentro: LOS SANTOS - SANTANDER                                             3
 ACTION:UPD 17-05-30 21:14 OP:jn   STATUS:               ID:20170421074321 L   I
 OLDACT:UP  17-04-21 17:23 OP:cog  STATUS:               ID:20170421072701d    3
 OLDACT:UP  17-04-21 17:22 OP:cog  STATUS:               ID:20170421072701d    3
 OLDACT:UP  17-04-21 17:22 OP:cog  STATUS:               ID:20170421072701d    3
 OLDACT:DUP 17-04-21 16:51 OP:cog  STATUS:               ID:20170421072701d    3
 2017-04-21-0738-00M.COL___359                                                 6
 STAT SP IPHASW D HRMM SECON CODA AMPLIT PERI AZIMU VELO AIN AR TRES W  DIS CAZ7
 BAR2 EZ IP     C  743 40.39                             167   -0.4210 31.2 194 
 BAR2 EZ ES        743 55.83                             167   -0.4510 31.2 194 
 BAR2 EZ I         743 59.00        29.2 0.22            163           31.2 194 
 PAM  EZ EP        743 43.24                             153    0.4910 69.4  41 
 PAM  EN ES        743 59.71                             153   -0.0310 69.4  41 
 PAM  EZ I         744  1.46        15.5 0.22            160           69.4  41 
 BRR  HZ IP     C  743 42.29                             152    0.1410 71.4 292 
 BRR  HN ES        743 59.02                             152    0.3510 71.4 292 
 BRR  HZ I         744  3.86        25.0 0.14            149           71.4 292 
 PTB  HZ EP   9    743 47.59                             131   -0.83 0  153 256 
 PTB  HZ ES        744  8.35                             127   -0.66 9  153 256 
 PTB  HZ I         744 10.40        22.8 0.12            129            153 256 
 SPBC HE ES   4    744 11.45                             128   -1.63 0  171 218 
 ZAR  HZ EP        743 53.37                             122   -0.14 9  205 290 
 ZAR  HN ES        744 19.56                             122    0.67 9  205 290 
 ZAR  HZ I         744 27.43        23.0 0.30            122            205 290 
 NOR  HZ EP        743 57.46                             118   -0.03 8  242 234 
 NOR  HN ES   3    744 24.73                             118   -1.25 2  242 234 
 NOR  HZ I         744 30.29         9.0 0.16            118            242 234 
 ROSC BZ EP   9    744  1.91                             116    1.92 0  261 211 
 ROSC BE ES        744 33.20                             115    0.85 8  261 211 
 ROSC BZ I         744 33.90         8.6 0.35            116            261 211 
 HEL  HZ EP        744  2.31                             114    0.52 7  278 255 
 HEL  HE ES        744 33.02                             114   -0.61 7  278 255 
 HEL  HZ I         744 41.02         7.1 0.26            114            278 255 
 PTGC HE ES   4    744 37.40                             111   -2.76 0  314 160 
 ELA  HZ I         744 52.85         4.8 0.52            110            337 229 
 CBOC HZ EP        744  8.53                             109   -0.02 7  339 251 
 CBOC HN ES   4    744 44.15                             109   -1.52 0  339 251 
 CBOC HZ I         744 59.95         2.4 0.52            110            339 251 
 DBB  EZ EP        744  9.37                             109    0.55 7  343 273 
 DBB  EN ES   3    744 46.02                             109   -0.13 2  343 273 
 PRA  HZ EP        744 15.42                             106   -0.03 6  400 210 
 PRA  HN ES   3    744 58.37                             106    0.43 1  400 210 
 ORTC HZ EP   4    744 13.97                             106   -1.86 0  404 216 
 ORTC HN ES   4    745  1.55                             106    2.92 0  404 216 
 SJC  HZ EP        744 15.36                             106   -0.70 6  405 326 
 SJC  HN ES        744 57.94                             106   -1.09 6  405 326 
 SJC  HZ I         745  0.44         3.1 0.42            107            405 326 
                                                                                
