 2010  421 0928 26.6 L   6.641 -73.528  4.0  RSN  5 0.3 1.3LRSN                1
 GAP=240        0.67       4.5     4.1  6.6  0.1358E+02 -0.1516E+02 -0.1829E+02E
 Epicentro: EL CARMEN DE CHUCURI - SANTANDER                                   3
 ACTION:UPD 10-08-24 10:00 OP:vdl  STATUS:               ID:20100421092826 L   I
 2010-04-21-0926-49S.COL___104                                                 6
 STAT SP IPHASW D HRMM SECON CODA AMPLIT PERI AZIMU VELO AIN AR TRES W  DIS CAZ7
 BAR2 SZ IP        928 32.99                              90    -0.310   38  98 
 BAR2 SZ ES   1    928 38.77                              90     0.3 7   38  98 
 BRR  HZ EP        928 35.55                              90    -0.110   55 338 
 BRR  HN ES   1    928 42.62                              90     0.0 7   55 338 
 BRR  HZ I         928 44.18        15.7 0.10                            55 338 
 GIR2 SZ EP        928 36.95                              90     0.310   61  37 
 GIR2 SZ ES   2    928 43.55                              90    -0.8 5   61  37 
 GUE  SZ EP        928 49.87                              90     0.0 9  147  27 
 GUE  SZ ES   1    929  8.25                              90     0.2 7  147  27 
 GRA  SZ ES   2    929 10.99                              90     0.1 5  159  30 
                                                                                
