 2010 1121 0350 13.4 L   6.815 -72.987135.3  RSN  5 0.3 1.5LRSN                1
 GAP=199        0.57       5.0     9.4  6.5  0.2055E+02 -0.1226E+02 -0.9291E+01E
 Epicentro: CEPITA - SANTANDER                                                 3
 ACTION:UP  10-12-17 16:54 OP:REBC STATUS:               ID:20101121035013 L   I
 2010-11-21-0348-39S.COL___131                                                 6
 STAT SP IPHASW D HRMM SECON CODA AMPLIT PERI AZIMU VELO SNR AR TRES W  DIS CAZ7
 BAR2 SZ EP   1    350 32.33                             166     0.4 7   33 221 
 BAR2 SZ ES   1    350 46.62                             166     0.1 7   33 221 
 BAR2 SZ I         350 49.38         7.2 0.27                            33 221 
 BRR  HZ IP     C  350 34.31                             146    -0.110   86 292 
 BRR  HZ I         350 34.77        11.2 0.14                            86 292 
 BRR  HE ES   1    350 50.73                             146     0.0 7   86 292 
 RUS  HZ EP   2    350 35.81                             141    -0.4 5  103 186 
 RUS  HN ES   2    350 53.85                             141    -0.2 5  103 186 
 RUS  HZ I         350 56.43         2.1 0.37                           103 186 
 OCA  SZ EP   2    350 41.34                             127     0.3 5  162 347 
 OCA  SZ ES   2    351  2.05                             127    -0.5 5  162 347 
 OCA  SZ I         351  4.30         3.2 0.53                           162 347 
 HEL  HZ EP   2    350 55.07                             111     0.0 4  289 256 
 HEL  HZ I         351 36.40         1.8 0.51                           289 256 
                                                                                
