 2010  921 0324 28.4 L   6.797 -73.058140.0  RSN  8 0.3 1.7LRSN                1
 GAP=169        0.73       3.7     8.9  8.4  0.4881E+01 -0.3065E+02 -0.1136E+02E
 Epicentro: LOS SANTOS - SANTANDER                                             3
 ACTION:UP  11-02-18 11:04 OP:tino STATUS:               ID:20100921032428 L   I
 2010-09-21-0319-47S.COL___121                                                 6
 STAT SP IPHASW D HRMM SECON CODA AMPLIT PERI AZIMU VELO SNR AR TRES W  DIS CAZ7
 BAR2 SZ EP        324 47.39                             169     0.010   27 212 
 BAR2 SZ ES   2    325  1.74                             169    -0.5 5   27 212 
 BAR2 SZ I         325  3.55        15.7 0.31                            27 212 
 BTL  SZ EP        324 47.69                             169     0.210   27 300 
 GIR2 SZ EP   2    324 47.48                             165     0.0 5   35 334 
 BRR  HZ EP        324 49.24                             149    -0.310   80 295 
 BRR  HZ I         324 49.66        17.0 0.10                            80 295 
 BRR  HN ES   1    325  6.41                             149     0.5 7   80 295 
 RUS  HZ EP   1    324 51.70                             143     0.1 7  100 182 
 RUS  HN ES   1    325  9.50                             143    -0.1 7  100 182 
 RUS  HZ I         325 10.87         5.6 0.43                           100 182 
 GUE  SZ EP   1    324 52.56                             139     0.1 7  115   7 
 GUE  SZ I         324 53.38         3.5 0.25                           115   7 
 GRA  SZ EP        324 53.32                             136     0.410  124  13 
 GRA  SZ I         324 54.52         6.5 0.29                           124  13 
 GRA  SZ ES   2    325 12.05                             136    -0.1 5  124  13 
 OCA  SZ EP        324 56.06                             128    -0.4 9  162 350 
 OCA  SZ ES   1    325 18.15                             128    -0.2 7  162 350 
 OCA  SZ I         325 21.37         8.2 0.30                           162 350 
                                                                                
