 2012  321 0431 53.0 L   6.729 -73.202147.0  RSN  4 0.3 1.2LRSN                1
 GAP=225        0.68       9.4     8.8  8.8  0.4598E+02  0.9496E+01  0.2177E+02E
 ACTION:UP  12-03-31 23:21 OP:EP   STATUS:               ID:20120321043153 L   I
 2012-03-21-0430-00M.COL___202                                                 6
 STAT SP IPHASW D HRMM SECON CODA AMPLIT PERI AZIMU VELO SNR AR TRES W  DIS CAZ7
 BAR2 SZ EP   1    432 12.37                             174    -0.2 7   15 172 
 BAR2 SZ ES   2    432 27.34                             174    -0.6 5   15 172 
 BRR  HZ EP   2    432 14.06                             153    -0.1 5   70 307 
 BRR  HZ I         432 14.42         3.9 0.16                            70 307 
 BRR  HE ES   1    432 31.09                             153     0.3 7   70 307 
 RUS  HZ EP   1    432 16.79                             146     0.5 7   93 172 
 RUS  HZ I         432 16.99         2.3 0.34                            93 172 
 RUS  HN ES   2    432 34.62                             146     0.0 5   93 172 
 PTB  HZ EP   1    432 19.10                             134    -0.3 7  140 261 
 PTB  HN ES   2    432 39.91                             134     0.0 5  140 261 
 PTB  HZ I         432 41.51         1.6 0.40                           140 261 
                                                                                
