 2010  221 0322 23.3 L   6.772 -73.088144.4  RSN 12 0.4 2.6LRSN                1
 GAP=189        0.66       3.3     6.0  5.5 -0.2457E+00  0.1500E+02  0.4764E+01E
 Epicentro: LOS SANTOS - SANTANDER                                             3
 ACTION:UP  10-08-24 09:49 OP:vdl  STATUS:               ID:20100221032223 L   I
 2010-02-21-0320-31S.COL___094                                                 6
 STAT SP IPHASW D HRMM SECON CODA AMPLIT PERI AZIMU VELO SNR AR TRES W  DIS CAZ7
 BAR2 SZ IP        322 42.79                             171     0.110   23 208 
 BAR2 SZ ES   2    322 57.70                             171    -0.2 5   23 208 
 GIR2 SZ EP        322 43.03                             165     0.110   36 341 
 GIR2 SZ ES   2    322 57.71                             165    -0.5 5   36 341 
 BRR  HZ IP        322 44.79                             150     0.110   78 298 
 BRR  HZ I         322 45.25        84.0 0.11                            78 298 
 BRR  HE ES   2    323  1.88                             150     0.5 5   78 298 
 RUS  BZ EP        322 46.50                             144    -0.110   97 180 
 RUS  BN ES   2    323  5.18                             144     0.3 5   97 180 
 OCA  SZ EP        322 51.89                             129     0.0 9  164 351 
 OCA  SZ ES   2    323 13.75                             129    -0.4 5  164 351 
 OCA  SZ I         323 18.94        45.0 0.24                           164 351 
 CHI  HZ EP        323  0.44                             117    -0.3 8  247 197 
 CHI  HN ES   3    323 30.45                             117     0.4 2  247 197 
 HEL  HZ EP        323  4.21                             114     0.2 7  278 257 
 HEL  HE ES   3    323 35.37                             114    -0.4 2  278 257 
 HEL  HZ I         323 41.74        15.7 0.27                           278 257 
 RREF BZ EP        323 10.52                             110     0.8 7  325 231 
 RREF BN ES   3    323 45.95                             110     0.1 2  325 231 
 RREF BZ I         323 52.23        19.2 0.10                           325 231 
 TOL  SZ EP        323 12.04                             109     0.3 6  346 226 
 TOL  SZ ES   3    323 49.66                             109     0.1 2  346 226 
 DBB  SZ EP        323 10.69                             109    -0.8 6  346 275 
 DBB  SZ ES   3    323 48.62                             109    -0.4 2  346 275 
 ANIL BZ EP   2    323 13.45                             108     0.2 3  360 226 
 ANIL BN ES   2    323 51.86                             108    -0.5 3  360 226 
 ANIL BZ I         324  0.48        30.9 0.28                           360 226 
 PRA  HZ EP        323 16.29                             106    -0.5 6  393 211 
 PRA  HN ES   3    323 58.40                             106    -0.2 1  393 211 
 PRA  HZ I         324  4.45         9.4 0.29                           393 211 
                                                                                
