 2011  121 0324 36.6 L   6.817 -73.143144.3  RSN  8 0.4 1.8LRSN                1
 GAP=136        0.79       3.1     8.1  7.0 -0.7148E+01  0.1641E+02 -0.5880E+00E
 Epicentro: LOS SANTOS - SANTANDER                                             3
 ACTION:UP  11-02-08 08:41 OP:pat  STATUS:               ID:20110121032436 L   I
 2011-01-21-0320-55S.COL___137                                                 6
 STAT SP IPHASW D HRMM SECON CODA AMPLIT PERI AZIMU VELO SNR AR TRES W  DIS CAZ7
 BAR2 SZ EP   1    324 55.79                             170    -0.3 8   25 190 
 BAR2 SZ ES   1    325 11.22                             170    -0.1 8   25 190 
 BAR2 SZ I         325 11.96        15.4 0.35                            25 190 
 RUS  HZ EP   1    324 59.86                             143    -0.5 8  102 176 
 RUS  HN ES   1    325 18.98                             143     0.1 8  102 176 
 RUS  HZ I         325 19.69         8.2 0.24                           102 176 
 GRA  SZ IP        325  1.66                             137     0.110  124  18 
 GRA  SZ ES   1    325 21.29                             137     0.2 7  124  18 
 GRA  SZ I         325 22.67        13.6 0.25                           124  18 
 OCA  SZ EP   1    325  4.14                             130    -0.5 7  158 353 
 OCA  SZ ES   1    325 26.88                             130     0.4 7  158 353 
 OCA  SZ I         325 30.65         6.7 0.49                           158 353 
 YOP  SZ EP   2    325  6.69                             126     0.0 5  181 154 
 YOP  SZ I         325  8.72         3.8 0.17                           181 154 
 YOP  SN ES   2    325 30.97                             126     0.8 5  181 154 
 NOR  SZ EP   2    325 12.52                             118     0.1 4  236 234 
 NOR  SE ES   2    325 40.23                             118    -0.1 4  236 234 
 CHI  HZ EP   1    325 14.22                             117    -0.2 6  251 195 
 CHI  HE ES   1    325 44.17                             117     0.2 6  251 195 
 CHI  HZ I         325 47.03         6.2 0.35                           251 195 
 RREF HZ EP   1    325 23.90                             110     1.0 5  323 229 
                                                                                
