 2010 1021 0929  3.4 L   6.799 -73.043132.7  RSN  5 0.4 1.4LRSN                1
 GAP=170        0.83       7.3    17.2 20.2  0.4324E+02 -0.2057E+03 -0.6937E+02E
 Epicentro: LOS SANTOS - SANTANDER                                             3
 ACTION:UP  11-02-18 11:11 OP:tino STATUS:               ID:20101021092903 L   I
 2010-10-21-0926-12S.COL___128                                                 6
 STAT SP IPHASW D HRMM SECON CODA AMPLIT PERI AZIMU VELO SNR AR TRES W  DIS CAZ7
 BTL  SZ IP        929 21.88                             168     0.310   28 298 
 BRR  HZ EP   1    929 23.47                             147    -0.4 7   82 295 
 BRR  HZ I         929 24.48         8.0 0.14                            82 295 
 BRR  HE ES   2    929 40.12                             147     0.4 5   82 295 
 RUS  HZ EP   2    929 26.16                             141     0.3 5  100 183 
 RUS  HN ES   2    929 42.68                             141    -0.7 5  100 183 
 RUS  HZ I         929 44.98         1.5 0.03                           100 183 
 GRA  SZ EP   1    929 27.54                             135     0.3 7  123  12 
 GRA  SZ I         929 47.94         3.3 0.33                           123  12 
 OCA  SZ EP   2    929 30.34                             126    -0.6 5  162 349 
 OCA  SZ ES   2    929 51.90                             126    -0.5 5  162 349 
 OCA  SZ I         929 55.00         5.4 0.33                           162 349 
                                                                                
