 2013  521 0346 33.6 L   6.756 -73.185144.8  RSN  5 0.3 1.9LRSN                1
 GAP=175        0.79       4.9     5.1  5.7  0.6829E+01  0.5054E+01  0.4376E+01E
 Epicentro: VILLANUEVA - SANTANDER                                             3
 ACTION:UPD 13-06-20 09:52 OP:ep   STATUS:               ID:20130521034633 L   I
 2013-05-21-0338-50M.COL___222                                                 6
 STAT SP IPHASW D HRMM SECON CODA AMPLIT PERI AZIMU VELO AIN AR TRES W  DIS CAZ7
 BAR2 SZ EP        346 52.88                             173   -0.1410 18.1 179 
 BAR2 SZ ES        347  7.74                             173   -0.4310 18.1 179 
 BAR2 SZ I         347  8.79        10.4 0.20            171           18.1 179 
 GIR2 SZ EP        346 52.97                             165   -0.3110 35.7 358 
 GIR2 SZ ES        347  8.64                             165    0.0010 35.7 358 
 BRR  HZ EP        346 54.68                             153    0.1110 70.0 304 
 BRR  HN ES        347 11.49                             153    0.5510 70.0 304 
 BRR  HN I         347 12.09        21.3 0.18            153           70.0 304 
 RUS  HZ EP        346 57.29                             145    0.3510 96.1 173 
 RUS  HN ES        347 15.32                             145    0.1810 96.1 173 
 RUS  HN I         347 16.90        11.9 0.26            145           96.1 173 
 PTB  HZ EP        346 59.92                             133   -0.10 9  143 260 
 PTB  HN ES        347 20.37                             133   -0.26 9  143 260 
 PTB  HN I         347 22.30        10.2 0.30            133            143 260 
                                                                                
