 2011  421 0850 55.4 L   7.345 -73.391108.0  RSN  9 0.6 1.6LRSN                1
 GAP=131        1.52       9.7    10.8 15.6 -0.4382E+02  0.7988E+01 -0.1641E+02E
 Epicentro: SABANA DE TORRES - SANTANDER                                       3
 ACTION:UP  11-06-22 15:32 OP:REBC STATUS:               ID:20110421085055 L   I
 2011-04-21-0840-00M.COL___141                                                 6
 STAT SP IPHASW D HRMM SECON CODA AMPLIT PERI AZIMU VELO SNR AR TRES W  DIS CAZ7
 GIR2 SZ EP        851 10.53                             160    -0.310   37 144 
 BRR  HZ EP        851 10.20                             156    -0.810   44 233 
 BRR  HZ I         851 10.41        11.9 0.20                            44 233 
 BRR  HN ES   1    851 23.18                             156     0.0 7   44 233 
 BTL  SZ EP        851 12.55                             154     0.910   49 164 
 PAM  SZ EP        851 13.50                             142    -0.210   76  90 
 PAM  SN ES   1    851 28.43                             142     0.5 7   76  90 
 PAM  SZ I         851 30.29         4.3 0.22                            76  90 
 BRI  SZ EP   2    851 12.99                             141    -0.4 5   77  58 
 BAR2 SZ EP        851 14.23                             138     0.110   86 165 
 BAR2 SZ I         851 30.84         9.8 0.51                            86 165 
 GRA  SZ EP        851 13.72                             138    -0.410   88  47 
 GRA  SZ ES   1    851 28.31                             138    -0.5 7   88  47 
 GRA  SZ I         851 29.59        19.3 0.11                            88  47 
 OCA  SZ EP        851 15.96                             134     0.910   99   5 
 RUS  HZ EP   3    851 21.53                             119    -0.4 2  164 168 
                                                                                
