 2011  221 0405 39.0 L   6.802 -73.154142.9  RSN 10 0.3 2.2LRSN                1
 GAP=135        0.68       3.5     6.2  5.2 -0.6657E+01  0.9372E+01 -0.4508E+01E
 Epicentro: LOS SANTOS - SANTANDER                                             3
 ACTION:UP  11-03-28 15:09 OP:jfem STATUS:               ID:20110221040538 L   I
 2011-02-21-0404-13S.COL___137                                                 6
 STAT SP IPHASW D HRMM SECON CODA AMPLIT PERI AZIMU VELO SNR AR TRES W  DIS CAZ7
 BTL  SZ EP        4 5 58.45                             172     0.210   18 316 
 BAR2 SZ EP        4 5 58.32                             170     0.010   24 188 
 BAR2 SZ ES        4 6 13.34                             170     0.010   24 188 
 BAR2 SZ I         4 6 16.30        49.6 0.37                            24 188 
 RUS  HZ EP        4 6  2.27                             143    -0.210  101 176 
 RUS  HN ES   1    4 6 20.71                             143    -0.1 7  101 176 
 RUS  HZ I         4 6 23.79        12.9 0.36                           101 176 
 GRA  SZ IP        4 6  4.08                             136     0.110  126  18 
 GRA  SZ I         4 6  5.24        34.7 0.30                           126  18 
 OCA  SZ EP        4 6  6.87                             129    -0.2 9  160 353 
 OCA  SZ I         4 6 32.96        26.4 0.21                           160 353 
 YOP  SZ EP   1    4 6  8.92                             126     0.0 7  180 153 
 YOP  SZ I         4 6 33.54         8.8 0.37                           180 153 
 NOR  SZ EP   2    4 6 13.96                             118    -0.6 4  234 234 
 NOR  SN ES   2    4 6 41.91                             118    -0.3 4  234 234 
 CHI  HZ EP   1    4 6 16.43                             117    -0.1 6  249 195 
 CHI  HE ES   2    4 6 46.66                             117     0.8 4  249 195 
 CHI  HZ I         4 6 55.58         9.0 0.23                           249 195 
 HEL  HZ EP   1    4 6 19.77                             114     0.8 6  271 256 
 HEL  HZ I         4 6 57.30         8.8 0.36                           271 256 
 RREF HZ EP   2    4 6 24.95                             110     0.0 3  321 229 
 RREF HN ES   2    4 7  0.29                             110    -0.5 3  321 229 
 RREF HZ I         4 7  8.37        10.2 0.55                           321 229 
                                                                                
