 2013  821 0518 28.2 L   6.755 -73.204152.3  RSN  6 0.4 1.3LRSN                1
 GAP=227        1.06       6.5     7.7  8.4  0.1044E+02  0.1748E+02  0.5300E+01E
 Epicentro: VILLANUEVA - SANTANDER                                             3
 ACTION:UPD 14-01-14 09:05 OP:ep   STATUS:               ID:20130821051828 L   I
 OLDACT:DUP 13-08-21 11:40 OP:nd   STATUS:               ID:20130821050960d    3
 2013-08-21-0509-59M.COL___269                                                 6
 STAT SP IPHASW D HRMM SECON CODA AMPLIT PERI AZIMU VELO AIN AR TRES W  DIS CAZ7
 BAR2 SZ EP   2    518 48.69                             173    0.19 5 18.2 173 
 BAR2 SZ ES        519  3.90                             173   -0.4610 18.2 173 
 BAR2 SZ I         519  4.77         5.7 0.26            168           18.2 173 
 BRR  HZ EP        518 49.91                             154    0.0310 68.3 305 
 BRR  HN ES        519  7.22                             154    0.4110 68.3 305 
 BRR  HZ I         519  7.84         3.7 0.34            150           68.3 305 
 RUS  HZ EP   2    518 52.50                             146    0.22 5 96.3 172 
 RUS  HN ES        519 11.19                             146    0.1110 96.3 172 
 RUS  HZ I         519 12.49         2.7 0.22            146           96.3 172 
 PTB  HZ EP        518 55.41                             135    0.36 9  141 260 
 PTB  HN ES        519 15.48                             135   -0.54 9  141 260 
 PTB  HZ I         519 19.48         2.2 0.38            131            141 260 
 SPBC HZ EP        518 55.76                             132   -0.70 9  155 218 
 SPBC HN ES        519 19.18                             132    0.66 9  155 218 
 SPBC HZ I         519 24.35         2.5 0.26            129            155 218 
 ZAR  HZ EP   4    519  4.04                             124    3.38 0  200 294 
 ZAR  HN ES   4    519 25.18                             124   -0.81 0  200 294 
 ZAR  HZ I         519 32.90         2.5 0.22            123            200 294 
                                                                                
