 2013  721 0530 51.8 L   6.642 -73.222147.0  RSN  7 0.4 1.6LRSN                1
 GAP=138        1.00       7.4     6.8 10.3  0.2216E+02 -0.1197E+02 -0.3805E+02E
 Epicentro: BARICHARA - SANTANDER                                              3
 ACTION:UPD 13-08-12 10:39 OP:ep   STATUS:               ID:20130721053051 L   I
 OLDACT:DUP 13-07-21 11:24 OP:mh   STATUS:               ID:20130721052648d    3
 2013-07-21-0526-47M.COL___228                                                 6
 STAT SP IPHASW D HRMM SECON CODA AMPLIT PERI AZIMU VELO AIN AR TRES W  DIS CAZ7
 BAR2 SZ EP   1    531 11.43                             177    0.07 7 7.03 142 
 GIR2 SZ EP   1    531 11.92                             161   -0.27 7 48.4   4 
 GIR2 SZ I         531 28.55         3.6 0.34            107           48.4   4 
 BRR  HZ EP        531 13.67                             152    0.3910 74.7 314 
 BRR  HN ES        531 30.34                             152    0.3110 74.7 314 
 BRR  HN I         531 31.38        17.9 0.20            107           74.7 314 
 RUS  HE ES        531 32.08                             149   -0.2510 84.3 170 
 RUS  HE I         531 36.49         4.0 0.20            105           84.3 170 
 PTB  HZ EP   1    531 18.92                             135    1.01 7  137 265 
 PTB  HN ES        531 37.96                             135   -0.32 9  137 265 
 PTB  HN I         531 45.05         5.7 0.32             56            137 265 
 ZAR  HE ES        531 49.37                             123   -0.27 9  204 298 
 SML  HZ EP        531 29.25                             116   -0.63 8  256 339 
 SML  HN I         532  3.69         6.3 0.28             56            256 339 
                                                                                
