 2011  721 0706 46.9 L   6.508 -73.538 21.3  RSN  4 0.2 0.9LRSN                1
 GAP=200        0.52       1.9     3.1  3.7  0.3381E+01 -0.1525E+00 -0.1628E+01E
 Epicentro: EL CARMEN DE CHUCURI - SANTANDER                                   3
 ACTION:UPD 12-07-25 14:02 OP:epov STATUS:               ID:20110721070646 L   I
 2011-07-21-0706-28S.COL___142                                                 6
 STAT SP IPHASW D HRMM SECON CODA AMPLIT PERI AZIMU VELO AIN AR TRES W  DIS CAZ7
 BAR2 SZ EP   1    7 6 54.47                             116    0.02 7 40.4  77 
 BAR2 SZ ES   1    7 7  0.34                             116   -0.02 7 40.4  77 
 BAR2 SZ I         7 7  0.82         6.8 0.53                          40.4  77 
 BRR  HZ EP   1    7 6 58.66                             105    0.39 7 69.0 344 
 BRR  HN ES   1    7 7  6.92                             105   -0.23 7 69.0 344 
 BRR  HZ I         7 7  7.66         3.2 0.11                          69.0 344 
 RUS  HZ EP   1    7 7  0.72                             103   -0.37 7 84.6 144 
 RUS  HN ES        7 7 12.30                             103    0.1210 84.6 144 
 RUS  HZ I         7 7 12.86         3.5 0.16                          84.6 144 
 GRA  SZ ES   1    7 7 32.29                              56    0.00 7  172  28 
 GRA  SZ I         7 7 35.63         2.0 0.30                           172  28 
                                                                                
