 2017  121 0411 32.4 L   6.699 -73.182146.0  RSN  5 0.4 1.5LRSN                1
 GAP=225        1.08       8.2     7.6  8.7  0.3825E+02  0.1122E+02  0.1338E+01E
 Epicentro: VILLANUEVA - SANTANDER                                             3
 ACTION:UPD 17-05-22 16:01 OP:jn   STATUS:               ID:20170121041132 L   I
 OLDACT:UP  17-01-21 16:10 OP:dani STATUS:               ID:20170121040743     3
 OLDACT:REG 17-01-21 12:31 OP:dani STATUS:               ID:20170121040743     3
 2017-01-21-0408-00M.COL___339                                                 6
 STAT SP IPHASW D HRMM SECON CODA AMPLIT PERI AZIMU VELO AIN AR TRES W  DIS CAZ7
 BAR2 EZ EP        411 51.59                             175   -0.3010 11.8 180 
 BAR2 EZ ES        412  6.60                             175   -0.4910 11.8 180 
 BAR2 EZ I         412  8.93         6.4 0.28            173           11.8 180 
 BRR  HZ EP        411 53.59                             152   -0.1510 73.9 308 
 BRR  HE ES        412 10.72                             152    0.3410 73.9 308 
 BRR  HZ I         412 15.44         7.4 0.10            152           73.9 308 
 RUS  HZ EP        411 55.85                             147    0.4110 89.9 173 
 RUS  HE ES        412 13.86                             147    0.4510 89.9 173 
 RUS  HZ I         412 15.08         6.0 0.28            150           89.9 173 
 PTB  HZ EP        411 58.50                             133   -0.38 9  142 263 
 PTB  HN ES        412 19.07                             133   -0.46 9  142 263 
 PTB  HZ I         412 24.51         2.7 0.18            134            142 263 
 ZAR  HN ES        412 31.01                             122    0.67 9  205 295 
                                                                                
