 2012  521 0257 31.8 L   6.746 -73.166146.0  RSN  6 0.2 1.9LRSN                1
 GAP=136        0.62       4.0     3.5  6.0  0.1919E+01  0.3774E+01  0.2669E+01E
 Epicentro: VILLANUEVA - SANTANDER                                             3
 ACTION:UP  12-07-05 12:06 OP:pat  STATUS:               ID:20120521025731 L   I
 2012-05-21-0240-50M.COL___190                                                 6
 STAT SP IPHASW D HRMM SECON CODA AMPLIT PERI AZIMU VELO SNR AR TRES W  DIS CAZ7
 BAR2 SZ EP        257 51.43                             173     0.110   17 186 
 BAR2 SZ ES   2    258  6.26                             173    -0.3 5   17 186 
 BAR2 SZ I         258  8.24        16.7 0.21                            17 186 
 BRR  HZ EP        257 53.37                             152     0.310   72 304 
 BRR  HZ I         257 57.95        16.2 0.10                            72 304 
 BRR  HN ES   1    258  9.97                             152     0.4 7   72 304 
 PAM  SZ EP   1    257 54.17                             149    -0.2 7   83  38 
 PAM  SE ES   1    258 11.86                             149    -0.2 7   83  38 
 RUS  HZ EP        257 55.29                             146     0.110   95 174 
 RUS  HE ES   1    258 13.33                             146    -0.1 7   95 174 
 RUS  HZ I         258 15.82        10.0 0.21                            95 174 
 PTB  HZ EP        257 58.22                             133    -0.3 9  144 261 
 PTB  HN ES   1    258 19.21                             133    -0.1 7  144 261 
 ZAR  HE ES   1    258 29.39                             122    -0.2 6  204 294 
 ZAR  HZ I         258 37.14         9.8 0.23                           204 294 
                                                                                
