 2013  421 0325 54.0 L   6.799 -73.186144.2  RSN  5 0.2 1.4LRSN                1
 GAP=132        0.59       4.0     3.7  6.2 -0.1522E+01  0.1319E+01  0.3622E+01E
 Epicentro: LOS SANTOS - SANTANDER                                             3
 ACTION:UPD 13-05-22 14:39 OP:EP   STATUS:               ID:20130421032554 L   I
 2013-04-21-0320-00M.COL___250                                                 6
 STAT SP IPHASW D HRMM SECON CODA AMPLIT PERI AZIMU VELO AIN AR TRES W  DIS CAZ7
 BAR2 SZ EP        326 13.46                             171    0.0810 22.9 179 
 BAR2 SZ I         326 30.20         4.9 0.30            170           22.9 179 
 BRR  HZ IP     C  326 15.07                             154    0.3610 67.3 300 
 BRR  HN ES   1    326 31.21                             154    0.30 7 67.3 300 
 BRR  HZ I         326 36.21         5.4 0.14            152           67.3 300 
 PAM  SZ EP        326 16.13                             150   -0.0510 80.4  42 
 PAM  SE ES   1    326 33.15                             150   -0.37 7 80.4  42 
 PAM  SZ I         326 34.66         5.4 0.40            152           80.4  42 
 RUS  HZ EP        326 17.64                             143    0.0710  101 174 
 RUS  HN ES   1    326 36.01                             143    0.01 7  101 174 
 RUS  HZ I         326 37.29         2.5 0.32            144            101 174 
 PTB  HZ EP        326 20.09                             133   -0.30 9  143 259 
 PTB  HN ES   1    326 40.71                             133   -0.30 7  143 259 
 PTB  HZ I         326 47.07         3.7 0.66            131            143 259 
                                                                                
