 2012  521 0928 37.2 L   6.726 -73.198135.2  RSN  4 0.1 1.3LRSN                1
 GAP=237        0.35       5.9     4.9  5.3  0.2048E+02  0.5735E+01 -0.3626E+01E
 Epicentro: VILLANUEVA - SANTANDER                                             3
 ACTION:UP  12-07-05 12:06 OP:pat  STATUS:               ID:20120521092837 L   I
 2012-05-21-0920-36M.COL___184                                                 6
 STAT SP IPHASW D HRMM SECON CODA AMPLIT PERI AZIMU VELO SNR AR TRES W  DIS CAZ7
 BAR2 SZ EP   2    928 55.27                             173    -0.1 5   15 173 
 BAR2 SZ ES   2    929  9.52                             173     0.0 5   15 173 
 BAR2 SZ I         929 12.38         4.7 0.28                            15 173 
 RUS  HZ EP   2    928 59.60                             144     0.3 5   93 172 
 RUS  HE ES   2    929 16.63                             144     0.0 5   93 172 
 RUS  HZ I         929 19.40         3.6 0.41                            93 172 
 PTB  HZ EP        929  2.49                             131    -0.110  141 262 
 PTB  HN ES   2    929 22.53                             131     0.1 5  141 262 
 PTB  HZ I         929 25.50         1.8 0.16                           141 262 
 ZAR  HZ EP   2    929  8.81                             120     0.1 5  202 295 
 ZAR  HE ES   1    929 33.45                             120     0.1 7  202 295 
 ZAR  HZ I         929 43.31         2.1 0.38                           202 295 
                                                                                
