 2010  421 0800 59.9 L   6.774 -72.967147.6  RSN  4 0.2 1.7LRSN                1
 GAP=226        0.41       3.7     7.3  5.7  0.7330E+00 -0.1169E+02  0.3261E+01E
 Epicentro: CEPITA - SANTANDER                                                 3
 ACTION:UP  10-08-24 10:00 OP:vdl  STATUS:               ID:20100421080059 L   I
 2010-04-21-0758-25S.COL___104                                                 6
 STAT SP IPHASW D HRMM SECON CODA AMPLIT PERI AZIMU VELO AIN AR TRES W  DIS CAZ7
 BAR2 SZ IP        8 1 20.02                             168     0.110   31 230 
 BAR2 SZ ES   2    8 1 35.53                             168     0.0 5   31 230 
 BRR  HZ IP     C  8 1 22.36                             147    -0.110   90 294 
 BRR  HN ES   1    8 1 39.90                             147    -0.1 7   90 294 
 BRR  HZ I         8 1 42.42         7.7 0.29                            90 294 
 OCA  SZ EP   2    8 1 28.83                             129    -0.1 5  167 347 
 OCA  SZ I         8 1 31.22         6.4 0.06                           167 347 
 OCA  SZ ES   2    8 1 51.90                             129     0.3 5  167 347 
 PRA  HZ EP   2    8 1 53.87                             106    -0.5 3  400 212 
 PRA  HE ES   2    8 2 37.50                             106     0.6 3  400 212 
 PRA  HZ I         8 2 39.93         1.5 0.37                           400 212 
                                                                                
