 2016 1121 0415 11.6 L   6.803 -73.122146.2  RSN 13 0.5 2.0LRSN                1
 GAP=121        1.03       4.0     4.2  5.6 -0.5559E+00  0.3761E+01  0.8314E+01E
 Epicentro: LOS SANTOS - SANTANDER                                             3
 ACTION:UPD 17-10-26 21:10 OP:lp   STATUS:               ID:20161121041511 L   I
 OLDACT:UP  16-11-21 17:59 OP:edw  STATUS:               ID:20161121040706d    3
 OLDACT:UP  16-11-21 17:58 OP:edw  STATUS:               ID:20161121040706d    3
 OLDACT:DUP 16-11-21 17:54 OP:edw  STATUS:               ID:20161121040706d    3
 OLDACT:UP  16-11-21 17:53 OP:edw  STATUS:               ID:20161121040705     3
 OLDACT:UP  16-11-21 17:53 OP:edw  STATUS:               ID:20161121040705     3
 OLDACT:UP  16-11-21 17:51 OP:edw  STATUS:               ID:20161121040705     3
 OLDACT:REG 16-11-21 14:25 OP:edw  STATUS:               ID:20161121040705     3
 2016-11-21-0408-00M.COL___340                                                 6
 STAT SP IPHASW D HRMM SECON CODA AMPLIT PERI AZIMU VELO AIN AR TRES W  DIS CAZ7
 BAR2 EZ EP     C  415 31.23                             170   -0.0510 24.3 196 
 BAR2 EZ ES        415 45.87                             170   -0.7810 24.3 196 
 BAR2 EZ I         415 46.80        45.0 0.32            167           24.3 196 
 BRR  HZ IP     C  415 33.12                             151    0.2310 73.3 297 
 BRR  HN ES        415 49.79                             151    0.2710 73.3 297 
 BRR  HZ I         415 55.01        19.5 0.12            151           73.3 297 
 PAM  EZ EP        415 34.27                             151    0.5410 75.5  38 
 PAM  EN ES        415 51.06                             151    0.0510 75.5  38 
 PAM  EZ I         415 51.62        16.1 0.38            156           75.5  38 
 PTB  HZ EP   9    415 37.88                             131   -0.93 0  150 259 
 PTB  HN ES        415 58.66                                   -0.47 9  150 259 
 PTB  HZ I         416  1.19        18.1 0.18            131            150 259 
 ZAR  HZ EP        415 44.62                             122    0.34 8  206 292 
 ZAR  HN ES        416  9.75                             122   -0.04 8  206 292 
 ZAR  HZ I         416 14.83        10.6 0.32            122            206 292 
 NOR  HZ EP   4    415 47.99                             118    0.41 0  237 235 
 NOR  HN ES   2    416 15.18                             118   -0.48 4  237 235 
 NOR  HZ I         416 20.99         9.4 0.14            118            237 235 
 CHI  HZ EP        415 49.67                             117    0.26 8  250 196 
 CHI  HN ES        416 18.78                             117   -0.14 8  250 196 
 CHI  HZ I         416 22.88         3.3 0.36            117            250 196 
 ROSC BZ EP        415 50.17                             116    0.27 8  254 211 
 ROSC BN ES   4    416 21.75                             116    1.96 0  254 211 
 ROSC BZ I         416 27.51         7.6 0.50            117            254 211 
 URE  HZ EP   4    415 55.61                             113    2.69 0  286 292 
 URE  HN ES   2    416 24.20                             113   -0.96 4  286 292 
 URE  HZ I         416 25.27         6.5 0.09            114            286 292 
 PTGC HZ EP        415 54.52                             111   -0.86 7  308 159 
 PTGC HN ES   4    416 27.95                             111   -1.60 0  308 159 
 LL6C HZ EP   4    415 36.98                             110   -20.3 0  325 357 
 LL6C HN ES   4    416 18.06                             110   -14.8 0  325 357 
 CBOC HZ EP   4    416  0.04                             109    1.24 0  336 252 
 CBOC HN ES        416 35.61                             109   -0.02 7  336 252 
 CBOC HZ I         416 38.99         2.2 0.36            110            336 252 
 ORTC HZ EP        416  6.42                             106    0.70 6  397 216 
 ORTC HN ES        416 48.24                             106    0.29 6  397 216 
 ORTC HZ I         416 52.85         2.4 0.58            107            397 216 
 SJC  HZ EP        416  5.94                             105   -1.34 6  410 327 
 SJC  HN ES   4    416 47.13                             105   -3.60 0  410 327 
 SJC  HZ I         416 51.55         2.9 0.58            107            410 327 
                                                                                
