 2012  321 0801 34.1 L   6.693 -73.204153.4  RSN  4 0.4 1.1LRSN                1
 GAP=219        0.65      10.8    11.0 12.6  0.6240E+02  0.7795E+01  0.6409E+01E
 ACTION:UP  12-03-31 23:21 OP:EP   STATUS:               ID:20120321080134 L   I
 2012-03-21-0800-00M.COL___202                                                 6
 STAT SP IPHASW D HRMM SECON CODA AMPLIT PERI AZIMU VELO SNR AR TRES W  DIS CAZ7
 BAR2 SZ ES   2    8 2  9.74                             176    -0.6 5   11 168 
 BRR  HZ EP   2    8 1 56.29                             153     0.2 5   72 309 
 BRR  HE ES   2    8 2 13.73                             153     0.4 5   72 309 
 BRR  HZ I         8 2 15.24         2.3 0.23                            72 309 
 RUS  HZ EP   2    8 1 57.60                             148    -0.3 5   90 171 
 RUS  HN ES   2    8 2 16.95                             148     0.5 5   90 171 
 RUS  HZ I         8 2 17.41         2.2 0.83                            90 171 
 PTB  HN ES   2    8 2 21.70                             135    -0.2 5  140 263 
                                                                                
