 2017  821 0407 15.7 L   6.796 -73.135145.1  RSN  8 0.3 1.6LRSN                1
 GAP=138        0.68       2.7     3.1  4.3 -0.9948E+00  0.4923E+01  0.1018E+01E
 Epicentro: LOS SANTOS - SANTANDER                                             3
 ACTION:UPD 17-09-04 20:22 OP:rebc STATUS:               ID:20170821040715 L   I
 OLDACT:REG 17-08-21 12:52 OP:osc  STATUS:               ID:20170821035744     3
 2017-08-21-0358-00M.COL___411                                                 6
 STAT SP IPHASW D HRMM SECON CODA AMPLIT PERI AZIMU VELO AIN AR TRES W  DIS CAZ7
 BAR2 EZ EP        4 7 35.04                             171   -0.1910 23.1 193 
 BAR2 EZ ES        4 7 50.34                             171   -0.1410 23.1 193 
 BAR2 EZ I         4 7 52.83        10.6 0.30            171           23.1 193 
 BRR  HZ EP        4 7 36.93                             152    0.1010 72.5 298 
 BRR  HN ES        4 7 53.63                             152    0.3010 72.5 298 
 PAM  EZ EP        4 7 37.96                             151    0.1610 77.0  39 
 PAM  EN ES        4 7 55.22                             151    0.1610 77.0  39 
 PAM  EZ I         4 7 57.21         7.0 0.48            153           77.0  39 
 RUS  HZ EP        4 7 39.32                             144   -0.0110  100 177 
 RUS  HE ES        4 7 57.63                             144   -0.1510  100 177 
 RUS  HZ I         4 7 58.91         5.7 0.32            146            100 177 
 SPBC HZ EP        4 7 44.06                             129   -0.11 9  164 219 
 SPBC HE ES        4 8  6.21                             129   -0.18 9  164 219 
 SPBC HZ I         4 8  8.47         7.0 0.32            130            164 219 
 ZAR  HZ EP        4 7 47.68                             122   -0.54 8  205 292 
 ZAR  HE ES        4 8 13.28                             122   -0.31 8  205 292 
 ZAR  HZ I         4 8 18.25         3.1 0.20            123            205 292 
 NOR  HE ES   2    4 8 19.56                             118    0.21 4  235 235 
 GUY2CHZ EP        4 8  0.01                             112    0.67 7  302 235 
 GUY2CHE ES        4 8 33.89                             112    0.50 7  302 235 
 GUY2CHZ I         4 8 45.22         1.7 0.36                           302 235 
                                                                                
