 2013  421 0726 43.2 L   6.767 -73.166143.1  RSN  7 0.5 1.8LRSN                1
 GAP=180        1.07       4.9     7.9  8.8  0.7423E+01 -0.2030E+01 -0.1437E+02E
 Epicentro: LOS SANTOS - SANTANDER                                             3
 ACTION:UPD 13-05-22 14:39 OP:EP   STATUS:               ID:20130421072643 L   I
 2013-04-21-0720-00M.COL___250                                                 6
 STAT SP IPHASW D HRMM SECON CODA AMPLIT PERI AZIMU VELO AIN AR TRES W  DIS CAZ7
 BAR2 SZ EP        727  2.45                             172    0.0310 19.4 185 
 BAR2 SZ ES   1    727 17.18                             172   -0.24 7 19.4 185 
 GIR2 SZ EP        727  2.61                             166   -0.0210 34.6 355 
 GIR2 SZ I         727 19.48        13.1 0.38            162           34.6 355 
 BRR  HZ EP     D  727  4.50                             152    0.4610 71.1 302 
 BRR  HN ES   1    727 21.27                             152    0.97 7 71.1 302 
 BRR  HZ I         727 22.04        12.4 0.22            153           71.1 302 
 RUS  HZ EP        727  6.27                             144   -0.1510 97.2 175 
 RUS  HN ES   1    727 24.24                             144   -0.31 7 97.2 175 
 RUS  HZ I         727 25.70         6.0 0.32            146           97.2 175 
 PTB  HZ EP        727  9.45                             132   -0.23 9  145 260 
 PTB  HN ES   1    727 29.94                             132   -0.40 7  145 260 
 PTB  HZ I         727 32.22         8.9 0.16            134            145 260 
 OCA  HZ EP        727 12.29                             128    0.68 9  164 354 
 OCA  HN ES   1    727 32.99                             128   -0.78 7  164 354 
 OCA  HZ I         727 35.97        10.4 0.30            127            164 354 
 SML  HZ EP        727 19.90                             117   -0.02 8  246 336 
 SML  HN ES   1    727 47.56                             117   -1.01 6  246 336 
 SML  HZ I         727 55.14         7.5 0.10            116            246 336 
                                                                                
