 2017  521 0113 26.0 L   6.779 -73.176152.5  RSN  5 0.4 1.8LRSN                1
 GAP=232        0.83       5.3     6.2  7.4  0.5724E+01  0.9489E+01 -0.3642E+01E
 Epicentro: LOS SANTOS - SANTANDER                                             3
 ACTION:UPD 17-06-16 13:37 OP:jn   STATUS:               ID:20170521011326 L   I
 OLDACT:REG 17-05-21 12:29 OP:edw  STATUS:               ID:20170521010745     3
 2017-05-21-0108-00M.COL___365                                                 6
 STAT SP IPHASW D HRMM SECON CODA AMPLIT PERI AZIMU VELO AIN AR TRES W  DIS CAZ7
 BRR  HZ EP        113 48.09                             154    0.2610 69.5 302 
 BRR  HN ES        114  5.13                             154    0.3110 69.5 302 
 BRR  HZ I         114  9.92        17.7 0.48            150           69.5 302 
 RUS  HZ EP   2    113 50.67                             146    0.35 5 98.5 174 
 RUS  HN ES        114  8.95                             146   -0.3010 98.5 174 
 RUS  HZ I         114 10.16         3.7 0.34            149           98.5 174 
 PTB  HZ EP        113 53.05                             134   -0.19 9  144 259 
 PTB  HN ES        114 14.11                             134   -0.34 9  144 259 
 PTB  HZ I         114 19.26         6.4 0.50            133            144 259 
 ZAR  HZ EP        113 58.23                             124   -0.48 9  202 293 
 ZAR  HN ES   4    114 26.28                             124    2.09 0  202 293 
 ZAR  HZ I         114 30.39         8.8 0.32            125            202 293 
 NOR  HZ EP   2    114  2.55                             120    0.81 4  231 234 
 NOR  HN ES        114 30.06                             120    0.48 8  231 234 
 NOR  HZ I         114 35.75         3.8 0.20            122            231 234 
                                                                                
