 2011 1021 0959 50.0 L   6.838 -73.012138.0  RSN  4 0.1 1.4LRSN                1
 GAP=152        0.39       5.0     8.4  9.2  0.2438E+02 -0.5092E+02 -0.1279E+02E
 Epicentro: CEPITA - SANTANDER                                                 3
 ACTION:UPD 12-07-13 16:05 OP:ep   STATUS:               ID:20111021095950 L   I
 2011-10-21-0958-41S.COL___171                                                 6
 STAT SP IPHASW D HRMM SECON CODA AMPLIT PERI AZIMU VELO AIN AR TRES W  DIS CAZ7
 BAR2 SZ EP       10 0  8.98                             166    0.0610 33.0 215 
 BAR2 SZ I        10 0  9.36         5.1 0.11                          33.0 215 
 PAM  SZ EP   2   10 0 10.64                             154   -0.02 5 65.4  32 
 BRR  HZ EP   1   10 0 10.77                             148   -0.25 7 82.9 291 
 BRR  HE ES   1   10 0 27.55                             148    0.12 7 82.9 291 
 BRR  HZ I        10 0 31.66         5.3 0.23                          82.9 291 
 RUS  HZ EP   1   10 0 13.40                             141    0.11 7  105 184 
 RUS  HN ES   2   10 0 31.26                             141   -0.21 5  105 184 
 RUS  HZ I        10 0 31.52         5.9 0.54                           105 184 
                                                                                
