 2012 1021 0801  3.1 L   6.772 -73.112142.3  RSN  5 0.1 1.7LRSN                1
 GAP=142        0.35       2.3     2.3  3.5  0.1218E+01  0.6613E+00  0.3964E+00E
 Epicentro: LOS SANTOS - SANTANDER                                             3
 ACTION:UPD 12-11-22 17:05 OP:ep   STATUS:               ID:20121021080103 L   I
 2012-10-21-0800-00M.COL___231                                                 6
 STAT SP IPHASW D HRMM SECON CODA AMPLIT PERI AZIMU VELO AIN AR TRES W  DIS CAZ7
 BAR2 SZ EP        8 1 22.25                             171    0.0010 21.4 201 
 BAR2 SZ I         8 1 31.10        13.7 0.55                          21.4 201 
 BRR  HZ EP        8 1 24.12                             150    0.0010 75.9 299 
 BRR  HE ES        8 1 40.68                             150    0.1310 75.9 299 
 BRR  HZ I         8 1 45.35        11.0 0.15                          75.9 299 
 PAM  SZ EP        8 1 25.07                             150    0.1410 77.5  36 
 PAM  SN ES   1    8 1 41.75                             150   -0.23 7 77.5  36 
 PAM  SZ I         8 1 44.46         5.6 0.46                          77.5  36 
 RUS  HZ EP   1    8 1 26.22                             144   -0.03 7 97.4 178 
 RUS  HE ES   1    8 1 44.28                             144   -0.05 7 97.4 178 
 RUS  HE I         8 1 46.05         6.3 0.26                          97.4 178 
 ZAR  HZ EP   1    8 1 35.69                             121   -0.08 6  209 293 
 ZAR  HN ES   1    8 2  1.10                             121   -0.17 6  209 293 
 ZAR  HZ I         8 2  6.83         5.7 0.29                           209 293 
                                                                                
