 2015  621 0259 23.7 L   6.321 -73.574108.8  RSN 18 0.4 2.0LRSN                1
 GAP= 76        1.00       2.0     2.8  5.6 -0.1231E+01  0.8196E+01  0.7590E+00E
 Epicentro: SANTA HELENA DEL OPON - SANTANDER                                  3
 ACTION:UPD 15-09-10 22:14 OP:cam  STATUS:               ID:20150621025923 L   I
 OLDACT:UP  15-06-23 06:14 OP:STLL STATUS:               ID:20150621025923 L   3
 OLDACT:REG 15-06-21 12:33 OP:drio STATUS:               ID:20150621025746     3
 2015-06-21-0257-46M.COL___328                                                 6
 STAT SP IPHASW D HRMM SECON CODA AMPLIT PERI AZIMU VELO AIN AR TRES W  DIS CAZ7
 BAR2 EZ EP        259 40.29                             152    0.1510 52.7  55 
 BAR2 EZ ES        259 53.73                             152    0.7610 52.7  55 
 BAR2 EZ I         259 54.71        69.4 0.32            158           52.7  55 
 RUS  HZ EP        259 41.64                             144   -0.1110 72.1 131 
 RUS  HN ES        259 55.09                             144   -0.7510 72.1 131 
 RUS  HZ I         259 58.36        15.8 0.26            149           72.1 131 
 BRR  HZ EP        259 41.62                             138   -0.6810 88.2 350 
 BRR  HE ES        259 56.95                             138    0.1410 88.2 350 
 BRR  HZ I         3 0  0.90        16.5 0.12            141           88.2 350 
 PAM  SZ EP        259 48.33                             122   -0.28 9  148  41 
 PAM  SE ES        3 0  8.68                             122    0.62 9  148  41 
 PAM  SZ I         3 0 10.91         7.5 0.24            127            148  41 
 NOR  HZ EP        259 49.86                             118   -0.05 9  166 240 
 NOR  HE ES        3 0 10.01                             118   -0.36 9  166 240 
 NOR  HZ I         3 0 14.71        20.0 0.30            121            166 240 
 CHI  HZ EP        259 52.28                             115   -0.47 9  188 185 
 CHI  HN ES        3 0 15.38                             115   -0.03 9  188 185 
 CHI  HZ I         3 0 20.22         6.9 0.58            118            188 185 
 ZAR  HZ EP        259 52.55                             114   -0.14 9  192 312 
 ZAR  HE ES        3 0 14.70                             114   -0.62 9  192 312 
 ZAR  HZ I         3 0 18.68        17.1 0.34            117            192 312 
 OCA  HZ EP   4    259 54.34                             112   -0.99 0  214   8 
 OCA  HN ES        3 0 20.08                             112    0.07 8  214   8 
 OCA  HZ I         3 0 25.15        24.0 0.22            115            214   8 
 HEL  HZ EP        259 55.89                             111   -0.04 8  217 266 
 HEL  HN ES        3 0 20.86                             111   -0.21 8  217 266 
 HEL  HZ I         3 0 26.09         6.4 0.20            114            217 266 
 GUY2CHZ EP        259 58.18                             110    0.33 8  232 239 
 GUY2CHN ES        3 0 24.29                             110   -0.21 8  232 239 
 GUY2CHZ I         3 0 31.25         7.4 0.22                           232 239 
 RREF HZ EP        3 0  0.90                             108    0.65 8  252 231 
 RREF HN ES        3 0 28.65                             108   -0.11 8  252 231 
 RREF HZ I         3 0 36.98         3.4 0.36            111            252 231 
 URE  HZ EP        3 0  1.49                             106    0.09 8  268 306 
 URE  HN ES        3 0 31.24                             106    0.43 8  268 306 
 URE  HZ I         3 0 37.17         7.9 0.24            109            268 306 
 TOL  SZ EP        3 0  2.55                             106    0.22 8  273 225 
 TOL  SN ES        3 0 33.32                             106    0.86 8  273 225 
 TOL  SZ I         3 0 36.39         8.3 0.36            109            273 225 
 CBOC HZ EP        3 0  2.54                             106    0.18 8  275 260 
 CBOC HN ES        3 0 32.45                             106   -0.07 8  275 260 
 CBOC HZ I         3 0 36.58         3.1 0.44            108            275 260 
 SML  HZ EP        3 0  2.10                             105   -0.63 7  280 349 
 SML  HN ES        3 0 33.55                             105    0.36 7  280 349 
 SML  HZ I         3 0 37.67        14.9 0.28            108            280 349 
 PRA  HZ EP        3 0  7.50                             103   -0.42 7  323 207 
 PRA  HE ES        3 0 43.27                             103    0.85 7  323 207 
 PRA  HZ I         3 0 49.57         8.2 0.60            105            323 207 
 ORTC HZ EP        3 0  8.33                             102    0.19 7  325 215 
 ORTC HE ES        3 0 42.99                             102    0.18 7  325 215 
 ORTC HZ I         3 0 48.82         4.1 0.22            105            325 215 
 MON  HZ EP   4    3 0  9.74                             101   -2.12 0  356 320 
 MON  HE ES   4    3 0 47.44                             101   -2.00 0  356 320 
 MON  HZ I         3 0 50.29         1.4 0.16            103            356 320 
                                                                                
