 2012 1221 0627  8.1 L   6.756 -73.154143.7  RSN  4 0.4 1.6LRSN                1
 GAP=233        0.83       7.8     8.2  8.2  0.3352E+02  0.3352E+01  0.3299E+01E
 Epicentro: LOS SANTOS - SANTANDER                                             3
 ACTION:UPD 13-01-04 14:29 OP:ep   STATUS:               ID:20121221062708 L   I
 2012-12-21-0620-00M.COL___243                                                 6
 STAT SP IPHASW D HRMM SECON CODA AMPLIT PERI AZIMU VELO AIN AR TRES W  DIS CAZ7
 BAR2 SZ EP   1    627 27.35                             172   -0.04 7 18.3 190 
 BAR2 SZ ES   1    627 41.65                             172   -0.78 7 18.3 190 
 BAR2 SZ I         627 43.49        12.3 0.31                          18.3 190 
 BRR  HZ EP     D  627 29.17                             151    0.0510 72.9 302 
 BRR  HN ES        627 45.86                             151    0.3410 72.9 302 
 BRR  HZ I         627 46.73         5.4 0.19                          72.9 302 
 RUS  HZ EP   1    627 31.65                             145    0.35 7 95.8 175 
 RUS  HN ES   1    627 49.70                             145    0.30 7 95.8 175 
 RUS  HN I         627 51.66         5.5 0.22                          95.8 175 
 PTB  HZ EP   1    627 34.15                             132   -0.59 7  146 261 
 PTB  HE ES   1    627 55.51                             132    0.00 7  146 261 
 PTB  HZ I         627 57.53         4.3 0.12                           146 261 
                                                                                
