 2016 1121 0446 17.5 L   6.629 -73.186141.5  RSN  4 0.3 1.2LRSN                1
 GAP=221        0.69       7.7     5.7  5.8  0.8774E+01  0.1306E+02 -0.2129E+01E
 Epicentro: BARICHARA - SANTANDER                                              3
 ACTION:UPD 17-10-26 21:10 OP:lp   STATUS:               ID:20161121044617 L   I
 OLDACT:UP  16-11-21 18:14 OP:edw  STATUS:               ID:20161121043745     3
 OLDACT:UP  16-11-21 18:13 OP:edw  STATUS:               ID:20161121043745     3
 OLDACT:REG 16-11-21 14:28 OP:edw  STATUS:               ID:20161121043745     3
 2016-11-21-0438-00M.COL___340                                                 6
 STAT SP IPHASW D HRMM SECON CODA AMPLIT PERI AZIMU VELO AIN AR TRES W  DIS CAZ7
 BAR2 EZ ES        446 51.17                             178    0.0110 4.10 174 
 BRR  HZ EP        446 38.30                             149   -0.3810 78.5 312 
 BRR  HN ES        446 55.36                             149    0.2010 78.5 312 
 BRR  HZ I         446 58.95         3.9 0.10            145           78.5 312 
 PTB  HZ EP        446 43.51                             132   -0.02 9  141 266 
 PTB  HN ES        447  3.81                             132    0.00 9  141 266 
 PTB  HZ I         447  5.38         1.3 0.11            132            141 266 
 ZAR  HZ EP        446 50.65                             121    0.53 8  208 297 
 ZAR  HE ES        447 15.24                             121   -0.28 8  208 297 
 ZAR  HZ I         447 20.08         1.8 0.09            120            208 297 
                                                                                
