 2012 1221 0714 24.4 L   6.774 -73.139145.6  RSN 10 0.2 1.9LRSN                1
 GAP= 98        0.52       2.4     2.3  3.6 -0.3946E+00  0.8938E+00  0.2822E+01E
 Epicentro: LOS SANTOS - SANTANDER                                             3
 ACTION:UPD 13-01-04 14:29 OP:ep   STATUS:               ID:20121221071424 L   I
 2012-12-21-0710-00M.COL___243                                                 6
 STAT SP IPHASW D HRMM SECON CODA AMPLIT PERI AZIMU VELO AIN AR TRES W  DIS CAZ7
 BAR2 SZ EP        714 43.89                             172   -0.0710 20.7 193 
 BAR2 SZ ES   1    714 59.35                             172    0.13 7 20.7 193 
 BAR2 SZ I         715  1.79        26.9 0.31                          20.7 193 
 BRR  HZ EP        714 45.87                             152    0.2210 73.2 300 
 BRR  HN ES   1    715  2.69                             152    0.47 7 73.2 300 
 BRR  HZ I         715  5.80         8.1 0.18                          73.2 300 
 PAM  SZ EP        714 46.71                             150    0.0010 79.2  38 
 PAM  SZ I         714 47.11        12.3 0.19                          79.2  38 
 PAM  SN ES        715  3.92                             150   -0.1910 79.2  38 
 RUS  HZ EP        714 47.87                             145   -0.0610 97.7 176 
 RUS  HE ES   1    715  6.07                             145   -0.21 7 97.7 176 
 RUS  HE I         715  7.62        11.8 0.43                          97.7 176 
 PTB  HZ EP        714 51.02                             132   -0.35 9  148 260 
 PTB  HE ES   1    715 12.00                             132   -0.41 7  148 260 
 PTB  HZ I         715 14.36         9.7 0.21                           148 260 
 TAM  HZ EP        714 52.12                             131    0.18 9  154 104 
 TAM  HZ I         715 20.97        10.0 0.11                           154 104 
 ZAR  HN ES   1    715 22.54                             122    0.08 6  206 293 
 ZAR  HZ I         715 28.33         6.5 0.30                           206 293 
 CHI  HZ EP   1    715  1.79                             117   -0.02 6  246 195 
 CHI  HN ES   1    715 31.29                             117    0.30 6  246 195 
 HEL  HZ EP   1    715  4.82                             115    0.21 6  272 256 
 HEL  HZ I         715 43.53         4.2 0.39                           272 256 
 PRA  HZ EP   1    715 17.49                             107   -0.18 4  390 210 
 PRA  HE ES   1    715 59.58                             107    0.37 4  390 210 
 PRA  HZ I         716  6.57         3.8 0.43                           390 210 
                                                                                
