 2013 1121 0616 44.7 L   6.827 -73.358123.4  RSN  8 0.5 1.7LRSN                1
 GAP=163        1.20       4.5     6.7  9.6  0.7855E+01 -0.4388E+01 -0.1311E+02E
 Epicentro: ZAPATOCA - SANTANDER                                               3
 ACTION:UPD 14-01-09 16:29 OP:ep   STATUS:               ID:20131121061644 L   I
 OLDACT:DUP 13-11-21 13:18 OP:mh   STATUS:               ID:20131121061001d    3
 2013-11-21-0610-00M.COL___282                                                 6
 STAT SP IPHASW D HRMM SECON CODA AMPLIT PERI AZIMU VELO AIN AR TRES W  DIS CAZ7
 BAR2 SZ EP        617  2.03                             164    0.1510 32.4 143 
 BRR  HZ EP        617  2.42                             157    0.1810 49.9 308 
 BRR  HN ES        617 16.37                             157    0.4210 49.9 308 
 BRR  HZ I         617 17.98        10.3 0.10            155           49.9 308 
 RUS  HZ EP        617  6.84                             137   -0.0410  108 164 
 RUS  HN ES        617 23.68                             137   -0.5310  108 164 
 RUS  HZ I         617 26.65         4.0 0.24            140            108 164 
 PTB  HZ EP        617  7.47                             131   -0.3410  126 255 
 PTB  HN ES        617 25.00                             131   -0.8510  126 255 
 PTB  HZ I         617 28.94         6.2 0.12            132            126 255 
 SPBC HN ES        617 31.43                             126    0.88 9  152 211 
 OCA  HZ EP   4    617 12.81                             125    1.87 0  156   2 
 OCA  HN ES   4    617 29.93                             125   -1.50 0  156   2 
 OCA  HZ I         617 31.42        13.6 0.32            126            156   2 
 ZAR  HZ EP        617 13.83                             120    0.49 9  181 294 
 ZAR  HN ES   4    617 36.20                             120    0.51 0  181 294 
 ZAR  HZ I         617 40.46         5.6 0.07            121            181 294 
 SML  HZ EP        617 18.68                             114   -0.16 8  232 340 
 SML  HN ES        617 45.31                             114   -0.19 8  232 340 
 SML  HZ I         617 50.68        12.1 0.27            115            232 340 
 SML  HZ E         617 50.79                                            232 340 
                                                                                
