 2016 1221 0907 48.5 L   6.712 -73.169133.5  RSN  4 0.5 0.9LRSN                1
 GAP=239        1.19      10.8     8.7 10.3  0.5835E+02  0.1369E+02 -0.2776E+02E
 Epicentro: VILLANUEVA - SANTANDER                                             3
 ACTION:UPD 17-01-11 20:17 OP:rebc STATUS:               ID:20161221085750dL   I
 OLDACT:DUP 16-12-21 16:41 OP:cog  STATUS:               ID:20161221085750dL   3
 2016-12-21-0858-00M.COL___363                                                 6
 STAT SP IPHASW D HRMM SECON CODA AMPLIT PERI AZIMU VELO AIN AR TRES W  DIS CAZ7
 BAR2 EZ EP        9 8  6.01                             174   -0.4310 13.4 186 
 BAR2 EZ ES        9 8 20.32                             174   -0.1510 13.4 186 
 BAR2 EZ I         9 8 23.15         2.4 0.38            174           13.4 186 
 RUS  HN EP        9 8 10.98                             144    0.6610 91.1 174 
 RUS  HE ES        9 8 27.57                             144    0.1910 91.1 174 
 PTB  HZ EP        9 8 13.59                             130   -0.47 9  144 262 
 PTB  HN ES        9 8 33.66                             130   -0.38 9  144 262 
 PTB  HZ I         9 8 36.94         1.1 0.26            132            144 262 
 ZAR  HZ EP        9 8 20.05                             119   -0.24 8  206 295 
 ZAR  HN ES        9 8 46.03                             119    0.90 8  206 295 
                                                                                
