 2017 1021 0520 46.9 L   6.767 -73.191151.8  RSN  4 0.3 0.9LRSN                1
 GAP=230        0.75       6.1     5.7  6.0  0.1674E+02  0.2730E+01  0.6007E+00E
 Epicentro: LOS SANTOS - SANTANDER                                             3
 ACTION:UPD 17-11-07 19:34 OP:rebc STATUS:               ID:20171021052046 L   I
 OLDACT:DUP 17-10-21 16:20 OP:dani STATUS:               ID:20171021051743d    3
 OLDACT:DUP 17-10-21 16:16 OP:dani STATUS:               ID:20171021051742d    3
 OLDACT:UP  17-10-21 16:14 OP:dani STATUS:               ID:20171021051741     3
 OLDACT:UP  17-10-21 16:13 OP:dani STATUS:               ID:20171021051741     3
 OLDACT:REG 17-10-21 13:20 OP:dani STATUS:               ID:20171021051741     3
 2017-10-21-0518-00M.COL___438                                                 6
 STAT SP IPHASW D HRMM SECON CODA AMPLIT PERI AZIMU VELO AIN AR TRES W  DIS CAZ7
 BAR2 EZ EP        521  6.72                             172   -0.4410 19.4 177 
 BAR2 EZ ES        521 22.86                             172   -0.1210 19.4 177 
 BRR  HZ EP        521  8.71                             154    0.1710 68.8 303 
 BRR  HN ES        521 25.64                             154    0.1910 68.8 303 
 BRR  HZ I         521 33.62         2.4 0.51            154           68.8 303 
 RUS  HZ EP        521 10.89                             146   -0.1110 97.5 173 
 RUS  HN ES        521 30.13                             146    0.3010 97.5 173 
 RUS  HZ I         521 36.95         1.1 0.36            148           97.5 173 
 PTB  HZ EP        521 14.21                             134    0.36 9  142 260 
 PTB  HN ES        521 34.54                             134   -0.35 9  142 260 
 PTB  HZ I         521 41.88         0.9 0.28            136            142 260 
                                                                                
