 2014  421 0030  4.4 L   6.797 -73.123149.0  RSN 14 0.4 2.0LRSN                1
 GAP=140        0.97       3.0     4.3  6.0 -0.3202E+01  0.5130E+01  0.3654E+01E
 Epicentro: LOS SANTOS - SANTANDER                                             3
 ACTION:UPD 14-05-13 23:10 OP:nd   STATUS:               ID:20140421003004 L   I
 OLDACT:REG 14-04-21 13:39 OP:spq  STATUS:               ID:20140421002813     3
 2014-04-21-0028-13M.COL___236                                                 6
 STAT SP IPHASW D HRMM SECON CODA AMPLIT PERI AZIMU VELO AIN AR TRES W  DIS CAZ7
 BRR  HZ IP     C  030 26.34                             152    0.2810 73.6 298 
 BRR  HN ES        030 43.68                             152    0.7510 73.6 298 
 BRR  HZ I         030 47.40        17.3 0.16            152           73.6 298 
 PAM  SZ EP        030 27.40                             152    0.4910 76.1  38 
 PAM  SN ES        030 44.62                             152    0.1710 76.1  38 
 PAM  SZ I         030 46.36        11.8 0.16            155           76.1  38 
 RUS  HZ EP        030 28.32                             145   -0.1410  100 177 
 RUS  HN ES        030 46.72                             145   -0.4910  100 177 
 RUS  HZ I         030 48.65         9.5 0.28            146            100 177 
 PTB  HZ EP        030 31.25                             132   -0.63 9  150 259 
 PTB  HN ES        030 52.51                             132   -0.77 9  150 259 
 PTB  HZ I         030 57.42         9.9 0.18            133            150 259 
 OCA  HN ES        030 55.16                             130   -0.22 9  161 352 
 SPBC HZ EP        030 33.41                             130    0.11 9  164 220 
 SPBC HN ES        030 55.86                             130    0.04 9  164 220 
 NOR  HZ EP        030 40.68                             119    0.13 8  237 235 
 NOR  HN ES        031  8.88                             119    0.17 8  237 235 
 SML  HZ EP   1    030 40.91                             118   -0.48 6  245 335 
 SML  HN ES   1    031  9.47                             118   -0.74 6  245 335 
 CHI  HZ EP   1    030 42.40                             118    0.06 6  249 196 
 CHI  HE ES   1    031 11.68                             118   -0.24 6  249 196 
 HEL  HZ EP   1    030 45.84                             115    0.77 6  274 256 
 HEL  HE ES   1    031 17.29                             115    0.53 6  274 256 
 GUY2CHZ EP   4    030 49.90                             113    1.50 0  303 235 
 GUY2CHE ES   4    031 20.98                             113   -1.71 0  303 235 
 GUY2CHZ I         031 30.95         6.6 0.62                           303 235 
 RREF HZ EP   4    030 53.19                             111    2.28 0  323 230 
 RREF HE ES   4    031 28.82                             111    1.67 0  323 230 
 RREF HZ I         031 31.88         6.6 0.22            113            323 230 
 PRA  HZ EP        030 58.35                             107    0.18 6  393 210 
 PRA  HN ES   1    031 40.44                             107    0.35 4  393 210 
 PRA  HZ I         031 47.09         6.9 0.28            108            393 210 
 ORTC HN ES   1    031 40.78                             107   -0.07 4  397 216 
                                                                                
