 2013  221 0213 44.9 L   6.811 -73.140145.3  RSN  7 0.4 1.5LRSN                1
 GAP=137        0.83       3.7     5.7  6.6  0.3060E+00  0.7152E+01  0.4111E+00E
 Epicentro: LOS SANTOS - SANTANDER                                             3
 ACTION:UPD 13-03-12 09:34 OP:ep   STATUS:               ID:20130221021344 L   I
 2013-02-21-0210-00M.COL___238                                                 6
 STAT SP IPHASW D HRMM SECON CODA AMPLIT PERI AZIMU VELO AIN AR TRES W  DIS CAZ7
 BAR2 SZ ES   1    214 19.30                             170   -0.51 7 24.6 191 
 BAR2 SZ I         214 20.59        10.0 0.20            168           24.6 191 
 BRR  HZ EP   1    214  6.27                             152    0.24 7 71.2 297 
 BRR  HE ES   1    214 23.06                             152    0.58 7 71.2 297 
 BRR  HZ I         214 26.65         7.2 0.42            151           71.2 297 
 PAM  SZ EP   1    214  7.30                             151    0.28 7 76.1  40 
 PAM  SN ES   1    214 24.16                             151   -0.08 7 76.1  40 
 PAM  SZ I         214 26.32        11.7 0.52            156           76.1  40 
 RUS  HZ EP   1    214  8.62                             143   -0.10 7  102 176 
 RUS  HN ES   1    214 27.21                             143   -0.06 7  102 176 
 RUS  HZ I         214 30.31         2.0 0.40            145            102 176 
 PTB  HZ EP   1    214 11.31                             132   -0.62 7  149 258 
 PTB  HN ES   1    214 32.67                             132   -0.33 7  149 258 
 PTB  HZ I         214 38.14         2.9 0.31            132            149 258 
 SML  HZ EP   1    214 20.65                             117   -0.79 6  243 335 
 SML  HN ES   1    214 50.49                             117    0.57 6  243 335 
 SML  HZ I         214 52.49         4.3 0.10            119            243 335 
 CHI  HZ EP   1    214 23.07                             117    0.33 6  250 195 
 CHI  HN ES   1    214 52.89                             117    0.65 6  250 195 
 CHI  HZ I         214 56.00         1.0 0.51            118            250 195 
                                                                                
