 2017  621 0512 54.5 L   6.594 -73.501112.6  RSN 21 0.4 2.7LRSN                1
 GAP=104        1.11       3.1     2.6  6.2  0.8208E+00  0.1933E+01  0.2755E+01E
 Epicentro: EL CARMEN - SANTANDER                                              3
 ACTION:UPD 17-09-14 16:53 OP:jn   STATUS:               ID:20170621051254 L   I
 OLDACT:REG 17-06-21 12:38 OP:lv   STATUS:               ID:20170621050744     3
 2017-06-21-0508-00M.COL___348                                                 6
 STAT SP IPHASW D HRMM SECON CODA AMPLIT PERI AZIMU VELO AIN AR TRES W  DIS CAZ7
 BRR  HZ IP     D  513 11.94                             149    0.3810 61.3 338 
 BRR  HN ES        513 25.54                             149    0.7010 61.3 338 
 BRR  HZ I         513 31.88        76.9 0.09            149           61.3 338 
 PTB  HZ IP   9 D  513 13.93                             133   -1.07 0  106 267 
 PTB  HN ES        513 28.94                                   -0.9510  106 267 
 PTB  HZ I         513 30.37       136.9 0.17            134            106 267 
 SPBC HZ EP        513 16.10                             129   -0.4710  122 211 
 SPBC HN ES        513 32.95                             129   -0.8110  122 211 
 SPBC HZ I         513 36.30       162.4 0.11            131            122 211 
 ZAR  HZ EP        513 22.41                             117    0.01 9  180 304 
 ZAR  HN ES   4    513 45.57                             117    1.44 0  180 304 
 ZAR  HZ I         513 47.80       109.9 0.48            118            180 304 
 YPLC HZ IP     C  513 23.08                             117    0.41 9  182 137 
 YPLC HN ES        513 44.50                             117   -0.11 9  182 137 
 YPLC HZ I         513 47.16       172.6 0.33            119            182 137 
 NOR  HN ES   4    513 44.32                             116   -1.79 0  190 233 
 TAM  HZ EP        513 23.83                             115    0.28 9  190  95 
 TAM  HN ES        513 45.69                             115   -0.48 9  190  95 
 NOR  HZ EP        513 22.87                             116   -0.64 9  190 233 
 ROSC BZ EP   9    513 27.78                             113    1.10 0  214 205 
 ROSC BN ES        513 53.68                                    0.83 8  214 205 
 ROSC BZ I         513 58.19        55.9 0.46            115            214 205 
 CHI  HZ EP        513 27.40                             112    0.18 8  219 187 
 CHI  HN ES        513 52.63                             112   -0.09 8  219 187 
 HEL  HZ EP        513 28.25                             111   -0.04 8  229 259 
 HEL  HN ES        513 54.73                             111    0.10 8  229 259 
 HEL  HZ I         513 58.06        38.5 0.10            112            229 259 
 GUY2CHZ EP        513 31.97                             108    0.41 8  256 234 
 GUY2CHN ES        514  0.37                             108   -0.07 8  256 234 
 GUY2CHZ I         514  6.64        25.1 0.48                           256 234 
 URE  HZ EP        513 30.67                             108   -0.58 8  258 300 
 URE  HN ES        513 59.07                             108   -0.81 8  258 300 
 VIL  EZ EP        513 33.31                             107   -0.06 7  275 184 
 VIL  EN ES   4    514  5.86                             107    2.20 0  275 184 
 VIL  EZ I         514 12.17        17.8 0.16            108            275 184 
 NIZA HZ EP   4    513 35.91                             106    2.21 0  276 232 
 NIZA HN ES   4    514  7.22                             106    2.97 0  276 232 
 CBOC HZ EP        513 35.56                             105    0.49 7  289 254 
 CBOC HN ES        514  7.10                             105    0.42 7  289 254 
 CBOC HZ I         514 10.39         8.2 0.15            107            289 254 
 PTGC HZ IP   9 C  513 35.59                             104   -1.12 0  305 150 
 PTGC HN ES        514  8.09                                   -0.40 7  305 150 
 PTGC HZ I         514  9.15        15.6 0.28            106            305 150 
 ORTC HZ EP        513 42.89                             101    0.29 6  354 213 
 ORTC HN ES        514 20.47                             101    0.38 6  354 213 
 ORTC HZ I         514 26.41        16.7 0.26            103            354 213 
 PAL  HZ EP        513 43.44                             101    0.09 6  360 239 
 PAL  HN ES        514 22.39                             101    0.97 6  360 239 
 PAL  HZ I         514 25.02        19.5 0.06            103            360 239 
 APAC HZ EP   4    513 42.87                             101   -1.47 0  369 293 
 APAC HN ES   1    514 23.06                             101   -0.14 5  369 293 
 APAC HZ I         514 26.16         5.0 0.14            102            369 293 
 ARGC HZ EP   4    513 46.01                             101    1.57 0  370 347 
 ARGC HN ES   4    514 26.37                             101    3.00 0  370 347 
 ARGC HZ I         514 41.38        22.1 0.28            102            370 347 
 SJC  HZ EP   4    513 47.94                              99   -1.28 0  409 333 
 SJC  HN ES   4    514 30.22                              99   -1.66 0  409 333 
 SMAR HZ EP        514  1.15                              96   -0.36 4  512 351 
 POP2 HZ EP        514  8.76                              94   -0.14 3  570 218 
                                                                                
