 2016  721 0721 59.1 L   6.760 -73.147150.3  RSN  4 0.1 1.5LRSN                1
 GAP=234        0.42       2.5     3.8  3.3  0.1748E+01  0.8821E+00  0.1066E+01E
 Epicentro: LOS SANTOS - SANTANDER                                             3
 ACTION:UPD 17-03-29 16:53 OP:lp   STATUS:               ID:20160721072159 L   I
 OLDACT:REG 16-07-21 14:18 OP:ar   STATUS:               ID:20160721071759     3
 2016-07-21-0717-59S.COL___307                                                 6
 STAT SP IPHASW D HRMM SECON CODA AMPLIT PERI AZIMU VELO AIN AR TRES W  DIS CAZ7
 BAR2 EZ EP        722 19.02                             172   -0.2210 18.9 192 
 BAR2 EZ ES        722 34.88                             172   -0.0310 18.9 192 
 BRR  HZ EP        722 20.81                             153   -0.0810 73.3 302 
 BRR  HN ES        722 38.00                             153    0.1410 73.3 302 
 BRR  HZ I         722 42.65         3.2 0.12            149           73.3 302 
 RUS  HZ EP        722 23.21                             146    0.1810 96.2 176 
 RUS  HN ES        722 41.70                             146    0.0310 96.2 176 
 SPBC HZ EP        722 27.77                             131    0.11 9  160 220 
 SPBC HN ES        722 49.78                             131   -0.13 9  160 220 
 SPBC HZ I         722 52.33         6.0 0.26            131            160 220 
                                                                                
