 2013  521 0211 59.3 L   6.769 -73.141148.8  RSN  6 0.4 1.9LRSN                1
 GAP=139        1.04       5.6     5.4  7.5 -0.3467E+01  0.4089E+01  0.2137E+00E
 Epicentro: LOS SANTOS - SANTANDER                                             3
 ACTION:UPD 13-06-20 09:52 OP:ep   STATUS:               ID:20130521021159 L   I
 2013-05-21-0208-38M.COL___222                                                 6
 STAT SP IPHASW D HRMM SECON CODA AMPLIT PERI AZIMU VELO AIN AR TRES W  DIS CAZ7
 BAR2 SZ EP        212 19.38                             172    0.1210 20.0 193 
 BAR2 SZ ES        212 34.64                             172   -0.1710 20.0 193 
 BAR2 SZ I         212 35.87        14.5 0.58            172           20.0 193 
 GIR2 SZ EP        212 19.16                             166   -0.2910 34.8 350 
 BRR  HZ IP     C  212 21.36                             152    0.4410 73.4 301 
 BRR  HN ES        212 38.49                             152    0.7210 73.4 301 
 BRR  HN I         212 42.90        23.3 0.22            152           73.4 301 
 PAM  SZ EP        212 22.25                             151    0.2510 79.8  38 
 PAM  SN ES        212 39.16                             151   -0.5310 79.8  38 
 PAM  SN I         212 40.79        11.2 0.42            154           79.8  38 
 RUS  HZ EP        212 23.28                             145    0.1510 97.1 176 
 RUS  HN ES        212 41.85                             145    0.1510 97.1 176 
 RUS  HN I         212 43.72         9.7 0.30            148           97.1 176 
 PTB  HZ EP        212 26.08                             133   -0.45 9  148 260 
 PTB  HN ES        212 47.23                             133   -0.52 9  148 260 
 PTB  HN I         212 50.86        11.2 0.36            134            148 260 
                                                                                
