 2012 1021 0758  2.5 L   6.750 -73.115142.0  RSN  4 0.2 2.0LRSN                1
 GAP=143        0.45       2.8     3.6  3.9 -0.6550E+00 -0.9276E+00  0.2849E+00E
 Epicentro: LOS SANTOS - SANTANDER                                             3
 ACTION:UPD 12-11-22 17:05 OP:ep   STATUS:               ID:20121021075802 L   I
 2012-10-21-0750-00M.COL___231                                                 6
 STAT SP IPHASW D HRMM SECON CODA AMPLIT PERI AZIMU VELO AIN AR TRES W  DIS CAZ7
 BAR2 SZ EP        758 21.53                             172   -0.0210 19.0 203 
 BAR2 SZ ES        758 36.49                             172    0.0510 19.0 203 
 BAR2 SZ I         758 38.96        26.4 0.23                          19.0 203 
 BRR  HZ IP     C  758 23.30                             150   -0.2310 76.9 301 
 BRR  HZ I         758 23.57        31.2 0.14                          76.9 301 
 BRR  HN ES        758 40.10                             150    0.1210 76.9 301 
 PAM  SZ EP        758 24.41                             149    0.0010 79.7  35 
 PAM  SZ I         758 24.81        15.7 0.17                          79.7  35 
 PAM  SN ES        758 41.53                             149    0.0010 79.7  35 
 RUS  HZ EP   1    758 25.77                             145    0.35 7 94.9 178 
 RUS  HN ES   1    758 43.12                             145   -0.22 7 94.9 178 
 RUS  HN I         758 45.86         8.1 0.24                          94.9 178 
                                                                                
