 2017 1021 0918 49.5 L   7.543 -73.042156.0  RSN  5 0.1 1.5LRSN                1
 GAP=212        0.40       2.8     2.2  3.0  0.1696E+01  0.1148E+01 -0.8558E+00E
 Epicentro: EL PLAYON - SANTANDER                                              3
 ACTION:UPD 17-11-07 19:34 OP:rebc STATUS:               ID:20171021091849 L   I
 OLDACT:REG 17-10-21 13:37 OP:dani STATUS:               ID:20171021091739     3
 2017-10-21-0918-00M.COL___435                                                 6
 STAT SP IPHASW D HRMM SECON CODA AMPLIT PERI AZIMU VELO AIN AR TRES W  DIS CAZ7
 PAM  EZ EP        919 11.35                             164    0.0610 44.0 121 
 PAM  EN ES        919 28.19                             164   -0.1010 44.0 121 
 PAM  EZ I         919 29.01         4.4 0.20            167           44.0 121 
 BRR  HZ EP        919 12.79                             149    0.0310 88.3 237 
 BRR  HE ES        919 31.13                             149    0.2310 88.3 237 
 BRR  HZ I         919 32.99         7.0 0.58            147           88.3 237 
 BAR2 EZ EP        919 14.22                             144   -0.0910  106 188 
 BAR2 EZ ES        919 33.67                             144    0.0110  106 188 
 BAR2 EZ I         919 39.24         5.8 0.66            144            106 188 
 RUS  HZ EP        919 21.18                             128    0.01 9  183 181 
 RUS  HN ES        919 45.80                             128   -0.06 9  183 181 
 RUS  HZ I         919 47.11         2.2 0.28            129            183 181 
 ZAR  HZ EP        919 22.43                             125    0.15 9  200 269 
 ZAR  HN ES        919 47.57                             125   -0.28 9  200 269 
 ZAR  HZ I         919 55.14         3.1 0.50            125            200 269 
                                                                                
