 2011  121 0159 21.3 L   6.564 -73.478108.6  RSN  5 0.6 1.4LRSN                1
 GAP=152        1.24       7.0    15.7 16.8 -0.6574E+02  0.1371E+03 -0.3877E+02E
 Epicentro: EL CARMEN DE CHUCURI - SANTANDER                                   3
 ACTION:UP  11-02-08 08:41 OP:pat  STATUS:               ID:20110121015921 L   I
 2011-01-21-0157-19S.COL___138                                                 6
 STAT SP IPHASW D HRMM SECON CODA AMPLIT PERI AZIMU VELO SNR AR TRES W  DIS CAZ7
 BAR2 SZ EP   1    159 36.33                             162    -0.5 7   33  85 
 BAR2 SZ I         159 36.62        13.3 0.11                            33  85 
 BAR2 SZ ES   2    159 49.69                             162     0.8 5   33  85 
 RUS  HZ EP   1    159 39.59                             139    -0.8 7   86 150 
 RUS  HE ES   1    159 55.27                             139    -0.1 7   86 150 
 RUS  HZ I         159 56.33         5.8 0.23                            86 150 
 GRA  SZ EP   1    159 48.35                             119     0.9 7  164  27 
 GRA  SZ ES   1    2 0  7.57                             119    -0.2 7  164  27 
 GRA  SZ I         2 0  9.07         4.6 0.37                           164  27 
 NOR  SN ES   2    2 0 12.28                             115    -0.3 4  190 235 
 CHI  HZ EP   1    159 53.56                             111     0.1 6  216 188 
 CHI  HZ I         159 53.89         1.4 0.19                           216 188 
 CHI  HN ES   1    2 0 19.38                             111     0.8 6  216 188 
                                                                                
