 2012  421 0027 33.7 L   6.772 -73.152143.0  RSN  4 0.2 1.3LRSN                1
 GAP=137        0.45       3.4     2.8  7.5 -0.1559E+01  0.2927E+01 -0.5636E+00E
 Epicentro: LOS SANTOS - SANTANDER                                             3
 ACTION:UPD 12-07-05 11:55 OP:tino STATUS:               ID:20120421002733 L   I
 2012-04-21-0020-00M.COL___186                                                 6
 STAT SP IPHASW D HRMM SECON CODA AMPLIT PERI AZIMU VELO AIN AR TRES W  DIS CAZ7
 PAM  SZ EP   1    027 55.97                             149     0.2 8   80  39 
 PAM  SN ES   1    028 12.85                             149    -0.1 8   80  39 
 PAM  SZ I         028 15.25         5.1 0.37                            80  39 
 RUS  HZ EP   1    027 56.69                             144    -0.2 8   98 176 
 RUS  HN ES   1    028 15.22                             144     0.2 8   98 176 
 RUS  HZ I         028 17.52         2.8 0.32                            98 176 
 PTB  HN ES        028 21.01                             132     0.010  147 260 
 ZAR  HN ES   2    028 31.34                             122     0.1 5  205 293 
                                                                                
