 2012  121 0438 45.7 L   6.777 -73.109147.6  RSN  5 0.3 1.5LRSN                1
 GAP=142        0.69       5.0     5.5  7.2 -0.1250E+01  0.6597E+01  0.2184E+01E
 Epicentro: LOS SANTOS - SANTANDER                                             3
 ACTION:UP  12-02-03 08:19 OP:REBC STATUS:               ID:20120121043845 L   I
 2012-01-21-0430-00M.COL___186                                                 6
 STAT SP IPHASW D HRMM SECON CODA AMPLIT PERI AZIMU VELO SNR AR TRES W  DIS CAZ7
 BAR2 SZ EP   1    439  5.37                             171    -0.2 7   22 202 
 BAR2 SZ ES   2    439 20.48                             171    -0.5 5   22 202 
 BAR2 SZ I         439 22.33         6.3 0.26                            22 202 
 BRR  HZ EP        439  7.46                             151     0.110   76 299 
 BRR  HZ I         439  7.75        11.1 0.15                            76 299 
 BRR  HE ES   1    439 24.62                             151     0.4 7   76 299 
 PAM  SZ EP   1    439  8.32                             151     0.2 7   77  36 
 PAM  SN ES   1    439 25.19                             151    -0.4 7   77  36 
 RUS  HZ EP   1    439  9.63                             145     0.2 7   98 178 
 RUS  HN ES   1    439 28.12                             145     0.2 7   98 178 
 RUS  HZ I         439 29.06         2.6 0.32                            98 178 
 PTB  HZ EP   1    439 12.65                             132    -0.5 7  151 260 
 PTB  HN ES   2    439 34.20                             132    -0.3 5  151 260 
                                                                                
