 2013  521 0523 39.8 L   6.706 -73.147140.9  RSN  6 0.4 1.8LRSN                1
 GAP=140        1.04       6.2     6.0  7.4  0.5615E+00  0.3811E+01 -0.5311E+01E
 Epicentro: VILLANUEVA - SANTANDER                                             3
 ACTION:UPD 13-06-20 09:52 OP:ep   STATUS:               ID:20130521052339 L   I
 2013-05-21-0518-51M.COL___219                                                 6
 STAT SP IPHASW D HRMM SECON CODA AMPLIT PERI AZIMU VELO AIN AR TRES W  DIS CAZ7
 BAR2 SZ EP        523 58.98                             174    0.2810 13.2 197 
 BAR2 SZ ES        524 13.54                             174    0.1110 13.2 197 
 BAR2 SZ I         524 14.75         6.9 0.12            175           13.2 197 
 GIR2 SZ EP        523 59.12                             163   -0.1310 41.5 353 
 GIR2 SZ ES        524 13.76                             163   -0.6310 41.5 353 
 BRR  HZ EP        524  1.42                             150    0.6510 76.6 305 
 BRR  HN ES        524 17.62                             150    0.5110 76.6 305 
 BRR  HN I         524 18.04        32.6 0.22            150           76.6 305 
 PAM  SZ EP        524  1.88                             147   -0.1710 85.7  35 
 RUS  HN ES        524 20.00                             146    0.0510 90.3 176 
 PTB  HZ EP        524  5.75                             131   -0.49 9  146 263 
 PTB  HN ES        524 26.55                             131   -0.29 9  146 263 
                                                                                
