 2014 1021 0649 16.8 L   6.873 -73.340118.2  RSN 14 0.6 2.0LRSN                1
 GAP= 97        1.38       3.2     4.5  7.0 -0.1644E+01  0.1221E+02 -0.7131E+00E
 Epicentro: BETULIA - SANTANDER                                                3
 ACTION:UPD 14-11-29 23:53 OP:nd   STATUS:               ID:20141021064749 L   I
 OLDACT:UP  14-10-23 22:42 OP:cam  STATUS:               ID:20141021064749 L   3
 OLDACT:UP  14-10-23 22:41 OP:cam  STATUS:               ID:20141021064749 L   3
 OLDACT:UPD 14-10-22 06:13 OP:FJMB STATUS:               ID:20141021064749 L   3
 2014-10-21-0647-49M.COL___271                                                 6
 STAT SP IPHASW D HRMM SECON CODA AMPLIT PERI AZIMU VELO AIN AR TRES W  DIS CAZ7
 BAR2 SZ EP     C  649 33.80                             162    0.2710 35.6 151 
 BAR2 SZ ES        649 46.85                             162    0.2910 35.6 151 
 BAR2 SZ I         649 48.10        75.9 0.26            165           35.6 151 
 BRR  HZ IP     D  649 34.16                             156    0.4210 48.6 302 
 BRR  HN ES        649 47.47                             156    0.5310 48.6 302 
 BRR  HZ I         649 49.10        22.2 0.34            155           48.6 302 
 PAM  SZ EP        649 37.46                             141    0.5210 87.6  54 
 PAM  SE ES        649 52.71                             141    0.0810 87.6  54 
 PAM  SZ I         649 55.60        23.9 0.22            145           87.6  54 
 RUS  HZ EP        649 38.73                             134   -0.2310  112 165 
 RUS  HE ES        649 55.55                             134   -0.6710  112 165 
 PTB  HZ EP        649 39.04                             129   -0.8110  129 253 
 PTB  HN ES        649 57.42                             129   -0.3810  129 253 
 PTB  HZ I         650  0.78        20.9 0.30            130            129 253 
 OCA  HZ EP        649 41.28                             124   -0.94 9  151   1 
 OCA  HN ES        650  1.51                             124   -0.51 9  151   1 
 OCA  HZ I         650  9.45        14.8 0.42            127            151   1 
 SPBC HZ EP        649 43.55                             123    0.77 9  157 211 
 SPBC HE ES        650  2.25                             123   -0.76 9  157 211 
 SPBC HZ I         650 10.51        11.7 0.20            125            157 211 
 ZAR  HZ EP        649 44.89                             119   -0.26 9  181 292 
 ZAR  HN ES   4    650  9.32                             119    2.08 0  181 292 
 ZAR  HZ I         650 13.69        15.2 0.56            120            181 292 
 SML  HZ EP        649 50.08                             113   -0.21 8  228 339 
 SML  HE ES        650 17.09                             113    0.70 8  228 339 
 SML  HZ I         650 19.77        14.3 0.10            115            228 339 
 CHI  HZ EP        649 53.81                             110    0.29 8  252 190 
 CHI  HN ES        650 22.14                             110    0.00 8  252 190 
 CHI  HZ I         650 29.64         3.0 0.56            112            252 190 
 HEL  HZ EP   4    649 54.76                             110    1.10 0  254 253 
 HEL  HN ES        650 23.36                             110    0.97 8  254 253 
 HEL  HZ I         650 28.04         7.3 0.46            112            254 253 
 GUY2CHZ EP        649 58.63                             107    0.75 7  289 231 
 GUY2CHN ES   4    650 28.33                             107   -1.57 0  289 231 
 GUY2CHZ I         650 37.51         4.9 0.40                           289 231 
 CBOC HZ EP        650  1.46                             105    0.79 7  316 249 
 CBOC HN ES        650 34.36                             105   -0.50 7  316 249 
 CBOC HZ I         650 38.30         2.6 0.26            107            316 249 
 MON  HZ EP   4    650  0.82                             104   -1.51 0  332 310 
 MON  HN ES        650 37.06                             104   -0.75 7  332 310 
 MON  HZ I         650 37.61         1.9 0.30            106            332 310 
                                                                                
