 2014 1121 0423 13.4 L   6.783 -73.184142.0  RSN  7 0.3 1.4LRSN                1
 GAP=133        0.85       3.5     3.5  5.4 -0.3164E+00  0.4985E+01  0.2044E+00E
 Epicentro: LOS SANTOS - SANTANDER                                             3
 ACTION:UPD 14-12-19 15:45 OP:nd   STATUS:               ID:20141121042313 L   I
 OLDACT:REG 14-11-21 12:55 OP:fm   STATUS:               ID:20141121041745     3
 2014-11-21-0417-45M.COL___304                                                 6
 STAT SP IPHASW D HRMM SECON CODA AMPLIT PERI AZIMU VELO AIN AR TRES W  DIS CAZ7
 BAR2 SZ EP        423 32.92                             171    0.4010 21.1 179 
 BAR2 SZ ES        423 47.84                             171    0.4010 21.1 179 
 BAR2 SZ I         423 48.82         8.7 0.22            171           21.1 179 
 BRR  HZ EP        423 34.20                             153    0.2310 68.5 302 
 BRR  HN ES        423 50.31                             153    0.2810 68.5 302 
 BRR  HZ I         423 50.35         8.2 0.34            151           68.5 302 
 PAM  SZ EP        423 35.55                             149    0.0910 81.6  41 
 PAM  SN ES        423 52.11                             149   -0.5710 81.6  41 
 PAM  SZ I         423 54.76         3.5 0.56            152           81.6  41 
 RUS  HZ EP        423 36.57                             143   -0.0910 99.1 174 
 RUS  HN ES        423 54.60                             143   -0.2110 99.1 174 
 RUS  HZ I         423 56.76         2.7 0.22            145           99.1 174 
 PTB  HZ EP        423 39.53                             132   -0.10 9  143 259 
 PTB  HN ES        423 59.69                             132   -0.41 9  143 259 
 PTB  HZ I         424  6.13         2.4 0.42            132            143 259 
 SPBC HZ EP        423 40.82                             129   -0.38 9  159 218 
 SPBC HN ES        424  3.08                             129    0.19 9  159 218 
 SPBC HZ I         424  6.62         3.5 0.28            130            159 218 
 ZAR  HZ EP        423 45.67                             122    0.42 9  201 293 
 ZAR  HN ES        424  9.81                             122   -0.30 9  201 293 
 ZAR  HZ I         424 16.72         2.9 0.28            122            201 293 
                                                                                
