 2013  721 0139  1.4 L   6.751 -73.196143.5  RSN  6 0.2 1.8LRSN                1
 GAP=196        0.53       2.9     3.9  4.6  0.3311E+01  0.4730E+01  0.6847E+00E
 Epicentro: VILLANUEVA - SANTANDER                                             3
 ACTION:UPD 13-08-12 10:39 OP:ep   STATUS:               ID:20130721013901 L   I
 OLDACT:REG 13-07-21 08:51 OP:mh   STATUS:               ID:20130721013735     3
 2013-07-21-0137-35M.COL___227                                                 6
 STAT SP IPHASW D HRMM SECON CODA AMPLIT PERI AZIMU VELO AIN AR TRES W  DIS CAZ7
 BAR2 SZ EP   1    139 20.69                             173    0.07 7 17.6 175 
 BAR2 SZ ES   1    139 35.19                             173   -0.45 7 17.6 175 
 BAR2 SZ I         139 36.49         6.3 0.20            167           17.6 175 
 BRR  HZ EP   1    139 22.18                             153    0.02 7 69.3 305 
 BRR  HN ES        139 38.68                             153    0.3010 69.3 305 
 BRR  HN I         139 42.34        16.2 0.18            146           69.3 305 
 RUS  HZ EP   1    139 24.76                             145    0.21 7 95.8 172 
 RUS  HN ES        139 42.69                             145    0.0610 95.8 172 
 RUS  HN I         139 44.75         9.0 0.36            144           95.8 172 
 PTB  HZ EP   1    139 27.09                             133   -0.47 7  141 261 
 PTB  HN ES   1    139 47.89                             133   -0.11 7  141 261 
 PTB  HN I         139 53.45         8.3 0.44            127            141 261 
 NOR  HZ EP   1    139 36.21                             119    0.07 6  227 235 
 NOR  HN ES   1    140  3.33                             119    0.07 6  227 235 
 NOR  HN I         140 14.40         8.0 0.20            116            227 235 
 SML  HE ES   1    140  6.77                             117   -0.08 6  246 337 
 SML  HE I         140 13.24        10.4 0.10            116            246 337 
                                                                                
