 2011  521 0400 20.8 L   6.773 -73.079138.7  RSN  9 0.3 2.0LRSN                1
 GAP=147        0.81       3.7     6.4  6.0 -0.2383E+01 -0.8548E+01 -0.3330E+01E
 Epicentro: LOS SANTOS - SANTANDER                                             3
 ACTION:UP  11-06-29 08:55 OP:tino STATUS:               ID:20110521040020 L   I
 2011-05-21-0359-46S.COL___141                                                 6
 STAT SP IPHASW D HRMM SECON CODA AMPLIT PERI AZIMU VELO SNR AR TRES W  DIS CAZ7
 BAR2 SZ EP   1    4 0 39.82                             170     0.2 7   23 210 
 BAR2 SZ ES   1    4 0 53.60                             170    -0.6 7   23 210 
 BAR2 SZ I         4 0 55.37        21.3 0.16                            23 210 
 BTL  SZ EP        4 0 39.84                             169     0.210   26 308 
 BTL  SZ ES   1    4 0 54.66                             169     0.3 7   26 308 
 GIR2 SZ EP   1    4 0 39.71                             165    -0.1 7   36 339 
 PAM  SZ EP   1    4 0 42.51                             150     0.4 7   75  34 
 PAM  SN ES   1    4 0 59.19                             150     0.4 7   75  34 
 BRR  HZ EP        4 0 41.52                             148    -0.210   79 298 
 BRR  HN ES        4 0 58.21                             148     0.210   79 298 
 BRR  HZ I         4 1  3.25        23.6 0.13                            79 298 
 RUS  HZ EP   1    4 0 43.50                             143    -0.1 7   97 180 
 RUS  HE ES   1    4 1  1.27                             143    -0.2 7   97 180 
 RUS  HZ I         4 1  2.61         6.3 0.27                            97 180 
 BRI  SZ EP   1    4 0 44.32                             140     0.2 7  109  17 
 GRA  SZ IP        4 0 45.65                             135     0.110  127  14 
 GRA  SZ I         4 0 47.08        19.1 0.25                           127  14 
 GRA  SZ ES   1    4 1  4.07                             135    -0.7 7  127  14 
 OCA  SZ EP   1    4 0 48.46                             127    -0.5 7  164 351 
 OCA  SZ ES   1    4 1 10.75                             127    -0.2 7  164 351 
 OCA  SZ I         4 1 15.36        15.9 0.25                           164 351 
                                                                                
