 2011  621 0800 19.0 L   6.773 -73.091151.5  RSN  9 0.2 1.4LRSN                1
 GAP=162        0.43       2.7     4.9  5.3 -0.3800E+01  0.8080E+00 -0.2530E+00E
 Epicentro: LOS SANTOS - SANTANDER                                             3
 ACTION:UP  11-07-14 19:06 OP:ep   STATUS:               ID:20110621080019 L   I
 2011-06-21-0759-10S.COL___140                                                 6
 STAT SP IPHASW D HRMM SECON CODA AMPLIT PERI AZIMU VELO SNR AR TRES W  DIS CAZ7
 BAR2 SZ EP   1    8 0 39.26                             171    -0.1 7   22 207 
 BAR2 SZ ES   2    8 0 55.36                             171     0.2 5   22 207 
 BAR2 SZ I         8 0 56.91         5.3 0.19                            22 207 
 BTL  SZ EP   1    8 0 39.49                             170     0.1 7   25 310 
 GIR2 SZ EP   1    8 0 39.53                             166     0.0 7   36 342 
 BRR  HZ EP        8 0 41.23                             151     0.010   78 298 
 BRR  HE ES   2    8 0 58.64                             151     0.2 5   78 298 
 BRR  HZ I         8 1  0.92         7.9 0.15                            78 298 
 RUS  HZ EP   1    8 0 43.13                             146     0.0 7   97 179 
 RUS  HZ I         8 0 44.33         2.9 0.46                            97 179 
 RUS  HE ES   2    8 1  1.72                             146    -0.2 5   97 179 
 BRI  SZ ES   2    8 1  3.07                             142     0.4 5  109  17 
 BRI  SZ I         8 1  4.58         3.3 0.36                           109  17 
 GRA  SZ EP   1    8 0 44.95                             138     0.1 7  127  14 
 GRA  SZ ES   2    8 1  4.54                             138    -0.5 5  127  14 
 GRA  SZ I         8 1  7.95         3.4 0.25                           127  14 
 OCA  SZ EP   2    8 0 48.33                             130     0.2 5  164 351 
 OCA  SZ ES   2    8 1 10.43                             130    -0.4 5  164 351 
 OCA  SZ I         8 1 12.82         4.0 0.56                           164 351 
 NOR  SN ES   2    8 1 23.65                             119    -0.2 4  238 236 
                                                                                
