 2017  621 0115 35.6 L   6.826 -73.082147.1  RSN 17 0.5 2.3LRSN                1
 GAP=104        1.06       4.7     3.4  6.6  0.4064E+01  0.4578E+01  0.5909E+01E
 Epicentro: LOS SANTOS - SANTANDER                                             3
 ACTION:UPD 17-09-14 16:53 OP:jn   STATUS:               ID:20170621011535 L   I
 OLDACT:REG 17-06-21 12:24 OP:lv   STATUS:               ID:20170621010729     3
 2017-06-21-0108-00M.COL___346                                                 6
 STAT SP IPHASW D HRMM SECON CODA AMPLIT PERI AZIMU VELO AIN AR TRES W  DIS CAZ7
 BRR  HZ EP        115 57.55                             151    0.4010 76.3 294 
 BRR  HE ES        116 14.62                             151    0.6310 76.3 294 
 TAM  HZ EP   4    116  3.66                             132    0.86 0  149 107 
 TAM  HN ES        116 23.56                             132   -0.48 9  149 107 
 TAM  HZ I         116 24.83        10.5 0.15            136            149 107 
 PTB  HZ EP   9    116  2.44                             131   -0.89 0  155 258 
 PTB  HN ES        116 23.28                                   -0.82 9  155 258 
 PTB  HZ I         116 29.35        16.7 0.06            130            155 258 
 SPBC HZ EP        116  4.37                             128   -0.43 9  170 220 
 SPBC HN ES        116 27.09                             128   -0.52 9  170 220 
 SPBC HZ I         116 31.92        36.2 0.19            128            170 220 
 YPLC HZ EP        116  5.66                             127    0.28 9  176 154 
 YPLC HN ES        116 28.51                             127   -0.13 9  176 154 
 ZAR  HZ EP        116  8.26                             122   -0.41 8  210 291 
 ZAR  HN ES        116 34.33                             122   -0.17 8  210 291 
 ZAR  HZ I         116 40.60        26.3 0.06            122            210 291 
 NOR  HZ EP        116 11.58                             118   -0.59 8  242 235 
 NOR  HN ES   4    116 39.87                             118   -0.85 0  242 235 
 ROSC BZ EP        116 15.35                             116    0.92 8  259 212 
 ROSC BN ES   4    116 49.39                             116    4.65 0  259 212 
 ROSC BZ I         116 51.45        22.2 0.33            117            259 212 
 HEL  HZ EP        116 17.20                             114    0.52 7  280 256 
 HEL  HN ES        116 48.66                             114   -0.10 7  280 256 
 HEL  HZ I         116 54.29        14.1 0.35            115            280 256 
 URE  HZ EP   4    116 12.38                             113   -4.94 0  289 291 
 URE  HN ES   4    116 46.67                             113   -3.22 0  289 291 
 URE  HZ I         116 58.58        18.6 0.08            114            289 291 
 PTGC HZ EP   4    116 18.34                             112   -1.16 0  309 160 
 PTGC HN ES   4    116 51.74                             112   -2.03 0  309 160 
 PTGC HZ I         116 54.17         7.1 0.18            113            309 160 
 GUY2CHZ EP        116 20.49                             112    0.42 7  309 235 
 GUY2CHN ES        116 55.18                             112    0.39 7  309 235 
 GUY2CHZ I         117  2.30        13.1 0.52                           309 235 
 LL6C HZ EP   4    117 16.33                             110   55.29 0  322 356 
 LL6C HN ES   4    117 51.36                             110   54.85 0  322 356 
 RECRCHZ EP   4    116 24.45                             111    2.40 0  325 231 
 RECRCHE ES   4    116 55.74                             111   -2.57 0  325 231 
 ELA  HZ EP   9    116 24.99                             110    1.69 0  336 230 
 ELA  HN ES        117  2.50                                    0.28 7  336 230 
 ELA  HZ I         117  6.82         6.8 0.19            111            336 230 
 CBOC HZ EP        116 23.56                             109    0.15 7  341 252 
 CBOC HN ES        117  0.32                             109   -0.41 7  341 252 
 CBOC HZ I         117  7.27         3.7 0.36            110            341 252 
 DBB  EZ EP        116 23.00                             109   -0.88 6  346 274 
 DBB  EN ES   4    116 58.47                             109   -3.11 0  346 274 
 DBB  EZ I         117  4.90        10.9 0.05            110            346 274 
 ORTC HZ EP        116 30.55                             106    0.26 6  402 217 
 ORTC HN ES   1    117 13.24                             106    0.27 4  402 217 
 ORTC HZ I         117 18.45         8.6 0.19            107            402 217 
 CRJC HZ EP   9    116 35.53                             103   -2.19 0  464   3 
 CRJC HN ES        117 23.81                                   -0.20 5  464   3 
                                                                                
