 2014 1121 0801 30.9 L   6.679 -73.628 96.9  RSN  5 0.4 0.8LRSN                1
 GAP=115        0.90       5.3     4.6  7.6  0.1566E+02  0.1375E+02  0.1178E+02E
 Epicentro: EL CARMEN - SANTANDER                                              3
 ACTION:UPD 14-12-19 15:45 OP:nd   STATUS:               ID:20141121080130 L   I
 OLDACT:REG 14-11-21 13:08 OP:fm   STATUS:               ID:20141121075748     3
 2014-11-21-0757-48M.COL___301                                                 6
 STAT SP IPHASW D HRMM SECON CODA AMPLIT PERI AZIMU VELO AIN AR TRES W  DIS CAZ7
 BRR  HN ES        8 1 56.59                             152   -0.2710 48.3 349 
 BAR2 SZ ES   1    8 1 57.97                             151    0.29 7 50.2 101 
 BAR2 SZ I         8 1 58.84         3.3 0.20            152           50.2 101 
 PTB  HZ EP        8 1 48.19                             133   -0.7410 92.9 260 
 PTB  HN ES        8 2  3.27                             133    0.3010 92.9 260 
 PTB  HZ I         8 2  4.60         1.0 0.36            134           92.9 260 
 RUS  HZ EP        8 1 50.94                             129    0.1710  106 145 
 RUS  HN ES        8 2  6.20                             129   -0.0510  106 145 
 RUS  HZ I         8 2  7.92         1.4 0.46            130            106 145 
 ZAR  HZ EP        8 1 56.38                             116    0.29 9  163 304 
 ZAR  HN ES        8 2 15.94                             116    0.22 9  163 304 
                                                                                
