 2011  521 0434 14.1 L   6.808 -73.094136.3  RSN  8 0.3 1.5LRSN                1
 GAP=143        0.65       3.5     6.2  5.9 -0.1960E+01 -0.2929E+01 -0.2176E+01E
 Epicentro: LOS SANTOS - SANTANDER                                             3
 ACTION:UP  11-06-29 08:55 OP:tino STATUS:               ID:20110521043414 L   I
 2011-05-21-0430-49S.COL___141                                                 6
 STAT SP IPHASW D HRMM SECON CODA AMPLIT PERI AZIMU VELO SNR AR TRES W  DIS CAZ7
 BTL  SZ EP   1    434 32.82                             170     0.2 7   23 303 
 BAR2 SZ EP   1    434 32.46                             169    -0.2 7   26 202 
 BAR2 SZ ES   1    434 47.35                             169     0.2 7   26 202 
 BAR2 SZ I         434 48.44         8.1 0.24                            26 202 
 GIR2 SZ EP   1    434 32.75                             166     0.0 7   32 340 
 PAM  SZ EP   1    434 35.56                             150     0.5 7   73  37 
 PAM  SN ES   1    434 51.48                             150     0.0 7   73  37 
 BRR  HZ EP   1    434 34.25                             149    -0.3 7   76 296 
 BRR  HZ I         434 36.46         8.0 0.06                            76 296 
 BRR  HE ES   1    434 50.52                             149     0.0 7   76 296 
 RUS  HZ EP   1    434 37.17                             142     0.2 7  101 179 
 RUS  HE ES   2    434 54.30                             142    -0.6 5  101 179 
 GRA  SZ EP   1    434 38.26                             135    -0.1 7  123  15 
 GRA  SZ ES   2    434 56.39                             135    -0.8 5  123  15 
 GRA  SZ I         434 59.12         4.3 0.47                           123  15 
 OCA  SZ EP   1    434 41.49                             127    -0.2 7  160 351 
 OCA  SZ ES   1    435  3.56                             127     0.3 7  160 351 
 OCA  SZ I         435  6.32         4.2 0.32                           160 351 
                                                                                
