 2014 1021 0604 18.9 L   6.728 -73.579112.6  RSN  8 0.4 1.5LRSN                1
 GAP=122        0.84       3.5     3.9  6.1  0.3019E+01  0.2679E+01 -0.3876E+01E
 Epicentro: EL CARMEN - SANTANDER                                              3
 ACTION:UPD 14-11-29 23:52 OP:nd   STATUS:               ID:20141021060418 L   I
 OLDACT:DUP 14-10-23 00:12 OP:spq  STATUS:               ID:20141021055752d    3
 2014-10-21-0557-45M.COL___268                                                 6
 STAT SP IPHASW D HRMM SECON CODA AMPLIT PERI AZIMU VELO AIN AR TRES W  DIS CAZ7
 BRR  HZ EP        6 4 35.30                             157    0.2710 44.4 341 
 BRR  HE ES        6 4 47.97                             157    0.3910 44.4 341 
 BRR  HZ I         6 4 48.59         7.6 0.14            157           44.4 341 
 BAR2 SZ EP        6 4 35.63                             156    0.1610 46.4 109 
 BAR2 SZ ES   1    6 4 48.09                             156   -0.29 7 46.4 109 
 BAR2 SZ I         6 4 49.06        15.5 0.46            159           46.4 109 
 PTB  HZ EP        6 4 38.81                             136   -0.0110 99.2 258 
 PTB  HE ES        6 4 53.72                             136   -0.6210 99.2 258 
 PTB  HZ I         6 4 54.57         8.2 0.10            132           99.2 258 
 RUS  HZ EP   1    6 4 39.83                             133   -0.36 7  107 149 
 RUS  HN ES   1    6 4 56.45                             133   -0.33 7  107 149 
 RUS  HZ I         6 4 58.42         4.2 0.30            133            107 149 
 SPBC HN ES   1    6 5  0.35                             127    0.64 7  131 205 
 SPBC HZ I         6 5  7.10         3.3 0.46            124            131 205 
 ZAR  HZ EP   1    6 4 45.44                             120    0.27 7  165 301 
 ZAR  HN ES   1    6 5  5.57                             120   -0.06 7  165 301 
 ZAR  HZ I         6 5 13.18         6.3 0.10            119            165 301 
 SML  HZ EP   1    6 4 53.53                             110    0.53 6  236 347 
 SML  HE ES   1    6 5 19.19                             110   -0.39 6  236 347 
 SJC  HZ EP   1    6 5 10.92                             100   -0.64 4  392 333 
 SJC  HE ES   4    6 5 51.19                             100   -1.43 0  392 333 
 SJC  HZ I         6 5 54.86         0.8 0.62            100            392 333 
                                                                                
