 2015  921 0539 24.7 L   6.557 -73.568104.8  RSN 16 0.5 2.2LRSN                1
 GAP= 59        1.19       2.6     3.2  5.8 -0.1592E+01  0.6322E+01 -0.1092E-01E
 Epicentro: EL CARMEN - SANTANDER                                              3
 ACTION:UPD 15-10-28 16:27 OP:cam  STATUS:               ID:20150921053925dL   I
 OLDACT:UP  15-09-21 16:09 OP:mh   STATUS:               ID:20150921053748     3
 OLDACT:UP  15-09-21 16:09 OP:mh   STATUS:               ID:20150921053748     3
 OLDACT:UP  15-09-21 16:06 OP:mh   STATUS:               ID:20150921053748     3
 OLDACT:REG 15-09-21 12:41 OP:mh   STATUS:               ID:20150921053748     3
 2015-09-21-0537-48M.COL___355                                                 6
 STAT SP IPHASW D HRMM SECON CODA AMPLIT PERI AZIMU VELO AIN AR TRES W  DIS CAZ7
 BAR2 EZ IP     D  539 40.53                             156    0.2910 42.8  85 
 BAR2 EZ ES        539 52.74                             156    0.4210 42.8  85 
 BRR  HZ IP     C  539 40.56                             147   -0.5010 62.9 345 
 BRR  HZ EP        539 41.34                             147    0.2810 62.9 345 
 BRR  HN ES        539 54.45                             147    0.6610 62.9 345 
 BRR  HZ I         540  4.47        18.9 0.23            145           62.9 345 
 RUS  HZ EP        539 43.56                             136   -0.3510 91.0 144 
 RUS  HN ES        539 58.72                             136   -0.1310 91.0 144 
 RUS  HZ I         539 59.96        19.2 0.58            142           91.0 144 
 PTB  HZ IP     D  539 43.34                             133   -0.5410 98.2 269 
 PTB  HN ES        539 58.06                             133   -0.7510 98.2 269 
 PTB  HZ I         539 59.22        50.3 0.44            134           98.2 269 
 SPBC HZ EP        539 45.32                             128   -0.1710  115 209 
 SPBC HN ES        540  1.44                             128   -0.2410  115 209 
 SPBC HZ I         540  3.30        45.3 0.38            132            115 209 
 PAM  EZ EP        539 47.38                             125   -0.0710  129  48 
 PAM  EN ES        540  4.94                             125   -0.2310  129  48 
 PAM  EZ I         540  6.61        23.8 0.26            127            129  48 
 ZAR  HZ EP        539 52.51                             116    0.74 9  176 306 
 ZAR  HE ES   4    540 14.96                             116    2.10 0  176 306 
 ZAR  HZ I         540 17.13        18.5 0.50            116            176 306 
 NOR  HZ EP        539 52.05                             115   -0.34 9  181 233 
 NOR  HE ES        540 13.37                             115   -0.59 9  181 233 
 NOR  HZ I         540 16.94        15.3 0.52            117            181 233 
 OCA  HZ EP        539 52.88                             114   -0.40 9  188   8 
 OCA  HE ES        540 15.81                             114    0.27 9  188   8 
 OCA  HZ I         540 21.79        41.4 0.21            115            188   8 
 CHI  HZ EP        539 56.31                             111   -0.23 8  214 185 
 CHI  HN ES        540 21.97                             111    0.63 8  214 185 
 HEL  HZ EP        539 58.07                             110    0.82 8  221 260 
 HEL  HN ES        540 23.20                             110    0.59 8  221 260 
 HEL  HZ I         540 26.54         9.7 0.28            112            221 260 
 GUY2CHZ EP        540  1.22                             107    0.72 8  248 234 
 GUY2CHN ES   4    540 29.63                             107    1.24 0  248 234 
 GUY2CHZ I         540 33.69        12.2 0.66                           248 234 
 URE  HZ I         540 39.79         8.5 0.20            108            254 301 
 SML  HZ I         540 34.99        31.7 0.26            108            254 347 
 URE  HN ES        540 28.41                             106   -0.29 8  254 301 
 SML  HZ EP        540  0.52                             106   -0.16 8  254 347 
 SML  HN ES   4    540 30.33                             106    1.62 0  254 347 
 URE  HZ EP        540  0.55                             106   -0.13 8  254 301 
 PTGC HZ EP   4    540  4.91                             103   -1.82 0  305 149 
 PTGC HN ES   4    540 37.33                             103   -2.15 0  305 149 
 PTGC HZ I         540 43.48        10.6 0.64            105            305 149 
 PRA  HZ EP        540 11.08                             100   -0.64 6  347 205 
 PRA  HN ES        540 49.47                             100    1.11 6  347 205 
 PRA  HZ I         540 51.84         5.9 0.26            102            347 205 
                                                                                
