 2017 1121 0952  1.4 L   6.805 -73.153146.0  RSN  7 0.4 1.6LRSN                1
 GAP=147        0.74       3.6     3.4  5.5 -0.2290E+01  0.5690E+01  0.4934E+01E
 Epicentro: LOS SANTOS - SANTANDER                                             3
 ACTION:UPD 17-12-12 19:58 OP:rebc STATUS:               ID:20171121095201 L   I
 OLDACT:UP  17-11-21 14:30 OP:dani STATUS:               ID:20171121094743     3
 OLDACT:REG 17-11-21 13:01 OP:edw  STATUS:               ID:20171121094743     3
 2017-11-21-0948-00M.COL___468                                                 6
 STAT SP IPHASW D HRMM SECON CODA AMPLIT PERI AZIMU VELO AIN AR TRES W  DIS CAZ7
 BAR2 EZ EP        952 21.09                             170    0.0610 23.8 188 
 BAR2 EZ ES        952 36.17                             170   -0.2010 23.8 188 
 BAR2 EZ I         952 37.62        12.6 0.16            168           23.8 188 
 PAM  EZ EP        952 23.48                             151   -0.1310 77.5  40 
 PAM  EE ES        952 41.33                             151    0.3710 77.5  40 
 PAM  EZ I         952 43.37         6.6 0.50            155           77.5  40 
 PTB  HZ EP        952 27.82                             132   -0.47 9  147 259 
 PTB  HN ES        952 49.11                             132   -0.17 9  147 259 
 PTB  HZ I         952 50.97         4.9 0.40            132            147 259 
 ZAR  HZ EP   1    952 33.66                             123   -0.06 6  203 292 
 ZAR  HE ES        952 58.97                             123    0.01 9  203 292 
 ZAR  HZ I         953  5.26         3.2 0.11            123            203 292 
 NOR  HZ EP        952 37.22                             119    0.15 8  234 234 
 NOR  HN ES        953  5.64                             119    0.72 8  234 234 
 NOR  HZ I         953 12.67         3.3 0.16            119            234 234 
 CHI  HZ EP        952 38.97                             117   -0.14 8  249 195 
 CHI  HN ES        953  8.45                             117   -0.11 8  249 195 
 CHI  HZ I         953 16.73         1.8 0.48            118            249 195 
 GUY2CHZ EP   3    952 47.07                             112    2.13 2  301 235 
                                                                                
