 2016  421 0955 29.6 L   6.788 -73.135151.0  RSN  4 0.4 1.5LRSN                1
 GAP=138        0.99       5.4     6.2  8.4  0.3485E+01  0.2004E+02 -0.5912E+01E
 Epicentro: LOS SANTOS - SANTANDER                                             3
 ACTION:UPD 16-05-05 14:23 OP:rebc STATUS:               ID:20160421095529 L   I
 OLDACT:ARG 16-04-21 12:49 OP:cara STATUS:               ID:20160421094745     3
 2016-04-21-0947-45M.COL___295                                                 6
 STAT SP IPHASW D HRMM SECON CODA AMPLIT PERI AZIMU VELO AIN AR TRES W  DIS CAZ7
 BAR2 EZ EP        955 50.60                             171    0.7210 22.3 194 
 BAR2 EZ ES        956  5.79                             171    0.1210 22.3 194 
 BAR2 EZ I         956  7.47         5.4 0.26            170           22.3 194 
 PAM  EZ EP        955 52.72                             152    0.2910 77.7  38 
 PAM  EE ES        956  9.84                             152   -0.3710 77.7  38 
 RUS  HZ EP        955 53.24                             145   -0.5810 99.2 177 
 RUS  HE ES        956 12.65                             145   -0.0210 99.2 177 
 RUS  HZ I         956 13.72         3.8 0.28            147           99.2 177 
 ZAR  HZ EP        956  2.44                             123   -0.15 8  206 292 
 ZAR  HE ES        956 28.24                             123   -0.05 8  206 292 
 ZAR  HZ I         956 33.65         4.2 0.44            123            206 292 
                                                                                
