 2017  721 0347 39.2 L   6.769 -73.151154.0  RSN  4 0.3 1.2LRSN                1
 GAP=249        0.65       8.0     4.9  6.6  0.1593E+02  0.4307E+01 -0.5860E+01E
 Epicentro: LOS SANTOS - SANTANDER                                             3
 ACTION:UPD 17-08-30 15:35 OP:rebc STATUS:               ID:20170721034739 L   I
 OLDACT:REG 17-07-21 12:27 OP:dnl  STATUS:               ID:20170721033736     3
 2017-07-21-0338-00M.COL___383                                                 6
 STAT SP IPHASW D HRMM SECON CODA AMPLIT PERI AZIMU VELO AIN AR TRES W  DIS CAZ7
 BAR2 EZ EP        347 59.71                             172   -0.0710 19.9 190 
 BAR2 EZ ES        348 15.71                             172   -0.1110 19.9 190 
 BAR2 EZ I         348 17.02         4.1 0.72            168           19.9 190 
 BRR  HZ EP        348  1.75                             153    0.4210 72.4 301 
 BRR  HN ES        348 18.45                             153   -0.1210 72.4 301 
 BRR  HZ I         348 21.82         3.5 0.26            151           72.4 301 
 PTB  HZ EP   2    348  6.02                             134   -0.75 5  147 260 
 PTB  HE ES        348 28.43                             134    0.18 9  147 260 
 PTB  HZ I         348 33.69         1.0 0.22            132            147 260 
 ZAR  HE ES        348 37.93                             124   -0.16 9  205 293 
 ZAR  HZ I         348 41.68         1.9 0.28            124            205 293 
                                                                                
