 2013  221 0124 49.3 L   7.428 -73.198131.6  RSN  9 0.4 1.6LRSN                1
 GAP=109        0.90       3.9     4.5  6.9  0.2595E+01  0.3644E+01  0.6052E+01E
 Epicentro: EL PLAYON - SANTANDER                                              3
 ACTION:UPD 13-03-12 09:34 OP:ep   STATUS:               ID:20130221012449 L   I
 2013-02-21-0120-00M.COL___238                                                 6
 STAT SP IPHASW D HRMM SECON CODA AMPLIT PERI AZIMU VELO AIN AR TRES W  DIS CAZ7
 PAM  SZ EP        125  9.10                             156    0.3310 55.9 100 
 PAM  SN ES   1    125 23.95                             156   -0.02 7 55.9 100 
 PAM  SZ I         125 25.83         7.9 0.36            139           55.9 100 
 BRR  HZ EP        125  8.77                             151    0.1210 66.9 238 
 BRR  HN ES        125 24.00                             151    0.2310 66.9 238 
 BRR  HZ I         125 24.48        15.4 0.12            137           66.9 238 
 OCA  HN ES   1    125 27.01                             143    0.06 7 90.7 352 
 BAR2 SZ EP   1    125 11.06                             143    0.37 7 92.4 179 
 BAR2 SZ ES   1    125 27.25                             143   -0.14 7 92.4 179 
 RUS  HZ EP        125 17.66                             125   -0.30 9  170 176 
 RUS  HN ES   1    125 39.58                             125   -0.76 7  170 176 
 RUS  HZ I         125 44.36         3.3 0.42            109            170 176 
 PTB  HZ EP        125 17.02                             124   -0.32 9  170 235 
 PTB  HN ES   1    125 38.90                             124   -0.32 7  170 235 
 PTB  HZ I         125 41.63         4.4 0.40            110            170 235 
 SML  HN ES   1    125 40.05                             123   -0.85 7  180 328 
 ZAR  HN ES   1    125 42.17                             122    0.58 7  183 272 
 ZAR  HZ I         125 46.54         6.0 0.20            109            183 272 
 CHI  HZ EP   1    125 34.83                             108    1.05 5  315 191 
 CHI  HZ I         126 15.38         1.2 0.46            100            315 191 
                                                                                
