 2016  321 0741 22.7 L   6.806 -73.187148.0  RSN  5 0.3 1.3LRSN                1
 GAP=179        0.76       3.2     4.9  6.3 -0.1705E+01  0.6553E+01 -0.2170E+01E
 Epicentro: ZAPATOCA - SANTANDER                                               3
 ACTION:UPD 16-05-13 21:25 OP:cam  STATUS:               ID:20160321074122 L   I
 OLDACT:REG 16-03-21 12:49 OP:ak   STATUS:               ID:20160321073742     3
 2016-03-21-0737-42M.COL___282                                                 6
 STAT SP IPHASW D HRMM SECON CODA AMPLIT PERI AZIMU VELO AIN AR TRES W  DIS CAZ7
 BAR2 EZ EP        741 42.72                             170    0.1110 23.7 179 
 BAR2 EZ ES        741 58.36                             170    0.2310 23.7 179 
 BAR2 EZ I         741 59.09         5.9 0.24            169           23.7 179 
 RUS  HZ EP        741 46.36                             144   -0.3910  102 174 
 RUS  HE ES        742  5.30                             144   -0.2110  102 174 
 RUS  HZ I         742  6.43         2.6 0.28            144            102 174 
 PTB  HZ EP        741 49.17                             133   -0.30 9  143 258 
 PTB  HN ES        742 10.14                             133   -0.20 9  143 258 
 PTB  HZ I         742 12.90         2.4 0.18            133            143 258 
 OCA  HZ EP   2    741 51.77                             130    0.69 5  159 355 
 OCA  HN ES        742 13.13                             130   -0.08 9  159 355 
 SPBC HZ EP        741 51.69                             130    0.53 9  161 218 
 SPBC HE ES        742 13.58                             130    0.22 9  161 218 
 SPBC HZ I         742 18.42         3.2 0.20            130            161 218 
                                                                                
