 2012  221 0254 48.7 L   6.748 -73.179138.3  RSN  4 0.2 1.0LRSN                1
 GAP=176        0.43       4.5     5.4  6.6  0.7606E+01 -0.6885E+01  0.6299E+01E
 ACTION:UP  12-03-07 16:32 OP:epov STATUS:               ID:20120221025448 L   I
 2012-02-21-0250-00M.COL___191                                                 6
 STAT SP IPHASW D HRMM SECON CODA AMPLIT PERI AZIMU VELO AIN AR TRES W  DIS CAZ7
 GIR2 SZ EP   1    255  7.64                             164   -0.03 7 36.6 357 
 GIR2 SZ ES   2    255 22.15                             164   -0.30 5 36.6 357 
 BRR  HZ EP   1    255  9.33                             151    0.27 7 71.1 304 
 BRR  HE ES   1    255 24.99                             151    0.06 7 71.1 304 
 BRR  HZ I         255 29.45         3.2 0.15                          71.1 304 
 RUS  HZ EP   1    255 11.14                             144   -0.21 7 95.2 174 
 RUS  HZ I         255 11.95         1.0 0.25                          95.2 174 
 RUS  HE ES   2    255 29.26                             144    0.26 5 95.2 174 
 PTB  HN ES   2    255 34.70                             131   -0.20 5  143 261 
                                                                                
