 2016 1121 0552  1.1 L   6.691 -73.346124.2  RSN  4 0.3 1.1LRSN                1
 GAP=162        0.69       6.4     4.3  5.6  0.9062E+01  0.8876E+01  0.1821E+00E
 Epicentro: GALAN - SANTANDER                                                  3
 ACTION:UPD 17-10-26 21:10 OP:lp   STATUS:               ID:20161121055201 L   I
 OLDACT:REG 16-11-21 14:34 OP:edw  STATUS:               ID:20161121054748     3
 2016-11-21-0548-00M.COL___342                                                 6
 STAT SP IPHASW D HRMM SECON CODA AMPLIT PERI AZIMU VELO AIN AR TRES W  DIS CAZ7
 BAR2 EZ EP        552 18.40                             170    0.3510 21.1 121 
 BAR2 EZ ES        552 31.40                             170    0.1010 21.1 121 
 BRR  HZ EP        552 18.96                             152   -0.3610 61.3 319 
 BRR  HN ES        552 33.36                             152   -0.2010 61.3 319 
 PTB  HZ EP        552 23.99                             132   -0.1210  124 262 
 PTB  HN ES        552 41.98                             132   -0.1010  124 262 
 PTB  HZ I         552 45.78         2.2 0.11            130            124 262 
 ZAR  HZ EP        552 30.53                             119   -0.06 9  189 298 
 ZAR  HN ES        552 54.10                             119    0.48 9  189 298 
 ZAR  HZ I         552 58.55         1.3 0.18            119            189 298 
                                                                                
