 2015  221 0152 40.1 L   6.819 -73.166142.4  RSN 22 0.5 2.7LRSN                1
 GAP= 69        1.13       2.4     2.9  4.9 -0.5860E+00  0.5110E+01  0.1021E+01E
 Epicentro: LOS SANTOS - SANTANDER                                             3
 ACTION:UPD 15-04-30 21:28 OP:nd   STATUS:               ID:20150221015240 L   I
 OLDACT:REG 15-02-21 12:34 OP:fm   STATUS:               ID:20150221014748     3
 2015-02-21-0147-48M.COL___284                                                 6
 STAT SP IPHASW D HRMM SECON CODA AMPLIT PERI AZIMU VELO AIN AR TRES W  DIS CAZ7
 BAR2 EZ EP        152 59.66                             170    0.2810 25.1 184 
 BAR2 EZ ES        153 14.44                             170    0.0410 25.1 184 
 BAR2 EZ I         153 15.66        76.8 0.12            169           25.1 184 
 BRR  HZ EP     C  153  1.60                             153    0.8610 68.2 298 
 BRR  HE ES        153 17.89                             153    1.0810 68.2 298 
 BRR  HZ I         153 22.73        89.1 0.12            152           68.2 298 
 PAM  SZ IP     D  153  2.50                             150    0.5210 77.3  42 
 PAM  SE ES        153 18.67                             150   -0.3510 77.3  42 
 PAM  SZ I         153 21.95       122.0 0.64            154           77.3  42 
 RUS  HZ EP        153  3.61                             142   -0.1010  103 175 
 RUS  HE ES        153 21.40                             142   -0.7010  103 175 
 RUS  HZ I         153 23.38        47.5 0.34            145            103 175 
 PTB  HZ EP        153  6.59                             132   -0.06 9  146 258 
 PTB  HE ES        153 27.52                             132    0.18 9  146 258 
 PTB  HZ I         153 32.09        68.0 0.40            132            146 258 
 TAM  HZ IP     D  153  7.94                             129    0.15 9  158 105 
 TAM  HE ES        153 29.11                             129   -0.26 9  158 105 
 TAM  HZ I         153 30.91        24.7 0.30            134            158 105 
 OCA  HZ EP        153  7.86                             129   -0.10 9  158 354 
 OCA  HE ES        153 29.22                             129   -0.44 9  158 354 
 OCA  HZ I         153 34.12        58.4 0.24            132            158 354 
 SPBC HZ EP     C  153  8.63                             128    0.25 9  163 218 
 SPBC HE ES        153 29.39                             128   -1.03 9  163 218 
 SPBC HZ I         153 35.54        91.5 0.28            130            163 218 
 NOR  HZ EP        153 15.85                             118    0.26 8  234 234 
 NOR  HE ES        153 43.31                             118    0.06 8  234 234 
 NOR  HZ I         153 49.98        43.0 0.38            119            234 234 
 SML  HZ EP        153 15.96                             117   -0.30 8  241 336 
 SML  HE ES        153 44.35                             117   -0.09 8  241 336 
 SML  HZ I         153 52.91        76.8 0.10            119            241 336 
 CHI  HZ EP        153 17.73                             116   -0.06 8  250 195 
 CHI  HN ES        153 46.72                             116   -0.45 8  250 195 
 CHI  HZ I         153 53.12        24.2 0.34            118            250 195 
 ROSC BZ EP        153 18.76                             116    0.63 8  253 210 
 ROSC BE ES        153 48.11                             116    0.34 8  253 210 
 ROSC BZ I         153 55.15        47.6 0.30            118            253 210 
 URE  HZ EP        153 20.14                             113   -0.57 7  281 292 
 URE  HE ES        153 52.06                             113   -0.30 7  281 292 
 URE  HZ I         153 57.46        39.4 0.14            115            281 292 
 GUY2CHZ EP        153 23.96                             112    0.46 7  301 234 
 GUY2CHE ES        153 57.44                             112    0.10 7  301 234 
 GUY2CHZ I         154  6.31        27.2 0.26                           301 234 
 PTGC HZ EP   4    153 22.64                             111   -1.50 0  311 158 
 PTGC HE ES   4    153 52.47                             111   -6.01 0  311 158 
 PTGC HZ I         153 58.43        26.2 0.30            113            311 158 
 CBOC HZ EP        153 27.63                             109    0.90 7  332 252 
 CBOC HN ES        154  2.53                             109   -0.54 7  332 252 
 CBOC HZ I         154 10.62         7.0 0.40            111            332 252 
 DBB  SZ EP        153 27.45                             109    0.26 7  337 274 
 DBB  SZ ES        154  3.57                             109   -0.32 7  337 274 
 MON  HZ EP        153 27.34                             108   -1.30 6  351 308 
 MON  HE ES        154  6.00                             108   -0.48 6  351 308 
 MON  HZ I         154  8.68        14.4 0.12            110            351 308 
 PRA  HZ EP        153 33.23                             106   -0.38 6  393 209 
 PRA  HE ES        154 15.55                             106    0.22 6  393 209 
 PRA  HZ I         154 21.25        23.2 0.20            108            393 209 
 ORTC HZ EP        153 34.26                             106    0.29 6  396 216 
 ORTC HE ES        154 16.02                             106    0.05 6  396 216 
 ORTC HZ I         154 21.21        16.6 0.36            107            396 216 
 PAL  HZ EP     C  153 35.63                             105    0.56 6  405 239 
 PAL  HE ES        154 17.19                             105   -0.73 6  405 239 
 PAL  HZ I         154 22.65        13.0 0.18            107            405 239 
 MACC HZ EP   4    153 46.57                             101   -2.39 0  522 188 
 MACC HE ES   4    154 37.73                             101   -4.91 0  522 188 
 MACC HZ I         154 41.78         4.8 0.48            103            522 188 
                                                                                
