 2012  121 0252 41.0 L   6.798 -73.125144.0  RSN  6 0.3 1.7LRSN                1
 GAP=139        0.85       4.2     4.9  6.1 -0.3365E+01  0.4305E+01 -0.1535E+01E
 Epicentro: LOS SANTOS - SANTANDER                                             3
 ACTION:UP  12-02-03 08:19 OP:REBC STATUS:               ID:20120121025241 L   I
 2012-01-21-0250-00M.COL___186                                                 6
 STAT SP IPHASW D HRMM SECON CODA AMPLIT PERI AZIMU VELO SNR AR TRES W  DIS CAZ7
 BAR2 SZ EP        253  0.49                             170     0.110   24 196 
 BAR2 SZ ES        253 15.46                             170    -0.110   24 196 
 BAR2 SZ I         253 17.23         9.3 0.15                            24 196 
 BRR  HZ EP        253  2.06                             151     0.010   73 298 
 BRR  HZ I         253  3.61        20.3 0.11                            73 298 
 BRR  HN ES        253 19.02                             151     0.510   73 298 
 PAM  SZ EP        253  2.99                             151     0.010   76  38 
 PAM  SE ES        253 19.79                             151    -0.310   76  38 
 RUS  HZ EP   1    253  4.79                             144     0.2 7  100 177 
 RUS  HN ES   1    253 23.13                             144     0.2 7  100 177 
 RUS  HZ I         253 25.48         3.3 0.41                           100 177 
 PTB  HZ EP        253  7.53                             131    -0.5 9  150 259 
 PTB  HN ES   1    253 28.85                             131    -0.3 7  150 259 
 OCA  SZ EP   1    253  9.86                             129     0.6 7  161 352 
 OCA  SZ ES   1    253 31.02                             129    -0.2 7  161 352 
 OCA  SZ I         253 34.93         6.6 0.35                           161 352 
                                                                                
