 2016  221 0905 33.0 L   5.902 -73.716118.9  RSN  6 0.3 1.0LRSN                1
 GAP= 90        0.83       2.9     3.8  7.0 -0.2686E+00  0.3470E+01 -0.2905E+01E
 Epicentro: PUENTE NACIONAL - SANTANDER                                        3
 ACTION:UPD 16-03-04 21:28 OP:rebc STATUS:               ID:20160221090533 L   I
 OLDACT:DUP 16-02-21 16:48 OP:drio STATUS:               ID:20160221085744d    3
 2016-02-21-0857-43M.COL___309                                                 6
 STAT SP IPHASW D HRMM SECON CODA AMPLIT PERI AZIMU VELO AIN AR TRES W  DIS CAZ7
 SPBC HZ EP        9 5 49.93                             156   -0.2210 48.2 235 
 SPBC HN ES        9 6  3.67                             156    0.1710 48.2 235 
 SPBC HZ I         9 6  6.40         2.4 0.26            158           48.2 235 
 RUS  HZ EP        9 5 51.52                             148   -0.4710 70.1  91 
 RUS  HE ES        9 6  6.77                             148    0.0110 70.1  91 
 RUS  HZ I         9 6  7.98         0.7 0.22            151           70.1  91 
 BAR2 EZ ES        9 6  9.51                             138   -0.0710 96.5  38 
 BAR2 EZ I         9 6 11.06         5.6 0.48            141           96.5  38 
 PTB  HZ EP        9 5 53.96                             135   -0.2810  108 311 
 PTB  HN ES        9 6 10.60                             135   -0.1710  108 311 
 PTB  HZ I         9 6 11.63         1.8 0.24            137            108 311 
 BRR  HZ EP        9 5 57.21                             128    0.6810  133   0 
 BRR  HE ES        9 6 15.01                             128    0.1710  133   0 
 CHI  HE ES        9 6 17.38                             127    0.28 9  141 181 
                                                                                
