 2014  921 0438  2.1 L   6.796 -73.159151.5  RSN  6 0.3 1.1LRSN                1
 GAP=200        0.72       3.5     5.5  5.6  0.2269E+01  0.4559E+00 -0.2106E+01E
 Epicentro: LOS SANTOS - SANTANDER                                             3
 ACTION:UPD 14-10-03 23:07 OP:nd   STATUS:               ID:20140921043802 L   I
 OLDACT:REG 14-09-21 13:07 OP:spq  STATUS:               ID:20140921042820     3
 2014-09-21-0428-20M.COL___287                                                 6
 STAT SP IPHASW D HRMM SECON CODA AMPLIT PERI AZIMU VELO AIN AR TRES W  DIS CAZ7
 BAR2 SZ ES   1    438 38.05                             171   -0.23 7 22.7 186 
 BAR2 SZ I         438 38.85         3.0 0.14            171           22.7 186 
 BRR  HZ EP        438 24.02                             154    0.1810 70.1 299 
 BRR  HE ES        438 41.23                             154    0.4510 70.1 299 
 BRR  HZ I         438 41.43         2.8 0.34            153           70.1 299 
 RUS  HZ EP   1    438 26.39                             145   -0.04 7  100 175 
 RUS  HN ES   1    438 45.03                             145   -0.35 7  100 175 
 RUS  HZ I         438 46.56         0.8 0.48            146            100 175 
 PTB  HZ EP        438 29.28                             134   -0.15 9  146 259 
 PTB  HN ES        438 50.22                             134   -0.51 9  146 259 
 PTB  HZ I         438 52.14         1.2 0.18            133            146 259 
 SPBC HZ EP        438 31.08                             131    0.12 9  162 219 
 SPBC HN ES        438 53.79                             131    0.35 9  162 219 
 SPBC HZ I         438 56.49         1.5 0.24            131            162 219 
 SML  HZ EP   1    438 39.18                             119    0.12 6  243 336 
 SML  HN ES   1    439  7.50                             119   -0.36 6  243 336 
 SML  HZ I         439 11.75         1.3 0.10            119            243 336 
                                                                                
