 2012 1221 0006 54.8 L   6.738 -73.188143.2  RSN  4 0.2 1.6LRSN                1
 GAP=174        0.48       3.6     3.4  4.8  0.1254E+01  0.1461E+01  0.2170E+01E
 Epicentro: VILLANUEVA - SANTANDER                                             3
 ACTION:UPD 13-01-04 14:29 OP:ep   STATUS:               ID:20121221000654 L   I
 2012-12-21-0000-00M.COL___243                                                 6
 STAT SP IPHASW D HRMM SECON CODA AMPLIT PERI AZIMU VELO AIN AR TRES W  DIS CAZ7
 GIR2 SZ EP        0 7 14.10                             164   -0.2710 37.7 359 
 GIR2 SZ ES   1    0 7 29.56                             164   -0.06 7 37.7 359 
 GIR2 SZ I         0 7 30.54         4.5 0.22                          37.7 359 
 BRR  HZ EP        0 7 15.97                             152    0.3110 70.9 305 
 BRR  HE ES   1    0 7 32.05                             152    0.13 7 70.9 305 
 BRR  HZ I         0 7 37.08         8.7 0.39                          70.9 305 
 RUS  HZ EP   1    0 7 17.85                             145    0.00 7 94.2 173 
 RUS  HN ES   1    0 7 35.91                             145    0.08 7 94.2 173 
 RUS  HN I         0 7 38.14        14.6 0.34                          94.2 173 
 PTB  HZ EP        0 7 21.04                             133   -0.01 9  142 261 
 PTB  HE ES        0 7 41.38                             133   -0.13 9  142 261 
 PTB  HZ I         0 7 46.49         5.7 0.12                           142 261 
                                                                                
