 2013  921 0110  8.1 L   6.752 -73.136144.2  RSN  7 0.5 1.7LRSN                1
 GAP=140        1.11       6.0     6.4  8.0  0.6483E+01  0.1577E+02  0.8848E+01E
 Epicentro: LOS SANTOS - SANTANDER                                             3
 ACTION:UPD 13-10-22 09:23 OP:ep   STATUS:               ID:20130921011008 L   I
 OLDACT:REG 13-09-21 07:59 OP:jn   STATUS:               ID:20130921010959     3
 2013-09-21-0109-59M.COL___269                                                 6
 STAT SP IPHASW D HRMM SECON CODA AMPLIT PERI AZIMU VELO AIN AR TRES W  DIS CAZ7
 BAR2 SZ EP     D  110 27.67                             172    0.1910 18.4 196 
 BAR2 SZ ES        110 41.97                             172   -0.6110 18.4 196 
 BAR2 SZ I         110 45.29        11.6 0.29            170           18.4 196 
 BRR  HZ EP     C  110 29.58                             151    0.2610 74.8 302 
 BRR  HN ES        110 46.69                             151    0.8410 74.8 302 
 BRR  HZ I         110 50.11        11.1 0.16            150           74.8 302 
 PAM  SN ES   1    110 47.46                             149   -0.30 7 80.9  37 
 PAM  SZ I         110 49.83         4.9 0.22            155           80.9  37 
 RUS  HZ EP        110 31.56                             145    0.2210 95.2 177 
 RUS  HN ES   1    110 49.37                             145   -0.08 7 95.2 177 
 RUS  HZ I         110 51.16         5.1 0.20            147           95.2 177 
 PTB  HZ EP        110 34.33                             132   -0.66 9  148 261 
 PTB  HN ES   1    110 55.12                             132   -0.81 7  148 261 
 PTB  HZ I         110 57.62        10.3 0.42            132            148 261 
 SPBC HZ EP        110 36.47                             129    0.28 9  160 221 
 SPBC HN ES   1    110 58.54                             129    0.47 7  160 221 
 SPBC HZ I         111  5.58         7.5 0.26            131            160 221 
 ZAR  HZ EP   1    110 40.47                             121   -0.33 6  207 293 
 ZAR  HE ES   1    111  6.19                             121   -0.08 6  207 293 
 ZAR  HZ I         111 12.59         8.3 0.64            123            207 293 
                                                                                
