 2012  221 0049 45.7 L   6.773 -73.156140.3  RSN  9 0.4 1.9LRSN                1
 GAP=136        0.84       4.6     4.8  6.4 -0.2851E-01  0.9139E+01  0.6638E+01E
 ACTION:UP  12-03-07 16:32 OP:epov STATUS:               ID:20120221004945 L   I
 2012-02-21-0048-59S.COL___191                                                 6
 STAT SP IPHASW D HRMM SECON CODA AMPLIT PERI AZIMU VELO AIN AR TRES W  DIS CAZ7
 BAR2 SZ EP   1    050  4.49                             171   -0.09 7 20.2 188 
 BAR2 SZ ES   1    050 19.34                             171    0.01 7 20.2 188 
 BAR2 SZ I         050 21.50        21.2 0.18                          20.2 188 
 GIR2 SZ EP   1    050  4.52                             166   -0.25 7 34.1 353 
 GIR2 SZ ES   1    050 19.58                             166   -0.09 7 34.1 353 
 BRR  HZ EP   1    050  6.25                             151   -0.01 7 71.7 301 
 BRR  HN ES   1    050 23.17                             151    0.85 7 71.7 301 
 BRR  HZ I         050 24.15        21.4 0.14                          71.7 301 
 PAM  SZ EP   1    050  7.36                             149   -0.13 7 80.4  39 
 PAM  SE ES   1    050 23.97                             149   -0.55 7 80.4  39 
 PAM  SZ I         050 26.16        13.0 0.47                          80.4  39 
 RUS  HZ EP   1    050  8.86                             143    0.19 7 97.7 175 
 RUS  HN ES   1    050 26.93                             143    0.32 7 97.7 175 
 RUS  HZ I         050 29.24        11.4 0.33                          97.7 175 
 PTB  HN ES   2    050 32.01                             131   -0.60 5  146 260 
 ZAR  HZ EP   1    050 18.50                             121    0.72 6  204 293 
 ZAR  HE ES   1    050 42.70                             121   -0.12 6  204 293 
 ZAR  HZ I         050 48.54        13.3 0.40                           204 293 
 NOR  SZ EP   1    050 20.01                             118   -0.79 6  232 235 
 NOR  SN ES   1    050 47.70                             118   -0.50 6  232 235 
 CHI  HZ EP   1    050 23.35                             116    0.63 6  245 195 
 CHI  HZ I         050 25.02         3.0 0.21                           245 195 
                                                                                
