 2012 1221 0753 32.1 L   6.763 -73.123142.9  RSN  6 0.4 1.7LRSN                1
 GAP=141        0.79       5.1     5.2  8.1 -0.3590E+01  0.1102E+01  0.9148E+01E
 Epicentro: LOS SANTOS - SANTANDER                                             3
 ACTION:UPD 13-01-04 14:29 OP:ep   STATUS:               ID:20121221075332 L   I
 2012-12-21-0750-00M.COL___243                                                 6
 STAT SP IPHASW D HRMM SECON CODA AMPLIT PERI AZIMU VELO AIN AR TRES W  DIS CAZ7
 BAR2 SZ EP   1    753 50.73                             172   -0.63 7 20.0 199 
 BAR2 SZ I         754  8.02        19.4 0.18                          20.0 199 
 BRR  HZ EP        753 53.58                             151    0.3610 75.4 300 
 BRR  HN ES   1    754 10.09                             151    0.41 7 75.4 300 
 BRR  HZ I         754 12.93         5.0 0.18                          75.4 300 
 PAM  SZ EP        753 54.30                             150    0.1510 79.0  36 
 PAM  SN ES   1    754 10.98                             150   -0.34 7 79.0  36 
 PAM  SZ I         754 13.50         8.3 0.49                          79.0  36 
 RUS  HZ EP   1    753 55.13                             144   -0.17 7 96.4 177 
 RUS  HN ES   1    754 13.60                             144    0.23 7 96.4 177 
 RUS  HN I         754 16.01        13.9 0.32                          96.4 177 
 PTB  HZ EP   1    753 58.59                             131   -0.44 7  150 261 
 PTB  HE ES   1    754 19.64                             131   -0.38 7  150 261 
 PTB  HZ I         754 21.42         5.9 0.54                           150 261 
 CHI  HZ EP   1    754  9.81                             117    0.49 6  245 196 
                                                                                
