 2015 1221 0810 38.3 L   6.837 -73.336123.8  RSN  8 0.5 1.5LRSN                1
 GAP=147        1.20       3.4     5.2  7.3  0.1858E+01  0.5365E+01 -0.5608E+01E
 Epicentro: ZAPATOCA - SANTANDER                                               3
 ACTION:UPD 16-02-04 15:06 OP:cam  STATUS:               ID:20151221081038 L   I
 OLDACT:REG 15-12-21 14:49 OP:cara STATUS:               ID:20151221080749     3
 2015-12-21-0807-49M.COL___326                                                 6
 STAT SP IPHASW D HRMM SECON CODA AMPLIT PERI AZIMU VELO AIN AR TRES W  DIS CAZ7
 BAR2 EZ EP        810 55.78                             165    0.2610 32.0 148 
 BAR2 EZ ES        811  9.00                             165    0.0410 32.0 148 
 BRR  HZ IP        810 56.21                             156    0.2510 51.2 306 
 BRR  HE ES        811 10.19                             156    0.4510 51.2 306 
 BRR  HZ I         811 15.93         4.3 0.24            154           51.2 306 
 RUS  HZ EP        811  1.13                             136    0.5710  108 165 
 RUS  HE ES        811 17.55                             136   -0.3910  108 165 
 RUS  HZ I         811 19.55         2.7 0.36            143            108 165 
 PTB  HZ EP        811  1.23                             131   -0.4610  128 255 
 PTB  HE ES        811 19.27                             131   -0.6810  128 255 
 PTB  HZ I         811 28.53         3.6 0.58            133            128 255 
 SPBC HZ EP        811  4.91                             125    0.61 9  154 212 
 SPBC HN ES        811 24.15                             125   -0.45 9  154 212 
 SPBC HZ I         811 30.70         3.0 0.20            129            154 212 
 OCA  HZ EP        811  4.22                             125   -0.24 9  155   1 
 OCA  HE ES        811 24.26                             125   -0.61 9  155   1 
 OCA  HZ I         811 30.47        13.4 0.50            129            155   1 
 ZAR  HZ EP        811  7.54                             120    0.39 9  183 293 
 ZAR  HN ES        811 30.21                             120    0.54 9  183 293 
 ZAR  HZ I         811 33.37         3.0 0.30            122            183 293 
 SML  HZ EP        811 11.65                             114   -0.80 8  232 340 
 SML  HE ES        811 39.48                             114    0.39 8  232 340 
 SML  HZ I         811 44.37         7.9 0.26            117            232 340 
                                                                                
