 2010 1221 0903 18.6 L   6.756 -73.129146.2  RSN 11 0.4 2.3LRSN                1
 GAP=161        0.87       3.7     7.8  7.7 -0.1413E+02  0.2780E+02 -0.2518E+01E
 Epicentro: LOS SANTOS - SANTANDER                                             3
 ACTION:UP  11-01-14 15:26 OP:pat  STATUS:               ID:20101221090318 L   I
 2010-12-21-0901-45S.COL___133                                                 6
 STAT SP IPHASW D HRMM SECON CODA AMPLIT PERI AZIMU VELO SNR AR TRES W  DIS CAZ7
 BAR2 SZ IP        9 3 38.02                             172    -0.210   19 198 
 BAR2 SZ ES   1    9 3 54.06                             172     0.6 7   19 198 
 BAR2 SZ I         9 3 54.79        46.5 0.35                            19 198 
 BTL  SZ EP        9 3 38.30                             170     0.010   24 320 
 RUS  HZ EP   1    9 3 41.90                             145    -0.1 7   96 177 
 RUS  HE ES   1    9 3 59.83                             145    -0.5 7   96 177 
 RUS  HZ I         9 4  2.41        24.2 0.65                            96 177 
 GRA  SZ EP   1    9 3 44.93                             136     0.7 7  130  16 
 GRA  SZ ES   1    9 4  4.36                             136     0.2 7  130  16 
 GRA  SZ I         9 4  5.50        19.5 0.25                           130  16 
 OCA  SZ EP   1    9 3 46.71                             129    -0.7 7  165 353 
 OCA  SZ ES   1    9 4  9.49                             129    -0.4 7  165 353 
 OCA  SZ I         9 4 14.35        33.1 0.31                           165 353 
 NOR  SZ EP   1    9 3 54.03                             119    -0.2 6  234 236 
 NOR  SE ES   2    9 4 21.79                             119    -0.2 4  234 236 
 CHI  HZ EP   1    9 3 55.82                             118     0.0 6  244 196 
 CHI  HN ES   2    9 4 24.77                             118    -0.1 4  244 196 
 CHI  HZ I         9 4 31.34        13.8 0.47                           244 196 
 ROSC BN ES   1    9 4 25.93                             117     0.1 6  250 212 
 ROSC BZ I         9 4 31.74        27.3 0.50                           250 212 
 HEL  HZ EP   1    9 3 59.85                             115     1.0 6  273 257 
 HEL  HE ES   2    9 4 30.22                             115    -0.1 4  273 257 
 HEL  HZ I         9 4 37.04         8.7 0.63                           273 257 
 RREF HZ EP   2    9 4  4.61                             111     0.1 3  320 230 
 RREF HE ES   2    9 4 39.79                             111    -0.6 3  320 230 
 RREF HZ I         9 4 47.39        12.3 0.36                           320 230 
 PRA  HZ EP   1    9 4 11.50                             107    -0.2 4  389 210 
 PRA  HN ES   1    9 4 53.91                             107     0.7 4  389 210 
                                                                                
