 2010  521 0406 44.2 L   6.815 -73.189132.0  RSN  5 0.4 1.9LRSN                1
 GAP=230        0.66       6.6     7.9  9.3 -0.1408E+02  0.5072E+02 -0.4963E+01E
 Epicentro: ZAPATOCA - SANTANDER                                               3
 ACTION:UP  10-08-24 10:06 OP:vdl  STATUS:               ID:20100521040644 L   I
 2010-05-21-0400-00S.COL___106                                                 6
 STAT SP IPHASW D HRMM SECON CODA AMPLIT PERI AZIMU VELO SNR AR TRES W  DIS CAZ7
 BAR2 SZ EP        4 7  2.54                             169     0.310   25 179 
 BAR2 SZ ES   1    4 7 15.84                             169    -0.4 7   25 179 
 HEL  HZ EP   2    4 7 23.10                             112    -0.2 4  268 255 
 HEL  HN ES   2    4 7 54.70                             112     0.9 4  268 255 
 HEL  HZ I         4 8  1.37         4.1 0.50                           268 255 
 RREF BZ EP   2    4 7 29.09                             108    -0.4 3  319 229 
 RREF BN ES        4 8  4.67                             108    -0.2 7  319 229 
 RREF BZ I         4 8 10.45         5.2 0.60                           319 229 
 MON  HZ EP   2    4 7 31.77                             106    -0.4 3  348 309 
 MON  HE ES   2    4 8  9.16                             106    -0.3 3  348 309 
 MON  HZ I         4 8 10.50         1.3 0.18                           348 309 
 PRA  HZ EP   2    4 7 37.08                             104    -0.1 3  391 209 
 PRA  HN ES   2    4 8 18.82                             104     0.3 3  391 209 
 PRA  HZ I         4 8 25.96         3.6 0.35                           391 209 
                                                                                
