 2015  121 0730 33.5 L   7.450 -73.204132.3  RSN 15 0.5 2.2LRSN                1
 GAP=111        1.16       2.9     3.5  6.0  0.9773E+00  0.4491E+01  0.3921E+01E
 Epicentro: EL PLAYON - SANTANDER                                              3
 ACTION:UPD 15-03-02 15:41 OP:nd   STATUS:               ID:20150121073033 L   I
 OLDACT:REG 15-01-21 12:28 OP:carl STATUS:               ID:20150121072749     3
 2015-01-21-0727-49M.COL___265                                                 6
 STAT SP IPHASW D HRMM SECON CODA AMPLIT PERI AZIMU VELO AIN AR TRES W  DIS CAZ7
 PAM  SZ EP        730 53.42                             156    0.2510 57.0 102 
 PAM  SN ES        731  8.36                             156   -0.1210 57.0 102 
 PAM  SZ I         731 10.24        24.2 0.36            151           57.0 102 
 BRR  HZ IP     C  730 53.13                             151    0.0910 67.7 236 
 BRR  HN ES        731  8.31                             151    0.0710 67.7 236 
 BRR  HZ I         731  9.22        57.0 0.12            147           67.7 236 
 OCA  HZ EP        730 55.32                             144    0.7210 88.2 352 
 OCA  HN ES        731 11.30                             144    0.2810 88.2 352 
 OCA  HZ I         731 13.67        33.9 0.16            141           88.2 352 
 BAR2 EZ IP        730 55.35                             142    0.1510 94.9 179 
 BAR2 EZ ES        731 11.64                             142   -0.4610 94.9 179 
 BAR2 EZ I         731 12.55        45.8 0.16            136           94.9 179 
 PTB  HZ EP        731  1.49                             124   -0.25 9  171 234 
 PTB  HN ES        731 23.70                             124   -0.03 9  171 234 
 PTB  HZ I         731 26.52        23.7 0.20            119            171 234 
 RUS  HZ EP        731  2.04                             124   -0.49 9  173 176 
 RUS  HN ES        731 24.68                             124   -0.45 9  173 176 
 RUS  HZ I         731 31.57         4.4 0.36            119            173 176 
 SML  HZ EP        731  1.82                             123   -0.53 9  177 327 
 SML  HN ES        731 23.78                             123   -1.03 9  177 327 
 SML  HZ I         731 27.30        46.4 0.30            119            177 327 
 ZAR  HZ EP        731  2.99                             122    0.09 9  183 272 
 ZAR  HN ES        731 26.60                             122    0.80 9  183 272 
 ZAR  HZ I         731 29.46        22.1 0.24            118            183 272 
 TAM  HZ EP        731  4.18                             121    0.23 9  192 126 
 TAM  HZ I         731 27.01        16.3 0.38            115            192 126 
 TAM  HN ES        731 27.77                             121    0.11 9  192 126 
 SPBC HZ EP        731  7.57                             117    0.52 8  221 206 
 SPBC HN ES        731 33.81                             117    0.63 8  221 206 
 SPBC HZ I         731 40.83        14.9 0.16            112            221 206 
 URE  HZ EP   4    731  9.85                             113   -1.34 0  259 278 
 URE  HN ES   4    731 38.89                             113   -1.67 0  259 278 
 URE  HZ I         731 49.24        11.2 0.24            109            259 278 
 NOR  HZ EP        731 12.13                             111   -1.28 7  278 222 
 NOR  HN ES        731 44.59                             111    0.09 7  278 222 
 NOR  HZ I         731 51.39         7.5 0.16            107            278 222 
 HEL  HZ EP   4    731 16.55                             110    1.15 0  292 242 
 HEL  HN ES   4    731 46.47                             110   -1.58 0  292 242 
 HEL  HZ I         731 57.59         6.7 0.24            106            292 242 
 CHI  HZ EP        731 18.60                             108    0.26 7  317 191 
 CHI  HN ES        731 53.27                             108   -0.01 7  317 191 
 CHI  HZ I         732  3.20         1.9 0.30            104            317 191 
 GUY2CHZ EP        731 22.06                             107    0.64 7  343 224 
 GUY2CHE ES        731 58.20                             107   -0.56 7  343 224 
 GUY2CHZ I         732  7.70         8.2 0.34                           343 224 
                                                                                
