 2011  721 0530 32.8 L   6.772 -73.122141.8  RSN  8 0.3 1.7LRSN                1
 GAP=159        0.50       2.4     4.1  4.1 -0.2658E+01  0.2298E+01  0.1324E+01E
 Epicentro: LOS SANTOS - SANTANDER                                             3
 ACTION:UPD 12-07-25 14:02 OP:epov STATUS:               ID:20110721053032 L   I
 2011-07-21-0528-57S.COL___140                                                 6
 STAT SP IPHASW D HRMM SECON CODA AMPLIT PERI AZIMU VELO AIN AR TRES W  DIS CAZ7
 BAR2 SZ EP   1    530 51.79                             171   -0.15 7 21.0 199 
 BAR2 SZ I         530 51.96        17.4 0.20                          21.0 199 
 BAR2 SZ ES   1    531  6.53                             171   -0.31 7 21.0 199 
 GIR2 SZ EP   1    530 51.96                             166   -0.18 7 34.8 347 
 GIR2 SZ ES   1    531  6.99                             166   -0.20 7 34.8 347 
 BRR  HZ EP   1    530 53.67                             151   -0.11 7 75.0 300 
 BRR  HZ I         530 54.13        17.4 0.10                          75.0 300 
 BRR  HE ES   1    531 10.50                             151    0.39 7 75.0 300 
 RUS  HZ EP   1    530 55.84                             144   -0.13 7 97.4 177 
 RUS  HZ I         530 56.94         6.3 0.18                          97.4 177 
 RUS  HN ES   1    531 14.42                             144    0.42 7 97.4 177 
 BRI  SZ EP   1    530 56.44                             140   -0.06 7  110  19 
 BRI  SZ ES   1    531 15.14                             140    0.18 7  110  19 
 BRI  SZ I         531 16.67        10.1 0.28                           110  19 
 OCA  SZ ES   1    531 23.35                             128    0.10 7  164 352 
 OCA  SZ I         531 27.15         6.8 0.22                           164 352 
 NOR  SZ EP   1    531  8.37                             118   -0.01 6  235 235 
 NOR  SN ES   1    531 35.93                             118   -0.17 6  235 235 
 CHI  HZ EP   2    531 10.76                             117    0.69 4  246 196 
 CHI  HZ I         531 11.69         1.9 0.23                           246 196 
                                                                                
