 2012  121 0623 39.5 L   6.716 -73.193154.3  RSN  4 0.2 1.5LRSN                1
 GAP=225        0.49       6.0     5.0  5.4  0.1259E+02  0.2442E+01  0.4528E+01E
 Epicentro: VILLANUEVA - SANTANDER                                             3
 ACTION:UP  12-02-03 08:19 OP:REBC STATUS:               ID:20120121062339 L   I
 2012-01-21-0620-00M.COL___186                                                 6
 STAT SP IPHASW D HRMM SECON CODA AMPLIT PERI AZIMU VELO SNR AR TRES W  DIS CAZ7
 BAR2 SZ EP   1    623 59.64                             175    -0.4 7   14 175 
 BAR2 SZ ES   1    624 15.99                             175    -0.1 7   14 175 
 BAR2 SZ I         624 17.95         3.8 0.37                            14 175 
 BRR  HZ EP   1    624  1.86                             154     0.2 7   72 307 
 BRR  HN ES   1    624 19.03                             154     0.1 7   72 307 
 BRR  HN I         624 20.20         9.1 0.16                            72 307 
 RUS  HZ EP   1    624  3.72                             148     0.2 7   92 172 
 RUS  HE ES   2    624 22.51                             148     0.2 5   92 172 
 PTB  HZ EP   1    624  6.69                             135     0.0 7  141 262 
 PTB  HN ES   1    624 27.63                             135    -0.1 7  141 262 
                                                                                
