 2014 1221 0653 26.1 L   6.710 -73.453112.0  RSN  4 0.4 0.8LRSN                1
 GAP=147        0.83       6.0     5.3  8.8  0.1317E+02  0.1182E+02  0.1624E+02E
 Epicentro: EL CARMEN - SANTANDER                                              3
 ACTION:UPD 15-02-10 17:06 OP:nd   STATUS:               ID:20141221065326 L   I
 OLDACT:REG 14-12-21 12:48 OP:spq  STATUS:               ID:20141221064740     3
 2014-12-21-0647-40M.COL___299                                                 6
 STAT SP IPHASW D HRMM SECON CODA AMPLIT PERI AZIMU VELO AIN AR TRES W  DIS CAZ7
 BAR2 EZ ES   1    653 54.07                             163   -0.33 7 32.6 113 
 BAR2 EZ I         653 56.01         3.6 0.16            166           32.6 113 
 BRR  HZ EP        653 42.49                             153   -0.0910 52.4 327 
 BRR  HN ES        653 55.62                             153    0.2110 52.4 327 
 BRR  HZ I         653 58.33         2.2 0.34            156           52.4 327 
 RUS  HZ EP   1    653 47.27                             136    0.64 7 99.2 156 
 RUS  HE ES   1    654  2.51                             136   -0.10 7 99.2 156 
 RUS  HZ I         654  4.17         0.7 0.30            140           99.2 156 
 PTB  HZ EP   1    653 46.44                             131   -0.72 7  113 260 
 PTB  HN ES        654  3.72                             131    0.1610  113 260 
 PTB  HZ I         654  6.66         0.7 0.38            134            113 260 
                                                                                
