 2015  421 0626  0.0 L   6.815 -73.172132.1  RSN  4 0.5 1.2LRSN                1
 GAP=282        1.04       7.7    11.0 10.0 -0.2952E+02 -0.2324E+02 -0.1222E+02E
 Epicentro: LOS SANTOS - SANTANDER                                             3
 ACTION:UPD 15-06-03 16:56 OP:cam  STATUS:               ID:20150421062600 L   I
 OLDACT:REG 15-04-21 12:44 OP:ak   STATUS:               ID:20150421061738     3
 2015-04-21-0617-38M.COL___268                                                 6
 STAT SP IPHASW D HRMM SECON CODA AMPLIT PERI AZIMU VELO AIN AR TRES W  DIS CAZ7
 BRR  HZ EP   1    626 19.73                             151    0.24 7 67.8 298 
 BRR  HN ES        626 34.82                             151    0.1410 67.8 298 
 BRR  HZ I         626 37.04         4.1 0.06            144           67.8 298 
 PTB  HZ EP   1    626 25.14                             129   -0.51 7  145 258 
 PTB  HN ES        626 45.31                             129   -0.34 9  145 258 
 PTB  HZ I         626 48.40         1.4 0.18            126            145 258 
 ZAR  HZ EP        626 32.23                             120    0.99 9  201 292 
 ZAR  HN ES        626 55.63                             120    0.03 9  201 292 
 ZAR  HZ I         627  1.79         1.5 0.20            117            201 292 
 SML  HZ EP        626 35.04                             115   -0.56 8  241 336 
 SML  HN ES        627  3.18                             115   -0.18 8  241 336 
 SML  HZ I         627  5.80         2.3 0.09            114            241 336 
                                                                                
