 2015  521 0007 44.9 L   6.771 -73.161150.3  RSN  4 0.3 1.6LRSN                1
 GAP=234        0.77      11.6    12.8  7.9  0.1288E+03  0.2566E+02  0.1271E+02E
 Epicentro: LOS SANTOS - SANTANDER                                             3
 ACTION:UPD 15-09-10 22:05 OP:cam  STATUS:               ID:20150521000744 L   I
 OLDACT:DUP 15-05-21 14:15 OP:e    STATUS:               ID:20150521000007d    3
 2015-05-21-0000-06M.COL___288                                                 6
 STAT SP IPHASW D HRMM SECON CODA AMPLIT PERI AZIMU VELO AIN AR TRES W  DIS CAZ7
 BAR2 EZ ES   1    0 8 20.04                             172   -0.68 7 20.0 187 
 BAR2 EZ I         0 8 21.45        10.3 0.26            164           20.0 187 
 BRR  HZ EP   1    0 8  6.52                             153   -0.05 7 71.4 301 
 BRR  HN ES        0 8 23.91                             153    0.4510 71.4 301 
 BRR  HZ I         0 8 26.15         7.8 0.36            148           71.4 301 
 RUS  HZ EP   1    0 8  9.12                             146    0.21 7 97.6 175 
 RUS  HE ES   1    0 8 27.75                             146    0.13 7 97.6 175 
 RUS  HZ I         0 8 28.75         4.3 0.26            143           97.6 175 
 ZAR  HZ EP   1    0 8 17.57                             123   -0.07 6  204 293 
 ZAR  HE ES        0 8 42.88                             123   -0.27 9  204 293 
 ZAR  HZ I         0 8 48.71         3.6 0.36            122            204 293 
                                                                                
