 2014  821 0447 37.5 L   6.833 -73.180143.5  RSN  8 0.4 1.9LRSN                1
 GAP=131        1.11       3.9     5.2  6.7 -0.2061E+01  0.9450E+01 -0.4266E+01E
 Epicentro: ZAPATOCA - SANTANDER                                               3
 ACTION:UPD 14-09-15 21:51 OP:nd   STATUS:               ID:20140821044737 L   I
 OLDACT:UP  14-08-21 15:35 OP:cam  STATUS:               ID:20140821044000     3
 OLDACT:REG 14-08-21 13:00 OP:cam  STATUS:               ID:20140821044000     3
 2014-08-21-0440-00M.COL___285                                                 6
 STAT SP IPHASW D HRMM SECON CODA AMPLIT PERI AZIMU VELO AIN AR TRES W  DIS CAZ7
 BAR2 SZ EP        447 56.84                             169   -0.0610 26.6 181 
 BAR2 SZ ES        448 11.59                             169   -0.4710 26.6 181 
 BAR2 SZ I         448 13.42        40.6 0.84            170           26.6 181 
 BRR  HZ EP     C  447 58.70                             154    0.6110 66.1 297 
 BRR  HE ES        448 14.74                             154    0.5610 66.1 297 
 BRR  HZ I         448 18.69        14.7 0.38            153           66.1 297 
 PAM  SZ EP        447 59.66                             150    0.2310 77.1  43 
 PAM  SN ES        448 16.84                             150    0.2810 77.1  43 
 PAM  SZ I         448 19.00        14.6 0.54            154           77.1  43 
 RUS  HZ EP        448  1.28                             142   -0.0110  105 174 
 RUS  HN ES        448 19.15                             142   -0.7210  105 174 
 RUS  HZ I         448 21.12         4.1 0.22            145            105 174 
 PTB  HZ EP        448  3.55                             132   -0.44 9  145 257 
 PTB  HN ES        448 24.49                             132   -0.18 9  145 257 
 PTB  HZ I         448 26.66         8.1 0.12            133            145 257 
 SPBC HZ EP        448  6.31                             128    0.46 9  164 217 
 SPBC HN ES        448 28.52                             128    0.54 9  164 217 
 SPBC HZ I         448 34.62         6.4 0.18            130            164 217 
 ZAR  HZ EP        448  8.95                             122   -0.32 9  199 292 
 SML  HZ EP        448 13.36                             117   -0.08 8  239 336 
 SML  HN ES        448 40.83                             117   -0.66 8  239 336 
 SML  HN I         448 46.56        16.6 0.10            119            239 336 
 HEL  HZ EP   4    448 19.01                             115    1.74 0  269 255 
 GUY2CHZ EP   4    448 22.25                             112    1.38 0  300 234 
 SJC  HZ EP   4    448 31.08                             105   -1.28 0  404 327 
                                                                                
