 2010 1221 0652 28.4 L   6.514 -73.548104.5  RSN  9 0.5 1.9LRSN                1
 GAP=107        0.99       4.0     5.8  8.4 -0.1170E+02  0.2848E+02 -0.7435E+01E
 Epicentro: EL CARMEN DE CHUCURI - SANTANDER                                   3
 ACTION:UP  11-01-14 15:26 OP:pat  STATUS:               ID:20101221065228 L   I
 2010-12-21-0648-38S.COL___133                                                 6
 STAT SP IPHASW D HRMM SECON CODA AMPLIT PERI AZIMU VELO SNR AR TRES W  DIS CAZ7
 BAR2 SZ IP        652 43.97                             157     0.210   41  78 
 BAR2 SZ ES   1    652 55.56                             157    -0.2 7   41  78 
 BAR2 SZ I         652 57.48       132.5 0.43                            41  78 
 BTL  SZ EP        652 44.51                             150     0.110   54  35 
 BTL  SZ ES   1    652 57.07                             150     0.1 7   54  35 
 RUS  HZ EP   1    652 47.04                             138     0.0 7   86 143 
 RUS  HE ES   1    653  1.83                             138     0.2 7   86 143 
 RUS  HZ I         653  4.00         8.9 0.35                            86 143 
 GRA  SZ IP        652 55.26                             116     0.1 9  172  28 
 GRA  SZ ES   2    653 16.53                             116     0.5 4  172  28 
 GRA  SZ I         653 19.91         7.0 0.25                           172  28 
 NOR  SZ EP   1    652 55.32                             115    -0.6 7  180 235 
 NOR  SE ES   1    653 16.61                             115    -0.8 7  180 235 
 OCA  SZ EP   1    652 56.26                             113    -1.1 7  192   8 
 OCA  SZ ES   1    653 20.20                             113     0.2 7  192   8 
 OCA  SZ I         653 25.84        15.9 0.22                           192   8 
 CHI  HZ EP   1    652 59.65                             111     0.0 6  209 186 
 CHI  HN ES   2    653 23.33                             111    -0.7 4  209 186 
 CHI  HZ I         653 30.79         3.0 0.25                           209 186 
 HEL  HZ EP   1    653  1.00                             110     0.0 6  222 261 
 HEL  HE ES   2    653 26.95                             110     0.4 4  222 261 
 HEL  HZ I         653 34.33         9.0 0.46                           222 261 
 RREF HZ EP   1    653  7.53                             105     0.9 6  268 228 
 RREF HN ES   1    653 37.31                             105     0.8 6  268 228 
 RREF HZ I         653 41.35         6.7 0.27                           268 228 
                                                                                
