 2017 1021 0940 13.2 L   6.849 -73.305119.9  RSN  4 0.2 1.3LRSN                1
 GAP=135        0.48       2.5     3.4  4.4  0.1138E+01  0.8439E+00  0.2740E+01E
 Epicentro: ZAPATOCA - SANTANDER                                               3
 ACTION:UPD 17-11-07 19:34 OP:rebc STATUS:               ID:20171021094013 L   I
 OLDACT:UP  17-10-21 19:53 OP:dani STATUS:               ID:20171021093142     3
 OLDACT:REG 17-10-21 13:39 OP:dani STATUS:               ID:20171021093142     3
 2017-10-21-0938-00M.COL___435                                                 6
 STAT SP IPHASW D HRMM SECON CODA AMPLIT PERI AZIMU VELO AIN AR TRES W  DIS CAZ7
 BAR2 EZ EP        940 30.09                             164    0.1210 31.4 155 
 BAR2 EZ ES        940 42.78                             164   -0.2610 31.4 155 
 BAR2 EZ I         940 46.59         4.4 0.24            166           31.4 155 
 BRR  HZ EP        940 30.51                             154   -0.0510 53.3 302 
 BRR  HN ES        940 44.18                             154    0.0910 53.3 302 
 BRR  HZ I         940 46.41        10.2 0.42            158           53.3 302 
 PAM  EZ EP   4    940 31.28                             142   -2.09 0 86.1  51 
 PAM  EN ES        940 49.15                             142    0.0510 86.1  51 
 PAM  EZ I         940 52.26         4.4 0.28            145           86.1  51 
 RUS  HZ EP        940 35.00                             135   -0.1810  109 167 
 RUS  HN ES        940 52.54                             135    0.2210  109 167 
 RUS  HZ I         940 53.65         2.5 0.18            139            109 167 
                                                                                
