 2017  621 0901 10.8 L   6.835 -73.255120.8  RSN  6 0.3 1.7LRSN                1
 GAP=274        0.80       4.1     5.8  6.4 -0.1524E+01  0.8747E+00  0.8260E+01E
 Epicentro: ZAPATOCA - SANTANDER                                               3
 ACTION:UPD 17-09-14 16:53 OP:jn   STATUS:               ID:20170621090110 L   I
 OLDACT:UP  17-06-30 07:30 OP:dnl  STATUS:               ID:20170621090110 L   3
 OLDACT:UP  17-06-21 16:56 OP:dhb  STATUS:               ID:20170621085745d    3
 OLDACT:UP  17-06-21 16:44 OP:dhb  STATUS:               ID:20170621085745d    3
 OLDACT:DUP 17-06-21 16:28 OP:dhb  STATUS:               ID:20170621085745d    3
 2017-06-21-0858-00M.COL___346                                                 6
 STAT SP IPHASW D HRMM SECON CODA AMPLIT PERI AZIMU VELO AIN AR TRES W  DIS CAZ7
 BRR  HZ EP        9 1 28.48                             152   -0.0810 58.8 301 
 BRR  HE ES        9 1 42.56                             152    0.1510 58.8 301 
 BRR  HZ I         9 1 43.16        17.7 0.12            151           58.8 301 
 PTB  HZ EP   4    9 1 33.24                             128   -1.56 0  137 256 
 PTB  HN ES        9 1 53.79                             128    0.27 9  137 256 
 PTB  HZ I         9 1 55.51         4.6 0.10            127            137 256 
 SPBC HZ EP        9 1 36.90                             123   -0.20 9  159 215 
 SPBC HE ES        9 1 57.39                             123   -0.22 9  159 215 
 SPBC HZ I         9 2  3.47         8.3 0.11            123            159 215 
 ZAR  HZ EP        9 1 39.92                             118   -0.47 9  191 292 
 ZAR  HN ES        9 2  3.41                             118   -0.06 9  191 292 
 ZAR  HZ I         9 2  7.29         4.3 0.09            119            191 292 
 HEL  HZ EP        9 1 49.35                             110    0.69 8  261 254 
 HEL  HN ES        9 2 17.70                             110   -0.48 8  261 254 
 HEL  HZ I         9 2 22.00         2.4 0.56            111            261 254 
 GUY2CHZ EP        9 1 53.08                             108    0.55 7  294 233 
 GUY2CHN ES        9 2 25.13                             108    0.06 7  294 233 
                                                                                
