 2012 1121 0827 28.3 L   6.781 -73.165142.3  RSN  8 0.2 2.0LRSN                1
 GAP=107        0.46       2.3     3.5  3.5 -0.2674E+01  0.3656E+01  0.1363E+00E
 Epicentro: LOS SANTOS - SANTANDER                                             3
 ACTION:UPD 12-12-05 15:34 OP:}ep  STATUS:               ID:20121121082728 L   I
 2012-11-21-0820-00M.COL___234                                                 6
 STAT SP IPHASW D HRMM SECON CODA AMPLIT PERI AZIMU VELO AIN AR TRES W  DIS CAZ7
 BAR2 SZ EP        827 47.63                             171    0.1610 21.0 185 
 BAR2 SZ ES   1    828  2.62                             171    0.20 7 21.0 185 
 BAR2 SZ I         828  4.07        43.9 0.19                          21.0 185 
 PAM  SZ EP        827 50.36                             149    0.0310 80.3  40 
 PAM  SZ I         827 50.76        16.4 0.26                          80.3  40 
 PAM  SE ES        828  7.50                             149   -0.0110 80.3  40 
 RUS  HZ EP        827 51.45                             144   -0.1210 98.7 175 
 RUS  HN ES        828  9.43                             144   -0.3010 98.7 175 
 RUS  HN I         828 12.29        25.0 0.37                          98.7 175 
 PTB  HZ EP   1    827 54.52                             132   -0.24 7  145 259 
 TAM  HZ EP        827 55.91                             129    0.06 9  157 104 
 ZAR  HZ EP   1    828  0.38                             122   -0.02 6  203 293 
 ZAR  HZ I         828 31.54         5.3 0.38                           203 293 
 CHI  HZ EP   1    828  5.60                             117    0.07 6  246 195 
 CHI  HN ES   1    828 35.09                             117    0.52 6  246 195 
 PRA  HZ EP   1    828 21.33                             106   -0.04 4  389 209 
                                                                                
