 2010  821 0319 21.9 L   6.814 -73.060147.1  RSN  4 0.1 1.6LRSN                1
 GAP=281        0.43       8.7     9.1  9.1 -0.6453E+02 -0.6701E+02  0.5466E+02E
 Epicentro: LOS SANTOS - SANTANDER                                             3
 ACTION:UP  10-09-07 10:56 OP:vdl  STATUS:               ID:20100821031921 L   I
 2010-08-21-0317-41S.COL___120                                                 6
 STAT SP IPHASW D HRMM SECON CODA AMPLIT PERI AZIMU VELO SNR AR TRES W  DIS CAZ7
 BTL  SZ EP        319 41.73                             170     0.010   26 297 
 BRR  HZ IP     C  319 43.49                             150    -0.110   79 294 
 BRR  HN ES        320  0.69                             150     0.110   79 294 
 BRR  HZ I         320  2.76         5.7 0.09                            79 294 
 GUE  SZ EP   1    319 46.43                             140     0.0 7  113   8 
 GRA  SZ IP        319 47.10                             138     0.210  122  13 
 GRA  SZ ES   1    320  6.28                             138    -0.2 7  122  13 
 GRA  SZ I         320  7.61         6.1 0.36                           122  13 
                                                                                
