 2016 1021 0710 56.0 L   6.757 -73.195151.0  RSN  4 0.3 1.4LRSN                1
 GAP=228        0.73       4.5     6.1  6.9  0.7214E+01  0.3829E+01  0.1005E+01E
 Epicentro: VILLANUEVA - SANTANDER                                             3
 ACTION:UPD 16-11-09 19:21 OP:rebc STATUS:               ID:20161021071056 L   I
 OLDACT:REG 16-10-21 13:33 OP:cog  STATUS:               ID:20161021070648     3
 2016-10-21-0707-00M.COL___336                                                 6
 STAT SP IPHASW D HRMM SECON CODA AMPLIT PERI AZIMU VELO AIN AR TRES W  DIS CAZ7
 BRR  HZ EP        711 17.62                             154   -0.0210 69.0 304 
 BRR  HN ES        711 34.78                             154    0.3010 69.0 304 
 BRR  HZ I         711 37.75         6.2 0.18            152           69.0 304 
 RUS  HZ EP   3    711 19.75                             146   -0.27 2 96.4 173 
 RUS  HN ES        711 38.46                             146   -0.2610 96.4 173 
 RUS  HZ I         711 39.17         2.4 0.17            148           96.4 173 
 PTB  HZ EP        711 22.62                             134   -0.27 9  141 260 
 PTB  HN ES        711 43.42                             134   -0.41 9  141 260 
 PTB  HZ I         711 48.15         2.9 0.28            134            141 260 
 SPBC HZ EP        711 24.64                             132    0.35 9  156 219 
 SPBC HN ES        711 46.65                             132    0.34 9  156 219 
 SPBC HZ I         711 49.17         5.0 0.22            132            156 219 
                                                                                
