 2016 1121 0448 52.1 L   6.806 -73.143148.0  RSN  9 0.4 1.6LRSN                1
 GAP=151        0.97       4.1     4.5  5.6 -0.2991E+01  0.4588E+01  0.8226E+01E
 Epicentro: LOS SANTOS - SANTANDER                                             3
 ACTION:UPD 17-10-26 21:10 OP:lp   STATUS:               ID:20161121044852 L   I
 OLDACT:UP  16-11-21 18:55 OP:edw  STATUS:               ID:20161121044747     3
 OLDACT:UP  16-11-21 18:54 OP:edw  STATUS:               ID:20161121044747     3
 OLDACT:REG 16-11-21 14:28 OP:edw  STATUS:               ID:20161121044747     3
 2016-11-21-0448-00M.COL___340                                                 6
 STAT SP IPHASW D HRMM SECON CODA AMPLIT PERI AZIMU VELO AIN AR TRES W  DIS CAZ7
 BAR2 EZ EP        449 11.86                             170   -0.1910 24.1 190 
 BAR2 EZ ES        449 26.96                             170   -0.6310 24.1 190 
 BAR2 EZ I         449 29.69        11.3 0.38            167           24.1 190 
 BRR  HZ EP        449 13.82                             153    0.2910 71.2 298 
 BRR  HN ES        449 31.03                             153    0.8210 71.2 298 
 BRR  HZ I         449 36.38         6.4 0.12            151           71.2 298 
 PAM  EZ EP        449 14.71                             151    0.1610 76.6  40 
 PAM  EN ES        449 31.94                             151   -0.0910 76.6  40 
 PAM  EZ I         449 33.98         4.8 0.46            158           76.6  40 
 PTB  HZ EP   9    449 18.73                             132   -0.60 0  148 259 
 PTB  HN ES        449 39.39                             133   -0.55 9  148 259 
 PTB  HZ I         449 46.12         4.2 0.32            132            148 259 
 ZAR  HZ EP        449 24.12                             123   -0.62 9  204 292 
 ZAR  HN ES        449 49.84                             123   -0.32 9  204 292 
 ZAR  HZ I         449 55.56         3.8 0.19            124            204 292 
 NOR  HZ EP        449 28.16                             119    0.09 8  235 234 
 NOR  HN ES        449 56.39                             119    0.29 8  235 234 
 NOR  HZ I         450  3.71         3.4 0.15            120            235 234 
 CHI  HZ EP        449 30.07                             117    0.02 8  249 195 
 CHI  HN ES        449 59.57                             117   -0.04 8  249 195 
 CHI  HZ I         450  4.71         1.4 0.15            119            249 195 
 PTGC HZ EP   4    449 34.76                             112   -1.40 0  309 159 
 CBOC HZ EP        449 38.87                             110   -0.34 7  334 252 
 PRA  HZ EP        449 46.28                             107    0.45 6  393 210 
 PRA  HN ES        450 27.93                             107    0.23 6  393 210 
 PRA  HZ I         450 36.22         2.1 0.52            108            393 210 
 SJC  HZ EP   4    449 44.12                             106   -3.61 0  409 327 
 SJC  HN ES   4    450 27.76                             106   -3.33 0  409 327 
                                                                                
