 2010  621 0635 50.3 L   6.808 -73.015139.1  RSN  5 0.4 1.3LRSN                1
 GAP=173        1.01       7.2    15.4 16.2  0.1143E+02 -0.1182E+03 -0.4581E+02E
 Epicentro: CEPITA - SANTANDER                                                 3
 ACTION:UP  10-08-24 10:12 OP:vdl  STATUS:               ID:20100621063550 L   I
 2010-06-21-0630-40S.COL___118                                                 6
 STAT SP IPHASW D HRMM SECON CODA AMPLIT PERI AZIMU VELO SNR AR TRES W  DIS CAZ7
 BAR2 SZ EP        636  9.35                             167     0.110   30 218 
 BAR2 SZ ES   2    636 23.80                             167    -0.3 5   30 218 
 BRR  HZ EP        636 11.40                             147    -0.110   84 293 
 BRR  HZ I         636 11.70         6.6 0.15                            84 293 
 BRR  HN ES   2    636 28.46                             147     0.4 5   84 293 
 RUS  HZ EP        636 13.47                             142     0.010  101 184 
 RUS  HN ES   2    636 31.61                             142     0.1 5  101 184 
 RUS  HZ I         636 34.13         1.7 0.39                           101 184 
 GUE  SZ EP        636 13.51                             139    -0.610  114   5 
 GRA  SZ EP        636 15.27                             137     0.710  121  11 
                                                                                
