 2016  821 0234 27.1 L   6.722 -73.238141.8  RSN  5 0.4 1.5LRSN                1
 GAP=220        1.05       6.0     8.0  9.5  0.1295E+02  0.9163E+01 -0.9306E+01E
 Epicentro: VILLANUEVA - SANTANDER                                             3
 ACTION:UPD 16-10-29 15:37 OP:rebc STATUS:               ID:20160821023427 L   I
 OLDACT:DUP 16-08-21 14:03 OP:dnl  STATUS:               ID:20160821022736d    3
 2016-08-21-0228-00M.COL___369                                                 6
 STAT SP IPHASW D HRMM SECON CODA AMPLIT PERI AZIMU VELO AIN AR TRES W  DIS CAZ7
 BRR  HZ EP        234 47.38                             153   -0.2210 67.5 309 
 BRR  HE ES        235  4.01                             153    0.4210 67.5 309 
 BRR  HZ I         235  9.43         3.4 0.22                          67.5 309 
 RUS  HZ EP   2    234 49.51                             145   -0.42 5 93.3 169 
 RUS  HE ES        235  7.54                             145   -0.2010 93.3 169 
 RUS  HZ I         235  9.09         3.8 0.36                          93.3 169 
 PTB  HZ EP        234 52.62                             134   -0.07 9  136 262 
 PTB  HN ES        235 11.85                             134   -0.81 9  136 262 
 PTB  HZ I         235 14.63         4.7 0.76                           136 262 
 SPBC HZ EP   2    234 54.24                             131    0.19 5  150 218 
 SPBC HN ES        235 15.74                             131    0.67 9  150 218 
 SPBC HZ I         235 22.32         4.0 0.22                           150 218 
 ZAR  HZ EP        234 59.05                             122    0.38 9  198 296 
 ZAR  HE ES   4    235 22.16                             122   -1.14 0  198 296 
 ZAR  HZ I         235 31.82         5.0 0.10                           198 296 
                                                                                
