 2015  321 0530 20.1 L   6.821 -73.150146.9  RSN  8 0.5 1.4LRSN                1
 GAP=135        1.25       4.3     5.3  7.5 -0.2765E-01  0.9831E+01 -0.4678E+01E
 Epicentro: LOS SANTOS - SANTANDER                                             3
 ACTION:UPD 15-04-30 16:27 OP:nd   STATUS:               ID:20150321053020 L   I
 OLDACT:REG 15-03-21 12:47 OP:stll STATUS:               ID:20150321052747     3
 2015-03-21-0527-47M.COL___269                                                 6
 STAT SP IPHASW D HRMM SECON CODA AMPLIT PERI AZIMU VELO AIN AR TRES W  DIS CAZ7
 BAR2 EZ EP        530 40.18                             170    0.2210 25.6 188 
 BAR2 EZ ES        530 55.77                             170    0.3610 25.6 188 
 BRR  HZ EP        530 41.75                             153    0.4210 69.7 297 
 BRR  HN ES        530 58.30                             153    0.4410 69.7 297 
 PAM  SZ EP        530 43.08                             151    0.6910 75.9  41 
 PAM  SN ES        530 59.43                             151   -0.3110 75.9  41 
 PAM  SZ I         531  1.26         2.6 0.38            156           75.9  41 
 RUS  HZ EP        530 44.20                             143    0.0210  103 176 
 RUS  HE ES        531  1.76                             143   -1.1710  103 176 
 RUS  HZ I         531  6.16         1.6 0.28            144            103 176 
 PTB  HZ EP        530 46.89                             132   -0.32 9  148 258 
 PTB  HN ES        531  8.06                             132   -0.26 9  148 258 
 PTB  HZ I         531 10.18         4.1 0.42            132            148 258 
 SPBC HZ EP        530 48.99                             129    0.11 9  165 218 
 SPBC HN ES        531 11.71                             129    0.42 9  165 218 
 SPBC HZ I         531 18.60         6.1 0.16            129            165 218 
 ZAR  HZ EP        530 52.68                             123    0.15 9  203 292 
 ZAR  HN ES        531 17.83                             123    0.04 9  203 292 
 ZAR  HZ I         531 24.68         3.9 0.40            123            203 292 
 SML  HZ EP        530 56.30                             118   -0.28 8  241 335 
 SML  HN ES        531 24.09                             118   -0.91 8  241 335 
                                                                                
