 2013  921 0419 53.2 L   6.801 -73.168143.9  RSN 17 0.5 2.4LRSN                1
 GAP=134        1.02       2.9     4.7  6.0 -0.2353E+01  0.1382E+02 -0.1274E-01E
 Epicentro: LOS SANTOS - SANTANDER                                             3
 ACTION:UPD 13-10-22 09:23 OP:ep   STATUS:               ID:20130921041953 L   I
 OLDACT:REG 13-09-21 08:15 OP:jn   STATUS:               ID:20130921041959     3
 2013-09-21-0419-59M.COL___269                                                 6
 STAT SP IPHASW D HRMM SECON CODA AMPLIT PERI AZIMU VELO AIN AR TRES W  DIS CAZ7
 BAR2 SZ EP        420 12.66                             170    0.1010 23.1 184 
 BAR2 SZ ES        420 27.27                             170   -0.4210 23.1 184 
 BAR2 SZ I         420 29.65        39.0 0.20            167           23.1 184 
 BRR  HZ EP        420 14.49                             153    0.5010 69.0 299 
 BRR  HE ES   4    420 31.57                             153    1.35 0 69.0 299 
 BRR  HZ I         420 37.64        28.0 0.24            150           69.0 299 
 PAM  SZ EP        420 15.36                             150    0.0910 78.9  41 
 PAM  SN ES        420 32.58                             150    0.0710 78.9  41 
 PAM  SZ I         420 35.11        42.0 0.60            152           78.9  41 
 RUS  HZ EP        420 16.46                             143   -0.2910  101 175 
 RUS  HN ES        420 35.32                             143    0.1710  101 175 
 RUS  HZ I         420 38.10        27.3 0.34            141            101 175 
 PTB  HZ EP        420 19.19                             132   -0.57 9  145 259 
 PTB  HN ES   1    420 40.54                             132    0.03 7  145 259 
 PTB  HZ I         420 42.76        43.3 0.36            129            145 259 
 OCA  HZ EP        420 21.41                             129    0.12 9  160 354 
 OCA  HE ES        420 42.94                             129   -0.29 9  160 354 
 OCA  HZ I         420 48.37        32.3 0.26            129            160 354 
 SPBC HZ EP        420 21.42                             129    0.04 9  162 218 
 SPBC HN ES   1    420 43.63                             129    0.24 7  162 218 
 SPBC HZ I         420 49.46        41.6 0.12            126            162 218 
 ZAR  HZ EP        420 24.98                             122   -0.27 9  202 292 
 ZAR  HE ES   1    420 50.73                             122    0.46 6  202 292 
 NOR  HZ EP        420 28.51                             118   -0.07 8  233 234 
 NOR  HN ES   1    420 56.81                             118    0.61 6  233 234 
 NOR  HZ I         421  0.35        31.3 0.16            116            233 234 
 SML  HE ES   1    420 58.63                             117    0.67 6  243 336 
 CHI  HZ EP   1    420 30.38                             117   -0.32 6  248 195 
 CHI  HN ES   1    420 59.50                             117   -0.48 6  248 195 
 CHI  HZ I         421  8.24        10.0 0.48            115            248 195 
 ROSC BZ EP        420 32.07                             116    1.02 8  252 211 
 URE  HZ EP        420 32.59                             113   -1.30 7  282 292 
 URE  HN ES   4    421  3.86                             113   -1.79 0  282 292 
 GUY2CHZ EP   1    420 37.29                             112    0.82 5  299 234 
 GUY2CHZ I         421 19.47        14.1 0.30                           299 234 
 RREF HZ EP   1    420 39.17                             110    0.15 5  320 229 
 RREF HZ I         421 23.68        17.3 0.26            109            320 229 
 CBOC HZ EP        420 40.32                             110    0.58 7  331 252 
 CBOC HN ES   1    421 15.65                             110   -0.41 5  331 252 
 PRA  HN ES   1    421 26.97                             106   -1.11 4  391 209 
                                                                                
