 2015  421 0123 57.2 L   6.754 -73.135140.7  RSN  7 0.3 1.7LRSN                1
 GAP=235        0.83       5.4     5.3  7.9  0.7534E+01  0.1825E+02  0.4105E+01E
 Epicentro: LOS SANTOS - SANTANDER                                             3
 ACTION:UPD 15-06-03 16:56 OP:cam  STATUS:               ID:20150421012357 L   I
 OLDACT:REG 15-04-21 14:14 OP:cam  STATUS:               ID:20150421011744     3
 2015-04-21-0117-44M.COL___274                                                 6
 STAT SP IPHASW D HRMM SECON CODA AMPLIT PERI AZIMU VELO AIN AR TRES W  DIS CAZ7
 BAR2 EZ EP        124 16.18                             172    0.0510 18.6 196 
 BAR2 EZ ES        124 30.65                             172   -0.2510 18.6 196 
 BAR2 EZ I         124 32.46         8.7 0.15            171           18.6 196 
 BRR  HZ EP     C  124 17.96                             150   -0.0610 74.8 302 
 BRR  HE ES        124 34.86                             150    0.6110 74.8 302 
 BRR  HZ I         124 38.96         8.8 0.20            148           74.8 302 
 RUS  HN ES   1    124 37.94                             144    0.01 7 95.4 177 
 PTB  HZ EP   2    124 23.72                             131   -0.07 5  148 261 
 PTB  HN ES        124 44.03                             131   -0.50 9  148 261 
 PTB  HZ I         124 49.32         4.6 0.13            132            148 261 
 ZAR  HN ES        124 54.70                             121   -0.25 8  207 293 
 ZAR  HZ I         125  0.04         7.3 0.44            122            207 293 
 GUY2CHZ EP   4    124 42.60                             111    2.23 0  299 236 
 GUY2CHN ES        125 14.56                             111    0.53 7  299 236 
 GUY2CHZ I         125 20.77         2.4 0.38                           299 236 
 SJC  HZ EP   4    124 50.67                             105   -2.52 0  414 327 
 SJC  HN ES   4    125 31.59                             105   -5.26 0  414 327 
 SJC  HZ I         125 36.44         2.0 0.43            107            414 327 
                                                                                
