 2016 1021 0501 31.2 L   6.831 -73.161146.0  RSN 10 0.4 1.6LRSN                1
 GAP=133        0.97       3.5     4.7  6.4 -0.4620E+01  0.5462E+01  0.3801E+01E
 Epicentro: LOS SANTOS - SANTANDER                                             3
 ACTION:UPD 16-11-09 19:21 OP:rebc STATUS:               ID:20161021050131 L   I
 OLDACT:UP  16-10-21 16:58 OP:and  STATUS:               ID:20161021045640     3
 OLDACT:REG 16-10-21 13:22 OP:y    STATUS:               ID:20161021045640     3
 2016-10-21-0457-00M.COL___340                                                 6
 STAT SP IPHASW D HRMM SECON CODA AMPLIT PERI AZIMU VELO AIN AR TRES W  DIS CAZ7
 BAR2 EZ IP     C  5 1 50.79                             169   -0.1510 26.5 185 
 BAR2 EZ ES        5 2  5.91                             169   -0.4110 26.5 185 
 BAR2 EZ I         5 2 11.85         7.0 0.26            168           26.5 185 
 BRR  HZ IP     C  5 1 52.54                             154    0.3310 68.1 297 
 BRR  HN ES        5 2  9.49                             154    0.9010 68.1 297 
 BRR  HZ I         5 2 13.64         6.5 0.13            152           68.1 297 
 PAM  EZ IP     D  5 1 53.73                             151    0.3710 75.9  42 
 PAM  EN ES        5 2 10.67                             151    0.0410 75.9  42 
 PAM  EZ I         5 2 12.39         7.5 0.18            158           75.9  42 
 RUS  HZ EP        5 1 55.18                             143   -0.0610  104 175 
 RUS  HN ES        5 2 13.91                             143   -0.0710  104 175 
 RUS  HZ I         5 2 14.86         4.8 0.26            146            104 175 
 PTB  HZ EP        5 1 57.63                             132   -0.49 9  147 257 
 PTB  HN ES        5 2 18.60                             132   -0.50 9  147 257 
 PTB  HZ I         5 2 23.84         4.2 0.17            133            147 257 
 OCA  HZ EP   4    5 2  2.31                             130    3.11 0  157 354 
 OCA  HN ES        5 2 20.49                             130   -0.54 9  157 354 
 OCA  HZ I         5 2 25.20         9.0 0.23            134            157 354 
 SPBC HZ EP        5 2  0.05                             129    0.16 9  165 218 
 SPBC HN ES        5 2 22.33                             129    0.08 9  165 218 
 SPBC HZ I         5 2 31.55         4.9 0.13            130            165 218 
 NOR  HN ES   2    5 2 34.55                             118   -0.41 4  235 234 
 NOR  HZ I         5 2 40.86         4.1 0.20            120            235 234 
 GUY2CHZ EP   4    5 2 17.28                             112    2.37 0  302 234 
 GUY2CHN ES   2    5 2 49.98                             112    0.99 4  302 234 
 PRA  HZ EP   3    5 2 25.60                             106    0.60 1  394 209 
 PRA  HN ES        5 3  7.25                             106    0.30 6  394 209 
 PRA  HZ I         5 3 12.37         1.1 0.21            109            394 209 
 SJC  HZ EP   4    5 2 25.15                             106   -1.19 0  405 327 
 SJC  HN ES   4    5 3  7.21                             106   -2.13 0  405 327 
                                                                                
