 2014 1221 0624 59.2 L   6.900 -73.475112.7  RSN  5 0.4 0.9LRSN                1
 GAP=109        1.02       5.9     4.3  8.5 -0.4435E+01 -0.6356E+00  0.1427E+02E
 Epicentro: SAN VICENTE DE CHUCURI - SANTANDER                                 3
 ACTION:UPD 15-02-10 17:06 OP:nd   STATUS:               ID:20141221062459 L   I
 OLDACT:DUP 14-12-21 17:16 OP:spq  STATUS:               ID:20141221061744d    3
 2014-12-21-0617-43M.COL___299                                                 6
 STAT SP IPHASW D HRMM SECON CODA AMPLIT PERI AZIMU VELO AIN AR TRES W  DIS CAZ7
 BRR  HZ EP     C  625 15.24                             162    0.3510 34.7 311 
 BRR  HN ES        625 27.68                             162    0.5610 34.7 311 
 BRR  HZ I         625 28.55         3.0 0.66            166           34.7 311 
 BAR2 EZ EP        625 16.12                             156    0.3410 47.0 136 
 BAR2 EZ ES   1    625 28.64                             156   -0.07 7 47.0 136 
 BAR2 EZ I         625 29.81         5.9 0.32            154           47.0 136 
 PAM  SZ EP   1    625 19.74                             136    0.05 7 98.5  60 
 PAM  SN ES        625 35.01                             136   -0.6610 98.5  60 
 PAM  SZ I         625 38.54         1.0 0.32            138           98.5  60 
 PTB  HZ EP        625 20.37                             131   -0.1910  116 250 
 PTB  HN ES        625 36.59                             131   -0.6210  116 250 
 PTB  HZ I         625 37.53         2.1 0.42            134            116 250 
 RUS  HZ EP        625 21.78                             130    0.2010  120 159 
 RUS  HN ES   1    625 39.02                             130   -0.00 7  120 159 
 RUS  HZ I         625 43.06         0.6 0.50            131            120 159 
                                                                                
