 2016  321 0605 53.7 L   6.825 -73.144146.5  RSN 16 0.5 1.9LRSN                1
 GAP= 70        1.03       2.6     2.9  5.4 -0.1718E+01  0.2833E+01 -0.9638E+00E
 Epicentro: LOS SANTOS - SANTANDER                                             3
 ACTION:UPD 16-05-13 21:25 OP:cam  STATUS:               ID:20160321060553 L   I
 OLDACT:DUP 16-03-21 17:04 OP:ak   STATUS:               ID:20160321055748d    3
 2016-03-21-0557-45M.COL___283                                                 6
 STAT SP IPHASW D HRMM SECON CODA AMPLIT PERI AZIMU VELO AIN AR TRES W  DIS CAZ7
 BAR2 EZ EP        6 6 13.61                             170    0.1410 26.1 189 
 BAR2 EZ ES        6 6 28.48                             170   -0.4210 26.1 189 
 BAR2 EZ I         6 6 30.26        20.2 0.24            170           26.1 189 
 PAM  EZ EP        6 6 16.52                             152    0.6610 75.2  41 
 PAM  EN ES        6 6 33.80                             152    0.6510 75.2  41 
 PAM  EZ I         6 6 35.71        24.0 0.54            153           75.2  41 
 RUS  HZ EP        6 6 17.47                             143   -0.2510  103 176 
 RUS  HN ES        6 6 36.00                             143   -0.4610  103 176 
 RUS  HZ I         6 6 37.16         3.8 0.32            147            103 176 
 PTB  HZ EP   2    6 6 20.02                             132   -0.76 5  148 258 
 PTB  HN ES        6 6 41.16                             132   -0.76 9  148 258 
 PTB  HZ I         6 6 46.36         6.7 0.28            131            148 258 
 TAM  HZ EP        6 6 21.79                             131    0.30 9  156 106 
 TAM  HN ES        6 6 43.29                             131    0.12 9  156 106 
 TAM  HZ I         6 6 44.35         4.2 0.24            135            156 106 
 OCA  HZ EP        6 6 21.56                             130   -0.24 9  158 353 
 OCA  HE ES        6 6 43.95                             130    0.22 9  158 353 
 OCA  HZ I         6 6 53.34        16.9 0.68            130            158 353 
 SPBC HZ EP        6 6 22.53                             129    0.07 9  165 218 
 SPBC HN ES        6 6 44.81                             129   -0.10 9  165 218 
 SPBC HZ I         6 6 53.39        10.5 0.17            130            165 218 
 ZAR  HZ EP   2    6 6 26.18                             123    0.09 4  203 291 
 ZAR  HN ES        6 6 51.92                             123    0.56 9  203 291 
 ZAR  HZ I         6 6 58.29        15.0 0.38            122            203 291 
 CHI  HZ EP        6 6 31.89                             117    0.16 8  251 195 
 CHI  HE ES        6 7  1.21                             117   -0.19 8  251 195 
 CHI  HZ I         6 7  4.54         5.3 0.56            119            251 195 
 ROSC BZ EP   4    6 6 24.59                             117   -7.53 0  255 211 
 ROSC BE ES        6 7  2.40                             117    0.30 8  255 211 
 ROSC BZ I         6 7  7.36         9.9 0.40            118            255 211 
 HEL  HZ EP   2    6 6 34.54                             115    0.51 4  273 255 
 HEL  HE ES        6 7  5.51                             115    0.01 8  273 255 
 HEL  HZ I         6 7 12.53         4.5 0.34            115            273 255 
 SOCV BZ EP   4    6 6 34.93                             112   -1.66 0  300  57 
 SOCV BN ES   4    6 7  6.77                             112   -3.28 0  300  57 
 GUY2CHZ EP   2    6 6 37.52                             112   -0.01 4  303 234 
 GUY2CHN ES        6 7 12.77                             112    1.05 7  303 234 
 GUY2CHZ I         6 7 17.73         2.4 0.36                           303 234 
 LL6C HZ EP        6 6 38.17                             111   -0.93 7  322 358 
 LL6C HE ES        6 7 14.16                             111   -0.37 7  322 358 
 CBOC HZ EP   2    6 6 40.90                             110    0.15 3  335 252 
 CBOC HN ES        6 7 17.25                             110   -0.21 7  335 252 
 CBOC HZ I         6 7 19.72         0.9 0.09            111            335 252 
 MON  HZ EP   9    6 6 40.80                             109   -1.73 0  352 308 
 MON  HE ES        6 7 19.65                                    0.75 6  352 308 
 MON  HZ I         6 7 36.11         2.6 0.52            109            352 308 
 SDV  BZ EP        6 6 42.68                             109   -0.86 6  359  51 
 SDV  BE ES   4    6 7 20.16                             109   -2.26 0  359  51 
                                                                                
