 2017  421 0829 27.7 L   6.818 -73.152146.0  RSN 13 0.4 2.0LRSN                1
 GAP=111        0.88       3.7     3.2  5.0 -0.2491E+01  0.2963E+01  0.6608E+01E
 Epicentro: LOS SANTOS - SANTANDER                                             3
 ACTION:UPD 17-05-30 21:14 OP:jn   STATUS:               ID:20170421082927 L   I
 OLDACT:UP  17-04-21 18:27 OP:cog  STATUS:               ID:20170421082656     3
 OLDACT:UP  17-04-21 18:27 OP:cog  STATUS:               ID:20170421082656     3
 OLDACT:REG 17-04-21 13:59 OP:cog  STATUS:               ID:20170421082656     3
 2017-04-21-0828-00M.COL___359                                                 6
 STAT SP IPHASW D HRMM SECON CODA AMPLIT PERI AZIMU VELO AIN AR TRES W  DIS CAZ7
 BAR2 EZ EP        829 47.12                             170   -0.2810 25.2 188 
 BAR2 EZ ES        830  2.53                             170   -0.2310 25.2 188 
 BAR2 EZ I         830  3.33        19.1 0.26            167           25.2 188 
 BRR  HZ EP        829 49.05                             153    0.2610 69.6 297 
 BRR  HE ES        830  5.91                             153    0.6710 69.6 297 
 BRR  HZ I         830 10.27         9.4 0.18            151           69.6 297 
 PAM  EZ EP        829 49.88                             151    0.0010 76.3  41 
 PAM  EE ES        830  7.17                             151   -0.0110 76.3  41 
 PAM  EZ I         830  9.30        22.4 0.54            157           76.3  41 
 PTB  HZ EP        829 54.20                             132   -0.46 9  147 258 
 PTB  HN ES        830 15.52                             132   -0.17 9  147 258 
 PTB  HZ I         830 21.00        15.0 0.26            132            147 258 
 SPBC HZ EP        829 56.47                             129    0.15 9  164 218 
 SPBC HN ES        830 18.98                             129    0.34 9  164 218 
 SPBC HZ I         830 23.20        23.1 0.20            129            164 218 
 YPLC HZ EP        829 57.34                             126   -0.38 9  179 151 
 ZAR  HZ EP        830  0.46                             123    0.44 9  203 292 
 ZAR  HN ES        830 24.53                             123   -0.70 9  203 292 
 ZAR  HZ I         830 31.58        11.2 0.16            123            203 292 
 NOR  HZ EP        830  3.34                             118   -0.17 8  235 234 
 NOR  HN ES        830 31.63                             118    0.20 8  235 234 
 NOR  HZ I         830 35.08         7.2 0.14            119            235 234 
 CHI  HZ I         830 40.51         6.0 0.41            118            250 195 
 HEL  HZ EP   3    830  9.35                             115    1.45 2  272 255 
 HEL  HE ES        830 38.82                             115   -0.44 8  272 255 
 HEL  HZ I         830 45.85         4.9 0.38            115            272 255 
 CBOC HZ EP        830 15.51                             110    0.89 7  334 252 
 CBOC HN ES        830 50.88                             110   -0.33 7  334 252 
 CBOC HZ I         831  0.25         2.2 0.42            111            334 252 
 PRA  HZ EP        830 21.61                             106    0.22 6  393 209 
 PRA  HE ES        831  3.49                             106    0.22 6  393 209 
 PRA  HZ I         831  8.91         4.6 0.34            108            393 209 
 ORTC HZ EP   4    830 20.03                             106   -1.74 0  397 216 
 ORTC HE ES        831  3.91                             106   -0.03 6  397 216 
 ORTC HZ I         831 11.83         3.6 0.26            107            397 216 
                                                                                
