 2017  121 0348 49.8 L   6.396 -73.504129.3  RSN  5 0.3 1.0LRSN                1
 GAP=139        0.63       4.5     4.6  6.6  0.1139E+02  0.4793E+01  0.1788E+01E
 Epicentro: CONTRATACION - SANTANDER                                           3
 ACTION:UPD 17-05-22 16:01 OP:jn   STATUS:               ID:20170121034849 L   I
 OLDACT:UP  17-01-21 16:03 OP:dani STATUS:               ID:20170121034740     3
 OLDACT:UP  17-01-21 16:03 OP:dani STATUS:               ID:20170121034740     3
 OLDACT:UP  17-01-21 16:02 OP:dani STATUS:               ID:20170121034740     3
 OLDACT:UP  17-01-21 16:02 OP:dani STATUS:               ID:20170121034740     3
 OLDACT:UP  17-01-21 16:02 OP:dani STATUS:               ID:20170121034740     3
 OLDACT:UP  17-01-21 16:02 OP:dani STATUS:               ID:20170121034740     3
 OLDACT:REG 17-01-21 12:30 OP:dani STATUS:               ID:20170121034740     3
 2017-01-21-0348-00M.COL___342                                                 6
 STAT SP IPHASW D HRMM SECON CODA AMPLIT PERI AZIMU VELO AIN AR TRES W  DIS CAZ7
 BAR2 EZ EP        349  7.79                             161   -0.2510 41.7  59 
 RUS  HZ EP        349 10.43                             149    0.4310 72.6 140 
 RUS  HE ES        349 25.62                             149   -0.1210 72.6 140 
 RUS  HZ I         349 27.67         1.4 0.29            155           72.6 140 
 BRR  HZ EP        349  9.82                             145   -0.0910 82.0 344 
 BRR  HE ES        349 25.71                             145    0.1210 82.0 344 
 BRR  HZ I         349 29.73         3.0 0.33            148           82.0 344 
 PTB  HZ EP        349 11.66                             138   -0.1310  106 279 
 PTB  HN ES   1    349 28.89                             138   -0.05 7  106 279 
 PTB  HZ I         349 31.51         1.6 0.33            141            106 279 
 ZAR  HE ES   3    349 45.01                             120    1.43 2  193 309 
                                                                                
