 2013  421 0333 57.7 L   6.804 -73.159149.4  RSN  7 0.3 1.6LRSN                1
 GAP=135        0.84       4.8     5.1  7.2 -0.3873E+01  0.8303E+01 -0.1078E+01E
 Epicentro: LOS SANTOS - SANTANDER                                             3
 ACTION:UPD 13-05-22 14:39 OP:EP   STATUS:               ID:20130421033357 L   I
 2013-04-21-0330-00M.COL___250                                                 6
 STAT SP IPHASW D HRMM SECON CODA AMPLIT PERI AZIMU VELO AIN AR TRES W  DIS CAZ7
 BAR2 SZ EP        334 17.84                             170    0.0310 23.5 186 
 BAR2 SZ I         334 34.15        11.3 0.24            170           23.5 186 
 GIR2 SZ EP        334 17.87                             168    0.0410 30.6 353 
 GIR2 SZ I         334 36.63         3.9 0.26            167           30.6 353 
 BRR  HZ IP     D  334 19.57                             154    0.3710 69.7 299 
 BRR  HN ES   1    334 36.60                             154    0.66 7 69.7 299 
 BRR  HZ I         334 38.35         9.0 0.22            153           69.7 299 
 PAM  SZ EP        334 20.70                             151    0.3210 78.0  41 
 PAM  SN ES        334 37.47                             151   -0.5710 78.0  41 
 PAM  SZ I         334 40.63         3.4 0.44            149           78.0  41 
 RUS  HZ EP        334 21.94                             144    0.0510  101 175 
 RUS  HE ES   1    334 40.77                             144    0.04 7  101 175 
 RUS  HZ I         334 41.69         6.4 0.30            142            101 175 
 PTB  HZ EP        334 24.58                             133   -0.31 9  146 259 
 PTB  HN ES   1    334 45.57                             133   -0.49 7  146 259 
 PTB  HZ I         334 51.11         6.5 0.48            131            146 259 
 SML  HZ EP        334 34.28                             118   -0.19 8  243 336 
 SML  HN ES   4    335  4.63                             118    1.52 0  243 336 
 SML  HZ I         335  6.28         3.9 0.09            116            243 336 
                                                                                
