 2014  121 0245 31.2 L   6.041 -74.209  8.4  RSN 13 0.5 2.1LRSN                1
 GAP= 63        1.09       2.6     2.2  8.0 -0.1198E+01  0.2285E+01 -0.6142E+01E
 Epicentro: LA BELLEZA - SANTANDER                                             3
 ACTION:UPD 14-03-13 09:57 OP:ep   STATUS:               ID:20140121024531 L   I
 OLDACT:REG 14-01-21 06:38 OP:nd   STATUS:               ID:20140121024000     3
 2014-01-21-0240-00M.COL___279                                                 6
 STAT SP IPHASW D HRMM SECON CODA AMPLIT PERI AZIMU VELO AIN AR TRES W  DIS CAZ7
 SPBC HZ IP     D  245 39.00                              97    0.1310 45.6 161 
 SPBC HN ES        245 44.40                              97   -0.4210 45.6 161 
 SPBC HZ I         245 45.41        92.8 0.22             47           45.6 161 
 PTB  HZ IP   4 D  245 42.44                              95    1.23 0 61.5 334 
 PTB  HN ES   4    245 50.70                              95    1.72 0 61.5 334 
 PTB  HZ I         245 51.30       149.2 0.12             47           61.5 334 
 NOR  HZ IP     C  245 46.15                              93    0.5710 90.2 234 
 NOR  HN ES        245 56.65                              93   -0.1110 90.2 234 
 NOR  HZ I         245 57.30        76.5 0.14             47           90.2 234 
 RUS  HZ IP     D  245 51.07                              92   -0.3310  126  97 
 RUS  HN ES   4    246  5.02                              92   -2.11 0  126  97 
 RUS  HZ I         246  6.18        13.3 0.16             47            126  97 
 BAR2 SZ EP        245 52.35                              92    0.7310  129  62 
 BAR2 SZ ES        246  6.82                              92   -0.7010  129  62 
 BAR2 SZ I         246  9.22        39.0 0.24             47            129  62 
 BRR  HZ EP        245 52.05                              92    0.5010  130  25 
 BRR  HN ES   2    246  7.67                              92    0.27 5  130  25 
 BRR  HZ I         246  9.77        89.4 0.12             47            130  25 
 ROSC BZ EP   4    245 54.01                              92    1.55 0  133 185 
 ROSC BN ES   4    246 10.47                              92    1.46 0  133 185 
 HEL  HZ IP     D  245 54.87                              92    0.36 9  147 277 
 HEL  HN ES        246 11.96                              92   -0.70 9  147 277 
 HEL  HZ I         246 13.59        46.3 0.20             47            147 277 
 GUY2CHZ EP   4    245 56.84                              92    0.75 0  157 235 
 GUY2CHN ES   4    246 14.51                              92   -0.95 0  157 235 
 GUY2CHZ I         246 18.35        21.3 0.24                           157 235 
 CHI  HZ EP   2    245 57.53                              56    0.31 5  165 161 
 CHI  HN ES   2    246 17.89                              56    0.40 5  165 161 
 CHI  HZ I         246 22.84        17.3 0.48             47            165 161 
 ZAR  HZ EP   2    245 57.68                              56   -0.43 4  176 336 
 ZAR  HN ES   1    246 18.63                              56   -0.44 7  176 336 
 ZAR  HZ I         246 23.87        13.6 0.24             47            176 336 
 CBOC HZ EP   4    246  3.59                              56    2.17 0  201 265 
 CBOC HN ES   4    246 27.07                              56    2.12 0  201 265 
 CBOC HZ I         246 32.13         7.9 0.58             37            201 265 
 PAM  SZ EP   4    246  6.58                              56    2.35 0  220  49 
 PAM  SN ES   4    246 31.92                              56    1.96 0  220  49 
 PAM  SZ I         246 34.01        14.2 0.66             37            220  49 
 ORTC HZ EP   3    246  9.55                              56    0.59 2  262 206 
 ORTC HN ES   4    246 42.55                              56    4.16 0  262 206 
 ORTC HZ I         246 48.47         4.5 0.16             37            262 206 
                                                                                
