 2016  521 0305 17.6 L   6.751 -73.143148.5  RSN  6 0.4 1.5LRSN                1
 GAP=157        0.87       5.1     4.6  6.8 -0.5896E+01  0.6382E+01 -0.5139E+01E
 Epicentro: LOS SANTOS - SANTANDER                                             3
 ACTION:UPD 16-08-18 17:47 OP:cam  STATUS:               ID:20160521030517 L   I
 OLDACT:DUP 16-05-21 15:17 OP:mh   STATUS:               ID:20160521025747d    3
 2016-05-21-0257-46M.COL___296                                                 6
 STAT SP IPHASW D HRMM SECON CODA AMPLIT PERI AZIMU VELO AIN AR TRES W  DIS CAZ7
 BAR2 EZ EP        3 5 37.65                             173    0.1510 18.1 194 
 BAR2 EZ ES        3 5 52.73                             173   -0.2610 18.1 194 
 BAR2 EZ I         3 5 53.90         5.1 0.15            171           18.1 194 
 PAM  EZ EP        3 5 40.56                             150    0.1810 81.4  37 
 PTB  HZ EP        3 5 44.37                             133   -0.39 9  147 261 
 PTB  HN ES        3 6  5.71                             133   -0.21 9  147 261 
 PTB  HZ I         3 6  8.06         3.1 0.41            131            147 261 
 SPBC HZ EP        3 5 46.55                             130    0.58 9  159 220 
 SPBC HN ES        3 6  8.25                             130    0.18 9  159 220 
 SPBC HZ I         3 6 10.65         4.6 0.22            130            159 220 
 ZAR  HZ EP        3 5 50.11                             123   -0.38 8  206 293 
 ZAR  HN ES        3 6 16.67                             123    0.54 8  206 293 
 ZAR  HZ I         3 6 22.02         4.0 0.24            122            206 293 
 NOR  HZ EP        3 5 52.66                             119   -0.55 8  232 236 
 NOR  HN ES        3 6 21.05                             119    0.08 8  232 236 
 NOR  HZ I         3 6 27.27         2.0 0.50            119            232 236 
                                                                                
