 2010  821 0517 17.3 L   5.952 -73.680120.5  RSN  4 0.3 1.1LRSN                1
 GAP=263        0.57       7.9    17.4 13.7  0.1095E+03  0.1878E+03  0.7570E+02E
 Epicentro: VELEZ - SANTANDER                                                  3
 ACTION:UP  10-09-07 10:57 OP:vdl  STATUS:               ID:20100821051717 L   I
 2010-08-21-0514-43S.COL___120                                                 6
 STAT SP IPHASW D HRMM SECON CODA AMPLIT PERI AZIMU VELO SNR AR TRES W  DIS CAZ7
 RUS  HZ EP        517 36.14                             147     0.010   66  96 
 RUS  HZ I         517 36.65         1.1 0.12                            66  96 
 RUS  HN ES   2    517 50.72                             147    -0.1 5   66  96 
 BAR2 SZ ES   1    517 53.24                             139     0.2 7   90  38 
 BAR2 SZ I         517 55.77         4.8 0.53                            90  38 
 BTL  SZ EP        517 39.75                             131     0.110  116  23 
 BTL  SZ ES   2    517 56.43                                    -0.6 5  116  23 
 BRR  HZ EP   2    517 39.83                             129    -0.5 5  128 358 
 BRR  HZ I         517 41.49         3.7 0.33                           128 358 
 BRR  HN ES   1    517 58.47                             129     0.1 7  128 358 
                                                                                
