 2014 1221 0838 11.0 L   6.774 -73.146147.8  RSN  4 0.3 0.8LRSN                1
 GAP=138        0.74       4.8     4.4  7.2 -0.3310E+01 -0.4223E-01  0.9498E+01E
 Epicentro: LOS SANTOS - SANTANDER                                             3
 ACTION:UPD 15-02-10 17:06 OP:nd   STATUS:               ID:20141221083811 L   I
 OLDACT:DUP 14-12-21 18:52 OP:spq  STATUS:               ID:20141221083748d    3
 2014-12-21-0837-45M.COL___299                                                 6
 STAT SP IPHASW D HRMM SECON CODA AMPLIT PERI AZIMU VELO AIN AR TRES W  DIS CAZ7
 BRR  HZ EP        838 32.55                             152    0.1210 72.6 301 
 BRR  HE ES        838 49.61                             152    0.4510 72.6 301 
 BRR  HZ I         838 50.42         2.0 0.44            152           72.6 301 
 PAM  SZ EP        838 33.61                             150    0.0610 79.6  38 
 PAM  SN ES        838 50.81                             150   -0.3410 79.6  38 
 PAM  SZ I         838 51.70         1.1 0.60            153           79.6  38 
 RUS  HZ EP        838 34.81                             145    0.0810 97.7 176 
 RUS  HN ES   1    838 53.24                             145   -0.01 7 97.7 176 
 RUS  HZ I         838 54.54         0.6 0.28            146           97.7 176 
 PTB  HZ EP   1    838 38.01                             132   -0.06 7  147 260 
 PTB  HN ES   1    838 58.50                             132   -0.69 7  147 260 
 PTB  HZ I         839  2.01         0.7 0.22            133            147 260 
                                                                                
