 2013  621 0943 48.7 L   6.722 -73.157153.6  RSN  6 0.3 1.5LRSN                1
 GAP=181        0.61       4.4     5.3  6.5  0.5105E+01  0.1664E+01 -0.9567E+01E
 Epicentro: VILLANUEVA - SANTANDER                                             3
 ACTION:UPD 14-01-08 09:56 OP:ep   STATUS:               ID:20130621094348 L   I
 OLDACT:REG 13-06-21 09:13 OP:carl STATUS:               ID:20130621093959     3
 2013-06-21-0939-59M.COL___263                                                 6
 STAT SP IPHASW D HRMM SECON CODA AMPLIT PERI AZIMU VELO AIN AR TRES W  DIS CAZ7
 BAR2 SZ EP        944  9.13                             174    0.0310 14.6 191 
 BAR2 SZ ES   1    944 24.71                             174   -0.33 7 14.6 191 
 BAR2 SZ I         944 26.19         6.9 0.28            172           14.6 191 
 GIR2 SZ EP        944  9.25                             165   -0.2610 39.7 354 
 BRR  HZ EP        944 11.23                             153    0.3710 74.7 305 
 BRR  HN ES   1    944 28.49                             153    0.33 7 74.7 305 
 RUS  HN ES        944 31.44                             148    0.1310 92.1 175 
 RUS  HZ I         944 32.80         3.8 0.28            148           92.1 175 
 PTB  HZ EP   1    944 15.81                             134   -0.24 7  145 262 
 PTB  HN ES   1    944 37.16                             134   -0.24 7  145 262 
 PTB  HZ I         944 39.31         6.6 0.16            134            145 262 
 OCA  HE ES   2    944 41.37                             130   -0.18 5  169 354 
                                                                                
