 2013  521 0615 18.8 L   6.772 -73.175145.3  RSN  6 0.4 1.9LRSN                1
 GAP=134        1.13       5.7     5.7  7.4 -0.3774E+01  0.4823E+01  0.4904E+01E
 Epicentro: LOS SANTOS - SANTANDER                                             3
 ACTION:UPD 13-06-20 09:52 OP:ep   STATUS:               ID:20130521061518 L   I
 2013-05-21-0608-53M.COL___219                                                 6
 STAT SP IPHASW D HRMM SECON CODA AMPLIT PERI AZIMU VELO AIN AR TRES W  DIS CAZ7
 BAR2 SZ EP        615 38.29                             172    0.0310 19.9 182 
 BAR2 SZ ES        615 53.60                             172    0.1210 19.9 182 
 BAR2 SZ I         615 56.07         8.3 0.24            170           19.9 182 
 GIR2 SZ EP        615 38.38                             166   -0.0710 34.0 356 
 GIR2 SZ ES        615 53.50                             166   -0.3110 34.0 356 
 BRR  HZ EP        615 40.01                             153    0.2210 70.0 302 
 BRR  HN ES        615 57.18                             153    0.9910 70.0 302 
 BRR  HN I         615 58.05        30.8 0.20            152           70.0 302 
 PAM  SZ EP        615 41.19                             149   -0.0010 81.8  40 
 PAM  SZ I         615 41.44        17.0 0.20            153           81.8  40 
 PAM  SN ES        615 58.20                             149   -0.4910 81.8  40 
 RUS  HZ EP        615 42.60                             144    0.3410 97.7 174 
 RUS  HN ES        616  0.54                             144   -0.0410 97.7 174 
 RUS  HN I         616  2.79        11.7 0.34            145           97.7 174 
 PTB  HZ EP        615 45.24                             133   -0.11 9  144 260 
 PTB  HN ES        616  5.28                             133   -0.81 9  144 260 
 PTB  HN I         616 10.84         7.2 0.38            132            144 260 
                                                                                
