 2012  521 0155 49.5 L   6.774 -73.135145.7  RSN 13 0.4 2.7LRSN                1
 GAP=139        1.01       3.3     4.2  5.4 -0.2275E+01  0.6520E+01  0.3260E+01E
 Epicentro: LOS SANTOS - SANTANDER                                             3
 ACTION:UP  12-07-05 12:06 OP:pat  STATUS:               ID:20120521015549 L   I
 2012-05-21-0140-35M.COL___190                                                 6
 STAT SP IPHASW D HRMM SECON CODA AMPLIT PERI AZIMU VELO SNR AR TRES W  DIS CAZ7
 BAR2 SZ EP        156  9.35                             171     0.310   21 195 
 BAR2 SZ ES        156 23.80                             171    -0.610   21 195 
 BAR2 SZ I         156 27.34       173.4 0.39                            21 195 
 BRR  HZ IP     C  156 11.20                             152     0.410   74 300 
 BRR  HE ES        156 28.16                             152     0.810   74 300 
 BRR  HZ I         156 31.18        98.5 0.15                            74 300 
 PAM  SZ EP        156 12.11                             150     0.310   79  38 
 PAM  SN ES        156 29.25                             150     0.010   79  38 
 RUS  HZ IP     D  156 13.15                             145     0.110   98 177 
 RUS  HE ES        156 31.25                             145    -0.210   98 177 
 RUS  HZ I         156 33.20        62.5 0.20                            98 177 
 PTB  HZ EP        156 15.97                             132    -0.6 9  148 260 
 PTB  HE ES   1    156 36.95                             132    -0.7 7  148 260 
 PTB  HZ I         156 44.64        53.2 0.38                           148 260 
 OCA  HZ EP        156 17.57                             129    -0.5 9  163 353 
 OCA  HN ES   1    156 40.20                             129    -0.2 7  163 353 
 ZAR  HZ EP   1    156 21.60                             122    -0.6 6  206 293 
 ZAR  HN ES   1    156 47.63                             122     0.0 6  206 293 
 ZAR  HZ I         156 55.11        50.4 0.13                           206 293 
 NOR  SZ EP        156 25.18                             119     0.0 8  234 235 
 NOR  SE ES        156 53.47                             119     0.5 8  234 235 
 CHI  HZ EP        156 27.11                             117     0.2 8  246 196 
 CHI  HE ES   1    156 55.91                             117    -0.2 6  246 196 
 HEL  HZ EP   1    156 30.24                             115     0.5 6  273 256 
 HEL  HN ES   1    157  0.80                             115    -0.4 6  273 256 
 HEL  HZ I         157  7.68        24.6 0.26                           273 256 
 VIL  SZ EP   1    156 32.41                             112    -0.2 5  301 192 
 VIL  SZ I         157 17.80        19.8 0.70                           301 192 
 RREF HZ EP   1    156 36.12                             111     0.6 5  321 230 
 RREF HE ES   1    157 11.41                             111     0.0 5  321 230 
 RREF HZ I         157 17.73        31.2 0.23                           321 230 
 PRA  HZ EP   1    156 42.87                             107     0.1 4  390 210 
 PRA  HN ES   1    157 24.66                             107     0.3 4  390 210 
                                                                                
