 2017  421 0335  1.7 L   6.822 -73.115147.2  RSN  6 0.2 1.5LRSN                1
 GAP=139        0.65       3.7     3.4  5.1  0.1851E+01 -0.4292E+00 -0.4095E+01E
 Epicentro: LOS SANTOS - SANTANDER                                             3
 ACTION:UPD 17-05-30 21:14 OP:jn   STATUS:               ID:20170421033501 L   I
 OLDACT:UP  17-04-21 15:51 OP:cog  STATUS:               ID:20170421032741d    3
 OLDACT:DUP 17-04-21 15:36 OP:cog  STATUS:               ID:20170421032741d    3
 2017-04-21-0328-00M.COL___371                                                 6
 STAT SP IPHASW D HRMM SECON CODA AMPLIT PERI AZIMU VELO AIN AR TRES W  DIS CAZ7
 BAR2 EZ EP        335 21.31                             169   -0.2810 26.4 196 
 BAR2 EZ ES        335 37.06                             169   -0.0310 26.4 196 
 BAR2 EZ I         335 39.11        12.9 0.26            168           26.4 196 
 BRR  HZ EP        335 23.35                             152    0.2110 73.1 296 
 BRR  HE ES        335 40.02                             152    0.1810 73.1 296 
 BRR  HZ I         335 40.76         7.5 0.12            151           73.1 296 
 PAM  EZ EP        335 24.28                             152    0.4210 73.4  39 
 PAM  EE ES        335 40.90                             152   -0.2310 73.4  39 
 PAM  EZ I         335 43.47         5.3 0.56            155           73.4  39 
 RUS  HZ EP   3    335 25.51                             144   -0.27 2  103 178 
 RUS  HN ES        335 44.54                             144    0.0010  103 178 
 RUS  HZ I         335 45.51         2.5 0.40            144            103 178 
 PTB  HZ EP   9    335 28.15                             132   -1.00 0  152 258 
 PTB  HN ES        335 49.82                             115    0.27 9  152 258 
 PTB  HZ I         335 56.31         3.7 0.16            131            152 258 
 ZAR  HN ES        335 59.72                             122   -0.34 8  206 291 
                                                                                
