 2016  721 0922 14.8 L   6.744 -73.155140.3  RSN  5 0.3 1.6LRSN                1
 GAP=232        0.79       4.4     5.7  6.3  0.1143E+02  0.7859E+01  0.3548E+01E
 Epicentro: LOS SANTOS - SANTANDER                                             3
 ACTION:UPD 17-03-29 16:53 OP:lp   STATUS:               ID:20160721092214 L   I
 OLDACT:UP  16-07-21 18:47 OP:ar   STATUS:               ID:20160721091759     3
 OLDACT:UP  16-07-21 18:36 OP:ar   STATUS:               ID:20160721091759     3
 OLDACT:REG 16-07-21 14:23 OP:ar   STATUS:               ID:20160721091759     3
 2016-07-21-0917-59S.COL___304                                                 6
 STAT SP IPHASW D HRMM SECON CODA AMPLIT PERI AZIMU VELO AIN AR TRES W  DIS CAZ7
 BAR2 EZ EP        922 33.42                             173   -0.2610 17.0 190 
 BAR2 EZ ES        922 47.89                             173   -0.5010 17.0 190 
 BRR  HZ EP        922 35.54                             151    0.0210 73.5 303 
 BRR  HN ES        922 52.07                             151    0.4110 73.5 303 
 BRR  HZ I         922 56.49         4.7 0.38            147           73.5 303 
 RUS  HZ EP        922 37.72                             144    0.1310 94.4 175 
 RUS  HE ES        922 55.81                             144    0.4510 94.4 175 
 PTB  HZ EP   4    922 40.00                             131   -1.15 0  146 261 
 PTB  HN ES   4    923  1.60                             131   -0.10 0  146 261 
 SPBC HZ EP        922 42.37                             129   -0.01 9  158 220 
 SPBC HN ES        923  3.64                             129   -0.24 9  158 220 
 SPBC HZ I         923  7.09         9.3 0.22            129            158 220 
 ZAR  HN ES        923 12.18                             121   -0.05 8  206 294 
 ZAR  HZ I         923 17.43         3.9 0.42            121            206 294 
                                                                                
