 2010  421 0412 34.0 L   6.765 -73.010144.0  RSN  4 0.3 1.9LRSN                1
 GAP=207        0.60       7.8    12.6  8.6 -0.2145E+02 -0.3357E+02  0.1709E+02E
 Epicentro: CEPITA - SANTANDER                                                 3
 ACTION:UPD 10-08-24 10:00 OP:vdl  STATUS:               ID:20100421041233 L   I
 2010-04-21-0408-08S.COL___104                                                 6
 STAT SP IPHASW D HRMM SECON CODA AMPLIT PERI AZIMU VELO AIN AR TRES W  DIS CAZ7
 BAR2 SZ ES   2    413  8.68                             168     0.0 5   27 225 
 BRR  HZ IP     C  412 55.63                             147    -0.310   86 296 
 BRR  HZ I         412 55.90        20.1 0.14                            86 296 
 BRR  HN ES   1    413 13.14                             147     0.2 7   86 296 
 GUE  SZ EP   2    412 59.19                             139     0.5 5  118   5 
 PRA  HZ EP   2    413 27.65                             106    -0.3 3  396 212 
 PRA  HN ES   2    414 10.78                             106     0.7 3  396 212 
 PRA  HZ I         414 13.19         1.9 0.40                           396 212 
                                                                                
