 2017  221 0238 40.9 L   6.653 -73.734 98.3  RSN  4 0.2 0.9LRSN                1
 GAP=137        0.67       4.5     3.6  7.5  0.2456E+01 -0.2126E+01  0.1429E+02E
 Epicentro: EL CARMEN - SANTANDER                                              3
 ACTION:UPD 17-05-24 15:38 OP:jn   STATUS:               ID:20170221023840 L   I
 OLDACT:DUP 17-02-21 15:45 OP:dani STATUS:               ID:20170221022750d    3
 OLDACT:REG 17-02-21 13:46 OP:dani STATUS:               ID:20170221022749     3
 2017-02-21-0228-00M.COL___379                                                 6
 STAT SP IPHASW D HRMM SECON CODA AMPLIT PERI AZIMU VELO AIN AR TRES W  DIS CAZ7
 BRR  HZ EP        238 55.47                             151   -0.2910 50.3   3 
 BRR  HE ES        239  7.38                             151    0.0510 50.3   3 
 BRR  HZ I         239  9.25         4.0 0.20            152           50.3   3 
 PTB  HZ EP     C  238 57.68                             138   -0.3210 80.9 261 
 PTB  HN ES        239 11.35                             138    0.0310 80.9 261 
 PTB  HZ I         239 11.94         1.8 0.12            140           80.9 261 
 RUS  HZ EP        239  1.64                             129    0.3010  111 139 
 ZAR  HN ES        239 24.60                             118    0.30 9  155 307 
                                                                                
