 2012  921 0125 39.0 L   7.397 -73.403117.7  RSN  8 0.5 2.2LRSN                1
 GAP=153        0.86       5.8     4.0  8.0  0.7278E+01  0.5330E+01 -0.1234E+02E
 Epicentro: SABANA DE TORRES - SANTANDER                                       3
 ACTION:UPD 12-10-22 14:20 OP:ep   STATUS:               ID:20120921012539 L   I
 2012-09-21-0119-40M.COL___209                                                 6
 STAT SP IPHASW D HRMM SECON CODA AMPLIT PERI AZIMU VELO AIN AR TRES W  DIS CAZ7
 GIR2 SZ EP        125 55.70                             159   -0.0210 42.1 147 
 BRR  HZ EP        125 55.71                             157   -0.0210 46.8 227 
 BRR  HN ES   1    126  8.56                             157   -0.25 7 46.8 227 
 PAM  SZ EP        125 58.61                             144    0.3010 77.9  95 
 PAM  SN ES   1    126 13.32                             144   -0.08 7 77.9  95 
 PAM  SN I         126 14.76        49.3 0.44                          77.9  95 
 BAR2 SZ EP        125 59.21                             139    0.1810 92.2 165 
 BAR2 SZ ES   1    126 14.28                             139   -0.41 7 92.2 165 
 PTB  HN ES   2    126 22.97                             124   -0.61 5  150 231 
 PTB  HN I         126 27.00        22.6 0.22                           150 231 
 ZAR  HZ EP   1    126  5.80                             122    0.68 7  161 274 
 ZAR  HN ES   1    126 26.40                             122    0.86 7  161 274 
 RUS  HZ EP   1    126  6.35                             121   -0.35 7  170 168 
 RUS  HE ES   2    126 28.49                             121    0.14 5  170 168 
 MON  HZ EP   1    126 18.89                             107   -0.90 5  292 302 
 MON  HN ES   1    126 50.90                             107   -0.75 5  292 302 
 MON  HN I         126 52.31         8.9 0.28                           292 302 
                                                                                
