 2016  421 0839 55.7 L   6.294 -73.604113.3  RSN  5 0.4 1.5LRSN                1
 GAP=101        1.11       5.3     4.5  9.2  0.4717E+01  0.1252E+02 -0.1096E+02E
 Epicentro: SANTA HELENA DEL OPON - SANTANDER                                  3
 ACTION:UPD 16-05-05 14:23 OP:rebc STATUS:               ID:20160421083955 L   I
 OLDACT:ARG 16-04-21 12:49 OP:cara STATUS:               ID:20160421083748     3
 2016-04-21-0837-48M.COL___297                                                 6
 STAT SP IPHASW D HRMM SECON CODA AMPLIT PERI AZIMU VELO AIN AR TRES W  DIS CAZ7
 BAR2 EZ EP        840 13.06                             151    0.1510 57.2  55 
 BAR2 EZ ES        840 26.03                             151   -0.3010 57.2  55 
 BAR2 EZ I         840 27.80         9.5 0.20            154           57.2  55 
 RUS  HZ EP        840 14.39                             145    0.1110 72.8 128 
 RUS  HE ES        840 28.96                             145    0.2110 72.8 128 
 RUS  HZ I         840 30.16         3.5 0.20            149           72.8 128 
 SPBC HZ EP        840 15.34                             139    0.5010 87.8 216 
 SPBC HE ES        840 29.17                             139   -0.5810 87.8 216 
 SPBC HZ I         840 32.40         9.1 0.36            142           87.8 216 
 PTB  HZ EP        840 14.89                             136   -0.6910 98.1 286 
 PTB  HN ES        840 31.77                             136    0.7110 98.1 286 
 PTB  HZ I         840 32.11         6.9 0.32            137           98.1 286 
 ZAR  HZ EP        840 24.87                             116   -0.05 9  192 314 
 ZAR  HE ES        840 47.60                             116   -0.10 9  192 314 
 ZAR  HZ I         840 52.60         5.5 0.32            117            192 314 
                                                                                
