 2016  521 0301 17.8 L   6.806 -73.189139.4  RSN  6 0.3 1.6LRSN                1
 GAP=136        0.76       4.0     3.7  5.8 -0.5915E+01  0.8564E+01 -0.1393E+01E
 Epicentro: ZAPATOCA - SANTANDER                                               3
 ACTION:UPD 16-08-18 17:47 OP:cam  STATUS:               ID:20160521030117 L   I
 OLDACT:UP  16-05-21 15:17 OP:mh   STATUS:               ID:20160521025746     3
 OLDACT:REG 16-05-21 12:53 OP:mh   STATUS:               ID:20160521025746     3
 2016-05-21-0257-46M.COL___296                                                 6
 STAT SP IPHASW D HRMM SECON CODA AMPLIT PERI AZIMU VELO AIN AR TRES W  DIS CAZ7
 BAR2 EZ EP        3 1 36.56                             170   -0.0610 23.6 178 
 BAR2 EZ ES        3 1 51.29                             170   -0.0510 23.6 178 
 PAM  EZ EP        3 1 39.24                             149   -0.2210 80.0  42 
 PAM  EN ES        3 1 56.60                             149    0.2110 80.0  42 
 PAM  EZ I         3 1 58.75        11.3 0.40            152           80.0  42 
 PTB  HZ EP        3 1 43.48                             131   -0.31 9  143 258 
 PTB  HN ES        3 2  3.55                             131   -0.55 9  143 258 
 PTB  HZ I         3 2 10.85         3.0 0.22            132            143 258 
 SPBC HZ EP        3 1 45.48                             128   -0.06 9  161 218 
 SPBC HN ES        3 2  7.67                             128    0.47 9  161 218 
 SPBC HZ I         3 2  9.55         9.3 0.26            131            161 218 
 ZAR  HZ EP        3 1 49.86                             122    0.55 9  199 292 
 ZAR  HN ES        3 2 14.08                             122    0.16 9  199 292 
 ZAR  HZ I         3 2 20.97         3.3 0.69            122            199 292 
 NOR  HZ EP   1    3 1 52.50                             117   -0.25 6  231 234 
 NOR  HN ES        3 2 20.19                             117    0.15 8  231 234 
 NOR  HZ I         3 2 22.83         2.6 0.18            120            231 234 
                                                                                
