 2010 1021 0830  6.1 L   5.785 -74.101  0.0  RSN  4 0.2 1.2LRSN                1
 GAP=214        0.48       2.2     4.7  5.8  0.3155E+01 -0.6702E+01 -0.3183E+01E
 Epicentro: FLORIAN - SANTANDER                                                3
 ACTION:UP  11-02-18 11:11 OP:tino STATUS:               ID:20101021083006 L   I
 2010-10-21-0827-08S.COL___125                                                 6
 STAT SP IPHASW D HRMM SECON CODA AMPLIT PERI AZIMU VELO SNR AR TRES W  DIS CAZ7
 RUS  HZ EP   1    830 25.00                              47     0.0 8  113  84 
 RUS  HN ES   2    830 39.61                              47    -0.1 5  113  84 
 CHI  HN ES   2    830 45.36                              47     0.2 5  134 162 
 CHI  HZ I         830 49.41         2.5 0.36                           134 162 
 BAR2 SZ ES   2    830 45.00                              47    -0.1 5  135  49 
 BAR2 SZ I         830 45.24         7.2 0.07                           135  49 
 BRR  HZ EP   1    830 30.05                              47    -0.3 7  152  16 
 BRR  HE ES        830 49.49                              47     0.210  152  16 
 BRR  HZ I         830 52.79         4.2 0.50                           152  16 
                                                                                
