 2011  421 0523 55.6 L   6.759 -73.112150.8  RSN  5 0.2 1.6LRSN                1
 GAP=186        0.32       3.3    12.6  9.0 -0.1079E+01  0.3597E+02  0.1903E+01E
 Epicentro: LOS SANTOS - SANTANDER                                             3
 ACTION:UP  11-06-22 15:32 OP:REBC STATUS:               ID:20110421052355 L   I
 2011-04-21-0523-32S.COL___139                                                 6
 STAT SP IPHASW D HRMM SECON CODA AMPLIT PERI AZIMU VELO SNR AR TRES W  DIS CAZ7
 BAR2 SZ ES   3    524 31.06                             172    -0.4 2   20 203 
 GIR2 SZ EP   3    524 15.92                             166    -0.1 2   36 346 
 BRR  HZ EP        524 17.53                             152     0.010   77 300 
 BRR  HZ I         524 18.98         6.6 0.08                            77 300 
 BRR  HN ES   3    524 35.03                             152     0.3 2   77 300 
 RUS  HZ EP   3    524 19.74                             146     0.3 2   96 178 
 RUS  HN ES   3    524 38.36                             146     0.2 2   96 178 
 OCA  SZ ES   1    524 47.50                             130     0.0 7  165 352 
 OCA  SZ I         524 50.66         5.5 0.37                           165 352 
                                                                                
