 2013  221 0410 45.6 L   6.767 -73.169153.0  RSN  5 0.2 1.4LRSN                1
 GAP=198        0.47       3.3     5.3  5.4  0.8499E+01 -0.3464E+01 -0.9177E+00E
 Epicentro: LOS SANTOS - SANTANDER                                             3
 ACTION:UPD 13-03-12 09:34 OP:ep   STATUS:               ID:20130221041045 L   I
 2013-02-21-0410-00M.COL___238                                                 6
 STAT SP IPHASW D HRMM SECON CODA AMPLIT PERI AZIMU VELO AIN AR TRES W  DIS CAZ7
 BRR  HZ EP   1    411  7.54                             154    0.07 7 70.8 302 
 BRR  HE ES   1    411 24.74                             154    0.18 7 70.8 302 
 BRR  HZ I         411 28.04         3.0 0.21            155           70.8 302 
 RUS  HZ EP   1    411  9.75                             146   -0.04 7 97.2 174 
 RUS  HN ES   1    411 28.54                             146   -0.16 7 97.2 174 
 RUS  HN I         411 30.21         4.6 0.24            149           97.2 174 
 PTB  HZ EP   1    411 12.45                             134   -0.39 7  145 260 
 PTB  HE ES   1    411 34.15                             134    0.03 7  145 260 
 PTB  HE I         411 36.12         4.5 0.32            137            145 260 
 CHI  HZ EP   1    411 23.68                             119    0.46 6  244 195 
 SML  HE ES   1    411 51.85                             119   -0.06 6  246 336 
                                                                                
