 2017  221 0523 39.7 L   6.798 -73.319  7.7  RSN  5 0.2 0.7LRSN                1
 GAP=198        0.67       2.7     2.7  5.1  0.5605E+01  0.3067E+01 -0.1022E+01E
 Epicentro: ZAPATOCA - SANTANDER                                               3
 ACTION:UPD 17-05-24 15:38 OP:jn   STATUS:               ID:20170221052339 L   I
 OLDACT:UP  17-02-21 16:52 OP:dani STATUS:               ID:20170221051741     3
 OLDACT:REG 17-02-21 14:26 OP:dani STATUS:               ID:20170221051741     3
 2017-02-21-0518-00M.COL___379                                                 6
 STAT SP IPHASW D HRMM SECON CODA AMPLIT PERI AZIMU VELO AIN AR TRES W  DIS CAZ7
 BAR2 EZ EP     D  523 44.57                             100   -0.1710 27.4 146 
 BAR2 EZ ES        523 48.70                             100    0.0310 27.4 146 
 BAR2 EZ I         523 48.99        24.1 0.10            104           27.4 146 
 BRR  HZ EP     D  523 48.49                              94   -0.2010 55.2 308 
 BRR  HN ES        523 55.73                              94    0.0410 55.2 308 
 BRR  HZ I         523 56.37         3.2 0.24             96           55.2 308 
 RUS  HZ EP        523 56.63                              92    0.1210  104 165 
 RUS  HN ES        524  9.53                              92   -0.0810  104 165 
 RUS  HZ I         524 10.96         1.4 0.50             93            104 165 
 PTB  HZ EP        524  0.47                              92    0.6110  129 257 
 PTB  HN ES        524 15.29                              92   -0.3010  129 257 
 PTB  HZ I         524 17.50         1.2 0.12             93            129 257 
 ZAR  HE ES        524 29.97                              56   -0.04 9  186 294 
                                                                                
