 2012  221 0756 38.6 L   6.776 -73.146142.0  RSN 10 0.4 2.0LRSN                1
 GAP=138        0.82       4.5     5.3  5.9 -0.2545E+01  0.7241E+01  0.9139E+01E
 ACTION:UP  12-03-07 16:32 OP:epov STATUS:               ID:20120221075638 L   I
 2012-02-21-0750-00M.COL___191                                                 6
 STAT SP IPHASW D HRMM SECON CODA AMPLIT PERI AZIMU VELO AIN AR TRES W  DIS CAZ7
 BAR2 SZ EP        756 57.57                             171   -0.1110 20.7 191 
 BAR2 SZ ES   1    757 12.19                             171   -0.41 7 20.7 191 
 BAR2 SZ I         757 15.79        24.9 0.27                          20.7 191 
 GIR2 SZ EP   1    756 57.68                             166   -0.17 7 33.8 351 
 GIR2 SZ ES   1    757 13.10                             166    0.20 7 33.8 351 
 BRR  HZ EP   1    756 59.47                             152    0.10 7 72.4 300 
 BRR  HE ES   1    757 16.48                             152    0.88 7 72.4 300 
 BRR  HZ I         757 17.77        27.2 0.13                          72.4 300 
 PAM  SZ EP   1    757  0.42                             150   -0.08 7 79.5  38 
 PAM  SZ I         757  0.77        14.2 0.18                          79.5  38 
 PAM  SN ES   1    757 17.56                             150   -0.05 7 79.5  38 
 RUS  HZ EP   1    757  1.53                             144   -0.22 7 98.0 176 
 RUS  HN ES   1    757 20.26                             144    0.42 7 98.0 176 
 RUS  HZ I         757 21.69        18.5 0.46                          98.0 176 
 PTB  HZ EP   1    757  4.34                             131   -0.82 7  147 260 
 PTB  HN ES   1    757 25.27                             131   -0.65 7  147 260 
 CHI  HZ EP   1    757 15.84                             117    0.07 6  246 195 
 CHI  HZ I         757 18.13         3.1 0.13                           246 195 
 CHI  HN ES   1    757 44.87                             117    0.08 6  246 195 
 HEL  HZ EP   1    757 19.03                             114    0.53 6  271 256 
 RREF HZ EP   1    757 25.09                             110    0.76 5  320 230 
 RREF HZ I         758 10.64         9.3 0.33                           320 230 
 PRA  HZ EP   1    757 31.79                             106    0.12 4  390 210 
                                                                                
