 2017 1121 0211 28.0 L   6.833 -73.149148.2  RSN 30 0.8 2.6LRSN                1
 GAP= 56        1.73       3.8     3.9  7.4 -0.1939E+01  0.8390E+01  0.1556E+00E
 Epicentro: LOS SANTOS - SANTANDER                                             3
 ACTION:UPD 17-12-12 19:57 OP:rebc STATUS:               ID:20171121021128 L   I
 OLDACT:UP  17-11-21 14:58 OP:edw  STATUS:               ID:20171121015921     3
 OLDACT:UP  17-11-21 14:56 OP:edw  STATUS:               ID:20171121015921     3
 OLDACT:REG 17-11-21 12:25 OP:edw  STATUS:               ID:20171121015921     3
 2017-11-21-0208-00M.COL___486                                                 6
 STAT SP IPHASW D HRMM SECON CODA AMPLIT PERI AZIMU VELO AIN AR TRES W  DIS CAZ7
 BAR2 EZ IP     C  211 47.76                             169   -0.2310 26.9 188 
 BAR2 EZ ES        212  3.27                             169   -0.3210 26.9 188 
 BAR2 EZ I         212  5.62        92.6 0.40            168           26.9 188 
 PAM  EZ EP     D  211 50.50                             152    0.1910 74.8  42 
 PAM  EN ES        212  7.78                             152    0.0510 74.8  42 
 PAM  EZ I         212 10.22        63.4 0.64            153           74.8  42 
 RUS  HZ EP     C  211 51.56                             143   -0.6810  104 176 
 RUS  HN ES        212 10.34                             143   -0.8310  104 176 
 RUS  HZ I         212 13.08        39.8 0.42            142            104 176 
 PTB  HZ EP        211 54.69                             132   -0.50 9  148 257 
 PTB  HN ES        212 15.73                             132   -0.68 9  148 257 
 PTB  HZ I         212 19.80        31.7 0.14            132            148 257 
 TAM  HZ IP     D  211 55.91                             131   -0.07 9  156 106 
 TAM  HZ I         212 16.76        27.3 0.28            131            156 106 
 TAM  HN ES        212 19.20                             131    1.39 9  156 106 
 OCA  HZ EP        211 56.52                             131    0.37 9  157 353 
 OCA  HN ES        212 19.19                             131    1.08 9  157 353 
 OCA  HZ I         212 21.49       126.7 0.24            131            157 353 
 SPBC HZ EP        211 56.71                             129   -0.22 9  166 218 
 SPBC HN ES        212 18.95                             129   -0.55 9  166 218 
 SPBC HZ I         212 24.48        84.3 0.42            128            166 218 
 YPLC HZ IP     C  211 57.91                             126   -0.38 9  180 152 
 YPLC HN ES        212 21.54                             126   -0.39 9  180 152 
 YPLC HZ I         212 22.77        41.4 0.24            126            180 152 
 ZAR  HZ EP        212  0.48                             123    0.06 9  202 291 
 ZAR  HN ES        212 26.21                             123    0.49 9  202 291 
 ZAR  HZ I         212 32.78        54.4 0.28            123            202 291 
 TABC EZ EP   4    212  5.23                             119    1.03 0  233 210 
 TABC EZ ES   4    212 36.17                             119    3.72 0  233 210 
 TABC EZ I         212 37.38        35.7 0.72            119            233 210 
 NOR  HZ EP        212  3.64                             119   -0.42 8  237 234 
 NOR  HN ES        212 31.97                             119   -0.23 8  237 234 
 NOR  HZ I         212 35.32        41.7 0.30            118            237 234 
 CHI  HZ EP        212  5.77                             117   -0.43 8  252 195 
 CHI  HN ES        212 34.05                             117   -1.95 8  252 195 
 CHI  HZ I         212 40.74        15.9 0.68            117            252 195 
 ROSC BZ EP        212  7.26                             117    0.69 8  256 211 
 ROSC BN ES        212 39.96                             117    3.31 8  256 211 
 ROSC BZ I         212 45.38        43.5 0.40            116            256 211 
 HEL  HZ EP        212  9.01                             115    0.62 8  273 255 
 HEL  HN ES        212 39.68                             115   -0.22 8  273 255 
 HEL  HZ I         212 46.59        23.1 0.38            115            273 255 
 URE  HZ EP   4    212  7.65                             114   -1.34 0  282 291 
 URE  HN ES   4    212 38.90                             114   -2.07 0  282 291 
 URE  HZ I         212 40.88        22.9 0.14            114            282 291 
 DRL03HZ EP   4    212  9.74                             114    0.44 0  285 353 
 DRL03HN ES   4    212 42.80                             114    1.27 0  285 353 
 GUY2CHZ EP        212 12.11                             112    0.19 7  303 234 
 GUY2CHN ES        212 47.39                             112    1.21 7  303 234 
 GUY2CHZ I         212 54.22        27.7 0.56                           303 234 
 VIL  EZ EP        212 13.13                             112    1.21 7  307 191 
 VIL  EN ES        212 46.72                             112    0.54 7  307 191 
 VIL  EZ I         212 55.04        22.7 0.34            112            307 191 
 PTGC HZ EP   4    212 10.65                             112   -1.70 0  312 159 
 PTGC HN ES   4    212 43.42                             112   -3.54 0  312 159 
 PTGC HZ I         212 45.46        13.7 0.46            111            312 159 
 DRL01HZ EP   4    212 10.97                             111   -2.60 0  323 350 
 DRL01HE ES   4    212 50.64                             111    1.52 0  323 350 
 ELA  HZ EP   4    212 17.29                             110    2.10 0  331 229 
 ELA  HN ES   4    212 55.30                             110    3.30 0  331 229 
 ELA  HZ I         212 58.91        19.7 0.40            110            331 229 
 CBOC HZ EP        212 15.53                             110    0.43 7  334 251 
 CBOC HE ES        212 52.07                             110    0.23 7  334 251 
 CBOC HZ I         212 55.83         9.8 0.26            110            334 251 
 DBB  EZ EP        212 15.15                             110   -0.35 7  339 274 
 DBB  EN ES        212 52.16                             110   -0.39 7  339 274 
 DBB  EZ I         212 59.04        10.4 0.18            110            339 274 
 ARGC HZ EP   4    212 18.01                             109    0.69 0  356 340 
 ARGC HE ES   4    212 57.66                             109    1.85 0  356 340 
 SDV  BZ EP        212 17.70                             109   -0.18 6  358  51 
 SDV  B1 ES        212 56.29                             109   -0.51 6  358  51 
 SDV  BZ I         212 56.58         9.1 0.35            109            358  51 
 ANIL HZ EP   4    212 19.60                             109    1.44 0  360 224 
 ANIL HE ES   4    212 59.27                             109    1.97 0  360 224 
 ANIL HZ I         213  1.57        46.5 0.34            108            360 224 
 PRA  HZ EP        212 21.22                             107   -0.73 6  395 209 
 PRA  HN ES   4    213  2.28                             107   -1.75 0  395 209 
 PRA  HZ I         213  8.41        15.7 0.42            106            395 209 
 APAC HZ EP        212 21.68                             106   -0.41 6  397 288 
 APAC HE ES        213  3.89                             106   -0.40 6  397 288 
 APAC HZ I         213  6.55         6.4 0.40            106            397 288 
 ORTC HZ EP        212 22.70                             106    0.39 6  398 216 
 ORTC HN ES        213  5.02                             106    0.33 6  398 216 
 ORTC HZ I         213 11.46        12.4 0.44            106            398 216 
 SJC  HZ EP        212 21.97                             106   -1.28 6  406 327 
 SJC  HN ES   4    213  2.10                             106   -4.25 0  406 327 
 SJC  HZ I         213  7.75         7.8 0.34            106            406 327 
 PAL  HZ EP        212 23.33                             106   -0.09 6  407 239 
 PAL  HN ES        213  6.67                             106    0.02 6  407 239 
 PAL  HZ I         213 12.03        11.1 0.48            106            407 239 
 CRJC HZ EP   9    212 28.38                             104   -1.74 0  464   4 
 CRJC HN ES        213 16.01                             104   -0.84 5  464   4 
 CRJC HZ I         213 24.77         8.6 0.28            104            464   4 
 SMAR HZ EP        212 33.34                             103   -0.15 4  493 346 
 SMAR HN ES   4    213 20.68                             103   -3.90 0  493 346 
 CAP2 HZ EP   4    212 37.72                             102    2.72 0  506 294 
 CAP2 HN ES   4    213 22.47                             102   -4.80 0  506 294 
 URI  HZ EP   4    212 38.19                             101   -2.44 0  553  13 
 URI  HN ES   4    213 29.90                             101   -7.39 0  553  13 
                                                                                
