 2013 1221 0849 22.7 L   6.775 -73.160144.9  RSN  6 0.4 1.4LRSN                1
 GAP=181        1.02       4.7     6.2  8.6  0.7349E+01  0.8313E+01 -0.3704E+01E
 Epicentro: LOS SANTOS - SANTANDER                                             3
 ACTION:UPD 14-01-13 10:19 OP:ep   STATUS:               ID:20131221084922 L   I
 OLDACT:REG 13-12-21 09:09 OP:jn   STATUS:               ID:20131221084838     3
 2013-12-21-0848-38M.COL___235                                                 6
 STAT SP IPHASW D HRMM SECON CODA AMPLIT PERI AZIMU VELO AIN AR TRES W  DIS CAZ7
 BAR2 SZ EP        849 42.30                             172    0.1410 20.4 187 
 BAR2 SZ ES        849 57.51                             172    0.1710 20.4 187 
 BAR2 SZ I         849 58.97         8.7 0.28            171           20.4 187 
 BRR  HZ EP        849 44.62                             152    0.8710 71.2 301 
 BRR  HN ES   1    850  0.48                             152    0.31 7 71.2 301 
 RUS  HZ EP        849 46.11                             144   -0.0610 97.9 175 
 RUS  HN ES        850  4.15                             144   -0.3310 97.9 175 
 RUS  HZ I         850  6.03         3.7 0.34            145           97.9 175 
 PTB  HZ EP        849 49.10                             132   -0.30 9  146 260 
 PTB  HN ES        850  9.95                             132   -0.29 9  146 260 
 PTB  HZ I         850 11.02         3.2 0.10            133            146 260 
 OCA  HN ES        850 12.79                             129   -0.60 9  163 354 
 ZAR  HN ES   1    850 20.38                             122    0.11 6  204 293 
                                                                                
