 2014  821 0014 32.9 L   6.818 -73.389127.6  RSN  6 0.4 1.4LRSN                1
 GAP= 94        0.94       4.0     4.8  6.5  0.5631E+01 -0.1724E+01 -0.8622E+01E
 Epicentro: SAN VICENTE DE CHUCURI - SANTANDER                                 3
 ACTION:UPD 14-09-15 21:51 OP:nd   STATUS:               ID:20140821001432 L   I
 OLDACT:UP  14-08-21 13:34 OP:cam  STATUS:               ID:20140821001001d    3
 OLDACT:DUP 14-08-21 13:32 OP:cam  STATUS:               ID:20140821001001d    3
 OLDACT:UP  14-08-21 13:32 OP:cam  STATUS:               ID:20140821001000     3
 OLDACT:REG 14-08-21 12:45 OP:cam  STATUS:               ID:20140821001000     3
 2014-08-21-0010-00M.COL___285                                                 6
 STAT SP IPHASW D HRMM SECON CODA AMPLIT PERI AZIMU VELO AIN AR TRES W  DIS CAZ7
 BAR2 SZ EP     C  014 50.68                             164    0.0310 33.8 137 
 BAR2 SZ ES        015  3.96                             164   -0.5310 33.8 137 
 BAR2 SZ I         015  5.28        13.8 0.18            165           33.8 137 
 BRR  HZ EP        014 51.09                             158    0.2410 48.0 312 
 BRR  HN ES        015  5.52                             158    0.6710 48.0 312 
 PAM  SZ EP        014 54.29                             141   -0.2310 95.5  53 
 RUS  HZ EP        014 55.65                             138    0.1610  108 162 
 RUS  HN ES        015 13.26                             138    0.1510  108 162 
 RUS  HZ I         015 14.35         2.2 0.24            138            108 162 
 PTB  HZ EP        014 56.34                             133    0.2910  122 255 
 PTB  HN ES        015 13.54                             133   -0.5710  122 255 
 PTB  HZ I         015 18.35         3.4 0.20            132            122 255 
 SML  HZ EP        015  7.09                             115   -0.17 8  232 341 
 SML  HE ES        015 33.88                             115   -0.18 8  232 341 
                                                                                
