 2013  521 0424 11.0 L   7.386 -73.208132.0  RSN 10 0.3 2.2LRSN                1
 GAP= 79        0.88       2.9     2.8  4.6 -0.1236E+01  0.1629E+01  0.3039E+00E
 Epicentro: EL PLAYON - SANTANDER                                              3
 ACTION:UPD 13-06-20 09:52 OP:ep   STATUS:               ID:20130521042411 L   I
 2013-05-21-0418-50M.COL___222                                                 6
 STAT SP IPHASW D HRMM SECON CODA AMPLIT PERI AZIMU VELO AIN AR TRES W  DIS CAZ7
 GIR2 SZ EP        424 29.11                             165    0.0410 34.0 177 
 GIR2 SZ I         424 29.38        27.6 0.32            164           34.0 177 
 GIR2 SZ ES        424 43.11                             165   -0.0910 34.0 177 
 PAM  SZ EP        424 30.69                             156    0.1810 56.4  95 
 PAM  SN ES        424 46.05                             156    0.2810 56.4  95 
 BRR  HZ EP        424 30.42                             153    0.2410 63.6 241 
 BRR  HN ES        424 45.46                             153    0.2910 63.6 241 
 BAR2 SZ EP        424 32.31                             144    0.2410 87.8 178 
 BAR2 SZ ES        424 48.42                             144   -0.1210 87.8 178 
 OCA  HZ EP        424 32.07                             142   -0.4210 95.1 353 
 OCA  HE ES        424 48.63                             142   -0.6510 95.1 353 
 CAPV BZ EP        424 34.07                             137    0.1510  112  62 
 CAPV BZ ES        424 52.00                             137    0.1710  112  62 
 RUS  HZ EP        424 38.89                             125   -0.32 9  166 175 
 RUS  HN ES        425  0.88                             125   -0.37 9  166 175 
 RUS  HN I         425  2.97        11.7 0.30            125            166 175 
 PTB  HZ EP        424 38.76                             125    0.08 9  167 236 
 PTB  HN ES        424 59.82                             125   -0.48 9  167 236 
 PTB  HN I         425  3.82        17.0 0.22            124            167 236 
 ZAR  HZ EP        424 40.06                             122   -0.22 9  182 274 
 ZAR  HN ES        425  3.93                             122    0.79 9  182 274 
 ZAR  HN I         425  5.75        38.0 0.16            122            182 274 
 TAM  HZ EP        424 41.17                             121    0.21 9  189 124 
                                                                                
