 2010  721 0435 25.7 L   7.403 -73.388112.1  RSN  6 0.3 1.2LRSN                1
 GAP=137        0.72       4.3     7.1  7.0 -0.1637E+02  0.5651E+00 -0.1498E+00E
 Epicentro: SABANA DE TORRES - SANTANDER                                       3
 ACTION:UPD 10-12-01 15:19 OP:pat  STATUS:               ID:20100721043525 L   I
 2010-07-21-0432-13S.COL___123                                                 6
 STAT SP IPHASW D HRMM SECON CODA AMPLIT PERI AZIMU VELO AIN AR TRES W  DIS CAZ7
 BRR  HZ EP   1    435 41.89                             155     0.0 7   49 228 
 BRR  HE ES   1    435 54.84                             155     0.2 7   49 228 
 BRR  HZ I         435 55.50         9.7 0.04                            49 228 
 GUE  SZ EP   1    435 43.36                             146    -0.3 7   70  47 
 GUE  SZ ES   1    435 57.22                             146    -0.4 7   70  47 
 GUE  SZ I         435 58.13         2.9 0.19                            70  47 
 GRA  SZ EP        435 44.85                             141     0.410   84  50 
 GRA  SZ ES   1    435 59.41                             141     0.3 7   84  50 
 BAR2 SZ EP        435 45.16                             138    -0.110   93 166 
 BAR2 SZ I         435 45.29         3.3 0.05                            93 166 
 BAR2 SZ ES   1    436  0.45                             138    -0.1 7   93 166 
 OCA  SZ EP   1    435 44.93                             137    -0.3 7   93   5 
 OCA  SZ I         436  5.00         2.8 0.34                            93   5 
 RUS  HZ EP   2    435 53.40                             119     0.3 4  170 169 
                                                                                
