 2012 1221 0620 46.3 L   6.538 -73.555113.1  RSN 10 0.5 1.9LRSN                1
 GAP= 85        1.05       5.2     4.3  6.7  0.4795E+01  0.2548E+00  0.2146E+01E
 Epicentro: EL CARMEN DE CHUCURI - SANTANDER                                   3
 ACTION:UPD 13-01-04 14:29 OP:ep   STATUS:               ID:20121221062046 L   I
 2012-12-21-0620-00M.COL___243                                                 6
 STAT SP IPHASW D HRMM SECON CODA AMPLIT PERI AZIMU VELO AIN AR TRES W  DIS CAZ7
 BAR2 SZ IP        621  2.93                             158    0.3110 41.7  82 
 BAR2 SZ ES        621 15.58                             158    0.1910 41.7  82 
 BAR2 SZ I         621 16.93       109.6 0.44                          41.7  82 
 BRR  HZ EP     C  621  3.66                             148    0.0810 65.3 345 
 BRR  HE ES        621 17.44                             148    0.3410 65.3 345 
 BRR  HZ I         621 18.41        22.5 0.09                          65.3 345 
 GIR2 SZ IP     D  621  4.36                             145    0.1310 71.9  34 
 RUS  HZ EP        621  6.07                             140    0.1210 88.4 144 
 RUS  HE ES   1    621 21.28                             140   -0.04 7 88.4 144 
 RUS  HZ I         621 22.92         8.3 0.34                          88.4 144 
 PTB  HZ EP        621  5.80                             136   -0.4210 99.7 270 
 PTB  HE ES   1    621 20.74                             136   -1.06 7 99.7 270 
 PAM  SZ EP        621  9.36                             128   -0.2410  130  47 
 PAM  SZ I         621 10.82         8.2 0.19                           130  47 
 ZAR  HZ EP   1    621 14.98                             118    0.98 7  179 306 
 ZAR  HZ I         621 39.58        17.3 0.24                           179 306 
 OCA  HZ EP   1    621 14.99                             116   -0.44 7  190   8 
 OCA  HZ I         621 45.74        13.2 0.30                           190   8 
 TAM  HZ EP   1    621 15.49                             115   -0.40 6  195  93 
 TAM  HN ES   1    621 38.27                             115   -0.74 6  195  93 
 TAM  HZ I         621 44.32        10.0 0.61                           195  93 
 CHI  HZ EP   1    621 19.02                             114    0.82 6  212 185 
 CHI  HZ I         621 48.76         2.3 0.35                           212 185 
                                                                                
