 2016  321 0546 21.9 L   6.847 -73.114149.2  RSN  8 0.5 1.5LRSN                1
 GAP=187        1.20       4.6     7.2  9.4 -0.4616E+01  0.1767E+02  0.1702E+01E
 Epicentro: LOS SANTOS - SANTANDER                                             3
 ACTION:UPD 16-05-13 21:25 OP:cam  STATUS:               ID:20160321054621 L   I
 OLDACT:REG 16-03-21 12:44 OP:ak   STATUS:               ID:20160321053745     3
 2016-03-21-0537-45M.COL___283                                                 6
 STAT SP IPHASW D HRMM SECON CODA AMPLIT PERI AZIMU VELO AIN AR TRES W  DIS CAZ7
 BAR2 EZ EP        546 42.83                             169    0.7410 29.2 195 
 BAR2 EZ ES        546 58.27                             169    0.4510 29.2 195 
 BAR2 EZ I         546 59.12        12.4 0.18            169           29.2 195 
 RUS  HZ EP        546 45.94                             143   -0.4310  106 178 
 RUS  HE ES        547  4.81                             143   -0.6310  106 178 
 RUS  HZ I         547  6.51         3.4 0.36            145            106 178 
 PTB  HZ EP        546 48.93                             132   -0.64 9  152 257 
 PTB  HE ES        547 10.70                             132   -0.44 9  152 257 
 PTB  HZ I         547 12.22         3.2 0.18            133            152 257 
 OCA  HZ EP   2    546 49.90                             131   -0.16 5  156 352 
 OCA  HN ES        547 12.09                             131    0.08 9  156 352 
 OCA  HZ I         547 15.89         7.9 0.20            132            156 352 
 SPBC HZ EP        546 51.78                             129    0.51 9  169 219 
 SPBC HN ES        547 13.94                             129   -0.23 9  169 219 
 SPBC HZ I         547 18.15         4.0 0.14            130            169 219 
 CHI  HZ EP   2    546 59.74                             117   -0.71 4  255 196 
 CHI  HN ES        547 31.00                             117    0.49 8  255 196 
 CHI  HZ I         547 32.30         1.1 0.41            118            255 196 
 GUY2CHN ES        547 41.68                             112    0.68 7  307 234 
 MON  HZ EP   4    547 13.17                             109    2.17 0  353 307 
 MON  HN ES   4    547 47.68                             109   -1.61 0  353 307 
 MON  HZ I         547 50.30         0.6 0.18            110            353 307 
                                                                                
