 2014  821 0234 24.3 L   7.020 -72.932174.8  RSN  5 0.5 1.8LRSN                1
 GAP=243        1.12       8.0    10.8 11.4  0.1522E+02  0.1914E+02 -0.2450E+02E
 Epicentro: SANTA BARBARA - SANTANDER                                          3
 ACTION:UPD 14-09-15 21:51 OP:nd   STATUS:               ID:20140821023424 L   I
 OLDACT:UP  14-08-21 14:19 OP:cam  STATUS:               ID:20140821023000     3
 OLDACT:UP  14-08-21 14:18 OP:cam  STATUS:               ID:20140821023000     3
 OLDACT:UP  14-08-21 14:18 OP:cam  STATUS:               ID:20140821023000     3
 OLDACT:UP  14-08-21 14:18 OP:cam  STATUS:               ID:20140821023000     3
 OLDACT:REG 14-08-21 12:50 OP:cam  STATUS:               ID:20140821023000     3
 2014-08-21-0230-00M.COL___285                                                 6
 STAT SP IPHASW D HRMM SECON CODA AMPLIT PERI AZIMU VELO AIN AR TRES W  DIS CAZ7
 BAR2 SZ ES        235  7.34                             162    0.3310 54.8 210 
 BRR  HZ EP        234 49.69                             153    0.2310 86.7 276 
 BRR  HN ES        235  8.76                             153   -0.3310 86.7 276 
 BRR  HZ I         235 11.88         6.7 0.10            152           86.7 276 
 PTB  HZ EP     C  234 56.04                             133   -0.22 9  177 253 
 PTB  HN ES        235 20.60                             133   -0.59 9  177 253 
 PTB  HZ I         235 23.11         3.2 0.12            134            177 253 
 ZAR  HN ES        235 29.23                             126    0.95 8  219 284 
 SML  HN ES        235 30.47                             124   -0.37 8  234 328 
 SML  HN I         235 34.26        10.3 0.10            125            234 328 
                                                                                
