 2012  221 0552 48.0 L   6.758 -73.172150.0  RSN  4 0.3 1.0LRSN                1
 GAP=231        0.51       5.7     5.8  6.1  0.1800E+02  0.2180E+01  0.7304E+00E
 *BRR-RUS-PTB                                                                  3
 ACTION:UP  12-03-07 16:32 OP:epov STATUS:               ID:20120221055248 L   I
 2012-02-21-0550-00M.COL___191                                                 6
 STAT SP IPHASW D HRMM SECON CODA AMPLIT PERI AZIMU VELO AIN AR TRES W  DIS CAZ7
 BAR2 SZ ES   2    553 23.20                             173   -0.46 5 18.4 183 
 BAR2 SZ I         553 23.85         2.8 0.35                          18.4 183 
 BRR  HZ EP   1    553  9.56                             153   -0.01 7 71.0 303 
 BRR  HZ I         553  9.95         2.4 0.11                          71.0 303 
 BRR  HE ES   1    553 26.60                             153    0.19 7 71.0 303 
 RUS  HZ EP   1    553 12.10                             146    0.26 7 96.2 174 
 RUS  HZ I         553 13.73         0.9 0.42                          96.2 174 
 RUS  HN ES   1    553 30.45                             146    0.00 7 96.2 174 
 PTB  HZ EP   1    553 14.55                             134   -0.40 7  144 260 
 PTB  HE ES   1    553 36.13                             134    0.13 7  144 260 
                                                                                
