 2017  721 0021 36.5 L   6.808 -73.129148.8  RSN 13 0.4 2.1LRSN                1
 GAP=113        0.89       3.5     3.0  5.4  0.1396E+01  0.4553E+01  0.5499E+01E
 Epicentro: LOS SANTOS - SANTANDER                                             3
 ACTION:UPD 17-08-30 15:35 OP:rebc STATUS:               ID:20170721002136 L   I
 OLDACT:UP  17-07-21 12:48 OP:dn   STATUS:               ID:20170721001749     3
 OLDACT:REG 17-07-21 12:22 OP:dnl  STATUS:               ID:20170721001749     3
 2017-07-21-0018-00M.COL___394                                                 6
 STAT SP IPHASW D HRMM SECON CODA AMPLIT PERI AZIMU VELO AIN AR TRES W  DIS CAZ7
 BAR2 EZ EP        021 56.20                             170   -0.3310 24.5 194 
 BAR2 EZ ES        022 12.03                             170   -0.1210 24.5 194 
 BAR2 EZ I         022 13.02        19.0 0.28            168           24.5 194 
 BRR  HZ EP        021 58.33                             153    0.2710 72.4 297 
 BRR  HN ES        022 15.59                             153    0.7310 72.4 297 
 BRR  HZ I         022 19.66        13.6 0.26            151           72.4 297 
 PAM  EZ EP   2    021 58.95                             152   -0.00 5 75.6  39 
 PAM  EN ES        022 16.54                             152    0.0910 75.6  39 
 PAM  EZ I         022 18.53        10.3 0.48            155           75.6  39 
 RUS  HZ EP        022  0.59                             144   -0.0310  101 177 
 RUS  HN ES        022 19.22                             144   -0.2010  101 177 
 RUS  HZ I         022 19.94        12.0 0.30            144            101 177 
 PTB  HZ EP   2    022  3.07                             132   -0.83 5  150 259 
 PTB  HN ES        022 24.49                             132   -0.78 9  150 259 
 PTB  HZ I         022 26.44        12.4 0.14            131            150 259 
 SPBC HZ EP        022  5.41                             129   -0.01 9  165 219 
 SPBC HN ES        022 27.59                             129   -0.37 9  165 219 
 SPBC HZ I         022 32.47        20.9 0.29            129            165 219 
 YPLC HZ EP        022  6.58                             127    0.06 9  177 152 
 YPLC HE ES        022 30.16                             127    0.23 9  177 152 
 YPLC HZ I         022 31.44        12.6 0.26            129            177 152 
 ZAR  HZ EP   2    022  8.78                             123   -0.52 4  205 292 
 ZAR  HN ES        022 34.42                             123   -0.45 8  205 292 
 ZAR  HZ I         022 40.38        14.7 0.32            123            205 292 
 NOR  HZ EP        022 12.63                             119    0.00 8  237 235 
 NOR  HE ES        022 41.32                             119    0.52 8  237 235 
 NOR  HZ I         022 44.64         8.7 0.20            119            237 235 
 ROSC BZ EP   4    022 16.32                             117    1.34 0  254 211 
 ROSC BN ES   4    022 49.08                             117    4.10 0  254 211 
 ROSC BZ I         022 50.90        10.6 0.40            117            254 211 
 HEL  HZ EP   2    022 17.71                             115    0.61 4  274 256 
 HEL  HN ES        022 49.13                             115    0.38 8  274 256 
 HEL  HZ I         022 55.38         6.3 0.60            115            274 256 
 GUY2CHZ EP   4    022 21.80                             113    1.32 0  303 235 
 GUY2CHE ES        022 55.32                             113    0.54 7  303 235 
 GUY2CHZ I         023  2.45         5.5 0.28                           303 235 
 ORTC HZ EP   2    022 31.07                             107    0.33 3  397 216 
 ORTC HN ES   4    023 11.78                             107   -1.26 0  397 216 
 ORTC HZ I         023 19.79         6.7 0.86            107            397 216 
                                                                                
