 2012  221 0037 37.1 L   6.745 -73.211153.8  RSN  4 0.3 1.1LRSN                1
 GAP=168        0.65       6.5     6.8  8.0  0.1923E+02  0.6824E+01  0.9213E+01E
 ACTION:UP  12-03-07 16:32 OP:epov STATUS:               ID:20120221003737 L   I
 2012-02-21-0030-00M.COL___191                                                 6
 STAT SP IPHASW D HRMM SECON CODA AMPLIT PERI AZIMU VELO AIN AR TRES W  DIS CAZ7
 GIR2 SZ ES   2    038 13.50                             166   -0.60 5 37.0   3 
 BRR  HZ EP   1    037 59.20                             155    0.23 7 68.3 306 
 BRR  HE ES   1    038 16.30                             155    0.27 7 68.3 306 
 BRR  HZ I         038 17.39         3.8 0.12                          68.3 306 
 RUS  HZ EP   1    038  0.91                             147   -0.38 7 95.3 171 
 RUS  HN ES   1    038 20.41                             147    0.26 7 95.3 171 
 RUS  HZ I         038 21.44         1.3 0.45                          95.3 171 
 PTB  HZ EP   1    038  4.26                             135    0.24 7  140 261 
 PTB  HN ES   1    038 24.65                             135   -0.36 7  140 261 
                                                                                
