 2015  621 0652 27.8 L   6.879 -73.290118.6  RSN 21 0.4 2.3LRSN                1
 GAP=108        0.94       1.9     3.0  4.3 -0.1114E+01  0.5769E+01  0.5819E+00E
 Epicentro: BETULIA - SANTANDER                                                3
 ACTION:UPD 15-09-10 22:14 OP:cam  STATUS:               ID:20150621065227 L   I
 OLDACT:REG 15-06-21 12:52 OP:drio STATUS:               ID:20150621064748     3
 2015-06-21-0647-48M.COL___322                                                 6
 STAT SP IPHASW D HRMM SECON CODA AMPLIT PERI AZIMU VELO AIN AR TRES W  DIS CAZ7
 BAR2 EZ EP        652 44.50                             163    0.0410 33.8 160 
 BAR2 EZ ES        652 57.02                             163   -0.4610 33.8 160 
 BRR  HZ EP        652 44.84                             154   -0.1210 53.1 298 
 BRR  HN ES        652 58.97                             154    0.5910 53.1 298 
 BRR  HZ I         653  0.48        45.3 0.12            153           53.1 298 
 PAM  SZ EP        652 47.70                             143    0.1410 82.7  52 
 PAM  SE ES        653  3.31                             143    0.3210 82.7  52 
 PAM  SZ I         653  6.66        28.1 0.18            144           82.7  52 
 RUS  HZ EP        652 49.34                             134   -0.5410  111 168 
 RUS  HN ES     D  653  7.24                             134    0.1110  111 168 
 RUS  HZ I         653  9.58        22.5 0.24            134            111 168 
 OCA  HZ EP        652 52.58                             125   -0.54 9  150 359 
 OCA  HE ES        653 12.53                             125   -0.37 9  150 359 
 ZAR  HZ EP        652 57.32                             118    0.67 9  186 291 
 ZAR  HE ES        653 19.44                             118    0.27 9  186 291 
 ZAR  HZ I         653 24.24        43.1 0.52            118            186 291 
 NOR  HZ EP        653  0.91                             113   -0.35 8  227 230 
 NOR  HE ES        653 26.79                             113   -0.59 8  227 230 
 NOR  HZ I         653 37.12        13.8 0.26            113            227 230 
 SML  HZ EP        653  1.03                             113   -0.38 8  229 338 
 SML  HN ES        653 27.18                             113   -0.47 8  229 338 
 SML  HZ I         653 32.83        49.5 0.30            112            229 338 
 ROSC BZ EP        653  4.78                             110    0.23 8  253 207 
 ROSC BE ES        653 33.94                             110    0.69 8  253 207 
 ROSC BZ I         653 43.12        11.8 0.45            110            253 207 
 CHI  HZ EP        653  4.38                             110   -0.29 8  254 191 
 CHI  HN ES        653 33.56                             110    0.10 8  254 191 
 CHI  HZ I         653 40.36         6.9 0.22            110            254 191 
 HEL  HZ EP        653  5.87                             110    0.61 8  259 253 
 HEL  HE ES        653 34.30                             110   -0.20 8  259 253 
 HEL  HZ I         653 38.60        12.1 0.58            110            259 253 
 URE  HZ EP        653  5.57                             109   -0.02 8  266 291 
 URE  HN ES   4    653 32.97                             109   -2.11 0  266 291 
 URE  HZ I         653 34.13        24.4 0.16            109            266 291 
 GUY2CHZ EP        653  9.34                             107   -0.06 7  294 232 
 GUY2CHN ES        653 41.36                             107   -0.50 7  294 232 
 GUY2CHZ I         653 48.11         9.7 0.60                           294 232 
 LL2C HZ EP        653  9.60                             107    0.49 7  296 357 
 LL2C HN ES        653 41.82                             107    0.47 7  296 357 
 LL2C HZ I         654  1.39        43.2 0.68            107            296 357 
 CBOC HZ EP        653 12.33                             105    0.06 7  321 250 
 CBOC HN ES        653 46.53                             105   -0.45 7  321 250 
 CBOC HZ I         653 49.15         8.0 0.30            105            321 250 
 PTGC HZ EP   4    653 10.48                             105   -1.74 0  323 157 
 PTGC HE ES   4    653 44.78                             105   -2.11 0  323 157 
 MON  HZ EP   4    653 11.73                             104   -2.01 0  336 309 
 MON  HN ES   4    653 47.70                             104   -1.90 0  336 309 
 MON  HZ I         653 51.44         5.3 0.24            104            336 309 
 TOL  SZ EP        653 15.46                             104    0.92 7  339 222 
 TOL  SN ES        653 51.37                             104    0.34 7  339 222 
 TOL  SZ I         653 58.71         4.2 0.38            104            339 222 
 PRA  HZ EP        653 20.22                             101   -0.29 6  392 207 
 PRA  HN ES        654  1.69                             101    0.05 6  392 207 
 PRA  HZ I         654  6.40        11.5 0.28            101            392 207 
 SJC  HZ EP   4    653 18.63                             101   -2.04 0  393 328 
 SJC  HE ES   4    653 58.29                             101   -3.64 0  393 328 
 SJC  HZ I         654  2.81         4.7 0.34            101            393 328 
 ORTC HZ EP        653 20.68                             101    0.02 6  394 214 
 ORTC HN ES        654  2.80                             101    0.88 6  394 214 
 ORTC HZ I         654  8.55         5.5 0.32            101            394 214 
 PAL  HZ EP        653 20.68                             101   -0.42 6  397 237 
 PAL  HE ES        654  2.16                             101   -0.54 6  397 237 
                                                                                
