 2011  621 0634  6.5 L   6.769 -73.091138.5  RSN 14 0.3 2.0LRSN                1
 GAP=145        0.59       2.7     4.1  4.0 -0.5691E+01  0.1740E+01  0.1781E+01E
 Epicentro: LOS SANTOS - SANTANDER                                             3
 ACTION:UP  11-07-14 19:06 OP:ep   STATUS:               ID:20110621063406 L   I
 2011-06-21-0632-32S.COL___140                                                 6
 STAT SP IPHASW D HRMM SECON CODA AMPLIT PERI AZIMU VELO SNR AR TRES W  DIS CAZ7
 BAR2 SZ IP        634 25.28                             171     0.010   22 207 
 BAR2 SZ ES   1    634 39.39                             171    -0.5 7   22 207 
 BAR2 SZ I         634 41.48        36.0 0.42                            22 207 
 BTL  SZ EP   1    634 25.47                             169     0.1 7   26 310 
 GIR2 SZ EP   1    634 25.34                             165    -0.1 7   36 342 
 GIR2 SZ ES   2    634 40.51                             165     0.2 5   36 342 
 PAM  SZ EP   1    634 28.14                             150     0.2 7   77  34 
 BRR  HZ IP     C  634 27.19                             149    -0.110   78 299 
 BRR  HE ES   1    634 43.94                             149     0.4 7   78 299 
 BRR  HZ I         634 48.46        39.6 0.19                            78 299 
 RUS  HZ EP   2    634 29.24                             143    -0.1 5   97 179 
 RUS  HN ES   2    634 47.19                             143     0.1 5   97 179 
 RUS  HZ I         634 48.82        15.9 0.52                            97 179 
 BRI  SZ IP        634 29.91                             139     0.110  110  17 
 BRI  SZ ES   2    634 47.31                             139    -0.7 5  110  17 
 GRA  SZ IP        634 31.21                             135    -0.110  127  14 
 GRA  SZ ES   1    634 51.00                             135     0.4 7  127  14 
 GRA  SZ I         634 51.56        17.8 0.21                           127  14 
 OCA  SZ EP   1    634 34.37                             127    -0.3 7  165 351 
 OCA  SZ ES   2    634 56.65                             127     0.0 5  165 351 
 OCA  SZ I         634 59.23        17.1 0.49                           165 351 
 NOR  SZ EP   1    634 42.47                             116     0.3 6  238 236 
 NOR  SN ES   2    635  9.64                             116    -0.3 4  238 236 
 CHI  HZ EP   1    634 43.84                             116     0.2 6  247 197 
 CHI  HE ES   2    635 12.36                             116    -0.2 4  247 197 
 CHI  HZ I         635 22.91         3.4 0.85                           247 197 
 HEL  HZ EP   1    634 46.38                             113    -0.6 6  277 257 
 HEL  HE ES   2    635 18.07                             113    -0.4 4  277 257 
 HEL  HZ I         635 24.02         3.0 0.58                           277 257 
 RREF HZ EP        634 52.89                             109     0.3 7  324 231 
 RREF HN ES   2    635 29.36                             109     0.8 3  324 231 
 RREF HZ I         635 38.36         4.5 1.05                           324 231 
 PRA  HZ EP   1    634 59.82                             105     0.0 4  392 211 
 PRA  HN ES   2    635 41.30                             105    -0.1 3  392 211 
                                                                                
