 2015  921 0948 32.2 L   6.820 -73.155143.7  RSN 11 0.5 2.0LRSN                1
 GAP=194        1.02       3.7     5.3  7.3 -0.7014E+01 -0.3961E+01  0.8128E+01E
 Epicentro: LOS SANTOS - SANTANDER                                             3
 ACTION:UPD 15-10-28 16:27 OP:cam  STATUS:               ID:20150921094832 L   I
 OLDACT:REG 15-09-21 12:57 OP:mh   STATUS:               ID:20150921094747     3
 2015-09-21-0947-47M.COL___355                                                 6
 STAT SP IPHASW D HRMM SECON CODA AMPLIT PERI AZIMU VELO AIN AR TRES W  DIS CAZ7
 BAR2 EZ EP        948 51.56                             169   -0.0610 25.4 187 
 BAR2 EZ I         949  8.10        12.6 0.12            171           25.4 187 
 BRR  HZ EP        948 53.14                             153    0.1310 69.3 297 
 BRR  HN ES        949  9.75                             153    0.5010 69.3 297 
 BRR  HZ I         949 14.32        12.5 0.23            156           69.3 297 
 PTB  HZ EP        948 58.16                             132   -0.79 9  147 258 
 PTB  HN ES        949 18.99                             132   -0.82 9  147 258 
 OCA  HZ EP        949  0.69                             130    0.56 9  158 353 
 OCA  HN ES        949 21.54                             130   -0.37 9  158 353 
 OCA  HZ I         949 26.13        12.9 0.24            133            158 353 
 SPBC HZ EP        949  0.43                             128   -0.21 9  164 218 
 SPBC HN ES        949 22.65                             128   -0.18 9  164 218 
 SPBC HZ I         949 26.70        13.6 0.22            133            164 218 
 ZAR  HZ EP        949  4.61                             122    0.28 9  202 292 
 ZAR  HN ES        949 29.84                             122    0.45 9  202 292 
 ZAR  HZ I         949 35.50        14.7 0.30            126            202 292 
 NOR  HZ EP        949  7.64                             118   -0.22 8  235 234 
 NOR  HE ES        949 35.57                             118   -0.11 8  235 234 
 NOR  HZ I         949 38.52         5.6 0.24            122            235 234 
 HEL  HZ EP   1    949 12.33                             114    0.07 6  272 255 
 HEL  HN ES        949 43.94                             114    0.43 8  272 255 
 HEL  HZ I         949 49.79         5.7 0.44            118            272 255 
 URE  HZ EP   1    949 12.19                             113   -0.78 6  282 292 
 URE  HN ES   1    949 44.50                             113   -0.27 6  282 292 
 URE  HZ I         949 55.38         6.0 0.14            117            282 292 
 GUY2CHZ EP   1    949 15.76                             112   -0.01 5  302 234 
 GUY2CHN ES        949 50.50                             112    0.75 7  302 234 
 GUY2CHZ I         949 56.51         2.8 0.30                           302 234 
 PRA  HZ EP        949 26.19                             106    0.37 6  393 209 
 PRA  HN ES        950  8.33                             106    0.69 6  393 209 
 PRA  HZ I         950 10.28         2.5 0.26            109            393 209 
                                                                                
