 2017  921 0141 37.8 L   6.817 -73.099140.9  RSN 18 0.5 2.0LRSN                1
 GAP=116        1.01       3.1     3.7  5.1  0.1161E+01  0.7517E+01  0.4984E+01E
 Epicentro: LOS SANTOS - SANTANDER                                             3
 ACTION:UPD 17-10-05 19:14 OP:rebc STATUS:               ID:20170921014137 L   I
 OLDACT:UP  17-09-21 17:18 OP:and  STATUS:               ID:20170921013741     3
 OLDACT:UP  17-09-21 17:13 OP:and  STATUS:               ID:20170921013741     3
 OLDACT:UP  17-09-21 17:13 OP:and  STATUS:               ID:20170921013741     3
 OLDACT:UP  17-09-21 17:13 OP:and  STATUS:               ID:20170921013741     3
 OLDACT:UP  17-09-21 17:03 OP:and  STATUS:               ID:20170921013741     3
 OLDACT:UP  17-09-21 17:01 OP:and  STATUS:               ID:20170921013741     3
 OLDACT:UP  17-09-21 17:01 OP:and  STATUS:               ID:20170921013741     3
 OLDACT:UP  17-09-21 17:00 OP:and  STATUS:               ID:20170921013741     3
 OLDACT:REG 17-09-21 13:03 OP:leo  STATUS:               ID:20170921013741     3
 2017-09-21-0138-00M.COL___450                                                 6
 STAT SP IPHASW D HRMM SECON CODA AMPLIT PERI AZIMU VELO AIN AR TRES W  DIS CAZ7
 BAR2 EZ EP        141 56.27                             169   -0.6410 26.5 200 
 BAR2 EZ ES        142 11.52                             169   -0.3010 26.5 200 
 BAR2 EZ I         142 13.85        21.5 0.28            166           26.5 200 
 PAM  EZ IP     C  141 59.52                             151    0.3010 72.7  37 
 PAM  EN ES        142 16.25                             151    0.3310 72.7  37 
 PAM  EZ I         142 18.34        18.3 0.46            152           72.7  37 
 BRR  HZ EP        141 58.18                             150   -0.4610 74.9 295 
 BRR  HN ES        142 15.11                             150    0.2110 74.9 295 
 BRR  HZ I         142 15.83         7.6 0.12            149           74.9 295 
 RUS  HZ EP        142  0.97                             142   -0.2310  102 179 
 RUS  HN ES        142 19.32                             142   -0.1310  102 179 
 RUS  HZ I         142 20.96        22.9 0.34            139            102 179 
 YPLC HZ IP     D  142  7.15                             125   -0.02 9  176 153 
 YPLC HN ES        142 30.73                             125    0.65 9  176 153 
 YPLC HZ I         142 33.56        15.2 0.48            123            176 153 
 ZAR  HZ EP        142 10.68                             121    0.32 8  208 291 
 ZAR  HN ES        142 35.72                             121   -0.03 8  208 291 
 ZAR  HZ I         142 37.13         7.2 0.20            119            208 291 
 NOR  HZ EP        142 12.99                             117   -0.84 8  240 235 
 NOR  HN ES        142 41.30                             117   -0.62 8  240 235 
 NOR  HZ I         142 45.16         5.9 0.16            115            240 235 
 CHI  HZ EP        142 15.22                             116   -0.37 8  252 196 
 CHI  HN ES        142 44.58                             116   -0.47 8  252 196 
 CHI  HZ I         142 52.27         2.7 0.26            114            252 196 
 ROSC BZ EP        142 16.69                             115    0.56 8  257 212 
 ROSC BN ES        142 46.67                             115    0.64 8  257 212 
 ROSC BZ I         142 51.28         5.8 0.35            113            257 212 
 HEL  HZ EP        142 19.05                             113    0.67 7  278 256 
 HEL  HN ES   3    142 51.20                             113    1.17 2  278 256 
 HEL  HZ I         142 55.65         4.5 0.30            111            278 256 
 URE  HN ES   4    142 48.55                             112   -2.76 0  288 291 
 URE  HZ I         142 52.05         6.0 0.14            111            288 291 
 GUY2CHZ EP        142 22.12                             111    0.33 7  306 235 
 GUY2CHN ES        142 56.87                             111    0.77 7  306 235 
 GUY2CHZ I         143  5.84         2.8 0.70                           306 235 
 PTGC HZ EP   9    142 20.14                             110   -1.30 0  309 160 
 PTGC HN ES        142 53.66                             111   -0.51 7  309 160 
 PTGC HZ I         142 55.75         7.0 0.38            109            309 160 
 LL6C HZ EP   4    142 20.33                             109   -2.78 0  323 357 
 LL6C HN ES   4    142 57.20                             109   -1.25 0  323 357 
 ELA  HZ EP   4    142 26.99                             109    1.95 0  334 230 
 ELA  HZ I         143  0.18         9.0 0.54            107            334 230 
 CBOC HZ EP        142 25.39                             108    0.24 7  339 252 
 CBOC HN ES   3    143  0.77                             108   -1.31 2  339 252 
 PRA  HZ EP        142 30.89                             105   -0.76 6  396 210 
 PRA  HN ES        143 14.10                             105    0.45 6  396 210 
 PRA  HZ I         143 18.74         2.9 0.24            104            396 210 
 ORTC HZ EP        142 32.28                             105    0.18 6  400 217 
 ORTC HN ES        143 14.89                             105    0.45 6  400 217 
 PAL  HZ EP        142 32.92                             105   -0.52 6  411 239 
 PAL  HN ES   3    143 15.34                             105   -1.49 1  411 239 
 PAL  HZ I         143 17.51         1.7 0.26            103            411 239 
 URI  HZ EP   4    142 47.43                             100   -2.91 0  554  13 
                                                                                
