 2012 1121 0038 20.2 L   6.774 -73.142148.5  RSN 13 0.4 2.8LRSN                1
 GAP= 72        0.93       3.6     4.3  5.2 -0.2618E+01  0.4040E+01  0.2679E+01E
 Epicentro: LOS SANTOS - SANTANDER                                             3
 ACTION:UPD 12-12-05 15:34 OP:}ep  STATUS:               ID:20121121003820 L   I
 2012-11-21-0030-00M.COL___233                                                 6
 STAT SP IPHASW D HRMM SECON CODA AMPLIT PERI AZIMU VELO AIN AR TRES W  DIS CAZ7
 BAR2 SZ IP        038 40.11                             172   -0.0110 20.6 192 
 BAR2 SZ ES        038 55.60                             172   -0.0510 20.6 192 
 BAR2 SZ I         038 56.87       161.7 0.33                          20.6 192 
 GIR2 SZ EP        038 40.17                             166   -0.1210 34.2 350 
 BRR  HZ IP     C  038 42.01                             152    0.2510 72.9 300 
 BRR  HZ I         038 42.30       204.7 0.25                          72.9 300 
 BRR  HN ES        038 59.35                             152    0.7910 72.9 300 
 PAM  SZ EP        038 42.92                             151    0.0810 79.4  38 
 PAM  SZ I         038 43.16        89.6 0.20                          79.4  38 
 PAM  SN ES        039  0.26                             151   -0.2310 79.4  38 
 RUS  HZ EP        038 44.15                             145    0.1210 97.7 176 
 RUS  HN ES        039  2.40                             145   -0.2110 97.7 176 
 RUS  HN I         039  3.27        99.2 0.30                          97.7 176 
 PTB  HZ EP        038 46.55                             133   -0.84 9  148 260 
 PTB  HN ES   1    039  8.03                             133   -0.56 7  148 260 
 TAM  HZ EP   1    038 48.24                             131    0.23 7  154 104 
 OCA  HZ EP   1    038 48.35                             130   -0.66 7  163 353 
 ZAR  HZ EP   1    038 53.44                             123    0.45 6  206 293 
 ZAR  HZ I         039 25.21        79.7 0.31                           206 293 
 NOR  HZ EP   1    038 55.84                             119   -0.12 6  233 235 
 NOR  HN ES   1    039 23.41                             119   -0.44 6  233 235 
 NOR  HZ I         039 26.52        32.5 0.32                           233 235 
 CHI  HZ EP        038 58.04                             118    0.26 8  246 195 
 CHI  HE ES        039 27.48                             118    0.40 8  246 195 
 HEL  HZ EP   1    039  1.27                             115    0.74 6  272 256 
 PRA  HZ EP   1    039 13.38                             107   -0.18 4  390 210 
                                                                                
