 2017 1121 0016 47.9 L   6.787 -73.143145.9  RSN  9 0.4 1.4LRSN                1
 GAP=137        0.92       4.1     4.5  6.8 -0.6942E+01  0.1025E+02  0.1249E+01E
 Epicentro: LOS SANTOS - SANTANDER                                             3
 ACTION:UPD 17-12-12 19:57 OP:rebc STATUS:               ID:20171121001647 L   I
 OLDACT:UP  17-11-21 13:10 OP:edw  STATUS:               ID:20171121000411     3
 OLDACT:UP  17-11-21 13:08 OP:edw  STATUS:               ID:20171121000411     3
 OLDACT:REG 17-11-21 12:17 OP:edw  STATUS:               ID:20171121000411     3
 2017-11-21-0008-00M.COL___486                                                 6
 STAT SP IPHASW D HRMM SECON CODA AMPLIT PERI AZIMU VELO AIN AR TRES W  DIS CAZ7
 BAR2 EZ EP        017  7.52                             171   -0.0210 22.0 191 
 BAR2 EZ ES        017 23.11                             171    0.2710 22.0 191 
 BAR2 EZ I         017 24.04         7.5 0.16            169           22.0 191 
 PAM  EZ EP        017 10.45                             150    0.2510 78.3  39 
 PAM  HE ES        017 27.57                             150   -0.0210 78.3  39 
 PAM  EZ I         017 28.18         4.7 0.18            153           78.3  39 
 RUS  HZ EP        017 11.69                             144    0.1110 99.1 176 
 RUS  HE ES        017 29.60                             144   -0.4410 99.1 176 
 RUS  HZ I         017 32.87         1.6 0.28            144           99.1 176 
 PTB  HZ EP        017 14.55                             132   -0.35 9  148 259 
 PTB  HN ES        017 35.25                             132   -0.69 9  148 259 
 PTB  HZ I         017 36.29         3.0 0.30            132            148 259 
 SPBC HN ES        017 39.21                             129    0.70 9  162 219 
 ZAR  HE ES   2    017 46.34                             122    0.51 4  205 292 
 NOR  HZ EP        017 23.54                             119   -0.05 8  234 235 
 NOR  HN ES        017 51.89                             119    0.48 8  234 235 
 NOR  HZ I         017 58.04         2.2 0.18            119            234 235 
 CHI  HE ES        017 54.37                             117   -0.41 8  247 195 
 PRA  HE ES   2    018 23.54                             107    0.58 3  391 210 
                                                                                
