 2015  221 0118 19.9 L   6.805 -73.156143.0  RSN  8 0.4 1.7LRSN                1
 GAP=147        0.99       4.1     5.0  5.9 -0.9603E+01  0.8481E+01 -0.6786E-01E
 Epicentro: LOS SANTOS - SANTANDER                                             3
 ACTION:UPD 15-04-30 21:28 OP:nd   STATUS:               ID:20150221011819 L   I
 OLDACT:REG 15-02-21 12:32 OP:fm   STATUS:               ID:20150221010748     3
 2015-02-21-0107-48M.COL___284                                                 6
 STAT SP IPHASW D HRMM SECON CODA AMPLIT PERI AZIMU VELO AIN AR TRES W  DIS CAZ7
 BAR2 EZ EP        118 39.40                             170    0.1610 23.7 187 
 BAR2 EZ ES        118 53.84                             170   -0.4510 23.7 187 
 BAR2 EZ I         118 59.36         4.8 0.18            169           23.7 187 
 BRR  HZ EP        118 41.11                             152    0.4010 70.0 299 
 BRR  HN ES        118 57.81                             152    0.8910 70.0 299 
 BRR  HZ I         119  4.94         6.6 0.28            153           70.0 299 
 PAM  SZ EP        118 42.21                             150    0.3410 77.7  40 
 PAM  SE ES        118 58.60                             150   -0.3810 77.7  40 
 PAM  SZ I         119  1.48         6.2 0.20            157           77.7  40 
 PTB  HZ EP        118 46.40                             131   -0.18 9  147 259 
 PTB  HN ES        119  6.85                             131   -0.52 9  147 259 
 PTB  HZ I         119 11.98         6.3 0.14            134            147 259 
 SPBC HZ EP        118 48.38                             128    0.19 9  163 219 
 SPBC HN ES        119 10.17                             128   -0.06 9  163 219 
 SPBC HZ I         119 18.75         6.8 0.14            132            163 219 
 NOR  HZ EP        118 54.98                             118   -0.46 8  234 234 
 NOR  HN ES        119 23.42                             118    0.29 8  234 234 
 NOR  HZ I         119 28.94         4.4 0.30            122            234 234 
 SML  HZ EP        118 56.22                             117   -0.08 8  243 335 
 SML  HE ES        119 24.17                             117   -0.50 8  243 335 
 SML  HZ I         119 27.16         6.6 0.34            122            243 335 
 GUY2CHZ EP        119  3.50                             112    0.15 7  301 235 
 GUY2CHN ES        119 37.12                             112   -0.09 7  301 235 
 GUY2CHZ I         119 46.33         3.5 0.68                           301 235 
                                                                                
