 2016  121 0516 43.0 L   6.833 -73.189147.5  RSN  7 0.4 1.5LRSN                1
 GAP=130        0.89       3.0     4.6  5.8 -0.2596E+01  0.8421E+01 -0.1528E+01E
 Epicentro: ZAPATOCA - SANTANDER                                               3
 ACTION:UPD 16-03-09 23:27 OP:cam  STATUS:               ID:20160121051643 L   I
 OLDACT:REG 16-01-21 13:36 OP:ar   STATUS:               ID:20160121050751     3
 2016-01-21-0507-51M.COL___318                                                 6
 STAT SP IPHASW D HRMM SECON CODA AMPLIT PERI AZIMU VELO AIN AR TRES W  DIS CAZ7
 BAR2 EZ EP        517  2.80                             169   -0.1410 26.7 179 
 BAR2 EZ ES        517 18.08                             169   -0.3810 26.7 179 
 BAR2 EZ I         517 18.96         6.8 0.28            170           26.7 179 
 PAM  EZ EP        517  5.81                             151    0.3610 77.8  44 
 PAM  EN ES        517 23.00                             151    0.0610 77.8  44 
 PAM  EZ I         517 25.66         4.0 0.60            154           77.8  44 
 RUS  HZ EP        517  6.78                             143   -0.4710  105 174 
 RUS  HN ES        517 26.56                             143    0.4310  105 174 
 RUS  HZ I         517 26.87         2.0 0.22            145            105 174 
 PTB  HZ EP        517  9.86                             133    0.07 9  144 257 
 PTB  HN ES        517 30.57                             133   -0.09 9  144 257 
 PTB  HZ I         517 35.64         4.0 0.44            133            144 257 
 SPBC HZ EP        517 11.73                             129    0.07 9  163 217 
 SPBC HN ES        517 34.64                             129    0.65 9  163 217 
 SPBC HZ I         517 37.97         4.7 0.12            130            163 217 
 SML  HZ EP        517 19.42                             118    0.24 8  238 336 
 SML  HN ES        517 47.06                             118   -0.32 8  238 336 
 SML  HZ I         517 51.88         4.4 0.22            119            238 336 
 CHI  HZ EP        517 21.17                             117    0.09 8  251 194 
 CHI  HN ES        517 50.03                             117   -0.73 8  251 194 
 CHI  HZ I         517 55.34         2.1 0.38            119            251 194 
                                                                                
