 2016 1121 0302 57.6 L   6.178 -73.771112.5  RSN  7 0.4 1.4LRSN                1
 GAP=124        0.75       3.0     3.4  6.2 -0.5710E+01 -0.1282E+01  0.4630E+01E
 Epicentro: LANDAZURI - SANTANDER                                              3
 ACTION:UPD 17-10-26 21:10 OP:lp   STATUS:               ID:20161121030257 L   I
 OLDACT:UP  16-11-21 16:52 OP:edw  STATUS:               ID:20161121025749     3
 OLDACT:REG 16-11-21 14:16 OP:edw  STATUS:               ID:20161121025749     3
 2016-11-21-0258-00M.COL___340                                                 6
 STAT SP IPHASW D HRMM SECON CODA AMPLIT PERI AZIMU VELO AIN AR TRES W  DIS CAZ7
 BAR2 EZ IP     D  3 3 16.19                             142   -0.0310 79.7  55 
 BAR2 EZ ES        3 3 30.55                             142   -0.1910 79.7  55 
 BAR2 EZ I         3 3 31.11        18.4 0.19            143           79.7  55 
 PTB  HZ EP   9    3 3 15.67                             140   -0.71 0 85.7 298 
 PTB  HN ES        3 3 30.10                             141   -0.2110 85.7 298 
 PTB  HZ I         3 3 33.08         3.6 0.10            136           85.7 298 
 NOR  HZ EP        3 3 21.15                             125   -0.13 9  139 241 
 NOR  HN ES        3 3 40.16                             125    0.41 9  139 241 
 NOR  HZ I         3 3 43.30         6.1 0.28            123            139 241 
 CHI  HZ EP        3 3 24.44                             119   -0.63 9  171 179 
 CHI  HN ES        3 3 46.62                             119    0.13 9  171 179 
 PAM  EZ EP        3 3 25.91                             118    0.37 9  175  43 
 PAM  EE ES        3 3 47.53                             118    0.20 9  175  43 
 PAM  EZ I         3 3 50.75         2.2 0.24            118            175  43 
 ZAR  HZ EP   2    3 3 26.73                             116    0.31 4  189 320 
 ZAR  HN ES   2    3 3 48.02                             116   -0.87 4  189 320 
 ZAR  HZ I         3 3 52.32         2.1 0.18            114            189 320 
 PRA  HZ EP   4    3 3 38.41                             105   -0.72 0  299 204 
 PRA  HN ES        3 4 11.57                             105    0.05 7  299 204 
 PRA  HZ I         3 4 16.52         1.2 0.24            104            299 204 
                                                                                
