 2010  921 0513 52.3 L   6.786 -73.048147.1  RSN 11 0.3 2.1LRSN                1
 GAP=170        0.75       3.1     6.0  5.9 -0.8370E+01  0.1943E+01  0.2520E+01E
 Epicentro: LOS SANTOS - SANTANDER                                             3
 ACTION:UP  11-02-18 11:04 OP:tino STATUS:               ID:20100921051352 L   I
 2010-09-21-0511-28S.COL___121                                                 6
 STAT SP IPHASW D HRMM SECON CODA AMPLIT PERI AZIMU VELO SNR AR TRES W  DIS CAZ7
 BAR2 SZ IP        514 11.98                             169    -0.210   26 215 
 BAR2 SZ ES   2    514 27.28                             169    -0.4 5   26 215 
 BAR2 SZ I         514 28.75        25.1 0.28                            26 215 
 BTL  SZ EP        514 12.42                             169     0.210   28 301 
 BRR  HZ EP        514 13.89                             150    -0.310   82 296 
 BRR  HZ I         514 14.16        36.1 0.15                            82 296 
 BRR  HN ES   1    514 31.24                             150     0.0 7   82 296 
 RUS  HZ EP        514 15.88                             144    -0.210   99 182 
 RUS  HN ES   1    514 34.82                             144     0.2 7   99 182 
 RUS  HZ I         514 36.38         8.0 0.43                            99 182 
 GUE  SZ EP        514 17.18                             140     0.110  116   7 
 GRA  SZ EP        514 17.86                             138     0.310  124  13 
 GRA  SZ ES   1    514 37.18                             138    -0.1 7  124  13 
 GRA  SZ I         514 39.61        12.4 0.24                           124  13 
 OCA  SZ EP   1    514 20.54                             129    -0.5 7  163 349 
 OCA  SZ ES   2    514 44.09                             129     0.7 5  163 349 
 OCA  SZ I         514 48.21        16.5 0.30                           163 349 
 NOR  SZ EP   1    514 28.26                             118    -0.7 6  243 236 
 NOR  SE ES   2    514 57.37                             118    -0.2 4  243 236 
 CHI  HZ EP   1    514 30.00                             117    -0.2 6  250 198 
 CHI  HE ES   2    514 59.96                             117     0.1 4  250 198 
 CHI  HZ I         515  5.40         4.3 0.57                           250 198 
 ROSC BZ EP        514 31.48                             116     0.5 8  257 213 
 ROSC BE ES   1    515  1.50                             116     0.4 6  257 213 
 ROSC BZ I         515  6.58        10.3 0.36                           257 213 
 RREF HZ EP   1    514 39.35                             111     0.0 5  329 231 
 RREF HN ES   2    515 16.75                             111     0.7 3  329 231 
 RREF HZ I         515 23.59         7.3 0.40                           329 231 
                                                                                
