 2015  221 0631  6.8 L   5.944 -73.797109.3  RSN 10 0.5 1.7LRSN                1
 GAP= 83        1.31       3.7     3.8  7.8 -0.1841E+01  0.7220E+01  0.6936E+01E
 Epicentro: SUCRE - SANTANDER                                                  3
 ACTION:UPD 15-04-30 21:28 OP:nd   STATUS:               ID:20150221063106 L   I
 OLDACT:REG 15-02-21 12:44 OP:fm   STATUS:               ID:20150221062738     3
 2015-02-21-0627-38M.COL___284                                                 6
 STAT SP IPHASW D HRMM SECON CODA AMPLIT PERI AZIMU VELO AIN AR TRES W  DIS CAZ7
 SPBC HZ EP        631 23.32                             156    0.6710 44.4 223 
 SPBC HE ES        631 35.60                             156    0.5910 44.4 223 
 SPBC HZ I         631 37.17        26.2 0.46            155           44.4 223 
 RUS  HZ EP        631 25.96                             142    0.5410 79.2  94 
 RUS  HE ES        631 39.60                             142   -0.3510 79.2  94 
 RUS  HZ I         631 42.00         6.0 0.20            143           79.2  94 
 PTB  HZ EP        631 26.61                             135    0.2910 98.3 312 
 PTB  HN ES        631 40.71                             135   -0.8410 98.3 312 
 PTB  HZ I         631 43.14        10.2 0.16            137           98.3 312 
 BAR2 EZ EP        631 27.50                             135    0.8410 98.8  43 
 BAR2 EZ ES        631 41.86                             135   -0.3010 98.8  43 
 BAR2 EZ I         631 44.72        29.3 0.48            138           98.8  43 
 NOR  HZ EP        631 29.14                             127    0.2110  126 251 
 NOR  HE ES        631 46.47                             127    0.2710  126 251 
 NOR  HZ I         631 49.12        21.5 0.10            128            126 251 
 CHI  HZ EP        631 30.66                             123   -0.70 9  146 177 
 CHI  HN ES        631 49.69                             123   -0.83 9  146 177 
 CHI  HZ I         631 55.66         3.3 0.36            123            146 177 
 GUY2CHZ EP        631 36.50                             115    0.19 9  191 245 
 GUY2CHE ES        631 59.51                             115    0.17 9  191 245 
 GUY2CHZ I         632  5.37         4.6 0.48                           191 245 
 ZAR  HE ES        632  0.88                             112   -0.67 8  208 326 
 ZAR  HZ I         632  4.56         5.6 0.24            114            208 326 
 PRA  HZ EP        631 45.19                             106   -0.13 8  275 206 
 PRA  HN ES        632 15.24                             106   -0.14 8  275 206 
 PRA  HZ I         632 21.18         2.9 0.38            107            275 206 
 ORTC HZ EP        631 45.19                             106   -0.35 7  277 216 
 ORTC HE ES        632 15.82                             106    0.05 7  277 216 
 ORTC HZ I         632 24.19         4.5 0.44            107            277 216 
                                                                                
