 2017 1021 0835 38.5 L   6.853 -73.098153.5  RSN 49 1.0 3.7LRSN 4.2WRSN        1
 SPEC AVERAGE  MO 15.3 ST143.3 OM  3.4 f0 2.08 R2.5581 AL 0.00 WI 30.0 MW  4.2 3
 SPEC SD       MO  0.6 ST345.4 OM  0.6 f0 4.41 R1.5196 AL      WI      MW  0.4 3
 GAP= 57        1.80       3.2     4.0  6.4 -0.1641E+01  0.5642E+01 -0.9499E+00E
 Epicentro: LOS SANTOS - SANTANDER                                             3
      50.0      71.0     -42.0  5.0  4.0 12.0  0.1  0.1           RSN FPFIT    F
 SPEC YPLCHN Z MO 15.5 ST999.9 OM  3.4 f0 10.3 R0.1868 AL 0.00 WI 30.0 MW  4.3 3
 SPEC YPLCHN Z T 83632 K 0.000 GD  236 VS 5.20 DE 3.50 Q0750.0 QA 1.50 VS 3.50 3
 SPEC CHI HH Z MO 15.4 ST0.423 OM  3.2 f00.655 R2.9374 AL 0.00 WI 30.0 MW  4.2 3
 SPEC CHI HH Z T 83645 K 0.000 GD  298 VS 5.20 DE 3.50 Q0750.0 QA 1.50 VS 3.50 3
 SPECMEDECHN Z MO 15.1 ST  2.8 OM  2.9 f0 1.51 R1.2742 AL 0.00 WI 30.0 MW  4.0 3
 SPECMEDECHN Z T 83652 K 0.000 GD  321 VS 5.20 DE 3.50 Q0750.0 QA 1.50 Q1 0.00 3
 SPECGUY2CHH Z MO 15.4 ST0.666 OM  3.2 f00.726 R2.6501 AL 0.00 WI 30.0 MW  4.2 3
 SPECGUY2CHH Z T 83657 K 0.000 GD  345 VS 5.20 DE 3.50 Q0750.0 QA 1.50 Q1 0.00 3
 SPEC VIL EH Z MO 15.1 ST  1.3 OM  2.8 f0 1.22 R1.5770 AL 0.00 WI 30.0 MW  4.0 3
 SPEC VIL EH Z T 83655 K 0.000 GD  345 VS 5.20 DE 3.50 Q0750.0 QA 1.50 VS 3.50 3
 SPEC PRA HH Z MO 15.5 ST0.608 OM  3.2 f00.655 R2.9374 AL 0.00 WI 30.0 MW  4.3 3
 SPEC PRA HH Z T 83713 K 0.000 GD  428 VS 5.20 DE 3.50 Q0750.0 QA 1.50 VS 3.50 3
 SPEC ORTCHH Z MO 15.5 ST0.414 OM  3.2 f00.575 R3.3461 AL 0.00 WI 30.0 MW  4.3 3
 SPEC ORTCHH Z T 83714 K 0.000 GD  431 VS 5.20 DE 3.50 Q0750.0 QA 1.50 VS 3.50 3
 SPEC MACCHH Z MO 15.2 ST0.364 OM  2.7 f00.746 R2.5791 AL 0.00 WI 30.0 MW  4.0 3
 SPEC MACCHH Z T 83736 K 0.000 GD  548 VS 5.20 DE 3.50 Q0750.0 QA 1.50 VS 3.50 3
 SPEC FLO2HH Z MO 15.0 ST0.058 OM  2.5 f00.443 R4.3431 AL 0.00 WI 30.0 MW  4.0 3
 SPEC FLO2HH Z T 838 5 K 0.000 GD  665 VS 5.20 DE 3.50 Q0750.0 QA 1.50 VS 3.50 3
 OLDACT:UP  17-10-21 18:55 OP:dani STATUS:               ID:20171021082100     3
 OLDACT:REG 17-10-21 13:35 OP:dani STATUS:               ID:20171021082100     3
 ACTION:UPD 17-11-07 19:34 OP:rebc STATUS:               ID:20171021083538 L   I
 OLDACT:UP  17-10-23 15:39 OP:rebc STATUS:               ID:20171021083538 L   3
 OLDACT:UP  17-10-23 15:25 OP:dhb  STATUS:               ID:20171021083538 L   3
 OLDACT:UP  17-10-23 11:06 OP:dnl  STATUS:               ID:20171021083538 L   3
 OLDACT:UP  17-10-21 19:11 OP:dani STATUS:               ID:20171021082100     3
 OLDACT:UP  17-10-21 19:09 OP:dani STATUS:               ID:20171021082100     3
 OLDACT:UP  17-10-21 19:08 OP:dani STATUS:               ID:20171021082100     3
 2017-10-21-0828-00M.COL___429                                                 6
 STAT SP IPHASW D HRMM SECON CODA AMPLIT PERI AZIMU VELO AIN AR TRES W  DIS CAZ7
 BAR2 HZ IP     D  835 59.32                             169    0.1010 30.2 198 
 BAR2 HZ ES        836 14.57                             169   -0.8010 30.2 198 
 BAR2 HZ I         836 15.55      1823.4 0.24            167           30.2 198 
 PAM  EZ IP     C  836  2.13                             154    1.0010 69.6  39 
 PAM  EN ES        836 19.45                             154    0.6910 69.6  39 
 PAM  EZ I         836 22.27       878.6 0.62            152           69.6  39 
 BRR  HZ IP     C  836  1.07                             153    0.4510 73.4 293 
 BRR  HE ES        836 17.82                             153   -0.0410 73.4 293 
 BRR  HZ I         836 21.36      1214.8 0.20            148           73.4 293 
 RUS  HZ IP     D  836  3.12                             144   -0.3010  106 179 
 RUS  HN ES        836 21.94                             144   -0.9110  106 179 
 RUS  HZ I         836 23.39       484.2 0.32            140            106 179 
 TAM  HZ EP     C  836  7.75                             133    1.24 9  152 108 
 TAM  HN ES        836 29.19                             133    0.85 9  152 108 
 TAM  HZ I         836 30.12       509.1 0.32            129            152 108 
 PTB  HZ EP     C  836  5.67                             132   -1.01 9  154 257 
 PTB  HN ES   4    836 27.20                             132   -1.45 0  154 257 
 PTB  HZ I         836 32.09       546.5 0.26            127            154 257 
 SPBC HZ EP     D  836  8.08                             129   -0.26 9  171 219 
 SPBC HN ES        836 31.20                             129   -0.41 9  171 219 
 SPBC HZ I         836 36.25       987.0 0.42            124            171 219 
 YPLC HZ IP     D  836  9.76                             128    0.62 9  180 154 
 YPLC HN ES        836 33.51                             128    0.48 9  180 154 
 YPLC HZ I         836 34.72       689.9 0.26            124            180 154 
 ZAR  HZ EP     C  836 11.34                             124   -0.41 8  207 290 
 ZAR  HN ES        836 37.23                             124   -0.45 8  207 290 
 ZAR  HZ I         836 42.22       759.0 0.18            118            207 290 
 TABC EZ EP     D  836 16.60                             120    1.06 8  238 211 
 TABC EZ ES        836 43.46                             120   -0.96 8  238 211 
 TABC EZ I         836 50.82       893.5 0.36            116            238 211 
 NOR  HZ EP        836 15.03                             119   -0.48 8  242 234 
 NOR  HN ES        836 43.70                             119   -0.67 8  242 234 
 NOR  HZ I         836 48.52       474.9 0.30            115            242 234 
 CHI  HZ EP     D  836 17.13                             118   -0.27 8  256 196 
 CHI  HN ES        836 46.82                             118   -0.91 8  256 196 
 CHI  HZ I         836 51.96       347.4 0.38            114            256 196 
 ROSC HZ EP     D  836 18.93                             117    1.04 8  260 211 
 ROSC BN ES        836 49.51                             117    0.90 8  260 211 
 MEDECHZ EP   1    836 20.21                             115    0.13 6  283 257 
 MEDECHN ES        836 53.90                             115    1.40 7  283 257 
 URE  HZ EP        836 18.94                             115   -1.33 7  287 290 
 URE  HN ES   4    836 49.92                             115   -2.93 0  287 290 
 URE  HZ I         837  1.44       430.9 0.22            110            287 290 
 GUY2CHZ EP        836 23.28                             113   -0.06 7  309 234 
 GUY2CHN ES        836 59.00                             113    0.69 7  309 234 
 GUY2CHZ I         837  5.68       449.5 0.72                           309 234 
 VIL  HZ EP        836 22.56                             113   -0.49 7  310 192 
 VIL  EN ES        836 57.26                             113   -0.53 7  310 192 
 VIL  HZ I         837  6.80       529.3 0.42            109            310 192 
 PTGC HZ IP     D  836 22.44                             113   -0.69 7  312 160 
 PTGC HN ES        836 55.86                             113   -2.07 7  312 160 
 PTGC HZ I         836 58.81       249.9 0.24            109            312 160 
 LL6C HZ EP        836 23.88                             112   -0.04 7  319 357 
 LL6C HN ES        836 59.33                             112   -0.01 7  319 357 
 LL6C HZ I         837  2.31       101.1 0.32            108            319 357 
 NIZA HZ EP        836 27.71                             112    2.31 7  329 233 
 NIZA HN ES        837  5.04                             112    3.06 7  329 233 
 DBB  HZ IP     C  836 26.67                             110   -0.19 7  344 273 
 DBB  EN ES        837  3.24                             110   -1.34 7  344 273 
 DBB  HZ I         837  7.76       116.6 0.16            107            344 273 
 SDV  BZ EP     C  836 28.92                             110    0.95 6  353  50 
 SDV  B1 ES        837  5.62                             110   -0.92 6  353  50 
 SDV  BZ I         837  9.47        67.6 0.35            107            353  50 
 IBA1CHZ EP        836 29.33                             110    1.03 6  356 222 
 IBA1CHN ES        837  6.79                             110   -0.34 6  356 222 
 ARGC HZ IP     C  836 29.43                             110    1.38 6  356 339 
 ARGC HE ES        837  8.03                             110    1.34 6  356 339 
 ARGC HZ I         837 15.43        85.9 0.28            106            356 339 
 ARMECHZ EP        836 32.29                             108    1.09 6  381 228 
 ARMECHN ES   4    837 17.72                             108    5.43 0  381 228 
 CCALAHZ EP   4    836 33.65                             108    2.31 0  382 227 
 CCALAHN ES   4    837 16.09                             108    3.55 0  382 227 
 PRA  HZ EP        836 32.43                             107   -0.77 6  400 210 
 PRA  HE ES   3    837 14.54                             107   -1.31 1  400 210 
 PRA  HZ I         837 19.59       310.8 0.32            104            400 210 
 APAC HZ IP     C  836 33.14                             107   -0.21 6  401 287 
 APAC HN ES   3    837 14.48                             107   -1.64 1  401 287 
 APAC HZ I         837 22.01       102.5 0.44            104            401 287 
 ORTC HZ EP        836 33.44                             107   -0.17 6  403 216 
 ORTC HZ I         837 23.21       148.5 0.34            104            403 216 
 SJC  HZ EP     C  836 33.00                             107   -1.11 6  407 326 
 SJC  HN ES   4    837 14.28                             107   -3.19 0  407 326 
 SJC  HZ I         837 18.55       101.9 0.26            103            407 326 
 PAL  HZ EP     C  836 34.77                             107   -0.04 6  413 239 
 PAL  HE ES        837 21.20                             107    2.48 6  413 239 
 PAL  HZ I         837 24.67        86.5 0.24            103            413 239 
 CRJC HZ EP        836 39.58                             105   -0.94 5  462   3 
 CRJC HE ES        837 27.51                             105   -1.37 5  462   3 
 CRJC HZ I         837 34.44       151.5 0.15            101            462   3 
 GUA  HZ EP        836 41.55                             104   -0.95 5  479 174 
 GUA  EN ES        837 30.51                             104   -1.89 5  479 174 
 GUA  HZ I         837 34.63        74.8 0.18            101            479 174 
 YOT  HZ EP        836 41.80                             104   -0.90 5  480 229 
 YOT  HZ I         837 40.82        19.6 0.40            101            480 229 
 SMAR HZ EP        836 44.74                             103    0.67 4  493 346 
 SMAR HN ES        837 32.97                             103   -2.24 4  493 346 
 SMAR HZ I         837 36.62        68.1 0.30            100            493 346 
 BET  HZ EP        836 47.67                             103   -0.22 4  524 210 
 MACC HZ IP     D  836 46.21                             102   -1.99 4  527 189 
 MACC HN ES   4    837 37.67                             102   -4.88 0  527 189 
 MACC HZ I         837 44.04        57.2 0.28            100            527 189 
 MARO HZ EP        836 50.27                             102   -0.38 4  545 216 
 MARO HN ES        837 45.08                             102   -1.84 4  545 216 
 MARO HZ I         837 51.22        27.0 0.28             99            545 216 
 URI  HZ EP        836 50.06                             102   -0.82 4  550  13 
 URI  HN ES        837 45.91                             102   -1.42 4  550  13 
 URI  HZ I         837 52.36        26.4 0.48             99            550  13 
 JAMC HZ EP        836 52.44                             101   -0.50 3  565 225 
 MAL  HZ EP        836 53.79                             101    1.13 3  565 236 
 UPD2 HZ EP        836 52.12                             101   -1.62 3  574 289 
 UPD2 HE ES   4    837 49.87                             101   -2.55 0  574 289 
 UPD2 HZ I         837 55.68        65.5 0.65             98            574 289 
 GARC HZ EP   3 C  836 53.40                             101   -1.44 1  580 207 
 GARC HN ES   4    837 50.08                             101   -4.30 0  580 207 
 GARC HZ I         837 55.26        67.5 0.26             98            580 207 
 CONO HZ EP        837  0.58                             100    0.60 3  620 216 
 CONO HZ I         838 35.79        21.9 0.62             97            620 216 
 POP2 HZ EP        836 58.94                             100   -0.68 3  620 220 
 FLO2 HZ EP        837  1.78                              99   -0.91 2  648 206 
 FLO2 HZ I         838 12.18        12.4 0.36             97            648 206 
 SOTO HZ EP        837  4.23                              99    0.61 2  651 217 
 BBAC HZ EP        837 10.02                              98    0.22 1  705 221 
 BBAC HN ES   4    838 18.02                              98   -2.98 0  705 221 
 BBAC HZ I         838 26.05         6.3 0.40             96            705 221 
 CRU  HZ EP   3    837 14.31                              98    2.05 0  724 216 
 GCUF HZ EP        837 19.88                              97    0.62 0  781 217 
 GCUF HZ I         838 42.35         5.3 0.68             95            781 217 
 BCIP BZ EP   4    837 16.02                              97   -3.27 0  786 289 
                                                                                
