 2013  721 0706 21.5 L   6.228 -73.858 97.3  RSN  4 0.3 1.4LRSN                1
 GAP=139        0.74       4.2     7.6 10.9 -0.1996E+02  0.3358E+02 -0.1683E+02E
 Epicentro: LANDAZURI - SANTANDER                                              3
 ACTION:UPD 13-08-12 10:39 OP:ep   STATUS:               ID:20130721070621 L   I
 OLDACT:UP  13-07-21 12:04 OP:mh   STATUS:               ID:20130721065959     3
 OLDACT:UP  13-07-21 12:04 OP:mh   STATUS:               ID:20130721065959     3
 OLDACT:REG 13-07-21 08:27 OP:mh   STATUS:               ID:20130721065959     3
 2013-07-21-0659-59M.COL___266                                                 6
 STAT SP IPHASW D HRMM SECON CODA AMPLIT PERI AZIMU VELO AIN AR TRES W  DIS CAZ7
 SPBC HZ EP        7 6 37.69                             143    0.1710 67.9 200 
 SPBC HN ES        7 6 50.10                             143    0.0510 67.9 200 
 SPBC HN I         7 6 51.65         6.9 0.42            126           67.9 200 
 PTB  HZ EP   1    7 6 37.27                             140   -0.67 7 74.6 298 
 PTB  HN I         7 6 55.40         7.9 0.26            116           74.6 298 
 BAR2 SZ ES   1    7 6 52.48                             136   -0.38 7 85.0  62 
 BAR2 SZ I         7 6 54.05         9.6 0.24            126           85.0  62 
 BRR  HZ EP   1    7 6 40.27                             131    0.27 7 98.6   9 
 BRR  HE ES        7 6 54.66                             131    0.2110 98.6   9 
 BRR  HE I         7 6 56.03         4.3 0.18            114           98.6   9 
                                                                                
