 2016  221 0552 33.4 L   6.801 -73.184142.3  RSN  6 0.4 1.4LRSN                1
 GAP=132        1.00       4.1     5.6  7.7 -0.5140E+01  0.1291E+02 -0.7414E+01E
 Epicentro: ZAPATOCA - SANTANDER                                               3
 ACTION:UPD 16-03-04 21:28 OP:rebc STATUS:               ID:20160221055233 L   I
 OLDACT:REG 16-02-21 12:35 OP:drio STATUS:               ID:20160221054748     3
 2016-02-21-0547-48M.COL___321                                                 6
 STAT SP IPHASW D HRMM SECON CODA AMPLIT PERI AZIMU VELO AIN AR TRES W  DIS CAZ7
 BAR2 EZ EP        552 52.62                             170   -0.0010 23.1 180 
 BAR2 EZ ES        553  7.52                             170   -0.0810 23.1 180 
 BAR2 EZ I         553 10.09         4.4 0.40            173           23.1 180 
 BRR  HZ EP        552 54.88                             153    0.9010 67.5 300 
 BRR  HE ES   4    553 11.65                             153    1.63 0 67.5 300 
 PAM  EZ EP        552 55.79                             149    0.3710 80.0  42 
 PAM  EN ES        553 12.71                             149    0.1210 80.0  42 
 PAM  EZ I         553 14.67         6.1 0.44            151           80.0  42 
 RUS  HZ EP        552 56.36                             143   -0.5010  101 174 
 RUS  HE ES        553 15.10                             143   -0.0510  101 174 
 RUS  HZ I         553 15.75         1.5 0.46            147            101 174 
 PTB  HZ EP        552 59.70                             132   -0.03 9  144 258 
 PTB  HN ES        553 20.18                             132   -0.07 9  144 258 
 PTB  HZ I         553 22.94         3.6 0.14            134            144 258 
 OCA  HZ EP        553  1.09                             129   -0.32 9  160 355 
 OCA  HE ES        553 22.74                             129   -0.50 9  160 355 
 OCA  HZ I         553 27.30         6.0 0.40            131            160 355 
                                                                                
