 2011  721 0003 23.5 L   7.422 -73.273137.3  RSN  5 0.3 1.5LRSN                1
 GAP=123        0.67       4.5     7.4  7.9 -0.9505E+01 -0.6615E+01  0.9486E+01E
 Epicentro: EL PLAYON - SANTANDER                                              3
 ACTION:UPD 12-07-25 14:02 OP:epov STATUS:               ID:20110721000323 L   I
 2011-07-21-0001-53S.COL___142                                                 6
 STAT SP IPHASW D HRMM SECON CODA AMPLIT PERI AZIMU VELO AIN AR TRES W  DIS CAZ7
 BRR  HZ EP   1    0 3 43.54                             155    0.48 7 59.6 234 
 BRR  HZ I         0 3 43.99         9.5 0.14                          59.6 234 
 BRR  HN ES   1    0 3 58.42                             155    0.07 7 59.6 234 
 BRI  SZ EP   1    0 3 43.57                             154    0.14 7 61.8  58 
 BRI  SZ ES   1    0 3 59.30                             154    0.29 7 61.8  58 
 BRI  SZ I         0 3 59.99         4.4 0.19                          61.8  58 
 OCA  SZ ES   1    0 4  1.64                             145   -0.47 7 90.4 357 
 OCA  SZ I         0 4  4.19         6.8 0.24                          90.4 357 
 BAR2 SZ ES   1    0 4  2.34                             144   -0.22 7 92.3 174 
 BAR2 SZ I         0 4  3.53         5.7 0.16                          92.3 174 
 RUS  HZ EP   1    0 3 52.20                             126   -0.37 7  170 173 
                                                                                
