 2013  521 0020  7.4 L   7.171 -73.072151.5  RSN  6 0.2 1.9LRSN                1
 GAP=161        0.62       3.8     3.5  4.0 -0.2088E+01  0.1684E+01  0.1617E+01E
 Epicentro: BUCARAMANGA - SANTANDER                                            3
 ACTION:UPD 13-06-20 09:52 OP:ep   STATUS:               ID:20130521002007 L   I
 2013-05-21-0018-52M.COL___222                                                 6
 STAT SP IPHASW D HRMM SECON CODA AMPLIT PERI AZIMU VELO AIN AR TRES W  DIS CAZ7
 GIR2 SZ EP        020 27.53                             173    0.0610 16.8 233 
 GIR2 SZ ES        020 43.04                             173   -0.0810 16.8 233 
 GIR2 SZ I         020 43.80        17.0 0.18            172           16.8 233 
 PAM  SZ EP        020 28.63                             163   -0.0810 45.2  66 
 PAM  SN ES        020 45.15                             163   -0.1810 45.2  66 
 PAM  SN I         020 46.47        15.8 0.34            165           45.2  66 
 BAR2 SZ EP        020 29.33                             156    0.1210 65.2 191 
 BAR2 SZ ES        020 46.05                             156   -0.1710 65.2 191 
 BAR2 SZ I         020 47.87        12.8 0.30            155           65.2 191 
 BRR  HZ EP        020 29.29                             154    0.1310 71.0 264 
 BRR  HN ES        020 46.62                             154    0.4810 71.0 264 
 BRR  HN I         020 49.63        22.7 0.16            154           71.0 264 
 RUS  HZ EP        020 35.19                             135    0.25 9  141 180 
 RUS  HN ES        020 56.46                             135    0.05 9  141 180 
 RUS  HN I         020 59.15         4.4 0.34            136            141 180 
 PTB  HZ EP        020 36.33                             129   -0.38 9  168 246 
 PTB  HN ES        020 59.29                             129   -0.29 9  168 246 
 PTB  HN I         021  1.02        14.0 0.32            130            168 246 
                                                                                
