 2016 1121 0740  3.2 L   6.821 -73.099150.0  RSN  8 0.6 1.4LRSN                1
 GAP=159        1.35       6.0     6.4  8.5 -0.1424E+01  0.1090E+02  0.2143E+02E
 Epicentro: LOS SANTOS - SANTANDER                                             3
 ACTION:UPD 17-10-26 21:10 OP:lp   STATUS:               ID:20161121074003 L   I
 OLDACT:REG 16-11-21 14:50 OP:edw  STATUS:               ID:20161121073743     3
 2016-11-21-0738-00M.COL___343                                                 6
 STAT SP IPHASW D HRMM SECON CODA AMPLIT PERI AZIMU VELO AIN AR TRES W  DIS CAZ7
 BAR2 EZ EP        740 22.49                             169   -0.8810 26.9 200 
 BAR2 EZ ES        740 38.97                             169   -0.1710 26.9 200 
 BAR2 EZ I         740 40.16         7.9 0.19            169           26.9 200 
 PAM  EZ EP        740 24.96                             153   -0.5810 72.4  38 
 PAM  EE ES        740 43.27                             153    0.2710 72.4  38 
 PAM  EZ I         740 46.22         5.7 0.58            156           72.4  38 
 BRR  HZ EP     D  740 25.64                             152    0.6810 74.8 295 
 BRR  HE ES        740 42.93                             152    0.9610 74.8 295 
 BRR  HZ I         740 47.58         3.4 0.18            154           74.8 295 
 PTB  HZ EP        740 30.59                             132   -0.38 9  153 258 
 PTB  HN ES        740 51.86                             132   -0.80 9  153 258 
 PTB  HZ I         740 54.49         2.9 0.14            134            153 258 
 ZAR  HZ EP        740 36.19                             123   -0.09 8  208 291 
 ZAR  HE ES        741  2.05                             123   -0.07 8  208 291 
 CHI  HZ EP        740 42.04                             118    0.56 8  252 196 
 CHI  HN ES        741 11.81                             118    0.43 8  252 196 
 CHI  HZ I         741 15.00         1.4 0.27            120            252 196 
 ROSC BZ EP        740 42.19                             117    0.18 8  257 212 
 ROSC BE ES   4    741 17.83                             117    5.51 0  257 212 
 PRA  HZ EP        740 57.95                             107    0.59 6  397 210 
 PRA  HE ES        741 39.41                             107   -0.22 6  397 210 
                                                                                
