 2014 1221 0403 50.6 L   6.777 -73.347128.6  RSN 12 0.4 1.6LRSN                1
 GAP= 89        0.95       2.8     3.9  6.7 -0.9315E+00  0.5111E+01 -0.1611E+01E
 Epicentro: ZAPATOCA - SANTANDER                                               3
 ACTION:UPD 15-02-10 17:06 OP:nd   STATUS:               ID:20141221040350 L   I
 OLDACT:DUP 14-12-21 15:26 OP:spq  STATUS:               ID:20141221035748d    3
 2014-12-21-0357-46M.COL___302                                                 6
 STAT SP IPHASW D HRMM SECON CODA AMPLIT PERI AZIMU VELO AIN AR TRES W  DIS CAZ7
 BAR2 EZ EP        4 4  8.42                             167    0.1410 27.4 138 
 BAR2 EZ ES   1    4 4 21.57                             167   -0.49 7 27.4 138 
 BAR2 EZ I         4 4 22.73        14.3 0.36            169           27.4 138 
 BRR  HZ IP     C  4 4  9.26                             156    0.2910 54.4 312 
 BRR  HN ES        4 4 23.76                             156    0.4610 54.4 312 
 BRR  HZ I         4 4 24.51        10.1 0.18            152           54.4 312 
 PAM  SZ EP        4 4 12.58                             142    0.3210 94.8  49 
 PAM  SN ES   1    4 4 29.50                             142    0.36 7 94.8  49 
 PAM  SZ I         4 4 32.67         4.2 0.36            142           94.8  49 
 RUS  HZ EP        4 4 12.77                             139   -0.0610  102 163 
 RUS  HN ES        4 4 30.17                             139    0.0110  102 163 
 RUS  HZ I         4 4 31.68         4.3 0.34            139            102 163 
 PTB  HZ EP        4 4 13.39                             133   -0.7610  125 258 
 PTB  HN ES   1    4 4 32.25                             133   -0.27 7  125 258 
 PTB  HZ I         4 4 36.41         5.7 0.32            130            125 258 
 SPBC HN ES        4 4 36.03                             128   -0.42 9  148 213 
 SPBC HZ I         4 4 41.87         5.6 0.30            126            148 213 
 OCA  HN ES        4 4 38.28                             125   -0.70 9  162   1 
 OCA  HZ I         4 4 43.01         6.1 0.18            124            162   1 
 ZAR  HZ EP   1    4 4 20.58                             121    0.64 7  185 295 
 ZAR  HN ES   1    4 4 43.04                             121    0.21 7  185 295 
 ZAR  HZ I         4 4 46.36         5.7 0.32            119            185 295 
 NOR  HN ES   1    4 4 49.50                             117    0.73 6  215 232 
 NOR  HZ I         4 4 53.02         3.1 0.30            115            215 232 
 SML  HZ EP   1    4 4 25.60                             114   -0.05 6  238 340 
 SML  HE ES   1    4 4 53.01                             114    0.02 6  238 340 
 SML  HZ I         4 5  0.81         4.6 0.10            113            238 340 
 CHI  HN ES   1    4 4 54.82                             114    0.16 6  241 190 
 CHI  HZ I         4 5  0.02         1.4 0.48            113            241 190 
 HEL  HN ES   4    4 4 58.03                             113    1.76 0  250 255 
 HEL  HZ I         4 5  2.01         2.1 0.72            112            250 255 
                                                                                
