 2017 1021 0527  9.0 L   6.801 -73.115149.9  RSN  6 0.5 1.2LRSN                1
 GAP=140        1.24       6.0     6.4  8.4 -0.9702E+01  0.7027E+01  0.5549E+01E
 Epicentro: LOS SANTOS - SANTANDER                                             3
 ACTION:UPD 17-11-07 19:34 OP:rebc STATUS:               ID:20171021052709 L   I
 OLDACT:DUP 17-10-21 16:16 OP:dani STATUS:               ID:20171021051742d    3
 OLDACT:UP  17-10-21 16:14 OP:dani STATUS:               ID:20171021051741     3
 OLDACT:UP  17-10-21 16:13 OP:dani STATUS:               ID:20171021051741     3
 OLDACT:REG 17-10-21 13:20 OP:dani STATUS:               ID:20171021051741     3
 2017-10-21-0518-00M.COL___438                                                 6
 STAT SP IPHASW D HRMM SECON CODA AMPLIT PERI AZIMU VELO AIN AR TRES W  DIS CAZ7
 BAR2 EZ EP        527 29.10                             170   -0.0310 24.3 198 
 BAR2 EZ ES        527 45.18                             170    0.3310 24.3 198 
 BAR2 EZ I         527 47.17         4.5 0.25            170           24.3 198 
 BRR  HZ EP        527 31.00                             152    0.2510 74.1 297 
 BRR  HE ES        527 48.53                             152    0.8110 74.1 297 
 BRR  HZ I         527 54.31         2.2 0.20            150           74.1 297 
 PAM  HZ EP        527 31.94                             152    0.4210 75.2  38 
 PAM  EN ES        527 48.18                             152   -0.9110 75.2  38 
 PAM  HZ I         527 51.78         2.3 0.45            156           75.2  38 
 RUS  HZ EP        527 33.21                             145    0.0710  101 178 
 RUS  HN ES        527 51.89                             145   -0.1010  101 178 
 RUS  HZ I         527 53.38         1.3 0.21            149            101 178 
 PTB  HZ EP        527 36.23                             132   -0.37 9  151 259 
 PTB  HN ES        527 57.31                             132   -0.82 9  151 259 
 PTB  HZ I         528  4.73         2.5 0.35            133            151 259 
 SPBC HZ EP        527 38.20                             129    0.18 9  165 220 
 SPBC HN ES        528  0.69                             129    0.03 9  165 220 
 SPBC HZ I         528  3.53         3.2 0.15            132            165 220 
                                                                                
