 2010  521 0238 29.5 L   6.824 -73.379137.8  RSN  5 0.5 1.7LRSN                1
 GAP=222        0.73       8.0    24.2 12.2 -0.6178E+02  0.1027E+03 -0.3028E+02E
 Epicentro: SAN VICENTE DE CHUCURI - SANTANDER                                 3
 ACTION:UP  10-08-24 10:06 OP:vdl  STATUS:               ID:20100521023829 L   I
 2010-05-21-0234-39S.COL___111                                                 6
 STAT SP IPHASW D HRMM SECON CODA AMPLIT PERI AZIMU VELO SNR AR TRES W  DIS CAZ7
 BAR2 SZ EP   2    238 48.74                             165     0.3 5   34 140 
 BAR2 SZ ES   2    239  3.02                             165    -0.2 5   34 140 
 BRI  SZ EP   2    238 52.50                             137    -0.9 5  118  33 
 BRI  SZ ES   3    239 11.21                             137    -0.8 2  118  33 
 GUE  SZ EP   2    238 54.75                             136     0.8 5  122  24 
 GUE  SZ ES   2    239 13.88                             136     0.9 5  122  24 
 GRA  SZ EP   1    238 54.74                             133     0.0 7  133  28 
 GRA  SZ ES   2    239 14.09                             133    -0.3 5  133  28 
 OCA  SZ EP   2    238 56.65                             128    -0.2 5  157   2 
 OCA  SZ ES   2    239 17.93                             128    -0.3 5  157   2 
 OCA  SZ I         239 25.60         5.7 0.31                           157   2 
                                                                                
