 2013  521 0848 26.7 L   6.553 -74.117 29.5  RSN  5 0.4 2.1LRSN                1
 GAP=145        1.04       5.9     7.2 11.0 -0.3188E+02 -0.7478E+02  0.4920E+02E
 Epicentro: PUERTO PARRA - SANTANDER                                           3
 ACTION:UPD 13-06-20 09:52 OP:ep   STATUS:               ID:20130521084826 L   I
 2013-05-21-0838-51M.COL___215                                                 6
 STAT SP IPHASW D HRMM SECON CODA AMPLIT PERI AZIMU VELO AIN AR TRES W  DIS CAZ7
 PTB  HZ EP        848 34.03                             123   -0.1810 37.6 268 
 PTB  HN ES        848 39.90                             123   -0.1810 37.6 268 
 PTB  HN I         848 40.21       214.1 0.10            123           37.6 268 
 BRR  HZ EP        848 39.27                             102   -0.0210 75.9  36 
 BRR  HN ES        848 49.33                             102    0.2110 75.9  36 
 BRR  HN I         848 50.57        40.3 0.16             61           75.9  36 
 BAR2 SZ IP     C  848 43.09                              61    0.0510  103  88 
 BAR2 SZ ES        848 55.19                              61   -0.6110  103  88 
 GIR2 SZ EP        848 45.46                              61    0.7810  117  60 
 GIR2 SZ ES        848 58.23                              61   -0.4810  117  60 
 RUS  HZ EP        848 47.85                              61    0.47 9  136 123 
 RUS  HN ES        849  3.55                              61    0.02 9  136 123 
                                                                                
