 2017 1021 0856  1.6 L   6.833 -73.172143.7  RSN 14 0.5 2.3LRSN                1
 GAP=106        1.20       4.1     3.3  6.3  0.1187E+01  0.3580E+01  0.6828E+01E
 Epicentro: ZAPATOCA - SANTANDER                                               3
 ACTION:UPD 17-11-07 19:34 OP:rebc STATUS:               ID:20171021085601 L   I
 OLDACT:UP  17-10-21 19:36 OP:dani STATUS:               ID:20171021084023     3
 OLDACT:UP  17-10-21 19:36 OP:dani STATUS:               ID:20171021084023     3
 OLDACT:UP  17-10-21 19:30 OP:dani STATUS:               ID:20171021084023     3
 OLDACT:UP  17-10-21 19:21 OP:dani STATUS:               ID:20171021084023     3
 OLDACT:REG 17-10-21 13:36 OP:dani STATUS:               ID:20171021084023     3
 2017-10-21-0848-00M.COL___438                                                 6
 STAT SP IPHASW D HRMM SECON CODA AMPLIT PERI AZIMU VELO AIN AR TRES W  DIS CAZ7
 BAR2 EZ EP        856 20.29                             169   -0.7310 26.6 182 
 BAR2 EZ E      C  856 21.11                                           26.6 182 
 BAR2 EZ IP     C  856 21.11                             169    0.0910 26.6 182 
 BAR2 EZ ES        856 35.75                             169   -0.4410 26.6 182 
 BAR2 EZ I         856 37.49        70.7 0.22            166           26.6 182 
 BRR  HZ EP        856 22.92                             154    0.6610 66.9 297 
 BRR  HE ES        856 38.77                             154    0.3810 66.9 297 
 BRR  HZ I         856 43.59        63.7 0.12            159           66.9 297 
 PAM  EZ EP        856 23.82                             151    0.3010 76.6  43 
 PAM  EN ES        856 40.79                             151    0.1610 76.6  43 
 PAM  EZ I         856 42.96        33.3 0.44            153           76.6  43 
 RUS  HZ EP        856 25.16                             142   -0.2410  104 175 
 RUS  HN ES   4    856 42.57                             142   -1.42 0  104 175 
 RUS  HZ I         856 45.59        29.3 0.20            142            104 175 
 PTB  HZ EP        856 27.82                             132   -0.36 9  146 257 
 PTB  HN ES        856 48.20                             132   -0.73 9  146 257 
 PTB  HZ I         856 51.64        21.3 0.12            136            146 257 
 TAM  HZ EP        856 29.46                             129    0.02 9  159 106 
 TAM  HN ES        856 51.13                             129   -0.05 9  159 106 
 TAM  HZ I         857 12.52        12.4 0.28            130            159 106 
 SPBC HZ EP        856 30.19                             128    0.18 9  164 217 
 SPBC HN ES        856 52.78                             128    0.59 9  164 217 
 YPLC HZ IP     C  856 31.64                             125   -0.03 9  181 151 
 YPLC HE ES        856 55.41                             125    0.27 9  181 151 
 YPLC HZ I         857  4.22         8.4 0.26            126            181 151 
 ZAR  HZ EP        856 33.90                             122    0.44 9  200 291 
 ZAR  HE ES        856 58.15                             122   -0.18 9  200 291 
 ZAR  HZ I         857  4.99        28.6 0.50            127            200 291 
 NOR  HZ EP        856 37.59                             118    0.43 8  234 233 
 NOR  HN ES        857  5.59                             118    0.68 8  234 233 
 NOR  HZ I         857 11.23        20.9 0.18            121            234 233 
 CHI  HZ EP        856 39.06                             116   -0.40 8  251 194 
 CHI  HN ES        857  8.35                             116   -0.66 8  251 194 
 CHI  HZ I         857 15.93        11.4 0.42            118            251 194 
 ROSC BZ EP   4    856 41.04                             116    1.28 0  254 210 
 ROSC BN ES   4    857 11.83                             116    2.29 0  254 210 
 ROSC BZ I         857 15.80        18.9 0.40            118            254 210 
 URE  HN EP        856 40.85                             113   -1.24 7  280 291 
 URE  HN ES   4    857 12.03                             113   -1.66 0  280 291 
 GUY2CHZ EP        856 45.84                             112    0.79 7  301 234 
 GUY2CHN ES   4    857 21.33                             112    2.36 0  301 234 
 GUY2CHZ I         857 29.35         9.3 0.58                           301 234 
                                                                                
