 2012 1121 0823 36.0 L   6.800 -73.185137.8  RSN  6 0.2 1.7LRSN                1
 GAP=132        0.47       2.9     2.7  5.7 -0.1160E+01  0.6429E+01  0.3363E+00E
 Epicentro: LOS SANTOS - SANTANDER                                             3
 ACTION:UPD 12-12-05 15:34 OP:}ep  STATUS:               ID:20121121082336 L   I
 2012-11-21-0820-00M.COL___234                                                 6
 STAT SP IPHASW D HRMM SECON CODA AMPLIT PERI AZIMU VELO AIN AR TRES W  DIS CAZ7
 BAR2 SZ EP        823 54.84                             170    0.1810 22.9 179 
 BAR2 SZ I         824 10.61        11.3 0.33                          22.9 179 
 GIR2 SZ EP        823 54.72                             167    0.0010 30.9 358 
 PAM  SZ EP        823 57.66                             148    0.1010 80.3  42 
 PAM  SZ I         823 58.03        23.3 0.15                          80.3  42 
 PAM  SN ES        824 14.22                             148   -0.1510 80.3  42 
 RUS  HZ EP   1    823 58.97                             142   -0.03 7  101 174 
 RUS  HN ES   1    824 17.06                             142    0.11 7  101 174 
 RUS  HZ I         824 19.07         3.4 0.28                           101 174 
 PTB  HZ EP        824  1.58                             131   -0.35 9  143 259 
 PTB  HE ES   1    824 22.06                             131   -0.10 7  143 259 
 PTB  HZ I         824 25.83         3.8 0.18                           143 259 
 ZAR  HZ EP   2    824  7.74                             121    0.22 4  200 293 
 ZAR  HE ES   1    824 32.44                             121    0.34 6  200 293 
 ZAR  HZ I         824 38.81         7.6 0.34                           200 293 
                                                                                
