 2013 1121 0213  6.9 L   6.799 -73.143142.8  RSN  9 0.5 2.0LRSN                1
 GAP=183        1.10       3.7     6.0  6.9 -0.1440E+01  0.6393E+01  0.2789E+01E
 Epicentro: LOS SANTOS - SANTANDER                                             3
 ACTION:UPD 14-01-09 16:29 OP:ep   STATUS:               ID:20131121021306 L   I
 OLDACT:UP  13-11-21 10:26 OP:mh   STATUS:               ID:20131121021000     3
 OLDACT:UP  13-11-21 10:25 OP:mh   STATUS:               ID:20131121021000     3
 OLDACT:REG 13-11-21 09:13 OP:mh   STATUS:               ID:20131121021000     3
 2013-11-21-0210-00M.COL___282                                                 6
 STAT SP IPHASW D HRMM SECON CODA AMPLIT PERI AZIMU VELO AIN AR TRES W  DIS CAZ7
 BAR2 SZ EP        213 26.25                             170    0.1210 23.2 191 
 BAR2 SZ ES   1    213 40.82                             170   -0.34 7 23.2 191 
 BAR2 SZ I         213 42.61        42.4 0.25            169           23.2 191 
 BRR  HZ EP        213 28.12                             152    0.4110 71.5 299 
 BRR  HN ES        213 44.96                             152    0.9910 71.5 299 
 BRR  HZ I         213 46.25        18.2 0.16            149           71.5 299 
 RUS  HZ EP        213 30.32                             143    0.0110  100 176 
 RUS  HN ES        213 48.53                             143   -0.0710  100 176 
 RUS  HZ I         213 50.02        18.5 0.26            144            100 176 
 PTB  HZ EP   1    213 32.78                             131   -0.83 7  148 259 
 PTB  HN ES        213 53.80                             131   -0.68 9  148 259 
 PTB  HZ I         213 56.97        11.9 0.17            130            148 259 
 OCA  HZ EP        213 35.08                             129    0.12 9  160 353 
 OCA  HN ES        213 56.13                             129   -0.75 9  160 353 
 OCA  HZ I         214  1.08        10.4 0.53            130            160 353 
 NOR  HZ EP        213 42.49                             118    0.05 8  235 235 
 NOR  HE ES        214 10.18                             118   -0.00 8  235 235 
 NOR  HZ I         214 15.93         9.6 0.19            118            235 235 
 CHI  HZ EP   1    213 44.41                             117    0.02 6  249 195 
 CHI  HN ES        214 13.45                             117   -0.21 8  249 195 
 CHI  HZ I         214 17.27         7.1 0.52            117            249 195 
 HEL  HZ EP        213 47.08                             114    0.13 8  272 256 
 HEL  HN ES   4    214 16.75                             114   -1.47 0  272 256 
 HEL  HZ I         214 24.39         6.3 0.19            114            272 256 
 GUY2CHZ EP        213 50.88                             112    0.53 7  301 235 
 GUY2CHN ES   4    214 27.47                             112    3.20 0  301 235 
 GUY2CHZ I         214 32.58         5.7 0.32                           301 235 
                                                                                
