 2012  821 0213 51.5 L   6.764 -73.151151.5  RSN  6 0.5 1.6LRSN                1
 GAP=137        0.82       6.6     6.0 11.3  0.5043E+01 -0.8227E+01 -0.1291E+02E
 Epicentro: LOS SANTOS - SANTANDER                                             3
 ACTION:UPD 12-09-10 11:57 OP:ep   STATUS:               ID:20120821021351 L   I
 2012-08-21-0210-00M.COL___217                                                 6
 STAT SP IPHASW D HRMM SECON CODA AMPLIT PERI AZIMU VELO AIN AR TRES W  DIS CAZ7
 BAR2 SZ EP   1    214 11.61                             172   -0.11 7 19.3 190 
 BAR2 SZ I         214 28.43         8.8 0.28                          19.3 190 
 BRR  HZ EP        214 13.56                             153    0.2410 72.7 302 
 BRR  HZ I         214 14.03        10.1 0.13                          72.7 302 
 BRR  HN ES   1    214 31.07                             153    0.70 7 72.7 302 
 PAM  SZ EP   1    214 14.38                             151   -0.12 7 80.9  38 
 PAM  SN ES   2    214 31.65                             151   -0.82 5 80.9  38 
 RUS  HZ EP   2    214 16.03                             146    0.52 5 96.6 176 
 RUS  HN ES   1    214 34.17                             146   -0.10 7 96.6 176 
 RUS  HZ I         214 35.55         2.4 0.14                          96.6 176 
 PTB  HN ES   1    214 39.65                             134   -0.46 7  146 260 
 ZAR  HN ES   2    214 49.24                             123   -0.84 4  205 293 
 ZAR  HZ I         214 56.81         4.5 0.37                           205 293 
                                                                                
