 2017  721 0745 49.5 L   6.762 -73.119145.7  RSN  6 0.5 1.4LRSN                1
 GAP=142        1.19       5.8     6.3  8.5 -0.1103E+02  0.1168E+02  0.1409E+01E
 Epicentro: LOS SANTOS - SANTANDER                                             3
 ACTION:UPD 17-08-30 15:35 OP:rebc STATUS:               ID:20170721074550dL   I
 OLDACT:UP  17-07-21 18:18 OP:dnl  STATUS:               ID:20170721073744     3
 OLDACT:REG 17-07-21 12:37 OP:dnl  STATUS:               ID:20170721073744     3
 2017-07-21-0738-00M.COL___377                                                 6
 STAT SP IPHASW D HRMM SECON CODA AMPLIT PERI AZIMU VELO AIN AR TRES W  DIS CAZ7
 BAR2 EZ EP   2    746  8.97                             172   -0.04 5 20.0 200 
 BAR2 EZ ES        746 23.56                             172   -0.7110 20.0 200 
 BAR2 EZ I         746 26.81         7.8 0.44            171           20.0 200 
 BRR  HZ IP     C  746 10.92                             151    0.0610 75.8 300 
 BRR  HN ES        746 28.31                             151    0.7510 75.8 300 
 BRR  HZ I         746 29.35         3.7 0.62            151           75.8 300 
 PAM  EZ EP        746 11.83                             150    0.0810 78.9  36 
 PAM  EN ES        746 29.24                             150    0.1010 78.9  36 
 PAM  EZ I         746 31.27         6.0 0.56            154           78.9  36 
 RUS  HZ EP   2    746 12.74                             145   -0.15 5 96.2 178 
 RUS  HN ES        746 31.15                             145   -0.0110 96.2 178 
 RUS  HZ I         746 33.23         1.8 0.20            147           96.2 178 
 PTB  HZ EP        746 16.08                             131   -0.53 9  150 261 
 PTB  HN ES        746 37.07                             131   -0.72 9  150 261 
 PTB  HZ I         746 42.96         3.1 0.22            133            150 261 
 SPBC HZ EP        746 18.05                             129    0.23 9  162 221 
 SPBC HE ES        746 40.73                             129    0.79 9  162 221 
 SPBC HZ I         746 43.42         3.5 0.14            131            162 221 
                                                                                
