 2010 1121 0917 53.0 L   6.807 -73.047141.0  RSN  6 0.4 1.5LRSN                1
 GAP=193        0.77       4.2     8.5  7.6  0.6069E+01  0.8401E+01  0.4752E+01E
 Epicentro: LOS SANTOS - SANTANDER                                             3
 ACTION:UP  10-12-17 16:54 OP:REBC STATUS:               ID:20101121091753 L   I
 2010-11-21-0914-34S.COL___131                                                 6
 STAT SP IPHASW D HRMM SECON CODA AMPLIT PERI AZIMU VELO SNR AR TRES W  DIS CAZ7
 BAR2 SZ EP   1    918 11.99                             168    -0.213   28 212 
 BAR2 SZ ES   2    918 26.66                             168    -0.5 9   28 212 
 BAR2 SZ I         918 28.44         9.0 0.23                            28 212 
 BRR  HZ EP   1    918 13.69                             149    -0.513   81 294 
 BRR  HE ES   1    918 30.73                             149     0.013   81 294 
 BRR  HZ I         918 33.36         7.2 0.29                            81 294 
 RUS  HZ EP   1    918 16.30                             143     0.013  101 182 
 RUS  HE ES   1    918 35.04                             143     0.513  101 182 
 RUS  HZ I         918 35.85         3.1 0.14                           101 182 
 OCA  SZ EP   2    918 21.71                             129     0.7 8  161 349 
 OCA  SZ ES   1    918 43.18                             129     0.312  161 349 
 OCA  SZ I         918 45.54         4.3 0.22                           161 349 
 HEL  HZ EP   2    918 33.86                             113    -0.3 6  283 256 
 HEL  HE ES   2    919  7.29                             113     1.0 6  283 256 
 HEL  HZ I         919 10.93         2.0 0.53                           283 256 
 PRA  HZ IP     C  918 46.89                             105    -0.210  398 211 
 PRA  HE ES   2    919 29.19                             105    -0.1 5  398 211 
                                                                                
