 2010  621 0251  7.9 L   6.804 -73.095140.4  RSN  9 0.4 2.1LRSN                1
 GAP=161        0.90       3.6     6.6  6.3 -0.1054E+02  0.9627E+01 -0.5877E+00E
 Epicentro: LOS SANTOS - SANTANDER                                             3
 ACTION:UP  10-08-24 10:12 OP:vdl  STATUS:               ID:20100621025107 L   I
 2010-06-21-0247-50S.COL___118                                                 6
 STAT SP IPHASW D HRMM SECON CODA AMPLIT PERI AZIMU VELO SNR AR TRES W  DIS CAZ7
 BAR2 SZ EP        251 26.79                             169    -0.110   25 203 
 BAR2 SZ ES   1    251 41.30                             169    -0.5 7   25 203 
 BRR  HZ EP        251 28.67                             150    -0.110   76 296 
 BRR  HN ES   1    251 45.46                             150     0.4 7   76 296 
 BRR  HZ I         251 48.47        23.6 0.41                            76 296 
 RUS  HZ EP        251 30.90                             143    -0.210  101 179 
 RUS  HN ES   1    251 49.04                             143    -0.2 7  101 179 
 RUS  HZ I         251 50.90        17.0 0.31                           101 179 
 BRI  SZ EP        251 31.42                             141     0.310  106  18 
 BRI  SZ ES   2    251 49.68                             141     0.5 5  106  18 
 GRA  SZ EP        251 32.67                             136     0.210  124  15 
 GRA  SZ ES   1    251 51.97                             136     0.3 7  124  15 
 OCA  SZ EP        251 35.30                             128    -0.5 9  161 351 
 OCA  SZ ES   2    251 56.84                             128    -0.8 5  161 351 
 OCA  SZ I         252  2.52        13.8 0.17                           161 351 
 ROSC BZ EP   1    251 46.66                             115     0.6 6  256 212 
 ROSC BN ES   1    252 16.84                             115     1.0 6  256 212 
 ROSC BZ I         252 21.51         9.8 0.32                           256 212 
 HEL  HZ EP        251 48.09                             113    -0.4 7  278 256 
 HEL  HE ES   3    252 19.35                             113    -0.7 2  278 256 
 HEL  HZ I         252 25.81         6.8 0.37                           278 256 
 RREF HZ EP        251 54.32                             109     0.0 7  326 230 
 RREF HN ES   2    252 30.56                             109     0.0 3  326 230 
 RREF HZ I         252 34.11         6.5 0.30                           326 230 
                                                                                
