 2012  621 0045 28.5 L   6.761 -73.141146.0  RSN  9 0.4 2.2LRSN                1
 GAP=139        0.81       5.0     4.5  8.1 -0.4757E+01  0.3085E+01  0.1517E+02E
 Epicentro: LOS SANTOS - SANTANDER                                             3
 ACTION:UPD 12-08-06 17:51 OP:ep   STATUS:               ID:20120621004528 L   I
 2012-06-21-0040-00M.COL___199                                                 6
 STAT SP IPHASW D HRMM SECON CODA AMPLIT PERI AZIMU VELO AIN AR TRES W  DIS CAZ7
 BAR2 SZ EP        045 48.05                             172   -0.0210 19.2 194 
 BAR2 SZ I         046  5.41        35.2 0.30                          19.2 194 
 BRR  HZ EP        045 50.02                             152    0.2210 73.8 301 
 BRR  HN ES   1    046  7.25                             152    0.82 7 73.8 301 
 BRR  HZ I         046  9.41        27.9 0.30                          73.8 301 
 PAM  SZ EP        045 50.93                             150    0.0210 80.5  37 
 PAM  SN ES   1    046  7.90                             150   -0.50 7 80.5  37 
 RUS  HZ EP        045 52.10                             145    0.1510 96.2 176 
 RUS  HE ES   2    046 10.36                             145    0.11 5 96.2 176 
 RUS  HZ I         046 11.93        19.0 0.42                          96.2 176 
 PTB  HZ EP        045 55.01                             132   -0.43 9  147 261 
 PTB  HN ES   1    046 15.70                             132   -0.77 7  147 261 
 OCA  HZ EP   3    045 56.71                             129   -0.51 2  165 353 
 OCA  HZ I         046 21.99        44.0 0.22                           165 353 
 ZAR  HZ EP   3    046  0.83                             122   -0.33 2  206 293 
 ZAR  HN ES   2    046 26.37                             122   -0.28 4  206 293 
 ZAR  HZ I         046 35.32        10.2 0.20                           206 293 
 NOR  SZ EP        046  4.37                             119    0.37 8  233 235 
 NOR  SN ES   1    046 32.05                             119    0.35 6  233 235 
 CHI  HZ EP   2    046  6.10                             118    0.35 4  245 196 
 CHI  HZ I         046  7.34         4.6 0.20                           245 196 
 CHI  HN ES   2    046 33.84                             118   -0.99 4  245 196 
                                                                                
