 2014  221 0231 14.2 L   6.800 -73.120140.1  RSN  4 0.3 1.4LRSN                1
 GAP=203        0.52       3.8     3.9 10.0  0.3199E+01  0.2124E+01 -0.2157E+02E
 Epicentro: LOS SANTOS - SANTANDER                                             3
 ACTION:UPD 14-03-10 08:11 OP:ep   STATUS:               ID:20140221023114 L   I
 OLDACT:DUP 14-02-21 12:01 OP:fm   STATUS:               ID:20140221023001d    3
 2014-02-21-0230-00M.COL___213                                                 6
 STAT SP IPHASW D HRMM SECON CODA AMPLIT PERI AZIMU VELO AIN AR TRES W  DIS CAZ7
 RUS  HZ EP   1    231 37.29                             142   -0.09 7  100 178 
 RUS  HN ES        231 55.54                             142    0.0810  100 178 
 RUS  HZ I         231 58.43         2.5 0.50            141            100 178 
 PTB  HN ES        232  1.59                             130   -0.25 9  151 259 
 PTB  HZ I         232  3.02         3.5 0.15            129            151 259 
 ZAR  HZ EP   4    231 43.69                             121   -2.86 0  207 292 
 NOR  HE ES   1    232 18.08                             117    0.41 6  237 235 
 NOR  HZ I         232 20.73         3.2 0.10            116            237 235 
 SML  HZ EP   2    231 50.26                             116   -0.38 4  245 335 
 SML  HE ES   1    232 19.34                             116    0.28 6  245 335 
                                                                                
