 2014  521 0610 52.0 L   7.076 -73.228128.4  RSN  4 0.4 1.1LRSN                1
 GAP=199        1.03       5.4    10.2 11.0  0.2704E+02 -0.1120E+02 -0.1043E+02E
 Epicentro: GIRON - SANTANDER                                                  3
 ACTION:UPD 15-03-16 16:59 OP:nd   STATUS:               ID:20140521061053 L   I
 OLDACT:UP  14-05-21 16:14 OP:nlst STATUS:               ID:20140521061053 L   3
 OLDACT:UP  14-05-21 15:26 OP:cam  STATUS:               ID:20140521060750d    3
 OLDACT:DUP 14-05-21 15:25 OP:cam  STATUS:               ID:20140521060750d    3
 2014-05-21-0607-49M.COL___257                                                 6
 STAT SP IPHASW D HRMM SECON CODA AMPLIT PERI AZIMU VELO AIN AR TRES W  DIS CAZ7
 BRR  HZ IP     C  611 11.19                             156    0.9010 53.6 274 
 BRR  HN ES        611 24.40                             156   -0.1710 53.6 274 
 BRR  HZ I         611 24.99         4.3 0.12            154           53.6 274 
 RUS  HZ EP   2    611 16.45                             131   -0.29 5  132 173 
 RUS  HE ES        611 35.83                             131   -0.2210  132 173 
 PTB  HZ EP        611 17.36                             127   -0.28 9  148 246 
 PTB  HE ES   1    611 37.70                             127    0.05 7  148 246 
 PTB  HZ I         611 38.72         1.2 0.18            127            148 246 
 SML  HE ES        611 49.01                             117   -0.36 8  212 334 
                                                                                
