 2011  321 0500 20.4 L   6.881 -73.197129.5  RSN  5 0.4 1.7LRSN                1
 GAP=280        1.12       9.7     7.4 11.0 -0.1306E+01  0.4538E+02 -0.3403E+01E
 Epicentro: BETULIA - SANTANDER                                                3
 ACTION:UP  11-06-16 14:34 OP:jfem STATUS:               ID:20110321050020 L   I
 2011-03-21-0500-00M.COL___124                                                 6
 STAT SP IPHASW D HRMM SECON CODA AMPLIT PERI AZIMU VELO SNR AR TRES W  DIS CAZ7
 BAR2 SZ EP        5 0 38.46                             166     0.210   32 177 
 BAR2 SZ ES   1    5 0 52.45                             166     0.2 7   32 177 
 BAR2 SZ I         5 0 55.30        16.0 0.33                            32 177 
 RUS  HZ EP        5 0 42.55                             138    -0.810  110 173 
 RUS  HN ES        5 1  1.31                             138     0.110  110 173 
 RUS  HZ I         5 1  2.42         7.6 0.42                           110 173 
 NOR  SN ES        5 1 22.77                             115     0.2 8  236 232 
 HEL  HZ EP        5 1  0.12                             112     0.7 8  269 254 
 HEL  HN ES        5 1 29.30                             112    -0.6 8  269 254 
 HEL  HZ I         5 1 35.95         2.7 0.26                           269 254 
 PRA  HZ EP        5 1 14.30                             103     0.3 6  397 208 
 PRA  HN ES        5 1 55.98                             103     0.2 6  397 208 
                                                                                
