 2012 1221 0750 20.6 L   6.776 -73.140143.0  RSN  6 0.3 1.7LRSN                1
 GAP=138        0.73       4.2     4.3  5.8 -0.2245E+01  0.6276E+00  0.7115E+01E
 Epicentro: LOS SANTOS - SANTANDER                                             3
 ACTION:UPD 13-01-04 14:29 OP:ep   STATUS:               ID:20121221075020 L   I
 2012-12-21-0750-00M.COL___243                                                 6
 STAT SP IPHASW D HRMM SECON CODA AMPLIT PERI AZIMU VELO AIN AR TRES W  DIS CAZ7
 BAR2 SZ EP        750 39.84                             171   -0.0110 20.8 193 
 BAR2 SZ ES   1    750 54.51                             171   -0.36 7 20.8 193 
 BAR2 SZ I         750 56.30        21.8 0.23                          20.8 193 
 BRR  HZ EP        750 41.60                             151    0.0310 73.1 300 
 BRR  HN ES        750 58.46                             151    0.5510 73.1 300 
 BRR  HZ I         751  2.63         5.3 0.20                          73.1 300 
 PAM  SZ EP        750 42.69                             150    0.0610 79.1  38 
 PAM  SZ I         750 43.06        10.4 0.23                          79.1  38 
 PAM  SN ES        750 59.57                             150   -0.2410 79.1  38 
 RUS  HZ EP        750 43.89                             144    0.0010 97.8 176 
 RUS  HE ES   1    751  2.32                             144    0.27 7 97.8 176 
 RUS  HE I         751  3.64         9.8 0.19                          97.8 176 
 PTB  HZ EP   1    750 47.16                             131   -0.20 7  148 260 
 PTB  HE ES   1    751  7.53                             131   -0.70 7  148 260 
 PTB  HZ I         751  9.81         6.2 0.43                           148 260 
 CHI  HZ EP   1    750 58.17                             117    0.28 6  246 195 
 ROSC BZ EP   4    750 59.54                             116    1.18 0  251 211 
                                                                                
