 2017 1121 0657 31.1 L   6.917 -73.171148.8  RSN 20 0.7 2.2LRSN                1
 GAP= 61        1.66       4.0     4.6  8.6 -0.2674E+01  0.1202E+02  0.2202E+01E
 Epicentro: BETULIA - SANTANDER                                                3
 ACTION:UPD 17-12-12 19:58 OP:rebc STATUS:               ID:20171121065731 L   I
 OLDACT:UP  17-11-21 18:13 OP:edw  STATUS:               ID:20171121064738     3
 OLDACT:REG 17-11-21 12:45 OP:edw  STATUS:               ID:20171121064738     3
 2017-11-21-0648-00M.COL___466                                                 6
 STAT SP IPHASW D HRMM SECON CODA AMPLIT PERI AZIMU VELO AIN AR TRES W  DIS CAZ7
 BAR2 EZ EP        657 51.21                             166   -0.2110 35.9 182 
 BAR2 EZ ES        658  6.86                             166   -0.4010 35.9 182 
 BAR2 EZ I         658  7.46        29.6 0.40            165           35.9 182 
 PAM  EZ EP        657 53.48                             153    0.2510 69.9  48 
 PAM  EN ES        658 10.31                             153   -0.1710 69.9  48 
 PAM  EZ I         658 12.36        33.6 0.48            158           69.9  48 
 OCA  HZ EP        657 58.58                             133    0.12 9  147 354 
 OCA  HN ES        658 20.06                             133    0.27 9  147 354 
 OCA  HZ I         658 23.32        37.2 0.24            134            147 354 
 PTB  HZ EP        657 58.07                             132   -0.29 9  148 254 
 PTB  HN ES        658 19.43                             132   -0.19 9  148 254 
 PTB  HZ I         658 23.29         9.3 0.16            131            148 254 
 TAM  HZ IP     D  657 59.71                             130    0.08 9  162 109 
 TAM  HN ES        658 21.85                             130   -0.02 9  162 109 
 SPBC HZ EP        658  0.51                             128   -0.15 9  172 216 
 SPBC HE ES        658 23.77                             128    0.06 9  172 216 
 SPBC HZ I         658 30.77        18.1 0.24            128            172 216 
 ZAR  HZ EP        658  3.25                             124    0.22 9  197 289 
 ZAR  HE ES        658 29.12                             124    1.19 9  197 289 
 ZAR  HZ I         658 33.73        35.8 0.50            124            197 289 
 NOR  HZ EP        658  7.54                             118   -0.08 8  240 232 
 NOR  HE ES        658 36.01                             118   -0.08 8  240 232 
 NOR  HZ I         658 43.78         7.3 0.24            119            240 232 
 CHI  HZ EP        658 10.14                             116   -0.13 8  260 194 
 CHI  HN ES        658 40.00                             116   -0.80 8  260 194 
 CHI  HZ I         658 45.74         4.5 0.34            117            260 194 
 ROSC BE ES        658 43.11                             116    1.94 8  263 209 
 HEL  HZ EP        658 12.04                             115    0.47 8  273 253 
 HEL  HE ES        658 43.89                             115    0.76 8  273 253 
 HEL  HZ I         658 50.05         4.7 0.30            115            273 253 
 DRL03HZ EP        658 11.48                             115    0.08 7  276 353 
 DRL03HE ES        658 43.87                             115    1.04 7  276 353 
 URE  HZ EP        658 10.04                             115   -1.50 7  277 290 
 URE  HN ES        658 40.75                             115   -2.32 7  277 290 
 URE  HZ I         658 53.65        16.8 0.82            115            277 290 
 GUY2CHZ EP   4    658 18.55                             112    3.07 0  307 232 
 GUY2CHN ES   4    658 52.58                             112    2.50 0  307 232 
 GUY2CHZ I         658 58.18         4.5 0.40                           307 232 
 PTGC HZ EP   9    658 15.18                             111   -1.41 0  322 159 
 PTGC HE ES        658 49.52                             111   -1.13 7  322 159 
 CBOC HZ EP        658 17.96                             110   -0.38 7  335 250 
 CBOC HN ES   4    658 53.23                             110   -1.95 0  335 250 
 ARGC HZ EP   4    658 21.26                             109    1.88 0  346 340 
 ARGC HN ES   4    658 58.54                             109    1.52 0  346 340 
 ARGC HZ I         659  5.11         2.4 0.32            110            346 340 
 SJC  HZ EP   9    658 24.27                             107   -1.07 0  397 326 
 SJC  HE ES        659  4.91                             107   -1.65 6  397 326 
 SJC  HZ I         659  8.39         3.2 0.46            107            397 326 
 PRA  HZ EP        658 25.79                             106   -0.12 6  402 208 
 PRA  HE ES        659  8.34                             106   -0.30 6  402 208 
 PRA  HZ I         659 15.52         4.8 0.42            107            402 208 
 ORTC HZ EP   4    658 27.44                             106    1.26 0  404 215 
 ORTC HN ES        659  9.80                             106    0.66 6  404 215 
 ORTC HZ I         659 16.88         4.4 0.80            107            404 215 
                                                                                
