 2017 1221 0803 59.9 L   6.833 -73.175133.4  RSN 10 0.6 1.9LRSN                1
 GAP=139        1.26       5.2     5.6  8.2 -0.8967E+01  0.1955E+02  0.2941E+01E
 Epicentro: ZAPATOCA - SANTANDER                                               3
 ACTION:UPD 18-01-04 13:22 OP:rebc STATUS:               ID:20171221080400 L   I
 OLDACT:UP  17-12-21 17:49 OP:dani STATUS:               ID:20171221075741     3
 OLDACT:UP  17-12-21 17:49 OP:dani STATUS:               ID:20171221075741     3
 OLDACT:UP  17-12-21 17:49 OP:dani STATUS:               ID:20171221075741     3
 OLDACT:REG 17-12-21 13:25 OP:dani STATUS:               ID:20171221075741     3
 2017-12-21-0758-00M.COL___451                                                 6
 STAT SP IPHASW D HRMM SECON CODA AMPLIT PERI AZIMU VELO AIN AR TRES W  DIS CAZ7
 BAR2 EZ EP        8 4 17.93                             168   -0.2210 26.7 182 
 BAR2 EZ ES        8 4 32.21                             168   -0.1510 26.7 182 
 BAR2 EZ I         8 4 34.15        24.6 0.20            167           26.7 182 
 PAM  EZ EP        8 4 20.88                             149    0.0810 76.7  43 
 PAM  EN ES        8 4 37.59                             149    0.5110 76.7  43 
 PAM  EZ I         8 4 39.18        11.8 0.40            154           76.7  43 
 PTB  HZ EP        8 4 24.62                             129   -1.07 9  145 257 
 PTB  HN ES        8 4 45.27                             129   -0.51 9  145 257 
 PTB  HZ I         8 4 49.39         9.8 0.18            129            145 257 
 OCA  HZ EP        8 4 26.92                             127    0.01 9  156 354 
 OCA  HN ES        8 4 47.54                             127   -0.42 9  156 354 
 OCA  HZ I         8 4 48.93        26.1 0.36            129            156 354 
 ZAR  HZ EP        8 4 30.93                             120   -0.20 9  200 292 
 ZAR  HE ES        8 4 56.77                             120    1.30 9  200 292 
 ZAR  HZ I         8 5  2.39        13.4 0.54            120            200 292 
 URE  HZ EP   4    8 4 42.28                             111    2.36 0  279 291 
 URE  HN ES   3    8 5  9.79                             111   -1.33 2  279 291 
 URE  HZ I         8 5 14.99         4.9 0.11            112            279 291 
 GUY2CHZ EP        8 4 43.59                             110    0.65 7  301 234 
 GUY2CHZ I         8 5 22.27         2.7 0.58                           301 234 
 CBOC HZ EP        8 4 46.30                             108    0.17 7  332 251 
 CBOC HE ES        8 5 22.21                             108    0.03 7  332 251 
 CBOC HZ I         8 5 33.95         1.6 0.60            109            332 251 
 PRA  HZ EP        8 4 53.41                             104    0.17 6  394 209 
 PRA  HN ES        8 5 35.71                             104    0.89 6  394 209 
 PRA  HZ I         8 5 40.61         4.1 0.26            106            394 209 
 SJC  HZ EP   3    8 4 52.51                             104   -2.02 1  404 327 
 SJC  HN ES   4    8 5 33.79                             104   -3.33 0  404 327 
 SJC  HZ I         8 5 37.86         1.6 0.43            105            404 327 
                                                                                
