 2011 1221 0830 22.5 L   6.527 -73.565109.6  RSN  8 0.4 2.1LRSN                1
 GAP= 91        0.84       3.4     3.4  5.9 -0.1747E+01  0.6245E+01  0.1115E+00E
 Epicentro: EL CARMEN DE CHUCURI - SANTANDER                                   3
 ACTION:UPD 12-07-13 16:17 OP:ep   STATUS:               ID:20111221083022 L   I
 2011-12-21-0830-00M.COL___189                                                 6
 STAT SP IPHASW D HRMM SECON CODA AMPLIT PERI AZIMU VELO AIN AR TRES W  DIS CAZ7
 BAR2 SZ EP        830 38.91                             157    0.3310 42.9  80 
 BAR2 SZ ES        830 51.08                             157   -0.0110 42.9  80 
 BAR2 SZ I         830 52.81       266.6 0.46                          42.9  80 
 BRR  HZ EP        830 39.78                             146    0.2010 66.2 346 
 BRR  HN ES        830 53.29                             146    0.4210 66.2 346 
 BRR  HZ I         830 54.94        32.4 0.09                          66.2 346 
 GIR2 SZ IP        830 40.50                             144    0.2010 73.6  34 
 RUS  HZ EP        830 41.85                             139   -0.0510 88.1 143 
 RUS  HN ES   1    830 56.71                             139   -0.29 7 88.1 143 
 RUS  HZ I         830 59.00        10.9 0.33                          88.1 143 
 PTB  HZ EP        830 41.71                             135   -0.4210 98.6 271 
 PTB  HE ES   1    830 56.91                             135   -0.49 7 98.6 271 
 NOR  SZ EP   1    830 50.52                             117    0.26 7  179 234 
 NOR  SE ES   1    831 11.44                             117   -0.44 7  179 234 
 OCA  SZ EP        830 51.40                             115   -0.29 9  191   8 
 OCA  SZ ES   1    831 13.66                             115   -0.76 7  191   8 
 OCA  SZ I         831 20.17        26.2 0.42                           191   8 
 HEL  HZ EP   1    830 56.01                             111    0.77 6  220 260 
 HEL  HN ES   1    831 21.00                             111    0.26 6  220 260 
 HEL  HZ I         831 29.51         4.6 0.39                           220 260 
                                                                                
