 2015  221 0729 31.7 L   6.826 -73.203140.2  RSN 10 0.5 1.4LRSN                1
 GAP=128        1.19       3.3     5.2  6.9 -0.3373E+01  0.1069E+02  0.2762E+00E
 Epicentro: ZAPATOCA - SANTANDER                                               3
 ACTION:UPD 15-04-30 21:28 OP:nd   STATUS:               ID:20150221072931 L   I
 OLDACT:REG 15-02-21 12:46 OP:fm   STATUS:               ID:20150221072741     3
 2015-02-21-0727-41M.COL___284                                                 6
 STAT SP IPHASW D HRMM SECON CODA AMPLIT PERI AZIMU VELO AIN AR TRES W  DIS CAZ7
 BAR2 EZ EP        729 51.19                             169    0.4610 25.9 175 
 BAR2 EZ ES        730  5.92                             169    0.3610 25.9 175 
 BAR2 EZ I         730  7.70         5.9 0.26            169           25.9 175 
 BRR  HZ EP        729 51.94                             154    0.0710 64.3 299 
 BRR  HE ES        730  8.21                             154    0.6110 64.3 299 
 BRR  HZ I         730 12.61         5.2 0.32            153           64.3 299 
 PAM  SZ IP     D  729 54.14                             149    0.6810 79.5  44 
 PAM  SE ES        730  9.72                             149   -0.7210 79.5  44 
 PAM  SZ I         730 14.31         3.4 0.50            155           79.5  44 
 RUS  HZ EP        729 55.33                             142    0.1510  104 173 
 RUS  HE ES        730 12.84                             142   -0.6410  104 173 
 RUS  HZ I         730 15.21         2.3 0.30            144            104 173 
 PTB  HZ EP        729 58.10                             132    0.39 9  142 257 
 PTB  HN ES        730 17.53                             132   -0.47 9  142 257 
 PTB  HZ I         730 24.66         3.6 0.74            133            142 257 
 OCA  HE ES        730 20.44                             129   -0.31 9  157 355 
 SPBC HZ EP        730  0.06                             128    0.43 9  162 217 
 SPBC HN ES        730 21.03                             128   -0.38 9  162 217 
 SPBC HZ I         730 29.08         4.7 0.32            130            162 217 
 SML  HZ EP        730  7.03                             117   -0.43 8  239 336 
 SML  HE ES        730 35.17                             117   -0.18 8  239 336 
 SML  HZ I         730 38.34         3.8 0.10            120            239 336 
 CHI  HN ES        730 38.44                             116   -0.07 8  250 194 
 CHI  HZ I         730 44.01         1.8 0.34            118            250 194 
 GUY2CHZ EP        730 13.78                             111   -0.89 7  298 234 
 GUY2CHE ES        730 48.60                             111    0.42 7  298 234 
 GUY2CHZ I         730 57.52         1.7 0.60                           298 234 
                                                                                
