 2014  621 0629  5.7 L   6.923 -73.445106.0  RSN  9 0.5 1.9LRSN                1
 GAP=136        1.23       3.1     4.4  9.2 -0.1507E+01  0.1538E+02 -0.8073E+01E
 Epicentro: SAN VICENTE DE CHUCURI - SANTANDER                                 3
 ACTION:UPD 14-07-01 22:55 OP:nd   STATUS:               ID:20140621062905 L   I
 OLDACT:REG 14-06-21 13:34 OP:carl STATUS:               ID:20140621062816     3
 2014-06-21-0628-16M.COL___253                                                 6
 STAT SP IPHASW D HRMM SECON CODA AMPLIT PERI AZIMU VELO AIN AR TRES W  DIS CAZ7
 BAR2 SZ IP     C  629 22.05                             155    0.5010 46.7 141 
 BAR2 SZ ES        629 34.44                             155    0.5510 46.7 141 
 BAR2 SZ I         629 36.40        26.3 0.18            162           46.7 141 
 PTB  HZ IP     C  629 26.43                             128   -0.5110  120 249 
 PTB  HN ES        629 42.84                             128   -0.6510  120 249 
 PTB  HZ I         629 44.29        25.6 0.38            130            120 249 
 RUS  HZ EP        629 27.61                             128   -0.0810  121 161 
 RUS  HE ES        629 44.03                             128   -0.8010  121 161 
 RUS  HZ I         629 45.69         5.2 0.32            134            121 161 
 OCA  HZ EP        629 29.54                             122   -0.27 9  146   5 
 OCA  HN ES        629 48.48                             122   -0.12 9  146   5 
 OCA  HZ I         629 56.60        10.5 0.18            124            146   5 
 SPBC HZ EP        629 31.17                             119    0.34 9  157 206 
 SPBC HN ES        629 50.50                             119    0.09 9  157 206 
 ZAR  HZ EP        629 32.48                             117    0.51 9  168 292 
 ZAR  HN ES        629 53.09                             117    0.65 9  168 292 
 ZAR  HZ I         629 57.01        17.5 0.32            119            168 292 
 NOR  HE ES        630  2.98                             110    0.60 8  218 226 
 NOR  HZ I         630  8.24         7.5 0.54            114            218 226 
 SML  HZ EP        629 37.34                             110   -0.27 8  219 342 
 SML  HN ES        630  2.22                             110   -0.26 8  219 342 
 SML  HZ I         630  9.94        12.5 0.10            112            219 342 
 HEL  HZ EP        629 41.53                             108    0.53 8  244 251 
 HEL  HN ES        630  7.74                             108   -0.77 8  244 251 
 HEL  HZ I         630 14.13         5.3 0.22            111            244 251 
                                                                                
