 2010 1121 0309 12.4 L   6.786 -73.051143.0  RSN  4 0.4 1.6LRSN                1
 GAP=192        0.84       8.4    17.0 11.0  0.8169E+02 -0.6977E+02 -0.3772E+02E
 Epicentro: LOS SANTOS - SANTANDER                                             3
 ACTION:UP  10-12-17 16:54 OP:REBC STATUS:               ID:20101121030912 L   I
 2010-11-21-0306-13S.COL___131                                                 6
 STAT SP IPHASW D HRMM SECON CODA AMPLIT PERI AZIMU VELO SNR AR TRES W  DIS CAZ7
 BAR2 SZ EP   1    3 9 31.90                             169     0.1 7   26 214 
 BAR2 SZ ES   1    3 9 46.36                             169    -0.5 7   26 214 
 BAR2 SZ I         3 9 47.86         8.8 0.37                            26 214 
 BRR  HZ IP     C  3 9 33.66                             148    -0.210   81 296 
 BRR  HZ I         3 9 33.90        13.6 0.14                            81 296 
 BRR  HN ES   1    3 9 50.85                             148     0.2 7   81 296 
 RUS  HZ EP   2    3 9 36.31                             144     0.6 5   99 182 
 RUS  HN ES   2    3 9 54.40                             144     0.4 5   99 182 
 OCA  SZ EP   2    3 9 40.13                             128    -0.7 5  163 350 
 OCA  SZ ES   2    310  3.72                             128     0.8 5  163 350 
 OCA  SZ I         310 10.51         2.8 0.35                           163 350 
                                                                                
