 2011  721 0914  9.5 L   6.789 -73.055149.6  RSN  5 0.2 1.3LRSN                1
 GAP=166        0.44       5.3     6.8  6.0  0.3163E+01 -0.4940E+01 -0.1873E+01E
 Epicentro: LOS SANTOS - SANTANDER                                             3
 ACTION:UPD 12-07-25 14:02 OP:epov STATUS:               ID:20110721091409 L   I
 2011-07-21-0912-34S.COL___142                                                 6
 STAT SP IPHASW D HRMM SECON CODA AMPLIT PERI AZIMU VELO AIN AR TRES W  DIS CAZ7
 BAR2 SZ EP   1    914 29.53                             170   -0.07 7 26.0 213 
 BAR2 SZ ES   1    914 45.42                             170    0.10 7 26.0 213 
 BAR2 SZ I         914 45.75         4.3 0.42                          26.0 213 
 BTL  SZ EP   1    914 29.98                             169    0.34 7 27.5 301 
 BRR  HZ EP   1    914 31.43                             150   -0.14 7 80.7 296 
 BRR  HE ES   1    914 48.73                             150   -0.09 7 80.7 296 
 BRR  HZ I         914 54.21         4.5 0.44                          80.7 296 
 RUS  HN ES   3    914 51.56                             145   -0.68 2 99.2 182 
 BRI  SZ ES   2    914 52.18                             143   -0.19 5  106  16 
 BRI  SZ I         914 54.19         1.9 0.19                           106  16 
                                                                                
