 2014 1221 0857 52.4 L   6.779 -73.108149.4  RSN  7 0.4 1.1LRSN                1
 GAP=142        0.87       4.6     5.2  6.6  0.7384E+01  0.7382E+01 -0.9762E+00E
 Epicentro: LOS SANTOS - SANTANDER                                             3
 ACTION:UPD 15-02-10 17:06 OP:nd   STATUS:               ID:20141221085752 L   I
 OLDACT:DUP 14-12-21 19:07 OP:spq  STATUS:               ID:20141221084745d    3
 OLDACT:REG 14-12-21 12:56 OP:spq  STATUS:               ID:20141221084744     3
 2014-12-21-0847-44M.COL___299                                                 6
 STAT SP IPHASW D HRMM SECON CODA AMPLIT PERI AZIMU VELO AIN AR TRES W  DIS CAZ7
 BAR2 EZ EP        858 12.57                             171    0.1010 22.2 202 
 BAR2 EZ ES   1    858 27.77                             171   -0.33 7 22.2 202 
 BAR2 EZ I         858 29.84         4.1 0.32            171           22.2 202 
 BRR  HZ EP        858 14.47                             152    0.2410 76.0 299 
 BRR  HN ES        858 31.39                             152    0.1510 76.0 299 
 BRR  HZ I         858 32.71         2.4 0.40            150           76.0 299 
 PAM  SN ES   1    858 32.60                             152    0.02 7 76.7  36 
 PAM  SZ I         858 33.51         1.1 0.22            153           76.7  36 
 RUS  HZ EP        858 16.88                             145    0.5310 98.0 178 
 RUS  HN ES   1    858 34.61                             145   -0.41 7 98.0 178 
 RUS  HZ I         858 35.84         1.2 0.20            147           98.0 178 
 PTB  HZ EP        858 19.36                             132   -0.66 9  151 260 
 PTB  HN ES   1    858 41.24                             132   -0.30 7  151 260 
 PTB  HZ I         858 43.66         2.1 0.12            132            151 260 
 ZAR  HZ EP   1    858 25.74                             122    0.15 6  209 292 
 ZAR  HN ES        858 52.00                             122    0.54 8  209 292 
 ZAR  HZ I         858 56.80         2.2 0.68            123            209 292 
 SML  HZ EP   1    858 29.25                             118   -0.42 6  248 335 
 SML  HE ES   1    858 58.17                             118   -0.55 6  248 335 
 SML  HZ I         859  1.54         1.3 0.26            118            248 335 
                                                                                
