 2014 1221 0250 33.9 L   6.764 -73.148152.3  RSN  5 0.4 1.0LRSN                1
 GAP=138        0.87       6.2     5.4  9.3 -0.4876E+01 -0.1030E+02  0.6299E+01E
 Epicentro: LOS SANTOS - SANTANDER                                             3
 ACTION:UPD 15-02-10 17:06 OP:nd   STATUS:               ID:20141221025033 L   I
 OLDACT:REG 14-12-21 12:32 OP:spq  STATUS:               ID:20141221024746     3
 2014-12-21-0247-46M.COL___302                                                 6
 STAT SP IPHASW D HRMM SECON CODA AMPLIT PERI AZIMU VELO AIN AR TRES W  DIS CAZ7
 BAR2 EZ EP   1    250 53.61                             172   -0.67 7 19.4 191 
 BAR2 EZ ES   1    251 10.02                             172   -0.13 7 19.4 191 
 BAR2 EZ I         251 12.14         3.0 0.34            171           19.4 191 
 BRR  HN ES        251 13.42                             153    0.4110 73.0 301 
 BRR  HZ I         251 17.40         6.1 0.36            155           73.0 301 
 PAM  SZ EP        250 57.38                             151    0.3410 80.6  38 
 PAM  SN ES   1    251 14.55                             151   -0.51 7 80.6  38 
 PAM  SZ I         251 15.10         1.4 0.22            155           80.6  38 
 RUS  HZ EP   1    250 58.27                             146    0.21 7 96.6 176 
 RUS  HN ES   1    251 17.14                             146    0.26 7 96.6 176 
 RUS  HZ I         251 19.91         0.6 0.46            148           96.6 176 
 PTB  HN ES        251 22.42                             134   -0.33 9  147 260 
 PTB  HZ I         251 24.09         0.8 0.16            136            147 260 
                                                                                
