 2011  521 0717 27.4 L   7.400 -73.240128.5  RSN  7 0.2 1.3LRSN                1
 GAP=118        0.41       2.6     4.4  4.4 -0.4427E+01 -0.3685E+01  0.2073E+01E
 Epicentro: EL PLAYON - SANTANDER                                              3
 ACTION:UP  11-06-29 08:55 OP:tino STATUS:               ID:20110521071727 L   I
 2011-05-21-0700-00M.COL___142                                                 6
 STAT SP IPHASW D HRMM SECON CODA AMPLIT PERI AZIMU VELO SNR AR TRES W  DIS CAZ7
 GIR2 SZ EP   1    717 45.26                             163     0.0 7   36 172 
 BRI  SZ EP   1    717 46.69                             153     0.3 7   60  54 
 BRR  HZ EP   1    717 46.24                             153     0.1 7   61 238 
 BRR  HE ES   1    718  0.73                             153     0.0 7   61 238 
 BRR  HZ I         718  2.45         5.8 0.13                            61 238 
 GRA  SZ EP   1    717 47.00                             149     0.0 7   72  42 
 GRA  SZ ES   1    718  2.12                             149    -0.2 7   72  42 
 GRA  SZ I         718  4.24         5.6 0.39                            72  42 
 BAR2 SZ EP   1    717 48.36                             143     0.0 7   90 176 
 BAR2 SZ ES   2    718  4.79                             143     0.2 5   90 176 
 BAR2 SZ I         718  4.89         6.1 0.47                            90 176 
 OCA  SZ EP        717 48.46                             142     0.010   93 355 
 OCA  SZ ES   2    718  4.92                             142     0.0 5   93 355 
 OCA  SZ I         718 10.90         2.8 0.62                            93 355 
 RUS  HZ EP   1    717 55.36                             124    -0.3 7  168 174 
 RUS  HZ I         718 21.21         1.0 0.48                           168 174 
                                                                                
