 2012  721 0711 19.9 L   6.803 -73.133146.6  RSN  7 0.5 1.4LRSN                1
 GAP=138        1.10       7.9     6.9 11.4 -0.3598E+01  0.1956E+02  0.3786E+01E
 Epicentro: LOS SANTOS - SANTANDER                                             3
 ACTION:UPD 12-08-14 11:46 OP:ep   STATUS:               ID:20120721071119 L   I
 2012-07-21-0710-00M.COL___215                                                 6
 STAT SP IPHASW D HRMM SECON CODA AMPLIT PERI AZIMU VELO AIN AR TRES W  DIS CAZ7
 BAR2 SZ EP   1    711 39.73                             170     0.1 7   24 193 
 BAR2 SZ ES   1    711 55.35                             170     0.3 7   24 193 
 BAR2 SZ I         711 57.91         5.6 0.23            170             24 193 
 BRR  HZ EP   1    711 41.06                             152    -0.2 7   72 298 
 BRR  HE ES   1    711 58.60                             152     0.8 7   72 298 
 BRR  HZ I         712  0.94         7.2 0.14            153             72 298 
 PAM  SZ EP   1    711 42.96                             151     0.8 7   76  39 
 PAM  SN ES   1    711 58.53                             151    -1.0 7   76  39 
 RUS  HN ES   2    712  2.29                             144    -0.1 5  101 177 
 PTB  HZ EP   1    711 46.83                             132    -0.3 7  149 259 
 PTB  HN ES   1    712  7.77                             132    -0.5 7  149 259 
 PTB  HZ I         712 11.45         1.8 0.10            134            149 259 
 ZAR  HN ES   1    712 17.96                             122     0.0 6  205 292 
 CHI  HN ES   2    712 27.23                             117     0.0 4  249 195 
