 2016 1021 0238 23.0 L   6.757 -73.143144.0  RSN  7 0.4 1.6LRSN                1
 GAP=139        0.85       5.4     5.1  7.0 -0.1209E+01 -0.5148E+01  0.6787E+01E
 Epicentro: LOS SANTOS - SANTANDER                                             3
 ACTION:UPD 16-11-09 19:21 OP:rebc STATUS:               ID:20161021023823 L   I
 OLDACT:UP  16-10-21 14:59 OP:and  STATUS:               ID:20161021022747d    3
 OLDACT:UP  16-10-21 14:51 OP:and  STATUS:               ID:20161021022747d    3
 OLDACT:UP  16-10-21 14:47 OP:and  STATUS:               ID:20161021022747d    3
 OLDACT:UP  16-10-21 14:47 OP:and  STATUS:               ID:20161021022747d    3
 OLDACT:DUP 16-10-21 14:41 OP:and  STATUS:               ID:20161021022747d    3
 2016-10-21-0228-00M.COL___341                                                 6
 STAT SP IPHASW D HRMM SECON CODA AMPLIT PERI AZIMU VELO AIN AR TRES W  DIS CAZ7
 BAR2 EZ EP        238 42.39                             172    0.0210 18.8 193 
 BAR2 EZ ES        238 57.16                             172   -0.2910 18.8 193 
 BAR2 EZ I         238 58.73        16.7 0.26            168           18.8 193 
 BRR  HZ IP     D  238 44.19                             151    0.0510 73.8 302 
 BRR  HN ES        239  1.31                             151    0.7010 73.8 302 
 PAM  EZ IP     C  238 45.32                             149    0.0410 80.9  37 
 PAM  EN ES   2    239  1.80                             149   -0.83 5 80.9  37 
 PAM  EZ I         239  4.54         6.5 0.46            153           80.9  37 
 RUS  HZ EP        238 46.28                             145    0.0110 95.8 176 
 RUS  HE ES   2    239  4.74                             145    0.34 5 95.8 176 
 RUS  HZ I         239  5.78         5.1 0.24            143           95.8 176 
 PTB  HZ EP   2    238 49.61                             132   -0.20 5  147 261 
 PTB  HN ES        239 10.10                             132   -0.59 9  147 261 
 PTB  HZ I         239 17.40         3.1 0.16            130            147 261 
 CHI  HZ EP   2    239  0.72                             117    0.57 4  244 196 
 CHI  HE ES   2    239 29.52                             117    0.42 4  244 196 
 CHI  HZ I         239 35.69         2.4 0.36            116            244 196 
 SJC  HZ EP   4    239 16.94                             105   -2.08 0  413 327 
 SJC  HN ES   4    239 59.34                             105   -3.36 0  413 327 
 SJC  HZ I         240  3.82         1.4 0.28            105            413 327 
                                                                                
