 2017  121 0219 53.7 L   6.756 -73.149142.5  RSN  9 0.5 1.9LRSN                1
 GAP=138        1.05       4.5     4.3  6.3 -0.7580E+00  0.9815E+01 -0.2606E+00E
 Epicentro: LOS SANTOS - SANTANDER                                             3
 ACTION:UPD 17-05-22 16:01 OP:jn   STATUS:               ID:20170121021953 L   I
 OLDACT:UP  17-01-21 14:47 OP:dani STATUS:               ID:20170121021742     3
 OLDACT:UP  17-01-21 14:47 OP:dani STATUS:               ID:20170121021742     3
 OLDACT:REG 17-01-21 12:24 OP:dani STATUS:               ID:20170121021742     3
 2017-01-21-0218-00M.COL___343                                                 6
 STAT SP IPHASW D HRMM SECON CODA AMPLIT PERI AZIMU VELO AIN AR TRES W  DIS CAZ7
 BAR2 EZ EP        220 13.00                             172    0.1510 18.4 192 
 BAR2 EZ ES        220 27.56                             172   -0.2310 18.4 192 
 BAR2 EZ I         220 29.36        22.2 0.52            170           18.4 192 
 BRR  HZ EP     C  220 14.85                             151    0.2210 73.3 302 
 BRR  HN ES        220 31.61                             151    0.6610 73.3 302 
 BRR  HZ I         220 32.74        16.3 0.16            147           73.3 302 
 PAM  EZ EP     D  220 15.99                             149    0.1710 81.4  38 
 PAM  EE ES        220 32.51                             149   -0.5710 81.4  38 
 PAM  EZ I         220 33.83         6.9 0.36            152           81.4  38 
 RUS  HZ EP        220 16.85                             144    0.0610 95.7 176 
 RUS  HN ES        220 34.84                             144    0.0510 95.7 176 
 RUS  HZ I         220 36.62         8.7 0.26            146           95.7 176 
 PTB  HZ EP        220 19.86                             131   -0.43 9  147 261 
 PTB  HN ES        220 40.45                             131   -0.59 9  147 261 
 PTB  HZ I         220 42.88        13.1 0.28            130            147 261 
 ZAR  HZ EP        220 25.54                             121   -0.56 8  206 293 
 ZAR  HN ES        220 51.98                             121    0.61 8  206 293 
 ZAR  HZ I         220 59.92        11.4 0.62            121            206 293 
 NOR  HZ EP        220 29.70                             118    0.79 8  232 235 
 NOR  HN ES        220 56.25                             118   -0.12 8  232 235 
 NOR  HZ I         221  2.80         4.9 0.16            118            232 235 
 URE  HZ EP        220 34.79                             113    0.00 7  285 293 
 URE  HE ES   3    221  5.21                             113   -1.62 2  285 293 
 URE  HZ I         221 17.80         6.9 0.14            113            285 293 
 SJC  HZ EP   3    220 47.34                             105   -2.28 1  413 327 
 SJC  HN ES   4    221 29.49                             105   -3.75 0  413 327 
 SJC  HZ I         221 33.04         2.9 0.45            105            413 327 
                                                                                
