 2016  521 0825 58.9 L   6.786 -73.128147.0  RSN  7 0.4 1.5LRSN                1
 GAP=185        1.04       4.0     5.7  7.1  0.4324E+01  0.7530E+01 -0.6898E+00E
 Epicentro: LOS SANTOS - SANTANDER                                             3
 ACTION:UPD 16-08-18 17:48 OP:cam  STATUS:               ID:20160521082558 L   I
 OLDACT:UP  16-05-21 16:41 OP:mh   STATUS:               ID:20160521081747     3
 OLDACT:UP  16-05-21 16:41 OP:mh   STATUS:               ID:20160521081747     3
 OLDACT:UP  16-05-21 16:41 OP:mh   STATUS:               ID:20160521081747     3
 OLDACT:REG 16-05-21 13:08 OP:mh   STATUS:               ID:20160521081747     3
 2016-05-21-0817-47M.COL___286                                                 6
 STAT SP IPHASW D HRMM SECON CODA AMPLIT PERI AZIMU VELO AIN AR TRES W  DIS CAZ7
 BAR2 EZ EP        826 18.96                             171    0.2610 22.3 196 
 BAR2 EZ ES        826 33.59                             171   -0.5210 22.3 196 
 BAR2 EZ I         826 35.37         6.4 0.17            168           22.3 196 
 BRR  HZ EP        826 20.66                             152    0.3010 73.7 299 
 BRR  HN ES        826 37.89                             152    0.8210 73.7 299 
 BRR  HZ I         826 43.40         4.3 0.68            148           73.7 299 
 RUS  HZ EP        826 22.95                             144    0.2510 99.0 177 
 RUS  HE ES        826 40.94                             144   -0.2910 99.0 177 
 RUS  HZ I         826 42.48         2.1 0.20            147           99.0 177 
 PTB  HZ EP        826 25.81                             132   -0.35 9  149 260 
 PTB  HN ES        826 47.06                             132   -0.33 9  149 260 
 PTB  HZ I         826 51.85         2.9 0.32            131            149 260 
 OCA  HN ES        826 49.52                             129   -0.28 9  162 353 
 OCA  HZ I         826 53.50        10.1 0.30            131            162 353 
 SPBC HZ EP        826 27.95                             129    0.40 9  163 220 
 SPBC HN ES        826 49.93                             129    0.08 9  163 220 
 SPBC HZ I         826 57.30         4.9 0.38            130            163 220 
 ZAR  HZ EP        826 31.10                             122   -0.62 8  206 292 
 ZAR  HN ES        826 57.35                             122    0.07 8  206 292 
 ZAR  HZ I         827  5.35         3.5 0.16            123            206 292 
                                                                                
