 2016  321 0737  3.4 L   6.823 -73.146140.1  RSN 26 0.4 2.6LRSN                1
 GAP= 70        0.91       2.3     2.3  4.2 -0.1193E+01  0.2445E+01  0.9212E+00E
 Epicentro: LOS SANTOS - SANTANDER                                             3
 ACTION:UPD 16-05-13 21:25 OP:cam  STATUS:               ID:20160321073703 L   I
 OLDACT:UP  16-03-29 11:52 OP:dnl  STATUS:               ID:20160321073703 L   3
 OLDACT:REG 16-03-21 12:48 OP:ak   STATUS:               ID:20160321072748     3
 2016-03-21-0727-48M.COL___282                                                 6
 STAT SP IPHASW D HRMM SECON CODA AMPLIT PERI AZIMU VELO AIN AR TRES W  DIS CAZ7
 BAR2 EZ IP     C  737 22.62                             169    0.1810 25.8 189 
 BAR2 EZ ES        737 37.59                             169    0.3210 25.8 189 
 BAR2 EZ I         737 38.53        94.5 0.24            167           25.8 189 
 PAM  EZ EP        737 25.61                             150    0.6710 75.5  41 
 PAM  EN ES        737 42.19                             150    0.4810 75.5  41 
 PAM  EZ I         737 44.46        78.5 0.44            153           75.5  41 
 RUS  HZ EP        737 26.54                             142   -0.2810  103 176 
 RUS  HE ES        737 45.04                             142   -0.0310  103 176 
 RUS  HZ I         737 47.00        54.8 0.26            142            103 176 
 PTB  HZ EP        737 29.36                             131   -0.63 9  148 258 
 PTB  HN ES        737 49.72                             131   -0.98 9  148 258 
 PTB  HZ I         737 52.49        41.9 0.22            129            148 258 
 TAM  HZ IP     C  737 31.01                             129    0.27 9  156 106 
 TAM  HE ES        737 51.66                             129   -0.38 9  156 106 
 TAM  HZ I         737 53.12        34.1 0.26            131            156 106 
 OCA  HZ EP        737 30.94                             129   -0.13 9  158 353 
 OCA  HN ES        737 52.38                             129   -0.25 9  158 353 
 OCA  HZ I         737 57.29       104.1 0.26            130            158 353 
 SPBC HZ EP        737 31.65                             127   -0.04 9  165 218 
 SPBC HN ES        737 53.58                             127   -0.16 9  165 218 
 SPBC HZ I         737 60.00        84.5 0.28            127            165 218 
 ZAR  HZ EP        737 35.65                             121    0.23 9  203 291 
 ZAR  HN ES        738  0.19                             121   -0.17 9  203 291 
 ZAR  HZ I         738  7.47        57.3 0.34            121            203 291 
 NOR  HZ EP        737 38.93                             117   -0.07 8  236 234 
 NOR  HN ES        738  6.52                             117   -0.22 8  236 234 
 NOR  HZ I         738  9.58        45.5 0.24            117            236 234 
 CHI  HZ EP        737 40.92                             116   -0.17 8  251 195 
 CHI  HN ES        738 10.17                             116   -0.29 8  251 195 
 CHI  HZ I         738 18.02        18.5 0.32            116            251 195 
 ROSC BZ EP   9    737 43.07                             115    1.58 0  255 211 
 ROSC BN ES        738 12.71                                   -0.04 8  255 211 
 ROSC BZ I         738 17.49        48.2 0.35            115            255 211 
 HEL  HZ EP   2    737 44.06                             114    0.63 4  273 255 
 HEL  HN ES        738 14.69                             114    0.06 8  273 255 
 HEL  HZ I         738 20.90        27.5 0.40            113            273 255 
 URE  HZ EP   4    737 42.73                             112   -1.40 0  283 291 
 URE  HN ES   4    738 13.31                             112   -2.55 0  283 291 
 URE  HZ I         738 25.03        27.6 0.24            112            283 291 
 SOCV BZ EP   4    737 44.52                             111   -1.56 0  300  57 
 SOCV BN ES   4    738 16.88                             111   -2.46 0  300  57 
 GUY2CHZ EP        737 47.45                             111    0.50 7  303 234 
 GUY2CHN ES        738 21.69                             111    0.80 7  303 234 
 GUY2CHZ I         738 28.22        20.4 0.52                           303 234 
 VIL  SZ EP        737 46.50                             111   -0.38 7  306 191 
 VIL  SE ES        738 20.67                             111   -0.10 7  306 191 
 PTGC HZ EP   4    737 45.94                             110   -1.37 0  311 159 
 PTGC HN ES   4    738 19.22                             110   -2.32 0  311 159 
 PTGC HZ I         738 26.18        18.2 0.50            111            311 159 
 ELA  HZ EP   4    737 52.44                             109    2.20 0  331 229 
 ELA  HE ES        738 26.58                             109   -0.16 7  331 229 
 ELA  HZ I         738 38.68        24.3 0.38            109            331 229 
 CBOC HZ EP        737 50.74                             109    0.53 7  334 252 
 CBOC HN ES        738 27.08                             109    0.39 7  334 252 
 CBOC HZ I         738 34.51         6.2 0.28            109            334 252 
 MON  HZ EP   9    737 50.09                             108   -1.95 0  352 308 
 MON  HN ES        738 27.75                                   -0.25 6  352 308 
 MON  HZ I         738 29.28         7.0 0.64            108            352 308 
 ANIL HZ EP   9    737 54.54                             107    1.31 0  359 224 
 ANIL HE ES        738 34.21                                    0.83 6  359 224 
 ANIL HZ I         738 42.63        41.1 0.28            107            359 224 
 SDV  BZ EP        737 52.39                             107   -0.69 6  359  50 
 SDV  BE ES   4    738 29.71                             107   -2.10 0  359  50 
 SDV  BZ I         738 34.45         7.1 0.50            108            359  50 
 ORTC HZ EP        737 58.16                             105    0.76 6  397 216 
 ORTC HN ES   4    738 40.57                             105    1.07 0  397 216 
 ORTC HZ I         738 46.14        18.3 0.30            105            397 216 
 PAL  HZ EP        737 58.69                             105    0.13 6  407 239 
 PAL  HE ES        738 42.21                             105    0.65 6  407 239 
 PAL  HZ I         738 47.57         6.0 0.28            105            407 239 
 SJC  HZ EP   4    737 57.07                             105   -1.49 0  407 327 
 SJC  HN ES   4    738 37.71                             105   -3.85 0  407 327 
 CRJC HZ EP   9    738  2.73                             102   -2.75 0  465   4 
 CRJC HE ES        738 50.70                                   -0.43 5  465   4 
 GUA  SN ES   4    738 52.90                             102   -3.21 0  477 173 
 SMAR HN ES   4    738 55.30                             101   -4.61 0  495 346 
 MACC HZ EP   4    738 10.12                             101   -2.19 0  523 189 
 MACC HN ES   4    739  2.00                             101   -4.03 0  523 189 
 MACC HZ I         739  7.78         6.8 0.56            101            523 189 
 POP2 HZ EP        738 22.97                              99   -0.60 3  614 220 
 POP2 HN ES        739 26.02                              99   -0.06 3  614 220 
                                                                                
