 2010  721 0906  1.3 L   6.752 -73.109149.1  RSN 11 0.4 2.2LRSN                1
 GAP=163        0.82       3.6     6.5  5.6 -0.8564E+01  0.6333E+01  0.2235E+01E
 Epicentro: LOS SANTOS - SANTANDER                                             3
 ACTION:UPD 10-12-01 15:19 OP:pat  STATUS:               ID:20100721090601 L   I
 2010-07-21-0903-05S.COL___123                                                 6
 STAT SP IPHASW D HRMM SECON CODA AMPLIT PERI AZIMU VELO AIN AR TRES W  DIS CAZ7
 BAR2 SZ EP        9 6 21.01                             172    -0.310   20 205 
 BAR2 SZ ES   1    9 6 36.63                             172    -0.2 7   20 205 
 BAR2 SZ I         9 6 37.52        60.4 0.19                            20 205 
 GIR2 SZ EP   1    9 6 21.18                             165    -0.4 7   37 345 
 GIR2 SZ ES   1    9 6 37.24                             165    -0.1 7   37 345 
 BRR  HZ IP     D  9 6 22.95                             151    -0.210   77 301 
 BRR  HN ES   1    9 6 40.29                             151     0.0 7   77 301 
 BRR  HZ I         9 6 41.98        31.3 0.19                            77 301 
 RUS  HZ EP   1    9 6 24.91                             146    -0.1 7   95 178 
 RUS  HN ES   1    9 6 43.84                             146     0.3 7   95 178 
 RUS  HZ I         9 6 44.85        12.3 0.35                            95 178 
 GRA  SZ IP        9 6 27.93                             137     0.710  130  15 
 GRA  SZ ES   1    9 6 47.73                             137     0.4 7  130  15 
 GRA  SZ I         9 6 49.04        10.8 0.38                           130  15 
 OCA  SZ EP   1    9 6 29.87                             129    -0.6 7  166 352 
 OCA  SZ I         9 6 56.17        13.3 0.21                           166 352 
 CHI  HZ EP   1    9 6 38.59                             118    -0.2 6  245 196 
 CHI  HE ES   2    9 7  8.37                             118     0.4 4  245 196 
 CHI  HZ I         9 7 17.04         7.0 0.52                           245 196 
 ROSC BE ES   2    9 7  9.22                             117     0.2 4  250 212 
 ROSC BZ I         9 7 15.36        10.4 0.38                           250 212 
 HEL  HZ EP   1    9 6 42.21                             115     0.2 6  275 257 
 HEL  HN ES   2    9 7 13.99                             115     0.2 4  275 257 
 HEL  HZ I         9 7 19.34         6.7 0.32                           275 257 
 RREF HZ EP   2    9 6 48.06                             111     0.5 3  322 231 
 RREF HE ES   2    9 7 24.30                             111     0.6 3  322 231 
 RREF HZ I         9 7 32.46         8.4 0.57                           322 231 
 PRA  HZ EP   1    9 6 54.64                             107     0.0 4  389 210 
 PRA  HE ES   1    9 7 36.42                             107     0.1 4  389 210 
 PRA  HZ I         9 7 42.75         9.4 0.33                           389 210 
                                                                                
