 2015  921 0533 41.7 L   6.819 -73.130142.5  RSN 15 0.5 2.0LRSN                1
 GAP=153        1.13       3.2     4.5  5.9 -0.4030E+01  0.5238E+01  0.2983E+01E
 Epicentro: LOS SANTOS - SANTANDER                                             3
 ACTION:UPD 15-10-28 16:27 OP:cam  STATUS:               ID:20150921053341 L   I
 OLDACT:DUP 15-09-21 15:44 OP:mh   STATUS:               ID:20150921052746d    3
 OLDACT:UP  15-09-21 15:38 OP:mh   STATUS:               ID:20150921052745     3
 OLDACT:REG 15-09-21 12:41 OP:mh   STATUS:               ID:20150921052745     3
 2015-09-21-0527-45M.COL___355                                                 6
 STAT SP IPHASW D HRMM SECON CODA AMPLIT PERI AZIMU VELO AIN AR TRES W  DIS CAZ7
 BAR2 EZ EP        534  1.02                             169    0.0510 25.7 193 
 BAR2 EZ ES        534 15.48                             169   -0.5310 25.7 193 
 BAR2 EZ I         534 19.08        11.0 0.20            170           25.7 193 
 BRR  HZ EP        534  2.81                             152    0.3010 71.7 296 
 BRR  HN ES        534 19.35                             152    0.6010 71.7 296 
 BRR  HZ I         534 24.10        11.8 0.17            150           71.7 296 
 PAM  EZ EP        534  3.76                             151    0.3710 74.7  40 
 PAM  EN ES        534 20.85                             151    0.5310 74.7  40 
 PAM  EZ I         534 23.02        11.3 0.20            153           74.7  40 
 PTB  HZ EP        534  7.65                             131   -0.92 9  150 258 
 PTB  HN ES        534 28.93                             131   -0.62 9  150 258 
 PTB  HZ I         534 30.83        13.7 0.12            131            150 258 
 OCA  HZ EP        534  9.06                             129   -0.50 9  158 352 
 OCA  HN ES        534 30.74                             129   -0.58 9  158 352 
 OCA  HZ I         534 40.84        17.7 0.34            130            158 352 
 SPBC HZ EP        534  9.94                             128   -0.24 9  166 219 
 SPBC HN ES        534 32.54                             128    0.12 9  166 219 
 SPBC HZ I         534 35.12        14.7 0.16            129            166 219 
 ZAR  HZ EP   1    534 13.62                             121   -0.38 6  205 291 
 ZAR  HN ES        534 39.38                             121    0.18 9  205 291 
 ZAR  HZ I         534 44.72        18.5 0.36            122            205 291 
 NOR  HZ EP   1    534 17.43                             117   -0.07 6  237 234 
 NOR  HE ES        534 45.74                             117    0.30 8  237 234 
 NOR  HZ I         534 50.38         7.0 0.44            118            237 234 
 SML  HZ EP        534 17.80                             117   -0.20 8  243 335 
 SML  HN ES   1    534 46.39                             117    0.06 6  243 335 
 SML  HZ I         534 53.36        13.8 0.24            117            243 335 
 CHI  HZ EP        534 20.15                             116    0.69 8  251 195 
 CHI  HN ES        534 48.44                             116   -0.49 8  251 195 
 CHI  HZ I         534 58.48         4.1 0.38            118            251 195 
 HEL  HZ EP        534 22.96                             114    0.99 8  274 255 
 HEL  HN ES        534 53.89                             114    0.50 8  274 255 
 HEL  HZ I         535  0.80         4.4 0.32            114            274 255 
 URE  HZ EP   4    534 21.42                             113   -1.26 0  285 291 
 URE  HN ES   4    534 52.21                             113   -2.45 0  285 291 
 URE  HZ I         535  4.87         7.9 0.18            113            285 291 
 GUY2CHZ EP   1    534 25.94                             111    0.51 5  304 235 
 GUY2CHN ES   4    535  1.31                             111    1.76 0  304 235 
 GUY2CHZ I         535  9.29         5.8 0.48                           304 235 
 PTGC HZ EP   4    534 24.24                             111   -1.30 0  310 159 
 PTGC HN ES   4    534 56.51                             111   -3.24 0  310 159 
 PTGC HZ I         535  3.08        11.9 0.67            113            310 159 
 PRA  HZ EP        534 35.47                             106    0.08 6  395 210 
 PRA  HN ES        535 16.84                             106   -0.45 6  395 210 
 PRA  HZ I         535 19.94         4.9 0.58            107            395 210 
                                                                                
