 2010  421 0142 18.1 L   6.803 -73.003139.0  RSN  9 0.4 2.2LRSN                1
 GAP=163        0.81       4.9     7.4  6.0 -0.1473E+02 -0.1176E+02  0.5799E+01E
 Epicentro: CEPITA - SANTANDER                                                 3
 ACTION:UPD 10-08-24 10:00 OP:vdl  STATUS:               ID:20100421014218 L   I
 2010-04-21-0137-57S.COL___104                                                 6
 STAT SP IPHASW D HRMM SECON CODA AMPLIT PERI AZIMU VELO AIN AR TRES W  DIS CAZ7
 BAR2 SZ IP        142 37.14                             167     0.110   31 221 
 BAR2 SZ ES   1    142 51.66                             167    -0.2 7   31 221 
 GIR2 SZ EP   1    142 36.26                             164    -0.8 7   37 325 
 GIR2 SZ ES   1    142 51.99                             164     0.0 7   37 325 
 BRR  HZ IP     D  142 39.52                             147     0.210   85 293 
 BRR  HE ES   1    142 56.29                             147     0.3 7   85 293 
 BRR  HZ I         143  0.04        26.7 0.10                            85 293 
 GUE  SZ EP   2    142 42.65                             138     0.7 5  114   4 
 OCA  SZ EP   1    142 46.15                             127     0.1 7  163 348 
 OCA  SZ I         142 50.48        26.5 0.07                           163 348 
 OCA  SZ ES   1    143  7.67                             127    -0.2 7  163 348 
 HEL  HZ EP   2    142 59.10                             112    -0.6 4  288 257 
 HEL  HZ I         143 36.38         8.0 0.47                           288 257 
 RREF BZ EP   2    143  4.47                             109    -0.9 3  334 231 
 RREF BN ES   2    143 42.63                             109     0.4 3  334 231 
 RREF BZ I         143 45.64         5.2 0.40                           334 231 
 SDV  BZ IP     C  143  6.73                             108     0.3 6  348  49 
 PRA  HZ EP   1    143 11.80                             105    -0.5 4  400 212 
 PRA  HN ES   1    143 55.31                             105     0.7 4  400 212 
 PRA  HZ I         143 59.17         5.4 0.32                           400 212 
                                                                                
