 2013  521 0347 29.4 L   6.472 -73.813 91.3  RSN  4 0.2 1.5LRSN                1
 GAP=241        0.60       5.2     9.2  8.2  0.3947E+02  0.4855E+02  0.2644E+02E
 Epicentro: SANTA HELENA DEL OPON - SANTANDER                                  3
 ACTION:UPD 13-06-20 09:52 OP:ep   STATUS:               ID:20130521034729 L   I
 2013-05-21-0338-50M.COL___222                                                 6
 STAT SP IPHASW D HRMM SECON CODA AMPLIT PERI AZIMU VELO AIN AR TRES W  DIS CAZ7
 BAR2 SZ EP        347 45.59                             139    0.2510 71.0  79 
 BAR2 SZ ES        347 57.50                             139   -0.2710 71.0  79 
 BAR2 SZ I         347 58.23         7.4 0.58                          71.0  79 
 BRR  HZ EP        347 44.72                             139   -0.3010 71.1   9 
 BRR  HN ES        347 57.37                             139    0.1810 71.1   9 
 BRR  HN I         347 58.30        11.1 0.42                          71.1   9 
 GIR2 SZ EP        347 47.52                             130    0.1310 95.8  46 
 RUS  HZ EP        347 48.42                             128   -0.1310  103 128 
 RUS  HN ES        348  3.63                             128    0.1410  103 128 
                                                                                
