 2015  821 0252  1.8 L   6.789 -73.073145.6  RSN  5 0.3 1.4LRSN                1
 GAP=272        0.63       4.2     5.3  6.5 -0.6532E+00  0.4809E+01  0.6569E+01E
 Epicentro: LOS SANTOS - SANTANDER                                             3
 ACTION:UPD 15-09-15 23:03 OP:cam  STATUS:               ID:20150821025201 L   I
 OLDACT:REG 15-08-21 12:49 OP:spq  STATUS:               ID:20150821024749     3
 2015-08-21-0247-49M.COL___337                                                 6
 STAT SP IPHASW D HRMM SECON CODA AMPLIT PERI AZIMU VELO AIN AR TRES W  DIS CAZ7
 BAR2 EZ EP        252 21.56                             170    0.1710 24.9 209 
 BAR2 EZ ES   1    252 36.64                             170   -0.07 7 24.9 209 
 BAR2 EZ I         252 37.99         7.1 0.22            162           24.9 209 
 BRR  HZ EP        252 23.38                             150    0.0510 78.9 297 
 BRR  HN ES        252 40.32                             150    0.1610 78.9 297 
 BRR  HZ I         252 41.52         2.5 0.18            150           78.9 297 
 SPBC HZ EP   1    252 30.33                             128   -0.31 7  167 221 
 SPBC HE ES        252 52.84                             128   -0.33 9  167 221 
 SPBC HZ I         253  1.51         3.3 0.28            127            167 221 
 ZAR  HN ES   1    253  0.60                             121   -0.34 6  212 292 
 GUY2CHE ES   1    253 21.30                             112    0.76 5  307 236 
 GUY2CHZ I         253 28.09         1.6 0.38                           307 236 
                                                                                
