 2013  821 0539 29.7 L   6.796 -73.151142.1  RSN 14 0.3 1.8LRSN                1
 GAP=136        0.85       3.3     4.1  5.1 -0.2103E+01  0.4488E+01  0.2461E+01E
 Epicentro: LOS SANTOS - SANTANDER                                             3
 ACTION:UPD 14-01-14 09:05 OP:ep   STATUS:               ID:20130821053929 L   I
 OLDACT:REG 13-08-21 13:30 OP:nd   STATUS:               ID:20130821053739     3
 2013-08-21-0537-39M.COL___213                                                 6
 STAT SP IPHASW D HRMM SECON CODA AMPLIT PERI AZIMU VELO AIN AR TRES W  DIS CAZ7
 BAR2 SZ EP     D  539 49.00                             170    0.1110 22.8 189 
 BAR2 SZ ES        540  3.21                             170   -0.6410 22.8 189 
 BAR2 SZ I         540  5.52        32.7 0.16            171           22.8 189 
 BRR  HZ IP     C  539 50.88                             152    0.4310 70.9 299 
 BRR  HN ES        540  7.22                             152    0.6010 70.9 299 
 BRR  HZ I         540 11.19        13.1 0.32            144           70.9 299 
 PAM  SZ EP        539 51.83                             150    0.2510 78.1  40 
 PAM  SN ES        540  8.52                             150   -0.1210 78.1  40 
 PAM  SZ I         540 11.17         9.1 0.52            147           78.1  40 
 RUS  HZ EP        539 52.88                             143   -0.2010  100 176 
 RUS  HN ES        540 11.37                             143    0.0710  100 176 
 RUS  HZ I         540 13.26         4.2 0.28            150            100 176 
 PTB  HZ EP     D  539 55.91                             131   -0.41 9  147 259 
 PTB  HN ES        540 16.77                             131   -0.30 9  147 259 
 PTB  HZ I         540 24.36         7.6 0.34            129            147 259 
 OCA  HZ EP   4    540 21.45                             129   23.68 0  161 353 
 OCA  HN ES   4    540 46.08                             129   26.42 0  161 353 
 OCA  HZ I         540 49.78        14.7 0.22            125            161 353 
 SPBC HZ EP        539 57.95                             128    0.09 9  162 219 
 SPBC HN ES        540 20.05                             128    0.23 9  162 219 
 SPBC HZ I         540 26.10         8.6 0.34            129            162 219 
 ZAR  HZ EP        540  1.45                             122   -0.43 9  204 292 
 ZAR  HN ES   4    540 24.90                             122   -2.07 0  204 292 
 ZAR  HZ I         540 33.34         8.6 0.38            119            204 292 
 CHI  HZ EP   2    540  7.21                             116    0.06 4  248 195 
 CHI  HN ES        540 36.60                             116    0.25 8  248 195 
 CHI  HZ I         540 38.93         3.0 0.20            119            248 195 
 ROSC BZ EP   4    540  9.04                             116    1.48 0  252 211 
 ROSC BN ES   4    540 35.47                             116   -1.61 0  252 211 
 HEL  HZ EP   4    540 11.10                             114    1.44 0  271 256 
 HEL  HN ES   4    540 44.29                             114    3.47 0  271 256 
 HEL  HZ I         540 47.97         5.6 0.30            113            271 256 
 GUY2CHZ EP   4    540 14.02                             112    0.95 0  300 235 
 GUY2CHN ES   4    540 51.29                             112    4.40 0  300 235 
 GUY2CHZ I         540 55.24         3.8 0.36                           300 235 
 COD  HZ EP   4    540 16.88                             108   -1.11 0  349 355 
 COD  HN ES   4    540 53.21                             108   -2.43 0  349 355 
 COD  HZ I         540 59.49         1.7 0.64            107            349 355 
 PRA  HZ EP        540 22.99                             106   -0.04 6  391 210 
 PRA  HN ES   4    541  1.94                             106   -2.68 0  391 210 
 PRA  HZ I         541  8.60         3.1 0.28            107            391 210 
 SJC  HZ EP   4    540 23.21                             105   -1.95 0  409 327 
 SJC  HN ES   4    541  4.32                             105   -4.08 0  409 327 
 SJC  HZ I         541 11.31         1.0 0.42            104            409 327 
                                                                                
