 2013  721 0603 42.5 L   6.852 -73.232138.2  RSN 13 0.5 2.3LRSN                1
 GAP=104        0.98       3.0     4.5  6.2 -0.3301E+01  0.1177E+02 -0.3872E+00E
 Epicentro: ZAPATOCA - SANTANDER                                               3
 ACTION:UPD 13-08-12 10:39 OP:ep   STATUS:               ID:20130721060342 L   I
 OLDACT:UP  13-07-21 11:39 OP:mh   STATUS:               ID:20130721055959     3
 OLDACT:REG 13-07-21 08:10 OP:mh   STATUS:               ID:20130721055959     3
 2013-07-21-0559-59M.COL___266                                                 6
 STAT SP IPHASW D HRMM SECON CODA AMPLIT PERI AZIMU VELO AIN AR TRES W  DIS CAZ7
 GIR2 SZ EP        6 4  1.20                             169    0.0510 25.4  10 
 GIR2 SZ ES        6 4 15.69                             169    0.0210 25.4  10 
 BAR2 SZ EP     D  6 4  1.43                             167    0.0410 29.2 169 
 BAR2 SZ ES   1    6 4 16.90                             167    0.80 7 29.2 169 
 BAR2 SZ I         6 4 22.19        19.5 0.20            168           29.2 169 
 BRR  HZ IP     C  6 4  3.19                             155    0.9510 60.1 298 
 BRR  HN ES   4    6 4 19.85                             155    2.22 0 60.1 298 
 PAM  SZ EP   1    6 4  4.31                             149    0.22 7 79.8  47 
 PAM  SN ES        6 4 20.89                             149   -0.0210 79.8  47 
 PAM  SN I         6 4 22.08        48.7 0.46            155           79.8  47 
 RUS  HZ EP   1    6 4  5.82                             140   -0.24 7  107 171 
 RUS  HN ES        6 4 23.81                             140   -0.6010  107 171 
 RUS  HN I         6 4 25.73        22.4 0.56            145            107 171 
 PTB  HZ EP        6 4  8.13                             132   -0.01 9  140 256 
 PTB  HN ES   1    6 4 27.64                             132   -0.48 7  140 256 
 PTB  HN I         6 4 31.65        46.4 0.22            131            140 256 
 OCA  HZ EP   1    6 4  9.53                             129   -0.10 7  154 356 
 OCA  HN ES   1    6 4 30.75                             129   -0.02 7  154 356 
 OCA  HZ I         6 4 35.82        13.1 0.30            131            154 356 
 SPBC HZ EP   1    6 4 10.57                             127    0.23 7  162 215 
 SPBC HN ES   1    6 4 31.38                             127   -0.65 7  162 215 
 SPBC HN I         6 4 40.43        39.6 0.14            129            162 215 
 YOP  SZ EP   1    6 4 12.46                             123   -0.54 7  188 151 
 NOR  HZ EP   1    6 4 17.90                             117    0.53 6  230 232 
 NOR  HN ES        6 4 44.74                             117    0.20 8  230 232 
 NOR  HN I         6 4 47.20        29.2 0.16            119            230 232 
 SML  HZ EP   1    6 4 17.73                             117   -0.01 6  235 337 
 SML  HN ES        6 4 44.25                             117   -0.95 8  235 337 
 SML  HN I         6 4 54.25        41.6 0.32            119            235 337 
 HEL  HE ES   1    6 4 52.15                             114    0.25 6  264 254 
 HEL  HE I         6 5  3.90        10.6 0.50            115            264 254 
 PRA  HZ EP   2    6 4 36.27                             105    0.43 3  392 208 
 PRA  HN ES   1    6 5 17.51                             105    0.08 4  392 208 
 PRA  HN I         6 5 22.05         4.2 0.32            107            392 208 
 SJC  HN ES   4    6 5 14.18                             105   -4.72 0  399 328 
                                                                                
