 2012  321 0339 45.2 L   6.730 -73.105142.0  RSN 13 0.4 2.3LRSN                1
 GAP=145        0.69       3.0     3.9  5.3 -0.1419E+01  0.4290E+01  0.2387E+01E
 ACTION:UP  12-03-31 23:21 OP:EP   STATUS:               ID:20120321033945 L   I
 2012-03-21-0340-00M.COL___202                                                 6
 STAT SP IPHASW D HRMM SECON CODA AMPLIT PERI AZIMU VELO SNR AR TRES W  DIS CAZ7
 BAR2 SZ EP        340  4.18                             173     0.010   18 209 
 BAR2 SZ ES   1    340 18.52                             173    -0.6 7   18 209 
 BAR2 SZ I         340 20.22        58.8 0.29                            18 209 
 BRR  HZ EP        340  6.27                             149    -0.110   79 302 
 BRR  HE ES   1    340 23.59                             149     0.7 7   79 302 
 BRR  HZ I         340 24.61        37.0 0.18                            79 302 
 PAM  SZ EP        340  7.26                             149     0.110   81  34 
 PAM  SN ES   2    340 24.58                             149     0.2 5   81  34 
 RUS  HZ EP        340  7.94                             145     0.010   93 179 
 RUS  HE ES   1    340 26.02                             145     0.3 7   93 179 
 RUS  HZ I         340 28.02        34.1 0.62                            93 179 
 PTB  HZ EP   2    340 10.98                             130    -1.1 5  151 262 
 PTB  HE ES   2    340 32.30                             130    -0.8 5  151 262 
 PTB  HZ I         340 32.97        17.5 0.11                           151 262 
 OCA  SZ EP   2    340 13.98                             127     0.0 5  169 352 
 OCA  SZ ES   2    340 36.41                             127     0.0 5  169 352 
 ZAR  HZ EP   2    340 18.05                             121    -0.1 4  211 294 
 ZAR  HN ES   2    340 43.75                             121    -0.1 4  211 294 
 ZAR  HZ I         340 47.94        20.4 0.44                           211 294 
 NOR  SZ EP   2    340 20.47                             118    -0.1 4  234 237 
 NOR  SN ES   2    340 48.56                             118     0.3 4  234 237 
 CHI  HZ EP   1    340 21.84                             117    -0.1 6  242 197 
 CHI  HN ES   1    340 50.90                             117     0.2 6  242 197 
 CHI  HZ I         340 54.52         6.2 0.72                           242 197 
 HEL  HZ EP   2    340 25.89                             114     0.4 4  275 258 
 HEL  HN ES   2    340 57.01                             114     0.1 4  275 258 
 HEL  HZ I         341  3.66        10.2 0.33                           275 258 
 GUY  SN ES   2    341  3.47                             111     0.6 4  303 237 
 GUY  SZ I         341 11.02        11.5 0.44                           303 237 
 RREF HZ EP   2    340 31.54                             110     0.6 3  320 231 
 RREF HE ES   2    341  6.53                             110    -0.2 3  320 231 
 RREF HZ I         341 13.66        13.9 0.28                           320 231 
 PRA  HZ EP   2    340 38.21                             106     0.2 3  388 211 
 PRA  HN ES   2    341 19.06                             106    -0.2 3  388 211 
                                                                                
