 2013 1021 0604 57.1 L   6.795 -73.165145.4  RSN  9 0.3 1.7LRSN                1
 GAP=134        0.81       2.6     3.4  5.1 -0.5119E+00  0.2804E+01  0.2755E+01E
 Epicentro: LOS SANTOS - SANTANDER                                             3
 ACTION:UPD 13-11-25 09:22 OP:ep   STATUS:               ID:20131021060457 L   I
 OLDACT:REG 13-10-21 08:00 OP:carl STATUS:               ID:20131021055843     3
 2013-10-21-0558-43M.COL___214                                                 6
 STAT SP IPHASW D HRMM SECON CODA AMPLIT PERI AZIMU VELO AIN AR TRES W  DIS CAZ7
 BAR2 SZ EP        6 5 16.57                             171   -0.0710 22.5 185 
 BAR2 SZ ES        6 5 31.52                             171   -0.3710 22.5 185 
 BAR2 SZ I         6 5 34.33        20.4 0.28            168           22.5 185 
 BRR  HZ EP        6 5 18.40                             153    0.3110 69.6 300 
 BRR  HE ES        6 5 35.13                             153    0.6510 69.6 300 
 BRR  HZ I         6 5 39.52         7.0 0.22            151           69.6 300 
 PAM  SZ EP        6 5 19.50                             150    0.1510 79.2  40 
 PAM  SN ES        6 5 36.58                             150   -0.1510 79.2  40 
 PAM  SZ I         6 5 39.61         5.5 0.42            157           79.2  40 
 RUS  HZ EP        6 5 20.56                             144   -0.1910  100 175 
 RUS  HN ES        6 5 39.38                             144    0.1610  100 175 
 RUS  HZ I         6 5 40.44         5.5 0.30            145            100 175 
 PTB  HZ EP        6 5 23.18                             132   -0.62 9  146 259 
 PTB  HN ES        6 5 44.31                             132   -0.34 9  146 259 
 PTB  HZ I         6 5 51.60         6.6 0.34            132            146 259 
 SPBC HZ EP        6 5 25.65                             129    0.28 9  161 219 
 SPBC HN ES        6 5 47.32                             129   -0.12 9  161 219 
 SPBC HZ I         6 5 53.79         8.1 0.24            130            161 219 
 OCA  HN ES        6 5 47.36                             129   -0.10 9  161 354 
 ZAR  HN ES        6 5 54.50                             122    0.05 9  202 293 
 ZAR  HN I         6 6  1.33         8.4 0.40            123            202 293 
 CHI  HZ EP        6 5 34.73                             117    0.11 8  248 195 
 CHI  HN ES        6 6  4.24                             117    0.32 8  248 195 
 CHI  HZ I         6 6 14.22         1.9 0.54            119            248 195 
                                                                                
