 2014 1121 0119 12.9 L   6.789 -73.178148.0  RSN  7 0.5 1.5LRSN                1
 GAP=133        1.26       5.6     5.4  8.8 -0.1508E+01  0.8703E+01  0.6421E+01E
 Epicentro: LOS SANTOS - SANTANDER                                             3
 ACTION:UPD 14-12-19 15:45 OP:nd   STATUS:               ID:20141121011912 L   I
 OLDACT:REG 14-11-21 12:42 OP:fm   STATUS:               ID:20141121011748     3
 2014-11-21-0117-48M.COL___301                                                 6
 STAT SP IPHASW D HRMM SECON CODA AMPLIT PERI AZIMU VELO AIN AR TRES W  DIS CAZ7
 BAR2 SZ EP        119 31.91                             171   -0.8510 21.8 181 
 BAR2 SZ ES        119 48.73                             171    0.4710 21.8 181 
 BAR2 SZ I         119 49.65         8.5 0.24            172           21.8 181 
 BRR  HN ES        119 50.95                             154    0.2310 68.7 301 
 PAM  SZ EP        119 35.92                             150    0.3910 80.6  41 
 PAM  SN ES        119 52.65                             150   -0.5510 80.6  41 
 PAM  SZ I         119 55.30         5.8 0.38            152           80.6  41 
 RUS  HZ EP        119 37.26                             144    0.4610 99.7 174 
 RUS  HN ES        119 55.60                             144    0.1510 99.7 174 
 RUS  HZ I         119 56.95         4.6 0.36            147           99.7 174 
 PTB  HZ EP        119 39.28                             133   -0.43 9  144 259 
 PTB  HN ES        119 59.99                             133   -0.63 9  144 259 
 PTB  HZ I         120  3.47         3.0 0.14            133            144 259 
 SPBC HZ EP        119 41.61                             130    0.35 9  160 218 
 SPBC HN ES        120  3.20                             130   -0.20 9  160 218 
 SPBC HZ I         120  5.90         5.7 0.10            131            160 218 
 ZAR  HN ES        120 11.05                             123    0.67 9  201 293 
 ZAR  HZ I         120 16.35         3.8 0.28            123            201 293 
                                                                                
