 2010  321 0700 25.8 L   6.837 -73.019142.8  RSN  5 0.3 1.6LRSN                1
 GAP=196        0.52       3.8     9.5  5.8  0.1480E+02  0.1925E+01 -0.1520E+01E
 Epicentro: CEPITA - SANTANDER                                                 3
 ACTION:UP  10-08-24 09:55 OP:vdl  STATUS:               ID:20100321070025 L   I
 2010-03-21-0658-58S.COL___098                                                 6
 STAT SP IPHASW D HRMM SECON CODA AMPLIT PERI AZIMU VELO SNR AR TRES W  DIS CAZ7
 BAR2 SZ IP        7 0 45.38                             166     0.110   33 214 
 BAR2 SZ ES   1    7 1  0.12                             166    -0.4 7   33 214 
 BRR  HZ EP        7 0 47.29                             148     0.010   82 291 
 BRR  HE ES   2    7 1  4.06                             148     0.0 5   82 291 
 BRR  HZ I         7 1  7.39         7.0 0.14                            82 291 
 RUS  HZ EP   1    7 0 49.33                             142    -0.2 7  105 184 
 RUS  HE ES   1    7 1  8.48                             142     0.4 7  105 184 
 RUS  HZ I         7 1  9.25         2.6 0.33                           105 184 
 OCA  SZ EP   3    7 0 53.40                             129    -0.3 2  159 348 
 OCA  SZ ES   2    7 1 15.87                             129     0.4 5  159 348 
 PRA  HZ EP   2    7 1 20.31                             105    -0.2 3  403 211 
 PRA  HN ES   2    7 2  3.27                             105     0.2 3  403 211 
 PRA  HZ I         7 2  8.02         2.7 0.33                           403 211 
                                                                                
