 2012  221 0810 52.6 L   6.804 -73.121141.0  RSN  5 0.1 1.5LRSN                1
 GAP=140        0.32       2.1     3.3  3.1 -0.4595E+00 -0.2989E-01  0.1452E+01E
 ACTION:UP  12-03-07 16:32 OP:epov STATUS:               ID:20120221081052 L   I
 2012-02-21-0810-00M.COL___191                                                 6
 STAT SP IPHASW D HRMM SECON CODA AMPLIT PERI AZIMU VELO AIN AR TRES W  DIS CAZ7
 BAR2 SZ EP   1    811 11.53                             170   -0.17 7 24.3 196 
 BAR2 SZ ES   1    811 26.59                             170    0.01 7 24.3 196 
 BAR2 SZ I         811 27.86         5.5 0.24                          24.3 196 
 BRR  HZ EP   1    811 13.27                             151   -0.12 7 73.4 297 
 BRR  HZ I         811 13.46         9.9 0.14                          73.4 297 
 BRR  HN ES   1    811 29.68                             151    0.09 7 73.4 297 
 PAM  SZ EP   1    811 14.39                             151    0.18 7 75.3  38 
 PAM  SZ I         811 14.59         7.9 0.18                          75.3  38 
 PAM  SN ES   1    811 30.96                             151   -0.09 7 75.3  38 
 RUS  HZ EP   1    811 16.01                             143    0.09 7  101 178 
 RUS  HN ES   1    811 34.11                             143    0.01 7  101 178 
 RUS  HZ I         811 36.09         4.2 0.42                           101 178 
 CHI  HZ EP   1    811 30.16                             116   -0.02 6  250 196 
                                                                                
