 2013 1221 0853 45.4 L   6.773 -73.165156.0  RSN  7 0.3 1.3LRSN                1
 GAP=199        0.72       3.7     5.2  6.7  0.8259E+01 -0.7885E+01 -0.9135E+01E
 Epicentro: LOS SANTOS - SANTANDER                                             3
 ACTION:UPD 14-01-13 10:19 OP:ep   STATUS:               ID:20131221085345 L   I
 OLDACT:REG 13-12-21 08:54 OP:jn   STATUS:               ID:20131221085000     3
 2013-12-21-0850-00M.COL___285                                                 6
 STAT SP IPHASW D HRMM SECON CODA AMPLIT PERI AZIMU VELO AIN AR TRES W  DIS CAZ7
 BAR2 SZ EP        854  6.26                             173    0.0110 20.1 185 
 BAR2 SZ I         854 22.66        10.4 0.32            170           20.1 185 
 BRR  HN ES        854 25.48                             154    0.4410 70.8 301 
 RUS  HZ EP        854 10.29                             147    0.2710 97.8 175 
 RUS  HN ES        854 28.82                             147   -0.3710 97.8 175 
 RUS  HZ I         854 30.16         1.7 0.24            145           97.8 175 
 PTB  HZ EP        854 13.19                             135    0.16 9  145 260 
 PTB  HN ES        854 34.12                             135   -0.43 9  145 260 
 PTB  HZ I         854 35.55         2.3 0.28            138            145 260 
 SPBC HN ES   2    854 37.46                             132    0.46 5  159 219 
 ZAR  HN ES   2    854 44.32                             125    0.05 4  203 293 
 SML  HZ EP        854 22.69                             119   -0.17 8  246 336 
 SML  HN ES        854 51.85                             119   -0.19 8  246 336 
                                                                                
