 2016  621 0300 35.6 L   7.448 -73.159129.1  RSN  5 0.2 1.3LRSN                1
 GAP=270        0.58       4.4     4.4  5.3  0.7593E+01  0.2483E+01 -0.5242E+01E
 Epicentro: EL PLAYON - SANTANDER                                              3
 ACTION:UPD 16-07-21 22:21 OP:rebc STATUS:               ID:20160621030035 L   I
 OLDACT:REG 16-06-21 14:30 OP:ak   STATUS:               ID:20160621025745     3
 2016-06-21-0257-45M.COL___331                                                 6
 STAT SP IPHASW D HRMM SECON CODA AMPLIT PERI AZIMU VELO AIN AR TRES W  DIS CAZ7
 BRR  HZ EP        3 0 55.20                             149    0.2210 71.7 238 
 BRR  HE ES        3 1 10.34                             149    0.2310 71.7 238 
 BRR  HZ I         3 1 10.88         6.4 0.08                          71.7 238 
 BAR2 EZ EP   2    3 0 57.29                             142    0.38 5 94.7 182 
 BAR2 EZ ES        3 1 13.19                             142   -0.3710 94.7 182 
 BAR2 EZ I         3 1 14.58         6.4 0.14                          94.7 182 
 PTB  HZ EP        3 1  3.83                             123   -0.12 9  175 235 
 PTB  HN ES        3 1 25.98                             123   -0.10 9  175 235 
 PTB  HZ I         3 1 27.47         1.6 0.22                           175 235 
 ZAR  HZ EP        3 1  5.17                             121   -0.07 9  188 272 
 ZAR  HN ES        3 1 28.21                             121   -0.17 9  188 272 
 ZAR  HZ I         3 1 32.99         2.1 0.28                           188 272 
 SPBC HZ EP   2    3 1  8.87                             116   -0.26 4  223 207 
 SPBC HN ES        3 1 35.63                             116    0.33 8  223 207 
 SPBC HZ I         3 1 38.24         1.7 0.14                           223 207 
                                                                                
