 2013 1021 0705 17.1 L   6.768 -73.146149.3  RSN  8 0.3 1.4LRSN                1
 GAP=138        0.72       2.7     3.5  5.1  0.4762E+00  0.6741E+00 -0.5553E+00E
 Epicentro: LOS SANTOS - SANTANDER                                             3
 ACTION:UPD 13-11-25 09:22 OP:ep   STATUS:               ID:20131021070517 L   I
 OLDACT:REG 13-10-21 08:01 OP:carl STATUS:               ID:20131021065843     3
 2013-10-21-0658-43M.COL___211                                                 6
 STAT SP IPHASW D HRMM SECON CODA AMPLIT PERI AZIMU VELO AIN AR TRES W  DIS CAZ7
 BAR2 SZ EP        7 5 37.01                             172   -0.0410 19.8 192 
 BAR2 SZ ES        7 5 52.70                             172    0.0610 19.8 192 
 BAR2 SZ I         7 5 54.81         9.5 0.50            169           19.8 192 
 BRR  HZ EP        7 5 38.89                             153    0.2010 72.9 301 
 BRR  HN ES        7 5 55.98                             153    0.4210 72.9 301 
 PAM  SZ EP        7 5 39.81                             151   -0.0110 80.2  38 
 RUS  HZ EP        7 5 40.93                             146    0.0210 97.0 176 
 RUS  HN ES        7 5 59.25                             146   -0.2610 97.0 176 
 RUS  HZ I         7 6  0.78         2.1 0.36            146           97.0 176 
 PTB  HZ EP        7 5 43.94                             133   -0.31 9  147 260 
 PTB  HN ES        7 6  4.92                             133   -0.54 9  147 260 
 PTB  HZ I         7 6 10.82         4.0 0.38            133            147 260 
 SPBC HZ EP        7 5 45.96                             130    0.39 9  160 220 
 SPBC HN ES        7 6  8.00                             130    0.19 9  160 220 
 SPBC HZ I         7 6 11.92         3.4 0.40            130            160 220 
 OCA  HE ES        7 6  8.27                             130   -0.27 9  164 353 
 ZAR  HN ES        7 6 15.60                             123    0.13 8  205 293 
                                                                                
