 2011  221 0243 36.0 L   7.479 -73.206138.3  RSN  9 0.4 1.9LRSN                1
 GAP=114        0.81       4.7     7.6  7.9 -0.9538E+01  0.7419E+01  0.1349E+02E
 Epicentro: EL PLAYON - SANTANDER                                              3
 ACTION:UP  11-03-28 15:09 OP:jfem STATUS:               ID:20110221024335 L   I
 2011-02-21-0239-24S.COL___137                                                 6
 STAT SP IPHASW D HRMM SECON CODA AMPLIT PERI AZIMU VELO SNR AR TRES W  DIS CAZ7
 BTL  SZ EP   1    243 55.80                             154    -0.411   62 186 
 GRA  SZ EP   1    243 56.47                             154     0.411   63  45 
 GRA  SZ ES   1    244 11.39                             154    -0.411   63  45 
 GRA  SZ I         244 12.89        49.2 0.38                            63  45 
 OCA  SZ EP   1    243 57.68                             147     0.311   85 352 
 OCA  SZ ES   1    244 14.14                             147     0.011   85 352 
 OCA  SZ I         244 16.61        19.3 0.16                            85 352 
 BAR2 SZ EP   2    243 58.23                             142    -0.2 7   98 179 
 BAR2 SZ I         244 15.65        14.7 0.03                            98 179 
 RUS  HZ EP   2    244  4.95                             125    -0.8 7  176 176 
 RUS  HN ES   1    244 29.56                             125     0.710  176 176 
 RUS  HZ I         244 30.36         2.0 0.38                           176 176 
 NOR  SZ EP   1    244 16.02                             112    -0.4 8  281 221 
 HEL  HZ EP   1    244 18.58                             111     0.3 8  294 241 
 HEL  HZ I         244 59.28         5.5 0.41                           294 241 
 SDV  BZ EP        244 21.49                             109     0.010  323  61 
 RREF HZ EP   2    244 27.27                             106    -0.2 5  371 220 
 RREF HZ I         245 15.02         3.7 0.49                           371 220 
                                                                                
