 2013 1221 0326 49.5 L   6.714 -73.182145.1  RSN  4 0.1 1.2LRSN                1
 GAP=226        0.36       3.5     3.9  3.0  0.8665E+01  0.2605E+01  0.2052E+01E
 Epicentro: VILLANUEVA - SANTANDER                                             3
 ACTION:UPD 14-01-13 10:19 OP:ep   STATUS:               ID:20131221032649 L   I
 OLDACT:REG 13-12-21 08:41 OP:jn   STATUS:               ID:20131221032000     3
 2013-12-21-0320-00M.COL___285                                                 6
 STAT SP IPHASW D HRMM SECON CODA AMPLIT PERI AZIMU VELO AIN AR TRES W  DIS CAZ7
 BAR2 SZ EP        327  8.73                             174   -0.1110 13.4 180 
 BAR2 SZ ES        327 23.84                             174   -0.1210 13.4 180 
 BAR2 SZ I         327 25.08         5.1 0.26            173           13.4 180 
 BRR  HZ EP        327 10.66                             152    0.0410 72.9 307 
 BRR  HN ES        327 27.26                             152    0.1210 72.9 307 
 BRR  HZ I         327 29.98         6.5 0.40            153           72.9 307 
 RUS  HZ EP        327 12.63                             146    0.1310 91.5 173 
 RUS  HN ES   1    327 30.55                             146    0.08 7 91.5 173 
 RUS  HZ I         327 33.53         0.8 0.28            147           91.5 173 
 PTB  HZ EP        327 15.76                             133   -0.10 9  142 262 
 PTB  HN ES   2    327 36.43                             133   -0.03 5  142 262 
                                                                                
