 2016 1221 0656  3.0 L   6.850 -73.092142.0  RSN  5 0.8 1.0LRSN                1
 GAP=247        1.73      14.3    14.1 14.2  0.1351E+03  0.2899E+02 -0.1844E+01E
 Epicentro: LOS SANTOS - SANTANDER                                             3
 ACTION:UPD 17-01-11 20:17 OP:rebc STATUS:               ID:20161221064745 L   I
 OLDACT:UP  16-12-26 16:20 OP:nlst STATUS:               ID:20161221064745 L   3
 OLDACT:UP  16-12-21 16:24 OP:cog  STATUS:               ID:20161221064745 L   3
 OLDACT:UP  16-12-21 16:24 OP:cog  STATUS:               ID:20161221064745 L   3
 OLDACT:UPD 16-12-21 15:44 OP:CARA STATUS:               ID:20161221064745 L   3
 2016-12-21-0648-00M.COL___375                                                 6
 STAT SP IPHASW D HRMM SECON CODA AMPLIT PERI AZIMU VELO AIN AR TRES W  DIS CAZ7
 BAR2 EZ EP   4    656 19.38                             167   -2.96 0 30.2 199 
 BAR2 EZ ES        656 36.30                             167   -1.1210 30.2 199 
 BAR2 EZ I         656 40.08         2.6 0.25            173           30.2 199 
 BRR  HZ EP        656 24.23                             151    0.3110 74.2 293 
 BRR  HN ES        656 41.35                             151    1.1210 74.2 293 
 BRR  HZ I         656 50.93         2.6 0.40            151           74.2 293 
 RUS  HZ EP        656 26.63                             141   -0.1510  106 179 
 RUS  HN ES        656 45.90                             141    0.5810  106 179 
 PTB  HZ EP        656 29.88                             130   -0.43 9  155 257 
 PTB  HN ES        656 51.83                             130    0.22 9  155 257 
 PTB  HZ I         656 55.15         1.0 0.24            134            155 257 
 ZAR  HZ EP   3    656 37.54                             121    1.97 2  208 290 
 ZAR  HN ES        657  0.07                             121   -0.91 8  208 290 
 ZAR  HZ I         657  5.62         1.0 0.28            124            208 290 
                                                                                
