 2010  321 0526 20.0 L   6.940 -72.866138.0  RSN  4 0.2 1.4LRSN                1
 GAP=211        0.43       6.6    12.2  8.7  0.6298E+02 -0.7361E+02 -0.3249E+02E
 Epicentro: GUACA - SANTANDER                                                  3
 ACTION:UP  10-08-24 09:55 OP:vdl  STATUS:               ID:20100321052620 L   I
 2010-03-21-0524-43S.COL___098                                                 6
 STAT SP IPHASW D HRMM SECON CODA AMPLIT PERI AZIMU VELO SNR AR TRES W  DIS CAZ7
 BAR2 SZ EP   2    526 39.89                             158     0.2 5   52 222 
 BAR2 SZ ES   2    526 54.99                             158     0.0 5   52 222 
 BRR  HZ EP        526 41.76                             143    -0.210   95 281 
 BRR  HN ES   1    526 59.19                             143     0.2 7   95 281 
 BRR  HZ I         527  1.18         4.9 0.16                            95 281 
 RUS  HZ EP   1    526 44.64                             137     0.2 7  118 192 
 RUS  HE ES   2    527  3.10                             137    -0.3 5  118 192 
 RUS  HZ I         527  3.57         3.6 0.25                           118 192 
 OCA  SZ EP   3    526 47.01                             129     0.1 2  152 341 
 OCA  SZ ES   3    527  7.85                             129    -0.1 2  152 341 
                                                                                
