 2015  121 0338 50.6 L   6.790 -73.124145.5  RSN  5 0.4 1.2LRSN                1
 GAP=239        1.06       6.3     6.9  7.8  0.1016E+02  0.6156E+01  0.4135E+01E
 Epicentro: LOS SANTOS - SANTANDER                                             3
 ACTION:UPD 15-03-02 15:41 OP:nd   STATUS:               ID:20150121033850 L   I
 OLDACT:UP  15-01-21 14:08 OP:carl STATUS:               ID:20150121033737     3
 OLDACT:REG 15-01-21 12:21 OP:carl STATUS:               ID:20150121033737     3
 2015-01-21-0337-37M.COL___265                                                 6
 STAT SP IPHASW D HRMM SECON CODA AMPLIT PERI AZIMU VELO AIN AR TRES W  DIS CAZ7
 BAR2 EZ EP        339  9.54                             171   -0.6810 22.8 196 
 BAR2 EZ ES        339 25.39                             171   -0.1010 22.8 196 
 BRR  HZ EP        339 11.49                             152   -0.4110 73.8 298 
 BRR  HN ES        339 28.96                             152    0.4710 73.8 298 
 RUS  HZ EP        339 14.98                             144    0.7110 99.4 177 
 RUS  HN ES        339 32.76                             144    0.0610 99.4 177 
 RUS  HZ I         339 34.38         0.9 0.44            140           99.4 177 
 PTB  HZ EP        339 17.87                             131    0.10 9  150 259 
 PTB  HN ES        339 38.96                             131    0.03 9  150 259 
 PTB  HZ I         339 44.38         2.2 0.28            128            150 259 
 SPBC HZ EP        339 19.39                             129    0.22 9  164 220 
 SPBC HN ES        339 41.01                             129   -0.42 9  164 220 
 SPBC HZ I         339 48.86         3.3 0.30            125            164 220 
                                                                                
