 2014 1021 0449 24.7 L   6.802 -73.157151.6  RSN  8 0.4 1.4LRSN                1
 GAP=200        1.05       4.3     5.9  6.2  0.8624E+01  0.2380E+01 -0.1338E+01E
 Epicentro: LOS SANTOS - SANTANDER                                             3
 ACTION:UPD 14-11-29 23:52 OP:nd   STATUS:               ID:20141021044744dL   I
 OLDACT:DUP 14-10-23 18:44 OP:stll STATUS:               ID:20141021044744dL   3
 2014-10-21-0447-43M.COL___271                                                 6
 STAT SP IPHASW D HRMM SECON CODA AMPLIT PERI AZIMU VELO AIN AR TRES W  DIS CAZ7
 BAR2 SZ EP        449 45.30                             171    0.2710 23.4 187 
 BAR2 SZ ES        450  0.53                             171   -0.3610 23.4 187 
 BAR2 SZ I         450  1.77         6.7 0.16            168           23.4 187 
 BRR  HZ EP        449 47.08                             154    0.6610 70.0 299 
 BRR  HN ES        450  3.42                             154    0.0610 70.0 299 
 BRR  HZ I         450  4.87         4.4 0.42            152           70.0 299 
 RUS  HZ EP        449 49.25                             145    0.2010  101 175 
 RUS  HN ES        450  7.79                             145   -0.2510  101 175 
 RUS  HZ I         450  8.81         2.1 0.24            145            101 175 
 PTB  HZ EP        449 52.25                             133    0.21 9  147 259 
 PTB  HN ES        450 13.23                             133   -0.15 9  147 259 
 PTB  HZ I         450 20.43         4.2 0.34            132            147 259 
 SPBC HZ EP        449 54.40                             130    0.81 9  163 219 
 SPBC HZ I         449 54.64         3.8 0.20            130            163 219 
 SPBC HE ES        450 16.20                             130    0.06 9  163 219 
 ZAR  HZ EP        449 56.89                             124   -0.52 9  203 292 
 ZAR  HE ES        450 22.89                             124   -0.03 9  203 292 
 SML  HZ EP        450  0.99                             119   -0.59 8  243 336 
 CHI  HZ EP        450  1.86                             118   -0.85 8  249 195 
 CHI  HN ES        450 32.30                             118   -0.07 8  249 195 
                                                                                
