 2010 1121 0429 57.1 L   6.751 -73.083145.0  RSN  7 0.4 1.9LRSN                1
 GAP=166        0.91       5.0     8.3  8.9 -0.8501E+01  0.9946E+01 -0.1332E+02E
 Epicentro: LOS SANTOS - SANTANDER                                             3
 ACTION:UP  10-12-17 16:54 OP:REBC STATUS:               ID:20101121042957 L   I
 2010-11-21-0425-18S.COL___131                                                 6
 STAT SP IPHASW D HRMM SECON CODA AMPLIT PERI AZIMU VELO SNR AR TRES W  DIS CAZ7
 BAR2 SZ EP   1    430 16.61                             171     0.0 8   21 212 
 BAR2 SZ ES   1    430 31.50                             171    -0.3 8   21 212 
 BAR2 SZ I         430 32.96        24.0 0.29                            21 212 
 BRR  HZ EP   2    430 18.02                             149    -0.7 5   80 300 
 BRR  HZ I         430 18.83        27.5 0.03                            80 300 
 BRR  HN ES   2    430 35.66                             149     0.1 5   80 300 
 RUS  HZ EP   1    430 21.00                             145     0.6 8   95 180 
 RUS  HN ES   1    430 38.51                             145     0.0 8   95 180 
 RUS  HZ I         430 39.92         5.2 0.20                            95 180 
 GRA  SZ IP        430 22.47                             136    -0.110  129  14 
 GRA  SZ I         430 23.65        10.6 0.31                           129  14 
 OCA  SZ EP   1    430 25.22                             128    -0.8 7  167 351 
 OCA  SZ ES   1    430 49.30                             128     0.8 7  167 351 
 OCA  SZ I         430 51.91         8.1 0.25                           167 351 
 NOR  SZ EP   2    430 33.27                             118     0.2 4  237 237 
 NOR  SE ES   2    431  1.15                             118     0.0 4  237 237 
 HEL  HZ EP   2    430 38.30                             114     0.4 4  278 257 
 HEL  HE ES   2    431  9.51                             114    -0.2 4  278 257 
 HEL  HZ I         431 15.71         3.6 0.36                           278 257 
                                                                                
