 2012  821 0358 15.9 L   5.803 -73.810118.4  RSN  7 0.3 1.9LRSN                1
 GAP=174        0.64       3.8     2.6  6.9 -0.2025E+01  0.4034E+01  0.6901E+00E
 Epicentro: JESUS MARIA - SANTANDER                                            3
 ACTION:UPD 12-09-10 11:57 OP:ep   STATUS:               ID:20120821035815 L   I
 2012-08-21-0350-00M.COL___217                                                 6
 STAT SP IPHASW D HRMM SECON CODA AMPLIT PERI AZIMU VELO AIN AR TRES W  DIS CAZ7
 RUS  HZ EP   1    358 35.32                             144   -0.23 8 81.1  83 
 RUS  HN ES   1    358 50.77                             144   -0.11 8 81.1  83 
 PTB  HN ES   1    358 53.68                             134    0.08 8  108 319 
 BAR2 SZ EP        358 37.65                             134    0.0010  112  38 
 BAR2 SZ ES   1    358 54.73                             134    0.10 7  112  38 
 BAR2 SZ I         358 56.06        28.7 0.47                           112  38 
 NOR  SZ EP        358 38.16                             131   -0.0210  120 257 
 NOR  SN ES   1    358 55.83                             131    0.26 7  120 257 
 NOR  SZ I         358 58.49        21.1 0.16                           120 257 
 BRR  HZ EP        358 40.29                             126   -0.1610  145   4 
 BRR  HN ES   1    358 59.93                             126    0.33 7  145   4 
 BRR  HZ I         359  2.98         8.8 0.12                           145   4 
 HEL  HZ EP   1    358 46.97                             117    0.78 7  195 283 
 HEL  HZ I         358 48.01         5.9 0.24                           195 283 
 HEL  HE ES   1    359  9.14                             117   -0.69 7  195 283 
 ZAR  HE ES   1    359 13.66                             114   -0.21 6  220 328 
 ZAR  HZ I         359 19.09         7.2 0.31                           220 328 
                                                                                
