 2012  821 0150 54.9 L   6.768 -73.133148.2  RSN  7 0.3 1.9LRSN                1
 GAP=140        0.62       3.8     3.4  6.8 -0.1637E+00  0.8693E+00  0.3694E+01E
 Epicentro: LOS SANTOS - SANTANDER                                             3
 ACTION:UPD 12-09-10 11:57 OP:ep   STATUS:               ID:20120821015054 L   I
 2012-08-21-0150-00M.COL___217                                                 6
 STAT SP IPHASW D HRMM SECON CODA AMPLIT PERI AZIMU VELO AIN AR TRES W  DIS CAZ7
 BAR2 SZ EP        151 14.68                             172   -0.1310 20.2 196 
 BRR  HZ EP        151 16.69                             152    0.1710 74.1 300 
 BRR  HN ES   1    151 33.80                             152    0.45 7 74.1 300 
 BRR  HZ I         151 36.35        20.5 0.16                          74.1 300 
 PAM  SZ EP        151 17.60                             151    0.0710 79.3  37 
 PAM  SN ES   1    151 34.82                             151   -0.33 7 79.3  37 
 RUS  HZ EP        151 18.66                             145   -0.0210 97.0 177 
 RUS  HN ES   1    151 37.38                             145    0.18 7 97.0 177 
 RUS  HZ I         151 38.40         8.4 0.32                          97.0 177 
 PTB  HN ES   1    151 42.71                             132   -0.71 7  148 260 
 ZAR  HN ES   1    151 53.53                             122    0.07 6  207 293 
 ZAR  HZ I         152  0.08         7.8 0.12                           207 293 
 NOR  SZ EP   2    151 30.64                             119   -0.08 4  234 235 
 NOR  SN ES   2    151 59.11                             119    0.48 4  234 235 
                                                                                
