 2013  121 0409  1.4 L   6.763 -73.165144.8  RSN  9 0.4 2.3LRSN 2.8WRSN        1
 SPEC AVERAGE  MO 13.3 ST  5.1 OM  2.0 f0 4.87 R0.3078 AL 2.44 WI 17.1 MW  2.8 3
 SPEC SD       MO  0.3 ST  5.4 OM  0.7 f00.714 R0.0395 AL      WI      MW  0.2 3
 GAP= 71        1.14       3.8     4.4  7.0  0.5150E+00  0.7560E+00  0.5340E+01E
 Epicentro: LOS SANTOS - SANTANDER                                             3
 SPEC ZAR HH N MO 13.7 ST 14.4 OM  1.9 f0 6.08 R0.2418 AL 2.58 WI 16.2 MW  3.1 3
 SPEC ZAR HH N T 4 959 K 0.000 GD  250 VS 4.20 DE 3.00 Q0230.0 QA 0.60 VS 4.20 3
 SPEC RUS HH N MO 13.0 ST  1.2 OM  1.4 f0 4.42 R0.3326 AL 2.63 WI 12.3 MW  2.6 3
 SPEC RUS HH N T 4 942 K 0.000 GD  174 VS 4.20 DE 3.00 Q0230.0 QA 0.60 VS 4.20 3
 SPEC PAM SH Z MO 13.1 ST  1.6 OM  0.7 f0 4.68 R0.3141 AL 1.91 WI 15.1 MW  2.7 3
 SPEC PAM SH Z T 4 923 K 0.000 GD  166 VP 7.60 DE 3.00 Q0230.0 QA 0.60 VS 4.20 3
 SPEC BRR HH N MO 13.5 ST  3.3 OM  1.9 f0 4.29 R0.3427 AL 2.65 WI 25.0 MW  2.9 3
 SPEC BRR HH N T 4 939 K 0.000 GD  161 VS 4.20 DE 3.00 Q0230.0 QA 0.60 VS 4.20 3
 ACTION:UPD 13-02-15 09:15 OP:ep   STATUS:               ID:20130121040901 L   I
 2013-01-21-0407-43M.COL___181                                                 6
 STAT SP IPHASW D HRMM SECON CODA AMPLIT PERI AZIMU VELO AIN AR TRES W  DIS CAZ7
 BAR2 SZ EP        4 9 20.86                             172   -0.0110 18.9 186 
 BAR2 SZ ES        4 9 35.50                             172   -0.5310 18.9 186 
 BAR2 SZ I         4 9 36.88        37.6 0.22            171           18.9 186 
 BRR  HZ EP        4 9 22.98                             152    0.4810 71.5 302 
 BRR  HE ES        4 9 39.89                             152    0.9610 71.5 302 
 BRR  HN I         4 9 43.96        47.5 0.20            151           71.5 302 
 PAM  SZ EP        4 9 24.12                             149    0.2910 81.9  39 
 PAM  SZ I         4 9 24.31        14.6 0.24            152           81.9  39 
 PAM  SN ES        4 9 41.19                             149   -0.1010 81.9  39 
 RUS  HZ EP        4 9 24.63                             145   -0.1810 96.6 175 
 RUS  HE ES        4 9 43.23                             145    0.1910 96.6 175 
 RUS  HN I         4 9 44.68        39.3 0.30            146           96.6 175 
 PTB  HZ EP        4 9 27.64                             132   -0.43 9  145 260 
 PTB  HN ES        4 9 48.11                             132   -0.74 9  145 260 
 PTB  HN I         4 9 53.89        20.7 0.20            132            145 260 
 TAM  HZ IP     D  4 9 29.12                             130   -0.01 9  156 103 
 TAM  HZ I         4 9 29.37        16.9 0.36            133            156 103 
 OCA  HN ES        4 9 51.78                             129   -0.57 9  164 354 
 OCA  HE I         4 9 55.92        39.1 0.52            130            164 354 
 ZAR  HN ES        4 9 59.31                             122    0.29 9  204 293 
 ZAR  HE I         410  2.08        49.3 0.18            122            204 293 
 CHI  HZ EP        4 9 38.64                             117    0.05 8  244 195 
 CHI  HE ES        410  7.85                             117    0.28 8  244 195 
 CHI  HN I         410 12.20         5.7 0.58            118            244 195 
                                                                                
