 2016 1021 0434 25.9 L   6.799 -73.144149.4  RSN 14 0.6 1.8LRSN                1
 GAP=119        1.21       4.4     4.6  6.4 -0.3505E+01  0.3630E+01  0.6484E+01E
 Epicentro: LOS SANTOS - SANTANDER                                             3
 ACTION:UPD 16-11-09 19:21 OP:rebc STATUS:               ID:20161021043425 L   I
 OLDACT:UP  16-10-21 16:22 OP:and  STATUS:               ID:20161021042741     3
 OLDACT:UP  16-10-21 16:18 OP:and  STATUS:               ID:20161021042741     3
 OLDACT:UP  16-10-21 16:17 OP:and  STATUS:               ID:20161021042741     3
 OLDACT:REG 16-10-21 13:19 OP:y    STATUS:               ID:20161021042741     3
 2016-10-21-0428-00M.COL___340                                                 6
 STAT SP IPHASW D HRMM SECON CODA AMPLIT PERI AZIMU VELO AIN AR TRES W  DIS CAZ7
 BAR2 EZ EP        434 46.07                             171    0.1510 23.3 190 
 BAR2 EZ ES        435  0.81                             171   -0.7610 23.3 190 
 BAR2 EZ I         435  2.41        11.4 0.16            145           23.3 190 
 BRR  HZ EP        434 47.61                             153    0.2010 71.4 299 
 BRR  HN ES        435  4.71                             153    0.4910 71.4 299 
 PAM  EZ EP        434 49.46                             151    1.0110 77.3  39 
 PAM  EE ES        435  6.19                             151    0.1110 77.3  39 
 PAM  EZ I         435  8.05         8.4 0.50            164           77.3  39 
 RUS  HZ EP        434 50.02                             145    0.0610  100 176 
 RUS  HN ES        435  8.82                             145    0.0610  100 176 
 RUS  HZ I         435  9.59         6.4 0.24            133            100 176 
 PTB  HZ EP        434 52.47                             133   -0.66 9  148 259 
 PTB  HN ES        435 13.64                             133   -0.77 9  148 259 
 PTB  HZ I         435 20.41         5.6 0.19            131            148 259 
 SPBC HZ EP        434 54.77                             130    0.13 9  163 219 
 SPBC HN ES        435 17.05                             130   -0.04 9  163 219 
 SPBC HZ I         435 22.73         9.9 0.10            126            163 219 
 NOR  HZ EP        435  1.60                             119   -0.20 8  235 235 
 NOR  HN ES        435 30.08                             119    0.24 8  235 235 
 NOR  HZ I         435 37.75         6.4 0.14            121            235 235 
 CHI  HZ EP        435  4.14                             118    0.39 8  249 195 
 CHI  HN ES        435 33.59                             118    0.28 8  249 195 
 CHI  HZ I         435 35.69         3.3 0.40            119            249 195 
 ROSC BZ EP   4    435  6.12                             117    1.95 0  253 211 
 HEL  HZ EP   3    435  8.63                             115    2.36 2  272 256 
 HEL  HN ES        435 38.23                             115    0.44 8  272 256 
 HEL  HZ I         435 43.40         3.5 0.36            120            272 256 
 GUY2CHZ EP   9    435 11.52                             113    1.88 0  301 235 
 GUY2CHN ES   2    435 45.17                                   -0.50 4  301 235 
 GUY2CHZ I         435 51.15         2.4 0.23                           301 235 
 PTGC HZ EP        435  9.09                             112   -0.77 7  309 159 
 PTGC HN ES   2    435 43.00                             112   -1.18 4  309 159 
 PTGC HZ I         435 43.70         4.2 0.28            116            309 159 
 PRA  HZ EP   2    435 19.93                             107    0.43 3  392 210 
 PRA  HN ES   2    436  1.79                             107    0.44 3  392 210 
 PRA  HZ I         436  7.31         2.3 0.24            111            392 210 
 SJC  HZ EP        435 19.99                             106   -1.57 6  409 327 
 SJC  HE ES   4    436  0.03                             106   -4.97 0  409 327 
 URI  HZ I         434 28.61         2.2 0.13                           557  13 
                                                                                
