 2014  921 0900 36.8 L   6.786 -73.150143.5  RSN  6 0.4 1.0LRSN                1
 GAP=137        0.99       5.3     5.5  7.7 -0.8338E+01  0.2123E+01  0.5702E+01E
 Epicentro: LOS SANTOS - SANTANDER                                             3
 ACTION:UPD 14-10-03 23:07 OP:nd   STATUS:               ID:20140921090036 L   I
 OLDACT:REG 14-09-21 18:43 OP:spq  STATUS:               ID:20140921085936     3
 2014-09-21-0859-36M.COL___287                                                 6
 STAT SP IPHASW D HRMM SECON CODA AMPLIT PERI AZIMU VELO AIN AR TRES W  DIS CAZ7
 BAR2 SZ ES   1    9 1 10.70                             171   -0.48 7 21.7 189 
 BAR2 SZ I         9 1 12.05         3.0 0.19            170           21.7 189 
 BRR  HZ EP     C  9 0 57.78                             152    0.0710 71.5 300 
 BRR  HN ES        9 1 14.71                             152    0.6910 71.5 300 
 BRR  HZ I         9 1 15.76         2.5 0.28            154           71.5 300 
 PAM  SZ IP     C  9 0 58.95                             150    0.0910 78.9  39 
 PAM  SN ES   1    9 1 15.69                             150   -0.37 7 78.9  39 
 PAM  SZ I         9 1 18.14         1.9 0.54            153           78.9  39 
 RUS  HZ EP   1    9 1  0.33                             144    0.13 7 99.0 176 
 RUS  HN ES   1    9 1 18.45                             144   -0.02 7 99.0 176 
 RUS  HZ I         9 1 20.56         1.0 0.16            144           99.0 176 
 PTB  HZ EP        9 1  2.88                             132   -0.62 9  147 259 
 PTB  HN ES        9 1 23.81                             132   -0.52 9  147 259 
 PTB  HZ I         9 1 26.38         1.6 0.20            133            147 259 
 SPBC HZ EP        9 1  5.44                             129    0.47 9  162 219 
 SPBC HN ES        9 1 27.14                             129    0.20 9  162 219 
 SPBC HZ I         9 1 31.05         1.3 0.26            130            162 219 
                                                                                
