 2012  521 0947 37.7 L   6.799 -73.151144.7  RSN 10 0.4 2.2LRSN                1
 GAP=136        0.75       3.2     3.7  5.4 -0.1639E+01  0.4873E+01  0.1627E+01E
 Epicentro: LOS SANTOS - SANTANDER                                             3
 ACTION:UP  12-07-05 12:06 OP:pat  STATUS:               ID:20120521094737 L   I
 2012-05-21-0940-36M.COL___178                                                 6
 STAT SP IPHASW D HRMM SECON CODA AMPLIT PERI AZIMU VELO SNR AR TRES W  DIS CAZ7
 BAR2 SZ EP        947 57.22                             171     0.010   23 189 
 BAR2 SZ ES   1    948 12.26                             171    -0.1 7   23 189 
 BAR2 SZ I         948 13.76        57.7 0.11                            23 189 
 BRR  HZ EP        947 59.02                             153     0.310   71 299 
 BRR  HE ES   1    948 15.86                             153     0.8 7   71 299 
 PAM  SZ EP        947 59.99                             150     0.210   78  40 
 PAM  SE ES   1    948 17.21                             150     0.1 7   78  40 
 RUS  HZ EP        948  1.11                             144    -0.210  101 176 
 RUS  HN ES   1    948 19.60                             144    -0.2 7  101 176 
 RUS  HZ I         948 21.03        16.6 0.27                           101 176 
 PTB  HN ES   1    948 25.02                             132    -0.4 7  147 259 
 OCA  HZ EP   1    948  6.16                             129     0.2 7  160 353 
 OCA  HE ES   1    948 27.30                             129    -0.7 7  160 353 
 ZAR  HZ EP   1    948  9.63                             122    -0.4 6  204 292 
 ZAR  HE ES   1    948 34.96                             122    -0.3 6  204 292 
 ZAR  HZ I         948 37.92        12.1 0.23                           204 292 
 NOR  SZ EP   1    948 13.15                             118    -0.2 6  234 234 
 NOR  SN ES   1    948 40.90                             118    -0.2 6  234 234 
 HEL  HZ EP   1    948 18.20                             115     0.4 6  271 256 
 HEL  HN ES   2    948 49.12                             115     0.1 4  271 256 
 HEL  HZ I         948 55.19         7.8 0.34                           271 256 
 PRA  HZ EP   1    948 30.83                             106    -0.3 4  392 209 
 PRA  HE ES   1    949 13.54                             106     0.7 4  392 209 
                                                                                
