 2015  121 0707 31.3 L   6.799 -73.142142.4  RSN  8 0.4 1.3LRSN                1
 GAP=137        1.07       3.8     4.6  7.8 -0.1581E+01  0.7298E+01 -0.4812E+00E
 Epicentro: LOS SANTOS - SANTANDER                                             3
 ACTION:UPD 15-03-02 15:41 OP:nd   STATUS:               ID:20150121070731 L   I
 OLDACT:DUP 15-01-21 17:11 OP:carl STATUS:               ID:20150121065743d    3
 2015-01-21-0657-42M.COL___265                                                 6
 STAT SP IPHASW D HRMM SECON CODA AMPLIT PERI AZIMU VELO AIN AR TRES W  DIS CAZ7
 BAR2 EZ EP        7 7 50.28                             170   -0.2010 23.3 191 
 BAR2 EZ ES        7 8  4.86                             170   -0.6210 23.3 191 
 BAR2 EZ I         7 8  6.06         4.5 0.34            171           23.3 191 
 BRR  HZ EP        7 7 52.31                             152    0.2510 71.6 298 
 BRR  HN ES        7 8  8.88                             152    0.5810 71.6 298 
 PAM  SZ EP        7 7 53.39                             150    0.2910 77.2  39 
 PAM  SN ES        7 8 10.45                             150    0.3010 77.2  39 
 PAM  SZ I         7 8 12.14         3.9 0.54            151           77.2  39 
 RUS  HZ EP        7 7 54.79                             143    0.1210  100 176 
 RUS  HE ES        7 8 13.25                             143    0.3210  100 176 
 RUS  HZ I         7 8 14.22         2.5 0.44            145            100 176 
 PTB  HZ EP        7 7 57.79                             131   -0.19 9  148 259 
 PTB  HN ES        7 8 18.90                             131    0.07 9  148 259 
 OCA  HN ES        7 8 20.35                             129   -0.86 9  160 353 
 SPBC HN ES        7 8 21.05                             128   -0.51 9  163 219 
 ZAR  HN ES        7 8 28.99                             122    0.30 9  204 292 
 ZAR  HZ I         7 8 33.70         2.0 0.26            122            204 292 
                                                                                
