 2011  721 0233 12.8 L   6.895 -73.317132.5  RSN  5 0.3 1.4LRSN                1
 GAP=162        0.56       2.8     8.4  7.0 -0.6088E+00  0.2996E+02 -0.6302E+01E
 Epicentro: BETULIA - SANTANDER                                                3
 ACTION:UPD 12-07-25 14:02 OP:epov STATUS:               ID:20110721023312 L   I
 2011-07-21-0230-56S.COL___142                                                 6
 STAT SP IPHASW D HRMM SECON CODA AMPLIT PERI AZIMU VELO AIN AR TRES W  DIS CAZ7
 BAR2 SZ EP        233 31.36                             164    0.1810 36.6 156 
 BAR2 SZ ES   1    233 45.86                             164    0.32 7 36.6 156 
 BAR2 SZ I         233 49.47         5.5 0.18                          36.6 156 
 BRI  SZ EP   1    233 35.67                             139    0.33 7  107  32 
 BRI  SZ I         233 55.48         2.4 0.18                           107  32 
 RUS  HZ EP        233 36.21                             137   -0.0910  114 167 
 RUS  HN ES        233 54.40                             137   -0.2510  114 167 
 GRA  SZ ES   1    233 54.89                             135   -0.36 7  123  27 
 GRA  SZ I         233 55.91         5.9 0.33                           123  27 
 SJC  HZ EP   1    234  5.80                             104    0.12 4  390 328 
 SJC  HZ I         234  8.80         1.2 0.58                           390 328 
 SJC  HN ES   1    234 46.71                             104   -0.24 4  390 328 
                                                                                
