 2010 1221 0845 52.5 L   6.801 -73.163140.0  RSN  5 0.5 1.5LRSN                1
 GAP=157        1.23       6.1    15.8 13.2 -0.3801E+02  0.6048E+02 -0.2500E+02E
 Epicentro: LOS SANTOS - SANTANDER                                             3
 ACTION:UP  11-01-14 15:26 OP:pat  STATUS:               ID:20101221084552 L   I
 2010-12-21-0840-00M.COL___133                                                 6
 STAT SP IPHASW D HRMM SECON CODA AMPLIT PERI AZIMU VELO SNR AR TRES W  DIS CAZ7
 BAR2 SZ IP        846 11.24                             170    -0.210   23 186 
 BAR2 SZ ES   1    846 26.62                             170     0.4 7   23 186 
 BAR2 SZ I         846 28.49         9.2 0.28                            23 186 
 RUS  HZ EP   1    846 15.32                             142    -0.4 7  101 175 
 RUS  HZ I         846 16.19         2.4 0.08                           101 175 
 RUS  HE ES   1    846 33.58                             142    -0.3 7  101 175 
 GRA  SZ IP        846 18.20                             135     0.910  126  18 
 GRA  SZ I         846 19.44         4.7 0.26                           126  18 
 GRA  SZ ES   1    846 36.64                             135     0.0 7  126  18 
 OCA  SZ EP   1    846 19.69                             128    -0.7 7  160 354 
 OCA  SZ ES   1    846 41.47                             128    -0.6 7  160 354 
 OCA  SZ I         846 44.50         5.1 0.41                           160 354 
 NOR  SZ EP   2    846 27.89                             117     0.1 4  233 234 
 NOR  SN ES   2    846 56.13                             117     0.9 4  233 234 
                                                                                
