 2017  821 0440 54.4 L   6.772 -73.111145.9  RSN 11 0.5 1.8LRSN                1
 GAP=142        1.07       3.7     4.4  6.3 -0.1894E+01  0.1210E+02  0.1243E+01E
 Epicentro: LOS SANTOS - SANTANDER                                             3
 ACTION:UPD 17-09-04 20:22 OP:rebc STATUS:               ID:20170821044054 L   I
 OLDACT:DUP 17-08-21 15:19 OP:osc  STATUS:               ID:20170821043742d    3
 2017-08-21-0438-00M.COL___411                                                 6
 STAT SP IPHASW D HRMM SECON CODA AMPLIT PERI AZIMU VELO AIN AR TRES W  DIS CAZ7
 BAR2 EZ IP     C  441 13.86                             171   -0.1710 21.4 202 
 BAR2 EZ ES        441 29.13                             171   -0.1910 21.4 202 
 BAR2 EZ I         441 29.77        17.6 0.14            171           21.4 202 
 BRR  HZ EP        441 16.05                             151    0.1810 76.0 299 
 BRR  HE ES        441 32.89                             151    0.3010 76.0 299 
 BRR  HZ I         441 37.09        18.2 0.14            150           76.0 299 
 PAM  EZ EP        441 16.76                             151    0.1010 77.5  36 
 PAM  EN ES        441 33.65                             151   -0.3510 77.5  36 
 PAM  EZ I         441 36.06         8.1 0.58            154           77.5  36 
 RUS  HZ EP        441 18.20                             145    0.2410 97.3 178 
 RUS  HN ES        441 36.27                             145   -0.0410 97.3 178 
 RUS  HZ I         441 37.43         7.3 0.30            148           97.3 178 
 SPBC HZ EP        441 22.89                             129   -0.05 9  163 221 
 SPBC HE ES        441 45.19                             129    0.01 9  163 221 
 SPBC HZ I         441 49.34         9.2 0.26            131            163 221 
 ZAR  HZ EP        441 27.08                             122   -0.29 8  209 293 
 ZAR  HE ES        441 53.59                             122    0.53 8  209 293 
 ZAR  HZ I         441 58.23         8.4 0.40            123            209 293 
 NOR  HZ EP        441 30.69                             118    0.38 8  236 236 
 NOR  HE ES        441 58.86                             118    0.57 8  236 236 
 NOR  HZ I         442  0.64         4.9 0.24            120            236 236 
 CHI  HN ES        442  0.58                             117   -0.58 8  247 196 
 HEL  HZ EP        441 36.20                             114    1.23 8  275 257 
 HEL  HN ES        442  5.92                             114   -0.68 8  275 257 
 URE  HZ EP        441 35.32                             113   -0.71 7  289 292 
 URE  HE ES   2    442  6.55                             113   -1.93 4  289 292 
 GUY2CHZ EP   4    441 39.79                             112    1.59 0  303 236 
 GUY2CHE ES        442 12.08                             112   -0.25 7  303 236 
 GUY2CHZ I         442 19.31         2.6 0.24                           303 236 
                                                                                
