 2012 1221 0655 41.7 L   6.738 -73.203151.2  RSN  4 0.3 1.3LRSN                1
 GAP=226        0.71       6.7     7.1  7.8  0.2325E+02 -0.2256E+01  0.3908E+01E
 Epicentro: VILLANUEVA - SANTANDER                                             3
 ACTION:UPD 13-01-04 14:29 OP:ep   STATUS:               ID:20121221065541 L   I
 2012-12-21-0650-00M.COL___243                                                 6
 STAT SP IPHASW D HRMM SECON CODA AMPLIT PERI AZIMU VELO AIN AR TRES W  DIS CAZ7
 BAR2 SZ EP   1    656  1.17                             174   -0.71 7 16.2 172 
 BAR2 SZ I         656 17.54         6.9 0.30                          16.2 172 
 BRR  HZ EP        656  3.41                             154    0.0510 69.5 306 
 BRR  HE ES        656 20.39                             154    0.1510 69.5 306 
 BRR  HZ I         656 21.16         4.0 0.09                          69.5 306 
 RUS  HZ EP   1    656  6.08                             147    0.51 7 94.4 172 
 RUS  HN ES   1    656 24.16                             147   -0.03 7 94.4 172 
 RUS  HN I         656 25.35         2.6 0.39                          94.4 172 
 PTB  HZ EP        656  8.49                             135    0.02 9  140 261 
 PTB  HN ES   1    656 29.17                             135   -0.18 7  140 261 
 PTB  HZ I         656 35.29         1.6 0.13                           140 261 
                                                                                
