 2016  221 0119 44.9 L   6.773 -73.125151.5  RSN  8 0.4 1.7LRSN                1
 GAP=140        0.98       3.6     4.3  5.8  0.5160E-01  0.5188E+01  0.3209E+01E
 Epicentro: LOS SANTOS - SANTANDER                                             3
 ACTION:UPD 16-03-04 21:27 OP:rebc STATUS:               ID:20160221011944 L   I
 OLDACT:REG 16-02-21 12:22 OP:drio STATUS:               ID:20160221011749     3
 2016-02-21-0117-49M.COL___331                                                 6
 STAT SP IPHASW D HRMM SECON CODA AMPLIT PERI AZIMU VELO AIN AR TRES W  DIS CAZ7
 BAR2 EZ EP        120  5.01                             172   -0.1910 21.0 198 
 BAR2 EZ ES        120 21.00                             172   -0.0210 21.0 198 
 BAR2 EZ I         120 22.84         8.6 0.44            167           21.0 198 
 BRR  HZ EP        120  7.07                             152    0.1810 74.6 300 
 BRR  HN ES        120 24.71                             152    0.6910 74.6 300 
 BRR  HZ I         120 26.96        10.5 0.26            151           74.6 300 
 PAM  EZ EP        120  8.04                             152    0.2410 78.3  37 
 PAM  EN ES        120 25.35                             152   -0.3010 78.3  37 
 PAM  EZ I         120 27.29         9.5 0.54            158           78.3  37 
 RUS  HZ EP        120  8.90                             146   -0.1310 97.5 177 
 RUS  HE ES        120 27.66                             146   -0.1710 97.5 177 
 RUS  HZ I         120 31.10         2.9 0.42            146           97.5 177 
 PTB  HZ EP        120 11.82                             133   -0.70 9  149 260 
 PTB  HN ES        120 33.22                             133   -0.82 9  149 260 
 PTB  HZ I         120 40.51        10.4 0.48            132            149 260 
 SPBC HZ EP        120 14.02                             130    0.23 9  162 220 
 SPBC HN ES        120 36.73                             130    0.42 9  162 220 
 SPBC HZ I         120 44.23         7.5 0.36            130            162 220 
 ZAR  HZ EP        120 18.09                             123    0.01 8  207 293 
 ZAR  HN ES        120 44.13                             123    0.19 8  207 293 
 ZAR  HZ I         120 50.18         8.1 0.30            124            207 293 
 CHI  HZ EP        120 23.07                             119    0.37 8  246 196 
 CHI  HN ES        120 52.30                             119    0.13 8  246 196 
 CHI  HZ I         121  0.18         2.7 0.54            120            246 196 
                                                                                
