 2016 1221 0127  0.3 L   6.732 -73.154133.4  RSN  9 0.6 1.8LRSN                1
 GAP=138        1.02       3.8     4.9  7.6 -0.3264E+01  0.2082E+02 -0.5983E+00E
 Epicentro: LOS SANTOS - SANTANDER                                             3
 ACTION:UPD 17-01-11 20:17 OP:rebc STATUS:               ID:20161221012700 L   I
 OLDACT:UP  16-12-21 14:34 OP:cog  STATUS:               ID:20161221011743     3
 OLDACT:REG 16-12-21 12:52 OP:cog  STATUS:               ID:20161221011743     3
 2016-12-21-0118-00M.COL___381                                                 6
 STAT SP IPHASW D HRMM SECON CODA AMPLIT PERI AZIMU VELO AIN AR TRES W  DIS CAZ7
 BAR2 EZ EP        127 18.18                             173   -0.1610 15.8 192 
 BAR2 EZ ES        127 32.63                             173    0.2510 15.8 192 
 BRR  HZ EP        127 20.23                             149   -0.1210 74.3 304 
 BRR  HE ES   3    127 38.19                             149    2.23 2 74.3 304 
 PAM  EZ EP        127 21.27                             146   -0.4010 83.8  37 
 PAM  EN ES        127 38.25                             146   -0.0610 83.8  37 
 PAM  EZ I         127 40.57        12.9 0.44            148           83.8  37 
 RUS  HZ EP        127 22.40                             143    0.0710 93.2 175 
 RUS  HN ES        127 39.59                             143    0.1010 93.2 175 
 PTB  HZ EP        127 26.05                             129   -0.07 9  146 262 
 PTB  HN ES   3    127 45.05                             129   -1.18 2  146 262 
 PTB  HZ I         127 48.39         9.2 0.26            130            146 262 
 ZAR  HZ EP        127 32.29                             119    0.06 8  206 294 
 ZAR  HN ES        127 57.39                             119    0.28 8  206 294 
 NOR  HZ EP   3    127 36.20                             116    1.38 2  230 236 
 NOR  HN ES        128  0.91                             116   -0.82 8  230 236 
 CHI  HN EP   4    127 38.56                             115    2.01 0  241 195 
 CHI  HE ES        128  4.88                             115    0.09 8  241 195 
 CHI  HN I         128 12.28         3.5 0.38            115            241 195 
 GUY2CHZ EP        127 44.21                             110    1.39 7  296 236 
 GUY2CHN ES        128 15.53                             110   -0.44 7  296 236 
 GUY2CHZ I         128 25.61         3.1 0.46                           296 236 
                                                                                
