 2014  921 0054 12.0 L   6.799 -73.116151.4  RSN 13 0.3 1.7LRSN                1
 GAP=140        0.79       2.7     3.6  4.8 -0.1238E+01  0.3464E+01  0.7396E+00E
 Epicentro: LOS SANTOS - SANTANDER                                             3
 ACTION:UPD 14-10-03 23:06 OP:nd   STATUS:               ID:20140921005412 L   I
 OLDACT:REG 14-09-21 12:42 OP:spq  STATUS:               ID:20140921004820     3
 2014-09-21-0048-20M.COL___290                                                 6
 STAT SP IPHASW D HRMM SECON CODA AMPLIT PERI AZIMU VELO AIN AR TRES W  DIS CAZ7
 BAR2 SZ EP        054 32.16                             171   -0.1110 24.0 198 
 BAR2 SZ ES   1    054 47.73                             171   -0.39 7 24.0 198 
 BAR2 SZ I         054 49.93         5.6 0.12            169           24.0 198 
 BRR  HZ EP     C  054 34.02                             153    0.1510 74.2 297 
 BRR  HN ES        054 51.51                             153    0.5410 74.2 297 
 BRR  HZ I         054 55.85         6.8 0.24            151           74.2 297 
 PAM  SZ EP        054 35.08                             152    0.4210 75.5  38 
 PAM  SE ES        054 52.31                             152   -0.0610 75.5  38 
 PAM  SZ I         054 54.33         6.1 0.20            156           75.5  38 
 RUS  HZ EP   1    054 36.14                             145   -0.10 7  100 178 
 RUS  HN ES   1    054 54.93                             145   -0.25 7  100 178 
 RUS  HZ I         054 56.17         2.4 0.40            148            100 178 
 PTB  HZ EP        054 39.08                             133   -0.59 9  151 259 
 PTB  HE ES        055  1.13                             133   -0.15 9  151 259 
 PTB  HZ I         055  6.01         6.7 0.20            133            151 259 
 OCA  HN ES        055  2.89                             131   -0.33 9  161 352 
 OCA  HZ I         055  8.18         5.0 0.30            133            161 352 
 SPBC HZ EP        054 41.07                             130    0.00 9  165 220 
 SPBC HN ES        055  4.10                             130    0.32 9  165 220 
 SPBC HZ I         055 10.29         9.3 0.38            131            165 220 
 ZAR  HZ EP   1    054 45.56                             123    0.48 6  207 292 
 ZAR  HN ES        055 10.78                             123   -0.15 8  207 292 
 ZAR  HZ I         055 16.55         6.4 0.26            124            207 292 
 SML  HZ EP        054 48.83                             118   -0.23 8  245 335 
 SML  HE ES   1    055 18.25                             118    0.24 6  245 335 
 SML  HZ I         055 20.72         8.4 0.24            120            245 335 
 GUY2CHZ EP   1    054 55.57                             113   -0.54 5  304 235 
 GUY2CHN ES   4    055 33.64                             113    3.08 0  304 235 
 GUY2CHZ I         055 39.01         4.4 0.76                           304 235 
 MON  HZ EP   4    054 59.32                             109   -2.16 0  356 308 
 MON  HE ES   4    055 38.51                             109   -1.61 0  356 308 
 MON  HZ I         055 40.29         1.2 0.46            111            356 308 
 PRA  HZ EP        055  6.59                             107    0.75 6  393 210 
 PRA  HN ES   4    055 49.50                             107    1.62 0  393 210 
 PRA  HZ I         055 53.48         2.3 0.32            109            393 210 
 SJC  HZ EP   4    055  6.50                             106   -1.43 0  411 327 
 SJC  HN ES   4    055 49.43                             106   -2.16 0  411 327 
 SJC  HZ I         055 55.01         0.8 0.47            108            411 327 
                                                                                
