 2015  521 0054  1.0 L   6.847 -73.318119.7  RSN  6 0.1 1.8LRSN                1
 GAP=173        0.37       1.9     2.6  2.9  0.1987E+01  0.1008E+01 -0.9598E+00E
 Epicentro: ZAPATOCA - SANTANDER                                               3
 ACTION:UPD 15-09-10 22:05 OP:cam  STATUS:               ID:20150521005401 L   I
 OLDACT:REG 15-05-21 12:31 OP:spq  STATUS:               ID:20150521004749     3
 2015-05-21-0047-49M.COL___291                                                 6
 STAT SP IPHASW D HRMM SECON CODA AMPLIT PERI AZIMU VELO AIN AR TRES W  DIS CAZ7
 BAR2 EZ EP        054 17.76                             164    0.0310 31.9 152 
 BAR2 EZ ES   1    054 30.64                             164   -0.16 7 31.9 152 
 BAR2 EZ I         054 31.62        28.5 0.26            166           31.9 152 
 BRR  HZ EP        054 18.03                             155   -0.2210 52.2 303 
 BRR  HN ES        054 31.85                             155    0.1310 52.2 303 
 BRR  HZ I         054 32.39        20.4 0.14            152           52.2 303 
 RUS  HZ EP   1    054 22.97                             135    0.02 7  109 166 
 RUS  HE ES   1    054 40.26                             135    0.17 7  109 166 
 RUS  HZ I         054 41.84         3.0 0.29            135            109 166 
 ZAR  HZ EP   1    054 30.02                             119    0.26 7  185 293 
 ZAR  HE ES   1    054 52.18                             119   -0.02 7  185 293 
 ZAR  HZ I         054 55.44         7.7 0.30            117            185 293 
 NOR  HN ES   1    054 59.62                             114   -0.14 6  223 231 
 NOR  HZ I         055  2.05         4.6 0.23            113            223 231 
 SML  HZ EP        054 34.87                             113   -0.04 8  232 339 
 SML  HN ES   1    055  1.44                             113    0.06 6  232 339 
 SML  HZ I         055  8.26         8.0 0.08            111            232 339 
                                                                                
