 2016 1121 0540 22.9 L   6.713 -73.136146.1  RSN  6 0.4 1.4LRSN                1
 GAP=123        0.91       4.7     3.9  6.1  0.4890E+01  0.3235E+01  0.1034E+02E
 Epicentro: JORDAN - SANTANDER                                                 3
 ACTION:UPD 17-10-26 21:10 OP:lp   STATUS:               ID:20161121054022 L   I
 OLDACT:REG 16-11-21 14:33 OP:edw  STATUS:               ID:20161121053750     3
 2016-11-21-0538-00M.COL___342                                                 6
 STAT SP IPHASW D HRMM SECON CODA AMPLIT PERI AZIMU VELO AIN AR TRES W  DIS CAZ7
 BAR2 EZ EP        540 42.71                             174    0.3310 14.3 201 
 BAR2 EZ ES        540 57.84                             174    0.2410 14.3 201 
 BAR2 EZ I         541  0.35         7.0 0.21            173           14.3 201 
 BRR  HZ EP        540 44.51                             151    0.1210 77.2 304 
 BRR  HN ES        541  1.63                             151    0.4510 77.2 304 
 BRR  HZ I         541  5.61         4.1 0.26            151           77.2 304 
 PAM  EZ EP        540 45.66                             149    0.1310 84.4  35 
 PAM  EN ES        541  2.64                             149   -0.5810 84.4  35 
 PAM  EZ I         541  5.73         3.3 0.25            152           84.4  35 
 PTB  HZ EP        540 49.44                             132   -0.37 9  147 263 
 PTB  HN ES        541 10.59                             132   -0.24 9  147 263 
 PTB  HZ I         541 15.53         2.4 0.14            133            147 263 
 ZAR  HZ EP        540 56.28                             122    0.46 8  209 294 
 ZAR  HN ES        541 21.00                             122   -0.53 8  209 294 
 ZAR  HZ I         541 25.86         2.5 0.24            124            209 294 
 PTGC HZ EP        541  5.82                             112    0.15 7  299 158 
 PTGC HN ES        541 38.70                             112   -0.36 7  299 158 
                                                                                
