 2013  421 0956 38.4 L   6.781 -73.183144.0  RSN  5 0.4 1.6LRSN                1
 GAP=197        0.83       5.1     6.9  6.5  0.1416E+02  0.1557E+01 -0.9744E+01E
 Epicentro: LOS SANTOS - SANTANDER                                             3
 ACTION:UPD 13-05-22 14:39 OP:EP   STATUS:               ID:20130421095638 L   I
 2013-04-21-0950-00M.COL___250                                                 6
 STAT SP IPHASW D HRMM SECON CODA AMPLIT PERI AZIMU VELO AIN AR TRES W  DIS CAZ7
 BAR2 SZ EP        956 57.82                             171    0.0610 20.9 180 
 BAR2 SZ ES        957 12.48                             171   -0.3910 20.9 180 
 BAR2 SZ I         957 26.79        11.7 0.44            175           20.9 180 
 BRR  HZ IP     D  956 59.65                             153    0.4410 68.7 302 
 BRR  HN ES   1    957 15.95                             153    0.51 7 68.7 302 
 BRR  HZ I         957 20.32         8.0 0.12            159           68.7 302 
 RUS  HZ EP        957  2.09                             144    0.2510 98.8 174 
 RUS  HN ES   1    957 19.93                             144   -0.20 7 98.8 174 
 RUS  HZ I         957 22.43         3.6 0.38            153           98.8 174 
 PTB  HZ EP        957  4.89                             132    0.08 9  143 259 
 PTB  HN ES   1    957 25.00                             132   -0.42 7  143 259 
 PTB  HZ I         957 27.75         6.1 0.14            143            143 259 
 SML  HZ EP        957 14.32                             117   -0.62 8  244 336 
 SML  HN ES   1    957 43.43                             117   -0.02 6  244 336 
                                                                                
