 2011  521 0622 34.2 L   6.820 -73.084138.0  RSN  9 0.3 1.9LRSN                1
 GAP=144        0.81       3.8     7.4  7.1 -0.4053E+01 -0.3967E+01 -0.3973E+01E
 Epicentro: LOS SANTOS - SANTANDER                                             3
 ACTION:UP  11-06-29 08:55 OP:tino STATUS:               ID:20110521062234 L   I
 2011-05-21-0616-40S.COL___141                                                 6
 STAT SP IPHASW D HRMM SECON CODA AMPLIT PERI AZIMU VELO SNR AR TRES W  DIS CAZ7
 BTL  SZ EP   1    622 53.72                             170     0.8 7   23 298 
 BAR2 SZ EP   1    622 53.02                             168     0.0 7   27 203 
 BAR2 SZ I         622 53.35        14.3 0.09                            27 203 
 BAR2 SZ ES   1    623  7.30                             168    -0.4 7   27 203 
 GIR2 SZ EP   1    622 53.02                             167     0.0 7   31 337 
 PAM  SZ EP   1    622 55.36                             151     0.1 7   71  36 
 PAM  SN ES   1    623 11.98                             151     0.3 7   71  36 
 BRR  HZ EP   1    622 54.69                             149    -0.2 7   76 295 
 BRR  HN ES   1    623 11.33                             149     0.4 7   76 295 
 BRR  HZ I         623 14.63        22.0 0.13                            76 295 
 RUS  HZ EP   1    622 56.95                             142    -0.4 7  103 180 
 RUS  HN ES   1    623 15.35                             142    -0.1 7  103 180 
 RUS  HZ I         623 17.23         8.9 0.33                           103 180 
 BRI  SZ EP   1    622 57.34                             141     0.3 7  104  18 
 GRA  SZ EP   1    622 58.56                             136     0.1 7  122  15 
 GRA  SZ ES   1    623 17.08                             136    -0.3 7  122  15 
 GRA  SZ I         623 19.44        11.9 0.33                           122  15 
 OCA  SZ EP   1    623  1.64                             128    -0.2 7  159 351 
 OCA  SZ ES   1    623 22.78                             128    -0.6 7  159 351 
 OCA  SZ I         623 26.66        11.8 0.37                           159 351 
                                                                                
