 2015 1021 0445 44.1 L   6.807 -73.132148.9  RSN 10 0.4 2.0LRSN                1
 GAP=138        1.02       3.1     4.9  6.3 -0.1831E+01  0.9026E+01 -0.2568E+01E
 Epicentro: LOS SANTOS - SANTANDER                                             3
 ACTION:UPD 15-12-22 20:41 OP:cam  STATUS:               ID:20151021044544 L   I
 OLDACT:UP  15-10-21 15:56 OP:mh   STATUS:               ID:20151021043751d    3
 OLDACT:DUP 15-10-21 15:35 OP:mh   STATUS:               ID:20151021043751d    3
 OLDACT:REG 15-10-21 12:17 OP:mh   STATUS:               ID:20151021043750     3
 2015-10-21-0437-50M.COL___322                                                 6
 STAT SP IPHASW D HRMM SECON CODA AMPLIT PERI AZIMU VELO AIN AR TRES W  DIS CAZ7
 BAR2 EZ EP        446  4.06                             170   -0.0810 24.4 193 
 BAR2 EZ ES        446 19.60                             170   -0.1610 24.4 193 
 BAR2 EZ I         446 20.39        18.5 0.24            170           24.4 193 
 BRR  HZ EP        446  6.03                             153    0.3810 72.2 297 
 BRR  HE ES        446 23.21                             153    0.7610 72.2 297 
 BRR  HZ I         446 27.13        13.1 0.12            148           72.2 297 
 PAM  EZ IP     D  446  7.30                             152    0.7310 75.8  39 
 PAM  EN ES        446 24.20                             152    0.1210 75.8  39 
 PAM  EZ I         446 27.37        12.5 0.46            154           75.8  39 
 RUS  HZ EP   1    446  8.28                             144    0.06 7  101 177 
 RUS  HN ES        446 26.38                             144   -0.6410  101 177 
 RUS  HZ I         446 28.08         8.0 0.46            148            101 177 
 OCA  HZ EP   1    446 12.28                             130   -0.33 7  160 353 
 OCA  HE ES        446 34.26                             130   -0.58 9  160 353 
 OCA  HZ I         446 42.10        24.3 0.48            130            160 353 
 SPBC HZ EP   1    446 13.12                             129    0.12 7  165 219 
 SPBC HN ES        446 35.30                             129   -0.23 9  165 219 
 SPBC HZ I         446 39.52        17.6 0.30            130            165 219 
 ZAR  HN ES        446 42.22                             123   -0.21 9  205 292 
 ZAR  HZ I         446 47.10        11.1 0.32            122            205 292 
 NOR  HZ EP        446 20.39                             119    0.18 8  236 235 
 NOR  HE ES   1    446 48.73                             119    0.37 6  236 235 
 NOR  HZ I         446 53.54         7.3 0.22            120            236 235 
 SML  HZ EP        446 20.55                             118   -0.36 8  244 335 
 SML  HN ES        446 49.23                             118   -0.38 8  244 335 
 SML  HZ I         446 58.88        12.5 0.10            118            244 335 
 URE  HN ES   4    446 54.66                             114   -3.05 0  285 292 
 URE  HZ I         447  5.75         4.6 0.28            114            285 292 
 GUY2CHZ EP   4    446 29.54                             113    1.48 0  303 235 
 GUY2CHN ES   4    447  6.04                             113    3.71 0  303 235 
 VIL  SN ES   4    447  0.79                             112   -1.08 0  304 192 
                                                                                
