 2014  121 0451 35.0 L   6.836 -73.126144.9  RSN  6 0.4 1.4LRSN                1
 GAP=280        0.95       7.2     7.1  7.7  0.1562E+02  0.1155E+02  0.8528E+01E
 Epicentro: LOS SANTOS - SANTANDER                                             3
 ACTION:UPD 14-03-13 09:57 OP:ep   STATUS:               ID:20140121045135 L   I
 OLDACT:REG 14-01-21 06:44 OP:nd   STATUS:               ID:20140121045000     3
 2014-01-21-0450-00M.COL___279                                                 6
 STAT SP IPHASW D HRMM SECON CODA AMPLIT PERI AZIMU VELO AIN AR TRES W  DIS CAZ7
 BAR2 SZ EP        451 54.78                             169    0.1310 27.7 193 
 BAR2 SZ ES        452 10.06                             169    0.1110 27.7 193 
 BAR2 SZ I         452 12.69         6.4 0.50            169           27.7 193 
 RUS  HZ EP        451 59.49                             143    0.5210  104 177 
 RUS  HN ES        452 17.09                             143   -0.5610  104 177 
 RUS  HZ I         452 20.17         1.9 0.28            143            104 177 
 PTB  HZ EP        452  1.83                             131   -0.36 9  151 258 
 PTB  HN ES        452 23.49                             131    0.10 9  151 258 
 PTB  HZ I         452 25.23         5.4 0.12            131            151 258 
 SML  HZ EP   4    452 11.55                             117    0.24 0  241 334 
 SML  HN ES   4    452 39.28                             117   -0.33 0  241 334 
 SML  HZ I         452 44.41         4.1 0.24            117            241 334 
 CHI  HZ EP        452 12.70                             116   -0.46 8  253 195 
 CHI  HN ES        452 43.40                             116    0.50 8  253 195 
 CHI  HZ I         452 50.65         1.6 0.34            117            253 195 
 GUY2CHZ EP   4    452 21.40                             112    2.34 0  305 234 
 GUY2CHN ES   4    452 55.03                             112    1.62 0  305 234 
 GUY2CHZ I         453  2.83         0.9 0.30                           305 234 
                                                                                
