 2015 1121 0305 55.2 L   6.815 -73.136139.4  RSN 22 0.5 2.6LRSN                1
 GAP=137        1.13       2.8     4.0  5.3 -0.1483E+01  0.6676E+01  0.2945E+01E
 Epicentro: LOS SANTOS - SANTANDER                                             3
 ACTION:UPD 15-12-28 16:12 OP:cam  STATUS:               ID:20151121030555 L   I
 OLDACT:REG 15-11-21 12:39 OP:dnl  STATUS:               ID:20151121025748     3
 2015-11-21-0257-48M.COL___319                                                 6
 STAT SP IPHASW D HRMM SECON CODA AMPLIT PERI AZIMU VELO AIN AR TRES W  DIS CAZ7
 BAR2 EZ IP     C  3 6 14.28                             169    0.1310 25.1 192 
 BAR2 EZ ES        3 6 28.05                             169   -0.8510 25.1 192 
 BAR2 EZ I         3 6 30.44        70.8 0.36            166           25.1 192 
 BRR  HZ EP     C  3 6 16.06                             151    0.3410 71.4 297 
 BRR  HN ES        3 6 32.68                             151    0.9810 71.4 297 
 BRR  HZ I         3 6 35.63        58.5 0.15            146           71.4 297 
 PAM  EZ EP     C  3 6 17.03                             150    0.3610 75.4  40 
 PAM  EE ES        3 6 33.98                             150    0.6010 75.4  40 
 PAM  EZ I         3 6 36.41        57.0 0.55            154           75.4  40 
 RUS  HZ EP     C  3 6 18.26                             142   -0.2410  102 177 
 RUS  HN ES        3 6 36.47                             142   -0.1610  102 177 
 RUS  HZ I         3 6 38.19        32.4 0.50            144            102 177 
 PTB  HZ EP        3 6 21.12                             130   -0.71 9  149 258 
 PTB  HN ES        3 6 42.03                             130   -0.54 9  149 258 
 PTB  HZ I         3 6 43.50        46.9 0.14            128            149 258 
 OCA  HZ EP   2    3 6 22.83                             128   -0.10 5  159 353 
 OCA  HN ES        3 6 44.06                             128   -0.46 9  159 353 
 OCA  HZ I         3 6 47.32       104.0 0.17            128            159 353 
 SPBC HZ EP        3 6 23.21                             127   -0.25 9  165 219 
 SPBC HN ES        3 6 45.00                             127   -0.46 9  165 219 
 SPBC HZ I         3 6 53.00        57.6 0.19            126            165 219 
 ZAR  HZ EP        3 6 27.05                             121   -0.28 9  204 292 
 ZAR  HN ES        3 6 52.24                             121   -0.11 9  204 292 
 ZAR  HZ I         3 6 58.40        47.6 0.23            119            204 292 
 NOR  HZ EP        3 6 30.75                             117   -0.07 8  237 234 
 NOR  HE ES        3 6 58.71                             117    0.15 8  237 234 
 NOR  HZ I         3 7  4.34        33.9 0.23            116            237 234 
 SML  HZ EP        3 6 30.69                             116   -0.72 8  243 335 
 SML  HE ES   1    3 6 59.89                             116    0.27 6  243 335 
 SML  HZ I         3 7  7.49        65.3 0.11            116            243 335 
 ROSC BZ EP        3 6 34.47                             115    1.23 8  255 211 
 ROSC BN ES   4    3 7  5.15                             115    2.27 0  255 211 
 ROSC BZ I         3 7  9.09        49.8 0.80            115            255 211 
 HEL  HZ EP        3 6 35.59                             113    0.28 8  274 256 
 HEL  HN ES   1    3 7  6.86                             113    0.31 6  274 256 
 HEL  HZ I         3 7 12.58        19.9 0.16            113            274 256 
 URE  HZ EP   4    3 6 34.56                             112   -1.50 0  284 292 
 URE  HN ES   4    3 7  5.08                             112   -2.82 0  284 292 
 URE  HZ I         3 7 17.25        31.1 0.20            112            284 292 
 VIL  SZ EP        3 6 38.23                             111   -0.36 7  305 192 
 VIL  SN ES        3 7 12.74                             111    0.34 7  305 192 
 ELA  HZ EP   4    3 6 43.78                             109    1.72 0  331 229 
 ELA  HN ES   2    3 7 18.72                             109    0.16 3  331 229 
 ELA  HZ I         3 7 26.49        13.6 0.31            109            331 229 
 CBOC HZ EP   2    3 6 42.45                             109    0.37 3  335 252 
 CBOC HN ES        3 7 19.35                             109    0.73 7  335 252 
 CBOC HZ I         3 7 29.38         5.6 0.28            108            335 252 
 MON  HN ES   4    3 7 19.88                             107   -2.13 0  354 308 
 MON  HZ I         3 7 35.53        10.9 0.71            107            354 308 
 ANIL HZ EP   2    3 6 46.03                             107    0.99 3  359 224 
 ANIL HN ES   2    3 7 23.62                             107   -0.26 3  359 224 
 PRA  HZ EP        3 6 48.22                             105   -0.57 6  394 210 
 PRA  HN ES        3 7 30.80                             105    0.26 6  394 210 
 PRA  HZ I         3 7 36.75        20.9 0.34            106            394 210 
 ORTC HZ EP   1    3 6 48.95                             105   -0.24 4  397 216 
 ORTC HN ES        3 7 32.35                             105    1.09 6  397 216 
 ORTC HZ I         3 7 38.64        15.6 0.17            106            397 216 
 PAL  HZ EP        3 6 50.15                             105   -0.26 6  407 239 
 PAL  HN ES   1    3 7 32.97                             105   -0.47 4  407 239 
 PAL  HZ I         3 7 40.31         3.3 0.15            105            407 239 
 SJC  HZ EP   4    3 6 48.09                             105   -2.43 0  408 327 
 SJC  HN ES   4    3 7 29.69                             105   -3.94 0  408 327 
 SJC  HZ I         3 7 33.90         6.5 0.51            105            408 327 
                                                                                
