 2011  921 0537 52.6 L   6.690 -73.069130.3  RSN  4 0.4 1.4LRSN                1
 GAP=222        1.02      13.2    21.3 10.7  0.2321E+03 -0.9312E+02 -0.5568E+02E
 Epicentro: ARATOCA - SANTANDER                                                3
 ACTION:UPD 12-07-13 15:58 OP:ep   STATUS:               ID:20110921053752 L   I
 2011-09-21-0534-29S.COL___165                                                 6
 STAT SP IPHASW D HRMM SECON CODA AMPLIT PERI AZIMU VELO AIN AR TRES W  DIS CAZ7
 BAR2 SZ EP        538 10.66                             173    0.4010 16.5 229 
 BAR2 SZ I         538 11.38         5.1 0.12                          16.5 229 
 BAR2 SZ ES        538 23.57                             173   -0.4510 16.5 229 
 BTL  SZ EP        538 11.00                             165    0.3210 33.5 319 
 BRR  HZ EP        538 12.36                             145   -0.6610 84.8 303 
 BRR  HN ES        538 29.27                             145    0.3410 84.8 303 
 BRR  HZ I         538 31.93         9.8 0.24                          84.8 303 
 RUS  HZ EP   1    538 13.82                             144   -0.13 7 88.1 181 
 RUS  HZ I         538 15.60         2.6 0.09                          88.1 181 
 RUS  HE ES   1    538 30.80                             144    0.21 7 88.1 181 
                                                                                
