 2015  521 0956 28.5 L   6.746 -73.114140.3  RSN  8 0.5 1.6LRSN                1
 GAP=237        1.17       6.2     6.3  8.1  0.7828E+01  0.2302E+02  0.9809E+01E
 Epicentro: LOS SANTOS - SANTANDER                                             3
 ACTION:UPD 15-09-10 22:05 OP:cam  STATUS:               ID:20150521095628 L   I
 OLDACT:UP  15-05-21 16:00 OP:ak   STATUS:               ID:20150521094749d    3
 OLDACT:DUP 15-05-21 15:52 OP:ak   STATUS:               ID:20150521094749d    3
 2015-05-21-0947-48M.COL___276                                                 6
 STAT SP IPHASW D HRMM SECON CODA AMPLIT PERI AZIMU VELO AIN AR TRES W  DIS CAZ7
 BAR2 EZ IP     C  956 47.57                             172    0.1710 18.6 204 
 BAR2 EZ ES        957  1.19                             172   -0.9410 18.6 204 
 BAR2 EZ I         957  3.93         6.5 0.16            168           18.6 204 
 BRR  HZ EP        956 49.65                             149    0.2110 77.2 301 
 BRR  HE ES        957  6.31                             149    0.5510 77.2 301 
 BRR  HZ I         957 10.08        13.6 0.30            147           77.2 301 
 RUS  HZ EP        956 51.67                             144    0.3910 94.4 178 
 RUS  HN ES   1    957  9.45                             144    0.41 7 94.4 178 
 RUS  HZ I         957 11.01         3.2 0.26            147           94.4 178 
 ZAR  HZ EP        957  0.46                             120   -0.73 8  210 293 
 ZAR  HN ES        957 27.15                             120    0.47 8  210 293 
 ZAR  HZ I         957 32.51         3.9 0.29            121            210 293 
 NOR  HZ EP   1    957  3.86                             117   -0.01 6  234 236 
 NOR  HN ES        957 31.39                             117   -0.07 8  234 236 
 NOR  HZ I         957 37.61         3.4 0.16            118            234 236 
 HEL  HZ EP        957  8.39                             113   -0.29 8  274 257 
 HEL  HN ES        957 39.27                             113   -0.74 8  274 257 
 HEL  HZ I         957 46.23         3.2 0.42            114            274 257 
 GUY2CHZ EP   1    957 11.42                             111   -0.40 5  301 236 
 GUY2CHN ES        957 46.19                             111    0.60 7  301 236 
 GUY2CHZ I         957 53.83         2.6 0.36                           301 236 
 MON  HZ EP   4    957 14.94                             107   -3.12 0  360 309 
 MON  HN ES   4    957 52.88                             107   -3.83 0  360 309 
 MON  HZ I         958  1.61         0.7 0.37            109            360 309 
 SJC  HZ EP   4    957 21.65                             104   -3.07 0  416 327 
 SJC  HN ES   4    958  4.96                             104   -3.60 0  416 327 
                                                                                
