 2013 1121 0226 22.4 L   6.125 -73.691 89.3  RSN  4 0.5 1.0LRSN                1
 GAP=188        1.40       8.1     6.9 16.0  0.2585E+02  0.1656E+02 -0.1216E+01E
 Epicentro: CHIPATA - SANTANDER                                                3
 ACTION:UPD 14-01-09 16:29 OP:ep   STATUS:               ID:20131121022622 L   I
 OLDACT:DUP 13-11-21 11:01 OP:mh   STATUS:               ID:20131121022003d    3
 OLDACT:DUP 13-11-21 10:46 OP:mh   STATUS:               ID:20131121022002d    3
 2013-11-21-0220-00M.COL___282                                                 6
 STAT SP IPHASW D HRMM SECON CODA AMPLIT PERI AZIMU VELO AIN AR TRES W  DIS CAZ7
 RUS  HZ EP        226 39.42                             139    0.8410 72.0 111 
 RUS  HN ES        226 50.81                             139   -0.3910 72.0 111 
 RUS  HZ I         226 54.08         0.7 0.31            141           72.0 111 
 BAR2 SZ EP        226 38.59                             136   -0.0010 76.4  47 
 BAR2 SZ ES        226 51.07                             136   -0.1510 76.4  47 
 BAR2 SZ I         226 53.88        10.9 0.38            139           76.4  47 
 PTB  HN ES        226 53.86                             129   -0.0410 96.3 298 
 BRR  HZ EP        226 40.40                             125   -0.8910  109 359 
 BRR  HZ I         226 40.85         2.6 0.10            129            109 359 
 BRR  HN ES        226 56.66                             125    0.6310  109 359 
                                                                                
