 2014  921 0941 60.0 L   6.769 -73.099141.9  RSN  8 0.4 1.1LRSN                1
 GAP=144        0.85       3.6     3.9  6.6 -0.7084E+00  0.4720E+01 -0.4750E+01E
 Epicentro: LOS SANTOS - SANTANDER                                             3
 ACTION:UPD 14-10-03 23:07 OP:nd   STATUS:               ID:20140921094160 L   I
 OLDACT:REG 14-09-21 13:49 OP:spq  STATUS:               ID:20140921093819     3
 2014-09-21-0938-19M.COL___269                                                 6
 STAT SP IPHASW D HRMM SECON CODA AMPLIT PERI AZIMU VELO AIN AR TRES W  DIS CAZ7
 BAR2 SZ EP   1    942 18.46                             171   -0.64 7 21.6 205 
 BAR2 SZ ES   1    942 33.50                             171   -0.52 7 21.6 205 
 BAR2 SZ I         942 36.05         2.5 0.46            172           21.6 205 
 PAM  SZ EP        942 22.00                             150    0.2510 77.0  35 
 PAM  SN ES   1    942 38.72                             150   -0.02 7 77.0  35 
 PAM  SZ I         942 41.05         3.4 0.44            152           77.0  35 
 BRR  HZ EP   2    942 21.03                             150   -0.04 5 77.4 299 
 BRR  HE ES   1    942 38.14                             150    0.61 7 77.4 299 
 BRR  HZ I         942 44.76         3.5 0.38            149           77.4 299 
 RUS  HZ EP        942 23.58                             144    0.5110 96.9 179 
 RUS  HE ES   1    942 41.00                             144   -0.10 7 96.9 179 
 RUS  HZ I         942 42.49         1.3 0.36            151           96.9 179 
 PTB  HZ EP        942 26.35                             130   -0.68 9  152 260 
 PTB  HN ES        942 48.07                             130   -0.08 9  152 260 
 PTB  HZ I         942 49.95         1.3 0.22            133            152 260 
 SPBC HN ES        942 50.46                             128    0.17 9  164 221 
 SPBC HZ I         942 50.86         2.1 0.46            133            164 221 
 ZAR  HZ EP   1    942 33.14                             121    0.34 6  210 292 
 ZAR  HN ES        942 58.53                             121    0.12 8  210 292 
 ZAR  HZ I         943  4.30         1.0 0.25            123            210 292 
 SML  HZ EP   1    942 36.90                             116   -0.06 6  249 335 
 SML  HN ES   1    943  5.61                             116   -0.20 6  249 335 
 SML  HZ I         943 10.33         1.5 0.11            119            249 335 
                                                                                
