 2016  421 0414  2.7 L   6.801 -73.138138.6  RSN 13 0.4 1.9LRSN                1
 GAP=137        0.91       2.5     3.1  5.1 -0.1343E+01  0.6993E+01  0.2277E+00E
 Epicentro: LOS SANTOS - SANTANDER                                             3
 ACTION:UPD 16-05-05 14:23 OP:rebc STATUS:               ID:20160421041402 L   I
 OLDACT:UP  16-04-21 16:40 OP:cara STATUS:               ID:20160421040746     3
 OLDACT:ARG 16-04-21 12:49 OP:cara STATUS:               ID:20160421040746     3
 2016-04-21-0407-46M.COL___301                                                 6
 STAT SP IPHASW D HRMM SECON CODA AMPLIT PERI AZIMU VELO AIN AR TRES W  DIS CAZ7
 BAR2 EZ IP        414 21.50                             170    0.0010 23.6 192 
 BAR2 EZ ES        414 36.54                             170    0.4010 23.6 192 
 BAR2 EZ I         414 39.33        15.7 0.24            168           23.6 192 
 PAM  EZ EP     D  414 24.24                             150    0.1010 76.8  39 
 PAM  EZ I         414 24.57        21.2 0.24            155           76.8  39 
 PAM  EN ES        414 40.87                             150    0.0210 76.8  39 
 RUS  HZ EP        414 25.63                             142   -0.1510  101 177 
 RUS  HE ES        414 44.16                             142    0.4010  101 177 
 RUS  HZ I         414 46.91         8.3 0.40            145            101 177 
 PTB  HZ EP        414 28.31                             130   -0.88 9  149 259 
 PTB  HN ES        414 49.02                             130   -0.81 9  149 259 
 PTB  HZ I         414 56.67        14.2 0.52            131            149 259 
 OCA  HZ EP        414 30.61                             128    0.12 9  160 353 
 OCA  HE ES        414 51.66                             128   -0.48 9  160 353 
 OCA  HZ I         414 56.39        26.0 0.18            131            160 353 
 SPBC HZ IP        414 30.55                             127   -0.19 9  164 219 
 SPBC HN ES        414 52.29                             127   -0.30 9  164 219 
 SPBC HZ I         414 55.17        15.7 0.32            129            164 219 
 ZAR  HZ EP        414 35.23                             121    0.44 9  205 292 
 ZAR  HN ES        414 59.97                             121    0.17 9  205 292 
 ZAR  HZ I         415  5.85         7.2 0.60            122            205 292 
 NOR  HZ IP        414 37.91                             117   -0.21 8  235 235 
 NOR  HE ES        415  5.71                             117   -0.02 8  235 235 
 NOR  HZ I         415 10.86         7.1 0.50            119            235 235 
 CHI  HZ EP        414 39.80                             116   -0.26 8  249 195 
 CHI  HN ES        415  9.22                             116    0.03 8  249 195 
 CHI  HZ I         415 18.59         3.8 0.38            118            249 195 
 HEL  HZ EP        414 42.95                             113    0.28 8  273 256 
 HEL  HN ES        415 14.11                             113    0.28 8  273 256 
 HEL  HZ I         415 20.51         5.4 0.28            115            273 256 
 URE  HE ES        415 16.02                             112    0.65 7  285 292 
 URE  HZ I         415 22.34         3.7 0.48            114            285 292 
 GUY2CHZ EP        414 46.38                             111    0.29 7  302 235 
 GUY2CHE ES        415 20.00                             111    0.09 7  302 235 
 GUY2CHZ I         415 27.92         3.8 0.22                           302 235 
 CBOC HZ EP        414 50.06                             108    0.62 7  334 252 
 CBOC HN ES        415 26.11                             108    0.23 7  334 252 
 CBOC HZ I         415 31.65         1.7 0.50            110            334 252 
                                                                                
