 2011  421 0218 40.4 L   6.772 -73.127148.2  RSN  9 0.5 2.2LRSN                1
 GAP=140        1.35       6.3     9.5  8.6 -0.2963E+02  0.1121E+02 -0.2054E+01E
 Epicentro: LOS SANTOS - SANTANDER                                             3
 ACTION:UP  11-06-22 15:32 OP:REBC STATUS:               ID:20110421021840 L   I
 2011-04-21-0217-20S.COL___139                                                 6
 STAT SP IPHASW D HRMM SECON CODA AMPLIT PERI AZIMU VELO SNR AR TRES W  DIS CAZ7
 BAR2 SZ EP        219  0.17                             172    -0.110   21 197 
 BAR2 SZ ES   1    219 15.01                             172    -0.8 7   21 197 
 BAR2 SZ I         219 16.44        36.8 0.19                            21 197 
 BTL  SZ IP        219  1.37                             171     1.110   22 316 
 BTL  SZ ES   1    219 16.59                             171     0.8 7   22 316 
 BRR  HZ IP     C  219  2.15                             152     0.110   75 300 
 BRR  HZ I         219  2.52        92.1 0.07                            75 300 
 BRR  HN ES   1    219 19.06                             152     0.2 7   75 300 
 PAM  SZ IP        219  3.22                             151     0.310   79  37 
 PAM  SN ES   1    219 20.40                             151    -0.1 7   79  37 
 PAM  SZ I         219 22.89        10.0 0.32                            79  37 
 RUS  HZ EP        219  4.02                             145    -0.110   97 177 
 RUS  HN ES   1    219 22.57                             145    -0.1 7   97 177 
 RUS  HZ I         219 25.16        17.5 0.31                            97 177 
 BRI  SZ IP        219  4.88                             141     0.210  111  19 
 BRI  SZ ES   1    219 23.13                             141    -0.5 7  111  19 
 GRA  SZ IP        219  6.14                             137     0.110  128  16 
 GRA  SZ ES   1    219 25.50                             137    -0.6 7  128  16 
 GRA  SZ I         219 27.06        30.2 0.35                           128  16 
 OCA  SZ IP        219  8.61                             130    -0.6 9  164 353 
 OCA  SZ I         219 37.04        20.6 0.23                           164 353 
 NOR  SZ EP        219 15.95                             119    -0.3 8  235 235 
 NOR  SN ES   1    219 43.77                             119    -0.5 6  235 235 
 HEL  HZ EP   4    219 22.25                             115     1.4 0  273 257 
 MON  HZ EP   4    219 27.27                             109    -2.6 0  357 309 
 MON  HN ES   4    220  6.22                             109    -2.3 0  357 309 
                                                                                
