 2010  321 0911 26.1 L   6.804 -72.966142.1  RSN  7 0.2 1.9LRSN                1
 GAP=201        0.57       3.2     7.0  5.4  0.2160E+01 -0.5117E+01 -0.2395E+01E
 Epicentro: CEPITA - SANTANDER                                                 3
 ACTION:UP  10-08-24 09:55 OP:vdl  STATUS:               ID:20100321091126 L   I
 2010-03-21-0909-27S.COL___098                                                 6
 STAT SP IPHASW D HRMM SECON CODA AMPLIT PERI AZIMU VELO SNR AR TRES W  DIS CAZ7
 BAR2 SZ EP        911 45.78                             166     0.310   34 226 
 BAR2 SZ ES   1    912  0.25                             166    -0.4 7   34 226 
 BRR  HZ EP        911 47.77                             146    -0.210   89 292 
 BRR  HN ES   1    912  5.22                             146     0.2 7   89 292 
 BRR  HZ I         912  7.65        16.6 0.15                            89 292 
 RUS  HZ EP   1    911 49.69                             143     0.1 7  102 187 
 RUS  HN ES   2    912  7.94                             143     0.1 5  102 187 
 RUS  HZ I         912  9.69         6.4 0.48                           102 187 
 OCA  SZ EP        911 54.36                             128     0.0 9  163 346 
 OCA  SZ ES   1    912 16.54                             128     0.0 7  163 346 
 OCA  SZ I         912 22.91        13.7 0.33                           163 346 
 HEL  HZ EP   2    912  8.27                             112     0.0 4  292 257 
 HEL  HZ I         912 43.73         2.5 0.38                           292 257 
 RREF BN ES   2    912 51.29                             109     0.2 3  337 232 
 RREF BZ I         912 56.93         3.6 0.47                           337 232 
 PRA  HZ EP   2    912 20.13                             105    -0.6 3  403 212 
 PRA  HZ I         913  2.95         3.2 0.43                           403 212 
                                                                                
