 2011 1121 0434 19.9 L   6.773 -73.118147.2  RSN  5 0.3 1.6LRSN                1
 GAP=141        0.51       3.9     5.5  6.6  0.3585E+01  0.5292E+01  0.5765E+01E
 Epicentro: LOS SANTOS - SANTANDER                                             3
 ACTION:UPD 12-07-13 16:11 OP:ep   STATUS:               ID:20111121043419 L   I
 2011-11-21-0432-24S.COL___178                                                 6
 STAT SP IPHASW D HRMM SECON CODA AMPLIT PERI AZIMU VELO AIN AR TRES W  DIS CAZ7
 BAR2 SZ EP   1    434 39.51                             171   -0.14 7 21.3 200 
 BAR2 SZ ES   2    434 54.40                             171   -0.67 5 21.3 200 
 BAR2 SZ I         434 56.20         9.3 0.31                          21.3 200 
 BRR  HZ EP   1    434 41.37                             151   -0.06 7 75.3 299 
 BRR  HE ES   1    434 58.51                             151    0.28 7 75.3 299 
 BRR  HZ I         435  1.69         7.8 0.15                          75.3 299 
 PAM  SN ES   1    434 59.76                             151    0.01 7 77.8  36 
 RUS  HZ EP   1    434 43.64                             145    0.08 7 97.5 178 
 RUS  HN ES   1    435  2.23                             145    0.20 7 97.5 178 
 RUS  HZ I         435  2.93         3.6 0.49                          97.5 178 
 ZAR  HE ES   3    435 17.67                             122   -0.87 2  208 293 
 ZAR  HZ I         435 24.57         7.0 0.27                           208 293 
                                                                                
