 2016 1121 0829 11.2 L   6.640 -73.160145.8  RSN  4 0.2 1.3LRSN                1
 GAP=255        0.47       5.5     3.7  4.1  0.9408E+00  0.3542E+01  0.8972E+01E
 Epicentro: VILLANUEVA - SANTANDER                                             3
 ACTION:UPD 17-10-26 21:10 OP:lp   STATUS:               ID:20161121082911 L   I
 OLDACT:DUP 16-11-21 17:36 OP:cog  STATUS:               ID:20161121082745d    3
 2016-11-21-0828-00M.COL___343                                                 6
 STAT SP IPHASW D HRMM SECON CODA AMPLIT PERI AZIMU VELO AIN AR TRES W  DIS CAZ7
 BAR2 EZ EP        829 30.75                             178    0.1410 5.81 206 
 BAR2 EZ ES        829 45.64                             178   -0.1110 5.81 206 
 BAR2 EZ I         829 48.50         4.2 0.23            156           5.81 206 
 BRR  HZ EP        829 32.71                             150   -0.1610 80.0 310 
 BRR  HN ES        829 49.96                             150    0.1910 80.0 310 
 PTB  HZ EP        829 37.63                             133   -0.18 9  144 266 
 PTB  HN ES        829 58.52                             133   -0.05 9  144 266 
 PTB  HZ I         830  3.25         2.2 0.06            128            144 266 
 NOR  HZ EP        829 45.96                             120    0.22 8  224 238 
 NOR  HE ES   4    830 15.26                             120    2.58 0  224 238 
 NOR  HZ I         830 25.36         1.7 0.16            116            224 238 
                                                                                
