 2012  721 0001 29.0 L   6.673 -73.216149.3  RSN  4 0.2 1.2LRSN                1
 GAP=206        0.53       7.9     5.8 10.0  0.2552E+01 -0.1952E+02  0.3588E+02E
 Epicentro: BARICHARA - SANTANDER                                              3
 ACTION:UPD 12-08-14 11:46 OP:ep   STATUS:               ID:20120721000129 L   I
 2012-07-21-0000-00M.COL___215                                                 6
 STAT SP IPHASW D HRMM SECON CODA AMPLIT PERI AZIMU VELO AIN AR TRES W  DIS CAZ7
 BAR2 SZ EP   1    0 1 48.49                             176    -0.4 7   10 157 
 BRR  HZ EP        0 1 50.64                             153     0.010   73 311 
 BRR  HZ I         0 1 51.00         4.7 0.16            154             73 311 
 BRR  HN ES   1    0 2  7.63                             153     0.1 7   73 311 
 RUS  HZ EP   1    0 1 52.44                             148     0.2 7   87 170 
 RUS  HZ I         0 1 53.41         1.8 0.10            146             87 170 
 PTB  HZ EP   1    0 1 55.46                             135     0.1 7  138 264 
 PTB  HN ES   1    0 2 15.86                             135    -0.1 7  138 264 
 PTB  HZ I         0 2 18.44         1.4 0.29            134            138 264 
