 2017  621 0616 18.5 L   6.811 -73.110157.6  RSN  6 0.2 1.7LRSN                1
 GAP=223        0.70       5.6     6.2  7.9 -0.9164E+01 -0.2772E+02  0.2037E+02E
 Epicentro: LOS SANTOS - SANTANDER                                             3
 ACTION:UPD 17-09-14 16:53 OP:jn   STATUS:               ID:20170621061618 L   I
 OLDACT:DUP 17-06-21 17:28 OP:lv   STATUS:               ID:20170621060743d    3
 2017-06-21-0608-00M.COL___348                                                 6
 STAT SP IPHASW D HRMM SECON CODA AMPLIT PERI AZIMU VELO AIN AR TRES W  DIS CAZ7
 BRR  HZ EP        616 41.13                             153    0.0110 74.2 296 
 BRR  HE ES        616 58.65                             153   -0.1010 74.2 296 
 BRR  HZ I         617  3.12         4.6 0.47            149           74.2 296 
 PTB  HZ EP   9    616 46.11                             134   -0.73 0  152 259 
 PTB  HN ES        617  7.66                                   -0.54 9  152 259 
 PTB  HZ I         617  9.18         4.0 0.17            131            152 259 
 SPBC HZ EP        616 48.63                             131    0.36 9  167 220 
 SPBC HN ES        617 11.59                             131    0.11 9  167 220 
 SPBC HZ I         617 13.06        12.3 0.16            130            167 220 
 HEL  HZ EP   4    617  1.92                             116    2.10 0  276 256 
 HEL  HN ES        617 31.75                             116   -0.28 7  276 256 
 HEL  HZ I         617 38.72         3.4 0.38            115            276 256 
 GUY2CHZ EP   4    617  4.88                             114    1.74 0  305 235 
 GUY2CHZ I         617 45.44         1.5 0.56                           305 235 
 PTGC HZ EP        617  2.62                             113   -0.28 7  308 159 
 PTGC HN ES   4    617 33.38                             113   -4.13 0  308 159 
 PTGC HZ I         617 36.04         3.1 0.10            114            308 159 
                                                                                
