 2017  421 0035 57.9 L   6.800 -73.099146.2  RSN  4 0.3 1.4LRSN                1
 GAP=143        0.81       4.4     4.6  7.9  0.4077E+01  0.5578E+01  0.3312E+01E
 Epicentro: LOS SANTOS - SANTANDER                                             3
 ACTION:UPD 17-05-30 21:14 OP:jn   STATUS:               ID:20170421003557 L   I
 OLDACT:DUP 17-04-21 14:29 OP:cog  STATUS:               ID:20170421002412d    3
 2017-04-21-0028-00M.COL___371                                                 6
 STAT SP IPHASW D HRMM SECON CODA AMPLIT PERI AZIMU VELO AIN AR TRES W  DIS CAZ7
 PAM  EZ EP        036 20.05                             152    0.0710 74.1  36 
 PAM  EE ES        036 37.00                             152   -0.2010 74.1  36 
 PAM  EZ I         036 39.19         6.0 0.54            155           74.1  36 
 BRR  HZ EP        036 19.16                             151   -0.2110 75.8 297 
 BRR  HN ES        036 36.59                             151    0.4810 75.8 297 
 BRR  HZ I         036 40.04         6.3 0.44            153           75.8 297 
 RUS  HZ EP        036 22.07                             144    0.3810  100 179 
 RUS  HN ES        036 39.93                             144   -0.3110  100 179 
 RUS  HZ I         036 41.53         2.6 0.34            147            100 179 
 ZAR  HN ES        036 56.28                             122   -0.31 8  209 292 
                                                                                
