 2012  221 0102 52.3 L   6.730 -73.342123.2  RSN  7 0.3 1.7LRSN                1
 GAP= 98        0.71       4.1     4.2  5.9  0.3618E+01  0.9248E+01  0.2302E+01E
 ACTION:UP  12-03-07 16:32 OP:epov STATUS:               ID:20120221010252 L   I
 2012-02-21-0100-00M.COL___191                                                 6
 STAT SP IPHASW D HRMM SECON CODA AMPLIT PERI AZIMU VELO AIN AR TRES W  DIS CAZ7
 BAR2 SZ EP   1    1 3  9.32                             169    0.10 7 23.3 131 
 BAR2 SZ ES   1    1 3 22.51                             169    0.10 7 23.3 131 
 BAR2 SZ I         1 3 23.42        25.5 0.24                          23.3 131 
 GIR2 SZ EP        1 3  9.51                             160   -0.1810 41.9  23 
 GIR2 SZ ES   1    1 3 22.94                             160   -0.31 7 41.9  23 
 BRR  HZ EP   1    1 3 10.13                             153   -0.16 7 58.4 316 
 BRR  HZ I         1 3 10.31        28.9 0.12                          58.4 316 
 BRR  HE ES   1    1 3 24.44                             153    0.12 7 58.4 316 
 RUS  HZ EP   1    1 3 13.79                             140    0.18 7 96.9 163 
 RUS  HN ES   1    1 3 30.42                             140    0.19 7 96.9 163 
 RUS  HZ I         1 3 32.66         5.2 0.33                          96.9 163 
 PAM  SZ EP   1    1 3 13.77                             139    0.09 7 97.8  46 
 PAM  SZ I         1 3 14.37         3.6 0.18                          97.8  46 
 PAM  SE ES   1    1 3 30.45                             139    0.09 7 97.8  46 
 PTB  HZ EP   1    1 3 14.45                             131   -0.92 7  125 260 
 ZAR  HZ EP   1    1 3 22.23                             119    0.63 7  188 297 
 ZAR  HN ES   1    1 3 44.83                             119    0.37 7  188 297 
 ZAR  HZ I         1 3 49.61         5.8 0.11                           188 297 
                                                                                
