 2017  121 0313 27.6 L   6.801 -73.088152.4  RSN  4 0.1 1.2LRSN                1
 GAP=244        0.35       3.7     5.6  3.7  0.1504E+02 -0.1268E+02 -0.6652E+01E
 Epicentro: LOS SANTOS - SANTANDER                                             3
 ACTION:UPD 17-05-22 16:01 OP:jn   STATUS:               ID:20170121031327 L   I
 OLDACT:DUP 17-01-21 15:29 OP:dani STATUS:               ID:20170121030740d    3
 OLDACT:UP  17-01-21 15:29 OP:dani STATUS:               ID:20170121030739     3
 OLDACT:UP  17-01-21 15:29 OP:dani STATUS:               ID:20170121030739     3
 OLDACT:UP  17-01-21 15:28 OP:dani STATUS:               ID:20170121030739     3
 OLDACT:REG 17-01-21 12:27 OP:dani STATUS:               ID:20170121030739     3
 2017-01-21-0308-00M.COL___342                                                 6
 STAT SP IPHASW D HRMM SECON CODA AMPLIT PERI AZIMU VELO AIN AR TRES W  DIS CAZ7
 BAR2 EZ EP        313 47.98                             170   -0.0610 25.4 204 
 BAR2 EZ ES        314  3.97                             170   -0.0310 25.4 204 
 BAR2 EZ I         314  4.65         3.5 0.25            157           25.4 204 
 BRR  HZ EP        313 49.70                             152   -0.0510 76.8 296 
 BRR  HE ES        314  7.12                             152    0.0610 76.8 296 
 BRR  HZ I         314  8.14         4.3 0.28            142           76.8 296 
 RUS  HZ EP        313 52.10                             145    0.1310  101 180 
 RUS  HN ES        314 10.96                             145   -0.0510  101 180 
 RUS  HZ I         314 12.69         1.5 0.32            137            101 180 
 PTB  HZ EP   9    313 54.84                             132   -0.81 0  154 259 
 PTB  HN ES        314 16.57                              36   -0.17 9  154 259 
 PTB  HZ I         314 23.39         2.0 0.51            124            154 259 
                                                                                
