 2017  621 0207 39.2 L   6.033 -73.713111.8  RSN 11 0.3 2.0LRSN                1
 GAP=115        0.79       2.4     2.3  4.8 -0.3472E+00  0.4434E+00  0.7183E+00E
 Epicentro: VELEZ - SANTANDER                                                  3
 ACTION:UPD 17-09-14 16:53 OP:jn   STATUS:               ID:20170621020739 L   I
 OLDACT:REG 17-06-21 12:25 OP:lv   STATUS:               ID:20170621015742     3
 2017-06-21-0158-00M.COL___346                                                 6
 STAT SP IPHASW D HRMM SECON CODA AMPLIT PERI AZIMU VELO AIN AR TRES W  DIS CAZ7
 SPBC HZ EP        2 7 55.85                             151   -0.2610 57.9 223 
 SPBC HN ES        2 8  9.03                             151   -0.2410 57.9 223 
 SPBC HZ I         2 8 14.64        41.8 0.25            153           57.9 223 
 PTB  HZ EP   9    2 7 57.86                             135   -1.23 0 99.6 304 
 PTB  HN ES        2 8 13.79                                    0.4410 99.6 304 
 PTB  HZ I         2 8 15.72        53.5 0.04            140           99.6 304 
 BRR  HZ EP        2 8  0.68                             130   -0.1310  119   0 
 BRR  HN ES        2 8 18.15                             130    0.5210  119   0 
 BRR  HZ I         2 8 20.47        10.9 0.17            135            119   0 
 NOR  HZ EP        2 8  2.51                             125   -0.25 9  138 248 
 NOR  HN ES        2 8 21.19                             125    0.08 9  138 248 
 NOR  HZ I         2 8 24.32        30.1 0.08            129            138 248 
 ROSC BZ EP   4    2 8  5.62                             123    1.42 0  148 207 
 ROSC BN ES   4    2 8 22.34                             123   -1.34 0  148 207 
 ROSC BZ I         2 8 28.27         9.8 0.26            128            148 207 
 YPLC HZ EP        2 8  5.34                             120   -0.05 9  163 115 
 YPLC HN ES        2 8 25.89                             120    0.10 9  163 115 
 YPLC HZ I         2 8 29.74         8.0 0.09            125            163 115 
 HEL  HZ EP        2 8 10.07                             114    0.14 9  202 275 
 HEL  HN ES   4    2 8 36.34                             114    2.46 0  202 275 
 HEL  HZ I         2 8 39.71         8.3 0.44            119            202 275 
 GUY2CHZ EP        2 8 10.73                             114    0.45 9  204 244 
 GUY2CHN ES        2 8 34.86                             114    0.36 9  204 244 
 GUY2CHZ I         2 8 40.76         9.5 0.12                           204 244 
 ZAR  HZ EP        2 8  9.98                             114    0.13 9  205 322 
 ZAR  HN ES        2 8 32.91                             114   -0.82 9  205 322 
 ZAR  HZ I         2 8 37.56        15.4 0.22            118            205 322 
 CBOC HZ EP        2 8 15.88                             108    0.11 8  255 266 
 CBOC HN ES        2 8 44.25                             108   -0.02 8  255 266 
 CBOC HZ I         2 8 45.74         3.9 0.11            112            255 266 
 ORTC HZ EP        2 8 19.83                             106    0.18 7  290 216 
 ORTC HN ES        2 8 50.95                             106   -0.21 7  290 216 
                                                                                
