 2013  921 0411 29.2 L   6.774 -73.146140.6  RSN  7 0.3 1.4LRSN                1
 GAP=235        0.77       5.1     5.8  6.0  0.1237E+02  0.9447E+01  0.5815E+01E
 Epicentro: LOS SANTOS - SANTANDER                                             3
 ACTION:UPD 13-10-22 09:23 OP:ep   STATUS:               ID:20130921041130dL   I
 OLDACT:REG 13-09-21 08:08 OP:jn   STATUS:               ID:20130921040959     3
 2013-09-21-0409-59M.COL___269                                                 6
 STAT SP IPHASW D HRMM SECON CODA AMPLIT PERI AZIMU VELO AIN AR TRES W  DIS CAZ7
 BAR2 SZ EP   1    411 48.21                             171    0.05 7 20.5 191 
 BAR2 SZ ES        412  2.65                             171   -0.2910 20.5 191 
 BAR2 SZ I         412  5.02         5.8 0.18            174           20.5 191 
 BRR  HZ EP        411 50.08                             151    0.2010 72.6 301 
 BRR  HN ES        412  6.24                             151    0.2410 72.6 301 
 BRR  HZ I         412 10.88         6.3 0.12            146           72.6 301 
 RUS  HZ EP   1    411 52.39                             144    0.15 7 97.7 176 
 RUS  HN ES   1    412 10.24                             144    0.03 7 97.7 176 
 RUS  HZ I         412 14.45         1.3 0.28            140           97.7 176 
 PTB  HZ EP        411 55.03                             131   -0.67 9  147 260 
 PTB  HN ES   1    412 15.93                             131   -0.44 7  147 260 
 PTB  HZ I         412 19.05         3.5 0.42            126            147 260 
 SPBC HZ EP        411 57.30                             128    0.21 9  161 220 
 SPBC HN ES   1    412 19.32                             128    0.47 7  161 220 
 SPBC HZ I         412 22.37         2.5 0.28            124            161 220 
 ZAR  HN ES   1    412 26.87                             121    0.31 6  205 293 
 SJC  HZ EP   4    412 14.59                             105   -10.3 0  412 327 
 SJC  HZ I         412 45.60         2.0 0.34             99            412 327 
                                                                                
