 2012 1021 0107 41.8 L   6.759 -73.084139.6  RSN  6 0.4 2.2LRSN                1
 GAP= 89        0.94       4.4     6.5  6.6  0.1733E+01 -0.7912E+01 -0.4041E+01E
 Epicentro: LOS SANTOS - SANTANDER                                             3
 ACTION:UPD 12-11-22 17:05 OP:ep   STATUS:               ID:20121021010741 L   I
 2012-10-21-0100-00M.COL___231                                                 6
 STAT SP IPHASW D HRMM SECON CODA AMPLIT PERI AZIMU VELO AIN AR TRES W  DIS CAZ7
 BAR2 SZ EP        1 8  0.75                             171    0.0710 21.4 210 
 BAR2 SZ ES        1 8 15.24                             171   -0.1410 21.4 210 
 BAR2 SZ I         1 8 16.96        46.2 0.18                          21.4 210 
 PAM  SZ EP        1 8  3.75                             150    0.3810 77.0  33 
 PAM  SZ I         1 8  4.05        36.2 0.25                          77.0  33 
 PAM  SN ES        1 8 20.03                             150   -0.1410 77.0  33 
 BRR  HZ IP     C  1 8  2.75                             149   -0.0610 79.3 299 
 BRR  HN ES        1 8 19.64                             149    0.4610 79.3 299 
 BRR  HZ I         1 8 22.18        38.9 0.15                          79.3 299 
 RUS  HZ EP        1 8  4.79                             144    0.1610 95.8 180 
 RUS  HN ES        1 8 22.06                             144   -0.3610 95.8 180 
 TAM  HZ EP   1    1 8  8.86                             131    0.55 7  147 104 
 TAM  HZ I    1    1 8  9.32        17.0 0.20                           147 104 
 OCA  HZ EP        1 8  9.42                             127   -0.77 9  166 351 
 OCA  HZ I         1 8 34.56        13.2 0.36                           166 351 
                                                                                
