 2016 1021 0454  1.5 L   6.791 -73.143143.8  RSN 10 0.5 1.6LRSN                1
 GAP=137        0.96       4.4     4.6  5.9 -0.7400E+01  0.6698E+01  0.3721E+01E
 Epicentro: LOS SANTOS - SANTANDER                                             3
 ACTION:UPD 16-11-09 19:21 OP:rebc STATUS:               ID:20161021045401 L   I
 OLDACT:UP  16-10-21 16:39 OP:and  STATUS:               ID:20161021044745     3
 OLDACT:UP  16-10-21 16:38 OP:and  STATUS:               ID:20161021044745     3
 OLDACT:UP  16-10-21 16:36 OP:and  STATUS:               ID:20161021044745     3
 OLDACT:REG 16-10-21 13:22 OP:y    STATUS:               ID:20161021044745     3
 2016-10-21-0448-00M.COL___340                                                 6
 STAT SP IPHASW D HRMM SECON CODA AMPLIT PERI AZIMU VELO AIN AR TRES W  DIS CAZ7
 BAR2 EZ EP        454 20.73                             171   -0.1010 22.4 191 
 BAR2 EZ ES        454 35.30                             171   -0.6410 22.4 191 
 BAR2 EZ I         454 38.08        11.8 0.27            166           22.4 191 
 BRR  HZ EP        454 22.75                             152    0.3110 72.0 299 
 BRR  HE ES        454 39.48                             152    0.6810 72.0 299 
 PAM  EZ IP     C  454 23.64                             150    0.1410 77.9  39 
 PAM  EN ES        454 40.51                             150   -0.1710 77.9  39 
 PAM  EZ I         454 42.44         7.1 0.54            154           77.9  39 
 RUS  HZ EP   2    454 25.15                             144    0.21 5 99.6 176 
 RUS  HN ES        454 43.83                             144    0.5710 99.6 176 
 RUS  HZ I         454 44.90         5.3 0.28            141           99.6 176 
 PTB  HZ EP        454 27.59                             132   -0.69 9  148 259 
 PTB  HN ES        454 48.95                             132   -0.25 9  148 259 
 PTB  HZ I         454 50.58         4.4 0.14            132            148 259 
 SPBC HZ EP        454 29.72                             129   -0.04 9  163 219 
 SPBC HN ES        454 51.57                             129   -0.26 9  163 219 
 SPBC HZ I         454 56.93         5.7 0.23            128            163 219 
 NOR  HZ EP   2    454 37.42                             118    0.38 4  234 235 
 NOR  HN ES        455  5.12                             118    0.32 8  234 235 
 NOR  HZ I         455  9.25         3.4 0.16            118            234 235 
 CHI  HZ EP   2    454 39.28                             117    0.32 4  248 195 
 CHI  HN ES   3    455  6.68                             117   -1.52 2  248 195 
 CHI  HZ I         455 14.33         1.4 0.32            116            248 195 
 GUY2CHZ EP        454 44.44                             112   -0.51 7  301 235 
 GUY2CHN ES   2    455 19.81                             112    0.95 4  301 235 
 GUY2CHZ I         455 26.94         1.5 0.32                           301 235 
 PRA  HZ EP   2    454 55.46                             106    0.63 3  391 210 
 PRA  HN ES   3    455 38.09                             106    1.63 1  391 210 
 PRA  HZ I         455 42.91         1.2 0.31            106            391 210 
                                                                                
