 2014  621 0139 30.9 L   7.089 -73.287117.8  RSN 15 0.5 2.2LRSN                1
 GAP=101        1.26       3.1     4.1  6.2 -0.1654E+01  0.9005E+01  0.2794E+01E
 Epicentro: LEBRIJA - SANTANDER                                                3
 ACTION:UPD 14-07-01 22:55 OP:nd   STATUS:               ID:20140621013930 L   I
 OLDACT:REG 14-06-21 13:28 OP:carl STATUS:               ID:20140621013818     3
 2014-06-21-0138-18M.COL___259                                                 6
 STAT SP IPHASW D HRMM SECON CODA AMPLIT PERI AZIMU VELO AIN AR TRES W  DIS CAZ7
 BRR  HZ IP     D  139 47.89                             157    0.2110 46.9 273 
 BRR  HN ES        140  1.29                             157    0.5010 46.9 273 
 BRR  HZ I         140  2.42        59.4 0.12            156           46.9 273 
 BAR2 SZ IP     C  139 49.09                             153    0.5810 56.1 168 
 BAR2 SZ ES        140  2.66                             153    0.4010 56.1 168 
 PAM  SZ EP        139 50.26                             147    0.5110 70.6  67 
 PAM  SE ES        140  4.52                             147    0.0510 70.6  67 
 PAM  SZ I         140  7.33        36.0 0.32            150           70.6  67 
 OCA  HZ EP        139 53.84                             129   -0.0810  127 358 
 OCA  HN ES        140 11.47                             129   -0.4210  127 358 
 OCA  HZ I         140 13.39        59.5 0.28            132            127 358 
 RUS  HZ EP        139 54.30                             128   -0.7310  134 170 
 RUS  HE ES        140 13.15                             128   -0.7210  134 170 
 RUS  HZ I         140 15.20        11.9 0.48            127            134 170 
 PTB  HZ EP        139 54.40                             126   -0.84 9  143 245 
 PTB  HE ES        140 13.10                             126   -1.13 9  143 245 
 PTB  HZ I         140 15.97        23.9 0.10            125            143 245 
 ZAR  HZ EP        139 59.35                             119    0.38 9  179 285 
 ZAR  HN ES        140 21.22                             119    0.34 9  179 285 
 ZAR  HZ I         140 23.38        24.8 0.24            119            179 285 
 SPBC HZ EP        139 59.75                             119    0.46 9  181 209 
 SPBC HN ES        140 21.21                             119   -0.23 9  181 209 
 SPBC HZ I         140 28.35        20.8 0.30            118            181 209 
 SML  HZ EP        140  1.34                             115   -0.78 8  208 336 
 SML  HN ES   4    140 24.39                             115   -2.08 0  208 336 
 NOR  HZ EP        140  6.11                             111    0.00 8  243 226 
 NOR  HE ES        140 33.96                             111    0.38 8  243 226 
 NOR  HZ I         140 38.08        10.6 0.22            111            243 226 
 HEL  HZ EP        140  9.77                             109    0.52 8  267 248 
 HEL  HN ES        140 39.16                             109   -0.02 8  267 248 
 HEL  HZ I         140 44.93        11.3 0.32            109            267 248 
 CHI  HN ES        140 40.81                             108   -0.39 7  276 190 
 CHI  HZ I         141  0.53         5.6 0.56            108            276 190 
 GUY2CHZ EP        140 14.83                             106    0.58 7  309 228 
 GUY2CHN ES   4    140 49.22                             106    1.14 0  309 228 
 GUY2CHZ I         140 57.06         7.7 0.44                           309 228 
 PRA  HZ EP        140 26.53                             100    0.42 6  413 205 
 ORTC HZ EP        140 26.35                             100    0.23 6  413 212 
 ORTC HN ES        141 10.20                             100    1.00 6  413 212 
 ORTC HZ I         141 20.41         3.6 0.40            100            413 212 
 PRA  HN ES        141  9.01                             100   -0.17 6  413 205 
                                                                                
