 2011  621 0549 48.4 L   6.795 -73.120140.8  RSN 11 0.3 2.0LRSN                1
 GAP=158        0.50       2.4     4.3  3.8 -0.1706E+01  0.2524E+01 -0.6502E+00E
 Epicentro: LOS SANTOS - SANTANDER                                             3
 ACTION:UP  11-07-14 19:06 OP:ep   STATUS:               ID:20110621054948 L   I
 2011-06-21-0548-19S.COL___140                                                 6
 STAT SP IPHASW D HRMM SECON CODA AMPLIT PERI AZIMU VELO SNR AR TRES W  DIS CAZ7
 BTL  SZ EP   1    550  7.49                             171     0.1 7   21 310 
 BTL  SZ ES   2    550 22.17                             171    -0.1 5   21 310 
 BAR2 SZ IP        550  7.40                             170    -0.110   24 197 
 BAR2 SZ ES   1    550 21.97                             170    -0.3 7   24 197 
 BAR2 SZ I         550 23.93        22.0 0.16                            24 197 
 GIR2 SZ EP   1    550  7.41                             166    -0.1 7   32 345 
 GIR2 SZ ES   2    550 21.97                             166    -0.5 5   32 345 
 BRR  HZ EP        550  9.20                             151     0.010   74 298 
 BRR  HN ES   2    550 26.25                             151     0.9 5   74 298 
 BRR  HZ I         550 26.89        34.4 0.10                            74 298 
 RUS  HZ EP   1    550 11.52                             143    -0.1 7  100 178 
 RUS  HZ I         550 12.61        10.7 0.22                           100 178 
 RUS  HE ES   1    550 30.01                             143     0.3 7  100 178 
 BRI  SZ EP   2    550 12.06                             140     0.3 5  108  19 
 GRA  SZ EP   1    550 13.28                             136     0.1 7  125  16 
 GRA  SZ I         550 41.76         8.2 0.44                           125  16 
 OCA  SZ EP   1    550 16.48                             128     0.0 7  161 352 
 OCA  SZ ES   2    550 38.35                             128     0.1 5  161 352 
 OCA  SZ I         550 42.38        15.5 0.41                           161 352 
 NOR  SZ EP   2    550 23.99                             117    -0.1 4  237 235 
 NOR  SE ES   2    550 52.04                             117     0.1 4  237 235 
 CHI  HZ EP   1    550 25.81                             116    -0.1 6  249 196 
 CHI  HN ES   2    550 55.43                             116     0.3 4  249 196 
 CHI  HZ I         551  0.34         4.1 0.32                           249 196 
 HEL  HZ EP   2    550 28.49                             113    -0.2 4  275 256 
 HEL  HN ES   2    550 59.64                             113    -0.4 4  275 256 
 HEL  HZ I         551  5.76         7.1 0.38                           275 256 
                                                                                
