 2014  621 0627 41.9 L   6.835 -73.181144.0  RSN  8 0.3 1.7LRSN                1
 GAP=180        0.85       2.7     4.2  6.3  0.4223E-02  0.7421E+01 -0.4060E+01E
 Epicentro: ZAPATOCA - SANTANDER                                               3
 ACTION:UPD 14-07-01 22:55 OP:nd   STATUS:               ID:20140621062741 L   I
 OLDACT:REG 14-06-21 13:33 OP:carl STATUS:               ID:20140621061808     3
 2014-06-21-0618-08M.COL___253                                                 6
 STAT SP IPHASW D HRMM SECON CODA AMPLIT PERI AZIMU VELO AIN AR TRES W  DIS CAZ7
 BAR2 SZ EP        628  1.72                             169    0.3610 26.8 180 
 BAR2 SZ ES        628 16.84                             169    0.2810 26.8 180 
 BAR2 SZ I         628 17.95        10.8 0.22            169           26.8 180 
 RUS  HZ EP        628  5.08                             142   -0.6710  105 174 
 RUS  HE ES        628 24.03                             142   -0.3510  105 174 
 RUS  HZ I         628 25.48         5.4 0.26            146            105 174 
 PTB  HZ EP        628  8.38                             132   -0.03 9  145 257 
 PTB  HN ES        628 29.11                             132   -0.01 9  145 257 
 PTB  HZ I         628 32.42         5.4 0.16            132            145 257 
 OCA  HE ES        628 31.30                             130   -0.00 9  156 354 
 SPBC HZ EP        628 10.86                             129    0.57 9  164 217 
 SPBC HN ES        628 32.60                             129    0.15 9  164 217 
 SPBC HZ I         628 35.16         8.0 0.28            130            164 217 
 ZAR  HZ EP        628 13.45                             123   -0.22 9  199 292 
 ZAR  HN ES        628 38.00                             123   -0.48 9  199 292 
 ZAR  HZ I         628 47.24         3.0 0.16            123            199 292 
 NOR  HE ES        628 45.30                             118    0.19 8  234 233 
 NOR  HZ I         628 48.27         3.2 0.16            119            234 233 
 SML  HZ EP        628 18.09                             118    0.25 8  239 336 
 SML  HN ES        628 45.95                             118    0.06 8  239 336 
 SML  HZ I         628 50.10         9.2 0.28            119            239 336 
                                                                                
