 2015 1221 0915 45.9 L   6.808 -73.133144.8  RSN  7 0.4 1.6LRSN                1
 GAP=200        1.02       3.7     6.0  6.6 -0.3744E+01  0.3249E+01 -0.4902E+01E
 Epicentro: LOS SANTOS - SANTANDER                                             3
 ACTION:UPD 16-02-04 15:06 OP:cam  STATUS:               ID:20151221091545 L   I
 OLDACT:REG 15-12-21 14:54 OP:cara STATUS:               ID:20151221090748     3
 2015-12-21-0907-48M.COL___326                                                 6
 STAT SP IPHASW D HRMM SECON CODA AMPLIT PERI AZIMU VELO AIN AR TRES W  DIS CAZ7
 BAR2 EZ IP        916  5.49                             170    0.0710 24.5 193 
 BAR2 EZ ES        916 20.14                             170   -0.5210 24.5 193 
 BAR2 EZ I         916 23.79         7.5 0.26            171           24.5 193 
 BRR  HZ IP        916  7.32                             152    0.3510 72.0 297 
 BRR  HN ES        916 23.96                             152    0.5410 72.0 297 
 BRR  HZ I         916 29.08         4.9 0.26            151           72.0 297 
 PTB  HZ IP        916 12.48                             131   -0.43 9  149 259 
 PTB  HN ES        916 33.53                             131   -0.46 9  149 259 
 PTB  HZ I         916 35.69         4.6 0.18            133            149 259 
 OCA  HZ EP        916 14.68                             129    0.63 9  160 353 
 OCA  HN ES        916 35.90                             129   -0.12 9  160 353 
 OCA  HZ I         916 41.04         8.2 0.22            132            160 353 
 SPBC HZ EP        916 14.34                             128   -0.12 9  165 219 
 SPBC HE ES        916 37.15                             128    0.41 9  165 219 
 SPBC HZ I         916 42.23         7.2 0.22            132            165 219 
 ZAR  HZ EP        916 18.10                             122   -0.26 9  205 292 
 ZAR  HN ES        916 44.10                             122    0.41 9  205 292 
 ZAR  HZ I         916 50.62         3.1 0.58            124            205 292 
 SML  HZ EP        916 22.38                             117   -0.05 8  243 335 
 SML  HE ES        916 50.29                             117   -0.65 8  243 335 
 SML  HZ I         916 53.60         4.7 0.10            120            243 335 
                                                                                
