 2017  721 0140  0.2 L   6.766 -73.135151.1  RSN  5 0.3 1.4LRSN                1
 GAP=236        0.73       4.5     5.1  6.7  0.3585E+01  0.4416E+01 -0.1043E+00E
 Epicentro: LOS SANTOS - SANTANDER                                             3
 ACTION:UPD 17-08-30 15:35 OP:rebc STATUS:               ID:20170721014000 L   I
 OLDACT:REG 17-07-21 12:24 OP:dnl  STATUS:               ID:20170721013741     3
 2017-07-21-0138-00M.COL___394                                                 6
 STAT SP IPHASW D HRMM SECON CODA AMPLIT PERI AZIMU VELO AIN AR TRES W  DIS CAZ7
 BAR2 EZ EP        140 20.24                             172   -0.1510 19.9 195 
 BAR2 EZ ES        140 35.85                             172   -0.3010 19.9 195 
 BAR2 EZ I         140 36.81        11.0 0.20            168           19.9 195 
 BRR  HZ EP        140 22.15                             152    0.0810 74.0 301 
 BRR  HE ES        140 39.54                             152    0.4010 74.0 301 
 BRR  HZ I         140 40.53         5.8 0.48            151           74.0 301 
 RUS  HZ EP   2    140 24.70                             146    0.51 5 96.7 177 
 RUS  HN ES        140 42.92                             146   -0.0010 96.7 177 
 RUS  HZ I         140 43.98         1.6 0.48            145           96.7 177 
 PTB  HZ EP   2    140 26.81                             133   -0.82 5  148 260 
 PTB  HE ES        140 48.69                             133   -0.34 9  148 260 
 PTB  HZ I         140 51.10         1.3 0.18            132            148 260 
 SPBC HZ EP   2    140 29.19                             131    0.30 5  161 220 
 SPBC HE ES        140 51.59                             131    0.31 9  161 220 
 SPBC HZ I         140 55.86         5.1 0.40            129            161 220 
                                                                                
