 2013 1121 0029 35.7 L   6.770 -73.157138.0  RSN  6 0.4 1.7LRSN                1
 GAP=137        1.03       5.2     4.5  8.7  0.1245E+01  0.9190E+01  0.8558E+00E
 Epicentro: LOS SANTOS - SANTANDER                                             3
 ACTION:UPD 14-01-09 16:29 OP:ep   STATUS:               ID:20131121002935 L   I
 OLDACT:REG 13-11-21 14:23 OP:mher STATUS:               ID:20131121002846     3
 2013-11-21-0028-46M.COL___232                                                 6
 STAT SP IPHASW D HRMM SECON CODA AMPLIT PERI AZIMU VELO AIN AR TRES W  DIS CAZ7
 BAR2 SZ EP        029 54.27                             171   -0.0610 19.9 188 
 BAR2 SZ I         030 11.45        11.7 0.27            169           19.9 188 
 BRR  HZ EP        029 56.04                             151   -0.0110 71.8 301 
 BRR  HN ES        030 12.20                             151    0.2810 71.8 301 
 PAM  SZ EP        029 57.24                             148   -0.0610 80.7  39 
 PAM  SN ES        030 13.91                             148   -0.2410 80.7  39 
 PAM  SZ I         030 15.93         7.5 0.17            146           80.7  39 
 RUS  HZ EP   1    029 58.41                             143   -0.05 7 97.4 175 
 RUS  HN ES        030 16.66                             143    0.4510 97.4 175 
 RUS  HZ I         030 18.39         5.1 0.24            139           97.4 175 
 PTB  HZ EP        030  1.24                             131   -0.64 9  146 260 
 PTB  HN ES        030 21.70                             131   -0.60 9  146 260 
 PTB  HZ I         030 24.11         5.2 0.12            128            146 260 
 ZAR  HZ EP   1    030  8.71                             121    1.04 6  204 293 
 ZAR  HN ES        030 33.04                             121    0.44 9  204 293 
 ZAR  HZ I         030 38.41         9.7 0.46            118            204 293 
                                                                                
