 2017 1121 0453 14.3 L   6.785 -73.135145.0  RSN 16 0.5 1.8LRSN                1
 GAP= 66        1.07       2.9     3.0  5.5 -0.1146E+00  0.3184E+01  0.2376E+01E
 Epicentro: LOS SANTOS - SANTANDER                                             3
 ACTION:UPD 17-12-12 19:57 OP:rebc STATUS:               ID:20171121045314 L   I
 OLDACT:UP  17-11-21 16:32 OP:edw  STATUS:               ID:20171121044440     3
 OLDACT:UP  17-11-21 16:28 OP:edw  STATUS:               ID:20171121044440     3
 OLDACT:REG 17-11-21 12:34 OP:edw  STATUS:               ID:20171121044440     3
 2017-11-21-0448-00M.COL___480                                                 6
 STAT SP IPHASW D HRMM SECON CODA AMPLIT PERI AZIMU VELO AIN AR TRES W  DIS CAZ7
 BAR2 EZ EP        453 33.74                             171   -0.0510 22.0 194 
 BAR2 EZ ES        453 49.13                             171    0.1210 22.0 194 
 BAR2 EZ I         453 51.46        15.5 0.26            169           22.0 194 
 PAM  EZ EP     C  453 36.81                             150    0.3710 77.9  38 
 PAM  EN ES        453 54.09                             150    0.3610 77.9  38 
 PAM  EZ I         453 56.83         7.6 0.28            156           77.9  38 
 RUS  HZ EP        453 38.02                             144    0.1910 98.9 177 
 RUS  HN ES        453 56.24                             144    0.0410 98.9 177 
 RUS  HZ I         453 57.66         5.6 0.40            146           98.9 177 
 PTB  HZ EP        453 40.62                             132   -0.64 9  149 260 
 PTB  HE ES        454  1.94                             132   -0.37 9  149 260 
 PTB  HZ I         454  8.78         5.2 0.38            131            149 260 
 TAM  HZ EP        453 42.22                             131    0.48 9  154 105 
 TAM  HN ES        454  1.86                             131   -1.31 9  154 105 
 OCA  HZ EP        453 42.32                             129   -0.37 9  162 353 
 OCA  HN ES        454  5.23                             129    0.38 9  162 353 
 OCA  HZ I         454  7.64        14.5 0.20            132            162 353 
 SPBC HZ EP        453 43.03                             129    0.36 9  163 220 
 SPBC HN ES        454  4.87                             129    0.05 9  163 220 
 SPBC HZ I         454 11.71        10.8 0.38            130            163 220 
 YPLC HZ EP        453 44.26                             127    0.44 9  175 151 
 YPLC HN ES        454  6.92                             127    0.06 9  175 151 
 YPLC HZ I         454  9.19         9.9 0.26            130            175 151 
 ZAR  HZ EP        453 46.58                             122   -0.27 8  206 292 
 ZAR  HN ES        454 12.03                             122   -0.23 8  206 292 
 ZAR  HZ I         454 21.91         5.5 0.30            123            206 292 
 NOR  HZ EP        453 50.25                             118    0.28 8  235 235 
 NOR  HN ES        454 17.31                             118   -0.50 8  235 235 
 NOR  HZ I         454 24.37         3.3 0.16            119            235 235 
 CHI  HZ EP        453 52.05                             117    0.25 8  247 196 
 CHI  HE ES        454 21.66                             117    0.60 8  247 196 
 CHI  HZ I         454 24.99         3.1 0.32            119            247 196 
 HEL  HE ES   2    454 26.94                             115    1.00 4  273 256 
 GUY2CHZ EP   4    453 59.20                             112    1.34 0  301 235 
 GUY2CHN ES   4    454 35.22                             112    3.37 0  301 235 
 GUY2CHZ I         454 40.49         3.4 0.26                           301 235 
 PTGC HZ EP        453 57.07                             112   -0.81 7  307 159 
 PTGC HE ES   4    454 29.77                             112   -2.11 0  307 159 
 LL6C HZ EP   4    453 58.45                             110   -1.68 0  327 357 
 LL6C HE ES   4    454 33.28                             110   -2.62 0  327 357 
 PRA  HZ EP        454  7.80                             106    0.13 6  391 210 
 PRA  HE ES   4    454 50.78                             106    1.45 0  391 210 
 PRA  HZ I         454 56.14         3.2 0.36            108            391 210 
 ORTC HZ EP   2    454  9.05                             106    0.95 3  395 216 
 ORTC HE ES        454 49.80                             106   -0.28 6  395 216 
 ORTC HZ I         454 58.82         1.7 0.30            108            395 216 
                                                                                
