 2017  121 0951 30.9 L   6.846 -73.109148.5  RSN  4 0.3 1.2LRSN                1
 GAP=248        0.76       8.2     6.1  7.8  0.3316E+02  0.1055E+01 -0.1419E+02E
 Epicentro: LOS SANTOS - SANTANDER                                             3
 ACTION:UPD 17-05-22 16:01 OP:jn   STATUS:               ID:20170121095130 L   I
 OLDACT:UP  17-01-21 20:16 OP:dani STATUS:               ID:20170121094737     3
 OLDACT:REG 17-01-21 12:59 OP:dani STATUS:               ID:20170121094737     3
 2017-01-21-0948-00M.COL___337                                                 6
 STAT SP IPHASW D HRMM SECON CODA AMPLIT PERI AZIMU VELO AIN AR TRES W  DIS CAZ7
 BAR2 EZ EP        951 51.34                             168    0.3010 29.2 196 
 BAR2 EZ ES        952  6.56                             168   -0.1510 29.2 196 
 BAR2 EZ I         952  7.50         5.5 0.24            168           29.2 196 
 RUS  HZ EP        951 55.47                             143    0.1510  105 178 
 RUS  HN ES        952 14.14                             143   -0.1910  105 178 
 RUS  HZ I         952 15.02         2.0 0.28            143            105 178 
 PTB  HZ EP   1    951 57.87                             131   -0.72 7  153 257 
 PTB  HE ES        952 20.53                             131    0.37 9  153 257 
 PTB  HZ I         952 20.98         2.0 0.13            132            153 257 
 ZAR  HN ES        952 29.27                             123   -0.10 8  206 290 
                                                                                
