 2017  421 0150 47.9 L   6.829 -73.048155.9  RSN  4 0.3 1.5LRSN                1
 GAP=249        0.71       8.4     9.3  5.8  0.6490E+02 -0.6074E+01 -0.1166E+02E
 Epicentro: LOS SANTOS - SANTANDER                                             3
 ACTION:UPD 17-05-30 21:14 OP:jn   STATUS:               ID:20170421015048 L   I
 OLDACT:UP  17-05-10 16:48 OP:nlst STATUS:               ID:20170421015048 L   3
 OLDACT:DUP 17-04-21 15:07 OP:cog  STATUS:               ID:20170421014724d    3
 2017-04-21-0148-00M.COL___371                                                 6
 STAT SP IPHASW D HRMM SECON CODA AMPLIT PERI AZIMU VELO AIN AR TRES W  DIS CAZ7
 BAR2 EZ EP        151  8.41                             169   -0.4810 30.1 210 
 BAR2 EZ ES        151 25.20                             169   -0.0710 30.1 210 
 BAR2 EZ I         151 25.39         6.2 0.18            163           30.1 210 
 BRR  HZ EP        151 10.88                             152    0.2710 79.6 293 
 BRR  HN ES        151 28.52                             152    0.1910 79.6 293 
 BRR  HZ I         151 39.42         7.2 0.36            147           79.6 293 
 RUS  HZ EP        151 12.87                             145    0.0110  104 182 
 RUS  HN ES        151 32.47                             145    0.1310  104 182 
 RUS  HZ I         151 35.07         1.8 0.32            147            104 182 
 ZAR  HZ EP        151 22.22                             123    0.31 8  213 290 
 ZAR  HN ES        151 48.07                             123   -0.39 8  213 290 
 ZAR  HZ I         151 54.14         3.2 0.42            124            213 290 
                                                                                
