 2012  721 0035 19.0 L   6.477 -73.262145.2  RSN  5 0.4 1.0LRSN                1
 GAP=129        0.86       9.4     6.8 10.0  0.6584E+01  0.5707E+01 -0.3734E+02E
 Epicentro: SOCORRO - SANTANDER                                                3
 ACTION:UPD 12-08-14 11:46 OP:ep   STATUS:               ID:20120721003519 L   I
 2012-07-21-0030-00M.COL___215                                                 6
 STAT SP IPHASW D HRMM SECON CODA AMPLIT PERI AZIMU VELO AIN AR TRES W  DIS CAZ7
 BAR2 SZ EP   1    035 37.81                             174    -0.6 7   15  34 
 BAR2 SZ ES   1    035 53.68                             174     0.1 7   15  34 
 RUS  HZ EP   1    035 40.61                             154     0.0 7   68 163 
 RUS  HN ES   1    035 57.66                             154     0.2 7   68 163 
 RUS  HZ I         035 59.07         3.0 0.27            153             68 163 
 BRR  HZ EP   1    035 41.72                             148     0.7 7   86 324 
 PAM  SZ EP   1    035 43.48                             140    -0.2 7  114  33 
 PTB  HZ EP   1    035 44.73                             135     0.2 7  132 273 
 PTB  HN ES   1    036  4.16                             135    -0.3 7  132 273 
 PTB  HZ I         036  6.16         1.1 0.17            135            132 273 
