 2017  221 0855 18.1 L   6.791 -73.153145.4  RSN  7 0.4 1.6LRSN                1
 GAP=136        1.13       4.6     5.0  7.5  0.2042E+01  0.7056E+01  0.8321E+01E
 Epicentro: LOS SANTOS - SANTANDER                                             3
 ACTION:UPD 17-05-24 15:38 OP:jn   STATUS:               ID:20170221085518 L   I
 OLDACT:REG 17-02-21 14:58 OP:dani STATUS:               ID:20170221084741     3
 2017-02-21-0848-00M.COL___373                                                 6
 STAT SP IPHASW D HRMM SECON CODA AMPLIT PERI AZIMU VELO AIN AR TRES W  DIS CAZ7
 BAR2 EZ EP        855 37.54                             171   -0.1310 22.2 188 
 BAR2 EZ ES        855 52.52                             171   -0.4010 22.2 188 
 BAR2 EZ I         855 55.33         9.4 0.30            169           22.2 188 
 BRR  HZ EP        855 39.37                             152    0.1710 71.0 300 
 BRR  HN ES        855 56.51                             152    0.8510 71.0 300 
 BRR  HZ I         855 59.75        13.1 0.37            153           71.0 300 
 PAM  EZ EP        855 40.45                             150    0.0910 78.7  40 
 PAM  EN ES        855 57.65                             150   -0.0610 78.7  40 
 PAM  EZ I         855 59.93         8.1 0.62            155           78.7  40 
 RUS  HZ EP        855 41.75                             144   -0.0010 99.6 176 
 RUS  HN ES        856  0.01                             144   -0.1810 99.6 176 
 RUS  HZ I         856  1.41         8.7 0.34            145           99.6 176 
 PTB  HZ EP        855 44.32                             132   -0.64 9  147 259 
 PTB  HN ES        856  5.28                             132   -0.62 9  147 259 
 PTB  HZ I         856 10.38         3.6 0.12            133            147 259 
 ZAR  HN ES        856 15.91                             122    0.16 9  204 292 
 CHI  HZ EP        855 55.74                             117    0.08 8  247 195 
 CHI  HN ES        856 25.91                             117    0.97 8  247 195 
 CHI  HZ I         856 31.03         1.8 0.34            119            247 195 
                                                                                
