 2016  221 0619 36.6 L   6.778 -73.109144.3  RSN  6 0.3 1.3LRSN                1
 GAP=142        0.88       4.5     6.2  7.9 -0.9787E+01  0.4265E+01 -0.2372E+01E
 Epicentro: LOS SANTOS - SANTANDER                                             3
 ACTION:UPD 16-03-04 21:28 OP:rebc STATUS:               ID:20160221061936 L   I
 OLDACT:UP  16-02-21 15:02 OP:drio STATUS:               ID:20160221061745     3
 OLDACT:UP  16-02-21 15:01 OP:drio STATUS:               ID:20160221061745     3
 OLDACT:REG 16-02-21 12:36 OP:drio STATUS:               ID:20160221061745     3
 2016-02-21-0617-45M.COL___321                                                 6
 STAT SP IPHASW D HRMM SECON CODA AMPLIT PERI AZIMU VELO AIN AR TRES W  DIS CAZ7
 BAR2 EZ EP        619 55.43                             171   -0.5910 22.0 201 
 BAR2 EZ ES        620 10.82                             171   -0.3510 22.0 201 
 BAR2 EZ I         620 12.07         3.6 0.16            168           22.0 201 
 BRR  HZ EP        619 57.99                             151    0.1310 75.9 299 
 BRR  HN ES        620 14.68                             151    0.2410 75.9 299 
 BRR  HZ I         620 18.85         3.5 0.10            148           75.9 299 
 PAM  EZ EP        619 58.88                             151    0.2610 76.9  36 
 PAM  EN ES        620 15.76                             151   -0.0410 76.9  36 
 PAM  EZ I         620 17.78         4.9 0.50            154           76.9  36 
 RUS  HE ES        620 18.75                             144    0.4810 97.9 178 
 PTB  HZ EP   4    620  0.97                             131   -2.79 0  151 260 
 PTB  HN ES   4    620 25.40                             131    0.45 0  151 260 
 PTB  HZ I         620 26.82         1.9 0.20            130            151 260 
 SPBC HZ EP   4    620  5.44                             129    0.39 0  164 221 
 SPBC HN ES        620 27.10                             129   -0.13 9  164 221 
 SPBC HZ I         620 34.65         4.2 0.10            128            164 221 
                                                                                
