 2010 1021 0550 53.8 L   6.810 -73.101142.0  RSN 12 0.4 1.9LRSN                1
 GAP=139        0.92       4.0     6.7  7.8 -0.3208E+01  0.2012E+01  0.9439E+01E
 Epicentro: LOS SANTOS - SANTANDER                                             3
 ACTION:UP  11-02-18 11:11 OP:tino STATUS:               ID:20101021055053 L   I
 2010-10-21-0547-49S.COL___128                                                 6
 STAT SP IPHASW D HRMM SECON CODA AMPLIT PERI AZIMU VELO SNR AR TRES W  DIS CAZ7
 BAR2 SZ IP        551 13.05                             169     0.110   26 201 
 BAR2 SZ ES   2    551 27.99                             169     0.0 5   26 201 
 BAR2 SZ I         551 29.03        20.2 0.20                            26 201 
 GIR2 SZ EP   1    551 13.21                             167     0.2 7   31 341 
 BRR  HZ IP     C  551 14.80                             151     0.110   75 296 
 BRR  HE ES   1    551 31.61                             151     0.5 7   75 296 
 BRR  HZ I         551 34.00        22.0 0.12                            75 296 
 RUS  HZ EP   1    551 17.10                             143    -0.1 7  101 179 
 RUS  HN ES   2    551 35.45                             143     0.0 5  101 179 
 RUS  HZ I         551 38.08        11.3 0.14                           101 179 
 GRA  SZ EP   1    551 17.88                             137    -0.6 7  123  15 
 GRA  SZ I         551 41.86         6.6 0.22                           123  15 
 OCA  SZ EP   1    551 21.60                             129    -0.1 7  160 351 
 OCA  SZ ES   1    551 43.30                             129    -0.3 7  160 351 
 OCA  SZ I         551 48.86        12.0 0.08                           160 351 
 YOP  SZ EP   1    551 23.95                             126     0.5 7  178 155 
 NOR  SZ EP        551 29.42                             117    -0.4 8  239 235 
 NOR  SE ES   2    551 56.99                             117    -0.9 4  239 235 
 NOR  SZ I         552  4.70         0.9 0.10                           239 235 
 CHI  HZ EP   1    551 31.71                             116     0.2 6  251 196 
 CHI  HE ES   1    552  0.20                             116    -0.8 6  251 196 
 CHI  HZ I         552  7.89         6.0 0.47                           251 196 
 ROSC BZ EP   1    551 33.04                             116     1.0 6  256 212 
 ROSC BZ I         552  7.99         7.5 0.07                           256 212 
 HEL  HZ EP   1    551 35.02                             114     0.7 6  277 256 
 HEL  HN ES   2    552  5.89                             114    -0.1 4  277 256 
 HEL  HZ I         552 12.60         4.9 0.47                           277 256 
 PRA  HZ EP   1    551 47.16                             106    -0.4 4  395 210 
 PRA  HN ES   2    552 29.13                             106    -0.4 3  395 210 
 PRA  HZ I         552 33.95        17.0 0.91                           395 210 
                                                                                
