 2010  821 0300 58.7 L   6.799 -73.055145.2  RSN 14 0.5 2.4LRSN                1
 GAP=133        1.27       4.9     7.9  7.4 -0.1425E+02 -0.8095E-01  0.4066E+01E
 Epicentro: LOS SANTOS - SANTANDER                                             3
 ACTION:UP  10-09-07 10:56 OP:vdl  STATUS:               ID:20100821030058 L   I
 2010-08-21-0258-20S.COL___120                                                 6
 STAT SP IPHASW D HRMM SECON CODA AMPLIT PERI AZIMU VELO SNR AR TRES W  DIS CAZ7
 BAR2 SZ IP        3 1 18.19                             169    -0.210   27 212 
 BTL  SZ IP        3 1 19.31                             169     1.010   27 299 
 BAR2 SZ ES   1    3 1 32.78                             169    -0.9 7   27 212 
 BAR2 SZ I         3 1 34.69       129.8 0.19                            27 212 
 BTL  SZ ES   1    3 1 34.16                             169     0.5 7   27 299 
 GIR2 SZ EP   1    3 1 19.22                             166     0.8 7   35 334 
 BRR  HZ IP     C  3 1 20.03                             149    -0.310   80 295 
 BRR  HN ES   1    3 1 36.85                             149    -0.3 7   80 295 
 BRR  HZ I         3 1 41.14        38.9 0.19                            80 295 
 RUS  HZ EP        3 1 22.19                             144    -0.210  100 182 
 RUS  HZ I         3 1 23.15        14.8 0.21                           100 182 
 RUS  HN ES   1    3 1 40.77                             144    -0.1 7  100 182 
 GUE  SZ EP        3 1 23.18                             140    -0.110  115   7 
 GRA  SZ IP        3 1 23.97                             137     0.310  123  13 
 GRA  SZ ES   1    3 1 43.58                             137     0.4 7  123  13 
 GRA  SZ I         3 1 46.32        15.9 0.35                           123  13 
 OCA  SZ EP   1    3 1 26.88                             129    -0.2 7  162 350 
 OCA  SZ ES   1    3 1 48.51                             129    -0.8 7  162 350 
 OCA  SZ I         3 1 51.65        32.0 0.22                           162 350 
 CHI  HZ EP   1    3 1 36.55                             117    -0.1 6  251 197 
 CHI  HN ES   2    3 2  6.37                             117     0.1 4  251 197 
 CHI  HZ I         3 2 13.06        10.0 0.52                           251 197 
 HEL  HZ EP   1    3 1 40.08                             114     0.1 6  282 256 
 HEL  HN ES   1    3 2 11.78                             114    -0.4 6  282 256 
 HEL  HZ I         3 2 17.34        12.6 0.57                           282 256 
 GUY  SZ EP   1    3 1 43.52                             112     0.3 5  309 236 
 GUY  SZ I         3 2 23.87        33.4 0.29                           309 236 
 RREF HZ EP        3 1 46.43                             110     0.7 7  329 231 
 RREF HZ I         3 2 32.31         9.6 0.37                           329 231 
 SDV  BZ EP        3 1 46.94                             109    -0.9 6  353  49 
 SDV  BZ I         3 1 48.56         5.4 0.31                           353  49 
 PRA  HZ EP   1    3 1 52.03                             106    -0.8 4  397 211 
 PRA  HE ES   1    3 2 34.58                             106    -0.4 4  397 211 
 PRA  HZ I         3 2 38.88        13.3 0.33                           397 211 
                                                                                
