 2015 1121 0750 45.4 L   6.772 -73.184155.9  RSN  6 0.5 1.4LRSN                1
 GAP=197        1.13       4.9     7.4  9.1  0.1418E+02 -0.5321E+01 -0.9739E+01E
 Epicentro: LOS SANTOS - SANTANDER                                             3
 ACTION:UPD 15-12-28 16:12 OP:cam  STATUS:               ID:20151121075045 L   I
 OLDACT:REG 15-11-21 12:58 OP:dnl  STATUS:               ID:20151121074737     3
 2015-11-21-0747-37M.COL___313                                                 6
 STAT SP IPHASW D HRMM SECON CODA AMPLIT PERI AZIMU VELO AIN AR TRES W  DIS CAZ7
 BRR  HZ EP        751  8.24                             155    0.7410 69.1 302 
 BRR  HN ES        751 25.43                             155    0.6610 69.1 302 
 RUS  HZ EP        751  9.91                             147   -0.0310 97.9 173 
 RUS  HN ES        751 28.57                             147   -0.5310 97.9 173 
 RUS  HZ I         751 29.76         2.0 0.26            147           97.9 173 
 PTB  HZ EP        751 12.58                             135   -0.18 9  143 260 
 PTB  HN ES        751 33.77                             135   -0.36 9  143 260 
 PTB  HZ I         751 35.93         3.4 0.12            133            143 260 
 SPBC HZ EP        751 14.67                             132    0.48 9  158 218 
 SPBC HN ES        751 36.47                             132   -0.21 9  158 218 
 SPBC HZ I         751 41.58         5.0 0.13            131            158 218 
 ZAR  HZ EP        751 18.34                             125    0.12 9  201 293 
 ZAR  HN ES        751 43.73                             125   -0.11 9  201 293 
 ZAR  HZ I         751 49.44         2.9 0.25            124            201 293 
 SML  HZ EP   2    751 22.29                             119   -0.41 4  245 336 
 SML  HN ES        751 50.96                             119   -0.85 8  245 336 
 SML  HZ I         751 53.88                             120            245 336 
                                                                                
