 2017 1021 0621 57.7 L   6.812 -73.145147.1  RSN  8 0.3 1.7LRSN                1
 GAP=111        0.83       3.0     3.6  5.2  0.1550E+01  0.1883E+01  0.4735E+01E
 Epicentro: LOS SANTOS - SANTANDER                                             3
 ACTION:UPD 17-11-07 19:34 OP:rebc STATUS:               ID:20171021062157 L   I
 OLDACT:REG 17-10-21 13:24 OP:dani STATUS:               ID:20171021061336     3
 2017-10-21-0618-00M.COL___447                                                 6
 STAT SP IPHASW D HRMM SECON CODA AMPLIT PERI AZIMU VELO AIN AR TRES W  DIS CAZ7
 BAR2 EZ EP        622 17.22                             170   -0.3210 24.6 190 
 BAR2 EZ ES        622 32.73                             170   -0.2610 24.6 190 
 BAR2 EZ I         622 33.30        15.3 0.34            170           24.6 190 
 BRR  HZ EP        622 19.09                             153    0.1110 70.7 298 
 BRR  HN ES        622 36.00                             153    0.4310 70.7 298 
 BRR  HZ I         622 40.39         9.5 0.20            154           70.7 298 
 PAM  EZ EP        622 20.20                             151    0.1810 76.3  40 
 PAM  EN ES        622 37.04                             151   -0.3610 76.3  40 
 PAM  EZ I         622 39.43        14.3 0.52            154           76.3  40 
 RUS  HZ EP        622 21.42                             144   -0.2710  102 176 
 RUS  HN ES        622 40.58                             144    0.1910  102 176 
 RUS  HZ I         622 41.00         3.6 0.21            145            102 176 
 SPBC HZ EP        622 26.15                             129   -0.27 9  164 219 
 SPBC HN ES        622 48.50                             129   -0.30 9  164 219 
 SPBC HZ I         622 51.56         8.1 0.17            130            164 219 
 YPLC HZ EP        622 27.66                             127   -0.06 9  178 152 
 YPLC HE ES        622 51.89                             127    0.78 9  178 152 
 YPLC HZ I         622 54.43         3.7 0.28            128            178 152 
 ZAR  HN ES        622 55.83                             123    0.28 9  204 292 
 CHI  HZ EP        622 35.85                             117    0.22 8  250 195 
 CHI  HN ES        623  4.98                             117   -0.22 8  250 195 
 CHI  HZ I         623  8.26         2.8 0.47            119            250 195 
                                                                                
