 2017  221 0703 58.2 L   6.744 -73.218144.0  RSN  4 0.4 1.2LRSN                1
 GAP=225        0.78       6.3     6.2  7.7  0.2626E+02 -0.2975E-01 -0.2511E+01E
 Epicentro: VILLANUEVA - SANTANDER                                             3
 ACTION:UPD 17-05-24 15:38 OP:jn   STATUS:               ID:20170221070358 L   I
 OLDACT:UP  17-02-21 18:38 OP:dani STATUS:               ID:20170221065740     3
 OLDACT:UP  17-02-21 18:37 OP:dani STATUS:               ID:20170221065740     3
 OLDACT:REG 17-02-21 14:51 OP:dani STATUS:               ID:20170221065740     3
 2017-02-21-0658-00M.COL___379                                                 6
 STAT SP IPHASW D HRMM SECON CODA AMPLIT PERI AZIMU VELO AIN AR TRES W  DIS CAZ7
 BRR  HZ EP        7 4 19.09                             154    0.1510 67.8 306 
 BRR  HN ES        7 4 35.30                             154    0.1610 67.8 306 
 BRR  HZ I         7 4 40.20         4.3 0.15            155           67.8 306 
 RUS  HZ EP        7 4 21.46                             145    0.0910 95.3 171 
 RUS  HN ES        7 4 39.32                             145   -0.1510 95.3 171 
 RUS  HZ I         7 4 40.58         1.3 0.24            151           95.3 171 
 PTB  HZ EP        7 4 23.78                             134   -0.41 9  139 261 
 PTB  HN ES        7 4 44.91                             134    0.43 9  139 261 
 PTB  HZ I         7 4 47.02         2.8 0.28            138            139 261 
 ZAR  HZ EP   3    7 4 31.50                             123    1.50 2  199 295 
 ZAR  HN ES        7 4 54.37                             123   -0.45 9  199 295 
                                                                                
