 2010 1221 0325 37.4 L   6.582 -72.999  0.0  RSN  7 0.7 2.2LRSN                1
 GAP=192        1.60       6.0     9.6  9.0 -0.2431E+02 -0.6477E+02  0.1144E+02E
 Epicentro: CURITI - SANTANDER                                                 3
 ACTION:UP  11-01-14 15:26 OP:pat  STATUS:               ID:20101221032537 L   I
 2010-12-21-0322-52S.COL___133                                                 6
 STAT SP IPHASW D HRMM SECON CODA AMPLIT PERI AZIMU VELO SNR AR TRES W  DIS CAZ7
 BAR2 SZ IP        325 40.72                              95    -0.910   20 273 
 BAR2 SZ ES   1    325 45.79                              95     0.8 7   20 273 
 BAR2 SZ I         325 47.86       168.1 0.28                            20 273 
 BTL  SZ IP        325 45.16                              47    -0.810   48 321 
 GRA  SZ EP   1    326  0.87                              47     0.1 7  146   9 
 GRA  SZ ES   1    326 19.43                              47     0.4 7  146   9 
 GRA  SZ I         326 27.53        18.4 0.24                           146   9 
 OCA  SZ EP   1    326  6.75                              37     0.0 7  187 349 
 OCA  SZ ES   1    326 30.57                              37     0.8 7  187 349 
 OCA  SZ I         326 37.40        23.5 0.40                           187 349 
 CHI  HZ EP   1    326 12.30                              37    -0.3 6  231 201 
 CHI  HZ I         326 14.74        29.3 0.42                           231 201 
 CHI  HE ES   1    326 40.48                              37     0.4 6  231 201 
 NOR  SZ EP   1    326 14.17                              37     1.3 6  236 242 
 HEL  HZ EP   1    326 19.32                              37     0.2 6  283 261 
 HEL  HE ES   2    326 52.08                              37     0.4 4  283 261 
 HEL  HZ I         326 57.47        17.2 0.18                           283 261 
                                                                                
