 2016 1221 0508 59.7 L   6.758 -73.256158.8  RSN  5 0.1 1.0LRSN                1
 GAP=208        0.37       4.0     2.8  4.6  0.4302E+01 -0.2027E+01  0.6696E+01E
 Epicentro: ZAPATOCA - SANTANDER                                               3
 ACTION:UPD 17-01-11 20:17 OP:rebc STATUS:               ID:20161221050744 L   I
 OLDACT:UPD 16-12-21 15:44 OP:CARA STATUS:               ID:20161221050744 L   3
 2016-12-21-0508-00M.COL___381                                                 6
 STAT SP IPHASW D HRMM SECON CODA AMPLIT PERI AZIMU VELO AIN AR TRES W  DIS CAZ7
 BAR2 EZ EP        5 9 20.97                             172    0.1510 20.0 156 
 BAR2 EZ I         5 9 38.03         3.0 0.30            157           20.0 156 
 BRR  HZ EP        5 9 21.73                             157   -0.1410 63.5 308 
 BRR  HN ES        5 9 39.12                             157   -0.0510 63.5 308 
 BRR  HZ I         5 9 57.85         3.1 0.58            176           63.5 308 
 RUS  HZ EP        5 9 24.56                             147    0.0310 97.5 169 
 RUS  HZ I         5 9 44.12         0.9 0.34            144           97.5 169 
 PTB  HZ EP        5 9 26.56                             138   -0.0910  135 260 
 PTB  HN ES        5 9 47.67                             138   -0.0210  135 260 
 PTB  HZ I         5 9 56.11         1.1 0.46            158            135 260 
 ZAR  HE ES        5 9 57.50                             126    0.14 9  195 295 
                                                                                
