 2013  821 0034  1.9 L   6.735 -73.183149.8  RSN  4 0.5 1.3LRSN                1
 GAP=228        1.12       9.1     9.3 10.0  0.5715E+02 -0.4422E+01 -0.1602E+02E
 Epicentro: VILLANUEVA - SANTANDER                                             3
 ACTION:UPD 14-01-14 09:05 OP:ep   STATUS:               ID:20130821003401 L   I
 OLDACT:REG 13-08-21 08:45 OP:nd   STATUS:               ID:20130821003000     3
 2013-08-21-0030-00M.COL___268                                                 6
 STAT SP IPHASW D HRMM SECON CODA AMPLIT PERI AZIMU VELO AIN AR TRES W  DIS CAZ7
 BRR  HZ EP        034 23.61                             153    0.1510 71.5 305 
 BRR  HN ES        034 40.27                             153   -0.0410 71.5 305 
 BRR  HZ I         034 42.08         3.5 0.36            151           71.5 305 
 RUS  HZ EP        034 26.19                             146    0.6510 93.8 173 
 RUS  HN ES        034 43.56                             146   -0.4510 93.8 173 
 RUS  HZ I         034 47.26         2.1 0.40            143           93.8 173 
 PTB  HZ EP        034 28.76                             134    0.07 9  142 261 
 PTB  HN ES        034 49.70                             134    0.09 9  142 261 
 PTB  HZ I         034 57.06         4.8 0.28            131            142 261 
 ZAR  HZ EP        034 33.50                             123   -0.98 9  203 294 
 ZAR  HN ES        035  0.27                             123    0.36 9  203 294 
                                                                                
