 2017 1121 0329 11.4 L   7.372 -73.307123.7  RSN  4 0.3 1.4LRSN                1
 GAP=256        0.65       6.7     4.6  8.2  0.2221E+02 -0.1003E+02 -0.2787E+02E
 Epicentro: EL PLAYON - SANTANDER                                              3
 ACTION:UPD 17-12-12 19:57 OP:rebc STATUS:               ID:20171121032911 L   I
 OLDACT:UP  17-11-21 15:36 OP:edw  STATUS:               ID:20171121032233     3
 OLDACT:REG 17-11-21 12:30 OP:edw  STATUS:               ID:20171121032233     3
 2017-11-21-0328-00M.COL___489                                                 6
 STAT SP IPHASW D HRMM SECON CODA AMPLIT PERI AZIMU VELO AIN AR TRES W  DIS CAZ7
 BAR2 EZ EP        329 31.52                             143   -0.2010 87.4 171 
 BAR2 EZ ES        329 47.61                             143    0.0810 87.4 171 
 BAR2 EZ I         329 48.52        10.3 0.20            139           87.4 171 
 PTB  HZ EP        329 37.20                             125   -0.42 9  157 234 
 PTB  HN ES        329 58.23                             125    0.19 9  157 234 
 PTB  HZ I         330  4.91         1.2 0.22            121            157 234 
 RUS  HZ EP        329 39.37                             123    0.25 9  165 171 
 RUS  HN ES        330  0.61                             123   -0.09 9  165 171 
 ZAR  HZ EP        329 39.51                             122    0.38 9  172 275 
 ZAR  HN ES        330  0.55                             122   -0.17 9  172 275 
 ZAR  HZ I         330  4.06         3.7 0.26            120            172 275 
                                                                                
