 2011 1221 0503 47.2 L   6.804 -73.099138.5  RSN  5 0.4 1.4LRSN                1
 GAP=243        0.81       5.7     7.4  6.8  0.1598E+02  0.8452E+01  0.7789E+01E
 Epicentro: LOS SANTOS - SANTANDER                                             3
 ACTION:UPD 12-07-13 16:17 OP:ep   STATUS:               ID:20111221050347 L   I
 2011-12-21-0500-00M.COL___189                                                 6
 STAT SP IPHASW D HRMM SECON CODA AMPLIT PERI AZIMU VELO AIN AR TRES W  DIS CAZ7
 BAR2 SZ EP        5 4  6.07                             169    0.1010 25.1 202 
 BAR2 SZ ES        5 4 20.14                             169   -0.4910 25.1 202 
 BAR2 SZ I         5 4 22.71         8.3 0.28                          25.1 202 
 BRR  HZ EP        5 4  8.03                             150    0.2210 75.6 296 
 BRR  HN ES   1    5 4 24.50                             150    0.60 7 75.6 296 
 BRR  HZ I         5 4 28.19         7.3 0.22                          75.6 296 
 RUS  HZ EP   1    5 4  9.86                             142   -0.37 7  101 179 
 RUS  HN ES   1    5 4 28.70                             142    0.49 7  101 179 
 RUS  HZ I         5 4 30.05         3.4 0.17                           101 179 
 PTB  HZ EP   1    5 4 13.67                             129   -0.37 7  153 259 
 PTB  HE ES   1    5 4 34.60                             129   -0.40 7  153 259 
 CHI  HZ EP   1    5 4 24.77                             115    0.09 6  250 196 
 CHI  HN ES   1    5 4 54.23                             115    0.30 6  250 196 
 CHI  HZ I         5 5  1.66         1.2 0.49                           250 196 
                                                                                
