 2017 1021 0108 34.2 L   6.768 -73.141148.2  RSN  5 0.4 1.4LRSN                1
 GAP=139        1.03       5.6     5.4  7.5 -0.2850E+01  0.4871E+01  0.1628E+01E
 Epicentro: LOS SANTOS - SANTANDER                                             3
 ACTION:UPD 17-11-07 19:34 OP:rebc STATUS:               ID:20171021010834 L   I
 OLDACT:REG 17-10-21 12:52 OP:dani STATUS:               ID:20171021010737     3
 2017-10-21-0108-00M.COL___444                                                 6
 STAT SP IPHASW D HRMM SECON CODA AMPLIT PERI AZIMU VELO AIN AR TRES W  DIS CAZ7
 BAR2 EZ EP        1 8 54.18                             172    0.1710 20.0 193 
 BAR2 EZ ES        1 9  9.28                             172   -0.2210 20.0 193 
 BRR  HZ EP        1 8 55.89                             152    0.2010 73.4 301 
 BRR  HE ES        1 9 13.24                             152    0.7610 73.4 301 
 BRR  HZ I         1 9 22.22        13.7 0.29            150           73.4 301 
 PAM  EZ EP        1 8 56.92                             150    0.1510 79.8  38 
 PAM  EN ES        1 9 13.85                             150   -0.5510 79.8  38 
 PAM  EZ I         1 9 14.58         3.7 0.48            154           79.8  38 
 RUS  HZ EP        1 8 58.13                             145    0.2410 97.0 176 
 RUS  HN ES        1 9 16.48                             145    0.0710 97.0 176 
 RUS  HZ I         1 9 17.71         3.0 0.29            150           97.0 176 
 PTB  HZ EP        1 9  0.81                             132   -0.50 9  148 260 
 PTB  HE ES        1 9 22.04                             132   -0.45 9  148 260 
 PTB  HZ I         1 9 25.07         1.9 0.36            133            148 260 
                                                                                
