 2017  221 0433 50.3 L   6.755 -73.153148.2  RSN  5 0.3 1.4LRSN                1
 GAP=233        0.69       5.3     5.0  5.1  0.1652E+02  0.2930E+01 -0.2639E+01E
 Epicentro: LOS SANTOS - SANTANDER                                             3
 ACTION:UPD 17-05-24 15:38 OP:jn   STATUS:               ID:20170221043350 L   I
 OLDACT:DUP 17-02-21 16:14 OP:dani STATUS:               ID:20170221042741d    3
 2017-02-21-0428-00M.COL___379                                                 6
 STAT SP IPHASW D HRMM SECON CODA AMPLIT PERI AZIMU VELO AIN AR TRES W  DIS CAZ7
 BAR2 EZ EP        434 10.02                             173   -0.1410 18.3 190 
 BAR2 EZ ES        434 25.24                             173   -0.3910 18.3 190 
 BAR2 EZ I         434 27.43         6.0 0.36            171           18.3 190 
 BRR  HZ EP     C  434 11.93                             152    0.0810 73.0 302 
 BRR  HN ES        434 28.90                             152    0.2810 73.0 302 
 BRR  HZ I         434 30.81         3.5 0.14            150           73.0 302 
 RUS  HZ EP        434 14.39                             146    0.4110 95.7 175 
 RUS  HN ES        434 32.55                             146    0.1310 95.7 175 
 RUS  HZ I         434 33.51         2.0 0.24            147           95.7 175 
 PTB  HZ EP        434 16.97                             133   -0.38 9  146 261 
 PTB  HN ES        434 38.37                             133   -0.05 9  146 261 
 PTB  HZ I         434 41.31         2.9 0.16            132            146 261 
 ZAR  HZ EP        434 22.88                             123   -0.18 8  205 294 
 ZAR  HE ES        434 48.80                             123    0.21 8  205 294 
 ZAR  HZ I         434 55.05         3.6 0.38            123            205 294 
                                                                                
