 2016  621 0329 18.8 L   6.830 -73.133146.3  RSN 15 0.5 2.0LRSN                1
 GAP=210        1.14       4.0     4.7  5.8  0.2675E+01  0.6815E+01  0.5095E+01E
 Epicentro: LOS SANTOS - SANTANDER                                             3
 ACTION:UPD 16-07-21 22:21 OP:rebc STATUS:               ID:20160621032918 L   I
 OLDACT:REG 16-06-21 14:31 OP:ak   STATUS:               ID:20160621032743     3
 2016-06-21-0327-43M.COL___328                                                 6
 STAT SP IPHASW D HRMM SECON CODA AMPLIT PERI AZIMU VELO AIN AR TRES W  DIS CAZ7
 BAR2 EZ EP        329 38.88                             169    0.2910 26.8 192 
 BAR2 EZ ES        329 53.81                             169   -0.2010 26.8 192 
 BAR2 EZ I         329 55.09        25.4 0.22                          26.8 192 
 BRR  HZ IP     C  329 40.63                             153    0.6210 71.0 296 
 BRR  HN ES        329 57.07                             153    0.5310 71.0 296 
 BRR  HZ I         330  0.88        15.4 0.28                          71.0 296 
 RUS  HZ EP        329 42.47                             143   -0.3910  104 177 
 RUS  HN ES        330  1.57                             143   -0.0310  104 177 
 RUS  HZ I         330  2.63        12.7 0.26                           104 177 
 PTB  HZ EP        329 45.16                             132   -0.86 9  150 258 
 PTB  HN ES        330  6.60                             132   -0.63 9  150 258 
 PTB  HZ I         330  8.69         8.3 0.18                           150 258 
 SPBC HZ EP        329 47.79                             129    0.10 9  167 219 
 SPBC HN ES        330 10.27                             129    0.07 9  167 219 
 SPBC HZ I         330 14.25        16.9 0.22                           167 219 
 ZAR  HZ EP   2    329 50.94                             122   -0.37 4  204 291 
 ZAR  HN ES        330 16.54                             122   -0.11 9  204 291 
 ZAR  HZ I         330 22.37         6.0 0.14                           204 291 
 NOR  HZ EP        329 54.92                             118    0.01 8  238 234 
 NOR  HN ES        330 23.13                             118    0.07 8  238 234 
 NOR  HZ I         330 28.30         6.6 0.16                           238 234 
 CHI  HZ EP        329 57.14                             117    0.21 8  252 195 
 CHI  HN ES        330 26.08                             117   -0.58 8  252 195 
 CHI  HZ I         330 30.43         6.8 0.60                           252 195 
 ROSC BZ EP        329 58.37                             116    1.01 8  256 211 
 ROSC BN ES        330 27.09                             116   -0.32 8  256 211 
 ROSC BZ I         330 33.34        13.3 0.40                           256 211 
 HEL  HZ EP   2    329 59.13                             115   -0.17 4  274 255 
 HEL  HN ES        330 31.49                             115    0.61 8  274 255 
 HEL  HZ I         330 36.94         5.4 0.30                           274 255 
 GUY2CHZ EP   2    330  3.34                             112    0.54 4  304 234 
 GUY2CHN ES        330 37.70                             112    0.60 7  304 234 
 GUY2CHZ I         330 45.12         4.5 0.32                           304 234 
 CBOC HZ EP        330  6.59                             110    0.56 7  336 252 
 CBOC HN ES        330 42.00                             110   -0.85 7  336 252 
 CBOC HZ I         330 47.25         1.3 0.12                           336 252 
 PRA  HZ EP        330 13.37                             106    0.59 6  396 210 
 PRA  HE ES        330 54.15                             106   -0.71 6  396 210 
 PRA  HZ I         330 59.29         5.3 0.70                           396 210 
 ORTC HZ EP        330 12.38                             106   -0.79 6  399 216 
 ORTC HN ES        330 56.50                             106    0.94 6  399 216 
 ORTC HZ I         331  0.20         2.6 0.32                           399 216 
 SJC  HZ EP        330 13.06                             106   -1.11 6  407 327 
 SJC  HN ES   4    330 55.46                             106   -1.88 0  407 327 
                                                                                
