 2014  721 0245 20.9 L   6.755 -73.083142.3  RSN  4 0.6 1.0LRSN                1
 GAP=272        1.48      11.3    11.8 13.4 -0.2160E+02  0.2469E+02  0.7633E+01E
 Epicentro: LOS SANTOS - SANTANDER                                             3
 ACTION:UPD 15-03-16 20:45 OP:nd   STATUS:               ID:20140721024520 L   I
 OLDACT:DUP 14-07-21 15:55 OP:mh   STATUS:               ID:20140721023819d    3
 2014-07-21-0238-18M.COL___266                                                 6
 STAT SP IPHASW D HRMM SECON CODA AMPLIT PERI AZIMU VELO AIN AR TRES W  DIS CAZ7
 BAR2 SZ EP        245 40.39                             171    0.3310 21.0 211 
 BAR2 SZ ES        245 54.30                             171   -0.7110 21.0 211 
 BAR2 SZ I         245 57.21         4.2 0.17            167           21.0 211 
 BRR  HZ EP        245 42.14                             149   -0.0310 79.7 299 
 BRR  HN ES        245 59.58                             149    0.8110 79.7 299 
 BRR  HZ I         246  4.68         2.0 0.42            147           79.7 299 
 PTB  HZ EP        245 47.69                             130   -0.44 9  154 261 
 PTB  HN ES        246  8.65                             130   -0.72 9  154 261 
 PTB  HZ I         246 14.06         0.8 0.19            130            154 261 
 SPBC HN ES        246 11.97                             128    0.71 9  164 222 
 SPBC HZ I         246 15.70         1.1 0.09            130            164 222 
                                                                                
