 2013  921 0806 46.1 L   6.732 -73.193148.8  RSN  5 0.1 1.2LRSN                1
 GAP=177        0.37       2.3     3.3  3.8  0.1568E+01  0.1035E+01 -0.6258E+00E
 Epicentro: VILLANUEVA - SANTANDER                                             3
 ACTION:UPD 13-10-22 09:24 OP:ep   STATUS:               ID:20130921080646 L   I
 OLDACT:REG 13-09-21 08:24 OP:jn   STATUS:               ID:20130921075959     3
 2013-09-21-0759-59M.COL___269                                                 6
 STAT SP IPHASW D HRMM SECON CODA AMPLIT PERI AZIMU VELO AIN AR TRES W  DIS CAZ7
 BAR2 SZ EP   1    8 7  5.70                             174   -0.25 7 15.5 175 
 BAR2 SZ ES   1    8 7 21.42                             174   -0.02 7 15.5 175 
 BAR2 SZ I         8 7 23.40         3.4 0.28            175           15.5 175 
 BRR  HZ EP        8 7  7.55                             153    0.0210 70.7 306 
 BRR  HN ES   1    8 7 24.43                             153    0.17 7 70.7 306 
 BRR  HZ I         8 7 29.54         2.4 0.28            153           70.7 306 
 RUS  HZ EP   1    8 7  9.93                             146    0.28 7 93.6 173 
 RUS  HN ES   1    8 7 27.96                             146   -0.07 7 93.6 173 
 RUS  HZ I         8 7 29.33         1.6 0.38            151           93.6 173 
 PTB  HZ EP   1    8 7 12.66                             134   -0.06 7  141 261 
 PTB  HN ES   1    8 7 33.44                             134   -0.06 7  141 261 
 PTB  HZ I         8 7 36.23         1.9 0.20            136            141 261 
 OCA  HN ES   1    8 7 38.01                             129   -0.04 7  167 355 
 OCA  HZ I         8 7 39.81         3.1 0.24            132            167 355 
                                                                                
