 2012 1221 0719 18.5 L   6.804 -73.162146.0  RSN  8 0.4 1.9LRSN                1
 GAP=134        0.83       4.9     4.4  7.0  0.2484E+01  0.2589E+01  0.8155E+01E
 Epicentro: LOS SANTOS - SANTANDER                                             3
 ACTION:UPD 13-01-04 14:29 OP:ep   STATUS:               ID:20121221071918 L   I
 2012-12-21-0714-40M.COL___196                                                 6
 STAT SP IPHASW D HRMM SECON CODA AMPLIT PERI AZIMU VELO AIN AR TRES W  DIS CAZ7
 BAR2 SZ EP        719 38.08                             170   -0.0510 23.6 186 
 BAR2 SZ I         719 38.63        22.5 0.35                          23.6 186 
 GIR2 SZ EP   1    719 37.59                             168   -0.56 7 30.5 353 
 BRR  HZ EP     C  719 39.77                             153    0.2310 69.4 299 
 BRR  HN ES        719 56.45                             153    0.4710 69.4 299 
 BRR  HZ I         719 59.90        13.2 0.40                          69.4 299 
 PAM  SZ EP        719 40.86                             151    0.1110 78.1  41 
 PAM  SZ I         719 41.22        20.0 0.23                          78.1  41 
 PAM  SE ES   1    719 57.80                             151   -0.33 7 78.1  41 
 RUS  HZ EP        719 42.16                             144   -0.1310  101 175 
 RUS  HN ES   1    720  1.24                             144    0.38 7  101 175 
 RUS  HN I         720  2.69         7.5 0.66                           101 175 
 PTB  HZ EP        719 44.79                             133   -0.52 9  146 259 
 PTB  HE ES   1    720  5.70                             133   -0.54 7  146 259 
 PTB  HZ I         720 11.30         7.3 0.37                           146 259 
 ZAR  HZ EP   1    719 51.25                             123    0.51 6  202 292 
 ZAR  HE ES   1    720 15.90                             123   -0.01 6  202 292 
 ZAR  HZ I         720 21.75         9.8 0.26                           202 292 
 CHI  HZ EP   1    719 56.65                             117    0.47 6  249 195 
                                                                                
