 2013 1021 0813  8.4 L   6.815 -73.176147.1  RSN 12 0.3 1.9LRSN 2.4WRSN        1
 SPEC AVERAGE  MO 12.7 ST  4.1 OM  1.2 f0 6.99 R0.3157 AL 0.00 WI 20.0 MW  2.4 3
 SPEC SD       MO  0.3 ST  7.2 OM  0.3 f0 4.61 R0.1649 AL      WI      MW  0.2 3
 GAP=132        0.72       1.8     2.8  3.7 -0.6480E+00  0.2382E+01  0.2428E+00E
 Epicentro: LOS SANTOS - SANTANDER                                             3
 SPEC BAR2SH Z MO 13.3 ST0.617 OM  1.7 f0 3.05 R0.5095 AL-0.00 WI 20.0 MW  2.8 3
 SPEC BAR2SH Z T 81342 K 0.000 GD  149 VS 4.20 DE 3.20 Q0300.0 QA 0.60 VS 4.20 3
 SPEC BRR HH Z MO 12.7 ST0.773 OM  1.1 f0 5.07 R0.3065 AL-0.00 WI 20.0 MW  2.4 3
 SPEC BRR HH Z T 81344 K 0.000 GD  161 VS 4.20 DE 3.20 Q0300.0 QA 0.60 VS 4.20 3
 SPEC PAM SH Z MO 12.4 ST0.367 OM  0.8 f0 4.93 R0.3152 AL-0.00 WI 20.0 MW  2.2 3
 SPEC PAM SH Z T 81346 K 0.000 GD  166 VS 4.20 DE 3.20 Q0300.0 QA 0.60 VS 4.20 3
 SPEC RUS HH Z MO 12.6 ST0.108 OM  1.0 f0 2.74 R0.5672 AL-0.00 WI 20.0 MW  2.4 3
 SPEC RUS HH Z T 81349 K 0.000 GD  179 VS 4.20 DE 3.20 Q0300.0 QA 0.60 VS 4.20 3
 SPEC PTB HH Z MO 12.3 ST 10.2 OM  0.6 f0 16.2 R0.0959 AL-0.00 WI 20.0 MW  2.2 3
 SPEC PTB HH Z T 81354 K 0.000 GD  206 VS 4.20 DE 3.20 Q0300.0 QA 0.60 VS 4.20 3
 SPEC OCA HH Z MO 12.7 ST  1.0 OM  1.0 f0 5.49 R0.2831 AL-0.00 WI 20.0 MW  2.4 3
 SPEC OCA HH Z T 81357 K 0.000 GD  215 VS 4.20 DE 3.20 Q0300.0 QA 0.60 VS 4.20 3
 SPEC ZAR HH Z MO 12.7 ST  1.6 OM  0.9 f0 6.59 R0.2358 AL-0.00 WI 20.0 MW  2.4 3
 SPEC ZAR HH Z T 814 4 K 0.000 GD  248 VS 4.20 DE 3.20 Q0300.0 QA 0.60 VS 4.20 3
 SPEC NOR HH Z MO 12.5 ST  3.5 OM  0.7 f0 9.55 R0.1627 AL-0.00 WI 20.0 MW  2.3 3
 SPEC NOR HH Z T 81410 K 0.000 GD  275 VS 4.20 DE 3.20 Q0300.0 QA 0.60 VS 4.20 3
 SPEC SML HH Z MO 12.7 ST 25.3 OM  0.9 f0 15.7 R0.0990 AL-0.00 WI 20.0 MW  2.4 3
 SPEC SML HH Z T 81411 K 0.000 GD  282 VS 4.20 DE 3.20 Q0300.0 QA 0.60 VS 4.20 3
 SPEC CHI HH Z MO 12.8 ST0.816 OM  0.9 f0 4.96 R0.3133 AL-0.00 WI 20.0 MW  2.4 3
 SPEC CHI HH Z T 81414 K 0.000 GD  289 VS 4.20 DE 3.20 Q0300.0 QA 0.60 VS 4.20 3
 SPEC PRA HH Z MO 13.3 ST0.458 OM  1.3 f0 2.66 R0.5842 AL-0.00 WI 20.0 MW  2.8 3
 SPEC PRA HH Z T 81442 K 0.000 GD  418 VS 4.20 DE 3.20 Q0300.0 QA 0.60 VS 4.20 3
 OLDACT:REG 13-10-21 08:02 OP:carl STATUS:               ID:20131021080843     3
 ACTION:UPD 13-11-25 09:22 OP:ep   STATUS:               ID:20131021081308 L   I
 OLDACT:UP  13-10-21 09:13 OP:carl STATUS:               ID:20131021080843     3
 2013-10-21-0808-43M.COL___214                                                 6
 STAT SP IPHASW D HRMM SECON CODA AMPLIT PERI AZIMU VELO AIN AR TRES W  DIS CAZ7
 BAR2 SZ EP        813 28.14                             170   -0.0810 24.7 182 
 BAR2 SZ ES        813 43.82                             170    0.1410 24.7 182 
 BAR2 SZ I         813 44.57        43.1 0.32            168           24.7 182 
 BRR  HZ IP        813 29.90                             154    0.4110 67.4 299 
 BRR  HN ES        813 46.36                             154    0.4210 67.4 299 
 BRR  SZ I         813 50.82        10.7 0.36            149           67.4 299 
 PAM  SZ IP     D  813 31.08                             151    0.2610 78.3  42 
 PAM  SN ES        813 48.03                             151   -0.2710 78.3  42 
 PAM  SZ I         813 49.25         5.4 0.44            155           78.3  42 
 RUS  HZ EP        813 32.45                             144    0.0210  103 174 
 RUS  HN ES        813 50.95                             144   -0.2210  103 174 
 RUS  SZ I         813 52.14         8.7 1.02            145            103 174 
 PTB  HZ EP        813 35.00                             133   -0.21 9  145 258 
 PTB  HN ES        813 55.54                             133   -0.58 9  145 258 
 PTB  SZ I         814  1.16         5.6 0.42            130            145 258 
 OCA  HZ EP        813 36.31                             130   -0.32 9  158 354 
 OCA  HN ES        813 58.98                             130    0.34 9  158 354 
 OCA  SZ I         814  6.33         9.1 0.38            130            158 354 
 SPBC HN ES        813 59.01                             129   -0.17 9  162 218 
 ZAR  HZ EP        813 40.59                             123    0.04 9  200 292 
 ZAR  HN ES        814  5.91                             123    0.29 9  200 292 
 ZAR  SZ I         814 14.91         6.8 0.40            122            200 292 
 NOR  HZ EP        813 44.17                             119    0.15 8  233 234 
 NOR  HN ES        814 11.96                             119    0.16 8  233 234 
 NOR  SZ I         814 23.53         3.4 0.58            118            233 234 
 SML  HZ EP        813 44.55                             118   -0.24 8  241 336 
 SML  HN ES        814 12.59                             118   -0.58 8  241 336 
 SML  SZ I         814 18.18         8.2 0.30            118            241 336 
 CHI  HZ EP        813 46.53                             117    0.27 8  249 194 
 CHI  HN ES        814 15.65                             117   -0.14 8  249 194 
 CHI  SZ I         814 20.92         5.5 3.54            118            249 194 
 PRA  HZ EP        814  2.15                             107    0.20 6  392 209 
 PRA  HN ES        814 43.86                             107    0.15 6  392 209 
 PRA  SZ I         815  1.56         9.6 3.90            107            392 209 
                                                                                
