 2014  921 0417 32.2 L   7.405 -73.290121.1  RSN  5 0.3 1.1LRSN                1
 GAP=202        0.70       4.0     5.9  6.9  0.2596E+01  0.3721E+01 -0.1220E+02E
 Epicentro: EL PLAYON - SANTANDER                                              3
 OLDACT:REG 14-09-21 12:57 OP:spq  STATUS:               ID:20140921040818     3
 ACTION:UPD 14-10-03 23:07 OP:nd   STATUS:               ID:20140921041732 L   I
 OLDACT:DUP 14-09-21 19:12 OP:spq  STATUS:               ID:20140921040819d    3
 OLDACT:UP  14-09-21 19:12 OP:spq  STATUS:               ID:20140921040818     3
 2014-09-21-0408-18M.COL___287                                                 6
 STAT SP IPHASW D HRMM SECON CODA AMPLIT PERI AZIMU VELO AIN AR TRES W  DIS CAZ7
 BRR  HZ EP        417 50.07                             153    0.1810 57.1 235 
 BRR  HE ES        418  4.03                             153    0.3410 57.1 235 
 BRR  HZ I         418  5.30         2.5 0.58            150           57.1 235 
 BAR2 SZ ES   1    418  7.70                             141   -0.60 7 90.7 172 
 BAR2 SZ I         418  8.65         4.0 0.13            146           90.7 172 
 PTB  HZ EP        417 58.75                             123    0.18 9  161 233 
 PTB  HE ES   1    418 19.04                             123   -0.10 7  161 233 
 PTB  HZ I         418 23.75         1.0 0.12            124            161 233 
 ZAR  HZ EP   1    417 59.55                             121   -0.34 7  173 273 
 ZAR  HN ES   1    418 21.19                             121   -0.29 7  173 273 
 ZAR  HZ I         418 26.77         1.5 0.24            121            173 273 
 SML  HZ EP        418  0.44                             120    0.21 9  177 331 
 SML  HN ES   1    418 21.70                             120   -0.38 7  177 331 
 SML  HZ I         418 28.34         1.8 0.09            121            177 331 
                                                                                
