 2016  821 0101 26.7 L   6.793 -73.146140.0  RSN 11 0.5 2.1LRSN                1
 GAP=137        1.12       4.1     4.4  7.6 -0.2360E+01  0.7987E+01  0.8139E+01E
 Epicentro: LOS SANTOS - SANTANDER                                             3
 ACTION:UPD 16-10-29 15:37 OP:rebc STATUS:               ID:20160821010126 L   I
 OLDACT:DUP 16-08-21 13:37 OP:dnl  STATUS:               ID:20160821005729d    3
 OLDACT:REG 16-08-21 12:46 OP:dnl  STATUS:               ID:20160821005728     3
 2016-08-21-0058-00M.COL___374                                                 6
 STAT SP IPHASW D HRMM SECON CODA AMPLIT PERI AZIMU VELO AIN AR TRES W  DIS CAZ7
 BAR2 EZ EP        1 1 45.46                             170   -0.2110 22.5 190 
 BAR2 EZ ES   3    1 1 59.83                             170   -0.59 2 22.5 190 
 BAR2 EZ I         1 2  4.88        36.4 0.84                          22.5 190 
 BRR  HZ IP     C  1 1 47.32                             152    0.0310 71.5 299 
 BRR  HN ES        1 2  4.22                             152    0.9010 71.5 299 
 BRR  HZ I         1 2  5.09        16.7 0.28                          71.5 299 
 PAM  EZ IP        1 1 48.27                             150   -0.1210 78.0  39 
 PAM  EN ES        1 2  5.38                             150    0.1110 78.0  39 
 PAM  EZ I         1 2  6.06        19.3 0.20                          78.0  39 
 RUS  HZ EP        1 1 49.92                             143    0.0510 99.8 176 
 RUS  HN ES        1 2  7.87                             143   -0.0410 99.8 176 
 RUS  HZ I         1 2  9.59        13.8 0.28                          99.8 176 
 PTB  HZ EP        1 1 52.31                             131   -0.92 9  148 259 
 PTB  HN ES        1 2 13.05                             131   -0.84 9  148 259 
 PTB  HZ I         1 2 15.13        12.4 0.20                           148 259 
 OCA  HZ EP   4    1 1 56.86                             129    2.17 0  161 353 
 OCA  HN ES   4    1 2 15.09                             129   -1.40 0  161 353 
 OCA  HZ I         1 2 19.62        24.5 0.16                           161 353 
 SPBC HZ EP        1 1 54.47                             128   -0.27 9  163 219 
 SPBC HE ES        1 2 16.80                             128    0.22 9  163 219 
 SPBC HZ I         1 2 22.78        15.8 0.30                           163 219 
 ZAR  HZ EP   2    1 1 59.59                             121    0.74 4  204 292 
 ZAR  HE ES        1 2 23.80                             121   -0.09 9  204 292 
 ZAR  HZ I         1 2 29.34        23.1 0.44                           204 292 
 NOR  HZ EP        1 2  1.78                             118   -0.31 8  234 235 
 NOR  HE ES        1 2 29.71                             118    0.05 8  234 235 
 NOR  HZ I         1 2 35.90        11.3 0.28                           234 235 
 CHI  HZ EP   2    1 2  4.05                             116    0.01 4  248 195 
 CHI  HE ES        1 2 33.29                             116    0.16 8  248 195 
 CHI  HZ I         1 2 37.05         4.3 0.34                           248 195 
 GUY2CHZ EP        1 2 11.08                             112    1.05 7  301 235 
 GUY2CHN ES        1 2 44.52                             112    0.72 7  301 235 
 GUY2CHZ I         1 2 56.03         9.5 0.78                           301 235 
                                                                                
