 2017  621 0624 35.9 L   6.725 -73.177141.7  RSN  7 0.5 1.7LRSN                1
 GAP=212        0.97       4.7     5.6  8.4  0.8622E+01 -0.1838E+02  0.3706E+01E
 Epicentro: VILLANUEVA - SANTANDER                                             3
 ACTION:UPD 17-09-14 16:53 OP:jn   STATUS:               ID:20170621062435 L   I
 OLDACT:DUP 17-06-21 17:38 OP:lv   STATUS:               ID:20170621061738d    3
 2017-06-21-0618-00M.COL___348                                                 6
 STAT SP IPHASW D HRMM SECON CODA AMPLIT PERI AZIMU VELO AIN AR TRES W  DIS CAZ7
 BRR  HZ IP     C  624 56.30                             151   -0.3810 72.7 306 
 BRR  HN ES        625 12.87                             151   -0.0310 72.7 306 
 BRR  HZ I         625 14.89         7.8 0.16            146           72.7 306 
 PTB  HZ EP   9    625  1.27                             132   -0.81 0  143 262 
 PTB  HN ES        625 21.84                                    0.14 9  143 262 
 PTB  HZ I         625 24.88         6.6 0.22            128            143 262 
 SPBC HZ EP        625  3.55                             130    0.30 9  155 220 
 SPBC HN ES        625 24.79                             130    0.19 9  155 220 
 SPBC HZ I         625 29.00         7.2 0.07            126            155 220 
 ZAR  HZ EP        625  8.98                             121    0.90 9  204 295 
 ZAR  HE ES        625 33.09                             121   -0.10 9  204 295 
 ZAR  HZ I         625 39.36         5.5 0.11            119            204 295 
 HEL  HZ EP   4    625 16.61                             114    1.31 0  267 257 
 HEL  HE ES        625 45.42                             114   -0.62 8  267 257 
 HEL  HZ I         625 53.47         2.7 0.17            112            267 257 
 GUY2CHZ EP   9    625 20.53                             112    2.08 0  294 236 
 GUY2CHN ES        625 53.62                                   -0.11 7  294 236 
 GUY2CHZ I         625 59.78         2.8 0.11                           294 236 
 PTGC HZ EP        625 18.09                             111   -0.74 7  302 157 
 PTGC HN ES        625 52.62                             111    0.29 7  302 157 
                                                                                
