 2015 1221 0942  7.5 L   6.815 -73.127141.5  RSN 12 0.4 2.1LRSN                1
 GAP=138        1.09       2.9     3.9  5.5 -0.1541E+01  0.7170E+01  0.6481E+00E
 Epicentro: LOS SANTOS - SANTANDER                                             3
 ACTION:UPD 16-02-04 15:06 OP:cam  STATUS:               ID:20151221094207 L   I
 OLDACT:REG 15-12-21 14:56 OP:cara STATUS:               ID:20151221093748     3
 2015-12-21-0937-48M.COL___320                                                 6
 STAT SP IPHASW D HRMM SECON CODA AMPLIT PERI AZIMU VELO AIN AR TRES W  DIS CAZ7
 BAR2 EZ IP     C  942 26.84                             169    0.1410 25.3 194 
 BAR2 EZ ES        942 41.32                             169   -0.3210 25.3 194 
 BAR2 EZ I         942 42.61        22.3 0.20            169           25.3 194 
 BRR  HZ IP     C  942 28.77                             151    0.4810 72.3 297 
 BRR  HN ES        942 44.93                             151    0.4610 72.3 297 
 BRR  HZ I         942 50.14        22.4 0.46            149           72.3 297 
 PAM  EZ IP     D  942 29.88                             151    0.7410 74.8  39 
 PAM  EN ES        942 46.11                             151    0.1210 74.8  39 
 PAM  EZ I         942 47.27        22.1 0.18            154           74.8  39 
 RUS  HZ EP        942 30.70                             142   -0.2810  102 177 
 RUS  HN ES        942 48.99                             142   -0.2710  102 177 
 RUS  HZ I         942 50.37        10.9 0.32            145            102 177 
 PTB  HZ EP        942 33.60                             130   -0.78 9  150 258 
 PTB  HE ES        942 54.97                             130   -0.34 9  150 258 
 PTB  HZ I         942 56.83        17.9 0.12            130            150 258 
 OCA  HZ EP        942 35.25                             129   -0.14 9  159 352 
 OCA  HN ES        942 56.67                             129   -0.44 9  159 352 
 OCA  HZ I         943  4.20        32.5 0.28            130            159 352 
 ZAR  HZ EP        942 40.47                             121    0.62 8  205 292 
 ZAR  HN ES        943  5.49                             121    0.44 8  205 292 
 ZAR  HZ I         943 13.60        22.0 0.50            121            205 292 
 NOR  HZ EP        942 43.44                             117    0.13 8  237 234 
 NOR  HE ES        943 10.58                             117   -0.63 8  237 234 
 NOR  HZ I         943 17.80         8.1 0.16            118            237 234 
 SML  HZ EP        942 43.04                             117   -0.82 8  243 335 
 SML  HE ES        943 11.93                             117   -0.27 8  243 335 
 SML  HZ I         943 18.60        15.0 0.10            117            243 335 
 CHI  HZ EP        942 45.64                             116    0.41 8  251 196 
 CHI  HE ES        943 14.91                             116    0.28 8  251 196 
 CHI  HZ I         943 24.52         2.8 0.30            118            251 196 
 HEL  HZ EP        942 47.35                             114   -0.46 8  275 256 
 HEL  HE ES        943 19.78                             114    0.56 8  275 256 
 HEL  HZ I         943 26.01         6.8 0.38            114            275 256 
 GUY2CHZ EP        942 51.22                             111   -0.03 7  304 235 
 GUY2CHN ES        943 25.68                             111    0.33 7  304 235 
 GUY2CHZ I         943 34.02         5.5 0.52                           304 235 
                                                                                
