 2015  321 0634 29.8 L   6.811 -73.172144.4  RSN 17 0.5 2.0LRSN                1
 GAP=133        1.58       3.9     5.4  7.4 -0.4911E+01  0.1409E+02  0.1199E+01E
 Epicentro: LOS SANTOS - SANTANDER                                             3
 ACTION:UPD 15-04-30 16:27 OP:nd   STATUS:               ID:20150321063429 L   I
 OLDACT:REG 15-03-21 12:50 OP:stll STATUS:               ID:20150321062748     3
 2015-03-21-0627-48M.COL___272                                                 6
 STAT SP IPHASW D HRMM SECON CODA AMPLIT PERI AZIMU VELO AIN AR TRES W  DIS CAZ7
 BAR2 EZ EP        634 49.18                             170   -0.0910 24.2 183 
 BAR2 EZ ES        635  3.89                             170   -0.5710 24.2 183 
 BAR2 EZ I         635  6.80        20.8 0.22            168           24.2 183 
 BRR  HZ EP        634 50.95                             153    0.3410 68.1 299 
 BRR  HN ES        635  8.10                             153    1.2410 68.1 299 
 BRR  HZ I         635 12.08        15.5 0.14            151           68.1 299 
 PAM  SZ IP     C  634 52.15                             150    0.2410 78.4  42 
 PAM  SN ES        635  9.11                             150   -0.0610 78.4  42 
 PAM  SZ I         635 12.14         7.3 0.48            156           78.4  42 
 RUS  HZ EP        634 53.16                             143   -0.3410  102 174 
 RUS  HN ES        635 11.70                             143   -0.3010  102 174 
 RUS  HZ I         635 12.82         7.8 0.32            146            102 174 
 PTB  HZ EP        634 55.83                             132   -0.58 9  145 258 
 PTB  HE ES        635 17.13                             132   -0.04 9  145 258 
 PTB  HZ I         635 21.67        14.7 0.12            132            145 258 
 OCA  HZ EP        634 58.09                             130    0.24 9  159 354 
 OCA  HN ES        635 19.68                             130   -0.06 9  159 354 
 OCA  HZ I         635 24.11        25.1 0.38            133            159 354 
 SPBC HZ EP     C  634 58.12                             129    0.02 9  162 218 
 SPBC HN ES        635 20.37                             129    0.19 9  162 218 
 SPBC HZ I         635 25.76        19.5 0.42            130            162 218 
 ZAR  HZ EP        635  1.70                             122   -0.12 9  201 292 
 ZAR  HE ES        635 27.35                             122    0.54 9  201 292 
 ZAR  HZ I         635 33.17        11.9 0.30            124            201 292 
 NOR  HZ EP     C  635  5.52                             118    0.26 8  233 234 
 NOR  HN ES        635 32.23                             118   -0.70 8  233 234 
 NOR  HZ I         635 38.64        10.5 0.26            120            233 234 
 SML  HZ EP        635  5.51                             117   -0.58 8  241 336 
 SML  HE ES        635 33.62                             117   -0.79 8  241 336 
 ROSC BZ EP        635  8.96                             116    1.18 8  252 210 
 ROSC BN ES        635 37.41                             116   -0.00 8  252 210 
 ROSC BZ I         635 46.84         9.5 0.35            118            252 210 
 HEL  HZ EP        635  9.38                             115   -0.27 8  270 255 
 HEL  HE ES        635 40.88                             115    0.13 8  270 255 
 HEL  HZ I         635 48.05         6.6 0.26            116            270 255 
 GUY2CHZ EP        635 13.38                             112    0.24 7  300 234 
 GUY2CHN ES        635 46.98                             112    0.02 7  300 234 
 GUY2CHZ I         635 55.63         8.6 0.48                           300 234 
 CBOC HZ EP        635 17.29                             110    0.92 7  331 252 
 CBOC HN ES        635 51.66                             110   -1.05 7  331 252 
 CBOC HZ I         636  6.91         2.2 0.46            111            331 252 
 DBB  SZ EP        635 17.04                             109    0.17 7  337 274 
 ORTC HZ EP        635 22.72                             106   -0.85 6  395 216 
 ORTC HN ES        636  5.83                             106    0.31 6  395 216 
 ORTC HZ I         636 13.01         3.2 0.54            108            395 216 
 SJC  HZ EP   9    635 23.55                             105   -1.45 0  407 327 
 SJC  HN ES        636  2.81                                   -3.81 6  407 327 
 SJC  HZ I         636  7.93         2.2 0.36            108            407 327 
                                                                                
