 2011  621 0215 15.2 L   6.771 -73.048146.5  RSN  6 0.3 1.4LRSN                1
 GAP=167        0.60       4.9     9.6 11.0 -0.9790E+01 -0.4761E+01  0.6963E+01E
 Epicentro: LOS SANTOS - SANTANDER                                             3
 ACTION:UP  11-07-14 19:06 OP:ep   STATUS:               ID:20110621021515 L   I
 2011-06-21-0211-12S.COL___140                                                 6
 STAT SP IPHASW D HRMM SECON CODA AMPLIT PERI AZIMU VELO SNR AR TRES W  DIS CAZ7
 BAR2 SZ EP   1    215 34.83                             170    -0.1 7   25 217 
 BAR2 SZ I         215 36.14         3.9 0.58                            25 217 
 BTL  SZ EP   1    215 35.47                             168     0.4 7   29 304 
 BRR  HZ EP   1    215 37.12                             149     0.1 7   82 297 
 BRR  HZ I         215 47.52         4.1 0.45                            82 297 
 BRR  HN ES   2    215 53.87                             149    -0.3 5   82 297 
 RUS  HZ EP   2    215 38.45                             145    -0.3 5   97 182 
 RUS  HE ES   2    215 57.14                             145     0.0 5   97 182 
 RUS  HZ I         215 57.76         7.8 0.61                            97 182 
 BRI  SZ ES   2    215 58.24                             142     0.4 5  108  15 
 GRA  SZ EP   2    215 40.23                             137    -0.3 5  126  12 
 GRA  SZ ES   2    215 59.79                             137    -0.5 5  126  12 
 GRA  SZ I         216  3.28         4.1 0.37                           126  12 
                                                                                
