 2016  821 0532  9.1 L   6.546 -73.566108.0  RSN  8 0.5 2.0LRSN                1
 GAP=126        1.07       3.6     4.3  7.6 -0.4850E+01  0.1213E+02 -0.2406E+01E
 Epicentro: EL CARMEN - SANTANDER                                              3
 ACTION:UPD 16-10-29 15:37 OP:rebc STATUS:               ID:20160821053209 L   I
 OLDACT:REG 16-08-21 13:03 OP:dnl  STATUS:               ID:20160821052735     3
 2016-08-21-0528-00M.COL___368                                                 6
 STAT SP IPHASW D HRMM SECON CODA AMPLIT PERI AZIMU VELO AIN AR TRES W  DIS CAZ7
 BAR2 EZ IP     D  532 24.92                             157   -0.0110 42.8  83 
 BAR2 EZ ES        532 37.42                             157    0.1310 42.8  83 
 BAR2 EZ I         532 38.61        74.3 0.28                          42.8  83 
 BRR  HZ EP        532 25.69                             147   -0.1310 64.1 345 
 BRR  HE ES        532 39.34                             147    0.4710 64.1 345 
 BRR  HZ I         532 49.70        14.7 0.16                          64.1 345 
 PTB  HZ IP        532 27.77                             134   -0.7410 98.4 270 
 PTB  HE ES        532 42.98                             134   -0.6810 98.4 270 
 PTB  HZ I         532 44.10        19.4 0.18                          98.4 270 
 SPBC HZ EP        532 29.91                             130   -0.0810  114 210 
 SPBC HN ES        532 46.47                             130    0.1810  114 210 
 SPBC HZ I         532 48.90        19.5 0.22                           114 210 
 ZAR  HZ EP        532 37.02                             116    0.63 9  177 306 
 ZAR  HN ES        532 58.23                             116    0.55 9  177 306 
 ZAR  HZ I         533  2.89        17.9 0.50                           177 306 
 NOR  HZ EP   2    532 36.72                             116   -0.11 4  181 233 
 NOR  HN ES        532 58.86                             116    0.38 9  181 233 
 NOR  HZ I         533  1.61         7.3 0.18                           181 233 
 OCA  HZ EP   2    532 38.54                             115    0.62 4  189   8 
 OCA  HN ES        532 59.79                             115   -0.62 9  189   8 
 OCA  HZ I         533  4.64        13.3 0.30                           189   8 
 HEL  HZ EP   2    532 42.47                             111    0.75 4  221 260 
 HEL  HN ES        533  7.00                             111   -0.18 8  221 260 
 HEL  HZ I         533 11.84         4.9 0.18                           221 260 
                                                                                
