 2015 1221 0139  9.1 L   6.699 -73.137143.8  RSN  5 0.3 1.4LRSN                1
 GAP=169        0.73       6.1     3.5  5.3 -0.4748E+01  0.5190E+01 -0.8498E+00E
 Epicentro: VILLANUEVA - SANTANDER                                             3
 ACTION:UPD 16-02-04 15:06 OP:cam  STATUS:               ID:20151221013909 L   I
 OLDACT:REG 15-12-21 14:03 OP:cara STATUS:               ID:20151221013745     3
 2015-12-21-0137-45M.COL___332                                                 6
 STAT SP IPHASW D HRMM SECON CODA AMPLIT PERI AZIMU VELO AIN AR TRES W  DIS CAZ7
 BAR2 EZ IP        139 28.57                             175    0.2110 12.8 203 
 BAR2 EZ ES        139 43.33                             175   -0.0210 12.8 203 
 BAR2 EZ I         139 44.56         7.3 0.30            173           12.8 203 
 BRR  HZ IP        139 30.63                             150    0.1610 77.9 305 
 BRR  HN ES        139 47.61                             150    0.5110 77.9 305 
 BRR  HZ I         139 47.77         4.6 0.12            146           77.9 305 
 PAM  EZ IP        139 31.57                             148   -0.0910 85.7  34 
 PAM  EE ES        139 48.92                             148   -0.3110 85.7  34 
 PAM  EZ I         139 50.56         5.2 0.42            149           85.7  34 
 PTB  HZ EP        139 35.66                             132   -0.21 9  147 263 
 PTB  HN ES        139 56.41                             132   -0.31 9  147 263 
 PTB  HZ I         140  1.95         2.4 0.26            130            147 263 
 ZAR  HZ EP        139 42.33                             121    0.33 8  209 295 
 ZAR  HE ES        140  7.31                             121   -0.33 8  209 295 
 ZAR  HZ I         140 15.29         3.2 0.18            120            209 295 
                                                                                
