 2015  321 0606  3.6 L   6.714 -73.133144.8  RSN  5 0.5 1.3LRSN                1
 GAP=142        1.36       7.2     7.0  9.9 -0.4569E+01  0.8741E+01  0.1774E+01E
 Epicentro: JORDAN - SANTANDER                                                 3
 ACTION:UPD 15-04-30 16:27 OP:nd   STATUS:               ID:20150321060603 L   I
 OLDACT:DUP 15-03-21 15:55 OP:stll STATUS:               ID:20150321055750d    3
 2015-03-21-0557-49M.COL___272                                                 6
 STAT SP IPHASW D HRMM SECON CODA AMPLIT PERI AZIMU VELO AIN AR TRES W  DIS CAZ7
 BAR2 EZ EP        6 6 23.38                             174    0.4410 14.5 202 
 BAR2 EZ I         6 6 23.65         4.9 0.10            172           14.5 202 
 BAR2 EZ ES        6 6 38.62                             174    0.5710 14.5 202 
 BRR  HZ EP        6 6 25.23                             150    0.2510 77.3 304 
 BRR  HZ I         6 6 26.34         5.4 0.48            150           77.3 304 
 BRR  HN ES        6 6 42.31                             150    0.6410 77.3 304 
 PAM  SZ EP     D  6 6 26.23                             148    0.1210 84.1  35 
 PAM  SZ I         6 6 26.42         5.0 0.18            149           84.1  35 
 PAM  SN ES        6 6 42.77                             148   -0.9110 84.1  35 
 RUS  HZ EP        6 6 26.55                             146   -0.0110 91.0 177 
 RUS  HN ES        6 6 44.24                             146   -0.2510 91.0 177 
 RUS  HZ I         6 6 46.86         1.5 0.26            145           91.0 177 
 PTB  HZ EP        6 6 30.39                             132   -0.06 9  148 263 
 PTB  HZ I         6 6 32.47         2.1 0.36            131            148 263 
 PTB  HN ES        6 6 50.50                             132   -0.91 9  148 263 
                                                                                
