 2011 1221 0714  0.1 L   6.718 -73.140142.9  RSN  4 0.2 1.4LRSN                1
 GAP=232        0.52       7.4     4.9  5.2  0.1458E+02  0.4444E+01  0.9176E+01E
 Epicentro: JORDAN - SANTANDER                                                 3
 ACTION:UPD 12-07-13 16:17 OP:ep   STATUS:               ID:20111221071400 L   I
 2011-12-21-0710-00M.COL___189                                                 6
 STAT SP IPHASW D HRMM SECON CODA AMPLIT PERI AZIMU VELO AIN AR TRES W  DIS CAZ7
 BAR2 SZ EP        714 19.35                             174    0.1210 14.7 199 
 BAR2 SZ ES        714 34.00                             174   -0.1610 14.7 199 
 BAR2 SZ I         714 35.85         6.7 0.17                          14.7 199 
 BRR  HZ EP   1    714 21.36                             150    0.12 7 76.5 304 
 BRR  HE ES   1    714 37.78                             150    0.04 7 76.5 304 
 BRR  HZ I         714 42.38         8.7 0.15                          76.5 304 
 RUS  HZ EP   1    714 23.08                             146    0.16 7 91.5 176 
 RUS  HZ I         714 44.36         2.4 0.30                          91.5 176 
 PTB  HZ EP   1    714 26.24                             131   -0.51 7  147 262 
 PTB  HN ES   1    714 47.74                             131    0.20 7  147 262 
                                                                                
