 2017 1021 0902 43.8 L   6.783 -73.154149.5  RSN  5 0.3 1.3LRSN                1
 GAP=136        0.90       4.9     4.7  6.6 -0.2227E+01  0.3633E+01  0.1352E+01E
 Epicentro: LOS SANTOS - SANTANDER                                             3
 ACTION:UPD 17-11-07 19:34 OP:rebc STATUS:               ID:20171021090243 L   I
 OLDACT:UP  17-10-21 19:42 OP:dani STATUS:               ID:20171021085742     3
 OLDACT:UP  17-10-21 19:41 OP:dani STATUS:               ID:20171021085742     3
 OLDACT:REG 17-10-21 13:36 OP:dani STATUS:               ID:20171021085742     3
 2017-10-21-0858-00M.COL___435                                                 6
 STAT SP IPHASW D HRMM SECON CODA AMPLIT PERI AZIMU VELO AIN AR TRES W  DIS CAZ7
 BAR2 EZ EP        9 3  3.80                             171   -0.0110 21.4 188 
 BAR2 EZ ES        9 3 19.32                             171   -0.1210 21.4 188 
 BAR2 EZ I         9 3 19.83         5.6 0.14            171           21.4 188 
 BRR  HZ EP        9 3  5.34                             153    0.0110 71.3 300 
 BRR  HE ES        9 3 22.85                             153    0.7110 71.3 300 
 PAM  EZ EP        9 3  6.64                             151    0.1410 79.4  39 
 PAM  EN ES        9 3 23.77                             151   -0.4610 79.4  39 
 PAM  EZ I         9 3 25.57         4.1 0.52            152           79.4  39 
 RUS  HZ EP        9 3  8.13                             145    0.3710 98.8 175 
 RUS  HN ES        9 3 26.45                             145   -0.0310 98.8 175 
 RUS  HZ I         9 3 27.43         2.6 0.30            146           98.8 175 
 PTB  HZ EP        9 3 10.64                             133   -0.29 9  146 259 
 PTB  HN ES        9 3 31.69                             133   -0.42 9  146 259 
 PTB  HZ I         9 3 35.20         3.0 0.16            133            146 259 
                                                                                
