 2010  221 0541  3.3 L   6.831 -73.037138.3  RSN  5 0.3 1.4LRSN                1
 GAP=194        0.58       4.4    11.4  8.2  0.2095E+02 -0.3873E+02 -0.9355E+01E
 Epicentro: CEPITA - SANTANDER                                                 3
 ACTION:UP  10-08-24 09:50 OP:vdl  STATUS:               ID:20100221054103 L   I
 2010-02-21-0539-53S.COL___094                                                 6
 STAT SP IPHASW D HRMM SECON CODA AMPLIT PERI AZIMU VELO SNR AR TRES W  DIS CAZ7
 BAR2 SZ EP        541 21.98                             167    -0.310   31 212 
 BAR2 SZ ES   2    541 37.19                             167     0.2 5   31 212 
 GIR2 SZ EP        541 22.34                             166     0.210   32 328 
 GIR2 SZ ES   3    541 37.07                             166     0.3 2   32 328 
 BRR  HZ EP        541 24.19                             148    -0.110   81 292 
 BRR  HZ I         541 24.42         3.3 0.16                            81 292 
 BRR  HN ES   2    541 40.56                             148     0.0 5   81 292 
 RUS  BZ EP        541 26.57                             141     0.010  104 183 
 OCA  SZ EP        541 31.18                             128     0.3 9  159 349 
 OCA  SZ ES   2    541 51.71                             128    -0.7 5  159 349 
 OCA  SZ I         541 57.26         4.6 0.40                           159 349 
                                                                                
