 2013 1221 0312 28.7 L   6.757 -73.160142.0  RSN  4 0.3 1.2LRSN                1
 GAP=232        0.61       6.1     7.5  5.9  0.3094E+02  0.1046E+01  0.5749E+01E
 Epicentro: LOS SANTOS - SANTANDER                                             3
 ACTION:UPD 14-01-13 10:19 OP:ep   STATUS:               ID:20131221031228 L   I
 OLDACT:REG 13-12-21 08:40 OP:jn   STATUS:               ID:20131221031000     3
 2013-12-21-0310-00M.COL___285                                                 6
 STAT SP IPHASW D HRMM SECON CODA AMPLIT PERI AZIMU VELO AIN AR TRES W  DIS CAZ7
 BAR2 SZ EP        312 47.91                             172    0.1710 18.4 188 
 BAR2 SZ ES        313  2.28                             172   -0.3510 18.4 188 
 BAR2 SZ I         313  6.13         5.9 0.48            168           18.4 188 
 BRR  HN ES        313  5.79                             151    0.1110 72.2 302 
 RUS  HZ EP        312 51.88                             144    0.1710 96.0 175 
 RUS  HE ES        313  9.70                             144    0.0210 96.0 175 
 RUS  HZ I         313 12.06         1.0 0.22            144           96.0 175 
 PTB  HZ EP   2    312 54.36                             131   -0.74 5  145 261 
 PTB  HE ES   2    313 15.93                             131    0.21 5  145 261 
 PTB  HZ I         313 18.37         3.7 0.82            132            145 261 
                                                                                
