 2015 1121 0744 59.1 L   6.770 -73.163148.0  RSN  6 0.4 1.4LRSN                1
 GAP=199        0.93       5.0     5.9  6.7  0.2966E+01  0.4003E+01 -0.8131E+01E
 Epicentro: LOS SANTOS - SANTANDER                                             3
 ACTION:UPD 15-12-28 16:12 OP:cam  STATUS:               ID:20151121074459 L   I
 OLDACT:REG 15-11-21 12:56 OP:dnl  STATUS:               ID:20151121073744     3
 2015-11-21-0737-44M.COL___313                                                 6
 STAT SP IPHASW D HRMM SECON CODA AMPLIT PERI AZIMU VELO AIN AR TRES W  DIS CAZ7
 BAR2 EZ EP        745 18.76                             172   -0.1310 19.7 186 
 BAR2 EZ ES        745 33.73                             172   -0.6210 19.7 186 
 BRR  HZ EP        745 20.80                             153    0.3610 71.2 302 
 BRR  HN ES   1    745 37.89                             153    0.76 7 71.2 302 
 RUS  HZ EP        745 22.64                             145   -0.1610 97.4 175 
 RUS  HN ES        745 41.69                             145    0.3710 97.4 175 
 RUS  HZ I         745 42.59         2.8 0.24            147           97.4 175 
 PTB  HZ EP        745 25.74                             133   -0.24 9  145 260 
 PTB  HN ES        745 46.55                             133   -0.43 9  145 260 
 SPBC HZ EP        745 27.49                             130    0.12 9  159 219 
 SPBC HN ES        745 49.71                             130    0.26 9  159 219 
 SPBC HZ I         745 52.33         3.2 0.10            131            159 219 
 SML  HZ EP        745 36.09                             118    0.04 8  246 336 
 SML  HE ES   4    746  2.11                             118   -2.79 0  246 336 
 SML  HZ I         746 10.41         2.6 0.13            117            246 336 
                                                                                
