 2016  121 0425  1.4 L   6.799 -73.146146.3  RSN 10 0.2 1.9LRSN                1
 GAP=136        0.60       1.6     2.5  3.7 -0.6656E+00  0.2753E+01 -0.3994E+00E
 Epicentro: LOS SANTOS - SANTANDER                                             3
 ACTION:UPD 16-03-09 23:27 OP:cam  STATUS:               ID:20160121042501 L   I
 OLDACT:REG 16-01-21 13:33 OP:ar   STATUS:               ID:20160121041739     3
 2016-01-21-0417-39M.COL___317                                                 6
 STAT SP IPHASW D HRMM SECON CODA AMPLIT PERI AZIMU VELO AIN AR TRES W  DIS CAZ7
 BAR2 EZ EP        425 21.05                             171   -0.0610 23.2 190 
 BAR2 EZ ES        425 36.28                             171   -0.2010 23.2 190 
 BAR2 EZ I         425 37.61        22.6 0.18            171           23.2 190 
 PAM  EZ EP        425 23.88                             151    0.1810 77.5  40 
 PAM  EN ES        425 41.03                             151   -0.0510 77.5  40 
 PAM  EZ I         425 43.19         9.7 0.48            152           77.5  40 
 RUS  HZ EP        425 25.02                             144   -0.2010  101 176 
 RUS  HN ES        425 44.18                             144    0.4010  101 176 
 RUS  HZ I         425 44.92        13.0 0.22            146            101 176 
 PTB  HZ EP        425 28.11                             132   -0.31 9  148 259 
 PTB  HN ES        425 49.20                             132   -0.28 9  148 259 
 PTB  HZ I         425 51.11         4.4 0.18            132            148 259 
 OCA  HZ EP        425 29.97                             130    0.19 9  160 353 
 OCA  HN ES        425 51.97                             130    0.07 9  160 353 
 OCA  HZ I         425 57.26        10.4 0.24            130            160 353 
 SPBC HZ EP        425 30.00                             129    0.05 9  163 219 
 SPBC HN ES        425 51.94                             129   -0.26 9  163 219 
 SPBC HZ I         425 54.72        17.3 0.26            130            163 219 
 ZAR  HN ES        425 59.56                             122    0.33 9  204 292 
 ZAR  HZ I         426  4.84         7.6 0.32            123            204 292 
 SML  HZ EP        425 37.73                             117   -0.35 8  244 335 
 SML  HN ES        426  6.77                             117    0.10 8  244 335 
 SML  HZ I         426 10.83        10.6 0.28            118            244 335 
 CHI  HZ EP        425 39.12                             117   -0.02 8  249 195 
 CHI  HN ES        426  8.69                             117    0.13 8  249 195 
 CHI  HZ I         426 14.25         2.9 0.62            118            249 195 
 GUY2CHZ EP   4    425 46.91                             112    1.87 0  301 235 
 GUY2CHN ES        426 19.56                             112    0.50 7  301 235 
 GUY2CHZ I         426 28.50         2.8 0.66                           301 235 
                                                                                
