 2013  821 0748 16.7 L   5.969 -74.252 74.8  RSN  6 0.5 1.3LRSN                1
 GAP=125        1.28       4.4     4.8  9.4 -0.9047E+01  0.1416E+02 -0.1137E+02E
 Epicentro: LA BELLEZA - SANTANDER                                             3
 ACTION:UPD 14-01-14 09:05 OP:ep   STATUS:               ID:20130821074816 L   I
 OLDACT:REG 13-08-21 10:10 OP:nd   STATUS:               ID:20130821073959     3
 2013-08-21-0739-59M.COL___269                                                 6
 STAT SP IPHASW D HRMM SECON CODA AMPLIT PERI AZIMU VELO AIN AR TRES W  DIS CAZ7
 SPBC HZ IP     D  748 28.14                             149   -0.3910 40.3 150 
 SPBC HN ES        748 37.85                             149    0.0910 40.3 150 
 SPBC HZ I         748 38.23         6.4 0.24            153           40.3 150 
 PTB  HZ EP        748 29.89                             134   -0.5910 67.0 340 
 PTB  HN ES        748 41.04                             134   -0.2010 67.0 340 
 PTB  HZ I         748 42.21         5.8 0.18            133           67.0 340 
 NOR  HZ EP        748 31.46                             128   -0.4610 81.8 237 
 NOR  HN ES        748 43.97                             128    0.1610 81.8 237 
 NOR  HZ I         748 44.80        19.3 0.14            129           81.8 237 
 BRR  HZ EP        748 38.49                             112    0.45 9  139  25 
 BRR  HN ES        748 55.36                             112    0.67 9  139  25 
 BRR  HZ I         748 58.05         5.3 0.14            113            139  25 
 HEL  HZ EP        748 38.10                             112   -0.89 9  143 280 
 HEL  HN ES        748 56.75                             112    0.36 9  143 280 
 HEL  HZ I         749  0.16         3.2 0.28            112            143 280 
 GUY2CHZ EP        748 39.91                             111    0.23 9  148 236 
 GUY2CHN ES        748 58.38                             111    0.76 9  148 236 
 GUY2CHZ I         749  2.22         3.1 0.46                           148 236 
 ZAR  HZ EP   4    748 35.88                             106   -7.07 0  181 338 
 ZAR  HE ES   4    749  2.39                             106   -1.04 0  181 338 
                                                                                
