 2014  821 0630 48.4 L   6.806 -73.193143.8  RSN  8 0.2 1.5LRSN                1
 GAP=130        0.65       2.8     2.7  4.2 -0.3801E+00  0.2674E+01  0.1534E+01E
 Epicentro: ZAPATOCA - SANTANDER                                               3
 ACTION:UPD 14-09-15 21:51 OP:nd   STATUS:               ID:20140821063048 L   I
 OLDACT:REG 14-08-21 13:17 OP:cam  STATUS:               ID:20140821063000     3
 2014-08-21-0630-00M.COL___285                                                 6
 STAT SP IPHASW D HRMM SECON CODA AMPLIT PERI AZIMU VELO AIN AR TRES W  DIS CAZ7
 BAR2 SZ EP     C  631  7.75                             170   -0.0310 23.7 177 
 BAR2 SZ ES        631 23.01                             170    0.1010 23.7 177 
 BAR2 SZ I         631 24.47         6.7 0.40            171           23.7 177 
 BRR  HZ EP        631  9.54                             154    0.5010 66.3 300 
 BRR  HZ I         631  9.68         9.0 0.20            152           66.3 300 
 BRR  HN ES        631 24.93                             154   -0.2310 66.3 300 
 PAM  SZ IP     C  631 10.75                             149    0.1910 80.3  43 
 PAM  SN ES        631 27.69                             149   -0.1810 80.3  43 
 PAM  SZ I         631 29.96         4.5 0.30            152           80.3  43 
 RUS  HZ EP        631 11.56                             143   -0.4610  102 173 
 RUS  HN ES        631 30.59                             143    0.1310  102 173 
 RUS  HZ I         631 31.86         4.2 0.24            146            102 173 
 PTB  HZ EP        631 14.55                             133   -0.18 9  143 258 
 PTB  HN ES        631 35.32                             133    0.03 9  143 258 
 PTB  HZ I         631 37.91         4.1 0.20            133            143 258 
 SPBC HZ EP        631 16.78                             129    0.31 9  160 217 
 SPBC HN ES        631 38.39                             129    0.01 9  160 217 
 SPBC HZ I         631 41.20         7.1 0.28            130            160 217 
 ZAR  HN ES        631 44.94                             123   -0.02 9  199 293 
 ZAR  HZ I         631 52.04         3.6 0.60            123            199 293 
 GUY2CHZ EP        631 31.17                             112   -0.29 7  297 234 
                                                                                
