 2015  321 0316 32.3 L   6.819 -73.155137.1  RSN 11 0.5 1.6LRSN                1
 GAP= 70        1.23       3.9     4.0  6.4 -0.1238E+01  0.6560E+01 -0.7430E+00E
 Epicentro: LOS SANTOS - SANTANDER                                             3
 ACTION:UPD 15-04-30 16:27 OP:nd   STATUS:               ID:20150321031632 L   I
 OLDACT:REG 15-03-21 12:43 OP:stll STATUS:               ID:20150321030736     3
 2015-03-21-0307-36M.COL___272                                                 6
 STAT SP IPHASW D HRMM SECON CODA AMPLIT PERI AZIMU VELO AIN AR TRES W  DIS CAZ7
 BAR2 EZ EP        316 51.06                             169    0.0810 25.2 187 
 BAR2 EZ ES        317  5.34                             169   -0.1710 25.2 187 
 BAR2 EZ I         317  7.40        11.4 0.24            170           25.2 187 
 BRR  HZ EP        316 53.13                             152    0.6710 69.3 297 
 BRR  HE ES        317  8.28                             152    0.1410 69.3 297 
 BRR  HZ I         317 12.53         8.8 0.26            150           69.3 297 
 PAM  SZ EP        316 54.04                             149    0.4510 76.4  41 
 PAM  SZ I         316 54.25         3.4 0.24            153           76.4  41 
 PAM  SN ES        317 10.73                             149    0.5710 76.4  41 
 RUS  HZ EP        316 55.24                             141   -0.1810  103 176 
 RUS  HE ES        317 13.18                             141   -0.2410  103 176 
 RUS  HZ I         317 14.67         4.0 0.22            145            103 176 
 PTB  HZ EP        316 57.93                             130   -0.64 9  147 258 
 PTB  HN ES        317 19.01                             130   -0.01 9  147 258 
 PTB  HZ I         317 23.06         5.7 0.22            131            147 258 
 TAM  HZ EP        316 59.00                             128   -0.50 9  157 106 
 SPBC HZ EP        317  0.23                             127   -0.06 9  164 218 
 SPBC HN ES        317 21.74                             127   -0.35 9  164 218 
 SPBC HZ I         317 26.15         8.0 0.10            129            164 218 
 ZAR  HZ EP        317  4.85                             121    0.79 9  202 292 
 ZAR  HN ES        317 28.35                             121   -0.45 9  202 292 
 ZAR  HZ I         317 37.35         4.9 0.36            122            202 292 
 SML  HZ EP        317  7.55                             116   -0.70 8  241 335 
 SML  HN ES        317 35.25                             116   -1.00 8  241 335 
 HEL  HZ EP        317 13.32                             113    1.24 8  272 255 
 HEL  HN ES        317 43.14                             113    0.07 8  272 255 
 GUY2CHZ EP        317 15.47                             111   -0.14 7  302 234 
 GUY2CHE ES        317 49.66                             111    0.30 7  302 234 
 GUY2CHZ I         317 59.77         2.1 0.50                           302 234 
                                                                                
