 2012 1221 0121 56.7 L   6.781 -73.151149.4  RSN 13 0.3 2.4LRSN                1
 GAP=111        0.63       2.1     2.4  3.9  0.7462E+00  0.5324E+00  0.8749E+00E
 Epicentro: LOS SANTOS - SANTANDER                                             3
 ACTION:UPD 13-01-04 14:29 OP:ep   STATUS:               ID:20121221012156 L   I
 2012-12-21-0120-00M.COL___243                                                 6
 STAT SP IPHASW D HRMM SECON CODA AMPLIT PERI AZIMU VELO AIN AR TRES W  DIS CAZ7
 BAR2 SZ IP        122 16.61                             172   -0.1010 21.1 189 
 BAR2 SZ ES   1    122 32.33                             172    0.01 7 21.1 189 
 BAR2 SZ I         122 34.27        58.6 0.16                          21.1 189 
 GIR2 SZ EP        122 16.75                             167   -0.0910 33.3 352 
 BRR  HZ EP        122 18.56                             153    0.3110 71.7 300 
 BRR  HN ES        122 35.59                             153    0.5210 71.7 300 
 BRR  HZ I         122 38.16        32.3 0.22                          71.7 300 
 RUS  HZ EP     D  122 20.47                             145   -0.1710 98.5 176 
 RUS  HE ES        122 39.21                             145   -0.1210 98.5 176 
 RUS  HE I         122 40.33        38.4 0.50                          98.5 176 
 PTB  HZ EP        122 23.55                             133   -0.31 9  147 260 
 PTB  HN ES        122 44.74                             133   -0.31 9  147 260 
 PTB  HZ I         122 50.50        39.5 0.28                           147 260 
 TAM  HZ EP        122 24.77                             131    0.12 9  155 104 
 TAM  HZ I         122 24.92        21.5 0.35                           155 104 
 TAM  HE ES   1    122 46.43                             131   -0.04 7  155 104 
 OCA  HZ EP   1    122 25.60                             130    0.13 7  162 353 
 OCA  HN ES   1    122 47.44                             130   -0.48 7  162 353 
 OCA  HZ I         122 52.62        26.3 0.13                           162 353 
 ZAR  HZ EP   1    122 29.10                             123   -0.29 6  204 293 
 ZAR  HN ES   1    122 55.11                             123    0.21 6  204 293 
 ZAR  HZ I         123  1.10        29.6 0.19                           204 293 
 SML  HN ES   1    123  2.45                             118   -0.12 6  245 336 
 SML  HZ I         123  6.40        38.8 0.12                           245 336 
 CHI  HZ EP        122 34.53                             118    0.19 8  246 195 
 CHI  HE ES        123  3.78                             118    0.06 8  246 195 
 CHI  HZ I         123  9.96         9.5 0.45                           246 195 
 ROSC BZ EP   4    122 34.93                             118    0.16 0  251 211 
 ROSC BZ I         123 11.11        26.0 0.50                           251 211 
 HEL  HZ EP   1    122 37.79                             116    0.83 6  271 256 
 HEL  HE ES   1    123  7.86                             116   -0.51 6  271 256 
 HEL  HZ I         123 17.48        10.9 0.29                           271 256 
 MON  HN ES   4    123 22.01                             109   -2.32 0  355 309 
 PRA  HZ EP        122 50.23                             107    0.15 6  390 210 
 PRA  HN ES   1    123 31.92                             107    0.20 4  390 210 
 PRA  HZ I         123 38.40        12.1 0.60                           390 210 
                                                                                
