 2016  821 0512 44.0 L   6.789 -73.183134.6  RSN  6 0.5 1.7LRSN                1
 GAP=138        1.11       5.8     5.1  8.4 -0.8634E+01  0.9609E+01  0.4121E+01E
 Epicentro: LOS SANTOS - SANTANDER                                             3
 ACTION:UPD 16-10-29 15:37 OP:rebc STATUS:               ID:20160821051244 L   I
 OLDACT:REG 16-08-21 13:02 OP:dnl  STATUS:               ID:20160821050736     3
 2016-08-21-0508-00M.COL___368                                                 6
 STAT SP IPHASW D HRMM SECON CODA AMPLIT PERI AZIMU VELO AIN AR TRES W  DIS CAZ7
 BAR2 EZ EP   2    513  1.37                             170   -0.91 5 21.7 180 
 BAR2 EZ ES        513 16.05                             170   -0.4710 21.7 180 
 BAR2 EZ I         513 19.31         9.0 0.30                          21.7 180 
 BRR  HZ EP        513  3.98                             151    0.1810 68.2 301 
 BRR  HN ES        513 20.14                             151    0.9110 68.2 301 
 BRR  HZ I         513 25.93        10.2 0.16                          68.2 301 
 PAM  EZ EP        513  5.31                             147    0.0110 81.0  41 
 PAM  EN ES        513 21.84                             147   -0.0610 81.0  41 
 PAM  EZ I         513 24.10        16.4 0.68                          81.0  41 
 PTB  HZ EP   2    513  9.61                             130   -0.09 5  143 259 
 PTB  HN ES        513 29.11                             130   -0.62 9  143 259 
 PTB  HZ I         513 32.73         7.8 0.48                           143 259 
 SPBC HZ EP        513 11.56                             127    0.21 9  160 218 
 SPBC HN ES        513 33.08                             127    0.43 9  160 218 
 SPBC HZ I         513 37.32         6.7 0.20                           160 218 
 ZAR  HZ EP   2    513 15.67                             120    0.26 4  201 293 
 ZAR  HN ES        513 39.41                             120   -0.48 9  201 293 
 ZAR  HZ I         513 46.42         5.1 0.26                           201 293 
                                                                                
