 2017  221 0149 36.1 L   6.796 -73.925 22.9  RSN  7 0.4 1.6LRSN                1
 GAP=107        0.98       2.8     2.1  3.2 -0.6802E+00  0.6472E+00  0.2143E+01E
 Epicentro: PUERTO PARRA - SANTANDER                                           3
 ACTION:UPD 17-05-24 15:38 OP:jn   STATUS:               ID:20170221014936 L   I
 OLDACT:UP  17-02-21 15:21 OP:dani STATUS:               ID:20170221014742     3
 OLDACT:UP  17-02-21 15:20 OP:dani STATUS:               ID:20170221014742     3
 OLDACT:UP  17-02-21 15:20 OP:dani STATUS:               ID:20170221014742     3
 OLDACT:REG 17-02-21 13:42 OP:dani STATUS:               ID:20170221014742     3
 2017-02-21-0148-00M.COL___379                                                 6
 STAT SP IPHASW D HRMM SECON CODA AMPLIT PERI AZIMU VELO AIN AR TRES W  DIS CAZ7
 BRR  HZ EP     C  149 43.84                             117    0.1310 41.7  34 
 BRR  HE ES        149 49.41                             117   -0.2110 41.7  34 
 BRR  HZ I         149 50.50        36.4 0.10            116           41.7  34 
 PTB  HZ EP     D  149 47.24                             108    0.1810 65.3 244 
 PTB  HN ES        149 55.89                             108    0.3010 65.3 244 
 PTB  HZ I         149 57.09        46.5 0.20            107           65.3 244 
 BAR2 EZ EP        149 49.91                             104   -0.2910 85.1 105 
 ZAR  HZ EP        149 55.50                              56   -0.3610  129 307 
 ZAR  HE ES        150 11.32                              56    0.0610  129 307 
 RUS  HZ EP        149 58.10                              56    0.67 9  137 137 
 RUS  HN ES        150 13.52                              56   -0.52 9  137 137 
 RUS  HZ I         150 15.42         7.5 0.62             56            137 137 
 PAM  EZ EP   2    149 59.72                              56    0.85 5  148  66 
 PAM  EE ES   2    150 17.57                              56    0.96 5  148  66 
 PAM  EZ I         150 18.99         7.2 0.28             56            148  66 
 HEL  HN ES        150 25.13                              56   -0.46 9  190 249 
                                                                                
