 2016 1221 0301 48.7 L   6.783 -73.230154.4  RSN  4 0.4 1.2LRSN                1
 GAP=127        1.08       6.2     5.7  9.4 -0.4263E+01  0.2591E+01  0.7026E+01E
 Epicentro: ZAPATOCA - SANTANDER                                               3
 ACTION:UPD 17-01-11 20:17 OP:rebc STATUS:               ID:20161221025746 L   I
 OLDACT:UPD 16-12-21 15:44 OP:CARA STATUS:               ID:20161221025746 L   3
 2016-12-21-0258-00M.COL___381                                                 6
 STAT SP IPHASW D HRMM SECON CODA AMPLIT PERI AZIMU VELO AIN AR TRES W  DIS CAZ7
 BRR  HZ EP        3 2 11.07                             156    0.6610 64.2 304 
 BRR  HE ES        3 2 27.76                             156    0.4010 64.2 304 
 BRR  HZ I         3 2 28.44         3.6 0.34            157           64.2 304 
 PAM  EZ EP        3 2 11.91                             150   -0.3610 85.0  44 
 PAM  EE ES        3 2 30.41                             150   -0.2610 85.0  44 
 PAM  EZ I         3 2 31.67         1.9 0.50            152           85.0  44 
 RUS  HZ EP        3 2 13.14                             146   -0.0910 99.8 171 
 RUS  HE ES        3 2 32.58                             146    0.2010 99.8 171 
 RUS  HZ I         3 2 33.78         2.9 0.30            147           99.8 171 
 PTB  HZ EP        3 2 15.65                             136    0.11 9  138 259 
 PTB  HN ES        3 2 35.77                             136   -0.72 9  138 259 
 PTB  HZ I         3 2 38.90         2.2 0.14            137            138 259 
                                                                                
