 2017  721 0532 26.2 L   6.774 -73.403124.3  RSN  5 0.2 1.3LRSN                1
 GAP=172        0.54       4.3     4.1  4.3  0.4645E+01  0.2247E+01 -0.8325E+00E
 Epicentro: SAN VICENTE DE CHUCURI - SANTANDER                                 3
 ACTION:UPD 17-08-30 15:35 OP:rebc STATUS:               ID:20170721053226 L   I
 OLDACT:UP  17-07-21 18:08 OP:dnl  STATUS:               ID:20170721052741d    3
 OLDACT:DUP 17-07-21 18:04 OP:dnl  STATUS:               ID:20170721052741d    3
 OLDACT:UP  17-07-21 18:04 OP:dnl  STATUS:               ID:20170721052740     3
 OLDACT:UP  17-07-21 18:03 OP:dnl  STATUS:               ID:20170721052740     3
 OLDACT:REG 17-07-21 12:35 OP:dnl  STATUS:               ID:20170721052740     3
 2017-07-21-0528-00M.COL___389                                                 6
 STAT SP IPHASW D HRMM SECON CODA AMPLIT PERI AZIMU VELO AIN AR TRES W  DIS CAZ7
 BAR2 EZ IP     C  532 43.46                             165    0.0010 31.6 129 
 BAR2 EZ ES        532 56.71                             165   -0.2310 31.6 129 
 BRR  HZ IP     C  532 43.81                             157   -0.0510 50.3 317 
 BRR  HE ES        532 57.97                             157    0.3210 50.3 317 
 BRR  HZ I         532 58.83        14.0 0.10            154           50.3 317 
 RUS  HZ EP   2    532 48.28                             138    0.15 5  104 160 
 RUS  HN ES   2    533  5.71                             138    0.45 5  104 160 
 RUS  HZ I         533  7.73         1.9 0.38            134            104 160 
 PTB  HZ EP        532 48.69                             133   -0.1310  119 258 
 PTB  HN ES   2    533  6.21                             133   -0.27 5  119 258 
 PTB  HZ I         533 11.51         2.1 0.38            127            119 258 
 SPBC HZ EP   9    532 53.58                             128    2.31 0  144 211 
 SPBC HN ES        533 13.41                             126    0.26 9  144 211 
 SPBC HZ I         533 18.03         3.4 0.20            122            144 211 
                                                                                
