 2014  321 0523 20.6 L   6.796 -73.165146.3  RSN  7 0.3 1.7LRSN                1
 GAP=134        0.75       2.8     3.6  7.0 -0.9455E+00  0.8780E+01 -0.3402E+01E
 Epicentro: LOS SANTOS - SANTANDER                                             3
 ACTION:UPD 14-04-09 23:19 OP:nd   STATUS:               ID:20140321052320 L   I
 OLDACT:REG 14-03-21 08:02 OP:mh   STATUS:               ID:20140321051818     3
 2014-03-21-0518-18M.COL___238                                                 6
 STAT SP IPHASW D HRMM SECON CODA AMPLIT PERI AZIMU VELO AIN AR TRES W  DIS CAZ7
 BAR2 SZ EP        523 40.38                             171    0.1110 22.7 185 
 PAM  SZ EP   1    523 43.26                             150    0.30 7 79.0  41 
 PAM  SN ES        524  0.50                             150    0.1010 79.0  41 
 PAM  SZ I         524  2.80        12.0 0.37            155           79.0  41 
 RUS  HZ EP   1    523 44.48                             144    0.11 7  100 175 
 RUS  HN ES        524  2.60                             144   -0.3310  100 175 
 RUS  HZ I         524  4.26         4.4 0.35            148            100 175 
 PTB  HZ EP        523 46.88                             133   -0.52 9  146 259 
 PTB  HN ES        524  8.14                             133   -0.18 9  146 259 
 PTB  HZ I         524 14.12         4.8 0.13            134            146 259 
 SPBC HZ EP        523 49.28                             129    0.31 9  162 218 
 SPBC HN ES        524 11.30                             129    0.19 9  162 218 
 SPBC HZ I         524 16.61         5.2 0.18            132            162 218 
 ZAR  HN ES        524 18.62                             123    0.55 9  202 292 
 SML  HZ EP   1    523 56.95                             118   -0.23 6  243 336 
 SML  HN ES        524 25.36                             118   -0.37 8  243 336 
 SML  HZ I         524 28.78         5.6 0.11            121            243 336 
 SJC  HZ EP   4    524 14.57                             106   -1.50 0  408 327 
 SJC  HN ES   4    524 56.23                             106   -3.12 0  408 327 
                                                                                
