 2014  321 0544 54.5 L   6.860 -73.395111.3  RSN 22 0.5 2.7LRSN                1
 GAP= 50        1.00       2.7     3.2  7.2 -0.1596E+01  0.9476E+01  0.9356E+00E
 Epicentro: SAN VICENTE DE CHUCURI - SANTANDER                                 3
 ACTION:UPD 14-04-09 23:19 OP:nd   STATUS:               ID:20140321054454 L   I
 OLDACT:UP  14-03-21 11:50 OP:mh   STATUS:               ID:20140321053810     3
 OLDACT:UP  14-03-21 11:48 OP:mh   STATUS:               ID:20140321053810     3
 OLDACT:UP  14-03-21 11:45 OP:mh   STATUS:               ID:20140321053810     3
 OLDACT:REG 14-03-21 08:03 OP:mh   STATUS:               ID:20140321053810     3
 2014-03-21-0538-10M.COL___238                                                 6
 STAT SP IPHASW D HRMM SECON CODA AMPLIT PERI AZIMU VELO AIN AR TRES W  DIS CAZ7
 BAR2 SZ IP     D  545 10.96                             160    0.4310 37.8 142 
 BAR2 SZ ES   1    545 22.98                             160   -0.02 7 37.8 142 
 BAR2 SZ I         545 25.33       694.3 0.33            158           37.8 142 
 PAM  SZ EP     D  545 14.86                             137    0.4010 93.4  55 
 PAM  SZ I         545 35.06        33.1 0.24            132           93.4  55 
 RUS  HZ EP     C  545 15.83                             132   -0.2910  112 162 
 RUS  HZ I         545 37.25        40.4 0.27            129            112 162 
 PTB  HZ IP     C  545 15.47                             128   -0.9610  123 253 
 PTB  HN ES   4    545 31.57                             128   -1.94 0  123 253 
 PTB  HZ I         545 36.36       117.1 0.13            127            123 253 
 SPBC HZ IP     C  545 18.92                             122   -0.67 9  153 209 
 SPBC HZ I         545 44.39        96.7 0.20            120            153 209 
 OCA  HZ EP     D  545 19.69                             122    0.07 9  153   3 
 OCA  HN ES        545 39.50                             122    0.30 9  153   3 
 OCA  HZ I         545 45.37        80.1 0.30            118            153   3 
 ZAR  HZ EP   1    545 22.54                             118    0.63 7  176 293 
 ZAR  HN ES   4    545 45.16                             118    1.90 0  176 293 
 ZAR  HZ I         545 49.72        72.3 0.13            115            176 293 
 TAM  HZ EP     D  545 22.99                             116    0.23 9  183 105 
 TAM  HN ES        545 44.42                             116   -0.36 9  183 105 
 TAM  HZ I         545 46.53        36.2 0.23            113            183 105 
 NOR  HZ EP        545 27.26                             112    0.74 8  217 229 
 NOR  HN ES        545 51.29                             112   -0.19 8  217 229 
 NOR  HZ I         545 54.91        71.5 0.17            110            217 229 
 SML  HZ EP        545 27.01                             111   -0.58 8  227 341 
 SML  HZ I         545 59.65       109.4 0.08            108            227 341 
 CHI  HZ EP        545 30.70                             109    0.03 8  249 189 
 CHI  HN ES   1    545 59.65                             109    0.80 6  249 189 
 CHI  HZ I         546  8.58        27.4 0.51            107            249 189 
 URE  HZ EP        545 30.40                             108   -0.50 8  256 293 
 URE  HN ES   4    545 57.37                             108   -1.89 0  256 293 
 URE  HZ I         546  0.93        28.4 0.10            106            256 293 
 GUY2CHZ EP        545 35.11                             106    0.43 7  283 230 
 GUY2CHN ES   4    546  7.46                             106    1.45 0  283 230 
 GUY2CHZ I         546 13.81        33.3 0.14                           283 230 
 RREF HZ EP   1    545 38.05                             104    0.49 5  306 225 
 RREF HN ES   4    546 12.54                             104    1.42 0  306 225 
 VIL  SZ EP        545 36.26                             104   -0.63 7  306 186 
 VIL  SN ES   2    546 10.35                             104    0.42 4  306 186 
 CBOC HZ EP   1    545 38.09                             104    0.67 5  310 249 
 CBOC HN ES        546 10.69                             104   -0.19 7  310 249 
 CBOC HZ I         546 16.30        12.4 0.27            102            310 249 
 DBB  SZ EP        545 37.90                             104    0.38 7  312 273 
 PTGC HZ EP   4    545 36.99                             103   -2.12 0  326 155 
 PTGC HN ES   4    546 11.21                             103   -2.67 0  326 155 
 COD  HZ EP   1    545 40.72                             102   -0.08 5  340 359 
 COD  HE ES   4    546 15.37                             102   -1.53 0  340 359 
 ANIL HZ EP   1    545 41.08                             102   -0.52 5  344 220 
 ANIL HN ES   4    546 21.83                             102    3.52 0  344 220 
 SDV  BZ EP   1    545 45.73                             100    0.13 5  378  54 
 SDV  BN ES   4    546 23.48                             100   -1.95 0  378  54 
 ORTC HZ EP        545 46.42                             100    0.13 6  385 212 
 ORTC HN ES        546 27.00                             100    0.34 6  385 212 
 ORTC HZ I         546 34.89        18.2 0.72             98            385 212 
 SJC  HZ EP   4    545 45.26                             100   -1.49 0  389 330 
 SJC  HN ES   4    546 25.08                             100   -2.41 0  389 330 
 SJC  HZ I         546 31.79         8.8 0.26             97            389 330 
 MACC HZ EP   4    546  1.18                              95   -1.80 0  524 186 
 MACC HN ES   4    546 53.56                              95   -2.82 0  524 186 
                                                                                
