 2010  421 0815 54.3 L   6.834 -73.014142.3  RSN  5 0.3 1.8LRSN                1
 GAP=204        0.71       4.9     8.5  7.4 -0.9056E+01 -0.2097E+02 -0.7054E+01E
 Epicentro: CEPITA - SANTANDER                                                 3
 ACTION:UPD 10-08-24 10:00 OP:vdl  STATUS:               ID:20100421081554 L   I
 2010-04-21-0814-43S.COL___104                                                 6
 STAT SP IPHASW D HRMM SECON CODA AMPLIT PERI AZIMU VELO AIN AR TRES W  DIS CAZ7
 BAR2 SZ EP        816 13.57                             166    -0.210   33 215 
 BAR2 SZ ES   1    816 28.69                             166    -0.3 7   33 215 
 BRR  HZ EP        816 15.96                             148     0.110   83 291 
 BRR  HE ES   1    816 32.92                             148     0.3 7   83 291 
 GUE  SZ EP        816 18.50                             140     0.210  111   5 
 GUE  SZ ES   2    816 37.49                             140     0.6 5  111   5 
 GRA  SZ EP        816 18.93                             138     0.310  119  11 
 GRA  SZ ES   2    816 37.53                             138    -0.1 5  119  11 
 OCA  SZ EP        816 21.95                             129    -0.3 9  159 348 
 OCA  SZ ES   1    816 43.46                             129    -0.6 7  159 348 
 OCA  SZ I         816 48.44         7.6 0.25                           159 348 
                                                                                
