 2016  821 0503 19.6 L   6.761 -73.166147.5  RSN  5 0.4 1.5LRSN                1
 GAP=243        0.82       5.1     6.1  7.0  0.5461E+01  0.1135E+02  0.4759E+01E
 Epicentro: LOS SANTOS - SANTANDER                                             3
 ACTION:UPD 16-10-29 15:37 OP:rebc STATUS:               ID:20160821050319 L   I
 OLDACT:UP  16-08-21 14:57 OP:dnl  STATUS:               ID:20160821045636     3
 OLDACT:REG 16-08-21 13:02 OP:dnl  STATUS:               ID:20160821045636     3
 2016-08-21-0457-00M.COL___368                                                 6
 STAT SP IPHASW D HRMM SECON CODA AMPLIT PERI AZIMU VELO AIN AR TRES W  DIS CAZ7
 BAR2 EZ EP   2    5 3 39.05                             172   -0.29 5 18.8 186 
 BAR2 EZ ES        5 3 54.36                             172   -0.3910 18.8 186 
 BAR2 EZ I         5 3 57.38         4.6 0.50                          18.8 186 
 BRR  HZ EP        5 3 40.88                             153   -0.0510 71.4 302 
 BRR  HN ES        5 3 58.22                             153    0.6410 71.4 302 
 BRR  HZ I         5 3 59.78         3.5 0.14                          71.4 302 
 PTB  HZ EP   2    5 3 46.02                             133   -0.40 5  145 260 
 PTB  HE ES        5 4  7.29                             133   -0.07 9  145 260 
 PTB  HZ I         5 4  8.77         4.1 0.20                           145 260 
 SPBC HZ EP        5 3 48.14                             130    0.37 9  158 219 
 SPBC HN ES        5 4  9.76                             130    0.01 9  158 219 
 SPBC HZ I         5 4 12.93         4.5 0.28                           158 219 
 ZAR  HZ EP   2    5 3 52.31                             123    0.21 4  204 293 
 ZAR  HE ES        5 4 16.99                             123   -0.47 9  204 293 
 ZAR  HZ I         5 4 19.91         3.6 0.22                           204 293 
                                                                                
