 2011  421 0712  9.3 L   6.783 -73.105147.1  RSN  8 0.4 1.9LRSN                1
 GAP=142        1.16       5.7    10.5  9.8 -0.1316E+02 -0.1141E+01 -0.5882E+00E
 Epicentro: LOS SANTOS - SANTANDER                                             3
 ACTION:UP  11-06-22 15:32 OP:REBC STATUS:               ID:20110421071209 L   I
 2011-04-21-0710-06S.COL___139                                                 6
 STAT SP IPHASW D HRMM SECON CODA AMPLIT PERI AZIMU VELO SNR AR TRES W  DIS CAZ7
 BAR2 SZ IP        712 28.78                             171    -0.310   23 202 
 BTL  SZ IP        712 30.07                             170     1.010   23 310 
 BTL  SZ ES   2    712 45.33                             170     0.8 5   23 310 
 BAR2 SZ I         712 45.31        27.8 0.12                            23 202 
 PAM  SZ IP        712 31.77                             151     0.210   76  36 
 PAM  SZ I         712 31.95         4.4 0.25                            76  36 
 PAM  SN ES   1    712 48.99                             151     0.0 7   76  36 
 BRR  HZ IP     C  712 30.62                             151    -0.310   76 298 
 BRR  HN ES   1    712 47.45                             151    -0.3 7   76 298 
 BRR  HZ I         712 51.53        24.4 0.26                            76 298 
 RUS  HZ EP        712 32.73                             145    -0.310   99 179 
 RUS  HN ES   1    712 51.39                             145    -0.2 7   99 179 
 RUS  HZ I         712 52.58        11.3 0.31                            99 179 
 GRA  SZ EP        712 34.61                             137    -0.110  126  15 
 GRA  SZ ES   1    712 54.24                             137    -0.3 7  126  15 
 GRA  SZ I         712 55.35         6.8 0.23                           126  15 
 OCA  SZ EP        712 37.96                             129     0.0 9  163 352 
 OCA  SZ I         713  3.60        12.6 0.32                           163 352 
 ROSC BZ EP   2    712 48.54                             117     0.9 4  254 212 
                                                                                
