 2016  421 0821 49.0 L   6.757 -73.138148.0  RSN 14 0.4 2.0LRSN                1
 GAP= 66        1.00       2.9     3.3  5.8 -0.8106E+00  0.5149E+01 -0.4995E+00E
 Epicentro: LOS SANTOS - SANTANDER                                             3
 ACTION:UPD 16-05-05 14:23 OP:rebc STATUS:               ID:20160421082149 L   I
 OLDACT:UP  16-04-21 18:51 OP:cara STATUS:               ID:20160421081746     3
 OLDACT:UP  16-04-21 18:51 OP:cara STATUS:               ID:20160421081746     3
 OLDACT:UP  16-04-21 18:50 OP:cara STATUS:               ID:20160421081746     3
 OLDACT:ARG 16-04-21 12:49 OP:cara STATUS:               ID:20160421081746     3
 2016-04-21-0817-46M.COL___297                                                 6
 STAT SP IPHASW D HRMM SECON CODA AMPLIT PERI AZIMU VELO AIN AR TRES W  DIS CAZ7
 BAR2 EZ IP     D  822  9.08                             172    0.2310 18.9 195 
 BAR2 EZ ES        822 24.03                             172   -0.2810 18.9 195 
 BAR2 EZ I         822 25.32        26.2 0.20            169           18.9 195 
 PAM  EZ EP        822 12.29                             150    0.6210 80.5  37 
 PAM  EE ES        822 29.32                             150   -0.0110 80.5  37 
 PAM  EZ I         822 31.69        23.2 0.46            155           80.5  37 
 RUS  HZ EP        822 12.66                             145   -0.0110 95.8 176 
 RUS  HN ES        822 30.84                             145   -0.2610 95.8 176 
 RUS  HZ I         822 34.59         5.5 0.48            146           95.8 176 
 PTB  HZ EP        822 16.33                             132    0.15 9  148 261 
 PTB  HN ES   4    822 35.97                             132   -1.39 0  148 261 
 PTB  HZ I         822 41.92        14.4 0.32            132            148 261 
 TAM  HZ EP        822 17.14                             131    0.44 9  153 103 
 TAM  HN ES        822 38.37                             131    0.09 9  153 103 
 SPBC HZ EP        822 17.87                             130    0.46 9  160 220 
 SPBC HN ES        822 39.51                             130   -0.04 9  160 220 
 SPBC HZ I         822 46.59        12.7 0.16            130            160 220 
 OCA  HZ EP        822 17.76                             129   -0.20 9  165 353 
 OCA  HE ES        822 39.90                             129   -0.63 9  165 353 
 OCA  HZ I         822 43.30        26.9 0.32            132            165 353 
 ZAR  HZ EP        822 22.01                             122    0.12 8  207 293 
 ZAR  HN ES        822 47.93                             122    0.40 8  207 293 
 ZAR  HZ I         822 53.16        11.1 0.30            123            207 293 
 NOR  HE ES        822 52.96                             119    0.48 8  233 236 
 NOR  HZ I         822 56.56         7.4 0.18            120            233 236 
 CHI  HZ EP   4    822 24.96                             118   -1.43 0  244 196 
 CHI  HN ES        822 54.95                             118   -0.58 8  244 196 
 CHI  HZ I         823  3.62         3.5 0.68            119            244 196 
 HEL  HZ EP   4    822 31.15                             115    1.82 0  272 257 
 HEL  HE ES   4    822 55.80                             115   -4.96 0  272 257 
 HEL  HZ I         823  8.02         4.6 0.32            116            272 257 
 URE  HZ EP        822 29.55                             114   -0.95 7  286 293 
 URE  HE ES   4    823  1.25                             114   -1.60 0  286 293 
 GUY2CHZ EP   4    822 34.52                             113    2.00 0  299 236 
 GUY2CHN ES   4    823  7.12                             113    0.68 0  299 236 
 GUY2CHZ I         823 15.48         4.8 0.64                           299 236 
 PTGC HZ EP        822 31.76                             112   -0.69 7  304 158 
 PTGC HE ES   4    823  4.82                             112   -1.50 0  304 158 
 SJC  HZ EP   4    822 43.53                             106   -1.66 0  414 327 
 SJC  HN ES   4    823 27.65                             106   -1.34 0  414 327 
                                                                                
