 2012  221 0802 44.3 L   6.799 -73.020149.8  RSN  5 0.4 1.2LRSN                1
 GAP=216        0.75       8.1    14.5  7.6  0.5175E+02 -0.1116E+01  0.1478E+02E
 ACTION:UP  12-03-07 16:32 OP:epov STATUS:               ID:20120221080244 L   I
 2012-02-21-0800-00M.COL___191                                                 6
 STAT SP IPHASW D HRMM SECON CODA AMPLIT PERI AZIMU VELO AIN AR TRES W  DIS CAZ7
 BAR2 SZ EP   1    8 3  4.58                             169    0.00 7 29.0 218 
 BAR2 SZ ES   1    8 3 19.67                             169   -0.69 7 29.0 218 
 BAR2 SZ I         8 3 22.11         3.0 0.26                          29.0 218 
 GIR2 SZ EP   1    8 3  4.59                             166   -0.05 7 36.4 328 
 GIR2 SZ ES   1    8 3 21.02                             166    0.55 7 36.4 328 
 BRR  HZ EP   1    8 3  6.34                             149   -0.32 7 83.7 294 
 BRR  HN ES   1    8 3 24.20                             149    0.13 7 83.7 294 
 BRR  HZ I         8 3 25.50         6.6 0.46                          83.7 294 
 RUS  HN ES   2    8 3 27.72                             145    0.42 5  100 184 
 RUS  HZ I         8 3 28.01         1.4 0.31                           100 184 
 CHI  HZ EP   1    8 3 23.01                             117    0.33 6  252 198 
                                                                                
