 2014 1221 0007 36.6 L   6.869 -73.317123.0  RSN 15 0.4 2.1LRSN                1
 GAP= 53        1.01       2.6     2.8  5.5 -0.8390E+00  0.2740E+01  0.1493E+01E
 Epicentro: BETULIA - SANTANDER                                                3
 ACTION:UPD 15-02-10 17:06 OP:nd   STATUS:               ID:20141221000736 L   I
 OLDACT:REG 14-12-21 12:16 OP:spq  STATUS:               ID:20141221000000     3
 2014-12-21-0000-00M.COL___302                                                 6
 STAT SP IPHASW D HRMM SECON CODA AMPLIT PERI AZIMU VELO AIN AR TRES W  DIS CAZ7
 BAR2 EZ EP        0 7 54.07                             164    0.2110 34.1 154 
 BAR2 EZ ES   1    0 8  7.55                             164    0.26 7 34.1 154 
 BAR2 EZ I         0 8  8.43        99.9 0.34            164           34.1 154 
 BRR  HZ EP     D  0 7 54.46                             156    0.2410 50.9 301 
 BRR  HE ES        0 8  8.37                             156    0.4410 50.9 301 
 BRR  HZ I         0 8  8.88        28.7 0.12            155           50.9 301 
 PAM  SZ EP        0 7 57.14                             143    0.0510 85.8  53 
 PAM  SE ES        0 8 13.26                             143    0.2310 85.8  53 
 PAM  SZ I         0 8 15.29        21.5 0.22            146           85.8  53 
 RUS  HZ EP        0 7 58.98                             135   -0.1210  111 167 
 RUS  HN ES   1    0 8 16.44                             135   -0.19 7  111 167 
 PTB  HZ EP        0 7 59.39                             130   -0.8710  131 254 
 PTB  HN ES   1    0 8 17.87                             130   -0.81 7  131 254 
 PTB  HZ I         0 8 21.20        39.9 0.12            129            131 254 
 OCA  HZ EP        0 8  2.21                             126   -0.20 9  151 360 
 OCA  HE ES        0 8 21.97                             126   -0.54 9  151 360 
 OCA  HZ I         0 8 23.21        43.3 0.32            127            151 360 
 SPBC HZ EP        0 8  3.26                             124    0.24 9  158 212 
 SPBC HN ES        0 8 22.88                             124   -0.72 9  158 212 
 SPBC HZ I         0 8 26.47        21.9 0.42            124            158 212 
 TAM  HZ EP        0 8  4.91                             121    0.21 9  175 106 
 TAM  HN ES   1    0 8 26.28                             121   -0.31 7  175 106 
 TAM  HZ I         0 8 28.83         9.0 0.36            122            175 106 
 ZAR  HZ EP        0 8  5.40                             120   -0.12 9  184 292 
 ZAR  HN ES        0 8 28.82                             120    0.77 9  184 292 
 ZAR  HZ I         0 8 35.13        17.5 0.28            120            184 292 
 NOR  HZ EP        0 8 10.51                             114    0.50 8  224 230 
 NOR  HN ES        0 8 35.87                             114   -0.17 8  224 230 
 NOR  HZ I         0 8 41.07        10.9 0.28            114            224 230 
 SML  HZ EP        0 8 10.71                             114    0.23 8  229 339 
 SML  HN ES   1    0 8 36.15                             114   -0.72 6  229 339 
 CHI  HZ EP        0 8 14.03                             112    0.48 8  252 191 
 CHI  HE ES   1    0 8 42.31                             112   -0.04 6  252 191 
 CHI  HZ I         0 8 48.81         4.2 0.42            112            252 191 
 HEL  HZ EP   4    0 8 15.22                             111    1.27 0  256 253 
 HEL  HN ES        0 8 43.05                             111   -0.00 8  256 253 
 HEL  HZ I         0 8 46.72         7.2 0.68            111            256 253 
 CBOC HZ EP   4    0 8 22.18                             106    1.27 0  318 250 
 CBOC HE ES   1    0 8 56.26                             106    0.83 5  318 250 
 CBOC HZ I         0 8 58.87         3.5 0.22            106            318 250 
 SJC  HZ EP   4    0 8 28.11                             102   -1.46 0  393 329 
 SJC  HN ES   4    0 9  7.98                             102   -2.87 0  393 329 
 SJC  HZ I         0 9 14.61         3.3 0.36            103            393 329 
                                                                                
