 2017  121 0324 14.7 L   7.335 -73.205135.5  RSN  5 0.3 1.4LRSN                1
 GAP=174        0.69       6.6     3.7  7.4  0.1293E+01  0.1729E+01 -0.2001E+02E
 Epicentro: RIONEGRO - SANTANDER                                               3
 ACTION:UPD 17-05-22 16:01 OP:jn   STATUS:               ID:20170121032414 L   I
 OLDACT:REG 17-01-21 12:27 OP:dani STATUS:               ID:20170121031741     3
 2017-01-21-0318-00M.COL___342                                                 6
 STAT SP IPHASW D HRMM SECON CODA AMPLIT PERI AZIMU VELO AIN AR TRES W  DIS CAZ7
 PAM  EZ EP        324 34.46                             157   -0.2110 55.8  89 
 BRR  HZ EP        324 34.23                             154   -0.0110 61.4 246 
 BRR  HE ES        324 49.34                             154   -0.1010 61.4 246 
 BRR  HZ I         324 49.78         5.5 0.15            154           61.4 246 
 BAR2 EZ ES        324 52.58                             147    0.3010 82.2 178 
 PTB  HZ EP        324 42.69                             126    0.24 9  164 238 
 PTB  HN ES        325  3.59                             126   -0.46 9  164 238 
 ZAR  HN ES        325  7.77                             123    0.27 9  183 276 
                                                                                
