 2011 1221 0324  7.0 L   6.791 -73.143142.0  RSN 11 0.3 2.2LRSN                1
 GAP=137        0.63       2.5     3.2  4.0 -0.1203E+01  0.2196E+01  0.1935E+01E
 Epicentro: LOS SANTOS - SANTANDER                                             3
 ACTION:UPD 12-07-13 16:17 OP:ep   STATUS:               ID:20111221032407 L   I
 2011-12-21-0320-00M.COL___189                                                 6
 STAT SP IPHASW D HRMM SECON CODA AMPLIT PERI AZIMU VELO AIN AR TRES W  DIS CAZ7
 BAR2 SZ EP        324 26.23                             171    0.0310 22.4 191 
 BAR2 SZ ES        324 40.95                             171   -0.2010 22.4 191 
 BAR2 SZ I         324 43.75        37.1 0.43                          22.4 191 
 GIR2 SZ EP        324 26.27                             167   -0.0310 32.3 350 
 BRR  HZ IP     C  324 28.12                             152    0.2910 71.9 299 
 BRR  HN ES        324 44.60                             152    0.5610 71.9 299 
 BRR  HZ I         324 48.84        36.8 0.11                          71.9 299 
 PAM  SZ EP   1    324 28.83                             150   -0.06 7 77.9  39 
 PAM  SN ES   1    324 45.72                             150   -0.21 7 77.9  39 
 RUS  HZ EP        324 30.37                             143    0.0210 99.6 176 
 RUS  HN ES   1    324 48.57                             143    0.03 7 99.6 176 
 PTB  HZ EP        324 33.16                             131   -0.56 9  148 259 
 PTB  HN ES   1    324 54.06                             131   -0.46 7  148 259 
 OCA  SZ EP   1    324 35.04                             129   -0.12 7  161 353 
 OCA  SZ ES   1    324 57.10                             129    0.01 7  161 353 
 OCA  SZ I         325  1.74        23.2 0.41                           161 353 
 NOR  SE ES   1    325 10.44                             118    0.24 6  234 235 
 CHI  HZ EP        324 44.52                             116    0.08 8  248 195 
 CHI  HN ES   1    325 13.88                             116    0.27 6  248 195 
 CHI  HZ I         325 21.37         6.3 0.36                           248 195 
 HEL  HZ EP   1    324 47.10                             114    0.02 6  272 256 
 HEL  HN ES   1    325 18.00                             114   -0.30 6  272 256 
 HEL  HZ I         325 24.68        13.2 0.33                           272 256 
 PRA  HZ EP   1    325  0.83                             106    0.47 4  391 210 
                                                                                
