 2016  821 0429 55.2 L   5.896 -73.795110.9  RSN  9 0.5 1.5LRSN                1
 GAP=136        1.05       3.4     3.8  7.8 -0.1196E+01  0.1529E+01 -0.4592E+01E
 Epicentro: JESUS MARIA - SANTANDER                                            3
 ACTION:UPD 16-10-29 15:37 OP:rebc STATUS:               ID:20160821042955 L   I
 OLDACT:REG 16-08-21 13:00 OP:dnl  STATUS:               ID:20160821042741     3
 2016-08-21-0428-00M.COL___362                                                 6
 STAT SP IPHASW D HRMM SECON CODA AMPLIT PERI AZIMU VELO AIN AR TRES W  DIS CAZ7
 SPBC HZ EP        430 11.21                             158    0.1010 40.8 229 
 SPBC HN ES        430 23.34                             158   -0.1510 40.8 229 
 SPBC HZ I         430 23.99        13.2 0.28                          40.8 229 
 PTB  HZ EP        430 14.94                             134   -0.2910  102 314 
 PTB  HN ES        430 30.29                             134   -0.5410  102 314 
 PTB  HZ I         430 32.51         3.9 0.12                           102 314 
 BAR2 EZ EP        430 16.10                             134    0.5110  103  41 
 BAR2 EZ ES        430 31.73                             134    0.2810  103  41 
 BAR2 EZ I         430 34.13        13.5 0.54                           103  41 
 NOR  HZ EP        430 17.73                             128    0.3710  124 253 
 NOR  HE ES        430 35.19                             128    0.5910  124 253 
 NOR  HZ I         430 35.98        10.4 0.34                           124 253 
 BRR  HZ EP        430 18.42                             125    0.1810  134   4 
 BRR  HN ES   4    430 37.77                             125    1.60 0  134   4 
 BRR  HZ I         430 39.07         7.1 0.16                           134   4 
 CHI  HZ EP   2    430 18.60                             124   -0.78 5  140 177 
 CHI  HN ES        430 37.72                             124   -0.49 9  140 177 
 CHI  HZ I         430 42.03         2.0 0.28                           140 177 
 HEL  HZ EP   2    430 25.07                             115   -0.03 4  195 280 
 HEL  HN ES        430 48.87                             115    0.48 9  195 280 
 HEL  HZ I         430 52.34         3.2 0.38                           195 280 
 ZAR  HZ EP   3    430 26.36                             112   -0.22 2  212 326 
 ZAR  HE ES        430 50.10                             112   -0.93 8  212 326 
 ZAR  HZ I         430 54.55         3.3 0.18                           212 326 
 PRA  HZ EP   2    430 32.99                             106   -0.29 4  270 207 
 PRA  HE ES   4    431  3.89                             106    0.94 0  270 207 
 PRA  HZ I         431  6.68         2.1 0.28                           270 207 
                                                                                
