 2012  121 0754 37.0 L   6.319 -73.730 99.3  RSN  4 0.2 1.5LRSN                1
 GAP=164        0.45       3.1     2.5  5.7  0.2405E+01  0.2800E+01  0.7463E+01E
 Epicentro: SANTA HELENA DEL OPON - SANTANDER                                  3
 ACTION:UP  12-02-03 08:19 OP:REBC STATUS:               ID:20120121075437 L   I
 2012-01-21-0750-00M.COL___186                                                 6
 STAT SP IPHASW D HRMM SECON CODA AMPLIT PERI AZIMU VELO SNR AR TRES W  DIS CAZ7
 BAR2 SZ EP   1    754 53.35                             143    -0.1 7   68  63 
 BAR2 SZ ES   1    755  6.04                             143    -0.3 7   68  63 
 BAR2 SZ I         755  8.01        13.9 0.43                            68  63 
 PTB  HZ EP        754 54.37                             137    -0.110   84 287 
 PTB  HE ES   1    755  8.06                             137     0.0 7   84 287 
 RUS  HZ EP        754 55.44                             137     0.210   86 123 
 RUS  HN ES   2    755  9.63                             137     0.1 5   86 123 
 BRR  HZ EP        754 54.71                             136     0.010   87   1 
 BRR  HZ I         754 55.07         5.7 0.12                            87   1 
 BRR  HN ES        755  8.70                             136     0.210   87   1 
                                                                                
