 2017  321 0610 23.9 L   6.784 -73.167146.4  RSN  6 0.5 1.5LRSN                1
 GAP=145        1.14       5.9     6.5  8.5 -0.1665E+02 -0.5580E+01  0.2123E+02E
 Epicentro: LOS SANTOS - SANTANDER                                             3
 ACTION:UPD 17-05-25 18:43 OP:jn   STATUS:               ID:20170321061023 L   I
 OLDACT:REG 17-03-21 14:13 OP:dnl  STATUS:               ID:20170321060742     3
 2017-03-21-0608-00M.COL___382                                                 6
 STAT SP IPHASW D HRMM SECON CODA AMPLIT PERI AZIMU VELO AIN AR TRES W  DIS CAZ7
 BAR2 EZ EP        610 43.33                             171   -0.2410 21.2 185 
 BAR2 EZ ES        610 58.99                             171    0.0810 21.2 185 
 BAR2 EZ I         611  1.57         6.6 0.44            170           21.2 185 
 BRR  HZ IP     D  610 45.09                             153    0.0310 70.1 301 
 BRR  HE ES        611  2.50                             153    0.9410 70.1 301 
 BRR  HZ I         611  4.87         5.5 0.62            152           70.1 301 
 PAM  EZ EP        610 46.33                             150   -0.0310 80.3  40 
 PAM  EN ES        611  3.43                             150   -0.4410 80.3  40 
 PAM  EZ I         611  4.13         4.5 0.18            154           80.3  40 
 PTB  HZ EP   2    610 49.96                             133   -0.73 5  145 259 
 PTB  HN ES        611 10.77                             133   -0.81 9  145 259 
 PTB  HZ I         611 16.62         4.8 0.18            133            145 259 
 SPBC HZ EP        610 52.52                             130    0.34 9  160 219 
 SPBC HN ES        611 14.15                             130   -0.09 9  160 219 
 SPBC HZ I         611 16.73         8.4 0.26            131            160 219 
 CHI  HZ EP        611  1.97                             117    0.59 8  246 195 
 CHI  HN ES        611 30.52                             117   -0.09 8  246 195 
 CHI  HZ I         611 33.33         1.4 0.26            119            246 195 
                                                                                
