 2012  221 0356 13.5 L   6.769 -73.163145.1  RSN  7 0.4 1.5LRSN                1
 GAP=136        0.75       4.1     5.1  6.1 -0.2730E+01  0.3078E+01  0.7767E+01E
 ACTION:UP  12-03-07 16:32 OP:epov STATUS:               ID:20120221035613 L   I
 2012-02-21-0350-00M.COL___191                                                 6
 STAT SP IPHASW D HRMM SECON CODA AMPLIT PERI AZIMU VELO AIN AR TRES W  DIS CAZ7
 BAR2 SZ EP   1    356 32.84                             172   -0.17 7 19.7 186 
 BAR2 SZ ES   1    356 47.82                             172   -0.38 7 19.7 186 
 BAR2 SZ I         356 50.25         7.6 0.32                          19.7 186 
 GIR2 SZ EP   1    356 33.44                             166    0.23 7 34.4 354 
 GIR2 SZ ES   1    356 48.79                             166    0.23 7 34.4 354 
 BRR  HZ EP   1    356 34.84                             152    0.23 7 71.3 302 
 BRR  HE ES   1    356 51.42                             152    0.37 7 71.3 302 
 BRR  HZ I         356 53.25        10.9 0.16                          71.3 302 
 PAM  SZ EP   1    356 35.86                             149   -0.05 7 81.2  39 
 PAM  SE ES   1    356 52.84                             149   -0.52 7 81.2  39 
 PAM  SZ I         356 54.70         4.2 0.26                          81.2  39 
 RUS  HZ EP   1    356 37.02                             144    0.04 7 97.3 175 
 RUS  HN ES   1    356 55.86                             144    0.59 7 97.3 175 
 RUS  HZ I         356 56.50         2.4 0.30                          97.3 175 
 PTB  HZ EP   1    356 39.83                             132   -0.39 7  145 260 
 PTB  HN ES   1    357  0.80                             132   -0.23 7  145 260 
 CHI  HZ EP   1    356 51.42                             117    0.64 6  245 195 
 CHI  HN ES   1    357 19.16                             117   -0.68 6  245 195 
                                                                                
