 2010  821 0330 17.5 L   6.769 -73.101141.5  RSN  6 0.3 1.5LRSN                1
 GAP=164        0.68       3.9     7.9  7.0 -0.3009E+01 -0.1729E+02 -0.2081E+01E
 Epicentro: LOS SANTOS - SANTANDER                                             3
 ACTION:UP  10-09-07 10:56 OP:vdl  STATUS:               ID:20100821033017 L   I
 2010-08-21-0327-36S.COL___120                                                 6
 STAT SP IPHASW D HRMM SECON CODA AMPLIT PERI AZIMU VELO SNR AR TRES W  DIS CAZ7
 BAR2 SZ EP        330 36.52                             171    -0.110   22 205 
 BAR2 SZ I         330 36.86         9.1 0.07                            22 205 
 BAR2 SZ ES   1    330 51.24                             171    -0.3 7   22 205 
 BTL  SZ EP        330 36.65                             170     0.010   25 312 
 BRR  HZ EP        330 38.33                             150    -0.210   77 299 
 BRR  HZ I         330 38.81        12.4 0.09                            77 299 
 BRR  HE ES   1    330 55.26                             150     0.3 7   77 299 
 RUS  HZ EP        330 40.63                             144     0.010   97 179 
 RUS  HN ES   2    330 59.09                             144     0.5 5   97 179 
 RUS  HZ I         331  1.09         2.6 0.28                            97 179 
 GUE  SZ EP        330 42.48                             138     0.410  119   9 
 GRA  SZ EP   1    330 42.32                             135    -0.2 7  128  15 
 GRA  SZ ES   1    331  1.92                             135    -0.2 7  128  15 
 GRA  SZ I         331  4.71         3.5 0.42                           128  15 
                                                                                
