 2014  421 0552  0.1 L   6.814 -73.170143.7  RSN  5 0.3 1.6LRSN                1
 GAP=176        0.80       3.5     4.0  7.4 -0.4654E+01  0.8951E+01 -0.3270E+01E
 Epicentro: LOS SANTOS - SANTANDER                                             3
 ACTION:UPD 14-05-13 23:10 OP:nd   STATUS:               ID:20140421055200 L   I
 OLDACT:REG 14-04-21 14:40 OP:spq  STATUS:               ID:20140421054817     3
 2014-04-21-0548-17M.COL___230                                                 6
 STAT SP IPHASW D HRMM SECON CODA AMPLIT PERI AZIMU VELO AIN AR TRES W  DIS CAZ7
 PAM  SZ EP        552 22.17                             150    0.0210 77.9  42 
 PAM  SN ES        552 39.38                             150    0.0410 77.9  42 
 PAM  SZ I         552 41.53         5.2 0.20            157           77.9  42 
 PTB  HZ EP        552 26.32                             132   -0.40 9  145 258 
 PTB  HN ES        552 46.92                             132   -0.54 9  145 258 
 PTB  HZ I         552 54.99         4.4 0.36            134            145 258 
 SPBC HZ EP        552 28.34                             129   -0.08 9  163 218 
 SPBC HN ES        552 50.90                             129    0.40 9  163 218 
 SPBC HZ I         552 55.45         6.0 0.22            132            163 218 
 ZAR  HZ EP        552 32.60                             122    0.48 9  201 292 
 ZAR  HN ES        552 57.50                             122    0.42 9  201 292 
 ZAR  HZ I         553  3.71         3.8 0.30            125            201 292 
 SML  HZ EP        552 36.23                             117   -0.13 8  241 336 
 SML  HN ES        553  4.52                             117   -0.11 8  241 336 
 SML  HZ I         553  9.08         5.9 0.10            121            241 336 
                                                                                
