 2013  521 0146 36.4 L   6.714 -73.188135.5  RSN  4 0.3 1.6LRSN                1
 GAP=226        0.77       8.0     5.5  6.7  0.1669E+02  0.5861E+01  0.1786E+02E
 Epicentro: VILLANUEVA - SANTANDER                                             3
 ACTION:UPD 13-06-20 09:52 OP:ep   STATUS:               ID:20130521014636 L   I
 2013-05-21-0138-39M.COL___222                                                 6
 STAT SP IPHASW D HRMM SECON CODA AMPLIT PERI AZIMU VELO AIN AR TRES W  DIS CAZ7
 BAR2 SZ EP        146 54.30                             174   -0.2910 13.5 177 
 BAR2 SZ ES        147  8.76                             174   -0.0410 13.5 177 
 BAR2 SZ I         147 10.82         6.3 0.36            175           13.5 177 
 BRR  HZ EP        146 56.16                             150   -0.3210 72.4 307 
 BRR  HN ES        147 12.52                             150    0.3510 72.4 307 
 BRR  HN I         147 13.92        11.2 0.26            152           72.4 307 
 RUS  HZ EP        146 58.70                             144    0.2510 91.6 173 
 PTB  HZ EP        147  2.29                             131    0.36 9  142 262 
 PTB  HN ES        147 21.59                             131   -0.29 9  142 262 
                                                                                
