 2014  821 0213 54.6 L   6.792 -73.193135.9  RSN  9 0.3 1.8LRSN                1
 GAP=131        0.76       2.6     3.4  4.5 -0.1286E+01  0.4078E+01 -0.9917E+00E
 Epicentro: ZAPATOCA - SANTANDER                                               3
 ACTION:UPD 14-09-15 21:51 OP:nd   STATUS:               ID:20140821021354 L   I
 OLDACT:UP  14-08-21 14:12 OP:cam  STATUS:               ID:20140821021000     3
 OLDACT:REG 14-08-21 12:49 OP:cam  STATUS:               ID:20140821021000     3
 2014-08-21-0210-00M.COL___285                                                 6
 STAT SP IPHASW D HRMM SECON CODA AMPLIT PERI AZIMU VELO AIN AR TRES W  DIS CAZ7
 BAR2 SZ EP     D  214 13.09                             170    0.0410 22.2 177 
 BAR2 SZ ES        214 27.45                             170    0.0310 22.2 177 
 BAR2 SZ I         214 28.81        18.9 0.20            167           22.2 177 
 BRR  HZ EP     C  214 15.00                             152    0.5210 67.1 301 
 BRR  HN ES        214 30.31                             152    0.3510 67.1 301 
 BRR  HN I         214 36.76        23.2 0.16            143           67.1 301 
 PAM  SZ EP     D  214 16.05                             148   -0.0210 81.4  42 
 PAM  SN ES        214 32.73                             148   -0.0610 81.4  42 
 PAM  SZ I         214 34.98        10.7 0.50            146           81.4  42 
 RUS  HZ EP        214 17.25                             142   -0.1510  100 173 
 RUS  HE ES        214 35.04                             142   -0.1210  100 173 
 RUS  HZ I         214 36.29         5.2 0.24            138            100 173 
 PTB  HZ EP        214 19.82                             131   -0.50 9  142 259 
 PTB  HN ES        214 40.23                             131   -0.13 9  142 259 
 PTB  HZ I         214 42.85        10.3 0.16            123            142 259 
 SPBC HZ EP        214 22.06                             127    0.05 9  159 218 
 SPBC HN ES        214 43.18                             127   -0.19 9  159 218 
 SPBC HZ I         214 47.06         5.6 0.64            121            159 218 
 SML  HZ EP        214 30.84                             115    0.26 8  242 336 
 SML  HN ES        214 58.02                             115   -0.59 8  242 336 
 HEL  HZ EP   4    214 35.53                             113    1.76 0  267 256 
 HEL  HZ I         215 12.02         5.0 0.30            107            267 256 
 GUY2CHZ EP        214 37.82                             111    0.56 7  296 234 
 GUY2CHZ I         215 18.48         2.5 0.28                           296 234 
                                                                                
