 2015  721 0112 54.6 L   7.615 -73.651 96.0  RSN  6 0.4 1.8LRSN                1
 GAP=103        1.01       3.3     3.7 10.0  0.3804E+01  0.1221E+02  0.1116E+02E
 Epicentro: SABANA DE TORRES - SANTANDER                                       3
 ACTION:UPD 15-09-08 21:49 OP:cam  STATUS:               ID:20150721011254 L   I
 OLDACT:UP  15-07-30 07:12 OP:AK   STATUS:               ID:20150721011254 L   3
 OLDACT:DUP 15-07-21 13:26 OP:stll STATUS:               ID:20150721010741d    3
 2015-07-21-0107-40M.COL___337                                                 6
 STAT SP IPHASW D HRMM SECON CODA AMPLIT PERI AZIMU VELO AIN AR TRES W  DIS CAZ7
 OCA  HZ EP     C  113 11.70                             138    0.2510 78.1  28 
 OCA  HN ES        113 24.73                             138    0.1510 78.1  28 
 OCA  HZ I         113 27.02        58.5 0.38            140           78.1  28 
 PAM  EZ EP        113 15.27                             128    0.5510  109 106 
 PAM  EN ES        113 30.33                             128   -0.0810  109 106 
 PAM  EZ I         113 32.22        14.8 0.30            130            109 106 
 BAR2 EZ EP        113 15.46                             124   -0.4310  124 155 
 BAR2 EZ ES        113 32.38                             124   -0.1110  124 155 
 BAR2 EZ I         113 32.86         6.7 0.34            126            124 155 
 ZAR  HZ EP        113 17.17                             122    0.5910  134 264 
 ZAR  HN ES        113 33.69                             122   -0.0210  134 264 
 ZAR  HZ I         113 35.99         9.2 0.14            123            134 264 
 SML  HZ EP        113 16.49                             120   -0.63 9  139 341 
 SML  HN ES   2    113 33.63                             120   -1.05 5  139 341 
 SML  HZ I         113 39.71        13.9 0.10            122            139 341 
 RUS  HZ EP        113 24.86                             111    0.28 9  201 162 
 RUS  HE ES        113 47.56                             111   -0.40 9  201 162 
 RUS  HZ I         113 54.88         2.2 0.26            112            201 162 
                                                                                
