 2011  521 0511 12.0 L   6.779 -73.102140.5  RSN 10 0.3 1.8LRSN                1
 GAP=143        0.70       3.9     5.4  5.8 -0.7628E+01  0.6544E+01 -0.4680E+01E
 Epicentro: LOS SANTOS - SANTANDER                                             3
 ACTION:UP  11-06-29 08:55 OP:tino STATUS:               ID:20110521051112 L   I
 2011-05-21-0507-39S.COL___141                                                 6
 STAT SP IPHASW D HRMM SECON CODA AMPLIT PERI AZIMU VELO SNR AR TRES W  DIS CAZ7
 BAR2 SZ EP        511 30.84                             170    -0.110   23 203 
 BAR2 SZ ES   1    511 45.61                             170    -0.2 7   23 203 
 BAR2 SZ I         511 46.96        17.4 0.23                            23 203 
 BTL  SZ EP        511 31.35                             169     0.310   24 310 
 GIR2 SZ EP        511 31.23                             165     0.110   35 343 
 PAM  SZ EP   1    511 33.79                             150     0.2 7   76  36 
 PAM  SE ES   1    511 50.45                             150     0.0 7   76  36 
 BRR  HZ EP   1    511 32.82                             149    -0.1 7   77 298 
 BRR  HN ES   1    511 49.73                             149     0.5 7   77 298 
 BRR  HZ I         511 50.83        21.8 0.17                            77 298 
 RUS  HZ EP   2    511 34.93                             143    -0.1 5   98 179 
 RUS  HE ES   1    511 52.83                             143    -0.2 7   98 179 
 RUS  HZ I         511 55.25         4.8 0.29                            98 179 
 BRI  SZ EP   1    511 35.52                             140     0.1 7  109  18 
 GRA  SZ EP   1    511 36.74                             135    -0.1 7  127  15 
 GRA  SZ ES   1    511 55.58                             135    -0.7 7  127  15 
 GRA  SZ I         511 57.34        10.2 0.38                           127  15 
 OCA  SZ EP   1    511 40.27                             128     0.1 7  163 352 
 OCA  SZ I         512  5.02         8.3 0.43                           163 352 
 HEL  HZ EP   1    511 52.58                             113     0.2 6  276 257 
 HEL  HE ES   2    512 22.97                             113    -1.0 4  276 257 
 HEL  HZ I         512 30.01         3.3 0.30                           276 257 
                                                                                
