 2015  321 0853 52.0 L   7.493 -73.172130.1  RSN 18 0.6 2.6LRSN                1
 GAP=103        1.63       4.2     5.9  8.1  0.9238E+00  0.1641E+02  0.7732E+01E
 Epicentro: EL PLAYON - SANTANDER                                              3
 ACTION:UPD 15-04-30 16:28 OP:nd   STATUS:               ID:20150321085352 L   I
 OLDACT:REG 15-03-21 12:56 OP:stll STATUS:               ID:20150321084749     3
 2015-03-21-0847-49M.COL___260                                                 6
 STAT SP IPHASW D HRMM SECON CODA AMPLIT PERI AZIMU VELO AIN AR TRES W  DIS CAZ7
 PAM  SZ IP     D  854 11.79                             156    0.5610 54.8 108 
 PAM  SZ I         854 12.06       116.1 0.20            162           54.8 108 
 PAM  SN ES        854 26.75                             156    0.4910 54.8 108 
 BRR  HZ IP     D  854 11.98                             149    0.4110 73.4 234 
 BRR  HN ES        854 26.96                             149    0.0910 73.4 234 
 BRR  HZ I         854 32.04        62.7 0.16            142           73.4 234 
 OCA  HZ EP        854 13.00                             145    0.4910 84.1 349 
 OCA  HN ES        854 28.84                             145    0.3010 84.1 349 
 OCA  HZ I         854 33.53        66.7 0.16            141           84.1 349 
 BAR2 EZ IP     D  854 13.67                             140   -0.1110 99.6 181 
 BAR2 EZ I         854 13.90        39.7 0.12            138           99.6 181 
 BAR2 EZ ES        854 30.74                             140   -0.0510 99.6 181 
 SML  HZ EP        854 20.16                             123   -0.26 9  175 326 
 SML  HN ES        854 42.33                             123   -0.28 9  175 326 
 SML  HZ I         854 49.43        48.6 0.10            119            175 326 
 RUS  HZ EP        854 20.01                             123   -1.25 9  177 177 
 RUS  HN ES        854 42.88                             123   -1.23 9  177 177 
 PTB  HZ EP     C  854 20.10                             123   -0.49 9  177 233 
 PTB  HN ES        854 42.76                             123   -0.16 9  177 233 
 PTB  HZ I         854 45.76        45.3 0.38            119            177 233 
 ZAR  HZ EP     C  854 21.35                             121   -0.19 9  186 270 
 ZAR  HE ES        854 44.90                             121    0.28 9  186 270 
 ZAR  HZ I         854 49.15        51.6 0.24            117            186 270 
 SPBC HZ IP     D  854 25.72                             116   -0.27 8  227 206 
 SPBC HN ES        854 52.31                             116   -0.22 8  227 206 
 SPBC HZ I         855  0.61        36.8 0.34            113            227 206 
 URE  HZ EP   9    854 28.50                             112   -1.35 0  262 276 
 URE  HE ES        854 57.20                                   -0.85 8  262 276 
 URE  HZ I         855  8.26        34.5 0.24            109            262 276 
 NOR  HZ EP        854 32.14                             110   -0.27 7  284 221 
 NOR  HN ES        855  4.45                             110    0.49 7  284 221 
 NOR  HZ I         855 12.04        25.7 0.22            108            284 221 
 DBB  SZ EP     D  854 38.38                             106   -0.49 7  340 261 
 DBB  SZ I         854 38.90        36.5 0.40            104            340 261 
 SJC  HZ EP   9    854 38.89                             106   -0.66 0  346 320 
 SJC  HZ I         854 39.80         5.4 0.26            104            346 320 
 SJC  HN ES        855 13.23                                   -2.77 6  346 320 
 GUY2CHZ EP        854 40.75                             106    0.29 6  349 224 
 GUY2CHN ES        855 18.40                             106    0.12 6  349 224 
 GUY2CHZ I         855 28.91        17.4 0.70                           349 224 
 CBOC HZ EP        854 41.53                             105   -0.08 6  362 240 
 CBOC HZ I         855 34.03         4.3 0.48            103            362 240 
 CRJC HZ EP   9    854 43.52                             104   -1.45 0  391   5 
 CRJC HN ES        855 22.73                                   -2.14 6  391   5 
 TOL  SZ EP        854 48.21                             103    1.92 6  400 217 
 TOL  SE ES        855 29.38                             103    0.72 6  400 217 
 ORTC HZ EP        854 52.77                             101   -0.09 5  458 210 
 ORTC HN ES        855 40.77                             101    0.42 5  458 210 
 ORTC HZ I         855 50.52         5.4 0.60             99            458 210 
                                                                                
