 2014  421 0125 40.1 L   6.812 -73.135148.0  RSN  7 0.5 1.6LRSN                1
 GAP=137        1.02       4.4     7.4  9.8 -0.4044E+01  0.1752E+02 -0.1359E+01E
 Epicentro: LOS SANTOS - SANTANDER                                             3
 ACTION:UPD 14-05-13 23:10 OP:nd   STATUS:               ID:20140421012540 L   I
 OLDACT:REG 14-04-21 13:40 OP:spq  STATUS:               ID:20140421011805     3
 2014-04-21-0118-05M.COL___236                                                 6
 STAT SP IPHASW D HRMM SECON CODA AMPLIT PERI AZIMU VELO AIN AR TRES W  DIS CAZ7
 BRR  HZ EP        126  2.30                             153    0.7710 71.6 297 
 BRR  HE ES   1    126 19.04                             153    0.80 7 71.6 297 
 BRR  HZ I         126 23.59         3.9 0.10            154           71.6 297 
 PAM  SN ES   1    126 19.43                             152   -0.47 7 75.6  39 
 RUS  HZ EP   1    126  4.01                             144   -0.17 7  102 177 
 RUS  HN ES   1    126 23.12                             144    0.18 7  102 177 
 RUS  HZ I         126 25.72         2.8 0.36            149            102 177 
 PTB  HZ EP   1    126  7.26                             132   -0.14 7  149 258 
 PTB  HN ES   1    126 28.04                             132   -0.63 7  149 258 
 PTB  HZ I         126 30.37         4.4 0.12            135            149 258 
 OCA  HE ES   1    126 29.93                             130   -0.70 7  159 353 
 OCA  HZ I         126 35.22         6.3 0.24            134            159 353 
 SPBC HZ EP   1    126  8.97                             129    0.02 7  165 219 
 SPBC HE ES   1    126 30.89                             129   -0.55 7  165 219 
 SPBC HZ I         126 35.29         5.9 0.26            133            165 219 
 SML  HZ EP   1    126 16.77                             118   -0.03 6  243 335 
 SML  HN ES   1    126 45.42                             118    0.01 6  243 335 
 SML  HZ I         126 48.13         5.5 0.11            122            243 335 
                                                                                
