 2013 1221 0719 20.0 L   5.981 -74.060 90.8  RSN  5 0.2 1.5LRSN                1
 GAP=127        0.61       2.5     2.6  4.9 -0.3022E+01 -0.1029E+01 -0.2879E+01E
 Epicentro: LA BELLEZA - SANTANDER                                             3
 ACTION:UPD 14-01-13 10:19 OP:ep   STATUS:               ID:20131221071920 L   I
 OLDACT:REG 13-12-21 09:09 OP:jn   STATUS:               ID:20131221071736     3
 2013-12-21-0717-36M.COL___235                                                 6
 STAT SP IPHASW D HRMM SECON CODA AMPLIT PERI AZIMU VELO AIN AR TRES W  DIS CAZ7
 SPBC HZ EP        719 33.32                             157   -0.0910 36.4 182 
 SPBC HN ES        719 43.72                             157   -0.1210 36.4 182 
 SPBC HZ I         719 45.12        15.0 0.18            156           36.4 182 
 PTB  HZ EP        719 35.61                             137   -0.3910 75.7 325 
 PTB  HN ES        719 48.31                             137   -0.1410 75.7 325 
 PTB  HZ I         719 48.75         7.8 0.18            139           75.7 325 
 NOR  HZ EP        719 38.51                             128    0.1810  101 243 
 NOR  HN ES        719 52.88                             128    0.2810  101 243 
 NOR  HZ I         719 56.06         4.8 0.44            129            101 243 
 BAR2 SZ EP        719 40.28                             124   -0.0510  118  55 
 BAR2 SZ ES        719 56.26                             124    0.1010  118  55 
 BAR2 SZ I         719 57.23        11.1 0.40            125            118  55 
 BRR  HZ EP        719 41.15                             120   -0.1310  130  17 
 BRR  HE ES        719 58.23                             120    0.3810  130  17 
                                                                                
