 2012  921 0947 59.2 L   6.787 -73.172144.0  RSN  9 0.5 2.2LRSN                1
 GAP=134        0.84       4.2     5.3  6.5 -0.1967E+01  0.9015E+01  0.6229E+01E
 Epicentro: LOS SANTOS - SANTANDER                                             3
 ACTION:UPD 12-10-22 14:20 OP:ep   STATUS:               ID:20120921094759 L   I
 2012-09-21-0939-48M.COL___202                                                 6
 STAT SP IPHASW D HRMM SECON CODA AMPLIT PERI AZIMU VELO AIN AR TRES W  DIS CAZ7
 BAR2 SZ EP   1    948 18.13                             171   -0.40 8 21.5 183 
 BAR2 SZ ES   1    948 33.30                             171   -0.35 8 21.5 183 
 GIR2 SZ EP   1    948 18.58                             167   -0.07 8 32.4 356 
 BRR  HZ EP   1    948 20.16                             153    0.15 8 69.4 301 
 BRR  HN ES   1    948 37.13                             153    0.86 8 69.4 301 
 PAM  SZ EP   1    948 21.58                             150    0.22 8 80.4  40 
 PAM  SE ES   1    948 38.42                             150   -0.27 8 80.4  40 
 PAM  SZ I         948 40.51        10.0 0.46                          80.4  40 
 RUS  HZ EP   1    948 22.55                             144   -0.09 8 99.4 174 
 RUS  HN ES   1    948 41.28                             144    0.32 8 99.4 174 
 RUS  HZ I         948 42.57        13.0 0.24                          99.4 174 
 PTB  HZ EP        948 25.24                             132   -0.4510  145 259 
 PTB  HN ES   1    948 46.00                             132   -0.39 7  145 259 
 PTB  HN I         948 51.62        53.2 0.28                           145 259 
 ZAR  HZ EP   1    948 31.64                             122    0.38 7  202 293 
 ZAR  HN I         949  4.38        32.8 0.22                           202 293 
 CHI  HZ EP   1    948 36.59                             117    0.07 6  246 195 
 CHI  HN ES   1    949  6.37                             117    0.71 6  246 195 
 CHI  HN I         949 11.06        12.8 0.46                           246 195 
 PRA  HZ EP   1    948 52.98                             106    0.69 5  389 209 
 PRA  HN ES   1    949 32.78                             106   -0.96 5  389 209 
 PRA  HN I         949 41.15         4.3 0.32                           389 209 
                                                                                
