 2015 1221 0127 30.9 L   6.820 -73.090150.3  RSN 14 0.4 2.2LRSN                1
 GAP=143        0.99       2.6     3.5  4.8 -0.1716E+01  0.5410E+01  0.4358E+00E
 Epicentro: LOS SANTOS - SANTANDER                                             3
 ACTION:UPD 16-02-04 15:06 OP:cam  STATUS:               ID:20151221012730 L   I
 OLDACT:UP  15-12-21 15:32 OP:cara STATUS:               ID:20151221011748     3
 OLDACT:REG 15-12-21 14:01 OP:cara STATUS:               ID:20151221011748     3
 2015-12-21-0117-48M.COL___332                                                 6
 STAT SP IPHASW D HRMM SECON CODA AMPLIT PERI AZIMU VELO AIN AR TRES W  DIS CAZ7
 BAR2 EZ IP        127 51.11                             169   -0.0410 27.1 202 
 BAR2 EZ ES        128  6.51                             169   -0.4310 27.1 202 
 BAR2 EZ I         128  7.24        25.5 0.22            168           27.1 202 
 PAM  EZ EP        127 53.69                             153    0.4110 71.9  37 
 PAM  EN ES        128 11.17                             153    0.4310 71.9  37 
 PAM  EZ I         128 13.22        20.1 0.54            157           71.9  37 
 BRR  HZ IP        127 52.97                             152    0.1910 75.7 295 
 BRR  HN ES        128 10.74                             152    0.8810 75.7 295 
 BRR  HZ I         128 13.69        17.6 0.12            151           75.7 295 
 RUS  HZ IP        127 55.02                             144   -0.2110  103 180 
 RUS  HN ES        128 14.06                             144   -0.1510  103 180 
 RUS  HZ I         128 16.81         9.8 0.24            146            103 180 
 PTB  HZ EP        127 58.31                             132   -0.50 9  154 258 
 PTB  HE ES        128 20.06                             132   -0.52 9  154 258 
 PTB  HZ I         128 26.29        26.5 0.36            132            154 258 
 OCA  HZ EP        127 59.33                             131   -0.11 9  159 351 
 OCA  HN ES        128 21.59                             131   -0.11 9  159 351 
 OCA  HZ I         128 28.74        44.3 0.28            133            159 351 
 SPBC HZ IP        127 59.87                             129   -0.40 9  169 220 
 SPBC HN ES        128 22.84                             129   -0.33 9  169 220 
 SPBC HZ I         128 29.59        25.1 0.16            130            169 220 
 ZAR  HZ EP        128  4.13                             123   -0.01 8  209 291 
 ZAR  HN ES        128 29.92                             123   -0.15 8  209 291 
 ZAR  HZ I         128 35.10        18.4 0.46            124            209 291 
 NOR  HZ EP        128  7.26                             119   -0.29 8  241 235 
 NOR  HE ES        128 35.92                             119   -0.23 8  241 235 
 NOR  HZ I         128 38.89        15.9 0.20            120            241 235 
 SML  HZ EP        128  7.54                             118   -0.31 8  244 334 
 SML  HN ES        128 35.95                             118   -0.72 8  244 334 
 SML  HZ I         128 39.37        26.8 0.26            120            244 334 
 CHI  HZ IP        128  9.36                             118    0.11 8  252 196 
 CHI  HN ES        128 39.33                             118    0.16 8  252 196 
 CHI  HZ I         128 48.24         4.7 0.34            120            252 196 
 HEL  HZ EP        128 12.94                             115    0.89 7  279 256 
 HEL  HN ES        128 44.27                             115    0.12 7  279 256 
 HEL  HZ I         128 50.30        11.3 0.38            116            279 256 
 GUY2CHZ EP        128 16.14                             113    0.72 7  307 235 
 GUY2CHN ES        128 50.69                             113    0.55 7  307 235 
 GUY2CHZ I         128 56.57         7.9 0.26                           307 235 
 CBOC HZ EP        128 18.97                             110    0.23 7  340 252 
 CBOC HN ES        128 56.50                             110    0.44 7  340 252 
 CBOC HZ I         128 59.71         2.5 0.44            112            340 252 
                                                                                
