 2010  221 0434 25.5 L   6.774 -73.091146.0  RSN  5 0.3 1.3LRSN                1
 GAP=188        0.50       4.0    10.9  6.7  0.2317E+02 -0.2775E+02 -0.1036E+02E
 Epicentro: LOS SANTOS - SANTANDER                                             3
 ACTION:UP  10-08-24 09:50 OP:vdl  STATUS:               ID:20100221043425 L   I
 2010-02-21-0429-53S.COL___094                                                 6
 STAT SP IPHASW D HRMM SECON CODA AMPLIT PERI AZIMU VELO SNR AR TRES W  DIS CAZ7
 BAR2 SZ EP        434 45.12                             171     0.010   23 207 
 BAR2 SZ ES   2    435  0.65                             171     0.2 5   23 207 
 GIR2 SZ EP   3    434 45.61                             166     0.3 2   36 341 
 GIR2 SZ ES   3    435  0.11                             166    -0.7 2   36 341 
 BRR  HZ EP        434 46.92                             151    -0.210   78 298 
 BRR  HE ES   2    435  4.29                             151     0.4 5   78 298 
 BRR  HZ I         435  7.50         6.4 0.28                            78 298 
 RUS  BZ EP        434 49.30                             145     0.210   97 180 
 RUS  BE ES   2    435  7.05                             145    -0.4 5   97 180 
 RUS  BZ I         435  8.93         2.1 0.33                            97 180 
 OCA  SZ EP        434 54.09                             129    -0.1 9  164 351 
 OCA  SZ ES   2    435 16.98                             129     0.4 5  164 351 
                                                                                
