 2017  521 0853 14.3 L   6.527 -73.430113.9  RSN  4 0.3 1.0LRSN                1
 GAP=177        0.71       4.5     4.7  7.7  0.1180E+02  0.1100E+02 -0.1740E+00E
 Epicentro: HATO - SANTANDER                                                   3
 ACTION:UPD 17-06-16 13:37 OP:jn   STATUS:               ID:20170521085314 L   I
 OLDACT:REG 17-05-21 14:58 OP:edw  STATUS:               ID:20170521084741     3
 2017-05-21-0848-00M.COL___344                                                 6
 STAT SP IPHASW D HRMM SECON CODA AMPLIT PERI AZIMU VELO AIN AR TRES W  DIS CAZ7
 BRR  HZ EP        853 32.13                             145   -0.0010 71.3 334 
 BRR  HE ES        853 45.80                             145   -0.2310 71.3 334 
 BRR  HZ I         853 53.23         2.1 0.38            147           71.3 334 
 RUS  HZ EP   2    853 33.31                             143   -0.13 5 79.9 151 
 RUS  HE ES        853 48.62                             143    0.2610 79.9 151 
 RUS  HZ I         853 50.39         2.8 0.34            154           79.9 151 
 PTB  HZ EP        853 35.24                             132   -0.3410  114 271 
 PTB  HN ES        853 52.03                             132   -0.1410  114 271 
 PTB  HZ I         853 55.84         1.4 0.38            137            114 271 
 ZAR  HZ EP   2    853 43.47                             116    0.06 4  191 304 
 ZAR  HE ES        854  6.71                             116    0.60 9  191 304 
 ZAR  HZ I         854 13.78         2.1 0.24            121            191 304 
                                                                                
