 2011  721 0746 54.8 L   6.783 -72.997138.0  RSN  4 0.3 1.4LRSN                1
 GAP=176        0.65       4.2     8.1  8.6 -0.2512E+01 -0.1570E+02 -0.1144E+02E
 Epicentro: CEPITA - SANTANDER                                                 3
 ACTION:UPD 12-07-25 14:02 OP:epov STATUS:               ID:20110721074654 L   I
 2011-07-21-0744-08S.COL___142                                                 6
 STAT SP IPHASW D HRMM SECON CODA AMPLIT PERI AZIMU VELO AIN AR TRES W  DIS CAZ7
 BAR2 SZ EP   1    747 13.83                             167    0.21 7 29.4 224 
 BAR2 SZ ES   1    747 28.49                             167    0.17 7 29.4 224 
 BAR2 SZ I         747 29.98         5.0 0.26                          29.4 224 
 BRR  HZ EP   1    747 15.60                             146   -0.48 7 86.8 294 
 BRR  HZ I         747 15.73         9.7 0.09                          86.8 294 
 BRR  HE ES   1    747 32.89                             146    0.19 7 86.8 294 
 RUS  HN ES   1    747 35.29                             143   -0.20 7 98.9 186 
 RUS  HZ I         747 36.61         2.3 0.72                          98.9 186 
 GRA  SZ EP   1    747 19.61                             136    0.45 7  124  10 
 GRA  SZ ES   1    747 37.84                             136   -0.34 7  124  10 
                                                                                
