 2015  721 0255 35.5 L   6.828 -73.149144.9  RSN 26 0.6 2.7LRSN                1
 GAP=119        1.18       2.3     3.6  5.2 -0.2277E+01  0.5328E+01 -0.6052E+00E
 Epicentro: LOS SANTOS - SANTANDER                                             3
 ACTION:UPD 15-09-08 21:49 OP:cam  STATUS:               ID:20150721025535 L   I
 OLDACT:UP  15-07-30 07:12 OP:AK   STATUS:               ID:20150721025535 L   3
 OLDACT:REG 15-07-21 12:56 OP:stll STATUS:               ID:20150721024751     3
 2015-07-21-0247-51M.COL___340                                                 6
 STAT SP IPHASW D HRMM SECON CODA AMPLIT PERI AZIMU VELO AIN AR TRES W  DIS CAZ7
 BAR2 EZ IP     D  255 55.47                             169    0.4010 26.3 188 
 BAR2 EZ ES        256 10.37                             169    0.0210 26.3 188 
 BAR2 EZ I         256 12.11        73.7 0.24            168           26.3 188 
 PAM  EZ EP     C  255 58.10                             151    0.6210 75.2  41 
 PAM  EN ES        256 14.71                             151    0.0710 75.2  41 
 PAM  EZ I         256 17.57       120.4 0.54            156           75.2  41 
 RUS  HZ IP     D  255 59.36                             143   -0.0110  104 176 
 RUS  HN ES        256 17.78                             143   -0.2310  104 176 
 RUS  HZ I         256 18.99        29.2 0.36            145            104 176 
 CPBEREZ EP        256  2.44                             132    0.03 9  148 258 
 CPBEREE ES        256 23.09                             132   -0.32 9  148 258 
 OCA  HZ EP     C  256  3.50                             130    0.07 9  157 353 
 OCA  HE ES        256 25.23                             130   -0.01 9  157 353 
 OCA  HZ I         256 30.37        92.4 0.20            131            157 353 
 ZAR  HZ EP        256  5.87                             122   -1.85 9  203 291 
 ZAR  HE ES        256 32.85                             122   -0.02 9  203 291 
 ZAR  HZ I         256 39.85        34.1 0.64            122            203 291 
 NOR  HZ EP        256 11.40                             118    0.07 8  236 234 
 NOR  HN E         256 39.40                                            236 234 
 NOR  HN ES        256 39.40                             118    0.12 8  236 234 
 NOR  HZ I         256 46.77        22.2 0.18            119            236 234 
 SML  HZ EP        256 11.72                             118   -0.02 8  241 335 
 SML  HN ES        256 40.23                             118    0.21 8  241 335 
 SML  HZ I         256 45.09        50.5 0.10            119            241 335 
 CHI  HZ EP        256 13.48                             117    0.04 8  252 195 
 CHI  HN ES        256 42.45                             117   -0.61 8  252 195 
 CHI  HZ I         256 49.09        15.3 0.28            118            252 195 
 ROSC BZ EP        256 15.06                             116    1.24 8  255 211 
 ROSC BE ES        256 44.17                             116    0.44 8  255 211 
 ROSC BZ I         256 51.91        35.7 0.50            117            255 211 
 HEL  HZ EP        256 15.97                             115    0.27 8  273 255 
 HEL  HE ES        256 47.10                             115    0.03 8  273 255 
 HEL  HZ I         256 55.12        16.4 0.24            115            273 255 
 URE  HZ EP   4    256 15.35                             113   -1.00 0  282 291 
 SOCV BZ EP        256 16.88                             112   -1.45 7  300  57 
 SOCV BN ES   4    256 48.30                             112   -3.45 0  300  57 
 LL2C HZ EP        256 18.90                             112    0.23 7  303 354 
 LL2C HE ES        256 52.54                             112    0.18 7  303 354 
 GUY2CHZ EP        256 19.62                             112    0.40 7  303 234 
 GUY2CHE ES        256 53.47                             112    0.13 7  303 234 
 GUY2CHZ I         257  2.09        25.3 0.46                           303 234 
 VIL  SZ EP        256 18.50                             112   -0.69 7  306 191 
 VIL  SN ES        256 52.87                             112   -0.42 7  306 191 
 VIL  SZ I         256 58.99        23.2 0.50            113            306 191 
 PTGC HZ EP   4 D  256 18.37                             111   -1.27 0  312 159 
 PTGC HZ I         256 18.84        50.3 0.14            113            312 159 
 PTGC HN ES   4    256 50.88                             111   -3.20 0  312 159 
 LL4C HZ EP        256 21.24                             111    0.64 7  320 352 
 LL4C HN ES        256 55.56                             111   -0.23 7  320 352 
 CBOC HZ EP        256 23.11                             110    0.68 7  334 252 
 CBOC HN ES   4    256 59.97                             110    0.91 0  334 252 
 CBOC HZ I         257  5.80         8.4 0.46            110            334 252 
 DBB  SZ EP        256 23.05                             109    0.19 7  339 274 
 DBB  SZ ES        256 59.55                             109   -0.27 7  339 274 
 DBB  SZ I         257  1.33        52.2 0.34            110            339 274 
 TOL  SZ EP        256 24.97                             109    1.04 6  345 224 
 TOL  SN ES        257  1.57                             109   -0.15 6  345 224 
 TOL  SZ I         257  7.69        21.1 0.42            110            345 224 
 MON  HZ EP   9    256 22.49                             108   -1.71 0  352 308 
 MON  HN ES        257  0.79                                    0.30 6  352 308 
 MON  HZ I         257 15.72         8.2 0.32            109            352 308 
 ARGC HZ EP        256 25.41                             108    0.65 6  356 340 
 ARGC HE ES   4    257  3.33                             108    0.14 0  356 340 
 ARGC HZ I         257 12.75        11.4 0.24            109            356 340 
 ANIL HN ES        257  4.52                             108    0.04 6  359 224 
 ANIL HZ I         257 12.44        53.3 0.30            109            359 224 
 ORTC HZ EP        256 29.43                             106   -0.21 6  398 216 
 ORTC HE ES        257 11.94                             106    0.06 6  398 216 
 ORTC HZ I         257 20.18        16.4 0.24            107            398 216 
 SJC  HZ EP        256 29.31                             106   -1.38 6  406 327 
 SJC  HN ES   4    257 10.56                             106   -3.20 0  406 327 
 SJC  HZ I         257 15.08         8.6 0.50            107            406 327 
 PAL  HZ EP        256 30.89                             106    0.12 6  407 239 
 PAL  HZ I         256 32.62         9.3 0.32            107            407 239 
 PAL  HN ES        257 13.15                             106   -0.74 6  407 239 
                                                                                
