 2011  221 0600 40.3 L   6.797 -73.126148.3  RSN  9 0.5 1.7LRSN                1
 GAP=127        1.00       5.3     9.1  8.2 -0.3037E+02  0.1486E+02 -0.8062E+01E
 Epicentro: LOS SANTOS - SANTANDER                                             3
 ACTION:UP  11-03-28 15:09 OP:jfem STATUS:               ID:20110221060040 L   I
 2011-02-21-0558-27S.COL___137                                                 6
 STAT SP IPHASW D HRMM SECON CODA AMPLIT PERI AZIMU VELO SNR AR TRES W  DIS CAZ7
 BTL  SZ EP        6 1  0.57                             172     0.410   21 311 
 BAR2 SZ EP   2    6 1  0.14                             171    -0.1 5   24 196 
 BAR2 SZ ES   1    6 1 15.34                             171    -0.5 7   24 196 
 BAR2 SZ I         6 1 17.05        12.4 0.32                            24 196 
 RUS  HZ EP   1    6 1  3.77                             145    -0.5 7  100 177 
 RUS  HE ES   1    6 1 23.07                             145     0.1 7  100 177 
 RUS  HZ I         6 1 24.47         4.8 0.40                           100 177 
 GRA  SZ EP        6 1  6.20                             138     0.510  125  16 
 GRA  SZ I         6 1  7.50         8.1 0.29                           125  16 
 GRA  SZ ES   1    6 1 25.97                             138     0.4 7  125  16 
 OCA  SZ EP   1    6 1  8.09                             130    -0.8 7  161 352 
 OCA  SZ I         6 1 37.21         8.6 0.36                           161 352 
 NOR  SZ EP   1    6 1 16.78                             119     0.4 6  236 235 
 NOR  SE ES   1    6 1 43.70                             119    -0.8 6  236 235 
 CHI  HZ EP   1    6 1 18.28                             118     0.1 6  249 196 
 CHI  HE ES   1    6 1 48.03                             118     0.3 6  249 196 
 CHI  HZ I         6 1 53.64         2.2 0.08                           249 196 
 RREF HZ EP   2    6 1 26.68                             111     0.0 3  323 230 
 RREF HN ES   2    6 2  3.44                             111     0.5 3  323 230 
 RREF HZ I         6 2  9.04         3.4 0.35                           323 230 
 SDV  BZ EP        6 1 29.71                             109    -0.6 6  359  50 
                                                                                
