 2014 1221 0259 49.3 L   6.815 -73.152145.6  RSN 17 0.4 1.8LRSN                1
 GAP= 70        0.87       2.4     2.5  4.6 -0.7467E+00  0.2082E+01  0.1245E+01E
 Epicentro: LOS SANTOS - SANTANDER                                             3
 ACTION:UPD 15-02-10 17:06 OP:nd   STATUS:               ID:20141221025949 L   I
 OLDACT:REG 14-12-21 12:33 OP:spq  STATUS:               ID:20141221025746     3
 2014-12-21-0257-46M.COL___302                                                 6
 STAT SP IPHASW D HRMM SECON CODA AMPLIT PERI AZIMU VELO AIN AR TRES W  DIS CAZ7
 BAR2 EZ EP        3 0  8.74                             170   -0.1710 24.9 188 
 BAR2 EZ ES   1    3 0 23.84                             170   -0.39 7 24.9 188 
 BAR2 EZ I         3 0 26.10        17.2 0.31            169           24.9 188 
 BRR  HZ EP     C  3 0 10.64                             153    0.3110 69.8 298 
 BRR  HE ES        3 0 27.47                             153    0.7210 69.8 298 
 BRR  HZ I         3 0 28.35        13.2 0.23            151           69.8 298 
 PAM  SZ EP     C  3 0 11.88                             151    0.4610 76.5  41 
 PAM  SN ES        3 0 28.62                             151   -0.0710 76.5  41 
 PAM  SZ I         3 0 31.16        16.6 0.52            154           76.5  41 
 RUS  HZ EP        3 0 12.90                             143   -0.2310  102 176 
 RUS  HN ES        3 0 31.60                             143   -0.1410  102 176 
 RUS  HZ I         3 0 33.28         7.8 0.26            145            102 176 
 PTB  HZ EP        3 0 15.41                             132   -0.79 9  147 258 
 PTB  HN ES        3 0 36.46                             132   -0.74 9  147 258 
 PTB  HZ I         3 0 41.60         9.3 0.18            131            147 258 
 TAM  HZ EP        3 0 17.38                             130    0.34 9  156 106 
 TAM  HE ES   1    3 0 38.47                             130   -0.22 7  156 106 
 TAM  HZ I         3 0 39.61         4.6 0.30            134            156 106 
 OCA  HZ EP        3 0 17.00                             130   -0.41 9  159 353 
 OCA  HN ES        3 0 39.35                             130    0.00 9  159 353 
 OCA  HZ I         3 0 46.44         6.6 0.32            131            159 353 
 SPBC HZ EP        3 0 17.99                             129    0.15 9  164 218 
 SPBC HN ES        3 0 40.33                             129    0.20 9  164 218 
 SPBC HZ I         3 0 45.77        12.2 0.28            129            164 218 
 ZAR  HZ EP   1    3 0 22.00                             122    0.42 6  203 292 
 ZAR  HE ES        3 0 46.75                             122   -0.03 9  203 292 
 ZAR  HZ I         3 0 53.30        12.3 0.28            122            203 292 
 NOR  HZ EP        3 0 25.14                             118    0.10 8  235 234 
 NOR  HE ES        3 0 53.01                             118    0.07 8  235 234 
 NOR  HZ I         3 0 56.45         5.2 0.32            119            235 234 
 SML  HZ EP   1    3 0 25.48                             118   -0.21 6  242 335 
 SML  HN ES   1    3 0 53.87                             118   -0.23 6  242 335 
 SML  HZ I         3 1  1.32         8.1 0.10            118            242 335 
 CHI  HZ EP        3 0 27.18                             117    0.06 8  250 195 
 CHI  HN ES   1    3 0 56.93                             117    0.29 6  250 195 
 CHI  HZ I         3 1  1.15         2.1 0.30            118            250 195 
 HEL  HN ES   1    3 1  1.54                             115    0.75 6  272 255 
 HEL  HZ I         3 1  7.00         3.7 0.58            115            272 255 
 CBOC HZ EP   4    3 0 38.20                             110    2.03 0  334 252 
 CBOC HN ES        3 1 12.59                             110   -0.16 7  334 252 
 CBOC HZ I         3 1 19.96         1.3 0.36            110            334 252 
 TOL  SZ EP   1    3 0 37.96                             109    0.35 5  344 224 
 TOL  SN ES   1    3 1 15.46                             109    0.15 5  344 224 
 TOL  SZ I         3 1 24.94         6.4 0.42            110            344 224 
 MON  HN ES   4    3 1 15.03                             109   -1.13 0  352 308 
 MON  HZ I         3 1 15.33         1.6 0.20            109            352 308 
 SJC  HZ EP   4    3 0 42.99                             106   -1.63 0  407 327 
 SJC  HN ES   4    3 1 24.30                             106   -3.49 0  407 327 
 SJC  HZ I         3 1 28.51         1.8 0.50            106            407 327 
                                                                                
