 2016  421 0530  0.6 L   6.817 -73.208134.0  RSN  5 0.3 1.2LRSN                1
 GAP=147        0.71       3.8     3.9  5.5 -0.6433E+01  0.6702E+01 -0.1239E+01E
 Epicentro: ZAPATOCA - SANTANDER                                               3
 ACTION:UPD 16-05-05 14:23 OP:rebc STATUS:               ID:20160421053000 L   I
 OLDACT:ARG 16-04-21 12:49 OP:cara STATUS:               ID:20160421052748     3
 2016-04-21-0527-48M.COL___301                                                 6
 STAT SP IPHASW D HRMM SECON CODA AMPLIT PERI AZIMU VELO AIN AR TRES W  DIS CAZ7
 BAR2 EZ IP        530 19.06                             169    0.1710 25.0 174 
 BAR2 EZ ES        530 32.65                             169   -0.4810 25.0 174 
 BAR2 EZ I         530 34.84         3.6 0.28            167           25.0 174 
 PAM  EZ EP        530 21.74                             147   -0.0810 80.6  44 
 PAM  EZ I         530 21.97         3.7 0.14            154           80.6  44 
 PAM  EE ES        530 38.62                             147    0.2810 80.6  44 
 RUS  HZ EP        530 23.20                             140   -0.2510  103 172 
 RUS  HE ES        530 41.47                             140    0.2410  103 172 
 RUS  HZ I         530 43.04         2.1 0.88            143            103 172 
 PTB  HZ EP        530 25.73                             130   -0.35 9  141 258 
 PTB  HN ES        530 46.14                             130    0.22 9  141 258 
 PTB  HZ I         530 54.53         1.8 0.28            129            141 258 
 SPBC HZ EP        530 28.23                             127    0.24 9  160 217 
 SPBC HE ES        530 49.38                             127    0.05 9  160 217 
 SPBC HZ I         530 57.91         2.2 0.46            127            160 217 
                                                                                
