 2014  521 0552  9.3 L   6.793 -73.151151.4  RSN  8 0.3 1.8LRSN                1
 GAP=100        0.75       4.7     3.6  7.2 -0.8119E+01 -0.6962E+01  0.2235E+02E
 Epicentro: LOS SANTOS - SANTANDER                                             3
 ACTION:UPD 15-03-16 16:59 OP:nd   STATUS:               ID:20140521055209 L   I
 OLDACT:UP  14-05-21 14:06 OP:cam  STATUS:               ID:20140521055000     3
 OLDACT:REG 14-05-21 12:54 OP:cam  STATUS:               ID:20140521055000     3
 2014-05-21-0550-00M.COL___252                                                 6
 STAT SP IPHASW D HRMM SECON CODA AMPLIT PERI AZIMU VELO AIN AR TRES W  DIS CAZ7
 BRR  HZ IP     D  552 31.18                             153    0.1310 71.1 299 
 BRR  HN ES        552 48.65                             153    0.6410 71.1 299 
 BRR  HZ I         552 51.56         9.2 0.10            157           71.1 299 
 PAM  SZ EP     C  552 32.25                             151    0.0910 78.3  39 
 PAM  SN ES        552 49.63                             151   -0.3710 78.3  39 
 PAM  SZ I         552 51.85        15.4 0.62            159           78.3  39 
 PTB  HZ EP     C  552 36.26                             133   -0.40 9  147 259 
 PTB  HN ES        552 57.53                             133   -0.48 9  147 259 
 PTB  HZ I         553  3.13         6.8 0.10            136            147 259 
 TAM  HZ IP     D  552 37.50                             132    0.05 9  155 105 
 CHI  HZ EP   1    552 47.41                             118    0.20 6  248 195 
 CHI  HN ES        553 16.81                             118    0.02 8  248 195 
 CHI  HZ I         553 24.78         3.1 0.44            121            248 195 
 HEL  HN ES   2    553 21.02                             116   -0.23 4  271 256 
 HEL  HZ I         553 27.39         3.0 0.48            119            271 256 
 GUY2CHZ EP   1    552 53.29                             113    0.22 5  300 235 
 GUY2CHE ES        553 27.43                             113    0.22 7  300 235 
 GUY2CHZ I         553 34.08         4.4 0.30                           300 235 
 PRA  HZ EP   1    553  3.37                             107    0.47 4  391 210 
 PRA  HN ES        553 44.48                             107   -0.24 6  391 210 
 PRA  HZ I         553 49.46         2.1 0.66            110            391 210 
                                                                                
