 2013  621 0601 53.7 L   6.809 -73.127147.4  RSN 12 0.5 2.4LRSN                1
 GAP=185        1.00       3.4     5.5  6.0 -0.2486E+01  0.8933E+01  0.2470E+01E
 Epicentro: LOS SANTOS - SANTANDER                                             3
 ACTION:UPD 14-01-08 09:56 OP:ep   STATUS:               ID:20130621060153 L   I
 OLDACT:UP  13-06-21 10:41 OP:carl STATUS:               ID:20130621055959     3
 OLDACT:REG 13-06-21 09:04 OP:carl STATUS:               ID:20130621055959     3
 2013-06-21-0559-59M.COL___262                                                 6
 STAT SP IPHASW D HRMM SECON CODA AMPLIT PERI AZIMU VELO AIN AR TRES W  DIS CAZ7
 BAR2 SZ IP     C  6 2 13.60                             170    0.0510 24.7 194 
 BAR2 SZ ES   1    6 2 28.52                             170   -0.52 7 24.7 194 
 BAR2 SZ I         6 2 31.97        33.7 0.44            167           24.7 194 
 GIR2 SZ EP        6 2 13.94                             168    0.3910 30.7 346 
 GIR2 SZ ES   1    6 2 28.71                             168   -0.32 7 30.7 346 
 BRR  HZ IP     C  6 2 15.58                             152    0.4810 72.6 297 
 BRR  HE ES   1    6 2 33.03                             152    1.24 7 72.6 297 
 BRR  HZ I         6 2 38.16        26.7 0.14            149           72.6 297 
 RUS  HZ EP        6 2 17.53                             144   -0.1410  101 177 
 RUS  HE ES   1    6 2 36.49                             144    0.12 7  101 177 
 RUS  HZ I         6 2 37.20        22.4 0.28            147            101 177 
 PTB  HZ EP        6 2 20.22                             132   -0.78 9  150 259 
 PTB  HN ES   1    6 2 41.70                             132   -0.59 7  150 259 
 PTB  HZ I         6 2 48.94        42.7 0.48            132            150 259 
 OCA  HZ EP   1    6 2 22.34                             130    0.28 7  160 352 
 OCA  HN ES   1    6 2 44.07                             130   -0.12 7  160 352 
 OCA  HZ I         6 2 48.45        29.0 0.32            133            160 352 
 NOR  HZ EP        6 2 29.91                             119    0.15 8  237 235 
 NOR  HE ES   1    6 2 57.67                             119   -0.22 6  237 235 
 NOR  HZ I         6 3  1.85        25.9 0.20            120            237 235 
 SML  HZ EP        6 2 30.03                             118   -0.38 8  244 335 
 SML  HN ES   1    6 2 58.13                             118   -0.92 6  244 335 
 SML  HZ I         6 3  1.42        34.1 0.10            120            244 335 
 CHI  HZ EP   1    6 2 31.41                             117   -0.24 6  250 196 
 CHI  HN ES   1    6 3  0.84                             117   -0.41 6  250 196 
 CHI  HZ I         6 3  6.41         9.7 0.34            120            250 196 
 HEL  HZ EP   1    6 2 34.87                             115    0.63 6  274 256 
 HEL  HN ES   1    6 3  5.84                             115   -0.03 6  274 256 
 HEL  HZ I         6 3 12.74        17.0 0.32            116            274 256 
 GUY2CHZ EP        6 2 38.33                             112    0.69 7  303 235 
 GUY2CHN ES   1    6 3 12.24                             112    0.33 5  303 235 
 GUY2CHZ I         6 3 19.63        13.4 0.30                           303 235 
 RREF HZ EP   4    6 2 41.73                             111    1.57 0  324 229 
 RREF HN ES   4    6 3 18.42                             111    2.02 0  324 229 
 PRA  HZ EP        6 2 47.29                             107   -0.20 6  394 210 
 PRA  HN ES   1    6 3 29.55                             107    0.09 4  394 210 
 PRA  HZ I         6 3 33.50         8.4 0.48            109            394 210 
                                                                                
