 2016  421 0530 59.3 L   6.781 -73.204139.3  RSN  4 0.2 1.3LRSN                1
 GAP=273        0.65       5.5     4.1  5.6  0.2349E+01  0.5694E+01 -0.2748E+01E
 Epicentro: ZAPATOCA - SANTANDER                                               3
 ACTION:UPD 16-05-05 14:23 OP:rebc STATUS:               ID:20160421053059 L   I
 OLDACT:DUP 16-04-21 18:20 OP:cara STATUS:               ID:20160421052749d    3
 OLDACT:ARG 16-04-21 12:49 OP:cara STATUS:               ID:20160421052748     3
 2016-04-21-0527-48M.COL___301                                                 6
 STAT SP IPHASW D HRMM SECON CODA AMPLIT PERI AZIMU VELO AIN AR TRES W  DIS CAZ7
 BAR2 EZ EP        531 18.15                             171    0.0810 21.0 173 
 BAR2 EZ ES        531 32.97                             171    0.2410 21.0 173 
 BAR2 EZ I         531 34.80         6.4 0.84            165           21.0 173 
 RUS  HZ EP        531 22.20                             143   -0.0710 99.1 172 
 RUS  HE ES        531 39.86                             143   -0.3610 99.1 172 
 RUS  HZ I         531 41.78         1.9 0.22            143           99.1 172 
 PTB  HZ EP        531 25.12                             132    0.03 9  141 259 
 PTB  HN ES        531 44.90                             132   -0.33 9  141 259 
 PTB  HZ I         531 51.63         2.0 0.28            130            141 259 
 SPBC HZ EP        531 26.78                             129    0.05 9  158 218 
 SPBC HE ES        531 48.55                             129    0.40 9  158 218 
 SPBC HZ I         531 55.38         2.9 0.66            128            158 218 
                                                                                
