 2012  721 0045 55.0 L   6.812 -73.157146.4  RSN  8 0.4 1.6LRSN                1
 GAP=135        0.98       4.8     5.0  8.5 -0.1933E+01  0.7557E+01  0.3094E+01E
 Epicentro: LOS SANTOS - SANTANDER                                             3
 ACTION:UPD 12-08-14 11:46 OP:ep   STATUS:               ID:20120721004555 L   I
 2012-07-21-0040-00M.COL___215                                                 6
 STAT SP IPHASW D HRMM SECON CODA AMPLIT PERI AZIMU VELO AIN AR TRES W  DIS CAZ7
 BAR2 SZ EP        046 14.67                             170    -0.110   24 187 
 BAR2 SZ I         046 15.13         7.6 0.14            168             24 187 
 BAR2 SZ ES   1    046 29.49                             170    -0.6 7   24 187 
 BRR  HZ EP        046 16.49                             153     0.410   69 298 
 BRR  HE ES   1    046 33.27                             153     0.7 7   69 298 
 BRR  HZ I         046 36.38        11.1 0.27            150             69 298 
 PAM  SZ EP        046 17.58                             151     0.310   77  41 
 PAM  SN ES   1    046 34.54                             151    -0.1 7   77  41 
 RUS  HZ EP        046 18.75                             144    -0.210  102 175 
 RUS  HN ES   1    046 37.99                             144     0.4 7  102 175 
 RUS  HZ I         046 39.24         4.3 0.31            146            102 175 
 PTB  HZ EP        046 21.55                             132    -0.4 9  147 258 
 PTB  HN ES   1    046 42.55                             132    -0.4 7  147 258 
 PTB  HZ I         046 50.21         3.5 0.47            131            147 258 
 OCA  HN ES   1    046 44.65                             130    -0.6 7  159 354 
 ZAR  HE ES   1    046 52.74                             123     0.2 6  202 292 
 ZAR  HZ I         046 58.35         7.3 0.32            123            202 292 
 NOR  SN ES   1    046 58.70                             119     0.1 6  234 234 
