 2011 1021 0149 53.1 L   6.763 -73.135147.0  RSN 10 0.3 1.9LRSN                1
 GAP=140        0.42       2.5     2.9  3.9 -0.1132E+01  0.2526E+01  0.1118E+01E
 Epicentro: LOS SANTOS - SANTANDER                                             3
 ACTION:UPD 12-07-13 16:05 OP:ep   STATUS:               ID:20111021014953 L   I
 2011-10-21-0146-53S.COL___171                                                 6
 STAT SP IPHASW D HRMM SECON CODA AMPLIT PERI AZIMU VELO AIN AR TRES W  DIS CAZ7
 BAR2 SZ EP        150 12.68                             172   -0.0810 19.6 195 
 BAR2 SZ ES   2    150 27.76                             172   -0.37 5 19.6 195 
 BAR2 SZ I         150 29.21        22.1 0.23                          19.6 195 
 GIR2 SZ EP   3    150 12.81                             166   -0.18 2 35.5 350 
 GIR2 SZ ES   3    150 28.94                             166    0.40 2 35.5 350 
 BRR  HZ EP        150 14.63                             152    0.1310 74.2 301 
 BRR  HN ES   1    150 31.64                             152    0.40 7 74.2 301 
 BRR  HZ I         150 34.23        18.7 0.38                          74.2 301 
 PAM  SZ EP   1    150 15.57                             150    0.02 7 79.9  37 
 PAM  SN ES   2    150 32.75                             150   -0.34 5 79.9  37 
 RUS  HZ EP   1    150 16.66                             145    0.03 7 96.4 177 
 RUS  HZ I         150 17.81         6.2 0.11                          96.4 177 
 RUS  HN ES   2    150 35.30                             145    0.28 5 96.4 177 
 OCA  SZ EP   1    150 21.77                             129   -0.08 7  164 353 
 OCA  SZ ES   2    150 43.96                             129   -0.35 5  164 353 
 OCA  SZ I         150 51.01        10.4 0.58                           164 353 
 ZAR  HZ EP   2    150 26.43                             122    0.58 4  207 293 
 ZAR  HN ES   2    150 50.99                             122   -0.44 4  207 293 
 ZAR  HZ I         150 56.77         9.2 0.28                           207 293 
 NOR  SZ EP   1    150 28.65                             119   -0.05 6  233 235 
 NOR  SE ES   2    150 56.00                             119   -0.51 4  233 235 
 HEL  HZ EP   2    150 33.23                             115   -0.12 4  272 257 
 HEL  HN ES   2    151  4.45                             115   -0.32 4  272 257 
 HEL  HZ I         151 11.30         4.9 0.45                           272 257 
 RREF HZ EP   2    150 39.21                             111    0.16 3  320 230 
 RREF HN ES   2    151 15.09                             111    0.17 3  320 230 
 RREF HZ I         151 24.63         3.6 0.36                           320 230 
                                                                                
