 2013  121 0646 25.5 L   6.263 -73.180179.9  RSN  5 0.5 1.8LRSN                1
 GAP=166        1.00       5.5     8.2  8.3  0.9886E+01  0.1580E+02  0.1210E+02E
 Epicentro: CHARALA - SANTANDER                                                3
 ACTION:UP  13-02-15 09:15 OP:ep   STATUS:               ID:20130121064625 L   I
 2013-01-21-0640-00M.COL___241                                                 6
 STAT SP IPHASW D HRMM SECON CODA AMPLIT PERI AZIMU VELO AIN AR TRES W  DIS CAZ7
 BAR2 SZ EP   1    646 49.09                             168   -0.42 7 36.4 360 
 BAR2 SZ I         646 49.20        12.3 0.26            168           36.4 360 
 BAR2 SZ ES        647  7.90                             168   -0.3410 36.4 360 
 RUS  HZ EP   1    646 50.08                             166    0.03 7 42.3 165 
 RUS  HN ES        647  9.20                             166    0.0010 42.3 165 
 RUS  HN I         647 10.61         7.3 0.24            167           42.3 165 
 BRR  HZ EP   1    646 52.72                             147    0.07 7  110 328 
 BRR  HZ I         646 52.89         9.0 0.14            147            110 328 
 BRR  HN ES   1    647 15.06                             147    1.23 7  110 328 
 PTB  HZ EP   1    646 54.75                             139   -0.42 7  144 282 
 PTB  HN ES        647 17.93                             139   -0.38 9  144 282 
 PTB  HN I         647 21.96         5.4 0.36            139            144 282 
 CHI  HZ EP        647  0.03                             131    0.35 9  191 199 
 CHI  HN ES        647 26.51                             131    0.17 9  191 199 
                                                                                
