 2010  821 0715  9.1 L   6.847 -73.075142.0  RSN  5 0.3 1.4LRSN                1
 GAP=166        0.65       4.7     7.9  6.8 -0.7132E+01 -0.1291E+02  0.4100E+00E
 Epicentro: LOS SANTOS - SANTANDER                                             3
 ACTION:UP  10-09-07 10:57 OP:vdl  STATUS:               ID:20100821071509 L   I
 2010-08-21-0711-37S.COL___120                                                 6
 STAT SP IPHASW D HRMM SECON CODA AMPLIT PERI AZIMU VELO SNR AR TRES W  DIS CAZ7
 BTL  SZ EP        715 28.49                             171     0.210   23 290 
 BTL  SZ ES   1    715 43.30                                     0.1 7   23 290 
 BAR2 SZ EP   1    715 28.48                             167     0.0 7   31 203 
 BAR2 SZ ES   2    715 43.08                             167    -0.5 5   31 203 
 BAR2 SZ I         715 46.85         6.7 0.54                            31 203 
 BRR  HZ EP        715 30.12                             150     0.010   76 292 
 BRR  HE ES   1    715 46.45                             150    -0.1 7   76 292 
 BRR  HZ I         715 51.27         8.8 0.13                            76 292 
 RUS  HZ EP   2    715 33.04                             142     0.2 5  106 180 
 RUS  HE ES   2    715 51.33                             142     0.0 5  106 180 
 RUS  HZ I         715 53.31         2.4 0.38                           106 180 
 GRA  SZ EP   1    715 32.78                             138    -0.6 7  119  15 
 GRA  SZ ES   1    715 52.69                             138     0.3 7  119  15 
 GRA  SZ I         715 53.25         3.2 0.26                           119  15 
                                                                                
