 2011 1221 0118 28.4 L   6.778 -73.421121.4  RSN  6 0.3 1.5LRSN                1
 GAP= 98        0.55       2.8     4.6  5.2  0.3160E+01 -0.1756E+01 -0.4248E+01E
 Epicentro: EL CARMEN DE CHUCURI - SANTANDER                                   3
 ACTION:UPD 12-07-13 16:17 OP:ep   STATUS:               ID:20111221011828 L   I
 2011-12-21-0110-00M.COL___189                                                 6
 STAT SP IPHASW D HRMM SECON CODA AMPLIT PERI AZIMU VELO AIN AR TRES W  DIS CAZ7
 BAR2 SZ EP   1    118 45.26                             164   -0.14 7 33.4 128 
 BAR2 SZ I         118 45.68        13.2 0.12                          33.4 128 
 BAR2 SZ ES   1    118 58.52                             164   -0.15 7 33.4 128 
 GIR2 SZ EP        118 45.59                             160    0.0210 41.7  37 
 BRR  HZ EP        118 45.98                             157    0.3110 48.6 319 
 BRR  HE ES   1    118 59.52                             157    0.37 7 48.6 319 
 BRR  HZ I         119  0.59         9.1 0.23                          48.6 319 
 RUS  HZ EP   1    118 50.34                             137    0.16 7  105 159 
 RUS  HZ I         118 50.85         3.3 0.24                           105 159 
 RUS  HE ES   1    119  7.08                             137   -0.10 7  105 159 
 PTB  HZ EP   2    118 50.52                             133   -0.11 5  117 257 
 PTB  HN ES   2    119  7.29                             133   -0.68 5  117 257 
 OCA  SZ EP        118 55.05                             123   -0.05 9  162   4 
 OCA  SZ ES   1    119 15.57                             123   -0.37 7  162   4 
 OCA  SZ I         119 18.70         4.4 0.49                           162   4 
                                                                                
