 2011  821 0539 19.3 L   6.489 -73.565105.9  RSN  7 0.4 2.1LRSN                1
 GAP= 85        0.75       3.3     4.2  7.0 -0.2251E+01  0.1504E+02  0.3184E+00E
 Epicentro: SANTA HELENA DEL OPON - SANTANDER                                  3
 ACTION:UPD 12-07-13 15:53 OP:ep   STATUS:               ID:20110821053919 L   I
 2011-08-21-0537-51S.COL___151                                                 6
 STAT SP IPHASW D HRMM SECON CODA AMPLIT PERI AZIMU VELO AIN AR TRES W  DIS CAZ7
 BAR2 SZ EP   1    539 34.80                             156   -0.12 7 43.8  75 
 BAR2 SZ ES   1    539 46.62                             156   -0.52 7 43.8  75 
 BAR2 SZ I         539 49.02        81.9 0.43                          43.8  75 
 BRR  HZ EP   1    539 35.74                             144   -0.47 7 70.3 347 
 BRR  HZ I         539 35.92        12.8 0.09                          70.3 347 
 BRR  HN ES   1    539 49.73                             144    0.30 7 70.3 347 
 RUS  HZ EP   1    539 37.83                             139   -0.18 7 84.8 141 
 RUS  HN ES   1    539 53.10                             139    0.47 7 84.8 141 
 NOR  SZ EP   1    539 46.63                             116    0.13 7  177 235 
 NOR  SN ES   1    540  8.12                             116    0.37 7  177 235 
 OCA  SZ EP   1    539 48.55                             113   -0.13 6  195   8 
 OCA  SZ ES   1    540 12.39                             113    0.76 6  195   8 
 OCA  SZ I         540 16.25        12.0 0.38                           195   8 
 HEL  HZ EP   1    539 51.17                             110   -0.54 6  220 261 
 HEL  HN ES   1    540 16.83                             110   -0.19 6  220 261 
 PRA  HZ EP   1    540  5.86                             101    0.41 5  340 206 
 PRA  HZ I         540 48.09        10.0 0.24                           340 206 
                                                                                
