 2015  221 0938 19.8 L   6.723 -73.197133.9  RSN  5 0.6 1.3LRSN                1
 GAP=137        1.42       7.9     7.4 11.7 -0.2364E+02  0.3612E+02 -0.3379E+01E
 Epicentro: VILLANUEVA - SANTANDER                                             3
 ACTION:UPD 15-04-30 21:28 OP:nd   STATUS:               ID:20150221093819 L   I
 OLDACT:DUP 15-02-21 16:57 OP:fm   STATUS:               ID:20150221092742d    3
 2015-02-21-0927-40M.COL___284                                                 6
 STAT SP IPHASW D HRMM SECON CODA AMPLIT PERI AZIMU VELO AIN AR TRES W  DIS CAZ7
 BAR2 EZ EP        938 38.33                             173    0.5010 14.6 173 
 BAR2 EZ ES   1    938 53.26                             173    1.35 7 14.6 173 
 BAR2 EZ I         938 54.36        14.9 0.92            175           14.6 173 
 PAM  SZ EP        938 41.41                             145   -0.0210 87.6  39 
 PAM  SN ES        938 57.61                             145   -0.7110 87.6  39 
 PAM  SZ I         939  1.10         2.2 0.24            149           87.6  39 
 RUS  HZ EP        938 41.83                             143    0.0310 92.7 172 
 RUS  HN ES        938 58.48                             143   -0.5010 92.7 172 
 RUS  HZ I         939  1.55         1.4 0.22            148           92.7 172 
 PTB  HZ EP        938 45.53                             130    0.38 9  141 262 
 PTB  HN ES        939  4.67                             130   -0.26 9  141 262 
 PTB  HZ I         939  8.85         2.9 0.14            133            141 262 
 GUY2CHZ EP        939  2.39                             110    0.61 7  292 235 
 GUY2CHE ES        939 33.62                             110   -0.92 7  292 235 
 GUY2CHZ I         939 41.92         1.3 0.88                           292 235 
                                                                                
