 2013  721 0732 57.7 L   6.744 -73.195144.9  RSN  6 0.3 1.4LRSN                1
 GAP=227        0.61       4.0     4.0  6.8  0.2123E+01  0.1521E+01 -0.8772E+00E
 Epicentro: VILLANUEVA - SANTANDER                                             3
 ACTION:UPD 13-08-12 10:39 OP:ep   STATUS:               ID:20130721073257 L   I
 OLDACT:REG 13-07-21 08:28 OP:mh   STATUS:               ID:20130721072959     3
 2013-07-21-0729-59M.COL___265                                                 6
 STAT SP IPHASW D HRMM SECON CODA AMPLIT PERI AZIMU VELO AIN AR TRES W  DIS CAZ7
 BAR2 SZ EP   1    733 16.93                             173   -0.23 7 16.8 175 
 BAR2 SZ I         733 33.61         4.2 0.26            172           16.8 175 
 BRR  HZ EP   1    733 18.80                             153    0.07 7 69.9 305 
 BRR  HN ES   1    733 35.48                             153    0.39 7 69.9 305 
 BRR  HZ I         733 43.85         1.9 0.14            148           69.9 305 
 RUS  HZ EP   1    733 21.25                             145    0.24 7 95.0 173 
 RUS  HN ES        733 39.08                             145   -0.0810 95.0 173 
 RUS  HN I         733 41.10         4.4 0.32            151           95.0 173 
 PTB  HZ EP   1    733 23.58                             133   -0.48 7  141 261 
 PTB  HN ES        733 44.36                             133   -0.23 9  141 261 
 PTB  HN I         733 48.21         5.1 0.22            135            141 261 
 SPBC HZ EP   1    733 25.78                             130    0.38 7  155 219 
 SPBC HN ES        733 46.88                             130   -0.10 9  155 219 
 NOR  HE ES   1    734  0.18                             119    0.45 6  227 235 
 NOR  HZ I         734  5.05         2.6 0.20            121            227 235 
                                                                                
