 2013  521 0809 25.3 L   6.855 -73.144141.2  RSN 13 0.5 2.4LRSN                1
 GAP= 69        1.21       3.9     3.8  5.6 -0.2447E+01  0.2891E+01  0.3055E+01E
 Epicentro: LOS SANTOS - SANTANDER                                             3
 ACTION:UPD 13-06-20 09:52 OP:ep   STATUS:               ID:20130521080925 L   I
 OLDACT:UP  13-06-17 11:43 OP:ep   STATUS:               ID:20130521080925 L   3
 OLDACT:UP  13-05-27 02:14 OP:CF   STATUS:               ID:20130521080925 L   3
 2013-05-21-0808-52M.COL___218                                                 6
 STAT SP IPHASW D HRMM SECON CODA AMPLIT PERI AZIMU VELO AIN AR TRES W  DIS CAZ7
 GIR2 SZ EP        8 9 44.25                             169   -0.0010 25.3 347 
 GIR2 SZ ES        8 9 59.06                             169    0.0010 25.3 347 
 BAR2 SZ EP        8 9 44.44                             168   -0.0610 29.4 188 
 BAR2 SZ ES        8 9 59.29                             168   -0.2010 29.4 188 
 BAR2 SZ I         810  0.38        21.9 0.24            166           29.4 188 
 BRR  HZ IP     C  8 9 45.98                             153    0.1910 68.7 294 
 BRR  HE ES        810  2.84                             153    1.0510 68.7 294 
 BRR  HN I         810  3.37       113.1 0.24            151           68.7 294 
 PAM  SZ IP     C  8 9 47.01                             152    0.2910 72.6  42 
 PAM  SN ES        810  3.82                             152    0.3710 72.6  42 
 PAM  SN I         810  4.77        42.8 0.40            155           72.6  42 
 RUS  HZ EP        8 9 49.17                             141    0.1410  107 176 
 RUS  HN ES        810  7.32                             141   -0.2510  107 176 
 RUS  HN I         810 10.21        12.3 0.20            142            107 176 
 CAPV BZ IP     D  8 9 51.79                             132   -0.06 9  144  39 
 PTB  HZ EP        8 9 51.05                             131   -0.96 9  149 257 
 PTB  HN ES        810 12.79                             131   -0.08 9  149 257 
 PTB  HN I         810 17.35        49.5 0.28            130            149 257 
 OCA  HN ES        810 13.33                             130   -0.70 9  154 353 
 OCA  HN I         810 17.48        76.3 0.30            131            154 353 
 TAM  HZ IP     D  8 9 52.84                             129    0.11 9  157 107 
 TAM  HZ I         8 9 52.92        17.5 0.36            132            157 107 
 TAM  HN ES        810 13.81                             129   -0.34 9  157 107 
 SML  HZ EP        810  0.72                             117   -0.34 8  238 335 
 NOR  HZ EP        810  0.95                             117   -0.20 8  238 233 
 NOR  HN ES        810 28.34                             117   -0.80 8  238 233 
 NOR  HN I         810 39.40        34.0 0.18            117            238 233 
 SML  HN ES   4    810 26.39                             117   -2.58 0  238 335 
 HEL  HZ EP        810  6.49                             114    1.03 8  274 255 
 GUY2CHZ EP   4    810 10.54                             111    1.44 0  305 234 
 SDV  BZ EP   4    810 13.39                             108   -1.28 0  356  51 
 PRA  HZ EP        810 20.06                             106    0.78 6  397 209 
 PRA  HN ES        811  2.06                             106    0.66 6  397 209 
 SJC  HZ EP   4    810 18.18                             105   -1.92 0  404 326 
                                                                                
