 2016  821 0755 41.4 L   6.743 -73.302128.0  RSN  8 0.5 1.7LRSN                1
 GAP=142        1.10       3.7     4.8  8.3 -0.7527E+00  0.5824E+01 -0.4190E+01E
 Epicentro: ZAPATOCA - SANTANDER                                               3
 ACTION:UPD 16-10-29 15:37 OP:rebc STATUS:               ID:20160821075541 L   I
 OLDACT:REG 16-08-21 13:12 OP:dnl  STATUS:               ID:20160821074736     3
 2016-08-21-0748-00M.COL___368                                                 6
 STAT SP IPHASW D HRMM SECON CODA AMPLIT PERI AZIMU VELO AIN AR TRES W  DIS CAZ7
 BAR2 EZ EP        755 58.98                             170    0.1610 21.3 142 
 BAR2 EZ I         756 13.32        30.7 0.40                          21.3 142 
 BRR  HZ IP     D  756  0.16                             153    0.1610 60.6 312 
 BRR  HN ES        756 14.72                             153    0.1910 60.6 312 
 BRR  HZ I         756 15.24        17.3 0.12                          60.6 312 
 RUS  HZ EP   2    756  3.81                             141    0.67 5 97.1 166 
 RUS  HN ES        756 19.92                             141   -0.2110 97.1 166 
 RUS  HZ I         756 21.47         5.0 0.28                          97.1 166 
 PTB  HZ EP        756  4.39                             132   -0.8510  130 260 
 PTB  HN ES        756 24.00                             132    0.1410  130 260 
 PTB  HZ I         756 25.39         5.7 0.20                           130 260 
 SPBC HZ EP        756  7.13                             128    0.09 9  148 215 
 SPBC HN ES        756 27.26                             128    0.20 9  148 215 
 SPBC HZ I         756 32.32         4.9 0.10                           148 215 
 OCA  HZ EP        756  8.93                             124    0.05 9  165 359 
 OCA  HN ES        756 29.73                             124   -0.60 9  165 359 
 ZAR  HZ EP        756 11.87                             120    0.56 9  191 296 
 ZAR  HN ES        756 35.17                             120    0.51 9  191 296 
 ZAR  HZ I         756 39.09         5.4 0.24                           191 296 
 HEL  HZ EP   2    756 19.68                             113    1.02 4  254 256 
 HEL  HN ES        756 46.77                             113   -0.98 8  254 256 
 HEL  HZ I         756 53.85         2.1 0.54                           254 256 
                                                                                
