 2014  821 0518  0.5 L   6.776 -73.136142.5  RSN 10 0.4 1.6LRSN                1
 GAP=139        0.96       3.7     4.0  5.3 -0.1124E+01  0.6659E+01 -0.9582E+00E
 Epicentro: LOS SANTOS - SANTANDER                                             3
 ACTION:UPD 14-09-15 21:51 OP:nd   STATUS:               ID:20140821051800 L   I
 OLDACT:REG 14-08-21 13:01 OP:cam  STATUS:               ID:20140821051000     3
 2014-08-21-0510-00M.COL___285                                                 6
 STAT SP IPHASW D HRMM SECON CODA AMPLIT PERI AZIMU VELO AIN AR TRES W  DIS CAZ7
 BAR2 SZ EP     D  518 19.79                             171    0.1010 21.0 194 
 BAR2 SZ ES        518 33.87                             171   -0.7910 21.0 194 
 BAR2 SZ I         518 36.81        15.9 0.22            171           21.0 194 
 BRR  HZ IP     C  518 21.63                             151    0.2110 73.4 300 
 BRR  HN ES        518 38.40                             151    0.6510 73.4 300 
 BRR  HZ I         518 42.56         7.4 0.10            151           73.4 300 
 PAM  SZ EP        518 22.58                             150    0.1310 78.8  38 
 PAM  SN ES        518 39.58                             150    0.0010 78.8  38 
 PAM  SZ I         518 41.82         8.0 0.40            154           78.8  38 
 RUS  HZ EP        518 23.92                             144    0.1910 97.9 177 
 RUS  HN ES        518 41.82                             144   -0.0410 97.9 177 
 RUS  HZ I         518 44.46         3.3 0.38            147           97.9 177 
 PTB  HZ EP        518 26.68                             131   -0.57 9  148 260 
 PTB  HN ES        518 47.73                             131   -0.39 9  148 260 
 PTB  HZ I         518 50.13         5.5 0.10            133            148 260 
 SPBC HZ EP        518 28.86                             128    0.24 9  162 220 
 SPBC HE ES        518 51.11                             128    0.56 9  162 220 
 SPBC HZ I         518 55.36         5.4 0.26            131            162 220 
 ZAR  HZ EP        518 33.18                             121    0.24 8  206 293 
 ZAR  HN ES        518 58.22                             121   -0.02 8  206 293 
 ZAR  HZ I         519  3.85         5.8 0.38            123            206 293 
 SML  HZ EP        518 36.92                             116   -0.33 8  247 335 
 HEL  HZ EP        518 40.50                             114   -0.09 8  272 256 
 GUY2CHZ EP        518 43.52                             112   -0.36 7  301 235 
                                                                                
