 2016  521 0855 54.5 L   6.783 -73.124144.7  RSN  6 0.5 1.6LRSN                1
 GAP=140        1.29       6.4     5.8  8.7  0.3673E+01  0.1299E+02 -0.2459E+01E
 Epicentro: LOS SANTOS - SANTANDER                                             3
 ACTION:UPD 16-08-18 17:48 OP:cam  STATUS:               ID:20160521085554 L   I
 OLDACT:UP  16-05-21 16:34 OP:mh   STATUS:               ID:20160521084746     3
 OLDACT:REG 16-05-21 13:09 OP:mh   STATUS:               ID:20160521084746     3
 2016-05-21-0847-46M.COL___286                                                 6
 STAT SP IPHASW D HRMM SECON CODA AMPLIT PERI AZIMU VELO AIN AR TRES W  DIS CAZ7
 BAR2 EZ EP        856 13.93                             171   -0.0010 22.1 197 
 BAR2 EZ ES        856 29.33                             171    0.2010 22.1 197 
 BAR2 EZ I         856 30.71        12.2 0.31            169           22.1 197 
 BRR  HZ EP        856 15.79                             151    0.1310 74.2 299 
 BRR  HN ES        856 32.90                             151    0.6910 74.2 299 
 BRR  HZ I         856 35.21         7.2 0.28            150           74.2 299 
 PAM  EZ EP        856 16.97                             151    0.4210 77.3  37 
 PAM  EN ES        856 33.00                             151   -0.7910 77.3  37 
 RUS  HZ EP        856 17.73                             144   -0.2310 98.6 177 
 RUS  HN ES        856 36.52                             144    0.2310 98.6 177 
 RUS  HZ I         856 37.67         3.8 0.26            146           98.6 177 
 PTB  HZ EP        856 20.83                             131   -0.69 9  150 260 
 PTB  HN ES        856 42.15                             131   -0.49 9  150 260 
 PTB  HZ I         856 48.17         3.4 0.32            131            150 260 
 ZAR  HZ EP        856 28.06                             122    0.92 8  207 292 
 ZAR  HN ES        856 52.23                             122   -0.40 8  207 292 
 ZAR  HZ I         856 56.82         4.0 0.30            122            207 292 
                                                                                
