 2013  121 1846 16.8 L   6.488 -73.582113.4  RSN  7 0.4 1.7LRSN                1
 GAP= 98        0.86       3.8     3.5  8.2 -0.8969E+00  0.7817E+01  0.4374E+01E
 Epicentro: SANTA HELENA DEL OPON - SANTANDER                                  3
 ACTION:UPD 13-02-15 09:15 OP:ep   STATUS:               ID:20130121184616 L   I
 2013-01-21-1840-00M.COL___241                                                 6
 STAT SP IPHASW D HRMM SECON CODA AMPLIT PERI AZIMU VELO AIN AR TRES W  DIS CAZ7
 BAR2 SZ EP       1846 33.70                             157    0.2610 45.7  75 
 BAR2 SZ ES   1   1846 46.86                             157    0.48 7 45.7  75 
 RUS  HZ EP   1   1846 36.11                             140   -0.27 7 86.0 140 
 RUS  HN ES   1   1846 51.34                             140   -0.29 7 86.0 140 
 RUS  HZ I        1846 52.48         4.3 0.28            139           86.0 140 
 PTB  HZ EP       1846 36.30                             136   -0.3010 96.8 273 
 PTB  HN ES   1   1846 51.75                             136   -0.26 7 96.8 273 
 PTB  HZ I        1846 52.99        27.1 0.14            133           96.8 273 
 PAM  SZ EP   1   1846 41.01                             126    0.22 7  136  46 
 PAM  SE ES   1   1846 58.89                             126   -0.59 7  136  46 
 PAM  SZ I        1847  0.55         5.3 0.22            126            136  46 
 NOR  HZ EP   1   1846 44.15                             118   -0.18 7  175 234 
 NOR  HN ES   1   1847  5.29                             118   -0.48 7  175 234 
 NOR  HZ I        1847 11.34        10.7 0.10            115            175 234 
 ZAR  HN ES   1   1847  7.23                             118    0.79 7  179 308 
 ZAR  HZ I        1847 11.92        11.0 0.28            115            179 308 
 CHI  HZ EP   1   1846 48.26                             114    0.10 6  206 185 
 CHI  HN ES   1   1847 13.41                             114    0.81 6  206 185 
 CHI  HZ I        1847 19.39         2.4 0.76            112            206 185 
                                                                                
