 2017 1021 1915 17.9 L   6.785 -73.157144.0  RSN  7 0.4 1.8LRSN                1
 GAP=136        0.96       4.3     4.0  6.5 -0.7152E+00  0.7728E+01 -0.3237E+00E
 Epicentro: LOS SANTOS - SANTANDER                                             3
 ACTION:UPD 17-11-07 19:34 OP:rebc STATUS:               ID:20171021191517 L   I
 OLDACT:UP  17-10-22 01:04 OP:edw  STATUS:               ID:20171021185650     3
 OLDACT:REG 17-10-21 21:10 OP:edw  STATUS:               ID:20171021185650     3
 2017-10-21-1908-00M.COL___417                                                 6
 STAT SP IPHASW D HRMM SECON CODA AMPLIT PERI AZIMU VELO AIN AR TRES W  DIS CAZ7
 BAR2 EZ EP       1915 37.13                             171   -0.1410 21.5 188 
 BAR2 EZ ES       1915 52.28                             171   -0.1110 21.5 188 
 BAR2 EZ I        1915 55.38        17.3 0.46            171           21.5 188 
 BRR  HZ EP       1915 38.94                             152    0.1110 70.9 300 
 BRR  HN ES       1915 55.92                             152    0.7510 70.9 300 
 PAM  EZ EP       1915 40.01                             150   -0.0310 79.4  39 
 PAM  EN ES       1915 56.95                             150   -0.3610 79.4  39 
 PAM  EZ I        1915 59.21        14.8 0.74            152           79.4  39 
 RUS  HZ EP       1915 41.44                             144    0.0910 99.0 175 
 RUS  HN ES       1915 59.88                             144    0.2210 99.0 175 
 RUS  HZ I        1916  1.14         6.7 0.22            146           99.0 175 
 PTB  HZ EP       1915 44.15                             132   -0.42 9  146 259 
 PTB  HN ES       1916  4.84                             132   -0.55 9  146 259 
 PTB  HZ I        1916  7.03         5.7 0.42            133            146 259 
 ZAR  HZ EP       1915 50.83                             122    0.66 9  204 293 
 ZAR  HN ES       1916 15.04                             122   -0.30 9  204 293 
 ZAR  HZ I        1916 21.49         8.2 0.44            123            204 293 
 NOR  HN ES       1916 21.00                             118    0.07 8  233 235 
 NOR  HZ I        1916 24.15         4.3 0.46            120            233 235 
                                                                                
