 2012  421 1029 36.3 L   6.763 -73.100144.6  RSN  5 0.3 2.2LRSN                1
 GAP=144        0.82       4.7     5.0  6.2  0.3298E+01  0.4887E+01  0.9767E+00E
 Epicentro: LOS SANTOS - SANTANDER                                             3
 ACTION:UPD 12-07-05 11:55 OP:tino STATUS:               ID:20120421102936 L   I
 2012-04-21-1025-00S.COL___186                                                 6
 STAT SP IPHASW D HRMM SECON CODA AMPLIT PERI AZIMU VELO AIN AR TRES W  DIS CAZ7
 BAR2 SZ EP       1029 55.80                             171     0.010   21 206 
 BAR2 SZ ES       1030 10.59                             171    -0.410   21 206 
 BAR2 SZ I        1030 13.53        27.0 0.24                            21 206 
 BRR  HZ EP       1029 57.68                             150    -0.110   78 299 
 BRR  HZ I        1029 58.02        49.5 0.24                            78 299 
 BRR  HE ES       1030 14.99                             150     0.510   78 299 
 PAM  SZ EP       1029 58.63                             150     0.210   78  35 
 PAM  SE ES       1030 15.56                             150    -0.110   78  35 
 RUS  HZ EP       1029 59.68                             145     0.010   96 179 
 RUS  HN ES   1   1030 18.08                             145     0.2 7   96 179 
 ZAR  HZ EP   1   1030  9.37                             121     0.0 6  210 293 
 ZAR  HE ES   1   1030 34.46                             121    -0.7 6  210 293 
 ZAR  HZ I        1030 44.70        13.7 0.46                           210 293 
                                                                                
