 2010  721 1813  6.6 L   6.837 -73.083145.8  RSN  6 0.1 2.1LRSN                1
 GAP=165        0.31       2.6     5.2  5.9  0.6561E+00 -0.1284E+02 -0.3279E+01E
 Epicentro: LOS SANTOS - SANTANDER                                             3
 ACTION:UPD 10-12-01 15:19 OP:pat  STATUS:               ID:20100721181306 L   I
 2010-07-21-1809-45S.COL___123                                                 6
 STAT SP IPHASW D HRMM SECON CODA AMPLIT PERI AZIMU VELO AIN AR TRES W  DIS CAZ7
 GIR2 SZ EP   2   1813 26.15                             168    -0.1 5   29 336 
 BRR  HZ IP     C 1813 27.87                             151    -0.110   76 293 
 BRR  HZ I        1813 28.14        26.5 0.13                            76 293 
 BRR  HN ES   2   1813 44.81                             151     0.1 5   76 293 
 RUS  HZ EP   1   1813 30.60                             143     0.0 7  104 180 
 RUS  HN ES   2   1813 49.36                             143     0.0 5  104 180 
 GUE  SZ EP       1813 30.92                             141     0.010  111   9 
 GRA  SZ EP   2   1813 31.49                             138     0.2 5  120  15 
 PRA  HZ EP   2   1814  1.18                             106     0.3 3  399 210 
 PRA  HZ I        1814 48.97         3.0 0.30                           399 210 
                                                                                
