 2017 1021 1552 16.8 L   6.572 -73.297142.4  RSN  4 0.4 1.1LRSN                1
 GAP=129        0.97       5.9     5.2  8.1 -0.8043E+01  0.9535E+01 -0.7626E+01E
 Epicentro: HATO - SANTANDER                                                   3
 ACTION:UPD 17-11-07 19:34 OP:rebc STATUS:               ID:20171021155216 L   I
 OLDACT:UP  17-10-21 23:48 OP:edw  STATUS:               ID:20171021154700     3
 OLDACT:REG 17-10-21 20:45 OP:edw  STATUS:               ID:20171021154700     3
 2017-10-21-1548-00M.COL___453                                                 6
 STAT SP IPHASW D HRMM SECON CODA AMPLIT PERI AZIMU VELO AIN AR TRES W  DIS CAZ7
 BAR2 EZ EP       1552 35.57                             175   -0.2410 12.9  80 
 BAR2 EZ ES       1552 50.00                             175   -0.6810 12.9  80 
 BAR2 EZ I        1552 50.44         4.3 0.18            176           12.9  80 
 RUS  HZ EP       1552 38.48                             150   -0.2310 78.8 163 
 RUS  HN ES       1552 56.35                             150    0.5210 78.8 163 
 RUS  HZ I        1552 57.94         1.8 0.32            149           78.8 163 
 PAM  EZ EP       1552 40.74                             141    0.0510  107  38 
 PAM  EN ES       1552 59.76                             141    0.4010  107  38 
 PTB  HZ EP       1552 41.69                             135   -0.0310  128 268 
 PTB  HE ES       1553  1.44                             135    0.2410  128 268 
 PTB  HZ I        1553  3.26         1.4 0.22            135            128 268 
                                                                                
