 2013 1221 1231 33.3 L   6.814 -73.178140.6  RSN  9 0.4 1.8LRSN                1
 GAP=242        0.99       4.8     5.1  6.7  0.7831E+01  0.8642E+01  0.3391E+00E
 Epicentro: LOS SANTOS - SANTANDER                                             3
 ACTION:UPD 14-01-13 10:19 OP:ep   STATUS:               ID:20131221123133 L   I
 OLDACT:REG 13-12-21 15:58 OP:nd   STATUS:               ID:20131221123000     3
 2013-12-21-1230-00M.COL___285                                                 6
 STAT SP IPHASW D HRMM SECON CODA AMPLIT PERI AZIMU VELO AIN AR TRES W  DIS CAZ7
 BAR2 SZ EP       1231 52.32                             170   -0.0410 24.5 181 
 BAR2 SZ ES       1232  7.31                             170    0.1010 24.5 181 
 BAR2 SZ I        1232  8.98        17.0 0.22            164           24.5 181 
 RUS  HZ EP       1231 56.43                             142   -0.2810  102 174 
 RUS  HN ES       1232 15.02                             142    0.0710  102 174 
 RUS  HZ I        1232 16.80         4.4 0.26            141            102 174 
 PTB  HZ EP       1231 59.03                             131   -0.56 9  145 258 
 PTB  HN ES       1232 19.36                             131   -0.71 9  145 258 
 PTB  HZ I        1232 22.52        12.3 0.14            130            145 258 
 SPBC HZ EP       1232  1.30                             128   -0.04 9  162 218 
 SPBC HN ES       1232 23.42                             128    0.23 9  162 218 
 SPBC HZ I        1232 30.63        10.7 0.22            126            162 218 
 ZAR  HZ EP       1232  5.11                             122    0.07 9  200 292 
 ZAR  HN ES       1232 30.70                             122    0.93 9  200 292 
 ZAR  HZ I        1232 35.48         7.5 0.28            122            200 292 
 NOR  HZ EP       1232  8.79                             118    0.24 8  233 234 
 NOR  HN ES       1232 35.72                             118   -0.31 8  233 234 
 NOR  HZ I        1232 41.10         4.7 0.16            117            233 234 
 CHI  HZ EP       1232 10.84                             116    0.03 8  249 194 
 CHI  HN ES       1232 40.68                             116    0.63 8  249 194 
 CHI  HZ I        1232 48.12         1.9 0.44            116            249 194 
 GUY2CHZ EP   4   1232 18.02                             111    1.54 0  299 234 
 GUY2CHN ES   4   1232 54.01                             111    3.88 0  299 234 
 GUY2CHZ I        1232 58.95         3.3 0.62                           299 234 
 SJC  HZ EP   4   1232 26.68                             105   -1.66 0  406 327 
 SJC  HN ES   4   1233  7.28                             105   -3.97 0  406 327 
 SJC  HZ I        1233 10.99         1.8 0.30            106            406 327 
                                                                                
