 2015 1021 1148 19.6 L   6.906 -73.226120.8  RSN  4 0.2 2.1LRSN                1
 GAP=176        0.48       2.8     3.1  3.9  0.1000E+01  0.1745E+01 -0.4200E+01E
 Epicentro: BETULIA - SANTANDER                                                3
 ACTION:UPD 15-12-22 20:41 OP:cam  STATUS:               ID:20151021114819 L   I
 OLDACT:REG 15-10-21 20:55 OP:drio STATUS:               ID:20151021114746     3
 2015-10-21-1147-46M.COL___322                                                 6
 STAT SP IPHASW D HRMM SECON CODA AMPLIT PERI AZIMU VELO AIN AR TRES W  DIS CAZ7
 BAR2 EZ EP       1148 36.83                             163    0.2410 35.0 172 
 BAR2 EZ ES       1148 49.81                             163   -0.0410 35.0 172 
 BAR2 EZ I        1148 51.33        56.5 0.22            174           35.0 172 
 BRR  HZ EP       1148 37.12                             153   -0.1910 58.1 293 
 BRR  HE ES       1148 51.05                             153   -0.0810 58.1 293 
 BRR  HZ I        1148 52.08        12.7 0.10            151           58.1 293 
 OCA  HZ EP       1148 44.89                             126    0.05 9  148 356 
 OCA  HE ES       1149  4.54                             126    0.01 9  148 356 
 OCA  HZ I        1149 16.28        50.8 0.10            124            148 356 
 ZAR  HZ EP       1148 48.95                             118   -0.24 9  192 290 
 ZAR  HE ES       1149 12.53                             118    0.26 9  192 290 
 ZAR  HZ I        1149 16.26        11.3 0.46            120            192 290 
                                                                                
