 2013  921 1658 32.1 L   6.756 -73.162144.0  RSN  6 0.5 1.7LRSN                1
 GAP=136        1.20       5.9     5.3  8.1  0.3236E+01  0.1098E+02 -0.2345E+01E
 Epicentro: LOS SANTOS - SANTANDER                                             3
 ACTION:UPD 13-10-22 09:24 OP:ep   STATUS:               ID:20130921165832 L   I
 OLDACT:DUP 13-09-21 19:33 OP:carl STATUS:               ID:20130921164960d    3
 2013-09-21-1649-59M.COL___269                                                 6
 STAT SP IPHASW D HRMM SECON CODA AMPLIT PERI AZIMU VELO AIN AR TRES W  DIS CAZ7
 BAR2 SZ EP       1658 51.68                             172    0.2110 18.2 187 
 BAR2 SZ ES       1659  6.13                             172   -0.4210 18.2 187 
 BAR2 SZ I        1659  7.38        10.5 0.32            172           18.2 187 
 BRR  HZ EP       1658 53.44                             152    0.2810 72.1 303 
 BRR  HN ES       1659 10.55                             152    1.0010 72.1 303 
 BRR  HN I        1659 14.10        22.7 0.18            150           72.1 303 
 PAM  SZ EP       1658 54.31                             149   -0.1710 82.3  38 
 PAM  SN ES       1659 11.45                             149   -0.4510 82.3  38 
 PAM  SZ I        1659 13.09         7.6 0.16            152           82.3  38 
 RUS  HZ EP       1658 55.96                             145    0.5710 95.9 175 
 RUS  HN ES       1659 13.48                             145   -0.0410 95.9 175 
 RUS  HZ I        1659 15.58         3.9 0.20            148           95.9 175 
 PTB  HZ EP       1658 58.54                             132   -0.19 9  145 261 
 PTB  HN ES       1659 18.80                             132   -0.66 9  145 261 
 PTB  HZ I        1659 22.59         5.9 0.36            132            145 261 
 ZAR  HZ EP       1659  4.09                             122   -0.41 9  204 294 
 ZAR  HN ES       1659 29.81                             122    0.07 9  204 294 
 ZAR  HZ I        1659 36.55         6.8 0.50            123            204 294 
                                                                                
