 2011  921 1602 44.1 L   6.857 -73.082148.0  RSN 20 0.5 3.2LRSN                1
 GAP=118        1.01       4.1     6.2  6.1  0.3903E+01  0.1451E+02  0.7921E+01E
 Epicentro: LOS SANTOS - SANTANDER                                             3
 ACTION:UPD 12-07-13 15:58 OP:ep   STATUS:               ID:20110921160244 L   I
 2011-09-21-1600-00S.COL___165                                                 6
 STAT SP IPHASW D HRMM SECON CODA AMPLIT PERI AZIMU VELO AIN AR TRES W  DIS CAZ7
 BTL  SZ EP       16 3  4.59                             171    0.6110 21.7 288 
 BTL  SZ ES   2   16 3 19.02                             171   -0.45 5 21.7 288 
 BAR2 SZ IP       16 3  4.26                             167    0.0710 31.3 201 
 BAR2 SZ ES   2   16 3 19.10                             167   -0.76 5 31.3 201 
 BAR2 SZ I        16 3 20.00       318.9 0.30                          31.3 201 
 PAM  SN ES   1   16 3 23.85                             155    0.70 7 68.0  38 
 BRR  HZ IP     C 16 3  6.18                             152    0.4710 75.0 292 
 BRR  HN ES   1   16 3 22.62                             152    0.06 7 75.0 292 
 BRR  HZ I        16 3 26.13       169.9 0.28                          75.0 292 
 RUS  HZ IP     C 16 3  8.23                             143   -0.2910  107 180 
 RUS  HE ES   2   16 3 26.81                             143   -0.75 5  107 180 
 OCA  SZ EP       16 3 11.25                             131   -0.86 9  155 350 
 OCA  SZ ES   2   16 3 33.44                             131   -0.52 5  155 350 
 OCA  SZ I        16 3 40.10       233.2 0.37                           155 350 
 YOP  SZ EP       16 3 14.97                             127    0.40 9  182 156 
 ZAR  HZ EP       16 3 17.25                             122    0.10 8  208 290 
 ZAR  HE ES   2   16 3 43.19                             122    0.27 4  208 290 
 ZAR  HZ I        16 3 50.44       147.5 0.26                           208 290 
 NOR  SZ EP       16 3 20.77                             118   -0.21 8  244 234 
 CHI  HZ EP       16 3 22.52                             117   -0.27 8  257 196 
 CHI  HZ I        16 3 55.06        75.6 0.58                           257 196 
 HEL  HZ EP       16 3 25.89                             115    0.52 7  281 255 
 HEL  HZ I        16 4  1.26        61.4 0.32                           281 255 
 VIL  SZ EP       16 3 28.09                             112   -0.40 7  311 193 
 GUY  SZ EP   2   16 3 30.07                             112    0.93 3  313 235 
 GUY  SZ I        16 4  9.62        95.5 0.32                           313 235 
 RREF HZ EP       16 3 30.96                             111   -0.47 7  331 229 
 RREF HZ I        16 4 17.75        68.0 0.66                           331 229 
 COD  HZ EP       16 3 32.02                             110    0.08 7  343 353 
 COD  HZ I        16 4 16.37        48.9 0.74                           343 353 
 DBB  SZ EP       16 3 32.37                             110   -0.07 6  346 273 
 TOL  SZ EP       16 3 34.03                             109    0.49 6  353 225 
 ANIL HZ EP       16 3 35.86                             108    0.77 6  367 225 
 PRA  HZ EP       16 3 37.83                             107   -0.92 6  401 210 
 SJC  HZ EP       16 3 38.65                             106   -0.94 6  408 326 
 SJC  HZ I        16 4 23.88        57.2 0.54                           408 326 
                                                                                
