 2010  621 1003 43.4 L   6.787 -73.076149.6  RSN  7 0.2 1.8LRSN                1
 GAP=164        0.41       2.9     5.0  4.5 -0.7105E+01  0.1694E+01  0.1013E+00E
 Epicentro: LOS SANTOS - SANTANDER                                             3
 ACTION:UP  10-08-24 10:12 OP:vdl  STATUS:               ID:20100621100343 L   I
 2010-06-21-1000-04S.COL___118                                                 6
 STAT SP IPHASW D HRMM SECON CODA AMPLIT PERI AZIMU VELO SNR AR TRES W  DIS CAZ7
 BAR2 SZ EP   1   10 4  3.36                             170    -0.1 7   25 209 
 BAR2 SZ ES   2   10 4 19.12                             170    -0.1 5   25 209 
 BRR  HZ EP   1   10 4  5.20                             151    -0.2 7   79 297 
 BRR  HN ES   2   10 4 22.58                             151     0.0 5   79 297 
 BRR  HZ I        10 4 25.47        19.3 0.35                            79 297 
 RUS  HZ EP   1   10 4  7.23                             145    -0.2 7   99 180 
 RUS  HE ES   2   10 4 26.41                             145     0.3 5   99 180 
 RUS  HZ I        10 4 26.98         4.1 0.30                            99 180 
 BRI  SZ EP   1   10 4  7.90                             142     0.3 7  107  17 
 BRI  SZ ES   2   10 4 26.09                             142    -0.3 5  107  17 
 GUE  SZ EP   1   10 4  8.43                             140     0.0 7  117   8 
 GRA  SZ EP   1   10 4  8.86                             138     0.0 7  125  14 
 GRA  SZ ES   2   10 4 29.09                             138     0.3 5  125  14 
 RREF HZ EP   1   10 4 30.28                             111     0.0 5  327 230 
 RREF HE ES   2   10 5  7.21                             111     0.4 3  327 230 
 RREF HZ I        10 5 15.56         3.5 0.30                           327 230 
                                                                                
