 2015  821 1249 15.2 L   6.512 -73.715 40.1  RSN 20 0.5 2.7LRSN                1
 GAP= 53        1.22       2.2     2.6  5.7 -0.8070E+00  0.4397E+01  0.1064E+01E
 Epicentro: SANTA HELENA DEL OPON - SANTANDER                                  3
 ACTION:UPD 15-09-15 23:03 OP:cam  STATUS:               ID:20150821124915 L   I
 OLDACT:REG 15-08-21 21:42 OP:ar   STATUS:               ID:20150821124747     3
 2015-08-21-1247-47M.COL___343                                                 6
 STAT SP IPHASW D HRMM SECON CODA AMPLIT PERI AZIMU VELO AIN AR TRES W  DIS CAZ7
 BAR2 EZ IP     D 1249 30.76                             145    0.3310 59.6  81 
 BAR2 EZ ES       1249 43.12                             145    0.8010 59.6  81 
 BAR2 EZ I        1249 45.53       299.1 0.28            150           59.6  81 
 BRR  HZ IP       1249 30.70                             142    0.1410 65.8   0 
 BRR  HN ES       1249 43.63                             142    1.0910 65.8   0 
 BRR  HZ I        1249 44.82        89.0 0.14            146           65.8   0 
 PTB  HE ES       1249 44.51                             135   -0.4710 82.0 272 
 RUS  HZ EP       1249 33.73                             130   -0.3010 97.9 134 
 RUS  HE ES       1249 48.31                             130   -0.4210 97.9 134 
 RUS  HZ I        1249 51.17       115.5 0.34            133           97.9 134 
 SPBC HZ EP       1249 33.73                             128   -0.2510  103 203 
 SPBC HE ES       1249 48.93                             128    0.2910  103 203 
 SPBC HZ I        1249 53.06       200.4 0.20            128            103 203 
 PAM  EZ EP       1249 38.48                             119   -0.40 9  145  51 
 PAM  EN ES       1249 56.63                             119   -0.72 9  145  51 
 PAM  EZ I        1249 58.49        89.6 0.16            122            145  51 
 NOR  HZ EP       1249 39.87                             115   -0.74 9  165 231 
 NOR  HN ES       1249 59.66                             115   -0.77 9  165 231 
 NOR  HZ I        1250  3.89        89.9 0.14            114            165 231 
 ZAR  HZ EP       1249 40.85                             115    0.17 9  166 311 
 ZAR  HE ES       1250  0.98                             115    0.43 9  166 311 
 ZAR  HZ I        1250  5.66        95.6 0.38            115            166 311 
 OCA  HZ EP       1249 43.80                             111   -0.46 9  196  13 
 OCA  HN ES       1250  6.82                             111   -0.11 9  196  13 
 ROSC BZ EP       1249 45.45                             111    0.80 9  197 200 
 ROSC BE ES   4   1250 10.39                             111    2.77 0  197 200 
 ROSC BZ I        1250 13.03        47.6 0.40            110            197 200 
 HEL  HZ EP       1249 45.88                             110    0.43 9  204 260 
 HEL  HN ES       1250  8.61                             110   -0.44 9  204 260 
 HEL  HZ I        1250 13.37        45.4 0.20            109            204 260 
 CHI  HZ EP       1249 45.54                             110   -0.48 8  208 181 
 CHI  HE ES       1250 10.66                             110    0.59 8  208 181 
 CHI  HZ I        1250 16.85        29.9 0.32            109            208 181 
 GUY2CHZ EP       1249 48.76                             108   -0.12 8  232 232 
 GUY2CHE ES       1250 15.10                             108   -0.05 8  232 232 
 GUY2CHZ I        1250 22.69        63.4 0.56                           232 232 
 URE  HZ EP   2   1249 48.33                             107   -1.34 4  243 304 
 URE  HN ES   4   1250 14.16                             107   -2.41 0  243 304 
 URE  HZ I        1250 22.23        40.2 0.16            106            243 304 
 SML  HZ EP       1249 50.61                             106   -0.61 8  256 351 
 SML  HE ES       1250 19.28                             106   -0.04 8  256 351 
 SML  HZ I        1250 23.31        61.6 0.24            105            256 351 
 CBOC HZ EP   1   1249 53.43                             105    1.03 6  264 254 
 CBOC HN ES       1250 21.60                             105    0.18 8  264 254 
 CBOC HZ I        1250 28.66        18.5 0.50            104            264 254 
 VIL  SZ EP       1249 52.25                             105   -0.26 8  265 179 
 VIL  SN ES       1250 22.27                             105    0.66 8  265 179 
 VIL  SZ I        1250 30.57        63.3 0.46            104            265 179 
 TOL  SZ EP       1249 54.63                             104    0.41 7  278 220 
 TOL  SN ES   4   1250 25.32                             104    0.66 0  278 220 
 TOL  SZ I        1250 30.07        60.4 0.54            103            278 220 
 DBB  SZ EP       1249 54.30                             104   -0.07 7  281 282 
 DBB  SZ ES       1250 25.35                             104    0.41 7  281 282 
 DBB  SZ I        1250 29.29        53.5 0.78            102            281 282 
 ORTC HZ EP       1250  0.60                             102   -0.15 7  334 211 
 ORTC HN ES       1250 36.26                             102   -0.03 7  334 211 
 ORTC HZ I        1250 44.07        26.0 0.72             99            334 211 
                                                                                
