 2015  421 1754 18.9 L   6.800 -73.135150.0  RSN  9 0.4 1.8LRSN                1
 GAP=138        0.86       3.8     4.2  6.9 -0.1071E+01  0.8429E+01  0.4754E+01E
 Epicentro: LOS SANTOS - SANTANDER                                             3
 ACTION:UPD 15-06-03 16:56 OP:cam  STATUS:               ID:20150421175418 L   I
 OLDACT:DUP 15-04-22 01:41 OP:spq  STATUS:               ID:20150421174750d    3
 2015-04-21-1747-49M.COL___271                                                 6
 STAT SP IPHASW D HRMM SECON CODA AMPLIT PERI AZIMU VELO AIN AR TRES W  DIS CAZ7
 BAR2 EZ EP       1754 38.95                             171   -0.0510 23.6 193 
 BAR2 EZ ES   1   1754 54.82                             171    0.10 7 23.6 193 
 BAR2 EZ I        1754 56.72         9.2 0.44            170           23.6 193 
 BRR  HZ EP   1   1754 40.91                             153    0.39 7 72.2 298 
 BRR  HE ES       1754 58.09                             153    0.6710 72.2 298 
 BRR  HZ I        1755  4.05        20.3 0.42            151           72.2 298 
 PAM  SZ EP   1   1754 41.61                             152    0.13 7 76.6  39 
 PAM  SE ES       1754 58.80                             152   -0.3310 76.6  39 
 PAM  SZ I        1755  0.39         6.1 0.28            156           76.6  39 
 RUS  HZ EP   1   1754 43.17                             145    0.14 7  101 177 
 RUS  HE ES   1   1755  1.87                             145   -0.01 7  101 177 
 RUS  HZ I        1755  3.54         4.0 0.36            148            101 177 
 PTB  HZ EP       1754 45.72                             133   -0.56 9  149 259 
 PTB  HN ES   1   1755  6.89                             133   -0.78 7  149 259 
 PTB  HZ I        1755  8.96         6.7 0.24            133            149 259 
 OCA  HN ES       1755  9.80                             131   -0.06 9  160 353 
 OCA  HZ I        1755 13.97        16.2 0.20            133            160 353 
 ZAR  HN ES       1755 17.24                             123   -0.06 9  205 292 
 ZAR  HZ I        1755 22.80         8.3 0.34            124            205 292 
 NOR  HZ EP   1   1754 55.54                             119    0.60 6  236 235 
 NOR  HN ES   1   1755 23.15                             119    0.07 6  236 235 
 NOR  HZ I        1755 29.27         4.5 0.20            121            236 235 
 GUY2CHZ EP   4   1755  5.10                             113    2.32 0  302 235 
 GUY2CHN ES   4   1755 39.41                             113    2.38 0  302 235 
 GUY2CHZ I        1755 47.22         3.2 0.26                           302 235 
                                                                                
