 2015 1021 1820 40.3 L   7.033 -73.463106.2  RSN  6 0.3 1.8LRSN                1
 GAP=219        0.78       4.9     4.7  5.6  0.1523E+02  0.1456E+02  0.1251E+02E
 Epicentro: SAN VICENTE DE CHUCURI - SANTANDER                                 3
 ACTION:UPD 15-12-22 20:41 OP:cam  STATUS:               ID:20151021182040 L   I
 OLDACT:REG 15-10-21 21:07 OP:drio STATUS:               ID:20151021181748     3
 2015-10-21-1817-48M.COL___313                                                 6
 STAT SP IPHASW D HRMM SECON CODA AMPLIT PERI AZIMU VELO AIN AR TRES W  DIS CAZ7
 BRR  HZ EP       1820 54.67                             164   -0.3510 28.7 287 
 BRR  HN ES       1821  6.28                             164   -0.2110 28.7 287 
 BAR2 EZ EP       1820 57.00                             149    0.2110 57.7 147 
 BAR2 EZ ES       1821  9.62                             149   -0.0210 57.7 147 
 BAR2 EZ I        1821 11.03        37.9 0.28            149           57.7 147 
 RUS  HZ EP       1821  3.10                             125   -0.4010  133 162 
 RUS  HE ES       1821 22.07                             125    0.5010  133 162 
 RUS  HZ I        1821 24.95         4.3 0.52            126            133 162 
 ZAR  HZ EP       1821  5.99                             118    0.07 9  162 288 
 ZAR  HN ES       1821 26.39                             118    0.51 9  162 288 
 ZAR  HZ I        1821 29.00        19.1 0.62            120            162 288 
 SML  HZ EP   4   1821  6.08                             112   -4.75 0  207 341 
 SML  HE ES   4   1821 33.34                             112   -1.28 0  207 341 
 NOR  HZ EP       1821 13.03                             110    0.05 8  225 224 
 NOR  HE ES   4   1821 37.22                             110   -1.23 0  225 224 
 NOR  HZ I        1821 41.34         4.0 0.20            110            225 224 
 GUY2CHZ EP       1821 21.10                             104   -0.04 7  290 227 
 GUY2CHN ES       1821 52.59                             104   -0.40 7  290 227 
 GUY2CHZ I        1821 56.90         2.2 0.36                           290 227 
                                                                                
