 2010  821 1630 38.9 L   6.811 -73.029145.3  RSN 13 0.4 2.4LRSN                1
 GAP=172        0.88       2.9     6.3  5.0 -0.5719E+01  0.1090E+01  0.1542E+01E
 Epicentro: CEPITA - SANTANDER                                                 3
 ACTION:UP  10-09-07 10:57 OP:vdl  STATUS:               ID:20100821163038 L   I
 2010-08-21-1627-37S.COL___120                                                 6
 STAT SP IPHASW D HRMM SECON CODA AMPLIT PERI AZIMU VELO SNR AR TRES W  DIS CAZ7
 BTL  SZ EP       1630 58.76                             168     0.210   29 294 
 BTL  SZ ES   1   1631 13.48                             168    -0.5 7   29 294 
 BAR2 SZ IP       1630 58.54                             168     0.010   30 215 
 BAR2 SZ ES   1   1631 13.81                             168    -0.2 7   30 215 
 BAR2 SZ I        1631 15.07        76.0 0.29                            30 215 
 GIR2 SZ EP   1   1630 59.07                             166     0.5 7   35 329 
 BRR  HZ EP       1631  0.39                             149    -0.210   82 294 
 BRR  HN ES       1631 17.50                             149    -0.110   82 294 
 BRR  HZ I        1631 21.01        45.0 0.79                            82 294 
 RUS  HZ EP       1631  2.41                             143    -0.210  102 183 
 RUS  HN ES       1631 21.37                             143     0.210  102 183 
 RUS  HZ I        1631 22.36        27.4 0.66                           102 183 
 GUE  SZ EP       1631  3.59                             140     0.310  113   6 
 GUE  SZ I        1631 25.62         9.0 0.43                           113   6 
 GRA  SZ EP       1631  3.30                             138    -0.410  121  12 
 GRA  SZ ES   1   1631 23.12                             138     0.0 7  121  12 
 GRA  SZ I        1631 24.52        29.0 0.67                           121  12 
 OCA  SZ EP       1631  7.43                             129     0.2 9  161 349 
 OCA  SZ ES   1   1631 29.70                             129     0.4 7  161 349 
 OCA  SZ I        1631 33.67        25.3 1.10                           161 349 
 CHI  HZ EP   1   1631 16.77                             116    -0.3 6  253 198 
 CHI  HN ES   1   1631 47.35                             116     0.5 6  253 198 
 CHI  HZ I        1631 51.77        15.3 0.44                           253 198 
 ROSC BZ EP   1   1631 18.04                             116     0.2 6  261 213 
 ROSC BN ES   2   1631 49.50                             116     1.3 4  261 213 
 ROSC BZ I        1631 52.98        21.4 0.69                           261 213 
 HEL  HZ EP       1631 20.50                             113     0.0 7  285 256 
 HEL  HZ I        1631 56.52        12.8 0.27                           285 256 
 ANIL HN ES   1   1632  9.74                             108     0.2 5  367 226 
 ANIL HZ I        1632 15.08        39.9 0.52                           367 226 
 PRA  HZ EP       1631 32.48                             106    -0.8 6  400 211 
 PRA  HN ES   1   1632 14.89                                    -0.8 4  400 211 
 PRA  HZ I        1632 20.34        20.8 0.74                           400 211 
                                                                                
