 2014 1021 1757 44.1 L   6.816 -73.187153.1  RSN  7 0.6 1.5LRSN                1
 GAP=131        1.37       5.8     7.1  9.8  0.2489E+01  0.7106E+01 -0.1117E+02E
 Epicentro: ZAPATOCA - SANTANDER                                               3
 ACTION:UPD 14-11-29 23:53 OP:nd   STATUS:               ID:20141021175744 L   I
 OLDACT:DUP 14-10-24 11:02 OP:fm   STATUS:               ID:20141021174748d    3
 OLDACT:DUP 14-10-24 11:00 OP:fm   STATUS:               ID:20141021174747d    3
 2014-10-21-1747-46M.COL___274                                                 6
 STAT SP IPHASW D HRMM SECON CODA AMPLIT PERI AZIMU VELO AIN AR TRES W  DIS CAZ7
 BAR2 SZ EP       1758  4.66                             170    0.0610 24.8 179 
 BAR2 SZ ES   1   1758 20.02                             170   -0.60 7 24.8 179 
 BAR2 SZ I        1758 23.52         7.9 0.48            170           24.8 179 
 BRR  HZ EP       1758  6.67                             155    0.9110 66.4 299 
 BRR  HN ES       1758 23.49                             155    0.8110 66.4 299 
 BRR  HZ I        1758 26.44        10.4 0.34            153           66.4 299 
 PAM  SZ EP       1758  7.23                             152    0.0710 79.0  43 
 PAM  SN ES       1758 24.68                             152   -0.4910 79.0  43 
 PAM  SZ I        1758 25.68         3.8 0.26            157           79.0  43 
 RUS  HZ EP       1758  9.13                             145    0.4410  103 174 
 RUS  HN ES       1758 27.82                             145   -0.0910  103 174 
 RUS  HZ I        1758 29.03         2.6 0.28            147            103 174 
 PTB  HZ EP   1   1758 10.61                             134   -0.67 7  144 258 
 PTB  HN ES       1758 31.85                             134   -0.66 9  144 258 
 PTB  HZ I        1758 39.95         3.5 0.38            134            144 258 
 SML  HZ EP       1758 19.98                             119   -0.76 8  240 336 
 SML  HN ES       1758 49.39                             119    0.04 8  240 336 
 SML  HZ I        1758 52.16         6.4 0.30            121            240 336 
 GUY2CHZ EP   4   1758 31.12                             114    3.39 0  299 234 
 GUY2CHN ES   4   1759  5.99                             114    4.21 0  299 234 
 GUY2CHZ I        1759 11.72         1.5 0.24                           299 234 
                                                                                
