 2010  321 1444  6.2 L   6.760 -73.040141.8  RSN  7 0.3 1.8LRSN                1
 GAP=194        0.67       4.1     7.6  6.2  0.5014E+01  0.5610E+01  0.5148E+01E
 Epicentro: CEPITA - SANTANDER                                                 3
 ACTION:UP  10-08-24 09:55 OP:vdl  STATUS:               ID:20100321144406 L   I
 2010-03-21-1440-54S.COL___098                                                 6
 STAT SP IPHASW D HRMM SECON CODA AMPLIT PERI AZIMU VELO SNR AR TRES W  DIS CAZ7
 BAR2 SZ EP   1   1444 25.20                             169    -0.2 7   24 220 
 BAR2 SZ ES   1   1444 40.77                             169     0.4 7   24 220 
 BRR  HZ IP       1444 27.24                             148    -0.510   84 297 
 BRR  HZ I        1444 27.51        13.9 0.17                            84 297 
 BRR  HN ES   1   1444 44.56                             148     0.1 7   84 297 
 RUS  HZ EP   1   1444 29.49                             144     0.2 7   96 183 
 RUS  HN ES   2   1444 47.30                             144     0.1 5   96 183 
 RUS  HZ I        1444 49.14         6.6 0.34                            96 183 
 OCA  SZ EP   2   1444 34.78                             128     0.0 5  166 349 
 OCA  SZ ES   2   1444 57.29                             128     0.2 5  166 349 
 OCA  SZ I        1444 59.89         9.3 0.25                           166 349 
 CHI  HZ EP   2   1444 43.60                             117     0.0 4  248 198 
 CHI  HE ES   2   1445 12.24                             117    -0.5 4  248 198 
 CHI  HZ I        1445 18.58         2.8 0.35                           248 198 
 HEL  HZ EP   2   1444 48.19                             113     0.8 4  282 257 
 HEL  HN ES   2   1445 19.62                             113     0.1 4  282 257 
 HEL  HZ I        1445 23.73         2.2 0.56                           282 257 
 PRA  HZ EP   1   1445  0.39                             106     0.5 4  394 211 
 PRA  HE ES   2   1445 41.67                             106     0.0 3  394 211 
 PRA  HZ I        1445 47.03         3.1 0.47                           394 211 
                                                                                
