 2017 1021 1458 39.6 L   6.745 -73.184147.7  RSN  5 0.3 1.3LRSN                1
 GAP=229        0.68       4.9     4.6  5.4  0.8930E+01  0.3659E+01  0.1692E+01E
 Epicentro: VILLANUEVA - SANTANDER                                             3
 ACTION:UPD 17-11-07 19:34 OP:rebc STATUS:               ID:20171021145839 L   I
 OLDACT:REG 17-10-21 20:37 OP:edw  STATUS:               ID:20171021145120     3
 2017-10-21-1458-00M.COL___441                                                 6
 STAT SP IPHASW D HRMM SECON CODA AMPLIT PERI AZIMU VELO AIN AR TRES W  DIS CAZ7
 BAR2 EZ EP       1458 59.11                             173   -0.2310 16.8 179 
 BAR2 EZ ES       1459 14.62                             173   -0.1310 16.8 179 
 BAR2 EZ I        1459 15.20         5.8 0.24            171           16.8 179 
 BRR  HZ EP       1459  0.96                             153    0.0310 70.8 305 
 BRR  HE ES       1459 17.96                             153    0.3910 70.8 305 
 RUS  HZ EP       1459  3.44                             146    0.3110 94.9 173 
 RUS  HN ES       1459 21.49                             146   -0.0010 94.9 173 
 RUS  HZ I        1459 22.57         2.0 0.22            145           94.9 173 
 PTB  HZ EP       1459  6.09                             134   -0.16 9  143 261 
 PTB  HN ES       1459 26.67                             134   -0.37 9  143 261 
 PTB  HZ I        1459 30.32         2.3 0.12            132            143 261 
 NOR  HE ES   2   1459 42.69                             120    0.62 4  228 235 
                                                                                
