 2014  521 1531  7.3 L   6.840 -73.138142.0  RSN  8 0.4 1.8LRSN                1
 GAP=135        0.94       3.3     4.6  8.2 -0.1348E+01  0.1898E+02 -0.1686E+01E
 Epicentro: LOS SANTOS - SANTANDER                                             3
 ACTION:UPD 15-03-16 16:59 OP:nd   STATUS:               ID:20140521153107 L   I
 OLDACT:REG 14-05-21 21:11 OP:spq  STATUS:               ID:20140521152818     3
 2014-05-21-1528-18M.COL___260                                                 6
 STAT SP IPHASW D HRMM SECON CODA AMPLIT PERI AZIMU VELO AIN AR TRES W  DIS CAZ7
 PAM  SZ EP     C 1531 29.25                             151    0.3710 73.5  41 
 PAM  SN ES       1531 46.24                             151    0.5310 73.5  41 
 PAM  SZ I        1531 48.10        12.9 0.48            153           73.5  41 
 RUS  HZ EP       1531 30.80                             142   -0.2110  105 177 
 RUS  HN ES       1531 48.93                             142   -0.5610  105 177 
 PTB  HN ES   1   1531 54.88                             131   -0.17 7  150 257 
 ZAR  HZ EP       1531 39.51                             122    0.09 9  203 291 
 ZAR  HN ES       1532  4.36                             122   -0.11 9  203 291 
 ZAR  HZ I        1532 11.09         5.3 0.36            123            203 291 
 SML  HZ EP       1531 42.77                             117   -0.55 8  240 335 
 SML  HN ES       1532 10.98                             117   -0.44 8  240 335 
 SML  HZ I        1532 16.31         4.9 0.10            118            240 335 
 GUY2CHZ EP       1531 51.55                             111    0.44 7  304 234 
 GUY2CHN ES       1532 26.05                             111    0.77 7  304 234 
 GUY2CHZ I        1532 35.32         2.4 0.38                           304 234 
 RREF HN ES   2   1532 30.23                             110    0.36 3  325 229 
 PRA  HE ES   1   1532 42.88                             106   -0.35 4  396 209 
                                                                                
