 2012 1121 1652 34.7 L   7.097 -73.379109.5  RSN  6 0.4 1.7LRSN                1
 GAP=118        0.72       3.6     4.3  6.8  0.5066E+01  0.9993E+01 -0.4220E+01E
 Epicentro: LEBRIJA - SANTANDER                                                3
 ACTION:UPD 12-12-05 15:35 OP:}ep  STATUS:               ID:20121121165234 L   I
 2012-11-21-1650-00M.COL___234                                                 6
 STAT SP IPHASW D HRMM SECON CODA AMPLIT PERI AZIMU VELO AIN AR TRES W  DIS CAZ7
 GIR2 SZ EP   1   1652 50.07                             169    0.27 7 20.5  96 
 GIR2 SZ ES   1   1653  1.01                             169   -0.55 7 20.5  96 
 BAR2 SZ EP       1652 52.05                             149    0.3610 59.9 159 
 BAR2 SZ ES   1   1653  5.36                             149    0.45 7 59.9 159 
 PTB  HZ EP   1   1652 57.23                             125   -0.40 7  134 243 
 PTB  HE ES   1   1653 15.19                             125   -0.31 7  134 243 
 PTB  HZ I        1653 17.79         9.8 0.30                           134 243 
 RUS  HZ EP   1   1652 58.19                             125   -0.37 7  137 166 
 RUS  HE ES   1   1653 17.04                             125   -0.11 7  137 166 
 RUS  HZ I        1653 20.79         3.4 0.48                           137 166 
 ZAR  HZ EP   1   1653  1.51                             118    0.25 7  169 285 
 ZAR  HN ES   1   1653 22.39                             118    0.44 7  169 285 
 ZAR  HZ I        1653 25.04        13.3 0.30                           169 285 
 SML  HZ EP   1   1653  4.72                             113   -0.29 6  203 338 
 SML  HN ES   1   1653 28.51                             113   -0.12 6  203 338 
 MON  HZ EP   4   1653 15.73                             103   -2.04 0  313 307 
 MON  HN ES   4   1653 48.61                             103   -2.73 0  313 307 
                                                                                
