 2015 1121 1447 55.1 L   6.796 -73.147141.2  RSN 16 0.5 2.3LRSN                1
 GAP=137        1.07       2.9     3.8  5.3 -0.1928E+01  0.6540E+01  0.5087E+00E
 Epicentro: LOS SANTOS - SANTANDER                                             3
 ACTION:UPD 15-12-28 16:12 OP:cam  STATUS:               ID:20151121144755 L   I
 OLDACT:UP  15-11-22 00:44 OP:ak   STATUS:               ID:20151121143750     3
 OLDACT:UP  15-11-22 00:39 OP:ak   STATUS:               ID:20151121143750     3
 OLDACT:REG 15-11-21 21:42 OP:al   STATUS:               ID:20151121143750     3
 2015-11-21-1437-50M.COL___316                                                 6
 STAT SP IPHASW D HRMM SECON CODA AMPLIT PERI AZIMU VELO AIN AR TRES W  DIS CAZ7
 BAR2 EZ IP     C 1448 14.28                             170    0.1010 22.8 190 
 BAR2 EZ ES       1448 29.05                             170   -0.0110 22.8 190 
 BAR2 EZ I        1448 30.49        37.3 0.18            169           22.8 190 
 BRR  HZ IP     C 1448 16.21                             152    0.4410 71.3 299 
 BRR  HN ES       1448 32.56                             152    0.6710 71.3 299 
 BRR  HZ I        1448 37.27        33.2 0.10            148           71.3 299 
 PAM  EZ EP       1448 17.16                             150    0.3010 77.8  39 
 PAM  EN ES       1448 33.91                             150    0.0710 77.8  39 
 PAM  EZ I        1448 35.12        30.8 0.18            153           77.8  39 
 RUS  HZ EP       1448 18.21                             143   -0.1610  100 176 
 RUS  HN ES       1448 36.08                             143   -0.4510  100 176 
 RUS  HZ I        1448 37.54        23.2 0.24            144            100 176 
 PTB  HZ EP       1448 20.85                             131   -0.83 9  148 259 
 PTB  HN ES       1448 42.06                             131   -0.36 9  148 259 
 PTB  HZ I        1448 44.64        30.4 0.20            129            148 259 
 OCA  HZ EP       1448 22.89                             129   -0.22 9  161 353 
 OCA  HN ES       1448 44.49                             129   -0.46 9  161 353 
 OCA  HZ I        1448 46.52        46.5 0.18            129            161 353 
 SPBC HZ EP       1448 23.49                             128    0.28 9  163 219 
 SPBC HN ES       1448 44.77                             128   -0.37 9  163 219 
 SPBC HZ I        1448 46.47        22.7 0.43            128            163 219 
 ZAR  HZ EP       1448 27.85                             121    0.59 9  204 292 
 ZAR  HN ES       1448 53.01                             121    0.66 9  204 292 
 ZAR  HZ I        1449  1.48        27.2 0.21            121            204 292 
 NOR  HZ EP       1448 30.36                             118   -0.17 8  234 235 
 NOR  HN ES       1448 58.87                             118    0.70 8  234 235 
 NOR  HZ I        1449  0.19        17.9 0.18            117            234 235 
 SML  HZ EP       1448 30.77                             116   -0.75 8  244 335 
 SML  HN ES   4   1448 58.13                             116   -1.79 0  244 335 
 SML  HZ I        1449  7.46        21.4 0.23            117            244 335 
 HEL  HZ EP   1   1448 35.31                             114    0.25 6  272 256 
 HEL  HN ES       1449  5.61                             114   -0.62 8  272 256 
 HEL  HZ I        1449 13.27        16.1 0.32            114            272 256 
 URE  HZ EP   2   1448 35.48                             113   -0.48 4  284 292 
 URE  HN ES       1449  7.41                             113   -0.42 7  284 292 
 ELA  HZ EP   4   1448 43.19                             109    1.47 0  329 230 
 ELA  HN ES   4   1449 20.65                             109    2.57 0  329 230 
 ELA  HZ I        1449 29.69         7.9 0.46            110            329 230 
 MON  HZ EP   4   1448 42.27                             108   -1.68 0  354 308 
 MON  HN ES   4   1449 20.47                             108   -1.59 0  354 308 
 MON  HZ I        1449 21.60         4.9 0.18            108            354 308 
 PRA  HZ EP       1448 49.08                             106    0.67 6  392 210 
 PRA  HN ES       1449 30.05                             106    0.06 6  392 210 
 PRA  HZ I        1449 40.63         3.5 0.44            106            392 210 
 ORTC HZ EP   1   1448 49.73                             106    0.92 4  395 216 
 ORTC HN ES       1449 30.96                             106    0.25 6  395 216 
 ORTC HZ I        1449 37.29         3.3 0.40            106            395 216 
                                                                                
