 2010  221 1034 36.2 L   6.800 -73.105150.9  RSN 14 0.5 3.8LRSN                1
 GAP=187        0.77       4.1     6.0  6.5 -0.6199E+01  0.1213E+02  0.6907E+01E
 Epicentro: LOS SANTOS - SANTANDER                                             3
 ACTION:UP  10-08-24 09:50 OP:vdl  STATUS:               ID:20100221103436 L   I
 2010-02-21-1032-04S.COL___094                                                 6
 STAT SP IPHASW D HRMM SECON CODA AMPLIT PERI AZIMU VELO SNR AR TRES W  DIS CAZ7
 BAR2 SZ IP       1034 56.34                             170    -0.110   25 201 
 BAR2 SZ ES   2   1035 11.63                             170    -0.6 5   25 201 
 GIR2 SZ EP   1   1034 57.39                             167     0.9 7   32 342 
 GIR2 SZ ES   2   1035 13.14                             167     0.8 5   32 342 
 BRR  HZ EP   1   1034 58.15                             152     0.1 7   75 297 
 BRR  HN ES   2   1035 14.58                             152    -0.6 5   75 297 
 BRR  HZ I        1035 19.20      1134.2 0.15                            75 297 
 RUS  BZ IP       1035  0.18                             145    -0.210  100 179 
 RUS  BN ES   2   1035 19.33                             145     0.0 5  100 179 
 RUS  BZ I        1035 21.94       358.7 0.40                           100 179 
 OCA  SZ EP   1   1035  4.60                             131    -0.3 7  161 352 
 OCA  SZ ES   2   1035 27.15                             131    -0.2 5  161 352 
 OCA  SZ I        1035 31.72      1630.5 0.54                           161 352 
 NOR  SZ EP   1   1035 12.14                             119    -0.5 6  239 235 
 NOR  SZ ES   2   1035 41.21                             119     0.2 4  239 235 
 CHI  HZ EP   1   1035 14.36                             118     0.1 6  250 196 
 CHI  HE ES   2   1035 43.68                             118    -0.3 4  250 196 
 CHI  HZ I        1035 53.46       253.0 0.22                           250 196 
 ROSC BZ EP   1   1035 15.05                             117     0.2 6  255 212 
 ROSC BN ES   2   1035 45.09                             117     0.1 4  255 212 
 ROSC BZ I        1035 54.15       450.3 0.43                           255 212 
 HEL  HZ EP   1   1035 16.33                             115    -0.8 6  276 256 
 HEL  HE ES   2   1035 49.09                             115     0.0 4  276 256 
 HEL  HZ I        1035 55.47       499.1 0.42                           276 256 
 GUY  HZ EP   1   1035 20.82                             113     0.4 5  305 235 
 GUY  HN ES   2   1035 55.07                             113     0.1 4  305 235 
 RREF BZ EP   1   1035 23.43                             111     0.5 5  325 230 
 RREF BE ES   2   1035 59.02                             111    -0.4 3  325 230 
 RREF BZ I        1036 11.65       379.4 0.46                           325 230 
 TOL  SZ EP   1   1035 25.45                             110     0.5 5  347 225 
 TOL  SZ ES   2   1036  3.52                             110     0.4 3  347 225 
 ANIL BZ EP   1   1035 26.83                             109     0.3 5  361 225 
 ANIL BN ES   2   1036  6.45                             109     0.6 3  361 225 
 PRA  HZ EP   1   1035 29.32                             107    -0.8 4  394 210 
 PRA  HE ES   2   1036 11.76                             107    -0.4 3  394 210 
 PRA  HZ I        1036 16.32       307.8 0.56                           394 210 
                                                                                
