 2016 1121 1524 18.0 L   6.841 -73.162147.8  RSN  6 0.4 1.9LRSN                1
 GAP=166        0.84       4.1     4.2  7.4 -0.5280E+01  0.7952E+01  0.6240E+01E
 Epicentro: LOS SANTOS - SANTANDER                                             3
 ACTION:UPD 17-10-26 21:10 OP:lp   STATUS:               ID:20161121152418 L   I
 OLDACT:REG 16-11-21 20:53 OP:dani STATUS:               ID:20161121151747     3
 2016-11-21-1518-00M.COL___340                                                 6
 STAT SP IPHASW D HRMM SECON CODA AMPLIT PERI AZIMU VELO AIN AR TRES W  DIS CAZ7
 PAM  EZ EP       1524 40.84                             152    0.5410 75.1  43 
 PAM  EE ES       1524 57.42                             152   -0.2810 75.1  43 
 PAM  EZ I        1525  0.15         3.8 0.23            156           75.1  43 
 PTB  HZ EP       1524 44.87                             132   -0.19 9  147 257 
 PTB  HE ES       1525  5.88                             132   -0.29 9  147 257 
 PTB  HZ I        1525 13.48        10.9 0.40            132            147 257 
 ZAR  HE ES       1525 15.99                             123    0.61 9  201 291 
 ZAR  HZ I        1525 21.61        10.6 0.31            124            201 291 
 NOR  HZ EP       1524 54.10                             119    0.12 8  236 233 
 NOR  HN ES       1525 21.93                             119   -0.11 8  236 233 
 NOR  HZ I        1525 29.30         6.8 0.21            120            236 233 
 PRA  HZ EP       1525 12.08                             107    0.13 6  395 209 
 PRA  HN ES       1525 54.04                             107    0.01 6  395 209 
 PRA  HZ I        1525 57.61         4.2 0.57            109            395 209 
 SJC  HZ EP       1525 12.16                             106   -0.90 6  404 327 
 SJC  HN ES       1525 55.86                             106   -0.16 6  404 327 
 SJC  HZ I        1526  6.80         1.4 0.40            108            404 327 
                                                                                
