 2016  221 1807  2.5 L   6.811 -73.162150.2  RSN 19 0.4 2.1LRSN                1
 GAP=134        0.86       2.3     3.0  4.0 -0.1422E+01  0.3106E+01  0.7048E+00E
 Epicentro: LOS SANTOS - SANTANDER                                             3
 ACTION:UPD 16-03-04 21:28 OP:rebc STATUS:               ID:20160221180702 L   I
 OLDACT:DUP 16-02-22 00:23 OP:ak   STATUS:               ID:20160221175751d    3
 2016-02-21-1757-49M.COL___327                                                 6
 STAT SP IPHASW D HRMM SECON CODA AMPLIT PERI AZIMU VELO AIN AR TRES W  DIS CAZ7
 BAR2 EZ EP       18 7 22.63                             170   -0.0510 24.3 185 
 BAR2 EZ ES       18 7 38.64                             170    0.2210 24.3 185 
 BAR2 EZ I        18 7 41.09        14.7 0.24            170           24.3 185 
 BRR  HZ EP     C 18 7 24.51                             154    0.5010 69.0 298 
 BRR  HN ES       18 7 41.61                             154    0.8210 69.0 298 
 BRR  HZ I        18 7 44.36        14.2 0.14            151           69.0 298 
 PAM  EZ EP       18 7 25.45                             152    0.2610 77.6  41 
 PAM  EN ES       18 7 42.61                             152   -0.2910 77.6  41 
 PAM  EZ I        18 7 44.85        21.7 0.54            154           77.6  41 
 RUS  HZ EP       18 7 26.52                             144   -0.2610  102 175 
 RUS  HN ES       18 7 45.29                             144   -0.4410  102 175 
 RUS  HZ I        18 7 46.85        14.7 0.46            146            102 175 
 PTB  HZ EP       18 7 29.39                             133   -0.30 9  146 258 
 PTB  HN ES       18 7 50.28                             133   -0.63 9  146 258 
 PTB  HZ I        18 7 52.73        22.4 0.14            132            146 258 
 OCA  HZ EP       18 7 30.87                             131   -0.15 9  159 354 
 OCA  HN ES       18 7 53.15                             131   -0.12 9  159 354 
 OCA  HZ I        18 7 58.48        37.0 0.20            131            159 354 
 SPBC HZ EP       18 7 31.71                             130    0.39 9  163 218 
 SPBC HN ES       18 7 53.72                             130   -0.09 9  163 218 
 SPBC HZ I        18 7 58.72        21.7 0.14            130            163 218 
 ZAR  HZ EP       18 7 35.43                             124    0.42 9  202 292 
 ZAR  HN ES       18 8  0.10                             124   -0.28 9  202 292 
 ZAR  HZ I        18 8  7.28         8.0 0.12            123            202 292 
 NOR  HZ EP       18 7 38.67                             120    0.26 8  234 234 
 NOR  HE ES       18 8  6.48                             120    0.06 8  234 234 
 NOR  HZ I        18 8 10.10         8.1 0.30            120            234 234 
 CHI  HZ EP       18 7 40.81                             118    0.29 8  249 195 
 CHI  HN ES       18 8  9.82                             118   -0.36 8  249 195 
 CHI  HZ I        18 8 14.07         5.9 0.42            119            249 195 
 ROSC BZ EP   9   18 7 43.09                             118    2.22 0  253 211 
 ROSC BE ES       18 8 13.52                                    0.49 8  253 211 
 HEL  HZ EP   4   18 7 44.43                             116    1.65 0  271 255 
 HEL  HN ES       18 8 14.05                             116   -0.15 8  271 255 
 HEL  HZ I        18 8 20.95         7.9 0.28            116            271 255 
 URE  HZ EP       18 7 43.42                             115   -0.13 7  282 292 
 URE  HN ES   4   18 8 13.93                             115   -1.64 0  282 292 
 GUY2CHZ EP       18 7 46.19                             113   -0.04 7  300 234 
 GUY2CHN ES       18 8 20.51                             113    0.17 7  300 234 
 GUY2CHZ I        18 8 29.29         8.3 0.70                           300 234 
 MON  HZ EP   9   18 7 50.00                             109   -1.42 0  352 308 
 MON  HN ES       18 8 28.14                                   -0.02 6  352 308 
 MON  HZ I        18 8 37.57         1.8 0.48            110            352 308 
 ANIL HZ EP   2   18 7 52.91                             109    0.48 3  357 224 
 ANIL HN ES   4   18 8 33.83                             109    2.45 0  357 224 
 ANIL HZ I        18 8 39.34        14.6 0.48            110            357 224 
 ORTC HZ EP       18 7 56.76                             107    0.20 6  395 216 
 ORTC HN ES       18 8 38.93                             107    0.19 6  395 216 
 ORTC HZ I        18 8 45.55         2.8 0.19            108            395 216 
 SJC  HZ EP       18 7 56.93                             107   -1.04 6  407 327 
 SJC  HN ES   4   18 8 38.44                             107   -2.80 0  407 327 
 SJC  HZ I        18 8 44.03         2.9 0.36            107            407 327 
 CRJC HZ EP   9   18 8  2.57                             104   -2.41 0  466   4 
 CRJC HE ES       18 8 50.65                                   -0.66 5  466   4 
 CRJC HZ I        18 8 56.65         4.7 0.14            105            466   4 
                                                                                
