 2014  521 1033  5.7 L   6.736 -73.231152.0  RSN  4 0.2 1.2LRSN                1
 GAP=235        0.57       5.7     4.7  8.3  0.1865E+02 -0.1528E+02 -0.3193E+02E
 Epicentro: VILLANUEVA - SANTANDER                                             3
 ACTION:UPD 15-03-16 16:59 OP:nd   STATUS:               ID:20140521103305 L   I
 OLDACT:REG 14-05-21 20:26 OP:spq  STATUS:               ID:20140521102817     3
 2014-05-21-1028-17M.COL___257                                                 6
 STAT SP IPHASW D HRMM SECON CODA AMPLIT PERI AZIMU VELO AIN AR TRES W  DIS CAZ7
 RUS  HZ EP       1033 29.66                             147   -0.0510 94.7 170 
 RUS  HN ES       1033 48.44                             147    0.0410 94.7 170 
 RUS  HZ I        1033 49.12         0.9 0.16            151           94.7 170 
 PTB  HZ EP       1033 31.95                             136   -0.36 9  137 261 
 PTB  HN ES       1033 53.11                             136    0.08 9  137 261 
 PTB  HZ I        1034  0.14         3.2 0.50            136            137 261 
 SPBC HN ES       1033 55.54                             133    0.06 9  152 218 
 SPBC HZ I        1033 58.78         2.4 0.20            135            152 218 
 ZAR  HZ EP       1033 38.43                             125    0.41 9  198 295 
 ZAR  HN ES       1034  3.06                             125   -0.13 9  198 295 
 ZAR  HZ I        1034  8.65         2.4 0.38            126            198 295 
                                                                                
