 2017  721 1649 39.7 L   6.755 -73.095140.3  RSN  6 0.5 1.6LRSN                1
 GAP=239        1.19       7.6     7.3  8.4  0.2477E+02  0.1559E+02  0.1483E+02E
 Epicentro: LOS SANTOS - SANTANDER                                             3
 ACTION:UPD 17-08-30 15:35 OP:rebc STATUS:               ID:20170721164939 L   I
 OLDACT:REG 17-07-21 21:04 OP:lv   STATUS:               ID:20170721164741     3
 2017-07-21-1648-00M.COL___389                                                 6
 STAT SP IPHASW D HRMM SECON CODA AMPLIT PERI AZIMU VELO AIN AR TRES W  DIS CAZ7
 BAR2 EZ EP       1649 58.99                             172    0.3310 20.4 208 
 BAR2 EZ ES       1650 13.73                             172    0.3110 20.4 208 
 BAR2 EZ I        1650 14.40         8.2 0.17            173           20.4 208 
 BRR  HN ES       1650 17.60                             149    0.4710 78.5 300 
 RUS  HZ EP       1650  2.35                             144   -0.2410 95.4 179 
 RUS  HN ES       1650 19.74                             144   -0.6610 95.4 179 
 RUS  HZ I        1650 21.63         0.0 0.05            145           95.4 179 
 PTB  HZ EP   9   1650  4.94                             130   -1.76 0  152 261 
 PTB  HN ES       1650 25.49                                   -0.48 9  152 261 
 PTB  HZ I        1650 26.99         5.6 0.05            131            152 261 
 ZAR  HE ES       1650 37.33                             120   -0.87 8  211 293 
 ZAR  HZ I        1650 38.78         6.1 0.22            121            211 293 
 GUY2CHZ EP       1650 23.77                             111    0.46 7  303 236 
 GUY2CHN ES       1650 57.64                             111    0.35 7  303 236 
 GUY2CHZ I        1651  3.09         1.5 0.55                           303 236 
                                                                                
