 2010  821 1958 57.6 L   6.765 -73.098147.3  RSN  8 0.4 2.1LRSN                1
 GAP=164        1.03       4.2    11.4  9.6 -0.1115E+02 -0.2361E+02  0.9920E+00E
 Epicentro: LOS SANTOS - SANTANDER                                             3
 ACTION:UP  10-09-07 10:57 OP:vdl  STATUS:               ID:20100821195857 L   I
 2010-08-21-1954-21S.COL___120                                                 6
 STAT SP IPHASW D HRMM SECON CODA AMPLIT PERI AZIMU VELO SNR AR TRES W  DIS CAZ7
 BAR2 SZ EP   1   1959 17.29                             171    -0.1 7   21 206 
 BAR2 SZ ES   2   1959 32.11                             171    -0.7 5   21 206 
 BAR2 SZ I        1959 33.99        32.3 0.42                            21 206 
 GIR2 SZ EP   2   1959 17.25                             165    -0.3 5   36 343 
 BRR  HZ EP       1959 18.96                             151    -0.310   78 299 
 BRR  HZ I        1959 19.43        41.2 0.14                            78 299 
 BRR  HN ES   1   1959 36.58                             151     0.4 7   78 299 
 RUS  HZ EP   1   1959 21.16                             145     0.0 7   96 179 
 RUS  HN ES   1   1959 39.65                             145     0.1 7   96 179 
 RUS  HZ I        1959 40.67        12.8 0.40                            96 179 
 GUE  SZ EP       1959 22.14                             139    -0.510  119   9 
 GUE  SZ I        1959 22.82         6.6 0.18                           119   9 
 GRA  SZ EP       1959 23.95                             137     0.810  128  15 
 GRA  SZ ES   1   1959 43.22                             137     0.1 7  128  15 
 GRA  SZ I        1959 46.55        19.6 0.19                           128  15 
 OCA  SZ EP   1   1959 25.95                             129    -0.5 7  165 351 
 OCA  SZ ES   1   1959 49.03                             129     0.1 7  165 351 
 OCA  SZ I        1959 51.70        22.8 0.29                           165 351 
 CHI  HZ EP   1   1959 35.36                             118     0.3 6  246 197 
 CHI  HZ I        1959 36.41         4.6 1.02                           246 197 
 CHI  HN ES   1   20 0  4.65                             118     0.3 6  246 197 
                                                                                
