 2015  121 1224 54.5 L   6.771 -73.151144.5  RSN  5 0.3 1.4LRSN                1
 GAP=235        0.70       6.1     6.0  7.1  0.1898E+02  0.9223E+01  0.2189E+02E
 Epicentro: LOS SANTOS - SANTANDER                                             3
 ACTION:UPD 15-03-02 15:41 OP:nd   STATUS:               ID:20150121122454 L   I
 OLDACT:REG 15-01-21 20:25 OP:spq  STATUS:               ID:20150121121750     3
 2015-01-21-1217-50M.COL___268                                                 6
 STAT SP IPHASW D HRMM SECON CODA AMPLIT PERI AZIMU VELO AIN AR TRES W  DIS CAZ7
 BAR2 EZ ES   1   1225 28.87                             172   -0.21 7 20.0 190 
 BAR2 EZ I        1225 30.50         4.9 0.32            167           20.0 190 
 BRR  HN ES       1225 32.41                             152    0.3810 72.3 301 
 BRR  HZ I        1225 37.15        15.6 0.33            148           72.3 301 
 RUS  HZ EP       1225 18.04                             145    0.1210 97.4 176 
 RUS  HN ES   1   1225 35.80                             145   -0.37 7 97.4 176 
 RUS  HZ I        1225 37.01         2.8 0.24            145           97.4 176 
 PTB  HZ EP   1   1225 20.91                             132   -0.37 7  147 260 
 PTB  HE ES       1225 41.91                             132   -0.24 9  147 260 
 PTB  HZ I        1225 48.45         2.8 0.28            130            147 260 
 CHI  HZ EP   1   1225 31.75                             117   -0.04 6  245 195 
 CHI  HN ES   1   1226  1.50                             117    0.64 6  245 195 
 CHI  HZ I        1226  4.52         1.1 0.38            118            245 195 
                                                                                
