 2014  721 1845 52.7 L   6.760 -73.211150.0  RSN  6 0.5 1.6LRSN                1
 GAP=194        1.10       9.2     9.1 14.9  0.5584E+02 -0.3528E+02 -0.7572E+02E
 Epicentro: ZAPATOCA - SANTANDER                                               3
 ACTION:UPD 15-03-16 20:45 OP:nd   STATUS:               ID:20140721184552 L   I
 OLDACT:DUP 14-07-21 22:42 OP:fm   STATUS:               ID:20140721183814d    3
 2014-07-21-1838-13M.COL___272                                                 6
 STAT SP IPHASW D HRMM SECON CODA AMPLIT PERI AZIMU VELO AIN AR TRES W  DIS CAZ7
 BAR2 SZ I        1846 27.99         6.1 0.20            169           18.8 170 
 RUS  HZ EP       1846 16.42                             146   -0.2210 96.9 172 
 RUS  HN ES       1846 35.55                             146    0.2510 96.9 172 
 RUS  HZ I        1846 36.23         2.5 0.30            147           96.9 172 
 PTB  HZ EP       1846 18.66                             135   -0.69 9  140 260 
 PTB  HN ES       1846 40.15                             135    0.04 9  140 260 
 PTB  HZ I        1846 46.28         2.9 0.60            132            140 260 
 ZAR  HZ EP       1846 25.90                             124    0.94 9  199 294 
 ZAR  HN ES       1846 50.04                             124   -0.06 9  199 294 
 ZAR  HZ I        1846 57.22         3.9 0.22            123            199 294 
 SML  HN ES   1   1846 58.29                             118   -0.29 6  245 337 
 SML  HZ I        1847  0.59         3.9 0.10            120            245 337 
 SJC  HZ EP   4   1846 44.32                             107   -4.10 0  409 328 
 SJC  HN ES   4   1847 27.69                             107   -4.17 0  409 328 
 SJC  HZ I        1847 30.82         2.0 0.64            108            409 328 
                                                                                
