 2012 1221 1137 42.9 L   6.742 -73.178150.0  RSN  5 0.2 1.4LRSN                1
 GAP=176        0.44       4.0     3.7  4.7  0.3910E+01  0.4799E+01  0.1640E+01E
 Epicentro: VILLANUEVA - SANTANDER                                             3
 ACTION:UPD 13-01-04 14:29 OP:ep   STATUS:               ID:20121221113742 L   I
 2012-12-21-1130-00M.COL___243                                                 6
 STAT SP IPHASW D HRMM SECON CODA AMPLIT PERI AZIMU VELO AIN AR TRES W  DIS CAZ7
 BAR2 SZ EP   1   1138  2.92                             173   -0.01 7 16.5 182 
 BAR2 SZ ES   1   1138 18.37                             173   -0.19 7 16.5 182 
 BAR2 SZ I        1138 19.78         8.2 0.40                          16.5 182 
 GIR2 SZ EP   1   1138  3.10                             165   -0.16 7 37.3 357 
 GIR2 SZ ES   1   1138 19.32                             165    0.19 7 37.3 357 
 GIR2 SZ I        1138 21.09         4.3 0.26                          37.3 357 
 RUS  HZ EP   1   1138  7.02                             146    0.37 7 94.5 174 
 RUS  HN ES   1   1138 25.09                             146   -0.09 7 94.5 174 
 RUS  HZ I        1138 26.53         2.9 0.26                          94.5 174 
 PTB  HZ EP   1   1138  9.54                             134   -0.27 7  143 261 
 PTB  HN ES   1   1138 30.92                             134    0.12 7  143 261 
 PTB  HZ I        1138 33.17         3.0 0.10                           143 261 
 ZAR  HE ES   2   1138 41.11                             123    0.09 4  203 294 
                                                                                
