 2010  221 1447 12.0 L   6.604 -73.102171.9  RSN 10 0.5 3.1LRSN                1
 GAP=186        1.13       5.2     8.6  7.5 -0.2374E+01  0.2200E+02  0.7719E+01E
 Epicentro: CURITI - SANTANDER                                                 3
 ACTION:UP  10-08-24 09:50 OP:vdl  STATUS:               ID:20100221144711 L   I
 2010-02-21-1445-05S.COL___094                                                 6
 STAT SP IPHASW D HRMM SECON CODA AMPLIT PERI AZIMU VELO SNR AR TRES W  DIS CAZ7
 BAR2 SZ IP       1447 34.71                             174     0.110    9 261 
 BAR2 SZ ES   1   1447 51.82                             174    -0.4 7    9 261 
 GIR2 SZ EP       1447 34.67                             162    -0.810   53 349 
 GIR2 SZ ES   1   1447 52.92                             162    -0.8 7   53 349 
 RUS  BZ IP       1447 37.37                             155     0.310   79 178 
 RUS  BN ES   1   1447 56.94                             155     0.2 7   79 178 
 RUS  BZ I        1447 58.54       377.1 0.55                            79 178 
 BRR  HZ EP       1447 37.45                             150     0.610   87 310 
 BRR  HE ES   1   1447 57.26                             150     1.0 7   87 310 
 BRR  HZ I        1447 59.06       136.1 0.18                            87 310 
 OCA  SZ EP       1447 44.37                             131     0.0 9  182 352 
 OCA  SZ ES   2   1448  9.96                             131     0.3 4  182 352 
 CHI  HZ EP       1447 49.53                             124     0.3 8  229 198 
 CHI  HE ES   2   1448 18.41                             124     0.0 4  229 198 
 CHI  HZ I        1448 25.96        28.9 0.37                           229 198 
 HEL  HZ EP       1447 53.62                             119    -0.1 8  272 260 
 HEL  HN ES   1   1448 25.55                             119    -0.7 6  272 260 
 HEL  HZ I        1448 35.68        40.6 0.40                           272 260 
 ANIL BZ EP   1   1448  1.46                             113    -0.1 5  346 228 
 ANIL BZ I        1448 47.19        85.7 0.24                           346 228 
 DBB  SZ EP       1448  1.47                             113     0.0 6  347 278 
 PRA  HZ EP       1448  4.57                             112    -0.1 6  376 212 
 PRA  HE ES   1   1448 45.39                             112    -0.4 5  376 212 
 PRA  HZ I        1448 48.88        34.5 0.34                           376 212 
                                                                                
