 2012  721 1959 40.0 L   6.146 -73.705112.6  RSN  6 0.1 1.4LRSN                1
 GAP=117        0.37       1.7     1.9  3.9  0.8849E+00  0.6554E+00  0.1985E+01E
 Epicentro: LANDAZURI - SANTANDER                                              3
 ACTION:UPD 12-08-14 11:46 OP:ep   STATUS:               ID:20120721195940 L   I
 2012-07-21-1954-46M.COL___211                                                 6
 STAT SP IPHASW D HRMM SECON CODA AMPLIT PERI AZIMU VELO AIN AR TRES W  DIS CAZ7
 RUS  HZ EP       1959 58.59                             145     0.010   74 112 
 RUS  HZ I        20 0 13.76         3.1 0.34            139             74 112 
 BAR2 SZ EP   1   1959 58.23                             144    -0.1 7   76  49 
 BAR2 SZ ES   1   20 0 12.71                             144     0.0 7   76  49 
 BAR2 SZ I        20 0 13.97        10.1 0.13            143             76  49 
 PTB  HZ EP       1959 59.25                             137    -0.210   94 298 
 PTB  HE ES       20 0 14.60                             137     0.010   94 298 
 PTB  HZ I        20 0 17.21         4.0 0.12            140             94 298 
 BRR  HZ EP       20 0  0.44                             133     0.010  106 360 
 BRR  HE ES   1   20 0 16.55                             133     0.1 7  106 360 
 BRR  HZ I        20 0 18.66         8.4 0.12            136            106 360 
 CHI  HZ EP   1   20 0  7.33                             120     0.3 7  168 181 
 CHI  HN ES   1   20 0 28.17                             120     0.0 7  168 181 
 CHI  HZ I        20 0 36.00         2.3 0.38            116            168 181 
 ZAR  HZ EP   1   20 0  9.71                             115     0.1 6  196 320 
 ZAR  HE ES   1   20 0 32.88                             115     0.1 6  196 320 
 ZAR  HZ I        20 0 36.19         4.3 0.15            116            196 320 
