 2012  821 1539 20.0 L   6.757 -73.150138.9  RSN  7 0.4 2.4LRSN                1
 GAP=153        0.89       4.4     4.3  7.4 -0.1116E+01  0.8619E+01  0.1158E+02E
 Epicentro: LOS SANTOS - SANTANDER                                             3
 ACTION:UP  12-09-10 11:57 OP:ep   STATUS:               ID:20120821153920 L   I
 2012-08-21-1538-39M.COL___210                                                 6
 STAT SP IPHASW D HRMM SECON CODA AMPLIT PERI AZIMU VELO AIN AR TRES W  DIS CAZ7
 BAR2 SZ EP       1539 38.67                             172   -0.0310 18.6 191 
 BAR2 SZ ES   1   1539 53.25                             172   -0.05 7 18.6 191 
 BAR2 SZ I        1539 56.05        78.2 0.23                          18.6 191 
 BRR  HZ EP   1   1539 40.64                             151    0.13 7 73.2 302 
 BRR  HN ES   1   1539 57.29                             151    0.77 7 73.2 302 
 BRR  HZ I        1539 59.07        63.9 0.14                          73.2 302 
 PAM  SZ EP   1   1539 41.62                             148   -0.11 7 81.4  38 
 PAM  SE ES       1539 58.55                             148   -0.1410 81.4  38 
 PAM  SZ I        1540  0.93        57.3 0.45                          81.4  38 
 PTB  HZ EP   1   1539 45.28                             131   -0.99 7  146 261 
 PTB  HN ES       1540  6.14                             131   -0.64 9  146 261 
 PTB  HZ I        1540  9.61        19.0 0.12                           146 261 
 ZAR  HZ EP   1   1539 52.40                             121    0.27 6  205 293 
 ZAR  HN ES       1540 17.57                             121    0.36 8  205 293 
 ZAR  HZ I        1540 22.92        27.9 0.15                           205 293 
 NOR  SZ EP   1   1539 55.15                             117    0.17 6  232 235 
 NOR  SN ES   2   1540 22.47                             117    0.19 4  232 235 
 NOR  SZ I        1540 30.07        12.1 0.26                           232 235 
 CHI  HZ EP   1   1539 57.19                             116    0.40 6  244 195 
 CHI  HE ES       1540 25.81                             116    0.31 8  244 195 
 CHI  HZ I        1540 30.27         9.1 0.23                           244 195 
                                                                                
