 2017  821 1010 22.3 L   6.794 -73.134143.8  RSN 14 0.3 1.8LRSN                1
 GAP=100        0.78       2.7     3.3  4.5 -0.7932E+00  0.3901E+01  0.2798E+01E
 Epicentro: LOS SANTOS - SANTANDER                                             3
 ACTION:UPD 17-09-04 20:22 OP:rebc STATUS:               ID:20170821101022 L   I
 OLDACT:UP  17-08-21 21:46 OP:edw  STATUS:               ID:20170821100331     3
 OLDACT:UP  17-08-21 21:46 OP:edw  STATUS:               ID:20170821100331     3
 OLDACT:REG 17-08-21 20:52 OP:edw  STATUS:               ID:20170821100331     3
 2017-08-21-1008-00M.COL___405                                                 6
 STAT SP IPHASW D HRMM SECON CODA AMPLIT PERI AZIMU VELO AIN AR TRES W  DIS CAZ7
 BAR2 EZ EP     D 1010 41.35                             170   -0.3310 23.0 194 
 BAR2 EZ ES       1010 56.91                             170    0.1110 23.0 194 
 BAR2 EZ I        1010 57.26        15.3 0.24            167           23.0 194 
 BRR  HZ EP     D 1010 43.13                             152   -0.1910 72.7 298 
 BRR  HN ES       1011  0.03                             152    0.3210 72.7 298 
 BRR  HZ I        1011  3.64        12.5 0.34            149           72.7 298 
 PAM  EZ EP       1010 44.22                             151   -0.0610 77.1  38 
 PAM  EN ES       1011  1.14                             151   -0.2910 77.1  38 
 PAM  EZ I        1011  3.11        24.5 0.54            156           77.1  38 
 RUS  HZ EP       1010 45.82                             144    0.0210 99.8 177 
 RUS  HN ES       1011  4.76                             144    0.6310 99.8 177 
 RUS  HZ I        1011  6.97         4.5 0.30            144           99.8 177 
 TAM  HZ EP   2 D 1010 49.72                             130    0.04 5  154 105 
 SPBC HZ EP   4   1010 48.13                             129   -2.54 0  164 220 
 SPBC HN ES       1011 12.49                             129   -0.32 9  164 220 
 SPBC HZ I        1011 17.76         8.9 0.22            128            164 220 
 ZAR  HZ EP       1010 55.29                             122    0.52 8  206 292 
 ZAR  HE ES       1011 19.83                             122   -0.26 8  206 292 
 ZAR  HZ I        1011 25.42         9.2 0.44            122            206 292 
 NOR  HZ EP       1010 58.06                             118    0.07 8  235 235 
 NOR  HN ES       1011 25.58                             118   -0.24 8  235 235 
 NOR  HZ I        1011 32.42         3.4 0.16            118            235 235 
 CHI  HZ EP       1010 59.99                             117    0.14 8  248 196 
 CHI  HN ES       1011 28.74                             117   -0.41 8  248 196 
 CHI  HZ I        1011 34.39         3.1 0.32            117            248 196 
 HEL  HN ES   2   1011 34.61                             114    0.69 4  273 256 
 URE  HZ EP   4   1011  5.73                             113    2.29 0  285 292 
 URE  HN ES   4   1011 32.51                             113   -3.02 0  285 292 
 URE  HZ I        1011 43.31         4.2 0.18            113            285 292 
 GUY2CHZ EP   4   1011  7.26                             112    1.37 0  302 235 
 GUY2CHN ES   4   1011 42.99                             112    3.09 0  302 235 
 GUY2CHZ I        1011 49.38         2.8 0.30                           302 235 
 PRA  HZ EP       1011 16.32                             106    0.56 6  392 210 
 PRA  HE ES       1011 56.93                             106   -0.53 6  392 210 
 PRA  HZ I        1012  3.96         2.7 0.22            107            392 210 
 SJC  HZ EP   4   1011 15.64                             105   -2.30 0  411 327 
 SJC  HN ES   4   1011 56.54                             105   -4.81 0  411 327 
 SJC  HZ I        1012  0.71         2.0 0.46            106            411 327 
                                                                                
