 2016  921 1700 10.5 L   6.788 -73.095162.6  RSN  7 0.4 1.6LRSN                1
 GAP=168        0.81       5.4     4.5  6.1 -0.7461E+01  0.8321E+01  0.4586E+01E
 Epicentro: LOS SANTOS - SANTANDER                                             3
 ACTION:UPD 17-08-17 21:14 OP:lp   STATUS:               ID:20160921170010 L   I
 OLDACT:UP  16-09-22 00:22 OP:edw  STATUS:               ID:20160921165742     3
 OLDACT:UP  16-09-22 00:21 OP:edw  STATUS:               ID:20160921165742     3
 OLDACT:UP  16-09-22 00:20 OP:edw  STATUS:               ID:20160921165742     3
 OLDACT:REG 16-09-21 21:14 OP:edw  STATUS:               ID:20160921165742     3
 2016-09-21-1658-00M.COL___351                                                 6
 STAT SP IPHASW D HRMM SECON CODA AMPLIT PERI AZIMU VELO AIN AR TRES W  DIS CAZ7
 BAR2 EZ EP       17 0 32.84                             171    0.6910 23.7 204 
 BAR2 EZ ES       17 0 49.03                             171   -0.0110 23.7 204 
 BAR2 EZ I        17 0 59.94         3.6 0.12            167           23.7 204 
 PAM  EZ EP   4   17 0 32.19                             154   -2.20 0 75.0  36 
 PAM  EE ES       17 0 52.56                             154   -0.4710 75.0  36 
 PAM  EZ I        17 0 54.78        11.2 0.42            160           75.0  36 
 BRR  HZ EP   4   17 0 34.84                             153    1.07 0 76.8 297 
 BRR  HE ES       17 0 52.08                             153    0.1510 76.8 297 
 PTB  HZ EP   9   17 0 39.68                             134    0.36 0  153 260 
 PTB  HN ES       17 1  2.21                             134    0.03 9  153 260 
 PTB  HZ I        17 1  3.93         5.8 0.26            139            153 260 
 ZAR  HZ EP       17 0 44.39                             125   -0.26 8  210 292 
 ZAR  HN ES       17 1 11.48                             125    0.19 8  210 292 
 NOR  HZ EP   3   17 0 47.02                             121   -0.62 2  239 236 
 NOR  HE ES       17 1 16.40                             121   -0.22 8  239 236 
 GUY2CHZ EP   4   17 0 48.73                             115   -6.61 0  305 236 
 GUY2CHE ES       17 1 30.05                             115   -0.28 7  305 236 
 GUY2CHZ I        17 1 40.23         2.4 0.42                           305 236 
                                                                                
