 2013  421 1528 32.6 L   6.779 -73.146147.3  RSN  6 0.4 1.7LRSN                1
 GAP=137        1.05       5.5     5.5  7.1 -0.2924E+01  0.5028E+01  0.5823E+01E
 Epicentro: LOS SANTOS - SANTANDER                                             3
 ACTION:UPD 13-05-22 14:39 OP:EP   STATUS:               ID:20130421152832 L   I
 2013-04-21-1518-36M.COL___215                                                 6
 STAT SP IPHASW D HRMM SECON CODA AMPLIT PERI AZIMU VELO AIN AR TRES W  DIS CAZ7
 BAR2 SZ EP       1528 52.47                             171    0.1110 21.1 191 
 BAR2 SZ ES       1529  8.11                             171    0.3310 21.1 191 
 GIR2 SZ ES       1529  7.49                             167   -0.5510 33.5 351 
 BRR  HZ EP       1528 54.27                             152    0.3110 72.2 300 
 BRR  HN ES       1529 11.40                             152    0.7710 72.2 300 
 BRR  HN I        1529 11.92        16.8 0.24            151           72.2 300 
 PAM  SZ EP       1528 55.26                             150    0.1910 79.2  39 
 PAM  SN ES       1529 12.20                             150   -0.4210 79.2  39 
 PAM  SN I        1529 13.43         7.5 0.44            154           79.2  39 
 RUS  HZ EP       1528 56.37                             145    0.0510 98.3 176 
 RUS  HN ES       1529 14.82                             145   -0.0210 98.3 176 
 RUS  HN I        1529 16.61         8.7 0.24            145           98.3 176 
 PTB  HZ EP       1528 59.28                             132   -0.35 9  147 260 
 PTB  HN ES       1529 20.20                             132   -0.53 9  147 260 
 PTB  HN I        1529 26.08         6.0 0.46            132            147 260 
                                                                                
