 2014  121 1420 49.1 L   6.760 -73.156141.0  RSN  6 0.4 1.6LRSN                1
 GAP=137        1.14       5.6     5.3  7.7 -0.7267E+01  0.9614E+01  0.5596E+01E
 Epicentro: LOS SANTOS - SANTANDER                                             3
 ACTION:UPD 14-03-13 09:57 OP:ep   STATUS:               ID:20140121142049 L   I
 OLDACT:DUP 14-01-21 19:23 OP:stll STATUS:               ID:20140121141813d    3
 2014-01-21-1418-12M.COL___228                                                 6
 STAT SP IPHASW D HRMM SECON CODA AMPLIT PERI AZIMU VELO AIN AR TRES W  DIS CAZ7
 BAR2 SZ EP       1421  8.05                             172   -0.0610 18.8 189 
 BAR2 SZ ES       1421 22.46                             172   -0.4410 18.8 189 
 BAR2 SZ I        1421 24.66        12.0 0.18            171           18.8 189 
 BRR  HZ EP       1421 10.62                             151    0.7710 72.4 302 
 BRR  HE ES       1421 26.64                             151    0.6510 72.4 302 
 PAM  SZ EP       1421 10.97                             149   -0.1410 81.6  38 
 PAM  SN ES       1421 27.96                             149   -0.2910 81.6  38 
 PAM  SZ I        1421 30.46         5.9 0.64            152           81.6  38 
 RUS  HZ EP       1421 12.04                             144   -0.0710 96.3 175 
 RUS  HN ES       1421 30.47                             144    0.4410 96.3 175 
 RUS  HZ I        1421 31.65         4.5 0.34            145           96.3 175 
 PTB  HZ EP       1421 15.01                             131   -0.53 9  146 260 
 PTB  HN ES       1421 35.49                             131   -0.64 9  146 260 
 PTB  HZ I        1421 38.91         6.8 0.18            132            146 260 
 NOR  HZ EP       1421 24.40                             118    0.18 8  231 235 
 NOR  HE ES       1421 51.65                             118    0.07 8  231 235 
 NOR  HZ I        1421 57.39         4.7 0.32            119            231 235 
                                                                                
