 2016  921 1853 41.1 L   7.364 -73.123  6.3  RSN  7 0.4 1.7LRSN                1
 GAP=106        1.06       2.1     2.6  6.1 -0.1813E+00  0.8268E+01 -0.5576E+00E
 Epicentro: RIONEGRO - SANTANDER                                               3
 ACTION:UPD 17-08-17 21:14 OP:lp   STATUS:               ID:20160921185341 L   I
 OLDACT:REG 16-09-21 21:24 OP:edw  STATUS:               ID:20160921184739     3
 2016-09-21-1848-00M.COL___338                                                 6
 STAT SP IPHASW D HRMM SECON CODA AMPLIT PERI AZIMU VELO AIN AR TRES W  DIS CAZ7
 PAM  EZ EP       1853 49.70                              93    0.4010 46.8  93 
 PAM  EN ES       1853 56.04                              93    0.3410 46.8  93 
 PAM  EZ I        1853 56.84        45.6 0.18             47           46.8  93 
 BRR  HZ EP       1853 53.00                              92    0.5510 71.0 246 
 BRR  HN ES       1854  1.73                              92    0.4210 71.0 246 
 BRR  HZ I        1854  2.93        19.4 0.18             47           71.0 246 
 BAR2 EZ EP       1853 55.09                              92    0.1810 85.6 184 
 BAR2 EZ ES       1854  5.33                              92   -0.3610 85.6 184 
 BAR2 EZ I        1854  6.18        19.1 0.16             47           85.6 184 
 OCA  HZ EP       1853 56.43                              91   -0.4510 99.2 347 
 OCA  HN ES       1854  8.68                              91   -0.5110 99.2 347 
 OCA  HZ I        1854 11.78        37.0 0.38             47           99.2 347 
 RUS  HZ EP       1854  6.60                              91   -0.27 9  163 178 
 RUS  HN ES       1854 26.29                              91   -0.67 9  163 178 
 RUS  HZ I        1854 28.03         6.3 0.22             47            163 178 
 PTB  HZ EP       1854  7.95                              56    0.11 9  173 238 
 PTB  HN ES       1854 28.30                              56   -0.39 9  173 238 
 PTB  HZ I        1854 29.16        13.9 0.16             47            173 238 
 ZAR  HZ EP       1854 10.66                              56    0.48 9  192 274 
 ZAR  HN ES       1854 32.98                              56    0.12 9  192 274 
 ZAR  HZ I        1854 34.32        12.8 0.42             37            192 274 
                                                                                
