 2011  421 1526 58.2 L   6.790 -73.109150.7  RSN  6 0.4 1.6LRSN                1
 GAP=142        0.78       5.3     6.7  8.6 -0.6743E+01 -0.1091E+01 -0.4433E+01E
 Epicentro: LOS SANTOS - SANTANDER                                             3
 ACTION:UP  11-06-22 15:32 OP:REBC STATUS:               ID:20110421152658 L   I
 2011-04-21-1525-50S.COL___139                                                 6
 STAT SP IPHASW D HRMM SECON CODA AMPLIT PERI AZIMU VELO SNR AR TRES W  DIS CAZ7
 BTL  SZ EP   1   1527 19.12                             171     0.7 8   23 309 
 BRR  HZ EP   1   1527 19.55                             152    -0.5 8   75 298 
 BRR  HN ES   1   1527 37.08                             152    -0.1 8   75 298 
 BRR  HZ I        1527 40.31         9.2 0.17                            75 298 
 PAM  SZ EP   1   1527 20.74                             152    -0.1 8   76  37 
 PAM  SN ES   1   1527 38.68                             152     0.2 8   76  37 
 RUS  HZ EP   1   1527 22.43                             145     0.1 8   99 178 
 RUS  HN ES   1   1527 40.85                             145    -0.3 8   99 178 
 RUS  HZ I        1527 41.67         4.6 0.29                            99 178 
 GRA  SZ EP       1527 23.74                             138    -0.110  126  16 
 HEL  HN ES   2   1528 11.41                             115     0.5 4  276 256 
                                                                                
