 2017  921 1640  4.4 L   6.775 -73.114141.1  RSN  6 0.4 1.4LRSN                1
 GAP=142        1.02       4.6     5.0  7.4 -0.7326E+00  0.1200E+02  0.4431E+01E
 Epicentro: LOS SANTOS - SANTANDER                                             3
 ACTION:UPD 17-10-05 19:14 OP:rebc STATUS:               ID:20170921164004 L   I
 OLDACT:REG 17-09-21 20:39 OP:lv   STATUS:               ID:20170921163742     3
 2017-09-21-1638-00M.COL___441                                                 6
 STAT SP IPHASW D HRMM SECON CODA AMPLIT PERI AZIMU VELO AIN AR TRES W  DIS CAZ7
 BAR2 EZ ES       1640 37.60                             171   -0.7010 21.6 200 
 BAR2 EZ I        1640 39.62         5.8 0.28            169           21.6 200 
 BRR  HZ EP       1640 25.12                             150   -0.2010 75.6 299 
 BRR  HN ES       1640 42.21                             150    0.5810 75.6 299 
 BRR  HZ I        1640 53.28        14.8 0.40            148           75.6 299 
 PAM  EZ EP       1640 25.97                             150   -0.1710 77.4  36 
 PAM  EN ES       1640 43.40                             150    0.3210 77.4  36 
 PAM  EZ I        1640 45.17         4.3 0.50            155           77.4  36 
 RUS  HZ EP       1640 27.89                             144    0.3910 97.7 178 
 RUS  HN ES       1640 45.46                             144   -0.0410 97.7 178 
 RUS  HZ I        1640 47.83         3.1 0.38            149           97.7 178 
 ZAR  HE ES       1641  2.01                             121   -0.42 8  208 292 
 NOR  HZ EP       1640 39.76                             117   -0.26 8  236 236 
 NOR  HN ES       1641  8.23                             117    0.44 8  236 236 
 NOR  HZ I        1641 12.81         1.7 0.28            120            236 236 
                                                                                
