 2013  421 1716  2.3 L   6.771 -73.199146.2  RSN  5 0.2 1.4LRSN                1
 GAP=131        0.68       3.9     4.2  6.3 -0.4868E+01 -0.2268E+00  0.4289E+01E
 Epicentro: VILLANUEVA - SANTANDER                                             3
 ACTION:UPD 13-05-22 14:39 OP:EP   STATUS:               ID:20130421171602 L   I
 2013-04-21-1708-49M.COL___210                                                 6
 STAT SP IPHASW D HRMM SECON CODA AMPLIT PERI AZIMU VELO AIN AR TRES W  DIS CAZ7
 BAR2 SZ EP       1716 21.85                             172   -0.1110 19.9 175 
 BAR2 SZ I        1716 22.18         4.1 0.22            171           19.9 175 
 GIR2 SZ EP       1716 21.92                             166   -0.2210 34.0   1 
 GIR2 SZ ES       1716 38.00                             166    0.4210 34.0   1 
 PAM  SZ EP       1716 25.06                             149    0.0810 83.6  41 
 PAM  SZ I        1716 25.13         5.4 0.22            149           83.6  41 
 PAM  SN ES       1716 42.40                             149   -0.2510 83.6  41 
 RUS  HZ EP       1716 26.31                             145    0.3610 98.0 172 
 RUS  HE ES       1716 44.18                             145   -0.1810 98.0 172 
 RUS  HE I        1716 45.39         5.0 0.52            144           98.0 172 
 PTB  HN ES       1716 49.28                             133   -0.10 9  141 260 
                                                                                
