 2014 1021 1721  1.0 L   6.610 -73.554107.2  RSN  4 0.3 1.0LRSN                1
 GAP=119        0.71       4.8     3.7  7.1  0.6222E+01  0.6242E+01  0.9655E+01E
 Epicentro: EL CARMEN - SANTANDER                                              3
 ACTION:UPD 14-11-29 23:53 OP:nd   STATUS:               ID:20141021172101 L   I
 OLDACT:DUP 14-10-24 10:27 OP:fm   STATUS:               ID:20141021171746d    3
 2014-10-21-1717-45M.COL___280                                                 6
 STAT SP IPHASW D HRMM SECON CODA AMPLIT PERI AZIMU VELO AIN AR TRES W  DIS CAZ7
 BAR2 SZ EP       1721 16.22                             158   -0.4510 41.2  93 
 BAR2 SZ ES       1721 28.88                             158   -0.0210 41.2  93 
 BAR2 SZ I        1721 30.58         3.4 0.14            161           41.2  93 
 BRR  HZ EP       1721 17.11                             150   -0.1110 57.6 342 
 BRR  HN ES       1721 30.14                             150    0.2610 57.6 342 
 BRR  HZ I        1721 32.60         6.2 0.34            154           57.6 342 
 RUS  HZ EP   1   1721 21.30                             136    0.60 7 94.9 147 
 RUS  HN ES   1   1721 36.07                             136    0.00 7 94.9 147 
 RUS  HZ I        1721 38.99         1.6 0.22            139           94.9 147 
 PTB  HZ EP   1   1721 20.71                             133    0.22 7  100 266 
 PTB  HN ES       1721 35.55                             133   -0.1510  100 266 
 PTB  HZ I        1721 37.57         1.8 0.14            137            100 266 
                                                                                
