 2013  621 1638 44.1 L   6.737 -73.172147.6  RSN  4 0.5 1.6LRSN                1
 GAP=229        0.99       8.9    10.1 10.4  0.5081E+02  0.1577E+02  0.2801E+01E
 Epicentro: VILLANUEVA - SANTANDER                                             3
 ACTION:UPD 14-01-08 09:56 OP:ep   STATUS:               ID:20130621163844 L   I
 OLDACT:UP  13-06-21 18:58 OP:cam  STATUS:               ID:20130621162959     3
 OLDACT:REG 13-06-21 18:10 OP:cam  STATUS:               ID:20130621162959     3
 2013-06-21-1629-59M.COL___263                                                 6
 STAT SP IPHASW D HRMM SECON CODA AMPLIT PERI AZIMU VELO AIN AR TRES W  DIS CAZ7
 BAR2 SZ EP   1   1639  3.53                             174   -0.31 7 16.0 184 
 BAR2 SZ ES   1   1639 18.26                             174   -0.98 7 16.0 184 
 BAR2 SZ I        1639 19.79        11.2 0.25            171           16.0 184 
 BRR  HZ EP   1   1639  5.75                             152    0.22 7 72.3 305 
 BRR  HN ES       1639 22.69                             152    0.4610 72.3 305 
 BRR  HZ I        1639 22.92         9.7 0.32            152           72.3 305 
 RUS  HZ EP   2   1639  7.86                             146    0.28 5 93.9 174 
 RUS  HN ES       1639 26.27                             146    0.3910 93.9 174 
 RUS  HZ I        1639 27.09         4.2 0.28            146           93.9 174 
 PTB  HZ EP   1   1639 10.55                             133   -0.31 7  144 261 
 PTB  HN ES   1   1639 31.41                             133   -0.32 7  144 261 
 PTB  HZ I        1639 33.25         6.4 0.30            133            144 261 
                                                                                
