 2013  821 1456 58.6 L   6.680 -73.184145.0  RSN  4 0.3 1.2LRSN                1
 GAP=224        0.90       8.6     8.0  8.6  0.4378E+02  0.2623E+02  0.2600E+02E
 Epicentro: VILLANUEVA - SANTANDER                                             3
 ACTION:UPD 14-01-14 09:05 OP:ep   STATUS:               ID:20130821145658 L   I
 OLDACT:DUP 13-08-21 18:08 OP:stll STATUS:               ID:20130821144852d    3
 2013-08-21-1448-51M.COL___200                                                 6
 STAT SP IPHASW D HRMM SECON CODA AMPLIT PERI AZIMU VELO AIN AR TRES W  DIS CAZ7
 BAR2 SZ ES       1457 32.46                             176   -0.5610 9.71 179 
 BAR2 SZ I        1457 33.70         3.1 0.38            164           9.71 179 
 BRR  HN ES       1457 36.94                             151    0.4510 75.1 309 
 RUS  HZ EP       1457 21.35                             147   -0.0310 87.8 173 
 RUS  HN ES       1457 39.54                             147    0.3810 87.8 173 
 RUS  HZ I        1457 41.50         2.1 0.38            143           87.8 173 
 PTB  HZ EP       1457 24.86                             133   -0.08 9  142 264 
 PTB  HN ES       1457 45.32                             133   -0.17 9  142 264 
 PTB  HZ I        1457 52.76         3.6 0.44            129            142 264 
                                                                                
