 2014  121 1033 26.7 L   6.796 -73.183132.5  RSN  4 0.2 1.4LRSN                1
 GAP=143        0.64       3.7     3.6  5.4 -0.4094E+01  0.5755E+01 -0.1982E+01E
 Epicentro: LOS SANTOS - SANTANDER                                             3
 ACTION:UPD 14-03-13 09:57 OP:ep   STATUS:               ID:20140121103326 L   I
 OLDACT:REG 14-01-21 15:58 OP:stll STATUS:               ID:20140121102818     3
 2014-01-21-1028-18M.COL___228                                                 6
 STAT SP IPHASW D HRMM SECON CODA AMPLIT PERI AZIMU VELO AIN AR TRES W  DIS CAZ7
 BAR2 SZ EP       1033 44.95                             170    0.2210 22.6 180 
 BAR2 SZ ES       1033 58.63                             170   -0.1510 22.6 180 
 BAR2 SZ I        1034  1.13         7.4 0.18            171           22.6 180 
 PAM  SZ EP       1033 47.72                             147   -0.0010 80.3  42 
 PAM  SZ I        1033 48.03        10.9 0.18            151           80.3  42 
 PAM  SN ES       1034  4.12                             147    0.0110 80.3  42 
 RUS  HZ EP       1033 49.39                             141    0.2210  101 174 
 RUS  HE ES       1034  6.58                             141   -0.1210  101 174 
 PTB  HZ EP       1033 51.75                             130   -0.49 9  144 259 
 PTB  HE ES       1034 12.43                             130    0.28 9  144 259 
 PTB  HZ I        1034 17.44         2.0 0.70            130            144 259 
                                                                                
