 2014  421 1619  6.8 L   6.816 -73.099134.8  RSN  4 0.4 1.6LRSN                1
 GAP=142        0.85       4.7     5.4 11.7 -0.1043E+01  0.2354E+02  0.5781E+01E
 Epicentro: LOS SANTOS - SANTANDER                                             3
 OLDACT:REG 14-04-21 21:53 OP:fm   STATUS:               ID:20140421161818     3
 ACTION:UPD 14-05-13 23:10 OP:nd   STATUS:               ID:20140421161906 L   I
 OLDACT:UP  14-04-22 00:11 OP:fm   STATUS:               ID:20140421161818     3
 OLDACT:UP  14-04-22 00:10 OP:fm   STATUS:               ID:20140421161818     3
 2014-04-21-1618-18M.COL___242                                                 6
 STAT SP IPHASW D HRMM SECON CODA AMPLIT PERI AZIMU VELO AIN AR TRES W  DIS CAZ7
 PAM  SZ EP   1   1619 28.29                             150    0.72 7 72.8  37 
 PAM  SN ES       1619 43.53                             150   -0.2410 72.8  37 
 RUS  HZ EP       1619 29.15                             141   -0.4510  102 179 
 RUS  HN ES       1619 47.60                             141    0.2110  102 179 
 RUS  SZ I        1619 49.98         5.8 1.44            142            102 179 
 PTB  HZ EP   4   1619 32.03                             128   -1.37 0  153 259 
 PTB  HE ES   1   1619 54.37                             128    0.21 7  153 259 
 PTB  SZ I        1619 55.88         7.0 0.18            126            153 259 
 ZAR  HZ EP   4   1619 41.41                             119    2.42 0  208 291 
 ZAR  HE ES   1   1620  4.03                             119   -0.08 6  208 291 
 ZAR  HZ I        1620 12.52         3.1 0.18            118            208 291 
 SJC  HZ EP   4   1620  0.10                             104   -2.08 0  411 326 
 SJC  HN ES   4   1620 43.45                             104   -1.93 0  411 326 
                                                                                
