 2012  821 1801  8.5 L   6.871 -73.290125.8  RSN 15 0.5 2.9LRSN 3.4WRSN        1
 SPEC AVERAGE  MO 14.1 ST 39.8 OM  3.7 f0 5.77 R0.2574 AL 2.94 WI 26.2 MW  3.4 3
 SPEC SD       MO  0.1 ST 16.3 OM  1.2 f00.573 R0.0250 AL      WI      MW  0.1 3
 GAP= 60        1.08       3.4     3.0  6.1  0.1103E+01  0.3679E+01  0.5029E+01E
 Epicentro: BETULIA - SANTANDER                                                3
 SPEC RUS HH N MO 14.2 ST 59.7 OM  2.6 f0 6.52 R0.2255 AL 2.67 WI 20.8 MW  3.4 3
 SPEC RUS HH N T18 145 K 0.000 GD  167 VS 4.20 DE 3.00 Q0230.0 QA 0.60 VS 4.20 3
 SPEC HEL HH N MO 14.0 ST 19.9 OM  2.2 f0 5.13 R0.2865 AL 3.34 WI 21.6 MW  3.3 3
 SPEC HEL HH N T18 214 K 0.000 GD  287 VS 4.20 DE 3.00 Q0230.0 QA 0.60 VS 4.20 3
 SPEC BRR HH N MO 14.2 ST 39.8 OM  2.7 f0 5.65 R0.2602 AL 2.82 WI 36.2 MW  3.4 3
 SPEC BRR HH N T18 137 K 0.000 GD  136 VS 4.20 DE 3.00 Q0230.0 QA 0.60 VS 4.20 3
 ACTION:UPD 12-09-10 11:57 OP:ep   STATUS:               ID:20120821180108 L   I
 2012-08-21-1800-00M.COL___217                                                 6
 STAT SP IPHASW D HRMM SECON CODA AMPLIT PERI AZIMU VELO AIN AR TRES W  DIS CAZ7
 BAR2 SZ EP       18 1 26.09                             164    0.0610 33.1 159 
 BAR2 SZ ES   1   18 1 38.92                             164   -0.77 7 33.1 159 
 BAR2 SZ I        18 1 40.47      1082.4 0.22                          33.1 159 
 BRR  HZ EP       18 1 26.45                             155   -0.0810 53.4 299 
 BRR  HN ES       18 1 40.69                             155    0.1110 53.4 299 
 BRR  HZ I        18 1 41.28       179.7 0.13                          53.4 299 
 PAM  SZ EP   1   18 1 29.11                             145    0.05 7 83.3  52 
 PAM  SN ES       18 1 45.90                             145    0.8210 83.3  52 
 PAM  SZ I        18 1 47.91       139.7 0.32                          83.3  52 
 RUS  HZ EP   1   18 1 30.73                             136   -0.46 7  111 168 
 RUS  HN ES       18 1 48.65                             136   -0.2210  111 168 
 RUS  HZ I        18 1 50.02        47.1 0.40                           111 168 
 PTB  HZ IP     D 18 1 31.38                             130   -1.2510  134 254 
 PTB  HN ES       18 1 51.48                             130    0.0410  134 254 
 PTB  HZ I        18 1 53.21       113.3 0.13                           134 254 
 OCA  HZ EP   1   18 1 34.17                             126   -0.30 7  151 359 
 OCA  HN ES   1   18 1 54.17                             126   -0.53 7  151 359 
 OCA  HZ I        18 1 58.23       428.3 0.26                           151 359 
 TAM  HZ EP   1   18 1 36.91                             122    0.45 7  173 106 
 TAM  HN ES       18 1 57.66                             122   -0.60 9  173 106 
 TAM  HZ I        18 1 58.00        88.6 0.18                           173 106 
 ZAR  HZ EP   1   18 1 37.81                             120   -0.04 7  186 292 
 ZAR  HN ES       18 2  1.35                             120    0.62 9  186 292 
 ZAR  HZ I        18 2  6.08        96.7 0.18                           186 292 
 YOP  SZ EP   1   18 1 39.30                             119    0.56 7  193 150 
 YOP  SN ES   1   18 2  3.26                             119    0.95 7  193 150 
 YOP  SZ I        18 2  4.88       116.3 0.61                           193 150 
 NOR  SZ EP   1   18 1 42.17                             115   -0.13 6  227 230 
 NOR  SN ES       18 2  8.76                             115    0.11 8  227 230 
 NOR  SZ I        18 2 12.94        35.0 0.22                           227 230 
 CHI  HZ EP   1   18 1 45.87                             112    0.22 6  253 191 
 CHI  HZ I        18 1 46.75        33.5 0.28                           253 191 
 CHI  HN ES   2   18 2 15.19                             112    0.58 4  253 191 
 HEL  HZ EP   1   18 1 46.64                             112    0.36 6  259 253 
 HEL  HN ES   2   18 2 16.57                             112    0.83 4  259 253 
 HEL  HZ I        18 2 20.54        51.1 0.23                           259 253 
 GUY  SZ EP   1   18 1 50.97                             109    0.36 5  295 232 
 VIL  SZ EP   1   18 1 51.78                             108    0.09 5  308 188 
 VIL  SN ES   2   18 2 26.14                             108    0.78 4  308 188 
 VIL  SZ I        18 2 32.47        50.0 0.30                           308 188 
 DBB  SZ EP   1   18 1 53.24                             107   -0.10 5  323 273 
                                                                                
