 2013  521 1741  5.7 L   6.751 -73.156143.5  RSN  8 0.4 1.8LRSN                1
 GAP=137        1.02       4.8     4.8  6.7 -0.1717E+01  0.6997E+01  0.3854E+01E
 Epicentro: LOS SANTOS - SANTANDER                                             3
 ACTION:UPD 13-06-20 09:52 OP:ep   STATUS:               ID:20130521174105 L   I
 2013-05-21-1740-00M.COL___259                                                 6
 STAT SP IPHASW D HRMM SECON CODA AMPLIT PERI AZIMU VELO AIN AR TRES W  DIS CAZ7
 BAR2 SZ EP       1741 25.06                             173    0.1210 17.8 189 
 BAR2 SZ ES       1741 39.26                             173   -0.6910 17.8 189 
 BAR2 SZ I        1741 41.07        21.8 0.28            173           17.8 189 
 GIR2 SZ EP       1741 25.31                             165    0.0810 36.4 353 
 GIR2 SZ ES       1741 40.41                             165   -0.0710 36.4 353 
 BRR  HZ EP       1741 26.95                             151    0.2710 73.0 303 
 BRR  HN ES       1741 43.91                             151    0.8410 73.0 303 
 BRR  HZ I        1741 46.81        11.4 0.14            149           73.0 303 
 PAM  SZ EP       1741 27.93                             149   -0.0210 82.3  38 
 PAM  SN ES       1741 45.00                             149   -0.3310 82.3  38 
 PAM  SZ I        1741 47.06        12.4 0.46            151           82.3  38 
 RUS  HZ EP       1741 28.98                             145    0.1510 95.3 175 
 RUS  HN ES       1741 47.31                             145    0.4310 95.3 175 
 RUS  HZ I        1741 48.64         6.0 0.28            148           95.3 175 
 PTB  HZ EP       1741 31.78                             132   -0.50 9  146 261 
 PTB  HN ES   1   1741 52.49                             132   -0.53 7  146 261 
 PTB  HZ I        1741 55.14         7.9 0.10            132            146 261 
 ZAR  HN ES   1   1742  3.33                             122   -0.03 6  205 294 
 ZAR  HZ I        1742  9.57         8.3 0.24            122            205 294 
 NOR  HE ES   1   1742  8.10                             118   -0.18 6  231 235 
                                                                                
