 2010  721 1840 45.3 L   6.786 -73.073149.8  RSN  8 0.2 2.1LRSN                1
 GAP=167        0.42       2.4     5.2  3.8  0.9675E+00 -0.2926E+01  0.1717E-01E
 Epicentro: LOS SANTOS - SANTANDER                                             3
 ACTION:UPD 10-12-01 15:19 OP:pat  STATUS:               ID:20100721184045 L   I
 2010-07-21-1837-20S.COL___123                                                 6
 STAT SP IPHASW D HRMM SECON CODA AMPLIT PERI AZIMU VELO AIN AR TRES W  DIS CAZ7
 BAR2 SZ EP   1   1841  5.19                             170    -0.3 7   25 210 
 BAR2 SZ ES   1   1841 21.02                             170    -0.1 7   25 210 
 BAR2 SZ I        1841 22.32        21.3 0.16                            25 210 
 GIR2 SZ EP   2   1841  5.50                             166    -0.1 5   35 338 
 BRR  HZ IP     D 1841  7.24                             151    -0.110   79 297 
 BRR  HZ I        1841  7.45        56.5 0.15                            79 297 
 BRR  HE ES   1   1841 24.73                             151     0.2 7   79 297 
 RUS  HZ IP     C 1841  9.54                             145     0.210   99 181 
 RUS  HN ES   1   1841 28.15                             145     0.1 7   99 181 
 RUS  HZ I        1841 29.11        11.6 0.21                            99 181 
 GUE  SZ EP   1   1841 10.52                             140     0.1 7  117   8 
 GRA  SZ EP   2   1841 10.73                             138    -0.1 5  125  14 
 CHI  HZ EP   2   1841 23.43                             118     0.1 4  249 197 
 CHI  HZ I        1841 25.91         6.3 0.43                           249 197 
 CHI  HE ES   2   1841 52.49                             118    -0.5 4  249 197 
 PRA  HZ EP   1   1841 39.34                             107     0.1 4  395 211 
 PRA  HZ I        1841 41.10         6.3 0.20                           395 211 
 PRA  HE ES   2   1842 21.41                             107     0.0 3  395 211 
                                                                                
