 2013  521 1404 12.3 L   6.507 -73.600107.8  RSN  6 0.2 1.6LRSN                1
 GAP= 94        0.49       2.5     2.0  4.3  0.4612E+00  0.1812E+01  0.6492E+00E
 Epicentro: SANTA HELENA DEL OPON - SANTANDER                                  3
 ACTION:UPD 13-06-20 09:52 OP:ep   STATUS:               ID:20130521140412 L   I
 2013-05-21-1400-00M.COL___259                                                 6
 STAT SP IPHASW D HRMM SECON CODA AMPLIT PERI AZIMU VELO AIN AR TRES W  DIS CAZ7
 BAR2 SZ EP       14 4 28.46                             155    0.1010 47.1  78 
 BAR2 SZ ES       14 4 40.84                             155   -0.0310 47.1  78 
 BAR2 SZ I        14 4 42.30        49.9 0.28            157           47.1  78 
 BRR  HZ EP       14 4 29.36                             145    0.1010 67.5 349 
 BRR  HN ES   1   14 4 42.81                             145    0.34 7 67.5 349 
 BRR  HZ I        14 4 47.29         6.0 0.46            147           67.5 349 
 GIR2 SZ EP       14 4 30.05                             141   -0.1410 77.6  35 
 RUS  HZ EP       14 4 31.64                             138    0.0810 88.8 140 
 RUS  HE ES       14 4 46.49                             138   -0.0810 88.8 140 
 RUS  HZ I        14 4 48.42         4.3 0.38            143           88.8 140 
 PTB  HZ EP       14 4 31.26                             135   -0.1510 94.8 272 
 PTB  HN ES       14 4 46.06                             135   -0.2410 94.8 272 
 PTB  HZ I        14 4 47.36         9.9 0.26            139           94.8 272 
 NOR  HN ES   1   14 5  1.00                             117    0.39 7  175 233 
                                                                                
