 2012 1221 1027 28.5 L   6.800 -73.172143.9  RSN  9 0.5 1.9LRSN                1
 GAP=133        0.96       4.8     4.9  8.4 -0.1919E+01  0.8514E+01 -0.3578E+01E
 Epicentro: LOS SANTOS - SANTANDER                                             3
 ACTION:UPD 13-01-04 14:29 OP:ep   STATUS:               ID:20121221102728 L   I
 2012-12-21-1020-00M.COL___243                                                 6
 STAT SP IPHASW D HRMM SECON CODA AMPLIT PERI AZIMU VELO AIN AR TRES W  DIS CAZ7
 BAR2 SZ EP       1027 48.03                             170    0.1810 23.0 183 
 BAR2 SZ ES   1   1028  2.61                             170   -0.38 7 23.0 183 
 BAR2 SZ I        1028  4.48        38.7 0.16                          23.0 183 
 GIR2 SZ EP   1   1027 48.03                             167    0.14 7 30.9 356 
 GIR2 SZ I        1028  5.02         9.0 0.42                          30.9 356 
 BRR  HZ EP   1   1027 50.02                             153    0.76 7 68.7 300 
 BRR  HN ES   1   1028  6.47                             153    0.98 7 68.7 300 
 BRR  HZ I        1028 10.08        12.4 0.14                          68.7 300 
 PAM  SZ EP   1   1027 51.00                             150    0.42 7 79.2  41 
 PAM  SN ES   1   1028  7.69                             150   -0.16 7 79.2  41 
 PAM  SZ I        1028  9.98        11.8 0.48                          79.2  41 
 RUS  HZ EP   1   1027 52.03                             143   -0.01 7  101 174 
 RUS  HN ES   1   1028 10.17                             143   -0.27 7  101 174 
 RUS  HZ I        1028 12.50         8.5 0.29                           101 174 
 PTB  HZ EP   1   1027 54.79                             132   -0.22 7  145 259 
 PTB  HN ES   1   1028 15.11                             132   -0.62 7  145 259 
 PTB  HZ I        1028 18.95         9.0 0.30                           145 259 
 OCA  HZ EP   1   1027 56.20                             129   -0.39 7  160 354 
 OCA  HN ES   1   1028 17.64                             129   -0.89 7  160 354 
 OCA  HZ I        1028 21.13        14.3 0.20                           160 354 
 ZAR  HE ES   1   1028 25.71                             122    0.21 6  201 292 
 ZAR  HZ I        1028 32.18         9.1 0.32                           201 292 
 HEL  HN ES   1   1028 39.08                             115   -0.23 6  269 256 
 HEL  HZ I        1028 47.22         5.6 0.54                           269 256 
                                                                                
