 2013  121 1713 33.3 L   6.351 -73.633102.8  RSN  8 0.4 1.5LRSN                1
 GAP= 75        0.85       3.1     4.1  8.5 -0.2781E+00  0.1534E+02  0.3845E+01E
 Epicentro: SANTA HELENA DEL OPON - SANTANDER                                  3
 ACTION:UPD 13-02-15 09:15 OP:ep   STATUS:               ID:20130121171333 L   I
 2013-01-21-1710-00M.COL___241                                                 6
 STAT SP IPHASW D HRMM SECON CODA AMPLIT PERI AZIMU VELO AIN AR TRES W  DIS CAZ7
 BAR2 SZ EP   1   1713 49.57                             149    0.27 7 56.5  62 
 BAR2 SZ ES   1   1714  2.41                             149    0.59 7 56.5  62 
 RUS  HZ EP   1   1713 51.38                             140    0.10 7 79.2 130 
 RUS  HN ES   1   1714  4.72                             140   -0.61 7 79.2 130 
 RUS  HZ I        1714  9.17         7.0 0.36            139           79.2 130 
 BRR  HZ EP   1   1713 50.37                             137   -0.62 7 84.0 354 
 BRR  HN ES   1   1714  4.70                             137   -0.11 7 84.0 354 
 PTB  HZ EP   4   1713 50.59                             134   -1.22 0 93.5 283 
 PTB  HN ES   4   1714  6.45                             134    0.17 0 93.5 283 
 PTB  HZ I        1714  7.35        16.8 0.18            138           93.5 283 
 PAM  SZ EP   1   1713 58.88                             120    0.87 7  150  43 
 PAM  SN ES   1   1714 16.86                             120   -0.45 7  150  43 
 PAM  SZ I        1714 23.36         2.4 0.28            121            150  43 
 NOR  HZ EP   1   1713 58.58                             117   -0.15 7  162 238 
 NOR  HN ES   1   1714 18.77                             117    0.17 7  162 238 
 NOR  HZ I        1714 20.80        11.9 0.26            120            162 238 
 ZAR  HZ EP   1   1714  0.76                             114   -0.43 7  185 313 
 ZAR  HE ES   1   1714 23.31                             114    0.33 7  185 313 
 CHI  HZ EP   1   1714  2.22                             113   -0.11 7  191 183 
 CHI  HN ES   1   1714 25.25                             113    0.24 7  191 183 
 CHI  HZ I        1714 28.85         2.8 0.42            114            191 183 
                                                                                
