 2010  321 1033  4.7 L   6.803 -73.073146.7  RSN 12 0.4 3.5LRSN                1
 GAP=131        0.94       3.6     5.8  6.0 -0.3728E+01  0.5182E+01  0.1744E+01E
 Epicentro: LOS SANTOS - SANTANDER                                             3
 ACTION:UP  10-08-24 09:55 OP:vdl  STATUS:               ID:20100321103304 L   I
 2010-03-21-1030-07S.COL___098                                                 6
 STAT SP IPHASW D HRMM SECON CODA AMPLIT PERI AZIMU VELO SNR AR TRES W  DIS CAZ7
 BAR2 SZ IP       1033 24.55                             169     0.110   26 208 
 BAR2 SZ ES   1   1033 39.39                             169    -0.6 7   26 208 
 BRR  HZ IP       1033 26.51                             150     0.210   78 296 
 BRR  HN ES   1   1033 43.42                             150     0.2 7   78 296 
 BRR  HZ I        1033 47.89       144.1 0.19                            78 296 
 RUS  HZ IP       1033 28.47                             144    -0.110  101 181 
 RUS  HN ES   1   1033 47.24                             144     0.1 7  101 181 
 RUS  HZ I        1033 48.83       209.7 0.33                           101 181 
 OCA  SZ EP       1033 32.93                             130    -0.2 9  161 350 
 OCA  SZ ES   1   1033 55.74                             130     0.4 7  161 350 
 OCA  SZ I        1034  4.45       470.1 0.42                           161 350 
 CHI  HZ EP   1   1033 42.49                             117    -0.2 6  251 197 
 CHI  HE ES   1   1034 12.43                             117     0.1 6  251 197 
 CHI  HZ I        1034 19.20       143.9 0.42                           251 197 
 ROSC BZ IP       1033 44.27                             116     0.9 8  257 213 
 ROSC BZ I        1034 20.63       204.4 0.43                           257 213 
 HEL  HZ EP   1   1033 45.71                             114    -0.1 6  280 256 
 HEL  HN ES   2   1034 18.76                             114     0.9 4  280 256 
 HEL  HZ I        1034 24.28       147.5 0.43                           280 256 
 RREF BZ IP       1033 51.98                             111     0.4 7  328 230 
 RREF BN ES   1   1034 27.26                             111    -0.9 5  328 230 
 RREF BZ I        1034 36.10       144.4 0.16                           328 230 
 DBB  SZ IP       1033 52.49                             109    -0.6 6  347 274 
 DBB  SZ ES   2   1034 30.24                             109    -0.7 3  347 274 
 SDV  BZ IP       1033 53.86                             109    -0.2 6  354  49 
 SDV  BZ I        1033 54.85        83.2 0.15                           354  49 
 ANIL BZ EP   1   1033 55.24                             108     0.0 5  363 225 
 ANIL BZ I        1034 39.83       286.8 0.35                           363 225 
 PRA  HZ EP   1   1033 57.77                             106    -1.0 4  396 211 
 PRA  HN ES   1   1034 40.96                             106     0.1 4  396 211 
 PRA  HZ I        1034 47.43       212.5 0.27                           396 211 
                                                                                
