 2017 1021 1930 38.4 L   6.787 -73.191141.7  RSN  4 0.2 1.2LRSN                1
 GAP=143        0.60       3.6     3.5  5.1 -0.3884E+01  0.4854E+01 -0.1876E+01E
 Epicentro: ZAPATOCA - SANTANDER                                               3
 ACTION:UPD 17-11-07 19:34 OP:rebc STATUS:               ID:20171021193038 L   I
 OLDACT:REG 17-10-21 21:12 OP:edw  STATUS:               ID:20171021192623     3
 2017-10-21-1928-00M.COL___417                                                 6
 STAT SP IPHASW D HRMM SECON CODA AMPLIT PERI AZIMU VELO AIN AR TRES W  DIS CAZ7
 BAR2 EZ EP       1930 57.45                             171   -0.1010 21.5 177 
 BAR2 EZ ES       1931 12.62                             171    0.1610 21.5 177 
 BAR2 EZ I        1931 14.05         4.8 0.12            178           21.5 177 
 PAM  EZ EP       1931  0.42                             149   -0.0910 81.8  42 
 PAM  EN ES       1931 17.71                             149   -0.0010 81.8  42 
 PAM  EZ I        1931 28.12         2.8 0.32            149           81.8  42 
 RUS  HZ EP       1931  1.55                             143   -0.1810 99.6 173 
 RUS  HN ES       1931 19.93                             143    0.0410 99.6 173 
 RUS  HZ I        1931 21.07         2.0 0.40            154           99.6 173 
 PTB  HZ EP       1931  5.09                             132    0.48 9  143 259 
 PTB  HN ES       1931 24.72                             132   -0.30 9  143 259 
 PTB  HZ I        1931 31.24         1.5 0.32            136            143 259 
                                                                                
