 2017  221 1019 24.6 L   6.331 -73.589119.0  RSN 17 0.6 2.3LRSN                1
 GAP= 50        1.25       3.1     2.9  6.9 -0.1091E+01  0.7005E+01  0.1365E+01E
 Epicentro: SANTA HELENA DEL OPON - SANTANDER                                  3
 ACTION:UPD 17-05-24 15:38 OP:jn   STATUS:               ID:20170221101924 L   I
 OLDACT:UP  17-02-21 21:55 OP:cog  STATUS:               ID:20170221101741     3
 OLDACT:UP  17-02-21 21:54 OP:cog  STATUS:               ID:20170221101741     3
 OLDACT:UP  17-02-21 21:54 OP:cog  STATUS:               ID:20170221101741     3
 OLDACT:REG 17-02-21 20:21 OP:cog  STATUS:               ID:20170221101741     3
 2017-02-21-1018-00M.COL___379                                                 6
 STAT SP IPHASW D HRMM SECON CODA AMPLIT PERI AZIMU VELO AIN AR TRES W  DIS CAZ7
 BAR2 HZ EP       1019 42.57                             154    0.3910 53.4  57 
 BAR2 HZ ES       1019 56.33                             154    0.4210 53.4  57 
 BAR2 HZ I        1019 58.56        49.0 0.28            160           53.4  57 
 RUS  HZ EP       1019 43.87                             146    0.0710 74.1 131 
 RUS  HN ES       1019 58.98                             146    0.1910 74.1 131 
 BRR  HZ EP       1019 44.18                             141    0.1610 86.9 351 
 BRR  HE ES       1019 59.05                             141   -0.1410 86.9 351 
 BRR  HZ I        1020  4.07        43.8 0.12            144           86.9 351 
 PTB  HZ EP       1019 44.34                             138   -0.6510 98.7 284 
 PTB  HN ES   3   1019 59.50                             138   -1.40 2 98.7 284 
 PTB  HZ I        1020  2.07        71.3 0.10            138           98.7 284 
 PAM  EZ EP       1019 50.70                             125    0.48 9  149  41 
 PAM  EN ES       1020 10.76                             125    0.54 9  149  41 
 PAM  EZ I        1020 13.33        14.7 0.20            130            149  41 
 NOR  HZ EP       1019 51.17                             122   -0.17 9  165 239 
 NOR  HN ES       1020 11.81                             122   -0.40 9  165 239 
 NOR  HZ I        1020 14.27        70.8 0.18            123            165 239 
 ROSC BZ EP   4   1019 55.95                             119    2.23 0  184 206 
 ROSC BE ES       1020 16.44                             119   -0.01 9  184 206 
 ROSC BE ISg      1020 16.46                             119    0.01 9  184 206 
 ROSC BZ I        1020 26.64        34.3 0.35            121            184 206 
 CHI  HZ EP       1019 54.55                             118    0.25 9  189 185 
 CHI  HE ES       1020 17.31                             118   -0.17 9  189 185 
 CHI  HZ I        1020 24.82         9.1 0.48            120            189 185 
 TAM  HZ EP       1019 55.43                             116    0.48 9  199  87 
 TAM  HE ES       1020 17.04                             116   -1.59 9  199  87 
 TAM  HZ I        1020 17.63        27.6 0.26            120            199  87 
 HEL  HZ EP       1019 57.88                             115    0.75 8  215 266 
 HEL  HE ES       1020 22.72                             115    0.21 8  215 266 
 HEL  HZ I        1020 26.93        16.6 0.38            116            215 266 
 ELA  HZ EP   4   1020  4.28                             110    2.09 0  258 231 
 ELA  HE ES   3   1020 32.91                             110    1.38 2  258 231 
 ELA  HZ I        1020 39.20        11.8 0.32            112            258 231 
 URE  HZ EP       1020  1.65                             109   -0.79 8  266 306 
 URE  HE ES       1020 30.85                             109   -1.12 8  266 306 
 URE  HZ I        1020 44.30        27.3 0.24            111            266 306 
 CBOC HZ EP       1020  4.50                             109    1.04 8  273 259 
 CBOC HE ES       1020 33.15                             109   -0.63 8  273 259 
 CBOC HZ I        1020 38.22         7.2 0.16            110            273 259 
 ANIL HZ EP   3   1020  4.11                             108   -0.99 2  286 225 
 ANIL HE ES   4   1020 38.87                             108    2.17 0  286 225 
 PTGC HZ EP       1020  4.19                             108   -0.50 7  286 146 
 PTGC HE ES   3   1020 35.22                             108   -0.76 2  286 146 
 DBB  EZ EP       1020  6.92                             107    0.51 7  300 285 
 DBB  EN ES       1020 39.35                             107    0.31 7  300 285 
 DBB  EZ I        1020 43.59        12.4 0.24            108            300 285 
 ORTC HZ EP   3   1020  8.62                             105   -0.70 2  325 215 
 ORTC HN ES   3   1020 46.33                             105    2.11 2  325 215 
 ORTC HZ I        1020 51.08        13.6 0.20            107            325 215 
                                                                                
