 2011 1221 1046 32.9 L   6.702 -73.178146.7  RSN  5 0.2 1.4LRSN                1
 GAP=176        0.39       5.4     5.9  8.0  0.1501E+02 -0.2044E+02 -0.9650E+01E
 Epicentro: VILLANUEVA - SANTANDER                                             3
 ACTION:UPD 12-07-13 16:17 OP:ep   STATUS:               ID:20111221104632 L   I
 2011-12-21-1040-00M.COL___189                                                 6
 STAT SP IPHASW D HRMM SECON CODA AMPLIT PERI AZIMU VELO AIN AR TRES W  DIS CAZ7
 BAR2 SZ EP       1046 52.58                             175    0.1210 12.1 182 
 BAR2 SZ I        1047  8.66         4.9 0.28                          12.1 182 
 GIR2 SZ EP   2   1046 52.56                             163   -0.44 5 41.7 358 
 BRR  HZ EP   1   1046 54.35                             152    0.04 7 74.1 307 
 BRR  HN ES   1   1047 11.04                             152    0.03 7 74.1 307 
 BRR  HZ I        1047 11.59         6.7 0.73                          74.1 307 
 RUS  HN ES   2   1047 13.95                             147   -0.09 5 90.1 173 
 RUS  HZ I        1047 17.05         3.1 0.38                          90.1 173 
 PTB  HE ES   2   1047 20.08                             133   -0.11 5  142 263 
                                                                                
