 2016 1121 1707 33.3 L   6.862 -73.172151.1  RSN 18 0.6 3.0LRSN                1
 GAP= 62        1.06       3.5     3.1  5.4 -0.3685E-01  0.4310E+01  0.5013E+01E
 Epicentro: ZAPATOCA - SANTANDER                                               3
 ACTION:UPD 17-10-26 21:10 OP:lp   STATUS:               ID:20161121170733 L   I
 OLDACT:UP  16-11-22 00:06 OP:dani STATUS:               ID:20161121165746     3
 OLDACT:UP  16-11-22 00:05 OP:dani STATUS:               ID:20161121165746     3
 OLDACT:UP  16-11-22 00:05 OP:dani STATUS:               ID:20161121165746     3
 OLDACT:REG 16-11-21 21:27 OP:dani STATUS:               ID:20161121165746     3
 2016-11-21-1658-00M.COL___340                                                 6
 STAT SP IPHASW D HRMM SECON CODA AMPLIT PERI AZIMU VELO AIN AR TRES W  DIS CAZ7
 BAR2 EZ EP       17 7 53.66                             168   -0.0710 29.9 182 
 BAR2 HN ES       17 8  8.97                             168   -0.6910 29.9 182 
 BAR2 EZ I        17 8 10.97       208.0 0.22            166           29.9 182 
 BRR  HZ EP       17 7 55.39                             155    0.6510 65.5 294 
 BRR  HN ES       17 8 12.44                             155    0.9810 65.5 294 
 BRR  HZ I        17 8 13.16       128.1 0.24            153           65.5 294 
 PAM  EZ EP     C 17 7 56.36                             153    0.4410 74.2  45 
 PAM  EE ES       17 8 13.49                             153   -0.0610 74.2  45 
 PAM  EZ I        17 8 15.52       245.8 0.50            157           74.2  45 
 PTB  HZ EP       17 8  0.09                             133   -0.52 9  146 256 
 PTB  HE ES       17 8 21.49                             133   -0.40 9  146 256 
 PTB  HZ I        17 8 23.93       182.2 0.48            132            146 256 
 TAM  HZ EP     C 17 8  2.01                             131    0.16 9  160 107 
 TAM  HN ES       17 8 23.88                             131   -0.22 9  160 107 
 ZAR  HZ EP       17 8  5.92                             124    0.33 9  199 291 
 ZAR  HN ES       17 8 30.94                             124    0.18 9  199 291 
 ZAR  HZ I        17 8 38.20        88.5 0.60            124            199 291 
 NOR  HZ EP       17 8  9.68                             119    0.13 8  236 233 
 NOR  HN ES       17 8 38.05                             119    0.24 8  236 233 
 NOR  HZ I        17 8 39.61        49.3 0.20            119            236 233 
 CHI  HZ EP       17 8 12.11                             118    0.16 8  255 194 
 CHI  HN ES       17 8 41.34                             118   -0.75 8  255 194 
 CHI  HZ I        17 8 45.21        35.7 0.59            118            255 194 
 ROSC BZ EP   3   17 8 13.60                             117    1.38 2  257 210 
 ROSC BN ES       17 8 43.02                             117    0.46 8  257 210 
 ROSC BZ I        17 8 48.60        64.9 0.40            117            257 210 
 URE  HZ EP       17 8 13.66                             115   -0.42 7  279 291 
 URE  HN ES       17 8 44.86                             115   -1.01 7  279 291 
 URE  HZ I        17 8 59.35        44.8 0.34            115            279 291 
 PTGC HZ EP   3   17 8 17.00                             112   -1.26 2  316 159 
 PTGC HE ES   4   17 8 50.37                             112   -2.94 0  316 159 
 PTGC HZ I        17 8 53.02        43.0 0.48            113            316 159 
 LL6C HZ EP   9   17 7 58.74                             112   -19.7 0  318 358 
 LL6C HN ES   2   17 8 32.92                                   -1.03 3  318 358 
 LL6C HZ I        17 8 39.21        15.4 0.58            113            318 358 
 PRA  HZ EP       17 8 27.01                             107   -0.55 6  397 209 
 PRA  HE ES       17 9  9.67                             107   -0.20 6  397 209 
 PRA  HZ I        17 9 16.15        50.3 0.30            107            397 209 
 ORTC HZ EP       17 8 28.11                             107    0.23 6  399 215 
 ORTC HE ES   3   17 9 11.83                             107    1.39 1  399 215 
 ORTC HZ I        17 9 20.11        21.2 0.38            107            399 215 
 SJC  HZ EP       17 8 27.40                             107   -0.80 6  402 327 
 SJC  HN ES   3   17 9  8.95                             107   -2.06 1  402 327 
 SJC  HZ I        17 9 12.57        24.9 0.31            107            402 327 
 PAL  HZ EP       17 8 29.59                             107    0.80 6  407 238 
 PAL  HN ES       17 9 12.24                             107    0.18 6  407 238 
 PAL  HZ I        17 9 17.98        24.0 0.42            107            407 238 
 CRJC HZ EP   3   17 8 33.94                             104   -1.24 1  461   4 
 CRJC HE ES   4   17 9 20.08                             104   -3.35 0  461   4 
 CRJC HZ I        17 9 37.00        16.7 0.24            105            461   4 
 YOT  HZ EP   4   17 8 39.10                             104    2.30 0  474 228 
 URI  HZ EP   9   17 8 44.10                             101   -1.62 0  551  14 
 URI  HN ES       17 9 40.51                             102   -0.06 4  551  14 
                                                                                
