 2011  621 1025 17.1 L   6.747 -73.082147.1  RSN  8 0.3 2.0LRSN                1
 GAP=164        0.67       3.7     7.6  5.4 -0.3344E+01 -0.1233E+02 -0.2344E+01E
 Epicentro: LOS SANTOS - SANTANDER                                             3
 ACTION:UP  11-07-14 19:06 OP:ep   STATUS:               ID:20110621102517 L   I
 2011-06-21-1020-00M.COL___126                                                 6
 STAT SP IPHASW D HRMM SECON CODA AMPLIT PERI AZIMU VELO SNR AR TRES W  DIS CAZ7
 BAR2 SZ EP       1025 36.89                             172     0.110   20 213 
 BAR2 SZ ES   1   1025 51.46                             172    -0.8 7   20 213 
 BAR2 SZ I        1025 53.13        15.1 0.37                            20 213 
 BTL  SZ EP       1025 37.21                             169     0.210   28 313 
 GIR2 SZ EP       1025 37.10                             165     0.010   39 341 
 GIR2 SZ ES   1   1025 53.05                             165     0.3 7   39 341 
 BRR  HZ EP       1025 38.73                             150    -0.210   80 300 
 BRR  HZ I        1025 39.02        32.9 0.18                            80 300 
 BRR  HN ES   1   1025 56.17                             150     0.2 7   80 300 
 RUS  HZ EP       1025 40.64                             146     0.110   94 180 
 RUS  HN ES   2   1025 59.13                             146     0.3 5   94 180 
 BRI  SZ EP       1025 41.38                             141     0.010  112  16 
 GRA  SZ EP       1025 42.66                             136    -0.110  130  14 
 GRA  SZ ES   1   1026  2.96                             136     0.2 7  130  14 
 GRA  SZ I        1026  4.60         7.9 0.32                           130  14 
 OCA  SZ EP       1025 45.94                             129    -0.2 9  167 351 
 OCA  SZ I        1025 52.92        10.1 0.08                           167 351 
                                                                                
