 2015  121 1124 43.4 L   6.898 -73.297129.6  RSN  4 0.4 1.5LRSN                1
 GAP=181        0.89       6.4     7.6  8.9  0.3894E+01  0.9823E+01 -0.1774E+02E
 Epicentro: BETULIA - SANTANDER                                                3
 ACTION:UPD 15-03-02 15:41 OP:nd   STATUS:               ID:20150121112443 L   I
 OLDACT:REG 15-01-21 20:19 OP:spq  STATUS:               ID:20150121111745     3
 2015-01-21-1117-45M.COL___268                                                 6
 STAT SP IPHASW D HRMM SECON CODA AMPLIT PERI AZIMU VELO AIN AR TRES W  DIS CAZ7
 BAR2 EZ EP       1125  1.78                             164    0.3210 36.1 159 
 BAR2 EZ ES   1   1125 15.11                             164   -0.44 7 36.1 159 
 BAR2 EZ I        1125 16.26         7.7 0.22            172           36.1 159 
 BRR  HZ EP       1125  2.10                             157    0.3710 51.3 297 
 BRR  HE ES   1   1125 16.01                             157   -0.02 7 51.3 297 
 BRR  HZ I        1125 17.78         5.1 0.34            153           51.3 297 
 PTB  HZ EP       1125  7.15                             131   -0.6710  134 253 
 PTB  HN ES   1   1125 27.29                             131    0.42 7  134 253 
 PTB  HZ I        1125 29.21         4.1 0.20            132            134 253 
 SML  HZ EP   1   1125 17.53                             116    0.19 6  227 338 
 SML  HN ES   1   1125 43.53                             116   -0.27 6  227 338 
 SML  HZ I        1125 50.80         4.2 0.10            115            227 338 
                                                                                
