 2013  121 1918 11.0 L   6.819 -73.132143.1  RSN  5 0.4 1.4LRSN                1
 GAP=142        0.71       6.0     5.4 11.0 -0.5768E+01  0.1337E+02  0.3306E+02E
 Epicentro: LOS SANTOS - SANTANDER                                             3
 ACTION:UPD 13-02-15 09:15 OP:ep   STATUS:               ID:20130121191811 L   I
 2013-01-21-1915-45M.COL___196                                                 6
 STAT SP IPHASW D HRMM SECON CODA AMPLIT PERI AZIMU VELO AIN AR TRES W  DIS CAZ7
 PAM  SE ES   1   1918 49.98                             151    0.27 7 74.8  40 
 RUS  HZ EP   1   1918 34.30                             143   -0.29 7  103 177 
 RUS  HN ES   1   1918 52.94                             143   -0.08 7  103 177 
 RUS  HZ I        1918 54.37         3.2 0.32            142            103 177 
 PTB  HN ES   1   1918 58.35                             131   -0.52 7  150 258 
 PTB  HZ I        1919  1.59         3.6 0.17            129            150 258 
 NOR  HN ES   1   1919 15.55                             118    0.81 6  237 234 
 NOR  HZ I        1919 19.91         3.2 0.21            117            237 234 
 CHI  HZ EP   1   1918 48.77                             116    0.00 6  251 195 
 CHI  HN ES   1   1919 18.30                             116    0.04 6  251 195 
 CHI  HZ I        1919 21.91         1.5 0.58            116            251 195 
                                                                                
