 2011  121 1431 56.6 L   6.828 -73.152139.2  RSN  7 0.4 1.9LRSN                1
 GAP=158        0.90       5.4    10.0  9.4 -0.3242E+02  0.4247E+02 -0.1368E+02E
 Epicentro: LOS SANTOS - SANTANDER                                             3
 ACTION:UP  11-02-08 08:41 OP:pat  STATUS:               ID:20110121143156 L   I
 2011-01-21-1429-46S.COL___138                                                 6
 STAT SP IPHASW D HRMM SECON CODA AMPLIT PERI AZIMU VELO SNR AR TRES W  DIS CAZ7
 BTL  SZ EP       1432 15.90                             173     0.610   16 308 
 BAR2 SZ IP       1432 15.82                             169     0.310   26 188 
 BAR2 SZ ES   1   1432 30.18                             169     0.0 7   26 188 
 BAR2 SZ I        1432 32.35        23.6 0.22                            26 188 
 RUS  HZ EP   1   1432 19.80                             141    -0.1 7  104 176 
 RUS  HN ES   1   1432 37.87                             141    -0.3 7  104 176 
 RUS  HZ I        1432 40.28         5.8 0.14                           104 176 
 GRA  SZ EP       1432 20.65                             136    -0.310  123  18 
 GRA  SZ ES   1   1432 39.65                             136    -0.4 7  123  18 
 GRA  SZ I        1432 42.97        11.0 0.31                           123  18 
 NOR  SZ EP   1   1432 31.99                             117    -0.1 6  236 234 
 NOR  SN ES   1   1432 59.19                             117    -0.6 6  236 234 
 CHI  HZ EP   2   1432 33.84                             115    -0.4 4  251 195 
 CHI  HN ES   2   1433  3.52                             115    -0.1 4  251 195 
 CHI  HZ I        1433  7.57         5.1 0.32                           251 195 
 HEL  HZ EP   2   1432 37.01                             113     0.6 4  272 255 
 HEL  HZ I        1433 14.21         8.1 0.33                           272 255 
                                                                                
