 2013  121 1941 28.9 L   6.879 -73.334123.2  RSN  5 0.5 1.4LRSN                1
 GAP=161        0.86       6.0     5.9  9.5 -0.4105E+01  0.1872E+02  0.1744E+02E
 Epicentro: BETULIA - SANTANDER                                                3
 ACTION:UPD 13-02-15 09:15 OP:ep   STATUS:               ID:20130121194128 L   I
 2013-01-21-1940-00M.COL___241                                                 6
 STAT SP IPHASW D HRMM SECON CODA AMPLIT PERI AZIMU VELO AIN AR TRES W  DIS CAZ7
 BAR2 SZ EP   1   1941 46.52                             163    0.30 7 35.8 152 
 BAR2 SZ ES   1   1941 59.77                             163    0.05 7 35.8 152 
 PAM  SN ES   1   1942  5.66                             143    0.21 7 86.6  54 
 RUS  HZ EP   1   1941 51.05                             135   -0.48 7  113 166 
 RUS  HN ES   1   1942  8.67                             135   -0.49 7  113 166 
 RUS  HZ I        1942 10.14         3.3 0.16            133            113 166 
 PTB  HZ EP   1   1941 51.70                             130   -0.72 7  130 253 
 PTB  HN ES   1   1942 11.02                             130    0.28 7  130 253 
 PTB  HZ I        1942 13.54         4.8 0.48            128            130 253 
 CHI  HZ EP   1   1942  6.62                             112    0.70 6  253 190 
 CHI  HN ES   1   1942 35.36                             112    0.57 6  253 190 
 CHI  HZ I        1942 41.40         1.6 0.32            111            253 190 
                                                                                
