 2013  121 1937 32.1 L   6.793 -73.149145.5  RSN 10 0.4 2.5LRSN                1
 GAP=136        0.76       3.2     4.1  5.8  0.7024E-01  0.5954E+01  0.4731E+01E
 Epicentro: LOS SANTOS - SANTANDER                                             3
 ACTION:UPD 13-02-15 09:15 OP:ep   STATUS:               ID:20130121193732 L   I
 2013-01-21-1930-00M.COL___241                                                 6
 STAT SP IPHASW D HRMM SECON CODA AMPLIT PERI AZIMU VELO AIN AR TRES W  DIS CAZ7
 BAR2 SZ EP   1   1937 51.75                             171    0.03 7 22.5 189 
 BAR2 SZ ES   1   1938  7.09                             171    0.10 7 22.5 189 
 BAR2 SZ I        1938  8.25       119.6 0.22            165           22.5 189 
 BRR  HZ EP   1   1937 53.54                             152    0.28 7 71.3 299 
 BRR  HN ES   1   1938 10.62                             152    0.88 7 71.3 299 
 BRR  HZ I        1938 13.22        31.6 0.40            144           71.3 299 
 PAM  SZ EP   1   1937 54.56                             150    0.19 7 78.2  39 
 PAM  SN ES   1   1938 11.62                             150   -0.10 7 78.2  39 
 PAM  SZ I        1938 14.13        45.0 0.60            141           78.2  39 
 RUS  HZ EP     D 1937 55.79                             144   -0.0110 99.8 176 
 RUS  HN ES   1   1938 13.91                             144   -0.35 7 99.8 176 
 RUS  HZ I        1938 15.72        34.1 0.32            132           99.8 176 
 PTB  HZ EP   1   1937 58.39                             132   -0.65 7  147 259 
 PTB  HN ES   1   1938 19.39                             132   -0.63 7  147 259 
 PTB  HZ I        1938 21.64        41.7 0.40            121            147 259 
 OCA  HE ES   1   1938 22.03                             129   -0.59 7  161 353 
 OCA  HZ I        1938 27.49        35.8 0.24            119            161 353 
 ZAR  HZ EP   1   1938  4.57                             122    0.01 6  204 292 
 ZAR  HE ES   1   1938 29.85                             122    0.00 6  204 292 
 ZAR  HZ I        1938 36.50        25.7 0.30            112            204 292 
 NOR  HZ EP   1   1938  7.90                             118    0.13 6  234 235 
 NOR  HE ES   1   1938 35.85                             118    0.29 6  234 235 
 NOR  HZ I        1938 41.24        37.6 0.17            108            234 235 
 CHI  HZ EP   1   1938 10.03                             117    0.31 6  248 195 
 CHI  HN ES   1   1938 38.70                             117   -0.34 6  248 195 
 CHI  HZ I        1938 46.36        16.8 0.30            107            248 195 
 ROSC BZ EP   1   1938 10.70                             117    0.56 6  252 211 
 ROSC BZ I        1938 48.61        27.5 0.30            106            252 211 
                                                                                
