 2017  221 1038 37.3 L   6.759 -73.169147.1  RSN  4 0.2 1.1LRSN                1
 GAP=139        0.59       3.9     3.7  5.4 -0.2239E+01  0.7235E+01  0.1388E+01E
 Epicentro: LOS SANTOS - SANTANDER                                             3
 ACTION:UPD 17-05-24 15:38 OP:jn   STATUS:               ID:20170221103837 L   I
 OLDACT:UP  17-02-21 22:05 OP:cog  STATUS:               ID:20170221103746     3
 OLDACT:REG 17-02-21 20:26 OP:cog  STATUS:               ID:20170221103746     3
 2017-02-21-1038-00M.COL___373                                                 6
 STAT SP IPHASW D HRMM SECON CODA AMPLIT PERI AZIMU VELO AIN AR TRES W  DIS CAZ7
 BAR2 EZ EP       1038 57.44                             172    0.4110 18.5 185 
 BAR2 EZ ES       1039 12.40                             172   -0.0010 18.5 185 
 BAR2 EZ I        1039 14.11         3.4 0.18            170           18.5 185 
 PAM  EZ ES       1039 17.57                             149   -0.1110 82.6  39 
 RUS  HZ EP       1039  0.91                             145    0.0010 96.3 174 
 RUS  HN ES       1039 19.18                             145   -0.1210 96.3 174 
 RUS  HZ I        1039 21.12         2.1 0.24            147           96.3 174 
 PTB  HZ EP       1039  3.78                             133   -0.32 9  144 260 
 PTB  HN ES       1039 25.10                             133    0.12 9  144 260 
 PTB  HZ I        1039 31.85         1.4 0.44            132            144 260 
                                                                                
