 2012 1021 1614 49.8 L   6.798 -73.292147.2  RSN  4 0.2 1.5LRSN                1
 GAP=206        0.48       7.1     7.9  6.9  0.4704E+02 -0.9752E+01 -0.4464E+01E
 Epicentro: ZAPATOCA - SANTANDER                                               3
 ACTION:UPD 12-11-22 17:05 OP:ep   STATUS:               ID:20121021161449 L   I
 2012-10-21-1610-00M.COL___231                                                 6
 STAT SP IPHASW D HRMM SECON CODA AMPLIT PERI AZIMU VELO AIN AR TRES W  DIS CAZ7
 BAR2 SZ EP       1615  9.42                             169   -0.2710 25.8 152 
 BRR  HZ EP   1   1615 10.76                             157    0.32 7 57.6 306 
 BRR  HZ I        1615 13.32         9.6 0.33                          57.6 306 
 BRR  HE ES   1   1615 26.53                             157    0.03 7 57.6 306 
 RUS  HZ EP       1615 13.95                             143    0.0610  103 167 
 RUS  HE ES   1   1615 32.74                             143    0.10 7  103 167 
 RUS  HE I        1615 35.11         3.4 0.26                           103 167 
 ZAR  HE ES   1   1615 44.96                             125   -0.11 7  189 294 
 ZAR  HZ I        1615 51.87         3.1 0.41                           189 294 
                                                                                
