 2013  821 1449 35.8 L   6.357 -73.707 94.0  RSN  8 0.5 1.6LRSN                1
 GAP= 81        1.16       3.6     4.1  9.3  0.1939E+00  0.1373E+02 -0.1461E+01E
 Epicentro: SANTA HELENA DEL OPON - SANTANDER                                  3
 ACTION:UPD 14-01-14 09:05 OP:ep   STATUS:               ID:20130821144935 L   I
 OLDACT:UP  13-08-21 18:08 OP:stll STATUS:               ID:20130821144851     3
 OLDACT:REG 13-08-21 16:10 OP:stll STATUS:               ID:20130821144851     3
 2013-08-21-1448-51M.COL___200                                                 6
 STAT SP IPHASW D HRMM SECON CODA AMPLIT PERI AZIMU VELO AIN AR TRES W  DIS CAZ7
 BAR2 SZ EP   1   1449 51.74                             144    0.31 7 63.6  66 
 BAR2 SZ ES   1   1450  3.52                             144   -0.09 7 63.6  66 
 BAR2 SZ I        1450  6.05        37.8 0.32            145           63.6  66 
 BRR  HZ EP       1449 52.56                             136   -0.0910 83.0 360 
 BRR  HN ES       1450  6.48                             136    0.6910 83.0 360 
 PTB  HZ EP       1449 51.94                             135   -0.9410 85.3 284 
 PTB  HN ES   1   1450  5.32                             135   -0.88 7 85.3 284 
 PTB  HZ I        1450  6.53         8.0 0.10            136           85.3 284 
 RUS  HZ EP       1449 53.30                             136   -0.2910 86.0 127 
 RUS  HZ I        1449 54.02         6.0 0.12            136           86.0 127 
 RUS  HN ES       1450  7.46                             136   -0.0110 86.0 127 
 SPBC HZ EP       1449 53.08                             134   -0.1210 87.8 207 
 SPBC HN ES       1450  6.92                             134    0.1510 87.8 207 
 PAM  SZ EP   3   1450  2.32                             118    1.71 2  156  46 
 NOR  HZ EP       1450  0.26                             117    0.20 9  156 236 
 NOR  HN ES       1450 19.80                             117    0.81 9  156 236 
 NOR  HZ I        1450 21.25         7.8 0.18            117            156 236 
 ZAR  HZ EP       1450  2.47                             114   -0.11 9  179 315 
 ZAR  HN ES       1450 23.64                             114    0.17 9  179 315 
                                                                                
