 2017  121 1146 51.8 L   6.785 -73.152149.8  RSN  8 0.4 2.0LRSN                1
 GAP= 99        0.93       3.8     3.1  5.8  0.1120E+01  0.1054E+01  0.4836E+01E
 Epicentro: LOS SANTOS - SANTANDER                                             3
 ACTION:UPD 17-05-22 16:01 OP:jn   STATUS:               ID:20170121114651 L   I
 OLDACT:REG 17-01-21 20:58 OP:cog  STATUS:               ID:20170121113738     3
 2017-01-21-1138-00M.COL___343                                                 6
 STAT SP IPHASW D HRMM SECON CODA AMPLIT PERI AZIMU VELO AIN AR TRES W  DIS CAZ7
 BAR2 EZ EP       1147 11.76                             171   -0.1610 21.6 189 
 BAR2 EZ ES       1147 27.38                             171   -0.2010 21.6 189 
 BAR2 EZ I        1147 28.28        48.3 0.14            169           21.6 189 
 BRR  HZ EP       1147 13.85                             153    0.4110 71.4 300 
 BRR  HN ES       1147 31.06                             153    0.7810 71.4 300 
 PAM  EZ EP       1147 14.64                             151    0.0510 79.1  39 
 PAM  EN ES       1147 32.05                             151   -0.2810 79.1  39 
 PAM  EZ I        1147 34.01        16.3 0.48            154           79.1  39 
 RUS  HZ EP       1147 15.63                             145   -0.2510 99.0 176 
 RUS  HN ES       1147 34.79                             145    0.1710 99.0 176 
 RUS  HZ I        1147 35.40        11.1 0.22            143           99.0 176 
 PTB  HZ EP       1147 18.57                             133   -0.48 9  147 259 
 PTB  HN ES       1147 39.70                             133   -0.57 9  147 259 
 PTB  HZ I        1147 42.87        13.7 0.14            133            147 259 
 TAM  HZ EP       1147 20.02                             131    0.16 9  155 104 
 TAM  HN ES       1147 41.57                             131   -0.15 9  155 104 
 ZAR  HZ EP   4   1147 26.07                             123    1.52 0  204 293 
 ZAR  HE ES       1147 49.99                             123   -0.07 9  204 293 
 CHI  HZ EP       1147 30.09                             118    0.52 8  247 195 
 CHI  HN ES       1147 59.17                             118    0.17 8  247 195 
 CHI  HZ I        1148  7.36         5.3 0.46            118            247 195 
                                                                                
