 2013  521 1022 15.5 L   6.930 -73.182156.8  RSN  6 0.4 1.5LRSN                1
 GAP=200        0.87       6.9     6.5  7.6  0.1931E+02 -0.4779E+01 -0.1205E+02E
 Epicentro: BETULIA - SANTANDER                                                3
 ACTION:UPD 13-06-20 09:52 OP:ep   STATUS:               ID:20130521102215 L   I
 2013-05-21-1020-00M.COL___259                                                 6
 STAT SP IPHASW D HRMM SECON CODA AMPLIT PERI AZIMU VELO AIN AR TRES W  DIS CAZ7
 BAR2 SZ EP   1   1022 36.41                             166   -0.43 7 37.4 180 
 BAR2 SZ ES   1   1022 53.11                             166   -0.34 7 37.4 180 
 BRR  HZ EP       1022 37.58                             157    0.1610 61.8 288 
 BRR  HN ES       1022 54.93                             157    0.4510 61.8 288 
 BRR  HZ I        1022 56.57         7.6 0.14            154           61.8 288 
 RUS  HZ EP   1   1022 42.24                             142    0.80 7  115 175 
 RUS  HN ES   1   1023  1.31                             142   -0.34 7  115 175 
 RUS  HZ I        1023  3.09         2.1 0.36            143            115 175 
 PTB  HZ EP       1022 43.52                             135    0.12 9  147 253 
 PTB  HN ES       1023  4.84                             135   -0.28 9  147 253 
 PTB  HZ I        1023  7.56         3.7 0.18            133            147 253 
 ZAR  HN ES   1   1023 12.93                             126   -0.13 6  195 289 
 ZAR  HZ I        1023 19.18         4.8 0.28            125            195 289 
 SML  HZ EP   1   1022 50.64                             121   -0.62 6  229 335 
                                                                                
