 2012  121 1252 34.8 L   6.535 -73.565105.8  RSN  9 0.5 2.0LRSN                1
 GAP= 85        1.08       5.7     4.3  9.4 -0.4419E+01  0.1481E+02  0.6754E+01E
 Epicentro: EL CARMEN DE CHUCURI - SANTANDER                                   3
 ACTION:UP  12-02-03 08:19 OP:REBC STATUS:               ID:20120121125234 L   I
 2012-01-21-1250-00M.COL___186                                                 6
 STAT SP IPHASW D HRMM SECON CODA AMPLIT PERI AZIMU VELO SNR AR TRES W  DIS CAZ7
 BAR2 SZ IP       1252 50.97                             156     0.610   43  81 
 BAR2 SZ ES   1   1253  2.94                             156     0.4 7   43  81 
 BAR2 SZ I        1253  4.71       229.1 0.43                            43  81 
 BRR  HZ EP   1   1252 51.27                             146    -0.1 7   65 346 
 BRR  HZ I        1253  3.91        30.4 0.09                            65 346 
 BRR  HN ES   1   1253  4.94                             146     0.6 7   65 346 
 RUS  HZ EP   1   1252 53.92                             137     0.1 7   89 143 
 RUS  HN ES   1   1253  8.44                             137    -0.3 7   89 143 
 RUS  HZ I        1253  9.94        16.2 0.21                            89 143 
 PTB  HZ EP       1252 53.73                             134    -0.310   99 270 
 PTB  HN ES   1   1253  8.53                             134    -0.6 7   99 270 
 PAM  SZ EP   1   1252 57.29                             125    -0.4 7  131  47 
 PAM  SN ES   1   1253 14.98                             125    -0.6 7  131  47 
 PAM  SZ I        1253 17.14         6.5 0.44                           131  47 
 ZAR  HZ EP   2   1253  3.00                             116     0.9 4  178 307 
 NOR  SZ EP   1   1253  2.16                             115    -0.2 7  180 233 
 NOR  SN ES   2   1253 23.75                             115    -0.1 4  180 233 
 HEL  HZ EP   1   1253  8.17                             110     0.8 6  221 260 
 HEL  HE ES   1   1253 32.12                             110    -0.6 6  221 260 
 HEL  HZ I        1253 38.41         6.9 0.29                           221 260 
 RREF HN ES   2   1253 43.79                             106     0.8 4  268 228 
                                                                                
