 2014 1021 1117 23.2 L   6.551 -73.594129.6  RSN  6 0.5 1.6LRSN                1
 GAP=127        0.97       5.8     5.1  9.0  0.9307E+01  0.2591E+01 -0.2180E+02E
 Epicentro: EL CARMEN - SANTANDER                                              3
 ACTION:UPD 14-11-29 23:53 OP:nd   STATUS:               ID:20141021111723 L   I
 OLDACT:DUP 14-10-24 07:58 OP:fm   STATUS:               ID:20141021110751d    3
 2014-10-21-1107-50M.COL___271                                                 6
 STAT SP IPHASW D HRMM SECON CODA AMPLIT PERI AZIMU VELO AIN AR TRES W  DIS CAZ7
 BAR2 SZ EP       1117 42.06                             159    0.4310 45.7  84 
 BAR2 SZ ES   1   1117 56.11                             159    0.10 7 45.7  84 
 BAR2 SZ I        1117 56.77        14.0 0.18            164           45.7  84 
 BRR  HZ EP   1   1117 42.61                             152    0.47 7 62.9 348 
 BRR  HN ES   1   1117 57.07                             152    0.17 7 62.9 348 
 RUS  HN ES   1   1118  0.79                             142   -0.78 7 92.1 142 
 PTB  HZ EP   1   1117 45.03                             141    0.70 7 95.4 269 
 PTB  HN ES       1118  0.51                             141   -0.3110 95.4 269 
 PTB  HZ I        1118  2.64         6.6 0.42            140           95.4 269 
 ZAR  HZ EP   1   1117 50.93                             123   -0.59 7  174 307 
 ZAR  HN ES       1118 13.81                             123    0.20 9  174 307 
 ZAR  HZ I        1118 19.38         3.3 0.16            123            174 307 
 SML  HZ EP   1   1117 59.94                             113   -0.23 6  254 348 
 SML  HE ES       1118 28.49                             113   -0.52 8  254 348 
 SML  HZ I        1118 28.98         4.0 0.10            114            254 348 
                                                                                
