 2011 1121 1334 58.8 L   6.803 -73.145147.5  RSN 20 0.4 3.7LRSN                1
 GAP=103        0.72       2.3     3.3  4.5 -0.3147E+00  0.4232E+01  0.1112E+01E
 Epicentro: LOS SANTOS - SANTANDER                                             3
 ACTION:UPD 12-07-13 16:11 OP:ep   STATUS:               ID:20111121133458 L   I
 2011-11-21-1333-01S.COL___178                                                 6
 STAT SP IPHASW D HRMM SECON CODA AMPLIT PERI AZIMU VELO AIN AR TRES W  DIS CAZ7
 BAR2 SZ IP       1335 18.71                             171    0.1110 23.6 190 
 BAR2 SZ ES   1   1335 33.78                             171   -0.30 7 23.6 190 
 BAR2 SZ I        1335 35.62      1732.4 0.32                          23.6 190 
 BRR  HZ EP       1335 20.64                             153    0.5510 71.1 298 
 BRR  HZ I        1335 21.03      1303.7 0.22                          71.1 298 
 PAM  SZ EP       1335 21.55                             151    0.4110 77.1  40 
 PAM  SE ES   1   1335 38.67                             151    0.07 7 77.1  40 
 PAM  SZ I        1335 40.99       857.8 0.53                          77.1  40 
 RUS  HZ IP     D 1335 22.56                             144   -0.1410  101 176 
 RUS  HN ES   1   1335 41.42                             144    0.05 7  101 176 
 RUS  HZ I        1335 43.18       633.0 0.37                           101 176 
 OCA  SZ EP   1   1335 27.18                             130    0.01 7  160 353 
 OCA  SZ ES   1   1335 49.01                             130   -0.33 7  160 353 
 OCA  SZ I        1335 55.28      1100.8 0.29                           160 353 
 YOP  SZ EP       1335 29.18                             127    0.24 9  179 153 
 YOP  SZ I        1335 29.97       253.2 0.50                           179 153 
 YOP  SE ES   1   1335 52.34                             127   -0.15 7  179 153 
 ZAR  HZ EP   1   1335 31.14                             123   -0.17 6  204 292 
 ZAR  HN ES   1   1335 56.54                             123   -0.16 6  204 292 
 ZAR  HZ I        1336  2.63       850.1 0.45                           204 292 
 NOR  SZ EP   2   1335 34.42                             119   -0.19 4  235 234 
 NOR  SE ES   2   1336  1.84                             119   -0.73 4  235 234 
 CHI  HZ EP   1   1335 36.26                             117   -0.32 6  249 195 
 CHI  HN ES   1   1336  5.76                             117   -0.32 6  249 195 
 CHI  HZ I        1336 15.68       246.1 0.37                           249 195 
 HEL  HZ EP   2   1335 38.55                             115   -0.52 4  272 256 
 HEL  HN ES   2   1336  9.81                             115   -0.71 4  272 256 
 HEL  HZ I        1336 17.49       493.4 0.35                           272 256 
 CVER SZ EP   1   1335 40.00                             115    0.77 6  272 202 
 CVER SZ I        1335 41.45       271.3 0.32                           272 202 
 GUY  SZ EP   1   1335 42.89                             112    0.16 5  304 235 
 GUY  SZ I        1336 23.16       426.7 0.41                           304 235 
 VIL  SZ EP   1   1335 41.63                             112   -0.65 5  304 192 
 VIL  SN ES   1   1336 16.00                             112   -0.23 5  304 192 
 VIL  SZ I        1336 21.82       143.4 0.51                           304 192 
 RREF HZ EP   1   1335 45.67                             111    0.67 5  322 229 
 RREF HN ES   1   1336 21.22                             111    0.15 5  322 229 
 RREF HZ I        1336 28.23       256.1 0.44                           322 229 
 DBB  SZ EP   1   1335 47.03                             110    0.73 5  340 274 
 COD  HZ EP   1   1335 46.12                             109   -1.04 5  348 355 
 COD  HZ I        1336 33.54       372.8 0.55                           348 355 
 SDV  BZ IP       1335 48.17                             109   -0.66 6  360  50 
 SDV  BZ I        1336 27.39        92.9 0.35                           360  50 
 PRA  HZ EP   1   1335 51.84                             107   -0.52 4  392 210 
 PAL  HZ EP   2   1335 54.14                             106    0.15 3  406 239 
 HORQ SZ EP   1   1336  9.72                             102    0.46 3  532 227 
 HORQ SZ I        1337 17.35        16.9 0.60                           532 227 
                                                                                
