 2014 1221 1243 42.8 L   6.808 -73.184142.0  RSN 13 0.4 2.0LRSN                1
 GAP=131        1.04       2.9     3.7  5.3 -0.9906E+00  0.6263E+01  0.1343E+01E
 Epicentro: ZAPATOCA - SANTANDER                                               3
 ACTION:UPD 15-02-10 17:06 OP:nd   STATUS:               ID:20141221124342 L   I
 OLDACT:DUP 14-12-21 23:07 OP:fm   STATUS:               ID:20141221123746d    3
 2014-12-21-1237-45M.COL___299                                                 6
 STAT SP IPHASW D HRMM SECON CODA AMPLIT PERI AZIMU VELO AIN AR TRES W  DIS CAZ7
 BAR2 EZ EP       1244  2.27                             170    0.3010 23.9 180 
 BAR2 EZ ES       1244 16.54                             170   -0.4010 23.9 180 
 BAR2 EZ I        1244 19.27        14.8 0.14            169           23.9 180 
 BRR  HZ EP       1244  4.03                             153    0.7410 67.1 300 
 BRR  HE ES       1244 19.45                             153    0.1610 67.1 300 
 BRR  HZ I        1244 24.49        10.9 0.50            151           67.1 300 
 PAM  SZ EP       1244  5.03                             149    0.3010 79.5  42 
 PAM  SE ES       1244 21.52                             149   -0.3210 79.5  42 
 PAM  SZ I        1244 24.70         9.6 0.60            155           79.5  42 
 RUS  HZ EP       1244  6.57                             143    0.3110  102 174 
 RUS  HE ES       1244 24.42                             143   -0.1510  102 174 
 RUS  HZ I        1244 27.44        10.6 0.50            145            102 174 
 PTB  HZ EP       1244  9.03                             132   -0.05 9  144 258 
 PTB  HN ES       1244 29.19                             132   -0.41 9  144 258 
 PTB  HZ I        1244 34.83        12.5 0.28            132            144 258 
 SPBC HZ EP       1244 11.11                             128    0.30 9  161 218 
 SPBC HE ES       1244 32.89                             128    0.22 9  161 218 
 SPBC HZ I        1244 40.03        15.7 0.38            129            161 218 
 ZAR  HZ EP   1   1244 14.47                             122   -0.07 6  200 292 
 ZAR  HE ES       1244 40.12                             122    0.80 9  200 292 
 ZAR  HZ I        1244 46.00        11.2 0.60            123            200 292 
 NOR  HZ EP       1244 17.29                             118   -0.69 8  232 234 
 NOR  HE ES       1244 45.83                             118    0.39 8  232 234 
 NOR  HZ I        1244 50.50         8.5 0.20            119            232 234 
 SML  HZ EP       1244 18.73                             117   -0.19 8  241 336 
 SML  HE ES       1244 46.53                             117   -0.58 8  241 336 
 SML  HZ I        1244 54.50        10.4 0.10            119            241 336 
 CHI  HZ EP       1244 20.24                             116   -0.01 8  248 194 
 CHI  HE ES       1244 49.03                             116   -0.45 8  248 194 
 CHI  HZ I        1244 57.82         4.2 0.48            118            248 194 
 HEL  HZ EP       1244 21.86                             114   -0.51 8  268 255 
 HEL  HN ES       1244 52.47                             114   -0.79 8  268 255 
 HEL  HZ I        1245  2.38         6.3 0.62            115            268 255 
 TOL  SZ EP       1244 30.40                             109   -0.22 7  341 224 
 TOL  SE ES       1245  8.65                             109    0.71 7  341 224 
 TOL  SZ I        1245 15.01         6.8 0.30            110            341 224 
 SJC  HN ES   4   1245 18.57                             105   -2.26 0  406 327 
 SJC  HZ I        1245 23.34         2.2 0.48            107            406 327 
                                                                                
