 2011  921 1702 24.1 L   6.791 -73.133144.9  RSN  5 0.2 1.9LRSN                1
 GAP=139        0.41       3.2     3.3  5.2  0.6955E+00 -0.6808E-01  0.5309E+01E
 Epicentro: LOS SANTOS - SANTANDER                                             3
 ACTION:UPD 12-07-13 15:59 OP:ep   STATUS:               ID:20110921170224 L   I
 2011-09-21-1658-49S.COL___165                                                 6
 STAT SP IPHASW D HRMM SECON CODA AMPLIT PERI AZIMU VELO AIN AR TRES W  DIS CAZ7
 BAR2 SZ EP       17 2 43.63                             171    0.0210 22.7 194 
 BAR2 SZ I        17 2 59.59        12.7 0.28                          22.7 194 
 BRR  HZ EP       17 2 45.30                             152    0.0610 72.9 299 
 BRR  HN ES   1   17 3  1.89                             152    0.15 7 72.9 299 
 BRR  HZ I        17 3  7.48        26.1 0.30                          72.9 299 
 PAM  SZ EP       17 2 46.35                             151    0.1410 77.2  38 
 PAM  SN ES   1   17 3  3.22                             151   -0.23 7 77.2  38 
 RUS  HZ EP       17 2 47.58                             144   -0.1010 99.5 177 
 RUS  HN ES   2   17 3  6.14                             144    0.06 5 99.5 177 
 ZAR  HN ES   2   17 3 21.58                             122   -0.47 4  206 292 
 ZAR  HZ I        17 3 28.07         4.3 0.28                           206 292 
                                                                                
