 2011 1021 1454 16.8 L   6.683 -73.126141.1  RSN  4 0.3 1.5LRSN                1
 GAP=144        0.54       4.0     7.3  7.9 -0.5994E+01  0.3421E+01  0.7588E+00E
 Epicentro: JORDAN - SANTANDER                                                 3
 ACTION:UPD 12-07-13 16:05 OP:ep   STATUS:               ID:20111021145416 L   I
 2011-10-21-1450-36S.COL___171                                                 6
 STAT SP IPHASW D HRMM SECON CODA AMPLIT PERI AZIMU VELO AIN AR TRES W  DIS CAZ7
 BAR2 SZ EP   1   1454 35.21                             175   -0.47 7 11.9 212 
 BAR2 SZ I        1454 51.60         8.2 0.37                          11.9 212 
 BRR  HZ EP   2   1454 38.18                             149    0.20 5 80.0 306 
 BRR  HN ES   2   1454 54.57                             149    0.08 5 80.0 306 
 BRR  HZ I        1454 55.51        11.9 0.19                          80.0 306 
 PAM  SZ EP   1   1454 39.42                             147    0.32 7 86.5  33 
 PAM  SN ES   1   1454 56.39                             147   -0.10 7 86.5  33 
 RUS  HZ EP   1   1454 39.09                             147   -0.09 7 87.6 177 
 RUS  HE ES   1   1454 56.84                             147    0.21 7 87.6 177 
 RUS  HZ I        1454 58.10         3.7 0.23                          87.6 177 
                                                                                
