 2017 1121 1812 20.5 L   6.218 -73.772 96.0  RSN  5 0.3 1.2LRSN                1
 GAP=124        0.82       3.7     2.6  7.4  0.1155E+01  0.7328E+01  0.3680E+00E
 Epicentro: LANDAZURI - SANTANDER                                              3
 ACTION:UPD 17-12-12 19:58 OP:rebc STATUS:               ID:20171121181220 L   I
 OLDACT:REG 17-11-21 21:23 OP:osc  STATUS:               ID:20171121180748     3
 2017-11-21-1808-00M.COL___483                                                 6
 STAT SP IPHASW D HRMM SECON CODA AMPLIT PERI AZIMU VELO AIN AR TRES W  DIS CAZ7
 BAR2 EZ EP       1812 37.14                             139   -0.2110 77.2  58 
 BAR2 EZ ES       1812 50.12                             139   -0.3910 77.2  58 
 BAR2 EZ I        1812 51.37         7.0 0.14            143           77.2  58 
 PTB  HZ EP       1812 37.35                             136   -0.2410 83.6 295 
 PTB  HN ES       1812 51.09                             136    0.1610 83.6 295 
 PTB  HZ I        1812 51.97         2.9 0.12            139           83.6 295 
 RUS  HZ EP       1812 38.18                             136   -0.1210 84.3 115 
 RUS  HN ES       1812 52.76                             136    0.5710 84.3 115 
 RUS  HZ I        1812 58.90         2.5 0.64            139           84.3 115 
 NOR  HZ EP       1812 43.56                             120    0.24 9  141 239 
 NOR  HN ES       1813  0.73                             120   -0.39 9  141 239 
 NOR  HZ I        1813  5.89         4.1 0.16            121            141 239 
 ZAR  HZ EP       1812 48.27                             113    0.19 9  185 320 
 ZAR  HN ES       1813  9.91                             113    0.30 9  185 320 
 ZAR  HZ I        1813 15.25         3.1 0.26            115            185 320 
                                                                                
