 2015  721 1546 15.3 L   6.536 -73.529112.5  RSN  5 0.4 1.8LRSN                1
 GAP=153        0.90       3.8     5.3  8.7 -0.7268E+01  0.2942E+02 -0.9116E+01E
 Epicentro: EL CARMEN - SANTANDER                                              3
 ACTION:UPD 15-09-08 21:50 OP:cam  STATUS:               ID:20150721154615 L   I
 OLDACT:UP  15-07-22 01:09 OP:ak   STATUS:               ID:20150721153752d    3
 OLDACT:DUP 15-07-22 01:04 OP:ak   STATUS:               ID:20150721153752d    3
 2015-07-21-1537-50M.COL___328                                                 6
 STAT SP IPHASW D HRMM SECON CODA AMPLIT PERI AZIMU VELO AIN AR TRES W  DIS CAZ7
 BAR2 EZ EP       1546 31.63                             160    0.1710 38.8  81 
 BAR2 EZ ES       1546 44.12                             160    0.0410 38.8  81 
 BAR2 EZ I        1546 45.27        38.6 0.34            164           38.8  81 
 ZAR  HZ EP       1546 43.67                             117    0.41 9  181 306 
 ZAR  HN ES       1547  5.34                             117    0.25 9  181 306 
 ZAR  HZ I        1547  8.50         7.0 0.23            118            181 306 
 NOR  HZ EP       1546 43.46                             117   -0.11 9  183 234 
 NOR  HN ES       1547  4.83                             117   -0.80 9  183 234 
 NOR  HZ I        1547  8.76         7.9 0.16            119            183 234 
 GUY2CHZ EP   1   1546 51.95                             109    0.37 6  250 235 
 GUY2CHN ES       1547 20.41                             109    0.52 8  250 235 
 GUY2CHZ I        1547 25.35         2.5 0.35                           250 235 
 SML  HZ EP       1546 51.46                             108   -0.42 8  258 347 
 SML  HN ES       1547 20.06                             108   -0.36 8  258 347 
 SML  HZ I        1547 26.28         7.2 0.06            110            258 347 
                                                                                
