 2012 1121 1314  8.2 L   6.831 -73.224147.3  RSN  6 0.4 1.5LRSN                1
 GAP=124        0.79       5.2     6.0  8.2 -0.8097E+01  0.7079E+01  0.1527E+02E
 Epicentro: ZAPATOCA - SANTANDER                                               3
 ACTION:UPD 12-12-05 15:34 OP:}ep  STATUS:               ID:20121121131408 L   I
 2012-11-21-1310-00M.COL___234                                                 6
 STAT SP IPHASW D HRMM SECON CODA AMPLIT PERI AZIMU VELO AIN AR TRES W  DIS CAZ7
 BAR2 SZ EP       1314 28.07                             169   -0.0210 26.8 170 
 GIR2 SZ ES   1   1314 43.92                             169    0.54 7 27.6   7 
 PAM  SZ EP   1   1314 30.88                             150    0.09 7 80.7  46 
 PAM  SN ES   1   1314 48.29                             150   -0.11 7 80.7  46 
 PAM  SZ I        1314 50.28         9.2 0.56                          80.7  46 
 RUS  HZ EP   1   1314 31.99                             143   -0.43 7  105 171 
 RUS  HN ES   1   1314 50.83                             143   -0.48 7  105 171 
 RUS  HZ I        1314 51.93         3.0 0.24                           105 171 
 PTB  HZ EP   1   1314 34.74                             134    0.13 7  140 257 
 PTB  HN ES   1   1314 54.81                             134   -0.39 7  140 257 
 PTB  HZ I        1315  1.93         4.7 0.22                           140 257 
 CHI  HZ EP   1   1314 46.21                             117    0.09 6  250 193 
 CHI  HN ES   1   1315 16.67                             117    0.97 6  250 193 
 CHI  HZ I        1315 17.01         2.3 0.60                           250 193 
                                                                                
