 2014 1121 1540 25.4 L   6.818 -73.316117.8  RSN  6 0.2 1.4LRSN                1
 GAP=104        0.60       3.6     3.1  5.8  0.3937E+01  0.5715E+01  0.4163E+01E
 Epicentro: ZAPATOCA - SANTANDER                                               3
 ACTION:UPD 14-12-19 15:45 OP:nd   STATUS:               ID:20141121154025 L   I
 OLDACT:REG 14-11-21 21:45 OP:spq  STATUS:               ID:20141121153747     3
 2014-11-21-1537-47M.COL___293                                                 6
 STAT SP IPHASW D HRMM SECON CODA AMPLIT PERI AZIMU VELO AIN AR TRES W  DIS CAZ7
 BAR2 SZ EP       1540 41.76                             165   -0.0710 29.0 149 
 BAR2 SZ ES   1   1540 54.98                             165    0.33 7 29.0 149 
 BAR2 SZ I        1540 56.05        17.4 0.32            173           29.0 149 
 BRR  HZ EP       1540 42.19                             154   -0.3710 54.2 306 
 BRR  HN ES       1540 55.74                             154   -0.2110 54.2 306 
 BRR  HZ I        1541  5.20        13.1 0.40            152           54.2 306 
 PAM  SE ES   1   1541  1.48                             141    0.14 7 89.2  50 
 PAM  SZ I        1541  3.47         2.9 0.30            148           89.2  50 
 RUS  HZ EP   1   1540 47.08                             135    0.16 7  106 166 
 RUS  HN ES   1   1541  3.75                             135    0.03 7  106 166 
 RUS  HZ I        1541  5.31         1.6 0.22            145            106 166 
 PTB  HZ EP   1   1540 48.50                             129    0.02 7  130 256 
 PTB  HE ES   1   1541  6.31                             129   -0.18 7  130 256 
 PTB  HZ I        1541 10.79         3.8 0.30            132            130 256 
 ZAR  HN ES       1541 17.15                             118    0.46 9  186 294 
 ZAR  HZ I        1541 24.78         3.7 0.24            122            186 294 
                                                                                
