 2014 1021 1408 45.7 L   7.489 -73.128125.9  RSN  5 0.5 1.9LRSN                1
 GAP=145        1.05       6.5     7.0 10.1  0.1952E+01  0.2144E+02 -0.3583E+01E
 Epicentro: EL PLAYON - SANTANDER                                              3
 ACTION:UPD 14-11-29 23:53 OP:nd   STATUS:               ID:20141021140845 L   I
 OLDACT:REG 14-10-24 07:21 OP:fm   STATUS:               ID:20141021135747     3
 2014-10-21-1357-47M.COL___274                                                 6
 STAT SP IPHASW D HRMM SECON CODA AMPLIT PERI AZIMU VELO AIN AR TRES W  DIS CAZ7
 PAM  SN ES   1   14 9 18.01                             157   -0.72 7 50.1 109 
 PAM  SZ I        14 9 20.50        47.0 0.30            160           50.1 109 
 BRR  HZ EP       14 9  5.60                             147    0.5010 77.1 237 
 BRR  HN ES       14 9 20.66                             147    0.4110 77.1 237 
 BRR  HZ I        14 9 21.74        15.7 0.16            147           77.1 237 
 BAR2 SZ EP       14 9  7.27                             139    0.1910 99.4 183 
 BAR2 SZ ES   1   14 9 24.00                             139    0.23 7 99.4 183 
 BAR2 SZ I        14 9 25.05        13.9 0.10            141           99.4 183 
 SML  HN ES   1   14 9 36.39                             121   -0.02 7  178 324 
 SML  HZ I        14 9 37.45        11.5 0.10            123            178 324 
 PTB  HZ EP       14 9 14.05                             121   -0.36 9  180 234 
 PTB  HN ES       14 9 36.13                             121   -0.69 9  180 234 
 PTB  HZ I        14 9 39.76         5.8 0.14            123            180 234 
                                                                                
