 2014 1021 1137 16.0 L   6.802 -73.188153.5  RSN  5 0.4 1.6LRSN                1
 GAP=197        0.89       5.9     7.4  8.8  0.1356E+02 -0.1819E+01 -0.1747E+02E
 Epicentro: ZAPATOCA - SANTANDER                                               3
 ACTION:UPD 14-11-29 23:53 OP:nd   STATUS:               ID:20141021113716 L   I
 OLDACT:DUP 14-10-24 08:10 OP:fm   STATUS:               ID:20141021112745d    3
 OLDACT:UP  14-10-24 08:09 OP:fm   STATUS:               ID:20141021112744     3
 OLDACT:REG 14-10-24 07:20 OP:fm   STATUS:               ID:20141021112744     3
 2014-10-21-1127-44M.COL___274                                                 6
 STAT SP IPHASW D HRMM SECON CODA AMPLIT PERI AZIMU VELO AIN AR TRES W  DIS CAZ7
 BAR2 SZ ES   1   1137 52.34                             171   -0.28 8 23.2 179 
 BAR2 SZ I        1137 53.40        13.9 0.20            175           23.2 179 
 BRR  HZ EP   1   1137 38.37                             155    0.57 8 67.1 300 
 BRR  HN ES   1   1137 55.56                             155    0.78 8 67.1 300 
 BRR  HZ I        1137 57.60         6.3 0.26            154           67.1 300 
 RUS  HZ EP   1   1137 40.84                             145    0.25 8  101 173 
 RUS  HN ES   1   1137 59.34                             145   -0.40 8  101 173 
 RUS  HZ I        1138  0.73         4.0 0.26            149            101 173 
 PTB  HZ EP   1   1137 43.44                             135    0.20 7  143 258 
 PTB  HN ES       1138  4.12                             135   -0.3410  143 258 
 PTB  HZ I        1138  6.69         3.2 0.40            136            143 258 
 SML  HZ EP   1   1137 52.53                             119   -0.34 6  242 336 
 SML  HN ES   1   1138 21.08                             119   -0.54 6  242 336 
 SML  HZ I        1138 26.64         5.8 0.10            120            242 336 
                                                                                
