 2012 1021 1033 17.2 L   6.739 -73.129145.0  RSN  5 0.2 1.4LRSN                1
 GAP=141        0.43       2.9     3.0  4.8  0.1830E+01 -0.6783E+00  0.8228E+00E
 Epicentro: JORDAN - SANTANDER                                                 3
 ACTION:UPD 12-11-22 17:05 OP:ep   STATUS:               ID:20121021103317 L   I
 2012-10-21-1030-00M.COL___231                                                 6
 STAT SP IPHASW D HRMM SECON CODA AMPLIT PERI AZIMU VELO AIN AR TRES W  DIS CAZ7
 BAR2 SZ EP       1033 36.79                             173    0.1310 17.3 200 
 BRR  HZ EP       1033 38.64                             151    0.0510 76.2 302 
 BRR  HN ES       1033 55.38                             151    0.1310 76.2 302 
 BRR  HZ I        1033 58.60         5.4 0.14                          76.2 302 
 PAM  SZ EP       1033 39.49                             149   -0.1310 81.6  36 
 PAM  SZ I        1033 39.94         5.9 0.25                          81.6  36 
 PAM  SN ES   1   1033 57.05                             149   -0.03 7 81.6  36 
 RUS  HZ EP   1   1033 40.59                             146    0.17 7 93.8 177 
 RUS  HN ES   1   1033 58.27                             146   -0.24 7 93.8 177 
 RUS  HN I        1034  0.55         3.1 0.18                          93.8 177 
 ZAR  HN ES   1   1034 15.37                             122   -0.32 6  208 294 
 ZAR  HZ I        1034 20.63         3.1 0.13                           208 294 
                                                                                
