 2013  121 1753 46.3 L   6.804 -73.149141.9  RSN 12 0.4 2.5LRSN                1
 GAP= 71        0.81       3.2     3.2  5.5  0.4145E-01  0.3730E+01  0.2861E+01E
 Epicentro: LOS SANTOS - SANTANDER                                             3
 ACTION:UPD 13-02-15 09:15 OP:ep   STATUS:               ID:20130121175346 L   I
 2013-01-21-1750-00M.COL___241                                                 6
 STAT SP IPHASW D HRMM SECON CODA AMPLIT PERI AZIMU VELO AIN AR TRES W  DIS CAZ7
 BAR2 SZ EP   1   1754  5.52                             170    0.03 7 23.7 189 
 BAR2 SZ ES   1   1754 20.27                             170   -0.17 7 23.7 189 
 BRR  HZ EP     C 1754  7.31                             152    0.2910 70.7 298 
 BRR  HN ES   1   1754 24.17                             152    1.01 7 70.7 298 
 BRR  HZ I        1754 25.19        76.5 0.14            135           70.7 298 
 PAM  SZ EP   1   1754  8.33                             150    0.22 7 77.3  40 
 PAM  SN ES   1   1754 25.04                             150   -0.07 7 77.3  40 
 PAM  SZ I        1754 27.69        39.6 0.52            134           77.3  40 
 RUS  HZ EP   1   1754  9.56                             143   -0.16 7  101 176 
 RUS  HN ES   1   1754 27.85                             143   -0.13 7  101 176 
 RUS  HZ I        1754 29.78        57.8 0.28            124            101 176 
 PTB  HZ EP   1   1754 12.35                             131   -0.60 7  148 259 
 PTB  HN ES   1   1754 32.89                             131   -0.83 7  148 259 
 PTB  HZ I        1754 36.04        46.6 0.14            113            148 259 
 TAM  HZ EP   1   1754 13.94                             130    0.21 7  156 105 
 TAM  HN ES   1   1754 35.17                             130    0.06 7  156 105 
 TAM  HZ I        1754 40.61        24.1 0.40            112            156 105 
 OCA  HZ EP   1   1754 13.75                             129   -0.53 7  160 353 
 OCA  HN ES   1   1754 35.35                             129   -0.75 7  160 353 
 OCA  HZ I        1754 39.66        39.7 0.24            112            160 353 
 ZAR  HZ EP   1   1754 18.64                             122    0.18 6  204 292 
 ZAR  HN ES   1   1754 44.04                             122    0.51 6  204 292 
 ZAR  HZ I        1754 50.16        38.7 0.30            106            204 292 
 NOR  HZ EP   1   1754 21.85                             118    0.03 6  235 234 
 NOR  HE ES   1   1754 49.34                             118   -0.17 6  235 234 
 NOR  HZ I        1754 51.61        34.4 0.22            104            235 234 
 CHI  HZ EP   1   1754 23.94                             116    0.10 6  249 195 
 CHI  HE ES   1   1754 52.95                             116   -0.16 6  249 195 
 CHI  HZ I        1754 57.70        11.5 0.19            103            249 195 
 ROSC BZ EP   1   1754 24.69                             116    0.44 6  253 211 
 ROSC BZ I        1755  2.73        36.4 0.40            103            253 211 
 HEL  HZ EP   1   1754 26.65                             114    0.34 6  272 256 
 HEL  HZ I        1755  3.90        21.7 0.36            102            272 256 
                                                                                
