 2014 1221 1131 33.4 L   6.870 -73.321122.0  RSN 12 0.5 2.1LRSN                1
 GAP=101        1.31       3.0     4.1  6.7 -0.1559E+01  0.8695E+01  0.1426E+00E
 Epicentro: BETULIA - SANTANDER                                                3
 ACTION:UPD 15-02-10 17:06 OP:nd   STATUS:               ID:20141221113133 L   I
 OLDACT:REG 14-12-21 21:44 OP:fm   STATUS:               ID:20141221112746     3
 2014-12-21-1127-46M.COL___299                                                 6
 STAT SP IPHASW D HRMM SECON CODA AMPLIT PERI AZIMU VELO AIN AR TRES W  DIS CAZ7
 BAR2 EZ IP     D 1131 50.83                             163    0.3610 34.3 154 
 BAR2 EZ ES       1132  4.38                             163    0.5710 34.3 154 
 BAR2 EZ I        1132  5.19        37.9 0.38            165           34.3 154 
 BRR  HN ES       1132  5.18                             156    0.7710 50.5 301 
 PAM  SZ EP       1131 54.15                             143    0.4310 86.1  53 
 PAM  SE ES       1132  9.25                             143   -0.3610 86.1  53 
 PAM  SZ I        1132 12.44        22.4 0.30            145           86.1  53 
 RUS  HZ EP       1131 55.82                             135    0.0710  111 166 
 RUS  HE ES       1132 12.57                             135   -0.6410  111 166 
 PTB  HZ EP       1131 56.19                             130   -0.6710  131 254 
 PTB  HN ES       1132 14.31                             130   -0.8910  131 254 
 PTB  HZ I        1132 18.07        22.5 0.44            129            131 254 
 OCA  HZ EP       1131 58.99                             125   -0.05 9  151   0 
 OCA  HE ES       1132 18.46                             125   -0.62 9  151   0 
 OCA  HZ I        1132 19.97        25.9 0.34            126            151   0 
 SPBC HZ EP       1131 59.52                             124   -0.13 9  158 212 
 SPBC HN ES       1132 19.88                             124   -0.28 9  158 212 
 SPBC HZ I        1132 22.10        13.8 0.10            124            158 212 
 ZAR  HZ EP       1132  3.04                             120    0.91 9  183 292 
 ZAR  HN ES       1132 25.14                             120    0.56 9  183 292 
 ZAR  HZ I        1132 28.38        14.8 0.26            120            183 292 
 NOR  HZ EP       1132  7.53                             114    0.88 8  224 230 
 NOR  HE ES       1132 32.89                             114    0.28 8  224 230 
 NOR  HZ I        1132 38.34         6.2 0.14            114            224 230 
 SML  HZ EP       1132  6.76                             114   -0.36 8  229 339 
 SML  HN ES       1132 32.94                             114   -0.51 8  229 339 
 SML  HZ I        1132 39.83        18.1 0.10            114            229 339 
 CHI  HZ EP       1132 10.42                             111    0.19 8  252 190 
 CHI  HN ES       1132 38.77                             111   -0.21 8  252 190 
 CHI  HZ I        1132 45.25         3.0 0.68            112            252 190 
 HEL  HZ EP       1132 10.71                             111    0.13 8  255 253 
 HEL  HN ES       1132 39.13                             111   -0.48 8  255 253 
 HEL  HZ I        1132 45.08         7.1 0.56            111            255 253 
                                                                                
