 2011  821 1011 28.8 L   6.902 -72.927133.9  RSN  4 0.4 1.4LRSN                1
 GAP=205        0.76       7.3    13.9 12.1  0.5929E+02 -0.1021E+03 -0.4242E+02E
 Epicentro: GUACA - SANTANDER                                                  3
 ACTION:UPD 12-07-13 15:53 OP:ep   STATUS:               ID:20110821101128 L   I
 2011-08-21-1010-20S.COL___151                                                 6
 STAT SP IPHASW D HRMM SECON CODA AMPLIT PERI AZIMU VELO AIN AR TRES W  DIS CAZ7
 BAR2 SZ EP   1   1011 48.30                             161    0.58 7 44.4 220 
 BAR2 SZ ES   1   1012  2.03                             161   -0.41 7 44.4 220 
 BAR2 SZ I        1012  5.86         4.6 0.34                          44.4 220 
 BRR  HZ EP   1   1011 49.27                             144   -0.68 7 89.7 285 
 BRR  HZ I        1011 51.90         4.7 0.09                          89.7 285 
 BRR  HN ES       1012  6.64                             144    0.2210 89.7 285 
 RUS  HZ EP   2   1011 52.32                             138   -0.11 5  113 189 
 RUS  HE ES   2   1012 11.04                             138    0.21 5  113 189 
 RUS  HZ I        1012 12.88         2.7 0.37                           113 189 
 OCA  SZ EP   2   1011 55.93                             128    0.27 5  154 344 
 OCA  SZ I        1011 58.54         5.6 0.28                           154 344 
 OCA  SZ ES   2   1012 16.50                             128   -0.08 5  154 344 
                                                                                
