 2011  421 1838 30.6 L   6.412 -73.710 93.5  RSN 11 0.5 2.0LRSN                1
 GAP=104        1.04       4.6     4.4  9.2 -0.9499E+01  0.1537E+02 -0.7553E+01E
 Epicentro: SANTA HELENA DEL OPON - SANTANDER                                  3
 ACTION:UP  11-06-22 15:32 OP:REBC STATUS:               ID:20110421183830 L   I
 2011-04-21-1836-00S.COL___139                                                 6
 STAT SP IPHASW D HRMM SECON CODA AMPLIT PERI AZIMU VELO SNR AR TRES W  DIS CAZ7
 BAR2 SZ IP       1838 46.28                             144     0.210   62  71 
 BAR2 SZ ES   1   1838 58.36                             144     0.3 7   62  71 
 BAR2 SZ I        1839  0.69        81.6 0.22                            62  71 
 BRR  HZ EP   1   1838 46.29                             137    -0.6 7   77 360 
 BRR  HZ I        1838 53.76        38.5 0.09                            77 360 
 BRR  HN ES   1   1838 59.59                             137     0.0 7   77 360 
 RUS  HZ EP   1   1838 48.91                             133     0.2 7   90 130 
 RUS  HN ES   1   1839  2.24                             133    -0.6 7   90 130 
 RUS  HZ I        1839  6.84        18.3 0.32                            90 130 
 GIR2 SZ EP   1   1838 49.40                             132     0.9 7   93  38 
 PAM  SZ EP   1   1838 54.72                             117    -0.2 7  152  47 
 PAM  SN ES   1   1839 13.76                             117    -0.2 7  152  47 
 NOR  SZ EP   1   1838 55.15                             116     0.0 7  159 234 
 NOR  SN ES   1   1839 14.52                             116     0.2 7  159 234 
 NOR  SZ I        1839 16.67         4.7 0.26                           159 234 
 BRI  SZ EP   1   1838 57.41                             113     0.1 7  176  35 
 BRI  SZ I        1839 23.51        17.3 0.34                           176  35 
 GRA  SZ EP   1   1838 58.04                             111    -0.9 7  191  32 
 GRA  SZ ES   1   1839 20.77                             111    -0.3 7  191  32 
 HEL  HZ EP   2   1838 59.76                             110    -0.8 4  203 263 
 HEL  HN ES   1   1839 23.75                             110    -0.2 6  203 263 
 HEL  HZ I        1839 26.31        16.3 0.27                           203 263 
 OCA  SZ EP   1   1839  1.58                             110     0.8 6  207  12 
 GUY  SZ EP   1   1839  3.91                             108     0.3 6  228 235 
 GUY  SZ I        1839 33.33        10.9 0.29                           228 235 
                                                                                
