 2010  321 1500  2.4 L   6.769 -73.087150.7  RSN 16 0.4 4.4LRSN                1
 GAP=125        0.85       3.2     5.2  5.3 -0.4111E+01  0.4058E+01  0.1631E+01E
 Epicentro: LOS SANTOS - SANTANDER                                             3
 ACTION:UP  10-08-24 09:55 OP:vdl  STATUS:               ID:20100321150002 L   I
 2010-03-21-1457-30S.COL___098                                                 6
 STAT SP IPHASW D HRMM SECON CODA AMPLIT PERI AZIMU VELO SNR AR TRES W  DIS CAZ7
 BAR2 SZ IP       15 0 22.88                             171     0.210   22 208 
 BAR2 SZ ES   1   15 0 38.05                             171    -0.4 7   22 208 
 BRR  HZ IP       15 0 24.81                             151     0.310   79 298 
 BRR  HN ES   1   15 0 42.14                             151     0.4 7   79 298 
 BRR  HZ I        15 0 45.34      2272.3 0.17                            79 298 
 RUS  HZ IP       15 0 26.70                             146     0.310   97 180 
 RUS  HN ES   1   15 0 44.85                             146    -0.3 7   97 180 
 RUS  HZ I        15 0 46.81      2400.3 0.39                            97 180 
 OCA  SZ IP       15 0 31.24                             130    -0.3 9  164 351 
 OCA  SZ ES   1   15 0 54.21                             130     0.0 7  164 351 
 OCA  SZ I        15 1  0.30      3884.4 0.30                           164 351 
 CHI  HZ IP       15 0 40.51                             118     0.2 8  247 197 
 CHI  HN ES   1   15 1  9.20                             118    -0.6 6  247 197 
 CHI  HZ I        15 1 18.94      1055.0 0.44                           247 197 
 ROSC BE ES   2   15 1 11.44                             118     0.6 4  253 213 
 ROSC BZ I        15 1 17.85      1676.1 0.27                           253 213 
 HEL  HZ EP   1   15 0 42.58                             115    -0.9 6  278 257 
 HEL  HN ES   2   15 1 15.51                             115     0.0 4  278 257 
 HEL  HZ I        15 1 22.43       837.6 0.18                           278 257 
 RREF BZ EP   1   15 0 49.76                             112     0.6 5  325 231 
 RREF BN ES   1   15 1 24.65                             112    -0.9 5  325 231 
 RREF BZ I        15 1 33.51      1286.6 0.20                           325 231 
 TOL  SZ EP   1   15 0 51.41                             110     0.3 5  346 226 
 DBB  SZ IP       15 0 50.47                             110    -0.4 6  346 275 
 SDV  BZ IP       15 0 52.13                             109    -0.2 6  358  49 
 SDV  BZ I        15 0 53.32       751.1 0.17                           358  49 
 ANIL BZ EP   1   15 0 53.24                             109     0.5 5  360 226 
 ANIL BN ES   1   15 1 32.05                             109     0.2 5  360 226 
 ANIL BZ I        15 1 39.42      3103.4 0.32                           360 226 
 PRA  HZ EP   1   15 0 55.73                             107    -0.4 4  392 211 
 PRA  HE ES   1   15 1 38.28                             107     0.2 4  392 211 
 PRA  HZ I        15 1 44.61      1531.4 0.39                           392 211 
 GUA  SZ EP   1   15 1  4.72                             104    -0.5 4  470 174 
 SOL  SZ EP   2   15 1  6.29                             104    -0.3 2  482 263 
 MAL  SZ IP       15 1 17.09                             101     1.0 3  561 237 
 MAL  SZ I        15 1 19.22       217.0 0.57                           561 237 
                                                                                
