 2017 1021 1605 13.0 L   6.657 -74.070  2.0  RSN 11 0.7 2.0LRSN                1
 GAP= 82        1.43       2.5     2.2  5.8 -0.9624E+00 -0.5499E+00  0.1779E+01E
 Epicentro: PUERTO PARRA - SANTANDER                                           3
 ACTION:UPD 17-11-07 19:34 OP:rebc STATUS:               ID:20171021160513 L   I
 OLDACT:REG 17-10-21 20:46 OP:edw  STATUS:               ID:20171021155742     3
 2017-10-21-1558-00M.COL___453                                                 6
 STAT SP IPHASW D HRMM SECON CODA AMPLIT PERI AZIMU VELO AIN AR TRES W  DIS CAZ7
 PTB  HZ IP     D 16 5 20.58                              47   -0.1210 44.6 253 
 PTB  HN ES       16 5 26.54                              47   -0.1310 44.6 253 
 PTB  HZ I        16 5 26.56        77.2 0.16             47           44.6 253 
 BRR  HZ EP       16 5 23.78                              47    0.2210 63.6  39 
 BRR  HN ES       16 5 32.22                              47    0.4610 63.6  39 
 BRR  HZ I        16 5 32.76        59.9 0.10             47           63.6  39 
 BAR2 EZ EP     D 16 5 29.08                              47   -0.0110 98.5  94 
 BAR2 EZ ES       16 5 41.08                              47   -0.5210 98.5  94 
 BAR2 EZ I        16 5 43.31        48.9 0.48             47           98.5  94 
 SPBC HZ EP       16 5 31.29                              47    0.4310  111 180 
 SPBC HN ES       16 5 45.12                              47    0.3710  111 180 
 SPBC HZ I        16 5 47.13        29.5 0.24             47            111 180 
 ZAR  HZ EP       16 5 32.70                              47   -0.4510  127 317 
 ZAR  HN ES       16 5 48.55                              47   -0.2910  127 317 
 ZAR  HZ I        16 5 50.22        31.2 0.10             47            127 317 
 RUS  HZ EP       16 5 35.56                              47    0.19 9  138 128 
 RUS  HN ES       16 5 52.89                              47    0.11 9  138 128 
 RUS  HZ I        16 5 55.61        58.0 0.24             47            138 128 
 NOR  HZ EP       16 5 36.63                              47   -0.05 9  150 216 
 NOR  HE ES       16 5 54.25                              47   -0.87 9  150 216 
 NOR  HZ I        16 5 54.51        15.1 0.16             47            150 216 
 PAM  EZ EP       16 5 40.67                              47    0.60 9  169  63 
 PAM  HN ES       16 5 59.99                              47   -1.16 9  169  63 
 PAM  EZ I        16 6  2.60        20.8 0.42             47            169  63 
 URE  HN ES   2   16 6 11.30                              37    3.38 4  202 307 
 GUY2CHZ EP       16 5 46.41                              37    0.49 8  214 222 
 GUY2CHE ES       16 6 11.42                              37   -0.14 8  214 222 
 GUY2CHZ I        16 6 14.29        13.0 0.34                           214 222 
 YPLC HN ES       16 6 15.24                              37    0.16 8  233 127 
                                                                                
