 2013  621 1317 20.8 L   6.842 -73.104146.6  RSN 10 0.4 2.6LRSN                1
 GAP=187        0.79       2.4     6.7  5.1  0.3778E+00  0.1135E+02  0.3838E+00E
 Epicentro: LOS SANTOS - SANTANDER                                             3
 ACTION:UPD 14-01-08 09:56 OP:ep   STATUS:               ID:20130621131720 L   I
 OLDACT:UP  13-06-24 02:14 OP:Mher STATUS:               ID:20130621131720 L   3
 OLDACT:UP  13-06-21 18:38 OP:cam  STATUS:               ID:20130621130959     3
 OLDACT:UP  13-06-21 18:37 OP:cam  STATUS:               ID:20130621130959     3
 OLDACT:REG 13-06-21 18:01 OP:cam  STATUS:               ID:20130621130959     3
 2013-06-21-1309-59M.COL___264                                                 6
 STAT SP IPHASW D HRMM SECON CODA AMPLIT PERI AZIMU VELO AIN AR TRES W  DIS CAZ7
 GIR2 SZ EP       1317 40.84                             169    0.3210 28.0 339 
 GIR2 SZ ES   1   1317 55.72                             169   -0.15 7 28.0 339 
 BAR2 SZ EP     C 1317 40.84                             168    0.1610 28.9 197 
 BAR2 SZ ES   1   1317 55.49                             168   -0.68 7 28.9 197 
 BRR  HZ IP     C 1317 42.61                             152    0.4210 73.3 294 
 BRR  HN ES   1   1317 59.41                             152    0.57 7 73.3 294 
 BRR  HZ I        1318  3.20        91.2 0.16            142           73.3 294 
 RUS  HZ EP       1317 45.02                             143    0.0410  105 179 
 RUS  HE ES       1318  3.49                             143   -0.3310  105 179 
 RUS  HZ I        1318  5.01        18.9 0.24            141            105 179 
 PTB  HZ EP       1317 47.92                             131   -0.44 9  153 257 
 PTB  HN ES   4   1318  8.51                             131   -1.32 0  153 257 
 PTB  HZ I        1318 15.65        60.3 0.40            125            153 257 
 OCA  HZ EP       1317 48.67                             130   -0.17 9  156 351 
 OCA  HE ES       1318 10.70                             130    0.02 9  156 351 
 NOR  HZ EP       1317 57.66                             118    0.37 8  241 234 
 NOR  HN ES   2   1318 25.17                             118   -0.57 4  241 234 
 NOR  HZ I        1318 32.84        19.6 0.14            115            241 234 
 SML  HZ EP       1317 57.07                             118   -0.20 8  242 334 
 SML  HN ES   1   1318 25.33                             118   -0.35 6  242 334 
 SML  HZ I        1318 32.40       102.9 0.24            117            242 334 
 CHI  HZ EP   2   1317 58.89                             117   -0.30 4  254 196 
 CHI  HN ES       1318 29.69                             117    0.58 8  254 196 
 CHI  HZ I        1318 35.82        14.3 0.60            116            254 196 
 HEL  HZ EP   4   1318  3.33                             114    1.63 0  278 255 
 GUY2CHZ EP   4   1318  6.04                             112    0.84 0  308 235 
 GUY2CHN ES   4   1318 37.35                             112   -2.45 0  308 235 
 PRA  HZ EP   1   1318 14.68                             106   -0.43 4  398 210 
 PRA  HN ES   1   1318 56.99                             106   -0.46 4  398 210 
 PRA  HZ I        1319  4.82        23.7 0.40            106            398 210 
                                                                                
