 2016  521 1129 38.4 L   6.513 -73.570110.2  RSN  8 0.4 2.0LRSN                1
 GAP= 70        0.94       3.5     4.1  6.9 -0.7099E+00  0.1305E+02 -0.2982E+01E
 Epicentro: SANTA HELENA DEL OPON - SANTANDER                                  3
 ACTION:UPD 16-08-18 17:48 OP:cam  STATUS:               ID:20160521112938 L   I
 OLDACT:UP  16-05-21 21:16 OP:drio STATUS:               ID:20160521112749     3
 OLDACT:REG 16-05-21 19:23 OP:drio STATUS:               ID:20160521112749     3
 2016-05-21-1127-49M.COL___290                                                 6
 STAT SP IPHASW D HRMM SECON CODA AMPLIT PERI AZIMU VELO AIN AR TRES W  DIS CAZ7
 BAR2 EZ EP       1129 54.47                             157   -0.0310 43.8  78 
 BAR2 EZ ES       1130  6.99                             157   -0.1010 43.8  78 
 BRR  HZ EP       1129 55.27                             146   -0.2710 67.5 347 
 BRR  HE ES       1130  9.20                             146    0.2610 67.5 347 
 BRR  HZ I        1130 14.92        24.7 0.16            147           67.5 347 
 RUS  HZ EP       1129 57.49                             139   -0.2110 87.3 142 
 RUS  HE ES       1130 12.95                             139    0.1610 87.3 142 
 RUS  HZ I        1130 15.41         7.6 0.58            150           87.3 142 
 PTB  HZ EP       1129 57.33                             135   -0.6010 98.0 272 
 PTB  HN ES   4   1130 12.27                             135   -0.94 0 98.0 272 
 PTB  HZ I        1130 18.65        12.6 0.16            138           98.0 272 
 SPBC HZ EP       1129 59.66                             131    0.5410  110 210 
 SPBC HN ES       1130 15.26                             131   -0.0610  110 210 
 SPBC HZ I        1130 17.10        27.4 0.10            138            110 210 
 ZAR  HZ EP       1130  6.76                             117    0.79 9  179 307 
 ZAR  HE ES   4   1130 29.60                             117    2.09 0  179 307 
 ZAR  HZ I        1130 31.26        20.5 0.32            121            179 307 
 OCA  HZ EP       1130  7.50                             115   -0.20 9  193   8 
 OCA  HE ES   4   1130 29.21                             115   -1.38 0  193   8 
 OCA  HZ I        1130 36.19        25.4 0.20            120            193   8 
 HEL  HZ EP   4   1130 12.38                             112    1.41 0  220 261 
 HEL  HN ES       1130 36.19                             112   -0.23 8  220 261 
 HEL  HZ I        1130 40.88         5.1 0.26            116            220 261 
                                                                                
