 2014 1221 1948 57.5 L   6.818 -73.169138.0  RSN 12 0.4 2.0LRSN                1
 GAP=133        1.06       2.9     3.9  5.9  0.4102E+00  0.6415E+01 -0.9504E+00E
 Epicentro: LOS SANTOS - SANTANDER                                             3
 ACTION:UPD 15-02-10 17:06 OP:nd   STATUS:               ID:20141221194857 L   I
 OLDACT:REG 14-12-21 22:03 OP:fm   STATUS:               ID:20141221194748     3
 2014-12-21-1947-48M.COL___296                                                 6
 STAT SP IPHASW D HRMM SECON CODA AMPLIT PERI AZIMU VELO AIN AR TRES W  DIS CAZ7
 BAR2 EZ EP       1949 16.62                             169    0.4110 25.0 183 
 BAR2 EZ ES       1949 30.33                             169   -0.5010 25.0 183 
 BAR2 EZ I        1949 32.45        32.4 0.32            169           25.0 183 
 BRR  HZ IP     D 1949 18.33                             152    0.7310 67.9 298 
 BRR  HE ES       1949 33.63                             152    0.3310 67.9 298 
 BRR  HZ I        1949 35.86        24.0 0.36            151           67.9 298 
 PAM  SZ EP       1949 19.32                             149    0.4410 77.6  42 
 PAM  SE ES       1949 35.75                             149    0.1710 77.6  42 
 PAM  SZ I        1949 38.43        32.5 0.50            152           77.6  42 
 RUS  HZ EP       1949 20.62                             141   -0.0210  103 175 
 RUS  HE ES       1949 38.20                             141   -0.5110  103 175 
 RUS  HZ I        1949 41.15         7.4 0.18            143            103 175 
 PTB  HZ EP       1949 23.38                             131   -0.24 9  146 258 
 PTB  HN ES       1949 43.94                             131   -0.08 9  146 258 
 PTB  HZ I        1949 45.68        11.3 0.18            130            146 258 
 OCA  HZ EP       1949 24.67                             128   -0.30 9  158 354 
 OCA  HE ES       1949 46.39                             128   -0.03 9  158 354 
 OCA  HZ I        1949 49.44        18.7 0.18            129            158 354 
 ZAR  HZ EP   1   1949 29.89                             121    0.79 6  201 292 
 ZAR  HE ES       1949 54.13                             121    0.37 9  201 292 
 ZAR  HZ I        1950  0.54        14.6 0.52            121            201 292 
 SML  HZ EP       1949 32.72                             116   -0.64 8  241 336 
 SML  HN ES       1950  0.73                             116   -0.61 8  241 336 
 SML  HZ I        1950  6.00        21.0 0.10            117            241 336 
 CHI  HZ EP       1949 34.99                             115    0.09 8  250 194 
 CHI  HN ES       1950  3.91                             115   -0.18 8  250 194 
 CHI  HZ I        1950  9.03         3.1 0.44            116            250 194 
 HEL  HN ES       1950  8.28                             113    0.31 8  270 255 
 HEL  HZ I        1950 14.89         7.1 0.30            114            270 255 
 MON  HE ES       1950 22.52                             107   -0.98 6  350 308 
 MON  HZ I        1950 26.82         2.3 0.20            108            350 308 
 SJC  HZ EP   4   1949 50.62                             104   -1.81 0  406 327 
 SJC  HN ES   4   1950 30.09                             104   -5.19 0  406 327 
 SJC  HZ I        1950 36.26         3.8 0.36            105            406 327 
                                                                                
