 2012  721 1957 54.8 L   6.714 -73.189143.8  RSN  5 0.3 1.6LRSN                1
 GAP=226        0.65       4.5     5.9  6.0  0.1026E+02  0.7676E+01  0.6262E+01E
 Epicentro: VILLANUEVA - SANTANDER                                             3
 ACTION:UPD 12-08-14 11:46 OP:ep   STATUS:               ID:20120721195754 L   I
 2012-07-21-1954-46M.COL___211                                                 6
 STAT SP IPHASW D HRMM SECON CODA AMPLIT PERI AZIMU VELO AIN AR TRES W  DIS CAZ7
 BAR2 SZ EP   1   1958 13.75                             174    -0.3 7   14 177 
 BAR2 SZ ES   1   1958 29.25                             174     0.2 7   14 177 
 BAR2 SZ I        1958 32.23         9.9 0.18            167             14 177 
 BRR  HZ EP       1958 15.91                             152     0.110   72 307 
 BRR  HZ I        1958 16.27        11.6 0.19            151             72 307 
 BRR  HN ES   1   1958 32.54                             152     0.3 7   72 307 
 RUS  HZ EP   1   1958 17.61                             146    -0.2 7   92 173 
 RUS  HZ I        1958 19.02         3.2 0.19            144             92 173 
 RUS  HN ES   1   1958 35.43                             146    -0.2 7   92 173 
 PTB  HZ EP       1958 20.96                             133    -0.1 9  141 262 
 PTB  HE ES   1   1958 41.23                             133    -0.3 7  141 262 
 PTB  HZ I        1958 47.85         6.9 0.21            131            141 262 
 CHI  HZ EP   1   1958 31.82                             118     0.5 6  238 195 
 CHI  HN ES   1   1959  0.01                             118     0.3 6  238 195 
 CHI  HZ I        1959  5.42         2.4 0.33            118            238 195 
