 2010 1121 1549 54.8 L   6.794 -73.054139.5  RSN  4 0.2 1.4LRSN                1
 GAP=169        0.40       3.5     6.4  7.8 -0.3419E+00 -0.5560E+01 -0.2229E+01E
 Epicentro: LOS SANTOS - SANTANDER                                             3
 ACTION:UP  10-12-17 16:54 OP:REBC STATUS:               ID:20101121154954 L   I
 2010-11-21-1547-19S.COL___132                                                 6
 STAT SP IPHASW D HRMM SECON CODA AMPLIT PERI AZIMU VELO SNR AR TRES W  DIS CAZ7
 BTL  SZ EP   1   1550 14.05                             168     0.2 7   27 300 
 BRR  HZ EP       1550 15.78                             148    -0.110   81 296 
 BRR  HE ES   2   1550 32.34                             148     0.0 5   81 296 
 BRR  HZ I        1550 37.42         9.6 0.12                            81 296 
 RUS  HZ EP   2   1550 18.04                             143     0.1 5  100 182 
 RUS  HE ES   2   1550 35.71                             143    -0.2 5  100 182 
 RUS  HZ I        1550 37.17         1.9 0.25                           100 182 
 GRA  SZ EP   2   1550 19.20                             136    -0.2 5  124  13 
 GRA  SZ ES   2   1550 38.48                             136     0.0 5  124  13 
 GRA  SZ I        1550 40.64         6.0 0.31                           124  13 
                                                                                
