 2013 1221 1015 34.0 L   6.840 -73.488 98.9  RSN  5 0.5 1.4LRSN                1
 GAP=193        1.29       8.3     6.3 10.9  0.2992E+02  0.2529E+02  0.1323E+01E
 Epicentro: SAN VICENTE DE CHUCURI - SANTANDER                                 3
 ACTION:UPD 14-01-13 10:19 OP:ep   STATUS:               ID:20131221101534 L   I
 OLDACT:REG 13-12-21 15:48 OP:nd   STATUS:               ID:20131221101000     3
 2013-12-21-1010-00M.COL___285                                                 6
 STAT SP IPHASW D HRMM SECON CODA AMPLIT PERI AZIMU VELO AIN AR TRES W  DIS CAZ7
 BAR2 SZ EP       1015 48.83                             155   -0.0810 43.5 129 
 BAR2 SZ ES       1016  0.58                             155    0.0810 43.5 129 
 BAR2 SZ I        1016  2.42        22.9 0.30            156           43.5 129 
 PTB  HZ EP       1015 53.26                             128   -0.7510  112 253 
 PTB  HN ES       1016  9.02                             128   -0.5610  112 253 
 PTB  HZ I        1016 10.86        10.5 0.46            129            112 253 
 RUS  HZ EP       1015 54.45                             128   -0.3710  114 157 
 RUS  HN ES       1016 11.55                             128    0.5310  114 157 
 RUS  HZ I        1016 15.79         2.1 0.26            129            114 157 
 ZAR  HZ EP       1015 59.64                             116   -0.19 9  168 296 
 ZAR  HN ES       1016 20.77                             116    0.82 9  168 296 
 ZAR  HZ I        1016 23.53         5.6 0.32            118            168 296 
 GUY2CHZ EP       1016 13.65                             106    0.94 8  274 229 
 GUY2CHN ES   2   1016 43.20                             106    0.33 4  274 229 
 GUY2CHZ I        1016 58.34         0.9 0.48                           274 229 
                                                                                
