 2012  321 1636 35.5 L   6.755 -73.158148.0  RSN  7 0.4 2.3LRSN                1
 GAP=137        0.87       4.9     4.4  7.1 -0.4026E+01  0.8437E+01  0.2244E-01E
 ACTION:UP  12-03-31 23:21 OP:EP   STATUS:               ID:20120321163635 L   I
 2012-03-21-1630-00M.COL___201                                                 6
 STAT SP IPHASW D HRMM SECON CODA AMPLIT PERI AZIMU VELO SNR AR TRES W  DIS CAZ7
 BAR2 SZ EP       1636 55.32                             173     0.010   18 189 
 BAR2 SZ ES   1   1637 10.64                             173    -0.1 7   18 189 
 BAR2 SZ I        1637 12.42        39.0 0.23                            18 189 
 BRR  HZ EP       1636 57.23                             152     0.210   73 302 
 BRR  HZ I        1636 57.52        86.9 0.14                            73 302 
 BRR  HE ES   1   1637 14.50                             152     0.8 7   73 302 
 PAM  SZ EP       1636 58.21                             150    -0.110   82  38 
 PAM  SN ES   1   1637 15.48                             150    -0.5 7   82  38 
 RUS  HZ EP   1   1636 59.24                             146     0.1 7   96 175 
 RUS  HN ES   1   1637 17.87                             146     0.3 7   96 175 
 RUS  HZ I        1637 19.62        13.5 0.25                            96 175 
 PTB  HZ EP   1   1637  1.94                             133    -0.5 7  146 261 
 PTB  HN ES   1   1637 23.25                             133    -0.3 7  146 261 
 PTB  HZ I        1637 25.07        17.4 0.19                           146 261 
 ZAR  HZ EP   1   1637  8.81                             123     0.6 6  205 294 
 ZAR  HN ES   1   1637 33.23                             123    -0.4 6  205 294 
 ZAR  HZ I        1637 40.54        27.6 0.43                           205 294 
 NOR  SZ EP   1   1637 11.11                             119     0.1 6  231 235 
 NOR  SN ES       1637 38.39                             119    -0.2 8  231 235 
                                                                                
