 2013  721 1942 24.5 L   6.794 -73.121140.1  RSN 15 0.5 2.5LRSN                1
 GAP=185        1.02       3.2     4.9  4.8 -0.2803E+01  0.8230E+01 -0.4534E+00E
 Epicentro: LOS SANTOS - SANTANDER                                             3
 ACTION:UPD 13-08-12 10:39 OP:ep   STATUS:               ID:20130721194224 L   I
 OLDACT:REG 13-07-21 16:42 OP:nd   STATUS:               ID:20130721193959     3
 2013-07-21-1939-59M.COL___267                                                 6
 STAT SP IPHASW D HRMM SECON CODA AMPLIT PERI AZIMU VELO AIN AR TRES W  DIS CAZ7
 BAR2 SZ EP     D 1942 43.72                             170    0.2910 23.3 197 
 BAR2 SZ ES       1942 58.01                             170   -0.2110 23.3 197 
 BAR2 SZ I        1942 59.58        52.0 0.22            165           23.3 197 
 GIR2 SZ IP     C 1942 43.63                             166    0.1110 32.5 346 
 GIR2 SZ ES       1942 58.56                             166    0.1910 32.5 346 
 GIR2 SZ I        1942 59.38        56.3 0.12            161           32.5 346 
 BRR  HZ IP     C 1942 45.66                             150    0.4810 73.9 298 
 BRR  HN ES       1943  1.96                             150    0.6310 73.9 298 
 BRR  HZ I        1943  6.57        61.0 0.32            145           73.9 298 
 RUS  HZ EP     C 1942 47.72                             143    0.1010 99.8 178 
 RUS  HN ES       1943  5.29                             143   -0.3810 99.8 178 
 RUS  HZ I        1943  6.74        33.3 0.24            145           99.8 178 
 PTB  HZ EP       1942 50.48                             130   -0.75 9  150 259 
 PTB  HN ES   2   1943 11.95                             130   -0.15 5  150 259 
 PTB  HZ I        1943 15.16        31.9 0.48            127            150 259 
 OCA  HZ EP       1942 52.24                             128   -0.21 9  161 352 
 OCA  HN ES   2   1943 13.58                             128   -0.69 5  161 352 
 OCA  HZ I        1943 15.61        42.4 0.14            129            161 352 
 SPBC HZ EP       1942 52.73                             128    0.06 9  164 220 
 SPBC HN ES       1943 13.88                             128   -0.78 9  164 220 
 SPBC HZ I        1943 17.00        37.3 0.66            127            164 220 
 ZAR  HZ EP       1942 57.07                             121    0.22 8  207 292 
 ZAR  HE ES   2   1943 21.86                             121   -0.25 4  207 292 
 ZAR  HZ I        1943 31.84        26.5 0.36            119            207 292 
 NOR  HZ EP       1943  0.22                             117    0.13 8  237 235 
 NOR  HN ES       1943 27.39                             117   -0.48 8  237 235 
 NOR  HZ I        1943 29.31        21.5 0.14            117            237 235 
 SML  HZ EP       1943  0.46                             116   -0.53 8  245 335 
 SML  HN ES   2   1943 30.30                             116    0.84 4  245 335 
 SML  HZ I        1943 33.91        57.4 0.10            116            245 335 
 HEL  HZ EP       1943  5.52                             113    0.83 8  275 256 
 HEL  HN ES       1943 36.14                             113    0.08 8  275 256 
 HEL  HZ I        1943 45.32        10.5 0.22            113            275 256 
 RREF HZ EP   4   1943 12.94                             110    2.36 0  323 230 
 RREF HN ES   4   1943 48.82                             110    2.29 0  323 230 
 RREF HZ I        1943 52.51        12.2 0.50            110            323 230 
 PRA  HZ EP       1943 18.09                             105    0.18 6  393 210 
 PRA  HN ES   2   1943 59.52                             105   -0.06 3  393 210 
 PRA  HZ I        1944  6.35         9.1 0.26            106            393 210 
 ORTC HZ EP       1943 19.05                             105    0.71 6  397 217 
 ORTC HN ES       1944  1.08                             105    0.73 6  397 217 
 ORTC HZ I        1944  5.72         6.7 0.68            106            397 217 
 SJC  HZ EP       1943 19.00                             105   -1.10 6  411 327 
 SJC  HN ES   4   1943 59.95                             105   -3.54 0  411 327 
 SJC  HZ I        1944  3.22         8.1 0.62            105            411 327 
                                                                                
