 2012  121 1305 42.3 L   6.749 -73.147146.6  RSN  5 0.2 1.5LRSN                1
 GAP=233        0.52       5.4     5.0  5.6  0.1689E+02  0.3732E+01 -0.2966E+00E
 Epicentro: LOS SANTOS - SANTANDER                                             3
 ACTION:UP  12-02-03 08:19 OP:REBC STATUS:               ID:20120121130542 L   I
 2012-01-21-1300-00M.COL___186                                                 6
 STAT SP IPHASW D HRMM SECON CODA AMPLIT PERI AZIMU VELO SNR AR TRES W  DIS CAZ7
 BAR2 SZ EP   1   13 6  1.96                             173     0.0 7   18 193 
 BAR2 SZ I        13 6  2.53         6.9 0.09                            18 193 
 BAR2 SZ ES   1   13 6 17.36                             173     0.1 7   18 193 
 BRR  HZ EP   1   13 6  4.05                             152     0.3 7   74 302 
 BRR  HZ I        13 6  5.33        14.2 0.44                            74 302 
 BRR  HN ES   1   13 6 20.09                             152    -0.3 7   74 302 
 RUS  HZ EP   1   13 6  5.64                             146    -0.1 7   95 176 
 RUS  HE ES   1   13 6 24.20                             146     0.1 7   95 176 
 RUS  HZ I        13 6 25.79         1.8 0.28                            95 176 
 PTB  HZ EP   1   13 6  8.98                             132    -0.3 7  147 261 
 PTB  HN ES   1   13 6 30.30                             132     0.0 7  147 261 
 ZAR  HN ES   1   13 6 40.84                             122     0.3 6  206 294 
                                                                                
