 2013 1121 1234 50.7 L   6.787 -73.177151.0  RSN  6 0.5 1.8LRSN                1
 GAP=205        1.16       7.4     7.7  8.7  0.8798E+01  0.6743E+01 -0.2235E+02E
 Epicentro: LOS SANTOS - SANTANDER                                             3
 ACTION:UPD 14-01-09 16:30 OP:ep   STATUS:               ID:20131121123450 L   I
 OLDACT:REG 13-11-21 15:41 OP:nd   STATUS:               ID:20131121123000     3
 2013-11-21-1230-00M.COL___282                                                 6
 STAT SP IPHASW D HRMM SECON CODA AMPLIT PERI AZIMU VELO AIN AR TRES W  DIS CAZ7
 BAR2 SZ EP       1235 10.90                             172   -0.0610 21.6 182 
 BAR2 SZ ES       1235 26.52                             172   -0.2210 21.6 182 
 BAR2 SZ I        1235 28.81        11.1 0.44            171           21.6 182 
 BRR  HZ EP       1235 13.00                             154    0.6710 68.9 301 
 BRR  HN ES       1235 29.60                             154    0.4310 68.9 301 
 BRR  HZ I        1235 36.04        10.5 0.22            151           68.9 301 
 PTB  HZ EP       1235 17.66                             134   -0.15 9  144 259 
 PTB  HN ES       1235 38.18                             134   -0.75 9  144 259 
 PTB  HZ I        1235 46.12         7.9 0.38            134            144 259 
 ZAR  HZ EP       1235 23.55                             124    0.29 9  201 293 
 ZAR  HN ES       1235 49.18                             124    0.55 9  201 293 
 ZAR  HZ I        1235 54.88         7.5 0.52            125            201 293 
 SML  HZ EP       1235 27.37                             118   -0.27 8  244 336 
 SML  HN ES       1235 55.69                             118   -0.74 8  244 336 
 SML  HZ I        1236  0.56         8.2 0.10            121            244 336 
 GUY2CHZ EP   4   1235 36.15                             114    1.97 0  298 235 
 GUY2CHN ES   4   1236 12.23                             114    4.16 0  298 235 
 GUY2CHZ I        1236 19.39         2.2 0.66                           298 235 
                                                                                
