 2012  621 1907 52.6 L   6.732 -73.080145.5  RSN  5 0.4 1.5LRSN                1
 GAP=148        0.67       5.2     6.6  7.5  0.9695E+01 -0.4634E+01 -0.5319E+01E
 Epicentro: JORDAN - SANTANDER                                                 3
 ACTION:UPD 12-08-06 17:51 OP:ep   STATUS:               ID:20120621190752 L   I
 2012-06-21-1900-00M.COL___199                                                 6
 STAT SP IPHASW D HRMM SECON CODA AMPLIT PERI AZIMU VELO AIN AR TRES W  DIS CAZ7
 BAR2 SZ EP   1   19 8 11.86                             172   -0.28 7 19.1 216 
 BAR2 SZ ES   1   19 8 26.99                             172   -0.37 7 19.1 216 
 BAR2 SZ I        19 8 28.77         9.3 0.29                          19.1 216 
 PAM  SZ EP   1   19 8 15.21                             150    0.30 7 79.3  32 
 PAM  SE ES   2   19 8 31.95                             150   -0.36 5 79.3  32 
 BRR  HZ EP   1   19 8 14.59                             149    0.26 7 81.2 301 
 BRR  HE ES   1   19 8 31.64                             149    0.37 7 81.2 301 
 RUS  HZ EP   1   19 8 15.54                             146   -0.25 7 92.8 180 
 RUS  HE ES   1   19 8 34.23                             146    0.36 7 92.8 180 
 RUS  HZ I        19 8 35.82         4.9 0.34                          92.8 180 
 ZAR  HE ES   2   19 8 51.37                             121   -0.73 4  214 293 
                                                                                
