 2016  921 1941 32.8 L   6.775 -73.073144.4  RSN 13 0.4 2.1LRSN                1
 GAP=104        0.81       3.0     3.5  3.9 -0.3433E+01 -0.2597E-01  0.2114E+01E
 Epicentro: LOS SANTOS - SANTANDER                                             3
 ACTION:UPD 17-08-17 21:14 OP:lp   STATUS:               ID:20160921194132 L   I
 OLDACT:UP  16-09-22 00:15 OP:ar   STATUS:               ID:20160921193737     3
 OLDACT:REG 16-09-21 21:30 OP:edw  STATUS:               ID:20160921193737     3
 2016-09-21-1938-00M.COL___341                                                 6
 STAT SP IPHASW D HRMM SECON CODA AMPLIT PERI AZIMU VELO AIN AR TRES W  DIS CAZ7
 BAR2 EZ EP       1941 52.17                             170   -0.1010 23.6 211 
 BAR2 EZ ES       1942  7.18                             170   -0.2710 23.6 211 
 BAR2 EZ I        1942  8.72        44.2 0.22            167           23.6 211 
 PAM  EZ EP       1941 55.06                             151    0.3410 74.8  33 
 PAM  EN ES       1942 12.25                             151    0.4410 74.8  33 
 PAM  EZ I        1942 15.30        11.4 0.50            156           74.8  33 
 BRR  HZ EP       1941 53.95                             150   -0.3510 79.6 298 
 BRR  HN ES       1942 10.76                             150   -0.3010 79.6 298 
 BRR  HZ I        1942 14.94        22.2 0.26            148           79.6 298 
 RUS  HZ EP       1941 56.14                             144   -0.0610 97.6 181 
 RUS  HE ES       1942 14.86                             144    0.4110 97.6 181 
 RUS  HZ I        1942 16.33         9.5 0.40            145           97.6 181 
 PTB  HZ EP   9   1941 59.16                             130   -1.18 0  155 260 
 PTB  HN ES       1942 20.50                             131   -0.14 9  155 260 
 PTB  HZ I        1942 26.19        14.7 0.48            130            155 260 
 SPBC HZ EP       1942  1.34                             128   -0.15 9  166 222 
 SPBC HN ES       1942 24.03                             128    0.16 9  166 222 
 SPBC HZ I        1942 31.03        24.6 0.24            128            166 222 
 ZAR  HZ EP       1942  6.47                             121    0.43 8  213 292 
 ZAR  HN ES   4   1942 29.84                             121   -2.12 0  213 292 
 ZAR  HZ I        1942 35.33        16.9 0.36            121            213 292 
 NOR  HZ EP       1942  8.32                             118   -0.67 8  240 236 
 NOR  HE ES       1942 37.14                             118   -0.08 8  240 236 
 NOR  HZ I        1942 45.88         6.6 0.16            118            240 236 
 CHI  HZ EP       1942 10.78                             117    0.40 8  248 197 
 CHI  HN ES       1942 39.72                             117    0.03 8  248 197 
 CHI  HZ I        1942 43.56         6.2 0.24            118            248 197 
 HEL  HZ EP   2   1942 14.16                             114    0.42 4  279 257 
 HEL  HE ES   2   1942 45.93                             114    0.26 4  279 257 
 HEL  HZ I        1942 50.18         8.2 0.28            114            279 257 
 SOCV BZ EP       1942 14.83                             112   -0.37 7  296  56 
 PTGC HZ EP       1942 15.29                             112   -0.69 7  303 160 
 PTGC HN ES   4   1942 48.79                             112   -0.87 0  303 160 
 PTGC HZ I        1942 50.92         8.4 0.54            113            303 160 
 GUY2CHZ EP       1942 17.36                             112    0.45 7  306 236 
 GUY2CHN ES   4   1942 54.44                             112    3.12 0  306 236 
 GUY2CHZ I        1942 58.36         8.3 0.34                           306 236 
                                                                                
