 2016 1221 1253 46.4 L   6.801 -73.208142.0  RSN  7 0.5 1.7LRSN                1
 GAP=129        0.95       4.6     5.4  7.7 -0.7151E+01  0.1134E+02  0.1321E+01E
 Epicentro: ZAPATOCA - SANTANDER                                               3
 ACTION:UPD 17-01-11 20:17 OP:rebc STATUS:               ID:20161221125346 L   I
 OLDACT:UP  16-12-21 22:37 OP:dani STATUS:               ID:20161221124747d    3
 OLDACT:UP  16-12-21 22:36 OP:dani STATUS:               ID:20161221124747d    3
 OLDACT:DUP 16-12-21 22:14 OP:dani STATUS:               ID:20161221124747d    3
 OLDACT:UP  16-12-21 22:13 OP:dani STATUS:               ID:20161221124746d    3
 OLDACT:REG 16-12-21 20:12 OP:dani STATUS:               ID:20161221124746d    3
 2016-12-21-1248-00M.COL___372                                                 6
 STAT SP IPHASW D HRMM SECON CODA AMPLIT PERI AZIMU VELO AIN AR TRES W  DIS CAZ7
 BAR2 EZ EP       1254  5.39                             170   -0.1710 23.2 173 
 BAR2 EZ ES       1254 20.98                             170    0.4610 23.2 173 
 BAR2 EZ I        1254 21.58        11.4 0.18            172           23.2 173 
 BRR  HZ EP   2   1254  7.60                             154    0.81 5 65.2 301 
 PAM  EZ EP       1254  8.64                             149    0.1610 81.9  43 
 PAM  EE ES       1254 25.75                             149    0.0310 81.9  43 
 PAM  EZ I        1254 28.57         7.5 0.52            150           81.9  43 
 RUS  HZ EP       1254  9.20                             143   -0.6310  101 172 
 RUS  HE ES       1254 27.86                             143   -0.2510  101 172 
 RUS  HZ I        1254 29.20        11.1 0.34            145            101 172 
 PTB  HZ EP       1254 12.22                             133   -0.21 9  141 258 
 PTB  HE ES       1254 32.62                             133   -0.13 9  141 258 
 PTB  HZ I        1254 34.20         5.1 0.14            135            141 258 
 CHI  HN ES       1254 53.51                             116    0.71 8  247 194 
 GUY2CHZ EP   3   1254 30.96                             112    1.77 2  296 234 
                                                                                
