 2012  821 1255 37.5 L   6.541 -73.475110.9  RSN  4 0.3 1.8LRSN                1
 GAP=156        0.64       7.5    10.9 10.0  0.7116E+02  0.5888E+02  0.4115E+02E
 Epicentro: EL CARMEN DE CHUCURI - SANTANDER                                   3
 ACTION:UPD 12-09-10 11:57 OP:ep   STATUS:               ID:20120821125537 L   I
 2012-08-21-1250-00M.COL___217                                                 6
 STAT SP IPHASW D HRMM SECON CODA AMPLIT PERI AZIMU VELO AIN AR TRES W  DIS CAZ7
 BAR2 SZ EP   1   1255 53.34                             161    0.08 7 32.9  80 
 BAR2 SZ ES   1   1256  6.04                             161    0.49 7 32.9  80 
 BAR2 SZ I        1256  7.54        62.6 0.55                          32.9  80 
 BRR  HN ES       1256  7.98                             146   -0.2810 67.9 337 
 RUS  HZ EP   1   1255 56.58                             140   -0.05 7 83.8 149 
 RUS  HN ES       1256 11.43                             140   -0.1310 83.8 149 
 RUS  HZ I        1256 13.62         4.5 0.22                          83.8 149 
 ZAR  HN ES   2   1256 28.66                             116    0.63 4  186 305 
                                                                                
