 2012  421 1023 33.2 L   7.362 -73.304119.4  RSN  6 0.3 1.6LRSN                1
 GAP=177        0.57       4.6     3.1  6.0  0.2739E+01  0.6943E+00  0.3423E+00E
 Epicentro: EL PLAYON - SANTANDER                                              3
 ACTION:UPD 12-07-05 11:55 OP:tino STATUS:               ID:20120421102333 L   I
 2012-04-21-1020-00M.COL___186                                                 6
 STAT SP IPHASW D HRMM SECON CODA AMPLIT PERI AZIMU VELO AIN AR TRES W  DIS CAZ7
 BRR  HE ES   1   1024  4.11                             154     0.1 7   53 238 
 PAM  SZ EP   1   1023 51.85                             149    -0.1 7   67  92 
 PAM  SE ES   2   1024  6.79                             149     0.2 5   67  92 
 BAR2 SZ EP       1023 53.12                             142     0.210   86 171 
 BAR2 SZ ES   1   1024  8.17                             142    -0.2 7   86 171 
 BAR2 SZ I        1024 10.26        16.4 0.29                            86 171 
 PTB  HZ EP   1   1023 58.82                             123    -0.2 7  157 235 
 PTB  HN ES   1   1024 19.56                             123     0.4 7  157 235 
 RUS  HZ EP   1   1024  0.80                             122     0.3 7  164 171 
 RUS  HN ES   1   1024 21.36                             122    -0.4 7  164 171 
 ZAR  HN ES   1   1024 21.72                             121    -0.3 7  172 275 
 ZAR  HZ I        1024 25.43         3.2 0.10                           172 275 
                                                                                
