 2011  621 1851 30.1 L   6.758 -73.129141.5  RSN 11 0.4 2.2LRSN                1
 GAP=141        0.98       5.5     6.8  6.2 -0.1735E+02  0.6638E+01  0.5782E+00E
 Epicentro: LOS SANTOS - SANTANDER                                             3
 ACTION:UP  11-07-14 19:07 OP:ep   STATUS:               ID:20110621185130 L   I
 2011-06-21-1849-08S.COL___140                                                 6
 STAT SP IPHASW D HRMM SECON CODA AMPLIT PERI AZIMU VELO SNR AR TRES W  DIS CAZ7
 BAR2 SZ IP       1851 49.17                             172     0.110   19 198 
 BAR2 SZ ES   1   1852  3.10                             172    -0.8 7   19 198 
 BAR2 SZ I        1852  5.18        43.8 0.26                            19 198 
 BTL  SZ IP       1851 49.32                             170     0.110   23 319 
 BTL  SZ ES   1   1852  4.06                             170     0.0 7   23 319 
 GIR2 SZ EP       1851 49.36                             165     0.010   36 349 
 BRR  HZ EP       1851 51.06                             150     0.110   75 301 
 BRR  HN ES   1   1852  8.09                             150     0.8 7   75 301 
 BRR  HZ I        1852 12.11        45.1 0.13                            75 301 
 PAM  SZ IP       1851 52.20                             149     0.210   80  36 
 PAM  SN ES   1   1852  8.68                             149    -0.4 7   80  36 
 RUS  HZ EP       1851 53.56                             144     0.510   96 177 
 RUS  HZ I        1852 12.43         8.8 0.25                            96 177 
 BRI  SZ EP       1851 53.88                             140     0.010  112  19 
 GRA  SZ IP       1851 55.16                             135    -0.110  130  16 
 GRA  SZ I        1851 56.43        31.6 0.22                           130  16 
 GRA  SZ ES   1   1852 14.96                             135     0.1 7  130  16 
 OCA  SZ IP       1851 57.96                             128    -0.5 9  165 353 
 OCA  SZ I        1852 23.64        28.1 0.18                           165 353 
 NOR  SZ EP       1852  4.85                             118    -0.6 8  234 236 
 NOR  SN ES   2   1852 32.73                             118    -0.3 4  234 236 
 DBB  SZ EP       1852 17.68                             109     0.1 7  342 275 
                                                                                
