 2017  121 1744 14.0 L   7.074 -73.443109.2  RSN  7 0.5 1.7LRSN                1
 GAP=144        1.33       5.6     4.4  9.6 -0.3746E+00  0.1452E+02  0.1272E-01E
 Epicentro: SAN VICENTE DE CHUCURI - SANTANDER                                 3
 ACTION:UPD 17-05-22 16:01 OP:jn   STATUS:               ID:20170121174414 L   I
 OLDACT:REG 17-01-21 21:45 OP:cog  STATUS:               ID:20170121173741     3
 2017-01-21-1738-00M.COL___352                                                 6
 STAT SP IPHASW D HRMM SECON CODA AMPLIT PERI AZIMU VELO AIN AR TRES W  DIS CAZ7
 BRR  HZ EP       1744 28.89                             164   -0.2110 29.9 277 
 BRR  HE ES       1744 40.42                             164   -0.4510 29.9 277 
 BRR  HZ I        1744 41.05        26.0 0.12            164           29.9 277 
 BAR2 EZ EP       1744 30.60                             149   -0.3710 60.6 152 
 BAR2 EZ ES       1744 44.65                             149    0.4510 60.6 152 
 BAR2 EZ I        1744 45.64        25.7 0.26            150           60.6 152 
 PAM  EZ EP       1744 33.19                             139   -0.0510 87.2  70 
 PAM  EN ES       1744 48.38                             139    0.1310 87.2  70 
 PAM  EZ I        1744 50.79         4.1 0.34            141           87.2  70 
 PTB  HZ EP       1744 34.95                             127   -1.1910  127 242 
 PTB  HN ES       1744 53.28                             127   -0.1310  127 242 
 PTB  HZ I        1744 57.45         6.3 0.16            128            127 242 
 RUS  HE ES       1744 56.68                             125    0.39 9  137 163 
 ZAR  HZ EP       1744 40.56                             119    0.72 9  163 287 
 ZAR  HE ES       1745  0.72                             119    0.71 9  163 287 
 NOR  HE ES       1745 13.61                             110    0.27 8  230 223 
                                                                                
