 2014  321 1500 42.8 L   6.791 -73.163146.9  RSN 17 0.4 2.5LRSN                1
 GAP=135        0.88       2.9     3.6  5.3 -0.1569E+01  0.4194E+01  0.3064E+01E
 Epicentro: LOS SANTOS - SANTANDER                                             3
 OLDACT:REG 14-03-21 15:15 OP:y    STATUS:               ID:20140321145807     3
 ACTION:UPD 14-04-09 23:19 OP:nd   STATUS:               ID:20140321150042 L   I
 OLDACT:UP  14-03-21 17:54 OP:fm   STATUS:               ID:20140321145807     3
 2014-03-21-1458-07M.COL___247                                                 6
 STAT SP IPHASW D HRMM SECON CODA AMPLIT PERI AZIMU VELO AIN AR TRES W  DIS CAZ7
 BAR2 SZ IP     D 15 1  2.51                             171   -0.0410 22.0 186 
 BAR2 SZ ES   1   15 1 18.03                             171    0.08 7 22.0 186 
 BAR2 SZ I        15 1 18.99       158.6 0.30            167           22.0 186 
 BRR  HZ EP       15 1  4.25                             153    0.2310 70.1 300 
 BRR  HN ES       15 1 21.22                             153    0.6610 70.1 300 
 BRR  SZ I        15 1 21.92        58.0 0.10            148           70.1 300 
 PAM  SZ EP       15 1  5.39                             150    0.1310 79.4  40 
 PAM  SN ES       15 1 22.44                             150   -0.3410 79.4  40 
 PAM  SZ I        15 1 24.45        31.8 0.50            148           79.4  40 
 RUS  HZ EP   1   15 1  6.73                             144    0.12 7 99.7 175 
 RUS  HN ES   2   15 1 25.07                             144   -0.10 5 99.7 175 
 RUS  SZ I        15 1 26.35        29.4 0.42            138           99.7 175 
 PTB  HZ EP       15 1  9.32                             133   -0.36 9  146 259 
 PTB  HN ES       15 1 29.95                             133   -0.70 9  146 259 
 PTB  SZ I        15 1 34.69        26.8 0.22            126            146 259 
 OCA  HN ES   1   15 1 33.00                             130   -0.50 7  161 354 
 SPBC HZ EP       15 1 11.38                             130    0.17 9  161 219 
 SPBC HN ES   1   15 1 32.66                             130   -0.70 7  161 219 
 SPBC SZ I        15 1 38.03        45.8 0.22            123            161 219 
 ZAR  HZ EP       15 1 15.00                             123   -0.19 9  203 293 
 ZAR  HN ES   1   15 1 40.86                             123    0.41 6  203 293 
 ZAR  SZ I        15 1 47.17        30.6 0.36            117            203 293 
 NOR  HZ EP       15 1 18.57                             119    0.19 8  233 234 
 NOR  HN ES       15 1 46.27                             119    0.15 8  233 234 
 NOR  SZ I        15 1 53.25        16.8 0.20            113            233 234 
 SML  HZ EP   1   15 1 18.83                             118   -0.69 6  244 336 
 SML  HN ES   1   15 1 49.11                             118    0.96 6  244 336 
 SML  SZ I        15 1 56.65        35.5 0.08            113            244 336 
 CHI  HZ EP       15 1 20.47                             117    0.06 8  247 195 
 CHI  HN ES       15 1 50.09                             117    0.35 8  247 195 
 CHI  SZ I        15 1 55.89        14.9 0.90            112            247 195 
 ROSC BZ EP   4   15 1 22.69                             117    1.90 0  251 211 
 ROSC SZ I        15 1 51.10        41.7 1.40            111            251 211 
 ROSC BN ES   4   15 1 52.57                             117    2.16 0  251 211 
 HEL  HZ EP   4   15 1 24.15                             115    1.30 0  270 256 
 HEL  HN ES   2   15 1 54.70                             115    0.62 4  270 256 
 URE  HE ES   4   15 1 53.77                             114   -1.97 0  282 292 
 GUY2CHZ EP   4   15 1 27.78                             113    1.55 0  299 235 
 GUY2CHN ES   4   15 1 59.10                             113   -1.00 0  299 235 
 GUY2CSZ I        15 2  6.36        16.5 0.98                           299 235 
 RREF HZ EP   4   15 1 31.43                             111    2.67 0  320 229 
 RREF HN ES   4   15 2  7.60                             111    3.00 0  320 229 
 RREF SZ I        15 2 13.40        19.0 0.94            106            320 229 
 DBB  SZ EP   4   15 1 33.51                             110    3.39 0  338 274 
 DBB  SZ ES   1   15 2  6.46                             110   -0.57 5  338 274 
 DBB  SZ I        15 2 10.69        42.2 1.42            105            338 274 
 COD  HN ES   4   15 2  3.68                             109   -5.49 0  349 355 
 ORTC HZ EP   2   15 1 37.22                             107    0.68 3  393 216 
 ORTC HN ES   4   15 2 20.23                             107    1.78 0  393 216 
 ORTC SZ I        15 2 22.60         8.3 0.76            102            393 216 
                                                                                
