 2017  221 1802 52.6 L   6.281 -73.580130.9  RSN  7 0.4 1.4LRSN                1
 GAP= 76        1.04       3.7     4.2  8.0  0.3099E+01  0.1169E+02  0.9436E+01E
 Epicentro: SANTA HELENA DEL OPON - SANTANDER                                  3
 ACTION:UPD 17-05-24 15:39 OP:jn   STATUS:               ID:20170221180252 L   I
 OLDACT:DUP 17-02-21 23:54 OP:cog  STATUS:               ID:20170221175740d    3
 OLDACT:UP  17-02-21 23:53 OP:cog  STATUS:               ID:20170221175739     3
 OLDACT:UP  17-02-21 23:52 OP:cog  STATUS:               ID:20170221175739     3
 OLDACT:REG 17-02-21 21:28 OP:cog  STATUS:               ID:20170221175739     3
 2017-02-21-1758-00M.COL___382                                                 6
 STAT SP IPHASW D HRMM SECON CODA AMPLIT PERI AZIMU VELO AIN AR TRES W  DIS CAZ7
 BAR2 EZ EP       18 3 11.49                             156   -0.1910 55.9  52 
 BAR2 EZ ES       18 3 26.31                             156   -0.2310 55.9  52 
 RUS  HZ EP       18 3 12.29                             151   -0.5310 69.8 128 
 RUS  HE ES       18 3 28.49                             151   -0.0810 69.8 128 
 RUS  HZ I        18 3 29.91         3.9 0.32            157           69.8 128 
 BRR  HZ EP       18 3 13.64                             142   -0.0110 92.5 351 
 BRR  HE ES       18 3 30.90                             142    0.8610 92.5 351 
 BRR  HZ I        18 3 47.53        11.3 0.38            147           92.5 351 
 PTB  HZ EP       18 3 14.58                             140    0.2510  101 286 
 PTB  HE ES       18 3 31.26                             140    0.0110  101 286 
 PTB  HZ I        18 3 34.72         4.3 0.22            144            101 286 
 NOR  HZ EP       18 3 20.33                             125    0.33 9  163 241 
 NOR  HN ES       18 3 40.90                             125   -0.44 9  163 241 
 NOR  HZ I        18 3 44.29         4.7 0.14            131            163 241 
 CHI  HZ EP       18 3 22.84                             122    0.33 9  183 185 
 CHI  HN ES       18 3 46.14                             122    0.32 9  183 185 
 CHI  HZ I        18 3 54.23         1.8 0.50            129            183 185 
 ZAR  HN ES       18 3 46.30                             120   -0.67 9  195 314 
                                                                                
