 2012  821 1235 34.3 L   6.750 -73.121149.7  RSN  5 0.3 1.5LRSN                1
 GAP=142        0.50       4.5     4.8  5.5  0.6991E+01 -0.4641E+01  0.5124E+00E
 Epicentro: LOS SANTOS - SANTANDER                                             3
 ACTION:UPD 12-09-10 11:57 OP:ep   STATUS:               ID:20120821123534 L   I
 2012-08-21-1230-00M.COL___217                                                 6
 STAT SP IPHASW D HRMM SECON CODA AMPLIT PERI AZIMU VELO AIN AR TRES W  DIS CAZ7
 BAR2 SZ EP   1   1235 54.28                             172   -0.03 7 18.8 201 
 BAR2 SZ ES   1   1236  9.73                             172   -0.20 7 18.8 201 
 BAR2 SZ I        1236 11.02        14.9 0.22                          18.8 201 
 BRR  HZ EP   1   1235 56.17                             151    0.02 7 76.3 301 
 BRR  HN ES       1236 13.46                             151    0.2510 76.3 301 
 BRR  HZ I        1236 14.31         9.5 0.25                          76.3 301 
 PAM  SZ EP   1   1235 57.20                             151    0.13 7 80.0  36 
 PAM  SN ES   2   1236 14.47                             151   -0.39 5 80.0  36 
 PAM  SZ I        1236 16.85         5.4 0.27                          80.0  36 
 RUS  HZ EP   1   1235 58.11                             146    0.08 7 94.9 177 
 RUS  HN ES   2   1236 16.51                             146   -0.05 5 94.9 177 
 RUS  HZ I        1236 19.75         2.2 0.29                          94.9 177 
 ZAR  HN ES   2   1236 32.53                             122   -0.82 4  209 293 
                                                                                
