 2016  521 1655 13.2 L   7.420 -73.192130.6  RSN 10 0.5 2.1LRSN                1
 GAP=101        1.03       4.0     4.0  5.9 -0.1673E+01  0.6796E+01 -0.1114E+01E
 Epicentro: EL PLAYON - SANTANDER                                              3
 ACTION:UPD 16-08-18 17:48 OP:cam  STATUS:               ID:20160521165513 L   I
 OLDACT:UP  16-05-21 21:31 OP:drio STATUS:               ID:20160521164742     3
 OLDACT:REG 16-05-21 19:43 OP:drio STATUS:               ID:20160521164742     3
 2016-05-21-1647-42M.COL___298                                                 6
 STAT SP IPHASW D HRMM SECON CODA AMPLIT PERI AZIMU VELO AIN AR TRES W  DIS CAZ7
 PAM  EZ EP       1655 32.83                             156    0.3210 55.1  99 
 PAM  EE ES       1655 47.82                             156    0.2310 55.1  99 
 PAM  EZ I        1655 49.60        18.2 0.40            158           55.1  99 
 BRR  HZ EP       1655 32.55                             151    0.1010 67.1 239 
 BRR  HE ES       1655 47.84                             151    0.3510 67.1 239 
 BRR  HZ I        1655 48.46        58.0 0.10            150           67.1 239 
 BAR2 EZ EP       1655 34.45                             143    0.0310 91.6 179 
 BAR2 EZ ES       1655 50.68                             143   -0.3210 91.6 179 
 BAR2 EZ I        1655 51.83        43.6 0.40            143           91.6 179 
 RUS  HZ EP       1655 41.65                             125   -0.05 9  169 176 
 RUS  HN ES       1656  3.66                             125   -0.29 9  169 176 
 RUS  HZ I        1656  5.62         5.7 0.26            125            169 176 
 PTB  HZ EP       1655 40.98                             124   -0.19 9  170 235 
 PTB  HE ES       1656  2.44                             124   -0.57 9  170 235 
 PTB  HZ I        1656  6.48        17.7 0.42            124            170 235 
 ZAR  HZ EP       1655 42.52                             122   -0.05 9  184 273 
 ZAR  HN ES       1656  6.03                             122    0.53 9  184 273 
 ZAR  HZ I        1656  8.97        22.3 0.42            122            184 273 
 SPBC HZ EP       1655 46.81                             117    0.48 8  218 207 
 SPBC HN ES       1656 11.60                             117   -0.59 8  218 207 
 SPBC HZ I        1656 18.39        11.2 0.26            117            218 207 
 LL6C HZ EP       1655 49.57                             113   -0.82 8  256 358 
 LL6C HE ES   4   1656 17.21                             113   -2.22 0  256 358 
 LL6C HZ I        1656 19.77         8.6 0.42            114            256 358 
 NOR  HZ EP       1655 53.22                             111    0.43 7  277 222 
 NOR  HE ES       1656 23.03                             111   -0.66 7  277 222 
 PRA  HZ EP       1656 13.99                             101    0.79 5  451 205 
 PRA  HN ES       1657  1.31                             101    1.28 5  451 205 
 PRA  HZ I        1657  8.14         3.5 0.28            102            451 205 
                                                                                
