 2015  121 1259 42.2 L   6.718 -73.158146.0  RSN  4 0.3 1.4LRSN                1
 GAP=246        0.73       5.7     7.3  8.1  0.4931E+01 -0.6242E+01  0.2027E+02E
 Epicentro: VILLANUEVA - SANTANDER                                             3
 ACTION:UPD 15-03-02 15:41 OP:nd   STATUS:               ID:20150121125942 L   I
 OLDACT:REG 15-01-21 20:49 OP:spq  STATUS:               ID:20150121125744     3
 2015-01-21-1257-44M.COL___268                                                 6
 STAT SP IPHASW D HRMM SECON CODA AMPLIT PERI AZIMU VELO AIN AR TRES W  DIS CAZ7
 BAR2 EZ EP       13 0  1.40                             174   -0.3510 14.1 191 
 BAR2 EZ ES   1   13 0 17.17                             174    0.21 7 14.1 191 
 BAR2 EZ I        13 0 19.29         3.0 0.32            167           14.1 191 
 BRR  HZ EP       13 0  3.49                             152   -0.1310 74.9 305 
 BRR  HN ES       13 0 20.61                             152    0.3110 74.9 305 
 BRR  HZ I        13 0 22.04        12.2 0.36            150           74.9 305 
 PTB  HN ES   1   13 0 29.51                             133   -0.31 7  145 262 
 PTB  HZ I        13 0 35.09         3.0 0.48            131            145 262 
 CHI  HZ EP   1   13 0 19.67                             118    0.71 6  239 195 
 CHI  HN ES   1   13 0 47.49                             118   -0.12 6  239 195 
 CHI  HZ I        13 0 51.34         0.9 0.30            119            239 195 
                                                                                
