 2015  121 1003  7.8 L   6.499 -73.475117.9  RSN 10 0.3 1.4LRSN                1
 GAP= 75        0.64       2.5     3.6  5.7 -0.3333E+01  0.1058E+02 -0.5275E+01E
 Epicentro: SIMACOTA - SANTANDER                                               3
 ACTION:UPD 15-03-02 15:41 OP:nd   STATUS:               ID:20150121100307 L   I
 OLDACT:DUP 15-01-21 23:00 OP:spq  STATUS:               ID:20150121095739d    3
 2015-01-21-0957-38M.COL___268                                                 6
 STAT SP IPHASW D HRMM SECON CODA AMPLIT PERI AZIMU VELO AIN AR TRES W  DIS CAZ7
 BAR2 EZ EP   1   10 3 24.57                             163    0.14 8 34.0  72 
 BAR2 EZ ES   1   10 3 37.32                             163   -0.07 8 34.0  72 
 BAR2 EZ I        10 3 38.53        25.1 0.50            161           34.0  72 
 RUS  HE ES   1   10 3 42.80                             144    0.25 8 79.9 147 
 RUS  HZ I        10 3 44.74         1.6 0.18            141           79.9 147 
 PTB  HZ EP   4   10 3 27.63                             134   -1.34 0  109 272 
 PTB  HN ES   4   10 3 42.19                             134   -3.28 0  109 272 
 PTB  HZ I        10 3 43.72         6.2 0.20            133            109 272 
 SPBC HZ EP   1   10 3 29.46                             133   -0.14 7  115 215 
 SPBC HE ES       10 3 46.45                             133   -0.1510  115 215 
 SPBC HZ I        10 3 48.86         5.5 0.26            131            115 215 
 PAM  SZ EP       10 3 31.37                             130    0.1410  126  43 
 PAM  SE ES   1   10 3 49.24                             130   -0.25 7  126  43 
 PAM  SZ I        10 3 50.71         4.0 0.32            128            126  43 
 NOR  HZ EP       10 3 36.13                             118   -0.55 9  186 236 
 NOR  HN ES   4   10 3 57.78                             118   -1.41 0  186 236 
 NOR  HZ I        10 4  0.73         2.2 0.16            116            186 236 
 ZAR  HZ EP   1   10 3 37.36                             118    0.48 7  188 306 
 ZAR  HN ES   1   10 3 59.65                             118    0.10 7  188 306 
 ZAR  HZ I        10 4  2.16         4.4 0.54            116            188 306 
 CHI  HN ES   1   10 4  4.87                             115    0.41 6  209 188 
 CHI  HZ I        10 4  9.90         1.0 0.19            113            209 188 
 GUY2CHZ EP   1   10 3 45.07                             110    0.44 6  252 236 
 GUY2CHN ES   4   10 4 15.14                             110    1.79 0  252 236 
 GUY2CHZ I        10 4 17.05         1.3 0.30                           252 236 
 SML  HZ EP   1   10 3 44.69                             109   -0.55 6  263 346 
 SML  HN ES   1   10 4 14.70                             109    0.26 6  263 346 
 SML  HZ I        10 4 21.00         4.0 0.28            107            263 346 
                                                                                
