 2015 1021 1748 25.6 L   6.813 -73.092141.7  RSN 16 0.5 2.6LRSN                1
 GAP=169        1.14       2.9     4.8  5.8  0.1455E-01  0.5049E+01  0.1314E+01E
 Epicentro: LOS SANTOS - SANTANDER                                             3
 ACTION:UPD 15-12-22 20:41 OP:cam  STATUS:               ID:20151021174825 L   I
 OLDACT:REG 15-10-21 21:06 OP:drio STATUS:               ID:20151021174748     3
 2015-10-21-1747-48M.COL___313                                                 6
 STAT SP IPHASW D HRMM SECON CODA AMPLIT PERI AZIMU VELO AIN AR TRES W  DIS CAZ7
 BAR2 EZ IP     C 1748 45.07                             169    0.3110 26.4 202 
 BAR2 EZ ES       1748 59.36                             169   -0.3810 26.4 202 
 BAR2 EZ I        1749  0.86       114.7 0.22            166           26.4 202 
 BRR  HZ IP     D 1748 46.99                             150    0.4610 75.8 295 
 BRR  HN ES       1749  3.59                             150    0.6910 75.8 295 
 BRR  HZ I        1749  5.65        72.6 0.14            148           75.8 295 
 RUS  HZ EP       1748 49.04                             143    0.0510  102 179 
 RUS  HN ES       1749  7.79                             143    0.5110  102 179 
 RUS  HZ I        1749  8.51        42.6 0.34            143            102 179 
 OCA  HZ EP       1748 53.55                             129    0.06 9  160 351 
 OCA  HN ES       1749 14.54                             129   -0.73 9  160 351 
 OCA  HZ I        1749 19.12        82.3 0.22            130            160 351 
 SPBC HZ EP       1748 54.15                             127   -0.06 9  168 220 
 SPBC HN ES       1749 15.96                             127   -0.61 9  168 220 
 SPBC HZ I        1749 21.14        50.8 0.26            127            168 220 
 ZAR  HZ EP       1748 59.09                             121    0.84 8  209 291 
 ZAR  HN ES       1749 23.80                             121    0.05 8  209 291 
 ZAR  HZ I        1749 29.69        48.4 0.24            121            209 291 
 NOR  HZ EP       1749  1.53                             117   -0.13 8  240 235 
 NOR  HN ES       1749 29.23                             117   -0.60 8  240 235 
 NOR  HZ I        1749 31.37        24.6 0.14            117            240 235 
 SML  HZ EP       1749  1.49                             116   -0.59 8  245 334 
 SML  HN ES       1749 30.18                             116   -0.40 8  245 334 
 SML  HZ I        1749 34.52        46.3 0.10            117            245 334 
 CHI  HZ EP       1749  3.86                             116    0.50 8  252 196 
 CHI  HE ES       1749 32.34                             116   -0.50 8  252 196 
 CHI  HZ I        1749 38.43         9.5 0.38            117            252 196 
 HEL  HZ EP       1749  6.66                             113    0.42 7  278 256 
 HEL  HE ES       1749 37.48                             113   -0.50 7  278 256 
 HEL  HZ I        1749 43.83        13.2 0.42            113            278 256 
 URE  HZ EP   4   1749  9.34                             112    2.36 0  289 291 
 URE  HE ES   4   1749 36.35                             112   -2.95 0  289 291 
 URE  HZ I        1749 39.25        27.6 0.14            113            289 291 
 GUY2CHZ EP       1749 10.43                             111    0.81 7  307 235 
 GUY2CHN ES       1749 43.89                             111   -0.10 7  307 235 
 GUY2CHZ I        1749 50.03        17.8 0.30                           307 235 
 PTGC HZ EP       1749  8.22                             111   -0.92 7  308 160 
 PTGC HE ES   4   1749 41.36                             111   -1.79 0  308 160 
 ELA  HZ EP   4   1749 15.52                             109    2.66 0  335 230 
 ELA  HN ES   4   1749 48.65                             109   -1.11 0  335 230 
 ELA  HZ I        1749 58.49        10.8 0.56            109            335 230 
 MON  HZ EP   4   1749 12.83                             108   -2.00 0  357 308 
 MON  HN ES   4   1749 51.36                             108   -1.91 0  357 308 
 MON  HZ I        1749 52.05        13.3 0.18            108            357 308 
 ORTC HZ EP       1749 19.93                             105    0.05 6  400 217 
 ORTC HE ES       1750  2.42                             105    0.15 6  400 217 
 ORTC HZ I        1750  9.66         6.3 0.36            106            400 217 
                                                                                
