 2016 1221 1612 28.8 L   6.789 -73.170143.2  RSN  7 0.3 1.7LRSN                1
 GAP=134        0.70       3.4     3.1  4.8  0.1168E+01  0.2596E+01  0.3436E+01E
 Epicentro: LOS SANTOS - SANTANDER                                             3
 ACTION:UPD 17-01-11 20:17 OP:rebc STATUS:               ID:20161221161228 L   I
 OLDACT:UP  16-12-21 23:28 OP:dani STATUS:               ID:20161221160746     3
 OLDACT:UP  16-12-21 23:28 OP:dani STATUS:               ID:20161221160746     3
 OLDACT:UP  16-12-21 23:27 OP:dani STATUS:               ID:20161221160746     3
 OLDACT:REG 16-12-21 20:35 OP:dani STATUS:               ID:20161221160746     3
 2016-12-21-1608-00M.COL___372                                                 6
 STAT SP IPHASW D HRMM SECON CODA AMPLIT PERI AZIMU VELO AIN AR TRES W  DIS CAZ7
 BAR2 EZ EP       1612 48.11                             171   -0.0210 21.7 184 
 BAR2 EZ ES       1613  2.99                             171   -0.1810 21.7 184 
 BAR2 EZ I        1613  5.14        12.5 0.30            171           21.7 184 
 BRR  HE ES       1613  5.60                             153   -0.2110 69.5 301 
 BRR  HZ I        1613  6.43        19.8 0.27            154           69.5 301 
 PAM  EZ EP       1612 51.03                             149    0.0810 80.1  40 
 PAM  EN ES       1613  8.23                             149    0.0410 80.1  40 
 PAM  EZ I        1613 10.21        10.4 0.46            151           80.1  40 
 RUS  HZ EP       1612 52.28                             144    0.0210 99.5 174 
 RUS  HE ES       1613 10.85                             144    0.3210 99.5 174 
 RUS  HZ I        1613 11.93         8.3 0.30            145           99.5 174 
 PTB  HZ EP       1612 54.81                             132   -0.53 9  145 259 
 PTB  HE ES       1613 15.93                             132   -0.07 9  145 259 
 PTB  HZ I        1613 18.47         4.3 0.17            133            145 259 
 ZAR  HE ES       1613 26.52                             122    0.60 9  202 293 
 CHI  HZ EP       1613  6.26                             117    0.07 8  247 195 
                                                                                
