 2015  121 1915 18.8 L   6.790 -73.128144.0  RSN  4 0.2 1.5LRSN                1
 GAP=139        0.51       3.5     3.4  5.9 -0.1227E+01 -0.3675E+01  0.2478E+01E
 Epicentro: LOS SANTOS - SANTANDER                                             3
 ACTION:UPD 15-03-02 15:41 OP:nd   STATUS:               ID:20150121191518 L   I
 OLDACT:REG 15-01-21 21:52 OP:spq  STATUS:               ID:20150121190744     3
 2015-01-21-1907-44M.COL___250                                                 6
 STAT SP IPHASW D HRMM SECON CODA AMPLIT PERI AZIMU VELO AIN AR TRES W  DIS CAZ7
 BRR  HZ EP       1915 39.78                             152   -0.0810 73.5 299 
 BRR  HN ES       1915 56.58                             152    0.2710 73.5 299 
 BRR  HZ I        1916  2.21        11.8 0.61            150           73.5 299 
 PAM  SZ EP       1915 40.77                             151   -0.0110 77.0  38 
 PAM  SN ES   1   1915 57.73                             151   -0.21 7 77.0  38 
 PAM  SZ I        1915 59.39         4.9 0.18            158           77.0  38 
 RUS  HZ EP   1   1915 42.49                             144    0.24 7 99.3 177 
 RUS  HN ES   1   1916  0.53                             144   -0.04 7 99.3 177 
 RUS  HZ I        1916  3.44         3.8 0.38            147           99.3 177 
 PTB  HE ES   1   1916  6.43                             131   -0.37 7  149 259 
 PTB  HZ I        1916 13.94         3.9 0.36            132            149 259 
                                                                                
