 2011 1221 1132 16.4 L   6.725 -73.208155.7  RSN  4 0.2 1.3LRSN                1
 GAP=222        0.55       5.8     5.8  7.2  0.1630E+02 -0.6815E+01 -0.6218E+01E
 Epicentro: VILLANUEVA - SANTANDER                                             3
 ACTION:UPD 12-07-13 16:17 OP:ep   STATUS:               ID:20111221113216 L   I
 2011-12-21-1130-00M.COL___189                                                 6
 STAT SP IPHASW D HRMM SECON CODA AMPLIT PERI AZIMU VELO AIN AR TRES W  DIS CAZ7
 BAR2 SZ EP   1   1132 36.88                             174   -0.23 7 14.9 169 
 BAR2 SZ I        1132 52.99         6.9 0.19                          14.9 169 
 BRR  HZ EP       1132 38.68                             155    0.1010 69.9 307 
 BRR  HN ES   1   1132 55.87                             155    0.01 7 69.9 307 
 RUS  HZ EP   1   1132 41.07                             148    0.42 7 93.1 171 
 RUS  HE ES   1   1132 59.40                             148   -0.16 7 93.1 171 
 RUS  HZ I        1133  0.67         1.9 0.28                          93.1 171 
 PTB  HZ EP   1   1132 43.10                             136   -0.41 7  140 262 
 PTB  HN ES   1   1133  4.80                             136    0.17 7  140 262 
                                                                                
