 2015  721 1151 35.0 L   6.961 -73.424 22.6  RSN  6 0.4 1.6LRSN                1
 GAP=128        1.08       2.4     4.2  5.2  0.3463E+00  0.1532E+02 -0.2834E+01E
 Epicentro: SAN VICENTE DE CHUCURI - SANTANDER                                 3
 ACTION:UPD 15-09-08 21:49 OP:cam  STATUS:               ID:20150721115135 L   I
 OLDACT:REG 15-07-21 21:34 OP:ak   STATUS:               ID:20150721114749     3
 2015-07-21-1147-49M.COL___343                                                 6
 STAT SP IPHASW D HRMM SECON CODA AMPLIT PERI AZIMU VELO AIN AR TRES W  DIS CAZ7
 BAR2 EZ IP     D 1151 44.06                             113    0.2310 48.8 147 
 BAR2 EZ ES       1151 50.81                             113    0.1110 48.8 147 
 BAR2 EZ I        1151 51.81        32.6 0.20             47           48.8 147 
 PAM  EZ EP       1151 49.90                             103   -0.2110 90.3  62 
 PAM  EN ES       1152  1.50                             103   -0.3810 90.3  62 
 PAM  EZ I        1152  2.35        14.1 0.37             47           90.3  62 
 RUS  HZ EP       1151 55.06                              56    0.2810  124 162 
 RUS  HN ES       1152 10.04                              56   -0.1510  124 162 
 RUS  HZ I        1152 11.18         6.5 0.25             47            124 162 
 OCA  HZ EP       1151 56.76                              56    0.18 9  142   5 
 OCA  HN ES       1152 13.20                              56   -0.21 9  142   5 
 OCA  HZ I        1152 16.95        30.0 0.31             47            142   5 
 ZAR  HZ EP       1151 59.81                              56    0.01 9  169 290 
 ZAR  HN ES       1152 18.19                              56   -0.94 9  169 290 
 ZAR  HZ I        1152 19.03         2.8 0.39             47            169 290 
 SML  HZ EP   1   1152  6.26                              56    0.64 6  216 341 
 SML  HN ES       1152 30.45                              56    0.95 8  216 341 
 SML  HZ I        1152 38.71         6.6 0.09             37            216 341 
                                                                                
