 2016 1121 1211 51.7 L   6.859 -73.222141.7  RSN  5 0.3 1.8LRSN                1
 GAP=152        0.68       5.7     4.6  5.3 -0.1779E+02  0.4686E+01  0.6049E+01E
 Epicentro: ZAPATOCA - SANTANDER                                               3
 ACTION:UPD 17-10-26 21:10 OP:lp   STATUS:               ID:20161121121151 L   I
 OLDACT:REG 16-11-21 20:31 OP:dani STATUS:               ID:20161121120631     3
 2016-11-21-1208-00M.COL___328                                                 6
 STAT SP IPHASW D HRMM SECON CODA AMPLIT PERI AZIMU VELO AIN AR TRES W  DIS CAZ7
 BAR2 EZ EP       1212 10.68                             168   -0.2910 29.8 172 
 BAR2 EZ ES       1212 25.98                             168   -0.0410 29.8 172 
 BAR2 EZ I        1212 26.96        25.7 0.20            165           29.8 172 
 PAM  EZ EP       1212 13.65                             150    0.1210 78.4  47 
 PAM  EN ES       1212 30.65                             150    0.0810 78.4  47 
 PAM  EZ I        1212 31.29         4.2 0.16            152           78.4  47 
 PTB  HZ EP       1212 17.37                             132   -0.33 9  141 256 
 PTB  HN ES       1212 38.31                             132    0.31 9  141 256 
 PTB  HZ I        1212 40.74         7.3 0.17            132            141 256 
 NOR  HZ EP       1212 27.24                             118    0.37 8  232 232 
 NOR  HN ES       1212 53.89                             118   -0.42 8  232 232 
 NOR  HZ I        1212 56.36         5.0 0.14            118            232 232 
 PRA  HZ EP       1212 45.22                             106   -0.03 6  394 208 
 PRA  HE ES       1213 27.58                             106    0.54 6  394 208 
 PRA  HZ I        1213 33.64         3.5 0.41            106            394 208 
                                                                                
