 2011  521 1109  6.4 L   7.592 -73.311  8.0  RSN  9 0.3 1.4LRSN                1
 GAP=140        0.73       1.9     2.2  7.0 -0.1874E+01  0.1282E+01  0.1701E+01E
 Epicentro: EL PLAYON - SANTANDER                                              3
 ACTION:UP  11-06-29 08:55 OP:tino STATUS:               ID:20110521110906 L   I
 2011-05-21-1107-10S.COL___141                                                 6
 STAT SP IPHASW D HRMM SECON CODA AMPLIT PERI AZIMU VELO SNR AR TRES W  DIS CAZ7
 GIR2 SZ EP       11 9 16.08                              94     0.110   58 167 
 GIR2 SZ ES   1   11 9 23.78                              94     0.4 7   58 167 
 BRI  SZ EP       11 9 16.16                              94     0.110   58  76 
 BRI  SZ ES   1   11 9 23.89                              94     0.3 7   58  76 
 GRA  SZ EP       11 9 16.84                              94    -0.110   65  60 
 GRA  SZ ES   1   11 9 25.12                              94    -0.1 7   65  60 
 GRA  SZ I        11 9 25.92        37.9 0.28                            65  60 
 BRR  HZ EP       11 9 17.66                              93     0.210   69 220 
 BRR  HE ES   1   11 9 25.69                              93    -0.5 7   69 220 
 BRR  HZ I        11 9 33.31        18.2 0.69                            69 220 
 OCA  SZ EP       11 9 17.83                              93    -0.110   72 359 
 OCA  SZ I        11 9 18.56         8.5 0.22                            72 359 
 PAM  SZ EP       11 9 18.53                              93     0.010   73 112 
 PAM  SN ES   1   11 9 27.36                              93    -0.7 7   73 112 
 BTL  SZ EP       11 9 18.83                              93     0.310   75 176 
 BAR2 SZ EP       11 9 24.04                              92    -0.110  111 173 
 BAR2 SZ I        11 9 25.55         6.8 0.46                           111 173 
 BAR2 SZ ES   1   11 9 37.57                              92    -0.4 7  111 173 
 RUS  HZ EP       11 9 35.68                              56     0.1 9  190 172 
 RUS  HZ I        11 9 36.17         5.0 0.12                           190 172 
 RUS  HN ES   2   11 9 58.12                              56    -0.2 4  190 172 
                                                                                
