 2013  721 1201 41.5 L   6.793 -73.142141.6  RSN  8 0.5 1.8LRSN                1
 GAP=202        1.21       5.2     6.8  7.6 -0.1118E+01  0.1574E+02 -0.1103E+01E
 Epicentro: LOS SANTOS - SANTANDER                                             3
 ACTION:UPD 13-08-12 10:39 OP:ep   STATUS:               ID:20130721120141 L   I
 OLDACT:REG 13-07-21 15:55 OP:nd   STATUS:               ID:20130721115959     3
 2013-07-21-1159-59M.COL___267                                                 6
 STAT SP IPHASW D HRMM SECON CODA AMPLIT PERI AZIMU VELO AIN AR TRES W  DIS CAZ7
 BAR2 SZ EP       12 2  0.67                             170    0.0910 22.6 191 
 BAR2 SZ ES       12 2 15.28                             170   -0.2110 22.6 191 
 BAR2 SZ I        12 2 17.60        14.6 0.30            167           22.6 191 
 GIR2 SZ EP       12 2  0.76                             167    0.1010 32.1 350 
 GIR2 SZ ES       12 2 15.42                             167   -0.2210 32.1 350 
 GIR2 SZ I        12 2 16.73        12.3 0.16            162           32.1 350 
 BRR  HZ EP     C 12 2  2.59                             151    0.3910 72.0 299 
 BRR  HN ES       12 2 19.14                             151    0.7510 72.0 299 
 BRR  HZ I        12 2 23.50        10.2 0.10            146           72.0 299 
 PTB  HZ EP       12 2  7.51                             131   -0.61 9  148 259 
 PTB  HN ES       12 2 28.40                             131   -0.51 9  148 259 
 PTB  HZ I        12 2 30.64        10.6 0.16            129            148 259 
 SPBC HZ EP       12 2  9.64                             128    0.03 9  163 219 
 SPBC HN ES       12 2 31.46                             128   -0.11 9  163 219 
 SPBC HZ I        12 2 36.44         4.7 0.14            128            163 219 
 ZAR  HZ EP       12 2 14.44                             121    0.73 9  205 292 
 ZAR  HE ES       12 2 39.41                             121    0.54 9  205 292 
 ZAR  HZ I        12 2 47.72         4.5 0.54            120            205 292 
 SML  HZ EP   2   12 2 18.41                             116    0.46 4  245 335 
 SML  HN ES       12 2 45.19                             116   -1.23 8  245 335 
 SML  HZ I        12 2 52.35         6.3 0.10            117            245 335 
 HEL  HZ EP   4   12 2 23.45                             114    1.96 0  272 256 
 HEL  HN ES   2   12 2 52.13                             114   -0.58 4  272 256 
 HEL  HZ I        12 2 59.67         4.2 0.28            114            272 256 
                                                                                
