 2013  321 1957 31.3 L   6.793 -73.130152.0  RSN  8 0.5 2.4LRSN                1
 GAP=139        1.09       4.4     4.5  6.7  0.1562E+01  0.8599E+01  0.5097E+01E
 Epicentro: LOS SANTOS - SANTANDER                                             3
 ACTION:UPD 13-04-09 14:04 OP:ep   STATUS:               ID:20130321195000 L   I
 2013-03-21-1950-00M.COL___245                                                 6
 STAT SP IPHASW D HRMM SECON CODA AMPLIT PERI AZIMU VELO AIN AR TRES W  DIS CAZ7
 BAR2 SZ EP       1957 51.42                             171   -0.2010 22.9 195 
 BAR2 SZ ES       1958  8.18                             171    0.6710 22.9 195 
 BAR2 SZ I        1958  9.51        43.3 0.28            169           22.9 195 
 BRR  HZ EP       1957 53.35                             153    0.1710 73.1 298 
 BRR  HN ES       1958 10.72                             153    0.4310 73.1 298 
 BRR  HN I        1958 11.61        76.7 0.24            151           73.1 298 
 PAM  SZ EP       1957 54.43                             152    0.3210 76.9  38 
 PAM  SN ES       1958 11.59                             152   -0.3410 76.9  38 
 PAM  SN I        1958 13.28        18.2 0.52            155           76.9  38 
 RUS  HZ EP     D 1957 55.17                             145   -0.3810 99.7 177 
 RUS  HN ES       1958 14.23                             145   -0.2810 99.7 177 
 RUS  HN I        1958 15.43        24.2 0.38            146           99.7 177 
 PTB  HZ EP       1957 58.42                             133   -0.45 9  149 259 
 PTB  HN ES       1958 19.61                             133   -0.81 9  149 259 
 PTB  HN I        1958 24.70        79.8 0.48            132            149 259 
 ZAR  HZ EP       1958  4.02                             124   -0.28 8  206 292 
 ZAR  HN ES       1958 30.05                             124   -0.04 8  206 292 
 ZAR  HN I        1958 35.52        35.7 0.26            124            206 292 
 CHI  HZ EP       1958  9.66                             119    0.39 8  248 196 
 CHI  HN ES       1958 39.14                             119    0.22 8  248 196 
 CHI  HN I        1958 41.21        15.0 0.30            119            248 196 
 HEL  HZ EP   2   1958 13.34                             116    1.39 4  274 256 
 HEL  HN ES       1958 44.33                             116    0.63 8  274 256 
 HEL  HN I        1958 49.91        10.4 0.44            116            274 256 
                                                                                
