 2015  321 1308  1.8 L   6.760 -73.150145.9  RSN  7 0.4 1.8LRSN                1
 GAP=138        1.06       4.5     4.6  7.2 -0.1194E+01  0.6542E+01  0.2519E+01E
 Epicentro: LOS SANTOS - SANTANDER                                             3
 ACTION:UPD 15-04-30 16:28 OP:nd   STATUS:               ID:20150321130801 L   I
 OLDACT:REG 15-03-21 19:51 OP:cam  STATUS:               ID:20150321125749     3
 2015-03-21-1257-49M.COL___267                                                 6
 STAT SP IPHASW D HRMM SECON CODA AMPLIT PERI AZIMU VELO AIN AR TRES W  DIS CAZ7
 BAR2 EZ EP       13 8 21.31                             172   -0.0310 18.9 191 
 BAR2 EZ ES       13 8 36.56                             172   -0.0510 18.9 191 
 BAR2 EZ I        13 8 37.92        13.7 0.18            171           18.9 191 
 BRR  HZ EP       13 8 23.04                             152   -0.0010 73.0 302 
 BRR  HN ES       13 8 40.49                             152    0.8610 73.0 302 
 BRR  HN I        13 8 40.90        23.9 0.52            150           73.0 302 
 PAM  SZ EP       13 8 24.05                             150   -0.1910 81.2  38 
 PAM  SN ES       13 8 41.34                             150   -0.4210 81.2  38 
 PAM  SZ I        13 8 43.54         5.8 0.48            152           81.2  38 
 RUS  HZ EP       13 8 25.56                             145    0.3310 96.2 176 
 RUS  HN ES       13 8 43.62                             145    0.0910 96.2 176 
 RUS  HZ I        13 8 44.99         7.6 0.24            147           96.2 176 
 PTB  HZ EP       13 8 28.29                             132   -0.35 9  146 260 
 PTB  HN ES       13 8 48.90                             132   -0.69 9  146 260 
 PTB  HZ I        13 8 54.56         3.6 0.34            132            146 260 
 SPBC HZ EP       13 8 30.51                             130    0.58 9  159 220 
 SPBC HN ES       13 8 51.54                             130   -0.35 9  159 220 
 SPBC HZ I        13 8 54.86        12.3 0.24            130            159 220 
 ZAR  HN ES       13 8 59.93                             122    0.16 8  205 293 
 ZAR  HN I        13 9  5.85         8.1 0.28            122            205 293 
                                                                                
