 2010 1221 1011 55.1 L   6.767 -73.154139.2  RSN 10 0.5 1.8LRSN                1
 GAP=158        1.03       5.0     9.9  9.8 -0.1889E+02  0.3928E+02 -0.9017E+01E
 Epicentro: LOS SANTOS - SANTANDER                                             3
 ACTION:UP  11-01-14 15:26 OP:pat  STATUS:               ID:20101221101155 L   I
 2010-12-21-1009-52S.COL___134                                                 6
 STAT SP IPHASW D HRMM SECON CODA AMPLIT PERI AZIMU VELO SNR AR TRES W  DIS CAZ7
 BAR2 SZ EP       1012 13.70                             172    -0.210   20 190 
 BAR2 SZ ES   1   1012 27.79                             172    -0.7 7   20 190 
 BAR2 SZ I        1012 30.05        19.0 0.13                            20 190 
 BTL  SZ EP   1   1012 13.85                             171    -0.1 7   21 323 
 RUS  HZ EP   1   1012 17.74                             143    -0.2 7   97 175 
 RUS  HN ES   1   1012 36.58                             143     0.8 7   97 175 
 RUS  HZ I        1012 38.67         8.7 0.22                            97 175 
 GRA  SZ EP   1   1012 20.47                             135     0.4 7  129  17 
 GRA  SZ I        1012 41.05         5.6 0.38                           129  17 
 OCA  SZ EP   1   1012 22.68                             127    -0.6 7  164 354 
 OCA  SZ ES   1   1012 45.97                             127     0.7 7  164 354 
 OCA  SZ I        1012 48.60         9.2 0.37                           164 354 
 NOR  SZ EP   1   1012 29.85                             117    -0.3 6  232 235 
 NOR  SN ES   1   1012 57.62                             117     0.1 6  232 235 
 CHI  HZ EP   1   1012 32.01                             116     0.0 6  245 195 
 CHI  HN ES   2   1013  1.70                             116     0.8 4  245 195 
 CHI  HZ I        1013  6.73         2.6 0.32                           245 195 
 HEL  HZ EP   2   1012 35.56                             114     0.7 4  270 257 
 HEL  HZ I        1013 13.47         4.4 0.44                           270 257 
 RREF HN ES   2   1013 16.07                             110    -0.1 3  319 230 
 RREF HZ I        1013 27.77         4.0 0.39                           319 230 
 PRA  HZ EP   2   1012 47.60                             105    -0.4 3  388 210 
                                                                                
