 2017  221 1757 58.1 L   6.799 -73.159147.2  RSN  9 0.4 2.1LRSN                1
 GAP=135        0.98       3.7     4.0  5.6  0.2489E+00  0.6342E+01  0.4870E+01E
 Epicentro: LOS SANTOS - SANTANDER                                             3
 ACTION:UPD 17-05-24 15:39 OP:jn   STATUS:               ID:20170221175758 L   I
 OLDACT:UP  17-02-21 23:53 OP:cog  STATUS:               ID:20170221175739     3
 OLDACT:UP  17-02-21 23:52 OP:cog  STATUS:               ID:20170221175739     3
 OLDACT:REG 17-02-21 21:28 OP:cog  STATUS:               ID:20170221175739     3
 2017-02-21-1758-00M.COL___382                                                 6
 STAT SP IPHASW D HRMM SECON CODA AMPLIT PERI AZIMU VELO AIN AR TRES W  DIS CAZ7
 BAR2 EZ EP       1758 17.75                             171   -0.1510 23.0 186 
 BAR2 EZ ES       1758 32.71                             171   -0.6310 23.0 186 
 BAR2 EZ I        1758 33.81        36.9 0.36            169           23.0 186 
 BRR  HZ EP       1758 19.59                             153    0.2510 70.0 299 
 BRR  HN ES       1758 36.63                             153    0.7310 70.0 299 
 BRR  HZ I        1758 37.27        24.9 0.10            153           70.0 299 
 PAM  EZ EP       1758 20.70                             151    0.1710 78.4  40 
 PAM  EN ES       1758 37.95                             151   -0.0710 78.4  40 
 PAM  EZ I        1758 39.95        44.0 0.52            154           78.4  40 
 RUS  HZ EP       1758 21.75                             144   -0.2510  101 175 
 RUS  HN ES       1758 41.18                             144    0.5510  101 175 
 PTB  HZ EP       1758 24.86                             133   -0.20 9  146 259 
 PTB  HN ES       1758 45.60                             133   -0.48 9  146 259 
 PTB  HZ I        1758 48.43        10.4 0.16            132            146 259 
 ZAR  HZ EP       1758 30.33                             123   -0.18 9  203 292 
 ZAR  HE ES       1758 55.47                             123   -0.32 9  203 292 
 NOR  HZ EP       1758 33.95                             119    0.16 8  233 234 
 NOR  HN ES       1759  2.23                             119    0.61 8  233 234 
 NOR  HZ I        1759  9.20         8.0 0.46            119            233 234 
 CHI  HZ EP       1758 35.98                             117    0.14 8  248 195 
 CHI  HE ES       1759  4.72                             117   -0.54 8  248 195 
 CHI  HZ I        1759  8.76         9.8 0.50            118            248 195 
 ORTC HZ EP       1758 52.26                             107    0.29 6  395 216 
 ORTC HN ES   3   1759 35.52                             107    1.54 1  395 216 
                                                                                
