 2010  821 1649 53.3 L   6.803 -73.021146.4  RSN 11 0.3 2.3LRSN                1
 GAP=173        0.65       2.3     5.3  4.5 -0.2357E+01 -0.2262E+01 -0.8209E-01E
 Epicentro: CEPITA - SANTANDER                                                 3
 ACTION:UP  10-09-07 10:57 OP:vdl  STATUS:               ID:20100821164953 L   I
 2010-08-21-1646-27S.COL___120                                                 6
 STAT SP IPHASW D HRMM SECON CODA AMPLIT PERI AZIMU VELO SNR AR TRES W  DIS CAZ7
 BAR2 SZ EP       1650 13.18                             169     0.010   29 217 
 BAR2 SZ ES   1   1650 28.37                                    -0.2 7   29 217 
 BAR2 SZ I        1650 29.94        56.6 0.64                            29 217 
 BTL  SZ EP       1650 13.33                             169     0.210   30 295 
 BRR  HZ EP       1650 15.02                             150    -0.210   83 294 
 BRR  HZ I        1650 15.36        79.3 0.23                            83 294 
 BRR  HN ES       1650 32.27                             150    -0.110   83 294 
 RUS  HZ EP       1650 17.11                             144     0.010  101 184 
 RUS  HN ES       1650 35.83                             144     0.110  101 184 
 RUS  HZ I        1650 37.00        17.4 0.18                           101 184 
 GUE  SZ EP       1650 18.14                             141     0.310  114   5 
 GUE  SZ I        1650 41.20         6.6 0.54                           114   5 
 GRA  SZ EP       1650 17.94                             138    -0.310  122  11 
 GRA  SZ ES   1   1650 37.99                             138     0.2 7  122  11 
 GRA  SZ I        1650 40.49        22.7 0.35                           122  11 
 OCA  SZ EP       1650 21.56                             130    -0.3 9  162 348 
 OCA  SZ ES   1   1650 44.40                             130     0.3 7  162 348 
 OCA  SZ I        1650 49.46        36.8 0.50                           162 348 
 CHI  HZ EP   1   1650 31.33                                    -0.2 6  253 198 
 CHI  HN ES   2   1651  1.76                             117     0.5 4  253 198 
 CHI  HZ I        1651  6.60         6.2 0.09                           253 198 
 ROSC BN ES   2   1651  2.26                             117    -0.4 4  260 214 
 ROSC BZ I        1651  7.80        18.2 0.50                           260 214 
 HEL  HZ EP   1   1650 35.62                                     0.6 6  285 256 
 HEL  HZ I        1651 12.33         8.9 0.25                           285 256 
 PRA  HZ EP   1   1650 47.55                                    -0.1 4  399 211 
 PRA  HN ES   2   1651 30.18                             107     0.1 3  399 211 
 PRA  HZ I        1651 35.19         8.6 1.21                           399 211 
                                                                                
