 2017  821 1311  9.3 L   6.760 -73.125141.2  RSN  7 0.4 1.8LRSN                1
 GAP=237        0.97       4.5     5.7  6.6  0.6410E+01  0.1278E+02  0.2786E+01E
 Epicentro: LOS SANTOS - SANTANDER                                             3
 ACTION:UPD 17-09-04 20:22 OP:rebc STATUS:               ID:20170821131109 L   I
 OLDACT:UP  17-08-21 23:49 OP:edw  STATUS:               ID:20170821130742     3
 OLDACT:REG 17-08-21 21:17 OP:edw  STATUS:               ID:20170821130742     3
 2017-08-21-1308-00M.COL___405                                                 6
 STAT SP IPHASW D HRMM SECON CODA AMPLIT PERI AZIMU VELO AIN AR TRES W  DIS CAZ7
 BAR2 EZ IP     C 1311 28.07                             172   -0.2410 19.6 199 
 BAR2 EZ ES       1311 43.05                             172   -0.0810 19.6 199 
 BAR2 EZ I        1311 44.13        15.0 0.16            168           19.6 199 
 BRR  HZ IP     C 1311 29.97                             150   -0.2310 75.4 301 
 BRR  HN ES       1311 47.05                             150    0.5410 75.4 301 
 BRR  HZ I        1311 47.38        11.8 0.30            148           75.4 301 
 RUS  HZ EP       1311 32.22                             144   -0.0510 96.0 177 
 RUS  HN ES       1311 50.35                             144    0.1610 96.0 177 
 RUS  HZ I        1311 51.45         8.6 0.20            144           96.0 177 
 SPBC HZ EP       1311 37.14                             128   -0.12 9  161 221 
 SPBC HN ES       1311 58.93                             128   -0.15 9  161 221 
 SPBC HZ I        1312  2.61         8.0 0.12            127            161 221 
 ZAR  HZ EP       1311 42.66                             121    0.81 8  208 293 
 ZAR  HN ES       1312  6.49                             121   -0.75 8  208 293 
 ZAR  HZ I        1312 13.36         4.3 0.14            120            208 293 
 NOR  HZ EP       1311 44.89                             118    0.20 8  234 236 
 NOR  HN ES       1312 11.97                             118   -0.33 8  234 236 
 NOR  HZ I        1312 16.29         4.2 0.24            117            234 236 
 GUY2CHE ES   2   1312 27.68                             111    1.26 4  301 236 
                                                                                
