 2016 1121 1930 45.7 L   6.825 -73.175141.7  RSN  4 0.4 1.6LRSN                1
 GAP=145        0.88      10.0     7.2  7.5 -0.5614E+02  0.1733E+02 -0.4335E+01E
 Epicentro: ZAPATOCA - SANTANDER                                               3
 ACTION:UPD 17-10-26 21:10 OP:lp   STATUS:               ID:20161121193045 L   I
 OLDACT:DUP 16-11-22 00:40 OP:dani STATUS:               ID:20161121192746d    3
 OLDACT:UP  16-11-22 00:38 OP:dani STATUS:               ID:20161121192745     3
 OLDACT:UP  16-11-22 00:37 OP:dani STATUS:               ID:20161121192745     3
 OLDACT:UP  16-11-22 00:37 OP:dani STATUS:               ID:20161121192745     3
 OLDACT:UP  16-11-22 00:37 OP:dani STATUS:               ID:20161121192745     3
 OLDACT:UP  16-11-22 00:36 OP:dani STATUS:               ID:20161121192745     3
 OLDACT:UP  16-11-22 00:32 OP:dani STATUS:               ID:20161121192745     3
 OLDACT:REG 16-11-21 21:42 OP:dani STATUS:               ID:20161121192745     3
 2016-11-21-1928-00M.COL___343                                                 6
 STAT SP IPHASW D HRMM SECON CODA AMPLIT PERI AZIMU VELO AIN AR TRES W  DIS CAZ7
 BAR2 EZ EP       1931  4.45                             169   -0.4410 25.8 182 
 BAR2 EZ ES       1931 19.74                             169   -0.1210 25.8 182 
 BAR2 EZ I        1931 21.01        10.1 0.24            171           25.8 182 
 PAM  EZ EP       1931  7.75                             150    0.2710 77.4  43 
 PAM  EE ES       1931 24.71                             150    0.2310 77.4  43 
 PAM  EZ I        1931 26.99         7.2 0.44            152           77.4  43 
 PTB  HZ EP       1931 11.54                             132   -0.55 9  145 257 
 PTB  HN ES       1931 32.66                             132   -0.02 9  145 257 
 PTB  HZ I        1931 36.27         4.3 0.19            132            145 257 
 NOR  HZ EP       1931 21.43                             118    0.35 8  234 233 
 NOR  HN ES       1931 49.21                             118    0.52 8  234 233 
 NOR  HZ I        1931 53.45         2.9 0.34            119            234 233 
                                                                                
