 2011 1221 1305  0.1 L   6.743 -73.160145.4  RSN  9 0.5 2.2LRSN                1
 GAP=137        1.02       5.0     6.2  7.9 -0.7882E+01  0.8097E+01  0.3928E+01E
 Epicentro: VILLANUEVA - SANTANDER                                             3
 ACTION:UPD 12-07-13 16:17 OP:ep   STATUS:               ID:20111221130500 L   I
 2011-12-21-1300-00M.COL___190                                                 6
 STAT SP IPHASW D HRMM SECON CODA AMPLIT PERI AZIMU VELO AIN AR TRES W  DIS CAZ7
 BAR2 SZ EP       13 5 19.51                             173   -0.0810 16.9 188 
 BAR2 SZ ES   1   13 5 34.80                             173    0.03 7 16.9 188 
 BAR2 SZ I        13 5 36.56        28.9 0.21                          16.9 188 
 GIR2 SZ EP   1   13 5 19.57                             165   -0.35 7 37.3 354 
 BRR  HZ EP       13 5 21.42                             152    0.0910 73.1 303 
 BRR  HE ES   1   13 5 38.60                             152    0.72 7 73.1 303 
 BRR  HZ I        13 5 43.45        50.2 0.30                          73.1 303 
 PAM  SZ EP   1   13 5 22.12                             149   -0.53 7 83.3  38 
 PAM  SN ES   1   13 5 39.50                             149   -0.73 7 83.3  38 
 RUS  HZ EP   1   13 5 23.41                             146    0.01 7 94.4 175 
 RUS  HN ES   1   13 5 42.34                             146    0.79 7 94.4 175 
 RUS  HZ I        13 5 43.68        15.7 0.43                          94.4 175 
 PTB  HZ EP   1   13 5 26.42                             132   -0.40 7  145 261 
 PTB  HN ES   1   13 5 47.21                             132   -0.43 7  145 261 
 OCA  SZ EP   1   13 5 30.19                             128    1.21 7  166 354 
 OCA  SZ I        13 5 58.40        30.4 0.33                           166 354 
 NOR  SZ EP   1   13 5 35.15                             119   -0.15 6  230 236 
 NOR  SE ES   1   13 6  2.53                             119   -0.22 6  230 236 
 CHI  HZ EP   1   13 5 37.64                             118    0.54 6  242 195 
 CHI  HN ES   1   13 6  5.45                             118   -0.48 6  242 195 
 CHI  HZ I        13 6 12.56         7.0 0.30                           242 195 
                                                                                
