 2011  721 1006 59.8 L   6.750 -73.143151.4  RSN  8 0.4 2.0LRSN                1
 GAP=156        0.65       3.2     6.0  5.6 -0.5126E+01  0.3710E+01 -0.5984E+00E
 Epicentro: LOS SANTOS - SANTANDER                                             3
 ACTION:UPD 12-07-25 14:02 OP:epov STATUS:               ID:20110721100659 L   I
 2011-07-21-1007-03S.COL___142                                                 6
 STAT SP IPHASW D HRMM SECON CODA AMPLIT PERI AZIMU VELO AIN AR TRES W  DIS CAZ7
 BAR2 SZ EP       10 7 20.12                             173    0.1110 18.0 194 
 BAR2 SZ ES   1   10 7 35.69                             173   -0.09 7 18.0 194 
 BAR2 SZ I        10 7 36.21        18.2 0.34                          18.0 194 
 BRR  HZ EP       10 7 22.03                             152    0.3010 74.2 302 
 BRR  HE ES   1   10 7 39.04                             152    0.21 7 74.2 302 
 BRR  HZ I        10 7 41.76        28.4 0.12                          74.2 302 
 RUS  HN ES   1   10 7 42.32                             146   -0.08 7 95.1 176 
 RUS  HZ I        10 7 43.91        11.9 0.16                          95.1 176 
 BRI  SZ EP   1   10 7 24.61                             141    0.00 7  113  20 
 OCA  SZ EP   1   10 7 28.66                             130   -0.40 7  166 353 
 OCA  SZ ES   1   10 7 51.66                             130   -0.23 7  166 353 
 OCA  SZ I        10 7 56.05        15.3 0.14                           166 353 
 NOR  SN ES   1   10 8  2.93                             120   -0.51 6  232 236 
 CHI  HZ EP   2   10 7 36.28                             119   -0.97 4  243 196 
 CHI  HZ I        10 8 13.29         4.1 0.39                           243 196 
 PRA  HZ EP   1   10 7 53.87                             108    0.89 4  387 210 
 PRA  HN ES   1   10 8 34.58                             108    0.12 4  387 210 
                                                                                
