 2016  921 1810 42.6 L   6.778 -73.135148.7  RSN  6 0.4 1.9LRSN                1
 GAP=139        1.01       4.6     5.2  7.7 -0.1459E+01  0.1203E+02 -0.6027E+01E
 Epicentro: LOS SANTOS - SANTANDER                                             3
 ACTION:UPD 17-08-17 21:14 OP:lp   STATUS:               ID:20160921181042 L   I
 OLDACT:UP  16-09-22 00:27 OP:ar   STATUS:               ID:20160921180737     3
 OLDACT:REG 16-09-21 21:21 OP:edw  STATUS:               ID:20160921180737     3
 2016-09-21-1808-00M.COL___354                                                 6
 STAT SP IPHASW D HRMM SECON CODA AMPLIT PERI AZIMU VELO AIN AR TRES W  DIS CAZ7
 BAR2 EZ EP       1811  2.43                             171   -0.0910 21.2 194 
 BAR2 EZ ES       1811 17.88                             171   -0.2010 21.2 194 
 BAR2 EZ I        1811 18.47        19.5 0.28            168           21.2 194 
 BRR  HZ EP       1811  4.11                             152   -0.0610 73.4 300 
 BRR  HE ES       1811 21.49                             152    0.4810 73.4 300 
 BRR  HZ I        1811 22.63        20.2 0.38            149           73.4 300 
 PAM  EZ EP       1811  4.83                             151   -0.3410 78.5  38 
 PAM  EN ES       1811 22.85                             151    0.0610 78.5  38 
 RUS  HZ EP   2   1811  6.26                             145   -0.19 5 98.1 177 
 RUS  HN ES       1811 25.24                             145    0.1810 98.1 177 
 RUS  HZ I        1811 26.87         4.8 0.30            144           98.1 177 
 SPBC HZ EP   4   1811 10.15                             130   -1.05 0  162 220 
 SPBC HN ES       1811 33.40                             130   -0.13 9  162 220 
 SPBC HZ I        1811 38.14        10.8 0.24            128            162 220 
 ZAR  HZ EP       1811 16.37                             123    0.94 8  206 293 
 ZAR  HN ES       1811 40.27                             123   -0.77 8  206 293 
 ZAR  HZ I        1811 47.10         6.7 0.42            122            206 293 
                                                                                
