 2015  321 1000 48.3 L   6.774 -73.129147.1  RSN  6 0.2 1.7LRSN                1
 GAP=140        0.61       2.6     3.1  4.1 -0.1588E-01  0.3439E+01  0.1583E+00E
 Epicentro: LOS SANTOS - SANTANDER                                             3
 ACTION:UPD 15-04-30 16:28 OP:nd   STATUS:               ID:20150321100048 L   I
 OLDACT:REG 15-03-21 19:41 OP:cam  STATUS:               ID:20150321095749     3
 2015-03-21-0957-49M.COL___266                                                 6
 STAT SP IPHASW D HRMM SECON CODA AMPLIT PERI AZIMU VELO AIN AR TRES W  DIS CAZ7
 BAR2 EZ EP       10 1  7.63                             172   -0.3910 20.9 196 
 BAR2 EZ ES       10 1 23.54                             172    0.1210 20.9 196 
 BAR2 EZ I        10 1 25.77         9.8 0.28            168           20.9 196 
 BRR  HZ EP       10 1 10.02                             152    0.2810 74.3 300 
 BRR  HN ES       10 1 26.76                             152    0.2710 74.3 300 
 BRR  HN I        10 1 27.77        21.0 0.30            149           74.3 300 
 PAM  SZ EP     D 10 1 10.74                             151    0.0410 78.5  37 
 PAM  SN ES       10 1 28.06                             151   -0.1310 78.5  37 
 PAM  SZ I        10 1 30.24         5.7 0.20            155           78.5  37 
 RUS  HZ EP       10 1 11.96                             145    0.0210 97.5 177 
 RUS  HN ES       10 1 30.27                             145   -0.1310 97.5 177 
 RUS  HZ I        10 1 31.71         3.3 0.28            146           97.5 177 
 SPBC HZ EP       10 1 17.02                             129    0.25 9  162 220 
 SPBC HN ES       10 1 38.96                             129   -0.04 9  162 220 
 SPBC HZ I        10 1 46.25         8.4 0.28            129            162 220 
 ZAR  HZ EP       10 1 21.20                             122    0.10 8  207 293 
 ZAR  HN ES       10 1 46.24                             122   -0.46 8  207 293 
 ZAR  HZ I        10 1 56.09         3.9 0.26            122            207 293 
                                                                                
