 2010 1121 1612 25.3 L   6.788 -73.097140.7  RSN  5 0.2 1.5LRSN                1
 GAP=164        0.47       5.2    10.2  8.2  0.3936E+02 -0.6059E+02 -0.2301E+02E
 Epicentro: LOS SANTOS - SANTANDER                                             3
 ACTION:UP  10-12-17 16:54 OP:REBC STATUS:               ID:20101121161225 L   I
 2010-11-21-1610-55S.COL___132                                                 6
 STAT SP IPHASW D HRMM SECON CODA AMPLIT PERI AZIMU VELO SNR AR TRES W  DIS CAZ7
 BAR2 SZ EP   1   1612 44.19                             170    -0.1 7   24 204 
 BTL  SZ EP       1612 44.56                             170     0.310   24 307 
 BAR2 SZ ES   2   1612 58.93                             170    -0.2 5   24 204 
 BAR2 SZ I        1613  1.80         6.4 0.23                            24 204 
 BRR  HZ EP   2   1612 46.18                             150     0.0 5   77 298 
 BRR  HE ES       1613  2.44                             150    -0.110   77 298 
 BRR  HZ I        1613  6.33        13.9 0.73                            77 298 
 RUS  HZ EP   1   1612 48.17                             143    -0.2 7   99 179 
 RUS  HE ES   1   1613  6.56                             143     0.1 7   99 179 
 GRA  SZ EP   2   1612 49.92                             136    -0.1 5  126  15 
 GRA  SZ I        1613  4.17         3.2 0.59                           126  15 
                                                                                
