 2017  221 1006 56.3 L   6.804 -73.161145.7  RSN  6 0.1 1.3LRSN                1
 GAP=134        0.43       2.2     1.9  3.6 -0.6413E+00  0.2491E+01 -0.3141E+00E
 Epicentro: LOS SANTOS - SANTANDER                                             3
 ACTION:UPD 17-05-24 15:38 OP:jn   STATUS:               ID:20170221100656 L   I
 OLDACT:UP  17-02-21 21:46 OP:cog  STATUS:               ID:20170221095741d    3
 OLDACT:DUP 17-02-21 21:41 OP:cog  STATUS:               ID:20170221095741d    3
 2017-02-21-0958-00M.COL___379                                                 6
 STAT SP IPHASW D HRMM SECON CODA AMPLIT PERI AZIMU VELO AIN AR TRES W  DIS CAZ7
 BAR2 EZ EP       10 7 15.89                             170   -0.0410 23.5 186 
 BAR2 EZ ES       10 7 31.14                             170   -0.1010 23.5 186 
 BAR2 EZ I        10 7 32.47         5.1 0.30            172           23.5 186 
 PAM  EZ EP       10 7 18.77                             150    0.2110 78.2  41 
 PAM  EE ES       10 7 35.89                             150   -0.0310 78.2  41 
 PAM  EZ I        10 7 37.92         4.4 0.56            151           78.2  41 
 RUS  HZ EP       10 7 19.96                             144   -0.1310  101 175 
 RUS  HN ES       10 7 38.79                             144    0.1510  101 175 
 PTB  HZ EP       10 7 22.90                             132   -0.22 9  146 259 
 PTB  HN ES       10 7 43.93                             132   -0.11 9  146 259 
 PTB  HZ I        10 7 45.77         1.5 0.03            134            146 259 
 ZAR  HE ES       10 7 53.88                             123    0.15 9  202 292 
 NOR  HN ES       10 7 59.88                             119    0.20 8  234 234 
                                                                                
