 2011  721 1540 54.6 L   6.726 -73.127152.1  RSN  6 0.3 2.0LRSN                1
 GAP=184        0.49       3.4     6.1  4.7  0.5408E+01  0.7549E+00  0.1041E+01E
 Epicentro: JORDAN - SANTANDER                                                 3
 ACTION:UPD 12-07-25 14:02 OP:epov STATUS:               ID:20110721154054 L   I
 2011-07-21-1539-55S.COL___142                                                 6
 STAT SP IPHASW D HRMM SECON CODA AMPLIT PERI AZIMU VELO AIN AR TRES W  DIS CAZ7
 BAR2 SZ EP       1541 14.83                             173   -0.0910 16.0 203 
 BAR2 SZ ES   1   1541 30.70                             173   -0.03 7 16.0 203 
 BAR2 SZ I        1541 31.75        18.7 0.34                          16.0 203 
 BRR  HZ EP       1541 16.78                             152   -0.0410 77.2 303 
 BRR  HN ES   1   1541 34.32                             152    0.20 7 77.2 303 
 BRR  HZ I        1541 36.31        22.7 0.17                          77.2 303 
 RUS  HZ EP   1   1541 18.53                             147    0.07 7 92.2 177 
 RUS  HE ES   1   1541 37.06                             147    0.03 7 92.2 177 
 RUS  HZ I        1541 38.95        10.9 0.41                          92.2 177 
 OCA  SZ EP   2   1541 23.76                             130   -0.48 5  169 353 
 OCA  SZ I        1541 50.36        19.4 0.33                           169 353 
 NOR  SN ES   2   1541 58.31                             120   -0.05 4  232 236 
 CHI  HZ EP   1   1541 32.47                             119    0.56 6  241 196 
 CHI  HE ES   2   1542  0.26                             119   -0.72 4  241 196 
 CHI  HZ I        1542 10.10         5.5 0.39                           241 196 
                                                                                
