 2010  421 1048  6.6 L   6.776 -72.994146.5  RSN 11 0.5 2.1LRSN                1
 GAP=189        0.98       4.6     7.7  7.4 -0.1990E+02 -0.3893E+01  0.1222E+02E
 Epicentro: CEPITA - SANTANDER                                                 3
 ACTION:UPD 10-08-24 10:00 OP:vdl  STATUS:               ID:20100421104806 L   I
 2010-04-21-1043-33S.COL___104                                                 6
 STAT SP IPHASW D HRMM SECON CODA AMPLIT PERI AZIMU VELO AIN AR TRES W  DIS CAZ7
 BAR2 SZ EP       1048 26.18                             168    -0.310   29 226 
 BAR2 SZ ES   1   1048 41.53                             168    -0.4 7   29 226 
 GIR2 SZ EP       1048 26.71                             164     0.110   40 327 
 BRR  HZ IP     C 1048 28.61                             148    -0.210   87 295 
 BRR  HN ES       1048 46.32                             148     0.110   87 295 
 BRR  HZ I        1048 47.54        37.9 1.01                            87 295 
 GUE  SZ EP       1048 31.59                             140     0.210  117   4 
 GUE  SZ ES   2   1048 50.10                             140    -0.7 5  117   4 
 GRA  SZ ES   1   1048 52.44                             138     1.0 7  124  10 
 OCA  SZ EP       1048 35.45                             129    -0.1 9  166 347 
 OCA  SZ ES   2   1048 58.00                             129     0.0 5  166 347 
 CHI  HZ EP   1   1048 44.48                             117    -0.2 6  251 199 
 CHI  HN ES   1   1049 14.16                             117    -0.1 6  251 199 
 CHI  HZ I        1049 19.53         4.9 0.55                           251 199 
 HEL  HZ EP   1   1048 48.59                             113     0.0 5  288 257 
 HEL  HE ES   2   1049 20.12                             113    -1.3 4  288 257 
 HEL  HZ I        1049 24.65         5.1 0.62                           288 257 
 RREF BZ EP   1   1048 53.05                             110    -1.0 5  333 232 
 RREF BN ES       1049 31.76                             110     0.6 7  333 232 
 RREF BZ I        1049 35.18         5.2 0.56                           333 232 
 TOL  SZ ES   2   1049 34.95                             109     0.3 3  354 227 
 PRA  HZ EP   1   1049  1.36                             106     0.4 4  398 212 
 PRA  HN ES       1049 44.19                             106     0.9 6  398 212 
 PRA  HZ I        1049 46.66         4.7 1.08                           398 212 
                                                                                
