 2017 1021 1649 47.4 L   6.788 -73.152144.0  RSN 19 0.5 2.4LRSN                1
 GAP=112        1.03       3.2     3.4  5.1  0.1507E+01  0.5288E+01  0.4084E+01E
 Epicentro: LOS SANTOS - SANTANDER                                             3
 ACTION:UPD 17-11-07 19:34 OP:rebc STATUS:               ID:20171021164947 L   I
 OLDACT:UP  17-10-22 00:19 OP:edw  STATUS:               ID:20171021164513     3
 OLDACT:UP  17-10-22 00:18 OP:edw  STATUS:               ID:20171021164513     3
 OLDACT:REG 17-10-21 20:55 OP:edw  STATUS:               ID:20171021164513     3
 2017-10-21-1648-00M.COL___453                                                 6
 STAT SP IPHASW D HRMM SECON CODA AMPLIT PERI AZIMU VELO AIN AR TRES W  DIS CAZ7
 BAR2 EZ IP     C 1650  6.55                             171   -0.2010 21.9 189 
 BAR2 EZ ES       1650 21.67                             171   -0.2110 21.9 189 
 BAR2 EZ I        1650 22.67        64.7 0.42            166           21.9 189 
 BRR  HZ IP     C 1650  8.46                             152    0.1310 71.3 300 
 BRR  HN ES       1650 25.74                             152    1.0610 71.3 300 
 BRR  HZ I        1650 28.70        55.6 0.14            150           71.3 300 
 PAM  EZ IP     C 1650  9.37                             150   -0.1110 78.9  39 
 PAM  EN ES       1650 26.40                             150   -0.3310 78.9  39 
 PAM  EZ I        1650 28.59        46.2 0.54            157           78.9  39 
 RUS  HZ EP     C 1650 10.49                             144   -0.3610 99.3 176 
 RUS  HN ES       1650 29.22                             144    0.0610 99.3 176 
 RUS  HZ I        1650 30.64        27.3 0.40            143           99.3 176 
 PTB  HZ EP       1650 13.31                             132   -0.79 9  147 259 
 PTB  HN ES       1650 34.47                             132   -0.49 9  147 259 
 PTB  HZ I        1650 38.05        26.2 0.20            130            147 259 
 SPBC HZ EP       1650 15.56                             129   -0.02 9  162 219 
 SPBC HN ES       1650 37.43                             129   -0.17 9  162 219 
 SPBC HZ I        1650 43.61        47.3 0.32            128            162 219 
 YPLC HZ EP     C 1650 16.84                             126   -0.10 9  176 151 
 YPLC HN ES       1650 40.72                             126    0.70 9  176 151 
 YPLC HZ I        1650 41.55        17.7 0.28            128            176 151 
 ZAR  HZ EP       1650 20.14                             122    0.46 9  204 293 
 ZAR  HN ES       1650 45.22                             122    0.33 9  204 293 
 ZAR  HZ I        1650 50.57        41.7 0.42            122            204 293 
 TABC EZ EP   4   1650 24.29                             119    1.45 0  228 211 
 TABC EZ ES   4   1650 54.11                             119    3.59 0  228 211 
 TABC EZ I        1650 58.14        24.4 0.52            119            228 211 
 NOR  HZ EP       1650 23.03                             118    0.19 8  233 235 
 NOR  HN ES       1650 50.32                             118   -0.20 8  233 235 
 NOR  HZ I        1650 55.88        23.9 0.20            118            233 235 
 CHI  HZ EP       1650 24.74                             117   -0.06 8  247 195 
 CHI  HN ES       1650 53.73                             117   -0.27 8  247 195 
 CHI  HZ I        1651  2.16         7.5 0.50            117            247 195 
 URE  HZ EP   2   1650 28.38                             113    0.05 4  284 292 
 URE  HN ES   4   1650 58.00                             113   -2.29 0  284 292 
 URE  HZ I        1651 10.71        20.5 0.20            114            284 292 
 GUY2CHZ EP   4   1650 32.30                             112    1.56 0  300 235 
 GUY2CHN ES   4   1651  6.44                             112    1.87 0  300 235 
 GUY2CHZ I        1651 14.26        15.1 0.54                           300 235 
 PTGC HZ EP   4   1650 29.65                             111   -1.38 0  308 158 
 PTGC HN ES   4   1651  1.44                             111   -3.64 0  308 158 
 ELA  HZ EP   4   1650 36.06                             110    2.08 0  328 230 
 ELA  HN ES   4   1651 12.09                             110    1.75 0  328 230 
 ELA  HZ I        1651 18.21        12.0 0.74            110            328 230 
 DBB  EZ EP       1650 34.65                             109   -0.05 7  339 274 
 DBB  EN ES       1651 10.98                             109   -0.64 7  339 274 
 DBB  EZ I        1651 17.77         9.4 0.22            109            339 274 
 PRA  HZ EP       1650 40.81                             106    0.17 6  390 210 
 PRA  HN ES   1   1651 21.76                             106   -0.44 4  390 210 
 PRA  HZ I        1651 29.85        10.2 0.58            107            390 210 
 ORTC HZ EP       1650 41.86                             106    0.81 6  394 216 
 ORTC HN ES       1651 24.11                             106    1.19 6  394 216 
 ORTC HZ I        1651 34.55         4.5 0.58            107            394 216 
 PAL  HZ EP       1650 42.43                             106    0.12 6  404 239 
 PAL  HN ES   4   1651 22.63                             106   -2.54 0  404 239 
 PAL  HZ I        1651 27.97         6.5 0.26            106            404 239 
 SJC  HZ EP   4   1650 41.05                             105   -1.91 0  410 327 
 SJC  HN ES   4   1651 21.96                             105   -4.36 0  410 327 
 SJC  HZ I        1651 26.58         3.3 0.52            106            410 327 
                                                                                
