 2015  921 1535  1.2 L   6.805 -73.286125.0  RSN  4 0.1 1.7LRSN                1
 GAP=209        0.41       6.4     4.2  3.7  0.1970E+02  0.3035E+01 -0.2461E+01E
 Epicentro: ZAPATOCA - SANTANDER                                               3
 ACTION:UPD 15-10-28 16:27 OP:cam  STATUS:               ID:20150921153501 L   I
 OLDACT:REG 15-09-21 21:22 OP:ar   STATUS:               ID:20150921152752     3
 2015-09-21-1527-52M.COL___358                                                 6
 STAT SP IPHASW D HRMM SECON CODA AMPLIT PERI AZIMU VELO AIN AR TRES W  DIS CAZ7
 BAR2 EZ EP       1535 18.51                             168    0.1510 26.1 154 
 BAR2 EZ ES       1535 31.79                             168    0.0110 26.1 154 
 BAR2 EZ I        1535 33.06        12.7 0.24            166           26.1 154 
 BRR  HZ EP     C 1535 19.11                             154   -0.1910 57.8 305 
 BRR  HN ES       1535 33.42                             154   -0.0310 57.8 305 
 BRR  HZ I        1535 34.03        13.2 0.13            152           57.8 305 
 PTB  HZ EP   4   1535 23.36                             130   -1.71 0  133 257 
 PTB  HE ES   2   1535 43.48                             130   -0.25 5  133 257 
 PTB  HZ I        1535 45.74        11.1 0.30            128            133 257 
 ZAR  HZ EP       1535 30.74                             119   -0.04 9  190 294 
 ZAR  HN ES       1535 54.09                             119    0.19 9  190 294 
 ZAR  HZ I        1535 57.15         5.9 0.32            119            190 294 
                                                                                
