 2016 1121 1016 43.7 L   6.520 -73.548114.8  RSN 16 0.6 2.2LRSN                1
 GAP= 56        1.02       3.1     3.3  5.8 -0.7776E+00  0.2654E+01  0.5219E+01E
 Epicentro: EL CARMEN - SANTANDER                                              3
 ACTION:UPD 17-10-26 21:10 OP:lp   STATUS:               ID:20161121101643 L   I
 OLDACT:UP  16-11-21 21:54 OP:dani STATUS:               ID:20161121100748     3
 OLDACT:UP  16-11-21 21:53 OP:dani STATUS:               ID:20161121100748     3
 OLDACT:UP  16-11-21 21:52 OP:dani STATUS:               ID:20161121100748     3
 OLDACT:UP  16-11-21 21:52 OP:dani STATUS:               ID:20161121100748     3
 OLDACT:REG 16-11-21 20:22 OP:dani STATUS:               ID:20161121100748     3
 2016-11-21-1008-00M.COL___334                                                 6
 STAT SP IPHASW D HRMM SECON CODA AMPLIT PERI AZIMU VELO AIN AR TRES W  DIS CAZ7
 BAR2 EZ IP     D 1017  0.55                             159    0.3310 41.3  79 
 BAR2 EZ ES       1017 12.88                             159   -0.2510 41.3  79 
 BAR2 EZ I        1017 14.16       138.8 0.48            161           41.3  79 
 BRR  HZ EP       1017  1.47                             147    0.1510 67.4 344 
 BRR  HN ES       1017 15.34                             147    0.2610 67.4 344 
 BRR  HZ I        1017 16.08        28.0 0.10            146           67.4 344 
 PTB  HZ EP     C 1017  3.33                             136   -0.5310  100 271 
 PTB  HE ES   3   1017 18.26                             136   -1.34 2  100 271 
 PTB  HZ I        1017 19.42        70.4 0.30            132            100 271 
 PAM  EZ EP       1017  7.31                             128    0.0810  130  46 
 PAM  EE ES       1017 25.37                             128   -0.2410  130  46 
 PAM  EZ I        1017 26.69        41.3 0.26            127            130  46 
 ZAR  HZ EP       1017 12.35                             118    0.64 9  180 307 
 ZAR  HN ES   3   1017 34.87                             118    1.29 2  180 307 
 ZAR  HZ I        1017 37.18        41.2 0.44            115            180 307 
 NOR  HZ EP       1017 11.35                             118   -0.44 9  180 234 
 NOR  HN ES       1017 33.33                             118   -0.39 9  180 234 
 NOR  HZ I        1017 38.22        16.8 0.16            115            180 234 
 TAM  HZ EP       1017 13.74                             116    0.43 9  195  93 
 TAM  HE ES   3   1017 34.61                             116   -1.82 2  195  93 
 TAM  HZ I        1017 39.96        13.3 0.15            115            195  93 
 CHI  HZ EP       1017 16.48                             114    0.99 8  210 186 
 CHI  HN ES       1017 40.87                             114    0.56 8  210 186 
 CHI  HZ I        1017 47.90         8.1 0.35            112            210 186 
 URE  HZ EP       1017 20.20                             109   -0.25 8  258 302 
 URE  HN ES   3   1017 48.25                             109   -0.88 2  258 302 
 URE  HZ I        1017 58.49        12.0 0.13            107            258 302 
 CBOC HZ EP   9   1017 24.82                             107    1.38 0  282 255 
 CBOC HN ES       1017 56.42                             106    0.59 7  282 255 
 PTGC HZ EP       1017 25.00                             105   -0.40 7  301 149 
 PTGC HN ES       1017 57.24                             105   -0.71 7  301 149 
 PTGC HZ I        1018  0.15         8.5 0.35            104            301 149 
 PRA  HZ EP   4   1017 28.74                             103   -1.82 0  344 206 
 PRA  HE ES   3   1018  5.65                             103   -1.48 2  344 206 
 PRA  HZ I        1018 11.69         5.5 0.31            101            344 206 
 ORTC HZ EP   3   1017 32.40                             103    1.76 2  345 213 
 ORTC HN ES   4   1018  9.69                             103    2.42 0  345 213 
 ORTC HZ I        1018 15.16         4.3 0.29            101            345 213 
 LL6C HZ EP   9   1017 13.31                             102   -18.7 0  357   5 
 LL6C HE ES   3   1017 53.19                             107    2.14 2  357   5 
 SJC  HZ EP       1017 38.36                             100   -0.66 6  414 334 
 SJC  HN ES   4   1018 20.02                             100   -2.17 0  414 334 
 SJC  HZ I        1018 29.94         1.9 0.41             98            414 334 
 CRJC HZ EP       1017 49.52                              97   -0.24 4  503   8 
                                                                                
