 2017 1221 1251  6.2 L   6.856 -73.149142.9  RSN 11 0.6 2.2LRSN                1
 GAP= 62        1.25       4.0     3.9  7.0 -0.1008E+01  0.3856E+01  0.1485E+00E
 Epicentro: LOS SANTOS - SANTANDER                                             3
 ACTION:UPD 18-01-04 13:22 OP:rebc STATUS:               ID:20171221125106 L   I
 OLDACT:UP  17-12-22 13:21 OP:nlst STATUS:               ID:20171221125106 L   3
 OLDACT:REG 17-12-21 20:36 OP:dhb  STATUS:               ID:20171221124347     3
 2017-12-21-1248-00M.COL___460                                                 6
 STAT SP IPHASW D HRMM SECON CODA AMPLIT PERI AZIMU VELO AIN AR TRES W  DIS CAZ7
 BAR2 EZ EP       1251 25.22                             168   -0.3710 29.4 187 
 BAR2 EZ ES       1251 40.64                             168   -0.1010 29.4 187 
 BAR2 EZ I        1251 43.88        64.0 0.84            168           29.4 187 
 PAM  EZ EP       1251 27.90                             152    0.0910 73.0  43 
 PAM  EE ES       1251 45.11                             152    0.4110 73.0  43 
 PAM  EZ I        1251 47.06        40.3 0.48            154           73.0  43 
 PTB  HZ EP       1251 32.17                             131   -0.82 9  149 256 
 PTB  HN ES       1251 53.42                             131   -0.49 9  149 256 
 PTB  HZ I        1251 55.74        20.1 0.40            131            149 256 
 TAM  HZ EP       1251 33.60                             129   -0.21 9  157 107 
 YPLC HZ EP       1251 35.84                             125   -0.47 9  182 152 
 YPLC HE ES       1252  0.44                             125    0.62 9  182 152 
 YPLC HZ I        1252  3.38        16.0 0.30            127            182 152 
 ZAR  HZ EP       1251 38.52                             122    0.36 9  201 291 
 ZAR  HE ES       1252  3.52                             122    0.41 9  201 291 
 ZAR  HZ I        1252 10.28        21.9 0.48            122            201 291 
 URE  HN ES   2   1252 16.86                             113   -1.65 4  281 291 
 URE  HZ I        1252 30.46         8.9 0.16            114            281 291 
 DRL03HZ EP       1251 48.38                             113    1.44 7  283 353 
 DRL03HE ES       1252 18.31                             113   -0.44 7  283 353 
 GUY2CHZ EP       1251 50.42                             111    0.40 7  305 234 
 GUY2CHE ES       1252 24.89                             111    0.67 7  305 234 
 GUY2CHZ I        1252 35.92         4.7 0.62                           305 234 
 SDV  BZ EP       1251 55.71                             108    0.04 6  357  51 
 SDV  B2 ES   2   1252 32.71                             108   -1.58 3  357  51 
 SDV  BZ I        1252 34.49         4.1 0.35            109            357  51 
 ORTC HZ EP       1251 59.91                             106   -0.64 6  400 216 
 ORTC HN ES       1252 43.30                             106    0.33 6  400 216 
 ORTC HZ I        1252 49.68         5.1 0.50            107            400 216 
                                                                                
