 2011 1121 1215 25.0 L   6.810 -73.128153.1  RSN  4 0.3 1.5LRSN                1
 GAP=138        0.48       5.6     5.9  9.3  0.1573E+02 -0.1265E+02 -0.2797E+02E
 Epicentro: LOS SANTOS - SANTANDER                                             3
 ACTION:UPD 12-07-13 16:11 OP:ep   STATUS:               ID:20111121121525 L   I
 2011-11-21-1214-55S.COL___178                                                 6
 STAT SP IPHASW D HRMM SECON CODA AMPLIT PERI AZIMU VELO AIN AR TRES W  DIS CAZ7
 BRR  HZ EP   1   1215 46.95                             153   -0.03 7 72.4 297 
 BRR  HE ES   2   1216  3.92                             153   -0.22 5 72.4 297 
 PAM  SZ EP   1   1215 47.96                             153    0.10 7 75.3  39 
 PAM  SZ I        1215 48.24         6.9 0.16                          75.3  39 
 RUS  HZ EP   2   1215 49.76                             145    0.24 5  102 177 
 RUS  HN ES   1   1216  8.60                             145   -0.06 7  102 177 
 RUS  HZ I        1216 11.90         1.6 0.39                           102 177 
 ZAR  HZ EP   2   1215 57.40                             124   -0.64 4  205 292 
 ZAR  HN ES   2   1216 24.41                             124    0.57 4  205 292 
 ZAR  HZ I        1216 29.70         5.0 0.32                           205 292 
                                                                                
