 2010 1021 1110 52.7 L   6.805 -73.066147.2  RSN 12 0.5 2.7LRSN                1
 GAP=167        0.88       4.9     8.6  8.6 -0.1728E+02  0.1328E+02  0.7400E+01E
 Epicentro: LOS SANTOS - SANTANDER                                             3
 ACTION:UP  11-02-18 11:11 OP:tino STATUS:               ID:20101021111052 L   I
 2010-10-21-1106-48S.COL___128                                                 6
 STAT SP IPHASW D HRMM SECON CODA AMPLIT PERI AZIMU VELO SNR AR TRES W  DIS CAZ7
 BTL  SZ EP   1   1111 13.49                             170     0.9 7   26 300 
 BAR2 SZ IP     C 1111 12.66                             169     0.010   27 209 
 BAR2 SZ ES   2   1111 27.56                             169    -0.6 5   27 209 
 BAR2 SZ I        1111 29.30       135.9 0.29                            27 209 
 GIR2 SZ EP   1   1111 12.69                             167     0.0 7   33 335 
 BRR  HZ EP   1   1111 14.54                             150     0.0 7   79 295 
 BRR  HN ES   2   1111 31.85                             150     0.4 5   79 295 
 BRR  HZ I        1111 36.43        75.6 0.22                            79 295 
 RUS  HZ EP       1111 16.51                             144    -0.210  101 181 
 RUS  HN ES   2   1111 35.08                             144    -0.2 5  101 181 
 RUS  HZ I        1111 36.60        41.8 0.35                           101 181 
 GUE  SZ EP   1   1111 17.55                             140     0.1 7  114   8 
 GRA  SZ EP   1   1111 17.48                             138    -0.4 7  123  14 
 GRA  SZ ES   2   1111 37.14                             138    -0.4 5  123  14 
 GRA  SZ I        1111 40.58        65.0 0.33                           123  14 
 NOR  SZ EP   1   1111 28.72                             118    -0.7 6  242 236 
 NOR  SE ES   2   1111 57.20                             118    -0.8 4  242 236 
 CHI  HZ EP   1   1111 30.80                             117     0.0 6  252 197 
 CHI  HZ I        1111 33.45        26.0 0.46                           252 197 
 CHI  HN ES   2   1112  0.98                             117     0.4 4  252 197 
 ROSC BZ EP   1   1111 32.54                             116     1.0 6  258 213 
 ROSC BE ES   2   1112  1.99                             116     0.3 4  258 213 
 ROSC BZ I        1112 10.66        55.6 0.25                           258 213 
 HEL  HZ EP   1   1111 33.83                             114    -0.2 6  281 256 
 HEL  HZ I        1112 12.24        38.0 0.34                           281 256 
 PRA  HZ EP   1   1111 46.06                             106    -0.8 4  397 211 
 PRA  HN ES   2   1112 29.29                             106     0.2 3  397 211 
                                                                                
