 2017  221 1246  0.0 L   7.414 -73.198123.7  RSN 11 0.5 2.3LRSN                1
 GAP=186        0.97       4.8     3.5  7.1  0.1532E+01  0.1110E+02  0.9820E+00E
 Epicentro: EL PLAYON - SANTANDER                                              3
 ACTION:UPD 17-05-24 15:39 OP:jn   STATUS:               ID:20170221124600 L   I
 OLDACT:UP  17-02-21 22:49 OP:cog  STATUS:               ID:20170221123747d    3
 OLDACT:UP  17-02-21 22:48 OP:cog  STATUS:               ID:20170221123747d    3
 OLDACT:DUP 17-02-21 22:37 OP:cog  STATUS:               ID:20170221123747d    3
 2017-02-21-1238-00M.COL___373                                                 6
 STAT SP IPHASW D HRMM SECON CODA AMPLIT PERI AZIMU VELO AIN AR TRES W  DIS CAZ7
 PAM  EZ EP       1246 18.48                             155   -0.1510 55.7  98 
 PAM  EN ES       1246 33.40                             155    0.2610 55.7  98 
 PAM  EZ I        1246 35.35        46.3 0.38            156           55.7  98 
 BRR  HZ EP       1246 18.31                             150   -0.2010 66.1 239 
 BRR  HZ I        1246 35.49        84.0 0.18            147           66.1 239 
 BAR2 EZ EP       1246 20.24                             141   -0.3210 90.9 179 
 BAR2 EZ ES       1246 36.70                             141    0.1210 90.9 179 
 BAR2 EZ I        1246 37.86       102.2 0.22            140           90.9 179 
 PTB  HZ EP       1246 27.20                             122   -0.26 9  169 235 
 PTB  HE ES       1246 48.83                             122   -0.03 9  169 235 
 PTB  HZ I        1246 51.38        23.6 0.18            121            169 235 
 RUS  HZ EP   3   1246 27.23                             123   -0.79 2  169 176 
 RUS  HN ES       1246 49.57                             123   -0.28 9  169 176 
 RUS  HZ I        1246 56.89         7.5 0.28            122            169 176 
 ZAR  HZ EP       1246 28.33                             120   -0.59 9  183 273 
 ZAR  HE ES       1246 51.88                             120    0.42 9  183 273 
 ZAR  HZ I        1246 54.93        53.2 0.30            119            183 273 
 TAM  HN ES       1246 52.76                             119    0.09 9  189 125 
 NOR  HZ EP       1246 38.78                             110   -0.45 7  276 222 
 NOR  HN ES       1247  9.81                             110   -0.00 7  276 222 
 NOR  HZ I        1247 11.10         9.3 0.30            109            276 222 
 HEL  HZ EP       1246 42.42                             108    1.04 7  291 242 
 HEL  HE ES   4   1247 11.51                             108   -2.13 0  291 242 
 HEL  HZ I        1247 20.33         9.5 0.24            108            291 242 
 CHI  HZ EP       1246 45.20                             107    1.14 7  313 191 
 CHI  HE ES   4   1247 21.22                             107    2.81 0  313 191 
 CHI  HZ I        1247 26.03         4.4 0.76            106            313 191 
 ELA  HZ EP   9   1246 54.69                             103    3.49 0  373 221 
 ELA  HE ES       1247 34.37                             102   -0.24 6  373 221 
 ELA  HZ I        1247 41.42         6.0 0.38            103            373 221 
                                                                                
