 2012  721 1234 56.7 L   6.809 -73.152143.7  RSN 14 0.4 3.0LRSN                1
 GAP= 65        0.85       3.2     2.4  5.0  0.3190E+00  0.1827E+01  0.2969E+01E
 Epicentro: LOS SANTOS - SANTANDER                                             3
 ACTION:UPD 12-08-14 11:46 OP:ep   STATUS:               ID:20120721123456 L   I
 2012-07-21-1230-00M.COL___215                                                 6
 STAT SP IPHASW D HRMM SECON CODA AMPLIT PERI AZIMU VELO AIN AR TRES W  DIS CAZ7
 BAR2 SZ IP       1235 15.98                             170    -0.110   24 188 
 BAR2 SZ ES   1   1235 30.59                             170    -0.6 7   24 188 
 BAR2 SZ I        1235 32.04       278.2 0.29            170             24 188 
 BRR  HZ EP       1235 17.78                             152     0.210   70 298 
 BRR  HN ES       1235 34.39                             152     0.610   70 298 
 BRR  HZ I        1235 35.58       254.4 0.11            151             70 298 
 PAM  SZ IP       1235 18.70                             150     0.010   77  40 
 PAM  SN ES   1   1235 35.66                             150    -0.1 7   77  40 
 RUS  HZ EP   1   1235 20.03                             143    -0.3 7  102 176 
 RUS  HN ES   1   1235 39.07                             143     0.3 7  102 176 
 RUS  HZ I        1235 40.51       153.9 0.28            144            102 176 
 PTB  HZ EP   1   1235 22.58                             132    -0.9 7  147 258 
 PTB  HN ES       1235 43.70                             132    -0.6 9  147 258 
 PTB  HZ I        1235 44.90        69.9 0.16            131            147 258 
 TAM  HZ IP     C 1235 24.37                             130     0.1 9  156 105 
 TAM  HZ I        1235 24.74       189.5 0.21            131            156 105 
 TAM  HN ES       1235 45.80                             130     0.0 9  156 105 
 OCA  HZ EP   1   1235 24.52                             129    -0.2 7  159 353 
 OCA  HE ES   1   1235 46.32                             129    -0.3 7  159 353 
 OCA  HZ I        1235 49.11       210.0 0.20            130            159 353 
 YOP  SZ EP   1   1235 26.82                             126     0.1 7  180 153 
 YOP  SN ES   2   1235 50.67                             126     0.6 4  180 153 
 ZAR  HZ EP   1   1235 28.96                             122     0.1 6  203 292 
 ZAR  HE ES   1   1235 54.68                             122     0.7 6  203 292 
 ZAR  HZ I        1235 59.63       111.9 0.25            122            203 292 
 NOR  SZ EP   1   1235 32.21                             118    -0.1 6  235 234 
 NOR  SN ES       1235 59.95                             118    -0.1 8  235 234 
 CHI  HZ EP   1   1235 34.52                             117     0.2 6  249 195 
 CHI  HN ES   2   1236  3.63                             117    -0.1 4  249 195 
 CHI  HZ I        1236  6.96        30.1 0.50            117            249 195 
 HEL  HZ EP   1   1235 36.97                             114     0.2 6  272 256 
 HEL  HN ES       1236  8.33                             114     0.3 8  272 256 
 HEL  HZ I        1236 13.79        34.5 0.66            114            272 256 
 DBB  SZ EP   1   1235 43.67                             109    -0.3 5  339 274 
 DBB  SZ ES   1   1236 20.90                             109     0.0 5  339 274 
 SJA  SZ EP   1   1235 51.70                             106     0.4 4  401 193 
