 2011  821 1442 59.7 L   6.785 -73.135144.0  RSN 10 0.2 2.0LRSN                1
 GAP=184        0.45       1.8     2.9  2.9 -0.1607E-01  0.1822E+01  0.4873E+00E
 Epicentro: LOS SANTOS - SANTANDER                                             3
 ACTION:UPD 12-07-13 15:53 OP:ep   STATUS:               ID:20110821144259 L   I
 2011-08-21-1440-18S.COL___152                                                 6
 STAT SP IPHASW D HRMM SECON CODA AMPLIT PERI AZIMU VELO AIN AR TRES W  DIS CAZ7
 BAR2 SZ EP       1443 18.94                             171   -0.1810 22.0 194 
 BAR2 SZ ES       1443 34.36                             171    0.1210 22.0 194 
 BAR2 SZ I        1443 35.63        18.0 0.16                          22.0 194 
 BRR  HZ EP       1443 20.65                             152   -0.1410 73.0 299 
 BRR  HZ I        1443 22.26        22.9 0.11                          73.0 299 
 BRR  HN ES       1443 37.42                             152    0.2010 73.0 299 
 RUS  HZ EP       1443 23.02                             144   -0.1610 98.9 177 
 RUS  HN ES       1443 41.51                             144    0.0310 98.9 177 
 RUS  HZ I        1443 43.42         9.9 0.31                          98.9 177 
 OCA  SZ EP       1443 28.01                             129   -0.06 9  162 353 
 OCA  SZ ES   1   1443 50.29                             129    0.12 7  162 353 
 OCA  SZ I        1443 53.74        15.5 0.19                           162 353 
 NOR  SZ EP   2   1443 35.57                             118    0.21 4  235 235 
 NOR  SN ES   1   1444  3.08                             118   -0.07 6  235 235 
 CHI  HZ EP       1443 37.35                             117    0.16 8  247 196 
 CHI  HZ I        1443 39.23         2.9 0.21                           247 196 
 HEL  HZ EP   2   1443 39.79                             114   -0.14 4  273 256 
 HEL  HE ES   1   1444 10.71                             114   -0.58 6  273 256 
 HEL  HZ I        1444 17.34         7.3 0.47                           273 256 
 GUY  SZ EP   2   1443 43.99                             112    0.47 4  304 235 
 GUY  SZ I        1444 27.86         9.7 0.37                           304 235 
 RREF HZ EP   1   1443 46.39                             111    0.61 5  322 230 
 RREF HE ES   2   1444 22.05                             111    0.36 3  322 230 
 RREF HZ I        1444 32.12         4.6 0.44                           322 230 
 PRA  HZ EP   2   1443 52.75                             106   -0.34 3  391 210 
 PRA  HE ES   2   1444 34.64                             106   -0.07 3  391 210 
                                                                                
