 2012  921 1621 18.3 L   6.751 -73.082147.0  RSN  9 0.3 2.2LRSN                1
 GAP=147        0.56       2.7     3.3  4.1 -0.8428E+00  0.4106E+01  0.3784E+01E
 Epicentro: LOS SANTOS - SANTANDER                                             3
 ACTION:UPD 12-10-22 14:20 OP:ep   STATUS:               ID:20120921162118 L   I
 2012-09-21-1620-00S.MAN___224                                                 6
 STAT SP IPHASW D HRMM SECON CODA AMPLIT PERI AZIMU VELO AIN AR TRES W  DIS CAZ7
 BAR2 SZ EP       1621 37.99                             172   -0.0110 20.8 212 
 BAR2 SZ ES   1   1621 53.26                             172   -0.13 7 20.8 212 
 BAR2 SZ I        1621 54.74        37.6 0.39                          20.8 212 
 PAM  SZ EP   1   1621 40.78                             151    0.16 7 77.6  33 
 PAM  SN ES       1621 58.13                             151    0.0610 77.6  33 
 PAM  SZ I        1622  0.31        15.0 0.10                          77.6  33 
 BRR  HZ EP       1621 39.91                             150   -0.1510 80.0 300 
 BRR  HZ I        1621 41.54        40.9 0.09                          80.0 300 
 BRR  HN ES       1621 57.13                             150    0.0610 80.0 300 
 RUS  HZ EP       1621 41.78                             146    0.0410 94.9 180 
 RUS  HN ES   1   1622  0.00                             146   -0.06 7 94.9 180 
 ZAR  HZ EP   1   1621 50.93                             121   -0.75 6  213 293 
 ZAR  HZ I        1622 22.47        19.7 0.20                           213 293 
 NOR  SN ES   2   1622 22.16                             118   -0.36 4  237 237 
 CHI  HZ EP   1   1621 55.91                             118    0.23 6  245 197 
 CHI  HN ES   1   1622 24.95                             118    0.08 6  245 197 
 CHI  HZ I        1622 31.34         6.1 0.21                           245 197 
 HEL  HZ EP   1   1621 59.43                             114    0.27 6  278 257 
 HEL  HN ES   1   1622 31.81                             114    0.75 6  278 257 
 PRA  HZ EP   1   1622 11.98                             107    0.28 4  391 211 
 PRA  HN ES   1   1622 52.76                             107   -0.61 4  391 211 
                                                                                
