 2015  621 1523 33.6 L   6.792 -73.127142.0  RSN 18 0.6 2.4LRSN                1
 GAP=185        1.30       3.0     5.5  6.3 -0.1785E+01  0.1178E+02  0.2670E+01E
 Epicentro: LOS SANTOS - SANTANDER                                             3
 ACTION:UPD 15-09-10 22:14 OP:cam  STATUS:               ID:20150621152333 L   I
 OLDACT:DUP 15-06-21 22:27 OP:stll STATUS:               ID:20150621151750d    3
 2015-06-21-1517-49M.COL___328                                                 6
 STAT SP IPHASW D HRMM SECON CODA AMPLIT PERI AZIMU VELO AIN AR TRES W  DIS CAZ7
 BAR2 EZ EP     C 1523 53.01                             170    0.2310 22.9 196 
 BAR2 EZ ES       1524  7.76                             170    0.0310 22.9 196 
 BAR2 EZ I        1524  9.51        77.0 0.18            166           22.9 196 
 BRR  HZ EP       1523 54.88                             151    0.3910 73.5 298 
 BRR  HN ES       1524 11.85                             151    1.0810 73.5 298 
 BRR  HZ I        1524 14.55        27.3 0.30            142           73.5 298 
 RUS  HZ EP       1523 57.12                             143    0.2010 99.6 177 
 RUS  HN ES       1524 14.83                             143   -0.2710 99.6 177 
 RUS  HZ I        1524 17.28        25.7 0.28            140           99.6 177 
 OCA  HZ EP       1524  1.50                             129   -0.24 9  161 352 
 OCA  HE ES       1524 23.42                             129   -0.26 9  161 352 
 OCA  HZ I        1524 26.74        38.6 0.24            123            161 352 
 ZAR  HZ EP       1524  5.55                             121   -0.50 8  206 292 
 ZAR  HE ES       1524 30.74                             121   -0.61 8  206 292 
 ZAR  HZ I        1524 36.33        17.7 0.44            115            206 292 
 NOR  HZ EP     D 1524  9.50                             118    0.25 8  236 235 
 NOR  HN ES       1524 35.90                             118   -1.15 8  236 235 
 NOR  HZ I        1524 40.40        18.9 0.18            113            236 235 
 SML  HZ EP       1524  9.92                             117   -0.29 8  245 335 
 SML  HN ES       1524 37.77                             117   -0.99 8  245 335 
 SML  HZ I        1524 40.22        20.4 0.32            112            245 335 
 CHI  HZ EP       1524 11.07                             116    0.00 8  248 196 
 CHI  HZ I        1524 13.45         8.4 0.46            112            248 196 
 CHI  HN ES       1524 39.82                             116   -0.46 8  248 196 
 ROSC BZ EP       1524 11.62                             116    0.06 8  253 212 
 ROSC BN ES       1524 40.45                             116   -0.71 8  253 212 
 ROSC BZ I        1524 47.49        18.0 0.45            111            253 212 
 HEL  HZ EP       1524 14.15                             114    0.31 8  274 256 
 HEL  HN ES       1524 46.56                             114    1.35 8  274 256 
 HEL  HZ I        1524 51.85        10.9 0.26            109            274 256 
 GUY2CHZ EP       1524 17.73                             112    0.55 7  302 235 
 GUY2CHN ES       1524 51.63                             112    0.46 7  302 235 
 GUY2CHZ I        1524 57.82         9.3 0.30                           302 235 
 RREF HZ EP       1524 21.16                             110    1.45 7  323 230 
 RREF HE ES       1524 54.73                             110   -0.93 7  323 230 
 RREF HZ I        1524 59.97         4.6 0.30            106            323 230 
 CBOC HZ EP       1524 20.70                             109    0.13 7  335 252 
 CBOC HZ I        1525  7.84         3.2 0.44            105            335 252 
 DBB  SZ EP       1524 21.04                             109   -0.15 7  342 274 
 DBB  SZ I        1525  0.74        20.0 0.72            105            342 274 
 TOL  SZ EP       1524 22.40                             109    0.59 7  344 225 
 TOL  SN ES       1524 59.38                             109   -0.03 7  344 225 
 TOL  SZ I        1525  4.94         7.9 0.24            105            344 225 
 ANIL HN ES       1525  2.49                             108    0.31 6  358 225 
 ANIL HZ I        1525  6.75        23.7 0.32            104            358 225 
 PRA  HZ EP       1524 26.69                             106   -0.34 6  392 210 
 PRA  HN ES       1525  7.82                             106   -0.88 6  392 210 
 PRA  HZ I        1525 15.09         8.6 0.32            103            392 210 
 ORTC HZ EP       1524 27.71                             106    0.25 6  396 216 
 ORTC HE ES       1525  9.22                             106   -0.25 6  396 216 
 ORTC HZ I        1525 16.25         8.1 0.68            102            396 216 
                                                                                
