 2012  721 1635 12.7 L   6.804 -73.079149.3  RSN  4 0.4 1.7LRSN                1
 GAP=245        0.94      12.9    16.9 13.3  0.1887E+03 -0.7650E+02 -0.5882E+02E
 Epicentro: LOS SANTOS - SANTANDER                                             3
 ACTION:UPD 12-08-14 11:46 OP:ep   STATUS:               ID:20120721163512 L   I
 2012-07-21-1630-00M.COL___215                                                 6
 STAT SP IPHASW D HRMM SECON CODA AMPLIT PERI AZIMU VELO AIN AR TRES W  DIS CAZ7
 BAR2 SZ EP   1   1635 32.02                             170    -0.8 7   26 206 
 BRR  HZ EP   1   1635 34.85                             151     0.3 7   78 296 
 BRR  HN ES       1635 51.80                             151     0.210   78 296 
 BRR  HZ I        1636 10.12        20.6 0.33            149             78 296 
 RUS  HZ EP   1   1635 37.28                             144     0.5 7  101 180 
 RUS  HN ES       1635 55.52                             144    -0.110  101 180 
 RUS  HZ I        1635 57.07         3.3 0.24            162            101 180 
 ZAR  HN ES   1   1636 11.78                             122    -0.3 6  211 291 
