 2012 1121 1418  9.3 L   6.833 -73.143141.4  RSN 14 0.5 2.5LRSN                1
 GAP=135        0.89       2.8     4.4  5.7 -0.1820E+01  0.1013E+02  0.8208E+00E
 Epicentro: LOS SANTOS - SANTANDER                                             3
 ACTION:UPD 12-12-05 15:34 OP:}ep  STATUS:               ID:20121121141809 L   I
 2012-11-21-1416-52M.COL___201                                                 6
 STAT SP IPHASW D HRMM SECON CODA AMPLIT PERI AZIMU VELO AIN AR TRES W  DIS CAZ7
 BAR2 SZ EP   1   1418 28.64                             169    0.11 8 27.0 189 
 BAR2 SZ ES   1   1418 43.49                             169    0.00 8 27.0 189 
 BAR2 SZ I        1418 45.28       102.4 0.43                          27.0 189 
 GIR2 SZ EP   1   1418 28.67                             168    0.27 8 27.7 348 
 GIR2 SZ ES   1   1418 43.65                             168    0.39 8 27.7 348 
 PAM  SZ EP   1   1418 31.58                             151    0.67 8 74.4  41 
 PAM  SE ES   1   1418 48.38                             151    0.64 8 74.4  41 
 PAM  SZ I        1418 49.16        44.1 0.18                          74.4  41 
 RUS  HZ EP     C 1418 32.70                             142   -0.2410  104 176 
 RUS  HN ES   1   1418 50.48                             142   -0.86 7  104 176 
 RUS  HZ I        1418 52.84        22.3 0.22                           104 176 
 PTB  HZ EP   1   1418 35.50                             131   -0.55 7  149 257 
 PTB  HN ES   1   1418 56.09                             131   -0.79 7  149 257 
 PTB  HZ I        1418 58.69        38.2 0.12                           149 257 
 OCA  HN ES   1   1418 58.43                             129   -0.09 7  157 353 
 OCA  HZ I        1419  2.35        59.5 0.18                           157 353 
 ZAR  HZ EP   1   1418 41.63                             122    0.24 6  203 291 
 ZAR  HN ES   1   1419  6.20                             122   -0.18 6  203 291 
 ZAR  HZ I        1419 11.99        36.2 0.54                           203 291 
 SML  HZ EP   1   1418 44.89                             117   -0.48 6  240 335 
 SML  HE ES   1   1419 13.14                             117   -0.33 6  240 335 
 CHI  HZ EP   1   1418 46.81                             116   -0.39 6  252 195 
 CHI  HN ES   1   1419 16.81                             116    0.08 6  252 195 
 CHI  HZ I        1419 24.17        13.7 0.34                           252 195 
 HEL  HZ EP   1   1418 50.36                             114    0.89 6  273 255 
 HEL  HN ES   1   1419 20.94                             114    0.18 6  273 255 
 HEL  HZ I        1419 28.08        13.3 0.38                           273 255 
 GUY  SZ EP   1   1418 54.19                             111    0.91 5  306 235 
 GUY  SN ES   1   1419 28.55                             111    1.00 5  306 235 
 RREF HZ EP   1   1418 55.98                             110    0.38 5  324 229 
 RREF HN ES   1   1419 31.93                             110    0.25 5  324 229 
 RREF HZ I        1419 40.42        18.2 0.22                           324 229 
 COD  HZ EP   1   1418 56.61                             108   -0.51 5  345 355 
 COD  HE ES   1   1419 33.72                             108   -0.67 5  345 355 
 COD  HZ I        1419 41.25         5.9 0.38                           345 355 
 PRA  HZ EP   1   1419  2.67                             106   -0.44 4  395 209 
 PRA  HN ES   1   1419 44.72                             106   -0.32 4  395 209 
 PRA  HZ I        1419 50.93        15.1 0.38                           395 209 
                                                                                
