 2011  221 1351  3.6 L   6.766 -73.161136.0  RSN  8 0.4 2.3LRSN                1
 GAP=157        0.99       4.8     7.2  8.4 -0.1478E+02  0.2678E+02 -0.2339E+01E
 Epicentro: LOS SANTOS - SANTANDER                                             3
 ACTION:UP  11-03-28 15:10 OP:jfem STATUS:               ID:20110221135103 L   I
 2011-02-21-1348-41S.COL___137                                                 6
 STAT SP IPHASW D HRMM SECON CODA AMPLIT PERI AZIMU VELO SNR AR TRES W  DIS CAZ7
 BAR2 SZ IP       1351 21.94                             172     0.010   19 187 
 BAR2 SZ ES   1   1351 36.17                             172    -0.1 7   19 187 
 BAR2 SZ I        1351 39.41        88.7 0.27                            19 187 
 BTL  SZ IP       1351 22.52                             171     0.510   21 325 
 RUS  HZ EP       1351 25.88                             143    -0.210   97 175 
 RUS  HN ES   1   1351 44.12                             143     0.4 7   97 175 
 RUS  HZ I        1351 45.46        32.1 0.30                            97 175 
 GRA  SZ IP       1351 27.92                             134    -0.410  130  18 
 GRA  SZ ES   1   1351 47.68                             134     0.1 7  130  18 
 GRA  SZ I        1351 48.48        24.0 0.30                           130  18 
 NOR  SZ EP       1351 37.87                             117    -0.5 8  231 235 
 NOR  SN ES   1   1352  4.89                             117    -0.6 6  231 235 
 CHI  HZ EP       1351 40.16                             116    -0.1 8  245 195 
 CHI  HN ES   1   1352  8.96                             116     0.0 6  245 195 
 CHI  HZ I        1352 13.42        11.1 0.29                           245 195 
 HEL  HZ EP   1   1351 43.86                             113     0.8 6  270 256 
 HEL  HN ES   1   1352 13.92                             113     0.1 6  270 256 
 HEL  HZ I        1352 20.83        16.5 0.23                           270 256 
 RREF HZ EP       1351 49.39                             109     0.5 7  318 230 
 RREF HZ I        1352 30.96        11.7 0.25                           318 230 
                                                                                
