 2017 1221 1826 23.8 L   6.541 -73.546103.6  RSN 12 0.5 2.1LRSN                1
 GAP= 71        1.21       3.4     2.8  6.8  0.2484E+00  0.7854E+00 -0.2057E+01E
 Epicentro: EL CARMEN - SANTANDER                                              3
 ACTION:UPD 18-01-04 13:22 OP:rebc STATUS:               ID:20171221182623 L   I
 OLDACT:UP  17-12-22 00:23 OP:dhb  STATUS:               ID:20171221181744d    3
 OLDACT:DUP 17-12-22 00:17 OP:dhb  STATUS:               ID:20171221181744d    3
 2017-12-21-1818-00M.COL___478                                                 6
 STAT SP IPHASW D HRMM SECON CODA AMPLIT PERI AZIMU VELO AIN AR TRES W  DIS CAZ7
 BAR2 EZ IP     D 1826 39.44                             157    0.3610 40.6  82 
 BAR2 EZ ES       1826 51.83                             157    0.8510 40.6  82 
 BAR2 EZ I        1826 52.92        78.9 0.22            157           40.6  82 
 PTB  HZ IP     C 1826 42.17                             132   -0.9310  101 270 
 PTB  HE ES       1826 57.31                             132   -0.8110  101 270 
 PTB  HZ I        1826 58.27        34.0 0.28            132            101 270 
 SPBC HZ EP       1826 44.65                             128    0.1810  114 211 
 SPBC HN ES       1827  0.51                             128   -0.0510  114 211 
 SPBC HZ I        1827  1.96        33.5 0.10            128            114 211 
 PAM  EZ EP       1826 46.25                             125   -0.1510  129  47 
 PAM  EN ES       1827  3.90                             125   -0.1010  129  47 
 PAM  EZ I        1827  5.55        19.9 0.28            125            129  47 
 ZAR  HZ EP       1826 51.20                             115    0.06 9  179 306 
 ZAR  HE ES       1827 12.65                             115    0.21 9  179 306 
 ZAR  HZ I        1827 16.00        22.9 0.46            115            179 306 
 YPLC HZ EP       1826 51.23                             114   -0.18 9  181 134 
 YPLC HE ES       1827 12.88                             114   -0.03 9  181 134 
 YPLC HZ I        1827 15.28        22.4 0.42            115            181 134 
 NOR  HZ EP   9   1826 53.58                             114    2.05 0  182 234 
 NOR  HN ES       1827 15.00                                   -0.18 9  182 234 
 TAM  HZ EP       1826 52.15                             113   -0.74 9  194  93 
 TAM  HN ES       1827 15.22                             113   -0.33 9  194  93 
 TAM  HZ I        1827 17.64        14.9 0.24            113            194  93 
 GUY2CHZ EP       1827  0.28                             107    0.61 8  249 234 
 GUY2CHE ES   4   1827 30.56                             107    2.95 0  249 234 
 GUY2CHZ I        1827 31.88         6.4 0.28                           249 234 
 URE  HZ EP   4   1826 56.88                             106   -3.21 0  257 301 
 URE  HE ES       1827 28.61                             106    0.25 8  257 301 
 URE  HZ I        1827 30.27         7.0 0.18            106            257 301 
 DRL03HZ EP       1827  7.75                             102    0.79 7  315   1 
 DRL03HE ES       1827 40.61                             102    0.01 7  315   1 
 PRA  HZ EP       1827 11.38                             100    0.66 6  346 205 
 PRA  HE ES   2   1827 49.05                             100    1.76 3  346 205 
 PRA  HZ I        1827 52.35         3.4 0.24            100            346 205 
                                                                                
