 2012  221 1716 29.6 L   7.376 -73.368111.1  RSN  6 0.3 2.0LRSN                1
 GAP=221        0.53       4.8     3.8  4.5 -0.2043E+01 -0.1315E+01 -0.1281E+00E
 ACTION:UP  12-03-07 16:32 OP:epov STATUS:               ID:20120221171629 L   I
 2012-02-21-1710-00M.COL___190                                                 6
 STAT SP IPHASW D HRMM SECON CODA AMPLIT PERI AZIMU VELO AIN AR TRES W  DIS CAZ7
 GIR2 SZ EP   1   1716 45.41                             160    0.00 7 38.1 150 
 GIR2 SZ ES   2   1716 58.30                             160    0.54 5 38.1 150 
 BRR  HZ EP       1716 45.47                             155   -0.2010 48.2 232 
 BRR  HE ES       1716 58.15                             155   -0.0910 48.2 232 
 BRR  HZ I        1716 59.39        44.6 0.15                          48.2 232 
 PAM  SZ EP   1   1716 48.37                             144    0.39 7 74.0  93 
 PAM  SN ES   2   1717  2.03                             144   -0.31 5 74.0  93 
 BAR2 SZ EP       1716 48.88                             138    0.1010 89.1 167 
 BAR2 SZ ES       1717  3.73                             138   -0.0410 89.1 167 
 BAR2 SZ I        1717  5.78        16.8 0.16                          89.1 167 
 RUS  HZ EP   1   1716 56.22                             119   -0.37 7  167 169 
 NOR  SZ EP   2   1717  6.86                             108    0.37 4  260 220 
 NOR  SE ES   2   1717 35.80                             108    0.50 4  260 220 
                                                                                
