 2011 1221 1045 38.3 L   6.789 -73.385121.6  RSN  5 0.1 1.4LRSN                1
 GAP=101        0.39       5.7     5.1  4.6  0.1469E+02  0.8080E+01  0.8803E+01E
 Epicentro: SAN VICENTE DE CHUCURI - SANTANDER                                 3
 ACTION:UPD 12-07-13 16:17 OP:ep   STATUS:               ID:20111221104538 L   I
 2011-12-21-1040-00M.COL___189                                                 6
 STAT SP IPHASW D HRMM SECON CODA AMPLIT PERI AZIMU VELO AIN AR TRES W  DIS CAZ7
 BAR2 SZ EP   1   1045 55.46                             165    0.25 7 31.2 134 
 BAR2 SZ ES   1   1046  8.33                             165   -0.10 7 31.2 134 
 BAR2 SZ I        1046  9.89        10.6 0.21                          31.2 134 
 GIR2 SZ EP   1   1045 55.11                             161   -0.21 7 38.4  33 
 BRR  HZ EP   1   1045 55.73                             156    0.09 7 50.4 314 
 BRR  HE ES   1   1046  9.28                             156    0.07 7 50.4 314 
 BRR  HZ I        1046 10.95         4.9 0.15                          50.4 314 
 RUS  HZ EP   2   1046  0.08                             137    0.04 5  105 161 
 PTB  HZ EP   1   1046  0.76                             132   -0.12 7  122 257 
                                                                                
