 2010  621 1226 44.8 L   7.318 -74.049  5.7  RSN  7 0.4 1.7LRSN                1
 GAP=252        0.79       3.5     7.7 10.7  0.8339E+00  0.2924E+02  0.1371E+02E
 Epicentro: PUERTO WILCHES - SANTANDER                                         3
 ACTION:UP  10-08-24 10:12 OP:vdl  STATUS:               ID:20100621122644 L   I
 2010-06-21-1223-16S.COL___118                                                 6
 STAT SP IPHASW D HRMM SECON CODA AMPLIT PERI AZIMU VELO SNR AR TRES W  DIS CAZ7
 BRR  HZ IP     D 1226 52.04                              93     0.010   44 122 
 BRR  HN ES   2   1226 58.44                              93     0.8 5   44 122 
 BRR  HZ I        1227  0.07        41.2 0.49                            44 122 
 BAR2 SZ EP   1   1227  4.46                              91    -0.1 7  125 130 
 BAR2 SZ ES   2   1227 19.30                              91    -0.6 5  125 130 
 OCA  SZ EP   1   1227  5.48                              91     0.3 7  130  38 
 OCA  SZ ES   2   1227 21.13                              91     0.0 5  130  38 
 GUE  SZ EP   1   1227  5.38                              91    -1.0 7  136  65 
 BRI  SZ EP   1   1227  7.98                              91     0.5 7  145  72 
 BRI  SZ ES   2   1227 25.30                              91     0.0 5  145  72 
 GRA  SZ EP   1   1227  8.68                              91     0.3 7  151  65 
 GRA  SZ ES   2   1227 26.68                              91    -0.2 5  151  65 
 RUS  HZ EP   1   1227 14.25                              56     0.0 7  190 146 
 RUS  HN ES   2   1227 37.36                              56     0.1 4  190 146 
 RUS  HZ I        1227 38.48        11.0 0.15                           190 146 
                                                                                
