 2016  221 1025 23.9 L   6.770 -73.186143.8  RSN  6 0.4 1.0LRSN                1
 GAP=231        0.97       5.1     6.2  6.6  0.1745E+02  0.8525E+01  0.6005E+01E
 Epicentro: LOS SANTOS - SANTANDER                                             3
 ACTION:UPD 16-03-04 21:28 OP:rebc STATUS:               ID:20160221102523 L   I
 OLDACT:UP  16-02-21 21:28 OP:ak   STATUS:               ID:20160221101744     3
 OLDACT:UP  16-02-21 21:28 OP:ak   STATUS:               ID:20160221101744     3
 OLDACT:REG 16-02-21 20:31 OP:ak   STATUS:               ID:20160221101744     3
 2016-02-21-1017-44M.COL___318                                                 6
 STAT SP IPHASW D HRMM SECON CODA AMPLIT PERI AZIMU VELO AIN AR TRES W  DIS CAZ7
 BAR2 EZ EP       1025 42.83                             172   -0.4410 19.6 179 
 BAR2 EZ ES       1025 58.96                             172    0.6210 19.6 179 
 BRR  HZ EP       1025 45.09                             153    0.3310 69.1 303 
 BRR  HN ES       1026  0.94                             153   -0.0610 69.1 303 
 RUS  HZ EP       1025 46.95                             144   -0.3410 97.7 173 
 RUS  HN ES       1026  5.11                             144   -0.3910 97.7 173 
 RUS  HZ I        1026  7.89         1.2 0.34            144           97.7 173 
 PTB  HZ EP   2   1025 49.81                             133   -0.49 5  143 260 
 PTB  HN ES       1026 10.40                             133   -0.46 9  143 260 
 PTB  HZ I        1026 12.08         2.2 0.13            130            143 260 
 ZAR  HZ EP       1025 56.18                             122    0.21 9  201 293 
 ZAR  HE ES       1026 21.07                             122    0.11 9  201 293 
 ZAR  HZ I        1026 29.02         1.3 0.09            121            201 293 
 CHI  HZ EP       1026  1.36                             117    0.30 8  244 194 
 CHI  HN ES       1026 30.61                             117    0.60 8  244 194 
 CHI  HZ I        1026 33.07         0.6 0.23            117            244 194 
                                                                                
