 2012 1121 1341 40.7 L   6.192 -73.847 40.0  RSN 12 0.4 2.4LRSN                1
 GAP= 64        0.85       2.4     2.5  7.0 -0.6804E+00  0.3704E+01  0.5451E+00E
 Epicentro: LANDAZURI - SANTANDER                                              3
 ACTION:UPD 12-12-05 15:34 OP:}ep  STATUS:               ID:20121121134140 L   I
 2012-11-21-1340-00M.COL___234                                                 6
 STAT SP IPHASW D HRMM SECON CODA AMPLIT PERI AZIMU VELO AIN AR TRES W  DIS CAZ7
 PTB  HZ EP     C 1341 56.49                             137   -0.5910 77.6 300 
 PTB  HN ES   1   1342  9.20                             137   -0.63 7 77.6 300 
 PTB  HZ I        1342 10.09       102.5 0.12                          77.6 300 
 BAR2 SZ EP       1341 58.58                             134    0.4810 85.7  59 
 BAR2 SZ ES   1   1342 12.12                             134    0.48 7 85.7  59 
 RUS  HZ EP     D 1341 58.75                             133   -0.1510 90.8 111 
 RUS  HN ES   1   1342 12.95                             133   -0.11 7 90.8 111 
 GIR2 SZ EP   1   1342  2.02                             123    0.53 7  122  36 
 CHI  HZ EP     C 1342  7.33                             114   -0.18 9  173 176 
 CHI  HE ES   1   1342 28.21                             114   -0.18 7  173 176 
 CHI  HZ I        1342 32.56        19.1 0.34                           173 176 
 PAM  SZ EP   1   1342  8.24                             113   -0.06 7  179  45 
 PAM  SE ES   1   1342 29.31                             113   -0.49 7  179  45 
 PAM  SZ I        1342 35.01        34.7 0.42                           179  45 
 ZAR  HZ EP   1   1342  7.90                             112   -0.11 7  182 322 
 ZAR  HN ES   1   1342 30.22                             112    0.93 7  182 322 
 ZAR  HZ I        1342 31.98        53.3 0.22                           182 322 
 HEL  HZ EP   1   1342  9.17                             112    0.23 7  186 270 
 HEL  HN ES   1   1342 31.31                             112    0.37 7  186 270 
 HEL  HZ I        1342 33.53        24.7 0.26                           186 270 
 GUY  SZ EP   1   1342 11.13                             110    0.24 6  202 238 
 GUY  SN ES   1   1342 34.78                             110    0.37 6  202 238 
 GUY  SZ I        1342 38.93        42.1 0.32                           202 238 
 OCA  HZ EP   1   1342 14.59                             107    0.33 6  234  14 
 OCA  HE ES   1   1342 40.40                             107   -0.02 6  234  14 
 OCA  HZ I        1342 46.13        50.8 0.22                           234  14 
 SML  HZ EP   1   1342 20.20                             104   -0.60 5  290 355 
 SML  HE ES   1   1342 51.32                             104   -0.73 5  290 355 
 PRA  HZ EP   1   1342 21.58                             103   -0.22 5  297 203 
 PRA  HE ES   1   1342 54.06                             103    0.22 5  297 203 
 PRA  HZ I        1343  3.37        13.7 0.48                           297 203 
                                                                                
