 2011  221 1949 34.7 L   5.942 -73.671111.8  RSN  6 0.2 1.3LRSN                1
 GAP=130        0.36       3.3     2.9  5.0 -0.6042E+01  0.4570E+01  0.1926E+01E
 Epicentro: BARBOSA - SANTANDER                                                3
 ACTION:UP  11-03-28 15:10 OP:jfem STATUS:               ID:20110221194934 L   I
 2011-02-21-1947-35S.COL___136                                                 6
 STAT SP IPHASW D HRMM SECON CODA AMPLIT PERI AZIMU VELO SNR AR TRES W  DIS CAZ7
 RUS  HZ EP   2   1949 52.53                             148    -0.1 5   65  95 
 RUS  HN ES   2   1950  6.67                             148     0.1 5   65  95 
 RUS  HZ I        1950 12.89         2.9 0.44                            65  95 
 BAR2 SZ ES       1950  9.05                             138    -0.110   90  37 
 BAR2 SZ I        1950 10.82        14.4 0.09                            90  37 
 BTL  SZ EP       1949 56.46                             130     0.010  117  22 
 BTL  SZ ES   2   1950 13.36                             130     0.0 5  117  22 
 NOR  SZ EP       1949 58.50                             124     0.1 9  139 253 
 NOR  SN ES   1   1950 16.81                             124     0.0 7  139 253 
 CHI  HZ EP   2   1949 59.48                             123     0.0 5  145 183 
 CHI  HZ I        1950 32.83         1.9 0.55                           145 183 
 RREF HZ EP   3   1950  6.76                             112    -0.9 2  219 238 
 RREF HZ I        1950 40.91         1.3 0.25                           219 238 
                                                                                
