 2017  321 1651  8.6 L   6.780 -73.145136.0  RSN  7 0.4 1.8LRSN                1
 GAP=153        1.00       5.9     4.4  7.3 -0.6130E+01  0.5235E+01  0.1340E+02E
 Epicentro: LOS SANTOS - SANTANDER                                             3
 ACTION:UPD 17-05-25 18:43 OP:jn   STATUS:               ID:20170321165108 L   I
 OLDACT:UP  17-03-21 23:13 OP:cog  STATUS:               ID:20170321164750     3
 OLDACT:REG 17-03-21 20:40 OP:cog  STATUS:               ID:20170321164750     3
 2017-03-21-1648-00M.COL___400                                                 6
 STAT SP IPHASW D HRMM SECON CODA AMPLIT PERI AZIMU VELO AIN AR TRES W  DIS CAZ7
 BAR2 EZ EP       1651 26.82                             171   -0.1610 21.2 191 
 BAR2 EZ ES       1651 40.80                             171   -0.5410 21.2 191 
 BAR2 EZ I        1651 42.64        14.0 0.34            168           21.2 191 
 BRR  HZ EP       1651 28.78                             150    0.0510 72.3 300 
 BRR  HE ES       1651 44.94                             150    0.4710 72.3 300 
 BRR  HZ I        1651 58.85        21.7 0.38            146           72.3 300 
 PAM  EZ EP       1651 29.68                             148   -0.1810 79.1  38 
 PAM  EE ES       1651 46.90                             148    0.4410 79.1  38 
 PAM  EZ I        1651 48.64        15.0 0.48            153           79.1  38 
 PTB  HZ EP       1651 34.36                             130   -0.36 9  147 260 
 PTB  HN ES       1651 54.76                             130   -0.36 9  147 260 
 PTB  HZ I        1652  7.91         5.7 0.36            130            147 260 
 ZAR  HZ EP   4   1651 42.10                             120    1.61 0  205 293 
 ZAR  HN ES       1652  5.15                             120   -0.24 9  205 293 
 ZAR  HZ I        1652 10.68         7.5 0.40            121            205 293 
 NOR  HZ ES       1652 11.77                             116    0.82 8  233 235 
 CHI  HZ EP       1651 45.79                             115    0.28 8  247 195 
 CHI  HN ES   4   1652 16.59                             115    2.27 0  247 195 
                                                                                
