 2015  421 1041 19.2 L   7.461 -73.181134.8  RSN 12 0.4 2.4LRSN                1
 GAP=186        0.79       2.3     4.1  5.2  0.8142E-01  0.2174E+01 -0.3940E+00E
 Epicentro: EL PLAYON - SANTANDER                                              3
 ACTION:UPD 15-06-03 16:56 OP:cam  STATUS:               ID:20150421104119 L   I
 OLDACT:REG 15-04-21 20:08 OP:spq  STATUS:               ID:20150421103750     3
 2015-04-21-1037-50M.COL___268                                                 6
 STAT SP IPHASW D HRMM SECON CODA AMPLIT PERI AZIMU VELO AIN AR TRES W  DIS CAZ7
 BRR  HZ EP       1041 39.32                             151    0.2210 70.4 236 
 BRR  HE ES       1041 54.58                             151   -0.0710 70.4 236 
 BRR  HZ I        1041 55.41        68.0 0.10            141           70.4 236 
 OCA  HZ EP       1041 40.74                             145    0.3110 87.4 350 
 OCA  HN ES       1041 57.24                             145    0.2310 87.4 350 
 OCA  HZ I        1041 59.68        76.1 0.50            141           87.4 350 
 BAR2 EZ EP       1041 41.27                             143    0.1010 96.0 180 
 BAR2 EZ ES   1   1041 57.86                             143   -0.46 7 96.0 180 
 BAR2 EZ I        1041 58.84        97.6 0.14            135           96.0 180 
 RUS  HZ EP   1   1041 48.35                             125   -0.08 7  174 176 
 RUS  HE ES   1   1042 10.92                             125   -0.34 7  174 176 
 PTB  HZ EP       1041 47.37                             124   -0.45 9  174 234 
 PTB  HN ES       1042  9.89                             124   -0.27 9  174 234 
 PTB  HZ I        1042 12.15        26.5 0.38            117            174 234 
 SML  HZ EP       1041 48.04                             124   -0.14 9  178 327 
 SML  HE ES   1   1042  9.99                             124   -0.82 7  178 327 
 SML  HZ I        1042 12.61        42.5 0.30            118            178 327 
 ZAR  HZ EP       1041 49.21                             123    0.26 9  185 271 
 ZAR  HN ES       1042 12.61                             123    0.43 9  185 271 
 ZAR  HZ I        1042 13.82        27.5 0.20            115            185 271 
 SPBC HN ES       1042 20.10                             117    0.61 8  223 206 
 SPBC HZ I        1042 27.12        19.4 0.16            111            223 206 
 NOR  HZ EP   1   1041 59.67                             112    0.23 6  281 222 
 NOR  HE ES   1   1042 30.33                             112   -0.52 6  281 222 
 NOR  HZ I        1042 37.40         8.7 0.48            106            281 222 
 HEL  HZ EP   4   1042  3.33                             111    1.87 0  295 242 
 HEL  HE ES   4   1042 36.81                             111    2.37 0  295 242 
 HEL  HZ I        1042 43.89         8.3 0.24            105            295 242 
 GUY2CHZ EP   4   1042  9.76                             107    2.32 0  346 224 
 GUY2CHN ES   4   1042 47.74                             107    2.65 0  346 224 
 GUY2CHZ I        1042 53.89         8.9 0.36                           346 224 
 SJC  HZ EP       1042  7.04                             107   -0.12 6  348 321 
 SJC  HE ES   1   1042 44.15                             107   -0.45 5  348 321 
 SJC  HZ I        1042 45.96         3.8 0.38            102            348 321 
                                                                                
