 2011  221 1434 42.4 L   6.809 -73.169137.8  RSN  4 0.1 1.5LRSN                1
 GAP=156        0.47       3.1     7.5  5.3 -0.1281E+02  0.6915E+01 -0.3953E+01E
 Epicentro: LOS SANTOS - SANTANDER                                             3
 ACTION:UP  11-03-28 15:10 OP:jfem STATUS:               ID:20110221143442 L   I
 2011-02-21-1433-54S.COL___137                                                 6
 STAT SP IPHASW D HRMM SECON CODA AMPLIT PERI AZIMU VELO SNR AR TRES W  DIS CAZ7
 BAR2 SZ EP       1435  0.97                             170    -0.110   24 184 
 BAR2 SZ ES   1   1435 15.71                             170     0.1 7   24 184 
 BAR2 SZ I        1435 17.27        10.0 0.29                            24 184 
 RUS  HZ EP       1435  5.66                             142     0.210  102 175 
 RUS  HN ES   1   1435 23.21                             142    -0.2 7  102 175 
 RUS  HZ I        1435 24.83         4.5 0.30                           102 175 
 GRA  SZ EP       1435  6.76                             135    -0.110  126  19 
 GRA  SZ ES   1   1435 26.14                             135     0.1 7  126  19 
 GRA  SZ I        1435 27.83         6.1 0.45                           126  19 
 NOR  SN ES   2   1435 44.86                             117     0.0 4  233 234 
                                                                                
