 2011 1221 1820  5.5 L   6.781 -73.161145.1  RSN  5 0.4 1.7LRSN                1
 GAP=234        0.85       7.9     7.8  8.0  0.2493E+02  0.1047E+02  0.4421E+01E
 Epicentro: LOS SANTOS - SANTANDER                                             3
 ACTION:UPD 12-07-13 16:17 OP:ep   STATUS:               ID:20111221182005 L   I
 2011-12-21-1820-00M.COL___190                                                 6
 STAT SP IPHASW D HRMM SECON CODA AMPLIT PERI AZIMU VELO AIN AR TRES W  DIS CAZ7
 BAR2 SZ EP       1820 24.99                             171   -0.0210 21.1 186 
 BAR2 SZ ES   1   1820 39.66                             171   -0.57 7 21.1 186 
 BAR2 SZ I        1820 42.54        13.9 0.15                          21.1 186 
 BRR  HZ EP       1820 26.85                             153    0.3010 70.7 301 
 BRR  HE ES   1   1820 43.30                             153    0.33 7 70.7 301 
 RUS  HZ EP   1   1820 28.92                             144   -0.13 7 98.7 175 
 RUS  HE ES   1   1820 47.82                             144    0.40 7 98.7 175 
 RUS  HZ I        1820 48.80         6.0 0.18                          98.7 175 
 PTB  HZ EP   1   1820 31.35                             132   -0.88 7  146 259 
 PTB  HN ES   1   1820 52.99                             132   -0.08 7  146 259 
 NOR  SZ EP   1   1820 41.38                             119    0.47 6  232 235 
                                                                                
