 2015  421 1109 59.8 L   6.654 -73.532108.6  RSN 11 0.4 1.8LRSN                1
 GAP=114        1.04       4.4     4.7  7.2 -0.9331E+00  0.9605E+01  0.4748E+01E
 Epicentro: EL CARMEN - SANTANDER                                              3
 ACTION:UPD 15-06-03 16:56 OP:cam  STATUS:               ID:20150421110959 L   I
 OLDACT:REG 15-04-21 20:10 OP:spq  STATUS:               ID:20150421110749     3
 2015-04-21-1107-49M.COL___268                                                 6
 STAT SP IPHASW D HRMM SECON CODA AMPLIT PERI AZIMU VELO AIN AR TRES W  DIS CAZ7
 BAR2 EZ EP       1110 15.34                             159   -0.2510 39.3 100 
 BAR2 EZ ES   1   1110 27.69                             159   -0.19 7 39.3 100 
 BAR2 EZ I        1110 28.87        68.8 0.30            165           39.3 100 
 BRR  HZ EP       1110 15.89                             151   -0.1110 53.9 338 
 BRR  HN ES       1110 29.38                             151    0.7910 53.9 338 
 BRR  HZ I        1110 30.37        20.9 0.16            153           53.9 338 
 RUS  HZ EP   1   1110 20.02                             135    0.11 7 97.8 149 
 RUS  HE ES   1   1110 35.25                             135   -0.31 7 97.8 149 
 RUS  HZ I        1110 36.93         8.7 0.24            139           97.8 149 
 PTB  HZ IP     C 1110 19.24                             133   -0.4810  103 263 
 PTB  HN ES       1110 34.48                             133   -0.7410  103 263 
 PTB  HZ I        1110 38.21        14.0 0.13            133            103 263 
 SPBC HZ EP   1   1110 22.38                             127    0.42 7  126 208 
 SPBC HN ES       1110 39.57                             127    0.3510  126 208 
 SPBC HZ I        1110 41.74        12.7 0.22            128            126 208 
 ZAR  HZ EP   4   1110 28.02                             117    1.24 0  173 302 
 ZAR  HE ES   4   1110 50.24                             117    2.45 0  173 302 
 ZAR  HZ I        1110 52.78        11.9 0.24            119            173 302 
 NOR  HZ EP       1110 29.00                             115    0.24 9  191 231 
 NOR  HE ES   1   1110 51.31                             115   -0.01 7  191 231 
 NOR  HZ I        1110 56.21         5.3 0.20            116            191 231 
 HEL  HZ EP       1110 33.80                             110    0.59 8  227 257 
 SML  HZ EP   1   1110 34.50                             108   -0.31 6  245 346 
 SML  HE ES   4   1111  1.02                             108   -1.07 0  245 346 
 GUY2CHZ EP   4   1110 39.02                             107    2.16 0  257 232 
 GUY2CHN ES   4   1111  8.05                             107    2.32 0  257 232 
 GUY2CHZ I        1111 15.99         2.5 0.34                           257 232 
 SJC  HN ES   4   1111 32.75                              98   -2.71 0  402 333 
 SJC  HZ I        1111 34.54         1.5 0.44            101            402 333 
                                                                                
