 2011  521 1058  4.1 L   6.729 -73.505110.0  RSN 10 0.5 2.3LRSN                1
 GAP= 76        1.21       5.1     6.1  7.4 -0.1098E+02  0.1488E+02  0.2890E+00E
 Epicentro: EL CARMEN DE CHUCURI - SANTANDER                                   3
 ACTION:UP  11-06-29 08:55 OP:tino STATUS:               ID:20110521105804 L   I
 2011-05-21-1056-46S.COL___141                                                 6
 STAT SP IPHASW D HRMM SECON CODA AMPLIT PERI AZIMU VELO SNR AR TRES W  DIS CAZ7
 BTL  SZ IP       1058 20.05                             162     0.310   34  51 
 BTL  SZ ES   1   1058 32.15                             162     0.1 7   34  51 
 BAR2 SZ IP       1058 20.30                             159     0.310   39 113 
 BAR2 SZ ES   1   1058 32.54                             159     0.2 7   39 113 
 BAR2 SZ I        1058 33.28       119.5 0.18                            39 113 
 BRR  HZ IP     D 1058 20.03                             155     0.010   48 331 
 BRR  HN ES   1   1058 32.61                             155     0.1 7   48 331 
 BRR  HZ I        1058 33.73        74.0 0.16                            48 331 
 GIR2 SZ IP       1058 20.73                             153     0.210   52  42 
 GIR2 SZ ES   1   1058 33.15                             153    -0.1 7   52  42 
 RUS  HZ EP       1058 24.82                             134     0.010  104 153 
 RUS  HN ES   1   1058 40.69                             134    -0.3 7  104 153 
 PAM  SZ EP       1058 25.64                             131     0.110  112  53 
 PAM  SN ES   1   1058 41.97                             131    -0.3 7  112  53 
 BRI  SZ EP       1058 27.72                             125     0.410  134  36 
 BRI  SZ ES   1   1058 43.66                             125    -1.7 7  134  36 
 GRA  SZ EP       1058 28.99                             122     0.2 9  149  31 
 GRA  SZ ES   2   1058 48.20                             122     0.2 5  149  31 
 GRA  SZ I        1058 50.94        16.3 0.38                           149  31 
 NOR  SZ EP       1058 32.83                             114    -1.1 9  198 230 
 HEL  HZ EP       1058 38.56                             110     0.5 8  232 255 
 HEL  HN ES   2   1059  4.43                             110    -0.2 4  232 255 
 HEL  HZ I        1059  7.85         9.1 0.22                           232 255 
                                                                                
