 2013 1121 1015 20.1 L   6.829 -73.187140.0  RSN  7 0.5 1.6LRSN                1
 GAP=135        1.15       4.9     5.5  8.2 -0.6757E+01  0.2012E+02 -0.7049E+01E
 Epicentro: ZAPATOCA - SANTANDER                                               3
 ACTION:UPD 14-01-09 16:30 OP:ep   STATUS:               ID:20131121101520 L   I
 OLDACT:REG 13-11-21 15:34 OP:nd   STATUS:               ID:20131121101000     3
 2013-11-21-1010-00M.COL___282                                                 6
 STAT SP IPHASW D HRMM SECON CODA AMPLIT PERI AZIMU VELO AIN AR TRES W  DIS CAZ7
 BAR2 SZ EP       1015 38.88                             169   -0.2410 26.2 179 
 BAR2 SZ ES       1015 54.28                             169    0.3410 26.2 179 
 BAR2 SZ I        1015 57.32         8.5 0.32            171           26.2 179 
 PAM  SZ EP       1015 41.61                             150   -0.1510 78.0  44 
 PAM  SN ES       1015 58.69                             150    0.0410 78.0  44 
 PAM  SZ I        1016  1.07         7.9 0.52            155           78.0  44 
 PTB  HZ EP       1015 45.74                             131   -0.53 9  144 257 
 PTB  HN ES       1016  5.90                             131   -0.77 9  144 257 
 PTB  HZ I        1016 12.76         4.1 0.22            133            144 257 
 OCA  HZ EP   2   1015 48.12                             129    0.48 5  157 355 
 OCA  HN ES       1016  9.39                             129    0.29 9  157 355 
 OCA  HZ I        1016 13.26         3.8 0.28            132            157 355 
 ZAR  HZ EP       1015 52.12                             122    0.49 9  199 292 
 ZAR  HN ES       1016 16.84                             122    0.64 9  199 292 
 ZAR  HZ I        1016 23.25         3.4 0.34            124            199 292 
 SML  HZ EP       1015 55.19                             117   -0.71 8  239 336 
 SML  HN ES       1016 23.56                             117   -0.26 8  239 336 
 SML  HZ I        1016 26.87         6.3 0.32            120            239 336 
 GUY2CHZ EP       1016  4.31                             111    1.06 7  299 234 
 GUY2CHN ES   2   1016 37.34                             111    0.44 4  299 234 
 GUY2CHZ I        1016 45.58         2.6 0.76                           299 234 
                                                                                
