 2015  221 1057 23.2 L   5.848 -73.742117.9  RSN  6 0.4 1.4LRSN                1
 GAP= 93        0.92       3.4     3.7  8.7 -0.2033E+01  0.9951E+01  0.8427E+01E
 Epicentro: JESUS MARIA - SANTANDER                                            3
 ACTION:UPD 15-04-30 21:28 OP:nd   STATUS:               ID:20150221105723 L   I
 OLDACT:REG 15-02-21 20:24 OP:mher STATUS:               ID:20150221104743     3
 2015-02-21-1047-43M.COL___287                                                 6
 STAT SP IPHASW D HRMM SECON CODA AMPLIT PERI AZIMU VELO AIN AR TRES W  DIS CAZ7
 RUS  HZ EP       1057 42.48                             146    0.2810 73.2  86 
 RUS  HN ES       1057 57.16                             146    0.1010 73.2  86 
 RUS  HZ I        1057 58.37         3.1 0.70            151           73.2  86 
 BAR2 EZ EP   1   1057 44.54                             136    0.40 7  103  37 
 BAR2 EZ ES       1058  0.57                             136    0.0710  103  37 
 PTB  HZ EP       1057 44.04                             134   -0.3910  110 314 
 PTB  HN ES   1   1058  0.25                             134   -0.78 7  110 314 
 PTB  HZ I        1058  2.89         5.2 0.10            136            110 314 
 NOR  HZ EP   1   1057 46.34                             129    0.14 7  129 256 
 NOR  HN ES       1058  4.82                             129    0.6510  129 256 
 NOR  HZ I        1058  8.02         7.2 0.24            130            129 256 
 CHI  HZ EP       1057 46.94                             128   -0.3210  135 180 
 CHI  HE ES       1058  5.59                             128   -0.4610  135 180 
 PRA  HZ EP   1   1058  1.41                             109    0.19 6  268 208 
 PRA  HN ES       1058 31.12                             109    0.21 8  268 208 
 PRA  HZ I        1058 36.33         2.2 0.48            111            268 208 
                                                                                
