 2012  521 1402 34.1 L   6.718 -73.214144.4  RSN  5 0.3 1.7LRSN                1
 GAP=218        0.82       8.2     7.5  8.8  0.3796E+02  0.1171E+02  0.2536E+01E
 Epicentro: VILLANUEVA - SANTANDER                                             3
 ACTION:UP  12-07-05 12:07 OP:pat  STATUS:               ID:20120521140234 L   I
 2012-05-21-1400-00M.COL___200                                                 6
 STAT SP IPHASW D HRMM SECON CODA AMPLIT PERI AZIMU VELO SNR AR TRES W  DIS CAZ7
 BAR2 SZ EP   1   14 2 53.27                             174    -0.1 7   14 166 
 BAR2 SZ ES   1   14 3  8.07                             174    -0.4 7   14 166 
 BAR2 SZ I        14 3  9.28        14.5 0.31                            14 166 
 BRR  HZ EP   1   14 2 54.62                             153    -0.4 7   70 308 
 BRR  HZ I        14 2 55.17        16.6 0.16                            70 308 
 BRR  HE ES   1   14 3 11.83                             153     0.5 7   70 308 
 RUS  HZ EP   1   14 2 57.71                             146     0.6 7   92 171 
 RUS  HN ES   1   14 3 15.07                             146     0.0 7   92 171 
 RUS  HZ I        14 3 17.30         6.6 0.33                            92 171 
 PTB  HZ EP   1   14 2 59.84                             134    -0.3 7  139 262 
 PTB  HN ES   1   14 3 20.36                             134    -0.1 7  139 262 
 PTB  HZ I        14 3 22.65         3.2 0.10                           139 262 
 ZAR  HN ES   1   14 3 31.15                             122     0.1 6  201 295 
                                                                                
