 2014 1121 1813 55.7 L   6.833 -73.158145.8  RSN  4 0.1 1.4LRSN                1
 GAP=133        0.39       2.1     1.9  4.2 -0.3950E-01  0.2568E+01  0.1568E+00E
 Epicentro: LOS SANTOS - SANTANDER                                             3
 ACTION:UPD 14-12-19 15:45 OP:nd   STATUS:               ID:20141121181355 L   I
 OLDACT:REG 14-11-21 22:01 OP:spq  STATUS:               ID:20141121180745     3
 2014-11-21-1807-45M.COL___297                                                 6
 STAT SP IPHASW D HRMM SECON CODA AMPLIT PERI AZIMU VELO AIN AR TRES W  DIS CAZ7
 PAM  SZ EP       1814 17.91                             151    0.1210 75.5  42 
 PAM  SE ES       1814 34.93                             151   -0.1010 75.5  42 
 PAM  SZ I        1814 36.81         4.0 0.40            153           75.5  42 
 RUS  HZ EP       1814 19.70                             143   -0.0110  104 175 
 RUS  HN ES       1814 38.53                             143    0.0810  104 175 
 RUS  HN I        1814 39.93         2.9 0.26            145            104 175 
 PTB  HZ EP       1814 22.42                             132   -0.17 9  147 257 
 PTB  HN ES       1814 43.52                             132   -0.07 9  147 257 
 PTB  HZ I        1814 45.13         5.1 0.52            134            147 257 
 ZAR  HN ES       1814 53.11                             123    0.16 9  201 291 
                                                                                
