 2017 1121 1535 53.7 L   6.807 -73.133142.6  RSN 21 0.7 2.3LRSN                1
 GAP=113        1.39       3.3     3.9  6.5  0.7445E-01  0.7083E+01  0.2872E+01E
 Epicentro: LOS SANTOS - SANTANDER                                             3
 ACTION:UPD 17-12-12 19:58 OP:rebc STATUS:               ID:20171121153553 L   I
 OLDACT:UP  17-11-22 00:35 OP:dhb  STATUS:               ID:20171121152643     3
 OLDACT:REG 17-11-21 21:06 OP:osc  STATUS:               ID:20171121152643     3
 2017-11-21-1528-00M.COL___484                                                 6
 STAT SP IPHASW D HRMM SECON CODA AMPLIT PERI AZIMU VELO AIN AR TRES W  DIS CAZ7
 BAR2 EZ IP     C 1536 12.99                             170   -0.0210 24.4 193 
 BAR2 EZ ES       1536 27.66                             170   -0.3810 24.4 193 
 BAR2 EZ I        1536 29.42        67.4 0.18            166           24.4 193 
 PAM  EZ IP     C 1536 15.92                             151    0.3910 75.9  39 
 PAM  EN ES       1536 32.87                             151    0.3510 75.9  39 
 PAM  EZ I        1536 35.32        31.0 0.44            156           75.9  39 
 RUS  HZ IP     C 1536 17.01                             143   -0.2210  101 177 
 RUS  HN ES       1536 35.35                             143   -0.2110  101 177 
 RUS  HZ I        1536 36.89        18.9 0.50            143            101 177 
 PTB  HZ EP       1536 19.81                             131   -0.78 9  149 259 
 PTB  HN ES       1536 40.83                             131   -0.70 9  149 259 
 PTB  HZ I        1536 42.55        21.9 0.30            129            149 259 
 OCA  HZ EP       1536 22.62                             129    0.88 9  160 353 
 OCA  HN ES       1536 43.60                             129    0.01 9  160 353 
 SPBC HZ EP       1536 21.86                             128   -0.28 9  165 219 
 SPBC HN ES       1536 44.31                             128    0.02 9  165 219 
 SPBC HZ I        1536 48.81        40.2 0.36            127            165 219 
 YPLC HZ IP     C 1536 23.51                             126    0.20 9  177 152 
 YPLC HN ES       1536 47.31                             126    0.94 9  177 152 
 YPLC HZ I        1536 48.32        27.2 0.28            128            177 152 
 ZAR  HZ EP       1536 25.88                             121   -0.20 9  205 292 
 ZAR  HE ES       1536 51.16                             121   -0.14 9  205 292 
 ZAR  HZ I        1536 57.09        27.5 0.16            121            205 292 
 TABC EZ IP     C 1536 30.79                             118    1.34 8  231 211 
 TABC EZ ES       1536 58.03                             118    0.73 8  231 211 
 TABC EZ I        1537  4.66        24.0 0.66            118            231 211 
 NOR  HZ IP     C 1536 29.43                             118   -0.03 8  236 234 
 NOR  HN ES       1536 56.95                             118   -0.36 8  236 234 
 NOR  HZ I        1537  2.06        18.9 0.18            117            236 234 
 CHI  HZ EP       1536 31.26                             116   -0.13 8  250 195 
 CHI  HE ES       1537  1.10                             116    0.35 8  250 195 
 CHI  HZ I        1537  4.46         8.9 0.38            117            250 195 
 HEL  HZ EP       1536 34.45                             114    0.49 8  274 256 
 HEL  HE ES       1537  5.70                             114    0.37 8  274 256 
 HEL  HZ I        1537 12.79        12.3 0.48            114            274 256 
 URE  HZ EP       1536 33.74                             113   -1.02 7  285 292 
 URE  HN ES   3   1537  4.01                             113   -2.75 2  285 292 
 URE  HZ I        1537 17.45        14.8 0.20            113            285 292 
 GUY2CHZ IP   9 C 1536 38.60                             111    1.22 0  303 235 
 GUY2CHN ES       1537 12.80                             111    0.16 7  303 235 
 GUY2CHZ I        1537 21.94        11.3 0.48                           303 235 
 PTGC HZ IP     C 1536 36.30                             111   -1.18 7  309 159 
 PTGC HE ES       1537  9.44                             111   -2.16 7  309 159 
 PTGC HZ I        1537 12.03        12.0 0.38            112            309 159 
 ELA  HZ EP       1536 40.32                             109   -0.32 7  331 230 
 ELA  HE ES   4   1537 20.55                             109    3.34 0  331 230 
 ELA  HZ I        1537 24.85         9.2 0.52            110            331 230 
 CBOC HZ EP       1536 41.49                             109    0.79 7  335 252 
 CBOC HE ES       1537 17.62                             109    0.29 7  335 252 
 CBOC HZ I        1537 30.19         5.1 0.76            109            335 252 
 PRA  HZ IP     C 1536 47.65                             106    0.34 6  393 210 
 PRA  HE ES       1537 29.97                             106    0.87 6  393 210 
 PRA  HZ I        1537 33.57        11.7 0.34            106            393 210 
 ORTC HZ EP   9   1536 49.43                             106    1.71 0  397 216 
 ORTC HE ES       1537 32.10                             105    0.56 6  397 216 
 ORTC HZ I        1537 41.68         7.4 0.42            106            397 216 
 PAL  HZ EP       1536 48.90                             105   -0.08 6  407 239 
 PAL  HN ES       1537 32.50                             105    0.43 6  407 239 
 PAL  HZ I        1537 38.97         3.6 0.18            106            407 239 
 SJC  HZ EP   2   1536 47.67                             105   -1.54 3  409 327 
 SJC  HN ES   4   1537 28.42                             105   -4.05 0  409 327 
 SJC  HZ I        1537 32.32         3.4 0.66            106            409 327 
                                                                                
