 2017 1021 1155 42.1 L   6.798 -73.213150.0  RSN  4 0.3 1.2LRSN                1
 GAP=230        0.65       7.1     5.0  5.9  0.1665E+02  0.3786E+01 -0.1938E+01E
 Epicentro: ZAPATOCA - SANTANDER                                               3
 ACTION:UPD 17-11-07 19:34 OP:rebc STATUS:               ID:20171021115542 L   I
 OLDACT:DUP 17-10-21 21:53 OP:ed   STATUS:               ID:20171021114444d    3
 2017-10-21-1148-00M.COL___438                                                 6
 STAT SP IPHASW D HRMM SECON CODA AMPLIT PERI AZIMU VELO AIN AR TRES W  DIS CAZ7
 BAR2 EZ EP       1156  1.91                             171   -0.2810 23.0 171 
 BAR2 EZ ES       1156 17.66                             171   -0.2310 23.0 171 
 BAR2 EZ I        1156 18.36         3.5 0.18            171           23.0 171 
 BRR  HN ES   2   1156 20.63                             155    0.71 5 64.9 302 
 RUS  HZ EP       1156  6.43                             144    0.1710  101 172 
 RUS  HN ES       1156 25.27                             144    0.1310  101 172 
 PTB  HZ EP       1156  8.94                             134    0.22 9  140 258 
 PTB  HN ES       1156 29.34                             134   -0.18 9  140 258 
                                                                                
