 2010 1021 1046 29.0 L   6.688 -73.210148.8  RSN  4 0.4 1.4LRSN                1
 GAP=179        0.75      13.5    29.2 11.3  0.2856E+03 -0.8576E+02 -0.3668E+01E
 Epicentro: VILLANUEVA - SANTANDER                                             3
 ACTION:UP  11-02-18 11:11 OP:tino STATUS:               ID:20101021104629 L   I
 2010-10-21-1042-43S.COL___128                                                 6
 STAT SP IPHASW D HRMM SECON CODA AMPLIT PERI AZIMU VELO SNR AR TRES W  DIS CAZ7
 BAR2 SZ EP   1   1046 48.39                             176    -0.4 7   11 165 
 BAR2 SZ ES   2   1047  3.59                             176    -0.7 5   11 165 
 BAR2 SZ I        1047  7.03         9.2 0.54                            11 165 
 BTL  SZ EP   1   1046 49.43                             169     0.4 7   26 346 
 BTL  SZ ES   2   1047  5.25                             169     0.5 5   26 346 
 BRR  HN ES   2   1047  7.27                             153    -0.1 5   72 310 
 RUS  HZ EP   1   1046 52.33                             148     0.0 7   89 171 
 RUS  HN ES   2   1047 10.83                             148     0.4 5   89 171 
 RUS  HZ I        1047 12.15         2.7 0.58                            89 171 
                                                                                
