 2014 1121 1529 48.4 L   6.792 -73.125145.8  RSN  6 0.2 1.6LRSN                1
 GAP=140        0.57       3.2     2.6  4.6  0.5190E+00  0.1780E+01  0.6805E+00E
 Epicentro: LOS SANTOS - SANTANDER                                             3
 ACTION:UPD 14-12-19 15:45 OP:nd   STATUS:               ID:20141121152948 L   I
 OLDACT:REG 14-11-21 21:42 OP:spq  STATUS:               ID:20141121152749     3
 2014-11-21-1527-49M.COL___294                                                 6
 STAT SP IPHASW D HRMM SECON CODA AMPLIT PERI AZIMU VELO AIN AR TRES W  DIS CAZ7
 BAR2 SZ EP   1   1530  7.68                             171   -0.37 7 23.0 196 
 BAR2 SZ ES   1   1530 23.22                             171   -0.13 7 23.0 196 
 BAR2 SZ I        1530 24.95         4.9 0.22            171           23.0 196 
 BRR  HZ EP       1530  9.80                             152    0.0910 73.6 298 
 BRR  HN ES       1530 26.72                             152    0.4110 73.6 298 
 BRR  HZ I        1530 29.44        10.5 0.40            151           73.6 298 
 PAM  SZ EP     C 1530 10.77                             151    0.1710 76.7  38 
 PAM  SE ES       1530 27.65                             151   -0.2410 76.7  38 
 PAM  SZ I        1530 29.62        14.2 0.54            153           76.7  38 
 RUS  HZ EP       1530 12.13                             144    0.0310 99.5 177 
 RUS  HE ES   1   1530 30.74                             144    0.17 7 99.5 177 
 RUS  HZ I        1530 32.61         3.1 0.34            147           99.5 177 
 PTB  HN ES       1530 36.55                             132   -0.21 9  150 259 
 PTB  HZ I        1530 38.34         4.6 0.42            132            150 259 
 ZAR  HZ EP   1   1530 21.24                             122    0.12 6  206 292 
 ZAR  HE ES       1530 46.43                             122   -0.19 8  206 292 
 ZAR  HZ I        1530 53.05         4.5 0.24            123            206 292 
                                                                                
