 2015  821 1304 18.4 L   6.783 -73.138140.0  RSN 12 0.4 2.1LRSN                1
 GAP=138        0.75       2.2     3.3  4.7 -0.9792E+00  0.5226E+01  0.5239E+00E
 Epicentro: LOS SANTOS - SANTANDER                                             3
 ACTION:UPD 15-09-15 23:03 OP:cam  STATUS:               ID:20150821130418 L   I
 OLDACT:REG 15-08-21 21:42 OP:ar   STATUS:               ID:20150821125748     3
 2015-08-21-1257-48M.COL___346                                                 6
 STAT SP IPHASW D HRMM SECON CODA AMPLIT PERI AZIMU VELO AIN AR TRES W  DIS CAZ7
 BAR2 EZ EP       13 4 37.15                             171   -0.1410 21.6 193 
 BAR2 EZ ES       13 4 51.98                             171   -0.0510 21.6 193 
 BAR2 EZ I        13 4 53.32        26.6 0.20            167           21.6 193 
 BRR  HZ EP       13 4 39.13                             151    0.1210 72.8 300 
 BRR  HN ES       13 4 55.81                             151    0.7210 72.8 300 
 BRR  HZ I        13 4 57.85        18.5 0.20            141           72.8 300 
 PAM  EZ IP     D 13 4 39.95                             150   -0.1010 78.3  38 
 PAM  EN ES       13 4 56.92                             150   -0.0210 78.3  38 
 PAM  EZ I        13 4 58.77        10.4 0.52            135           78.3  38 
 RUS  HZ EP       13 4 41.81                             143    0.3810 98.6 176 
 RUS  HE ES       13 4 59.19                             143   -0.2110 98.6 176 
 RUS  HZ I        13 5  0.21        12.9 0.44            130           98.6 176 
 SPBC HZ EP       13 4 46.21                             128   -0.14 9  162 220 
 SPBC HE ES       13 5  8.12                             128   -0.05 9  162 220 
 SPBC HZ I        13 5 14.83        18.9 0.22            116            162 220 
 OCA  HZ EP   2   13 4 47.37                             128    0.93 5  162 353 
 OCA  HN ES       13 5  7.87                             128   -0.46 9  162 353 
 OCA  HZ I        13 5 12.53        38.1 0.16            115            162 353 
 ZAR  HZ EP   4   13 4 48.73                             121   -1.88 0  206 293 
 ZAR  HE ES       13 5 15.69                             121   -0.06 8  206 293 
 ZAR  HZ I        13 5 21.40        13.3 0.60            110            206 293 
 NOR  HZ EP       13 4 53.72                             117   -0.02 8  234 235 
 NOR  HN ES       13 5 20.84                             117   -0.47 8  234 235 
 NOR  HZ I        13 5 23.28         9.4 0.42            108            234 235 
 SML  HE ES       13 5 23.17                             116   -0.24 8  246 335 
 URE  HN ES   4   13 5 27.08                             112   -4.21 0  285 292 
 GUY2CHZ EP   2   13 5  2.81                             111    1.13 4  301 235 
 GUY2CHE ES   2   13 5 35.15                             111   -0.30 4  301 235 
 GUY2CHZ I        13 5 43.63         4.7 0.44                           301 235 
 TOL  SZ EP   2   13 5  6.75                             108    0.43 3  343 225 
 TOL  SN ES   2   13 5 43.76                             108    0.04 3  343 225 
 TOL  SZ I        13 5 53.45         4.1 0.42            101            343 225 
 SJC  HZ EP   9   13 5 11.82                             105   -2.18 0  411 327 
 SJC  HE ES   2   13 5 54.87                                   -0.33 3  411 327 
 SJC  HZ I        13 5 57.05         4.3 0.52             99            411 327 
                                                                                
