 2014  121 1433 10.3 L   6.780 -73.164147.0  RSN  5 0.4 1.7LRSN                1
 GAP=135        0.95       5.1     4.9  7.0 -0.2355E+01  0.4064E+01  0.1489E+01E
 Epicentro: LOS SANTOS - SANTANDER                                             3
 ACTION:UPD 14-03-13 09:57 OP:ep   STATUS:               ID:20140121143310 L   I
 OLDACT:REG 14-01-21 16:23 OP:stll STATUS:               ID:20140121142818     3
 2014-01-21-1428-18M.COL___228                                                 6
 STAT SP IPHASW D HRMM SECON CODA AMPLIT PERI AZIMU VELO AIN AR TRES W  DIS CAZ7
 BAR2 SZ EP       1433 30.16                             172    0.1510 20.8 186 
 BAR2 SZ ES       1433 45.23                             172   -0.1710 20.8 186 
 BAR2 SZ I        1433 47.67        12.4 0.24            171           20.8 186 
 BRR  HZ EP       1433 31.93                             153    0.4010 70.6 301 
 BRR  HN ES       1433 48.72                             153    0.6210 70.6 301 
 PAM  SZ EP       1433 32.85                             150    0.0410 80.4  40 
 PAM  SZ I        1433 33.04        13.7 0.20            152           80.4  40 
 PAM  SN ES       1433 49.88                             150   -0.5010 80.4  40 
 RUS  HZ EP       1433 34.15                             145    0.1510 98.5 175 
 RUS  HN ES       1433 52.62                             145    0.1110 98.5 175 
 RUS  HZ I        1433 53.65         5.7 0.28            145           98.5 175 
 PTB  HZ EP       1433 36.68                             133   -0.45 9  145 260 
 PTB  HN ES       1433 57.62                             133   -0.46 9  145 260 
 PTB  HZ I        1434  0.79         3.4 0.24            133            145 260 
                                                                                
