 2013  621 1605 35.4 L   6.804 -73.160150.8  RSN  8 0.5 2.3LRSN                1
 GAP=200        1.12       5.1     7.6  8.6  0.8601E+01  0.3420E+01  0.1089E+02E
 Epicentro: LOS SANTOS - SANTANDER                                             3
 ACTION:UPD 14-01-08 09:56 OP:ep   STATUS:               ID:20130621160535 L   I
 OLDACT:UP  13-06-21 18:55 OP:cam  STATUS:               ID:20130621155959     3
 OLDACT:REG 13-06-21 18:09 OP:cam  STATUS:               ID:20130621155959     3
 2013-06-21-1559-59M.COL___263                                                 6
 STAT SP IPHASW D HRMM SECON CODA AMPLIT PERI AZIMU VELO AIN AR TRES W  DIS CAZ7
 BAR2 SZ EP     D 16 5 55.44                             171   -0.1510 23.5 186 
 BAR2 SZ ES   1   16 6 11.18                             171   -0.19 7 23.5 186 
 BAR2 SZ I        16 6 11.73        29.6 0.32            170           23.5 186 
 BRR  HZ IP     C 16 5 57.29                             154    0.3310 69.6 299 
 BRR  HZ I        16 5 57.60        64.1 0.24            150           69.6 299 
 BRR  HN ES       16 6 14.76                             154    0.9510 69.6 299 
 RUS  HZ EP       16 5 59.79                             145    0.1510  101 175 
 RUS  HN ES   1   16 6 17.61                             145   -0.97 7  101 175 
 RUS  HZ I        16 6 19.26        20.4 0.26            145            101 175 
 PTB  HZ EP       16 6  2.01                             133   -0.59 9  146 259 
 PTB  HN ES       16 6 23.41                             133   -0.44 9  146 259 
 PTB  HZ I        16 6 29.30        18.2 0.14            131            146 259 
 NOR  HE ES   2   16 6 39.06                             120   -0.21 4  234 234 
 SML  HE ES   1   16 6 40.41                             119   -0.45 6  243 336 
 SML  HZ I        16 6 44.52        44.1 0.24            117            243 336 
 CHI  HZ EP   1   16 6 13.87                             118    0.54 6  249 195 
 CHI  HZ I        16 6 16.09         6.1 0.38            117            249 195 
 CHI  HN ES       16 6 43.13                             118    0.18 8  249 195 
 HEL  HZ EP   4 C 16 6 18.56                             116    2.89 0  271 256 
 PRA  HZ EP   1   16 6 29.21                             107    0.21 4  392 209 
 PRA  HZ I        16 6 31.19         6.9 0.18            107            392 209 
 PRA  HN ES   1   16 7 11.53                             107    0.69 4  392 209 
                                                                                
