 2012  121 1629 50.6 L   6.798 -73.204134.2  RSN  5 0.5 1.4LRSN                1
 GAP=129        1.05       7.0     6.7 10.3 -0.4087E+01  0.9006E+01  0.3901E+01E
 Epicentro: ZAPATOCA - SANTANDER                                               3
 ACTION:UP  12-02-03 08:19 OP:REBC STATUS:               ID:20120121162950 L   I
 2012-01-21-1628-44S.COL___158                                                 6
 STAT SP IPHASW D HRMM SECON CODA AMPLIT PERI AZIMU VELO SNR AR TRES W  DIS CAZ7
 BAR2 SZ EP   1   1630  8.93                             170     0.1 7   23 174 
 BAR2 SZ ES   1   1630 22.61                             170    -0.4 7   23 174 
 BRR  HZ EP   1   1630 11.10                             152     0.9 7   66 301 
 BRR  HZ I        1630 12.54        11.6 0.13                            66 301 
 BRR  HN ES   1   1630 25.15                             152    -0.3 7   66 301 
 PAM  SZ EP   1   1630 11.67                             147    -0.2 7   82  43 
 PAM  SN ES   1   1630 28.70                             147     0.2 7   82  43 
 PAM  SZ I        1630 31.53         4.9 0.46                            82  43 
 RUS  HZ EP   1   1630 13.08                             141    -0.2 7  101 172 
 RUS  HN ES   1   1630 31.30                             141     0.3 7  101 172 
 RUS  HZ I        1630 32.87         2.1 0.29                           101 172 
 PTB  HZ EP   1   1630 15.27                             131    -0.8 7  141 258 
 PTB  HN ES   1   1630 36.31                             131     0.4 7  141 258 
                                                                                
