 2017 1021 1944 37.6 L   6.809 -73.152147.4  RSN 11 0.3 1.9LRSN                1
 GAP=111        0.83       2.9     3.1  4.9  0.1477E+01  0.4668E+01  0.3519E+01E
 Epicentro: LOS SANTOS - SANTANDER                                             3
 ACTION:UPD 17-11-07 19:34 OP:rebc STATUS:               ID:20171021194437 L   I
 OLDACT:UP  17-10-22 01:18 OP:edw  STATUS:               ID:20171021193454     3
 OLDACT:UP  17-10-22 01:17 OP:edw  STATUS:               ID:20171021193454     3
 OLDACT:UP  17-10-22 01:16 OP:edw  STATUS:               ID:20171021193454     3
 OLDACT:UP  17-10-22 01:16 OP:edw  STATUS:               ID:20171021193454     3
 OLDACT:REG 17-10-21 21:13 OP:edw  STATUS:               ID:20171021193454     3
 2017-10-21-1938-00M.COL___415                                                 6
 STAT SP IPHASW D HRMM SECON CODA AMPLIT PERI AZIMU VELO AIN AR TRES W  DIS CAZ7
 BAR2 EZ EP       1944 57.15                             170   -0.2810 24.2 188 
 BAR2 EZ ES       1945 13.26                             170    0.3510 24.2 188 
 BAR2 EZ I        1945 13.50        14.8 0.50            168           24.2 188 
 BRR  HZ EP       1944 58.95                             153    0.1010 70.1 298 
 BRR  HN ES       1945 15.90                             153    0.4610 70.1 298 
 BRR  HZ I        1945 19.39        23.9 0.16            152           70.1 298 
 PAM  EZ EP       1945  0.04                             151    0.0910 77.0  40 
 PAM  EN ES       1945 16.99                             151   -0.4110 77.0  40 
 PAM  EZ I        1945 18.93        13.0 0.54            154           77.0  40 
 RUS  HZ EP       1945  1.54                             144   -0.0310  102 176 
 RUS  HN ES       1945 19.99                             144   -0.2910  102 176 
 RUS  HZ I        1945 21.28        10.1 0.22            144            102 176 
 PTB  HZ EP       1945  4.07                             132   -0.57 9  147 258 
 PTB  HN ES       1945 25.40                             132   -0.35 9  147 258 
 PTB  HZ I        1945 27.42         6.0 0.14            132            147 258 
 YPLC HE ES       1945 31.27                             127    0.23 9  178 151 
 ZAR  HZ EP       1945 10.68                             123    0.65 9  203 292 
 ZAR  HE ES       1945 35.13                             123   -0.21 9  203 292 
 ZAR  HZ I        1945 40.97        14.7 0.26            123            203 292 
 NOR  HZ EP       1945 13.63                             119    0.22 8  235 234 
 NOR  HN ES       1945 41.42                             119    0.06 8  235 234 
 NOR  HZ I        1945 42.95         3.8 0.52            119            235 234 
 CHI  HZ EP       1945 15.45                             117   -0.00 8  249 195 
 CHI  HN ES       1945 45.32                             117    0.32 8  249 195 
 CHI  HZ I        1945 52.18         3.7 0.56            118            249 195 
 URE  HN ES   4   1945 47.10                             114   -3.52 0  283 292 
 GUY2CHZ EP   4   1945 23.09                             113    1.82 0  301 235 
 GUY2CHN ES   4   1945 58.15                             113    2.81 0  301 235 
 GUY2CHZ I        1946  3.75         2.8 0.40                           301 235 
 PRA  HZ EP   4   1945 29.52                             107   -1.70 0  393 209 
 PRA  HE ES   1   1946 12.51                             107   -0.55 4  393 209 
 PRA  HZ I        1946 21.30         3.0 0.32            107            393 209 
 ORTC HN ES   4   1946 15.97                             107    2.23 0  396 216 
                                                                                
