 2013  421 1332 40.1 L   6.742 -73.150141.6  RSN  6 0.5 1.9LRSN                1
 GAP=139        1.30       6.4     6.5  8.5 -0.4691E+01  0.6662E+01  0.6234E+01E
 Epicentro: JORDAN - SANTANDER                                                 3
 ACTION:UPD 13-05-22 14:39 OP:EP   STATUS:               ID:20130421133240 L   I
 2013-04-21-1328-43M.COL___212                                                 6
 STAT SP IPHASW D HRMM SECON CODA AMPLIT PERI AZIMU VELO AIN AR TRES W  DIS CAZ7
 BAR2 SZ EP       1332 59.34                             173    0.2010 17.0 192 
 BAR2 SZ ES       1333 13.17                             173   -0.8110 17.0 192 
 BAR2 SZ I        1333 15.42        15.1 0.28            170           17.0 192 
 GIR2 SZ EP       1332 59.39                             164   -0.1010 37.5 353 
 GIR2 SZ ES       1333 14.70                             164    0.1010 37.5 353 
 BRR  HZ IP     D 1333  1.15                             151    0.1510 74.1 303 
 BRR  HZ I        1333  1.42        21.1 0.26            150           74.1 303 
 BRR  HN ES       1333 18.33                             151    1.0510 74.1 303 
 PAM  SZ EP       1333  2.27                             148    0.0410 82.6  37 
 PAM  SZ I        1333  2.45        14.4 0.22            152           82.6  37 
 PAM  SN ES       1333 19.04                             148   -0.4310 82.6  37 
 RUS  HZ EP       1333  3.40                             145    0.3810 94.3 176 
 RUS  HN ES       1333 21.22                             145    0.3510 94.3 176 
 RUS  HN I        1333 23.14        13.0 0.20            144           94.3 176 
 PTB  HZ EP       1333  6.03                             131   -0.59 9  146 261 
 PTB  HN ES       1333 26.80                             131   -0.48 9  146 261 
 PTB  HN I        1333 31.99        12.6 0.30            131            146 261 
                                                                                
