 2013  521 1538  6.6 L   6.543 -73.579106.5  RSN  6 0.5 1.4LRSN                1
 GAP= 90        1.03       5.5     4.3  9.3 -0.1963E+01  0.1058E+02  0.8258E+01E
 Epicentro: EL CARMEN DE CHUCURI - SANTANDER                                   3
 ACTION:UPD 13-06-20 09:52 OP:ep   STATUS:               ID:20130521153806 L   I
 2013-05-21-1530-00M.COL___259                                                 6
 STAT SP IPHASW D HRMM SECON CODA AMPLIT PERI AZIMU VELO AIN AR TRES W  DIS CAZ7
 BAR2 SZ EP       1538 22.39                             156    0.0810 44.2  83 
 BAR2 SZ ES       1538 35.06                             156    0.4610 44.2  83 
 BRR  HZ EP       1538 23.33                             146    0.1910 64.1 347 
 BRR  HE ES   1   1538 36.66                             146    0.59 7 64.1 347 
 BRR  HZ I        1538 37.90         8.7 0.14            154           64.1 347 
 GIR2 SZ EP       1538 23.96                             143   -0.0110 73.0  36 
 GIR2 SZ ES   1   1538 36.90                             143   -0.64 7 73.0  36 
 RUS  HZ EP   1   1538 26.05                             137    0.22 7 90.5 143 
 RUS  HN ES   1   1538 40.17                             137   -0.69 7 90.5 143 
 RUS  HZ I        1538 44.98         2.3 0.27            140           90.5 143 
 PTB  HZ EP       1538 25.41                             134   -0.3210 97.0 270 
 PTB  HN ES       1538 40.21                             134   -0.4810 97.0 270 
 PTB  HZ I        1538 46.39         6.1 0.20            136           97.0 270 
 NOR  HE ES   1   1538 56.37                             116    0.82 7  179 233 
 NOR  HZ I        1539  0.69         4.3 0.20            118            179 233 
                                                                                
