 2010  921 1356  1.8 L   6.787 -73.106139.9  RSN  9 0.4 2.1LRSN                1
 GAP=163        0.86       4.1     6.6  6.7 -0.1021E+02  0.3404E+01  0.7403E+01E
 Epicentro: LOS SANTOS - SANTANDER                                             3
 ACTION:UP  11-02-18 11:04 OP:tino STATUS:               ID:20100921135601 L   I
 2010-09-21-1353-34S.COL___122                                                 6
 STAT SP IPHASW D HRMM SECON CODA AMPLIT PERI AZIMU VELO SNR AR TRES W  DIS CAZ7
 BTL  SZ IP       1356 20.99                             170     0.310   23 309 
 BAR2 SZ IP       1356 20.77                             170     0.110   23 202 
 BAR2 SZ ES   1   1356 35.39                             170    -0.1 7   23 202 
 BAR2 SZ I        1356 37.11        25.8 0.11                            23 202 
 GIR2 SZ EP   1   1356 20.69                             166    -0.1 7   34 343 
 BRR  HZ IP     C 1356 22.54                             150     0.010   76 298 
 BRR  HE ES   1   1356 39.12                             150     0.3 7   76 298 
 BRR  HZ I        1356 40.17        60.1 0.08                            76 298 
 RUS  HZ EP       1356 24.76                             143    -0.110   99 179 
 RUS  HZ I        1356 25.99        16.4 0.13                            99 179 
 RUS  HE ES   2   1356 43.12                             143     0.3 5   99 179 
 GRA  SZ EP       1356 26.55                             136     0.010  126  15 
 GRA  SZ ES   1   1356 45.46                             136    -0.4 7  126  15 
 GRA  SZ I        1356 47.21        20.6 0.28                           126  15 
 NOR  SZ EP       1356 37.31                             117    -0.2 8  238 235 
 NOR  SZ ES   1   1357  4.49                             117    -0.9 6  238 235 
 CHI  HZ EP       1356 38.80                             116    -0.4 8  248 196 
 CHI  HN ES   1   1357  8.53                             116     0.2 6  248 196 
 CHI  HZ I        1357 12.42         4.8 0.45                           248 196 
 RREF HZ EP       1356 48.89                             110     0.9 7  324 230 
 RREF HZ I        1357 32.45         6.3 0.36                           324 230 
                                                                                
