 2016  221 1003 34.1 L   6.797 -73.185143.7  RSN  8 0.4 1.5LRSN                1
 GAP=132        1.02       3.3     4.3  6.1  0.5491E+00  0.5649E+01  0.1988E+01E
 Epicentro: ZAPATOCA - SANTANDER                                               3
 ACTION:UPD 16-03-04 21:28 OP:rebc STATUS:               ID:20160221100334 L   I
 OLDACT:DUP 16-02-21 21:12 OP:ak   STATUS:               ID:20160221095737d    3
 2016-02-21-0957-36M.COL___318                                                 6
 STAT SP IPHASW D HRMM SECON CODA AMPLIT PERI AZIMU VELO AIN AR TRES W  DIS CAZ7
 BAR2 EZ EP       10 3 53.03                             171   -0.4510 22.6 179 
 BAR2 EZ ES       10 4  8.23                             171   -0.3610 22.6 179 
 BAR2 EZ I        10 4  9.40         9.1 0.26            169           22.6 179 
 BRR  HZ EP       10 3 55.18                             153    0.3410 67.6 301 
 BRR  HN ES       10 4 11.66                             153    0.6510 67.6 301 
 BRR  HZ I        10 4 15.30         7.9 0.42            151           67.6 301 
 PAM  EZ EP       10 3 56.30                             149    0.0010 80.5  42 
 PAM  EN ES       10 4 13.90                             149    0.2910 80.5  42 
 PAM  EZ I        10 4 15.14         3.8 0.42            154           80.5  42 
 RUS  HZ EP       10 3 57.63                             143   -0.0410  101 174 
 RUS  HN ES       10 4 16.22                             143    0.1810  101 174 
 RUS  HZ I        10 4 17.03         2.6 0.24            145            101 174 
 PTB  HZ EP       10 4  0.12                             132   -0.40 9  143 259 
 PTB  HN ES       10 4 20.60                             132   -0.53 9  143 259 
 PTB  HZ I        10 4 25.94         4.1 0.30            132            143 259 
 OCA  HZ EP   1   10 4  2.83                             129    0.58 7  160 355 
 OCA  HN ES       10 4 23.42                             129   -0.79 9  160 355 
 ZAR  HZ EP       10 4  6.08                             122    0.05 9  200 293 
 ZAR  HE ES       10 4 31.34                             122    0.42 9  200 293 
 ZAR  HZ I        10 4 37.44         4.1 0.32            123            200 293 
 CHI  HZ EP       10 4 11.77                             117    0.23 8  247 194 
 CHI  HN ES       10 4 40.90                             117    0.17 8  247 194 
 CHI  HZ I        10 4 45.86         2.3 0.36            118            247 194 
                                                                                
