 2013 1221 1259 49.5 L   6.812 -73.324134.1  RSN  4 0.4 1.6LRSN                1
 GAP=251        0.91       6.7     5.9  7.5  0.1265E+02  0.1229E+02  0.1222E+02E
 Epicentro: ZAPATOCA - SANTANDER                                               3
 ACTION:UPD 14-01-13 10:19 OP:ep   STATUS:               ID:20131221125949 L   I
 OLDACT:REG 13-12-21 15:59 OP:nd   STATUS:               ID:20131221130000     3
 2013-12-21-1300-00M.COL___285                                                 6
 STAT SP IPHASW D HRMM SECON CODA AMPLIT PERI AZIMU VELO AIN AR TRES W  DIS CAZ7
 BAR2 SZ EP       13 0  7.84                             167    0.0010 28.9 147 
 BAR2 SZ ES       13 0 22.29                             167    0.1310 28.9 147 
 BAR2 SZ I        13 0 25.62        14.8 0.26            164           28.9 147 
 RUS  HZ EP       13 0 12.03                             140   -0.4210  105 165 
 RUS  HN ES       13 0 30.42                             140    0.0610  105 165 
 RUS  HZ I        13 0 31.72         5.3 0.30            139            105 165 
 PTB  HZ EP       13 0 14.45                             133    0.6810  129 257 
 PTB  HN ES       13 0 32.29                             133   -0.4310  129 257 
 PTB  HZ I        13 0 34.46         7.0 0.10            134            129 257 
 CHI  HZ EP       13 0 25.88                             115   -0.33 8  246 191 
 CHI  HN ES       13 0 55.19                             115    0.33 8  246 191 
 CHI  HZ I        13 1  1.59         2.5 0.76            116            246 191 
                                                                                
