 2012  521 1034 55.4 L   6.871 -73.313122.6  RSN  4 0.4 1.0LRSN                1
 GAP=155        0.81       4.4     6.3  9.8 -0.3067E+00  0.1167E+02 -0.1320E+02E
 Epicentro: BETULIA - SANTANDER                                                3
 ACTION:UP  12-07-05 12:07 OP:pat  STATUS:               ID:20120521103455 L   I
 2012-05-21-1030-00S.COL___200                                                 6
 STAT SP IPHASW D HRMM SECON CODA AMPLIT PERI AZIMU VELO SNR AR TRES W  DIS CAZ7
 BAR2 SZ EP   1   1035 12.98                             164     0.4 7   34 155 
 BAR2 SZ ES   1   1035 25.83                             164    -0.2 7   34 155 
 RUS  HZ EP   1   1035 18.14                             135     0.3 7  111 167 
 RUS  HN ES   1   1035 35.20                             135    -0.2 7  111 167 
 RUS  HZ I        1035 36.96         1.6 0.33                           111 167 
 PTB  HZ EP   1   1035 18.30                             130    -0.8 7  132 254 
 PTB  HN ES   1   1035 37.94                             130     0.4 7  132 254 
 PTB  HZ I        1035 40.09         2.0 0.16                           132 254 
 OCA  HZ EP   1   1035 21.31                             125     0.2 7  151 360 
 OCA  HE ES   1   1035 41.11                             125    -0.1 7  151 360 
                                                                                
