 2015 1221 1050 41.8 L   6.836 -73.165147.5  RSN 26 0.5 2.9LRSN 3.5WRSN        1
 SPEC AVERAGE  MO 14.3 ST0.499 OM  2.4 f0 1.43 R1.5922 AL 0.00 WI 40.0 MW  3.5 3
 SPEC SD       MO  0.2 ST0.489 OM  0.3 f00.718 R0.6419 AL      WI      MW  0.1 3
 GAP= 63        1.18       2.6     3.0  5.0 -0.1533E+01  0.3870E+01  0.8283E+00E
 Epicentro: LOS SANTOS - SANTANDER                                             3
 SPEC BAR2EH Z MO 14.2 ST0.833 OM  2.3 f0 2.06 R0.9340 AL-0.00 WI 40.0 MW  3.4 3
 SPEC BAR2EH Z T105114 K 0.000 GD  149 VS 5.20 DE 3.50 Q0750.0 QA 1.50 VS 3.50 3
 SPEC BRR HH Z MO 14.1 ST  1.1 OM  2.2 f0 2.35 R0.8187 AL-0.00 WI 40.0 MW  3.4 3
 SPEC BRR HH Z T105118 K 0.000 GD  162 VS 5.20 DE 3.50 Q0750.0 QA 1.50 VS 3.50 3
 SPEC RUS HH Z MO 14.5 ST0.179 OM  2.5 f00.994 R1.9356 AL-0.00 WI 40.0 MW  3.6 3
 SPEC RUS HH Z T105123 K 0.000 GD  181 VS 5.20 DE 3.50 Q0750.0 QA 1.50 VS 3.50 3
 SPEC OCA HH Z MO 14.3 ST  1.5 OM  2.3 f0 2.22 R0.8667 AL-0.00 WI 40.0 MW  3.5 3
 SPEC OCA HH Z T105130 K 0.000 GD  214 VS 5.20 DE 3.50 Q0750.0 QA 1.50 VS 3.50 3
 SPEC ZAR HH Z MO 14.1 ST  1.2 OM  2.0 f0 2.44 R0.7885 AL-0.00 WI 40.0 MW  3.4 3
 SPEC ZAR HH Z T105137 K 0.000 GD  249 VS 5.20 DE 3.50 Q0750.0 QA 1.50 VS 3.50 3
 SPEC CHI HH Z MO 14.4 ST0.112 OM  2.2 f00.912 R2.1096 AL-0.00 WI 40.0 MW  3.5 3
 SPEC CHI HH Z T105147 K 0.000 GD  291 VS 5.20 DE 3.50 Q0750.0 QA 1.50 VS 3.50 3
 SPEC ROSCBH Z MO 14.4 ST0.290 OM  2.2 f0 1.25 R1.5392 AL-0.00 WI 40.0 MW  3.5 3
 SPEC ROSCBH Z T105150 K 0.000 GD  294 VS 5.20 DE 3.50 Q0750.0 QA 1.50 VS 3.50 3
 SPEC HEL HH Z MO 14.4 ST0.094 OM  2.2 f00.846 R2.2742 AL-0.00 WI 40.0 MW  3.5 3
 SPEC HEL HH Z T105151 K 0.000 GD  308 VS 5.20 DE 3.50 Q0750.0 QA 1.50 VS 3.50 3
 SPECGUY2CHH Z MO 14.4 ST0.129 OM  2.2 f00.912 R2.1096 AL-0.00 WI 40.0 MW  3.6 3
 SPECGUY2CHH Z T105158 K 0.000 GD  336 VS 5.20 DE 3.50 Q0750.0 QA 1.50 Q1 0.00 3
 SPEC ELA HH Z MO 14.6 ST0.095 OM  2.3 f00.745 R2.5826 AL-0.00 WI 40.0 MW  3.7 3
 SPEC ELA HH Z T1052 4 K 0.000 GD  361 VS 5.20 DE 3.50 Q0750.0 QA 1.50 VS 3.50 3
 SPEC CBOCHH Z MO 14.2 ST0.104 OM  1.9 f0 1.04 R1.8500 AL-0.00 WI 40.0 MW  3.4 3
 SPEC CBOCHH Z T1052 3 K 0.000 GD  364 VS 5.20 DE 3.50 Q0750.0 QA 1.50 VS 3.50 3
 SPEC ANILHH Z MO 14.4 ST0.374 OM  2.1 f0 1.34 R1.4358 AL-0.00 WI 40.0 MW  3.5 3
 SPEC ANILHH Z T1052 9 K 0.000 GD  388 VS 5.20 DE 3.50 Q0750.0 QA 1.50 VS 3.50 3
 SPEC PRA HH Z MO 14.5 ST0.197 OM  2.2 f00.976 R1.9713 AL-0.00 WI 40.0 MW  3.6 3
 SPEC PRA HH Z T105215 K 0.000 GD  420 VS 5.20 DE 3.50 Q0750.0 QA 1.50 VS 3.50 3
 OLDACT:UPD 15-12-21 21:32 OP:AK   STATUS:               ID:20151221104747 L   3
 ACTION:UPD 16-02-04 15:06 OP:cam  STATUS:               ID:20151221104747 L   I
 OLDACT:UP  15-12-21 23:13 OP:dnl  STATUS:               ID:20151221104747 L   3
 2015-12-21-1047-47M.COL___329                                                 6
 STAT SP IPHASW D HRMM SECON CODA AMPLIT PERI AZIMU VELO AIN AR TRES W  DIS CAZ7
 BAR2 EZ EP       1051  1.62                             169   -0.0610 27.0 184 
 BAR2 EZ IP     C 1051  1.68                             169    0.0010 27.0 184 
 BAR2 EZ ES       1051 16.37                             169   -0.8410 27.0 184 
 BRR  HZ IP     C 1051  3.49                             154    0.6010 67.5 296 
 BRR  HN ES       1051 20.26                             154    0.8910 67.5 296 
 BRR  HZ I        1051 24.34       136.1 0.29            150           67.5 296 
 PAM  EZ EP       1051  4.72                             151    0.6610 75.8  43 
 PAM  EE ES       1051 22.04                             151    0.5810 75.8  43 
 RUS  HZ EP       1051  5.91                             143   -0.0710  105 175 
 RUS  HE ES       1051 24.83                             143   -0.0410  105 175 
 RUS  HZ I        1051 25.47       107.9 0.28            145            105 175 
 PTB  HZ EP       1051  8.01                             133   -0.74 9  147 257 
 PTB  HN ES       1051 29.50                             133   -0.31 9  147 257 
 PTB  HZ I        1051 36.60       114.2 0.26            131            147 257 
 OCA  HZ EP       1051  9.82                             131    0.01 9  156 354 
 OCA  HE ES       1051 31.81                             131    0.12 9  156 354 
 OCA  HZ I        1051 38.20       134.7 0.20            131            156 354 
 TAM  HZ IP     D 1051 10.15                             130    0.29 9  158 106 
 TAM  HE ES       1051 31.86                             130    0.08 9  158 106 
 SPBC HN ES       1051 32.28                             129   -0.75 9  165 218 
 SPBC HZ I        1051 39.83       158.5 0.11            129            165 218 
 ZAR  HZ EP       1051 14.01                             123    0.05 9  201 291 
 ZAR  HN ES       1051 38.98                             123   -0.10 9  201 291 
 ZAR  HZ I        1051 47.62        59.8 0.19            122            201 291 
 NOR  HZ EP       1051 17.45                             119   -0.21 8  235 233 
 NOR  HN ES       1051 45.11                             119   -0.55 8  235 233 
 NOR  HZ I        1051 50.44        83.9 0.22            119            235 233 
 SML  HZ EP       1051 17.91                             118   -0.08 8  239 335 
 SML  HE ES   2   1051 46.70                             118    0.44 4  239 335 
 SML  HZ I        1051 50.18        64.2 0.10            119            239 335 
 CHI  HZ EP   1   1051 19.66                             117   -0.25 6  252 194 
 CHI  HE ES       1051 49.12                             117   -0.55 8  252 194 
 CHI  HZ I        1051 52.73        62.7 0.40            118            252 194 
 ROSC BZ EP   4   1051 21.37                             117    1.14 0  255 210 
 ROSC BE ES   4   1051 52.03                             117    1.79 0  255 210 
 ROSC BZ I        1051 56.56       105.4 0.31            117            255 210 
 HEL  HZ EP       1051 23.05                             115    1.11 8  271 255 
 HEL  HN ES       1051 52.91                             115   -0.38 8  271 255 
 HEL  HZ I        1052  1.23        44.4 0.20            115            271 255 
 URE  HZ EP       1051 22.05                             114   -0.48 7  280 291 
 URE  HE ES   4   1051 52.26                             114   -2.07 0  280 291 
 SOCV BZ EP   4   1051 23.53                             112   -1.31 0  301  58 
 SOCV BN ES   4   1051 55.85                             112   -2.60 0  301  58 
 GUY2CHZ EP     D 1051 25.72                             113    0.21 7  302 234 
 GUY2CHN ES   2   1052  0.28                             113    0.64 4  302 234 
 GUY2CHZ I        1052  7.07        36.5 0.25                           302 234 
 PTGC HZ EP   4   1051 24.73                             112   -1.47 0  313 159 
 PTGC HZ EPg      1051 26.03                             112   -0.17 7  313 159 
 PTGC HE ES   4   1051 58.10                             112   -2.77 0  313 159 
 PTGC HZ I        1051 59.60        56.8 0.29            114            313 159 
 LL6C HZ EP       1051 26.02                             111   -1.05 7  321 358 
 LL6C HE ES       1052  1.48                             111   -0.93 7  321 358 
 LL6C HZ I        1052  8.02        17.9 0.51            112            321 358 
 ELA  HZ EP   4   1051 29.97                             111    1.17 0  330 229 
 ELA  HN ES       1052  6.33                             111    0.84 7  330 229 
 ELA  HZ I        1052 13.54        25.4 0.31            111            330 229 
 CBOC HZ EP   2   1051 29.52                             110    0.86 3  333 251 
 CBOC HN ES       1052  4.61                             110   -0.63 7  333 251 
 CBOC HZ I        1052 21.58        16.0 0.44            110            333 251 
 ANIL HZ EP   4   1051 32.96                             109    1.17 0  359 224 
 ANIL HN ES       1052 11.42                             109    0.61 6  359 224 
 ANIL HZ I        1052 18.63       114.4 0.28            109            359 224 
 PRA  HZ EP       1051 35.64                             107    0.02 6  394 209 
 PRA  HN ES       1052 17.25                             107   -0.39 6  394 209 
 PRA  HZ I        1052 21.76        36.5 0.27            107            394 209 
 ORTC HZ EP       1051 36.02                             107    0.05 6  397 216 
 ORTC HE ES       1052 19.49                             107    1.24 6  397 216 
 ORTC HZ I        1052 25.67        21.0 0.30            107            397 216 
 SJC  HZ EP   4   1051 35.40                             106   -1.45 0  405 327 
 SJC  HN ES   4   1052 17.11                             106   -2.71 0  405 327 
 SJC  HZ I        1052 24.56        12.7 0.36            107            405 327 
 PAL  HZ EP       1051 37.05                             106    0.05 6  406 238 
 PAL  HE ES       1052 20.91                             106    0.81 6  406 238 
 PAL  HZ I        1052 25.88        16.8 0.63            107            406 238 
 CRJC HZ EP   4   1051 42.21                             104   -1.64 0  464   4 
 CRJC HN ES   4   1052 29.31                             104   -2.97 0  464   4 
 CRJC HZ I        1052 34.25        18.0 0.15            105            464   4 
 MACC HZ EP   4   1051 48.63                             102   -2.31 0  524 188 
 MACC HN ES   4   1052 39.11                             102   -5.80 0  524 188 
                                                                                
