 2010 1121 1450 50.2 L   6.767 -73.140142.0  RSN 13 0.5 2.3LRSN                1
 GAP=160        1.04       3.9     7.0  6.6 -0.9014E+01  0.2813E+01  0.4612E+01E
 Epicentro: LOS SANTOS - SANTANDER                                             3
 ACTION:UP  10-12-17 16:54 OP:REBC STATUS:               ID:20101121145050 L   I
 2010-11-21-1445-47S.COL___132                                                 6
 STAT SP IPHASW D HRMM SECON CODA AMPLIT PERI AZIMU VELO SNR AR TRES W  DIS CAZ7
 BAR2 SZ IP     D 1451  9.24                             172    -0.110   20 194 
 BAR2 SZ ES   1   1451 23.51                             172    -0.7 7   20 194 
 BAR2 SZ I        1451 25.34        39.5 0.37                            20 194 
 BTL  SZ EP       1451  9.39                             171     0.010   22 320 
 BTL  SZ ES   2   1451 24.80                             171     0.5 5   22 320 
 GIR2 SZ EP   2   1451  9.26                             165    -0.3 5   35 350 
 BRR  HZ EP       1451 11.03                             151     0.010   74 301 
 BRR  HN ES       1451 27.71                             151     0.310   74 301 
 BRR  HZ I        1451 30.88        56.3 0.15                            74 301 
 RUS  HZ EP       1451 13.29                             144     0.010   97 176 
 RUS  HZ I        1451 14.46        19.9 0.12                            97 176 
 RUS  HE ES   1   1451 31.26                             144    -0.1 7   97 176 
 GRA  SZ EP       1451 15.94                             135     0.610  129  17 
 GRA  SZ ES   1   1451 35.89                             135     0.9 7  129  17 
 GRA  SZ I        1451 41.72        18.9 0.40                           129  17 
 OCA  SZ EP       1451 17.65                             128    -0.9 9  164 353 
 OCA  SZ ES   1   1451 39.96                             128    -0.7 7  164 353 
 OCA  SZ I        1451 42.58        34.7 0.21                           164 353 
 NOR  SZ EP   1   1451 25.41                             118    -0.1 6  233 235 
 NOR  SN ES   1   1451 53.37                             118     0.2 6  233 235 
 CHI  HZ EP   1   1451 27.42                             117     0.1 6  245 196 
 CHI  HE ES   2   1451 56.91                             117     0.6 4  245 196 
 CHI  HZ I        1452  4.70        13.8 0.44                           245 196 
 HEL  HZ EP   2   1451 30.97                             114     0.8 4  272 257 
 HEL  HZ I        1452  7.59        14.9 0.34                           272 257 
 RREF HZ EP   2   1451 36.45                             110     0.5 3  320 230 
 RREF HE ES   2   1452 11.15                             110    -0.5 3  320 230 
 RREF HZ I        1452 23.34        13.3 0.24                           320 230 
 TOL  SZ EP   2   1451 38.74                             109     0.7 3  341 225 
 PRA  HZ EP       1451 43.26                             106     0.0 6  389 210 
 PRA  HN ES   1   1452 24.08                             106    -0.5 4  389 210 
                                                                                
