 2015  321 1114 53.6 L   6.784 -73.134146.2  RSN  5 0.4 1.7LRSN                1
 GAP=139        1.05       4.6     5.1  9.8  0.4488E+00  0.1548E+02 -0.1420E+02E
 Epicentro: LOS SANTOS - SANTANDER                                             3
 ACTION:UPD 15-04-30 16:28 OP:nd   STATUS:               ID:20150321111453 L   I
 OLDACT:REG 15-03-21 19:46 OP:cam  STATUS:               ID:20150321110749     3
 2015-03-21-1107-49M.COL___263                                                 6
 STAT SP IPHASW D HRMM SECON CODA AMPLIT PERI AZIMU VELO AIN AR TRES W  DIS CAZ7
 PAM  SZ EP     D 1115 16.40                             151    0.4810 77.9  38 
 PAM  SN ES       1115 33.54                             151    0.2310 77.9  38 
 PAM  SZ I        1115 35.78         6.2 0.48            155           77.9  38 
 RUS  HZ EP       1115 17.35                             144    0.0610 98.8 177 
 RUS  HN ES       1115 35.30                             144   -0.4510 98.8 177 
 RUS  HZ I        1115 37.43         3.2 0.32            150           98.8 177 
 PTB  HN ES       1115 41.72                             132   -0.12 9  149 260 
 PTB  HN I        1115 47.26        16.2 0.36            133            149 260 
 ZAR  HZ EP       1115 26.61                             122    0.32 8  206 292 
 ZAR  HN ES       1115 52.31                             122    0.55 8  206 292 
 ZAR  HZ I        1116  1.59         3.5 0.42            124            206 292 
 SML  HZ EP       1115 29.95                             117   -0.55 8  246 335 
 SML  HN ES       1115 58.46                             117   -0.80 8  246 335 
 SML  HZ I        1116  4.58         5.6 0.10            120            246 335 
                                                                                
