 2010  921 1726 45.6 L   6.568 -73.472112.4  RSN  4 0.2 1.4LRSN                1
 GAP=186        0.61       5.0     9.0  5.9  0.2688E+02 -0.5785E+01 -0.3448E+01E
 Epicentro: EL CARMEN DE CHUCURI - SANTANDER                                   3
 ACTION:UP  11-02-18 11:04 OP:tino STATUS:               ID:20100921172645 L   I
 2010-09-21-1723-39S.COL___119                                                 6
 STAT SP IPHASW D HRMM SECON CODA AMPLIT PERI AZIMU VELO SNR AR TRES W  DIS CAZ7
 BAR2 SZ EP       1727  1.76                             163     0.310   32  85 
 BAR2 SZ ES   1   1727 13.98                             163     0.1 7   32  85 
 BAR2 SZ I        1727 15.23        21.6 0.13                            32  85 
 BRR  HZ EP       1727  2.66                             148    -0.210   65 336 
 BRR  HE ES   1   1727 16.29                             148     0.0 7   65 336 
 BRR  HZ I        1727 22.31        12.6 0.14                            65 336 
 RUS  HZ EP       1727  5.13                             140     0.110   86 150 
 RUS  HN ES   2   1727 19.73                             140    -0.5 5   86 150 
 RUS  HZ I        1727 24.57         2.4 0.37                            86 150 
 GUE  SZ EP       1727 10.74                             123    -0.2 9  152  23 
 GUE  SZ I        1727 17.14         1.9 0.05                           152  23 
                                                                                
