 2012  321 1822 32.8 L   6.778 -73.158149.6  RSN  7 0.4 2.3LRSN                1
 GAP=136        0.90       4.7     5.3  7.4  0.3010E+01  0.9004E+01  0.5233E+01E
 ACTION:UP  12-03-31 23:21 OP:EP   STATUS:               ID:20120321182232 L   I
 2012-03-21-1820-00M.COL___201                                                 6
 STAT SP IPHASW D HRMM SECON CODA AMPLIT PERI AZIMU VELO SNR AR TRES W  DIS CAZ7
 BAR2 SZ EP       1822 52.85                             172     0.010   21 187 
 BAR2 SZ ES   1   1823  8.05                             172    -0.5 7   21 187 
 BAR2 SZ I        1823  9.11        46.5 0.40                            21 187 
 BRR  HZ EP       1822 54.72                             153     0.310   71 301 
 BRR  HE ES   1   1823 12.07                             153     0.8 7   71 301 
 BRR  HZ I        1823 16.52        51.9 0.16                            71 301 
 PAM  SZ EP   1   1822 55.71                             151     0.1 7   80  39 
 PAM  SN ES   1   1823 13.10                             151    -0.3 7   80  39 
 RUS  HZ EP   1   1822 56.95                             145     0.1 7   98 175 
 RUS  HN ES   1   1823 15.51                             145     0.0 7   98 175 
 RUS  HZ I        1823 16.74        21.6 0.42                            98 175 
 PTB  HZ EP   1   1822 59.37                             133    -0.6 7  146 260 
 PTB  HN ES   1   1823 20.72                             133    -0.4 7  146 260 
 PTB  HZ I        1823 22.84        19.5 0.12                           146 260 
 ZAR  HZ EP   1   1823  5.51                             123     0.0 6  204 293 
 ZAR  HN ES   1   1823 30.77                             123    -0.2 6  204 293 
 ZAR  HZ I        1823 37.06        30.5 0.55                           204 293 
 CHI  HZ EP   1   1823 10.26                             118    -0.2 6  246 195 
 CHI  HN ES   1   1823 40.32                             118     0.5 6  246 195 
 CHI  HZ I        1823 46.11         9.6 0.44                           246 195 
                                                                                
