 2016 1221 1730 48.2 L   6.753 -73.102143.5  RSN  7 0.4 2.0LRSN                1
 GAP=144        0.85       3.9     3.7  5.8 -0.4136E+00  0.6513E+01  0.8394E-01E
 Epicentro: LOS SANTOS - SANTANDER                                             3
 ACTION:UPD 17-01-11 20:17 OP:rebc STATUS:               ID:20161221173048 L   I
 OLDACT:UP  16-12-21 23:42 OP:dani STATUS:               ID:20161221172749     3
 OLDACT:REG 16-12-21 20:48 OP:dani STATUS:               ID:20161221172749     3
 2016-12-21-1728-00M.COL___384                                                 6
 STAT SP IPHASW D HRMM SECON CODA AMPLIT PERI AZIMU VELO AIN AR TRES W  DIS CAZ7
 BAR2 EZ EP       1731  7.31                             172   -0.1410 19.9 207 
 BAR2 EZ ES       1731 22.83                             172    0.3310 19.9 207 
 BAR2 EZ I        1731 23.33        23.6 0.24            171           19.9 207 
 BRR  HZ EP     C 1731  9.32                             150   -0.1510 78.0 300 
 BRR  HN ES       1731 26.48                             150    0.3910 78.0 300 
 BRR  HZ I        1731 31.23        15.6 0.10            148           78.0 300 
 PAM  EZ EP       1731 10.31                             150    0.1010 78.6  34 
 PAM  EE ES       1731 27.43                             150    0.0210 78.6  34 
 PAM  EZ I        1731 27.99        14.1 0.18            153           78.6  34 
 RUS  HZ EP       1731 11.17                             145   -0.1310 95.2 179 
 RUS  HN ES       1731 29.16                             145   -0.1910 95.2 179 
 RUS  HZ I        1731 30.55        10.9 0.22            148           95.2 179 
 PTB  HZ EP   2   1731 14.37                             131   -0.93 5  152 261 
 PTB  HN ES       1731 35.99                             131   -0.48 9  152 261 
 PTB  HZ I        1731 39.80        17.9 0.22            131            152 261 
 ZAR  HZ EP       1731 21.39                             121    0.26 8  211 293 
 ZAR  HN ES       1731 46.47                             121   -0.38 8  211 293 
 ZAR  HZ I        1731 52.08        22.7 0.22            122            211 293 
 GUY2CHZ EP   3   1731 33.48                             112    1.70 2  302 236 
 GUY2CHN ES       1732  6.65                             112    0.85 7  302 236 
 GUY2CHZ I        1732 14.85         6.4 0.47                           302 236 
                                                                                
