 2015  421 1417 43.0 L   6.693 -73.610102.0  RSN  6 0.4 1.5LRSN                1
 GAP=116        0.81       3.7     3.5  7.7 -0.1554E+01  0.6947E+01 -0.9162E+01E
 Epicentro: EL CARMEN - SANTANDER                                              3
 ACTION:UPD 15-06-03 16:56 OP:cam  STATUS:               ID:20150421141743 L   I
 OLDACT:REG 15-04-21 20:47 OP:spq  STATUS:               ID:20150421140750     3
 2015-04-21-1407-50M.COL___268                                                 6
 STAT SP IPHASW D HRMM SECON CODA AMPLIT PERI AZIMU VELO AIN AR TRES W  DIS CAZ7
 BRR  HZ EP   1   1417 58.26                             153    0.23 7 47.2 346 
 BAR2 EZ EP       1417 58.35                             152   -0.1010 48.5 103 
 BAR2 EZ ES   1   1418 10.62                             152    0.09 7 48.5 103 
 BAR2 EZ I        1418 12.02        17.4 0.26            154           48.5 103 
 PTB  HZ EP       1418  1.31                             133   -0.2910 95.2 260 
 PTB  HN ES       1418 15.76                             133   -0.3710 95.2 260 
 PTB  HZ I        1418 17.06         6.6 0.32            133           95.2 260 
 RUS  HZ EP   1   1418  2.82                             130   -0.40 7  106 147 
 RUS  HN ES   1   1418 19.38                             130    0.36 7  106 147 
 RUS  HZ I        1418 19.96         5.7 0.22            131            106 147 
 NOR  HZ EP   1   1418 11.26                             113    0.11 7  187 228 
 NOR  HN ES       1418 33.69                             113    0.56 9  187 228 
 NOR  HZ I        1418 36.70         2.9 0.20            113            187 228 
 SML  HZ EP       1418 16.73                             107   -0.25 8  239 348 
 SML  HE ES   1   1418 44.33                             107    0.81 6  239 348 
 SML  HZ I        1418 48.56         4.8 0.38            107            239 348 
                                                                                
