 2010  921 1743  4.4 L   6.783 -73.102145.0  RSN  6 0.3 1.7LRSN                1
 GAP=164        0.81       3.6     8.9  6.8 -0.8573E+01 -0.1092E+02  0.3085E+01E
 Epicentro: LOS SANTOS - SANTANDER                                             3
 ACTION:UP  11-02-18 11:04 OP:tino STATUS:               ID:20100921174304 L   I
 2010-09-21-1741-21S.COL___119                                                 6
 STAT SP IPHASW D HRMM SECON CODA AMPLIT PERI AZIMU VELO SNR AR TRES W  DIS CAZ7
 BAR2 SZ EP       1743 23.66                             171    -0.210   23 203 
 BAR2 SZ ES   1   1743 38.45                             171    -0.7 7   23 203 
 BAR2 SZ I        1743 40.26         9.1 0.19                            23 203 
 BRR  HZ EP       1743 25.58                             151    -0.110   76 298 
 BRR  HN ES   1   1743 42.84                             151     0.4 7   76 298 
 RUS  HZ EP       1743 28.16                             144     0.310   98 179 
 RUS  HN ES   1   1743 46.74                             144     0.5 7   98 179 
 RUS  HZ I        1743 47.77         6.9 0.23                            98 179 
 GUE  SZ EP   1   1743 29.17                             139     0.1 7  117  10 
 GRA  SZ EP       1743 29.54                             137     0.010  126  15 
 GRA  SZ ES   1   1743 49.29                             137     0.1 7  126  15 
 GRA  SZ I        1743 50.65         7.9 0.30                           126  15 
 CHI  HZ EP       1743 41.93                             117     0.0 8  248 196 
 CHI  HE ES   1   1744 10.94                             117    -0.3 6  248 196 
 CHI  HZ I        1744 15.11         4.6 0.45                           248 196 
                                                                                
