 2010  221 1325 56.6 L   6.834 -73.030135.2  RSN  9 0.5 2.4LRSN                1
 GAP=195        1.00       4.6     9.5  8.3  0.2582E+01  0.1297E+02  0.3953E+01E
 Epicentro: CEPITA - SANTANDER                                                 3
 ACTION:UP  10-08-24 09:50 OP:vdl  STATUS:               ID:20100221132556 L   I
 2010-02-21-1322-41S.COL___094                                                 6
 STAT SP IPHASW D HRMM SECON CODA AMPLIT PERI AZIMU VELO SNR AR TRES W  DIS CAZ7
 BAR2 SZ EP       1326 15.38                             166     0.210   32 212 
 BAR2 SZ ES   1   1326 28.99                             166    -0.7 7   32 212 
 BRR  HZ EP       1326 17.12                             147    -0.110   81 292 
 BRR  HN ES   1   1326 33.94                             147     0.6 7   81 292 
 BRR  HZ I        1326 38.21        45.8 0.14                            81 292 
 RUS  BZ EP   1   1326 19.46                             140    -0.1 7  104 183 
 RUS  BE ES   1   1326 37.96                             140     0.4 7  104 183 
 RUS  BZ I        1326 39.42        24.3 0.25                           104 183 
 OCA  SZ EP   1   1326 24.78                             127     0.8 7  159 348 
 OCA  SZ ES   1   1326 44.60                             127    -0.7 7  159 348 
 CHI  HZ EP   1   1326 33.75                             114    -0.8 6  256 198 
 CHI  HE ES   2   1327  4.41                             114     0.3 4  256 198 
 CHI  HZ I        1327 10.64         8.6 0.41                           256 198 
 HEL  HZ EP   2   1326 36.89                             111    -0.9 4  285 256 
 HEL  HN ES   2   1327  9.48                             111    -0.4 4  285 256 
 HEL  HZ I        1327 13.94        11.2 0.36                           285 256 
 RREF BZ EP   1   1326 44.19                             108     0.5 5  334 230 
 RREF BN ES   3   1327 20.61                             108     0.2 2  334 230 
 RREF BZ I        1327 26.88        13.2 0.25                           334 230 
 ANIL BZ EP   3   1326 47.43                             106     0.1 2  369 226 
 ANIL BE ES   2   1327 27.38                             106     0.4 3  369 226 
 ANIL BZ I        1327 33.23        15.6 0.21                           369 226 
 PRA  HN ES   2   1327 32.65                             104    -0.6 3  402 211 
 PRA  HZ I        1327 37.25        10.7 0.32                           402 211 
                                                                                
