 2017 1121 1046 12.6 L   6.374 -73.155188.0  RSN 10 0.5 1.7LRSN                1
 GAP=116        1.09       3.5     4.1  6.8 -0.2110E+01  0.5412E+01  0.1153E+01E
 Epicentro: PARAMO - SANTANDER                                                 3
 ACTION:UPD 17-12-12 19:58 OP:rebc STATUS:               ID:20171121104612 L   I
 OLDACT:DUP 17-11-21 22:33 OP:osc  STATUS:               ID:20171121103159d    3
 OLDACT:REG 17-11-21 21:59 OP:osc  STATUS:               ID:20171121103158     3
 2017-11-21-1038-00M.COL___468                                                 6
 STAT SP IPHASW D HRMM SECON CODA AMPLIT PERI AZIMU VELO AIN AR TRES W  DIS CAZ7
 BAR2 EZ EP       1046 37.39                             172    0.0110 24.3 353 
 BAR2 EZ ES       1046 55.83                             172   -0.8410 24.3 353 
 BAR2 EZ I        1046 57.14        19.3 0.32            171           24.3 353 
 PAM  EZ EP       1046 42.44                             146    0.6110  118  25 
 PAM  EE ES       1047  4.95                             146    0.3510  118  25 
 PAM  EZ I        1047  6.64         4.3 0.40            146            118  25 
 YPLC HZ EP       1046 42.51                             142   -0.15 9  138 142 
 YPLC HN ES       1047  6.26                             142    0.19 9  138 142 
 PTB  HZ EP       1046 43.27                             140    0.15 9  145 277 
 PTB  HN ES       1047  6.93                             140    0.03 9  145 277 
 PTB  HZ I        1047  9.08         2.3 0.18            141            145 277 
 OCA  HZ EP       1046 48.10                             130   -0.53 8  207 355 
 OCA  HN ES       1047 16.59                             130   -0.11 8  207 355 
 OCA  HZ I        1047 22.29         9.8 0.22            130            207 355 
 NOR  HZ EP   4   1046 50.99                             129    2.23 0  210 245 
 NOR  HE ES       1047 16.66                             129   -0.28 8  210 245 
 NOR  HZ I        1047 17.81         2.9 0.26            130            210 245 
 ZAR  HZ EP       1046 50.59                             127    0.43 8  225 303 
 ZAR  HN ES       1047 19.73                             127    0.31 8  225 303 
 GUY2CHZ EP       1046 56.43                             122    0.58 7  276 243 
 GUY2CHE ES       1047 29.27                             122   -0.28 7  276 243 
 GUY2CHZ I        1047 38.23         1.4 0.32                           276 243 
 DRL03HZ EP   1   1046 59.59                             116   -1.99 5  336 354 
 DRL03HN ES       1047 40.09                             116    0.33 7  336 354 
 PRA  HZ EP       1047  3.18                             115   -0.18 6  351 213 
 PRA  HE ES       1047 43.22                             115    0.30 6  351 213 
                                                                                
