 2013 1021 1325  6.0 L   6.758 -73.175147.9  RSN  4 0.4 1.2LRSN                1
 GAP=231        0.92       7.4     7.1  7.8  0.2574E+02  0.1848E+01  0.1333E+00E
 Epicentro: VILLANUEVA - SANTANDER                                             3
 ACTION:UPD 13-11-25 09:22 OP:ep   STATUS:               ID:20131021132506 L   I
 OLDACT:UP  13-10-21 16:25 OP:cam  STATUS:               ID:20131021131848     3
 OLDACT:REG 13-10-21 15:43 OP:cam  STATUS:               ID:20131021131848     3
 2013-10-21-1318-48M.COL___215                                                 6
 STAT SP IPHASW D HRMM SECON CODA AMPLIT PERI AZIMU VELO AIN AR TRES W  DIS CAZ7
 BAR2 SZ EP       1325 25.34                             173   -0.4210 18.4 182 
 BAR2 SZ ES       1325 40.70                             173   -0.5010 18.4 182 
 BAR2 SZ I        1325 42.59         6.6 0.38            170           18.4 182 
 BRR  HZ EP       1325 27.42                             153    0.1010 70.7 303 
 BRR  HN ES       1325 44.49                             153    0.5210 70.7 303 
 RUS  HZ EP       1325 29.87                             145    0.2510 96.3 174 
 RUS  HN ES       1325 48.41                             145    0.3410 96.3 174 
 RUS  HZ I        1325 49.69         1.4 0.28            145           96.3 174 
 PTB  HZ EP   1   1325 32.63                             133   -0.11 7  144 260 
 PTB  HN ES       1325 53.37                             133   -0.26 9  144 260 
 PTB  HZ I        1325 55.57         2.6 0.56            133            144 260 
                                                                                
