 2015  721 1114 19.6 L   6.649 -73.401129.7  RSN  4 0.3 1.2LRSN                1
 GAP=164        0.70       4.4     4.7  7.2  0.8462E+01  0.2107E+02  0.6212E+01E
 Epicentro: GALAN - SANTANDER                                                  3
 OLDACT:UP  15-07-21 22:55 OP:ak   STATUS:               ID:20150721110749     3
 OLDACT:UP  15-07-21 22:48 OP:ak   STATUS:               ID:20150721110749     3
 OLDACT:REG 15-07-21 21:31 OP:ak   STATUS:               ID:20150721110749     3
 ACTION:UPD 15-09-08 21:49 OP:cam  STATUS:               ID:20150721111419 L   I
 OLDACT:UP  15-07-21 23:30 OP:ak   STATUS:               ID:20150721110751d    3
 OLDACT:DUP 15-07-21 23:26 OP:ak   STATUS:               ID:20150721110751d    3
 OLDACT:DUP 15-07-21 23:18 OP:ak   STATUS:               ID:20150721110750d    3
 OLDACT:UP  15-07-21 23:18 OP:ak   STATUS:               ID:20150721110749     3
 2015-07-21-1107-49M.COL___343                                                 6
 STAT SP IPHASW D HRMM SECON CODA AMPLIT PERI AZIMU VELO AIN AR TRES W  DIS CAZ7
 BAR2 EZ EP       1114 37.20                             169   -0.1510 24.9 105 
 BAR2 EZ ES       1114 51.31                             169    0.1210 24.9 105 
 BAR2 EZ I        1114 55.36         3.3 0.26            170           24.9 105 
 RUS  HZ EP       1114 41.56                             143    0.4810 90.7 157 
 RUS  HN ES       1114 57.44                             143   -0.3710 90.7 157 
 ZAR  HZ EP   1   1114 48.84                             121   -0.32 7  186 300 
 ZAR  HN ES       1115 12.28                             121    0.07 9  186 300 
 GUY2CHZ EP   1   1114 58.50                             112   -0.30 6  269 234 
 GUY2CHE ES       1115 29.53                             112    0.17 8  269 234 
 GUY2CHZ I        1115 41.57         1.3 0.29                           269 234 
                                                                                
