 2014  821 1435 48.6 L   7.302 -73.020161.2  RSN 14 0.5 2.2LRSN                1
 GAP=118        1.20       3.8     4.6  6.0  0.5649E+00  0.5011E+01  0.3923E+00E
 Epicentro: MATANZA - SANTANDER                                                3
 ACTION:UPD 14-09-15 21:51 OP:nd   STATUS:               ID:20140821143548 L   I
 OLDACT:REG 14-08-21 21:02 OP:stll STATUS:               ID:20140821142821     3
 2014-08-21-1428-21M.COL___263                                                 6
 STAT SP IPHASW D HRMM SECON CODA AMPLIT PERI AZIMU VELO AIN AR TRES W  DIS CAZ7
 PAM  SZ EP       1436 10.88                             167    0.1310 35.6  83 
 PAM  SZ I        1436 11.11        12.9 0.16            173           35.6  83 
 PAM  SN ES       1436 27.64                             167   -0.3810 35.6  83 
 BRR  HZ EP       1436 12.50                             152    0.6110 79.4 254 
 BRR  HN ES       1436 30.67                             152    0.6310 79.4 254 
 BRR  HZ I        1436 37.13        22.0 0.32            145           79.4 254 
 BAR2 SZ EP       1436 12.53                             152    0.2310 80.6 193 
 BAR2 SZ ES       1436 30.82                             152    0.0410 80.6 193 
 BAR2 SZ I        1436 35.93        54.6 0.34            146           80.6 193 
 RUS  HZ EP       1436 18.64                             134    0.39 9  156 183 
 RUS  HN ES       1436 40.81                             134   -0.56 9  156 183 
 RUS  HZ I        1436 44.98         6.7 0.26            130            156 183 
 TAM  HZ EP       1436 18.57                             132    0.02 9  166 125 
 TAM  HZ I        1436 18.74        27.6 0.14            132            166 125 
 PTB  HZ EP       1436 19.60                             129   -0.17 9  180 242 
 PTB  HN ES       1436 44.19                             129    0.13 9  180 242 
 PTB  HZ I        1436 46.80        15.3 0.36            124            180 242 
 SML  HZ EP       1436 21.57                             126   -0.34 9  202 325 
 SML  HE ES       1436 47.40                             126   -0.48 9  202 325 
 ZAR  HZ EP       1436 22.38                             126    0.28 9  204 276 
 ZAR  HN ES       1436 48.17                             126   -0.05 9  204 276 
 ZAR  HZ I        1436 54.76        15.7 0.28            121            204 276 
 SPBC HZ EP       1436 24.27                             124    0.81 8  216 213 
 SPBC HN ES       1436 50.81                             124    0.17 8  216 213 
 SPBC HZ I        1437  2.01        10.4 0.22            120            216 213 
 NOR  HZ EP       1436 30.59                             117    0.40 7  281 227 
 NOR  HE ES       1437  1.44                             117   -1.18 7  281 227 
 NOR  HZ I        1437 11.80         9.7 0.18            113            281 227 
 HEL  HZ EP       1436 33.07                             115   -0.01 7  303 246 
 HEL  HZ I        1437 17.23         8.5 0.36            112            303 246 
 CHI  HZ EP       1436 33.48                             115    0.07 7  306 195 
 CHI  HE ES       1437  6.79                             115   -1.57 7  306 195 
 CHI  HZ I        1437 14.59         4.2 0.36            112            306 195 
 GUY2CHZ EP       1436 38.08                             112    0.02 6  347 229 
 GUY2CHN ES       1437 17.14                             112    0.52 6  347 229 
 GUY2CHZ I        1437 28.58         7.5 0.44                           347 229 
 SJC  HZ EP       1436 39.43                             110   -1.06 6  373 321 
                                                                                
