 2017 1121 1322 58.9 L   6.850 -73.125146.2  RSN 30 0.9 2.9LRSN                1
 GAP= 57        1.79       3.4     3.8  7.7 -0.2181E+01  0.8084E+01  0.9783E+00E
 Epicentro: LOS SANTOS - SANTANDER                                             3
 ACTION:UPD 17-12-12 19:58 OP:rebc STATUS:               ID:20171121132258 L   I
 OLDACT:DUP 17-11-21 23:13 OP:osc  STATUS:               ID:20171121131740d    3
 2017-11-21-1318-00M.COL___477                                                 6
 STAT SP IPHASW D HRMM SECON CODA AMPLIT PERI AZIMU VELO AIN AR TRES W  DIS CAZ7
 BAR2 EZ EP     D 1323 18.77                             168    0.0510 29.1 193 
 BAR2 EZ ES       1323 33.83                             168   -0.3410 29.1 193 
 BAR2 EZ I        1323 35.32       159.5 0.42            167           29.1 193 
 PAM  EZ EP     C 1323 21.48                             152    0.6410 71.7  41 
 PAM  EN ES       1323 38.65                             152    0.7010 71.7  41 
 PAM  EZ I        1323 41.08        95.3 0.52            154           71.7  41 
 PTB  HZ EP       1323 25.62                             131   -0.59 9  151 257 
 PTB  HN ES       1323 46.52                             131   -0.99 9  151 257 
 PTB  HZ I        1323 54.07        58.7 0.42            132            151 257 
 TAM  HZ EP       1323 26.92                             130    0.37 9  154 107 
 TAM  HZ I        1323 47.83        49.5 0.40            131            154 107 
 TAM  HN ES       1323 48.55                             130    0.43 9  154 107 
 OCA  HZ EP       1323 27.31                             130    0.54 9  155 352 
 OCA  HE ES       1323 48.85                             130    0.35 9  155 352 
 OCA  HZ I        1323 52.40       151.4 0.32            132            155 352 
 SPBC HZ EP       1323 27.63                             128   -0.35 9  169 218 
 SPBC HN ES       1323 49.06                             128   -1.59 9  169 218 
 SPBC HZ I        1323 52.36       105.6 0.32            128            169 218 
 YPLC HZ EP       1323 29.11                             126    0.01 9  181 153 
 YPLC HE ES       1323 52.87                             126    0.22 9  181 153 
 YPLC HZ I        1323 54.00        75.4 0.26            126            181 153 
 ZAR  HZ EP       1323 31.55                             122    0.16 9  204 290 
 ZAR  HN ES       1323 57.52                             122    0.79 9  204 290 
 ZAR  HZ I        1324  3.45        62.7 0.34            123            204 290 
 TABC EZ EP       1323 36.29                             119    0.99 8  236 211 
 TABC EZ ES       1324  2.37                             119   -1.33 8  236 211 
 TABC EZ I        1324 10.55        80.5 0.58            119            236 211 
 NOR  HZ EP       1323 34.77                             118   -0.43 8  240 234 
 NOR  HE ES       1324  2.71                             118   -0.80 8  240 234 
 NOR  HZ I        1324  8.33        67.4 0.52            118            240 234 
 CHI  HZ EP       1323 36.95                             116   -0.31 8  255 195 
 CHI  HN ES       1324  6.51                             116   -0.68 8  255 195 
 CHI  HZ I        1324 13.30        35.1 0.28            117            255 195 
 ROSC BZ EP       1323 38.39                             116    0.71 8  259 211 
 ROSC BE ES       1324  8.64                             116    0.70 8  259 211 
 ROSC BZ I        1324 14.93        70.0 0.35            116            259 211 
 HEL  HZ EP       1323 39.80                             114    0.27 7  276 255 
 HEL  HE ES       1324 13.10                             114    1.87 7  276 255 
 HEL  HZ I        1324 18.81        44.8 0.36            115            276 255 
 DRL03HZ EP       1323 41.08                             113    1.13 7  284 352 
 DRL03HE ES       1324 12.63                             113    0.65 7  284 352 
 URE  HZ EP       1323 39.56                             113   -0.44 7  284 291 
 URE  HE ES       1324 10.46                             113   -1.61 7  284 291 
 URE  HZ I        1324 19.61        23.5 0.36            114            284 291 
 GUY2CHZ EP       1323 43.25                             112    0.15 7  306 234 
 GUY2CHE ES       1324 18.29                             112    0.72 7  306 234 
 GUY2CHZ I        1324 25.53        67.9 0.38                           306 234 
 VIL  EZ EP       1323 42.24                             112   -0.76 7  309 192 
 VIL  EN ES       1324 17.17                             112   -0.22 7  309 192 
 VIL  EZ I        1324 22.84        39.5 0.38            112            309 192 
 PTGC HZ EP   4   1323 41.73                             111   -1.53 0  313 159 
 PTGC HN ES   4   1324 14.98                             111   -2.89 0  313 159 
 PTGC HZ I        1324 22.79        28.8 0.30            112            313 159 
 RECRCHN ES       1324 22.69                             111    1.52 7  323 230 
 ELA  HZ EP       1323 47.75                             110    1.37 7  334 229 
 ELA  HE ES       1324 23.30                             110   -0.11 7  334 229 
 ELA  HZ I        1324 30.44        40.8 0.34            110            334 229 
 CBOC HZ EP       1323 46.66                             110    0.38 7  337 251 
 CBOC HE ES       1324 23.94                             110    0.71 7  337 251 
 CBOC HZ I        1324 32.55        16.7 0.48            110            337 251 
 DBB  EZ EP       1323 46.51                             109   -0.10 7  341 273 
 DBB  EE ES       1324 23.02                             109   -0.81 7  341 273 
 DBB  EZ I        1324 25.70        13.9 0.34            110            341 273 
 SDV  BZ EP       1323 48.17                             108   -0.18 6  355  51 
 SDV  B2 ES       1324 24.85                             108   -2.07 6  355  51 
 SDV  BZ I        1324 29.95        12.2 0.55            109            355  51 
 ANIL HZ EP       1323 50.11                             108    0.75 6  363 224 
 ANIL HE ES       1324 28.16                             108   -0.56 6  363 224 
 ANIL HZ I        1324 34.13        80.7 0.32            108            363 224 
 PRA  HZ EP       1323 52.29                             106   -0.83 6  398 209 
 PRA  HE ES       1324 35.01                             106   -0.41 6  398 209 
 PRA  HZ I        1324 41.53        55.6 0.28            107            398 209 
 APAC HN ES       1324 37.25                             106    1.76 6  399 287 
 ORTC HZ EP       1323 53.06                             106   -0.45 6  401 216 
 ORTC HE ES       1324 36.99                             106    0.89 6  401 216 
 ORTC HZ I        1324 43.22        26.3 0.30            106            401 216 
 SJC  HZ EP       1323 53.04                             106   -1.04 6  406 326 
 SJC  HE ES       1324 34.19                             106   -2.94 6  406 326 
 SJC  HZ I        1324 37.51        10.7 0.32            106            406 326 
 PAL  HZ EP       1323 54.44                             106   -0.19 6  410 239 
 PAL  HE ES       1324 37.82                             106   -0.29 6  410 239 
 PAL  HZ I        1324 43.59        19.0 0.52            106            410 239 
 SMAR HZ EP       1324  3.67                             102   -0.54 4  492 346 
 SMAR HE ES   4   1324 51.58                             102   -3.58 0  492 346 
                                                                                
