 2015  321 1633 55.4 L   6.814 -73.178143.6  RSN  5 0.1 1.4LRSN                1
 GAP=144        0.40       2.4     2.5  3.3 -0.2250E+01  0.1379E+01  0.4461E+00E
 Epicentro: ZAPATOCA - SANTANDER                                               3
 ACTION:UPD 15-04-30 16:28 OP:nd   STATUS:               ID:20150321163355 L   I
 OLDACT:REG 15-03-21 19:59 OP:cam  STATUS:               ID:20150321162750     3
 2015-03-21-1627-50M.COL___266                                                 6
 STAT SP IPHASW D HRMM SECON CODA AMPLIT PERI AZIMU VELO AIN AR TRES W  DIS CAZ7
 BAR2 EZ EP       1634 14.84                             170    0.0210 24.6 181 
 BAR2 EZ ES       1634 29.80                             170   -0.1410 24.6 181 
 BAR2 EZ I        1634 31.98         5.8 0.26            171           24.6 181 
 PAM  SZ EP       1634 17.46                             150   -0.0110 78.5  42 
 PAM  SN ES       1634 34.76                             150    0.0910 78.5  42 
 PAM  SZ I        1634 36.85         4.9 0.58            153           78.5  42 
 RUS  HZ EP       1634 18.88                             143   -0.2210  102 174 
 RUS  HN ES       1634 37.71                             143    0.1510  102 174 
 RUS  HZ I        1634 38.47         3.1 0.20            147            102 174 
 PTB  HZ EP   4   1634 19.41                             132   -2.52 0  145 258 
 PTB  HN ES       1634 42.60                             132   -0.00 9  145 258 
 PTB  HZ I        1634 49.53         4.7 0.18            132            145 258 
 SPBC HZ EP       1634 23.80                             129    0.14 9  162 218 
                                                                                
