 2013  621 1400 43.1 L   6.759 -73.189145.7  RSN  4 0.3 1.4LRSN                1
 GAP=229        0.72       8.6    10.1  9.5  0.5056E+02 -0.1335E+02 -0.2488E+02E
 Epicentro: VILLANUEVA - SANTANDER                                             3
 ACTION:UPD 14-01-08 09:56 OP:ep   STATUS:               ID:20130621140043 L   I
 OLDACT:UP  13-06-21 18:44 OP:cam  STATUS:               ID:20130621135959     3
 OLDACT:REG 13-06-21 18:04 OP:cam  STATUS:               ID:20130621135959     3
 2013-06-21-1359-59M.COL___263                                                 6
 STAT SP IPHASW D HRMM SECON CODA AMPLIT PERI AZIMU VELO AIN AR TRES W  DIS CAZ7
 BAR2 SZ EP       14 1  2.43                             172   -0.1710 18.5 178 
 BAR2 SZ ES   1   14 1 17.31                             172   -0.52 7 18.5 178 
 BAR2 SZ I        14 1 19.77         4.4 0.16            174           18.5 178 
 BRR  HZ EP       14 1  4.17                             153    0.0610 69.5 304 
 BRR  HZ I        14 1  4.38         7.0 0.20            155           69.5 304 
 BRR  HN ES   1   14 1 20.96                             153    0.44 7 69.5 304 
 RUS  HN ES   1   14 1 25.24                             145    0.42 7 96.6 173 
 PTB  HN ES   2   14 1 29.82                             133   -0.36 5  142 260 
                                                                                
