 2016  721 1012 12.4 L   6.680 -74.115 76.7  RSN  4 0.1 1.5LRSN                1
 GAP=140        0.34       1.3     1.5  4.5  0.7300E+00  0.3284E+01  0.2165E+01E
 Epicentro: PUERTO PARRA - SANTANDER                                           3
 ACTION:UPD 17-03-29 16:53 OP:lp   STATUS:               ID:20160721101212 L   I
 OLDACT:REG 16-07-21 19:22 OP:lv   STATUS:               ID:20160721100759     3
 2016-07-21-1007-59S.COL___328                                                 6
 STAT SP IPHASW D HRMM SECON CODA AMPLIT PERI AZIMU VELO AIN AR TRES W  DIS CAZ7
 BRR  HE ES       1012 37.04                             136    0.1210 64.9  43 
 BRR  HZ I        1012 37.73        10.9 0.13            141           64.9  43 
 BAR2 EZ EP       1012 30.24                             122   -0.0110  104  95 
 BAR2 EZ ES       1012 44.05                             122   -0.1110  104  95 
 SPBC HZ EP       1012 31.26                             119    0.1110  114 178 
 SPBC HE ES       1012 45.71                             119   -0.0410  114 178 
 SPBC HZ I        1012 46.83         5.9 0.27            122            114 178 
 ZAR  HZ EP       1012 31.93                             117    0.0210  122 318 
 ZAR  HN ES       1012 47.02                             117   -0.0910  122 318 
 ZAR  HZ I        1012 49.24        12.4 0.43            119            122 318 
                                                                                
