 2010 1221 1132 45.6 L   6.767 -73.075145.9  RSN  9 0.3 1.9LRSN                1
 GAP=167        0.62       3.7     5.7  5.8 -0.1204E+02  0.1141E+02 -0.2009E+01E
 Epicentro: LOS SANTOS - SANTANDER                                             3
 ACTION:UP  11-01-14 15:26 OP:pat  STATUS:               ID:20101221113245 L   I
 2010-12-21-1120-00M.COL___133                                                 6
 STAT SP IPHASW D HRMM SECON CODA AMPLIT PERI AZIMU VELO SNR AR TRES W  DIS CAZ7
 BAR2 SZ EP   1   1133  5.23                             171     0.0 8   23 212 
 BAR2 SZ ES   1   1133 20.81                             171     0.2 8   23 212 
 BAR2 SZ I        1133 24.31        12.6 0.24                            23 212 
 RUS  HZ EP   1   1133  9.08                             145     0.0 8   97 181 
 RUS  HE ES   2   1133 27.63                             145     0.2 5   97 181 
 RUS  HZ I        1133 29.23         7.6 0.38                            97 181 
 GRA  SZ EP       1133 11.09                             137     0.110  127  14 
 GRA  SZ ES   1   1133 30.40                             137    -0.4 7  127  14 
 GRA  SZ I        1133 32.00        12.9 0.28                           127  14 
 OCA  SZ EP   2   1133 14.46                             129     0.1 5  165 351 
 OCA  SZ I        1133 42.74        11.7 0.42                           165 351 
 NOR  SZ EP   1   1133 21.39                             118    -0.4 6  239 236 
 NOR  SN ES   1   1133 49.68                             118    -0.4 6  239 236 
 CHI  HZ EP   1   1133 23.20                             117     0.0 6  247 197 
 CHI  HE ES   2   1133 52.21                             117    -0.2 4  247 197 
 CHI  HZ I        1133 58.29         3.7 0.22                           247 197 
 HEL  HZ EP   1   1133 27.12                             114     0.6 6  279 257 
 HEL  HN ES   2   1133 59.18                             114     0.7 4  279 257 
 HEL  HZ I        1134  4.45         5.7 0.40                           279 257 
 RREF HE ES   2   1134  7.82                             111    -0.7 4  325 231 
 RREF HZ I        1134 14.93         6.0 0.38                           325 231 
 PRA  HZ EP   2   1133 39.62                             106     0.4 3  393 211 
                                                                                
