 2015  421 1306 30.1 L   6.802 -73.148152.6  RSN 11 0.4 1.9LRSN                1
 GAP=201        0.79       3.6     4.5  6.0  0.1773E+01  0.9350E+00 -0.6191E+00E
 Epicentro: LOS SANTOS - SANTANDER                                             3
 ACTION:UPD 15-06-03 16:56 OP:cam  STATUS:               ID:20150421130630 L   I
 OLDACT:REG 15-04-21 20:16 OP:spq  STATUS:               ID:20150421125749     3
 2015-04-21-1257-49M.COL___268                                                 6
 STAT SP IPHASW D HRMM SECON CODA AMPLIT PERI AZIMU VELO AIN AR TRES W  DIS CAZ7
 BAR2 EZ EP       13 6 50.28                             171   -0.2410 23.5 189 
 BAR2 EZ ES   1   13 7  6.27                             171   -0.20 7 23.5 189 
 BAR2 EZ I        13 7  8.69        16.4 0.28            164           23.5 189 
 BRR  HZ EP       13 6 52.15                             154    0.2110 70.9 298 
 BRR  HN ES       13 7  9.56                             154    0.5610 70.9 298 
 BRR  HZ I        13 7 11.71        15.2 0.30            150           70.9 298 
 RUS  HZ EP       13 6 54.66                             145    0.1610  101 176 
 RUS  HE ES   1   13 7 13.26                             145   -0.31 7  101 176 
 RUS  HZ I        13 7 15.72         7.5 0.40            144            101 176 
 PTB  HZ EP   1   13 6 57.17                             134   -0.41 7  148 259 
 PTB  HN ES       13 7 18.41                             134   -0.63 9  148 259 
 PTB  HZ I        13 7 25.62        15.6 0.52            131            148 259 
 SPBC HZ EP   1   13 6 59.32                             131    0.23 7  163 219 
 SPBC HN ES   1   13 7 22.15                             131    0.41 7  163 219 
 SPBC HZ I        13 7 27.77        12.1 0.26            128            163 219 
 ZAR  HE ES   1   13 7 28.75                             124    0.18 6  204 292 
 NOR  HZ EP   1   13 7  6.22                             120    0.03 6  235 234 
 NOR  HN ES       13 7 34.44                             120    0.07 8  235 234 
 NOR  HZ I        13 7 39.97         7.2 0.46            119            235 234 
 SML  HZ EP   1   13 7  7.41                             119    0.36 6  243 335 
 SML  HN ES   1   13 7 35.29                             119   -0.61 6  243 335 
 HEL  HN ES   4   13 7 43.90                             116    1.66 0  272 256 
 HEL  HZ I        13 7 51.30         4.8 0.56            116            272 256 
 MON  HN ES   4   13 7 56.55                             110   -1.16 0  353 308 
 MON  HZ I        13 7 58.46         1.3 0.54            111            353 308 
 SJC  HN ES   4   13 8  5.86                             107   -3.45 0  409 327 
 SJC  HZ I        13 8  9.54         1.6 0.62            108            409 327 
                                                                                
