 2017  921 1457 27.6 L   6.781 -73.159141.3  RSN  9 0.3 1.7LRSN                1
 GAP=111        0.69       2.4     2.7  4.0  0.1170E+01  0.2437E+01  0.2372E+01E
 Epicentro: LOS SANTOS - SANTANDER                                             3
 ACTION:UPD 17-10-05 19:14 OP:rebc STATUS:               ID:20170921145727 L   I
 OLDACT:REG 17-09-21 20:23 OP:lv   STATUS:               ID:20170921144745     3
 2017-09-21-1448-00M.COL___441                                                 6
 STAT SP IPHASW D HRMM SECON CODA AMPLIT PERI AZIMU VELO AIN AR TRES W  DIS CAZ7
 BAR2 EZ EP       1457 46.62                             171   -0.0310 21.1 187 
 BAR2 EZ ES       1458  1.58                             171    0.0710 21.1 187 
 BAR2 EZ I        1458  2.68        20.7 0.28            169           21.1 187 
 BRR  HZ EP       1457 48.27                             152    0.0110 71.0 301 
 BRR  HE ES       1458  4.06                             152   -0.3110 71.0 301 
 PAM  EZ EP       1457 49.37                             149   -0.1310 79.9  39 
 PAM  EN ES       1458  6.38                             149   -0.2010 79.9  39 
 PAM  EZ I        1458  9.72         3.6 0.66            153           79.9  39 
 RUS  HZ EP       1457 50.60                             143   -0.1710 98.6 175 
 RUS  HN ES       1458  9.19                             143    0.3410 98.6 175 
 RUS  HZ I        1458 10.62         7.9 0.36            143           98.6 175 
 YPLC HZ EP       1457 57.02                             126    0.05 9  176 151 
 YPLC HN ES       1458 20.22                             126    0.35 9  176 151 
 YPLC HZ I        1458 23.79         7.8 0.26            127            176 151 
 ZAR  HZ EP       1458  0.42                             121    0.72 9  204 293 
 ZAR  HE ES       1458 24.91                             121    0.17 9  204 293 
 ZAR  HZ I        1458 30.01         6.5 0.32            122            204 293 
 NOR  HZ EP       1458  2.86                             118    0.04 8  232 235 
 NOR  HN ES       1458 30.17                             118   -0.12 8  232 235 
 NOR  HZ I        1458 38.41         3.0 0.24            118            232 235 
 CHI  HZ EP       1458  4.30                             116   -0.50 8  246 195 
 CHI  HN ES       1458 33.52                             116   -0.29 8  246 195 
 CHI  HZ I        1458 37.38         2.6 0.36            117            246 195 
 GUY2CHZ EP   9   1458 12.48                             112    1.74 0  299 235 
 GUY2CHN ES       1458 46.38                                    0.25 7  299 235 
 GUY2CHZ I        1458 52.83         2.5 0.38                           299 235 
                                                                                
