 2013  421 1939 57.5 L   6.802 -73.122148.8  RSN 11 0.5 2.2LRSN                1
 GAP=139        1.24       3.9     5.5  6.4 -0.5224E+01  0.1036E+02  0.9045E-01E
 Epicentro: LOS SANTOS - SANTANDER                                             3
 ACTION:UPD 13-05-22 14:40 OP:EP   STATUS:               ID:20130421193957 L   I
 2013-04-21-1938-51M.COL___215                                                 6
 STAT SP IPHASW D HRMM SECON CODA AMPLIT PERI AZIMU VELO AIN AR TRES W  DIS CAZ7
 BAR2 SZ EP       1940 17.52                             170    0.0110 24.1 196 
 BAR2 SZ ES       1940 32.95                             170   -0.1710 24.1 196 
 BAR2 SZ I        1940 33.87        11.9 0.30            169           24.1 196 
 GIR2 SZ EP       1940 17.67                             167    0.1310 31.6 346 
 GIR2 SZ ES       1940 33.62                             167    0.4510 31.6 346 
 BRR  HZ EP       1940 19.44                             152    0.3410 73.4 297 
 BRR  HN ES       1940 36.87                             152    0.9210 73.4 297 
 BRR  HN I        1940 37.46        46.0 0.18            151           73.4 297 
 PAM  SZ EP       1940 20.31                             152    0.3710 75.6  38 
 PAM  SZ I        1940 20.57        18.1 0.20            153           75.6  38 
 PAM  SN ES       1940 37.55                             152    0.1210 75.6  38 
 RUS  HZ EP       1940 21.45                             144   -0.1110  101 178 
 RUS  HN ES       1940 39.61                             144   -0.7110  101 178 
 RUS  HN I        1940 41.92        19.5 0.20            144            101 178 
 PTB  HZ EP       1940 24.49                             132   -0.46 9  150 259 
 PTB  HN ES       1940 45.32                             132   -1.04 9  150 259 
 PTB  HN I        1940 45.90        19.2 0.28            131            150 259 
 OCA  HZ EP   1   1940 25.69                             130   -0.37 7  160 352 
 OCA  HN ES       1940 47.92                             130   -0.41 9  160 352 
 OCA  HN I        1940 51.11        42.2 0.28            131            160 352 
 NOR  HN ES       1941  1.97                             119    0.13 8  237 235 
 NOR  HN I        1941  6.43        27.7 0.18            118            237 235 
 SML  HZ EP       1940 34.02                             118   -0.38 8  245 335 
 SML  HE ES       1941  2.72                             118   -0.45 8  245 335 
 GUY  HZ EP       1940 42.57                             113    0.80 7  306 235 
 GUY  HN ES       1941 17.08                             113    0.78 7  306 235 
 GUY  HN I        1941 23.43         7.6 0.50            112            306 235 
 PRA  HZ EP       1940 51.64                             107    0.34 6  393 210 
                                                                                
