 2013  721 1113 44.8 L   6.331 -73.618109.3  RSN 13 0.5 1.8LRSN                1
 GAP= 77        1.16       3.0     3.8  6.2 -0.1552E+01  0.8040E+01 -0.1623E+01E
 Epicentro: SANTA HELENA DEL OPON - SANTANDER                                  3
 ACTION:UPD 13-08-12 10:39 OP:ep   STATUS:               ID:20130721111344 L   I
 OLDACT:REG 13-07-21 15:53 OP:nd   STATUS:               ID:20130721110959     3
 2013-07-21-1109-59M.COL___267                                                 6
 STAT SP IPHASW D HRMM SECON CODA AMPLIT PERI AZIMU VELO AIN AR TRES W  DIS CAZ7
 BAR2 SZ EP     C 1114  1.55                             151    0.0710 56.2  59 
 BAR2 SZ ES       1114 14.79                             151    0.2810 56.2  59 
 BAR2 SZ I        1114 15.97        17.2 0.18            152           56.2  59 
 RUS  HZ EP       1114  2.44                             143   -0.7610 76.5 129 
 RUS  HN ES       1114 17.44                             143   -0.1410 76.5 129 
 RUS  HZ I        1114 21.03         6.0 0.24            148           76.5 129 
 BRR  HZ EP       1114  3.24                             139   -0.0410 86.4 353 
 BRR  HN ES       1114 18.22                             139    0.5010 86.4 353 
 BRR  HZ I        1114 28.51        10.2 0.14            137           86.4 353 
 SPBC HZ EP       1114  3.81                             137    0.0810 90.4 214 
 SPBC HN ES       1114 19.01                             137    0.4910 90.4 214 
 SPBC HZ I        1114 21.67        21.8 0.10            140           90.4 214 
 GIR2 SZ ES   2   1114 20.00                             136    0.66 5 95.1  30 
 GIR2 SZ I        1114 23.26         7.1 0.34            136           95.1  30 
 PTB  HZ IP     C 1114  3.34                             136   -0.7210 95.6 284 
 PTB  HN ES       1114 18.19                             136   -0.9210 95.6 284 
 PTB  HZ I        1114 21.06        21.1 0.10            134           95.6 284 
 NOR  HZ EP       1114 10.34                             119   -0.30 9  162 239 
 NOR  HN ES       1114 30.76                             119   -0.06 9  162 239 
 NOR  HZ I        1114 33.27        19.7 0.18            121            162 239 
 ZAR  HZ EP       1114 13.28                             115   -0.05 9  188 313 
 ZAR  HE ES       1114 35.99                             115    0.39 9  188 313 
 ZAR  HZ I        1114 43.34        17.0 0.28            115            188 313 
 HEL  HZ EP       1114 17.21                             112    0.72 8  212 266 
 HEL  HN ES   2   1114 41.45                             112    0.21 4  212 266 
 HEL  HZ I        1114 50.13         4.3 0.20            113            212 266 
 OCA  HZ EP       1114 16.19                             112   -0.20 8  214   9 
 OCA  HN ES   3   1114 40.45                             112   -0.60 2  214   9 
 OCA  HZ I        1114 47.44         8.4 0.52            112            214   9 
 SML  HZ EP       1114 23.06                             106   -0.54 7  278 350 
 SML  HN ES       1114 54.38                             106    0.49 7  278 350 
 SML  HZ I        1114 58.47         9.3 0.10            106            278 350 
 PRA  HZ EP       1114 29.82                             103    0.95 7  322 206 
 PRA  HN ES       1115  3.76                             103    0.49 7  322 206 
 PRA  HZ I        1115  8.19         4.5 0.22            104            322 206 
 SJC  HZ EP   4   1114 40.87                              98   -1.05 0  430 337 
 SJC  HZ I        1115  3.14         1.4 0.58             98            430 337 
 SJC  HE ES   4   1115 23.05                              98   -3.44 0  430 337 
                                                                                
