 2015  221 1648 51.9 L   6.805 -73.179135.9  RSN  7 0.6 1.8LRSN                1
 GAP=132        1.48       6.4     6.8  9.9 -0.8378E+01  0.7735E+01  0.1180E+02E
 Epicentro: ZAPATOCA - SANTANDER                                               3
 ACTION:UPD 15-04-30 21:28 OP:nd   STATUS:               ID:20150221164851 L   I
 OLDACT:REG 15-02-21 21:08 OP:mher STATUS:               ID:20150221164743     3
 2015-02-21-1647-43M.COL___281                                                 6
 STAT SP IPHASW D HRMM SECON CODA AMPLIT PERI AZIMU VELO AIN AR TRES W  DIS CAZ7
 BAR2 EZ EP       1649 10.54                             170    0.2410 23.5 181 
 BAR2 EZ ES       1649 25.05                             170    0.3610 23.5 181 
 BAR2 EZ I        1649 26.73        19.3 0.18            173           23.5 181 
 BRR  HZ EP       1649 12.69                             152    0.9510 67.7 300 
 BRR  HE ES       1649 27.59                             152    0.3410 67.7 300 
 PAM  SZ EP       1649 13.41                             148    0.2510 79.4  42 
 PAM  SN ES       1649 28.97                             148   -0.8010 79.4  42 
 PAM  SZ I        1649 32.26         9.4 0.50            147           79.4  42 
 RUS  HZ EP       1649 14.57                             141   -0.1510  101 174 
 RUS  HZ I        1649 15.23         4.9 0.34            144            101 174 
 RUS  HE ES       1649 32.25                             141   -0.2910  101 174 
 PTB  HZ EP       1649 17.00                             130   -0.71 9  144 258 
 PTB  HN ES       1649 36.82                             130   -1.06 9  144 258 
 PTB  HZ I        1649 41.45         9.6 0.16            130            144 258 
 SPBC HZ EP       1649 19.58                             127    0.15 9  161 218 
 SPBC HZ I        1649 19.97         7.2 0.14            128            161 218 
 SPBC HE ES       1649 41.59                             127    0.64 9  161 218 
 SML  HZ EP   9   1649 25.56                             115   -2.17 0  242 336 
 SML  HE ES       1649 54.01                                    0.47 8  242 336 
 SML  HZ I        1650  1.68         9.8 0.26            115            242 336 
                                                                                
