 2010  121 1023  3.5 L   6.752 -73.140138.7  RSN  6 0.3 1.7LRSN                1
 GAP=183        0.59       3.8     7.5  6.7 -0.1388E+01  0.1554E+02 -0.2940E+00E
 Epicentro: LOS SANTOS - SANTANDER                                             3
 ACTION:UP  10-08-24 09:45 OP:vdl  STATUS:               ID:20100121102303 L   I
 2010-01-21-1022-06S.COL___095                                                 6
 STAT SP IPHASW D HRMM SECON CODA AMPLIT PERI AZIMU VELO SNR AR TRES W  DIS CAZ7
 BAR2 SZ IP       1023 22.12                             172     0.010   18 195 
 BAR2 SZ ES   1   1023 36.88                             172     0.1 7   18 195 
 GIR2 SZ IP       1023 22.27                             164    -0.210   37 351 
 RUS  BZ IP       1023 26.30                             144     0.210   95 176 
 RUS  BE ES   2   1023 43.39                             144    -0.4 5   95 176 
 RUS  BZ I        1023 46.00         5.5 0.53                            95 176 
 OCA  SZ EP   2   1023 31.26                             127    -0.5 5  166 353 
 OCA  SZ ES   2   1023 54.55                             127     0.7 5  166 353 
 OCA  SZ I        1023 59.61         9.9 0.20                           166 353 
 CHI  HZ EP   2   1023 40.39                             116     0.1 4  244 196 
 CHI  HE ES   2   1024  9.28                             116     0.3 4  244 196 
 CHI  HZ I        1024 13.48         2.4 0.51                           244 196 
 HEL  HZ EP   2   1023 43.61                             113     0.3 4  271 257 
 HEL  HE ES   2   1024 13.93                             113    -0.4 4  271 257 
 HEL  HZ I        1024 20.61         3.3 0.33                           271 257 
                                                                                
