 2017 1221 1643  4.3 L   6.895 -73.151148.5  RSN 23 0.7 2.5LRSN                1
 GAP= 57        1.50       3.3     3.4  6.8 -0.1613E+01  0.5518E+01  0.2230E+01E
 Epicentro: BETULIA - SANTANDER                                                3
 ACTION:UPD 18-01-04 13:22 OP:rebc STATUS:               ID:20171221164304 L   I
 OLDACT:UP  17-12-21 23:33 OP:dhb  STATUS:               ID:20171221163737     3
 OLDACT:UP  17-12-21 23:33 OP:dhb  STATUS:               ID:20171221163737     3
 OLDACT:REG 17-12-21 21:01 OP:dhb  STATUS:               ID:20171221163737     3
 2017-12-21-1638-00M.COL___472                                                 6
 STAT SP IPHASW D HRMM SECON CODA AMPLIT PERI AZIMU VELO AIN AR TRES W  DIS CAZ7
 BAR2 EZ IP     C 1643 24.35                             167   -0.1210 33.6 186 
 BAR2 EZ ES       1643 39.30                             167   -0.9310 33.6 186 
 BAR2 EZ I        1643 40.58        83.8 0.28            168           33.6 186 
 PAM  EZ EP       1643 27.21                             154    0.8510 70.1  45 
 PAM  EN ES       1643 44.17                             154    0.5810 70.1  45 
 PAM  EZ I        1643 46.49        48.5 0.50            155           70.1  45 
 PTB  HZ EP       1643 31.11                             132   -0.50 9  150 255 
 PTB  HN ES       1643 52.29                             132   -0.66 9  150 255 
 PTB  HZ I        1643 58.91        22.6 0.46            134            150 255 
 OCA  HZ EP       1643 32.63                             132    0.81 9  150 353 
 OCA  HN ES       1643 53.60                             132    0.28 9  150 353 
 OCA  HZ I        1643 58.62        76.4 0.18            134            150 353 
 TAM  HZ IP     C 1643 32.80                             130    0.31 9  159 109 
 TAM  HN ES       1643 54.45                             130   -0.06 9  159 109 
 TAM  HZ I        1644  3.71        31.0 0.46            133            159 109 
 YPLC HZ IP     C 1643 34.82                             126   -0.37 9  186 153 
 YPLC HN ES       1643 59.03                             126   -0.29 9  186 153 
 YPLC HZ I        1644  1.66        17.1 0.24            128            186 153 
 ZAR  HZ EP       1643 37.00                             124    0.55 9  200 289 
 ZAR  HN ES       1644  2.07                             124    0.52 9  200 289 
 ZAR  HZ I        1644  7.68        36.0 0.42            125            200 289 
 NOR  HZ EP       1643 41.11                             118    0.34 8  240 232 
 NOR  HN ES       1644  8.46                             118   -0.78 8  240 232 
 ROSC BZ EP       1643 44.24                             116    0.76 8  261 210 
 ROSC BN ES       1644 15.14                             116    1.06 8  261 210 
 ROSC BZ I        1644 19.03        49.5 0.40            118            261 210 
 DRL03HZ EP   9   1643 46.86                             115    2.03 0  278 353 
 DRL03HE ES       1644 18.69                             114    0.18 7  278 353 
 URE  HZ EP       1643 45.07                             114    0.09 7  279 290 
 URE  HE ES       1644 15.39                             114   -1.36 7  279 290 
 URE  HZ I        1644 20.94        17.4 0.16            116            279 290 
 GUY2CHZ EP       1643 48.51                             112   -0.13 7  307 233 
 GUY2CHN ES       1644 24.35                             112    1.10 7  307 233 
 GUY2CHZ I        1644 30.64        15.5 0.34                           307 233 
 VIL  EZ EP   9   1643 47.88                             112   -1.07 0  314 191 
 VIL  EE ES       1644 24.32                                    1.58 7  314 191 
 VIL  EZ I        1644 25.15        31.5 0.42            113            314 191 
 PTGC HZ EP       1643 47.56                             111   -1.82 7  319 159 
 PTGC HE ES   4   1644 18.16                             111   -6.41 0  319 159 
 ELA  HZ EP       1643 52.32                             110    0.36 7  336 228 
 ELA  HN ES       1644 29.81                             110    0.64 7  336 228 
 ELA  HZ I        1644 37.08        12.8 0.60            112            336 228 
 DBB  HN ES       1644 28.24                             110   -0.48 7  338 272 
 DBB  HZ I        1644 29.09         9.3 0.26            111            338 272 
 SDV  BZ EP       1643 53.87                             109    0.17 6  354  52 
 SDV  B2 ES       1644 31.78                             109   -0.48 6  354  52 
 SDV  BZ I        1644 34.36         4.5 0.40            111            354  52 
 ANIL HZ EP       1643 56.02                             108    1.03 6  364 223 
 ANIL HN ES       1644 35.49                             108    0.92 6  364 223 
 SJC  HZ EP       1643 58.51                             107   -0.34 6  400 326 
 SJC  HN ES       1644 41.73                             107    0.30 6  400 326 
 SJC  HZ I        1644 46.12         4.1 0.50            108            400 326 
 PRA  HZ EP       1643 58.42                             106   -0.49 6  401 209 
 PRA  HE ES       1644 40.91                             106   -0.63 6  401 209 
 PRA  HZ I        1644 44.65        15.9 0.42            108            401 209 
 ORTC HZ EP       1643 59.00                             106   -0.23 6  404 215 
 ORTC HN ES       1644 42.23                             106    0.13 6  404 215 
 ORTC HZ I        1644 45.79        10.6 0.28            108            404 215 
 PAL  HZ EP       1643 59.98                             106   -0.11 6  411 238 
 PAL  HN ES       1644 42.25                             106   -1.39 6  411 238 
 PAL  HZ I        1644 48.00         3.9 0.18            107            411 238 
 CRJC HZ EP       1644  4.75                             104   -0.85 5  457   4 
 CRJC HE ES       1644 52.27                             104   -1.18 5  457   4 
 CRJC HZ I        1644 59.63        11.3 0.24            105            457   4 
                                                                                
