 2013  221 1748  5.2 L   6.841 -73.153150.3  RSN  7 0.5 1.9LRSN                1
 GAP=133        1.13       4.7     5.2  7.9  0.1645E+01  0.1010E+02  0.6817E+01E
 Epicentro: LOS SANTOS - SANTANDER                                             3
 ACTION:UPD 13-03-12 09:34 OP:ep   STATUS:               ID:20130221174805 L   I
 2013-02-21-1740-00M.COL___237                                                 6
 STAT SP IPHASW D HRMM SECON CODA AMPLIT PERI AZIMU VELO AIN AR TRES W  DIS CAZ7
 BAR2 SZ EP   1   1748 25.19                             169   -0.23 7 27.7 187 
 BAR2 SZ ES   1   1748 41.40                             169    0.17 7 27.7 187 
 BAR2 SZ I        1748 41.41         9.3 0.26            169           27.7 187 
 BRR  HZ EP       1748 27.03                             154    0.3910 68.4 295 
 BRR  HN ES       1748 44.01                             154    0.6110 68.4 295 
 BRR  HN I        1748 44.40        34.8 0.26            152           68.4 295 
 PAM  SZ IP     C 1748 27.91                             152    0.2310 74.5  42 
 PAM  SN ES       1748 45.02                             152   -0.2410 74.5  42 
 PAM  SN I        1748 45.80        15.4 0.54            154           74.5  42 
 RUS  HN ES       1748 48.25                             143   -0.5710  105 176 
 PTB  HZ EP       1748 32.12                             133   -0.38 9  148 257 
 PTB  HN ES       1748 53.18                             133   -0.66 9  148 257 
 PTB  HN I        1748 56.21        12.8 0.24            132            148 257 
 ZAR  HZ EP   1   1748 36.81                             124   -0.83 6  202 291 
 ZAR  HN ES       1749  3.22                             124    0.23 9  202 291 
 ZAR  HN I        1749  8.22        12.8 0.36            123            202 291 
 CHI  HZ EP       1748 43.92                             117    0.36 8  253 195 
 CHI  HE ES       1749 14.27                             117    0.75 8  253 195 
 CHI  HE I        1749 15.81         2.8 0.39            118            253 195 
                                                                                
