 2012 1021 1121 29.9 L   6.753 -73.112149.5  RSN  6 0.3 1.9LRSN                1
 GAP=143        0.64       4.2     5.0  5.7  0.5523E+01  0.3483E+01  0.4140E+01E
 Epicentro: LOS SANTOS - SANTANDER                                             3
 ACTION:UPD 12-11-22 17:05 OP:ep   STATUS:               ID:20121021112129 L   I
 2012-10-21-1120-00M.COL___231                                                 6
 STAT SP IPHASW D HRMM SECON CODA AMPLIT PERI AZIMU VELO AIN AR TRES W  DIS CAZ7
 BAR2 SZ EP   1   1121 49.74                             172   -0.20 7 19.4 204 
 BAR2 SZ ES   2   1122  5.12                             172   -0.42 5 19.4 204 
 BAR2 SZ I        1122  6.85        34.7 0.31                          19.4 204 
 BRR  HZ EP       1121 51.83                             151    0.0210 77.0 301 
 BRR  HZ I        1121 52.02        28.1 0.13                          77.0 301 
 BRR  HE ES       1122  9.28                             151    0.4010 77.0 301 
 PAM  SZ EP   1   1121 52.86                             151    0.21 7 79.3  35 
 PAM  SN ES   1   1122 10.12                             151   -0.26 7 79.3  35 
 PAM  SZ I        1122 12.29         6.0 0.59                          79.3  35 
 RUS  HZ EP       1121 53.89                             146    0.2210 95.2 178 
 RUS  HE ES   1   1122 11.98                             146   -0.21 7 95.2 178 
 RUS  HE I        1122 13.47         8.0 0.48                          95.2 178 
 ZAR  HZ EP   1   1122  2.70                             122   -0.47 6  209 293 
 ZAR  HE ES   2   1122 28.37                             122   -0.74 4  209 293 
 ZAR  HZ I        1122 34.98         5.4 0.50                           209 293 
 CHI  HZ EP   2   1122  7.74                             118    0.34 4  245 196 
                                                                                
