 2016 1021 1752 54.6 L   6.816 -73.149147.1  RSN 20 0.6 3.0LRSN                1
 GAP= 65        1.30       3.6     3.7  6.3 -0.3303E+01  0.3928E+01  0.4191E+01E
 Epicentro: LOS SANTOS - SANTANDER                                             3
 ACTION:UPD 16-11-09 19:21 OP:rebc STATUS:               ID:20161021175254 L   I
 OLDACT:UP  16-10-22 00:52 OP:ar   STATUS:               ID:20161021174748     3
 OLDACT:REG 16-10-21 22:18 OP:ar   STATUS:               ID:20161021174748     3
 2016-10-21-1748-00M.COL___358                                                 6
 STAT SP IPHASW D HRMM SECON CODA AMPLIT PERI AZIMU VELO AIN AR TRES W  DIS CAZ7
 BAR2 EZ IP     C 1753 14.60                             170    0.1610 25.0 189 
 BAR2 EZ ES       1753 30.09                             170    0.1910 25.0 189 
 BAR2 EZ I        1753 31.12       102.5 0.58            168           25.0 189 
 BRR  HZ IP     C 1753 16.52                             153    0.6710 70.1 297 
 BRR  HE ES       1753 33.31                             153    0.9110 70.1 297 
 BRR  HZ I        1753 37.20       167.8 0.22            152           70.1 297 
 PAM  EZ IP     C 1753 17.48                             151    0.5810 76.2  41 
 PAM  EE ES       1753 34.08                             151   -0.2110 76.2  41 
 PAM  EZ I        1753 36.51       277.2 0.50            155           76.2  41 
 RUS  HZ IP     C 1753 18.61                             144   -0.0210  102 176 
 RUS  HN ES       1753 36.87                             144   -0.4910  102 176 
 RUS  HZ I        1753 38.12       153.6 0.32            144            102 176 
 PTB  HZ EP       1753 21.19                             132   -0.51 9  148 258 
 PTB  HN ES       1753 42.54                             132   -0.27 9  148 258 
 PTB  HZ I        1753 46.21        83.2 0.16            132            148 258 
 TAM  HZ IP     C 1753 22.95                             131    0.48 9  156 106 
 TAM  HE ES       1753 44.28                             131    0.08 9  156 106 
 TAM  HZ I        1753 44.92        38.6 0.30            134            156 106 
 OCA  HZ EP       1753 21.97                             130   -0.89 9  158 353 
 OCA  HN ES       1753 44.39                             130   -0.50 9  158 353 
 OCA  HZ I        1753 46.59       227.4 0.56            132            158 353 
 SPBC HZ EP       1753 23.31                             129   -0.02 9  164 219 
 SPBC HN ES       1753 44.92                             129   -0.80 9  164 219 
 SPBC HZ I        1753 48.92       203.2 0.30            129            164 219 
 NOR  HZ EP       1753 30.72                             119    0.21 8  235 234 
 NOR  HN ES       1753 58.26                             119   -0.24 8  235 234 
 NOR  HZ I        1754  4.12        61.8 0.16            119            235 234 
 CHI  HZ EP       1753 32.84                             117    0.27 8  250 195 
 CHI  HN ES       1754  1.63                             117   -0.54 8  250 195 
 CHI  HZ I        1754  8.67        38.1 0.30            118            250 195 
 ROSC BZ EP   4   1753 35.33                             117    2.37 0  254 211 
 ROSC BN ES       1754  3.86                             117    1.00 8  254 211 
 ROSC BZ I        1754 10.81       127.6 0.50            117            254 211 
 HEL  HZ EP   4   1753 37.04                             115    2.13 0  272 255 
 HEL  HN ES       1754  6.38                             115    0.04 8  272 255 
 HEL  HZ I        1754 13.31        54.1 0.44            115            272 255 
 GUY2CHZ EP       1753 39.42                             113    1.05 7  302 234 
 GUY2CHN ES   4   1754 15.66                             113    3.16 0  302 234 
 GUY2CHZ I        1754 19.73        53.7 0.48                           302 234 
 PTGC HZ EP       1753 37.92                             112   -0.82 7  310 159 
 PTGC HN ES   4   1754 10.86                             112   -2.29 0  310 159 
 PTGC HZ I        1754 13.27        75.1 0.40            113            310 159 
 ELA  HZ EP   4   1753 44.49                             110    2.86 0  330 229 
 ELA  HN ES       1754 17.39                             110   -0.91 7  330 229 
 ELA  HZ I        1754 25.90        56.9 0.60            111            330 229 
 CBOC HZ EP   4   1753 43.38                             110    1.77 0  334 252 
 CBOC HN ES   4   1754 15.90                             110   -2.37 0  334 252 
 CBOC HZ I        1754 22.08        23.4 0.46            111            334 252 
 PRA  HZ EP   4   1753 45.99                             107   -2.36 0  393 209 
 PRA  HN ES   4   1754 27.84                             107   -2.41 0  393 209 
 PRA  HZ I        1754 35.47        39.0 0.28            107            393 209 
 PAL  HZ EP   4   1753 51.50                             106    1.60 0  406 239 
 PAL  HN ES       1754 33.17                             106    0.16 6  406 239 
 PAL  HZ I        1754 35.44        16.1 0.32            107            406 239 
 SJC  HZ EP       1753 49.49                             106   -0.54 6  408 327 
 SJC  HE ES   4   1754 30.44                             106   -2.80 0  408 327 
 SJC  HZ I        1754 34.27        24.9 0.54            107            408 327 
 CRJC HZ EP   4   1753 54.88                             104   -2.07 0  466   4 
 YOT  HZ EP   4   1753 59.24                             103    1.43 0  473 229 
 YOT  HN ES       1754 48.00                             103    0.90 5  473 229 
                                                                                
