 2017 1021 1134 53.7 L   6.811 -73.178141.9  RSN  5 0.2 1.0LRSN                1
 GAP=132        0.55       3.2     3.0  4.6 -0.2009E+01  0.3945E+01 -0.1277E+01E
 Epicentro: ZAPATOCA - SANTANDER                                               3
 ACTION:UPD 17-11-07 19:34 OP:rebc STATUS:               ID:20171021113453 L   I
 OLDACT:UP  17-10-21 22:33 OP:edw  STATUS:               ID:20171021112650     3
 OLDACT:REG 17-10-21 20:10 OP:edw  STATUS:               ID:20171021112650     3
 2017-10-21-1128-00M.COL___435                                                 6
 STAT SP IPHASW D HRMM SECON CODA AMPLIT PERI AZIMU VELO AIN AR TRES W  DIS CAZ7
 BAR2 EZ EP       1135 12.89                             170   -0.0410 24.2 181 
 BAR2 EZ ES       1135 27.74                             170   -0.1510 24.2 181 
 BAR2 EZ I        1135 28.92         4.0 0.30            170           24.2 181 
 PAM  EZ EP       1135 15.78                             150    0.1410 78.8  42 
 PAM  EN ES       1135 32.76                             150    0.0410 78.8  42 
 PAM  EZ I        1135 33.13         1.7 0.40            152           78.8  42 
 RUS  HZ EP       1135 17.03                             143   -0.2010  102 174 
 RUS  HN ES       1135 35.52                             143   -0.0310  102 174 
 RUS  HZ I        1135 36.61         1.1 0.40            144            102 174 
 PTB  HZ EP       1135 20.12                             132    0.02 9  144 258 
 PTB  HN ES       1135 41.04                             132    0.39 9  144 258 
 PTB  HZ I        1135 43.97         1.2 0.20            132            144 258 
 ZAR  HN ES   2   1135 49.60                             122   -0.75 4  200 292 
                                                                                
