 2017 1021 1355 54.0 L   6.734 -73.171140.2  RSN  8 0.4 1.8LRSN                1
 GAP=205        0.99       4.7     4.1  6.1  0.9062E+01  0.6085E+01  0.4851E+01E
 Epicentro: VILLANUEVA - SANTANDER                                             3
 ACTION:UPD 17-11-07 19:34 OP:rebc STATUS:               ID:20171021135554 L   I
 OLDACT:UP  17-10-21 23:29 OP:edw  STATUS:               ID:20171021134740     3
 OLDACT:UP  17-10-21 23:29 OP:edw  STATUS:               ID:20171021134740     3
 OLDACT:UP  17-10-21 23:27 OP:edw  STATUS:               ID:20171021134740     3
 OLDACT:REG 17-10-21 20:30 OP:edw  STATUS:               ID:20171021134740     3
 2017-10-21-1348-00M.COL___453                                                 6
 STAT SP IPHASW D HRMM SECON CODA AMPLIT PERI AZIMU VELO AIN AR TRES W  DIS CAZ7
 BAR2 EZ EP       1356 12.66                             173   -0.1910 15.7 185 
 BAR2 EZ ES       1356 27.15                             173   -0.3910 15.7 185 
 BAR2 EZ I        1356 28.65        20.8 0.16            167           15.7 185 
 BRR  HZ EP       1356 14.79                             151    0.1310 72.7 305 
 BRR  HN ES       1356 31.29                             151    0.5310 72.7 305 
 RUS  HZ EP       1356 16.63                             145   -0.1010 93.6 174 
 RUS  HN ES       1356 35.02                             145    0.5910 93.6 174 
 RUS  HZ I        1356 36.26         6.2 0.26            142           93.6 174 
 PTB  HZ EP       1356 19.53                             132   -0.65 9  144 261 
 PTB  HN ES       1356 39.84                             132   -0.74 9  144 261 
 PTB  HZ I        1356 42.83         5.9 0.16            130            144 261 
 YPLC HZ EP       1356 22.90                             126   -0.03 9  172 149 
 YPLC HE ES       1356 45.33                             126   -0.15 9  172 149 
 YPLC HZ I        1356 49.46        10.4 0.30            126            172 149 
 ZAR  HZ EP       1356 26.36                             121    0.21 9  204 294 
 ZAR  HN ES       1356 51.41                             121    0.20 9  204 294 
 NOR  HZ EP       1356 29.19                             118    0.45 8  228 236 
 NOR  HN ES       1356 56.06                             118    0.24 8  228 236 
 NOR  HZ I        1357  3.80         4.1 0.24            117            228 236 
 GUY2CHZ EP   4   1356 38.38                             112    1.73 0  295 236 
 GUY2CHN ES       1357  9.98                             112    0.08 7  295 236 
 GUY2CHZ I        1357 15.06         4.0 0.30                           295 236 
                                                                                
