 2016 1021 1720  5.6 L   6.790 -73.129146.6  RSN  5 0.4 1.8LRSN                1
 GAP=139        1.12       6.0     5.9  8.2 -0.3396E+01  0.5915E+01  0.2230E+01E
 Epicentro: LOS SANTOS - SANTANDER                                             3
 ACTION:UPD 16-11-09 19:21 OP:rebc STATUS:               ID:20161021172005 L   I
 OLDACT:UP  16-10-22 00:14 OP:ar   STATUS:               ID:20161021171750     3
 OLDACT:REG 16-10-21 22:17 OP:ar   STATUS:               ID:20161021171750     3
 2016-10-21-1718-00M.COL___358                                                 6
 STAT SP IPHASW D HRMM SECON CODA AMPLIT PERI AZIMU VELO AIN AR TRES W  DIS CAZ7
 BAR2 EZ EP       1720 25.24                             171   -0.0410 22.7 195 
 BAR2 EZ ES       1720 40.24                             171   -0.4210 22.7 195 
 BAR2 EZ I        1720 41.28        17.4 0.36            172           22.7 195 
 BRR  HZ EP       1720 27.18                             152    0.2610 73.3 299 
 BRR  HN ES       1720 44.26                             152    0.6810 73.3 299 
 PAM  EZ EP       1720 28.26                             151    0.4110 77.1  38 
 PAM  EN ES       1720 44.71                             151   -0.5210 77.1  38 
 PAM  EZ I        1720 47.44         9.4 0.56            151           77.1  38 
 RUS  HZ EP       1720 29.44                             144    0.1310 99.4 177 
 RUS  HE ES       1720 48.13                             144    0.2910 99.4 177 
 RUS  HZ I        1720 48.85         6.6 0.20            145           99.4 177 
 PTB  HZ EP       1720 32.00                             132   -0.74 9  149 259 
 PTB  HE ES       1720 53.75                             132   -0.19 9  149 259 
 PTB  HZ I        1720 54.95         8.2 0.42            133            149 259 
                                                                                
