 2013 1021 1123  0.3 L   6.811 -73.161143.9  RSN 15 0.5 3.1LRSN 3.4WRSN        1
 SPEC AVERAGE  MO 14.2 ST116.0 OM  2.6 f0 7.43 R0.3001 AL 0.00 WI 30.0 MW  3.4 3
 SPEC SD       MO  0.2 ST101.5 OM  0.3 f0 3.28 R0.2141 AL      WI      MW  0.1 3
 GAP= 70        1.09       3.0     3.3  5.3 -0.6237E+00  0.3612E+01  0.1500E+01E
 Epicentro: LOS SANTOS - SANTANDER                                             3
 SPEC HEL HH N MO 13.9 ST 14.8 OM  2.0 f0 5.49 R0.2831 AL 0.00 WI 27.6 MW  3.2 3
 SPEC HEL HH N T112410 K 0.000 GD  306 VS 4.20 DE 3.20 Q0300.0 QA 0.60 VS 4.20 3
 SPEC CHI HH N MO 14.4 ST  5.8 OM  2.5 f0 2.80 R0.5550 AL 0.00 WI 48.6 MW  3.5 3
 SPEC CHI HH N T1124 5 K 0.000 GD  287 VS 4.20 DE 3.20 Q0300.0 QA 0.60 VS 4.20 3
 SPEC SML HH N MO 14.0 ST129.9 OM  2.2 f0 10.0 R0.1554 AL 0.00 WI 34.8 MW  3.3 3
 SPEC SML HH N T1124 5 K 0.000 GD  281 VS 4.20 DE 3.20 Q0300.0 QA 0.60 VS 4.20 3
 SPEC NOR HH N MO 14.0 ST126.7 OM  2.2 f0 10.0 R0.1554 AL 0.00 WI 34.1 MW  3.3 3
 SPEC NOR HH N T1124 3 K 0.000 GD  274 VS 4.20 DE 3.20 Q0300.0 QA 0.60 VS 4.20 3
 SPEC ZAR HH N MO 14.3 ST228.3 OM  2.5 f0 10.0 R0.1554 AL 0.00 WI 33.4 MW  3.5 3
 SPEC ZAR HH N T112357 K 0.000 GD  248 VS 4.20 DE 3.20 Q0300.0 QA 0.60 VS 4.20 3
 SPEC SPBCHH N MO 14.2 ST200.1 OM  2.5 f0 10.0 R0.1554 AL 0.00 WI 36.3 MW  3.4 3
 SPEC SPBCHH N T112349 K 0.000 GD  217 VS 4.20 DE 3.20 Q0300.0 QA 0.60 VS 4.20 3
 SPEC OCA HH N MO 14.6 ST328.8 OM  2.9 f0 8.72 R0.1782 AL 0.00 WI 26.1 MW  3.7 3
 SPEC OCA HH N T112349 K 0.000 GD  214 VS 4.20 DE 3.20 Q0300.0 QA 0.60 VS 4.20 3
 SPEC TAM HH N MO 14.3 ST  2.1 OM  2.6 f0 2.03 R0.7655 AL 0.00 WI 21.0 MW  3.5 3
 SPEC TAM HH N T112347 K 0.000 GD  212 VS 4.20 DE 3.20 Q0300.0 QA 0.60 VS 4.20 3
 SPEC PTB HH N MO 14.0 ST119.1 OM  2.3 f0 10.0 R0.1554 AL 0.00 WI 11.6 MW  3.3 3
 SPEC PTB HH N T112347 K 0.000 GD  204 VS 4.20 DE 3.20 Q0300.0 QA 0.60 VS 4.20 3
 SPEC RUS HH E MO 14.2 ST  3.8 OM  2.6 f0 2.65 R0.5864 AL 0.00 WI 19.8 MW  3.4 3
 SPEC RUS HH E T112340 K 0.000 GD  176 VS 4.20 DE 3.20 Q0300.0 QA 0.60 VS 4.20 3
 SPEC BRR HH N MO 14.0 ST116.7 OM  2.4 f0 10.0 R0.1554 AL 0.00 WI 36.3 MW  3.3 3
 SPEC BRR HH N T112336 K 0.000 GD  159 VS 4.20 DE 3.20 Q0300.0 QA 0.60 VS 4.20 3
 ACTION:UPD 13-11-25 09:22 OP:ep   STATUS:               ID:20131021112300 L   I
 OLDACT:UP  13-10-21 16:18 OP:cam  STATUS:               ID:20131021111846     3
 OLDACT:UP  13-10-21 16:17 OP:cam  STATUS:               ID:20131021111846     3
 OLDACT:REG 13-10-21 15:36 OP:cam  STATUS:               ID:20131021111846     3
 2013-10-21-1118-46M.COL___212                                                 6
 STAT SP IPHASW D HRMM SECON CODA AMPLIT PERI AZIMU VELO AIN AR TRES W  DIS CAZ7
 BAR2 SZ IP     D 1123 19.83                             170    0.0610 24.3 186 
 BAR2 SZ ES       1123 34.50                             170   -0.4210 24.3 186 
 BAR2 SZ I        1123 35.64       505.1 0.18            171           24.3 186 
 BRR  HZ EP       1123 21.75                             153    0.5710 69.1 298 
 BRR  HN ES       1123 38.30                             153    0.8810 69.1 298 
 BRR  HZ I        1123 42.85       252.6 0.12            151           69.1 298 
 PAM  SZ EP       1123 22.68                             150    0.3110 77.5  41 
 PAM  SN ES       1123 39.69                             150    0.1410 77.5  41 
 PAM  SZ I        1123 41.76       540.7 0.46            148           77.5  41 
 RUS  HZ EP       1123 23.87                             143   -0.1410  102 175 
 RUS  HE ES       1123 42.19                             143   -0.2910  102 175 
 RUS  HZ I        1123 43.40       216.0 0.24            143            102 175 
 PTB  HZ EP       1123 26.50                             132   -0.54 9  146 258 
 PTB  HN ES       1123 47.52                             132   -0.33 9  146 258 
 PTB  HZ I        1123 54.42       153.1 0.30            131            146 258 
 TAM  HZ IP     C 1123 28.21                             130    0.15 9  157 105 
 TAM  HZ I        1123 48.67        46.0 0.40            128            157 105 
 TAM  HN ES       1123 49.67                             130    0.00 9  157 105 
 OCA  HZ EP       1123 28.15                             129   -0.23 9  159 354 
 OCA  HN ES       1123 49.87                             129   -0.37 9  159 354 
 OCA  HZ I        1123 53.38       186.2 0.22            127            159 354 
 SPBC HZ EP       1123 28.77                             129    0.07 9  163 218 
 SPBC HN ES   1   1123 50.42                             129   -0.39 7  163 218 
 SPBC HZ I        1123 53.75       187.8 0.20            128            163 218 
 ZAR  HZ EP   1   1123 32.69                             122    0.23 6  202 292 
 ZAR  HN ES   1   1123 58.70                             122    1.19 6  202 292 
 ZAR  HZ I        1124  3.84       174.5 0.66            121            202 292 
 NOR  HZ EP     C 1123 36.47                             118    0.57 8  234 234 
 NOR  HN ES   1   1124  3.63                             118   -0.00 6  234 234 
 NOR  HZ I        1124  7.20        86.0 0.24            117            234 234 
 SML  HZ EP       1123 36.02                             117   -0.65 8  242 336 
 SML  HN ES   1   1124  3.96                             117   -1.04 6  242 336 
 SML  HZ I        1124 13.88       135.3 0.10            116            242 336 
 CHI  HZ EP       1123 38.09                             117    0.06 8  249 195 
 CHI  HN ES   2   1124  6.87                             117   -0.55 4  249 195 
 CHI  HZ I        1124 11.54        48.3 0.46            116            249 195 
 ROSC BZ EP   4   1123 39.72                             116    1.33 0  253 211 
 HEL  HZ EP   1   1123 41.14                             114    0.82 6  271 255 
 HEL  HN ES   1   1124 10.24                             114   -1.26 6  271 255 
 HEL  HZ I        1124 16.80        54.1 0.26            113            271 255 
 GUY2CHZ EP   4   1123 44.59                             112    0.79 0  301 234 
 VIL  SZ EP   4   1123 43.47                             112   -0.31 0  304 191 
 PTGC HZ EP   4   1123 43.12                             111   -1.20 0  310 158 
 RREF HZ EP   4   1123 47.16                             110    0.80 0  321 229 
 COD  HZ EP   4   1123 47.17                             109   -1.32 0  347 355 
 SDV  BZ EP   4   1123 50.31                             108   -0.06 0  361  50 
 PRA  HZ EP   2   1123 53.62                             106   -0.22 3  392 209 
 PRA  HN ES       1124 36.26                             106    0.70 6  392 209 
 SJC  HZ EP   4   1123 54.31                             105   -1.31 0  407 327 
 YOT  HZ EP       1124  3.03                             103   -0.26 5  471 229 
                                                                                
