 2012 1121 1421  4.3 L   6.815 -73.154146.1  RSN  9 0.4 1.9LRSN                1
 GAP=135        0.74       3.1     4.5  5.9  0.5542E+00  0.1040E+02  0.6861E+00E
 Epicentro: LOS SANTOS - SANTANDER                                             3
 ACTION:UPD 12-12-05 15:34 OP:}ep  STATUS:               ID:20121121142104 L   I
 2012-11-21-1420-00M.COL___234                                                 6
 STAT SP IPHASW D HRMM SECON CODA AMPLIT PERI AZIMU VELO AIN AR TRES W  DIS CAZ7
 BAR2 SZ EP   1   1421 24.21                             170    0.16 7 24.9 187 
 BAR2 SZ ES   1   1421 39.37                             170   -0.05 7 24.9 187 
 BAR2 SZ I        1421 40.85        28.1 0.36                          24.9 187 
 GIR2 SZ ES   2   1421 39.78                             168    0.42 5 29.5 351 
 PAM  SZ EP   1   1421 26.97                             151    0.41 7 76.7  41 
 PAM  SN ES   1   1421 44.12                             151    0.23 7 76.7  41 
 PAM  SZ I        1421 46.34        13.1 0.56                          76.7  41 
 RUS  HZ EP   1   1421 27.98                             143   -0.28 7  102 176 
 RUS  HN ES   1   1421 46.38                             143   -0.53 7  102 176 
 RUS  HZ I        1421 47.96         4.7 0.26                           102 176 
 PTB  HZ EP   1   1421 30.92                             132   -0.38 7  147 258 
 PTB  HN ES   1   1421 52.01                             132   -0.31 7  147 258 
 PTB  HZ I        1421 59.37        17.1 0.38                           147 258 
 ZAR  HZ EP   1   1421 36.41                             123   -0.26 6  203 292 
 ZAR  HN ES   1   1422  2.58                             123    0.70 6  203 292 
 ZAR  HZ I        1422  9.38         8.4 0.24                           203 292 
 SML  HZ EP   1   1421 40.62                             118   -0.17 6  242 335 
 SML  HN ES   1   1422  8.71                             118   -0.50 6  242 335 
 CHI  HZ EP   2   1421 41.59                             117   -0.63 4  250 195 
 CHI  HN ES   1   1422 12.05                             117    0.30 6  250 195 
 CHI  HZ I        1422 21.10         3.0 0.38                           250 195 
 PRA  HZ EP   1   1421 58.52                             106    0.52 4  393 209 
 PRA  HN ES   1   1422 40.97                             106    1.12 4  393 209 
 PRA  HZ I        1422 45.22         2.8 0.24                           393 209 
                                                                                
