 2010  921 1437  8.4 L   7.363 -73.122129.6  RSN  5 0.2 1.6LRSN                1
 GAP=147        0.54       9.6    10.6  8.8 -0.8574E+02 -0.2463E+02  0.3372E+02E
 Epicentro: RIONEGRO - SANTANDER                                               3
 ACTION:UP  11-02-18 11:04 OP:tino STATUS:               ID:20100921143708 L   I
 2010-09-21-1434-47S.COL___122                                                 6
 STAT SP IPHASW D HRMM SECON CODA AMPLIT PERI AZIMU VELO SNR AR TRES W  DIS CAZ7
 BTL  SZ EP       1437 27.26                             157     0.210   52 198 
 GUE  SZ EP       1437 27.66                             156     0.310   56  23 
 GRA  SZ EP       1437 27.65                             151    -0.210   67  31 
 GRA  SZ ES   1   1437 42.82                             151    -0.1 7   67  31 
 GRA  SZ I        1437 43.88         9.2 0.26                            67  31 
 BRR  HZ EP       1437 27.59                             150    -0.210   71 247 
 BRR  HZ I        1437 41.19         9.9 0.48                            71 247 
 BRR  HN ES   2   1437 43.04                             150     0.1 5   71 247 
 RUS  HZ EP   3   1437 35.84                             125    -0.3 2  163 178 
                                                                                
