 2013 1021 1618 35.1 L   6.784 -73.143148.6  RSN  9 0.3 2.0LRSN                1
 GAP=138        0.87       3.6     3.8  5.4 -0.3096E+01  0.4648E+01  0.5700E+00E
 Epicentro: LOS SANTOS - SANTANDER                                             3
 ACTION:UPD 13-11-25 09:22 OP:ep   STATUS:               ID:20131021161835 L   I
 OLDACT:UP  13-10-21 16:49 OP:cam  STATUS:               ID:20131021160849     3
 OLDACT:REG 13-10-21 15:48 OP:cam  STATUS:               ID:20131021160849     3
 2013-10-21-1608-49M.COL___212                                                 6
 STAT SP IPHASW D HRMM SECON CODA AMPLIT PERI AZIMU VELO AIN AR TRES W  DIS CAZ7
 BAR2 SZ EP       1618 54.86                             171   -0.1710 21.6 192 
 BAR2 SZ ES       1619 10.02                             171   -0.5610 21.6 192 
 BAR2 SZ I        1619 13.44        36.9 0.84            169           21.6 192 
 BRR  HZ EP       1618 56.65                             153    0.0410 72.3 300 
 BRR  HN ES       1619 14.13                             153    0.7410 72.3 300 
 PAM  SZ EP       1618 57.72                             151    0.0410 78.6  39 
 PAM  SN ES       1619 15.15                             151   -0.1510 78.6  39 
 PAM  SZ I        1619 17.02        13.1 0.52            155           78.6  39 
 RUS  HZ EP       1618 59.31                             145    0.3210 98.8 176 
 RUS  HN ES       1619 17.93                             145    0.3010 98.8 176 
 RUS  HZ I        1619 20.15         8.8 0.34            145           98.8 176 
 PTB  HZ EP       1619  1.66                             133   -0.62 9  148 260 
 PTB  HN ES       1619 23.13                             133   -0.36 9  148 260 
 PTB  HZ I        1619 24.93        11.3 0.14            134            148 260 
 SPBC HZ EP       1619  3.77                             130    0.08 9  162 219 
 SPBC HN ES       1619 26.01                             130    0.01 9  162 219 
 SPBC HZ I        1619 31.65        12.0 0.38            131            162 219 
 ZAR  HE ES   1   1619 33.38                             123    0.04 6  205 293 
 NOR  HZ EP   1   1619 10.93                             119    0.03 6  234 235 
 NOR  HN ES       1619 39.01                             119    0.19 8  234 235 
 NOR  HZ I        1619 42.56         6.8 0.16            120            234 235 
 SML  HZ EP   1   1619 12.24                             118    0.18 6  245 335 
                                                                                
