 2014  121 1921 39.2 L   6.747 -73.138138.6  RSN  7 0.4 1.9LRSN                1
 GAP=140        1.11       4.6     5.1  7.0 -0.3706E+01  0.7795E+01  0.9189E+01E
 Epicentro: LOS SANTOS - SANTANDER                                             3
 ACTION:UPD 14-03-13 09:57 OP:ep   STATUS:               ID:20140121192139 L   I
 OLDACT:REG 14-01-21 16:39 OP:stll STATUS:               ID:20140121191816     3
 2014-01-21-1918-16M.COL___243                                                 6
 STAT SP IPHASW D HRMM SECON CODA AMPLIT PERI AZIMU VELO AIN AR TRES W  DIS CAZ7
 BAR2 SZ EP       1921 57.91                             172    0.0910 17.7 196 
 BAR2 SZ ES       1922 11.85                             172   -0.5210 17.7 196 
 BAR2 SZ I        1922 15.50        40.9 0.22            169           17.7 196 
 BRR  HZ EP       1921 59.86                             150    0.1010 74.9 302 
 BRR  HZ I        1922  0.12        20.6 0.24            153           74.9 302 
 BRR  HN ES       1922 16.86                             150    1.0410 74.9 302 
 PAM  SZ IP     D 1922  0.79                             148   -0.0910 81.5  36 
 PAM  SZ I        1922  1.13        28.5 0.22            151           81.5  36 
 PAM  SN ES       1922 17.68                             148   -0.1410 81.5  36 
 RUS  HZ EP       1922  1.93                             144    0.1610 94.6 176 
 RUS  HN ES       1922 19.45                             144    0.0410 94.6 176 
 RUS  HZ I        1922 21.56         8.9 0.30            143           94.6 176 
 PTB  HZ EP       1922  4.91                             130   -0.62 9  148 261 
 PTB  HE ES       1922 25.38                             130   -0.72 9  148 261 
 PTB  HZ I        1922 26.95         8.1 0.30            132            148 261 
 CHI  HZ EP       1922 15.92                             116    0.05 8  243 196 
 CHI  HN ES       1922 44.87                             116    0.37 8  243 196 
 CHI  HZ I        1922 50.81         3.4 0.36            117            243 196 
 GUY2CHZ EP       1922 22.31                             111    0.17 7  298 236 
 GUY2CHN ES       1922 55.91                             111    0.25 7  298 236 
 GUY2CHZ I        1923  4.30         3.4 0.30                           298 236 
                                                                                
