 2012  121 1058 55.7 L   7.028 -73.096142.8  RSN  5 0.2 1.4LRSN                1
 GAP=134        0.41       3.6     4.0  4.1  0.3049E+01  0.4668E+00 -0.1547E+01E
 Epicentro: FLORIDABLANCA - SANTANDER                                          3
 ACTION:UP  12-02-03 08:19 OP:REBC STATUS:               ID:20120121105855 L   I
 2012-01-21-1056-37S.COL___156                                                 6
 STAT SP IPHASW D HRMM SECON CODA AMPLIT PERI AZIMU VELO SNR AR TRES W  DIS CAZ7
 BAR2 SZ EP   1   1059 15.96                             160     0.2 8   49 191 
 BAR2 SZ ES   1   1059 31.32                             160    -0.1 8   49 191 
 BAR2 SZ I        1059 33.45        12.9 0.25                            49 191 
 PAM  SZ EP   1   1059 16.49                             158     0.1 8   56  52 
 PAM  SE ES   3   1059 32.10                             158    -0.5 3   56  52 
 BRR  HZ EP   1   1059 16.46                             153     0.1 8   69 277 
 BRR  HN ES   1   1059 32.70                             153     0.2 8   69 277 
 BRR  HZ I        1059 33.67        13.3 0.30                            69 277 
 RUS  HZ EP   1   1059 20.97                             137    -0.2 8  126 179 
 RUS  HN ES   1   1059 41.05                             137     0.1 8  126 179 
 RUS  HZ I        1059 44.01         1.3 0.29                           126 179 
 PTB  HZ EP       1059 23.38                             129    -0.210  160 250 
 PTB  HN ES   3   1059 44.85                             129    -0.4 2  160 250 
 PTB  HZ I        1059 46.93         1.2 0.28                           160 250 
                                                                                
