 2016  621 1938 33.2 L   6.793 -73.139143.2  RSN 10 0.3 2.0LRSN                1
 GAP=138        0.78       2.8     3.4  4.5 -0.1426E+01  0.4051E+01  0.9087E+00E
 Epicentro: LOS SANTOS - SANTANDER                                             3
 ACTION:UPD 16-07-21 22:21 OP:rebc STATUS:               ID:20160621193833 L   I
 OLDACT:REG 16-06-21 21:12 OP:edw  STATUS:               ID:20160621193743     3
 2016-06-21-1937-43M.COL___325                                                 6
 STAT SP IPHASW D HRMM SECON CODA AMPLIT PERI AZIMU VELO AIN AR TRES W  DIS CAZ7
 BAR2 EZ IP     C 1938 52.27                             171   -0.1910 22.7 192 
 BAR2 EZ ES       1939  7.19                             171   -0.3210 22.7 192 
 BAR2 EZ I        1939  8.49        38.7 0.32                          22.7 192 
 BRR  HZ EP     C 1938 54.07                             152   -0.0110 72.2 299 
 BRR  HE ES       1939 11.01                             152    0.6110 72.2 299 
 PAM  EZ EP       1938 54.97                             150   -0.1310 77.6  39 
 PAM  EN ES       1939 12.13                             150   -0.0910 77.6  39 
 PAM  EZ I        1939 14.73        19.0 0.66                          77.6  39 
 RUS  HZ EP       1938 56.81                             144    0.2310 99.7 176 
 RUS  HN ES       1939 15.04                             144    0.1810 99.7 176 
 RUS  HZ I        1939 15.88         9.1 0.30                          99.7 176 
 PTB  HZ EP   9   1938 59.06                             131   -0.89 0  148 259 
 PTB  HN ES       1939 20.03                                    0.06 9  148 259 
 PTB  HZ I        1939 25.63        13.7 0.12                           148 259 
 SPBC HZ EP       1939  1.24                             128   -0.19 9  163 219 
 SPBC HN ES       1939 23.07                             128   -0.42 9  163 219 
 SPBC HZ I        1939 24.48        12.3 0.15                           163 219 
 ZAR  HZ EP   4   1939  3.63                             122   -1.90 0  205 292 
 ZAR  HN ES   4   1939 30.40                             122   -0.38 0  205 292 
 ZAR  HZ I        1939 35.16        11.6 0.26                           205 292 
 NOR  HZ EP       1939  8.94                             118    0.20 8  235 235 
 NOR  HN ES       1939 36.74                             118    0.24 8  235 235 
 NOR  HZ I        1939 42.11         4.8 0.14                           235 235 
 CHI  HN ES       1939 39.95                             117    0.07 8  248 195 
 URE  HZ EP       1939 14.72                             113    0.52 7  285 292 
 URE  HN ES       1939 45.52                             113   -0.70 7  285 292 
 URE  HZ I        1939 59.17         6.5 0.18                           285 292 
 GUY2CHN ES   4   1939 51.86                             112    1.28 0  301 235 
                                                                                
