 2012  421 1232 18.4 L   6.744 -73.139144.8  RSN  6 0.3 1.9LRSN                1
 GAP=140        0.80       4.9     4.3  7.1 -0.1372E+01  0.6421E+01  0.6143E+00E
 Epicentro: JORDAN - SANTANDER                                                 3
 ACTION:UPD 12-07-05 11:55 OP:tino STATUS:               ID:20120421123218 L   I
 2012-04-21-1230-00M.COL___186                                                 6
 STAT SP IPHASW D HRMM SECON CODA AMPLIT PERI AZIMU VELO AIN AR TRES W  DIS CAZ7
 BAR2 SZ EP       1232 38.01                             173     0.210   17 196 
 BAR2 SZ ES   1   1232 52.49                             173    -0.4 7   17 196 
 BAR2 SZ I        1232 54.18        16.5 0.45                            17 196 
 BRR  HZ EP       1232 39.78                             151     0.110   75 302 
 BRR  HZ I        1232 40.08        29.5 0.27                            75 302 
 BRR  HE ES   1   1232 57.00                             151     0.8 7   75 302 
 PAM  SZ EP       1232 40.71                             149    -0.110   82  36 
 PAM  SN ES       1232 58.03                             149    -0.210   82  36 
 RUS  HZ EP   1   1232 41.82                             145     0.2 7   94 176 
 RUS  HE ES   1   1232 59.71                             145     0.0 7   94 176 
 RUS  HZ I        1233  1.76         4.8 0.30                            94 176 
 PTB  HZ EP   1   1232 44.90                             132    -0.3 7  147 261 
 PTB  HE ES   1   1233  6.04                             132    -0.2 7  147 261 
 ZAR  HE ES   1   1233 16.28                             122    -0.3 6  207 294 
 ZAR  HZ I        1233 23.10         8.2 0.32                           207 294 
                                                                                
