 2016 1221 1546 12.9 L   6.269 -73.655109.5  RSN  5 0.3 1.3LRSN                1
 GAP=115        0.57       4.5     2.6  5.1  0.3121E+01  0.9246E+00 -0.3401E+01E
 Epicentro: SANTA HELENA DEL OPON - SANTANDER                                  3
 ACTION:UPD 17-01-11 20:17 OP:rebc STATUS:               ID:20161221154612 L   I
 OLDACT:UP  16-12-21 23:02 OP:dani STATUS:               ID:20161221153745d    3
 OLDACT:DUP 16-12-21 22:59 OP:dani STATUS:               ID:20161221153745d    3
 2016-12-21-1538-00M.COL___372                                                 6
 STAT SP IPHASW D HRMM SECON CODA AMPLIT PERI AZIMU VELO AIN AR TRES W  DIS CAZ7
 BAR2 EZ EP       1546 30.33                             148    0.2510 63.4  56 
 BAR2 EZ ES       1546 43.63                             148    0.1610 63.4  56 
 BAR2 EZ I        1546 45.54        10.8 0.40             47           63.4  56 
 RUS  HZ EP       1546 31.22                             143   -0.0810 75.8 123 
 RUS  HE ES       1546 45.55                             143   -0.0910 75.8 123 
 PTB  HZ EP       1546 31.95                             136   -0.0810 93.5 289 
 PTB  HN ES       1546 46.96                             136    0.0110 93.5 289 
 PTB  HZ I        1546 50.42         2.5 0.20             47           93.5 289 
 PAM  EZ EP       1546 38.65                             120   -0.29 9  159  42 
 PAM  EZ I        1547  2.92         2.2 0.32             37            159  42 
 GUY2CHZ EP   3   1546 47.63                             111    1.76 2  222 239 
                                                                                
