 2017  821 1708 29.1 L   6.882 -72.842173.2  RSN  4 0.2 1.6LRSN                1
 GAP=269        0.52       3.9     7.3  5.9  0.6757E+01  0.6292E+01 -0.1376E+01E
 Epicentro: GUACA - SANTANDER                                                  3
 ACTION:UPD 17-09-04 20:23 OP:rebc STATUS:               ID:20170821170829 L   I
 OLDACT:UP  17-08-21 21:45 OP:mg   STATUS:               ID:20170821165644     3
 OLDACT:UP  17-08-21 21:44 OP:mg   STATUS:               ID:20170821165644     3
 OLDACT:UP  17-08-21 21:44 OP:mg   STATUS:               ID:20170821165644     3
 OLDACT:UP  17-08-21 21:43 OP:mg   STATUS:               ID:20170821165644     3
 OLDACT:UP  17-08-21 21:43 OP:mg   STATUS:               ID:20170821165644     3
 OLDACT:REG 17-08-21 20:53 OP:mg   STATUS:               ID:20170821165644     3
 2017-08-21-1708-00M.COL___405                                                 6
 STAT SP IPHASW D HRMM SECON CODA AMPLIT PERI AZIMU VELO AIN AR TRES W  DIS CAZ7
 BAR2 EZ ES       17 9 10.88                             163   -0.2210 49.4 230 
 BRR  HZ EP       17 8 54.70                             149   -0.1110 99.3 285 
 BRR  HN ES       17 9 15.11                             149    0.2210 99.3 285 
 BRR  HZ I        17 9 15.64         7.5 0.32            150           99.3 285 
 RUS  HZ EP   4   17 8 54.73                             146   -1.67 0  113 194 
 RUS  HN ES       17 9 17.90                             146    0.1910  113 194 
 RUS  HZ I        17 9 19.31         3.4 0.28            146            113 194 
 SPBC HZ EP   2   17 9  2.72                             130    0.28 4  192 225 
 SPBC HN ES       17 9 28.31                             130   -0.16 9  192 225 
 SPBC HZ I        17 9 28.86         3.0 0.11            130            192 225 
                                                                                
