 2016 1221 1825 52.3 L   6.790 -73.139143.7  RSN  4 0.1 1.3LRSN                1
 GAP=139        0.37       3.4     2.4  3.3 -0.4032E+01  0.9594E+00  0.1803E+01E
 Epicentro: LOS SANTOS - SANTANDER                                             3
 ACTION:UPD 17-01-11 20:17 OP:rebc STATUS:               ID:20161221182552 L   I
 OLDACT:REG 16-12-21 20:52 OP:dani STATUS:               ID:20161221181748     3
 2016-12-21-1818-00M.COL___384                                                 6
 STAT SP IPHASW D HRMM SECON CODA AMPLIT PERI AZIMU VELO AIN AR TRES W  DIS CAZ7
 BAR2 EZ EP       1826 11.66                             171    0.0110 22.3 192 
 BAR2 EZ ES       1826 26.65                             171   -0.1010 22.3 192 
 BAR2 EZ I        1826 31.58         5.1 0.41            169           22.3 192 
 PAM  EZ EP       1826 14.35                             150    0.0410 77.8  39 
 PAM  EE ES       1826 31.51                             150    0.0210 77.8  39 
 PAM  EZ I        1826 32.20         3.3 0.28            156           77.8  39 
 RUS  HZ EP       1826 15.84                             144    0.0910 99.4 176 
 PTB  HZ EP       1826 18.94                             131   -0.20 9  148 259 
 PTB  HN ES       1826 40.21                             131    0.14 9  148 259 
 PTB  HZ I        1826 43.05         3.0 0.27            134            148 259 
                                                                                
