 2011  621 1938 13.5 L   6.765 -73.123145.9  RSN  5 0.2 1.7LRSN                1
 GAP=141        0.55       4.2     7.1  6.2  0.1030E+02 -0.1685E+02 -0.6922E+01E
 Epicentro: LOS SANTOS - SANTANDER                                             3
 ACTION:UP  11-07-14 19:07 OP:ep   STATUS:               ID:20110621193813 L   I
 2011-06-21-1920-00M.COL___113                                                 6
 STAT SP IPHASW D HRMM SECON CODA AMPLIT PERI AZIMU VELO SNR AR TRES W  DIS CAZ7
 BAR2 SZ EP       1938 32.96                             172    -0.210   20 199 
 BAR2 SZ ES   1   1938 48.16                             172    -0.2 7   20 199 
 BAR2 SZ I        1938 49.03        13.8 0.33                            20 199 
 BRR  HZ EP       1938 34.75                             151    -0.210   75 300 
 BRR  HZ I        1938 34.96        22.8 0.13                            75 300 
 BRR  HN ES   1   1938 51.93                             151     0.3 7   75 300 
 PAM  SZ EP       1938 36.00                             150     0.110   79  36 
 RUS  HZ EP       1938 37.15                             145     0.110   97 177 
 RUS  HN ES   1   1938 55.42                             145     0.1 7   97 177 
 RUS  HZ I        1938 56.77         4.2 0.23                            97 177 
 CHI  HN ES   3   1939 20.04                             117     0.0 2  246 196 
 CHI  HZ I        1939 22.92         3.4 0.34                           246 196 
                                                                                
