 2015  321 1026 35.6 L   6.754 -73.180150.0  RSN  5 0.4 1.6LRSN                1
 GAP=230        1.07       6.2     8.4  8.0  0.2686E+02  0.1936E+02  0.3584E+01E
 Epicentro: LOS SANTOS - SANTANDER                                             3
 ACTION:UPD 15-04-30 16:28 OP:nd   STATUS:               ID:20150321102635 L   I
 OLDACT:UP  15-03-21 21:09 OP:cam  STATUS:               ID:20150321101749     3
 OLDACT:UP  15-03-21 21:09 OP:cam  STATUS:               ID:20150321101749     3
 OLDACT:REG 15-03-21 19:44 OP:cam  STATUS:               ID:20150321101749     3
 2015-03-21-1017-49M.COL___263                                                 6
 STAT SP IPHASW D HRMM SECON CODA AMPLIT PERI AZIMU VELO AIN AR TRES W  DIS CAZ7
 BAR2 EZ ES       1027 10.78                             173   -0.5310 17.9 181 
 BRR  HZ EP       1026 57.32                             153    0.1210 70.6 304 
 BRR  HN ES       1027 14.73                             153    0.7010 70.6 304 
 BRR  HZ I        1027 19.48         6.9 0.14            152           70.6 304 
 RUS  HZ EP       1026 59.17                             146   -0.3010 95.9 174 
 RUS  HN ES       1027 18.22                             146    0.1510 95.9 174 
 RUS  HZ I        1027 20.62         5.3 0.50            146           95.9 174 
 SPBC HZ EP       1027  4.46                             131    0.59 9  157 219 
 SPBC HN ES       1027 25.74                             131   -0.15 9  157 219 
 SPBC HZ I        1027 33.12         7.2 0.28            131            157 219 
 ZAR  HZ EP       1027  8.00                             123   -0.19 9  203 294 
 ZAR  HN ES       1027 33.08                             123   -0.52 9  203 294 
                                                                                
