 2016  121 1538 30.2 L   6.825 -73.143140.6  RSN 12 0.4 2.4LRSN                1
 GAP=136        0.91       2.6     3.9  5.2 -0.3793E+01  0.9225E+01 -0.1648E+01E
 Epicentro: LOS SANTOS - SANTANDER                                             3
 ACTION:UPD 16-03-09 23:27 OP:cam  STATUS:               ID:20160121153830 L   I
 OLDACT:REG 16-01-21 20:51 OP:cara STATUS:               ID:20160121152747     3
 2016-01-21-1527-47M.COL___317                                                 6
 STAT SP IPHASW D HRMM SECON CODA AMPLIT PERI AZIMU VELO AIN AR TRES W  DIS CAZ7
 BAR2 EZ IP     C 1538 49.37                             169    0.0610 26.1 190 
 BAR2 EZ ES       1539  4.23                             169    0.0410 26.1 190 
 BAR2 EZ I        1539  5.44        69.3 0.18            169           26.1 190 
 PAM  EZ IP     D 1538 52.24                             150    0.4710 75.0  41 
 PAM  EN ES       1539  8.97                             150    0.4110 75.0  41 
 PAM  EZ I        1539 11.25        62.9 0.52            155           75.0  41 
 RUS  HZ IP     C 1538 53.30                             142   -0.3910  103 176 
 RUS  HN ES       1539 12.04                             142    0.0610  103 176 
 RUS  HZ I        1539 12.96        16.4 0.28            147            103 176 
 PTB  HZ EP       1538 56.44                             131   -0.43 9  149 258 
 PTB  HN ES       1539 17.04                             131   -0.61 9  149 258 
 PTB  HZ I        1539 24.01        20.8 0.16            131            149 258 
 OCA  HZ EP       1538 57.63                             129   -0.27 9  158 353 
 OCA  HN ES       1539 19.30                             129   -0.17 9  158 353 
 OCA  HZ I        1539 24.79        64.0 0.28            131            158 353 
 SPBC HZ IP       1538 58.57                             127   -0.01 9  166 218 
 SPBC HN ES       1539 20.62                             127   -0.06 9  166 218 
 SPBC HZ I        1539 26.07        29.8 0.18            129            166 218 
 ZAR  HZ EP       1539  2.61                             121    0.33 9  203 291 
 ZAR  HN ES   4   1539 29.24                             121    1.97 0  203 291 
 ZAR  HZ I        1539 34.11        35.2 0.28            122            203 291 
 NOR  HZ EP       1539  5.88                             117    0.00 8  237 234 
 NOR  HE ES       1539 33.32                             117   -0.36 8  237 234 
 NOR  HZ I        1539 38.94        13.8 0.16            119            237 234 
 SML  HZ EP       1539  5.76                             117   -0.56 8  241 335 
 SML  HN ES   2   1539 34.97                             117    0.50 4  241 335 
 SML  HZ I        1539 40.74        26.4 0.26            118            241 335 
 CHI  HZ EP     C 1539  7.69                             116   -0.27 8  251 195 
 CHI  HN ES       1539 37.20                             116   -0.18 8  251 195 
 CHI  HZ I        1539 43.56        10.2 0.30            119            251 195 
 GUY2CHZ EP       1539 14.22                             111    0.39 7  303 234 
 GUY2CHN ES       1539 48.85                             111    1.02 7  303 234 
 GUY2CHZ I        1539 54.61        14.2 0.34                           303 234 
 CBOC HZ EP       1539 17.87                             109    0.79 7  335 252 
 CBOC HN ES       1539 53.93                             109    0.31 7  335 252 
 CBOC HZ I        1539 57.21         5.3 0.26            111            335 252 
                                                                                
