 2017 1021 1808 57.2 L   6.662 -74.065  1.5  RSN 18 0.5 2.5LRSN                1
 GAP= 82        1.18       2.0     1.8  4.5 -0.6031E+00 -0.2190E+00  0.1950E+01E
 Epicentro: PUERTO PARRA - SANTANDER                                           3
 ACTION:UPD 17-11-07 19:34 OP:rebc STATUS:               ID:20171021180857 L   I
 OLDACT:UP  17-10-22 00:51 OP:edw  STATUS:               ID:20171021175528     3
 OLDACT:UP  17-10-22 00:49 OP:edw  STATUS:               ID:20171021175528     3
 OLDACT:UP  17-10-22 00:48 OP:edw  STATUS:               ID:20171021175528     3
 OLDACT:REG 17-10-21 21:02 OP:edw  STATUS:               ID:20171021175528     3
 2017-10-21-1808-00M.COL___459                                                 6
 STAT SP IPHASW D HRMM SECON CODA AMPLIT PERI AZIMU VELO AIN AR TRES W  DIS CAZ7
 PTB  HZ IP     D 18 9  4.74                              47   -0.3210 45.3 253 
 PTB  HN ES       18 9 10.63                              47   -0.5310 45.3 253 
 PTB  HZ I        18 9 10.74       327.5 0.18             47           45.3 253 
 BRR  HZ IP     D 18 9  7.92                              47    0.2110 62.9  38 
 BRR  HE ES       18 9 16.35                              47    0.4810 62.9  38 
 BRR  HZ I        18 9 16.96       237.8 0.12             47           62.9  38 
 BAR2 EZ EP       18 9 13.29                              47    0.0210 98.0  94 
 BAR2 EZ ES       18 9 25.61                              47   -0.1710 98.0  94 
 BAR2 EZ I        18 9 27.51       198.4 0.50             47           98.0  94 
 SPBC HZ EP       18 9 15.30                              47    0.1110  112 180 
 SPBC HN ES       18 9 29.19                              47   -0.0010  112 180 
 SPBC HZ I        18 9 31.36        97.6 0.10             47            112 180 
 ZAR  HZ EP       18 9 17.15                              47   -0.2710  127 316 
 ZAR  HN ES       18 9 32.68                              47   -0.4810  127 316 
 ZAR  HZ I        18 9 34.88       115.9 0.10             47            127 316 
 RUS  HZ EP       18 9 19.47                              47   -0.13 9  138 128 
 RUS  HN ES       18 9 36.83                              47   -0.22 9  138 128 
 RUS  HZ I        18 9 39.75       136.4 0.24             47            138 128 
 NOR  HZ EP       18 9 20.06                              47   -0.99 9  151 216 
 NOR  HN ES   4   18 9 38.02                              47   -1.60 0  151 216 
 NOR  HZ I        18 9 40.35        46.3 0.28             47            151 216 
 PAM  EZ EP       18 9 24.46                              47    0.24 9  169  64 
 PAM  EE ES       18 9 44.68                              47   -0.59 9  169  64 
 PAM  EZ I        18 9 46.75        80.5 0.40             47            169  64 
 URE  HZ EP       18 9 29.31                              37    1.14 9  202 307 
 URE  HN ES   4   18 9 54.68                              37    2.39 0  202 307 
 URE  HZ I        18 9 55.91        76.0 0.30             37            202 307 
 GUY2CHZ EP   1   18 9 30.24                              37   -0.04 6  214 222 
 GUY2CHE ES       18 9 55.61                              37   -0.44 8  214 222 
 GUY2CHZ I        18 9 58.48        50.6 0.34                           214 222 
 CHI  HZ EP       18 9 31.94                              37    0.07 8  228 171 
 CHI  HN ES       18 9 58.91                              37    0.03 8  228 171 
 CHI  HZ I        1810  8.50        15.3 0.46             37            228 171 
 YPLC HZ EP   4   18 9 35.40                              37    3.26 0  233 127 
 YPLC HN ES   4   1810  4.20                              37    4.83 0  233 127 
 YPLC HZ I        1810 10.61        31.4 0.44             37            233 127 
 DBB  HZ EP       18 9 33.66                              37    0.62 8  240 280 
 DBB  EN ES   4   1810  4.85                              37    3.89 0  240 280 
 DBB  HZ I        1810  8.80        14.3 0.50             37            240 280 
 ELA  HZ EP       18 9 35.04                              37    0.49 8  248 217 
 ELA  HN ES       1810  4.46                              37    0.81 8  248 217 
 ELA  HZ I        1810 10.70        41.9 0.44             37            248 217 
 TAM  HZ EP   4   18 9 37.80                              37    3.25 0  253  96 
 TAM  HN ES   4   1810  8.80                              37    5.15 0  253  96 
 ANIL HZ EP   4   18 9 40.63                              37    2.11 0  282 212 
 ANIL HN ES       1810 11.69                              37    0.97 7  282 212 
 ANIL HZ I        1810 21.41        24.1 0.26             37            282 212 
 PAL  HZ EP   4   18 9 48.45                              36    6.35 0  313 232 
 PAL  HZ I        1810 26.51         9.2 0.46             36            313 232 
 PAL  HN ES   4   1810 26.97                              36    9.88 0  313 232 
 ORTC HZ EP   1   18 9 44.37                              36    0.06 5  331 203 
 ORTC HN ES   4   1810 28.38                              36    7.36 0  331 203 
 ORTC HZ I        1810 36.49         9.3 0.28             36            331 203 
 PRA  HZ EP   4   18 9 46.73                              36    1.54 0  338 196 
 PRA  HN ES   4   1810 28.63                              36    6.04 0  338 196 
 PRA  HZ I        1810 42.86         9.0 0.46             36            338 196 
                                                                                
