 2011 1121 1527 13.0 L   6.759 -73.111141.4  RSN  6 0.3 1.7LRSN                1
 GAP=143        0.62       4.2     4.8  6.9 -0.1233E+01  0.5383E+01 -0.1100E+01E
 Epicentro: LOS SANTOS - SANTANDER                                             3
 ACTION:UPD 12-07-13 16:11 OP:ep   STATUS:               ID:20111121152712 L   I
 2011-11-21-1524-02S.COL___178                                                 6
 STAT SP IPHASW D HRMM SECON CODA AMPLIT PERI AZIMU VELO AIN AR TRES W  DIS CAZ7
 BAR2 SZ EP   1   1527 32.05                             172   -0.01 7 20.1 203 
 BAR2 SZ ES   1   1527 46.39                             172   -0.52 7 20.1 203 
 BAR2 SZ I        1527 48.82        10.8 0.52                          20.1 203 
 BRR  HZ EP   1   1527 33.92                             150   -0.10 7 76.8 300 
 BRR  HZ I        1527 38.04        11.3 0.43                          76.8 300 
 BRR  HE ES   1   1527 51.01                             150    0.60 7 76.8 300 
 PAM  SZ EP   1   1527 34.96                             150    0.12 7 78.6  35 
 PAM  SZ I        1527 35.21         5.7 0.17                          78.6  35 
 PAM  SN ES   1   1527 51.75                             150   -0.12 7 78.6  35 
 RUS  HZ EP   2   1527 35.96                             144   -0.03 5 95.9 178 
 RUS  HN ES   1   1527 54.22                             144    0.30 7 95.9 178 
 RUS  HZ I        1527 56.14         6.0 0.47                          95.9 178 
 ZAR  HN ES   2   1528 10.74                             121   -0.51 4  209 293 
 ZAR  HZ I        1528 16.21         5.6 0.31                           209 293 
 NOR  SE ES   2   1528 15.98                             117   -0.30 4  235 236 
                                                                                
