 2010  821 1946 41.5 L   6.795 -73.008143.2  RSN  8 0.3 1.9LRSN                1
 GAP=180        0.77       3.8     7.2  6.9  0.1195E+01 -0.1065E+02 -0.1182E+01E
 Epicentro: CEPITA - SANTANDER                                                 3
 ACTION:UP  10-09-07 10:57 OP:vdl  STATUS:               ID:20100821194641 L   I
 2010-08-21-1942-21S.COL___120                                                 6
 STAT SP IPHASW D HRMM SECON CODA AMPLIT PERI AZIMU VELO SNR AR TRES W  DIS CAZ7
 BAR2 SZ EP       1947  0.91                             168    -0.110   30 221 
 BAR2 SZ ES   1   1947 16.65                             168     0.5 7   30 221 
 BAR2 SZ I        1947 17.55        24.6 0.09                            30 221 
 GIR2 SZ EP   2   1947  1.13                             165     0.1 5   37 327 
 BRR  HZ EP       1947  2.82                             148    -0.410   85 294 
 BRR  HZ I        1947  3.09        32.1 0.21                            85 294 
 BRR  HN ES       1947 20.12                             148    -0.110   85 294 
 RUS  HZ EP       1947  5.04                             143     0.110  100 185 
 RUS  HN ES   1   1947 22.94                             143    -0.3 7  100 185 
 RUS  HZ I        1947 24.89        10.3 0.63                           100 185 
 GUE  SZ EP   1   1947  6.13                             139     0.3 7  115   5 
 GUE  SZ I        1947 28.22         3.2 0.35                           115   5 
 OCA  SZ EP   1   1947 10.22                             128     0.3 7  163 348 
 OCA  SZ I        1947 35.51         7.5 0.27                           163 348 
 CHI  HN ES   1   1947 49.21                             116     0.1 6  253 199 
 CHI  HZ I        1947 50.64         3.2 0.19                           253 199 
 RREF HN ES   1   1948  6.22                             110     0.5 5  333 231 
 RREF HZ I        1948 10.33         4.8 0.36                           333 231 
                                                                                
