 2011  421 1440 47.8 L   6.806 -73.127149.5  RSN  7 0.4 1.8LRSN                1
 GAP=139        0.84       5.5     7.0 10.2 -0.6683E+01  0.1044E+02 -0.4162E+01E
 Epicentro: LOS SANTOS - SANTANDER                                             3
 ACTION:UP  11-06-22 15:32 OP:REBC STATUS:               ID:20110421144047 L   I
 2011-04-21-1440-36S.COL___139                                                 6
 STAT SP IPHASW D HRMM SECON CODA AMPLIT PERI AZIMU VELO SNR AR TRES W  DIS CAZ7
 GIR2 SZ EP   1   1441  8.28                             168     0.4 7   31 346 
 BRR  HZ EP   1   1441  9.72                             153     0.3 7   73 297 
 BRR  HZ I        1441 10.07        24.3 0.09                            73 297 
 BRR  HN ES   1   1441 26.70                             153     0.4 7   73 297 
 PAM  SN ES   2   1441 27.06                             152    -0.8 5   76  39 
 RUS  HZ EP   1   1441 12.32                             145     0.4 7  101 177 
 RUS  HN ES   1   1441 30.62                             145    -0.2 7  101 177 
 RUS  HZ I        1441 32.71         4.5 0.21                           101 177 
 OCA  SZ EP   1   1441 15.87                             131    -0.5 7  160 352 
 NOR  SN ES   1   1441 51.61                             119    -0.6 6  237 235 
 HEL  HN ES   2   1441 59.94                             115    -0.2 4  274 256 
                                                                                
