 2010  321 1351 27.8 L   6.820 -73.071145.8  RSN 13 0.4 2.8LRSN                1
 GAP=131        0.61       2.4     4.2  4.1 -0.2186E+01  0.4128E+00  0.4951E+00E
 Epicentro: LOS SANTOS - SANTANDER                                             3
 ACTION:UP  10-08-24 09:55 OP:vdl  STATUS:               ID:20100321135127 L   I
 2010-03-21-1349-54S.COL___098                                                 6
 STAT SP IPHASW D HRMM SECON CODA AMPLIT PERI AZIMU VELO SNR AR TRES W  DIS CAZ7
 BAR2 SZ IP       1351 47.59                             169     0.110   28 206 
 BAR2 SZ ES   1   1352  2.70                             169    -0.2 7   28 206 
 BRR  HZ IP       1351 49.42                             150     0.110   78 294 
 BRR  HE ES   1   1352  6.21                             150     0.1 7   78 294 
 BRR  HZ I        1352  8.19        78.9 0.15                            78 294 
 RUS  HZ IP       1351 51.68                             143     0.010  103 181 
 RUS  HZ I        1351 52.94        36.6 0.21                           103 181 
 RUS  HE ES   1   1352 10.42                             143     0.1 7  103 181 
 OCA  SZ IP       1351 55.74                             130    -0.3 9  159 350 
 OCA  SZ ES   1   1352 18.26                             130     0.2 7  159 350 
 OCA  SZ I        1352 22.00       169.2 0.18                           159 350 
 CHI  HZ EP   1   1352  5.94                             117     0.0 6  253 197 
 CHI  HN ES   1   1352 35.97                             117     0.2 6  253 197 
 CHI  HZ I        1352 40.57        21.0 0.42                           253 197 
 ROSC BN ES   2   1352 36.63                             116    -0.2 4  259 212 
 ROSC BZ I        1352 44.83        29.8 0.39                           259 212 
 HEL  HZ EP   2   1352  9.91                             114     1.0 4  281 256 
 HEL  HN ES   2   1352 40.38                             114    -0.7 4  281 256 
 HEL  HZ I        1352 47.40        21.4 0.33                           281 256 
 RREF BZ EP   2   1352 15.22                             110     0.4 3  330 230 
 RREF BN ES   2   1352 52.30                             110     0.8 3  330 230 
 RREF BZ I        1352 59.69        23.6 0.46                           330 230 
 DBB  SZ EP   1   1352 15.49                             109    -0.7 5  348 274 
 TOL  SZ EP   2   1352 17.38                             109     0.5 3  351 225 
 SDV  BZ IP       1352 17.03                             109     0.1 6  353  50 
 SDV  BZ I        1352 17.84        25.8 0.14                           353  50 
 ANIL BZ EP   2   1352 18.36                             108    -0.1 3  365 225 
 ANIL BN ES   2   1352 58.54                             108     0.6 3  365 225 
 ANIL BZ I        1353  5.65        49.4 0.37                           365 225 
 PRA  HZ EP   1   1352 21.65                             106    -0.4 4  398 210 
 PRA  HN ES   1   1353  3.78                             106    -0.5 4  398 210 
 PRA  HZ I        1353 11.29        27.5 0.56                           398 210 
                                                                                
