 2012  821 1024 32.8 L   6.820 -73.114145.0  RSN  5 0.4 1.6LRSN                1
 GAP=140        0.80       6.8     9.5  9.5  0.3958E+02 -0.3650E+02 -0.2331E+02E
 Epicentro: LOS SANTOS - SANTANDER                                             3
 ACTION:UPD 12-09-10 11:57 OP:ep   STATUS:               ID:20120821102432 L   I
 2012-08-21-1020-00M.COL___217                                                 6
 STAT SP IPHASW D HRMM SECON CODA AMPLIT PERI AZIMU VELO AIN AR TRES W  DIS CAZ7
 BAR2 SZ EP   1   1024 52.15                             169   -0.28 7 26.3 197 
 BAR2 SZ I        1024 53.12        15.8 0.17                          26.3 197 
 BAR2 SZ ES   1   1025  6.89                             169   -0.83 7 26.3 197 
 BRR  HZ EP   1   1024 53.90                             151   -0.12 7 73.3 296 
 BRR  HN ES       1025 10.87                             151    0.3310 73.3 296 
 BRR  HZ I        1025 13.70         6.8 0.19                          73.3 296 
 PAM  SZ EP   1   1024 54.99                             152    0.26 7 73.4  39 
 PAM  SZ I        1024 55.30        12.1 0.19                          73.4  39 
 RUS  HZ EP   1   1024 56.64                             143   -0.02 7  103 178 
 RUS  HN ES       1025 15.53                             143    0.2910  103 178 
 RUS  HZ I        1025 16.38         2.8 0.23                           103 178 
 ZAR  HN ES   2   1025 30.53                             122   -0.41 4  207 291 
                                                                                
