 2013  221 1431 48.1 L   6.786 -73.122145.5  RSN  7 0.4 2.2LRSN                1
 GAP=140        1.03       4.1     4.6  6.4  0.2198E+01  0.7438E+01  0.4422E+01E
 Epicentro: LOS SANTOS - SANTANDER                                             3
 ACTION:UPD 13-03-12 09:34 OP:ep   STATUS:               ID:20130221143148 L   I
 2013-02-21-1431-37M.COL___193                                                 6
 STAT SP IPHASW D HRMM SECON CODA AMPLIT PERI AZIMU VELO AIN AR TRES W  DIS CAZ7
 BAR2 SZ EP   1   1432  7.73                             171    0.02 7 22.4 197 
 BAR2 SZ ES       1432 22.67                             171   -0.3110 22.4 197 
 BAR2 SZ I        1432 25.19        34.8 0.20            169           22.4 197 
 BRR  HZ EP       1432  9.45                             151    0.0310 74.2 299 
 BRR  HN ES       1432 26.72                             151    0.6910 74.2 299 
 BRR  HN I        1432 27.22        55.1 0.30            150           74.2 299 
 PAM  SZ EP       1432 10.45                             151    0.1610 77.0  37 
 PAM  SE ES       1432 27.42                             151   -0.1610 77.0  37 
 PAM  SE I        1432 28.99        15.4 0.46            154           77.0  37 
 RUS  HZ EP       1432 11.49                             144   -0.2410 98.9 177 
 RUS  HN ES       1432 30.20                             144    0.0610 98.9 177 
 RUS  HN I        1432 31.81        17.5 0.42            145           98.9 177 
 PTB  HZ EP       1432 14.66                             131   -0.62 9  150 260 
 PTB  HN ES       1432 35.79                             131   -0.67 9  150 260 
 PTB  HN I        1432 41.19        41.4 0.32            131            150 260 
 ZAR  HZ EP       1432 21.25                             122    0.38 8  207 292 
 ZAR  HN ES       1432 46.57                             122    0.17 8  207 292 
 ZAR  HN I        1432 51.89        19.7 0.50            122            207 292 
 CHI  HZ EP       1432 25.63                             117   -0.10 8  248 196 
 CHI  HN ES       1432 55.91                             117    0.86 8  248 196 
 CHI  HN I        1432 57.48        10.6 0.28            118            248 196 
                                                                                
