 2014 1021 1321 20.9 L   5.751 -73.933111.4  RSN  5 0.5 1.9LRSN                1
 GAP=193        1.04       6.6     5.5  8.9 -0.6917E+01  0.1598E+01 -0.1633E+02E
 Epicentro: ALBANIA - SANTANDER                                                3
 ACTION:UPD 14-11-29 23:53 OP:nd   STATUS:               ID:20141021132120 L   I
 OLDACT:REG 14-10-24 07:21 OP:fm   STATUS:               ID:20141021131750     3
 2014-10-21-1317-50M.COL___274                                                 6
 STAT SP IPHASW D HRMM SECON CODA AMPLIT PERI AZIMU VELO AIN AR TRES W  DIS CAZ7
 SPBC HZ EP       1321 36.44                             170    0.3410 18.9 235 
 SPBC HE ES       1321 47.93                             170   -0.0210 18.9 235 
 SPBC HZ I        1321 48.72        27.1 0.24            169           18.9 235 
 PTB  HZ EP       1321 40.35                             134   -0.8210  105 326 
 PTB  HN ES       1321 56.68                             134   -0.3010  105 326 
 PTB  HZ I        1321 58.13         9.5 0.22            132            105 326 
 BAR2 SZ EP       1321 43.31                             128   -0.0110  125  42 
 BAR2 SZ ES   1   1322  0.78                             128   -0.03 7  125  42 
 BAR2 SZ I        1322  1.72        20.9 0.32            128            125  42 
 BRR  HN ES   1   1322  5.88                             122    0.79 7  152   9 
 BRR  HZ I        1322  8.22        10.6 0.52            121            152   9 
 HEL  HZ EP   1   1321 50.00                             117    0.46 7  183 285 
 HEL  HN ES   1   1322 12.39                             117    0.52 7  183 285 
 HEL  HZ I        1322 15.70         9.8 0.32            116            183 285 
                                                                                
