 2014 1021 1701 22.3 L   5.983 -73.995110.0  RSN  4 0.3 1.6LRSN                1
 GAP=140        0.60       4.2     4.3  5.8 -0.5383E+01  0.1293E+01 -0.4492E+01E
 Epicentro: LA BELLEZA - SANTANDER                                             3
 ACTION:UPD 14-11-29 23:53 OP:nd   STATUS:               ID:20141021170122 L   I
 OLDACT:REG 14-10-24 07:23 OP:fm   STATUS:               ID:20141021165750     3
 2014-10-21-1657-50M.COL___276                                                 6
 STAT SP IPHASW D HRMM SECON CODA AMPLIT PERI AZIMU VELO AIN AR TRES W  DIS CAZ7
 SPBC HZ EP       17 1 37.82                             160   -0.0510 37.5 193 
 SPBC HN ES       17 1 49.99                             160   -0.0610 37.5 193 
 SPBC HZ I        17 1 50.84        18.4 0.44            156           37.5 193 
 PTB  HZ EP   1   17 1 39.87                             141   -0.47 7 80.0 320 
 PTB  HN ES   1   17 1 54.62                             141    0.18 7 80.0 320 
 PTB  HZ I        17 2 10.07         2.3 0.72            128           80.0 320 
 BAR2 SZ EP   1   17 1 43.22                             131   -0.17 7  112  53 
 BAR2 SZ ES   1   17 2  0.18                             131    0.29 7  112  53 
 BAR2 SZ I        17 2  1.66        16.8 0.36            132            112  53 
 GUY2CHZ EP   1   17 1 50.35                             118    0.47 7  173 241 
                                                                                
