 2010 1021 1039 50.7 L   7.000 -73.213132.0  RSN  6 0.2 1.9LRSN                1
 GAP=149        0.39       2.6     7.0  5.5 -0.1574E+01 -0.1113E+02 -0.2398E+01E
 Epicentro: GIRON - SANTANDER                                                  3
 ACTION:UP  11-02-18 11:11 OP:tino STATUS:               ID:20101021103950 L   I
 2010-10-21-1036-29S.COL___128                                                 6
 STAT SP IPHASW D HRMM SECON CODA AMPLIT PERI AZIMU VELO SNR AR TRES W  DIS CAZ7
 BTL  SZ EP   1   1040  8.72                             175     0.2 7   11 214 
 BAR2 SZ EP   1   1040  9.26                             160    -0.1 7   45 176 
 BAR2 SZ ES   2   1040 23.59                             160    -0.4 5   45 176 
 BAR2 SZ I        1040 24.89        18.4 0.21                            45 176 
 BRR  HN ES   2   1040 24.37                             155     0.1 5   56 282 
 GRA  SZ EP   1   1040 13.29                             138     0.1 7  108  25 
 GRA  SZ ES   2   1040 30.92                             138     0.1 5  108  25 
 RUS  HZ EP   1   1040 15.04                             135     0.1 7  123 173 
 RUS  HN ES   2   1040 34.01                             135     0.1 5  123 173 
 OCA  SZ EP   1   1040 15.58                             131    -0.2 7  138 355 
                                                                                
