 2011  421 1550  6.3 L   6.178 -74.198  8.0  RSN  7 0.6 1.8LRSN                1
 GAP=127        1.30       6.1     3.6 11.6 -0.5975E+01 -0.2979E+01 -0.6504E+00E
 Epicentro: CIMITARRA - SANTANDER                                              3
 ACTION:UP  11-06-22 15:32 OP:REBC STATUS:               ID:20110421155006 L   I
 2011-04-21-1549-16S.COL___139                                                 6
 STAT SP IPHASW D HRMM SECON CODA AMPLIT PERI AZIMU VELO SNR AR TRES W  DIS CAZ7
 BRR  HZ EP   1   1550 23.87                              92    -0.6 8  116  28 
 BRR  HN ES   1   1550 38.92                              92     0.2 8  116  28 
 BRR  HZ I        1550 39.48        18.4 0.13                           116  28 
 BAR2 SZ EP   1   1550 25.79                              92     0.2 8  121  68 
 BAR2 SZ I        1550 43.64        35.3 0.55                           121  68 
 RUS  HZ EP   1   1550 27.05                              92     0.3 8  127 104 
 RUS  HN ES   1   1550 41.94                              92    -0.7 8  127 104 
 RUS  HZ I        1550 42.83        13.1 0.26                           127 104 
 BTL  SZ EP   1   1550 28.06                              92     1.0 8  132  51 
 HEL  HZ EP       1550 29.81                              92     0.210  147 271 
 HEL  HN ES   1   1550 46.98                              92    -0.8 7  147 271 
 HEL  HZ I        1550 47.44         9.6 0.17                           147 271 
 GUY  SZ EP   1   1550 33.75                              56     0.8 7  169 231 
 PAM  SZ EP   2   1550 37.10                              56    -0.9 5  210  52 
 PAM  SN ES   1   1551  2.45                              56    -0.3 7  210  52 
                                                                                
