 2016  821 1040 59.6 L   6.841 -73.098150.5  RSN 25 0.5 2.8LRSN                1
 GAP= 53        1.19       3.0     2.9  4.8 -0.2029E+01  0.2757E+01  0.1105E+01E
 Epicentro: LOS SANTOS - SANTANDER                                             3
 ACTION:UPD 16-10-29 15:37 OP:rebc STATUS:               ID:20160821104059 L   I
 OLDACT:UP  16-08-23 05:39 OP:lv   STATUS:               ID:20160821104059 L   3
 OLDACT:UP  16-08-21 22:31 OP:ar   STATUS:               ID:20160821103746     3
 OLDACT:REG 16-08-21 20:48 OP:ar   STATUS:               ID:20160821103746     3
 2016-08-21-1037-46M.COL___343                                                 6
 STAT SP IPHASW D HRMM SECON CODA AMPLIT PERI AZIMU VELO AIN AR TRES W  DIS CAZ7
 BAR2 EZ IP     C 1041 19.86                             169   -0.0710 29.1 199 
 BAR2 EZ ES       1041 35.35                             169   -0.4310 29.1 199 
 BAR2 EZ I        1041 37.59        63.6 0.46                          29.1 199 
 PAM  EZ EP       1041 22.67                             154    0.7310 70.5  39 
 PAM  EN ES       1041 39.80                             154    0.4410 70.5  39 
 PAM  EZ I        1041 42.13       108.8 0.60                          70.5  39 
 BRR  HZ IP     C 1041 21.78                             152    0.3610 74.0 293 
 BRR  HE ES       1041 39.03                             152    0.5910 74.0 293 
 BRR  HZ I        1041 42.75       101.8 0.12                          74.0 293 
 RUS  HZ EP       1041 24.01                             144   -0.1210  105 179 
 RUS  HN ES       1041 42.37                             144   -0.8910  105 179 
 RUS  HZ I        1041 43.24        25.9 0.56                           105 179 
 TAM  HZ EP   2   1041 28.00                             132    0.69 5  151 107 
 TAM  HN ES       1041 49.58                             132    0.66 9  151 107 
 PTB  HZ EP       1041 26.80                             132   -0.71 9  154 258 
 PTB  HN ES       1041 48.48                             132   -0.80 9  154 258 
 PTB  HZ I        1041 50.42        63.7 0.20                           154 258 
 OCA  HZ EP       1041 28.06                             131    0.12 9  157 351 
 OCA  HN ES       1041 49.84                             131   -0.20 9  157 351 
 OCA  HZ I        1041 53.96        91.8 0.26                           157 351 
 SPBC HZ EP       1041 28.88                             129   -0.23 9  170 219 
 SPBC HN ES       1041 52.22                             129    0.09 9  170 219 
 SPBC HZ I        1041 55.82        81.8 0.34                           170 219 
 ZAR  HZ EP       1041 32.96                             123    0.26 8  207 290 
 ZAR  HN ES       1041 58.48                             123   -0.03 8  207 290 
 ZAR  HZ I        1042  4.56       130.1 0.36                           207 290 
 NOR  HZ EP       1041 36.17                             119   -0.18 8  242 234 
 NOR  HN ES       1042  4.37                             119   -0.65 8  242 234 
 NOR  HZ I        1042  8.83        50.1 0.12                           242 234 
 CHI  HZ EP       1041 38.00                             117   -0.19 8  254 196 
 CHI  HN ES       1042  8.99                             117    0.70 8  254 196 
 CHI  HZ I        1042 13.19        22.3 0.32                           254 196 
 ROSC BZ EP       1041 39.51                             117    0.81 8  259 212 
 ROSC BN ES   4   1042 11.79                             117    2.59 0  259 212 
 ROSC BZ I        1042 15.13        63.3 0.35                           259 212 
 HEL  HZ EP       1041 41.70                             115    0.95 7  278 255 
 HEL  HN ES       1042 13.17                             115    0.32 7  278 255 
 HEL  HZ I        1042 18.25        40.4 0.38                           278 255 
 URE  HZ EP       1041 40.59                             114   -0.68 7  287 291 
 URE  HN ES   4   1042 10.77                             114   -3.00 0  287 291 
 URE  HZ I        1042 14.08        42.7 0.14                           287 291 
 SOCV BZ EP       1041 42.52                             113    0.42 7  294  57 
 SOCV BN ES       1042 14.36                             113   -0.88 7  294  57 
 GUY2CHZ EP       1041 44.26                             113    0.05 7  308 235 
 GUY2CHN ES   4   1042 21.00                             113    1.99 0  308 235 
 GUY2CHZ I        1042 27.50        23.8 0.52                           308 235 
 VIL  EZ EP   2   1041 43.34                             112   -0.52 4  309 192 
 VIL  EN ES   4   1042 17.41                             112   -0.97 0  309 192 
 VIL  EZ I        1042 24.47        32.4 0.36                           309 192 
 PTGC HZ EP       1041 42.77                             112   -1.17 7  311 160 
 PTGC HN ES   4   1042 16.09                             112   -2.43 0  311 160 
 PTGC HZ I        1042 23.18        20.5 0.28                           311 160 
 CBOC HZ EP       1041 47.83                             110    0.38 7  340 252 
 CBOC HN ES       1042 25.43                             110    0.65 7  340 252 
 CBOC HZ I        1042 36.50        11.5 0.68                           340 252 
 DBB  EZ EP       1041 47.91                             110    0.06 7  344 273 
 DBB  EZ ES   4   1042 24.04                             110   -1.44 0  344 273 
 DBB  EZ I        1042 28.13        19.6 0.48                           344 273 
 ANIL HZ EP   4   1041 51.53                             109    1.14 0  364 225 
 ANIL HN ES       1042 30.20                             109    0.19 6  364 225 
 ANIL HZ I        1042 41.52        55.1 0.36                           364 225 
 PRA  HZ EP       1041 54.30                             107    0.24 6  399 210 
 PRA  HN ES       1042 36.63                             107    0.10 6  399 210 
 PRA  HZ I        1042 42.92        26.4 0.66                           399 210 
 SJC  HZ EP       1041 54.55                             106   -0.67 6  408 326 
 SJC  HN ES   4   1042 35.98                             106   -2.63 0  408 326 
 SJC  HZ I        1042 40.01         8.6 0.20                           408 326 
 PAL  HZ EP       1041 55.74                             106    0.01 6  413 239 
 PAL  HN ES       1042 39.59                             106    0.09 6  413 239 
 PAL  HZ I        1042 46.64         8.5 0.30                           413 239 
 CRJC HZ EP       1042  0.48                             104   -1.19 5  463   3 
 CRJC HN ES   4   1042 46.77                             104   -3.31 0  463   3 
 CRJC HZ I        1042 48.30         9.0 0.56                           463   3 
 MACC HZ EP   4   1042  6.62                             102   -2.44 0  526 189 
 MACC HN ES   4   1042 58.38                             102   -4.86 0  526 189 
                                                                                
