 2016  421 2000 13.1 L   6.797 -73.145145.5  RSN  8 0.4 1.9LRSN                1
 GAP=137        0.94       4.0     4.1  7.3 -0.1709E+01  0.1036E+02  0.3374E+01E
 Epicentro: LOS SANTOS - SANTANDER                                             3
 ACTION:UPD 16-05-05 14:23 OP:rebc STATUS:               ID:20160421195750 L   I
 OLDACT:UP  16-04-23 20:34 OP:ar   STATUS:               ID:20160421195750 L   3
 OLDACT:UP  16-04-23 20:33 OP:ar   STATUS:               ID:20160421195750 L   3
 OLDACT:UPD 16-04-23 10:44 OP:ak   STATUS:               ID:20160421195750 L   3
 2016-04-21-1957-50M.COL___315                                                 6
 STAT SP IPHASW D HRMM SECON CODA AMPLIT PERI AZIMU VELO AIN AR TRES W  DIS CAZ7
 BAR2 EZ EP       20 0 31.86                             171   -0.8510 23.0 190 
 BAR2 EZ ES       20 0 47.78                             171   -0.2110 23.0 190 
 BAR2 EZ I        20 0 50.60        16.8 0.44            168           23.0 190 
 PAM  EZ EP       20 0 35.47                             151    0.1510 77.6  39 
 PAM  EN ES       20 0 52.77                             151    0.1310 77.6  39 
 PAM  EZ I        20 0 55.17        12.6 0.62            156           77.6  39 
 RUS  HZ EP       20 0 37.17                             144    0.3510  100 176 
 RUS  HN ES       20 0 55.76                             144    0.4510  100 176 
 RUS  HZ I        20 0 57.06        10.0 0.38            146            100 176 
 PTB  HZ EP       20 0 40.32                             132    0.26 9  148 259 
 PTB  HN ES       20 1  0.73                             132   -0.35 9  148 259 
 PTB  HZ I        20 1  8.18        12.8 0.28            131            148 259 
 ZAR  HN ES       20 1 11.10                             122    0.23 9  204 292 
 ZAR  HZ I        20 1 17.76         7.9 0.54            123            204 292 
 NOR  HZ EP   2   20 0 49.08                             118    0.27 4  235 235 
 NOR  HN ES       20 1 16.89                             118    0.23 8  235 235 
 NOR  HZ I        20 1 26.16         6.2 0.16            119            235 235 
 CHI  HZ EP   2   20 0 49.91                             117   -0.86 4  248 195 
 CHI  HN ES       20 1 19.86                             117   -0.27 8  248 195 
 CHI  HZ I        20 1 25.60         3.7 0.22            119            248 195 
 GUY2CHZ EP   4   20 0 58.09                             112    1.39 0  301 235 
 GUY2CHN ES   4   20 1 33.09                             112    2.41 0  301 235 
 GUY2CHZ I        20 1 38.80         4.8 0.28                           301 235 
                                                                                
