 2013  521 1018 24.0 L   6.734 -73.130144.7  RSN  7 0.3 1.5LRSN                1
 GAP=141        0.76       3.6     4.4  5.2  0.2135E+01  0.5331E+01  0.1355E+01E
 Epicentro: JORDAN - SANTANDER                                                 3
 ACTION:UPD 13-06-20 09:52 OP:ep   STATUS:               ID:20130521101824 L   I
 2013-05-21-1016-51M.COL___212                                                 6
 STAT SP IPHASW D HRMM SECON CODA AMPLIT PERI AZIMU VELO AIN AR TRES W  DIS CAZ7
 BAR2 SZ EP       1018 43.58                             173    0.1910 16.7 200 
 BAR2 SZ ES       1018 58.72                             173    0.2110 16.7 200 
 BAR2 SZ I        1018 59.56         8.0 0.18            171           16.7 200 
 GIR2 SZ EP       1018 43.69                             164   -0.0810 38.8 350 
 GIR2 SZ ES       1018 58.98                             164   -0.2110 38.8 350 
 BRR  HZ EP       1018 45.48                             151    0.1410 76.4 303 
 BRR  HE ES       1019  2.27                             151    0.2910 76.4 303 
 BRR  HZ I        1019  4.10         6.3 0.32            151           76.4 303 
 PAM  SN ES   1   1019  3.36                             149   -0.50 7 82.1  35 
 PAM  SZ I        1019  3.89         6.4 0.20            152           82.1  35 
 RUS  HZ EP       1018 47.52                             146    0.3910 93.2 177 
 RUS  HN ES       1019  5.03                             146   -0.1310 93.2 177 
 RUS  HZ I        1019  7.06         2.5 0.30            146           93.2 177 
 PTB  HZ EP       1018 50.34                             132   -0.58 9  148 262 
 PTB  HN ES       1019 11.77                             132   -0.15 9  148 262 
 PTB  HZ I        1019 14.05         8.3 0.12            132            148 262 
 SML  HN ES   1   1019 30.84                             116    0.33 6  251 336 
                                                                                
