 2012  421 1409 11.2 L   6.022 -73.749110.6  RSN 12 0.2 2.6LRSN                1
 GAP= 78        0.57       1.7     2.0  4.2 -0.1374E+01  0.3109E+01  0.5468E+00E
 Epicentro: BOLIVAR - SANTANDER                                                3
 ACTION:UPD 12-07-05 11:55 OP:tino STATUS:               ID:20120421140911 L   I
 2012-04-21-1405-00S.COL___186                                                 6
 STAT SP IPHASW D HRMM SECON CODA AMPLIT PERI AZIMU VELO AIN AR TRES W  DIS CAZ7
 RUS  HZ EP       14 9 29.66                             144     0.010   75 101 
 RUS  HZ I        14 9 30.15        53.0 0.28                            75 101 
 RUS  HE ES   1   14 9 43.84                             144    -0.2 7   75 101 
 BAR2 SZ EP       14 9 30.65                             138     0.310   89  45 
 BAR2 SZ ES       14 9 45.43                             138     0.210   89  45 
 BAR2 SZ I        14 9 46.72       386.6 0.06                            89  45 
 BRR  HZ EP       14 9 32.86                             129     0.110  120   2 
 BRR  HE ES       14 9 49.64                             129     0.010  120   2 
 BRR  HZ I        14 9 51.60        61.8 0.18                           120   2 
 NOR  SZ EP       14 9 34.28                             125     0.110  134 248 
 NOR  SE ES       14 9 52.08                             125    -0.110  134 248 
 CHI  HZ EP   1   14 9 36.56                             122    -0.1 7  154 179 
 CHI  HN ES   1   14 9 56.29                             122    -0.3 7  154 179 
 PAM  SZ EP       14 9 40.22                             116     0.0 9  186  38 
 PAM  SE ES       1410  2.66                             116    -0.3 9  186  38 
 HEL  HZ EP       14 9 41.47                             114     0.1 9  198 276 
 HEL  HZ I        1410  9.41        56.8 0.48                           198 276 
 GUY  SZ EP       14 9 42.43                             114     0.5 9  202 244 
 GUY  SN ES   1   1410  6.17                             114     0.2 6  202 244 
 GUY  SZ I        1410 10.30        64.9 0.47                           202 244 
 ZAR  HZ EP       14 9 41.09                             113    -0.5 9  204 323 
 ZAR  HN ES   1   1410  4.88                             113    -0.4 6  204 323 
 ZAR  HZ I        1410  9.06        27.5 0.22                           204 323 
 RREF HZ EP   1   14 9 43.70                             112    -0.1 6  216 235 
 RREF HN ES   1   1410  9.04                             112    -0.1 6  216 235 
 RREF HZ I        1410 16.73        30.4 0.28                           216 235 
 TOL  SZ EP       14 9 45.57                             110     0.0 8  236 228 
 PRA  HZ EP       14 9 50.88                             106     0.0 7  285 206 
 PRA  HN ES   1   1410 21.77                             106    -0.2 6  285 206 
                                                                                
