 2011  321 1955 51.5 L   6.746 -73.147151.5  RSN  5 0.4 1.8LRSN                1
 GAP=159        0.67       4.4     8.0  8.5 -0.1945E+02  0.2976E+02 -0.1235E+02E
 Epicentro: JORDAN - SANTANDER                                                 3
 ACTION:UP  11-06-16 14:35 OP:jfem STATUS:               ID:20110321195551 L   I
 2011-03-21-1940-00M.COL___138                                                 6
 STAT SP IPHASW D HRMM SECON CODA AMPLIT PERI AZIMU VELO SNR AR TRES W  DIS CAZ7
 BAR2 SZ ES   2   1956 27.41                             173    -0.1 5   18 193 
 BAR2 SZ I        1956 30.02        15.8 0.50                            18 193 
 RUS  HZ EP   1   1956 15.24                             147    -0.2 7   95 176 
 RUS  HN ES       1956 34.11                             147     0.010   95 176 
 RUS  HZ I        1956 36.56         9.0 0.37                            95 176 
 GRA  SZ EP   1   1956 18.23                             137     0.5 7  132  17 
 GRA  SZ ES   1   1956 38.03                             137    -0.2 7  132  17 
 GRA  SZ I        1956 40.74         6.8 0.50                           132  17 
 NOR  SZ EP   2   1956 26.31                             120    -0.9 4  231 236 
 NOR  SN ES   1   1956 55.39                             120     0.3 6  231 236 
 CHI  HZ EP   2   1956 29.10                             119     0.2 4  243 196 
                                                                                
