 2010  721 1850  5.4 L   6.778 -73.063146.3  RSN  5 0.2 1.9LRSN                1
 GAP=168        0.46       5.0     9.0  6.4  0.2468E+02 -0.2515E+02 -0.4087E+01E
 Epicentro: LOS SANTOS - SANTANDER                                             3
 ACTION:UPD 10-12-01 15:19 OP:pat  STATUS:               ID:20100721185005 L   I
 2010-07-21-1847-12S.COL___122                                                 6
 STAT SP IPHASW D HRMM SECON CODA AMPLIT PERI AZIMU VELO AIN AR TRES W  DIS CAZ7
 BAR2 SZ EP   2   1850 24.97                             170    -0.1 5   25 213 
 BAR2 SZ ES   2   1850 40.05                             170    -0.4 5   25 213 
 BAR2 SZ I        1850 42.74        20.3 0.31                            25 213 
 BRR  HZ EP   1   1850 27.04                             150    -0.1 7   80 297 
 BRR  HE ES   1   1850 44.24                             150     0.1 7   80 297 
 BRR  HZ I        1850 48.32        16.2 0.11                            80 297 
 RUS  HZ EP       1850 29.02                             145     0.010   98 181 
 RUS  HE ES   2   1850 47.77                             145     0.3 5   98 181 
 RUS  HZ I        1850 48.72        10.2 0.32                            98 181 
 GRA  SZ EP   2   1850 30.88                             137     0.2 5  126  13 
 GRA  SZ I        1850 51.55        10.9 0.29                           126  13 
 PRA  HZ EP   2   1850 59.10                             106    -0.1 3  395 211 
 PRA  HZ I        1851 48.50         3.5 0.38                           395 211 
                                                                                
