 2011  221 1635 29.6 L   6.802 -73.036147.8  RSN  5 0.2 1.6LRSN                1
 GAP=171        0.45       6.0    24.6  7.0 -0.1277E+03 -0.5938E+02  0.1775E+02E
 Epicentro: CEPITA - SANTANDER                                                 3
 ACTION:UP  11-03-28 15:10 OP:jfem STATUS:               ID:20110221163530 L   I
 2011-02-21-1633-34S.COL___135                                                 6
 STAT SP IPHASW D HRMM SECON CODA AMPLIT PERI AZIMU VELO SNR AR TRES W  DIS CAZ7
 BAR2 SZ EP       1635 49.60                             169     0.110   28 215 
 BAR2 SZ ES   2   1636  4.81                             169    -0.3 5   28 215 
 BAR2 SZ I        1636  6.43         9.3 0.29                            28 215 
 GIR2 SZ EP   2   1635 49.82                             166     0.2 5   35 330 
 RUS  HZ EP       1635 53.58                             144     0.110  101 183 
 RUS  HZ I        1636 13.98         2.9 0.23                           101 183 
 GRA  SZ EP       1635 54.54                             138    -0.210  122  12 
 GRA  SZ ES   1   1636 14.47                             138     0.1 7  122  12 
 GRA  SZ I        1636 16.41         7.4 0.41                           122  12 
 CHI  HZ EP   2   1636  7.63                             117    -0.1 4  252 198 
 CHI  HZ I        1636 50.96         3.8 0.81                           252 198 
                                                                                
