 2014 1221 1757 10.3 L   6.809 -73.156141.1  RSN 10 0.4 1.7LRSN                1
 GAP=135        1.08       3.1     4.5  7.1 -0.3471E+00  0.7547E+01  0.1381E+01E
 Epicentro: LOS SANTOS - SANTANDER                                             3
 ACTION:UPD 15-02-10 17:06 OP:nd   STATUS:               ID:20141221175710 L   I
 OLDACT:REG 14-12-21 22:00 OP:fm   STATUS:               ID:20141221174748     3
 2014-12-21-1747-48M.COL___296                                                 6
 STAT SP IPHASW D HRMM SECON CODA AMPLIT PERI AZIMU VELO AIN AR TRES W  DIS CAZ7
 BAR2 EZ EP       1757 29.55                             170    0.1810 24.1 187 
 BAR2 EZ ES       1757 44.22                             170   -0.0410 24.1 187 
 BAR2 EZ I        1757 45.82         7.8 0.18            169           24.1 187 
 BRR  HZ EP       1757 31.37                             152    0.5310 69.7 298 
 BRR  HN ES       1757 47.19                             152    0.3110 69.7 298 
 BRR  HZ I        1757 52.72         6.4 0.42            149           69.7 298 
 PAM  SZ EP     D 1757 32.26                             150    0.2510 77.4  41 
 PAM  SE ES       1757 48.88                             150   -0.0710 77.4  41 
 PAM  SZ I        1757 51.80         6.4 0.48            154           77.4  41 
 RUS  HZ EP       1757 33.58                             142   -0.0810  102 175 
 RUS  HN ES       1757 51.95                             142    0.0610  102 175 
 RUS  HZ I        1757 53.04         4.2 0.60            146            102 175 
 PTB  HZ EP       1757 36.59                             131   -0.20 9  147 258 
 PTB  HN ES       1757 57.24                             131   -0.22 9  147 258 
 PTB  HZ I        1758  3.40         5.3 0.18            131            147 258 
 OCA  HE ES       1757 59.42                             129   -0.43 9  159 354 
 OCA  HZ I        1758  6.21         9.0 0.30            130            159 354 
 SPBC HZ EP       1757 38.43                             128   -0.00 9  163 218 
 SPBC HN ES       1757 59.46                             128   -0.93 9  163 218 
 SPBC HZ I        1758  6.29         7.0 0.20            129            163 218 
 ZAR  HN ES       1758  8.15                             121    0.92 9  203 292 
 ZAR  HZ I        1758 14.59         6.2 0.30            122            203 292 
 SML  HN ES       1758 13.94                             117   -0.81 8  242 335 
 SML  HZ I        1758 19.29        11.3 0.26            118            242 335 
 CHI  HN ES       1758 17.37                             116    0.31 8  249 195 
 CHI  HZ I        1758 22.45         2.7 0.76            118            249 195 
 SJC  HZ EP   4   1758  3.21                             105   -2.32 0  408 327 
 SJC  HN ES   4   1758 45.00                             105   -3.61 0  408 327 
                                                                                
