 2017  221 1930 44.6 L   6.832 -73.204144.1  RSN  5 0.4 1.7LRSN                1
 GAP=148        0.93       4.6     5.3  6.9 -0.6859E+01  0.8227E+01  0.4942E+01E
 Epicentro: ZAPATOCA - SANTANDER                                               3
 ACTION:UPD 17-05-24 15:39 OP:jn   STATUS:               ID:20170221193044 L   I
 OLDACT:REG 17-02-21 21:36 OP:cog  STATUS:               ID:20170221191546     3
 2017-02-21-1928-00M.COL___382                                                 6
 STAT SP IPHASW D HRMM SECON CODA AMPLIT PERI AZIMU VELO AIN AR TRES W  DIS CAZ7
 BAR2 EZ EP       1931  4.45                             169    0.4010 26.6 175 
 BAR2 EZ ES       1931 18.67                             169   -0.5910 26.6 175 
 BAR2 EZ I        1931 21.03        12.0 0.34            170           26.6 175 
 PAM  EZ EP       1931  6.92                             150    0.2210 79.1  45 
 PAM  EN ES       1931 24.10                             150    0.1310 79.1  45 
 PAM  EZ I        1931 26.10        14.1 0.48            153           79.1  45 
 RUS  HZ EP       1931  7.91                             142   -0.5310  105 173 
 RUS  HN ES       1931 27.38                             142    0.3010  105 173 
 RUS  HZ I        1931 27.84         8.1 0.34            144            105 173 
 PTB  HZ EP       1931 10.74                             133   -0.14 9  142 257 
 PTB  HN ES       1931 31.58                             133    0.16 9  142 257 
 PTB  HZ I        1931 35.69         5.0 0.14            133            142 257 
 CHI  HZ EP       1931 22.01                             116   -0.35 8  250 194 
 CHI  HE ES       1931 52.28                             116    0.44 8  250 194 
 CHI  HZ I        1931 54.98         3.8 0.44            118            250 194 
                                                                                
