 2017  521 1646 28.9 L   6.771 -73.152143.7  RSN  7 0.5 2.1LRSN                1
 GAP=235        0.99       5.4     6.7  7.6  0.1680E+02  0.1792E+01 -0.1457E+01E
 Epicentro: LOS SANTOS - SANTANDER                                             3
 ACTION:UPD 17-06-16 13:37 OP:jn   STATUS:               ID:20170521164628 L   I
 OLDACT:UP  17-05-21 22:58 OP:cog  STATUS:               ID:20170521163737d    3
 OLDACT:DUP 17-05-21 22:48 OP:cog  STATUS:               ID:20170521163737d    3
 2017-05-21-1638-00M.COL___365                                                 6
 STAT SP IPHASW D HRMM SECON CODA AMPLIT PERI AZIMU VELO AIN AR TRES W  DIS CAZ7
 BRR  HZ EP       1646 49.82                             152   -0.0610 72.2 301 
 BRR  HN ES       1647  6.82                             152    0.5810 72.2 301 
 BRR  HZ I        1647  7.53        23.9 0.14            146           72.2 301 
 RUS  HZ EP       1646 52.21                             144   -0.0110 97.5 176 
 RUS  HE ES       1647 10.09                             144   -0.3210 97.5 176 
 RUS  HZ I        1647 12.92        14.7 0.22            141           97.5 176 
 PTB  HZ EP       1646 54.71                             132   -0.88 9  147 260 
 PTB  HN ES       1647 15.97                             132   -0.43 9  147 260 
 PTB  HZ I        1647 23.08        18.5 0.42            127            147 260 
 SPBC HZ EP       1646 57.27                             129    0.30 9  160 220 
 SPBC HN ES       1647 19.26                             129    0.40 9  160 220 
 ZAR  HZ EP       1647  1.41                             122    0.14 9  205 293 
 ZAR  HN ES       1647 26.35                             122   -0.17 9  205 293 
 ZAR  HZ I        1647 31.87        18.4 0.58            120            205 293 
 NOR  HZ EP       1647  4.73                             118    0.48 8  232 235 
 NOR  HN ES   3   1647 32.77                             118    0.94 2  232 235 
 NOR  HZ I        1647 40.20         6.9 0.14            116            232 235 
 HEL  HZ EP   3   1647  9.93                             115    1.08 2  271 256 
 HEL  HN ES   4   1647 37.18                             115   -2.83 0  271 256 
 HEL  HZ I        1647 46.12         5.5 0.44            113            271 256 
                                                                                
