 2011  521 1027 49.9 L   6.792 -73.136141.0  RSN 16 0.6 2.8LRSN                1
 GAP=127        1.17       4.4     5.9  6.3 -0.1221E+02  0.8373E+01  0.2375E+01E
 Epicentro: LOS SANTOS - SANTANDER                                             3
 ACTION:UP  11-06-29 08:55 OP:tino STATUS:               ID:20110521102749 L   I
 2011-05-21-1026-44S.COL___141                                                 6
 STAT SP IPHASW D HRMM SECON CODA AMPLIT PERI AZIMU VELO SNR AR TRES W  DIS CAZ7
 BTL  SZ EP       1028  9.00                             171     0.110   20 314 
 BAR2 SZ IP       1028  8.84                             170    -0.110   23 193 
 BAR2 SZ ES   1   1028 23.40                             170    -0.4 7   23 193 
 BAR2 SZ I        1028 24.54       218.1 0.24                            23 193 
 GIR2 SZ IP       1028  8.94                             166    -0.110   32 349 
 GIR2 SZ ES   1   1028 24.09                             166     0.2 7   32 349 
 BRR  HZ IP     C 1028 10.78                             151     0.210   73 299 
 BRR  HZ I        1028 11.14       200.4 0.11                            73 299 
 BRR  HN ES   1   1028 27.71                             151     1.0 7   73 299 
 PAM  SZ IP     D 1028 11.89                             150     0.310   77  39 
 PAM  SN ES   1   1028 28.53                             150     0.0 7   77  39 
 RUS  HZ EP       1028 13.06                             143     0.010  100 177 
 RUS  HN ES   1   1028 30.83                             143    -0.4 7  100 177 
 RUS  HZ I        1028 32.84        48.9 0.43                           100 177 
 BRI  SZ IP       1028 13.55                             140     0.210  109  20 
 BRI  SZ ES   1   1028 31.77                             140     0.1 7  109  20 
 GRA  SZ IP       1028 14.86                             136     0.110  126  17 
 GRA  SZ ES   1   1028 34.08                             136    -0.1 7  126  17 
 GRA  SZ I        1028 35.41       144.1 0.37                           126  17 
 OCA  SZ EP       1028 17.59                             128    -0.3 9  161 353 
 OCA  SZ ES   1   1028 39.04                             128    -0.7 7  161 353 
 OCA  SZ I        1028 42.71       110.2 0.41                           161 353 
 NOR  SZ EP       1028 25.30                             117    -0.1 8  235 235 
 NOR  SN ES   1   1028 52.29                             117    -0.8 6  235 235 
 ROSC BZ EP   2   1028 28.11                             116     0.4 4  253 211 
 ROSC BN ES   3   1028 57.41                             116     0.2 2  253 211 
 HEL  HZ EP       1028 30.86                             114     0.9 8  273 256 
 HEL  HN ES   1   1028 59.60                             114    -1.6 6  273 256 
 HEL  HZ I        1029  7.93        25.3 0.28                           273 256 
 DBB  SZ EP       1028 36.97                             108    -0.3 7  341 274 
 TOL  SZ EP   1   1028 39.72                             108     1.8 5  344 225 
 SDV  BZ EP       1028 38.62                             107    -1.1 6  360  50 
 PRA  HZ EP       1028 43.43                             106     0.2 6  392 210 
 PRA  HN ES   1   1029 24.59                             106    -0.2 4  392 210 
 SJC  HZ EP   4   1028 43.69                             105    -1.7 0  411 327 
                                                                                
