 2013 1021 1705 29.4 L   6.788 -73.153150.7  RSN  6 0.5 1.8LRSN                1
 GAP=236        1.18       6.7     7.2  8.3  0.1690E+02  0.8534E+01 -0.9840E-01E
 Epicentro: LOS SANTOS - SANTANDER                                             3
 ACTION:UPD 13-11-25 09:22 OP:ep   STATUS:               ID:20131021170529 L   I
 OLDACT:UP  13-10-21 16:56 OP:cam  STATUS:               ID:20131021165849     3
 OLDACT:REG 13-10-21 16:04 OP:cam  STATUS:               ID:20131021165849     3
 2013-10-21-1658-49M.COL___212                                                 6
 STAT SP IPHASW D HRMM SECON CODA AMPLIT PERI AZIMU VELO AIN AR TRES W  DIS CAZ7
 BAR2 SZ EP       17 5 49.37                             171   -0.1910 21.9 188 
 BAR2 SZ ES       17 6  4.95                             171   -0.3610 21.9 188 
 BAR2 SZ I        17 6  5.69        21.0 0.42            164           21.9 188 
 BRR  HZ EP       17 5 51.07                             153    0.0310 71.1 300 
 BRR  HE ES       17 6  8.57                             153    0.6210 71.1 300 
 BRR  HZ I        17 6 11.50        15.8 0.36            148           71.1 300 
 RUS  HZ EP       17 5 53.64                             145    0.1310 99.3 176 
 RUS  HN ES       17 6 12.37                             145    0.0210 99.3 176 
 RUS  HZ I        17 6 12.98         4.3 0.28            144           99.3 176 
 PTB  HZ EP       17 5 55.87                             133   -0.77 9  147 259 
 PTB  HN ES       17 6 17.12                             133   -0.80 9  147 259 
 PTB  HZ I        17 6 24.06         7.3 0.56            130            147 259 
 SPBC HZ EP       17 5 58.26                             130    0.16 9  162 219 
 SPBC HN ES       17 6 21.20                             130    0.69 9  162 219 
 SPBC HZ I        17 6 28.04         5.2 0.38            128            162 219 
 ZAR  HZ EP   1   17 6  2.86                             124    0.76 6  204 293 
 ZAR  HE ES   1   17 6 27.87                             124    0.23 6  204 293 
 ZAR  HZ I        17 6 32.89         5.9 0.42            122            204 293 
                                                                                
