 2017 1121 1941 28.6 L   5.947 -73.802108.0  RSN  7 0.3 1.5LRSN                1
 GAP= 83        0.80       2.4     2.7  6.5  0.6145E-01  0.6158E+01  0.2462E+01E
 Epicentro: SUCRE - SANTANDER                                                  3
 ACTION:UPD 17-12-12 19:58 OP:rebc STATUS:               ID:20171121194128 L   I
 OLDACT:REG 17-11-21 21:31 OP:osc  STATUS:               ID:20171121192641     3
 2017-11-21-1938-00M.COL___486                                                 6
 STAT SP IPHASW D HRMM SECON CODA AMPLIT PERI AZIMU VELO AIN AR TRES W  DIS CAZ7
 RUS  HZ IP       1941 46.99                             141   -0.1310 79.8  94 
 RUS  HN ES       1942  1.76                             141    0.1710 79.8  94 
 RUS  HZ I        1942  3.64         4.6 0.22            142           79.8  94 
 PTB  HZ EP       1941 47.45                             135   -0.4810 97.6 312 
 PTB  HN ES       1942  3.13                             135    0.1110 97.6 312 
 PTB  HZ I        1942  3.32         5.8 0.16            136           97.6 312 
 BAR2 EZ EP       1941 48.37                             135    0.0310 98.9  44 
 BAR2 EZ ES       1942  4.02                             135    0.2610 98.9  44 
 NOR  HZ IP     D 1941 50.36                             127   -0.2110  126 250 
 NOR  HE ES       1942  8.06                             127    0.3310  126 250 
 NOR  HZ I        1942  9.08        12.4 0.28            126            126 250 
 CHI  HN ES       1942 11.63                             123   -0.58 9  146 177 
 CHI  HZ I        1942 16.58         2.6 0.36            122            146 177 
 ZAR  HZ EP       1941 59.27                             112    0.07 8  207 326 
 ZAR  HE ES       1942 22.89                             112   -0.20 8  207 326 
 ZAR  HZ I        1942 26.19         5.2 0.26            113            207 326 
 PRA  HZ EP       1942  7.65                             106    0.59 8  275 206 
 PRA  HE ES       1942 37.47                             106    0.38 8  275 206 
 PRA  HZ I        1942 42.71         2.9 0.38            106            275 206 
                                                                                
