 2013  821 1516 35.4 L   7.421 -73.279118.9  RSN  6 0.4 1.7LRSN                1
 GAP=260        1.00       9.5     6.6  7.8  0.3907E+02 -0.8573E+01 -0.1980E+02E
 Epicentro: EL PLAYON - SANTANDER                                              3
 ACTION:UPD 14-01-14 09:05 OP:ep   STATUS:               ID:20130821151635 L   I
 OLDACT:UP  13-08-21 18:33 OP:stll STATUS:               ID:20130821150851d    3
 OLDACT:DUP 13-08-21 18:23 OP:stll STATUS:               ID:20130821150851d    3
 2013-08-21-1508-50M.COL___201                                                 6
 STAT SP IPHASW D HRMM SECON CODA AMPLIT PERI AZIMU VELO AIN AR TRES W  DIS CAZ7
 BRR  HZ EP       1516 52.67                             152   -0.2510 59.0 234 
 BRR  HN ES       1517  6.55                             152   -0.0610 59.0 234 
 BRR  HZ I        1517  8.18        14.1 0.28             94           59.0 234 
 BAR2 SZ EP       1516 55.66                             140    0.1110 92.3 173 
 BAR2 SZ ES       1517 11.36                             140    0.0610 92.3 173 
 BAR2 SZ I        1517 12.57        34.9 0.14             43           92.3 173 
 PTB  HZ EP       1517  1.21                             122   -0.58 9  163 233 
 PTB  HN ES       1517 22.05                             122   -0.35 9  163 233 
 PTB  HZ I        1517 24.77         7.3 0.42             37            163 233 
 RUS  HZ EP       1517  3.53                             121    0.30 9  170 173 
 RUS  HZ I        1517 27.53         2.0 0.46             37            170 173 
 ZAR  HZ EP       1517  2.60                             120   -0.42 9  174 273 
 ZAR  HN ES       1517 25.41                             120    0.82 9  174 273 
 ZAR  HZ I        1517 28.81         6.2 0.10             37            174 273 
 SPBC HZ EP       1517  7.95                             114    0.49 8  214 204 
 SPBC HZ I        1517 43.79         5.8 0.20             37            214 204 
                                                                                
