 2014 1121 1137 19.6 L   6.518 -73.529114.1  RSN 10 0.4 1.7LRSN                1
 GAP= 68        1.00       3.5     3.7  7.5 -0.4318E+01  0.9358E+01  0.1555E+00E
 Epicentro: EL CARMEN - SANTANDER                                              3
 ACTION:UPD 14-12-19 15:45 OP:nd   STATUS:               ID:20141121113719 L   I
 OLDACT:REG 14-11-21 21:14 OP:spq  STATUS:               ID:20141121112750     3
 2014-11-21-1127-50M.COL___304                                                 6
 STAT SP IPHASW D HRMM SECON CODA AMPLIT PERI AZIMU VELO AIN AR TRES W  DIS CAZ7
 BAR2 SZ EP       1137 36.06                             160    0.1010 39.2  78 
 BAR2 SZ ES   1   1137 48.81                             160    0.08 7 39.2  78 
 BRR  HZ EP       1137 37.09                             147   -0.1210 68.2 343 
 BRR  HN ES       1137 51.20                             147    0.2410 68.2 343 
 BRR  HZ I        1137 53.84        15.1 0.44            150           68.2 343 
 RUS  HZ EP       1137 39.38                             141    0.2710 85.0 144 
 RUS  HE ES   1   1137 54.65                             141    0.31 7 85.0 144 
 RUS  HZ I        1137 56.37         6.9 0.20            144           85.0 144 
 PTB  HZ EP     D 1137 38.99                             135   -0.9010  103 271 
 PTB  HN ES   4   1137 53.87                             135   -1.86 0  103 271 
 PTB  HZ I        1137 55.40        14.9 0.07            136            103 271 
 SPBC HE ES       1137 57.56                             132   -0.0110  113 212 
 SPBC HZ I        1138  4.62        11.3 0.24            133            113 212 
 PAM  SZ EP       1137 42.90                             128   -0.0510  129  45 
 PAM  SN ES       1138  0.81                             128   -0.3710  129  45 
 PAM  SZ I        1138  1.93         6.0 0.22            133            129  45 
 NOR  HZ EP       1137 48.56                             118    0.73 9  182 235 
 NOR  HE ES       1138  9.20                             118   -0.66 9  182 235 
 NOR  HZ I        1138 13.72         5.7 0.38            119            182 235 
 ZAR  HZ EP   1   1137 48.30                             118    0.53 7  182 306 
 ZAR  HN ES   1   1138 10.19                             118    0.42 7  182 306 
 ZAR  HZ I        1138 14.94        10.3 0.36            120            182 306 
 HEL  HZ EP   4   1137 55.19                             112    2.30 0  224 261 
 HEL  HN ES   1   1138 19.22                             112    0.34 6  224 261 
 HEL  HZ I        1138 22.54         3.6 0.58            114            224 261 
 TOL  SN ES   1   1138 32.52                             106   -0.14 5  292 223 
 TOL  SZ I        1138 36.82         6.8 0.78            108            292 223 
                                                                                
