 2013  421 1337 55.2 L   6.743 -73.178144.3  RSN  6 0.3 1.6LRSN                1
 GAP=135        0.84       4.4     4.2  6.3 -0.2329E+01  0.1804E+01  0.5920E+01E
 Epicentro: VILLANUEVA - SANTANDER                                             3
 ACTION:UPD 13-05-22 14:39 OP:EP   STATUS:               ID:20130421133755 L   I
 2013-04-21-1328-43M.COL___212                                                 6
 STAT SP IPHASW D HRMM SECON CODA AMPLIT PERI AZIMU VELO AIN AR TRES W  DIS CAZ7
 BAR2 SZ EP       1338 14.64                             173    0.0910 16.7 182 
 GIR2 SZ EP       1338 14.74                             165   -0.1410 37.1 357 
 GIR2 SZ ES       1338 30.10                             165   -0.1310 37.1 357 
 BRR  HZ EP       1338 16.41                             152    0.2010 71.4 304 
 BRR  HN ES       1338 33.26                             152    0.6610 71.4 304 
 BRR  HN I        1338 34.08         7.8 0.32            152           71.4 304 
 PAM  SZ EP       1338 17.68                             148   -0.0310 84.5  39 
 PAM  SN ES       1338 34.96                             148   -0.3110 84.5  39 
 RUS  HZ EP       1338 18.46                             145    0.0610 94.7 174 
 RUS  HN ES       1338 36.58                             145    0.0910 94.7 174 
 PTB  HZ EP       1338 21.74                             133    0.10 9  143 261 
 PTB  HN ES       1338 41.59                             133   -0.67 9  143 261 
                                                                                
