 2012  721 1707 20.7 L   6.783 -74.006 81.8  RSN 10 0.5 2.1LRSN                1
 GAP= 75        1.29       4.9     3.7 10.3  0.2252E+01 -0.1126E-01  0.1109E+02E
 Epicentro: PUERTO PARRA - SANTANDER                                           3
 ACTION:UPD 12-08-14 11:46 OP:ep   STATUS:               ID:20120721170720 L   I
 2012-07-21-1700-00M.COL___215                                                 6
 STAT SP IPHASW D HRMM SECON CODA AMPLIT PERI AZIMU VELO AIN AR TRES W  DIS CAZ7
 BRR  HZ IP     D 17 7 33.46                             146    -0.310   48  42 
 BRR  HN ES   1   17 7 44.44                             146     0.6 7   48  42 
 BRR  HZ I        17 7 45.79        74.6 0.14            136             48  42 
 PTB  HZ EP       17 7 33.66                             142    -0.710   57 242 
 PTB  HN ES   1   17 7 44.27                             142    -0.7 7   57 242 
 PTB  HZ I        17 7 44.55        27.8 0.11            123             57 242 
 BAR2 SZ EP   1   17 7 37.64                             127    -0.3 7   94 103 
 BAR2 SZ ES   1   17 7 51.28                             127     0.0 7   94 103 
 BAR2 SZ I        17 7 52.14        59.5 0.24            114             94 103 
 ZAR  HZ EP   1   17 7 40.14                             119    -0.5 7  122 310 
 ZAR  HN ES       17 7 56.76                             119     0.710  122 310 
 RUS  HZ EP       17 7 42.99                             115    -0.4 9  142 134 
 RUS  HN ES       17 8  1.60                             115     0.6 9  142 134 
 RUS  HZ I        17 8  1.95        11.2 0.15            103            142 134 
 PAM  SZ EP   1   17 7 44.65                             112    -0.4 7  157  67 
 PAM  SN ES       17 8  4.20                             112     0.2 9  157  67 
 NOR  SZ EP   1   17 7 45.84                             111     0.4 7  165 215 
 OCA  HN ES   2   17 8  7.10                             109    -0.5 4  178  25 
 OCA  HZ I        17 8  9.49        27.6 0.18             99            178  25 
 HEL  HZ EP   1   17 7 48.54                             109     0.9 7  181 249 
 HEL  HZ I        17 8 12.72        10.5 0.33             98            181 249 
 CHI  HZ EP   1   17 7 55.33                             104     0.6 6  240 173 
