 2016 1221 1552 59.6 L   6.780 -73.169145.6  RSN  5 0.2 1.4LRSN                1
 GAP=134        0.67       3.6     3.4  4.9 -0.1138E+01  0.2015E+01  0.7447E+00E
 Epicentro: LOS SANTOS - SANTANDER                                             3
 ACTION:UPD 17-01-11 20:17 OP:rebc STATUS:               ID:20161221155259 L   I
 OLDACT:UP  16-12-21 23:13 OP:dani STATUS:               ID:20161221154746d    3
 OLDACT:DUP 16-12-21 23:10 OP:dani STATUS:               ID:20161221154746d    3
 2016-12-21-1548-00M.COL___372                                                 6
 STAT SP IPHASW D HRMM SECON CODA AMPLIT PERI AZIMU VELO AIN AR TRES W  DIS CAZ7
 BAR2 EZ EP       1553 18.93                             171   -0.1910 20.8 184 
 BAR2 HN ES       1553 34.27                             171   -0.1110 20.8 184 
 BAR2 EZ I        1553 36.00         7.9 0.26            172           20.8 184 
 BRR  HZ EP       1553 21.10                             153    0.4810 70.0 301 
 BRR  HN ES       1553 37.34                             153    0.2910 70.0 301 
 PAM  EZ EP       1553 21.80                             150   -0.1510 80.7  40 
 PAM  EE ES       1553 39.28                             150   -0.1510 80.7  40 
 PAM  EZ I        1553 40.93         4.8 0.52            151           80.7  40 
 RUS  HZ EP       1553 23.32                             144    0.1710 98.6 174 
 RUS  HE ES       1553 41.67                             144    0.1210 98.6 174 
 RUS  HZ I        1553 42.35         3.1 0.30            146           98.6 174 
 PTB  HZ EP       1553 26.03                             133   -0.21 9  145 259 
 PTB  HN ES       1553 46.74                             133   -0.32 9  145 259 
 PTB  HZ I        1553 48.69         2.3 0.19            134            145 259 
                                                                                
