 2013 1021 1403 22.2 L   6.781 -73.081150.9  RSN  6 0.4 2.1LRSN                1
 GAP=206        0.95       6.0     8.8  7.7  0.2927E+02  0.1891E+01 -0.1785E+02E
 Epicentro: LOS SANTOS - SANTANDER                                             3
 ACTION:UPD 13-11-25 09:22 OP:ep   STATUS:               ID:20131021140322 L   I
 OLDACT:UP  13-10-21 16:36 OP:cam  STATUS:               ID:20131021135850d    3
 OLDACT:DUP 13-10-21 16:33 OP:cam  STATUS:               ID:20131021135850d    3
 OLDACT:UP  13-10-21 16:33 OP:cam  STATUS:               ID:20131021135849     3
 OLDACT:REG 13-10-21 15:45 OP:cam  STATUS:               ID:20131021135849     3
 2013-10-21-1358-49M.COL___215                                                 6
 STAT SP IPHASW D HRMM SECON CODA AMPLIT PERI AZIMU VELO AIN AR TRES W  DIS CAZ7
 BAR2 SZ EP       14 3 42.63                             171    0.1910 23.7 208 
 BAR2 SZ ES       14 3 57.84                             171   -0.4010 23.7 208 
 BAR2 SZ I        14 3 58.61        16.2 0.22            173           23.7 208 
 BRR  HZ EP       14 3 44.88                             151    0.5710 78.5 297 
 BRR  HN ES       14 4  2.00                             151    0.4310 78.5 297 
 RUS  HN ES       14 4  4.99                             146   -0.0810 98.2 180 
 RUS  HN I        14 4  6.23        17.8 0.30            148           98.2 180 
 PTB  HZ EP       14 3 49.68                             132   -0.49 9  154 260 
 PTB  HN ES   4   14 4  9.83                             132   -2.18 0  154 260 
 PTB  HZ I        14 4 14.35         5.0 0.14            132            154 260 
 ZAR  HE ES       14 4 21.89                             122   -0.01 8  211 292 
 ZAR  HE I        14 4 23.75        34.0 0.20            122            211 292 
 SML  HZ EP       14 3 59.72                             118    0.08 8  249 334 
 SML  HE ES       14 4 28.31                             118   -0.55 8  249 334 
 SML  HZ I        14 4 37.38         8.4 0.26            118            249 334 
                                                                                
