 2016  421 1841  4.4 L   6.800 -73.150142.0  RSN 12 0.4 2.4LRSN                1
 GAP=136        1.04       3.1     4.3  6.0 -0.2678E+01  0.9487E+01  0.1761E+00E
 Epicentro: LOS SANTOS - SANTANDER                                             3
 ACTION:UPD 16-05-05 14:23 OP:rebc STATUS:               ID:20160421184104 L   I
 OLDACT:UP  16-04-22 01:32 OP:ar   STATUS:               ID:20160421183749     3
 OLDACT:ARG 16-04-21 20:42 OP:ar   STATUS:               ID:20160421183749     3
 2016-04-21-1837-49M.COL___313                                                 6
 STAT SP IPHASW D HRMM SECON CODA AMPLIT PERI AZIMU VELO AIN AR TRES W  DIS CAZ7
 BAR2 EZ EP       1841 23.55                             170   -0.0610 23.3 189 
 BAR2 EZ ES       1841 38.36                             170   -0.2010 23.3 189 
 BAR2 EZ I        1841 41.17        43.5 0.22            168           23.3 189 
 PAM  EZ EP       1841 26.50                             150    0.2410 77.6  40 
 PAM  EN ES       1841 43.66                             150    0.3710 77.6  40 
 PAM  EZ I        1841 45.34        16.2 0.60            156           77.6  40 
 RUS  HZ EP       1841 27.46                             143   -0.3610  101 176 
 RUS  HN ES       1841 46.23                             143    0.1710  101 176 
 RUS  HZ I        1841 49.22        14.5 0.22            147            101 176 
 PTB  HZ EP       1841 30.64                             131   -0.42 9  147 259 
 PTB  HN ES       1841 51.52                             131   -0.30 9  147 259 
 PTB  HZ I        1841 58.70        47.1 0.40            131            147 259 
 OCA  HZ EP       1841 32.41                             129   -0.03 9  160 353 
 OCA  HN ES       1841 53.93                             129   -0.36 9  160 353 
 OCA  HZ I        1841 58.42        83.9 0.16            132            160 353 
 SPBC HZ EP       1841 32.45                             128   -0.17 9  163 219 
 SPBC HN ES       1841 54.26                             128   -0.35 9  163 219 
 SPBC HZ I        1842  0.18        52.1 0.42            130            163 219 
 ZAR  HZ EP       1841 36.26                             122   -0.33 9  204 292 
 ZAR  HE ES       1842  2.71                             122    1.03 9  204 292 
 ZAR  HZ I        1842  7.72        31.7 0.74            123            204 292 
 NOR  HZ EP       1841 39.45                             118   -0.46 8  234 234 
 NOR  HN ES       1842  7.51                             118   -0.07 8  234 234 
 NOR  HZ I        1842 11.27        25.8 0.24            120            234 234 
 CHI  HZ EP       1841 41.72                             116   -0.19 8  249 195 
 CHI  HN ES       1842 12.08                             116    0.93 8  249 195 
 CHI  HZ I        1842 16.19         7.0 0.70            120            249 195 
 HEL  HZ EP       1841 44.64                             114    0.23 8  272 256 
 HEL  HN ES   4   1842 17.28                             114    1.69 0  272 256 
 HEL  HZ I        1842 22.53        22.7 0.36            116            272 256 
 URE  HZ EP   4   1841 43.68                             113   -1.59 0  283 292 
 URE  HE ES   4   1842 15.54                             113   -1.59 0  283 292 
 URE  HZ I        1842 27.09        14.9 0.20            115            283 292 
 GUY2CHZ EP       1841 48.76                             112    0.93 7  301 235 
 GUY2CHN ES   4   1842 24.73                             112    3.05 0  301 235 
 GUY2CHZ I        1842 30.43        21.5 0.74                           301 235 
                                                                                
