 2010  321 1125 13.6 L   6.805 -73.078148.7  RSN 13 0.4 3.8LRSN                1
 GAP=131        0.85       3.3     5.5  5.3 -0.3945E+01  0.4108E+01  0.2216E+01E
 Epicentro: LOS SANTOS - SANTANDER                                             3
 ACTION:UP  10-08-24 09:55 OP:vdl  STATUS:               ID:20100321112513 L   I
 2010-03-21-1122-56S.COL___098                                                 6
 STAT SP IPHASW D HRMM SECON CODA AMPLIT PERI AZIMU VELO SNR AR TRES W  DIS CAZ7
 BAR2 SZ IP       1125 33.63                             169     0.010   26 206 
 BAR2 SZ ES   1   1125 49.12                             169    -0.1 7   26 206 
 BRR  HZ IP       1125 35.61                             151     0.210   78 296 
 BRR  HE ES   1   1125 52.41                             151     0.0 7   78 296 
 BRR  HZ I        1125 54.99       584.2 0.33                            78 296 
 RUS  HZ IP       1125 37.50                             144    -0.110  101 180 
 RUS  HN ES   1   1125 56.26                             144    -0.1 7  101 180 
 RUS  HZ I        1125 58.56       523.0 0.28                           101 180 
 OCA  SZ EP       1125 41.95                             130    -0.2 9  161 350 
 OCA  SZ ES   1   1126  4.75                             130     0.3 7  161 350 
 OCA  SZ I        1126  9.71       978.4 0.32                           161 350 
 CHI  HZ IP       1125 51.56                             117    -0.1 8  251 197 
 CHI  HE ES   1   1126 21.29                             117    -0.2 6  251 197 
 CHI  HZ I        1126 28.22       232.7 0.53                           251 197 
 ROSC BZ IP       1125 53.43                             117     1.1 8  257 212 
 ROSC BZ I        1126 29.65       348.4 0.50                           257 212 
 HEL  HZ EP   1   1125 53.81                             115    -0.9 6  280 256 
 HEL  HE ES   2   1126 27.35                             115     0.5 4  280 256 
 HEL  HZ I        1126 33.35       396.3 0.44                           280 256 
 RREF BZ EP   1   1126  0.28                             111    -0.2 5  328 230 
 RREF BN ES   1   1126 36.91                             111    -0.2 5  328 230 
 RREF BZ I        1126 43.10       304.9 0.33                           328 230 
 DBB  SZ IP       1126  1.54                             109    -0.5 6  347 274 
 TOL  SZ EP   1   1126  2.95                             109     0.4 5  349 225 
 SDV  BZ IP       1126  2.87                             109    -0.1 6  354  49 
 ANIL BZ IP       1126  4.58                             109     0.4 6  363 225 
 ANIL BN ES   2   1126 43.40                             109    -0.2 3  363 225 
 ANIL BZ I        1126 49.22       514.8 0.33                           363 225 
 PRA  HZ IP       1126  7.40                             107    -0.3 6  396 210 
 PRA  HE ES   1   1126 49.75                             107    -0.1 4  396 210 
 PRA  HZ I        1126 56.51       284.5 0.30                           396 210 
                                                                                
