 2016  321 1334 14.4 L   6.772 -73.149140.5  RSN 11 0.5 2.0LRSN                1
 GAP=137        0.95       4.0     3.8  6.6 -0.1895E+01  0.9679E+01  0.1108E+01E
 Epicentro: LOS SANTOS - SANTANDER                                             3
 ACTION:UPD 16-05-13 21:26 OP:cam  STATUS:               ID:20160321133414 L   I
 OLDACT:UP  16-03-29 11:52 OP:dnl  STATUS:               ID:20160321133414 L   3
 OLDACT:REG 16-03-21 20:53 OP:dnl  STATUS:               ID:20160321132743     3
 2016-03-21-1327-43M.COL___286                                                 6
 STAT SP IPHASW D HRMM SECON CODA AMPLIT PERI AZIMU VELO AIN AR TRES W  DIS CAZ7
 BAR2 EZ IP     C 1334 33.29                             171   -0.0210 20.2 190 
 BAR2 EZ ES       1334 47.95                             171   -0.1310 20.2 190 
 BAR2 EZ I        1334 49.10        51.5 0.16            169           20.2 190 
 PAM  EZ EP       1334 36.36                             149    0.1610 80.0  38 
 PAM  EN ES       1334 53.19                             149   -0.0310 80.0  38 
 PAM  EZ I        1334 55.37        15.8 0.32            153           80.0  38 
 RUS  HZ EP       1334 37.28                             143   -0.1110 97.6 176 
 RUS  HN ES       1334 55.89                             143    0.5510 97.6 176 
 RUS  HZ I        1334 57.39        18.7 0.40            144           97.6 176 
 PTB  HZ EP       1334 39.99                             131   -0.84 9  147 260 
 PTB  HN ES       1335  0.93                             131   -0.53 9  147 260 
 PTB  HZ I        1335  4.14        23.9 0.14            130            147 260 
 SPBC HZ EP       1334 42.38                             128    0.16 9  161 220 
 SPBC HN ES       1335  3.84                             128   -0.10 9  161 220 
 SPBC HZ I        1335 10.00        15.8 0.14            128            161 220 
 ZAR  HZ EP   2   1334 47.33                             121    0.76 4  205 293 
 ZAR  HN ES       1335 12.27                             121    0.60 9  205 293 
 ZAR  HZ I        1335 17.23        10.7 0.17            121            205 293 
 CHI  HZ EP   2   1334 51.83                             116    0.38 4  246 195 
 CHI  HN ES   2   1335 19.34                             116   -1.03 4  246 195 
 CHI  HZ I        1335 24.79         4.2 0.26            117            246 195 
 HEL  HZ EP   2   1334 54.36                             114    0.16 4  271 256 
 HEL  HE ES   4   1335 23.91                             114   -1.35 0  271 256 
 HEL  HZ I        1335 32.30         8.3 0.32            114            271 256 
 GUY2CHZ EP   4   1334 58.86                             111    1.35 0  299 235 
 GUY2CHN ES   2   1335 32.03                             111    0.88 4  299 235 
 GUY2CHZ I        1335 38.54         5.3 0.30                           299 235 
 CBOC HZ EP   2   1335  1.73                             109    0.80 3  332 253 
 CBOC HE ES       1335 37.35                             109    0.12 7  332 253 
 CBOC HZ I        1335 42.00         2.3 0.16            109            332 253 
 MON  HZ EP   9   1335  1.35                             107   -2.01 0  355 309 
 MON  HN ES       1335 38.71                             107   -0.85 6  355 309 
 MON  HZ I        1335 41.08         2.5 0.20            108            355 309 
                                                                                
