 2012  821 1330 47.9 L   6.776 -73.099151.3  RSN  5 0.1 1.8LRSN                1
 GAP=144        0.37       2.2     2.8  4.1  0.4641E+00  0.5792E+00  0.1081E+01E
 Epicentro: LOS SANTOS - SANTANDER                                             3
 ACTION:UPD 12-09-10 11:57 OP:ep   STATUS:               ID:20120821133047 L   I
 2012-08-21-1330-00M.COL___217                                                 6
 STAT SP IPHASW D HRMM SECON CODA AMPLIT PERI AZIMU VELO AIN AR TRES W  DIS CAZ7
 BAR2 SZ EP   1   1331  7.84                             171   -0.31 7 22.4 204 
 BAR2 SZ I        1331 26.24        20.8 0.18                          22.4 204 
 PAM  SZ EP   1   1331 10.69                             152    0.07 7 76.3  35 
 PAM  SZ I        1331 10.99        16.1 0.19                          76.3  35 
 PAM  SN ES       1331 28.39                             152    0.0310 76.3  35 
 BRR  HZ EP   1   1331  9.95                             152    0.00 7 77.0 298 
 BRR  HZ I        1331 16.15        10.1 0.13                          77.0 298 
 BRR  HN ES       1331 27.12                             152   -0.0510 77.0 298 
 RUS  HZ EP   1   1331 12.05                             146    0.08 7 97.7 179 
 RUS  HN ES       1331 30.83                             146    0.0510 97.7 179 
 RUS  HZ I        1331 33.21         7.7 0.49                          97.7 179 
 ZAR  HE ES   2   1331 47.64                             123    0.31 4  210 292 
                                                                                
