 2017 1121 1055 52.7 L   6.852 -73.155139.6  RSN  6 0.5 1.6LRSN                1
 GAP=143        1.07       6.9     5.6  9.4 -0.1799E+02  0.2663E+02 -0.9014E+01E
 Epicentro: LOS SANTOS - SANTANDER                                             3
 ACTION:UPD 17-12-12 19:58 OP:rebc STATUS:               ID:20171121105552 L   I
 OLDACT:REG 17-11-21 20:19 OP:osc  STATUS:               ID:20171121103507     3
 2017-11-21-1048-00M.COL___462                                                 6
 STAT SP IPHASW D HRMM SECON CODA AMPLIT PERI AZIMU VELO AIN AR TRES W  DIS CAZ7
 BAR2 EZ EP       1056 11.29                             168   -0.4610 28.8 186 
 BAR2 EZ ES       1056 26.81                             168    0.2310 28.8 186 
 PAM  EZ EP       1056 13.99                             151   -0.0810 73.8  43 
 PAM  EE ES       1056 30.96                             151    0.2410 73.8  43 
 PAM  EZ I        1056 32.95         7.3 0.48            152           73.8  43 
 PTB  HZ EP   1   1056 18.43                             130   -0.79 7  148 257 
 PTB  HN ES       1056 39.18                             130   -0.70 9  148 257 
 PTB  HZ I        1056 43.70         2.0 0.10            131            148 257 
 ZAR  HZ EP       1056 25.03                             121    0.57 9  201 291 
 ZAR  HE ES       1056 49.32                             121    0.11 9  201 291 
 ZAR  HZ I        1056 54.71         7.3 0.34            122            201 291 
 NOR  HE ES       1056 56.64                             117    0.45 8  237 233 
 GUY2CHE ES       1057 10.93                             111    0.57 7  304 234 
                                                                                
