 2015  321 1545 38.2 L   6.790 -73.197140.8  RSN  5 0.3 1.4LRSN                1
 GAP=131        0.82       4.7     4.6  8.9 -0.5551E+01  0.1318E+02 -0.3867E+01E
 Epicentro: ZAPATOCA - SANTANDER                                               3
 ACTION:UPD 15-04-30 16:28 OP:nd   STATUS:               ID:20150321154538 L   I
 OLDACT:REG 15-03-21 19:56 OP:cam  STATUS:               ID:20150321153750     3
 2015-03-21-1537-50M.COL___269                                                 6
 STAT SP IPHASW D HRMM SECON CODA AMPLIT PERI AZIMU VELO AIN AR TRES W  DIS CAZ7
 BAR2 EZ EP       1545 57.20                             171    0.0410 21.9 176 
 BRR  HZ EP       1545 59.07                             153    0.5510 66.8 302 
 PAM  SZ EP       1546  0.13                             148    0.0010 81.9  42 
 PAM  SN ES       1546 17.07                             148   -0.2010 81.9  42 
 PAM  SZ I        1546 17.70         4.1 0.32            150           81.9  42 
 RUS  HZ EP       1546  0.92                             143   -0.4610  100 173 
 RUS  HN ES       1546 19.80                             143    0.3110  100 173 
 PTB  HZ EP       1546  4.22                             132    0.03 9  142 259 
 PTB  HN ES       1546 24.20                             132   -0.30 9  142 259 
 PTB  HZ I        1546 26.30         3.7 0.24            132            142 259 
                                                                                
