 2016  721 1319 13.2 L   6.790 -73.150138.0  RSN 11 0.4 2.1LRSN                1
 GAP=236        1.05       4.0     5.1  6.1  0.4958E+01  0.1145E+02  0.3915E+01E
 Epicentro: LOS SANTOS - SANTANDER                                             3
 ACTION:UPD 17-03-29 16:53 OP:lp   STATUS:               ID:20160721131913 L   I
 OLDACT:REG 16-07-21 19:32 OP:lv   STATUS:               ID:20160721131759     3
 2016-07-21-1317-59S.COL___340                                                 6
 STAT SP IPHASW D HRMM SECON CODA AMPLIT PERI AZIMU VELO AIN AR TRES W  DIS CAZ7
 BAR2 EZ IP     C 1319 31.82                             170   -0.1010 22.1 189 
 BAR2 EZ ES       1319 46.40                             170   -0.0810 22.1 189 
 BRR  HZ EP       1319 33.73                             151    0.1610 71.3 300 
 BRR  HZ ES       1319 50.07                             151    0.6510 71.3 300 
 BRR  HZ I        1319 55.22        18.4 0.12            148           71.3 300 
 RUS  HZ EP       1319 36.10                             142   -0.0610 99.5 176 
 RUS  HE ES       1319 53.62                             142   -0.4210 99.5 176 
 RUS  HZ I        1319 55.63        17.1 0.25            143           99.5 176 
 SPBC HZ EP       1319 40.27                             127   -0.78 9  162 219 
 SPBC HE ES       1320  2.44                             127   -0.29 9  162 219 
 SPBC HZ I        1320  3.88        19.3 0.21            127            162 219 
 ZAR  HZ EP       1319 44.96                             121   -0.23 9  204 292 
 ZAR  HN ES       1320  9.90                             121   -0.21 9  204 292 
 NOR  HZ EP       1319 48.41                             117   -0.01 8  234 235 
 NOR  HE ES       1320 16.03                             117    0.17 8  234 235 
 NOR  HZ I        1320 23.25        10.6 0.19            117            234 235 
 CHI  HZ EP       1319 51.21                             116    0.82 8  247 195 
 CHI  HN ES       1320 20.16                             116    0.79 8  247 195 
 CHI  HZ I        1320 28.91         4.4 0.18            117            247 195 
 HEL  HZ EP   4   1319 54.32                             113    1.33 0  271 256 
 HEL  HN ES       1320 24.08                             113    0.09 8  271 256 
 HEL  HZ I        1320 30.94         7.5 0.44            113            271 256 
 URE  HZ EP       1319 53.63                             112   -0.31 7  284 292 
 URE  HN ES   4   1320 24.48                             112   -1.20 0  284 292 
 URE  HZ I        1320 35.60         8.6 0.26            113            284 292 
 GUY2CHZ EP       1319 57.11                             111    0.72 7  300 235 
 GUY2CHE ES       1320 29.42                             111   -0.61 7  300 235 
 GUY2CHZ I        1320 38.62         5.0 0.29                           300 235 
 SJC  HZ EP   4   1320  7.12                             104   -1.52 0  410 327 
 SJC  HN ES   4   1320 47.93                             104   -3.92 0  410 327 
 SJC  HZ I        1320 51.30         3.1 0.43            106            410 327 
                                                                                
