 2015 1021 1557 57.2 L   6.686 -73.110134.6  RSN  4 0.3 1.5LRSN                1
 GAP=233        0.80       4.5     6.9  6.4  0.6429E+01  0.5527E+01  0.4260E+01E
 Epicentro: JORDAN - SANTANDER                                                 3
 ACTION:UPD 15-12-22 20:41 OP:cam  STATUS:               ID:20151021155757 L   I
 OLDACT:UP  15-12-15 16:23 OP:cam  STATUS:               ID:20151021155757 L   3
 OLDACT:UP  15-11-01 03:31 OP:DRIO STATUS:               ID:20151021155757 L   3
 OLDACT:REG 15-10-21 21:03 OP:drio STATUS:               ID:20151021154748     3
 2015-10-21-1547-48M.COL___307                                                 6
 STAT SP IPHASW D HRMM SECON CODA AMPLIT PERI AZIMU VELO AIN AR TRES W  DIS CAZ7
 BAR2 EZ EP       1558 15.26                             174   -0.0210 13.1 217 
 BAR2 EZ ES       1558 29.81                             174    0.4110 13.1 217 
 BAR2 EZ I        1558 33.48         6.8 0.26            171           13.1 217 
 BRR  HZ EP       1558 17.35                             147   -0.4010 81.2 305 
 BRR  HE ES       1558 33.79                             147   -0.0210 81.2 305 
 RUS  HZ EP       1558 19.15                             145    0.2410 87.8 178 
 RUS  HN ES       1558 35.39                             145   -0.4710 87.8 178 
 RUS  HZ I        1558 40.30         4.2 0.38            145           87.8 178 
 SPBC HZ EP       1558 24.48                             128    0.32 9  156 223 
 SPBC HE ES       1558 45.19                             128   -0.02 9  156 223 
 SPBC HZ I        1558 48.80         6.7 0.28            130            156 223 
                                                                                
