 2010  621 1417 35.5 L   6.815 -73.110144.7  RSN  5 0.4 1.6LRSN                1
 GAP=162        0.72       5.3    10.5 10.0 -0.3702E+01 -0.2345E+02 -0.1105E+02E
 Epicentro: LOS SANTOS - SANTANDER                                             3
 ACTION:UP  10-08-24 10:12 OP:vdl  STATUS:               ID:20100621141735 L   I
 2010-06-21-1413-53S.COL___118                                                 6
 STAT SP IPHASW D HRMM SECON CODA AMPLIT PERI AZIMU VELO SNR AR TRES W  DIS CAZ7
 BAR2 SZ EP   1   1417 54.79                             169    -0.3 7   26 198 
 BAR2 SZ ES   2   1418 10.09                             169    -0.2 5   26 198 
 BRR  HZ IP     C 1417 56.48                             151    -0.210   74 296 
 BRR  HZ I        1417 56.75        13.4 0.11                            74 296 
 BRR  HE ES   2   1418 13.83                             151     0.6 5   74 296 
 RUS  HZ EP   1   1417 59.89                             143     0.6 7  102 178 
 RUS  HN ES   2   1418 17.35                             143    -0.4 5  102 178 
 RUS  HZ I        1418 18.69         3.2 0.40                           102 178 
 GUE  SZ EP   1   1417 59.77                             140    -0.2 7  114  10 
 GRA  SZ EP   1   1418  0.48                             137     0.1 7  123  16 
 GRA  SZ ES   2   1418 20.20                             137     0.3 5  123  16 
                                                                                
