 2012 1121 1013 19.7 L   6.899 -73.183128.3  RSN  4 0.4 1.1LRSN                1
 GAP=153        0.87       6.8     6.6 13.4 -0.1316E+02  0.3083E+02  0.4406E+01E
 Epicentro: BETULIA - SANTANDER                                                3
 ACTION:UPD 12-12-05 15:34 OP:}ep  STATUS:               ID:20121121101319 L   I
 2012-11-21-1010-00M.COL___234                                                 6
 STAT SP IPHASW D HRMM SECON CODA AMPLIT PERI AZIMU VELO AIN AR TRES W  DIS CAZ7
 BAR2 SZ EP   1   1013 37.73                             164    0.19 7 33.9 180 
 BAR2 SZ I        1013 53.73         4.8 0.26                          33.9 180 
 PAM  SZ EP   1   1013 40.52                             149    0.74 7 72.3  48 
 PAM  SN ES   1   1013 54.95                             149   -0.47 7 72.3  48 
 PAM  SZ I        1013 59.75         3.8 0.54                          72.3  48 
 RUS  HZ EP   1   1013 42.11                             137   -0.59 7  112 174 
 RUS  HZ I        1014  0.86         1.0 0.42                           112 174 
 RUS  HN ES   1   1014  0.90                             137    0.27 7  112 174 
 PTB  HZ EP   1   1013 44.86                             128   -0.31 7  146 254 
 PTB  HN ES   1   1014  5.16                             128    0.14 7  146 254 
 PTB  HZ I        1014  7.76         1.7 0.12                           146 254 
                                                                                
