 2011  821 1505 10.0 L   6.768 -73.112139.4  RSN  9 0.4 2.3LRSN                1
 GAP=160        0.81       3.2     5.2  5.2 -0.1420E+01  0.4426E+01  0.1844E+01E
 Epicentro: LOS SANTOS - SANTANDER                                             3
 ACTION:UPD 12-07-13 15:53 OP:ep   STATUS:               ID:20110821150510 L   I
 2011-08-21-1503-43S.COL___152                                                 6
 STAT SP IPHASW D HRMM SECON CODA AMPLIT PERI AZIMU VELO AIN AR TRES W  DIS CAZ7
 BAR2 SZ IP       15 5 29.08                             171    0.2310 20.9 202 
 BAR2 SZ ES       15 5 43.41                             171   -0.1110 20.9 202 
 BAR2 SZ I        15 5 45.20        65.0 0.37                          20.9 202 
 BRR  HZ EP       15 5 30.87                             150    0.0710 76.2 300 
 BRR  HZ I        15 5 31.08        64.6 0.15                          76.2 300 
 BRR  HE ES       15 5 47.47                             150    0.4810 76.2 300 
 RUS  HZ EP       15 5 33.28                             144    0.3910 96.8 178 
 RUS  HE ES   1   15 5 49.98                             144   -0.73 7 96.8 178 
 RUS  HZ I        15 5 52.72        23.2 0.21                          96.8 178 
 BRI  SZ EP   2   15 5 33.39                             140   -0.10 5  111  18 
 OCA  SZ EP       15 5 37.56                             127   -0.69 9  164 352 
 OCA  SZ ES   1   15 6  0.25                             127    0.00 7  164 352 
 OCA  SZ I        15 6  2.61        30.9 0.18                           164 352 
 NOR  SZ EP   1   15 5 45.11                             117   -0.40 6  236 236 
 NOR  SN ES   1   15 6 13.04                             117   -0.14 6  236 236 
 CHI  HZ EP   1   15 5 47.58                             116    0.46 6  246 196 
 CHI  HN ES   2   15 6 15.73                             116   -0.32 4  246 196 
 CHI  HZ I        15 6 20.71         7.7 0.35                           246 196 
 HEL  HZ EP   1   15 5 50.28                             113    0.04 6  275 257 
 HEL  HN ES   1   15 6 21.09                             113   -0.51 6  275 257 
 HEL  HZ I        15 6 27.70        11.0 0.61                           275 257 
 PRA  HZ EP   1   15 6  3.86                             105    0.66 4  391 210 
 PRA  HE ES   1   15 6 44.85                             105    0.19 4  391 210 
                                                                                
