 2017  521 1733 21.6 L   6.821 -73.152157.4  RSN  7 0.5 1.9LRSN                1
 GAP=135        1.26       5.4     6.1  8.2 -0.1498E+00  0.2823E+01  0.6465E+01E
 Epicentro: LOS SANTOS - SANTANDER                                             3
 ACTION:UPD 17-06-16 13:37 OP:jn   STATUS:               ID:20170521173321 L   I
 OLDACT:UP  17-05-21 23:17 OP:cog  STATUS:               ID:20170521172742     3
 OLDACT:REG 17-05-21 21:48 OP:cog  STATUS:               ID:20170521172742     3
 2017-05-21-1728-00M.COL___365                                                 6
 STAT SP IPHASW D HRMM SECON CODA AMPLIT PERI AZIMU VELO AIN AR TRES W  DIS CAZ7
 BRR  HZ EP       1733 43.93                             155   -0.0310 69.5 297 
 BRR  HN ES       1734  2.33                             155    0.9510 69.5 297 
 BRR  HZ I        1734  3.35        17.2 0.44            156           69.5 297 
 PAM  EZ EP       1733 45.10                             153    0.0810 76.1  41 
 PAM  EN ES       1734  2.98                             153   -0.2910 76.1  41 
 PAM  EZ I        1734  4.13        13.8 0.18            155           76.1  41 
 RUS  HZ EP       1733 46.19                             145   -0.5110  103 176 
 RUS  HN ES       1734  6.11                             145   -0.1410  103 176 
 RUS  HZ I        1734  7.29        16.6 0.22            146            103 176 
 PTB  HZ EP   9   1733 48.62                             135   -0.93 0  148 258 
 PTB  HN ES       1734 10.28                             135   -0.12 9  148 258 
 PTB  HZ I        1734 11.94         3.8 0.27            135            148 258 
 SPBC HZ EP       1733 51.42                             131    0.25 9  165 218 
 SPBC HN ES       1734 14.17                             131   -0.04 9  165 218 
 SPBC HZ I        1734 17.66        11.4 0.50            132            165 218 
 ZAR  HZ EP       1733 55.26                             125    0.55 9  203 292 
 ZAR  HN ES       1734 19.35                             125   -1.17 9  203 292 
 CHI  HZ EP       1734  0.57                             119    0.35 8  251 195 
 CHI  HE ES   4   1734 28.03                             119   -2.28 0  251 195 
                                                                                
