 2014  621 1648 51.6 L   6.864 -73.180144.4  RSN  7 0.3 2.0LRSN                1
 GAP=199        0.74       3.8     4.0  6.5  0.2589E+01  0.3986E+01 -0.8169E+01E
 Epicentro: ZAPATOCA - SANTANDER                                               3
 ACTION:UPD 14-07-01 22:55 OP:nd   STATUS:               ID:20140621164851 L   I
 OLDACT:UP  14-06-22 00:08 OP:mh   STATUS:               ID:20140621164348d    3
 OLDACT:UP  14-06-22 00:08 OP:mh   STATUS:               ID:20140621164348d    3
 OLDACT:DUP 14-06-22 00:04 OP:mh   STATUS:               ID:20140621164348d    3
 OLDACT:UP  14-06-21 23:59 OP:mh   STATUS:               ID:20140621164347     3
 OLDACT:REG 14-06-21 23:29 OP:mh   STATUS:               ID:20140621164347     3
 2014-06-21-1643-47M.COL___265                                                 6
 STAT SP IPHASW D HRMM SECON CODA AMPLIT PERI AZIMU VELO AIN AR TRES W  DIS CAZ7
 BAR2 SZ EP       1649 11.41                             168    0.2110 30.0 181 
 BAR2 SZ ES       1649 26.62                             168    0.1110 30.0 181 
 BAR2 SZ I        1649 29.50         5.2 0.09             36           30.0 181 
 RUS  HZ EP       1649 15.87                             141    0.1310  108 174 
 RUS  HE ES   1   1649 34.03                             141   -0.56 7  108 174 
 RUS  HZ I        1649 37.28         1.9 0.15             36            108 174 
 PTB  HZ EP       1649 18.53                             132    0.28 9  146 256 
 PTB  HN ES       1649 38.82                             132   -0.22 9  146 256 
 PTB  HZ I        1649 45.63         4.7 0.25             37            146 256 
 ZAR  HN ES       1649 48.00                             123   -0.06 9  198 291 
 SML  HZ EP       1649 26.63                             118   -0.64 8  236 335 
 SML  HN ES   1   1649 55.55                             118    0.44 6  236 335 
 SML  HZ I        1650  3.34         6.9 0.10             37            236 335 
 NOR  HN ES       1649 55.43                             118    0.17 8  236 233 
 URE  HZ EP   4   1647 35.09                             114   -99.9 0  278 291 
 URE  HN ES   4   1648  0.01                             114   -99.9 0  278 291 
 URE  HZ I        1648  9.39       926.9 0.03            163            278 291 
                                                                                
