 2013  421 1917 12.8 L   6.778 -73.150146.0  RSN 11 0.5 2.5LRSN                1
 GAP=137        1.27       4.7     5.7  7.0 -0.8304E+01  0.1060E+02  0.8534E+01E
 Epicentro: LOS SANTOS - SANTANDER                                             3
 ACTION:UPD 13-05-22 14:39 OP:EP   STATUS:               ID:20130421191712 L   I
 2013-04-21-1908-44M.COL___213                                                 6
 STAT SP IPHASW D HRMM SECON CODA AMPLIT PERI AZIMU VELO AIN AR TRES W  DIS CAZ7
 BAR2 SZ IP     D 1917 32.33                             171   -0.0310 20.8 190 
 BAR2 SZ ES       1917 47.49                             171   -0.1710 20.8 190 
 BAR2 SZ I        1917 48.38        41.1 0.26            166           20.8 190 
 GIR2 SZ EP       1917 32.34                             166   -0.1710 33.6 352 
 GIR2 SZ ES       1917 48.53                             166    0.6010 33.6 352 
 BRR  HZ IP     C 1917 34.15                             152    0.1810 71.9 300 
 BRR  HN ES       1917 51.54                             152    1.0310 71.9 300 
 BRR  HN I        1917 51.93        63.8 0.28            140           71.9 300 
 PAM  SZ IP     C 1917 35.07                             150   -0.0510 79.6  39 
 PAM  SZ I        1917 35.37        71.5 0.22            146           79.6  39 
 PAM  SN ES       1917 52.23                             150   -0.3410 79.6  39 
 RUS  HZ EP       1917 36.26                             145   -0.0910 98.2 176 
 RUS  HN ES       1917 54.56                             145   -0.2010 98.2 176 
 PTB  HZ EP       1917 39.04                             132   -0.61 9  147 260 
 PTB  HN ES       1917 59.70                             132   -0.93 9  147 260 
 OCA  HN ES       1918  3.34                             129   -0.23 9  163 353 
 OCA  HN I        1918  5.85       130.5 0.22            121            163 353 
 NOR  HZ EP       1917 48.22                             119   -0.08 8  233 235 
 NOR  HN ES       1918 15.93                             119   -0.09 8  233 235 
 NOR  HN I        1918 20.76        38.0 0.18            111            233 235 
 HEL  HZ EP   4   1917 54.32                             115    1.47 0  271 256 
 HEL  HN I        1918 32.00        11.6 0.58            107            271 256 
 GUY  HZ EP       1917 57.52                             112    1.09 7  302 235 
 GUY  HN ES       1918 30.01                             112   -0.48 7  302 235 
 GUY  HN I        1918 42.72        10.7 0.48            105            302 235 
 PRA  HZ EP       1918  6.45                             107    0.45 6  390 210 
 PRA  HN ES       1918 48.77                             107    1.23 6  390 210 
 PRA  HN I        1918 53.67         7.9 0.42            101            390 210 
                                                                                
