 2017  421 1256 16.4 L   7.213 -73.638 21.0  RSN  5 0.5 1.4LRSN                1
 GAP=159        1.41       5.8     3.5  4.7 -0.3764E+01  0.7532E+01 -0.9363E+01E
 Epicentro: SABANA DE TORRES - SANTANDER                                       3
 ACTION:UPD 17-05-30 21:14 OP:jn   STATUS:               ID:20170421125616 L   I
 OLDACT:UP  17-04-21 21:03 OP:dani STATUS:               ID:20170421124737     3
 OLDACT:REG 17-04-21 19:59 OP:dani STATUS:               ID:20170421124737     3
 2017-04-21-1248-00M.COL___374                                                 6
 STAT SP IPHASW D HRMM SECON CODA AMPLIT PERI AZIMU VELO AIN AR TRES W  DIS CAZ7
 BRR  HZ IP     C 1256 20.39                             144   -0.1010 14.2 215 
 BRR  HN ES       1256 23.57                             144   -0.1410 14.2 215 
 BRR  HZ I        1256 23.97        45.9 0.14            149           14.2 215 
 BAR2 EZ ES       1256 41.64                             102    0.3410 85.1 144 
 PAM  EZ EP       1256 34.52                             100    0.9910  105  82 
 PAM  EN ES       1256 45.92                             100   -1.0110  105  82 
 PAM  EZ I        1256 50.92         6.2 0.26             99            105  82 
 PTB  HZ EP       1256 35.05                              56    0.2310  117 231 
 PTB  HN ES       1256 48.68                              56   -0.5410  117 231 
 PTB  HZ I        1256 50.04        12.5 0.20             98            117 231 
 ZAR  HZ EP       1256 37.81                              56    0.36 9  138 283 
 ZAR  HN ES       1256 53.79                              56   -0.10 9  138 283 
 ZAR  HZ I        1256 55.84         6.4 0.24             56            138 283 
                                                                                
