 2016  221 1643  7.6 L   6.864 -73.315125.3  RSN 16 0.6 2.2LRSN                1
 GAP= 94        1.43       3.7     4.2  6.8 -0.4021E+01  0.8915E+01 -0.2851E+01E
 Epicentro: BETULIA - SANTANDER                                                3
 ACTION:UPD 16-03-04 21:28 OP:rebc STATUS:               ID:20160221164307 L   I
 OLDACT:UP  16-02-21 23:59 OP:ak   STATUS:               ID:20160221163748     3
 OLDACT:REG 16-02-21 21:00 OP:ak   STATUS:               ID:20160221163748     3
 2016-02-21-1637-48M.COL___330                                                 6
 STAT SP IPHASW D HRMM SECON CODA AMPLIT PERI AZIMU VELO AIN AR TRES W  DIS CAZ7
 BAR2 EZ IP     C 1643 25.60                             164    0.5310 33.4 154 
 BAR2 EZ ES       1643 38.55                             164   -0.1410 33.4 154 
 BAR2 EZ I        1643 39.96       119.1 0.30            166           33.4 154 
 BRR  HZ EP     C 1643 25.98                             156    0.5210 51.5 301 
 BRR  HN ES       1643 39.63                             156    0.2410 51.5 301 
 BRR  HZ I        1643 41.07        49.8 0.10            155           51.5 301 
 PAM  EZ EP       1643 28.69                             143    0.4110 85.9  52 
 PAM  EE ES       1643 44.77                             143    0.3610 85.9  52 
 PAM  EZ I        1643 49.05        13.2 0.30            145           85.9  52 
 RUS  HZ EP       1643 30.74                             136    0.5210  110 167 
 RUS  HN ES       1643 46.87                             136   -0.9810  110 167 
 RUS  HZ I        1643 49.39        13.0 0.20            138            110 167 
 PTB  HZ EP       1643 30.84                             130   -0.5710  131 254 
 PTB  HN ES       1643 48.98                             130   -1.0010  131 254 
 PTB  HZ I        1643 53.36        20.4 0.11            131            131 254 
 OCA  HZ EP       1643 33.62                             126    0.03 9  152 360 
 OCA  HN ES       1643 53.21                             126   -0.65 9  152 360 
 OCA  HZ I        1643 57.46        60.1 0.31            127            152 360 
 SPBC HZ EP       1643 34.50                             125    0.39 9  158 212 
 SPBC HN ES       1643 54.35                             125   -0.43 9  158 212 
 SPBC HZ I        1643 56.80        24.8 0.07            126            158 212 
 ZAR  HZ EP       1643 37.51                             120    0.84 9  184 292 
 ZAR  HN ES       1644  0.21                             120    0.86 9  184 292 
 ZAR  HZ I        1644  3.15        21.5 0.53            121            184 292 
 NOR  HZ EP       1643 41.31                             115    0.24 8  224 230 
 NOR  HE ES       1644  7.60                             115    0.42 8  224 230 
 NOR  HZ I        1644  9.84        11.0 0.08            116            224 230 
 HEL  HZ EP   4   1643 46.59                             112    1.56 0  256 253 
 HEL  HE ES       1644 14.81                             112    0.59 8  256 253 
 HEL  HZ I        1644 20.78         6.4 0.20            112            256 253 
 GUY2CHZ EP       1643 49.95                             109    0.83 7  291 231 
 GUY2CHE ES       1644 20.75                             109   -0.74 7  291 231 
 GUY2CHZ I        1644 26.85         5.8 0.52                           291 231 
 SOCV BZ EP       1643 50.30                             107   -0.91 7  313  60 
 SOCV BN ES   4   1644 22.41                             107   -2.81 0  313  60 
 ELA  HZ EP   4   1643 55.42                             107    2.81 0  320 226 
 ELA  HN ES       1644 27.30                             107   -0.42 7  320 226 
 ELA  HZ I        1644 37.26         6.2 0.40            108            320 226 
 MON  HZ EP       1643 52.92                             106   -0.74 7  335 309 
 MON  HN ES       1644 28.95                             106   -0.63 7  335 309 
 MON  HZ I        1644 32.45         2.7 0.18            106            335 309 
 SJC  HZ EP       1643 59.74                             103   -0.93 6  393 329 
 SJC  HN ES   4   1644 39.35                             103   -2.70 0  393 329 
 SJC  HZ I        1644 41.96         2.4 0.28            103            393 329 
 CRJC HZ EP       1644  8.58                             100   -0.35 5  462   6 
 CRJC HN ES   4   1644 55.21                             100   -1.56 0  462   6 
 CRJC HZ I        1645  5.23         6.8 0.28            101            462   6 
                                                                                
