 2014  821 1004 44.9 L   6.503 -73.447119.5  RSN  6 0.4 1.5LRSN                1
 GAP= 86        1.14       4.0     5.4  7.6  0.1693E+01  0.9288E+01 -0.5668E+01E
 Epicentro: SIMACOTA - SANTANDER                                               3
 ACTION:UPD 14-09-15 21:51 OP:nd   STATUS:               ID:20140821100444 L   I
 OLDACT:REG 14-08-21 20:55 OP:stll STATUS:               ID:20140821095810     3
 2014-08-21-0958-10M.COL___260                                                 6
 STAT SP IPHASW D HRMM SECON CODA AMPLIT PERI AZIMU VELO AIN AR TRES W  DIS CAZ7
 BAR2 SZ EP       10 5  1.89                             165    0.2610 30.9  71 
 BAR2 SZ ES       10 5 14.93                             165    0.2810 30.9  71 
 BAR2 SZ I        10 5 15.88        11.4 0.52            172           30.9  71 
 BRR  HZ EP       10 5  3.76                             146    0.3310 73.0 336 
 BRR  HN ES       10 5 18.08                             146    0.2210 73.0 336 
 BRR  HZ I        10 5 20.02         8.5 0.18            149           73.0 336 
 RUS  HZ EP       10 5  4.35                             145   -0.1610 78.6 149 
 RUS  HN ES       10 5 19.00                             145   -0.7910 78.6 149 
 RUS  HZ I        10 5 21.59         4.9 0.20            147           78.6 149 
 PTB  HZ EP     C 10 5  6.10                             134   -0.4010  112 272 
 PTB  HN ES       10 5 22.81                             134   -0.5110  112 272 
 PTB  HZ I        10 5 27.59         6.4 0.50            134            112 272 
 SPBC HZ EP       10 5  7.83                             132    0.7810  117 216 
 SPBC HN ES       10 5 24.62                             132    0.3210  117 216 
 SPBC HZ I        10 5 31.46         4.4 0.14            133            117 216 
 SML  HZ EP       10 5 22.08                             109   -0.40 8  263 345 
 SML  HE ES       10 5 51.63                             109   -0.13 8  263 345 
                                                                                
