 2016 1221 1350 10.8 L   6.787 -73.169146.0  RSN  8 0.5 1.8LRSN                1
 GAP=134        1.11       4.4     4.9  6.9  0.2618E+01  0.8284E+01  0.5280E+01E
 Epicentro: LOS SANTOS - SANTANDER                                             3
 ACTION:UPD 17-01-11 20:17 OP:rebc STATUS:               ID:20161221135010 L   I
 OLDACT:UP  16-12-21 22:54 OP:dani STATUS:               ID:20161221134745     3
 OLDACT:UP  16-12-21 22:54 OP:dani STATUS:               ID:20161221134745     3
 OLDACT:REG 16-12-21 20:20 OP:dani STATUS:               ID:20161221134745     3
 2016-12-21-1348-00M.COL___372                                                 6
 STAT SP IPHASW D HRMM SECON CODA AMPLIT PERI AZIMU VELO AIN AR TRES W  DIS CAZ7
 BAR2 EZ EP       1350 30.27                             171   -0.1910 21.6 184 
 BAR2 EZ ES       1350 45.60                             171   -0.1710 21.6 184 
 BAR2 EZ I        1350 46.49        21.5 0.24            170           21.6 184 
 BRR  HZ EP       1350 32.02                             153    0.0910 69.7 301 
 BRR  HN ES       1350 49.38                             153    1.0010 69.7 301 
 BRR  HZ I        1350 50.26        15.4 0.24            151           69.7 301 
 PAM  EZ EP       1350 33.23                             150   -0.0110 80.1  40 
 PAM  EE ES       1350 50.56                             150   -0.1510 80.1  40 
 PAM  EZ I        1350 52.07         3.6 0.22            153           80.1  40 
 RUS  HZ EP     D 1350 34.49                             144   -0.0410 99.4 175 
 RUS  HN ES       1350 52.82                             144   -0.1810 99.4 175 
 RUS  HZ I        1350 54.49         5.9 0.48            146           99.4 175 
 PTB  HZ EP       1350 36.81                             133   -0.76 9  145 259 
 PTB  HN ES       1350 58.14                             133   -0.29 9  145 259 
 PTB  HZ I        1351  3.18         7.8 0.52            132            145 259 
 ZAR  HZ EP       1350 43.56                             123    0.45 9  202 293 
 ZAR  HE ES       1351  7.78                             123   -0.51 9  202 293 
 ZAR  HZ I        1351 14.59         6.7 0.20            123            202 293 
 CHI  HZ EP       1350 48.78                             117    0.45 8  247 195 
 CHI  HN ES       1351 17.96                             117    0.39 8  247 195 
 CHI  HZ I        1351 20.22         5.6 0.33            118            247 195 
 GUY2CHZ EP   3   1350 56.83                             113    2.70 2  298 235 
 GUY2CHN ES   4   1351 32.13                             113    4.23 0  298 235 
 GUY2CHZ I        1351 35.91         3.3 0.60                           298 235 
                                                                                
