 2016  321 1048 34.2 L   6.809 -73.169142.0  RSN 12 0.4 1.9LRSN                1
 GAP=133        0.61       3.0     2.6  4.6 -0.1780E+01  0.3906E+01  0.1946E+01E
 Epicentro: LOS SANTOS - SANTANDER                                             3
 ACTION:UPD 16-05-13 21:26 OP:cam  STATUS:               ID:20160321104834 L   I
 OLDACT:REG 16-03-21 20:51 OP:dnl  STATUS:               ID:20160321104747     3
 2016-03-21-1047-47M.COL___283                                                 6
 STAT SP IPHASW D HRMM SECON CODA AMPLIT PERI AZIMU VELO AIN AR TRES W  DIS CAZ7
 BAR2 EZ EP       1048 53.31                             170   -0.1010 24.1 184 
 BAR2 EZ ES       1049  8.60                             170    0.2210 24.1 184 
 BAR2 EZ I        1049 10.13        18.0 0.22            172           24.1 184 
 PAM  EZ EP       1048 56.26                             150    0.1810 78.2  41 
 PAM  EE ES       1049 13.02                             150   -0.1210 78.2  41 
 PAM  EZ I        1049 15.59         8.1 0.31            148           78.2  41 
 RUS  HZ EP       1048 57.82                             143    0.1310  102 175 
 RUS  HE ES   2   1049 16.09                             143    0.09 5  102 175 
 RUS  HZ I        1049 17.12         7.5 0.18            144            102 175 
 PTB  HZ EP       1049  0.20                             132   -0.47 9  145 258 
 PTB  HN ES       1049 20.85                             132   -0.45 9  145 258 
 PTB  HZ I        1049 23.27         9.7 0.18            129            145 258 
 SPBC HZ EP   2   1049  2.52                             128    0.16 5  162 218 
 SPBC HE ES   2   1049 24.60                             128    0.30 5  162 218 
 SPBC HZ I        1049 28.83        19.1 0.20            127            162 218 
 ZAR  HZ EP   2   1049  6.61                             122    0.48 4  201 292 
 ZAR  HN ES       1049 31.33                             122    0.30 9  201 292 
 ZAR  HZ I        1049 36.65         9.2 0.21            119            201 292 
 NOR  HZ EP   2   1049  9.77                             118    0.20 4  233 234 
 NOR  HE ES       1049 37.28                             118    0.13 8  233 234 
 CHI  HZ EP   2   1049 11.91                             116    0.16 4  249 195 
 CHI  HN ES   2   1049 40.09                             116   -0.93 4  249 195 
 CHI  HZ I        1049 46.00         5.1 0.52            115            249 195 
 HEL  HZ EP   4   1049 15.34                             114    1.34 0  270 255 
 HEL  HN ES   2   1049 44.56                             114   -0.46 4  270 255 
 HEL  HZ I        1049 51.34         4.8 0.34            112            270 255 
 URE  HZ EP   4   1049 13.40                             113   -1.40 0  281 292 
 URE  HN ES   4   1049 43.96                             113   -2.49 0  281 292 
 URE  HZ I        1049 52.54         4.8 0.16            111            281 292 
 GUY2CHZ EP   2   1049 18.19                             112    0.70 4  300 234 
 GUY2CHE ES   2   1049 51.80                             112    0.56 4  300 234 
 GUY2CHZ I        1049 59.72         5.4 0.34                           300 234 
 LL6C HZ EP   3   1049 18.83                             110   -0.80 2  324 358 
 LL6C HN ES   4   1049 53.09                             110   -1.96 0  324 358 
 LL6C HZ I        1050  5.94         6.3 0.74            108            324 358 
                                                                                
