 2016  621 1111  3.4 L   6.602 -72.975173.1  RSN  5 0.3 1.4LRSN                1
 GAP=244        0.71       6.4     6.4  5.3  0.2591E+02  0.3194E+01 -0.4440E+01E
 Epicentro: CURITI - SANTANDER                                                 3
 ACTION:UPD 16-07-21 22:21 OP:rebc STATUS:               ID:20160621111103 L   I
 OLDACT:REG 16-06-21 20:13 OP:edw  STATUS:               ID:20160621110744     3
 2016-06-21-1107-44M.COL___319                                                 6
 STAT SP IPHASW D HRMM SECON CODA AMPLIT PERI AZIMU VELO AIN AR TRES W  DIS CAZ7
 BAR2 EZ ES       1111 44.59                             172    0.3910 23.0 267 
 BAR2 EZ I        1111 46.70         5.3 0.50                          23.0 267 
 RUS  HZ EP       1111 28.37                             154   -0.3310 79.4 189 
 RUS  HN ES       1111 48.51                             154    0.0810 79.4 189 
 RUS  HZ I        1111 52.50         2.9 0.42                          79.4 189 
 BRR  HZ EP       1111 29.01                             149   -0.1010 98.8 304 
 BRR  HN ES       1111 48.77                             149   -0.3910 98.8 304 
 PTB  HZ EP       1111 34.35                             134    0.24 9  164 268 
 PTB  HE ES       1111 57.85                             134   -0.19 9  164 268 
 PTB  HZ I        1111 59.32         1.7 0.10                           164 268 
 ZAR  HZ EP       1111 40.65                             124    0.30 8  230 295 
 ZAR  HN ES       1112  9.35                             124    0.19 8  230 295 
 ZAR  HZ I        1112 11.83         2.8 0.30                           230 295 
                                                                                
