 2017  221 1905 41.0 L   5.938 -73.606119.8  RSN  4 0.2 1.4LRSN                1
 GAP=120        0.38       2.0     4.7  5.7 -0.2939E+01  0.1748E+02  0.1393E+01E
 Epicentro: BARBOSA - SANTANDER                                                3
 ACTION:UPD 17-05-24 15:39 OP:jn   STATUS:               ID:20170221190541 L   I
 OLDACT:UP  17-02-22 00:07 OP:cog  STATUS:               ID:20170221185749     3
 OLDACT:REG 17-02-21 21:33 OP:cog  STATUS:               ID:20170221185749     3
 2017-02-21-1858-00M.COL___382                                                 6
 STAT SP IPHASW D HRMM SECON CODA AMPLIT PERI AZIMU VELO AIN AR TRES W  DIS CAZ7
 RUS  HZ EP       19 5 59.40                             152    0.0510 58.1  95 
 RUS  HN ES       19 6 13.57                             152   -0.0710 58.1  95 
 RUS  HZ I        19 6 14.84         9.4 0.34            157           58.1  95 
 BAR2 EZ EP   3   19 6  1.26                             141    0.41 2 86.2  33 
 BAR2 EZ ES       19 6 16.30                             141    0.0010 86.2  33 
 BAR2 EZ I        19 6 18.43        14.3 0.23            147           86.2  33 
 PTB  HZ EP   2   19 6  2.53                             133   -0.41 5  115 305 
 PTB  HN ES   3   19 6 20.52                             133    0.49 2  115 305 
 PTB  HZ I        19 6 21.32         2.1 0.16            135            115 305 
 CHI  HZ EP       19 6  6.45                             126    0.14 9  145 186 
 CHI  HE ES       19 6 25.96                             126   -0.06 9  145 186 
 CHI  HZ I        19 6 29.34         2.6 0.42            129            145 186 
                                                                                
