 2016  121 1915 36.9 L   6.808 -73.174140.8  RSN 14 0.4 2.7LRSN 3.2WRSN        1
 SPEC AVERAGE  MO 13.9 ST0.443 OM  2.0 f0 1.94 R1.2784 AL 0.00 WI 30.0 MW  3.2 3
 SPEC SD       MO  0.3 ST0.625 OM  0.3 f0 1.23 R0.5958 AL      WI      MW  0.2 3
 GAP=133        0.85       2.2     3.0  4.7 -0.8687E+00  0.5969E+01  0.6695E-01E
 Epicentro: LOS SANTOS - SANTANDER                                             3
 SPEC BAR2EH Z MO 13.8 ST0.280 OM  1.9 f0 1.98 R0.9717 AL-0.00 WI 30.0 MW  3.1 3
 SPEC BAR2EH Z T1916 8 K 0.000 GD  142 VS 5.20 DE 3.50 Q0750.0 QA 1.50 VS 3.50 3
 SPEC PAM EH Z MO 13.6 ST0.078 OM  1.7 f0 1.45 R1.3269 AL-0.00 WI 30.0 MW  3.0 3
 SPEC PAM EH Z T191614 K 0.000 GD  161 VS 5.20 DE 3.50 Q0750.0 QA 1.50 VS 3.50 3
 SPEC RUS HH Z MO 14.1 ST0.067 OM  2.1 f00.987 R1.9493 AL-0.00 WI 30.0 MW  3.3 3
 SPEC RUS HH Z T191617 K 0.000 GD  173 VS 5.20 DE 3.50 Q0750.0 QA 1.50 VS 3.50 3
 SPEC PTB HH Z MO 13.5 ST0.942 OM  1.5 f0 3.59 R0.5359 AL-0.00 WI 30.0 MW  3.0 3
 SPEC PTB HH Z T191622 K 0.000 GD  202 VS 5.20 DE 3.50 Q0750.0 QA 1.50 VS 3.50 3
 SPEC OCA HH Z MO 14.4 ST0.279 OM  2.4 f0 1.18 R1.6305 AL-0.00 WI 30.0 MW  3.6 3
 SPEC OCA HH Z T191624 K 0.000 GD  212 VS 5.20 DE 3.50 Q0750.0 QA 1.50 VS 3.50 3
 SPEC SPBCHH Z MO 13.5 ST  1.7 OM  1.5 f0 4.31 R0.4464 AL-0.00 WI 30.0 MW  3.0 3
 SPEC SPBCHH Z T191625 K 0.000 GD  214 VS 5.20 DE 3.50 Q0750.0 QA 1.50 VS 3.50 3
 SPEC ZAR HH Z MO 13.8 ST0.521 OM  1.7 f0 2.37 R0.8118 AL-0.00 WI 30.0 MW  3.1 3
 SPEC ZAR HH Z T191632 K 0.000 GD  245 VS 5.20 DE 3.50 Q0750.0 QA 1.50 VS 3.50 3
 SPEC CHI HH Z MO 14.0 ST0.052 OM  1.8 f00.969 R1.9856 AL-0.00 WI 30.0 MW  3.3 3
 SPEC CHI HH Z T191642 K 0.000 GD  286 VS 5.20 DE 3.50 Q0750.0 QA 1.50 VS 3.50 3
 SPEC HEL HH Z MO 13.8 ST0.042 OM  1.6 f0 1.03 R1.8680 AL-0.00 WI 30.0 MW  3.1 3
 SPEC HEL HH Z T191645 K 0.000 GD  303 VS 5.20 DE 3.50 Q0750.0 QA 1.50 VS 3.50 3
 SPECGUY2CHH Z MO 13.7 ST0.067 OM  1.5 f0 1.26 R1.5270 AL-0.00 WI 30.0 MW  3.1 3
 SPECGUY2CHH Z T191656 K 0.000 GD  330 VS 5.20 DE 3.50 Q0750.0 QA 1.50 Q1 0.00 3
 SPEC ANILHH Z MO 14.3 ST0.437 OM  2.0 f0 1.53 R1.2575 AL-0.00 WI 30.0 MW  3.5 3
 SPEC ANILHH Z T1917 5 K 0.000 GD  382 VS 5.20 DE 3.50 Q0750.0 QA 1.50 VS 3.50 3
 OLDACT:REG 16-01-21 21:17 OP:cara STATUS:               ID:20160121190748     3
 ACTION:UPD 16-03-09 23:27 OP:cam  STATUS:               ID:20160121191536 L   I
 OLDACT:UP  16-01-22 00:26 OP:cara STATUS:               ID:20160121190748     3
 2016-01-21-1907-48M.COL___319                                                 6
 STAT SP IPHASW D HRMM SECON CODA AMPLIT PERI AZIMU VELO AIN AR TRES W  DIS CAZ7
 BAR2 EZ IP       1915 55.83                             170   -0.0810 23.9 182 
 BAR2 EZ ES       1916 10.46                             170   -0.3110 23.9 182 
 BAR2 EZ I        1916 11.94       102.0 0.24            169           23.9 182 
 PAM  EZ IP     C 1915 58.78                             149    0.1410 78.7  42 
 PAM  EN ES       1916 15.86                             149    0.2410 78.7  42 
 PAM  EZ I        1916 17.87        45.6 0.54            155           78.7  42 
 RUS  HZ EP       1915 59.78                             142   -0.4410  102 174 
 RUS  HN ES       1916 18.65                             142    0.2210  102 174 
 RUS  HZ I        1916 19.49        48.6 0.28            146            102 174 
 PTB  HZ EP   4   1916  2.23                             131   -0.94 0  145 258 
 PTB  HN ES       1916 23.50                             131   -0.19 9  145 258 
 PTB  HZ I        1916 30.46        53.7 0.28            132            145 258 
 OCA  HZ EP       1916  5.12                             129    0.44 9  159 354 
 OCA  HN ES       1916 26.20                             129   -0.17 9  159 354 
 OCA  HZ I        1916 34.20        96.4 0.26            132            159 354 
 SPBC HZ EP       1916  4.65                             128   -0.22 9  162 218 
 SPBC HN ES       1916 26.86                             128    0.15 9  162 218 
 SPBC HZ I        1916 35.52        38.9 0.30            130            162 218 
 ZAR  HZ EP       1916  9.49                             122    0.83 9  201 292 
 ZAR  HE ES       1916 33.56                             122    0.10 9  201 292 
 ZAR  HZ I        1916 40.00        41.5 0.34            123            201 292 
 NOR  HZ EP       1916 11.80                             118   -0.30 8  233 234 
 NOR  HN ES       1916 40.08                             118    0.50 8  233 234 
 NOR  HZ I        1916 44.71        23.7 0.18            120            233 234 
 SML  HZ EP   4   1916 12.07                             117   -0.92 0  242 336 
 SML  HN ES       1916 40.64                             117   -0.53 8  242 336 
 SML  HZ I        1916 44.12        35.5 0.12            119            242 336 
 CHI  HZ EP       1916 13.88                             116   -0.42 8  249 194 
 CHI  HN ES       1916 43.61                             116    0.11 8  249 194 
 CHI  HZ I        1916 48.41        25.9 0.36            119            249 194 
 HEL  HZ EP       1916 17.01                             114    0.49 8  269 255 
 HEL  HE ES       1916 47.41                             114   -0.04 8  269 255 
 HEL  HZ I        1916 53.79        22.3 0.28            116            269 255 
 GUY2CHZ EP       1916 20.51                             111    0.49 7  299 234 
 GUY2CHN ES   4   1916 57.78                             111    4.10 0  299 234 
 GUY2CHZ I        1917  1.97        20.3 0.34                           299 234 
 DBB  SZ EP       1916 23.07                             109   -0.71 7  336 274 
 DBB  SZ ES       1917  0.10                             109   -0.27 7  336 274 
 DBB  SZ I        1917  1.29        67.5 0.28            111            336 274 
 ANIL HZ EP       1916 25.96                             108   -0.35 6  356 224 
 ANIL HN ES   4   1917  7.14                             108    2.27 0  356 224 
 ANIL HZ I        1917 11.29        45.8 0.34            110            356 224 
                                                                                
