 2017  421 1411  0.0 L   6.771 -73.215163.3  RSN  4 0.3 1.5LRSN                1
 GAP=205        0.69       8.6     5.2  6.8  0.1387E+02 -0.5059E+01  0.2312E+02E
 Epicentro: ZAPATOCA - SANTANDER                                               3
 ACTION:UPD 17-05-30 21:14 OP:jn   STATUS:               ID:20170421141100 L   I
 OLDACT:UP  17-05-10 16:48 OP:nlst STATUS:               ID:20170421141100 L   3
 OLDACT:UP  17-04-21 21:24 OP:dani STATUS:               ID:20170421135828     3
 OLDACT:UP  17-04-21 21:23 OP:dani STATUS:               ID:20170421135828     3
 OLDACT:UP  17-04-21 21:23 OP:dani STATUS:               ID:20170421135828     3
 OLDACT:UP  17-04-21 21:23 OP:dani STATUS:               ID:20170421135828     3
 OLDACT:UP  17-04-21 21:23 OP:dani STATUS:               ID:20170421135828     3
 OLDACT:REG 17-04-21 20:08 OP:dani STATUS:               ID:20170421135828     3
 2017-04-21-1408-00M.COL___374                                                 6
 STAT SP IPHASW D HRMM SECON CODA AMPLIT PERI AZIMU VELO AIN AR TRES W  DIS CAZ7
 BAR2 EZ EP       1411 21.32                             173   -0.4110 20.1 170 
 BAR2 EZ ES   1   1411 39.06                             173    0.41 7 20.1 170 
 BRR  HZ EP       1411 23.09                             157    0.2210 66.3 304 
 BRR  HN ES       1411 40.54                             157   -0.1410 66.3 304 
 BRR  HZ I        1411 43.26         5.7 0.12            156           66.3 304 
 PTB  HZ EP       1411 28.11                             137    0.29 9  140 259 
 PTB  HN ES       1411 49.31                             137   -0.17 9  140 259 
 PTB  HZ I        1411 52.38         4.1 0.28            137            140 259 
 YPLC HZ EP       1411 31.25                             130   -0.02 9  178 149 
                                                                                
