 2015  121 1350 52.6 L   6.773 -73.134141.5  RSN  8 0.3 1.5LRSN                1
 GAP=237        0.64       3.5     4.3  5.7  0.1213E+00  0.1201E+01  0.7007E+01E
 Epicentro: LOS SANTOS - SANTANDER                                             3
 ACTION:UPD 15-03-02 15:41 OP:nd   STATUS:               ID:20150121135052 L   I
 OLDACT:REG 15-01-21 20:53 OP:spq  STATUS:               ID:20150121134747     3
 2015-01-21-1347-47M.COL___268                                                 6
 STAT SP IPHASW D HRMM SECON CODA AMPLIT PERI AZIMU VELO AIN AR TRES W  DIS CAZ7
 BAR2 EZ EP   1   1351 11.52                             171   -0.11 7 20.6 195 
 BAR2 EZ ES   1   1351 26.32                             171   -0.18 7 20.6 195 
 BAR2 EZ I        1351 27.64        10.4 0.20            169           20.6 195 
 BRR  HZ EP       1351 12.98                             151   -0.4310 73.8 300 
 BRR  HN ES       1351 30.03                             151    0.3710 73.8 300 
 BRR  HZ I        1351 35.57         9.6 0.09            151           73.8 300 
 RUS  HZ EP   1   1351 15.80                             144    0.13 7 97.5 177 
 RUS  HE ES   1   1351 33.80                             144    0.11 7 97.5 177 
 RUS  HZ I        1351 35.26         3.6 0.18            145           97.5 177 
 PTB  HZ EP   4   1351 18.05                             131   -1.20 0  148 260 
 PTB  HE ES   1   1351 39.69                             131   -0.38 7  148 260 
 PTB  HZ I        1351 40.81         3.4 0.52            132            148 260 
 SPBC HZ EP   1   1351 21.21                             128    0.61 7  162 220 
 SPBC HE ES       1351 42.44                             128   -0.01 9  162 220 
 SPBC HZ I        1351 45.41         6.5 0.44            129            162 220 
 NOR  HE ES       1351 55.64                             118    0.05 8  234 235 
 NOR  HZ I        1352  0.57         2.4 0.20            119            234 235 
 CHI  HZ EP   1   1351 29.82                             117    0.07 6  246 196 
 CHI  HE ES   1   1351 58.58                             117   -0.17 6  246 196 
 CHI  HZ I        1352  3.46         1.4 0.26            118            246 196 
 MON  HE ES   4   1352 17.19                             108   -2.91 0  357 309 
 MON  HZ I        1352 19.29         1.3 0.64            110            357 309 
                                                                                
