 2011 1121 1456 57.0 L   6.774 -73.107152.0  RSN  5 0.3 1.5LRSN                1
 GAP=143        0.48       4.0     6.4  6.4  0.6196E+01 -0.4293E+01  0.3452E+01E
 Epicentro: LOS SANTOS - SANTANDER                                             3
 ACTION:UPD 12-07-13 16:11 OP:ep   STATUS:               ID:20111121145657 L   I
 2011-11-21-1440-00M.COL___179                                                 6
 STAT SP IPHASW D HRMM SECON CODA AMPLIT PERI AZIMU VELO AIN AR TRES W  DIS CAZ7
 BAR2 SZ EP   2   1457 17.16                             171   -0.20 5 21.8 203 
 BAR2 SZ I        1457 34.55         7.0 0.52                          21.8 203 
 GIR2 SZ ES   2   1457 33.88                             166    0.35 5 35.0 344 
 BRR  HZ EP   1   1457 18.83                             152   -0.30 7 76.4 299 
 BRR  HN ES   1   1457 36.47                             152    0.10 7 76.4 299 
 BRR  HZ I        1457 37.46        13.7 0.54                          76.4 299 
 PAM  SZ EP   2   1457 20.17                             152    0.30 5 77.0  36 
 PAM  SN ES   2   1457 37.40                             152   -0.30 5 77.0  36 
 RUS  HZ EP   1   1457 21.46                             146    0.29 7 97.5 178 
 RUS  HN ES   1   1457 39.86                             146   -0.15 7 97.5 178 
 RUS  HZ I        1457 41.35         1.9 0.43                          97.5 178 
                                                                                
