 2011  221 1648  9.5 L   6.813 -73.109145.8  RSN 14 0.3 3.2LRSN                1
 GAP=105        0.75       2.7     4.0  4.5 -0.3357E+01  0.4408E+01  0.4503E+00E
 Epicentro: LOS SANTOS - SANTANDER                                             3
 ACTION:UP  11-03-28 15:10 OP:jfem STATUS:               ID:20110221164809 L   I
 2011-02-21-1645-36S.COL___135                                                 6
 STAT SP IPHASW D HRMM SECON CODA AMPLIT PERI AZIMU VELO SNR AR TRES W  DIS CAZ7
 BAR2 SZ IP       1648 29.45                             169     0.210   26 199 
 BAR2 SZ ES   1   1648 44.58                             169     0.0 7   26 199 
 BAR2 SZ I        1648 45.89       371.4 0.37                            26 199 
 GIR2 SZ IP       1648 29.63                             167     0.410   31 342 
 GIR2 SZ ES   1   1648 44.66                             167     0.1 7   31 342 
 RUS  HZ IP     C 1648 33.27                             143    -0.110  102 178 
 RUS  HN ES   1   1648 51.83                             143    -0.1 7  102 178 
 RUS  HZ I        1648 53.12       208.1 0.35                           102 178 
 GRA  SZ IP       1648 34.28                             138    -0.310  123  16 
 GRA  SZ ES   1   1648 53.86                             138    -0.2 7  123  16 
 GRA  SZ I        1648 55.25       238.0 0.31                           123  16 
 OCA  SZ EP       1648 37.66                             130    -0.1 9  159 352 
 OCA  SZ I        1649  4.99       311.3 0.53                           159 352 
 YOP  SZ EP       1648 39.91                             126     0.4 9  178 155 
 YOP  SN ES   2   1649  3.03                             126     0.1 4  178 155 
 NOR  SZ EP       1648 45.22                             118    -0.5 8  239 235 
 NOR  SN ES   1   1649 13.36                             118    -0.6 6  239 235 
 CHI  HZ EP       1648 47.41                             117    -0.1 8  251 196 
 CHI  HN ES   1   1649 16.53                             117    -0.6 6  251 196 
 CHI  HZ I        1649 20.75       107.8 0.42                           251 196 
 HEL  HZ EP       1648 50.91                             114     0.7 7  276 256 
 HEL  HE ES   2   1649 21.98                             114     0.0 4  276 256 
 HEL  HZ I        1649 28.24       103.3 0.29                           276 256 
 VIL  SZ EP   2   1648 52.60                             112    -0.4 4  304 191 
 VIL  SN ES   2   1649 26.98                             112     0.1 4  304 191 
 RREF HN ES   1   1649 32.67                             111     0.2 5  326 230 
 DBB  SZ EP       1648 57.39                             109    -0.1 7  343 274 
 TOL  SZ EP       1648 58.68                             109     0.4 6  347 225 
 SDV  BZ IP       1648 58.81                             108    -0.3 6  356  50 
                                                                                
