 2017 1021 1050 10.7 L   6.645 -74.068  4.0  RSN  5 0.3 1.2LRSN                1
 GAP=143        0.91       2.9     1.9  5.6 -0.1086E+01 -0.1038E+01  0.1362E+01E
 Epicentro: PUERTO PARRA - SANTANDER                                           3
 ACTION:UPD 17-11-07 19:34 OP:rebc STATUS:               ID:20171021105010 L   I
 OLDACT:UP  17-10-21 22:17 OP:edw  STATUS:               ID:20171021104714     3
 OLDACT:REG 17-10-21 20:04 OP:edw  STATUS:               ID:20171021104714     3
 2017-10-21-1048-00M.COL___441                                                 6
 STAT SP IPHASW D HRMM SECON CODA AMPLIT PERI AZIMU VELO AIN AR TRES W  DIS CAZ7
 PTB  HZ IP     D 1050 17.80                              47   -0.2410 44.5 255 
 PTB  HN ES       1050 23.70                              47   -0.0710 44.5 255 
 BRR  HZ EP       1050 21.13                              47    0.0810 64.5  38 
 BRR  HE ES       1050 29.15                              47    0.0110 64.5  38 
 BAR2 EZ EP       1050 26.31                              47   -0.0910 98.1  93 
 BAR2 EZ ES       1050 38.03                              47   -0.6210 98.1  93 
 BAR2 EZ I        1050 40.49         7.7 0.82             47           98.1  93 
 RUS  HZ EP       1050 33.29                              47    0.72 9  137 127 
 RUS  HZ ES       1050 49.62                              47   -0.01 9  137 127 
 RUS  HZ I        1050 52.81         3.8 0.26             47            137 127 
 PAM  EZ EP       1050 37.84                              47    0.36 9  170  63 
                                                                                
