 2014  121 1019 54.6 L   6.793 -73.117136.0  RSN  5 0.2 1.1LRSN                1
 GAP=141        0.46       3.6     4.9  4.3 -0.4647E+01  0.1024E+02 -0.5409E+01E
 Epicentro: LOS SANTOS - SANTANDER                                             3
 ACTION:UPD 14-03-13 09:57 OP:ep   STATUS:               ID:20140121101954 L   I
 OLDACT:REG 14-01-21 15:58 OP:stll STATUS:               ID:20140121101813     3
 2014-01-21-1018-13M.COL___228                                                 6
 STAT SP IPHASW D HRMM SECON CODA AMPLIT PERI AZIMU VELO AIN AR TRES W  DIS CAZ7
 BAR2 SZ ES       1020 27.48                             170    0.0610 23.4 198 
 BAR2 SZ I        1020 29.08         3.6 0.18            141           23.4 198 
 PAM  SZ EP       1020 15.73                             149    0.0610 76.0  37 
 PAM  SZ I        1020 15.91         3.5 0.22            141           76.0  37 
 RUS  HZ EP       1020 17.21                             142   -0.1010 99.7 178 
 RUS  HN ES       1020 35.04                             142   -0.0010 99.7 178 
 RUS  HZ I        1020 35.90         1.1 0.40            131           99.7 178 
 PTB  HZ EP       1020 20.82                             129   -0.23 9  151 259 
 PTB  HZ I        1020 43.70         1.2 0.16            110            151 259 
 GUY2CHZ EP       1020 38.36                             110    0.36 7  303 235 
 GUY2CHZ I        1020 38.56         0.7 0.28                           303 235 
                                                                                
