 2016  621 1030 45.4 L   6.005 -73.736  0.5  RSN  5 0.3 1.0LRSN                1
 GAP=124        0.72       1.9     1.5  4.3 -0.4699E+00 -0.1693E+00  0.4413E+00E
 Epicentro: BOLIVAR - SANTANDER                                                3
 ACTION:UPD 16-07-21 22:21 OP:rebc STATUS:               ID:20160621103045 L   I
 OLDACT:UP  16-06-21 21:45 OP:edw  STATUS:               ID:20160621102747d    3
 OLDACT:UP  16-06-21 21:43 OP:edw  STATUS:               ID:20160621102747d    3
 OLDACT:UP  16-06-21 21:41 OP:edw  STATUS:               ID:20160621102747d    3
 OLDACT:UP  16-06-21 21:40 OP:edw  STATUS:               ID:20160621102747d    3
 OLDACT:UP  16-06-21 21:39 OP:edw  STATUS:               ID:20160621102747d    3
 OLDACT:UP  16-06-21 21:38 OP:edw  STATUS:               ID:20160621102747d    3
 OLDACT:DUP 16-06-21 21:36 OP:edw  STATUS:               ID:20160621102747d    3
 OLDACT:UP  16-06-21 21:22 OP:edw  STATUS:               ID:20160621102746     3
 OLDACT:UP  16-06-21 21:20 OP:edw  STATUS:               ID:20160621102746     3
 OLDACT:REG 16-06-21 20:01 OP:edw  STATUS:               ID:20160621102746     3
 2016-06-21-1027-46M.COL___313                                                 6
 STAT SP IPHASW D HRMM SECON CODA AMPLIT PERI AZIMU VELO AIN AR TRES W  DIS CAZ7
 SPBC HZ EP       1030 54.82                              47    0.0310 53.9 224 
 SPBC HN ES       1031  2.20                              47    0.1110 53.9 224 
 SPBC HZ I        1031  6.56         4.1 0.42                          53.9 224 
 RUS  HZ EP       1030 57.56                              47   -0.5810 73.3 100 
 RUS  HE ES       1031  8.27                              47    0.2110 73.3 100 
 RUS  HZ I        1031 16.47         7.7 0.54                          73.3 100 
 BAR2 EZ EP       1031  0.54                              47    0.2410 89.3  43 
 BAR2 EZ ES       1031 11.81                              47   -0.0910 89.3  43 
 BAR2 EZ I        1031 15.35         5.7 0.46                          89.3  43 
 PTB  HZ EP       1031  1.60                              47    0.0210 99.3 307 
 PTB  HN ES       1031 13.96                              47   -0.2210 99.3 307 
 PTB  HZ I        1031 14.80         6.8 0.56                          99.3 307 
 BRR  HZ EP       1031  5.32                              47    0.3210  122   1 
 ZAR  HZ EP   4   1031 11.70                              37   -5.34 0  206 323 
 ZAR  HN ES   4   1031 22.82                              37   -18.9 0  206 323 
                                                                                
