 2011  621 1323 36.3 L   6.804 -73.088146.5  RSN  9 0.5 2.1LRSN                1
 GAP=162        1.03       6.2    12.2  9.1  0.1646E+01  0.1941E+02  0.2492E+01E
 Epicentro: LOS SANTOS - SANTANDER                                             3
 ACTION:UP  11-07-14 19:07 OP:ep   STATUS:               ID:20110621132336 L   I
 2011-06-21-1320-08S.COL___140                                                 6
 STAT SP IPHASW D HRMM SECON CODA AMPLIT PERI AZIMU VELO SNR AR TRES W  DIS CAZ7
 BTL  SZ EP       1323 57.08                             171     1.110   24 302 
 BTL  SZ ES   2   1324 11.87                             171     0.5 5   24 302 
 BAR2 SZ EP       1323 55.92                             170    -0.110   26 204 
 BAR2 SZ ES   2   1324 10.53                             170    -0.9 5   26 204 
 GIR2 SZ EP       1323 55.97                             167    -0.110   33 339 
 GIR2 SZ ES   2   1324 11.32                             167    -0.2 5   33 339 
 BRR  HZ EP       1323 57.76                             151    -0.110   77 296 
 BRR  HZ I        1323 57.93        81.3 0.12                            77 296 
 BRR  HN ES   2   1324 15.12                             151     0.5 5   77 296 
 RUS  HZ EP       1324  0.18                             144     0.010  101 180 
 RUS  HN ES   2   1324 18.41                             144    -0.3 5  101 180 
 RUS  HZ I        1324 19.46         8.8 0.30                           101 180 
 BRI  SZ EP   3   1324  0.17                             142     0.1 2  106  18 
 OCA  SZ EP       1324  4.41                             130    -0.3 9  161 351 
 OCA  SZ ES   2   1324 26.02                             130    -0.8 5  161 351 
 OCA  SZ I        1324 29.24        13.5 0.20                           161 351 
 NOR  SZ EP       1324 12.33                             118    -0.3 8  240 235 
 HEL  HZ EP   3   1324 17.17                             114    -0.1 2  278 256 
 HEL  HN ES   3   1324 49.03                             114    -0.2 2  278 256 
 HEL  HZ I        1324 54.78         4.5 0.34                           278 256 
                                                                                
