 2013  121 1940 22.6 L   6.798 -73.180141.7  RSN  5 0.1 1.4LRSN                1
 GAP=143        0.32       2.4     2.5  3.2 -0.1598E+01  0.1864E+01  0.6500E+00E
 Epicentro: LOS SANTOS - SANTANDER                                             3
 ACTION:UPD 13-02-15 09:15 OP:ep   STATUS:               ID:20130121194022 L   I
 2013-01-21-1940-00M.COL___241                                                 6
 STAT SP IPHASW D HRMM SECON CODA AMPLIT PERI AZIMU VELO AIN AR TRES W  DIS CAZ7
 BAR2 SZ ES   1   1940 56.76                             170    0.13 7 22.8 181 
 PAM  SZ EP   1   1940 44.67                             149    0.14 7 80.0  42 
 PAM  SN ES   1   1941  1.53                             149   -0.12 7 80.0  42 
 PAM  SZ I        1941  3.23         4.6 0.42            120           80.0  42 
 RUS  HZ EP   1   1940 45.84                             143   -0.11 7  101 174 
 RUS  HN ES   1   1941  4.12                             143   -0.05 7  101 174 
 RUS  HZ I        1941  6.15         2.8 0.42            109            101 174 
 PTB  HZ EP   1   1940 48.79                             132   -0.09 7  144 259 
 PTB  HN ES   1   1941  9.39                             132    0.01 7  144 259 
 PTB  HZ I        1941 12.61         4.0 0.14            105            144 259 
 CHI  HZ EP   1   1941  0.05                             116    0.12 6  247 194 
 CHI  HZ I        1941 36.38         2.1 0.36             96            247 194 
                                                                                
