 2017  921 1902 55.3 L   6.796 -73.097151.9  RSN 11 0.5 2.0LRSN                1
 GAP=117        1.08       3.9     4.9  6.0  0.5583E+01  0.7542E+01  0.8383E+01E
 Epicentro: LOS SANTOS - SANTANDER                                             3
 ACTION:UPD 17-10-05 19:14 OP:rebc STATUS:               ID:20170921190255 L   I
 OLDACT:UP  17-09-21 22:44 OP:edw  STATUS:               ID:20170921185249     3
 OLDACT:UP  17-09-21 22:43 OP:edw  STATUS:               ID:20170921185249     3
 OLDACT:UP  17-09-21 22:42 OP:edw  STATUS:               ID:20170921185249     3
 OLDACT:UP  17-09-21 22:38 OP:edw  STATUS:               ID:20170921185249     3
 OLDACT:UP  17-09-21 22:32 OP:edw  STATUS:               ID:20170921185249     3
 OLDACT:REG 17-09-21 20:53 OP:lv   STATUS:               ID:20170921185249     3
 2017-09-21-1858-00M.COL___444                                                 6
 STAT SP IPHASW D HRMM SECON CODA AMPLIT PERI AZIMU VELO AIN AR TRES W  DIS CAZ7
 BAR2 EZ EP       19 3 15.46                             171   -0.2810 24.4 203 
 BAR2 EZ ES       19 3 31.47                             171   -0.1810 24.4 203 
 BAR2 EZ I        19 3 33.07        17.9 0.22            169           24.4 203 
 PAM  EZ EP       19 3 18.36                             153    0.3110 74.4  36 
 PAM  EE ES       19 3 35.72                             153   -0.0410 74.4  36 
 PAM  EZ I        19 3 37.65        21.9 0.54            155           74.4  36 
 BRR  HZ EP       19 3 17.60                             152    0.1610 76.1 297 
 BRR  HE ES       19 3 35.20                             152    0.5310 76.1 297 
 RUS  HZ EP       19 3 19.32                             145   -0.3410 99.9 179 
 RUS  HN ES       19 3 38.45                             145   -0.1810 99.9 179 
 RUS  HZ I        19 3 39.66         8.2 0.46            145           99.9 179 
 YPLC HZ EP       19 3 25.59                             128    0.27 9  174 153 
 YPLC HE ES       19 3 48.97                             128    0.28 9  174 153 
 YPLC HZ I        19 3 57.03         6.9 0.28            129            174 153 
 ZAR  HZ EP       19 3 28.90                             123    0.18 8  209 292 
 ZAR  HN ES       19 3 54.07                             123   -0.69 8  209 292 
 ZAR  HZ I        19 4  0.79         9.9 0.36            124            209 292 
 NOR  HZ EP       19 3 31.37                             119   -0.51 8  239 235 
 NOR  HN ES   4   19 3 58.76                             119   -1.61 0  239 235 
 NOR  HZ I        19 4  1.78         6.3 0.22            119            239 235 
 CHI  HZ EP       19 3 34.29                             118    0.79 8  250 196 
 CHI  HE ES       19 4  2.75                             118   -0.52 8  250 196 
 GUY2CHZ EP   4   19 3 41.01                             113    1.30 0  305 235 
 GUY2CHE ES   4   19 4 16.45                             113    2.14 0  305 235 
 GUY2CHZ I        19 4 22.09         6.9 0.74                           305 235 
 PTGC HZ EP       19 3 38.29                             113   -0.93 7  306 160 
 PTGC HE ES   4   19 4  9.68                             113   -3.77 0  306 160 
 ELA  HE ES   4   19 4 22.69                             111    2.70 0  333 230 
 PRA  HZ EP       19 3 49.95                             107    0.60 6  394 210 
 PRA  HE ES       19 4 32.55                             107    1.07 6  394 210 
 PRA  HZ I        19 4 39.69         4.3 0.34            108            394 210 
 ORTC HE ES   4   19 4 33.77                             107    1.48 0  398 217 
                                                                                
