 2013 1021 1735 18.9 L   6.783 -73.169152.6  RSN  6 0.4 2.2LRSN                1
 GAP=198        0.97       4.3     6.5  6.7  0.7756E+01  0.2763E+01 -0.4314E+01E
 Epicentro: LOS SANTOS - SANTANDER                                             3
 ACTION:UPD 13-11-25 09:22 OP:ep   STATUS:               ID:20131021173518 L   I
 OLDACT:UP  13-10-21 17:07 OP:cam  STATUS:               ID:20131021172851d    3
 OLDACT:DUP 13-10-21 17:03 OP:cam  STATUS:               ID:20131021172851d    3
 2013-10-21-1728-49M.COL___212                                                 6
 STAT SP IPHASW D HRMM SECON CODA AMPLIT PERI AZIMU VELO AIN AR TRES W  DIS CAZ7
 BAR2 SZ EP       1735 39.27                             172   -0.0710 21.1 184 
 BAR2 SZ ES       1735 55.15                             172   -0.1110 21.1 184 
 BAR2 SZ I        1735 55.42        45.5 0.24            170           21.1 184 
 BRR  HZ IP     C 1735 41.12                             154    0.3710 69.9 301 
 BRR  HE ES       1735 58.44                             154    0.6810 69.9 301 
 BRR  HZ I        1736  2.20        14.1 0.12            150           69.9 301 
 RUS  HZ EP       1735 43.21                             146   -0.0310 98.9 174 
 RUS  HN ES       1736  1.80                             146   -0.4010 98.9 174 
 RUS  HZ I        1736  3.14         9.9 0.26            148           98.9 174 
 PTB  HZ EP       1735 46.16                             134   -0.04 9  145 259 
 PTB  HN ES       1736  7.12                             134   -0.36 9  145 259 
 PTB  HZ I        1736 14.38        17.1 0.58            132            145 259 
 SPBC HZ EP       1735 48.32                             131    0.65 9  160 219 
 SPBC HN ES   1   1736  9.79                             131   -0.30 7  160 219 
 SPBC HZ I        1736 11.59        19.0 0.22            131            160 219 
 ZAR  HZ EP   4   1735 53.40                             124    1.74 0  202 293 
 SML  HZ EP   1   1735 55.70                             119   -0.32 6  244 336 
 SML  HN ES       1736 24.36                             119   -0.58 8  244 336 
 SML  HZ I        1736 28.78        22.0 0.22            119            244 336 
                                                                                
