 2012 1121 1027 43.8 L   6.825 -73.178140.3  RSN  7 0.4 1.7LRSN                1
 GAP=131        0.72       4.1     4.4  7.3 -0.3237E+00  0.1053E+02  0.5542E+01E
 Epicentro: ZAPATOCA - SANTANDER                                               3
 ACTION:UPD 12-12-05 15:34 OP:}ep  STATUS:               ID:20121121102743 L   I
 2012-11-21-1020-00M.COL___234                                                 6
 STAT SP IPHASW D HRMM SECON CODA AMPLIT PERI AZIMU VELO AIN AR TRES W  DIS CAZ7
 BAR2 SZ EP   1   1028  2.69                             169   -0.18 7 25.8 181 
 BAR2 SZ ES   1   1028 17.60                             169   -0.12 7 25.8 181 
 BAR2 SZ I        1028 18.62        16.3 0.34                          25.8 181 
 PAM  SZ EP   1   1028  5.67                             150    0.18 7 77.6  43 
 PAM  SN ES   1   1028 22.63                             150    0.25 7 77.6  43 
 PAM  SZ I        1028 24.42         4.8 0.50                          77.6  43 
 RUS  HZ EP   1   1028  7.19                             142   -0.10 7  104 174 
 RUS  HZ I        1028 26.97         4.5 0.56                           104 174 
 PTB  HZ EP   1   1028  9.32                             131   -0.78 7  145 257 
 PTB  HN ES   1   1028 30.48                             131   -0.11 7  145 257 
 PTB  HZ I        1028 32.96         5.7 0.24                           145 257 
 ZAR  HE ES   1   1028 40.46                             122    0.29 6  200 292 
 SML  HE ES   1   1028 47.85                             117    0.13 6  240 336 
 PRA  HZ EP   1   1028 37.38                             105    0.12 4  393 209 
 PRA  HE ES   1   1029 20.20                             105    1.27 4  393 209 
 PRA  HZ I        1029 23.09         2.7 0.46                           393 209 
                                                                                
