 2016 1021 1717 39.9 L   6.785 -73.123148.4  RSN 10 0.4 2.0LRSN                1
 GAP=122        0.95       4.4     4.3  5.8 -0.3913E+01  0.1851E+01  0.9218E+01E
 Epicentro: LOS SANTOS - SANTANDER                                             3
 ACTION:UPD 16-11-09 19:21 OP:rebc STATUS:               ID:20161021171739 L   I
 OLDACT:UP  16-10-21 23:51 OP:ar   STATUS:               ID:20161021170745     3
 OLDACT:REG 16-10-21 22:17 OP:ar   STATUS:               ID:20161021170745     3
 2016-10-21-1708-00M.COL___358                                                 6
 STAT SP IPHASW D HRMM SECON CODA AMPLIT PERI AZIMU VELO AIN AR TRES W  DIS CAZ7
 BAR2 EZ EP       1717 59.82                             171   -0.0110 22.3 197 
 BAR2 EZ ES       1718 15.15                             171   -0.2310 22.3 197 
 BAR2 EZ I        1718 17.61        31.3 0.30            168           22.3 197 
 BRR  HZ EP       1718  1.65                             152    0.1410 74.2 299 
 BRR  HE ES       1718 18.87                             152    0.5110 74.2 299 
 BRR  HZ I        1718 22.69        20.1 0.28            152           74.2 299 
 PAM  EZ EP       1718  2.85                             151    0.4710 77.1  37 
 PAM  EN ES       1718 19.57                             151   -0.3510 77.1  37 
 PAM  EZ I        1718 23.08         9.0 0.56            156           77.1  37 
 RUS  HZ EP       1718  3.78                             145   -0.0110 98.8 177 
 RUS  HE ES       1718 22.65                             145    0.2310 98.8 177 
 RUS  HZ I        1718 23.86        11.1 0.38            145           98.8 177 
 PTB  HZ EP       1718  6.69                             132   -0.59 9  150 260 
 PTB  HN ES       1718 28.01                             132   -0.63 9  150 260 
 PTB  HZ I        1718 28.58         4.4 0.16            132            150 260 
 SPBC HZ EP       1718  8.87                             130    0.23 9  164 220 
 SPBC HE ES   4   1718 29.66                             130   -1.39 0  164 220 
 SPBC HZ I        1718 35.72        19.6 0.16            130            164 220 
 NOR  HZ EP   4   1718 13.52                             119   -2.38 0  236 235 
 NOR  HN ES       1718 44.28                             119    0.30 8  236 235 
 NOR  HZ I        1718 53.61         5.2 0.16            120            236 235 
 GUY2CHZ EP   4   1718 25.72                             113    1.96 0  302 235 
 GUY2CHN ES   4   1719  2.30                             113    4.33 0  302 235 
 GUY2CHZ I        1719  6.07         6.4 0.36                           302 235 
 PTGC HZ EP       1718 22.92                             112   -0.68 7  306 159 
 PTGC HE ES   4   1718 55.76                             112   -1.93 0  306 159 
 PRA  HZ EP       1718 33.98                             107    0.49 6  392 210 
 PRA  HN ES       1719 15.50                             107    0.20 6  392 210 
 PRA  HZ I        1719 22.08         6.9 0.42            108            392 210 
                                                                                
