 2010  321 1921 55.1 L   6.785 -73.079149.0  RSN 14 0.4 3.6LRSN                1
 GAP=131        0.87       3.4     5.7  6.1 -0.4506E+01  0.3575E+01  0.2517E+01E
 Epicentro: LOS SANTOS - SANTANDER                                             3
 ACTION:UP  10-08-24 09:55 OP:vdl  STATUS:               ID:20100321192155 L   I
 2010-03-21-1919-27S.COL___098                                                 6
 STAT SP IPHASW D HRMM SECON CODA AMPLIT PERI AZIMU VELO SNR AR TRES W  DIS CAZ7
 BAR2 SZ IP       1922 15.20                             170     0.010   24 208 
 BAR2 SZ ES   2   1922 30.67                             170    -0.1 5   24 208 
 BRR  HZ IP       1922 17.19                             151     0.210   79 297 
 BRR  HZ I        1922 18.87       659.8 0.13                            79 297 
 BRR  HN ES   1   1922 34.57                             151     0.4 7   79 297 
 RUS  HZ IP       1922 18.96                             145    -0.110   99 180 
 RUS  HE ES   1   1922 37.67                             145    -0.1 7   99 180 
 RUS  HZ I        1922 39.53       197.6 0.32                            99 180 
 OCA  SZ EP   1   1922 23.59                             130    -0.3 7  163 351 
 OCA  SZ ES   1   1922 46.17                             130    -0.2 7  163 351 
 OCA  SZ I        1922 50.88       742.4 0.17                           163 351 
 CHI  HZ EP   1   1922 33.20                             118     0.2 6  249 197 
 CHI  HE ES   1   1923  2.34                             118    -0.3 6  249 197 
 CHI  HZ I        1923  8.28       133.2 0.48                           249 197 
 ROSC BZ IP       1922 34.72                             117     1.0 8  255 213 
 ROSC BE ES   1   1923  3.03                             117    -0.7 6  255 213 
 ROSC BZ I        1923 10.42       197.4 0.46                           255 213 
 HEL  HZ EP   1   1922 36.55                             115     0.3 6  279 257 
 HEL  HE ES   2   1923  8.02                             115    -0.3 4  279 257 
 HEL  HZ I        1923 14.23       128.4 0.41                           279 257 
 RREF BZ EP   2   1922 42.85                             111     0.9 3  326 230 
 RREF BE ES   2   1923 17.76                             111    -0.7 3  326 230 
 RREF BZ I        1923 26.61       181.2 0.32                           326 230 
 DBB  SZ EP       1922 42.89                             110    -0.7 6  347 274 
 TOL  SZ EP   1   1922 44.11                             110     0.1 5  348 226 
 SDV  BZ IP       1922 44.53                             109    -0.2 6  356  49 
 SDV  BZ I        1922 45.41       155.5 0.14                           356  49 
 ANIL BZ EP   2   1922 46.06                             109     0.5 3  361 226 
 ANIL BN ES   2   1923 24.36                             109    -0.5 3  361 226 
 ANIL BZ I        1923 30.51       280.5 0.46                           361 226 
 PRA  HZ EP   1   1922 48.44                             107    -0.6 4  394 211 
 PRA  HN ES   1   1923 30.90                             107    -0.2 4  394 211 
 PRA  HZ I        1923 34.60       144.0 0.44                           394 211 
 MAL  SZ EP   2   1923  9.51                             101     0.6 2  563 237 
 MAL  SZ I        1923 15.98        31.5 0.52                           563 237 
                                                                                
