 2012  821 1130 22.9 L   6.791 -73.126145.3  RSN 10 0.5 2.2LRSN                1
 GAP=139        0.90       3.5     4.6  6.8  0.5949E+00  0.1118E+02  0.6135E+01E
 Epicentro: LOS SANTOS - SANTANDER                                             3
 ACTION:UPD 12-09-10 11:57 OP:ep   STATUS:               ID:20120821113022 L   I
 2012-08-21-1130-00M.COL___217                                                 6
 STAT SP IPHASW D HRMM SECON CODA AMPLIT PERI AZIMU VELO AIN AR TRES W  DIS CAZ7
 BAR2 SZ EP   1   1130 42.26                             171   -0.16 7 22.8 196 
 BAR2 SZ ES   1   1130 57.13                             171   -0.55 7 22.8 196 
 BAR2 SZ I        1131  0.51        40.3 0.20                          22.8 196 
 BRR  HZ EP   1   1130 44.20                             152    0.10 7 73.6 298 
 BRR  HN ES   1   1131  1.44                             152    0.78 7 73.6 298 
 BRR  HZ I        1131  7.16        43.8 0.12                          73.6 298 
 PAM  SZ EP       1130 45.04                             151    0.0510 76.8  38 
 PAM  SZ I        1130 45.27        24.9 0.20                          76.8  38 
 PAM  SN ES       1131  2.46                             151    0.2010 76.8  38 
 RUS  HZ EP       1130 46.08                             144   -0.4010 99.4 177 
 RUS  HN ES   1   1131  4.81                             144   -0.10 7 99.4 177 
 PTB  HZ EP   1   1130 49.14                             132   -0.83 7  150 259 
 PTB  HZ I        1130 56.32        73.0 0.70                           150 259 
 PTB  HN ES   2   1131 10.36                             132   -0.75 5  150 259 
 OCA  HN ES   1   1131 13.32                             129   -0.09 7  162 352 
 ZAR  HZ EP   1   1130 56.09                             122    0.57 6  206 292 
 ZAR  HN ES       1131 20.85                             122   -0.15 8  206 292 
 ZAR  HZ I        1131 26.66        14.6 0.31                           206 292 
 NOR  SZ EP   1   1130 58.40                             118   -0.29 6  236 235 
 NOR  SN ES   2   1131 26.68                             118    0.05 4  236 235 
 NOR  SZ I        1131 30.52        16.0 0.20                           236 235 
 CHI  HZ EP   1   1131  0.51                             117    0.02 6  248 196 
 CHI  HN ES       1131 30.75                             117    0.92 8  248 196 
 CHI  HZ I        1131 37.92         4.8 0.35                           248 196 
 HEL  HZ EP   1   1131  3.65                             115    0.39 6  274 256 
 HEL  HZ I        1131 40.55         6.0 0.23                           274 256 
                                                                                
