 2010  821 1135  4.4 L   6.721 -73.201142.0  RSN  5 0.2 1.7LRSN                1
 GAP=158        0.47       6.8    10.9  7.6  0.9079E+01  0.9249E+01 -0.3260E+02E
 Epicentro: VILLANUEVA - SANTANDER                                             3
 ACTION:UP  10-09-07 10:57 OP:vdl  STATUS:               ID:20100821113503 L   I
 2010-08-21-1131-20S.COL___120                                                 6
 STAT SP IPHASW D HRMM SECON CODA AMPLIT PERI AZIMU VELO SNR AR TRES W  DIS CAZ7
 BAR2 SZ EP       1135 23.29                             175    -0.210   14 173 
 BAR2 SZ ES   1   1135 38.63                             175     0.3 7   14 173 
 BAR2 SZ I        1135 39.76        11.2 0.21                            14 173 
 BTL  SZ EP       1135 23.53                             169    -0.110   23 341 
 BTL  SZ ES   3   1135 37.84                                    -0.7 2   23 341 
 BRR  HZ EP       1135 25.23                             152     0.110   71 307 
 RUS  HN ES   2   1135 45.10                             147     0.1 5   93 172 
 GUE  SZ EP   1   1135 29.74                             137     0.1 7  126  14 
                                                                                
