 2014 1221 1022 16.2 L   6.823 -73.033153.5  RSN  4 0.2 1.1LRSN                1
 GAP=211        0.65       7.7    17.1  8.4  0.1200E+03 -0.1034E+03 -0.4982E+02E
 Epicentro: CEPITA - SANTANDER                                                 3
 ACTION:UPD 15-02-10 17:06 OP:nd   STATUS:               ID:20141221102216 L   I
 OLDACT:REG 14-12-21 21:41 OP:fm   STATUS:               ID:20141221101742     3
 2014-12-21-1017-42M.COL___299                                                 6
 STAT SP IPHASW D HRMM SECON CODA AMPLIT PERI AZIMU VELO AIN AR TRES W  DIS CAZ7
 BAR2 EZ EP       1022 37.07                             168    0.1410 30.4 213 
 BAR2 EZ ES   1   1022 53.32                             168    0.24 7 30.4 213 
 BAR2 EZ I        1022 55.13         2.9 0.34            174           30.4 213 
 BRR  HZ EP       1022 38.94                             150    0.1610 81.4 293 
 BRR  HN ES       1022 56.46                             150    0.0810 81.4 293 
 RUS  HZ EP       1022 41.14                             145    0.2410  103 183 
 RUS  HE ES       1022 59.68                             145   -0.4710  103 183 
 RUS  HZ I        1023  1.64         0.8 0.44            149            103 183 
 SML  HZ EP       1022 53.43                             119   -0.20 8  247 332 
 SML  HN ES       1023 22.57                             119   -0.25 8  247 332 
 SML  HZ I        1023 25.25         1.9 0.10            121            247 332 
                                                                                
