 2015 1021 1645 10.9 L   6.781 -73.183150.7  RSN  6 0.4 1.8LRSN                1
 GAP=232        1.02       6.2     9.1  7.3  0.3742E+02  0.2126E+02  0.1213E+02E
 Epicentro: LOS SANTOS - SANTANDER                                             3
 ACTION:UPD 15-12-22 20:41 OP:cam  STATUS:               ID:20151021164510 L   I
 OLDACT:UP  15-11-01 03:31 OP:DRIO STATUS:               ID:20151021164510 L   3
 OLDACT:REG 15-10-21 21:05 OP:drio STATUS:               ID:20151021163748     3
 2015-10-21-1637-48M.COL___316                                                 6
 STAT SP IPHASW D HRMM SECON CODA AMPLIT PERI AZIMU VELO AIN AR TRES W  DIS CAZ7
 BAR2 EZ EP       1645 30.93                             172   -0.1410 20.8 180 
 BAR2 EZ ES       1645 46.25                             172   -0.5610 20.8 180 
 BAR2 EZ I        1645 47.42        19.1 0.32            166           20.8 180 
 BRR  HZ EP       1645 32.79                             154    0.3410 68.7 302 
 BRR  HE ES       1645 49.74                             154    0.4910 68.7 302 
 BRR  HZ I        1645 53.96        15.3 0.38            150           68.7 302 
 RUS  HZ EP       1645 35.32                             145    0.3110 98.8 174 
 RUS  HN ES       1645 53.86                             145    0.0410 98.8 174 
 RUS  HZ I        1645 56.96         4.4 0.38            145           98.8 174 
 ZAR  HZ EP       1645 42.49                             124   -0.88 9  201 293 
 ZAR  HE ES       1646  8.75                             124    0.06 9  201 293 
 ZAR  HZ I        1646 14.05         6.7 0.20            124            201 293 
 CHI  HZ EP       1645 48.90                             118    0.36 8  246 194 
 CHI  HN ES       1646 17.74                             118   -0.16 8  246 194 
 CHI  HZ I        1646 21.86         4.1 0.60            119            246 194 
 GUY2CHZ EP   4   1645 56.65                             114    2.42 0  297 235 
 GUY2CHN ES   4   1646 30.37                             114    2.35 0  297 235 
 GUY2CHZ I        1646 37.11         3.1 0.34                           297 235 
                                                                                
