 2012 1021 1935  0.4 L   6.778 -73.095153.6  RSN  5 0.3 1.7LRSN                1
 GAP=144        0.56       3.9     4.3  6.1  0.4985E+01  0.6169E+01  0.2827E+01E
 Epicentro: LOS SANTOS - SANTANDER                                             3
 ACTION:UPD 12-11-22 17:05 OP:ep   STATUS:               ID:20121021193500 L   I
 2012-10-21-1930-00M.COL___231                                                 6
 STAT SP IPHASW D HRMM SECON CODA AMPLIT PERI AZIMU VELO AIN AR TRES W  DIS CAZ7
 BAR2 SZ EP   1   1935 20.75                             171   -0.23 7 22.7 205 
 PAM  SZ EP   1   1935 23.73                             153    0.34 7 75.9  35 
 PAM  SE ES   1   1935 41.00                             153   -0.31 7 75.9  35 
 PAM  SZ I        1935 42.91         4.8 0.47                          75.9  35 
 BRR  HZ EP       1935 23.04                             152    0.2810 77.3 298 
 BRR  HZ I        1935 37.80         8.9 0.35                          77.3 298 
 BRR  HN ES   1   1935 40.34                             152    0.15 7 77.3 298 
 RUS  HZ EP       1935 24.76                             146   -0.0110 97.9 179 
 RUS  HN ES   1   1935 43.75                             146   -0.01 7 97.9 179 
 ZAR  HZ EP   1   1935 33.50                             123   -0.51 6  210 292 
 ZAR  HN ES   1   1936  0.15                             123   -0.06 6  210 292 
 ZAR  HZ I        1936  5.33         5.6 0.26                           210 292 
                                                                                
