 2011 1021 1416 13.9 L   6.765 -73.152148.2  RSN  9 0.4 2.0LRSN                1
 GAP=137        0.81       4.2     4.7  6.4 -0.4872E+01  0.1013E+02 -0.8183E+00E
 Epicentro: LOS SANTOS - SANTANDER                                             3
 ACTION:UPD 12-07-13 16:05 OP:ep   STATUS:               ID:20111021141613 L   I
 2011-10-21-1414-30S.COL___171                                                 6
 STAT SP IPHASW D HRMM SECON CODA AMPLIT PERI AZIMU VELO AIN AR TRES W  DIS CAZ7
 BAR2 SZ EP   1   1416 33.89                             172    0.09 7 19.4 190 
 BAR2 SZ ES   1   1416 48.58                             172   -0.70 7 19.4 190 
 BAR2 SZ I        1416 50.47        33.9 0.20                          19.4 190 
 GIR2 SZ EP   1   1416 34.07                             166    0.06 7 35.0 353 
 GIR2 SZ ES   1   1416 49.90                             166    0.24 7 35.0 353 
 BRR  HZ EP       1416 35.81                             152    0.3810 72.5 301 
 BRR  HN ES   1   1416 52.82                             152    0.63 7 72.5 301 
 BRR  HZ I        1416 54.77        17.2 0.07                          72.5 301 
 PAM  SZ EP   1   1416 36.69                             150    0.06 7 80.8  38 
 PAM  SN ES   1   1416 53.87                             150   -0.45 7 80.8  38 
 RUS  HZ EP   1   1416 37.79                             145    0.12 7 96.8 175 
 RUS  HE ES   1   1416 56.19                             145    0.01 7 96.8 175 
 RUS  HZ I        1416 57.99        11.7 0.28                          96.8 175 
 OCA  SZ EP   1   1416 43.03                             129    0.23 7  164 354 
 OCA  SZ I        1417 11.36        13.8 0.38                           164 354 
 ZAR  HZ EP   1   1416 45.61                             123   -1.02 6  205 293 
 ZAR  HN ES   1   1417 11.79                             123   -0.34 6  205 293 
 ZAR  HZ I        1417 17.10         8.2 0.23                           205 293 
 NOR  SN ES       1417 17.27                             119    0.01 8  232 235 
 RREF HN ES   1   1417 35.76                             111    0.11 5  319 230 
 RREF HZ I        1417 40.90         4.9 0.17                           319 230 
                                                                                
