 2014  121 1027 47.8 L   6.805 -73.156143.6  RSN 11 0.6 1.9LRSN 2.5WRSN        1
 SPEC AVERAGE  MO 12.8 ST215.7 OM  1.1 f0 20.0 R0.2346 AL 0.00 WI 20.0 MW  2.5 3
 SPEC SD       MO  0.3 ST322.6 OM  0.4 f0 16.6 R0.1845 AL      WI      MW  0.2 3
 GAP=118        1.32       3.6     5.0  7.6 -0.3191E+01  0.8157E+01 -0.1281E+01E
 Epicentro: LOS SANTOS - SANTANDER                                             3
 SPEC PAM SH Z MO 13.0 ST0.482 OM  1.1 f0 4.32 R0.4454 AL-0.00 WI 20.0 MW  2.6 3
 SPEC PAM SH Z T102825 K 0.050 GD  163 VS 5.20 DE 3.20 Q0750.0 QA 1.50 VS 5.20 3
 SPEC RUS HH Z MO 12.5 ST  3.0 OM  0.6 f0 11.4 R0.1688 AL-0.00 WI 20.0 MW  2.3 3
 SPEC RUS HH Z T102828 K 0.050 GD  175 VS 5.20 DE 3.20 Q0750.0 QA 1.50 VS 5.20 3
 SPEC PTB HH Z MO 12.8 ST241.6 OM  0.8 f0 40.0 R0.0481 AL-0.00 WI 20.0 MW  2.5 3
 SPEC PTB HH Z T102833 K 0.050 GD  205 VS 5.20 DE 3.20 Q0750.0 QA 1.50 VS 5.20 3
 SPEC SML HH Z MO 13.3 ST833.4 OM  1.2 f0 40.0 R0.0481 AL-0.00 WI 20.0 MW  2.8 3
 SPEC SML HH Z T102850 K 0.050 GD  282 VS 5.20 DE 3.20 Q0750.0 QA 1.50 VS 5.20 3
 SPEC CHI HH Z MO 12.6 ST0.190 OM  0.5 f0 4.16 R0.4625 AL-0.00 WI 20.0 MW  2.4 3
 SPEC CHI HH Z T102851 K 0.050 GD  287 VS 5.20 DE 3.20 Q0750.0 QA 1.50 VS 5.20 3
 SPECGUY2CHH Z MO 15.3 ST  0.0 OM  3.1 f00.140 R  13.8 AL-0.00 WI 20.0 MW  4.1 3
 SPECGUY2CHH Z T1029 3 K 0.050 GD333.5 VS 5.20 DE 3.20 Q0750.0 QA 1.50 VS 5.20 3
 OLDACT:DUP 14-01-21 17:39 OP:stll STATUS:               ID:20140121101814d    3
 ACTION:UPD 14-03-13 09:57 OP:ep   STATUS:               ID:20140121102747 L   I
 OLDACT:UP  14-01-21 17:52 OP:stll STATUS:               ID:20140121101814d    3
 2014-01-21-1018-13M.COL___228                                                 6
 STAT SP IPHASW D HRMM SECON CODA AMPLIT PERI AZIMU VELO AIN AR TRES W  DIS CAZ7
 BAR2 SZ IP     C 1028  7.66                             170    0.5210 23.7 187 
 BAR2 SZ ES       1028 22.63                             170    0.3810 23.7 187 
 BAR2 SZ I        1028 23.88        29.5 0.16            171           23.7 187 
 PAM  SZ IP     C 1028 10.61                             150    0.8410 77.7  40 
 PAM  SN ES       1028 26.53                             150   -0.4010 77.7  40 
 PAM  SZ I        1028 29.40        12.1 0.46            151           77.7  40 
 RUS  HZ EP       1028 11.78                             143    0.4410  101 175 
 RUS  HN ES       1028 29.54                             143   -0.2010  101 175 
 RUS  SZ I        1028 31.31         9.6 0.34            144            101 175 
 PTB  HZ EP       1028 14.45                             132   -0.01 9  147 259 
 PTB  HN ES       1028 34.63                             132   -0.66 9  147 259 
 PTB  SZ I        1028 36.99         5.4 0.26            132            147 259 
 OCA  HN ES       1028 37.38                             129   -0.37 9  160 354 
 SPBC HN ES       1028 38.31                             128    0.17 9  163 219 
 ZAR  HN ES       1028 45.49                             122    0.45 9  203 292 
 SML  HZ EP       1028 24.22                             117    0.05 8  243 335 
 SML  HE ES       1028 52.09                             117   -0.47 8  243 335 
 SML  SZ I        1029  0.02        11.5 0.08            117            243 335 
 CHI  HZ EP       1028 25.13                             116   -0.23 8  249 195 
 CHI  HN ES       1028 53.42                             116   -1.27 8  249 195 
 CHI  SZ I        1028 59.31         5.1 3.30            117            249 195 
 GUY2CHZ EP       1028 32.22                             112    1.02 7  301 235 
 GUY2CHN ES       1029  5.03                             112   -0.05 7  301 235 
 GUY2CHZ I        1029 18.64         1.9 0.30                           301 235 
 SOCV BZ EP       1028 29.95                             111   -0.84 7  302  57 
                                                                                
