 2014  321 1005 32.6 L   6.814 -73.149148.2  RSN 24 0.4 2.5LRSN                1
 GAP= 70        0.82       2.1     2.4  4.5 -0.3805E+00  0.3485E+01 -0.3453E-01E
 Epicentro: LOS SANTOS - SANTANDER                                             3
 OLDACT:REG 14-03-21 14:55 OP:y    STATUS:               ID:20140321095809     3
 ACTION:UPD 14-04-09 23:19 OP:nd   STATUS:               ID:20140321100532 L   I
 OLDACT:UP  14-03-21 15:54 OP:fm   STATUS:               ID:20140321095809     3
 2014-03-21-0958-09M.COL___241                                                 6
 STAT SP IPHASW D HRMM SECON CODA AMPLIT PERI AZIMU VELO AIN AR TRES W  DIS CAZ7
 BAR2 SZ IP     D 10 5 52.63                             170    0.0810 24.8 189 
 BAR2 SZ ES   1   10 6  8.02                             170   -0.09 7 24.8 189 
 BAR2 SZ I        10 6 10.11        61.8 0.28            167           24.8 189 
 PAM  SZ EP     C 10 5 55.39                             151    0.3810 76.4  41 
 PAM  SN ES       10 6 12.80                             151    0.3110 76.4  41 
 PAM  SZ I        10 6 14.35        42.4 0.58            153           76.4  41 
 RUS  HZ EP       10 5 56.63                             144   -0.0710  102 176 
 RUS  HN ES       10 6 15.24                             144   -0.2610  102 176 
 RUS  SZ I        10 6 16.22        28.1 0.34            141            102 176 
 PTB  HZ EP       10 5 59.27                             133   -0.49 9  148 258 
 PTB  HN ES       10 6 20.87                             133   -0.07 9  148 258 
 PTB  SZ I        10 6 22.64        24.3 0.18            128            148 258 
 TAM  HZ IP     C 10 6  0.78                             131    0.25 9  156 106 
 TAM  HN ES       10 6 22.35                             131    0.02 9  156 106 
 TAM  SZ I        10 6 26.82        13.8 0.84            131            156 106 
 OCA  HZ EP       10 6  0.73                             130   -0.21 9  159 353 
 OCA  HN ES       10 6 22.62                             130   -0.43 9  159 353 
 OCA  SZ I        10 6 28.30        42.0 0.32            128            159 353 
 SPBC HZ EP       10 6  1.48                             129    0.10 9  164 219 
 SPBC HN ES       10 6 23.77                             129   -0.05 9  164 219 
 SPBC SZ I        10 6 26.17        47.5 0.24            126            164 219 
 ZAR  HZ EP       10 6  4.33                             123   -0.77 9  203 292 
 ZAR  HE ES       10 6 30.92                             123    0.46 9  203 292 
 ZAR  SZ I        10 6 36.63        40.4 0.32            120            203 292 
 NOR  HZ EP       10 6  8.42                             119   -0.11 8  235 234 
 NOR  HN ES       10 6 36.17                             119   -0.40 8  235 234 
 NOR  SZ I        10 6 41.78        22.6 0.20            116            235 234 
 SML  HZ EP       10 6  9.00                             118   -0.19 8  242 335 
 SML  HE ES       10 6 38.35                             118    0.63 8  242 335 
 SML  SZ I        10 6 46.98        40.4 0.08            116            242 335 
 CHI  HZ EP       10 6 10.94                             117    0.35 8  250 195 
 CHI  HN ES   1   10 6 40.03                             117   -0.19 6  250 195 
 CHI  SZ I        10 6 49.54        10.4 0.50            115            250 195 
 ROSC BZ EP   1   10 6 11.14                             117    0.16 6  254 211 
 ROSC BN ES   4   10 6 43.09                             117    2.18 0  254 211 
 ROSC SZ I        10 6 49.89        19.9 0.70            114            254 211 
 HEL  HZ EP   4   10 6 14.63                             115    1.69 0  272 255 
 HEL  HN ES   4   10 6 48.46                             115    4.06 0  272 255 
 HEL  SZ I        10 6 52.50        11.1 0.50            112            272 255 
 URE  HZ EP       10 6 13.02                             114   -0.66 7  283 292 
 URE  HE ES   4   10 6 44.55                             114   -1.18 0  283 292 
 URE  SZ I        10 6 56.65        19.6 0.22            111            283 292 
 GUY2CHZ EP   4   10 6 18.59                             113    2.20 0  302 234 
 GUY2CHN ES   4   10 6 53.56                             113    3.02 0  302 234 
 GUY2CSZ I        10 6 59.83        14.0 0.64                           302 234 
 PTGC HZ EP   4   10 6 15.24                             112   -1.50 0  310 159 
 PTGC HN ES   4   10 6 48.98                             112   -2.20 0  310 159 
 PTGC SZ I        10 7  0.50        17.3 0.36            110            310 159 
 RREF HZ EP   4   10 6 20.45                             111    1.52 0  323 229 
 RREF HN ES   4   10 6 56.94                             111    1.87 0  323 229 
 RREF SZ I        10 7  3.84        22.1 0.38            109            323 229 
 CBOC HZ EP   1   10 6 20.44                             110    0.81 5  334 252 
 CBOC HN ES   1   10 6 57.18                             110    0.87 5  334 252 
 CBOC SZ I        10 7  8.99         5.7 1.06            108            334 252 
 DBB  SZ EP   2   10 6 20.40                             110    0.28 3  339 274 
 DBB  SZ ES   2   10 6 57.07                             110   -0.11 3  339 274 
 DBB  SZ I        10 7  9.58        34.5 2.26            108            339 274 
 TOL  SZ EP   2   10 6 21.83                             110    0.78 3  344 224 
 TOL  SZ ES   4   10 7  2.42                             110    3.57 0  344 224 
 TOL  SZ I        10 7  4.07         7.6 0.45            107            344 224 
 ANIL HZ EP   2   10 6 23.34                             109    0.74 3  358 224 
 ANIL HN ES   2   10 7  3.11                             109    1.51 3  358 224 
 ANIL SZ I        10 7  8.17        26.2 0.30            107            358 224 
 ORTC HZ EP   1   10 6 26.98                             107    0.26 4  397 216 
 ORTC HN ES   4   10 7 12.05                             107    3.11 0  397 216 
 ORTC SZ I        10 7 24.54         7.6 1.90            105            397 216 
 SJC  HZ EP   4 D 10 6 26.84                             106   -1.22 0  408 327 
 SJC  HN ES   4   10 7  8.50                             106   -2.82 0  408 327 
 SJC  SZ I        10 7 25.00        12.9 1.40            104            408 327 
 MACC HZ EP   4   10 6 39.23                             102   -2.32 0  522 189 
 MACC HN ES   4   10 7 28.86                             102   -6.47 0  522 189 
 MACC SZ I        10 7 40.23         2.6 1.46            100            522 189 
                                                                                
