 2013  121 1638 39.4 L   6.779 -73.160144.3  RSN  6 0.3 1.6LRSN                1
 GAP=136        0.60       4.0     4.1  5.3 -0.1220E+01  0.2268E+01  0.4245E+01E
 Epicentro: LOS SANTOS - SANTANDER                                             3
 ACTION:UPD 13-02-15 09:15 OP:ep   STATUS:               ID:20130121163839 L   I
 2013-01-21-1637-44M.COL___199                                                 6
 STAT SP IPHASW D HRMM SECON CODA AMPLIT PERI AZIMU VELO AIN AR TRES W  DIS CAZ7
 BAR2 SZ EP   1   1638 58.68                             171   -0.17 7 20.8 187 
 BAR2 SZ ES   1   1639 13.84                             171   -0.15 7 20.8 187 
 BRR  HZ EP   1   1639  0.70                             152    0.27 7 71.0 301 
 BRR  HN ES   1   1639 17.36                             152    0.56 7 71.0 301 
 BRR  HZ I        1639 21.39        11.6 0.37            153           71.0 301 
 PAM  SZ EP   1   1639  1.72                             150    0.04 7 80.2  39 
 PAM  SN ES   1   1639 18.72                             150   -0.30 7 80.2  39 
 PAM  SZ I        1639 20.16         4.4 0.38            154           80.2  39 
 RUS  HZ EP   1   1639  3.11                             144    0.22 7 98.3 175 
 RUS  HN ES   1   1639 21.25                             144    0.07 7 98.3 175 
 RUS  HZ I        1639 23.41         4.3 0.18            147           98.3 175 
 PTB  HZ EP   1   1639  5.70                             132   -0.42 7  146 260 
 PTB  HN ES   1   1639 26.58                             132   -0.34 7  146 260 
 PTB  HZ I        1639 29.24         5.6 0.23            134            146 260 
 CHI  HZ EP   1   1639 16.98                             117    0.21 6  246 195 
                                                                                
