 2012 1121 1746 46.6 L   6.829 -73.156135.0  RSN  8 0.4 2.1LRSN                1
 GAP=200        0.67       3.1     4.9  5.6  0.5156E+01  0.7590E+01 -0.2289E+00E
 Epicentro: LOS SANTOS - SANTANDER                                             3
 ACTION:UPD 12-12-05 15:35 OP:}ep  STATUS:               ID:20121121174646 L   I
 2012-11-21-1740-00M.COL___234                                                 6
 STAT SP IPHASW D HRMM SECON CODA AMPLIT PERI AZIMU VELO AIN AR TRES W  DIS CAZ7
 BAR2 SZ EP       1747  5.24                             168    0.2210 26.3 186 
 BAR2 SZ ES   1   1747 19.19                             168   -0.18 7 26.3 186 
 BAR2 SZ I        1747 21.32        37.2 0.34                          26.3 186 
 RUS  HZ EP   1   1747  9.68                             140    0.11 7  104 176 
 RUS  HE ES   1   1747 27.61                             140    0.13 7  104 176 
 RUS  HZ I        1747 29.57         9.0 0.50                           104 176 
 PTB  HZ EP   1   1747 12.04                             130   -0.64 7  147 258 
 PTB  HN ES   1   1747 32.77                             130   -0.24 7  147 258 
 PTB  HZ I        1747 35.58        18.2 0.12                           147 258 
 ZAR  HZ EP   1   1747 18.62                             120    0.48 6  202 291 
 ZAR  HN ES   1   1747 43.05                             120    0.32 6  202 291 
 ZAR  HZ I        1747 48.35        13.6 0.48                           202 291 
 SML  HZ EP   1   1747 21.98                             115   -0.31 6  240 335 
 SML  HE ES   1   1747 49.89                             115   -0.22 6  240 335 
 CHI  HZ EP   1   1747 23.78                             114   -0.26 6  251 195 
 CHI  HN ES   1   1747 53.38                             114    0.14 6  251 195 
 CHI  HZ I        1747 56.66         5.2 0.34                           251 195 
 GUY  SZ EP   1   1747 31.02                             110    0.91 5  304 234 
 PRA  HZ EP   1   1747 39.59                             104   -0.45 4  394 209 
 PRA  HN ES   1   1748 21.20                             104   -0.51 4  394 209 
 PRA  HZ I        1748 28.07         7.1 0.26                           394 209 
                                                                                
