 2017 1121 1044 54.4 L   6.795 -73.123136.9  RSN  5 0.5 1.3LRSN                1
 GAP=158        1.25       8.8     6.6 10.8 -0.2690E+02  0.3581E+02 -0.1862E+02E
 Epicentro: LOS SANTOS - SANTANDER                                             3
 ACTION:UPD 17-12-12 19:58 OP:rebc STATUS:               ID:20171121104454 L   I
 OLDACT:UP  17-11-21 22:25 OP:osc  STATUS:               ID:20171121103158     3
 OLDACT:REG 17-11-21 21:59 OP:osc  STATUS:               ID:20171121103158     3
 2017-11-21-1038-00M.COL___468                                                 6
 STAT SP IPHASW D HRMM SECON CODA AMPLIT PERI AZIMU VELO AIN AR TRES W  DIS CAZ7
 BAR2 EZ EP       1045 12.90                             170   -0.0210 23.4 196 
 BAR2 EZ ES       1045 27.96                             170    0.5510 23.4 196 
 PAM  EZ EP       1045 15.91                             149    0.3410 76.2  38 
 PAM  EE ES       1045 31.60                             149   -0.5110 76.2  38 
 PAM  EZ I        1045 34.97         3.2 0.58            150           76.2  38 
 PTB  HZ EP       1045 20.07                             129   -0.77 9  150 259 
 PTB  HN ES       1045 40.79                             129   -0.70 9  150 259 
 PTB  HZ I        1045 46.61         2.3 0.20            130            150 259 
 ZAR  HZ EP       1045 27.00                             120    0.50 8  207 292 
 ZAR  HN ES       1045 52.05                             120    0.47 8  207 292 
 ZAR  HZ I        1045 57.71         3.3 0.30            121            207 292 
 NOR  HE ES       1045 57.71                             116    0.31 8  236 235 
                                                                                
