 2012  421 1754  7.7 L   6.926 -72.893  4.1  RSN  7 0.5 2.4LRSN                1
 GAP=165        1.33       3.0     4.5  7.6 -0.2720E+01  0.1364E+02 -0.1880E+01E
 Epicentro: GUACA - SANTANDER                                                  3
 ACTION:UPD 12-07-05 11:55 OP:tino STATUS:               ID:20120421175407 L   I
 2012-04-21-1750-00M.COL___186                                                 6
 STAT SP IPHASW D HRMM SECON CODA AMPLIT PERI AZIMU VELO AIN AR TRES W  DIS CAZ7
 BAR2 SZ IP     D 1754 15.58                              47    -0.410   49 221 
 BAR2 SZ I        1754 22.19       235.6 0.16                            49 221 
 PAM  SZ EP       1754 16.17                              47    -0.310   51  25 
 PAM  SE ES   1   1754 22.48                              47    -0.8 7   51  25 
 BRR  HZ EP       1754 22.58                              47     0.210   93 283 
 BRR  HE ES       1754 33.29                              47    -0.510   93 283 
 BRR  HZ I        1754 34.78        96.2 0.11                            93 283 
 RUS  HZ EP       1754 26.96                              47     0.510  116 190 
 RUS  HE ES       1754 40.81                              47    -0.210  116 190 
 RUS  HZ I        1754 43.06        47.0 0.28                           116 190 
 OCA  SZ EP       1754 32.03                              47     0.4 9  153 342 
 OCA  SZ ES   1   1754 50.82                              47     0.6 7  153 342 
 PTB  HZ EP       1754 35.83                              37     0.6 9  178 256 
 PTB  HN ES       1754 56.04                              37    -0.7 9  178 256 
 ZAR  HZ EP   1   1754 42.04                              37     0.8 6  226 286 
 ZAR  HN ES   1   1755  7.61                              37     0.3 6  226 286 
 ZAR  HZ I        1755 10.65        49.5 0.33                           226 286 
                                                                                
