 2014  121 1304 12.3 L   6.765 -73.068157.3  RSN  4 0.3 1.5LRSN                1
 GAP=148        0.83       5.5    11.6  7.5 -0.2624E+02  0.2657E+02 -0.8118E+01E
 Epicentro: LOS SANTOS - SANTANDER                                             3
 ACTION:UPD 14-03-13 09:57 OP:ep   STATUS:               ID:20140121130412 L   I
 OLDACT:REG 14-01-21 16:19 OP:stll STATUS:               ID:20140121125818     3
 2014-01-21-1258-18M.COL___225                                                 6
 STAT SP IPHASW D HRMM SECON CODA AMPLIT PERI AZIMU VELO AIN AR TRES W  DIS CAZ7
 BAR2 SZ EP       13 4 33.30                             171   -0.0310 23.0 214 
 BAR2 SZ ES       13 4 49.57                             171   -0.1510 23.0 214 
 BAR2 SZ I        13 4 51.22         6.3 0.38            134           23.0 214 
 PAM  SZ EP       13 4 36.07                             153    0.4110 75.4  33 
 PAM  SZ I        13 4 36.28         2.2 0.20            134           75.4  33 
 PAM  SN ES       13 4 53.69                             153   -0.1810 75.4  33 
 BRR  HZ EP       13 4 35.35                             151    0.1010 80.6 298 
 BRR  HZ I        13 4 53.27        14.6 0.34            117           80.6 298 
 RUS  HZ EP       13 4 36.42                             147   -0.5310 96.5 181 
 RUS  HN ES       13 4 56.55                             147    0.3910 96.5 181 
                                                                                
