 2012 1021 1901 20.9 L   6.735 -73.111145.0  RSN  4 0.1 1.7LRSN                1
 GAP=172        0.36       6.7     2.6  5.1  0.1105E+01  0.2544E+01  0.1462E+02E
 Epicentro: JORDAN - SANTANDER                                                 3
 ACTION:UPD 12-11-22 17:05 OP:ep   STATUS:               ID:20121021190120 L   I
 2012-10-21-1900-00M.COL___231                                                 6
 STAT SP IPHASW D HRMM SECON CODA AMPLIT PERI AZIMU VELO AIN AR TRES W  DIS CAZ7
 BAR2 SZ EP   1   19 1 40.22                             173   -0.12 7 17.6 207 
 BAR2 SZ I        19 1 40.74        11.3 0.25                          17.6 207 
 BRR  HZ EP   1   19 1 42.37                             150   -0.01 7 78.2 302 
 BRR  HZ I        19 1 44.32        11.9 0.20                          78.2 302 
 BRR  HN ES   1   19 1 59.31                             150    0.19 7 78.2 302 
 PAM  SZ EP       19 1 43.31                             150    0.0610 80.9  34 
 PAM  SZ I        19 1 43.66         8.0 0.31                          80.9  34 
 PAM  SE ES   1   19 2  0.57                             150   -0.11 7 80.9  34 
 ZAR  HZ EP   1   19 1 54.08                             121    0.13 6  210 294 
 ZAR  HN ES   1   19 2 19.51                             121   -0.23 6  210 294 
 ZAR  HZ I        19 2 24.73         4.6 0.40                           210 294 
                                                                                
