 2012  921 1017  2.0 L   6.789 -73.142135.3  RSN  5 0.1 1.7LRSN                1
 GAP=153        0.32       3.4     2.1  3.6 -0.1107E+01  0.1374E+01 -0.3899E+01E
 Epicentro: LOS SANTOS - SANTANDER                                             3
 ACTION:UPD 12-10-22 14:20 OP:ep   STATUS:               ID:20120921101702 L   I
 2012-09-21-1010-00S.MAN___224                                                 6
 STAT SP IPHASW D HRMM SECON CODA AMPLIT PERI AZIMU VELO AIN AR TRES W  DIS CAZ7
 BAR2 SZ EP       1017 20.41                             170    0.0910 22.2 191 
 BAR2 SZ ES       1017 34.61                             170   -0.0210 22.2 191 
 BAR2 SZ I        1017 36.61        15.7 0.16                          22.2 191 
 BRR  HZ EP   2   1017 22.17                             150    0.12 5 72.1 299 
 BRR  HE ES   2   1017 37.98                             150    0.27 5 72.1 299 
 BRR  HZ I        1017 40.36        11.0 0.32                          72.1 299 
 PAM  SZ EP       1017 23.07                             149   -0.0510 78.1  39 
 PAM  SZ I        1017 23.50         7.1 0.32                          78.1  39 
 PAM  SN ES   1   1017 39.54                             149   -0.08 7 78.1  39 
 PTB  HE ES   2   1017 48.34                             129   -0.17 5  148 259 
 ZAR  HE ES   1   1017 58.62                             120   -0.07 6  205 292 
                                                                                
