 2010 1121 1511 38.8 L   6.733 -73.199154.0  RSN  4 0.0 1.5LRSN                1
 GAP=193        0.29       7.0    12.8  7.3  0.7743E+02 -0.6881E+02 -0.3129E+02E
 Epicentro: VILLANUEVA - SANTANDER                                             3
 ACTION:UP  10-12-17 16:54 OP:REBC STATUS:               ID:20101121151138 L   I
 2010-11-21-1510-30S.COL___132                                                 6
 STAT SP IPHASW D HRMM SECON CODA AMPLIT PERI AZIMU VELO SNR AR TRES W  DIS CAZ7
 BAR2 SZ EP   2   1511 59.33                             174     0.0 5   16 174 
 BAR2 SZ I        1512 18.07         6.4 0.44                            16 174 
 BTL  SZ EP       1511 59.41                             172     0.010   22 340 
 BRR  HZ EP   1   1512  0.78                             154     0.0 7   70 306 
 BRR  HE ES   1   1512 17.98                             154     0.0 7   70 306 
 BRR  HZ I        1512 21.18        16.3 0.29                            70 306 
 RUS  HZ EP   2   1512  2.99                             147     0.1 5   94 172 
 RUS  HE ES   2   1512 21.70                             147     0.0 5   94 172 
 RUS  HZ I        1512 22.73         2.1 0.26                            94 172 
                                                                                
