 2012  921 1830 39.6 L   6.741 -73.093133.4  RSN  4 0.1 1.6LRSN                1
 GAP=146        0.36       2.9     5.2  4.1  0.7914E+01 -0.8303E+01 -0.4584E+01E
 Epicentro: JORDAN - SANTANDER                                                 3
 ACTION:UPD 12-10-22 14:20 OP:ep   STATUS:               ID:20120921183039 L   I
 2012-09-21-1830-00M.COL___224                                                 6
 STAT SP IPHASW D HRMM SECON CODA AMPLIT PERI AZIMU VELO AIN AR TRES W  DIS CAZ7
 BAR2 SZ ES       1831 11.66                             171   -0.0910 19.2 211 
 BAR2 SZ I        1831 15.29         9.1 0.42                          19.2 211 
 PAM  SZ EP   1   1831  0.70                             148    0.08 7 79.1  33 
 BRR  HZ EP   1   1830 59.77                             147   -0.17 7 79.4 301 
 BRR  HE ES   1   1831 15.96                             147    0.14 7 79.4 301 
 BRR  HZ I        1831 16.64         7.7 0.19                          79.4 301 
 RUS  HZ EP   1   1831  1.70                             143    0.05 7 93.9 179 
 RUS  HE ES       1831 18.88                             143    0.0310 93.9 179 
                                                                                
