 2013  621 1224 19.4 L   6.770 -73.169145.1  RSN  4 0.2 1.5LRSN                1
 GAP=179        0.45       4.3     3.3  4.4  0.7806E+00  0.2162E+01 -0.2665E+01E
 Epicentro: LOS SANTOS - SANTANDER                                             3
 ACTION:UPD 14-01-08 09:56 OP:ep   STATUS:               ID:20130621122419 L   I
 OLDACT:REG 13-06-21 18:00 OP:cam  STATUS:               ID:20130621121959     3
 2013-06-21-1219-59M.COL___264                                                 6
 STAT SP IPHASW D HRMM SECON CODA AMPLIT PERI AZIMU VELO AIN AR TRES W  DIS CAZ7
 BAR2 SZ EP       1224 38.66                             172   -0.1710 19.7 184 
 BAR2 SZ ES       1224 53.90                             172   -0.1210 19.7 184 
 BAR2 SZ I        1224 56.44         9.2 0.21            171           19.7 184 
 GIR2 SZ EP       1224 39.17                             166    0.1510 34.2 356 
 GIR2 SZ ES   2   1224 54.53                             166    0.16 5 34.2 356 
 RUS  HZ EP   1   1224 43.05                             144    0.24 7 97.5 174 
 RUS  HN ES   1   1225  1.16                             144    0.04 7 97.5 174 
 RUS  HZ I        1225  2.39         2.7 0.24            146           97.5 174 
 PTB  HZ EP   1   1224 45.65                             132   -0.32 7  145 260 
 PTB  HN ES       1225  6.86                             132    0.12 9  145 260 
 PTB  HZ I        1225  9.62         5.1 0.12            133            145 260 
                                                                                
