 2013  121 1602  3.6 L   6.800 -73.157146.5  RSN 12 0.4 2.2LRSN                1
 GAP=101        0.76       3.5     2.9  5.1  0.9084E+00  0.3915E+01  0.2663E+01E
 Epicentro: LOS SANTOS - SANTANDER                                             3
 ACTION:UPD 13-02-15 09:15 OP:ep   STATUS:               ID:20130121160203 L   I
 2013-01-21-1600-00M.COL___241                                                 6
 STAT SP IPHASW D HRMM SECON CODA AMPLIT PERI AZIMU VELO AIN AR TRES W  DIS CAZ7
 BAR2 SZ EP       16 2 23.32                             171    0.0210 23.2 187 
 BAR2 SZ ES   1   16 2 38.47                             171   -0.20 7 23.2 187 
 BRR  HZ EP   1   16 2 25.26                             153    0.51 7 70.0 299 
 BRR  HN ES   1   16 2 41.94                             153    0.69 7 70.0 299 
 BRR  HZ I        16 2 43.56        24.9 0.28            136           70.0 299 
 PAM  SZ EP       16 2 26.11                             151    0.1810 78.2  40 
 PAM  SE ES   1   16 2 43.41                             151    0.06 7 78.2  40 
 PAM  SZ I        16 2 45.49        25.7 0.58            139           78.2  40 
 RUS  HZ EP   1   16 2 27.21                             144   -0.21 7  101 175 
 RUS  HN ES   1   16 2 45.82                             144   -0.18 7  101 175 
 RUS  HZ I        16 2 46.92        21.9 0.26            127            101 175 
 PTB  HZ EP   1   16 2 30.17                             132   -0.33 7  146 259 
 PTB  HN ES   1   16 2 51.35                             132   -0.13 7  146 259 
 PTB  HZ I        16 2 55.35        22.9 0.10            115            146 259 
 TAM  HZ EP   1   16 2 31.52                             130    0.08 7  156 105 
 TAM  HN ES   1   16 2 52.64                             130   -0.52 7  156 105 
 ZAR  HZ EP   1   16 2 36.11                             123    0.16 6  203 292 
 ZAR  HN ES   1   16 3  1.21                             123    0.01 6  203 292 
 ZAR  HZ I        16 3  8.32        19.6 0.38            108            203 292 
 NOR  HZ EP   1   16 2 39.56                             119    0.31 6  234 234 
 NOR  HN ES   1   16 3  6.95                             119   -0.11 6  234 234 
 NOR  HZ I        16 3 14.82        14.0 0.12            105            234 234 
 CHI  HZ EP   1   16 2 41.33                             117    0.04 6  248 195 
 CHI  HN ES   1   16 3 10.70                             117    0.00 6  248 195 
 CHI  HZ I        16 3 16.20         6.6 0.32            105            248 195 
 ROSC BZ EP   1   16 2 42.00                             117    0.33 6  252 211 
 ROSC BZ I        16 3 19.10        22.5 0.40            104            252 211 
 HEL  HZ EP   1   16 2 44.38                             115    0.68 6  271 256 
 HEL  HZ I        16 3 22.18        10.2 0.42            103            271 256 
 URE  HZ EP   1   16 2 43.67                             114   -0.89 6  283 292 
 URE  HN ES   1   16 3 15.28                             114   -1.23 6  283 292 
                                                                                
