 2012  221 1235 15.2 L   6.817 -73.174151.9  RSN  9 0.4 2.0LRSN                1
 GAP=132        0.60       4.4     4.9  6.0 -0.6390E+01  0.4918E+01  0.9962E+01E
 ACTION:UP  12-03-07 16:32 OP:epov STATUS:               ID:20120221123515 L   I
 2012-02-21-1230-00M.COL___191                                                 6
 STAT SP IPHASW D HRMM SECON CODA AMPLIT PERI AZIMU VELO AIN AR TRES W  DIS CAZ7
 BAR2 SZ EP   1   1235 35.52                             170   -0.04 7 24.9 182 
 BAR2 SZ ES   2   1235 50.75                             170   -0.72 5 24.9 182 
 BAR2 SZ I        1235 52.21        26.3 0.28                          24.9 182 
 GIR2 SZ EP   2   1235 35.70                             169    0.20 5 29.0 356 
 GIR2 SZ ES   2   1235 51.84                             169    0.47 5 29.0 356 
 BRR  HZ EP   1   1235 36.30                             155   -0.48 7 67.5 298 
 BRR  HZ I        1235 37.62        32.6 0.16                          67.5 298 
 BRR  HE ES   2   1235 54.67                             155    1.03 5 67.5 298 
 PAM  SZ EP   1   1235 38.37                             152    0.30 7 78.0  42 
 PAM  SN ES   1   1235 55.80                             152   -0.13 7 78.0  42 
 RUS  HZ EP   1   1235 39.50                             144   -0.17 7  103 174 
 RUS  HN ES   2   1235 58.69                             144   -0.09 5  103 174 
 RUS  HZ I        1235 59.80        10.9 0.46                           103 174 
 PTB  HZ EP   1   1235 42.09                             134   -0.30 7  145 258 
 PTB  HN ES   2   1236  3.44                             134   -0.19 5  145 258 
 NOR  SZ EP   2   1235 51.26                             120    0.16 4  233 234 
 NOR  SN ES   2   1236 19.08                             120   -0.05 4  233 234 
 CHI  HZ EP   1   1235 53.65                             118    0.34 6  250 194 
 CHI  HN ES   2   1236 23.61                             118    0.54 4  250 194 
 CHI  HZ I        1236 32.19         3.7 0.35                           250 194 
 PRA  HZ EP   2   1236  9.23                             107    0.32 3  392 209 
 PRA  HN ES   2   1236 50.95                             107    0.12 3  392 209 
                                                                                
