 2011  121 1938 56.1 L   6.796 -73.125138.3  RSN 10 0.2 2.1LRSN                1
 GAP=137        0.61       2.8     3.9  5.2 -0.4297E+01  0.7120E+01 -0.6121E+00E
 Epicentro: LOS SANTOS - SANTANDER                                             3
 ACTION:UP  11-02-08 08:41 OP:pat  STATUS:               ID:20110121193856 L   I
 2011-01-21-1937-47S.COL___121                                                 6
 STAT SP IPHASW D HRMM SECON CODA AMPLIT PERI AZIMU VELO SNR AR TRES W  DIS CAZ7
 BTL  SZ EP       1939 15.13                             171     0.310   21 311 
 BAR2 SZ EP       1939 14.95                             170     0.110   23 196 
 BAR2 SZ ES   1   1939 29.30                             170    -0.2 7   23 196 
 BAR2 SZ I        1939 31.05        31.6 0.28                            23 196 
 GIR2 SZ EP   1   1939 14.99                             166     0.1 7   32 346 
 RUS  HZ EP   1   1939 18.95                             142    -0.1 7  100 177 
 RUS  HN ES   1   1939 37.25                             142     0.2 7  100 177 
 RUS  HZ I        1939 39.42        13.3 0.20                           100 177 
 GRA  SZ EP   1   1939 20.45                             135    -0.2 7  126  16 
 GRA  SZ ES   1   1939 39.39                             135    -0.4 7  126  16 
 GRA  SZ I        1939 43.04        16.8 0.40                           126  16 
 OCA  SZ EP   1   1939 24.13                             128     0.2 7  161 352 
 OCA  SZ I        1939 48.36        25.1 0.20                           161 352 
 YOP  SZ EP   1   1939 25.73                             125     0.2 7  178 154 
 YOP  SZ I        1939 27.99        11.9 0.20                           178 154 
 NOR  SZ EP       1939 31.38                             117    -0.2 8  236 235 
 NOR  SE ES       1939 59.17                             117    -0.1 8  236 235 
 CHI  HZ EP   1   1939 33.34                             115    -0.1 6  249 196 
 CHI  HE ES   1   1940  2.01                             115    -0.5 6  249 196 
 CHI  HZ I        1940  7.24         7.1 0.73                           249 196 
 HEL  HZ EP   1   1939 36.20                             113     0.0 6  274 256 
 HEL  HN ES   1   1940  7.75                             113     0.3 6  274 256 
 HEL  HZ I        1940 13.36        10.8 0.42                           274 256 
                                                                                
