 2014  921 1700 44.0 L   6.802 -73.166144.7  RSN 10 0.5 2.0LRSN                1
 GAP=134        1.32       3.8     5.6  7.3  0.1152E+01  0.8453E+01 -0.1200E+01E
 Epicentro: LOS SANTOS - SANTANDER                                             3
 ACTION:UPD 14-10-03 23:07 OP:nd   STATUS:               ID:20140921170044 L   I
 OLDACT:REG 14-09-21 23:15 OP:carl STATUS:               ID:20140921165818     3
 2014-09-21-1658-18M.COL___287                                                 6
 STAT SP IPHASW D HRMM SECON CODA AMPLIT PERI AZIMU VELO AIN AR TRES W  DIS CAZ7
 BAR2 SZ EP       17 1  3.71                             170    0.1710 23.2 184 
 BAR2 SZ ES       17 1 18.02                             170   -0.7210 23.2 184 
 BAR2 SZ I        17 1 19.52        15.9 0.16            170           23.2 184 
 BRR  HZ EP       17 1  5.87                             153    0.9210 69.1 299 
 BRR  HE ES       17 1 22.11                             153    0.8410 69.1 299 
 BRR  HZ I        17 1 26.70        16.9 0.12            151           69.1 299 
 PAM  SZ EP       17 1  6.70                             150    0.4810 78.7  41 
 PAM  SN ES       17 1 23.62                             150    0.1010 78.7  41 
 PAM  SZ I        17 1 25.61        32.2 0.52            154           78.7  41 
 RUS  HZ EP       17 1  7.88                             143    0.1710  101 175 
 RUS  HN ES       17 1 25.98                             143   -0.2010  101 175 
 RUS  HZ I        17 1 29.96         5.2 0.48            146            101 175 
 PTB  HZ EP       17 1 10.99                             132    0.27 9  146 259 
 PTB  HN ES       17 1 31.05                             132   -0.48 9  146 259 
 PTB  HZ I        17 1 34.38        13.3 0.46            132            146 259 
 OCA  HZ EP       17 1 12.14                             129   -0.08 9  160 354 
 OCA  HN ES       17 1 33.76                             129   -0.44 9  160 354 
 OCA  HZ I        17 1 37.68        15.5 0.20            131            160 354 
 ZAR  HZ EP       17 1 16.25                             122    0.06 9  202 292 
 ZAR  HN ES       17 1 41.69                             122    0.42 9  202 292 
 ZAR  HZ I        17 1 48.73        10.6 0.22            123            202 292 
 SML  HZ EP       17 1 20.19                             117   -0.29 8  243 336 
 SML  HN ES       17 1 47.65                             117   -1.26 8  243 336 
 SML  HZ I        17 1 54.66        14.1 0.10            119            243 336 
 CHI  HZ EP       17 1 21.13                             117   -0.51 8  248 195 
 CHI  HN ES       17 1 50.65                             117   -0.31 8  248 195 
 CHI  HZ I        17 1 55.56         4.1 0.36            119            248 195 
 GUY2CHZ EP   4   17 1 29.01                             112    1.61 0  299 234 
 GUY2CHN ES   4   17 2  3.79                             112    2.56 0  299 234 
 GUY2CHZ I        17 2 11.31         3.4 0.60                           299 234 
                                                                                
