 2013  721 1414 39.6 L   6.814 -73.145148.0  RSN 16 0.5 2.4LRSN                1
 GAP=159        1.19       2.9     4.3  5.3  0.1235E+01  0.3352E+01  0.1274E+01E
 Epicentro: LOS SANTOS - SANTANDER                                             3
 ACTION:UPD 13-08-12 10:39 OP:ep   STATUS:               ID:20130721141439 L   I
 OLDACT:REG 13-07-21 16:02 OP:nd   STATUS:               ID:20130721140959     3
 2013-07-21-1409-59M.COL___267                                                 6
 STAT SP IPHASW D HRMM SECON CODA AMPLIT PERI AZIMU VELO AIN AR TRES W  DIS CAZ7
 BAR2 SZ EP       1414 59.38                             170   -0.1910 24.9 190 
 BAR2 SZ ES       1415 14.34                             170   -0.7710 24.9 190 
 BAR2 SZ I        1415 15.86        58.7 0.22            167           24.9 190 
 GIR2 SZ EP       1414 59.71                             168    0.1710 29.8 350 
 GIR2 SZ ES       1415 15.14                             168    0.0810 29.8 350 
 GIR2 SZ I        1415 16.78        49.1 0.36            165           29.8 350 
 BRR  HZ EP     C 1415  1.60                             153    0.6010 70.5 297 
 BRR  HE ES       1415 18.60                             153    0.9510 70.5 297 
 BRR  HZ I        1415 22.61        38.6 0.14            147           70.5 297 
 RUS  HZ EP       1415  4.07                             144    0.3410  102 176 
 RUS  HN ES       1415 22.45                             144   -0.0610  102 176 
 RUS  HZ I        1415 23.54        33.4 0.30            142            102 176 
 PTB  HZ EP       1415  6.73                             132   -0.10 9  148 258 
 PTB  HN ES       1415 27.60                             132   -0.43 9  148 258 
 PTB  HZ I        1415 30.36        22.9 0.14            127            148 258 
 OCA  HZ EP       1415  7.72                             130   -0.27 9  159 353 
 OCA  HN ES       1415 29.46                             130   -0.63 9  159 353 
 OCA  HZ I        1415 34.46        27.4 0.52            127            159 353 
 SPBC HZ EP       1415  8.50                             129    0.07 9  164 219 
 SPBC HN ES       1415 30.85                             129   -0.04 9  164 219 
 SPBC HZ I        1415 33.23        49.6 0.34            125            164 219 
 YOP  SZ EP       1415  9.41                             127   -0.57 9  180 154 
 YOP  SN ES       1415 34.41                             127    0.77 9  180 154 
 YOP  SZ I        1415 35.92        39.4 0.28            125            180 154 
 ZAR  HZ EP       1415 12.11                             123   -0.07 9  204 292 
 ZAR  HE ES       1415 37.56                             123   -0.00 9  204 292 
 ZAR  HZ I        1415 45.04        13.2 0.26            119            204 292 
 NOR  HZ EP       1415 15.76                             119    0.15 8  236 234 
 NOR  HZ I        1415 46.20        17.0 0.16            115            236 234 
 SML  HZ EP   4   1415 16.03                             118   -0.22 0  242 335 
 SML  HN ES   4   1415 44.37                             118   -0.43 0  242 335 
 SML  HZ I        1415 47.96        45.1 0.10            115            242 335 
 CHI  HZ EP       1415 17.00                             117   -0.63 8  250 195 
 CHI  HN ES       1415 47.23                             117   -0.03 8  250 195 
 CHI  HZ I        1415 50.63        14.7 0.46            115            250 195 
 ROSC BZ EP   4   1415 19.53                             117    1.49 0  254 211 
 ROSC BN ES   4   1415 49.67                             117    1.69 0  254 211 
 HEL  HZ EP       1415 21.42                             115    1.40 8  273 255 
 HEL  HN ES       1415 50.94                             115   -0.57 8  273 255 
 HEL  HZ I        1415 58.63        11.5 0.48            112            273 255 
 COD  HZ EP       1415 27.66                             109   -0.27 6  347 355 
 COD  HN ES       1416  5.88                             109    0.28 6  347 355 
 COD  HZ I        1416 11.78         4.8 0.74            107            347 355 
 PRA  HZ EP       1415 33.07                             107   -0.34 6  393 209 
 PRA  HN ES       1416 15.11                             107   -0.23 6  393 209 
 PRA  HZ I        1416 21.60         8.7 0.32            105            393 209 
 SJC  HZ EP   4 C 1415 33.83                             106   -1.31 0  408 327 
 SJC  HN ES   4   1416 14.78                             106   -3.63 0  408 327 
 SJC  HZ I        1416 22.81         4.2 0.30            104            408 327 
                                                                                
