 2017 1221 1743 51.7 L   6.797 -73.149142.0  RSN  8 0.6 1.8LRSN                1
 GAP=150        1.15       4.4     5.6  7.3 -0.8067E+01  0.1348E+02 -0.3764E+01E
 Epicentro: LOS SANTOS - SANTANDER                                             3
 ACTION:UPD 18-01-04 13:22 OP:rebc STATUS:               ID:20171221174351 L   I
 OLDACT:DUP 17-12-21 23:49 OP:dhb  STATUS:               ID:20171221173745d    3
 2017-12-21-1738-00M.COL___478                                                 6
 STAT SP IPHASW D HRMM SECON CODA AMPLIT PERI AZIMU VELO AIN AR TRES W  DIS CAZ7
 BAR2 EZ EP       1744 10.57                             170   -0.2910 23.0 189 
 BAR2 EZ ES       1744 25.94                             170    0.1310 23.0 189 
 BAR2 EZ I        1744 28.39        15.5 0.32            170           23.0 189 
 PAM  EZ EP       1744 13.46                             150   -0.0710 77.8  40 
 PAM  EN ES       1744 30.51                             150   -0.0610 77.8  40 
 PAM  EZ I        1744 32.73        10.4 0.56            154           77.8  40 
 PTB  HZ EP       1744 18.09                             131   -0.23 9  147 259 
 PTB  HE ES       1744 39.21                             131    0.13 9  147 259 
 PTB  HZ I        1744 44.99         3.1 0.14            132            147 259 
 OCA  HZ EP       1744 18.86                             129   -0.88 9  161 353 
 OCA  HE ES       1744 42.52                             129    0.91 9  161 353 
 OCA  HZ I        1744 47.02        20.1 0.28            131            161 353 
 ZAR  HZ EP       1744 23.92                             122    0.05 9  204 292 
 ZAR  HN ES       1744 48.43                             122   -0.54 9  204 292 
 ZAR  HZ I        1744 53.77         6.4 0.24            123            204 292 
 DRL03HZ EP       1744 33.42                             112    0.27 7  289 353 
 DRL03HE ES       1745  5.76                             112    0.27 7  289 353 
 GUY2CHZ EP   2   1744 37.04                             112    1.96 4  301 235 
 GUY2CHE ES   4   1745 12.90                             112    3.98 0  301 235 
 GUY2CHZ I        1745 17.03         2.5 0.56                           301 235 
 PRA  HZ EP       1744 44.58                             106   -0.45 6  392 210 
 PRA  HE ES       1745 27.62                             106    0.98 6  392 210 
 PRA  HZ I        1745 32.54         3.2 0.34            108            392 210 
                                                                                
