 2012  621 1041 44.5 L   6.627 -73.169141.7  RSN  4 0.4 1.5LRSN                1
 GAP=249        0.87      12.7     8.4  8.7  0.3589E+02  0.2022E+02 -0.4728E+01E
 Epicentro: BARICHARA - SANTANDER                                              3
 ACTION:UPD 12-08-06 17:51 OP:ep   STATUS:               ID:20120621104144 L   I
 2012-06-21-1040-00M.COL___199                                                 6
 STAT SP IPHASW D HRMM SECON CODA AMPLIT PERI AZIMU VELO AIN AR TRES W  DIS CAZ7
 BAR2 SZ EP   1   1042  3.35                             178   -0.05 9 4.16 200 
 BAR2 SZ ES   1   1042 17.89                             178   -0.26 9 4.16 200 
 BAR2 SZ I        1042 19.40         7.1 0.31                          4.16 200 
 BRR  HZ EP   1   1042  5.38                             149   -0.36 9 80.1 312 
 BRR  HE ES   1   1042 22.77                             149    0.46 9 80.1 312 
 BRR  HZ I        1042 23.62        11.2 0.20                          80.1 312 
 PTB  HZ EP   1   1042 10.48                             132   -0.19 8  143 266 
 PTB  HE ES   1   1042 31.33                             132    0.25 8  143 266 
 PTB  HZ I        1042 35.68         2.4 0.13                           143 266 
 ZAR  HZ EP       1042 17.87                             120    0.6110  210 297 
 ZAR  HN ES   1   1042 41.95                             120   -0.87 7  210 297 
 ZAR  HZ I        1042 49.83         2.8 0.19                           210 297 
                                                                                
