 2014  421 1030 18.5 L   6.819 -73.167147.5  RSN  9 0.5 1.8LRSN                1
 GAP=133        0.83       3.2     4.3  7.1 -0.4467E+01  0.1003E+02 -0.2960E+01E
 Epicentro: LOS SANTOS - SANTANDER                                             3
 OLDACT:REG 14-04-21 21:08 OP:fm   STATUS:               ID:20140421102819     3
 ACTION:UPD 14-05-13 23:10 OP:nd   STATUS:               ID:20140421103018 L   I
 OLDACT:UP  14-04-21 23:02 OP:fm   STATUS:               ID:20140421102819     3
 2014-04-21-1028-19M.COL___230                                                 6
 STAT SP IPHASW D HRMM SECON CODA AMPLIT PERI AZIMU VELO AIN AR TRES W  DIS CAZ7
 PAM  SZ EP       1030 41.32                             151    0.3910 77.3  42 
 PAM  SE ES       1030 58.61                             151    0.2110 77.3  42 
 RUS  HZ EP   1   1030 42.33                             143   -0.29 7  103 175 
 RUS  HE ES   1   1031  0.57                             143   -0.84 7  103 175 
 PTB  HZ EP   1   1030 45.49                             133    0.02 7  146 258 
 PTB  HN ES       1031  6.59                             133    0.11 9  146 258 
 PTB  SZ I        1031  9.32         4.7 0.54            132            146 258 
 SPBC HZ EP       1030 47.44                             129    0.25 9  163 218 
 SPBC HN ES       1031  9.62                             129    0.09 9  163 218 
 SPBC SZ I        1031 14.92         7.9 0.24            131            163 218 
 ZAR  HN ES   2   1031 16.77                             123    0.83 4  201 292 
 NOR  HN ES   1   1031 21.91                             119   -0.27 6  234 234 
 SML  HZ EP   1   1030 54.95                             118    0.01 6  241 336 
 SML  HE ES   1   1031 22.63                             118   -0.71 6  241 336 
 SML  SZ I        1031 31.34         4.8 0.44            119            241 336 
 PRA  HZ EP   1   1031 13.18                             107    0.98 4  393 209 
 PRA  HE ES   1   1031 53.61                             107   -0.44 4  393 209 
 SJC  HZ EP   1   1031 12.89                             106   -0.90 4  406 327 
 SJC  HN ES   1   1031 56.33                             106   -0.56 4  406 327 
                                                                                
