 2010 1121 1229  7.7 L   6.779 -73.141146.0  RSN  5 0.2 1.7LRSN                1
 GAP=159        0.52       4.7     7.5  6.4  0.4271E+01 -0.9203E+01 -0.3182E+01E
 Epicentro: LOS SANTOS - SANTANDER                                             3
 ACTION:UP  10-12-17 16:54 OP:REBC STATUS:               ID:20101121122907 L   I
 2010-11-21-1226-48S.COL___131                                                 6
 STAT SP IPHASW D HRMM SECON CODA AMPLIT PERI AZIMU VELO SNR AR TRES W  DIS CAZ7
 BTL  SZ EP   1   1229 27.28                             172     0.0 7   21 318 
 BAR2 SZ ES   2   1229 42.40                             171    -0.2 5   21 193 
 BAR2 SZ I        1229 43.30        12.2 0.32                            21 193 
 BTL  SZ ES   2   1229 42.41                             172    -0.2 5   21 318 
 BRR  HZ EP       1229 28.70                             152    -0.310   73 300 
 BRR  HN ES   1   1229 45.90                             152     0.3 7   73 300 
 BRR  HZ I        1229 49.21         9.9 0.20                            73 300 
 RUS  HZ EP   2   1229 31.60                             145     0.3 5   98 176 
 RUS  HE ES   2   1229 49.84                             145     0.1 5   98 176 
 GRA  SZ EP   2   1229 33.49                             137     0.4 5  128  17 
 GRA  SZ ES   2   1229 52.96                             137     0.0 5  128  17 
 GRA  SZ I        1229 54.05         6.9 0.48                           128  17 
                                                                                
