 2017 1221 1812  2.7 L   6.832 -73.141138.1  RSN 17 0.7 2.3LRSN                1
 GAP= 65        1.29       3.3     3.3  6.8 -0.5951E+00  0.6829E+01  0.2391E+01E
 Epicentro: LOS SANTOS - SANTANDER                                             3
 ACTION:UPD 18-01-04 13:22 OP:rebc STATUS:               ID:20171221181202 L   I
 OLDACT:REG 17-12-21 21:08 OP:dhb  STATUS:               ID:20171221180736     3
 2017-12-21-1808-00M.COL___478                                                 6
 STAT SP IPHASW D HRMM SECON CODA AMPLIT PERI AZIMU VELO AIN AR TRES W  DIS CAZ7
 BAR2 EZ IP     C 1812 21.16                             168   -0.2810 26.9 190 
 BAR2 EZ ES       1812 36.16                             168    0.0710 26.9 190 
 BAR2 EZ I        1812 37.19        70.3 0.32            165           26.9 190 
 PAM  EZ IP     C 1812 24.05                             150    0.1810 74.4  41 
 PAM  EN ES       1812 41.22                             150    0.8010 74.4  41 
 PAM  EZ I        1812 43.50        53.1 0.84            155           74.4  41 
 PTB  HZ EP       1812 28.55                             130   -0.56 9  149 258 
 PTB  HN ES       1812 48.99                             130   -0.76 9  149 258 
 PTB  HZ I        1812 53.90        12.3 0.36            130            149 258 
 TAM  HZ IP     C 1812 29.58                             129   -0.20 9  156 106 
 TAM  HE ES       1812 51.09                             129    0.16 9  156 106 
 SPBC HZ EP       1812 30.22                             127   -0.65 9  166 218 
 SPBC HN ES       1812 52.51                             127   -0.37 9  166 218 
 SPBC HZ I        1812 57.20        30.2 0.18            126            166 218 
 YPLC HZ EP       1812 31.57                             124   -0.61 9  180 152 
 YPLC HN ES       1812 55.02                             124   -0.20 9  180 152 
 YPLC HZ I        1813  0.11         8.3 0.28            125            180 152 
 ZAR  HZ EP       1812 33.82                             121   -0.70 9  203 291 
 ZAR  HN ES       1812 59.13                             121   -0.24 9  203 291 
 ZAR  HZ I        1813  6.74        15.5 0.28            122            203 291 
 NOR  HZ EP       1812 38.37                             116    0.16 8  237 234 
 NOR  HN ES       1813  5.95                             116    0.00 8  237 234 
 ROSC BZ EP       1812 41.78                             115    1.06 8  256 211 
 ROSC BE ES       1813 10.48                             115    0.06 8  256 211 
 ROSC BZ I        1813 16.05        21.8 0.35            115            256 211 
 URE  HZ EP   2   1812 44.00                             112    0.74 4  283 291 
 URE  HN ES       1813 14.86                             112   -0.08 7  283 291 
 URE  HZ I        1813 23.36        12.6 0.16            113            283 291 
 DRL03HZ EP       1812 43.87                             112    0.35 7  285 353 
 DRL03HE ES       1813 15.63                             112    0.24 7  285 353 
 GUY2CHZ EP       1812 46.45                             111    0.26 7  304 234 
 GUY2CHN ES   2   1813 21.05                             111    0.90 4  304 234 
 GUY2CHZ I        1813 29.75         7.7 0.36                           304 234 
 VIL  EZ EP       1812 45.50                             110   -0.63 7  307 192 
 VIL  EN ES       1813 19.74                             110   -0.31 7  307 192 
 VIL  EZ I        1813 40.43        12.9 0.36            111            307 192 
 ELA  HE ES       1813 28.06                             109    2.03 7  332 229 
 ELA  HZ I        1813 35.12         5.5 0.28            109            332 229 
 DBB  EZ EP       1812 50.12                             108    0.27 7  340 274 
 DBB  HN ES   3   1813 24.25                             108   -2.42 2  340 274 
 DBB  EZ I        1813 29.09         4.8 0.26            109            340 274 
 ANIL HE ES       1813 32.90                             107    1.52 6  360 224 
 ANIL HZ I        1813 36.93        20.7 0.30            107            360 224 
 PRA  HZ EP   2   1812 55.66                             105   -0.64 3  395 209 
 PRA  HE ES       1813 38.51                             105    0.36 6  395 209 
 PRA  HZ I        1813 44.41         6.6 0.36            106            395 209 
                                                                                
