 2013 1221 1614 27.0 L   7.476 -73.382114.0  RSN  6 0.2 1.6LRSN                1
 GAP=136        0.60       2.1     3.2  5.6 -0.3082E+00  0.6791E+01  0.2904E+01E
 Epicentro: SABANA DE TORRES - SANTANDER                                       3
 ACTION:UPD 14-01-13 10:19 OP:ep   STATUS:               ID:20131221161427 L   I
 OLDACT:REG 13-12-21 16:10 OP:nd   STATUS:               ID:20131221161000     3
 2013-12-21-1610-00M.COL___285                                                 6
 STAT SP IPHASW D HRMM SECON CODA AMPLIT PERI AZIMU VELO AIN AR TRES W  DIS CAZ7
 PAM  SZ EP       1614 45.97                             144    0.0910 76.9 101 
 PAM  SN ES       1615  0.83                             144    0.2010 76.9 101 
 PAM  SZ I        1615  3.50         8.9 0.20            149           76.9 101 
 OCA  HZ EP       1614 46.29                             141    0.3010 84.7   5 
 OCA  HN ES       1615  0.57                             141   -0.2610 84.7   5 
 OCA  HZ I        1615  2.49        14.6 0.28            143           84.7   5 
 BAR2 SZ EP       1614 47.20                             136   -0.1610  100 167 
 BAR2 SZ ES       1615  3.02                             136   -0.2610  100 167 
 BAR2 SZ I        1615  4.38        20.7 0.16            139            100 167 
 PTB  HZ EP       1614 52.43                             122   -0.12 9  157 229 
 PTB  HN ES       1615 12.74                             122    0.23 9  157 229 
 PTB  HZ I        1615 16.05         7.3 0.10            124            157 229 
 RUS  HZ EP       1614 55.11                             118   -0.24 9  178 169 
 RUS  HN ES       1615 17.73                             118    0.23 9  178 169 
 RUS  HZ I        1615 18.23         0.9 0.28            122            178 169 
 SJC  HZ EP   4   1615 11.94                             103   -0.60 0  333 324 
 SJC  HN ES   4   1615 44.49                             103   -3.59 0  333 324 
 SJC  HZ I        1615 52.11         1.3 0.52            105            333 324 
                                                                                
