 2015  821 1856 49.4 L   6.826 -73.162147.9  RSN 14 0.5 2.5LRSN                1
 GAP=133        1.00       3.1     3.9  5.9 -0.1776E+01  0.1012E+02 -0.1543E+01E
 Epicentro: LOS SANTOS - SANTANDER                                             3
 ACTION:UPD 15-09-15 23:04 OP:cam  STATUS:               ID:20150821185649 L   I
 OLDACT:REG 15-08-21 22:06 OP:ar   STATUS:               ID:20150821184748     3
 2015-08-21-1847-48M.COL___337                                                 6
 STAT SP IPHASW D HRMM SECON CODA AMPLIT PERI AZIMU VELO AIN AR TRES W  DIS CAZ7
 BAR2 EZ EP       1857  9.25                             170   -0.0810 25.9 185 
 BAR2 EZ ES       1857 24.62                             170   -0.2710 25.9 185 
 BAR2 EZ I        1857 25.94        60.2 0.32            167           25.9 185 
 BRR  HZ EP     C 1857 10.94                             154    0.3310 68.2 297 
 BRR  HN ES       1857 28.08                             154    0.9210 68.2 297 
 BRR  HZ I        1857 31.44        55.7 0.10            150           68.2 297 
 PAM  EZ EP       1857 11.94                             152    0.1710 76.4  42 
 PAM  EN ES       1857 28.83                             152   -0.4110 76.4  42 
 PAM  EZ I        1857 30.87        92.5 0.52            157           76.4  42 
 RUS  HZ EP       1857 13.41                             144   -0.1510  104 175 
 RUS  HN ES       1857 32.69                             144    0.2610  104 175 
 RUS  HZ I        1857 33.92        15.9 0.48            145            104 175 
 OCA  HN ES   2   1857 39.39                             131   -0.18 5  157 354 
 OCA  HZ I        1857 41.83       121.1 0.22            132            157 354 
 SPBC HZ EP       1857 17.87                             130   -0.28 9  164 218 
 SPBC HN ES       1857 40.18                             130   -0.42 9  164 218 
 SPBC HZ I        1857 46.78        27.2 0.24            129            164 218 
 ZAR  HZ EP   4   1857 22.80                             123    1.11 0  201 292 
 ZAR  HE ES       1857 46.78                             123   -0.10 9  201 292 
 ZAR  HZ I        1857 54.59        32.6 0.28            123            201 292 
 NOR  HE ES       1857 52.64                             119   -0.61 8  235 234 
 NOR  HZ I        1857 59.36        14.1 0.54            119            235 234 
 SML  HZ EP       1857 25.44                             118   -0.33 8  240 335 
 SML  HE ES       1857 54.40                             118    0.25 8  240 335 
 SML  HZ I        1857 57.31        52.5 0.10            119            240 335 
 HEL  HN ES       1858  1.11                             115    0.16 8  271 255 
 HEL  HZ I        1858  8.39        15.9 0.38            115            271 255 
 URE  HZ EP       1857 30.12                             114   -0.13 7  281 292 
 URE  HN ES   4   1858  0.09                             114   -2.04 0  281 292 
 URE  HZ I        1858 10.13        18.3 0.40            115            281 292 
 GUY2CHZ EP   2   1857 34.52                             113    1.41 4  301 234 
 GUY2CHN ES   2   1858  7.58                             113    0.36 4  301 234 
 GUY2CHZ I        1858 15.75         9.6 0.46                           301 234 
 DBB  SZ EP       1857 37.21                             110    0.49 7  337 274 
 DBB  SZ ES       1858 12.71                             110   -0.92 7  337 274 
 TOL  SN ES       1858 16.31                             110    0.72 7  344 224 
 TOL  SZ I        1858 28.93         6.6 0.10            110            344 224 
                                                                                
