 2012 1021 1159 33.0 L   6.917 -72.908  4.0  RSN  7 0.4 2.1LRSN                1
 GAP=163        1.11       2.5     3.8  8.8 -0.1137E+01  0.1179E+02 -0.2725E+01E
 Epicentro: GUACA - SANTANDER                                                  3
 ACTION:UPD 12-11-22 17:05 OP:ep   STATUS:               ID:20121021115933 L   I
 2012-10-21-1154-47M.COL___201                                                 6
 STAT SP IPHASW D HRMM SECON CODA AMPLIT PERI AZIMU VELO AIN AR TRES W  DIS CAZ7
 GIR2 SZ EP       1159 38.49                              90   -0.7310 36.2 300 
 BAR2 SZ EP       1159 40.67                              90   -0.2810 47.0 220 
 BAR2 SZ I        1159 46.89       177.9 0.37                          47.0 220 
 PAM  SZ EP       1159 42.22                              90    0.2410 52.1  26 
 PAM  SN ES   1   1159 48.64                              90   -0.35 7 52.1  26 
 PAM  SZ I        1159 50.15        80.7 0.19                          52.1  26 
 BRR  HZ EP       1159 47.93                              90    0.5210 91.2 283 
 BRR  HE ES       1159 58.85                              90    0.2010 91.2 283 
 BRR  HZ I        12 0  0.06        43.5 0.22                          91.2 283 
 RUS  HZ EP       1159 52.12                              90    0.6110  115 190 
 RUS  HE ES       12 0  5.48                              90   -0.4810  115 190 
 RUS  HZ I        12 0  8.64        22.0 0.23                           115 190 
 OCA  HZ EP   1   1159 57.18                              90    0.25 7  153 343 
 OCA  HZ I        12 0  0.55        28.0 0.21                           153 343 
 OCA  HE ES   1   12 0 15.20                              90   -0.40 7  153 343 
 ZAR  HZ EP       12 0  6.90                              56    0.58 8  225 287 
 ZAR  HN ES       12 0 32.01                              56   -0.31 8  225 287 
 ZAR  HZ I        12 0 34.65        19.5 0.31                           225 287 
                                                                                
