 2017 1021 1641 44.7 L   6.792 -73.162142.0  RSN 10 0.5 1.8LRSN                1
 GAP=111        1.25       4.3     4.2  7.1  0.2736E+01  0.7680E+01  0.8289E+01E
 Epicentro: LOS SANTOS - SANTANDER                                             3
 ACTION:UPD 17-11-07 19:34 OP:rebc STATUS:               ID:20171021164144 L   I
 OLDACT:UP  17-10-22 00:10 OP:edw  STATUS:               ID:20171021163420     3
 OLDACT:UP  17-10-22 00:10 OP:edw  STATUS:               ID:20171021163420     3
 OLDACT:UP  17-10-22 00:09 OP:edw  STATUS:               ID:20171021163420     3
 OLDACT:REG 17-10-21 20:52 OP:edw  STATUS:               ID:20171021163420     3
 2017-10-21-1638-00M.COL___453                                                 6
 STAT SP IPHASW D HRMM SECON CODA AMPLIT PERI AZIMU VELO AIN AR TRES W  DIS CAZ7
 BAR2 EZ EP       1642  3.53                             171   -0.3310 22.1 186 
 BAR2 EZ ES       1642 18.82                             171    0.0210 22.1 186 
 BAR2 EZ I        1642 19.47        21.8 0.30            169           22.1 186 
 BRR  HZ EP     C 1642  5.27                             152   -0.1210 70.1 300 
 BRR  HN ES       1642 22.29                             152    0.7710 70.1 300 
 PAM  EZ EP       1642  6.51                             150   -0.1310 79.3  40 
 PAM  EN ES       1642 23.71                             150   -0.0410 79.3  40 
 PAM  EZ I        1642 26.15        10.4 0.54            152           79.3  40 
 RUS  HZ EP       1642  7.71                             143   -0.3210 99.8 175 
 RUS  HN ES       1642 26.07                             143   -0.1610 99.8 175 
 RUS  HZ I        1642 28.02         7.2 0.22            143           99.8 175 
 PTB  HZ EP       1642 10.12                             132   -1.07 9  146 259 
 PTB  HN ES       1642 31.38                             132   -0.47 9  146 259 
 PTB  HZ I        1642 32.74         7.8 0.20            131            146 259 
 YPLC HZ EP       1642 14.18                             126   -0.06 9  177 151 
 YPLC HN ES       1642 37.51                             126    0.24 9  177 151 
 YPLC HZ I        1642 41.65         7.0 0.52            126            177 151 
 ZAR  HZ EP       1642 17.91                             122    1.13 9  203 293 
 ZAR  HE ES       1642 41.82                             122    0.03 9  203 293 
 ZAR  HZ I        1642 49.25        10.2 0.34            122            203 293 
 NOR  HZ EP       1642 20.27                             118    0.27 8  233 234 
 NOR  HE ES       1642 47.01                             118   -0.52 8  233 234 
 NOR  HZ I        1642 53.70         3.5 0.38            118            233 234 
 CHI  HZ EP       1642 22.22                             116    0.17 8  247 195 
 CHI  HE ES       1642 52.23                             116    1.05 8  247 195 
 CHI  HZ I        1642 55.66         4.1 0.28            117            247 195 
 GUY2CHZ EP   4   1642 29.42                             112    1.50 0  299 235 
 GUY2CHN ES       1643  1.74                             112    0.12 7  299 235 
 GUY2CHZ I        1643 11.44         2.7 0.32                           299 235 
                                                                                
