 2017 1121 1518 47.1 L   6.813 -73.200143.8  RSN  5 0.3 1.1LRSN                1
 GAP=146        1.46       8.8     8.0 11.8 -0.2521E+02  0.2023E+02 -0.1543E+02E
 Epicentro: ZAPATOCA - SANTANDER                                               3
 ACTION:UPD 17-12-12 19:58 OP:rebc STATUS:               ID:20171121151902 L   I
 OLDACT:UP  17-11-22 13:04 OP:nlst STATUS:               ID:20171121151902 L   3
 OLDACT:REG 17-11-21 21:06 OP:osc  STATUS:               ID:20171121151746     3
 2017-11-21-1518-00M.COL___483                                                 6
 STAT SP IPHASW D HRMM SECON CODA AMPLIT PERI AZIMU VELO AIN AR TRES W  DIS CAZ7
 BAR2 EZ ES       1519 22.24                             170    0.5910 24.5 176 
 PAM  EZ EP       1519  9.10                             149   -0.1610 80.2  43 
 PAM  EZ I        1519 23.64         2.0 0.22            139           80.2  43 
 PAM  EN ES       1519 26.28                             149   -0.2910 80.2  43 
 RUS  HZ EP       1519 10.80                             143    0.0110  103 173 
 RUS  HN ES       1519 28.88                             143   -0.4010  103 173 
 RUS  HZ I        1519 30.57         1.7 0.32            140            103 173 
 PTB  HZ EP       1519 13.61                             132    0.22 9  142 258 
 PTB  HN ES       1519 33.98                             132    0.07 9  142 258 
 PTB  HZ I        1519 35.91         1.7 0.48            128            142 258 
 NOR  HZ EP   9   1519 25.92                             118    3.65 0  231 233 
 NOR  HE ES       1519 51.71                                   -1.66 8  231 233 
                                                                                
