 2014 1221 1544 57.9 L   6.774 -73.921 23.1  RSN 10 0.4 2.0LRSN                1
 GAP= 75        1.02       2.3     2.1  2.9 -0.1167E+01 -0.4952E+00  0.1222E+01E
 Epicentro: PUERTO PARRA - SANTANDER                                           3
 ACTION:UPD 15-02-10 17:06 OP:nd   STATUS:               ID:20141221154457 L   I
 OLDACT:REG 14-12-21 21:53 OP:fm   STATUS:               ID:20141221153748     3
 2014-12-21-1537-48M.COL___296                                                 6
 STAT SP IPHASW D HRMM SECON CODA AMPLIT PERI AZIMU VELO AIN AR TRES W  DIS CAZ7
 BRR  HZ EP     C 1545  5.48                             116   -0.2710 43.5  32 
 BRR  HN ES       1545 11.58                             116   -0.2810 43.5  32 
 BRR  HZ I        1545 12.23       149.6 0.10             47           43.5  32 
 PTB  HZ EP       1545  8.90                             107    0.1410 64.7 246 
 PTB  HN ES       1545 17.43                             107    0.2110 64.7 246 
 PTB  HZ I        1545 18.76       204.9 0.18             47           64.7 246 
 BAR2 EZ EP       1545 11.69                             104   -0.1410 84.0 104 
 BAR2 EZ I        1545 24.47        25.9 0.62             47           84.0 104 
 SPBC HN ES       1545 32.20                              56   -0.1910  125 188 
 SPBC HZ I        1545 35.13        18.4 0.20             47            125 188 
 ZAR  HZ EP       1545 17.75                              56   -0.1010  131 308 
 ZAR  HN ES       1545 33.40                              56   -0.0210  131 308 
 ZAR  HZ I        1545 33.75        12.6 0.62             47            131 308 
 RUS  HZ IP     D 1545 19.70                              56    0.7710  134 136 
 RUS  HE ES       1545 35.11                              56   -0.2110  134 136 
 RUS  HZ I        1545 37.84        43.0 0.24             47            134 136 
 PAM  SZ EP       1545 21.33                              56    0.63 9  149  65 
 PAM  SN ES       1545 37.93                              56   -0.56 9  149  65 
 PAM  SZ I        1545 40.66        44.4 0.32             47            149  65 
 OCA  HN ES       1545 44.24                              56    0.60 9  175  22 
 OCA  HZ I        1545 48.93        10.4 0.46             37            175  22 
 HEL  HN ES       1545 46.69                              56   -0.56 9  189 250 
 HEL  HZ I        1545 48.75         9.8 0.48             37            189 250 
 SML  HZ EP   4   1545 31.89                              56    2.27 0  225 356 
 SML  HE ES   4   1545 57.29                              56    2.92 0  225 356 
 SML  HZ I        1546 11.95        11.5 0.10             37            225 356 
                                                                                
