 2014 1121 1532  6.8 L   6.817 -73.131148.0  RSN 13 0.4 1.8LRSN                1
 GAP=138        0.89       2.9     3.7  5.5 -0.1312E+01  0.4456E+01  0.3274E+01E
 Epicentro: LOS SANTOS - SANTANDER                                             3
 ACTION:UPD 14-12-19 15:45 OP:nd   STATUS:               ID:20141121153206 L   I
 OLDACT:DUP 14-11-22 00:56 OP:spq  STATUS:               ID:20141121152750d    3
 2014-11-21-1527-49M.COL___294                                                 6
 STAT SP IPHASW D HRMM SECON CODA AMPLIT PERI AZIMU VELO AIN AR TRES W  DIS CAZ7
 BAR2 SZ EP       1532 26.63                             170   -0.1010 25.5 193 
 BAR2 SZ ES   1   1532 41.94                             170   -0.35 7 25.5 193 
 BAR2 SZ I        1532 43.11        12.1 0.16            169           25.5 193 
 BRR  HZ EP       1532 28.37                             153    0.1610 71.7 297 
 BRR  HN ES       1532 45.40                             153    0.4810 71.7 297 
 BRR  HZ I        1532 49.44        11.5 0.28            151           71.7 297 
 PAM  SZ EP       1532 29.46                             152    0.3610 74.9  40 
 PAM  SN ES       1532 46.35                             152   -0.1510 74.9  40 
 PAM  SZ I        1532 47.09         9.8 0.20            155           74.9  40 
 RUS  HZ EP     C 1532 30.67                             144   -0.2210  102 177 
 RUS  HN ES       1532 49.63                             144   -0.0610  102 177 
 RUS  HZ I        1532 50.67         3.8 0.32            145            102 177 
 PTB  HZ EP       1532 33.28                             132   -0.84 9  150 258 
 PTB  HE ES       1532 55.08                             132   -0.35 9  150 258 
 PTB  HZ I        1532 56.33        10.3 0.36            132            150 258 
 OCA  HN ES       1532 57.31                             131    0.10 9  159 352 
 OCA  HZ I        1533  0.93        14.6 0.22            132            159 352 
 SPBC HZ EP       1532 35.68                             129   -0.01 9  166 219 
 SPBC HE ES       1532 59.03                             129    0.79 9  166 219 
 SPBC HZ I        1533  4.97        14.3 0.20            130            166 219 
 ZAR  HZ EP   1   1532 39.39                             123   -0.07 6  205 291 
 ZAR  HE ES       1533  4.71                             123   -0.24 9  205 291 
 ZAR  HZ I        1533  9.88        10.6 0.38            123            205 291 
 NOR  HZ EP       1532 43.02                             119    0.11 8  237 234 
 NOR  HE ES       1533 11.24                             119    0.16 8  237 234 
 NOR  HZ I        1533 14.73         7.3 0.26            119            237 234 
 CHI  HZ EP   1   1532 45.16                             117    0.30 6  251 195 
 CHI  HE ES   1   1533 13.97                             117   -0.58 6  251 195 
 CHI  HZ I        1533 20.35         3.5 0.34            119            251 195 
 TOL  SZ EP   1   1532 56.04                             110    0.62 5  346 225 
 TOL  SN ES   4   1533 34.83                             110    1.48 0  346 225 
 MON  HN ES   4   1533 31.51                             109   -2.68 0  354 308 
 MON  HZ I        1533 36.13         1.7 0.30            110            354 308 
 SJC  HZ EP   4   1533  1.07                             106   -1.27 0  409 327 
 SJC  HN ES   4   1533 42.22                             106   -3.45 0  409 327 
 SJC  HZ I        1533 47.42         1.6 0.48            107            409 327 
                                                                                
