 2016  421 1141 56.9 L   6.801 -73.201142.4  RSN  5 0.1 1.6LRSN                1
 GAP=145        0.41       2.0     2.3  3.0 -0.1302E+01  0.1583E+01  0.9447E+00E
 Epicentro: ZAPATOCA - SANTANDER                                               3
 ACTION:UPD 16-05-05 14:23 OP:rebc STATUS:               ID:20160421114156 L   I
 OLDACT:ARG 16-04-21 20:42 OP:ar   STATUS:               ID:20160421113747     3
 2016-04-21-1137-47M.COL___306                                                 6
 STAT SP IPHASW D HRMM SECON CODA AMPLIT PERI AZIMU VELO AIN AR TRES W  DIS CAZ7
 BAR2 EZ EP       1142 16.25                             170    0.1510 23.2 175 
 BAR2 EZ ES       1142 30.92                             170   -0.1710 23.2 175 
 BAR2 EZ I        1142 32.68        15.5 0.26            168           23.2 175 
 PAM  EZ EP       1142 18.99                             149    0.0110 81.3  43 
 PAM  EN ES       1142 36.31                             149    0.0910 81.3  43 
 PAM  EZ I        1142 39.13         5.1 0.36            155           81.3  43 
 RUS  HZ EP       1142 20.15                             143   -0.2010  101 173 
 RUS  HN ES       1142 38.71                             143    0.0510  101 173 
 RUS  HZ I        1142 40.22         5.7 0.22            146            101 173 
 PTB  HZ EP       1142 22.84                             132   -0.20 9  142 258 
 PTB  HN ES       1142 43.56                             132    0.12 9  142 258 
 PTB  HZ I        1142 55.37         3.4 0.48            130            142 258 
 CHI  HZ EP       1142 34.37                             117    0.13 8  247 194 
 CHI  HN ES       1143  3.47                             117    0.09 8  247 194 
 CHI  HZ I        1143  9.79         2.6 0.22            119            247 194 
                                                                                
