 2016 1021 1340 31.4 L   6.797 -73.141146.9  RSN 11 0.4 2.2LRSN                1
 GAP=100        1.03       4.2     4.2  5.9 -0.5292E+01  0.1751E+00  0.6834E+01E
 Epicentro: LOS SANTOS - SANTANDER                                             3
 ACTION:UPD 16-11-09 19:21 OP:rebc STATUS:               ID:20161021134031 L   I
 OLDACT:UP  16-10-21 23:11 OP:ar   STATUS:               ID:20161021133750     3
 OLDACT:REG 16-10-21 21:42 OP:ar   STATUS:               ID:20161021133750     3
 2016-10-21-1338-00M.COL___339                                                 6
 STAT SP IPHASW D HRMM SECON CODA AMPLIT PERI AZIMU VELO AIN AR TRES W  DIS CAZ7
 BAR2 EZ EP       1340 50.89                             171   -0.2710 23.1 191 
 BAR2 EZ ES       1341  5.96                             171   -0.6110 23.1 191 
 BAR2 EZ I        1341  7.03        43.9 0.24            168           23.1 191 
 BRR  HZ IP     C 1340 52.68                             153   -0.0210 71.8 299 
 BRR  HE ES       1341  9.86                             153    0.5410 71.8 299 
 BRR  HZ I        1341 13.73        27.6 0.34            150           71.8 299 
 PAM  EZ EP       1340 53.75                             151    0.0210 77.4  39 
 PAM  EN ES       1341 11.26                             151    0.1110 77.4  39 
 PAM  EZ I        1341 13.08        19.3 0.44            156           77.4  39 
 RUS  HZ EP       1340 55.18                             144   -0.0510  100 176 
 RUS  HN ES       1341 14.12                             144    0.3010  100 176 
 RUS  HZ I        1341 14.50        20.4 0.30            145            100 176 
 PTB  HZ EP       1340 57.60                             132   -0.90 9  148 259 
 PTB  HN ES       1341 19.85                             132    0.22 9  148 259 
 PTB  HZ I        1341 25.63        17.6 0.46            131            148 259 
 TAM  HZ EP       1340 59.32                             131    0.21 9  155 105 
 SPBC HZ EP       1340 59.88                             129   -0.11 9  163 219 
 SPBC HN ES       1341 22.54                             129    0.26 9  163 219 
 SPBC HZ I        1341 28.93        39.2 0.30            129            163 219 
 NOR  HZ EP   4   1341  4.63                             119   -2.58 0  235 235 
 NOR  HN ES       1341 34.63                             119   -0.52 8  235 235 
 NOR  HZ I        1341 39.50        10.6 0.22            119            235 235 
 CHI  HZ EP       1341  9.15                             117    0.01 8  248 195 
 CHI  HN ES       1341 38.68                             117    0.11 8  248 195 
 CHI  HZ I        1341 40.74         8.4 0.36            118            248 195 
 ROSC BZ EP   4   1341 11.55                             117    1.98 0  253 211 
 ROSC BN ES   4   1341 40.83                             117    1.48 0  253 211 
 ROSC BZ I        1341 47.18        14.6 0.45            117            253 211 
 GUY2CHZ EP       1341 16.13                             113    1.05 7  301 235 
 GUY2CHE ES   4   1341 51.43                             113    2.28 0  301 235 
 GUY2CHZ I        1341 56.12         6.5 0.66                           301 235 
                                                                                
