 2011 1121 1007 19.2 L   6.806 -73.130141.6  RSN  5 0.1 1.6LRSN                1
 GAP=138        0.31       2.2     2.6  3.8  0.5339E+00  0.6764E+00 -0.1372E+00E
 Epicentro: LOS SANTOS - SANTANDER                                             3
 ACTION:UPD 12-07-13 16:11 OP:ep   STATUS:               ID:20111121100719 L   I
 2011-11-21-1005-03S.COL___178                                                 6
 STAT SP IPHASW D HRMM SECON CODA AMPLIT PERI AZIMU VELO AIN AR TRES W  DIS CAZ7
 BAR2 SZ EP   1   10 7 38.16                             170   -0.15 7 24.3 194 
 BAR2 SZ I        10 7 38.34         7.2 0.12                          24.3 194 
 BAR2 SZ ES   2   10 7 53.32                             170    0.08 5 24.3 194 
 BRR  HZ EP   1   10 7 39.91                             151   -0.02 7 72.4 297 
 BRR  HZ I        10 7 40.20        13.4 0.15                          72.4 297 
 BRR  HN ES   1   10 7 56.15                             151    0.03 7 72.4 297 
 PAM  SZ EP   1   10 7 41.04                             151    0.21 7 75.8  39 
 PAM  SZ I        10 7 41.20         8.9 0.15                          75.8  39 
 PAM  SE ES   1   10 7 57.63                             151   -0.11 7 75.8  39 
 RUS  HZ EP   2   10 7 42.45                             143   -0.09 5  101 177 
 RUS  HN ES   1   10 8  0.82                             143    0.04 7  101 177 
 RUS  HZ I        10 8  2.72         5.6 0.29                           101 177 
 ZAR  HN ES   2   10 8 16.66                             121   -0.02 4  205 292 
 ZAR  HZ I        10 8 21.70         3.8 0.11                           205 292 
                                                                                
