 2010 1121 1316 40.9 L   6.759 -73.148140.1  RSN 17 0.4 3.0LRSN                1
 GAP=159        0.89       3.2     5.1  5.3 -0.6413E+01  0.5523E+01  0.2031E+01E
 Epicentro: LOS SANTOS - SANTANDER                                             3
 ACTION:UP  10-12-17 16:54 OP:REBC STATUS:               ID:20101121131640 L   I
 2010-11-21-1315-59S.COL___133                                                 6
 STAT SP IPHASW D HRMM SECON CODA AMPLIT PERI AZIMU VELO SNR AR TRES W  DIS CAZ7
 BAR2 SZ IP       1316 59.71                             172    -0.110   19 192 
 BAR2 SZ ES   1   1317 14.12                             172    -0.4 7   19 192 
 BAR2 SZ I        1317 15.39       387.3 0.27                            19 192 
 BTL  SZ EP       1316 59.90                             171     0.110   22 323 
 GIR2 SZ IP       1316 59.86                             165    -0.210   36 352 
 GIR2 SZ ES   1   1317 14.98                             165     0.0 7   36 352 
 BRR  HZ IP     C 1317  1.66                             151     0.110   73 302 
 BRR  HZ I        1317  2.12       351.6 0.09                            73 302 
 BRR  HN ES   1   1317 18.36                             151     0.7 7   73 302 
 RUS  HZ IP     C 1317  3.72                             144    -0.110   96 176 
 RUS  HE ES   1   1317 21.43                             144    -0.2 7   96 176 
 RUS  HZ I        1317 24.37       153.5 0.44                            96 176 
 GUE  SZ EP       1317  5.24                             137    -0.210  121  12 
 GRA  SZ IP       1317  6.76                             135     0.710  130  17 
 GRA  SZ ES   1   1317 26.00                             135     0.4 7  130  17 
 GRA  SZ I        1317 28.48       170.4 0.28                           130  17 
 OCA  SZ EP       1317  8.59                             127    -0.6 9  165 353 
 OCA  SZ ES   2   1317 30.67                             127    -0.6 5  165 353 
 OCA  SZ I        1317 35.98       109.7 0.27                           165 353 
 NOR  SZ EP   1   1317 15.71                             118    -0.3 6  232 235 
 NOR  SN ES   1   1317 43.37                             118     0.0 6  232 235 
 CHI  HZ EP   1   1317 17.83                             116     0.0 6  244 195 
 CHI  HN ES   2   1317 46.41                             116    -0.2 4  244 195 
 CHI  HZ I        1317 56.61        38.3 0.40                           244 195 
 ROSC BZ EP   1   1317 19.29                             116     1.0 6  249 212 
 ROSC BZ I        1317 56.14        59.0 0.52                           249 212 
 HEL  HZ EP   1   1317 20.76                             114     0.1 6  271 257 
 HEL  HE ES   1   1317 51.28                             114    -0.4 6  271 257 
 HEL  HZ I        1317 58.81        64.1 0.41                           271 257 
 VIL  SZ EP   2   1317 22.95                             111    -0.4 4  297 190 
 VIL  SN ES   2   1317 57.23                             111     0.7 4  297 190 
 VIL  SZ I        1318  3.43        32.3 0.31                           297 190 
 RREF HZ EP   1   1317 27.09                             110     0.6 5  319 230 
 RREF HE ES   2   1318  2.18                             110     0.2 3  319 230 
 RREF HZ I        1318  8.92        42.7 0.22                           319 230 
 TOL  SZ EP   2   1317 28.60                             108     0.0 3  340 225 
 DBB  SZ EP   2   1317 27.84                             108    -0.3 3  340 275 
 PRA  HZ EP   1   1317 33.21                             106    -0.6 4  388 210 
 PRA  HN ES   1   1318 15.01                             106     0.0 4  388 210 
 PRA  HZ I        1318 22.77        79.7 0.21                           388 210 
                                                                                
