 2015 1021 1916  6.0 L   6.877 -73.291127.9  RSN  7 0.4 2.0LRSN                1
 GAP=160        0.99       3.4     5.0  6.2  0.4167E+01  0.1152E+02 -0.1242E+01E
 Epicentro: BETULIA - SANTANDER                                                3
 ACTION:UPD 15-12-22 20:41 OP:cam  STATUS:               ID:20151021191606 L   I
 OLDACT:REG 15-10-21 21:09 OP:drio STATUS:               ID:20151021190748     3
 2015-10-21-1907-48M.COL___310                                                 6
 STAT SP IPHASW D HRMM SECON CODA AMPLIT PERI AZIMU VELO AIN AR TRES W  DIS CAZ7
 BAR2 EZ IP     D 1916 24.03                             164    0.3010 33.7 159 
 BAR2 EZ ES       1916 37.01                             164   -0.5810 33.7 159 
 BAR2 EZ I        1916 38.44        87.2 0.30            168           33.7 159 
 BRR  HZ EP       1916 24.37                             156    0.2010 53.0 299 
 BRR  HN ES       1916 38.59                             156    0.2110 53.0 299 
 BRR  HZ I        1916 48.32        30.5 0.44            155           53.0 299 
 RUS  HZ EP       1916 29.02                             136    0.1610  111 168 
 RUS  HE ES       1916 46.53                             136   -0.2010  111 168 
 RUS  HZ I        1916 48.55         8.4 0.16            143            111 168 
 OCA  HZ EP       1916 32.20                             127    0.22 9  151 359 
 OCA  HN ES       1916 52.01                             127   -0.28 9  151 359 
 ZAR  HZ EP       1916 35.98                             120    0.60 9  186 292 
 ZAR  HE ES       1916 58.89                             120    0.56 9  186 292 
 ZAR  HZ I        1917  2.77        16.6 0.30            124            186 292 
 GUY2CHZ EP       1916 47.75                             109   -0.16 7  293 232 
 GUY2CHN ES       1917 20.47                             109   -0.17 7  293 232 
 GUY2CHZ I        1917 27.94         5.3 0.42                           293 232 
 MON  HZ EP       1916 51.51                             106   -0.72 7  336 309 
 MON  HE ES       1917 27.34                             106   -0.98 7  336 309 
 MON  HZ I        1917 28.79         2.6 0.18            110            336 309 
                                                                                
