 2016 1221 1342 30.7 L   6.752 -73.100141.4  RSN  5 0.3 1.4LRSN                1
 GAP=145        0.86       4.3     3.9  6.9  0.1193E+01  0.6970E+01  0.6956E+00E
 Epicentro: LOS SANTOS - SANTANDER                                             3
 ACTION:UPD 17-01-11 20:17 OP:rebc STATUS:               ID:20161221134230 L   I
 OLDACT:REG 16-12-21 20:19 OP:dani STATUS:               ID:20161221133746     3
 2016-12-21-1338-00M.COL___372                                                 6
 STAT SP IPHASW D HRMM SECON CODA AMPLIT PERI AZIMU VELO AIN AR TRES W  DIS CAZ7
 BRR  HZ EP       1342 51.91                             149    0.1510 78.1 300 
 BRR  HN ES       1343  8.47                             149    0.2610 78.1 300 
 BRR  HZ I        1343 10.27         6.8 0.18            149           78.1 300 
 PAM  EZ EP       1342 52.39                             150   -0.1010 78.6  34 
 PAM  EE ES       1343  9.46                             150   -0.0510 78.6  34 
 PAM  EZ I        1343 12.19         4.5 0.50            150           78.6  34 
 RUS  HZ EP       1342 53.61                             144    0.0210 95.1 179 
 RUS  HN ES       1343 11.32                             144   -0.1610 95.1 179 
 RUS  HZ I        1343 12.62         3.1 0.32            148           95.1 179 
 PTB  HZ EP       1342 57.34                             130   -0.31 9  152 261 
 PTB  HN ES       1343 18.99                             130    0.29 9  152 261 
 PTB  HZ I        1343 19.13         1.3 0.20            131            152 261 
 ZAR  HZ EP       1343  4.16                             120    0.64 8  211 293 
 ZAR  HE ES       1343 28.37                             120   -0.78 8  211 293 
 ZAR  HZ I        1343 35.25         3.3 0.17            121            211 293 
                                                                                
