 2013 1021 1400 10.7 L   6.271 -73.652109.8  RSN  5 0.2 1.7LRSN                1
 GAP=165        0.49       4.2     2.4  4.9  0.3932E+01  0.3976E+01 -0.5603E+01E
 Epicentro: SANTA HELENA DEL OPON - SANTANDER                                  3
 ACTION:UPD 13-11-25 09:22 OP:ep   STATUS:               ID:20131021140010 L   I
 OLDACT:UP  13-10-21 16:33 OP:cam  STATUS:               ID:20131021135849     3
 OLDACT:REG 13-10-21 15:45 OP:cam  STATUS:               ID:20131021135849     3
 2013-10-21-1358-49M.COL___215                                                 6
 STAT SP IPHASW D HRMM SECON CODA AMPLIT PERI AZIMU VELO AIN AR TRES W  DIS CAZ7
 BAR2 SZ EP       14 0 27.94                             148    0.0510 62.9  56 
 BAR2 SZ ES       14 0 41.13                             148   -0.1510 62.9  56 
 BAR2 SZ I        14 0 42.25        29.9 0.36            149           62.9  56 
 RUS  HN ES       14 0 43.67                             143    0.2010 75.6 124 
 BRR  HZ EP   1   14 0 29.71                             137   -0.07 7 92.7 356 
 PTB  HZ EP       14 0 29.65                             136   -0.2510 93.8 289 
 PTB  HN ES       14 0 44.82                             136   -0.0410 93.8 289 
 PTB  HZ I        14 0 46.94         5.0 0.34            136           93.8 289 
 ZAR  HZ EP       14 0 39.58                             115    0.07 9  190 315 
 ZAR  HE ES   1   14 1  2.39                             115    0.41 7  190 315 
 ZAR  HZ I        14 1  6.27         4.5 0.26            116            190 315 
                                                                                
