 2014  821 1305 15.5 L   5.989 -73.739116.3  RSN  6 0.3 1.5LRSN                1
 GAP=126        0.68       4.9     3.1  9.2 -0.6569E+01 -0.5762E+01  0.2367E+02E
 Epicentro: BOLIVAR - SANTANDER                                                3
 ACTION:UPD 14-09-15 21:51 OP:nd   STATUS:               ID:20140821130515 L   I
 OLDACT:REG 14-08-21 20:59 OP:stll STATUS:               ID:20140821125820     3
 2014-08-21-1258-20M.COL___263                                                 6
 STAT SP IPHASW D HRMM SECON CODA AMPLIT PERI AZIMU VELO AIN AR TRES W  DIS CAZ7
 SPBC HZ EP       13 5 32.26                             154   -0.2310 52.4 225 
 SPBC HZ I        13 5 32.90         7.5 0.20            151           52.4 225 
 RUS  HZ EP       13 5 34.21                             146   -0.1510 73.4  98 
 RUS  HZ I        13 5 54.50         4.4 0.46                          73.4  98 
 BAR2 SZ EP       13 5 35.70                             140    0.4110 90.8  43 
 BAR2 SZ ES       13 5 50.76                             140   -0.0110 90.8  43 
 PTB  HZ EP       13 5 35.35                             136   -0.3910  100 308 
 PTB  HN ES       13 5 51.43                             136   -0.1310  100 308 
 PTB  HZ I        13 5 52.94         5.9 0.12            150            100 308 
 BRR  HN ES   2   13 5 55.62                             130    0.33 5  124   1 
 NOR  HZ EP       13 5 39.01                             127    0.1610  134 249 
 NOR  HN ES       13 5 57.41                             127    0.3110  134 249 
 NOR  HZ I        13 6  1.33        14.4 0.38            132            134 249 
                                                                                
