 2014 1121 1022 13.1 L   6.797 -73.133146.0  RSN 14 0.4 1.8LRSN                1
 GAP=138        0.95       3.1     3.7  5.7 -0.1670E+01  0.4275E+01  0.2613E+01E
 Epicentro: LOS SANTOS - SANTANDER                                             3
 ACTION:UPD 14-12-19 15:45 OP:nd   STATUS:               ID:20141121102213 L   I
 OLDACT:REG 14-11-21 21:09 OP:spq  STATUS:               ID:20141121101746     3
 2014-11-21-1017-46M.COL___304                                                 6
 STAT SP IPHASW D HRMM SECON CODA AMPLIT PERI AZIMU VELO AIN AR TRES W  DIS CAZ7
 BAR2 SZ EP       1022 32.72                             171   -0.0410 23.3 193 
 BAR2 SZ ES   1   1022 48.25                             171    0.16 7 23.3 193 
 BAR2 SZ I        1022 49.51         9.5 0.32            169           23.3 193 
 BRR  HZ EP       1022 34.61                             152    0.2610 72.5 298 
 BRR  HE ES       1022 51.93                             152    1.0010 72.5 298 
 BRR  HZ I        1022 55.34         6.4 0.23            149           72.5 298 
 PAM  SZ EP       1022 35.49                             151    0.1910 76.8  39 
 PAM  SN ES       1022 52.46                             151   -0.1610 76.8  39 
 PAM  SZ I        1022 54.80         9.7 0.56            154           76.8  39 
 RUS  HZ EP       1022 36.77                             144   -0.0810  100 177 
 RUS  HE ES       1022 55.20                             144   -0.1710  100 177 
 RUS  HZ I        1022 56.34         6.2 0.28            146            100 177 
 PTB  HZ EP       1022 39.62                             132   -0.58 9  149 259 
 PTB  HN ES       1023  0.67                             132   -0.67 9  149 259 
 PTB  HZ I        1023  3.58         7.4 0.18            131            149 259 
 OCA  HZ EP   1   1022 41.43                             130   -0.04 7  161 353 
 OCA  HE ES   1   1023  2.85                             130   -0.75 7  161 353 
 OCA  HZ I        1023  6.82         7.8 0.20            130            161 353 
 SPBC HZ EP   1   1022 41.55                             129   -0.13 7  164 219 
 SPBC HN ES       1023  3.87                             129   -0.10 9  164 219 
 SPBC HZ I        1023  6.33        14.6 0.30            129            164 219 
 ZAR  HZ EP   1   1022 45.98                             122    0.28 6  205 292 
 ZAR  HE ES       1023 10.87                             122   -0.26 8  205 292 
 ZAR  HZ I        1023 17.73         6.4 0.46            122            205 292 
 NOR  HZ EP   1   1022 48.87                             119   -0.07 6  236 235 
 NOR  HN ES       1023 16.96                             119    0.06 8  236 235 
 NOR  HZ I        1023 22.06         5.3 0.46            119            236 235 
 CHI  HZ EP       1022 50.98                             117    0.16 8  249 195 
 CHI  HE ES   1   1023 20.34                             117    0.10 6  249 195 
 CHI  HZ I        1023 24.12         2.0 0.40            118            249 195 
 HEL  HE ES   1   1023 25.67                             115    0.72 6  273 256 
 HEL  HZ I        1023 31.59         3.8 0.44            115            273 256 
 TOL  SZ EP   1   1023  2.36                             109    0.91 5  344 225 
 TOL  SE ES   4   1023 41.47                             109    2.30 0  344 225 
 TOL  SZ I        1023 45.50         4.7 0.44            110            344 225 
 MON  HZ EP   4   1023  0.12                             109   -2.14 0  355 308 
 MON  HN ES   4   1023 38.17                             109   -2.42 0  355 308 
 MON  HZ I        1023 41.52         1.0 0.50            109            355 308 
 SJC  HZ EP   4   1023  7.13                             106   -1.66 0  410 327 
 SJC  HE ES   4   1023 48.76                             106   -3.46 0  410 327 
 SJC  HZ I        1023 56.12         2.0 0.48            106            410 327 
                                                                                
