 2012  221 1108  7.7 L   6.747 -73.171148.0  RSN  5 0.4 1.5LRSN                1
 GAP=178        0.70       7.9     7.8  7.8  0.2410E+02  0.1341E+02  0.1853E+02E
 ACTION:UP  12-03-07 16:32 OP:epov STATUS:               ID:20120221110807 L   I
 2012-02-21-1100-00M.COL___191                                                 6
 STAT SP IPHASW D HRMM SECON CODA AMPLIT PERI AZIMU VELO AIN AR TRES W  DIS CAZ7
 BAR2 SZ EP   1   11 8 27.23                             173   -0.31 8 17.2 184 
 BAR2 SZ ES   2   11 8 42.69                             173   -0.29 5 17.2 184 
 BAR2 SZ I        11 8 43.31         7.6 0.18                          17.2 184 
 GIR2 SZ EP   2   11 8 27.32                             166   -0.52 5 36.8 356 
 GIR2 SZ ES   2   11 8 43.33                             166   -0.19 5 36.8 356 
 BRR  HZ EP   1   11 8 29.12                             153   -0.05 8 71.9 304 
 BRR  HZ I        11 8 34.88        11.6 0.42                          71.9 304 
 BRR  HE ES   1   11 8 46.54                             153    0.65 8 71.9 304 
 RUS  HZ EP   1   11 8 31.89                             146    0.56 8 95.0 174 
 RUS  HE ES   2   11 8 49.71                             146   -0.01 5 95.0 174 
 RUS  HZ I        11 8 50.95         3.2 0.43                          95.0 174 
 PTB  HZ EP       11 8 34.40                             134   -0.1610  144 261 
 PTB  HE ES   2   11 8 55.08                             134   -0.40 5  144 261 
                                                                                
