 2013 1121 1723 49.7 L   6.747 -73.165142.1  RSN  5 0.4 1.9LRSN                1
 GAP=148        1.08       8.7     5.1  7.8 -0.9338E+01  0.1144E+02 -0.3689E+01E
 Epicentro: VILLANUEVA - SANTANDER                                             3
 ACTION:UPD 14-01-09 16:30 OP:ep   STATUS:               ID:20131121172349 L   I
 OLDACT:REG 13-11-21 16:05 OP:nd   STATUS:               ID:20131121172000     3
 2013-11-21-1720-00M.COL___282                                                 6
 STAT SP IPHASW D HRMM SECON CODA AMPLIT PERI AZIMU VELO AIN AR TRES W  DIS CAZ7
 BAR2 SZ EP       1724  8.65                             173   -0.0810 17.2 186 
 BAR2 SZ ES       1724 23.57                             173   -0.0410 17.2 186 
 BAR2 SZ I        1724 25.06        35.9 0.24            175           17.2 186 
 BRR  HZ EP       1724 11.02                             151    0.5410 72.4 303 
 BRR  HN ES       1724 27.34                             151    0.6210 72.4 303 
 BRR  HZ I        1724 31.96        11.1 0.12            150           72.4 303 
 PAM  SZ EP       1724 11.91                             148    0.0610 83.3  38 
 PAM  SN ES       1724 28.74                             148   -0.4310 83.3  38 
 PAM  SZ I        1724 31.35         8.0 0.64            150           83.3  38 
 PTB  HZ EP       1724 15.61                             132   -0.43 9  145 261 
 PTB  HN ES       1724 36.53                             132   -0.09 9  145 261 
 PTB  HZ I        1724 40.01         9.1 0.18            134            145 261 
 ZAR  HZ EP       1724 22.36                             121    0.46 9  204 294 
 ZAR  HN ES       1724 46.29                             121   -0.76 9  204 294 
 ZAR  HZ I        1724 49.91         7.2 0.16            123            204 294 
                                                                                
