 2011  521 1641 58.5 L   6.743 -73.095146.0  RSN  6 0.2 1.8LRSN                1
 GAP=146        0.64       4.9     8.3  6.7  0.1479E+02 -0.2268E+02 -0.9522E+01E
 Epicentro: JORDAN - SANTANDER                                                 3
 ACTION:UP  11-06-29 08:55 OP:tino STATUS:               ID:20110521164158 L   I
 2011-05-21-1638-58S.COL___141                                                 6
 STAT SP IPHASW D HRMM SECON CODA AMPLIT PERI AZIMU VELO SNR AR TRES W  DIS CAZ7
 BAR2 SZ EP       1642 17.89                             172    -0.210   19 210 
 BAR2 SZ ES   1   1642 33.00                             172    -0.3 7   19 210 
 BAR2 SZ I        1642 33.92        11.1 0.32                            19 210 
 BTL  SZ EP       1642 18.30                             169     0.110   27 316 
 BTL  SZ ES   2   1642 33.45                             169    -0.2 5   27 316 
 GIR2 SZ EP       1642 18.21                             164    -0.210   39 344 
 BRR  HZ EP       1642 20.02                             150    -0.110   79 301 
 BRR  HZ I        1642 28.54        18.1 0.71                            79 301 
 BRR  HN ES   1   1642 37.40                             150     0.4 7   79 301 
 PAM  SZ EP       1642 21.15                             150     0.310   79  33 
 RUS  HZ EP       1642 21.82                             146     0.010   94 179 
 RUS  HN ES   1   1642 40.28                             146     0.3 7   94 179 
 RUS  HZ I        1642 41.74         6.6 0.34                            94 179 
                                                                                
