 2011  121 1544  6.9 L   6.823 -73.121140.6  RSN 10 0.5 2.0LRSN                1
 GAP=138        0.98       5.1     8.6  8.5 -0.1691E+02  0.2827E+02  0.1046E+01E
 Epicentro: LOS SANTOS - SANTANDER                                             3
 ACTION:UP  11-02-08 08:41 OP:pat  STATUS:               ID:20110121154407dL   I
 2011-01-21-1541-07S.COL___138                                                 6
 STAT SP IPHASW D HRMM SECON CODA AMPLIT PERI AZIMU VELO SNR AR TRES W  DIS CAZ7
 BTL  SZ EP       1544 26.34                             172     0.510   19 303 
 BAR2 SZ IP       1544 26.16                             169     0.210   27 195 
 BAR2 SZ ES   1   1544 41.05                             169     0.2 7   27 195 
 BAR2 SZ I        1544 43.00        27.6 0.30                            27 195 
 RUS  HZ EP   1   1544 30.12                             142    -0.2 7  103 178 
 RUS  HN ES   1   1544 48.56                             142     0.0 7  103 178 
 GRA  SZ EP   1   1544 30.91                             137    -0.5 7  123  17 
 GRA  SZ ES   1   1544 49.99                             137    -0.5 7  123  17 
 GRA  SZ I        1544 53.45        22.2 0.29                           123  17 
 YOP  SZ EP   1   1544 37.02                             125     0.3 7  180 154 
 YOP  SZ I        1545  6.04        11.0 0.46                           180 154 
 NOR  SZ EP   1   1544 42.14                             117    -0.6 6  239 234 
 NOR  SE ES   1   1545 10.30                             117    -0.4 6  239 234 
 NOR  SZ I        1545 14.66         2.3 0.19                           239 234 
 CHI  HZ EP   1   1544 44.26                             116    -0.4 6  252 196 
 CHI  HE ES   1   1545 13.38                             116    -0.7 6  252 196 
 CHI  HZ I        1545 19.84         5.3 0.47                           252 196 
 HEL  HZ EP   1   1544 47.83                             113     0.6 6  275 255 
 HEL  HZ I        1545 24.86         8.9 0.36                           275 255 
 GUY  SZ EP   1   1544 50.73                             111     0.0 5  305 235 
 TOL  SZ EP   1   1544 56.22                             108     0.9 5  347 225 
                                                                                
