 2014 1221 1240 43.9 L   6.869 -73.175132.9  RSN  6 0.4 1.6LRSN                1
 GAP=136        1.05       5.6     4.7  7.7 -0.6007E+01  0.1227E+02 -0.4684E+01E
 Epicentro: ZAPATOCA - SANTANDER                                               3
 ACTION:UPD 15-02-10 17:06 OP:nd   STATUS:               ID:20141221124043 L   I
 OLDACT:REG 14-12-21 21:46 OP:fm   STATUS:               ID:20141221123745     3
 2014-12-21-1237-45M.COL___299                                                 6
 STAT SP IPHASW D HRMM SECON CODA AMPLIT PERI AZIMU VELO AIN AR TRES W  DIS CAZ7
 BAR2 EZ EP       1241  2.05                             166   -0.1210 30.6 181 
 BAR2 EZ ES       1241 16.35                             166   -0.0610 30.6 181 
 BAR2 EZ I        1241 17.73        11.1 0.34            171           30.6 181 
 BRR  HZ EP     C 1241  3.92                             152    0.6210 64.9 294 
 BRR  HN ES       1241 18.85                             152    0.4210 64.9 294 
 BRR  HZ I        1241 24.89         5.8 0.26            150           64.9 294 
 PAM  SZ EP       1241  4.97                             149    0.4310 73.9  45 
 PAM  SE ES       1241 20.40                             149   -0.2410 73.9  45 
 PAM  SZ I        1241 24.20         8.3 0.52            152           73.9  45 
 PTB  HZ EP       1241  8.96                             129   -0.74 9  146 256 
 PTB  HN ES       1241 29.56                             129   -0.27 9  146 256 
 PTB  HZ I        1241 32.47         7.4 0.12            132            146 256 
 OCA  HE ES       1241 30.67                             128   -0.52 9  152 354 
 OCA  HZ I        1241 34.05         6.6 0.18            130            152 354 
 ZAR  HZ EP       1241 15.19                             120    0.27 9  198 290 
 ZAR  HN ES       1241 39.24                             120    0.12 9  198 290 
 ZAR  HZ I        1241 45.83         5.3 0.28            122            198 290 
                                                                                
