 2015 1121 1344 31.3 L   6.806 -73.187138.8  RSN  4 0.2 1.4LRSN                1
 GAP=144        0.65       5.5     4.8  5.6 -0.1858E+02  0.7193E+01 -0.1289E+01E
 Epicentro: ZAPATOCA - SANTANDER                                               3
 ACTION:UPD 15-12-28 16:12 OP:cam  STATUS:               ID:20151121134431 L   I
 OLDACT:UP  15-11-22 00:11 OP:ak   STATUS:               ID:20151121133750     3
 OLDACT:REG 15-11-21 21:40 OP:al   STATUS:               ID:20151121133750     3
 2015-11-21-1337-50M.COL___319                                                 6
 STAT SP IPHASW D HRMM SECON CODA AMPLIT PERI AZIMU VELO AIN AR TRES W  DIS CAZ7
 BAR2 EZ EP       1344 50.01                             170   -0.0410 23.7 179 
 BAR2 EZ ES       1345  4.99                             170    0.2710 23.7 179 
 BAR2 EZ I        1345  6.41         5.0 0.20            173           23.7 179 
 PAM  EZ EP       1344 52.93                             149    0.0510 79.8  42 
 PAM  EN ES       1345  9.55                             149   -0.2010 79.8  42 
 PAM  EZ I        1345 11.77         6.1 0.42            150           79.8  42 
 PTB  HZ EP       1344 57.11                             131   -0.16 9  143 258 
 PTB  HE ES       1345 17.68                             131    0.13 9  143 258 
 PTB  HZ I        1345 22.89         4.1 0.38            131            143 258 
 SPBC HZ EP       1344 59.39                             128    0.38 9  161 218 
 SPBC HN ES       1345 20.22                             128   -0.44 9  161 218 
                                                                                
