 2010  321 1029 15.2 L   6.810 -72.989139.6  RSN 10 0.3 3.3LRSN                1
 GAP=199        0.45       3.2     5.7  7.2  0.1957E+01  0.2047E+02  0.6737E+01E
 Epicentro: CEPITA - SANTANDER                                                 3
 ACTION:UP  10-08-24 09:55 OP:vdl  STATUS:               ID:20100321102915 L   I
 2010-03-21-1025-21S.COL___098                                                 6
 STAT SP IPHASW D HRMM SECON CODA AMPLIT PERI AZIMU VELO SNR AR TRES W  DIS CAZ7
 BAR2 SZ EP   2   1029 34.18                             166    -0.2 5   32 222 
 BAR2 SZ ES   2   1029 49.12                             166    -0.1 5   32 222 
 BRR  HE ES   2   1029 53.14                             147    -0.3 5   86 292 
 BRR  HZ I        1029 57.35       245.7 0.11                            86 292 
 RUS  HZ EP   2   1029 38.62                             142     0.1 5  102 186 
 RUS  HE ES   1   1029 56.88                             142     0.3 7  102 186 
 RUS  HZ I        1029 58.04       189.1 0.27                           102 186 
 OCA  SZ ES   2   1030  5.22                             128     0.1 5  162 347 
 OCA  SZ I        1030  8.92       393.0 0.14                           162 347 
 CHI  HN ES   2   1030 22.42                             115    -0.5 4  255 199 
 CHI  HZ I        1030 25.71        83.3 0.42                           255 199 
 HEL  HE ES   2   1030 29.91                             112     0.2 4  289 256 
 HEL  HZ I        1030 33.79       110.8 0.47                           289 256 
 RREF BN ES   2   1030 40.23                             109     0.4 3  336 231 
 RREF BZ I        1030 48.45        91.6 0.51                           336 231 
 TOL  SZ ES   2   1030 43.47                             107     0.1 3  357 227 
 ANIL BE ES   2   1030 45.91                             107    -0.3 3  370 226 
 ANIL BZ I        1030 48.95       117.7 0.38                           370 226 
 PRA  HZ I        1030 30.85        70.3 0.42                           402 212 
 PRA  HN ES   2   1030 51.77                             105    -0.4 3  402 212 
                                                                                
