 2013  221 1310 20.2 L   6.792 -73.177149.8  RSN  4 0.4 1.9LRSN                1
 GAP=233        0.83       6.2     7.6  8.2  0.2045E+02 -0.2786E+01  0.1721E+02E
 Epicentro: LOS SANTOS - SANTANDER                                             3
 ACTION:UPD 13-03-12 09:34 OP:ep   STATUS:               ID:20130221131020 L   I
 2013-02-21-1310-00M.COL___237                                                 6
 STAT SP IPHASW D HRMM SECON CODA AMPLIT PERI AZIMU VELO AIN AR TRES W  DIS CAZ7
 BRR  HZ EP   1   1310 41.58                             154   -0.11 7 68.6 301 
 BRR  HN ES       1310 58.73                             154    0.3110 68.6 301 
 BRR  HN I        1310 59.08        20.3 0.26            151           68.6 301 
 RUS  HZ EP   1   1310 43.99                             145   -0.36 7100.0 174 
 RUS  HE ES   1   1311  2.94                             145   -0.22 7100.0 174 
 PTB  HZ EP       1310 47.51                             134    0.29 9  144 259 
 PTB  HN ES       1311  7.77                             134   -0.50 9  144 259 
 PTB  HN I        1311 12.96         9.0 0.30            131            144 259 
 CHI  HZ EP       1310 57.92                             118   -0.06 8  247 194 
 CHI  HN ES   1   1311 28.26                             118    0.85 6  247 194 
 CHI  HN I        1311 29.59         3.1 0.25            117            247 194 
                                                                                
