 2012  121 1831 55.7 L   6.777 -73.148147.4  RSN 11 0.4 2.4LRSN                1
 GAP=137        1.03       4.8     5.3  7.4 -0.6541E+01  0.8044E+01  0.4224E+01E
 Epicentro: LOS SANTOS - SANTANDER                                             3
 ACTION:UP  12-02-03 08:19 OP:REBC STATUS:               ID:20120121183155 L   I
 2012-01-21-1830-00M.COL___186                                                 6
 STAT SP IPHASW D HRMM SECON CODA AMPLIT PERI AZIMU VELO SNR AR TRES W  DIS CAZ7
 BAR2 SZ EP   1   1832 15.44                             172    -0.1 7   21 191 
 BAR2 SZ ES   1   1832 30.58                             172    -0.3 7   21 191 
 BAR2 SZ I        1832 32.55        50.5 0.27                            21 191 
 BRR  HZ EP       1832 17.58                             152     0.510   72 300 
 BRR  HZ I        1832 17.90        82.3 0.15                            72 300 
 BRR  HE ES   1   1832 34.79                             152     1.0 7   72 300 
 PAM  SZ EP       1832 18.46                             150     0.210   80  38 
 PAM  SZ I        1832 18.78        26.3 0.18                            80  38 
 PAM  SN ES   1   1832 35.20                             150    -0.6 7   80  38 
 RUS  HZ EP   1   1832 19.47                             145     0.0 7   98 176 
 RUS  HN ES   1   1832 37.91                             145     0.0 7   98 176 
 RUS  HZ I        1832 39.57        16.2 0.22                            98 176 
 PTB  HZ EP   1   1832 22.17                             132    -0.6 7  147 260 
 PTB  HN ES   1   1832 43.23                             132    -0.6 7  147 260 
 OCA  SZ EP   1   1832 24.03                             129    -0.4 7  163 353 
 OCA  SZ I        1832 52.77        23.5 0.28                           163 353 
 ZAR  HN ES   2   1832 53.93                             123     0.1 4  205 293 
 NOR  SZ EP   1   1832 31.43                             119     0.1 6  233 235 
 NOR  SN ES       1832 58.83                             119    -0.3 8  233 235 
 CHI  HZ EP   1   1832 33.30                             118     0.1 6  246 195 
 CHI  HN ES   1   1833  3.19                             118     0.7 6  246 195 
 CHI  HZ I        1833  8.41         8.1 0.20                           246 195 
 HEL  HZ EP   1   1832 35.52                             115    -0.4 6  271 256 
 HEL  HN ES   2   1833  7.88                             115     0.6 4  271 256 
 HEL  HZ I        1833 14.42        15.4 0.36                           271 256 
 PRA  HZ EP   1   1832 49.15                             107     0.1 4  390 210 
 PRA  HZ I        1833 34.48        24.3 0.21                           390 210 
                                                                                
