 2010  821 1130 23.7 L   6.036 -73.608109.7  RSN  5 0.2 1.3LRSN                1
 GAP=144        0.60       9.4    14.9 12.2 -0.5982E+02  0.1362E+03 -0.5531E+02E
 Epicentro: CHIPATA - SANTANDER                                                3
 ACTION:UP  10-09-07 10:57 OP:vdl  STATUS:               ID:20100821113023 L   I
 2010-08-21-1127-26S.COL___120                                                 6
 STAT SP IPHASW D HRMM SECON CODA AMPLIT PERI AZIMU VELO SNR AR TRES W  DIS CAZ7
 RUS  HN ES   2   1130 54.58                             149     0.0 5   60 105 
 RUS  HZ I        1130 57.85         2.2 0.51                            60 105 
 BAR2 SZ EP       1130 42.10                             142     0.210   77  37 
 BAR2 SZ ES   1   1130 56.10                             142     0.0 7   77  37 
 BAR2 SZ I        1130 57.40         6.7 0.58                            77  37 
 BTL  SZ EP       1130 43.80                             133    -0.310  105  21 
 GUE  SZ EP   1   1130 55.65                             112     0.2 6  212  21 
 RREF HN ES   3   1131 24.63                             110     0.2 2  230 237 
 RREF HZ I        1131 29.27         2.7 0.30                           230 237 
                                                                                
