 2014  721 1304 19.6 L   6.834 -73.133147.1  RSN 25 0.6 2.8LRSN                1
 GAP=136        1.33       3.2     4.8  5.9 -0.2673E+01  0.8442E+01  0.2892E+01E
 Epicentro: LOS SANTOS - SANTANDER                                             3
 ACTION:UPD 15-03-16 20:45 OP:nd   STATUS:               ID:20140721130419 L   I
 OLDACT:REG 14-07-21 21:31 OP:fm   STATUS:               ID:20140721125818     3
 2014-07-21-1258-18M.COL___266                                                 6
 STAT SP IPHASW D HRMM SECON CODA AMPLIT PERI AZIMU VELO AIN AR TRES W  DIS CAZ7
 BAR2 SZ EP       13 4 39.33                             169   -0.1810 27.3 192 
 BAR2 SZ ES       13 4 54.66                             169   -0.3510 27.3 192 
 BAR2 SZ I        13 4 55.98       114.3 0.28            165           27.3 192 
 BRR  HZ EP       13 4 41.22                             153    0.3210 70.7 295 
 BRR  HN ES       13 4 58.38                             153    0.8910 70.7 295 
 BRR  HZ I        13 5  2.82        70.0 0.30            149           70.7 295 
 PAM  SZ EP       13 4 42.01                             152    0.2410 73.6  41 
 PAM  SN ES       13 4 59.35                             152    0.3110 73.6  41 
 PAM  SZ I        13 5  1.41        82.6 0.56            158           73.6  41 
 RUS  HZ EP       13 4 43.23                             143   -0.5510  104 177 
 RUS  HN ES       13 5  2.11                             143   -0.5110  104 177 
 RUS  HZ I        13 5  3.30        42.0 0.34            144            104 177 
 PTB  HZ EP       13 4 46.50                             132   -0.40 9  150 258 
 PTB  HN ES       13 5  7.31                             132   -0.86 9  150 258 
 PTB  HZ I        13 5 13.07        78.2 0.36            130            150 258 
 OCA  HZ EP       13 4 47.30                             130   -0.41 9  157 352 
 OCA  HN ES       13 5 10.12                             130    0.50 9  157 352 
 OCA  HZ I        13 5 13.62        68.0 0.22            132            157 352 
 SPBC HZ EP       13 4 48.42                             129   -0.17 9  167 219 
 SPBC HN ES       13 5 10.88                             129   -0.31 9  167 219 
 SPBC HZ I        13 5 14.53        85.7 0.34            128            167 219 
 ZAR  HZ EP       13 4 52.02                             123   -0.13 9  204 291 
 ZAR  HN ES       13 5 18.07                             123    0.55 9  204 291 
 ZAR  HZ I        13 5 23.25        60.3 0.22            122            204 291 
 NOR  HZ EP       13 4 55.30                             118   -0.50 8  238 234 
 NOR  HN ES       13 5 23.29                             118   -0.72 8  238 234 
 NOR  HZ I        13 5 27.19        47.6 0.20            118            238 234 
 SML  HZ EP       13 4 55.54                             118   -0.49 8  241 335 
 SML  HN ES   4   13 5 25.52                             118    1.11 0  241 335 
 SML  HZ I        13 5 27.02        80.9 0.28            119            241 335 
 CHI  HZ EP       13 4 57.55                             117   -0.29 8  253 195 
 CHI  HN ES       13 5 28.26                             117    0.62 8  253 195 
 CHI  HZ I        13 5 36.94        15.6 0.30            118            253 195 
 ROSC BZ EP       13 4 59.15                             116    0.89 8  257 211 
 ROSC BN ES   4   13 5 29.99                             116    1.61 0  257 211 
 ROSC BZ I        13 5 37.55        56.3 0.35            117            257 211 
 HEL  HZ EP       13 5  1.20                             115    1.03 8  274 255 
 HEL  HN ES   4   13 5 34.92                             115    3.14 0  274 255 
 HEL  HZ I        13 5 40.13        24.5 0.36            115            274 255 
 URE  HZ EP   1   13 4 59.75                             114   -1.01 6  284 291 
 URE  HN ES   4   13 5 30.30                             114   -2.53 0  284 291 
 URE  HZ I        13 5 41.86        35.9 0.18            114            284 291 
 GUY2CHZ EP       13 5  4.50                             112    0.82 7  305 234 
 GUY2CHE ES   4   13 5 40.35                             112    2.32 0  305 234 
 GUY2CHZ I        13 5 46.23        38.0 0.30                           305 234 
 VIL  SN ES   1   13 5 38.16                             112    0.34 5  307 192 
 VIL  SZ I        13 5 47.96        28.7 0.64            113            307 192 
 RREF HZ EP   4   13 5  7.50                             111    1.27 0  325 229 
 RREF HN ES   4   13 5 45.51                             111    2.93 0  325 229 
 RREF HZ I        13 5 52.44        32.8 0.26            111            325 229 
 CBOC HN ES   4   13 5 42.45                             110   -1.30 0  336 252 
 CBOC HZ I        13 5 47.92        39.3 0.14            110            336 252 
 DBB  SZ EP   4   13 5  7.88                             110    0.59 0  341 274 
 DBB  SZ ES       13 5 43.28                             110   -1.19 7  341 274 
 DBB  SZ I        13 5 47.66        51.9 0.36            110            341 274 
 TOL  SZ EP       13 5  8.95                             109    0.59 6  347 224 
 TOL  SN ES       13 5 46.67                             109    0.30 6  347 224 
 TOL  SZ I        13 5 53.53        67.9 0.32            110            347 224 
 ARGC HZ EP   1   13 5  8.09                             109   -0.89 5  356 340 
 ARGC HN ES   4   13 5 47.20                             109   -0.27 0  356 340 
 ARGC HZ I        13 5 49.67        27.8 0.34            110            356 340 
 ANIL HZ EP       13 5 11.13                             108    1.22 6  361 224 
 ANIL HN ES       13 5 50.22                             108    1.09 6  361 224 
 ANIL HZ I        13 5 58.02        51.7 0.48            109            361 224 
 PRA  HZ EP       13 5 12.86                             106   -0.80 6  396 209 
 PRA  HN ES       13 5 56.20                             106    0.39 6  396 209 
 PRA  HZ I        13 6  2.32        25.4 0.22            107            396 209 
 ORTC HZ EP       13 5 13.73                             106   -0.32 6  399 216 
 ORTC HN ES       13 5 56.98                             106    0.48 6  399 216 
 ORTC HZ I        13 6  3.35        20.4 0.42            107            399 216 
 SJC  HZ EP   4   13 5 13.48                             106   -1.48 0  407 326 
 SJC  HN ES   4   13 5 54.66                             106   -3.45 0  407 326 
 SJC  HZ I        13 6  4.54        10.3 0.40            107            407 326 
                                                                                
