 2016  421 1822 50.4 L   6.805 -73.175143.0  RSN  8 0.5 2.0LRSN                1
 GAP=133        1.20       4.5     5.0  7.6 -0.2812E+01  0.1323E+02  0.2466E+01E
 Epicentro: LOS SANTOS - SANTANDER                                             3
 ACTION:UPD 16-05-05 14:23 OP:rebc STATUS:               ID:20160421182250 L   I
 OLDACT:ARG 16-04-21 20:42 OP:ar   STATUS:               ID:20160421181749     3
 2016-04-21-1817-49M.COL___313                                                 6
 STAT SP IPHASW D HRMM SECON CODA AMPLIT PERI AZIMU VELO AIN AR TRES W  DIS CAZ7
 BAR2 EZ EP       1823  9.45                             170   -0.2710 23.5 182 
 BAR2 EZ ES       1823 24.51                             170   -0.2710 23.5 182 
 BAR2 EZ I        1823 25.95        26.9 0.20            168           23.5 182 
 PAM  EZ EP       1823 12.50                             150    0.0610 79.1  42 
 PAM  EN ES       1823 29.91                             150    0.2810 79.1  42 
 PAM  EZ I        1823 31.23        13.8 0.70            155           79.1  42 
 RUS  HZ EP       1823 13.59                             143   -0.3710  101 174 
 RUS  HN ES       1823 32.43                             143    0.1110  101 174 
 RUS  HZ I        1823 33.24        13.6 0.20            145            101 174 
 PTB  HZ EP       1823 16.12                             132   -0.76 9  145 258 
 PTB  HN ES       1823 36.72                             132   -0.81 9  145 258 
 PTB  HZ I        1823 42.19        10.4 0.18            131            145 258 
 SPBC HZ EP       1823 18.58                             129    0.03 9  162 218 
 SPBC HN ES       1823 41.52                             129    1.02 9  162 218 
 SPBC HZ I        1823 47.56        18.9 0.40            129            162 218 
 ZAR  HZ EP       1823 22.89                             122    0.53 9  201 292 
 ZAR  HN ES       1823 47.98                             122    0.71 9  201 292 
 ZAR  HZ I        1823 55.98        10.3 0.44            123            201 292 
 NOR  HZ EP       1823 25.81                             118    0.07 8  232 234 
 NOR  HE ES       1823 52.92                             118   -0.37 8  232 234 
 NOR  HZ I        1823 58.39        10.5 0.34            119            232 234 
 CHI  HZ EP       1823 27.88                             117   -0.05 8  248 194 
 CHI  HE ES       1823 57.65                             117    0.46 8  248 194 
 CHI  HZ I        1824  3.28         3.9 0.52            118            248 194 
                                                                                
