 2016  121 1615 47.2 L   6.828 -73.126138.0  RSN  6 0.3 1.4LRSN                1
 GAP=138        0.71       3.0     3.3  6.4  0.5165E+00  0.5969E+01 -0.4286E+01E
 Epicentro: LOS SANTOS - SANTANDER                                             3
 ACTION:UPD 16-03-09 23:27 OP:cam  STATUS:               ID:20160121161547 L   I
 OLDACT:REG 16-01-21 20:55 OP:cara STATUS:               ID:20160121160748     3
 2016-01-21-1607-48M.COL___320                                                 6
 STAT SP IPHASW D HRMM SECON CODA AMPLIT PERI AZIMU VELO AIN AR TRES W  DIS CAZ7
 BAR2 EZ IP       1616  5.71                             168   -0.3110 26.8 193 
 BAR2 EZ ES       1616 20.32                             168   -0.3410 26.8 193 
 BAR2 EZ I        1616 22.15         4.9 0.28            168           26.8 193 
 PAM  EZ IP       1616  8.55                             151    0.1410 73.6  40 
 PAM  EE ES       1616 25.17                             151    0.2510 73.6  40 
 PAM  EZ I        1616 27.74         5.7 0.58            155           73.6  40 
 RUS  HZ EP       1616 10.41                             141   -0.0510  104 177 
 RUS  HN ES       1616 28.84                             141    0.2710  104 177 
 RUS  HZ I        1616 29.61         3.6 0.42            144            104 177 
 PTB  HZ EP   4   1616 12.60                             130   -1.24 0  150 258 
 PTB  HN ES       1616 34.51                             130   -0.08 9  150 258 
 PTB  HZ I        1616 42.17         3.4 0.18            131            150 258 
 ZAR  HN ES       1616 44.72                             120    0.45 9  205 291 
 SML  HE ES       1616 50.99                             116   -0.32 8  242 335 
                                                                                
