 2010  321 1107 23.1 L   6.779 -72.988138.0  RSN  5 0.2 1.8LRSN                1
 GAP=199        0.40       3.1     9.1  5.1  0.8950E+01 -0.5000E+01  0.1351E+01E
 Epicentro: CEPITA - SANTANDER                                                 3
 ACTION:UP  10-08-24 09:55 OP:vdl  STATUS:               ID:20100321110723 L   I
 2010-03-21-1102-40S.COL___098                                                 6
 STAT SP IPHASW D HRMM SECON CODA AMPLIT PERI AZIMU VELO SNR AR TRES W  DIS CAZ7
 BAR2 SZ EP   1   11 7 41.70                             167    -0.2 7   30 226 
 BAR2 SZ ES   1   11 7 56.74                             167     0.1 7   30 226 
 BRR  HZ EP   2   11 7 44.23                             146    -0.2 5   88 294 
 BRR  HE ES   2   11 8  1.01                             146    -0.1 5   88 294 
 BRR  HZ I        11 8  4.94        10.6 0.15                            88 294 
 RUS  HZ EP   2   11 7 45.79                             143    -0.1 5   99 186 
 RUS  HN ES   2   11 8  3.82                             143     0.1 5   99 186 
 OCA  SZ ES   2   11 8 13.68                             127     0.4 5  165 347 
 OCA  SZ I        11 8 18.94        10.5 0.36                           165 347 
 CHI  HZ EP   2   11 8  0.87                             115     0.2 4  252 199 
 CHI  HE ES   2   11 8 30.23                             115     0.2 4  252 199 
 CHI  HZ I        11 8 36.33         2.9 0.52                           252 199 
                                                                                
