 2015  421 1002  4.6 L   6.783 -73.155152.0  RSN  7 0.4 1.5LRSN                1
 GAP=200        0.76       4.2     5.2  6.8  0.8346E+01 -0.1063E+01 -0.6958E+01E
 Epicentro: LOS SANTOS - SANTANDER                                             3
 ACTION:UPD 15-06-03 16:56 OP:cam  STATUS:               ID:20150421100204 L   I
 OLDACT:REG 15-04-21 20:06 OP:spq  STATUS:               ID:20150421095746     3
 2015-04-21-0957-46M.COL___268                                                 6
 STAT SP IPHASW D HRMM SECON CODA AMPLIT PERI AZIMU VELO AIN AR TRES W  DIS CAZ7
 BAR2 EZ EP       10 2 24.82                             172   -0.0910 21.3 188 
 BAR2 EZ ES   1   10 2 40.10                             172   -0.68 7 21.3 188 
 BAR2 EZ I        10 2 41.01         6.4 0.26            167           21.3 188 
 BRR  HZ EP   1   10 2 26.68                             154    0.28 7 71.2 300 
 BRR  HE ES       10 2 43.91                             154    0.4910 71.2 300 
 BRR  HZ I        10 2 45.43         7.4 0.31            148           71.2 300 
 RUS  HZ EP   1   10 2 28.81                             146   -0.00 7 98.7 175 
 RUS  HN ES   1   10 2 47.96                             146    0.24 7 98.7 175 
 RUS  HZ I        10 2 48.57         3.2 0.26            145           98.7 175 
 PTB  HZ EP   1   10 2 31.92                             134   -0.01 7  146 259 
 PTB  HN ES   1   10 2 52.68                             134   -0.59 7  146 259 
 PTB  HZ I        10 2 59.51         2.4 0.31            130            146 259 
 SPBC HE ES   1   10 2 56.19                             131    0.38 7  161 219 
 SPBC HZ I        10 2 58.25         6.9 0.28            128            161 219 
 ZAR  HN ES       10 3  2.88                             124   -0.14 9  204 293 
 ZAR  HZ I        10 3  9.93         2.5 0.26            121            204 293 
 SML  HZ EP   1   10 2 41.28                             119   -0.41 6  245 336 
 SML  HE ES   1   10 3 10.82                             119    0.17 6  245 336 
 SML  HZ I        10 3 12.86         3.5 0.10            118            245 336 
                                                                                
