 2012  421 1034 24.8 L   6.774 -73.160148.6  RSN  6 0.3 1.9LRSN                1
 GAP=136        0.69       4.5     3.8  5.6  0.4883E+00  0.3972E+01 -0.2021E+01E
 Epicentro: LOS SANTOS - SANTANDER                                             3
 ACTION:UPD 12-07-05 11:55 OP:tino STATUS:               ID:20120421103424 L   I
 2012-04-21-1030-00M.COL___186                                                 6
 STAT SP IPHASW D HRMM SECON CODA AMPLIT PERI AZIMU VELO AIN AR TRES W  DIS CAZ7
 BAR2 SZ EP       1034 44.87                             172     0.110   20 187 
 BAR2 SZ ES       1035  0.10                             172    -0.210   20 187 
 BAR2 SZ I        1035  1.29        26.0 0.17                            20 187 
 BRR  HZ EP       1034 46.44                             153     0.110   71 301 
 BRR  HE ES   1   1035  3.61                             153     0.6 7   71 301 
 BRR  HZ I        1035  4.70        17.3 0.34                            71 301 
 PAM  SZ EP       1034 47.72                             150     0.210   81  39 
 PAM  SN ES   1   1035  4.80                             150    -0.5 7   81  39 
 RUS  HZ EP   1   1034 48.64                             145     0.0 7   98 175 
 RUS  HN ES   1   1035  7.38                             145     0.1 7   98 175 
 RUS  HZ I        1035  9.48         5.8 0.61                            98 175 
 PTB  HZ EP       1034 51.60                             133    -0.3 9  146 260 
 PTB  HN ES   1   1035 12.82                             133    -0.1 7  146 260 
 ZAR  HN ES   1   1035 22.65                             123    -0.2 6  204 293 
 ZAR  HZ I        1035 29.32         6.5 0.34                           204 293 
                                                                                
