 2015  321 1206 48.6 L   6.823 -73.141150.0  RSN  9 0.5 1.8LRSN                1
 GAP=150        1.09       5.0     5.0  6.9 -0.5623E+01  0.9347E+01  0.2814E+01E
 Epicentro: LOS SANTOS - SANTANDER                                             3
 ACTION:UPD 15-04-30 16:28 OP:nd   STATUS:               ID:20150321120648 L   I
 OLDACT:UP  15-03-21 22:23 OP:cam  STATUS:               ID:20150321115750     3
 OLDACT:REG 15-03-21 19:49 OP:cam  STATUS:               ID:20150321115750     3
 2015-03-21-1157-50M.COL___266                                                 6
 STAT SP IPHASW D HRMM SECON CODA AMPLIT PERI AZIMU VELO AIN AR TRES W  DIS CAZ7
 BAR2 EZ EP     D 12 7  8.52                             170   -0.2710 25.9 190 
 BAR2 EZ ES       12 7 24.55                             170    0.0110 25.9 190 
 BAR2 EZ I        12 7 25.32         8.7 0.54            170           25.9 190 
 BRR  HZ EP       12 7 10.53                             154    0.3610 70.5 297 
 BRR  HN ES       12 7 27.86                             154    0.8710 70.5 297 
 BRR  HN I        12 7 30.08        17.9 0.18            149           70.5 297 
 PAM  SZ EP       12 7 11.37                             152    0.2310 75.1  40 
 PAM  SN ES       12 7 28.38                             152   -0.3410 75.1  40 
 PAM  SZ I        12 7 30.42         7.7 0.18            154           75.1  40 
 PTB  HZ EP       12 7 15.37                             133   -0.63 9  149 258 
 PTB  HN ES       12 7 36.78                             133   -0.60 9  149 258 
 PTB  HZ I        12 7 42.37         6.3 0.58            131            149 258 
 SPBC HZ EP   1   12 7 17.66                             130    0.02 7  165 219 
 ZAR  HE ES       12 7 46.90                             123    0.14 9  204 291 
 ZAR  HE I        12 7 52.88        14.7 0.22            122            204 291 
 NOR  HZ EP       12 7 24.74                             119   -0.04 8  237 234 
 NOR  HN ES       12 7 53.07                             119    0.08 8  237 234 
 NOR  HZ I        12 7 59.51         3.5 0.28            120            237 234 
 SML  HZ EP   1   12 7 25.84                             119    0.59 6  242 335 
 SML  HN ES       12 7 53.20                             119   -0.63 8  242 335 
 SML  HZ I        12 8  0.44         7.4 0.10            118            242 335 
 GUY2CHZ EP   1   12 7 33.53                             113    0.92 5  303 234 
                                                                                
