 2010  721 1323 56.1 L   6.779 -73.035141.6  RSN 11 0.3 2.0LRSN                1
 GAP=171        0.64       3.5     6.2  5.3 -0.3146E+01  0.1283E+01 -0.5355E+00E
 Epicentro: CEPITA - SANTANDER                                                 3
 ACTION:UPD 10-12-01 15:19 OP:pat  STATUS:               ID:20100721132356 L   I
 2010-07-21-1319-32S.COL___123                                                 6
 STAT SP IPHASW D HRMM SECON CODA AMPLIT PERI AZIMU VELO AIN AR TRES W  DIS CAZ7
 BAR2 SZ IP       1324 15.38                             169     0.110   26 219 
 BAR2 SZ ES   1   1324 30.23                             169     0.0 7   26 219 
 BAR2 SZ I        1324 31.44        34.2 0.31                            26 219 
 GIR2 SZ EP   2   1324 15.57                             164     0.1 5   38 332 
 BRR  HZ IP     D 1324 17.35                             148    -0.110   83 296 
 BRR  HZ I        1324 17.73        25.8 0.20                            83 296 
 BRR  HE ES   1   1324 34.05                             148    -0.2 7   83 296 
 RUS  HZ EP   1   1324 19.21                             144     0.0 7   98 183 
 RUS  HN ES   1   1324 37.40                             144     0.1 7   98 183 
 RUS  HZ I        1324 38.66        15.7 0.41                            98 183 
 GUE  SZ EP   1   1324 20.94                             138     0.5 7  117   6 
 GUE  SZ I        1324 47.80         5.4 0.05                           117   6 
 GRA  SZ EP   1   1324 20.47                             136    -0.4 7  125  12 
 GRA  SZ I        1324 45.48         5.8 0.24                           125  12 
 CHI  HZ EP   2   1324 33.18                             116    -0.5 4  250 198 
 CHI  HN ES   2   1325  2.41                             116    -0.6 4  250 198 
 CHI  HZ I        1325  6.38         3.7 0.40                           250 198 
 HEL  HZ EP   2   1324 37.45                             113     0.1 4  283 257 
 HEL  HZ I        1324 46.32         4.4 0.40                           283 257 
 GUY  SZ EP   2   1324 40.75                             111     0.3 4  310 237 
 GUY  SZ I        1325 23.86        13.7 0.47                           310 237 
 RREF HZ EP   2   1324 43.46                             109     0.5 3  330 231 
 RREF HN ES   2   1325 20.24                             109     0.7 3  330 231 
 RREF HZ I        1325 26.95         8.7 0.23                           330 231 
 PRA  HZ EP   2   1324 48.98                             106    -0.9 3  396 211 
 PRA  HE ES   2   1325 32.01                             106     0.1 3  396 211 
 PRA  HZ I        1325 38.30         5.6 0.51                           396 211 
                                                                                
