 2017  821 1911  9.0 L   6.800 -73.132150.0  RSN 11 0.4 1.8LRSN                1
 GAP=138        0.66       2.7     4.0  4.3  0.5012E+00  0.4835E+01  0.1153E+01E
 Epicentro: LOS SANTOS - SANTANDER                                             3
 ACTION:UPD 17-09-04 20:23 OP:rebc STATUS:               ID:20170821191109 L   I
 OLDACT:UP  17-08-22 00:40 OP:mg   STATUS:               ID:20170821190745     3
 OLDACT:REG 17-08-21 21:22 OP:mg   STATUS:               ID:20170821190745     3
 2017-08-21-1908-00M.COL___405                                                 6
 STAT SP IPHASW D HRMM SECON CODA AMPLIT PERI AZIMU VELO AIN AR TRES W  DIS CAZ7
 BAR2 EZ EP       1911 29.03                             171   -0.1510 23.6 194 
 BAR2 EZ ES       1911 44.45                             171   -0.4410 23.6 194 
 BAR2 EZ I        1911 45.38        17.4 0.50            168           23.6 194 
 BRR  HZ IP     D 1911 30.76                             153    0.0410 72.6 298 
 BRR  HN ES       1911 47.97                             153    0.3410 72.6 298 
 BRR  HZ I        1911 51.09        11.8 0.22            150           72.6 298 
 PAM  EZ EP   1   1911 32.14                             152    0.49 7 76.4  39 
 PAM  HN ES   4   1911 47.14                             152   -2.14 0 76.4  39 
 PAM  EZ I        1911 52.13         8.8 0.21            156           76.4  39 
 RUS  HZ EP       1911 33.07                             145   -0.1310  100 177 
 RUS  HN ES       1911 52.41                             145    0.3710  100 177 
 RUS  HZ I        1911 52.87        11.5 0.26            146            100 177 
 SPBC HZ EP   1   1911 37.79                             130   -0.16 7  164 219 
 SPBC HN ES   1   1912  0.70                             130    0.19 7  164 219 
 SPBC HZ I        1912  6.29         9.8 0.21            130            164 219 
 YPLC HN ES   4   1912  4.49                             128    2.00 0  176 152 
 ZAR  HZ EP   1   1911 41.99                             123    0.08 6  205 292 
 ZAR  HN ES   2   1912  6.89                             123   -0.66 4  205 292 
 ZAR  HZ I        1912 12.73         7.9 0.32            123            205 292 
 NOR  HZ EP       1911 44.80                             119   -0.35 8  236 235 
 NOR  HN ES   1   1912 13.59                             119    0.28 6  236 235 
 NOR  HZ I        1912 19.84         5.2 0.26            120            236 235 
 CHI  HZ EP   2   1911 47.39                             118    0.37 4  249 196 
 CHI  HN ES       1912 16.34                             118   -0.30 8  249 196 
 CHI  HZ I        1912 18.96         4.0 0.36            119            249 196 
 GUY2CHZ EP   2   1911 53.86                             113    0.87 4  302 235 
 GUY2CHN ES   1   1912 27.35                             113    0.09 5  302 235 
 GUY2CHZ I        1912 35.27         2.9 0.31                           302 235 
 PRA  HZ EP   2   1912  3.38                             107    0.58 3  393 210 
 PRA  HN ES   1   1912 44.24                             107   -0.48 4  393 210 
 PRA  HZ I        1912 48.24         2.5 0.30            108            393 210 
 SJC  HZ EP   4   1912  3.22                             106   -1.63 0  410 327 
 SJC  HN ES   1   1912 48.03                             106   -0.34 4  410 327 
 SJC  HZ I        1912 50.52         0.5 0.13            107            410 327 
                                                                                
