 2013  621 1106 56.6 L   6.814 -73.100156.3  RSN 10 0.4 2.3LRSN                1
 GAP=188        0.85       3.6     5.6  6.2 -0.2898E+01  0.4312E+01  0.1566E+01E
 Epicentro: LOS SANTOS - SANTANDER                                             3
 ACTION:UPD 14-01-08 09:56 OP:ep   STATUS:               ID:20130621110656 L   I
 OLDACT:REG 13-06-21 17:57 OP:cam  STATUS:               ID:20130621105959     3
 2013-06-21-1059-59M.COL___264                                                 6
 STAT SP IPHASW D HRMM SECON CODA AMPLIT PERI AZIMU VELO AIN AR TRES W  DIS CAZ7
 GIR2 SZ EP       11 7 17.57                             168    0.0210 31.0 341 
 GIR2 SZ ES   1   11 7 34.14                             168    0.27 7 31.0 341 
 GIR2 SZ I        11 7 34.59        23.6 0.20            162           31.0 341 
 BRR  HZ IP     C 11 7 19.45                             153    0.3210 75.0 296 
 BRR  HE ES       11 7 37.00                             153    0.3210 75.0 296 
 BRR  HZ I        11 7 39.91        35.5 0.34            147           75.0 296 
 RUS  HZ EP       11 7 21.41                             146   -0.1210  102 179 
 RUS  HN ES   1   11 7 40.17                             146   -0.77 7  102 179 
 RUS  HZ I        11 7 41.69         8.6 0.20            147            102 179 
 PTB  HZ EP   1   11 7 24.08                             133   -0.86 7  153 259 
 PTB  HN ES   4   11 7 45.46                             133   -1.56 0  153 259 
 PTB  HZ I        11 7 51.35        37.5 0.30            130            153 259 
 OCA  HZ EP   1   11 7 25.78                             132    0.08 7  159 351 
 OCA  HE ES   4   11 7 46.98                             132   -1.39 0  159 351 
 OCA  HZ I        11 7 51.12        23.4 0.16            131            159 351 
 NOR  HZ EP   1   11 7 34.04                             120    0.52 6  240 235 
 NOR  HN ES       11 8  2.01                             120   -0.29 8  240 235 
 NOR  HZ I        11 8  9.26        15.7 0.18            119            240 235 
 SML  HZ EP       11 7 33.90                             119   -0.05 8  244 334 
 SML  HN ES   1   11 8  2.52                             119   -0.53 6  244 334 
 SML  HZ I        11 8 10.02        25.3 0.26            118            244 334 
 CHI  HZ EP   2   11 7 36.17                             119    0.93 4  252 196 
 HEL  HN ES   1   11 8 10.26                             116    0.03 6  277 256 
 HEL  HZ I        11 8 16.15         8.6 0.36            115            277 256 
 PRA  HZ EP   4   11 7 52.19                             108    1.20 0  396 210 
 PRA  HN ES       11 8 33.90                             108    0.52 6  396 210 
 PRA  HZ I        11 8 37.10         9.4 0.42            108            396 210 
                                                                                
