 2017  221 1355 20.9 L   6.777 -73.146141.6  RSN 11 0.6 2.5LRSN                1
 GAP=137        1.31       5.0     5.1  7.4 -0.4265E+01  0.1236E+02  0.9915E+01E
 Epicentro: LOS SANTOS - SANTANDER                                             3
 ACTION:UPD 17-05-24 15:39 OP:jn   STATUS:               ID:20170221135520 L   I
 OLDACT:REG 17-02-21 21:00 OP:cog  STATUS:               ID:20170221134742     3
 2017-02-21-1348-00M.COL___376                                                 6
 STAT SP IPHASW D HRMM SECON CODA AMPLIT PERI AZIMU VELO AIN AR TRES W  DIS CAZ7
 BAR2 EZ IP     C 1355 39.76                             171   -0.2010 20.8 191 
 BAR2 EZ ES       1355 54.45                             171   -0.3910 20.8 191 
 BAR2 EZ I        1355 55.74        95.9 0.28            169           20.8 191 
 BRR  HZ IP       1355 41.64                             151   -0.0110 72.4 300 
 BRR  HN ES       1355 58.83                             151    0.9810 72.4 300 
 BRR  HZ I        1356  1.93        91.4 0.16            145           72.4 300 
 PAM  EZ EP       1355 42.59                             149   -0.1910 79.4  38 
 PAM  EN ES       1355 59.95                             149    0.1010 79.4  38 
 PAM  EZ I        1356  2.70        59.0 0.54            148           79.4  38 
 RUS  HZ EP       1355 43.68                             144   -0.3610 98.1 176 
 RUS  HN ES       1356  2.40                             144    0.2910 98.1 176 
 RUS  HZ I        1356  3.90        47.2 0.40            141           98.1 176 
 PTB  HZ EP       1355 46.55                             131   -0.91 9  147 260 
 PTB  HN ES       1356  7.63                             131   -0.56 9  147 260 
 PTB  HZ I        1356 11.24        55.3 0.22            125            147 260 
 NOR  HZ EP       1355 55.95                             118   -0.26 8  233 235 
 NOR  HE ES       1356 23.74                             118   -0.02 8  233 235 
 NOR  HZ I        1356 29.07        37.0 0.20            114            233 235 
 CHI  HZ EP       1355 57.93                             116   -0.15 8  246 195 
 CHI  HE ES       1356 27.38                             116    0.28 8  246 195 
 CHI  HZ I        1356 30.95        12.2 0.30            113            246 195 
 ROSC BZ EP       1356  0.42                             116    1.88 8  251 211 
 ROSC BE ES       1356 27.45                             116   -0.46 8  251 211 
 ROSC BZ I        1356 35.33        36.1 0.35            112            251 211 
 HEL  HZ EP       1356  0.89                             114    0.08 8  271 256 
 HEL  HE ES       1356 31.70                             114   -0.25 8  271 256 
 HEL  HZ I        1356 40.18        27.7 0.22            110            271 256 
 ELA  HZ EP   3   1356  7.65                             110    0.28 2  327 230 
 ELA  HE ES   3   1356 44.36                             110    0.74 2  327 230 
 ELA  HZ I        1356 53.08        19.3 0.40            106            327 230 
 CBOC HZ EP       1356  7.79                             109    0.26 7  333 253 
 CBOC HZ I        1356 43.04         6.0 0.22            106            333 253 
 CBOC HE ES       1356 44.46                             109    0.54 7  333 253 
                                                                                
