 2015  621 1142 44.0 L   6.808 -73.070146.8  RSN  6 0.6 1.9LRSN                1
 GAP=191        1.52       6.6    11.2 10.7  0.3311E+02 -0.6265E+01 -0.2605E+02E
 Epicentro: LOS SANTOS - SANTANDER                                             3
 ACTION:UPD 15-09-10 22:14 OP:cam  STATUS:               ID:20150621114244 L   I
 OLDACT:REG 15-06-21 20:19 OP:stll STATUS:               ID:20150621113742     3
 2015-06-21-1137-42M.COL___322                                                 6
 STAT SP IPHASW D HRMM SECON CODA AMPLIT PERI AZIMU VELO AIN AR TRES W  DIS CAZ7
 BAR2 EZ EP       1143  4.03                             169    0.2410 26.9 207 
 BAR2 EZ ES       1143 19.39                             169    0.1310 26.9 207 
 BAR2 EZ I        1143 20.81        12.3 0.24            171           26.9 207 
 BRR  HZ EP     C 1143  6.01                             150    0.3810 78.2 295 
 BRR  HZ I        1143  6.24        19.6 0.26            150           78.2 295 
 BRR  HN ES       1143 23.42                             150    0.8910 78.2 295 
 RUS  HZ EP       1143  7.89                             144    0.0310  101 181 
 RUS  HN ES       1143 25.58                             144   -0.9310  101 181 
 RUS  HZ I        1143 27.42         5.4 0.26            148            101 181 
 OCA  HZ EP       1143 12.65                             130    0.27 9  161 350 
 OCA  HN ES       1143 34.53                             130   -0.02 9  161 350 
 OCA  HZ I        1143 40.56        15.1 0.46            130            161 350 
 ZAR  HZ EP       1143 18.08                             122    0.84 8  211 291 
 ZAR  HN ES       1143 42.46                             122   -0.73 8  211 291 
 ZAR  HZ I        1143 48.08        10.8 0.30            123            211 291 
 SML  HZ EP       1143 20.54                             117   -0.40 8  246 333 
 SML  HN ES       1143 48.54                             117   -1.25 8  246 333 
                                                                                
