 2017 1221 1413  9.3 L   6.842 -73.180138.6  RSN 20 0.7 2.5LRSN                1
 GAP= 55        1.25       2.8     3.6  6.3 -0.7612E+00  0.6391E+01  0.2728E+01E
 Epicentro: ZAPATOCA - SANTANDER                                               3
 ACTION:UPD 18-01-04 13:22 OP:rebc STATUS:               ID:20171221141309 L   I
 OLDACT:UP  17-12-21 23:07 OP:dhb  STATUS:               ID:20171221140739     3
 OLDACT:REG 17-12-21 20:48 OP:dhb  STATUS:               ID:20171221140739     3
 2017-12-21-1408-00M.COL___457                                                 6
 STAT SP IPHASW D HRMM SECON CODA AMPLIT PERI AZIMU VELO AIN AR TRES W  DIS CAZ7
 BAR2 HZ IP     D 1413 27.77                             168   -0.3610 27.6 181 
 BAR2 HZ ES       1413 42.74                             168   -0.1110 27.6 181 
 BAR2 HZ I        1413 45.59        56.3 0.48            167           27.6 181 
 PAM  EZ EP       1413 30.53                             150   -0.1310 76.4  44 
 PAM  EE ES       1413 47.88                             150    0.5310 76.4  44 
 PAM  EZ I        1413 49.94        69.9 0.52            155           76.4  44 
 PTB  HZ EP       1413 34.50                             131   -0.90 9  145 257 
 PTB  HN ES       1413 55.41                             131   -0.39 9  145 257 
 PTB  HZ I        1413 57.44        15.5 0.38            131            145 257 
 OCA  HZ EP       1413 36.96                             129    0.42 9  155 354 
 OCA  HE ES       1413 57.83                             129    0.00 9  155 354 
 OCA  HZ I        1414  4.22        91.0 0.48            131            155 354 
 TAM  HZ IP     D 1413 36.17                             128   -0.67 9  160 106 
 YPLC HZ EP       1413 38.34                             124   -0.79 9  183 151 
 YPLC HE ES       1414  2.77                             124    0.34 9  183 151 
 YPLC HZ I        1414  3.10        42.6 0.26            127            183 151 
 ZAR  HZ EP       1413 40.35                             121   -0.35 9  199 291 
 ZAR  HN ES       1414  4.99                             121   -0.24 9  199 291 
 ZAR  HZ I        1414 14.72        19.2 0.16            122            199 291 
 ROSC BZ EP       1413 48.07                             115    0.84 8  255 210 
 ROSC BN ES       1414 17.31                             115    0.47 8  255 210 
 ROSC BZ I        1414 26.08        22.3 0.40            116            255 210 
 URE  HZ EP       1413 48.40                             113   -1.00 7  279 291 
 URE  HE ES       1414 20.36                             113   -0.36 7  279 291 
 URE  HZ I        1414 30.51        15.0 0.20            114            279 291 
 DRL03HZ EP       1413 50.49                             112    0.53 7  284 353 
 DRL03HE ES       1414 22.83                             112    1.11 7  284 353 
 GUY2CHZ EP       1413 53.18                             111    0.67 7  301 234 
 GUY2CHE ES   2   1414 27.54                             111    1.30 4  301 234 
 GUY2CHZ I        1414 37.98        14.0 0.42                           301 234 
 VIL  EZ EP       1413 53.22                             110    0.43 7  307 191 
 VIL  EE ES       1414 27.17                             110    0.42 7  307 191 
 VIL  EZ I        1414 34.71        14.1 0.38            112            307 191 
 ELA  HZ EP   2   1413 57.15                             109    1.31 3  329 228 
 ELA  HN ES       1414 32.50                             109    0.33 7  329 228 
 ELA  HZ I        1414 47.23         8.5 0.48            110            329 228 
 ARGC HZ EP       1413 59.44                             107    1.45 6  354 341 
 ANIL HZ EP       1413 59.45                             107    0.57 6  358 224 
 ANIL HE ES   2   1414 38.80                             107    1.22 3  358 224 
 ANIL HZ I        1414 44.60        28.7 0.32            108            358 224 
 SDV  B2 ES   2   1414 36.10                             107   -1.75 3  360  51 
 SDV  B2 I        1414 38.03        12.5 0.50            109            360  51 
 PRA  HZ EP   2   1414  1.57                             105   -1.23 3  394 209 
 PRA  HN ES       1414 44.18                             105   -0.38 6  394 209 
 PRA  HZ I        1414 49.97         9.1 0.38            106            394 209 
 ORTC HZ EP       1414  2.65                             105   -0.47 6  397 215 
 ORTC HE ES       1414 45.39                             105    0.25 6  397 215 
 ORTC HZ I        1414 48.96         7.0 0.50            106            397 215 
 SJC  HZ EP   2   1414  1.96                             105   -1.93 3  403 327 
 SJC  HE ES   3   1414 44.11                             105   -2.40 1  403 327 
 SJC  HZ I        1414 49.40         3.4 0.28            106            403 327 
 PAL  HZ EP       1414  3.51                             105   -0.58 6  405 238 
 PAL  HN ES       1414 46.78                             105   -0.09 6  405 238 
 PAL  HZ I        1414 49.33         5.8 0.22            106            405 238 
                                                                                
