 2016  721 1424 41.9 L   6.617 -73.378116.0  RSN  5 0.5 1.7LRSN                1
 GAP=157        1.28       6.0     7.2 11.0  0.6652E+01  0.4865E+02  0.4528E+00E
 Epicentro: GALAN - SANTANDER                                                  3
 ACTION:UPD 17-03-29 16:53 OP:lp   STATUS:               ID:20160721142441 L   I
 OLDACT:REG 16-07-21 19:34 OP:lv   STATUS:               ID:20160721141759     3
 2016-07-21-1417-59S.COL___334                                                 6
 STAT SP IPHASW D HRMM SECON CODA AMPLIT PERI AZIMU VELO AIN AR TRES W  DIS CAZ7
 BAR2 EZ EP       1424 57.42                             168   -0.4910 21.8  97 
 BAR2 EZ ES       1425 10.50                             168    0.0910 21.8  97 
 RUS  HZ EP       1425  2.19                             141    0.4810 86.5 158 
 RUS  HE ES       1425 17.65                             141    0.4810 86.5 158 
 RUS  HZ I        1425 18.87         8.9 0.30            146           86.5 158 
 SPBC HZ EP       1425  4.27                             128   -0.8210  131 216 
 SPBC HN ES       1425 22.51                             128   -0.6910  131 216 
 SPBC HZ I        1425 28.90        14.2 0.16            130            131 216 
 ZAR  HZ EP       1425 10.87                             117   -0.16 9  190 301 
 ZAR  HN ES       1425 34.05                             117    0.28 9  190 301 
 ZAR  HZ I        1425 38.68         7.4 0.21            120            190 301 
 GUY2CHZ EP       1425 21.06                             108    0.58 8  269 235 
 GUY2CHN ES       1425 51.28                             108    0.68 8  269 235 
 GUY2CHZ I        1425 58.28         2.7 0.43                           269 235 
                                                                                
