 2016  921 1806  7.6 L   6.732 -73.156150.4  RSN  7 0.4 1.6LRSN                1
 GAP=231        0.91       4.6     4.8  6.7  0.5171E+01  0.6985E+01  0.2893E+01E
 Epicentro: LOS SANTOS - SANTANDER                                             3
 ACTION:UPD 17-08-17 21:14 OP:lp   STATUS:               ID:20160921180607 L   I
 OLDACT:UP  16-09-22 00:38 OP:ar   STATUS:               ID:20160921175746d    3
 OLDACT:DUP 16-09-22 00:36 OP:ar   STATUS:               ID:20160921175746d    3
 OLDACT:UP  16-09-22 00:35 OP:ar   STATUS:               ID:20160921175745     3
 OLDACT:REG 16-09-21 21:20 OP:edw  STATUS:               ID:20160921175745     3
 2016-09-21-1758-00M.COL___354                                                 6
 STAT SP IPHASW D HRMM SECON CODA AMPLIT PERI AZIMU VELO AIN AR TRES W  DIS CAZ7
 BAR2 EZ EP       18 6 27.51                             174   -0.1510 15.7 191 
 BAR2 EZ ES       18 6 43.45                             174    0.1510 15.7 191 
 BAR2 EZ I        18 6 44.09        19.0 0.20            170           15.7 191 
 BRR  HZ EP       18 6 29.55                             152    0.1410 74.1 304 
 BRR  HN ES       18 6 46.90                             152    0.4810 74.1 304 
 RUS  HZ EP       18 6 31.31                             147    0.0210 93.1 175 
 RUS  HN ES       18 6 49.43                             147   -0.3510 93.1 175 
 RUS  HZ I        18 6 51.21         3.8 0.44            146           93.1 175 
 PTB  HZ EP       18 6 34.37                             134   -0.36 9  145 262 
 PTB  HN ES       18 6 55.48                             134   -0.41 9  145 262 
 PTB  HZ I        18 6 56.80         3.5 0.36            132            145 262 
 SPBC HZ EP       18 6 36.32                             131    0.47 9  157 220 
 SPBC HN ES       18 6 57.68                             131   -0.20 9  157 220 
 SPBC HZ I        18 7  4.54         7.7 0.30            130            157 220 
 ZAR  HN ES       18 7  5.82                             123   -0.42 8  206 294 
 ZAR  HZ I        18 7 11.46         3.8 0.44            123            206 294 
 NOR  HN ES       18 7 11.38                             120    0.70 8  229 236 
                                                                                
