 2014  321 1132  3.4 L   6.740 -73.168149.3  RSN  7 0.5 1.9LRSN                1
 GAP=136        0.92       5.1     7.1  9.5  0.1119E+02  0.1449E+02 -0.4336E+01E
 Epicentro: VILLANUEVA - SANTANDER                                             3
 OLDACT:REG 14-03-21 15:01 OP:y    STATUS:               ID:20140321112809     3
 ACTION:UPD 14-04-09 23:19 OP:nd   STATUS:               ID:20140321113203 L   I
 OLDACT:UP  14-03-21 16:40 OP:fm   STATUS:               ID:20140321112809     3
 2014-03-21-1128-09M.COL___241                                                 6
 STAT SP IPHASW D HRMM SECON CODA AMPLIT PERI AZIMU VELO AIN AR TRES W  DIS CAZ7
 BAR2 SZ EP       1132 23.54                             173    0.2410 16.5 186 
 BAR2 SZ ES   1   1132 38.85                             173   -0.01 7 16.5 186 
 BAR2 SZ I        1132 39.99        28.4 0.34            169           16.5 186 
 PAM  SZ EP   2   1132 26.34                             149   -0.02 5 84.0  38 
 PAM  SZ I        1132 45.44         8.6 0.62            132           84.0  38 
 RUS  HN ES   1   1132 45.61                             146    0.13 7 94.2 174 
 PTB  HZ EP   1   1132 31.04                             134    0.73 7  144 261 
 PTB  SZ I        1132 50.35         4.5 0.78            124            144 261 
 PTB  HN ES   1   1132 50.68                             134   -0.64 7  144 261 
 ZAR  HZ EP   2   1132 36.75                             123    0.68 4  204 294 
 ZAR  HN ES   1   1133  2.15                             123    0.56 6  204 294 
 ZAR  SZ I        1133  9.85         4.3 0.28            113            204 294 
 CHI  HZ EP   1   1132 39.76                             119   -0.75 6  242 195 
 CHI  HN ES   1   1133  9.18                             119   -0.30 6  242 195 
 CHI  SZ I        1133 20.54         6.7 2.28            109            242 195 
 SML  HZ EP   4   1132 39.30                             118   -1.43 0  249 336 
 SML  HE ES   1   1133  8.96                             118   -0.92 6  249 336 
 SML  SZ I        1133 16.23         7.9 0.08            107            249 336 
                                                                                
