 2017  121 1037 39.8 L   6.764 -73.135147.4  RSN  6 0.5 1.4LRSN                1
 GAP=139        0.89       4.8     6.9  7.2  0.3067E+00 -0.1863E+01  0.7051E+00E
 Epicentro: LOS SANTOS - SANTANDER                                             3
 ACTION:UPD 17-05-22 16:01 OP:jn   STATUS:               ID:20170121103739 L   I
 OLDACT:DUP 17-01-21 22:17 OP:cog  STATUS:               ID:20170121102741d    3
 OLDACT:UP  17-01-21 22:13 OP:cog  STATUS:               ID:20170121102740     3
 OLDACT:REG 17-01-21 20:51 OP:cog  STATUS:               ID:20170121102740     3
 2017-01-21-1028-00M.COL___349                                                 6
 STAT SP IPHASW D HRMM SECON CODA AMPLIT PERI AZIMU VELO AIN AR TRES W  DIS CAZ7
 BAR2 EZ EP       1037 59.42                             172   -0.1110 19.7 195 
 BAR2 EZ ES       1038 14.28                             172   -0.6710 19.7 195 
 BAR2 EZ I        1038 17.11         7.1 0.32            171           19.7 195 
 BRR  HZ EP       1038  1.37                             151    0.1110 74.1 301 
 BRR  HN ES       1038 18.37                             151    0.3410 74.1 301 
 PAM  EZ EP       1038  2.33                             150    0.0310 79.8  37 
 PAM  EN ES       1038 19.95                             150    0.0710 79.8  37 
 PAM  EZ I        1038 21.48         4.4 0.36            153           79.8  37 
 RUS  HZ EP       1038  3.49                             145    0.0910 96.6 177 
 RUS  HN ES       1038 22.07                             145    0.2410 96.6 177 
 RUS  HZ I        1038 23.18         3.6 0.36            147           96.6 177 
 PTB  HZ EP   4   1038  3.27                             132   -3.63 0  148 260 
 PTB  HN ES   4   1038 26.43                             132   -1.64 0  148 260 
 PTB  HZ I        1038 32.18         2.0 0.12            132            148 260 
 ZAR  HN ES   4   1038 36.72                             122   -1.46 0  207 293 
 URE  HN ES   3   1038 50.41                             113   -3.11 2  286 293 
                                                                                
