 2017 1121 1353  2.4 L   6.801 -73.166139.7  RSN  5 0.2 1.2LRSN                1
 GAP=142        0.61       3.6     3.3  5.2 -0.5087E+01  0.5962E+01 -0.1384E+01E
 Epicentro: LOS SANTOS - SANTANDER                                             3
 ACTION:UPD 17-12-12 19:58 OP:rebc STATUS:               ID:20171121135302 L   I
 OLDACT:REG 17-11-21 20:43 OP:osc  STATUS:               ID:20171121134744     3
 2017-11-21-1348-00M.COL___484                                                 6
 STAT SP IPHASW D HRMM SECON CODA AMPLIT PERI AZIMU VELO AIN AR TRES W  DIS CAZ7
 BAR2 EZ EP       1353 21.16                             170   -0.1610 23.2 184 
 BAR2 EZ ES       1353 36.22                             170    0.1510 23.2 184 
 BAR2 EZ I        1353 37.10         6.6 0.26            172           23.2 184 
 PAM  EZ EP       1353 24.02                             149   -0.0610 78.7  41 
 PAM  EN ES       1353 41.11                             149    0.1410 78.7  41 
 PAM  EZ I        1353 43.99         3.3 0.46            150           78.7  41 
 RUS  HZ EP       1353 25.48                             142   -0.1310  101 175 
 RUS  HE ES       1353 43.61                             142   -0.0810  101 175 
 RUS  HZ I        1353 44.50         2.3 0.22            145            101 175 
 PTB  HZ EP       1353 28.94                             131    0.24 9  146 259 
 PTB  HN ES       1353 48.79                             131   -0.41 9  146 259 
 PTB  HZ I        1353 50.88         1.9 0.58            133            146 259 
 NOR  HN ES       1354  5.52                             117    0.45 8  233 234 
                                                                                
