 2013  221 1131 50.2 L   6.822 -73.116149.2  RSN 14 0.6 3.0LRSN 3.2WRSN        1
 SPEC AVERAGE  MO 14.0 ST  1.9 OM  3.8 f0 2.37 R0.6272 AL 2.00 WI 29.4 MW  3.2 3
 SPEC SD       MO  0.1 ST0.902 OM  1.6 f00.225 R0.0597 AL      WI      MW  0.1 3
 GAP= 72        1.37       3.4     4.3  7.5  0.5438E+00  0.5437E+01  0.5557E+00E
 Epicentro: LOS SANTOS - SANTANDER                                             3
 SPEC RUS HH N MO 13.9 ST0.968 OM  2.2 f0 2.14 R0.6869 AL 2.16 WI 33.9 MW  3.2 3
 SPEC RUS HH N T113231 K 0.000 GD  181 VS 4.20 DE 3.20 Q0300.0 QA 0.60 VS 4.20 3
 SPEC CHI HH N MO 14.1 ST  2.8 OM  2.2 f0 2.59 R0.5676 AL 1.84 WI 24.9 MW  3.3 3
 SPEC CHI HH N T113257 K 0.000 GD  292 VS 4.20 DE 3.20 Q0300.0 QA 0.60 VS 4.20 3
 ACTION:UPD 13-03-12 09:34 OP:ep   STATUS:               ID:20130221113150 L   I
 2013-02-21-1130-00M.COL___238                                                 6
 STAT SP IPHASW D HRMM SECON CODA AMPLIT PERI AZIMU VELO AIN AR TRES W  DIS CAZ7
 BAR2 SZ IP     D 1132 10.11                             170   -0.1910 26.5 196 
 BRR  HZ EP       1132 12.03                             152    0.2110 73.0 296 
 BRR  HE ES       1132 29.36                             152    0.6810 73.0 296 
 BRR  HE I        1132 32.38       321.2 0.18            149           73.0 296 
 PAM  SZ EP       1132 12.88                             153    0.3310 73.4  39 
 PAM  SN ES       1132 30.04                             153    0.0610 73.4  39 
 PAM  SN I        1132 30.67       112.5 0.42            155           73.4  39 
 RUS  HZ EP       1132 13.92                             144   -0.5310  103 178 
 RUS  HN ES       1132 32.47                             144   -0.9010  103 178 
 RUS  HN I        1132 33.11       121.6 0.34            144            103 178 
 PTB  HZ EP       1132 16.99                             132   -0.79 9  152 258 
 PTB  HN ES       1132 39.11                             132   -0.19 9  152 258 
 PTB  HN I        1132 43.65       147.2 0.38            130            152 258 
 TAM  HZ IP     C 1132 18.27                             132    0.35 9  153 106 
 TAM  HN ES       1132 40.01                             132    0.48 9  153 106 
 OCA  HZ EP       1132 18.74                             131    0.15 9  158 352 
 OCA  HN ES       1132 40.54                             131   -0.19 9  158 352 
 ZAR  HZ EP       1132 22.71                             123   -0.38 8  206 291 
 ZAR  HN ES       1132 48.72                             123   -0.03 8  206 291 
 ZAR  HZ I        1132 54.76        92.5 0.26            122            206 291 
 SML  HZ EP       1132 26.42                             118   -0.51 8  243 334 
 SML  HN ES       1132 55.34                             118   -0.24 8  243 334 
 SML  HN I        1132 57.45       185.3 0.10            118            243 334 
 CHI  HZ EP       1132 28.06                             117   -0.38 8  252 196 
 CHI  HN ES       1132 57.55                             117   -0.72 8  252 196 
 CHI  HN I        1133  1.65        62.2 0.58            118            252 196 
 ROSC BZ EP       1132 29.78                             117    0.86 8  257 211 
 ROSC BN ES       1133  0.59                             117    1.46 8  257 211 
 ROSC BZ I        1133  5.12        60.7 0.35            117            257 211 
 HEL  HZ EP       1132 32.14                             115    1.13 7  276 255 
 HEL  HN ES   4   1133  6.74                             115    3.90 0  276 255 
 HEL  HN I        1133  9.61        35.3 0.38            115            276 255 
 COD  HZ EP       1132 37.87                             110   -0.60 6  346 354 
 COD  HN ES       1133 16.47                             110    0.35 6  346 354 
 COD  HN I        1133 20.07        15.4 0.26            110            346 354 
 SJC  HN EP   4   1132 44.32                             106   -1.53 0  409 326 
 SJC  HN ES   4   1133 27.14                             106   -2.11 0  409 326 
 SJC  HN I        1133 37.69        21.1 0.34            106            409 326 
                                                                                
