 2015  421 1017 58.0 L   6.792 -73.162152.4  RSN 11 0.4 2.0LRSN                1
 GAP=181        0.99       3.3     5.1  6.4 -0.1202E+01  0.6042E+00 -0.2347E+01E
 Epicentro: LOS SANTOS - SANTANDER                                             3
 ACTION:UPD 15-06-03 16:56 OP:cam  STATUS:               ID:20150421101758 L   I
 OLDACT:REG 15-04-21 20:07 OP:spq  STATUS:               ID:20150421100745     3
 2015-04-21-1007-45M.COL___268                                                 6
 STAT SP IPHASW D HRMM SECON CODA AMPLIT PERI AZIMU VELO AIN AR TRES W  DIS CAZ7
 BAR2 EZ EP   1   1018 18.33                             171   -0.10 7 22.2 186 
 BAR2 EZ ES   1   1018 33.84                             171   -0.51 7 22.2 186 
 BAR2 EZ I        1018 35.33        12.8 0.16            167           22.2 186 
 BRR  HZ EP       1018 20.14                             154    0.3110 70.0 300 
 BRR  HN ES       1018 37.73                             154    0.8810 70.0 300 
 BRR  HZ I        1018 40.09        10.7 0.16            147           70.0 300 
 RUS  HZ EP       1018 22.50                             145    0.1210 99.8 175 
 RUS  HE ES   1   1018 41.14                             145   -0.24 7 99.8 175 
 RUS  HZ I        1018 41.87         9.7 0.26            133           99.8 175 
 PTB  HZ EP       1018 24.69                             134   -0.68 9  146 259 
 PTB  HN ES       1018 46.10                             134   -0.60 9  146 259 
 PTB  HZ I        1018 50.86        11.5 0.32            124            146 259 
 SPBC HZ EP   1   1018 27.30                             131    0.43 7  161 219 
 SPBC HN ES       1018 49.38                             131    0.01 9  161 219 
 SPBC HZ I        1018 54.31        14.9 0.19            120            161 219 
 OCA  HZ EP       1018 26.92                             131   -0.00 9  161 354 
 OCA  HE ES       1018 49.41                             131   -0.05 9  161 354 
 OCA  HZ I        1018 59.01        13.7 0.34            118            161 354 
 ZAR  HZ EP   1   1018 30.36                             124   -0.41 6  203 293 
 ZAR  HN ES       1018 56.11                             124   -0.21 9  203 293 
 ZAR  HZ I        1019  2.01        10.6 0.77            113            203 293 
 NOR  HZ EP       1018 34.54                             120    0.61 8  233 234 
 NOR  HE ES   1   1019  2.33                             120    0.39 6  233 234 
 NOR  HZ I        1019  4.60         5.4 0.26            110            233 234 
 SML  HZ EP       1018 34.78                             119   -0.26 8  244 336 
 SML  HE ES   1   1019  4.08                             119    0.17 6  244 336 
 SML  HZ I        1019  6.22        11.6 0.30            108            244 336 
 HEL  HZ EP   4   1018 40.09                             116    1.73 0  270 256 
 HEL  HE ES   4   1019  9.46                             116   -0.37 0  270 256 
 HEL  HZ I        1019 16.70         4.2 0.32            106            270 256 
 GUY2CHZ EP   4   1018 43.09                             114    1.37 0  299 235 
 GUY2CHE ES   4   1019 19.62                             114    3.82 0  299 235 
 GUY2CHZ I        1019 27.21         3.8 0.44                           299 235 
                                                                                
