 2011  521 1822 57.0 L   6.779 -73.123143.6  RSN  5 0.1 2.1LRSN                1
 GAP=140        0.38       3.3     3.7  3.4 -0.1404E+01 -0.1981E+01  0.3274E+01E
 Epicentro: LOS SANTOS - SANTANDER                                             3
 ACTION:UP  11-06-29 08:55 OP:tino STATUS:               ID:20110521182257 L   I
 2011-05-21-1821-15S.COL___141                                                 6
 STAT SP IPHASW D HRMM SECON CODA AMPLIT PERI AZIMU VELO SNR AR TRES W  DIS CAZ7
 BAR2 SZ EP       1823 16.21                             171    -0.110   22 198 
 BAR2 SZ ES   1   1823 31.33                             171     0.0 7   22 198 
 BAR2 SZ I        1823 33.43        25.1 0.20                            22 198 
 BTL  SZ EP       1823 16.38                             171     0.110   22 314 
 BTL  SZ ES   1   1823 31.48                             171     0.1 7   22 314 
 BRR  HZ EP       1823 17.89                             151    -0.210   75 299 
 BRR  HZ I        1823 18.14        22.5 0.13                            75 299 
 BRR  HN ES   1   1823 34.63                             151     0.1 7   75 299 
 PAM  SZ EP       1823 19.09                             150     0.110   78  37 
 PAM  SN ES   1   1823 35.94                             150    -0.2 7   78  37 
 RUS  HZ EP       1823 20.35                             144     0.010   98 177 
                                                                                
