 2014  721 1524 25.8 L   6.830 -73.145149.1  RSN 14 0.4 2.1LRSN                1
 GAP=201        0.90       2.9     4.4  5.2  0.2648E+01  0.2803E+01  0.9728E+00E
 Epicentro: LOS SANTOS - SANTANDER                                             3
 ACTION:UPD 15-03-16 20:45 OP:nd   STATUS:               ID:20140721152425 L   I
 OLDACT:REG 14-07-21 22:05 OP:fm   STATUS:               ID:20140721151821     3
 2014-07-21-1518-21M.COL___272                                                 6
 STAT SP IPHASW D HRMM SECON CODA AMPLIT PERI AZIMU VELO AIN AR TRES W  DIS CAZ7
 BAR2 SZ EP       1524 46.01                             170    0.0710 26.6 189 
 BAR2 SZ ES   1   1525  0.83                             170   -0.79 7 26.6 189 
 BAR2 SZ I        1525  2.08        10.4 0.10            168           26.6 189 
 BRR  HZ EP       1524 47.68                             154    0.4110 69.7 296 
 BRR  HN ES       1525  4.56                             154    0.5710 69.7 296 
 BRR  HZ I        1525  8.62        21.4 0.48            148           69.7 296 
 RUS  HZ EP       1524 50.30                             144    0.1410  104 176 
 RUS  HN ES       1525  9.32                             144    0.1910  104 176 
 RUS  HZ I        1525 10.93         8.9 0.20            146            104 176 
 PTB  HZ EP       1524 52.65                             133   -0.50 9  148 258 
 PTB  HN ES       1525 13.60                             133   -0.84 9  148 258 
 PTB  HZ I        1525 15.22        16.3 0.14            130            148 258 
 SPBC HZ EP       1524 55.01                             129    0.17 9  166 218 
 SPBC HN ES       1525 17.53                             129    0.07 9  166 218 
 SPBC HZ I        1525 24.02        14.3 0.32            129            166 218 
 ZAR  HZ EP       1524 58.41                             123    0.02 9  203 291 
 ZAR  HN ES       1525 24.10                             123    0.33 9  203 291 
 ZAR  HZ I        1525 32.16        10.2 0.14            121            203 291 
 NOR  HZ EP       1525  2.25                             119    0.28 8  237 234 
 NOR  HN ES       1525 30.37                             119    0.21 8  237 234 
 NOR  HZ I        1525 34.88         9.8 0.34            118            237 234 
 SML  HZ EP   1   1525  1.98                             118   -0.36 6  241 335 
 SML  HN ES       1525 30.51                             118   -0.30 8  241 335 
 SML  HZ I        1525 39.38        14.5 0.10            118            241 335 
 CHI  HZ EP       1525  3.94                             117   -0.13 8  252 195 
 CHI  HN ES       1525 33.85                             117   -0.04 8  252 195 
 CHI  HZ I        1525 36.88         5.8 0.34            118            252 195 
 HEL  HZ EP   4   1525  8.86                             115    2.54 0  273 255 
 HEL  HN ES   1   1525 38.27                             115    0.38 6  273 255 
 HEL  HZ I        1525 46.31         8.0 0.30            114            273 255 
 URE  HN ES   4   1525 37.44                             114   -1.56 0  283 291 
 URE  HZ I        1525 46.17         8.0 0.32            113            283 291 
 GUY2CHZ EP       1525  9.31                             113   -0.51 7  303 234 
 GUY2CHN ES   4   1525 47.23                             113    3.10 0  303 234 
 GUY2CHZ I        1525 54.20         8.0 0.46                           303 234 
 PRA  HZ EP   1   1525 20.49                             107    0.68 4  395 209 
 PRA  HN ES   1   1526  1.37                             107   -0.54 4  395 209 
 PRA  HZ I        1526  5.53         4.3 0.64            107            395 209 
 SJC  HZ EP   4   1525 19.85                             106   -1.34 0  406 327 
 SJC  HN ES   4   1526  0.60                             106   -3.77 0  406 327 
 SJC  HZ I        1526 16.32         2.8 0.68            106            406 327 
                                                                                
