 2014 1121 1047 30.1 L   6.787 -73.199142.0  RSN  7 0.3 1.5LRSN                1
 GAP=131        0.72       3.6     3.5  5.6 -0.1331E+01  0.2773E+01  0.3786E+01E
 Epicentro: ZAPATOCA - SANTANDER                                               3
 ACTION:UPD 14-12-19 15:45 OP:nd   STATUS:               ID:20141121104730 L   I
 OLDACT:REG 14-11-21 21:11 OP:spq  STATUS:               ID:20141121103745     3
 2014-11-21-1037-45M.COL___304                                                 6
 STAT SP IPHASW D HRMM SECON CODA AMPLIT PERI AZIMU VELO AIN AR TRES W  DIS CAZ7
 BAR2 SZ EP       1047 49.22                             171   -0.0410 21.6 175 
 BAR2 SZ ES   1   1048  4.32                             171    0.13 7 21.6 175 
 BAR2 SZ I        1048  6.00         5.0 0.30            170           21.6 175 
 BRR  HZ EP       1047 51.21                             153    0.6010 66.8 302 
 BRR  HN ES       1048  6.38                             153   -0.2210 66.8 302 
 BRR  HZ I        1048 17.05         9.1 0.40            154           66.8 302 
 PAM  SZ EP       1047 52.00                             149   -0.2310 82.3  42 
 PAM  SN ES       1048  9.36                             149   -0.1310 82.3  42 
 PAM  SZ I        1048 11.39         6.1 0.56            157           82.3  42 
 RUS  HZ EP       1047 53.56                             143    0.1310 99.7 173 
 RUS  HN ES   1   1048 11.91                             143    0.29 7 99.7 173 
 RUS  HZ I        1048 14.71         2.1 0.42            147           99.7 173 
 PTB  HZ EP       1047 56.20                             132   -0.02 9  142 259 
 PTB  HE ES   1   1048 16.99                             132    0.40 7  142 259 
 PTB  HZ I        1048 18.83         3.1 0.30            135            142 259 
 SPBC HZ EP   1   1047 57.49                             129   -0.38 7  158 218 
 SPBC HE ES   1   1048 18.92                             129   -0.60 7  158 218 
 SPBC HZ I        1048 28.29         5.9 0.22            132            158 218 
 ZAR  HE ES   1   1048 26.37                             122   -0.16 6  199 293 
 ZAR  HZ I        1048 28.81         3.6 0.10            126            199 293 
                                                                                
