 2010  521 1817 37.6 L   6.784 -73.074146.5  RSN 10 0.3 2.2LRSN                1
 GAP=148        0.64       4.0     5.8  4.8 -0.1352E+02  0.6297E+01  0.1090E+01E
 Epicentro: LOS SANTOS - SANTANDER                                             3
 ACTION:UP  10-08-24 10:06 OP:vdl  STATUS:               ID:20100521181737 L   I
 2010-05-21-1814-12S.COL___111                                                 6
 STAT SP IPHASW D HRMM SECON CODA AMPLIT PERI AZIMU VELO SNR AR TRES W  DIS CAZ7
 BAR2 SZ IP       1817 57.37                             170     0.010   24 210 
 BAR2 SZ ES   1   1818 12.44                             170    -0.3 7   24 210 
 BRI  SZ EP       1818  1.72                             142     0.210  108  17 
 BRI  SZ ES   2   1818 20.38                             142     0.2 5  108  17 
 GUE  SZ EP       1818  2.44                             140     0.010  117   8 
 GUE  SZ ES   1   1818 21.99                             140     0.2 7  117   8 
 GRA  SZ IP       1818  3.16                             138     0.310  125  14 
 GRA  SZ ES   1   1818 22.37                             138    -0.2 7  125  14 
 OCA  SZ EP       1818  6.27                             130     0.0 9  163 350 
 OCA  SZ ES   2   1818 28.26                             130    -0.3 5  163 350 
 OCA  SZ I        1818 33.90        19.0 0.38                           163 350 
 CHI  HZ EP   3   1818 15.55                             117     0.1 2  249 197 
 CHI  HZ I        1818 48.80         7.2 0.39                           249 197 
 HEL  HZ EP       1818 19.05                             114     0.4 7  279 257 
 HEL  HN ES   3   1818 50.85                             114     0.2 2  279 257 
 HEL  HZ I        1818 57.94         6.8 0.35                           279 257 
 DBB  SZ EP       1818 25.32                             109    -0.7 6  347 274 
 SDV  BZ EP       1818 26.57                             109    -0.6 6  356  49 
 SDV  BZ I        1818 27.83         6.1 0.29                           356  49 
 PRA  HZ EP       1818 31.60                             107     0.2 6  394 211 
 PRA  HN ES   2   1819 13.52                             107     0.1 3  394 211 
 PRA  HZ I        1819 19.13        11.7 0.26                           394 211 
                                                                                
