 2013  421 1338 40.7 L   6.826 -73.200146.0  RSN  6 0.4 1.4LRSN                1
 GAP=129        0.70       4.6     4.3  6.2 -0.8864E+00  0.1435E+01  0.1704E+01E
 Epicentro: ZAPATOCA - SANTANDER                                               3
 ACTION:UPD 13-05-22 14:39 OP:EP   STATUS:               ID:20130421133840 L   I
 2013-04-21-1328-43M.COL___212                                                 6
 STAT SP IPHASW D HRMM SECON CODA AMPLIT PERI AZIMU VELO AIN AR TRES W  DIS CAZ7
 BAR2 SZ EP       1339  0.38                             169   -0.0310 25.9 176 
 GIR2 SZ ES       1339 15.27                             169   -0.3410 27.9   1 
 BRR  HN ES   3   1339 19.77                             155    2.03 2 64.5 299 
 BRR  HN I        1339 23.01         9.3 0.18            151           64.5 299 
 PAM  SZ EP       1339  3.34                             150    0.3010 79.2  44 
 PAM  SZ I        1339  3.39         3.1 0.22            154           79.2  44 
 RUS  HZ EP       1339  4.65                             143   -0.0710  104 173 
 RUS  HN ES       1339 23.55                             143    0.0910  104 173 
 RUS  HN I        1339 23.75         2.8 0.26            147            104 173 
 PTB  HZ EP       1339  7.01                             133   -0.20 9  142 257 
 PTB  HN ES       1339 27.99                             133    0.11 9  142 257 
 PTB  HN I        1339 33.09         4.0 0.32            133            142 257 
                                                                                
