 2012  121 1745 12.3 L   6.793 -73.192133.8  RSN  9 0.4 2.0LRSN                1
 GAP=131        0.84       3.5     4.2  6.2 -0.6437E-01  0.7742E+01  0.6155E+00E
 Epicentro: ZAPATOCA - SANTANDER                                               3
 ACTION:DUP 12-02-03 08:19 OP:REBC STATUS:               ID:20120121174513dL   I
 2012-01-21-1740-00M.COL___186                                                 6
 STAT SP IPHASW D HRMM SECON CODA AMPLIT PERI AZIMU VELO SNR AR TRES W  DIS CAZ7
 BAR2 SZ EP   1   1745 30.53                             170     0.0 8   22 177 
 BAR2 SZ ES   1   1745 44.52                             170    -0.2 8   22 177 
 BAR2 SZ I        1745 46.88        45.9 0.37                            22 177 
 BRR  HZ EP   1   1745 32.28                             152     0.3 8   67 301 
 BRR  HZ I        1745 32.80        38.0 0.12                            67 301 
 BRR  HN ES   1   1745 47.43                             152     0.2 8   67 301 
 PAM  SZ EP   1   1745 33.47                             147    -0.1 8   81  42 
 PAM  SN ES   1   1745 50.17                             147     0.1 8   81  42 
 PAM  SZ I        1745 52.66        13.7 0.42                            81  42 
 RUS  HZ EP   1   1745 34.60                             141    -0.3 7  100 173 
 RUS  HN ES       1745 52.62                             141     0.110  100 173 
 RUS  HZ I        1745 54.23         9.0 0.23                           100 173 
 PTB  HZ EP   1   1745 37.01                             130    -0.8 7  143 259 
 PTB  HN ES   1   1745 57.17                             130    -0.6 7  143 259 
 OCA  SZ EP   1   1745 39.48                             127    -0.3 7  160 355 
 OCA  SZ I        1746  4.63        16.9 0.22                           160 355 
 ZAR  HZ EP   1   1745 44.32                             120     0.8 6  200 293 
 ZAR  HN ES   1   1746  8.28                             120     0.4 6  200 293 
 ZAR  HZ I        1746 11.78         7.8 0.11                           200 293 
 NOR  SZ EP   1   1745 46.66                             116    -0.2 6  230 234 
 NOR  SN ES   1   1746 14.09                             116     0.2 6  230 234 
 CHI  HZ EP   1   1745 49.32                             115     0.2 6  247 194 
 CHI  HN ES   1   1746 18.36                             115     0.5 6  247 194 
                                                                                
