 2014 1221 1011  9.7 L   6.840 -73.213143.8  RSN 15 0.5 1.9LRSN                1
 GAP=126        1.16       2.8     4.1  6.9 -0.1120E+01  0.6899E+01  0.2251E+01E
 Epicentro: ZAPATOCA - SANTANDER                                               3
 ACTION:UPD 15-02-10 17:06 OP:nd   STATUS:               ID:20141221101109 L   I
 OLDACT:REG 14-12-21 21:41 OP:fm   STATUS:               ID:20141221100741     3
 2014-12-21-1007-41M.COL___299                                                 6
 STAT SP IPHASW D HRMM SECON CODA AMPLIT PERI AZIMU VELO AIN AR TRES W  DIS CAZ7
 BAR2 EZ EP       1011 29.63                             169    0.4310 27.6 173 
 BAR2 EZ I        1011 45.75        17.5 0.24            161           27.6 173 
 BRR  HZ EP       1011 30.35                             155    0.1710 62.6 298 
 BRR  HE ES       1011 46.61                             155    0.4610 62.6 298 
 BRR  HZ I        1011 52.28        13.5 0.24            165           62.6 298 
 PAM  SZ EP       1011 32.49                             150    0.6610 79.2  46 
 PAM  SE ES       1011 48.57                             150   -0.5210 79.2  46 
 PAM  SZ I        1011 52.35         6.3 0.40            142           79.2  46 
 RUS  HZ EP       1011 33.75                             142    0.1010  106 172 
 RUS  HE ES       1011 52.19                             142   -0.1310  106 172 
 RUS  HZ I        1011 53.28         8.5 0.26            138            106 172 
 PTB  HZ EP       1011 35.23                             133   -0.72 9  141 256 
 PTB  HN ES       1011 55.98                             133   -0.43 9  141 256 
 PTB  HZ I        1011 59.34         7.8 0.16            139            141 256 
 OCA  HZ EP   1   1011 36.67                             130   -0.72 7  155 356 
 OCA  HE ES       1011 59.09                             130    0.10 9  155 356 
 OCA  HZ I        1012  7.92         6.9 0.38            129            155 356 
 SPBC HE ES       1011 59.34                             129   -0.65 9  162 216 
 SPBC HZ I        1012  2.49        10.0 0.28            130            162 216 
 TAM  HZ I        1012 44.84         8.2 0.44            122            163 106 
 ZAR  HZ EP       1011 40.44                             123   -0.71 9  196 292 
 ZAR  HN ES       1012  5.95                             123    0.28 9  196 292 
 ZAR  HZ I        1012 12.85         7.1 0.46            127            196 292 
 NOR  HZ EP       1011 45.66                             118    0.70 8  231 232 
 NOR  HE ES       1012 13.52                             118    1.06 8  231 232 
 NOR  HZ I        1012 20.82         4.6 0.16            120            231 232 
 SML  HZ EP       1011 45.77                             118    0.30 8  237 336 
 SML  HE ES       1012 13.20                             118   -0.15 8  237 336 
 SML  HZ I        1012 18.45        11.0 0.28            118            237 336 
 CHI  HZ EP       1011 47.86                             116    0.29 8  251 193 
 CHI  HN ES       1012 16.67                             116   -0.42 8  251 193 
 CHI  HZ I        1012 21.16         4.9 0.62            116            251 193 
 URE  HE ES       1012 20.73                             114   -0.22 8  275 292 
 URE  HZ I        1012 23.44         3.9 0.12            116            275 292 
 TOL  SN ES       1012 35.14                             109    0.09 7  341 223 
 TOL  SZ I        1012 41.44         6.8 0.34            109            341 223 
 ORTC HZ EP   1   1012  2.58                             106   -0.89 4  395 215 
 ORTC HE ES       1012 45.57                             106    0.16 6  395 215 
 ORTC HZ I        1012 53.24         1.8 0.58            106            395 215 
 SJC  HE ES   4   1012 44.23                             106   -2.65 0  402 327 
                                                                                
