 2011 1121 1155 41.6 L   6.829 -73.294119.2  RSN  5 0.2 1.4LRSN                1
 GAP=126        0.46       3.4     3.6  5.1  0.6105E+01  0.2279E+01  0.7429E+00E
 Epicentro: ZAPATOCA - SANTANDER                                               3
 ACTION:UPD 12-07-13 16:11 OP:ep   STATUS:               ID:20111121115541 L   I
 2011-11-21-1153-39S.COL___178                                                 6
 STAT SP IPHASW D HRMM SECON CODA AMPLIT PERI AZIMU VELO AIN AR TRES W  DIS CAZ7
 BAR2 SZ EP       1155 58.43                             166    0.1910 28.9 155 
 BAR2 SZ ES   1   1156 10.80                             166   -0.39 7 28.9 155 
 BAR2 SZ I        1156 12.76        16.6 0.20                          28.9 155 
 BRR  HZ EP   1   1155 58.88                             153   -0.15 7 55.5 304 
 BRR  HN ES   1   1156 12.89                             153    0.29 7 55.5 304 
 BRR  HZ I        1156 13.73        14.7 0.13                          55.5 304 
 PAM  SZ EP   2   1156  1.77                             142   -0.01 5 86.6  49 
 PAM  SN ES   2   1156 17.47                             142   -0.02 5 86.6  49 
 PAM  SZ I        1156 20.06         3.0 0.33                          86.6  49 
 RUS  HZ EP   1   1156  3.24                             136   -0.11 7  106 167 
 RUS  HZ I        1156  3.97         1.2 0.20                           106 167 
 RUS  HE ES   1   1156 20.42                             136    0.14 7  106 167 
 ZAR  HN ES   1   1156 33.27                             118   -0.14 7  188 293 
 ZAR  HZ I        1156 35.81         4.4 0.57                           188 293 
                                                                                
