 2014  421 1447 54.7 L   6.805 -73.111144.1  RSN  6 0.5 1.8LRSN                1
 GAP=141        0.87       4.3     4.6  8.9 -0.4953E+01  0.1806E+02 -0.1030E+02E
 Epicentro: LOS SANTOS - SANTANDER                                             3
 OLDACT:REG 14-04-21 21:40 OP:fm   STATUS:               ID:20140421143817     3
 ACTION:UPD 14-05-13 23:10 OP:nd   STATUS:               ID:20140421144754 L   I
 OLDACT:UP  14-04-21 23:49 OP:fm   STATUS:               ID:20140421143817     3
 2014-04-21-1438-17M.COL___230                                                 6
 STAT SP IPHASW D HRMM SECON CODA AMPLIT PERI AZIMU VELO AIN AR TRES W  DIS CAZ7
 PAM  SZ EP       1448 16.87                             151    0.2410 74.6  38 
 PAM  SE ES       1448 33.82                             151    0.1310 74.6  38 
 PAM  SZ I        1448 35.05        13.6 0.78            152           74.6  38 
 RUS  HZ EP   1   1448 18.60                             143    0.24 7  101 178 
 RUS  HN ES       1448 36.46                             143   -0.3210  101 178 
 RUS  SZ I        1448 37.69         7.6 0.24            147            101 178 
 PTB  HZ EP   1   1448 21.25                             131   -0.68 7  152 259 
 PTB  HN ES       1448 43.10                             131   -0.04 9  152 259 
 PTB  SZ I        1448 44.10         7.2 0.34            131            152 259 
 ZAR  HZ EP   1   1448 28.45                             121    1.02 6  207 292 
 ZAR  HN ES   1   1448 52.94                             121    0.01 6  207 292 
 ZAR  SZ I        1448 58.27         4.8 0.28            122            207 292 
 NOR  HN ES   1   1448 59.12                             118    0.29 6  238 235 
 SML  HZ EP   1   1448 30.68                             117   -0.73 6  245 334 
 SML  HN ES   2   1448 59.46                             117   -0.54 4  245 334 
 SML  SZ I        1449  4.02         5.7 0.68            118            245 334 
 GUY2CHE ES   4   1449 14.63                             112    1.71 0  305 235 
                                                                                
