 2017 1121 1800 47.8 L   6.767 -73.158143.2  RSN  9 0.4 1.9LRSN                1
 GAP=136        1.05       3.2     4.3  6.5 -0.2369E+01  0.8276E+01 -0.1573E+00E
 Epicentro: LOS SANTOS - SANTANDER                                             3
 ACTION:UPD 17-12-12 19:58 OP:rebc STATUS:               ID:20171121180047 L   I
 OLDACT:REG 17-11-21 21:23 OP:osc  STATUS:               ID:20171121175746     3
 2017-11-21-1758-00M.COL___483                                                 6
 STAT SP IPHASW D HRMM SECON CODA AMPLIT PERI AZIMU VELO AIN AR TRES W  DIS CAZ7
 BAR2 EZ EP       18 1  7.01                             172   -0.0810 19.5 188 
 BAR2 EZ ES       18 1 22.07                             172   -0.0310 19.5 188 
 BAR2 EZ I        18 1 23.88        25.8 0.28            173           19.5 188 
 PAM  EZ IP     C 18 1 10.11                             149    0.1010 81.1  39 
 PAM  EE ES       18 1 27.68                             149    0.3710 81.1  39 
 PAM  EZ I        18 1 30.43        10.3 0.48            151           81.1  39 
 RUS  HZ EP       18 1 10.77                             144   -0.3110 97.0 175 
 RUS  HE ES       18 1 29.19                             144   -0.0210 97.0 175 
 RUS  HZ I        18 1 30.50        22.7 0.32            148           97.0 175 
 PTB  HZ EP   1   18 1 13.34                             132   -1.07 7  146 260 
 PTB  HN ES       18 1 34.46                             132   -0.68 9  146 260 
 PTB  HZ I        18 1 38.83         7.7 0.14            132            146 260 
 OCA  HZ EP       18 1 15.83                             128   -0.45 9  164 354 
 OCA  HN ES       18 1 38.44                             128   -0.03 9  164 354 
 OCA  HZ I        18 1 43.85        32.3 0.24            129            164 354 
 ZAR  HZ EP       18 1 20.16                             122    0.03 9  204 293 
 ZAR  HN ES       18 1 45.90                             122    0.58 9  204 293 
 ZAR  HZ I        18 1 52.23        12.4 0.42            122            204 293 
 NOR  HZ EP       18 1 23.58                             118    0.51 8  231 235 
 NOR  HE ES       18 1 51.36                             118    0.81 8  231 235 
 NOR  HZ I        18 1 52.94         3.6 0.30            120            231 235 
 CHI  HZ EP       18 1 25.16                             117    0.19 8  245 195 
 CHI  HN ES       18 1 53.98                             117    0.05 8  245 195 
 CHI  HZ I        18 1 56.77         2.5 0.46            119            245 195 
 GUY2CHZ EP   9   18 1 33.32                             112    2.36 0  298 235 
 GUY2CHN ES       18 2  6.27                             111   -0.69 7  298 235 
 GUY2CHZ I        18 2 10.90         2.1 0.34                           298 235 
                                                                                
