 2012  321 1519 45.3 L   6.737 -73.140145.0  RSN  6 0.5 1.9LRSN                1
 GAP=160        1.07       9.1     6.5 10.2 -0.1944E+02  0.1266E+02  0.2063E+02E
 ACTION:UP  12-03-31 23:21 OP:EP   STATUS:               ID:20120321151945 L   I
 2012-03-21-1520-00M.COL___202                                                 6
 STAT SP IPHASW D HRMM SECON CODA AMPLIT PERI AZIMU VELO SNR AR TRES W  DIS CAZ7
 BAR2 SZ EP       1520  4.82                             173     0.110   17 196 
 BAR2 SZ ES   1   1520 19.80                             173    -0.1 7   17 196 
 BAR2 SZ I        1520 21.38        14.5 0.19                            17 196 
 BRR  HZ EP       1520  6.72                             151     0.110   75 303 
 BRR  HE ES   1   1520 24.10                             151     0.9 7   75 303 
 BRR  HZ I        1520 25.78        21.1 0.13                            75 303 
 PAM  SZ EP   1   1520  7.67                             149    -0.1 7   83  36 
 PAM  SN ES   1   1520 24.93                             149    -0.3 7   83  36 
 PTB  HZ EP   1   1520 11.66                             132    -0.5 7  147 262 
 PTB  HN ES   1   1520 32.13                             132    -1.0 7  147 262 
 PTB  HZ I        1520 38.34         5.3 0.24                           147 262 
 ZAR  HN ES   1   1520 43.55                             122     0.0 6  207 294 
 ZAR  HZ I        1520 48.93        14.2 0.28                           207 294 
 NOR  SZ EP   1   1520 21.19                             119     0.6 6  231 236 
 NOR  SN ES   1   1520 48.49                             119     0.3 6  231 236 
                                                                                
