 2012 1221 1110 14.1 L   6.775 -73.193154.0  RSN  5 0.4 1.6LRSN                1
 GAP=173        0.71       7.9     6.6  8.2  0.1561E+02  0.2119E+01 -0.8276E+01E
 Epicentro: VILLANUEVA - SANTANDER                                             3
 ACTION:UPD 13-01-04 14:29 OP:ep   STATUS:               ID:20121221111014 L   I
 2012-12-21-1110-00M.COL___243                                                 6
 STAT SP IPHASW D HRMM SECON CODA AMPLIT PERI AZIMU VELO AIN AR TRES W  DIS CAZ7
 BAR2 SZ EP   1   1110 34.63                             172   -0.05 7 20.3 177 
 BAR2 SZ ES   1   1110 50.51                             172   -0.21 7 20.3 177 
 BAR2 SZ I        1110 52.57        13.1 0.38                          20.3 177 
 GIR2 SZ EP   1   1110 34.41                             167   -0.41 7 33.6 360 
 BRR  HN ES   2   1110 53.96                             155    0.91 5 68.0 303 
 RUS  HZ EP   1   1110 38.85                             146    0.32 7 98.4 173 
 RUS  HN ES   1   1110 57.62                             146    0.05 7 98.4 173 
 RUS  HZ I        1110 58.92         3.4 0.31                          98.4 173 
 PTB  HZ EP   1   1110 41.57                             135    0.31 7  142 259 
 PTB  HN ES   1   1111  2.02                             135   -0.43 7  142 259 
 PTB  HZ I        1111  5.96         5.0 0.12                           142 259 
                                                                                
