 2013 1121 1949 36.0 L   6.850 -73.163146.0  RSN 17 0.5 2.7LRSN                1
 GAP=132        1.05       2.5     4.1  5.6 -0.1859E+01  0.6792E+01 -0.1247E+01E
 Epicentro: LOS SANTOS - SANTANDER                                             3
 ACTION:UPD 14-01-09 16:30 OP:ep   STATUS:               ID:20131121194936 L   I
 OLDACT:REG 13-11-21 19:46 OP:nd   STATUS:               ID:20131121194735     3
 2013-11-21-1947-35M.COL___232                                                 6
 STAT SP IPHASW D HRMM SECON CODA AMPLIT PERI AZIMU VELO AIN AR TRES W  DIS CAZ7
 BAR2 SZ EP       1949 56.01                             168    0.2310 28.6 184 
 BAR2 SZ ES       1950 10.71                             168   -0.4910 28.6 184 
 BAR2 SZ I        1950 12.15       174.8 0.26            167           28.6 184 
 BRR  HZ IP     C 1949 57.73                             154    0.7810 67.0 295 
 BRR  HN ES   2   1950 13.65                             154    0.37 5 67.0 295 
 BRR  HZ I        1950 18.52        87.1 0.12            150           67.0 295 
 PAM  SZ IP     C 1949 58.73                             152    0.6610 74.4  43 
 PAM  SN ES       1950 15.42                             152    0.1410 74.4  43 
 PAM  SZ I        1950 17.86        90.0 0.50            156           74.4  43 
 RUS  HZ EP       1950  0.05                             142   -0.1510  106 175 
 RUS  HN ES       1950 18.48                             142   -0.5810  106 175 
 RUS  HZ I        1950 20.02        48.1 0.42            143            106 175 
 PTB  HZ EP       1950  2.55                             132   -0.38 9  147 257 
 PTB  HN ES       1950 23.90                             132   -0.03 9  147 257 
 PTB  HZ I        1950 26.39       121.9 0.40            130            147 257 
 OCA  HZ EP   2   1950  3.52                             130   -0.28 5  155 354 
 OCA  HN ES       1950 25.51                             130    0.04 9  155 354 
 OCA  HZ I        1950 30.00        71.7 0.18            131            155 354 
 SPBC HZ EP       1950  5.01                             128    0.18 9  166 217 
 SPBC HN ES       1950 27.24                             128   -0.07 9  166 217 
 SPBC HZ I        1950 32.99        80.3 0.38            128            166 217 
 ZAR  HZ EP       1950  8.70                             123    0.62 9  200 291 
 ZAR  HN ES       1950 33.34                             123    0.25 9  200 291 
 ZAR  HZ I        1950 39.77       124.3 0.28            122            200 291 
 NOR  HZ EP       1950 11.99                             118    0.05 8  236 233 
 NOR  HN ES       1950 39.82                             118   -0.15 8  236 233 
 NOR  HZ I        1950 45.66        49.9 0.44            118            236 233 
 SML  HZ EP       1950 12.19                             118    0.18 8  238 335 
 SML  HN ES       1950 39.93                             118   -0.17 8  238 335 
 SML  HZ I        1950 45.05        80.4 0.10            118            238 335 
 CHI  HZ EP       1950 14.26                             116    0.01 8  254 194 
 CHI  HN ES       1950 43.76                             116   -0.32 8  254 194 
 CHI  HZ I        1950 53.63        16.2 0.60            117            254 194 
 GUY2CHZ EP   4   1950 20.84                             112    1.02 0  303 234 
 GUY2CHN ES   2   1950 54.05                             112    0.05 4  303 234 
 GUY2CHZ I        1951  5.08        22.1 0.38                           303 234 
 RREF HZ EP   4   1950 23.92                             110    1.51 0  324 228 
 RREF HN ES   4   1951  2.00                             110    3.39 0  324 228 
 RREF HZ I        1951  5.04        21.1 0.26            111            324 228 
 CBOC HZ EP   4   1950 23.16                             110    0.23 0  334 251 
 CBOC HN ES   4   1951  1.31                             110    1.79 0  334 251 
 CBOC HZ I        1951 10.04         9.9 0.34            110            334 251 
 COD  HZ EP       1950 23.54                             109   -0.19 7  343 355 
 COD  HN ES       1950 59.17                             109   -1.78 7  343 355 
 COD  HZ I        1951  6.37         7.6 0.78            110            343 355 
 ORTC HZ EP       1950 30.46                             106    0.13 6  399 215 
 ORTC HN ES   4   1951 13.20                             106    0.49 0  399 215 
 ORTC HZ I        1951 20.55        12.4 0.20            107            399 215 
 SJC  HZ EP   4   1950 29.96                             106   -0.95 0  404 327 
 SJC  HN ES   4   1951 10.40                             106   -3.33 0  404 327 
 SJC  HZ I        1951 15.20        15.9 0.52            106            404 327 
                                                                                
