 2014  221 1514 26.2 L   5.836 -73.864107.9  RSN 10 0.3 1.7LRSN                1
 GAP= 88        0.87       2.3     2.3  5.0 -0.1340E+01  0.9743E+00 -0.1896E+01E
 Epicentro: SUCRE - SANTANDER                                                  3
 ACTION:UPD 14-03-10 08:11 OP:ep   STATUS:               ID:20140221151426 L   I
 OLDACT:REG 14-02-21 17:03 OP:carl STATUS:               ID:20140221151000     3
 2014-02-21-1510-00M.COL___215                                                 6
 STAT SP IPHASW D HRMM SECON CODA AMPLIT PERI AZIMU VELO AIN AR TRES W  DIS CAZ7
 SPBC HE ES       1514 53.64                             163    0.5310 30.8 229 
 RUS  HZ EP       1514 45.22                             139   -0.0610 86.7  86 
 RUS  HN ES       1514 59.79                             139   -0.3810 86.7  86 
 RUS  HZ I        1515  1.89         8.4 0.18            140           86.7  86 
 PTB  HZ IP     C 1514 45.36                             133   -0.5510  102 320 
 PTB  HE ES       1515  0.85                             133   -0.4310  102 320 
 PTB  HZ I        1515  3.06        15.3 0.26            134            102 320 
 BAR2 SZ EP       1514 47.57                             130    0.3710  113  42 
 BAR2 SZ ES       1515  4.02                             130    0.4510  113  42 
 BAR2 SZ I        1515  5.50        40.6 0.38            132            113  42 
 NOR  HZ EP       1514 47.40                             129    0.1910  115 255 
 NOR  HN ES       1515  3.67                             129    0.0710  115 255 
 NOR  HZ I        1515  5.97         8.8 0.16            131            115 255 
 CHI  HZ EP       1514 49.67                             125    0.1410  134 174 
 CHI  HN ES       1515  7.27                             125   -0.4510  134 174 
 CHI  HZ I        1515 13.13         3.6 0.28            127            134 174 
 BRR  HZ EP       1514 49.90                             123    0.18 9  142   7 
 BRR  HN ES       1515  8.18                             123    0.11 9  142   7 
 BRR  HZ I        1515 13.86         8.6 0.30            124            142   7 
 GUY2CHZ EP       1514 54.89                             116    0.51 9  180 248 
 GUY2CHN ES       1515 16.08                             116   -0.28 9  180 248 
 GUY2CHZ I        1515 21.32         3.2 0.38                           180 248 
 PAM  SZ EP       1514 57.68                             112   -0.13 8  210  38 
 PAM  SN ES       1515 22.15                             112   -0.31 8  210  38 
 PAM  SZ I        1515 26.36         3.0 0.44            114            210  38 
 ZAR  HZ EP       1514 57.68                             111    0.10 8  214 329 
 ZAR  HN ES       1515 21.94                             111   -0.11 8  214 329 
 ZAR  HZ I        1515 27.74         5.5 0.14            113            214 329 
                                                                                
