 2011  321 1819 18.9 L   6.780 -73.127150.7  RSN  5 0.4 1.8LRSN                1
 GAP=185        0.83       4.9    10.1 10.4 -0.1160E+02  0.2952E+02 -0.1566E+02E
 Epicentro: LOS SANTOS - SANTANDER                                             3
 ACTION:UP  11-06-16 14:35 OP:jfem STATUS:               ID:20110321181918 L   I
 2011-03-21-1818-57S.COL___136                                                 6
 STAT SP IPHASW D HRMM SECON CODA AMPLIT PERI AZIMU VELO SNR AR TRES W  DIS CAZ7
 BAR2 SZ EP   1   1819 39.22                             171     0.2 7   22 197 
 BTL  SZ EP   1   1819 38.36                             171    -0.7 7   22 315 
 BAR2 SZ ES   1   1819 54.94                             171     0.1 7   22 197 
 BAR2 SZ I        1819 55.98        15.0 0.20                            22 197 
 RUS  HZ EP   1   1819 43.47                             145     0.5 7   98 177 
 RUS  HN ES   1   1820  1.48                             145    -0.2 7   98 177 
 RUS  HZ I        1820  3.10         7.0 0.19                            98 177 
 OCA  SZ EP   1   1819 47.61                             130    -0.2 7  163 353 
 OCA  SZ ES   1   1820 10.65                             130     0.3 7  163 353 
 OCA  SZ I        1820 15.38        11.8 0.43                           163 353 
 NOR  SN ES   1   1820 23.11                             119     0.0 6  235 235 
                                                                                
