 2011  821 1749 51.6 L   7.421 -73.508115.5  RSN 13 0.4 2.9LRSN                1
 GAP= 91        0.76       2.0     4.0  5.0 -0.5152E+00  0.8232E+01 -0.7954E+00E
 Epicentro: SABANA DE TORRES - SANTANDER                                       3
 ACTION:UPD 12-07-13 15:53 OP:ep   STATUS:               ID:20110821174951 L   I
 2011-08-21-1746-43S.COL___152                                                 6
 STAT SP IPHASW D HRMM SECON CODA AMPLIT PERI AZIMU VELO AIN AR TRES W  DIS CAZ7
 BRR  HZ EP       1750  8.46                             159    0.6210 41.4 213 
 BRR  HE ES   1   1750 20.57                             159    0.03 7 41.4 213 
 BRR  HZ I        1750 23.10       358.9 0.14                          41.4 213 
 BRI  SZ EP       1750 10.74                             141   -0.0410 85.0  67 
 OCA  SZ EP       1750 11.62                             139    0.2610 92.8  13 
 OCA  SZ ES       1750 26.94                             139    0.1210 92.8  13 
 OCA  SZ I        1750 30.00       318.8 0.40                          92.8  13 
 BAR2 SZ IP       1750 12.01                             137    0.0710 98.4 159 
 BAR2 SZ ES       1750 27.47                             137   -0.3710 98.4 159 
 BAR2 SZ I        1750 28.68       210.1 0.19                          98.4 159 
 RUS  HZ EP       1750 19.20                             119   -0.54 9  175 164 
 RUS  HE ES   1   1750 41.40                             119   -0.32 7  175 164 
 NOR  SZ EP   1   1750 28.22                             109    0.21 6  255 216 
 NOR  SE ES   1   1750 56.80                             109    0.35 6  255 216 
 HEL  HZ EP   1   1750 29.52                             109    0.32 6  262 239 
 HEL  HE ES   1   1750 57.91                             109   -0.65 6  262 239 
 HEL  HZ I        1750 58.63        36.4 0.29                           262 239 
 COD  HZ EP       1750 30.77                             107    0.12 7  278   1 
 COD  HN ES   1   1751  0.77                             107   -0.38 6  278   1 
 COD  HZ I        1751  7.41        45.1 0.56                           278   1 
 CHI  HZ EP   2   1750 34.96                             105    0.09 4  310 185 
 CHI  HE ES   2   1751  8.45                             105   -0.20 4  310 185 
 CHI  HZ I        1751 20.70        17.4 0.32                           310 185 
 GUY  SZ EP   1   1750 36.79                             105    0.63 5  320 221 
 GUY  SZ I        1751 21.35        59.0 0.58                           320 221 
 SJC  HZ EP       1750 36.76                             104   -0.06 7  330 326 
 SJC  HE ES       1751 11.31                             104   -0.81 7  330 326 
 SJC  HZ I        1751 25.63        14.3 0.29                           330 326 
 RREF HZ EP   2   1750 39.98                             103    0.65 3  345 216 
 TOL  SZ EP   1   1750 42.37                             102    0.17 5  372 213 
                                                                                
