 2015  721 1112 49.3 L   6.782 -73.187144.0  RSN 10 0.4 1.9LRSN                1
 GAP=132        1.05       2.8     4.4  6.6 -0.2422E+01  0.1504E+02 -0.1502E+01E
 Epicentro: ZAPATOCA - SANTANDER                                               3
 OLDACT:UP  15-07-21 22:55 OP:ak   STATUS:               ID:20150721110749     3
 OLDACT:UP  15-07-21 22:48 OP:ak   STATUS:               ID:20150721110749     3
 OLDACT:REG 15-07-21 21:31 OP:ak   STATUS:               ID:20150721110749     3
 ACTION:UPD 15-09-08 21:49 OP:cam  STATUS:               ID:20150721111249 L   I
 OLDACT:DUP 15-07-21 23:18 OP:ak   STATUS:               ID:20150721110750d    3
 OLDACT:UP  15-07-21 23:18 OP:ak   STATUS:               ID:20150721110749     3
 2015-07-21-1107-49M.COL___343                                                 6
 STAT SP IPHASW D HRMM SECON CODA AMPLIT PERI AZIMU VELO AIN AR TRES W  DIS CAZ7
 BAR2 EZ EP       1113  8.92                             171    0.2910 21.0 179 
 BAR2 EZ ES       1113 23.26                             171   -0.4810 21.0 179 
 BAR2 EZ I        1113 26.10        12.4 0.28            173           21.0 179 
 PAM  EZ EP       1113 11.77                             149    0.2110 81.8  41 
 PAM  EN ES       1113 29.17                             149    0.2110 81.8  41 
 PAM  EZ I        1113 31.42        10.5 0.46            153           81.8  41 
 RUS  HZ EP       1113 12.73                             144    0.0110 99.0 173 
 RUS  HN ES       1113 31.46                             144    0.4310 99.0 173 
 RUS  HZ I        1113 33.41         6.3 0.39            149           99.0 173 
 OCA  HZ EP       1113 17.73                             129    0.16 9  162 355 
 OCA  HN ES       1113 39.21                             129   -0.45 9  162 355 
 OCA  HZ I        1113 44.95        22.7 0.21            132            162 355 
 ZAR  HZ EP       1113 22.08                             122    0.85 9  201 293 
 ZAR  HN ES       1113 46.82                             122    0.65 9  201 293 
 ZAR  HZ I        1113 53.49         9.0 0.34            124            201 293 
 NOR  HZ EP       1113 23.88                             119   -0.48 8  230 234 
 NOR  HN ES       1113 51.31                             119   -0.43 8  230 234 
 NOR  HZ I        1113 56.30         6.2 0.13            121            230 234 
 SML  HZ EP       1113 25.28                             117   -0.50 8  244 336 
 SML  HN ES       1113 53.49                             117   -0.77 8  244 336 
 CHI  HZ EP   1   1113 25.96                             117   -0.57 6  246 194 
 CHI  HN ES       1113 55.21                             117   -0.38 8  246 194 
 HEL  HZ EP       1113 29.44                             115    0.60 8  267 256 
 HEL  HN ES       1113 59.84                             115    0.14 8  267 256 
 GUY2CHZ EP       1113 32.33                             112    0.10 7  296 235 
 GUY2CHN ES       1114  5.45                             112   -0.31 7  296 235 
 GUY2CHZ I        1114 15.20         2.4 0.34                           296 235 
                                                                                
