 2010  821 1338 13.4 L   6.807 -73.055141.9  RSN  4 0.1 1.7LRSN                1
 GAP=175        0.43       3.3     6.2  5.2  0.1073E+02 -0.1963E+02 -0.7598E+01E
 Epicentro: LOS SANTOS - SANTANDER                                             3
 ACTION:UP  10-09-07 10:57 OP:vdl  STATUS:               ID:20100821133813 L   I
 2010-08-21-1334-33S.COL___120                                                 6
 STAT SP IPHASW D HRMM SECON CODA AMPLIT PERI AZIMU VELO SNR AR TRES W  DIS CAZ7
 BAR2 SZ EP       1338 32.57                             168    -0.110   28 211 
 BAR2 SZ ES   1   1338 47.84                             168     0.1 7   28 211 
 BAR2 SZ I        1338 50.56        15.6 0.62                            28 211 
 BRR  HZ EP       1338 34.63                             149    -0.110   80 295 
 BRR  HN ES       1338 51.31                             149     0.010   80 295 
 BRR  HZ I        1338 55.11        10.7 0.07                            80 295 
 RUS  HZ EP       1338 37.04                             143     0.210  101 182 
 RUS  HN ES   1   1338 54.94                             143    -0.2 7  101 182 
 RUS  HZ I        1338 56.60         5.6 0.06                           101 182 
 GUE  SZ EP       1338 37.60                             139     0.010  114   7 
                                                                                
