 2017  821 1809 42.9 L   6.823 -73.158138.1  RSN  6 0.3 1.5LRSN                1
 GAP=110        0.60       3.0     3.5  4.8  0.3405E+01  0.3321E+01  0.2925E+01E
 Epicentro: LOS SANTOS - SANTANDER                                             3
 ACTION:UPD 17-09-04 20:23 OP:rebc STATUS:               ID:20170821180942 L   I
 OLDACT:REG 17-08-21 21:04 OP:mg   STATUS:               ID:20170821180552     3
 2017-08-21-1808-00M.COL___405                                                 6
 STAT SP IPHASW D HRMM SECON CODA AMPLIT PERI AZIMU VELO AIN AR TRES W  DIS CAZ7
 BAR2 EZ EP       1810  1.35                             169   -0.3210 25.7 186 
 BAR2 EZ ES   1   1810 16.39                             169    0.08 7 25.7 186 
 BAR2 EZ I        1810 20.77         3.5 0.18            170           25.7 186 
 BRR  HZ EP       1810  3.06                             152   -0.0410 68.8 297 
 BRR  HZ I        1810 17.79        13.1 0.36            148           68.8 297 
 BRR  HN ES   1   1810 18.87                             152    0.03 7 68.8 297 
 PAM  EZ EP       1810  4.32                             150    0.0710 76.3  42 
 PAM  EN ES       1810 20.91                             150    0.0110 76.3  42 
 PAM  EZ I        1810 23.54         6.7 0.50            150           76.3  42 
 RUS  HZ EP       1810  6.32                             141    0.2010  103 175 
 RUS  HN ES   1   1810 23.91                             141   -0.31 7  103 175 
 RUS  HZ I        1810 24.96         5.9 0.52            143            103 175 
 YPLC HZ EP   1   1810 11.93                             124   -0.52 7  180 151 
 YPLC HN ES   1   1810 36.13                             124    0.64 7  180 151 
 YPLC HZ I        1810 37.06         3.9 0.26            125            180 151 
 ZAR  HZ EP   1   1810 14.86                             121    0.23 6  202 292 
 ZAR  HN ES   1   1810 39.49                             121    0.11 6  202 292 
 ZAR  HZ I        1810 42.88         1.5 0.08            119            202 292 
                                                                                
