 2017  821 1203 27.8 L   6.788 -73.123142.0  RSN 14 0.3 2.0LRSN                1
 GAP= 99        0.74       2.6     2.6  4.1 -0.4057E+00  0.2811E+01  0.3000E+01E
 Epicentro: LOS SANTOS - SANTANDER                                             3
 ACTION:UPD 17-09-04 20:22 OP:rebc STATUS:               ID:20170821120327 L   I
 OLDACT:UP  17-08-21 23:16 OP:edw  STATUS:               ID:20170821115745     3
 OLDACT:REG 17-08-21 21:12 OP:edw  STATUS:               ID:20170821115745     3
 2017-08-21-1158-00M.COL___405                                                 6
 STAT SP IPHASW D HRMM SECON CODA AMPLIT PERI AZIMU VELO AIN AR TRES W  DIS CAZ7
 BAR2 EZ EP       12 3 46.71                             170   -0.2910 22.6 197 
 BAR2 EZ ES       12 4  2.31                             170    0.3610 22.6 197 
 BAR2 EZ I        12 4  2.56        32.7 0.32            166           22.6 197 
 BRR  HZ IP     D 12 3 48.54                             151   -0.2010 74.0 298 
 BRR  HN ES       12 4  5.51                             151    0.4610 74.0 298 
 BRR  HZ I        12 4  6.02        19.1 0.30            151           74.0 298 
 PAM  EZ EP     D 12 3 49.61                             150   -0.0110 76.8  37 
 PAM  EN ES       12 4  6.67                             150    0.0610 76.8  37 
 PAM  EZ I        12 4  8.79        26.8 0.66            155           76.8  37 
 RUS  HZ EP       12 3 51.26                             143    0.1410 99.1 177 
 RUS  HN ES       12 4  8.60                             143   -0.6710 99.1 177 
 RUS  HZ I        12 4 11.03        21.5 0.28            142           99.1 177 
 TAM  HZ IP     C 12 3 55.06                             130    0.10 9  152 105 
 ZAR  HZ EP       12 4  0.41                             121    0.08 8  207 292 
 ZAR  HN ES       12 4 25.24                             121   -0.44 8  207 292 
 ZAR  HZ I        12 4 29.56        13.4 0.24            122            207 292 
 NOR  HZ EP       12 4  3.36                             118   -0.13 8  236 235 
 NOR  HN ES       12 4 31.12                             118   -0.18 8  236 235 
 NOR  HZ I        12 4 36.94         6.5 0.18            117            236 235 
 CHI  HZ EP       12 4  5.00                             116   -0.27 8  248 196 
 CHI  HN ES       12 4 34.77                             116    0.31 8  248 196 
 CHI  HZ I        12 4 41.38         4.2 0.60            116            248 196 
 ROSC BZ EP   4   12 4  7.26                             116    1.48 0  253 212 
 ROSC BN ES   4   12 4 37.65                             116    2.28 0  253 212 
 ROSC BZ I        12 4 41.94         5.9 0.50            116            253 212 
 HEL  HZ EP   2   12 4  8.64                             114    0.54 4  274 256 
 HEL  HN ES       12 4 39.44                             114   -0.06 8  274 256 
 HEL  HZ I        12 4 45.26         5.0 0.30            114            274 256 
 GUY2CHZ EP   2   12 4 11.67                             111    0.25 4  302 235 
 GUY2CHN ES       12 4 45.49                             111    0.07 7  302 235 
 GUY2CHZ I        12 4 53.11         5.4 0.40                           302 235 
 DBB  EN ES   2   12 4 52.42                             109   -0.19 3  342 274 
 PRA  HZ EP       12 4 21.70                             106    0.46 6  392 210 
 PRA  HN ES       12 5  3.65                             106    0.75 6  392 210 
 PRA  HZ I        12 5 10.79         3.8 0.24            106            392 210 
 SJC  HZ EP   4   12 4 20.73                             105   -2.84 0  412 327 
 SJC  HN ES   4   12 5  1.26                             105   -5.77 0  412 327 
 SJC  HZ I        12 5  4.20         1.6 0.28            106            412 327 
                                                                                
