 2012 1021 1403 47.6 L   6.754 -73.119146.0  RSN 10 0.3 2.3LRSN                1
 GAP= 74        0.59       2.2     3.2  3.9  0.3403E+00  0.3393E+01  0.8287E+00E
 Epicentro: LOS SANTOS - SANTANDER                                             3
 ACTION:UPD 12-11-22 17:05 OP:ep   STATUS:               ID:20121021140347 L   I
 2012-10-21-1400-00M.COL___231                                                 6
 STAT SP IPHASW D HRMM SECON CODA AMPLIT PERI AZIMU VELO AIN AR TRES W  DIS CAZ7
 BAR2 SZ IP     C 14 4  7.27                             172    0.0610 19.2 201 
 BAR2 SZ I        14 4  7.55        77.2 0.21                          19.2 201 
 BAR2 SZ ES   1   14 4 22.52                             172    0.04 7 19.2 201 
 BRR  HZ IP     D 14 4  9.36                             151    0.2610 76.3 301 
 BRR  HN ES   1   14 4 26.01                             151    0.17 7 76.3 301 
 BRR  HZ I        14 4 29.73        48.5 0.19                          76.3 301 
 PAM  SZ EP       14 4 10.42                             150    0.4210 79.6  36 
 PAM  SN ES       14 4 27.50                             150    0.0510 79.6  36 
 PAM  SZ I        14 4 30.81        20.6 0.43                          79.6  36 
 RUS  HZ EP       14 4 10.95                             145   -0.0810 95.3 178 
 RUS  HZ I        14 4 12.19        27.3 0.16                          95.3 178 
 RUS  HE ES       14 4 29.09                             145   -0.1910 95.3 178 
 TAM  HZ EP   1   14 4 14.80                             131   -0.15 7  151 103 
 TAM  HZ I        14 4 36.22        26.2 0.36                           151 103 
 OCA  HZ EP   1   14 4 16.03                             129   -0.44 7  166 352 
 OCA  HN ES   1   14 4 38.37                             129   -0.60 7  166 352 
 OCA  HZ I        14 4 43.33        21.5 0.13                           166 352 
 ZAR  HZ EP       14 4 20.32                             122   -0.26 8  209 293 
 ZAR  HE ES   1   14 4 46.23                             122   -0.04 6  209 293 
 ZAR  HZ I        14 4 52.25        34.4 0.42                           209 293 
 CHI  HZ EP   1   14 4 24.92                             118    0.02 6  245 196 
 CHI  HN ES   1   14 4 53.72                             118   -0.24 6  245 196 
 CHI  HZ I        14 5  0.48         8.2 0.26                           245 196 
 ROSC BZ EP   1   14 4 25.57                             117    0.11 6  250 212 
 ROSC BZ I        14 5  4.48        20.8 0.31                           250 212 
 HEL  HZ EP   1   14 4 28.55                             115    0.51 6  274 257 
 HEL  HZ I        14 5  6.30        16.0 0.23                           274 257 
                                                                                
