 2014  921 1702 39.2 L   6.788 -73.160146.3  RSN  5 0.5 1.3LRSN                1
 GAP=135        1.30       7.0     7.0 10.5 -0.4515E+01 -0.1664E+01  0.3170E+01E
 Epicentro: LOS SANTOS - SANTANDER                                             3
 ACTION:UPD 14-10-03 23:07 OP:nd   STATUS:               ID:20140921170239 L   I
 OLDACT:DUP 14-09-22 00:59 OP:carl STATUS:               ID:20140921165819d    3
 2014-09-21-1658-18M.COL___287                                                 6
 STAT SP IPHASW D HRMM SECON CODA AMPLIT PERI AZIMU VELO AIN AR TRES W  DIS CAZ7
 BAR2 SZ EP       17 2 58.76                             171   -0.0810 21.8 186 
 BAR2 SZ ES       17 3 13.77                             171   -0.4110 21.8 186 
 BAR2 SZ I        17 3 16.46         4.5 0.26            172           21.8 186 
 BRR  HZ EP       17 3  0.67                             153    0.3310 70.5 300 
 BRR  HN ES       17 3 17.73                             153    0.8810 70.5 300 
 BRR  HZ I        17 3 20.56         5.5 0.54            154           70.5 300 
 PAM  SZ EP       17 3  1.71                             150    0.1410 79.4  40 
 PAM  SN ES       17 3 18.53                             150   -0.5110 79.4  40 
 PAM  SZ I        17 3 20.88         5.7 0.52            152           79.4  40 
 RUS  HZ EP       17 3  2.74                             144   -0.1510 99.4 175 
 RUS  HN ES       17 3 21.89                             144    0.5010 99.4 175 
 RUS  HZ I        17 3 23.13         1.3 0.22            147           99.4 175 
 PTB  HN ES       17 3 26.15                             132   -0.81 9  146 259 
                                                                                
