 2014 1021 1852 38.6 L   5.930 -73.667119.7  RSN  5 0.4 1.5LRSN                1
 GAP=154        0.84       5.1     3.9  8.7  0.1020E+01  0.1281E+02  0.8365E+01E
 Epicentro: GUAVATA - SANTANDER                                                3
 ACTION:UPD 14-11-29 23:53 OP:nd   STATUS:               ID:20141021185238 L   I
 OLDACT:DUP 14-10-24 11:24 OP:fm   STATUS:               ID:20141021184749d    3
 2014-10-21-1847-45M.COL___280                                                 6
 STAT SP IPHASW D HRMM SECON CODA AMPLIT PERI AZIMU VELO AIN AR TRES W  DIS CAZ7
 RUS  HZ EP       1852 56.89                             150   -0.3910 64.7  94 
 RUS  HN ES       1853 11.90                             150    0.0410 64.7  94 
 RUS  HZ I        1853 12.84         3.2 0.40            157           64.7  94 
 BAR2 SZ EP       1852 59.12                             140    0.3910 90.8  36 
 BAR2 SZ ES   1   1853 14.58                             140    0.13 7 90.8  36 
 BAR2 SZ I        1853 16.13        16.9 0.52            145           90.8  36 
 PTB  HZ EP   1   1852 59.55                             134   -0.50 7  110 308 
 PTB  HE ES       1853 16.39                             134   -0.4010  110 308 
 PTB  HZ I        1853 22.67         5.3 0.26            136            110 308 
 BRR  HZ EP   1   1853  2.02                             129    0.18 7  130 358 
 BRR  HN ES   1   1853 20.39                             129    0.40 7  130 358 
 GUY2CHZ EP   1   1853  9.89                             116   -0.15 6  204 248 
 GUY2CHE ES   1   1853 35.35                             116    0.78 6  204 248 
 GUY2CHZ I        1853 42.67         2.9 0.52                           204 248 
                                                                                
