 2014  821 1506  7.4 L   6.785 -73.152140.9  RSN 15 0.6 2.3LRSN                1
 GAP=136        1.29       3.7     4.9  6.3 -0.4804E+01  0.9295E+01  0.2898E+01E
 Epicentro: LOS SANTOS - SANTANDER                                             3
 ACTION:UPD 14-09-15 21:51 OP:nd   STATUS:               ID:20140821150607 L   I
 OLDACT:REG 14-08-21 21:03 OP:stll STATUS:               ID:20140821145819     3
 2014-08-21-1458-19M.COL___260                                                 6
 STAT SP IPHASW D HRMM SECON CODA AMPLIT PERI AZIMU VELO AIN AR TRES W  DIS CAZ7
 BAR2 SZ EP       15 6 26.65                             171    0.2310 21.6 189 
 BAR2 SZ ES       15 6 41.26                             171    0.0110 21.6 189 
 BAR2 SZ I        15 6 42.81        74.6 0.28            168           21.6 189 
 BRR  HZ EP       15 6 28.58                             152    0.5310 71.5 300 
 BRR  HN ES       15 6 45.02                             152    0.8710 71.5 300 
 BRR  HZ I        15 6 46.80        31.9 0.12            151           71.5 300 
 PAM  SZ EP       15 6 29.47                             150    0.2510 79.1  39 
 PAM  SZ I        15 6 29.80        74.5 0.20            154           79.1  39 
 PAM  SN ES       15 6 46.13                             150   -0.1010 79.1  39 
 RUS  HZ EP       15 6 30.69                             143    0.1210 98.9 176 
 RUS  HE ES       15 6 48.31                             143   -0.3210 98.9 176 
 RUS  HZ I        15 6 50.82        16.9 0.46            143           98.9 176 
 PTB  HZ EP       15 6 33.45                             131   -0.45 9  147 259 
 PTB  HN ES       15 6 54.30                             131   -0.26 9  147 259 
 PTB  HZ I        15 6 56.47        24.8 0.14            130            147 259 
 SPBC HZ EP       15 6 34.78                             128   -0.60 9  161 219 
 SPBC HN ES       15 6 56.86                             128   -0.33 9  161 219 
 SPBC HZ I        15 7  1.80        37.0 0.80            128            161 219 
 NOR  HZ EP       15 6 43.00                             118    0.30 8  233 235 
 NOR  HN ES       15 7  9.53                             118   -0.70 8  233 235 
 NOR  HZ I        15 7 18.58        15.0 0.14            118            233 235 
 SML  HZ EP       15 6 42.94                             116   -0.97 8  245 336 
 SML  HE ES       15 7 11.24                             116   -1.14 8  245 336 
 CHI  HZ EP       15 6 44.83                             116    0.18 8  247 195 
 CHI  HN ES       15 7 13.30                             116   -0.40 8  247 195 
 CHI  HZ I        15 7 17.62        15.3 0.60            117            247 195 
 HEL  HZ EP       15 6 48.84                             114    1.57 8  271 256 
 HEL  HN ES       15 7 18.69                             114    0.34 8  271 256 
 HEL  HZ I        15 7 24.73        11.1 0.28            114            271 256 
 GUY2CHZ EP       15 6 50.95                             112    0.32 7  300 235 
 GUY2CHE ES       15 7 24.66                             112    0.32 7  300 235 
 GUY2CHZ I        15 7 33.07         9.1 0.44                           300 235 
 RREF HZ EP   9   15 6 50.46                             110   -2.71 0  320 230 
 RREF HN ES       15 7 27.14                                    0.99 7  320 230 
 RREF HZ I        15 7 34.77        11.1 0.42            110            320 230 
 TOL  SZ EP       15 6 56.05                             109    0.76 7  342 225 
 TOL  SN ES       15 7 32.58                             109   -0.05 7  342 225 
 ANIL HN ES       15 7 34.89                             108   -0.51 6  356 225 
 ANIL HZ I        15 7 41.30         3.4 0.34            108            356 225 
 PRA  HZ EP       15 7  0.72                             106    0.16 6  390 210 
 PRA  HN ES       15 7 41.95                             106   -0.07 6  390 210 
 PRA  HZ I        15 7 46.96        10.9 0.46            106            390 210 
                                                                                
