 2010 1121 1520 41.5 L   6.798 -73.125150.1  RSN  4 0.1 1.2LRSN                1
 GAP=227        0.33       7.4    11.6  5.6  0.7332E+02 -0.3573E+02 -0.2105E+02E
 Epicentro: LOS SANTOS - SANTANDER                                             3
 ACTION:UP  10-12-17 16:54 OP:REBC STATUS:               ID:20101121152041 L   I
 2010-11-21-1517-02S.COL___132                                                 6
 STAT SP IPHASW D HRMM SECON CODA AMPLIT PERI AZIMU VELO SNR AR TRES W  DIS CAZ7
 BTL  SZ EP   1   1521  1.68                             172     0.1 7   21 310 
 BAR2 SZ EP   2   1521  1.57                             171    -0.1 5   24 196 
 BAR2 SZ I        1521  2.00         3.8 0.11                            24 196 
 BAR2 SZ ES   2   1521 17.38                             171     0.0 5   24 196 
 BRR  HZ EP       1521  3.33                             153     0.110   73 298 
 BRR  HZ I        1521  6.03         6.3 0.39                            73 298 
 BRR  HN ES   1   1521 20.14                             153    -0.1 7   73 298 
 RUS  HZ EP   2   1521  5.48                             145    -0.2 5  100 177 
 RUS  HN ES   2   1521 24.63                             145     0.1 5  100 177 
 RUS  HZ I        1521 25.95         1.3 0.23                           100 177 
                                                                                
