 2012 1221 1157 14.9 L   6.764 -73.171147.6  RSN  5 0.4 1.4LRSN                1
 GAP=232        0.81       9.3     8.2  9.1  0.5161E+02  0.1700E+02  0.1156E+02E
 Epicentro: LOS SANTOS - SANTANDER                                             3
 ACTION:UPD 13-01-04 14:29 OP:ep   STATUS:               ID:20121221115714 L   I
 2012-12-21-1150-00M.COL___243                                                 6
 STAT SP IPHASW D HRMM SECON CODA AMPLIT PERI AZIMU VELO AIN AR TRES W  DIS CAZ7
 BAR2 SZ EP   1   1157 34.44                             172   -0.24 7 19.0 184 
 BAR2 SZ ES   1   1157 49.41                             172   -0.69 7 19.0 184 
 BAR2 SZ I        1157 51.09         7.8 0.18                          19.0 184 
 BRR  HE ES   1   1157 53.47                             153    0.61 7 70.8 302 
 BRR  HZ I        1157 57.89        11.7 0.36                          70.8 302 
 RUS  HZ EP   1   1157 38.88                             145    0.31 7 96.9 174 
 RUS  HN ES   1   1157 57.43                             145    0.39 7 96.9 174 
 RUS  HZ I        1157 58.20         1.8 0.26                          96.9 174 
 PTB  HZ EP   1   1157 41.42                             133   -0.29 7  144 260 
 PTB  HN ES   1   1158  2.39                             133   -0.22 7  144 260 
 PTB  HZ I        1158  5.00         2.3 0.16                           144 260 
 ZAR  HN ES   1   1158 12.76                             123    0.09 6  203 293 
                                                                                
