 2016 1021 1706 20.7 L   6.780 -73.159151.2  RSN 10 0.4 2.1LRSN                1
 GAP= 72        1.04       4.4     4.6  5.8 -0.5105E+01  0.9036E+00  0.3635E+01E
 Epicentro: LOS SANTOS - SANTANDER                                             3
 ACTION:UPD 16-11-09 19:21 OP:rebc STATUS:               ID:20161021170620 L   I
 OLDACT:UP  16-10-21 23:43 OP:ar   STATUS:               ID:20161021165746     3
 OLDACT:UP  16-10-21 23:43 OP:ar   STATUS:               ID:20161021165746     3
 OLDACT:UP  16-10-21 23:42 OP:ar   STATUS:               ID:20161021165746     3
 OLDACT:REG 16-10-21 22:16 OP:ar   STATUS:               ID:20161021165746     3
 2016-10-21-1658-00M.COL___358                                                 6
 STAT SP IPHASW D HRMM SECON CODA AMPLIT PERI AZIMU VELO AIN AR TRES W  DIS CAZ7
 BAR2 EZ EP       17 6 40.82                             172   -0.0810 20.9 187 
 BAR2 EZ ES       17 6 56.53                             172   -0.1510 20.9 187 
 BAR2 EZ I        17 6 57.59        33.1 0.22            171           20.9 187 
 BRR  HZ EP       17 6 42.84                             153    0.4510 71.0 301 
 BRR  HN ES       17 7  0.08                             153    0.7510 71.0 301 
 BRR  HZ I        17 7  2.91        16.7 0.52            152           71.0 301 
 PAM  EZ EP       17 6 43.89                             151    0.2810 80.0  39 
 PAM  EN ES       17 7  1.01                             151   -0.5010 80.0  39 
 PAM  EZ I        17 7  3.26        15.8 0.58            153           80.0  39 
 RUS  HZ EP       17 6 44.58                             145   -0.2210 98.5 175 
 RUS  HN ES       17 7  3.50                             145   -0.1310 98.5 175 
 RUS  HZ I        17 7  4.76        18.7 0.28            146           98.5 175 
 PTB  HZ EP       17 6 47.44                             133   -0.47 9  146 260 
 PTB  HN ES       17 7  8.66                             133   -0.50 9  146 260 
 PTB  HZ I        17 7 10.42        14.2 0.22            133            146 260 
 TAM  HZ EP       17 6 49.04                             132    0.19 9  156 104 
 TAM  HE ES   4   17 7  3.01                             132   -7.83 0  156 104 
 SPBC HZ EP       17 6 49.70                             131    0.37 9  161 219 
 SPBC HN ES       17 7 11.90                             131    0.20 9  161 219 
 SPBC HZ I        17 7 19.01        22.4 0.26            131            161 219 
 GUY2CHZ EP   4   17 7  6.25                             113    2.01 0  299 235 
 GUY2CHE ES   4   17 7 42.21                             113    3.97 0  299 235 
 GUY2CHZ I        17 7 47.03         5.1 0.50                           299 235 
 PRA  HZ EP       17 7 14.84                             107    0.78 6  389 210 
 PRA  HN ES       17 7 55.32                             107   -0.40 6  389 210 
 PRA  HZ I        17 8  0.07         3.1 0.24            108            389 210 
 SJC  HZ EP       17 7 15.54                             106   -0.99 6  410 327 
 SJC  HN ES   4   17 7 55.90                             106   -4.20 0  410 327 
 SJC  HZ I        17 8  4.67         1.9 0.52            107            410 327 
                                                                                
