 2010  321 1542  8.1 L   6.812 -73.049144.0  RSN  6 0.2 1.9LRSN                1
 GAP=193        0.45       3.1     6.4  5.0  0.3595E+01 -0.3519E+01 -0.7385E+00E
 Epicentro: LOS SANTOS - SANTANDER                                             3
 ACTION:UP  10-08-24 09:55 OP:vdl  STATUS:               ID:20100321154208 L   I
 2010-03-21-1541-48S.COL___098                                                 6
 STAT SP IPHASW D HRMM SECON CODA AMPLIT PERI AZIMU VELO SNR AR TRES W  DIS CAZ7
 BAR2 SZ IP       1542 27.69                             168     0.010   29 212 
 BAR2 SZ ES   2   1542 42.72                             168    -0.2 5   29 212 
 BRR  HZ IP       1542 29.62                             149     0.010   80 294 
 BRR  HZ I        1542 30.16        13.5 0.11                            80 294 
 BRR  HE ES   1   1542 46.57                             149     0.2 7   80 294 
 RUS  HZ EP   2   1542 32.13                             143     0.3 5  102 182 
 RUS  HE ES   2   1542 49.93                             143    -0.3 5  102 182 
 OCA  SZ EP   1   1542 36.48                             129     0.2 7  161 349 
 OCA  SZ ES   2   1542 57.83                             129    -0.5 5  161 349 
 OCA  SZ I        1543  1.55        15.9 0.25                           161 349 
 HEL  HZ EP   2   1542 49.04                             113    -0.4 4  283 256 
 HEL  HZ I        1543 24.09         2.7 0.69                           283 256 
 PRA  HZ EP   2   1543  1.97                             106    -0.4 3  399 211 
 PRA  HE ES   2   1543 44.77                             106     0.1 3  399 211 
 PRA  HZ I        1543 57.91         2.2 0.47                           399 211 
                                                                                
