 2015  121 1441 26.4 L   6.818 -73.076148.3  RSN  5 0.3 1.5LRSN                1
 GAP=246        0.65       6.5     6.1  7.0  0.2674E+02 -0.9968E+00 -0.5256E+01E
 Epicentro: LOS SANTOS - SANTANDER                                             3
 ACTION:UPD 15-03-02 15:41 OP:nd   STATUS:               ID:20150121144126 L   I
 OLDACT:DUP 15-01-22 00:29 OP:spq  STATUS:               ID:20150121143744d    3
 2015-01-21-1437-43M.COL___265                                                 6
 STAT SP IPHASW D HRMM SECON CODA AMPLIT PERI AZIMU VELO AIN AR TRES W  DIS CAZ7
 BAR2 EZ EP   1   1441 46.36                             169   -0.02 7 27.6 205 
 BAR2 EZ ES   1   1442  1.53                             169   -0.47 7 27.6 205 
 BAR2 EZ I        1442  2.87         7.2 0.18            165           27.6 205 
 BRR  HZ EP       1441 48.22                             151    0.1010 77.2 294 
 BRR  HN ES       1442  5.45                             151    0.3610 77.2 294 
 BRR  HZ I        1442  9.51        10.2 0.22            148           77.2 294 
 RUS  HZ EP   1   1441 50.54                             144    0.06 7  102 180 
 RUS  HE ES   1   1442  9.30                             144   -0.00 7  102 180 
 RUS  HZ I        1442 10.62         1.8 0.33            144            102 180 
 PTB  HZ EP   4   1441 52.69                             131   -1.56 0  156 259 
 PTB  HE ES   1   1442 16.21                             131    0.21 7  156 259 
 PTB  HZ I        1442 19.95         4.5 0.24            130            156 259 
 ZAR  HN ES       1442 25.12                             122   -0.45 8  210 291 
 ZAR  HZ I        1442 30.37         5.4 0.26            122            210 291 
                                                                                
