 2013  121 1143 29.6 L   6.784 -73.162143.5  RSN  7 0.4 1.6LRSN                1
 GAP=135        0.75       4.0     4.4  6.6  0.1579E+01  0.5540E+01  0.6440E+01E
 Epicentro: LOS SANTOS - SANTANDER                                             3
 ACTION:UPD 13-02-15 09:15 OP:ep   STATUS:               ID:20130121114329 L   I
 2013-01-21-1140-00M.COL___241                                                 6
 STAT SP IPHASW D HRMM SECON CODA AMPLIT PERI AZIMU VELO AIN AR TRES W  DIS CAZ7
 BAR2 SZ EP   1   1143 48.71                             171   -0.20 7 21.3 186 
 BAR2 SZ ES   1   1144  3.80                             171   -0.18 7 21.3 186 
 BRR  HZ EP   1   1143 50.65                             152    0.19 7 70.5 300 
 BRR  HN ES   1   1144  7.56                             152    0.83 7 70.5 300 
 BRR  HZ I        1144  8.68         7.3 0.16            154           70.5 300 
 PAM  SZ EP   1   1143 51.73                             150    0.01 7 79.9  40 
 PAM  SN ES   1   1144  8.78                             150   -0.20 7 79.9  40 
 PAM  SZ I        1144 11.17         5.5 0.50            154           79.9  40 
 RUS  HZ EP   1   1143 53.17                             144    0.17 7 99.0 175 
 RUS  HN ES   1   1144 11.06                             144   -0.20 7 99.0 175 
 RUS  HZ I        1144 12.90         7.5 0.26            143           99.0 175 
 PTB  HZ EP   1   1143 55.63                             132   -0.55 7  146 259 
 PTB  HN ES   1   1144 16.35                             132   -0.58 7  146 259 
 PTB  HZ I        1144 19.92         6.4 0.38            133            146 259 
 ZAR  HN ES   1   1144 26.96                             122    0.06 6  203 293 
 CHI  HZ EP   1   1144  7.21                             117    0.28 6  246 195 
 CHI  HN ES   1   1144 36.58                             117    0.53 6  246 195 
 CHI  HZ I        1144 43.55         2.6 0.52            117            246 195 
                                                                                
