 2014  621 1646 57.0 L   7.181 -73.243120.3  RSN  9 0.5 2.3LRSN                1
 GAP=177        1.10       3.6     6.0  8.7  0.2818E+01  0.1425E+02 -0.3480E+01E
 Epicentro: LEBRIJA - SANTANDER                                                3
 ACTION:UPD 14-07-01 22:55 OP:nd   STATUS:               ID:20140621164658dL   I
 OLDACT:UP  14-06-22 00:04 OP:mh   STATUS:               ID:20140621164347     3
 OLDACT:UP  14-06-21 23:59 OP:mh   STATUS:               ID:20140621164347     3
 OLDACT:REG 14-06-21 23:29 OP:mh   STATUS:               ID:20140621164347     3
 2014-06-21-1643-47M.COL___265                                                 6
 STAT SP IPHASW D HRMM SECON CODA AMPLIT PERI AZIMU VELO AIN AR TRES W  DIS CAZ7
 BRR  HZ EP     C 1647 14.88                             155    0.5010 52.5 261 
 BRR  HN ES   1   1647 27.52                             155   -0.39 7 52.5 261 
 BRR  HZ I        1647 29.14        32.2 0.04            150           52.5 261 
 BAR2 SZ EP   1   1647 16.14                             150    0.67 7 65.4 174 
 BAR2 SZ ES       1647 30.00                             150    0.1610 65.4 174 
 BAR2 SZ I        1647 31.99        33.9 0.27            151           65.4 174 
 OCA  HN ES       1647 36.67                             133   -0.0910  117 356 
 RUS  HZ EP   1   1647 21.48                             127   -0.79 7  144 173 
 RUS  HE ES   1   1647 41.92                             127   -0.03 7  144 173 
 PTB  HZ EP       1647 21.51                             125   -0.94 9  152 242 
 PTB  HN ES   1   1647 42.02                             125   -0.26 7  152 242 
 PTB  HZ I        1647 44.47         8.8 0.12            124            152 242 
 ZAR  HZ EP   1   1647 25.95                             119    0.41 7  182 281 
 ZAR  HN ES       1647 48.08                             119    0.31 9  182 281 
 ZAR  HZ I        1647 54.79         6.9 0.29            119            182 281 
 SML  HZ EP       1647 28.10                             117    0.47 9  201 333 
 SML  HN ES       1647 51.02                             117   -0.46 9  201 333 
 SML  HZ I        1647 54.80         8.9 0.08            117            201 333 
 NOR  HN ES   1   1648  2.64                             111    0.56 6  254 225 
 URE  HZ EP   4   1647 35.09                             110    0.78 0  261 284 
 URE  HN ES   4   1648  0.01                             110   -3.38 0  261 284 
 URE  HZ I        1648  9.39       926.9 0.03            110            261 284 
                                                                                
