 2013  721 1739 54.3 L   6.726 -73.161143.9  RSN  6 0.4 1.7LRSN                1
 GAP=180        1.08       6.4     6.3  7.5  0.1705E+02  0.1243E+02  0.5588E+01E
 Epicentro: VILLANUEVA - SANTANDER                                             3
 ACTION:UPD 13-08-12 10:39 OP:ep   STATUS:               ID:20130721173954 L   I
 OLDACT:REG 13-07-21 16:30 OP:nd   STATUS:               ID:20130721173959     3
 2013-07-21-1739-59M.COL___267                                                 6
 STAT SP IPHASW D HRMM SECON CODA AMPLIT PERI AZIMU VELO AIN AR TRES W  DIS CAZ7
 BAR2 SZ EP       1740 13.60                             174    0.0410 14.9 189 
 BAR2 SZ ES       1740 28.98                             174    0.4010 14.9 189 
 BAR2 SZ I        1740 30.46         8.9 0.28            169           14.9 189 
 GIR2 SZ EP       1740 13.70                             164   -0.2910 39.2 355 
 GIR2 SZ ES       1740 28.53                             164   -0.8110 39.2 355 
 GIR2 SZ I        1740 31.13        13.5 0.32            163           39.2 355 
 BRR  HZ EP       1740 15.76                             151    0.3510 74.1 305 
 BRR  HN ES       1740 32.51                             151    0.6410 74.1 305 
 BRR  HZ I        1740 35.56         8.7 0.44            147           74.1 305 
 RUS  HZ EP       1740 17.48                             146    0.1910 92.5 175 
 RUS  HN ES       1740 35.24                             146    0.0210 92.5 175 
 RUS  HZ I        1740 36.81         6.6 0.26            147           92.5 175 
 PTB  HZ EP       1740 20.48                             132   -0.35 9  145 262 
 PTB  HN ES       1740 40.97                             132   -0.56 9  145 262 
 PTB  HZ I        1740 47.41         4.6 0.20            130            145 262 
 ZAR  HZ EP   2   1740 27.09                             122    0.30 4  206 294 
 ZAR  HE ES       1740 52.42                             122    0.28 8  206 294 
 ZAR  HZ I        1741  1.40         6.4 0.58            121            206 294 
                                                                                
