 2010 1121 1455 44.4 L   6.741 -73.155146.9  RSN  8 0.3 1.8LRSN                1
 GAP=158        0.67       4.0     6.9  5.4 -0.1215E+01 -0.1766E+01 -0.3368E+01E
 Epicentro: JORDAN - SANTANDER                                                 3
 ACTION:UP  10-12-17 16:54 OP:REBC STATUS:               ID:20101121145544 L   I
 2010-11-21-1452-54S.COL___132                                                 6
 STAT SP IPHASW D HRMM SECON CODA AMPLIT PERI AZIMU VELO SNR AR TRES W  DIS CAZ7
 BAR2 SZ EP   1   1456  3.83                             173    -0.2 7   17 191 
 BAR2 SZ ES   1   1456 19.64                             173     0.3 7   17 191 
 BAR2 SZ I        1456 21.21        15.0 0.16                            17 191 
 BTL  SZ EP       1456  4.16                             171     0.010   23 327 
 BTL  SZ ES   1   1456 19.89                             171     0.3 7   23 327 
 BRR  HZ EP       1456  5.77                             152     0.010   74 303 
 BRR  HZ I        1456  6.26        14.1 0.13                            74 303 
 BRR  HE ES   1   1456 22.53                             152     0.0 7   74 303 
 RUS  HZ EP   1   1456  7.96                             146     0.2 7   94 175 
 RUS  HN ES   1   1456 25.67                             146    -0.4 7   94 175 
 RUS  HZ I        1456 28.52         8.3 0.28                            94 175 
 GRA  SZ EP   1   1456 10.61                             136     0.3 7  132  17 
 GRA  SZ ES   2   1456 29.71                             136    -0.7 5  132  17 
 GRA  SZ I        1456 32.73         6.7 0.36                           132  17 
 OCA  SZ EP   1   1456 13.10                             129    -0.3 7  167 354 
 OCA  SZ I        1456 37.55         7.2 0.29                           167 354 
 NOR  SN ES   2   1456 46.76                             119    -0.5 4  230 236 
 PRA  HZ EP   2   1456 37.95                             107     0.7 3  386 210 
                                                                                
