 2015  721 1326 15.6 L   6.803 -73.234132.2  RSN  4 0.4 1.5LRSN                1
 GAP=193        0.85       3.8     6.0 10.7  0.6834E+01  0.2323E+02 -0.9244E+01E
 Epicentro: ZAPATOCA - SANTANDER                                               3
 ACTION:UPD 15-09-08 21:49 OP:cam  STATUS:               ID:20150721132615 L   I
 OLDACT:UP  15-07-22 00:40 OP:ak   STATUS:               ID:20150721131750     3
 OLDACT:UP  15-07-22 00:40 OP:ak   STATUS:               ID:20150721131750     3
 OLDACT:UP  15-07-22 00:39 OP:ak   STATUS:               ID:20150721131750     3
 OLDACT:REG 15-07-21 21:42 OP:ak   STATUS:               ID:20150721131750     3
 2015-07-21-1317-50M.COL___340                                                 6
 STAT SP IPHASW D HRMM SECON CODA AMPLIT PERI AZIMU VELO AIN AR TRES W  DIS CAZ7
 RUS  HZ EP       1326 37.82                             140   -0.3710  102 171 
 RUS  HN ES       1326 55.99                             140    0.2110  102 171 
 RUS  HZ I        1326 57.49         3.4 0.43            148            102 171 
 ZAR  HZ EP       1326 46.83                             120    0.56 9  195 293 
 ZAR  HN ES       1327 10.27                             120    0.10 9  195 293 
 ZAR  HZ I        1327 17.45         2.6 0.17            124            195 293 
 SML  HZ EP   1   1326 51.71                             115    0.63 6  240 337 
 SML  HN ES       1327 18.18                             115   -0.54 8  240 337 
 SML  HZ I        1327 23.20         5.3 0.10            119            240 337 
 GUY2CHZ EP       1326 57.63                             110   -0.14 7  293 234 
 GUY2CHN ES       1327 30.35                             110   -0.28 7  293 234 
 GUY2CHZ I        1327 38.45         1.2 0.39                           293 234 
                                                                                
