 2011 1121 1908  7.0 L   6.791 -73.091146.0  RSN  5 0.4 1.6LRSN                1
 GAP=144        0.72       6.6     6.3  9.3  0.1109E+01  0.4384E+01  0.2458E+01E
 Epicentro: LOS SANTOS - SANTANDER                                             3
 ACTION:UPD 12-07-13 16:11 OP:ep   STATUS:               ID:20111121190807 L   I
 2011-11-21-1905-29S.COL___178                                                 6
 STAT SP IPHASW D HRMM SECON CODA AMPLIT PERI AZIMU VELO AIN AR TRES W  DIS CAZ7
 BAR2 SZ ES   2   19 8 41.35                             170   -0.70 5 24.2 205 
 BAR2 SZ I        19 8 42.78         9.9 0.39                          24.2 205 
 PAM  SZ EP   1   19 8 29.36                             152    0.26 7 74.5  35 
 PAM  SZ I        19 8 29.59         6.6 0.15                          74.5  35 
 PAM  SN ES   1   19 8 46.14                             152   -0.17 7 74.5  35 
 BRR  HZ EP   1   19 8 28.24                             151   -0.30 7 77.0 297 
 BRR  HZ I        19 8 28.68        16.6 0.16                          77.0 297 
 BRR  HN ES   1   19 8 45.93                             151    0.61 7 77.0 297 
 RUS  HZ EP   2   19 8 30.82                             144    0.10 5 99.4 180 
 RUS  HZ I        19 8 32.74         3.1 0.27                          99.4 180 
 RUS  HE ES   2   19 8 49.39                             144    0.20 5 99.4 180 
 ZAR  HE ES   2   19 9  5.20                             122   -0.71 4  210 292 
                                                                                
