 2014  821 1921 52.2 L   6.791 -73.142140.8  RSN 22 0.5 2.6LRSN                1
 GAP= 72        1.00       2.3     2.7  4.3 -0.9606E+00  0.3583E+01  0.1356E+01E
 Epicentro: LOS SANTOS - SANTANDER                                             3
 ACTION:UPD 14-09-15 21:52 OP:nd   STATUS:               ID:20140821192152 L   I
 OLDACT:UP  14-08-25 10:31 OP:SPQ  STATUS:               ID:20140821192152 L   3
 OLDACT:REG 14-08-21 21:13 OP:stll STATUS:               ID:20140821191820     3
 2014-08-21-1918-20M.COL___263                                                 6
 STAT SP IPHASW D HRMM SECON CODA AMPLIT PERI AZIMU VELO AIN AR TRES W  DIS CAZ7
 BAR2 SZ IP     C 1922 11.46                             171    0.2610 22.4 191 
 BAR2 SZ I        1922 11.92       110.8 0.20            166           22.4 191 
 BAR2 SZ ES       1922 26.30                             171    0.2710 22.4 191 
 BRR  HZ IP     D 1922 13.32                             151    0.4710 72.0 299 
 BRR  HZ I        1922 13.58        66.6 0.20            142           72.0 299 
 BRR  HN ES       1922 29.16                             151    0.2010 72.0 299 
 PAM  SZ IP     D 1922 14.22                             150    0.3110 77.9  39 
 PAM  SZ I        1922 14.50        48.3 0.20            148           77.9  39 
 PAM  SN ES       1922 31.12                             150    0.2710 77.9  39 
 RUS  HZ IP     D 1922 15.36                             143   -0.0210 99.6 176 
 RUS  HN ES       1922 33.35                             143   -0.1210 99.6 176 
 RUS  HZ I        1922 35.07        32.0 0.28            139           99.6 176 
 PTB  HZ EP       1922 17.98                             131   -0.79 9  148 259 
 PTB  HN ES       1922 39.44                             131   -0.06 9  148 259 
 PTB  HZ I        1922 46.61        66.9 0.34            123            148 259 
 TAM  HZ EP   1   1922 19.70                             129    0.28 7  154 105 
 TAM  HN ES       1922 40.26                             129   -0.40 9  154 105 
 OCA  HZ EP       1922 20.11                             128   -0.11 9  161 353 
 OCA  HE ES       1922 41.51                             128   -0.57 9  161 353 
 SPBC HZ EP       1922 20.23                             128   -0.03 9  163 219 
 SPBC HN ES       1922 41.59                             128   -0.56 9  163 219 
 SPBC HZ I        1922 49.99        44.8 0.16            121            163 219 
 ZAR  HZ EP       1922 24.19                             121   -0.20 9  205 292 
 ZAR  HN ES       1922 49.28                             121   -0.22 9  205 292 
 ZAR  HZ I        1922 55.41        68.5 0.30            114            205 292 
 NOR  HZ EP       1922 27.42                             117   -0.19 8  234 235 
 NOR  HN ES       1922 55.34                             117    0.11 8  234 235 
 NOR  HZ I        1923  0.93        35.9 0.28            111            234 235 
 SML  HZ EP       1922 28.04                             116   -0.62 8  245 335 
 SML  HN ES       1922 57.41                             116    0.31 8  245 335 
 SML  HZ I        1923  3.76        42.3 0.26            111            245 335 
 CHI  HZ EP       1922 29.35                             116   -0.17 8  248 195 
 CHI  HN ES       1922 58.18                             116   -0.46 8  248 195 
 HEL  HZ EP       1922 32.46                             114    0.29 8  272 256 
 HEL  HN ES       1923  3.18                             114   -0.17 8  272 256 
 HEL  HZ I        1923 10.41        24.9 0.38            108            272 256 
 GUY2CHZ EP       1922 36.45                             111    0.91 7  301 235 
 GUY2CHE ES       1923  9.82                             111    0.47 7  301 235 
 GUY2CHZ I        1923 20.16        20.2 0.54                           301 235 
 RREF HZ EP   9   1922 34.79                             110   -3.29 0  321 230 
 RREF HN ES       1923 10.78                                    0.20 7  321 230 
 RREF HZ I        1923 19.27        22.5 0.32            105            321 230 
 CBOC HZ EP       1922 39.20                             109    0.29 7  334 252 
 CBOC HZ I        1923 28.04        10.4 0.46            104            334 252 
 DBB  SZ EP       1922 38.73                             108   -0.79 7  340 274 
 DBB  SZ I        1923 19.57        45.1 0.66            104            340 274 
 TOL  SZ EP       1922 41.32                             108    1.12 7  343 225 
 TOL  SN ES       1923 18.38                             108    0.74 7  343 225 
 TOL  SZ I        1923 23.22        40.7 0.52            104            343 225 
 ANIL HZ EP       1922 42.68                             108    0.92 6  357 225 
 ANIL HN ES       1923 20.77                             108    0.35 6  357 225 
 ANIL HZ I        1923 28.52         4.2 0.44            103            357 225 
 PRA  HZ EP       1922 45.68                             106    0.22 6  391 210 
 PRA  HN ES       1923 25.95                             106   -1.07 6  391 210 
 ORTC HZ EP       1922 45.86                             105   -0.02 6  395 216 
 ORTC HN ES       1923 26.98                             105   -0.77 6  395 216 
 SJC  HZ EP   4   1922 45.28                             105   -2.44 0  410 327 
 SJC  HZ I        1922 45.87         8.0 0.24            101            410 327 
 SJC  HN ES   4   1923 26.83                             105   -4.19 0  410 327 
                                                                                
