 2012  721 1837 51.6 L   6.767 -73.143145.4  RSN  6 0.4 1.7LRSN                1
 GAP=138        0.93       5.7     4.8  8.4  0.2951E+01  0.9415E+01  0.6203E+01E
 Epicentro: LOS SANTOS - SANTANDER                                             3
 ACTION:UPD 12-08-14 11:46 OP:ep   STATUS:               ID:20120721183751 L   I
 2012-07-21-1830-00M.COL___215                                                 6
 STAT SP IPHASW D HRMM SECON CODA AMPLIT PERI AZIMU VELO AIN AR TRES W  DIS CAZ7
 BAR2 SZ EP       1838 11.06                             172    -0.110   20 193 
 BAR2 SZ ES   1   1838 26.31                             172    -0.1 7   20 193 
 BAR2 SZ I        1838 27.49        13.4 0.25            173             20 193 
 BRR  HZ EP   1   1838 13.00                             152     0.1 7   73 301 
 BRR  HZ I        1838 23.74        14.8 0.42            148             73 301 
 BRR  HN ES       1838 29.51                             152     0.110   73 301 
 PAM  SZ EP   1   1838 13.89                             150    -0.1 7   80  38 
 PAM  SZ I        1838 14.85         5.3 0.26            147             80  38 
 PAM  SN ES       1838 31.22                             150    -0.210   80  38 
 RUS  HZ EP   1   1838 15.68                             145     0.6 7   97 176 
 RUS  HN ES   1   1838 33.57                             145     0.2 7   97 176 
 PTB  HZ EP   1   1838 17.68                             132    -0.8 7  147 260 
 PTB  HN ES   1   1838 38.98                             132    -0.5 7  147 260 
 PTB  HZ I        1838 40.87         4.2 0.13            129            147 260 
 ZAR  HN ES       1838 50.14                             122     0.5 8  206 293 
