 2014  321 1012  3.5 L   6.560 -73.601103.7  RSN  7 0.5 2.0LRSN                1
 GAP=122        0.89       6.7     5.2  8.8 -0.1615E+02  0.2134E+02 -0.1488E+02E
 Epicentro: EL CARMEN DE CHUCURI - SANTANDER                                   3
 OLDACT:REG 14-03-21 14:56 OP:y    STATUS:               ID:20140321100809     3
 ACTION:UPD 14-04-09 23:19 OP:nd   STATUS:               ID:20140321101204dL   I
 OLDACT:UP  14-03-21 16:21 OP:fm   STATUS:               ID:20140321100809     3
 2014-03-21-1008-09M.COL___241                                                 6
 STAT SP IPHASW D HRMM SECON CODA AMPLIT PERI AZIMU VELO AIN AR TRES W  DIS CAZ7
 BAR2 SZ EP       1012 18.99                             154   -0.0810 46.5  86 
 BAR2 SZ ES   1   1012 31.56                             154    0.36 7 46.5  86 
 BAR2 SZ I        1012 44.44      1411.6 1.24            154           46.5  86 
 PTB  HZ EP   1   1012 21.72                             134   -0.52 7 94.6 269 
 PTB  HN ES   1   1012 36.68                             134   -0.17 7 94.6 269 
 PTB  SZ I        1012 36.93         7.0 0.10            146           94.6 269 
 SPBC HN ES   1   1012 40.15                             128    0.09 7  113 207 
 ZAR  HE ES   4   1012 53.58                             116    2.68 0  173 307 
 NOR  HZ EP   1   1012 30.65                             115   -0.16 7  178 232 
 NOR  HN ES   1   1012 51.25                             115   -0.85 7  178 232 
 NOR  SZ I        1012 53.83         4.3 1.34            125            178 232 
 HEL  HZ EP   1   1012 36.08                             110    0.51 6  217 259 
 HEL  HN ES   1   1013  1.53                             110    0.95 6  217 259 
 HEL  SZ I        1013  2.30         3.8 2.94            119            217 259 
 GUY2CHZ EP   1   1012 39.46                             107    0.55 6  245 233 
 GUY2CHN ES   4   1013 10.43                             107    3.90 0  245 233 
 GUY2CSZ I        1013 14.41         3.9 3.68                           245 233 
 SML  HZ EP   1   1012 38.97                             106   -0.31 6  253 348 
 SML  HN ES   4   1013 10.65                             106    3.47 0  253 348 
 SML  SZ I        1013 11.69         4.6 0.76            112            253 348 
 RREF HN ES   4   1013 15.57                             105    4.16 0  267 227 
                                                                                
