 2013  121 1050  9.2 L   6.787 -73.150149.3  RSN  8 0.4 1.9LRSN                1
 GAP=137        0.78       3.6     4.5  7.9 -0.4131E+00  0.2191E+01  0.7539E+01E
 Epicentro: LOS SANTOS - SANTANDER                                             3
 ACTION:UPD 13-02-15 09:15 OP:ep   STATUS:               ID:20130121105009 L   I
 2013-01-21-1050-00M.COL___241                                                 6
 STAT SP IPHASW D HRMM SECON CODA AMPLIT PERI AZIMU VELO AIN AR TRES W  DIS CAZ7
 BAR2 SZ EP   1   1050 29.27                             171    0.09 7 21.8 189 
 BRR  HZ EP   1   1050 31.11                             153    0.41 7 71.4 300 
 BRR  HN ES   1   1050 48.24                             153    0.74 7 71.4 300 
 BRR  HZ I        1050 49.85         8.9 0.12            150           71.4 300 
 PAM  SZ EP       1050 32.02                             151    0.1910 78.8  39 
 PAM  SN ES   1   1050 49.40                             151   -0.12 7 78.8  39 
 PAM  SZ I        1050 51.44        14.4 0.48            157           78.8  39 
 RUS  HZ EP   1   1050 33.11                             145   -0.05 7 99.2 176 
 RUS  HN ES   1   1050 51.49                             145   -0.39 7 99.2 176 
 RUS  HZ I        1050 52.96         6.8 0.26            145           99.2 176 
 PTB  HZ EP   1   1050 35.84                             133   -0.51 7  147 259 
 PTB  HN ES   1   1050 57.05                             133   -0.50 7  147 259 
 PTB  HZ I        1051  3.13        21.2 0.46            131            147 259 
 OCA  HN ES   1   1050 59.60                             130   -0.66 7  162 353 
 ZAR  HE ES   1   1051  7.53                             123    0.20 6  204 293 
 ZAR  HZ I        1051 14.59        11.3 0.50            123            204 293 
 CHI  HZ EP   1   1050 47.12                             118    0.23 6  247 195 
 CHI  HN ES   1   1051 16.52                             118    0.20 6  247 195 
 CHI  HZ I        1051 24.48         3.9 0.60            118            247 195 
                                                                                
