 2017 1221 1256 28.8 L   6.798 -73.135136.0  RSN  4 0.4 1.5LRSN                1
 GAP=154        0.90      10.4     7.4  7.5 -0.5771E+02  0.1758E+02 -0.2245E+01E
 Epicentro: LOS SANTOS - SANTANDER                                             3
 ACTION:UPD 18-01-04 13:22 OP:rebc STATUS:               ID:20171221125628 L   I
 OLDACT:DUP 17-12-21 22:28 OP:dhb  STATUS:               ID:20171221124348d    3
 OLDACT:REG 17-12-21 20:36 OP:dhb  STATUS:               ID:20171221124347     3
 2017-12-21-1248-00M.COL___460                                                 6
 STAT SP IPHASW D HRMM SECON CODA AMPLIT PERI AZIMU VELO AIN AR TRES W  DIS CAZ7
 BAR2 EZ EP       1256 46.93                             170   -0.3410 23.4 193 
 BAR2 EZ ES       1257  1.68                             170    0.0110 23.4 193 
 BAR2 EZ I        1257  2.76         9.0 0.26            173           23.4 193 
 PAM  EZ EP       1256 50.11                             149    0.1510 76.8  39 
 PAM  EE ES       1257  6.62                             149    0.1610 76.8  39 
 PAM  EZ I        1257  9.22         4.9 0.32            149           76.8  39 
 PTB  HZ EP       1256 54.43                             129   -0.68 9  149 259 
 PTB  HN ES       1257 15.79                             129    0.17 9  149 259 
 PTB  HZ I        1257 17.92         3.6 0.12            130            149 259 
 GUY2CHZ EP       1257 12.84                             110    0.75 7  302 235 
 GUY2CHN ES   1   1257 46.10                             110    0.26 5  302 235 
 GUY2CHZ I        1257 54.12         1.3 0.22                           302 235 
                                                                                
