 2017 1021 1901 25.1 L   6.644 -74.113 26.2  RSN  5 0.7 1.0LRSN                1
 GAP=134        1.77       7.1     5.4  9.3  0.1019E+02 -0.3054E+02 -0.1455E+02E
 Epicentro: PUERTO PARRA - SANTANDER                                           3
 ACTION:UPD 17-11-07 19:34 OP:rebc STATUS:               ID:20171021190125 L   I
 OLDACT:REG 17-10-21 21:09 OP:edw  STATUS:               ID:20171021184922     3
 2017-10-21-1858-00M.COL___456                                                 6
 STAT SP IPHASW D HRMM SECON CODA AMPLIT PERI AZIMU VELO AIN AR TRES W  DIS CAZ7
 PTB  HZ IP       19 1 32.51                             116   -0.1210 39.7 253 
 PTB  HN ES       19 1 38.34                             116   -0.1910 39.7 253 
 PTB  HZ I        19 1 38.49         7.8 0.18            114           39.7 253 
 BAR2 EZ ES       19 1 53.38                              61   -1.1310  103  93 
 ZAR  HN ES       19 1 59.09                              61    0.2410  125 319 
 RUS  HZ EP       19 1 48.05                              61    1.39 9  141 126 
 RUS  HN ES       19 2  3.85                              61    0.35 9  141 126 
 RUS  HZ I        19 2  7.42         2.4 0.20             56            141 126 
 NOR  HN ES       19 2  3.25                              61   -0.39 9  146 215 
                                                                                
