 2011 1121 1209 30.8 L   6.798 -73.100150.1  RSN  5 0.3 1.5LRSN                1
 GAP=142        0.63       4.5     5.6  6.7  0.2746E+01  0.1371E+01  0.3090E+00E
 Epicentro: LOS SANTOS - SANTANDER                                             3
 ACTION:UPD 12-07-13 16:11 OP:ep   STATUS:               ID:20111121120930 L   I
 2011-11-21-1208-23S.COL___178                                                 6
 STAT SP IPHASW D HRMM SECON CODA AMPLIT PERI AZIMU VELO AIN AR TRES W  DIS CAZ7
 BAR2 SZ EP   1   12 9 50.88                             170   -0.08 7 24.5 202 
 BAR2 SZ ES   1   1210  6.44                             170   -0.25 7 24.5 202 
 BAR2 SZ I        1210  8.57         9.5 0.28                          24.5 202 
 PAM  SZ EP   1   12 9 53.73                             152    0.43 7 74.5  36 
 PAM  SZ I        12 9 53.93         2.3 0.23                          74.5  36 
 PAM  SE ES   1   1210 10.56                             152   -0.29 7 74.5  36 
 BRR  HZ EP   1   12 9 52.50                             152   -0.16 7 75.8 297 
 BRR  HN ES   1   1210 10.23                             152    0.51 7 75.8 297 
 BRR  HZ I        1210 13.04        16.7 0.38                          75.8 297 
 RUS  HZ EP   1   12 9 54.87                             145   -0.06 7  100 179 
 RUS  HN ES   1   1210 13.88                             145    0.12 7  100 179 
 RUS  HZ I        1210 15.08         2.4 0.32                           100 179 
 ZAR  HE ES   2   1210 29.22                             123   -0.69 4  209 292 
 ZAR  HZ I        1210 35.40         5.6 0.31                           209 292 
                                                                                
