 2014  821 1726 19.8 L   6.808 -73.157146.4  RSN  6 0.4 1.6LRSN                1
 GAP=135        1.11       5.8     6.1  7.9 -0.9412E+00 -0.5261E+00 -0.1385E+01E
 Epicentro: LOS SANTOS - SANTANDER                                             3
 ACTION:UPD 14-09-15 21:51 OP:nd   STATUS:               ID:20140821172619 L   I
 OLDACT:DUP 14-08-22 00:25 OP:stll STATUS:               ID:20140821171820d    3
 2014-08-21-1718-19M.COL___265                                                 6
 STAT SP IPHASW D HRMM SECON CODA AMPLIT PERI AZIMU VELO AIN AR TRES W  DIS CAZ7
 BAR2 SZ EP       1726 38.87                             170   -0.6710 24.0 187 
 BAR2 SZ ES       1726 54.47                             170   -0.4510 24.0 187 
 BAR2 SZ I        1726 58.02        10.7 0.50            170           24.0 187 
 BRR  HZ EP       1726 41.23                             153    0.2710 69.7 298 
 BRR  HN ES       1726 58.03                             153    0.5910 69.7 298 
 PAM  SZ EP       1726 42.22                             151    0.1110 77.5  41 
 PAM  SZ I        1726 42.74         8.3 0.20            153           77.5  41 
 RUS  HZ EP       1726 44.04                             144    0.3410  102 175 
 RUS  HN ES       1727  2.46                             144    0.1310  102 175 
 RUS  HZ I        1727  3.69         4.2 0.42            144            102 175 
 PTB  HZ EP       1726 46.72                             132   -0.03 9  147 258 
 PTB  HN ES       1727  7.10                             132   -0.64 9  147 258 
 SPBC HZ EP       1726 48.12                             129   -0.24 9  163 218 
 SPBC HN ES       1727 11.17                             129    0.56 9  163 218 
 SPBC HZ I        1727 12.75         5.5 0.24            131            163 218 
                                                                                
