 2010 1021 1025 44.4 L   6.815 -73.170141.3  RSN 18 0.5 3.3LRSN                1
 GAP=156        0.82       3.3     6.3  6.4 -0.6213E+01  0.1204E+02  0.3824E+01E
 Epicentro: LOS SANTOS - SANTANDER                                             3
 ACTION:UP  11-02-18 11:11 OP:tino STATUS:               ID:20101021102544 L   I
 2010-10-21-1023-37S.COL___128                                                 6
 STAT SP IPHASW D HRMM SECON CODA AMPLIT PERI AZIMU VELO SNR AR TRES W  DIS CAZ7
 BTL  SZ EP   1   1026  3.77                             173     0.4 7   16 317 
 BAR2 SZ IP     D 1026  3.55                             170     0.010   25 184 
 BAR2 SZ ES   2   1026 17.70                             170    -0.7 5   25 184 
 BAR2 SZ I        1026 19.61       446.7 0.27                            25 184 
 GIR2 SZ EP   1   1026  3.64                             168     0.2 7   29 355 
 GIR2 SZ ES   2   1026 18.20                             168    -0.2 5   29 355 
 BRR  HZ EP   1   1026  5.36                             153     0.5 7   68 298 
 BRR  HN ES   2   1026 21.69                             153     0.8 5   68 298 
 BRR  HZ I        1026 25.97       315.8 0.32                            68 298 
 RUS  HZ EP   1   1026  7.60                             142    -0.2 7  102 175 
 RUS  HE ES   2   1026 25.82                             142    -0.3 5  102 175 
 RUS  HZ I        1026 28.11       298.9 0.30                           102 175 
 GUE  SZ EP   1   1026  8.76                             139     0.2 7  115  14 
 GRA  SZ IP     D 1026  9.27                             136     0.110  125  19 
 GRA  SZ ES   2   1026 28.31                             136    -0.2 5  125  19 
 GRA  SZ I        1026 31.55       243.7 0.43                           125  19 
 OCA  SZ EP   1   1026 11.87                             129    -0.3 7  158 354 
 OCA  SZ ES   2   1026 33.04                             129    -0.8 5  158 354 
 OCA  SZ I        1026 36.87       254.6 0.15                           158 354 
 NOR  SZ EP   1   1026 19.50                             118    -0.2 6  234 234 
 NOR  SE ES   2   1026 47.88                             118     0.6 4  234 234 
 CHI  HZ EP   1   1026 21.84                             116    -0.1 6  250 194 
 CHI  HN ES   2   1026 50.61                             116    -0.6 4  250 194 
 CHI  HZ I        1026 58.07        93.0 0.51                           250 194 
 ROSC BZ EP   1   1026 22.10                             116    -0.2 6  253 210 
 ROSC BE ES   2   1026 51.65                             116    -0.2 4  253 210 
 ROSC BZ I        1026 58.26       142.0 0.31                           253 210 
 HEL  HZ EP   1   1026 23.55                             114    -0.6 6  270 255 
 HEL  HZ I        1027  2.67       144.3 0.60                           270 255 
 CVER SZ EP   1   1026 25.26                             114     0.7 6  273 202 
 GUY  SZ EP   1   1026 28.78                             111     1.1 5  300 234 
 GUY  SZ I        1027 11.63       106.3 0.54                           300 234 
 VIL  SZ EP   1   1026 27.45                             111    -0.1 5  303 189 
 VIL  SN ES   2   1027  1.25                             111     0.0 4  303 189 
 DBB  SZ EP   1   1026 31.07                             109    -0.3 5  337 274 
 MON  HE ES   2   1027  9.25                             108    -1.3 3  350 308 
 MON  HZ I        1027 24.31        55.7 0.44                           350 308 
 PRA  HZ EP   1   1026 37.09                             106    -0.7 4  392 209 
 PRA  HN ES   2   1027 19.39                             106     0.0 3  392 209 
                                                                                
