 2013  421 1425 44.1 L   6.120 -73.752 97.8  RSN 12 0.5 2.5LRSN                1
 GAP=122        1.34       4.3     3.5  9.8 -0.5808E+01  0.9567E+01  0.1610E+01E
 Epicentro: BOLIVAR - SANTANDER                                                3
 ACTION:UPD 13-05-22 14:39 OP:EP   STATUS:               ID:20130421142544 L   I
 2013-04-21-1418-40M.COL___214                                                 6
 STAT SP IPHASW D HRMM SECON CODA AMPLIT PERI AZIMU VELO AIN AR TRES W  DIS CAZ7
 RUS  HZ EP       1426  1.57                             139   -0.0210 78.2 109 
 RUS  HN ES       1426 15.32                             139    0.1110 78.2 109 
 BAR2 SZ EP       1426  1.70                             137    0.1710 81.9  50 
 BAR2 SZ ES       1426 15.10                             137   -0.0210 81.9  50 
 BAR2 SZ I        1426 16.73       101.4 0.28            142           81.9  50 
 PTB  HZ IP     D 1426  0.75                             134   -1.2410 90.7 301 
 BRR  HZ IP     D 1426  3.26                             128   -0.4410  109   2 
 BRR  HE ES       1426 19.36                             128    0.3910  109   2 
 BRR  HN I        1426 22.46        66.5 0.14            130            109   2 
 GIR2 SZ EP       1426  5.38                             125    0.1610  123  30 
 NOR  HZ EP       1426  6.03                             121   -0.67 9  138 244 
 NOR  HN ES       1426 24.42                             121    0.10 9  138 244 
 NOR  HN I        1426 28.29       206.0 0.14            123            138 244 
 YOP  SZ EP       1426 10.94                             116    0.70 9  170 120 
 PAM  SN ES       1426 32.30                             115   -0.78 9  178  41 
 HEL  HZ EP       1426 14.02                             112    0.44 9  197 272 
 HEL  HN ES       1426 37.38                             112    0.81 9  197 272 
 HEL  HN I        1426 43.29        13.7 0.28            113            197 272 
 GUY  HZ EP       1426 14.75                             111   -0.11 8  207 241 
 GUY  HN ES       1426 38.92                             111    0.08 8  207 241 
 GUY  HN I        1426 44.37        14.6 0.36            112            207 241 
 TAM  HZ EP       1426 15.84                             110    0.01 8  220  81 
 OCA  HN ES       1426 45.70                             108    0.86 8  239  12 
 OCA  HN I        1426 47.35        35.7 0.38            109            239  12 
                                                                                
