 2016  821 1919 56.6 L   6.810 -73.115143.1  RSN 14 0.4 2.3LRSN                1
 GAP=102        0.86       3.2     2.8  4.5 -0.7343E+00  0.3921E+01  0.2870E+01E
 Epicentro: LOS SANTOS - SANTANDER                                             3
 ACTION:UPD 16-10-29 15:37 OP:rebc STATUS:               ID:20160821191956 L   I
 OLDACT:UP  16-09-01 10:14 OP:ak   STATUS:               ID:20160821191956 L   3
 OLDACT:UP  16-08-22 01:06 OP:ar   STATUS:               ID:20160821191741     3
 OLDACT:UP  16-08-22 00:57 OP:ar   STATUS:               ID:20160821191741     3
 OLDACT:REG 16-08-21 22:17 OP:ar   STATUS:               ID:20160821191741     3
 2016-08-21-1917-41M.COL___346                                                 6
 STAT SP IPHASW D HRMM SECON CODA AMPLIT PERI AZIMU VELO AIN AR TRES W  DIS CAZ7
 BAR2 EZ EP       1920 15.44                             170   -0.4910 25.2 197 
 BAR2 EZ ES       1920 30.72                             170   -0.3010 25.2 197 
 BAR2 EZ I        1920 32.13        26.6 0.00                          25.2 197 
 BRR  HZ IP       1920 17.18                             151   -0.4010 73.7 297 
 BRR  HN ES       1920 34.19                             151    0.2210 73.7 297 
 BRR  HZ I        1920 34.63        24.0 0.13                          73.7 297 
 PAM  EZ EP       1920 18.30                             151   -0.0310 74.4  38 
 PAM  EN ES       1920 35.33                             151    0.0310 74.4  38 
 PAM  EZ I        1920 37.45        26.5 0.62                          74.4  38 
 RUS  HZ EP       1920 19.83                             143   -0.3010  102 178 
 RUS  HN ES       1920 38.84                             143    0.3310  102 178 
 RUS  HZ I        1920 40.39        20.2 0.30                           102 178 
 TAM  HZ EP       1920 23.90                             130    0.13 9  152 106 
 TAM  HN ES       1920 45.50                             130    0.52 9  152 106 
 ZAR  HZ EP       1920 29.32                             121    0.19 8  207 292 
 ZAR  HN ES   4   1920 53.39                             121   -1.14 0  207 292 
 ZAR  HZ I        1920 59.88        18.0 0.36                           207 292 
 NOR  HZ EP       1920 32.29                             117   -0.23 8  238 235 
 NOR  HN ES       1921  0.50                             117   -0.05 8  238 235 
 NOR  HZ I        1921  7.11        16.4 0.18                           238 235 
 CHI  HZ EP       1920 34.04                             116   -0.30 8  251 196 
 CHI  HN ES       1921  3.67                             116   -0.13 8  251 196 
 CHI  HZ I        1921  8.38         5.7 0.22                           251 196 
 HEL  HZ EP       1920 37.93                             114    0.88 7  276 256 
 HEL  HN ES       1921  8.54                             114   -0.08 7  276 256 
 HEL  HZ I        1921 14.09        12.7 0.40                           276 256 
 URE  HZ EP       1920 37.98                             113    0.16 7  287 291 
 URE  HN ES   4   1921  7.22                             113   -2.78 0  287 291 
 URE  HZ I        1921 20.39         9.9 0.16                           287 291 
 GUY2CHZ EP   9   1920 42.77                             111    2.33 0  305 235 
 GUY2CHZ I        1921 23.66        14.8 0.44                           305 235 
 VIL  HZ EP       1920 39.64                             111   -0.43 7  305 192 
 VIL  EN ES   4   1921  1.61                             111   -12.4 0  305 192 
 VIL  HZ I        1921 23.08        11.6 0.30                           305 192 
 PTGC HZ EP   4   1920 46.07                             111    5.78 0  309 159 
 PTGC HZ I        1921  4.48        25.0 0.24                           309 159 
 ELA  HZ EP   4   1920 46.69                             110    3.00 0  332 230 
 ELA  HN ES       1921 21.24                             110    0.80 7  332 230 
 ELA  HZ I        1921 31.48         6.3 0.74                           332 230 
                                                                                
