 2016  321 1822 39.8 L   6.732 -73.180138.8  RSN  4 0.1 1.3LRSN                1
 GAP=272        0.34       6.7     2.8  6.1  0.5638E+01 -0.1224E+01 -0.1200E+02E
 Epicentro: VILLANUEVA - SANTANDER                                             3
 ACTION:UPD 16-05-13 21:26 OP:cam  STATUS:               ID:20160321182239 L   I
 OLDACT:REG 16-03-21 21:26 OP:dnl  STATUS:               ID:20160321181746     3
 2016-03-21-1817-46M.COL___307                                                 6
 STAT SP IPHASW D HRMM SECON CODA AMPLIT PERI AZIMU VELO AIN AR TRES W  DIS CAZ7
 BAR2 EZ EP       1822 58.49                             173    0.0110 15.4 181 
 BAR2 EZ ES   2   1823 12.98                             173   -0.04 5 15.4 181 
 RUS  HZ EP   2   1823  2.55                             144    0.18 5 93.4 173 
 RUS  HN ES   2   1823 19.85                             144   -0.11 5 93.4 173 
 RUS  HZ I        1823 22.28         1.9 0.19            148           93.4 173 
 PTB  HZ EP   2   1823  5.50                             131   -0.26 5  143 262 
 PTB  HE ES       1823 26.04                             131    0.04 9  143 262 
 PTB  HZ I        1823 33.45         2.2 0.16            131            143 262 
 ZAR  HZ EP   4   1823 12.98                             121    1.21 0  204 295 
 ZAR  HN ES   4   1823 34.40                             121   -2.29 0  204 295 
 ZAR  HZ I        1823 42.55         4.1 0.42            121            204 295 
                                                                                
