 2012  521 1028  0.3 L   5.968 -73.850 98.6  RSN  4 0.4 1.0LRSN                1
 GAP=153        0.76       6.1     3.4 10.5  0.2662E+01  0.1141E+02  0.1518E+02E
 Epicentro: SUCRE - SANTANDER                                                  3
 ACTION:UP  12-07-05 12:07 OP:pat  STATUS:               ID:20120521102800 L   I
 2012-05-21-1020-00S.COL___200                                                 6
 STAT SP IPHASW D HRMM SECON CODA AMPLIT PERI AZIMU VELO SNR AR TRES W  DIS CAZ7
 RUS  HZ EP       1028 18.34                             137    -0.110   85  96 
 RUS  HZ I        1028 18.39         4.1 0.32                            85  96 
 RUS  HN ES       1028 32.38                             137    -0.210   85  96 
 PTB  HZ EP   1   1028 18.43                             134     0.1 7   92 313 
 PTB  HN ES   1   1028 32.03                             134    -0.4 7   92 313 
 PTB  HZ I        1028 36.01         1.5 0.16                            92 313 
 BAR2 SZ EP   1   1028 19.52                             131     0.1 7  101  47 
 BAR2 SZ ES   1   1028 34.91                             131     0.5 7  101  47 
 NOR  SZ EP   1   1028 20.96                             125    -0.2 7  121 248 
 NOR  SN ES   2   1028 38.42                             125     0.9 5  121 248 
                                                                                
