 2012  521 1630 38.2 L   6.769 -73.171142.4  RSN  6 0.3 1.5LRSN                1
 GAP=232        0.74       5.8     5.5  7.2  0.1219E+02  0.1244E+02  0.7354E+01E
 Epicentro: LOS SANTOS - SANTANDER                                             3
 ACTION:UP  12-07-05 12:07 OP:pat  STATUS:               ID:20120521163038 L   I
 2012-05-21-1630-00M.COL___200                                                 6
 STAT SP IPHASW D HRMM SECON CODA AMPLIT PERI AZIMU VELO SNR AR TRES W  DIS CAZ7
 BAR2 SZ EP   1   1630 57.32                             172    -0.1 7   20 184 
 BAR2 SZ ES   1   1631 12.00                             172    -0.3 7   20 184 
 BAR2 SZ I        1631 13.31         7.7 0.30                            20 184 
 BRR  HZ EP   1   1630 58.98                             152     0.0 7   71 302 
 BRR  HN ES   1   1631 15.77                             152     0.6 7   71 302 
 BRR  HZ I        1631 19.61         8.9 0.23                            71 302 
 RUS  HZ EP   1   1631  1.63                             144     0.2 7   97 174 
 RUS  HN ES   1   1631 19.47                             144     0.0 7   97 174 
 RUS  HZ I        1631 21.74         3.7 0.26                            97 174 
 PTB  HZ EP   1   1631  4.07                             132    -0.5 7  144 260 
 PTB  HN ES   1   1631 25.01                             132    -0.2 7  144 260 
 PTB  HZ I        1631 27.36         3.2 0.16                           144 260 
 ZAR  HE ES   1   1631 35.13                             122    -0.2 6  203 293 
 NOR  SZ EP   1   1631 13.80                             118     0.5 6  230 235 
 NOR  SN ES   1   1631 40.82                             118     0.2 6  230 235 
                                                                                
