 2016 1021 1644 11.3 L   6.836 -73.123151.5  RSN 11 0.5 2.1LRSN                1
 GAP=138        1.24       4.7     5.8  6.6 -0.7483E+01  0.7981E+01  0.6103E+01E
 Epicentro: LOS SANTOS - SANTANDER                                             3
 ACTION:UPD 16-11-09 19:21 OP:rebc STATUS:               ID:20161021164411 L   I
 OLDACT:UP  16-10-21 23:32 OP:ar   STATUS:               ID:20161021163746     3
 OLDACT:REG 16-10-21 22:13 OP:ar   STATUS:               ID:20161021163746     3
 2016-10-21-1638-00M.COL___358                                                 6
 STAT SP IPHASW D HRMM SECON CODA AMPLIT PERI AZIMU VELO AIN AR TRES W  DIS CAZ7
 BAR2 EZ EP       1644 31.59                             169   -0.1010 27.7 194 
 BAR2 EZ ES       1644 47.66                             169    0.0510 27.7 194 
 BAR2 EZ I        1644 49.99        20.9 0.54            168           27.7 194 
 BRR  HZ EP       1644 33.60                             153    0.5310 71.7 295 
 BRR  HN ES       1644 50.92                             153    0.8410 71.7 295 
 BRR  HZ I        1644 55.50        22.2 0.32            151           71.7 295 
 PAM  EZ EP       1644 34.42                             153    0.5810 72.7  40 
 PAM  EN ES       1644 51.28                             153   -0.1610 72.7  40 
 PAM  EZ I        1644 53.97        16.1 0.26            158           72.7  40 
 RUS  HZ EP       1644 35.49                             144   -0.3810  104 178 
 RUS  HN ES       1644 54.40                             144   -0.6510  104 178 
 RUS  HZ I        1644 54.95         9.6 0.32            146            104 178 
 PTB  HZ EP       1644 39.01                             133   -0.00 9  151 258 
 PTB  HN ES       1644 59.79                             133   -0.86 9  151 258 
 PTB  HZ I        1645  7.14        15.9 0.48            133            151 258 
 SPBC HZ EP       1644 40.57                             130   -0.09 9  168 219 
 SPBC HN ES       1645  3.50                             130   -0.08 9  168 219 
 SPBC HZ I        1645  9.62        23.3 0.20            131            168 219 
 NOR  HZ EP       1644 47.34                             119   -0.47 8  239 234 
 NOR  HE ES       1645 16.17                             119   -0.14 8  239 234 
 NOR  HZ I        1645 19.15        13.1 0.18            120            239 234 
 CHI  HZ EP       1644 49.62                             118   -0.16 8  253 195 
 CHI  HE ES       1645 20.64                             118    0.82 8  253 195 
 CHI  HZ I        1645 24.64         5.3 0.48            120            253 195 
 GUY2CHZ EP       1644 56.51                             113    0.87 7  306 234 
 GUY2CHE ES   4   1645 33.02                             113    2.77 0  306 234 
 GUY2CHZ I        1645 38.21         7.4 0.44                           306 234 
 PRA  HZ EP       1645  5.99                             107    0.44 6  397 210 
 PRA  HN ES       1645 47.83                             107   -0.05 6  397 210 
 PRA  HZ I        1645 53.02         6.3 0.60            109            397 210 
 SJC  HZ EP       1645  5.49                             107   -1.31 6  407 326 
 SJC  HN ES   4   1645 47.01                             107   -3.11 0  407 326 
 SJC  HZ I        1645 51.38         3.7 0.50            108            407 326 
                                                                                
