 2017  221 1122 35.2 L   6.777 -73.167144.7  RSN 16 0.6 3.0LRSN 3.6WRSN        1
 SPEC AVERAGE  MO 14.5 ST0.197 OM  3.0 f0 1.00 R1.9893 AL 0.00 WI 30.0 MW  3.6 3
 SPEC SD       MO  0.1 ST0.116 OM  0.7 f00.197 R0.3582 AL      WI      MW  0.1 3
 GAP= 64        1.52       4.1     4.4  7.1  0.1159E+00  0.4020E+01  0.3523E+01E
 Epicentro: LOS SANTOS - SANTANDER                                             3
 SPEC RUS HH Z MO 14.5 ST0.396 OM  2.5 f0 1.31 R1.4687 AL-0.00 WI 30.0 MW  3.6 3
 SPEC RUS HH Z T112315 K 0.000 GD  174 VS 5.20 DE 3.50 Q0750.0 QA 1.50 VS 5.20 3
 SPEC CHI HH Z MO 14.3 ST0.125 OM  2.1 f0 1.03 R1.8680 AL-0.00 WI 30.0 MW  3.5 3
 SPEC CHI HH Z T112340 K 0.000 GD  285 VS 5.20 DE 3.50 Q0750.0 QA 1.50 VS 5.20 3
 SPEC ROSCBH Z MO 14.6 ST0.153 OM  2.4 f00.872 R2.2064 AL-0.00 WI 30.0 MW  3.7 3
 SPEC ROSCBH Z T112342 K 0.000 GD  287 VS 5.20 DE 3.50 Q0750.0 QA 1.50 VS 5.20 3
 SPEC ELA HH Z MO 14.6 ST0.115 OM  2.3 f00.797 R2.4141 AL-0.00 WI 30.0 MW  3.7 3
 SPEC ELA HH Z T112355 K 0.000 GD  356 VS 5.20 DE 3.50 Q0750.0 QA 1.50 VS 5.20 3
 OLDACT:UP  17-02-21 22:30 OP:cog  STATUS:               ID:20170221111739     3
 OLDACT:UP  17-02-21 22:29 OP:cog  STATUS:               ID:20170221111739     3
 OLDACT:UP  17-02-21 22:28 OP:cog  STATUS:               ID:20170221111739     3
 OLDACT:REG 17-02-21 20:41 OP:cog  STATUS:               ID:20170221111739     3
 ACTION:UPD 17-05-24 15:38 OP:jn   STATUS:               ID:20170221112235 L   I
 OLDACT:UP  17-02-21 22:30 OP:cog  STATUS:               ID:20170221111739     3
 2017-02-21-1118-00M.COL___373                                                 6
 STAT SP IPHASW D HRMM SECON CODA AMPLIT PERI AZIMU VELO AIN AR TRES W  DIS CAZ7
 BAR2 EZ EP       1122 54.49                             171   -0.2010 20.5 185 
 BAR2 EZ ES       1123  9.75                             171   -0.1110 20.5 185 
 BAR2 EZ I        1123 12.34       247.9 0.32            169           20.5 185 
 BRR  HZ EP       1122 56.32                             153    0.0910 70.4 301 
 BRR  HN ES       1123 13.45                             153    0.8410 70.4 301 
 BRR  HZ I        1123 17.44       139.9 0.28            150           70.4 301 
 PAM  EZ EP       1122 57.35                             150   -0.2110 80.9  40 
 PAM  EE ES       1123 14.69                             150   -0.2710 80.9  40 
 PAM  EZ I        1123 16.71       256.1 0.50            153           80.9  40 
 RUS  HZ EP       1122 58.47                             144   -0.2610 98.2 175 
 RUS  HN ES       1123 17.28                             144    0.2410 98.2 175 
 RUS  HZ I        1123 18.42       142.8 0.36            145           98.2 175 
 PTB  HZ EP       1123  1.01                             132   -0.86 9  145 260 
 PTB  HN ES       1123 22.30                             132   -0.34 9  145 260 
 PTB  HZ I        1123 27.41        89.0 0.12            131            145 260 
 TAM  HZ EP       1123  2.91                             130   -0.09 9  157 104 
 TAM  HE ES       1123 24.72                             130    0.08 9  157 104 
 TAM  HZ I        1123 26.10        37.1 0.44            133            157 104 
 ZAR  HZ EP       1123  7.04                             122   -0.46 9  203 293 
 ZAR  HN ES       1123 31.92                             122   -0.73 9  203 293 
 ZAR  HZ I        1123 38.25       111.9 0.26            122            203 293 
 NOR  HZ EP       1123 10.58                             119    0.03 8  231 235 
 NOR  HN ES       1123 38.83                             119    0.75 8  231 235 
 NOR  HZ I        1123 44.15        71.3 0.22            118            231 235 
 CHI  HZ EP       1123 12.57                             117    0.02 8  246 195 
 CHI  HN ES       1123 42.14                             117    0.49 8  246 195 
 CHI  HZ I        1123 47.95        43.8 0.64            117            246 195 
 ROSC BZ EP   9   1123 14.40                             117    1.46 0  249 211 
 ROSC BN ES       1123 43.83                             117    0.03 8  249 211 
 ROSC BZ I        1123 49.20       105.1 0.40            117            249 211 
 HEL  HZ EP       1123 15.14                             115    0.06 8  269 256 
 HEL  HN ES   3   1123 45.69                             115   -0.46 2  269 256 
 HEL  HZ I        1123 53.31        45.9 0.46            114            269 256 
 VIL  EZ EP       1123 17.67                             112   -0.61 7  300 191 
 VIL  EN ES       1123 52.88                             112    1.03 7  300 191 
 VIL  EZ I        1123 55.69        53.1 0.38            112            300 191 
 PTGC HZ EP       1123 17.80                             112   -1.09 7  307 158 
 PTGC HN ES   4   1123 49.98                             112   -2.95 0  307 158 
 PTGC HZ I        1123 53.55        53.0 0.38            112            307 158 
 LL1C HZ EP       1123 19.82                             111    0.78 7  309 352 
 LL1C HN ES       1123 55.03                             111    1.83 7  309 352 
 LL1C HZ I        1124  2.49       144.9 0.70            112            309 352 
 ELA  HZ EP   4   1123 23.87                             110    2.21 0  326 230 
 ELA  HN ES   3   1123 57.45                             110   -0.40 2  326 230 
 ELA  HZ I        1124  9.50        26.6 0.34            110            326 230 
 LL6C HN EP   9   1123  1.26                             110   -19.9 0  327 358 
 LL6C HN ES       1123 34.77                             115   -2.32 7  327 358 
                                                                                
