 2011  621 1505 27.0 L   6.770 -73.083146.7  RSN 17 0.4 2.5LRSN                1
 GAP=146        0.86       4.1     6.1  5.1 -0.1001E+02  0.2574E+01  0.6941E+01E
 Epicentro: LOS SANTOS - SANTANDER                                             3
 ACTION:UP  11-07-14 19:07 OP:ep   STATUS:               ID:20110621150527 L   I
 2011-06-21-1504-24S.COL___140                                                 6
 STAT SP IPHASW D HRMM SECON CODA AMPLIT PERI AZIMU VELO SNR AR TRES W  DIS CAZ7
 BAR2 SZ IP       15 5 46.71                             171     0.010   22 209 
 BAR2 SZ ES   1   15 6  1.63                             171    -0.4 7   22 209 
 BAR2 SZ I        15 6  3.80        65.8 0.49                            22 209 
 BTL  SZ ES   1   15 6  1.98                             169    -0.2 7   26 309 
 GIR2 SZ ES   2   15 6  2.49                             165     0.1 5   36 340 
 PAM  SZ EP   3   15 5 49.58                             151     0.4 2   76  34 
 PAM  SN ES   3   15 6  6.57                             151     0.0 2   76  34 
 BRR  HZ IP     C 15 5 48.61                             150     0.010   79 298 
 BRR  HN ES   1   15 6  6.16                             150     0.6 7   79 298 
 BRR  HZ I        15 6  9.32        62.9 0.14                            79 298 
 RUS  HZ EP       15 5 50.71                             145     0.210   97 180 
 RUS  HZ I        15 6 11.05        36.6 0.24                            97 180 
 BRI  SZ EP       15 5 51.27                             141     0.310  109  17 
 GRA  SZ IP       15 5 52.48                             137     0.110  127  14 
 GRA  SZ ES   1   15 6 12.17                             137    -0.1 7  127  14 
 GRA  SZ I        15 6 17.03        30.4 0.32                           127  14 
 OCA  SZ EP       15 5 55.49                             129    -0.3 9  165 351 
 OCA  SZ ES   3   15 6 16.65                             129    -1.5 2  165 351 
 OCA  SZ I        15 6 21.95        34.8 0.43                           165 351 
 NOR  SZ EP       15 6  2.45                             118    -0.7 8  238 236 
 NOR  SN ES   3   15 6 31.39                             118     0.0 2  238 236 
 CHI  HZ EP       15 6  4.80                             117     0.2 8  247 197 
 CHI  HN ES   3   15 6 34.47                             117     0.6 2  247 197 
 CHI  HZ I        15 6 39.39        18.7 0.30                           247 197 
 HEL  HZ EP       15 6  7.90                             114     0.0 7  278 257 
 HEL  HN ES   2   15 6 39.45                             114    -0.3 4  278 257 
 HEL  HZ I        15 6 44.87        14.5 0.25                           278 257 
 RREF HZ EP       15 6 14.29                             111     0.8 7  325 231 
 RREF HZ I        15 6 57.60        18.9 0.21                           325 231 
 TOL  SZ EP       15 6 16.00                             109     0.5 6  346 226 
 DBB  SZ EP   2   15 6 14.86                             109    -0.4 3  347 275 
 PRA  HZ EP       15 6 20.51                             107    -0.1 6  393 211 
 PRA  HZ I        15 7  5.37        26.3 0.23                           393 211 
 SJA  SZ EP       15 6 20.32                             106    -1.0 6  398 194 
 SJA  SZ I        15 7 13.62        17.7 0.85                           398 194 
                                                                                
