 2012  521 1314 47.3 L   6.335 -73.155180.0  RSN 18 0.4 3.5LRSN 3.8WRSN        1
 SPEC AVERAGE  MO 14.7 ST 42.3 OM 65.7 f0 3.58 R  0.42 AL 2.79 WI 14.6 MW  3.8 3
 GAP=126        0.87       3.8     4.7  5.7 -0.6065E+01  0.7566E+01 -0.5672E+00E
 Epicentro: OCAMONTE - SANTANDER                                               3
 SPEC RUS HH Z MO 14.8 ST 36.6 OM  2.4 f0 3.37 R0.4362 AL 2.94 WI 17.9 MW  3.8 3
 SPEC RUS HH Z T131511 K 0.020 GD  186 VP 7.60 DE 3.20 Q0230.0 QA 0.60 VS 4.20 3
 SPEC ROSCBH N MO 15.1 ST 65.1 OM  3.3 f0 3.25 R0.4523 AL 3.06 WI 17.4 MW  4.0 3
 SPEC ROSCBH N T131549 K 0.020 GD  276 VS 4.20 DE 3.20 Q0230.0 QA 0.60 VS 4.20 3
 SPEC CHI HH N MO 14.3 ST 11.2 OM  2.5 f0 3.37 R0.4362 AL 2.40 WI  8.0 MW  3.5 3
 SPEC CHI HH N T131548 K 0.020 GD  268 VS 4.20 DE 3.20 Q0230.0 QA 0.60 VS 4.20 3
 SPEC HEL HH E MO 14.7 ST 56.1 OM  2.8 f0 4.33 R0.3395 AL 2.78 WI 15.1 MW  3.7 3
 SPEC HEL HH E T131558 K 0.020 GD  318 VS 4.20 DE 3.20 Q0230.0 QA 0.60 VS 4.20 3
 ACTION:UP  12-07-05 12:07 OP:pat  STATUS:               ID:20120521131447 L   I
 2012-05-21-1309-59S.COL___210                                                 6
 STAT SP IPHASW D HRMM SECON CODA AMPLIT PERI AZIMU VELO SNR AR TRES W  DIS CAZ7
 BAR2 SZ IP       1315 11.21                             171     0.110   29 354 
 BAR2 SZ ES   1   1315 29.68                             171    -0.1 7   29 354 
 BAR2 SZ I        1315 32.16       697.8 0.31                            29 354 
 RUS  HZ IP     C 1315 12.23                             164     0.210   50 171 
 RUS  HN ES   1   1315 31.19                             164    -0.2 7   50 171 
 RUS  HZ I        1315 34.38       460.6 0.46                            50 171 
 BRR  HZ EP   1   1315 14.82                             148     0.7 7  105 324 
 BRR  HZ I        1315 39.86       380.3 0.19                           105 324 
 PAM  SZ EP   1   1315 16.21                             145     0.3 7  122  24 
 PAM  SN ES   1   1315 38.17                             145    -0.1 7  122  24 
 PTB  HZ EP       1315 16.76                             139    -0.3 9  146 279 
 PTB  HN ES   1   1315 40.54                             139     0.3 7  146 279 
 CHI  HZ EP   1   1315 22.18                             130    -0.1 6  199 199 
 CHI  HZ I        1315 22.69       243.2 0.28                           199 199 
 CHI  HN ES   1   1315 49.02                             130    -0.5 6  199 199 
 NOR  SZ EP   1   1315 23.03                             129     0.4 6  208 246 
 NOR  SE ES   1   1315 50.18                             129     0.0 6  208 246 
 ROSC BZ EP   1   1315 24.19                             129     1.0 6  210 218 
 ROSC BN ES   2   1315 51.02                             129    -0.2 4  210 218 
 OCA  HZ EP   1   1315 22.68                             128    -0.4 6  211 355 
 OCA  HN ES   1   1315 51.09                             128     0.1 6  211 355 
 ZAR  HZ EP   1   1315 24.17                             126    -0.3 6  228 304 
 ZAR  HZ I        1316  0.10       187.3 0.40                           228 304 
 HEL  HZ EP   1   1315 28.70                             122     0.2 6  263 267 
 HEL  HE ES   1   1315 59.89                             122    -0.8 6  263 267 
 HEL  HZ I        1316  4.48       185.4 0.30                           263 267 
 GUY  SZ EP   1   1315 30.20                             121     0.2 6  276 244 
 GUY  SZ I        1316 12.75       211.6 0.40                           276 244 
 RREF HZ EP   1   1315 31.68                             119     0.0 5  290 237 
 RREF HZ I        1316 12.50        83.4 0.24                           290 237 
 URE  HZ EP   1   1315 31.61                             118    -1.0 5  306 301 
 URE  HZ I        1316  9.60       217.5 0.14                           306 301 
 DBB  SZ EP   1   1315 37.72                             115     0.7 5  346 283 
 PRA  HZ EP   1   1315 36.87                             114    -0.3 5  348 214 
 SDV  BZ EP   1   1315 41.79                             111    -1.0 4  396  45 
 HORQ SZ EP   1   1315 54.21                             107    -0.4 3  497 231 
                                                                                
