 2014 1221 1456 32.5 L   6.818 -73.164140.6  RSN 15 0.4 2.2LRSN                1
 GAP=133        1.00       2.3     3.5  4.8 -0.1428E+01  0.4940E+01  0.8927E+00E
 Epicentro: LOS SANTOS - SANTANDER                                             3
 ACTION:UPD 15-02-10 17:06 OP:nd   STATUS:               ID:20141221145632 L   I
 OLDACT:REG 14-12-21 21:51 OP:fm   STATUS:               ID:20141221144748     3
 2014-12-21-1447-48M.COL___290                                                 6
 STAT SP IPHASW D HRMM SECON CODA AMPLIT PERI AZIMU VELO AIN AR TRES W  DIS CAZ7
 BAR2 EZ EP       1456 51.69                             169    0.1210 25.1 185 
 BAR2 EZ ES       1457  6.41                             169   -0.0210 25.1 185 
 BAR2 EZ I        1457  9.38        36.6 0.28            168           25.1 185 
 BRR  HZ EP       1456 53.41                             153    0.4510 68.4 298 
 BRR  HN ES       1457  9.48                             153    0.5810 68.4 298 
 BRR  HZ I        1457 17.80        18.1 0.40            149           68.4 298 
 PAM  SZ EP     C 1456 54.41                             150    0.2310 77.2  42 
 PAM  SE ES       1457 11.39                             150    0.3210 77.2  42 
 PAM  SZ I        1457 13.82        24.8 0.46            156           77.2  42 
 RUS  HZ EP       1456 55.58                             142   -0.3510  103 175 
 RUS  HE ES       1457 14.04                             142   -0.1510  103 175 
 RUS  HZ I        1457 15.47        11.8 0.44            147            103 175 
 PTB  HZ EP       1456 58.74                             131   -0.18 9  146 258 
 PTB  HN ES       1457 18.93                             131   -0.59 9  146 258 
 PTB  HZ I        1457 23.15        13.9 0.36            131            146 258 
 OCA  HZ EP       1456 59.73                             129   -0.49 9  158 354 
 OCA  HE ES       1457 21.48                             129   -0.35 9  158 354 
 OCA  HZ I        1457 30.25        17.3 0.20            131            158 354 
 SPBC HZ EP       1457  0.70                             128    0.04 9  163 218 
 SPBC HE ES       1457 22.71                             128    0.11 9  163 218 
 SPBC HZ I        1457 29.72        27.2 0.24            130            163 218 
 ZAR  HZ EP       1457  4.91                             122    0.55 9  201 292 
 ZAR  HE ES       1457 28.84                             122   -0.35 9  201 292 
 ZAR  HZ I        1457 40.63        17.1 0.34            123            201 292 
 NOR  HZ EP       1457  7.70                             117   -0.20 8  234 234 
 NOR  HN ES       1457 35.86                             117    0.36 8  234 234 
 NOR  HZ I        1457 39.36        12.9 0.34            119            234 234 
 SML  HZ EP       1457  8.63                             117    0.06 8  241 336 
 SML  HE ES       1457 36.12                             117   -0.57 8  241 336 
 SML  HZ I        1457 40.22        29.9 0.26            119            241 336 
 CHI  HZ EP       1457  9.73                             116   -0.36 8  250 195 
 CHI  HN ES       1457 38.39                             116   -1.01 8  250 195 
 CHI  HZ I        1457 45.11         4.9 0.44            119            250 195 
 ROSC BZ EP       1457 10.77                             116    0.33 8  253 210 
 ROSC BE ES       1457 40.23                             116    0.22 8  253 210 
 ROSC BZ I        1457 47.75        18.1 0.45            118            253 210 
 HEL  HZ EP       1457 13.14                             114    0.83 8  271 255 
 HEL  HE ES       1457 42.91                             114   -0.43 8  271 255 
 HEL  HZ I        1457 50.42         7.0 0.36            116            271 255 
 URE  HE ES   4   1457 41.50                             113   -3.15 0  281 292 
 URE  HZ I        1457 55.83         9.0 0.24            114            281 292 
 TOL  SZ EP       1457 21.04                             108    0.47 7  343 224 
 TOL  SN ES       1457 58.54                             108    0.49 7  343 224 
 TOL  SZ I        1458  5.71        21.0 0.38            111            343 224 
                                                                                
