 2017  521 1751 42.5 L   6.807 -73.142144.9  RSN 11 0.6 2.6LRSN                1
 GAP=214        1.28       5.1     5.6  7.8  0.1404E+02  0.3728E+01  0.6773E+01E
 Epicentro: LOS SANTOS - SANTANDER                                             3
 ACTION:UPD 17-06-16 13:37 OP:jn   STATUS:               ID:20170521175142 L   I
 OLDACT:UP  17-05-21 23:29 OP:cog  STATUS:               ID:20170521174326     3
 OLDACT:REG 17-05-21 21:53 OP:cog  STATUS:               ID:20170521174326     3
 2017-05-21-1748-00M.COL___359                                                 6
 STAT SP IPHASW D HRMM SECON CODA AMPLIT PERI AZIMU VELO AIN AR TRES W  DIS CAZ7
 BRR  HZ EP       1752  3.71                             152    0.2010 71.2 298 
 BRR  HN ES       1752 20.94                             152    1.0110 71.2 298 
 BRR  HZ I        1752 23.90        58.9 0.30            146           71.2 298 
 RUS  HZ EP       1752  5.93                             144   -0.2410  101 176 
 RUS  HN ES       1752 24.61                             144   -0.0610  101 176 
 RUS  HZ I        1752 25.68        40.5 0.16            140            101 176 
 PTB  HZ EP       1752  8.50                             132   -0.90 9  148 259 
 PTB  HN ES       1752 29.82                             132   -0.60 9  148 259 
 PTB  HZ I        1752 36.70        49.6 0.28            126            148 259 
 SPBC HZ EP       1752 11.13                             129    0.16 9  164 219 
 SPBC HE ES       1752 33.04                             129   -0.16 9  164 219 
 SPBC HZ I        1752 37.96        58.9 0.26            124            164 219 
 YPLC HZ EP       1752 12.34                             126    0.11 9  177 152 
 YPLC HN ES       1752 35.23                             126   -0.22 9  177 152 
 YPLC HZ I        1752 39.10        22.9 0.28            124            177 152 
 ZAR  HZ EP       1752 14.84                             122   -0.01 9  204 292 
 ZAR  HN ES       1752 39.25                             122   -0.87 9  204 292 
 ZAR  HZ I        1752 46.19        44.5 0.32            118            204 292 
 NOR  HN EP       1752 18.17                             118   -0.05 8  235 234 
 NOR  HN I        1752 53.76        59.7 0.18            114            235 234 
 CHI  HZ EP       1752 20.12                             117   -0.07 8  249 195 
 CHI  HN ES       1752 49.47                             117   -0.16 8  249 195 
 CHI  HZ I        1752 51.82        32.3 0.38            113            249 195 
 ROSC BZ EP   4   1752 16.76                             116   -3.86 0  254 211 
 ROSC BN ES   4   1752 52.95                             116    2.56 0  254 211 
 HEL  HZ EP       1752 24.12                             115    1.43 8  273 256 
 HEL  HN ES       1752 54.12                             115    0.05 8  273 256 
 VIL  EZ EP       1752 26.06                             112    0.14 7  304 192 
 VIL  EN ES       1752 59.67                             112   -0.16 7  304 192 
 VIL  EZ I        1753  2.78        31.5 0.38            109            304 192 
 ANIL HE ES   4   1753  9.23                             108   -1.98 0  358 224 
 ORTC HZ EP       1752 36.45                             106    0.01 6  396 216 
 ORTC HN ES       1753 19.90                             106    1.35 6  396 216 
                                                                                
