 2015  921 1049 57.9 L   6.811 -73.146144.2  RSN 26 0.5 2.6LRSN                1
 GAP=136        1.02       2.7     3.8  4.9 -0.1853E+01  0.3929E+01  0.3721E+01E
 Epicentro: LOS SANTOS - SANTANDER                                             3
 ACTION:UPD 15-10-28 16:27 OP:cam  STATUS:               ID:20150921104957 L   I
 OLDACT:REG 15-09-21 20:44 OP:ar   STATUS:               ID:20150921104750     3
 2015-09-21-1047-50M.COL___355                                                 6
 STAT SP IPHASW D HRMM SECON CODA AMPLIT PERI AZIMU VELO AIN AR TRES W  DIS CAZ7
 BAR2 EZ EP       1050 17.18                             170   -0.1610 24.5 190 
 BAR2 EZ ES       1050 32.15                             170   -0.3710 24.5 190 
 BAR2 EZ I        1050 33.27        76.3 0.20            167           24.5 190 
 BRR  HZ IP     C 1050 18.95                             152    0.1310 70.6 298 
 BRR  HN ES       1050 36.12                             152    0.9610 70.6 298 
 BRR  HZ I        1050 39.69        41.9 0.20            148           70.6 298 
 PAM  EZ EP       1050 20.22                             151    0.3510 76.4  40 
 PAM  EN ES       1050 37.35                             151    0.3310 76.4  40 
 PAM  EZ I        1050 39.18        45.3 0.54            152           76.4  40 
 RUS  HZ EP   2   1050 21.31                             143   -0.25 5  102 176 
 RUS  HN ES   2   1050 40.33                             143    0.30 5  102 176 
 RUS  HZ I        1050 40.77        43.4 0.24            140            102 176 
 PTB  HZ EP   4   1050 23.65                             132   -1.09 0  148 258 
 PTB  HN ES       1050 45.03                             132   -0.66 9  148 258 
 PTB  HZ I        1050 51.72        42.4 0.22            127            148 258 
 OCA  HZ EP       1050 25.57                             129   -0.38 9  159 353 
 OCA  HN ES       1050 47.51                             129   -0.34 9  159 353 
 SPBC HZ EP       1050 26.15                             128   -0.19 9  164 219 
 SPBC HE ES       1050 48.14                             128   -0.41 9  164 219 
 SPBC HZ I        1050 55.06        54.4 0.24            125            164 219 
 ZAR  HZ EP       1050 29.69                             122   -0.48 9  204 292 
 ZAR  HN ES       1050 55.10                             122   -0.26 9  204 292 
 ZAR  HZ I        1051  0.53        27.2 0.40            119            204 292 
 NOR  HZ EP       1050 33.22                             118   -0.37 8  235 234 
 NOR  HE ES       1051  1.64                             118    0.19 8  235 234 
 NOR  HZ I        1051  5.65        24.7 0.24            115            235 234 
 SML  HZ EP   2   1050 33.38                             117   -0.91 4  243 335 
 SML  HN ES   2   1051  1.96                             117   -0.74 4  243 335 
 SML  HZ I        1051  5.47        49.8 0.10            115            243 335 
 CHI  HZ EP       1050 35.49                             117   -0.12 8  250 195 
 CHI  HN ES       1051  4.75                             117   -0.30 8  250 195 
 CHI  HZ I        1051  6.81        22.2 0.38            114            250 195 
 ROSC BZ EP   2   1050 37.04                             116    1.02 4  254 211 
 ROSC BN ES   4   1051  7.47                             116    1.69 0  254 211 
 ROSC BZ I        1051 11.57        37.7 0.35            113            254 211 
 HEL  HZ EP       1050 38.93                             114    0.89 8  272 256 
 HEL  HN ES       1051  9.75                             114    0.38 8  272 256 
 HEL  HZ I        1051 15.17        18.5 0.30            111            272 256 
 URE  HZ EP   4   1050 36.95                             113   -1.87 0  283 292 
 URE  HN ES   4   1051  7.39                             113   -3.36 0  283 292 
 URE  HZ I        1051 19.71        17.9 0.16            111            283 292 
 GUY2CHZ EP       1050 42.49                             112    1.00 7  302 235 
 GUY2CHN ES   4   1051 18.05                             112    2.54 0  302 235 
 GUY2CHZ I        1051 22.28        10.9 0.24                           302 235 
 VIL  SZ EP       1050 40.95                             112   -0.40 7  305 192 
 VIL  SN ES       1051 15.35                             112    0.08 7  305 192 
 VIL  SZ I        1051 17.60        26.0 0.52            109            305 192 
 LL2C HZ EP   4   1050 42.84                             111    1.59 0  305 354 
 LL2C HE ES   4   1051 16.52                             111    1.44 0  305 354 
 LL2C HZ I        1051 21.76        18.2 0.18            110            305 354 
 PTGC HZ EP   4   1050 40.34                             111   -1.45 0  310 159 
 PTGC HN ES   4   1051 14.00                             111   -2.04 0  310 159 
 PTGC HZ I        1051 15.04        22.3 0.32            109            310 159 
 ELA  HZ EP   4   1050 48.39                             110    3.64 0  330 229 
 ELA  HN ES   4   1051 24.30                             110    2.99 0  330 229 
 ELA  HZ I        1051 28.75        10.9 0.40            108            330 229 
 CBOC HZ EP   2   1050 45.60                             110    0.83 3  334 252 
 CBOC HN ES   2   1051 20.96                             110   -0.38 3  334 252 
 CBOC HZ I        1051 36.84         6.3 0.28            107            334 252 
 DBB  SZ EP       1050 45.34                             109    0.06 7  339 274 
 DBB  SZ ES   4   1051 20.67                             109   -1.58 0  339 274 
 DBB  SZ I        1051 22.62        45.3 0.28            107            339 274 
 ANIL HZ EP       1050 48.40                             108    0.68 6  358 224 
 ANIL HE ES   4   1051 28.10                             108    1.50 0  358 224 
 ANIL HZ I        1051 32.67        28.5 0.24            106            358 224 
 PRA  HZ EP       1050 51.09                             106   -0.37 6  393 209 
 PRA  HN ES       1051 32.43                             106   -0.83 6  393 209 
 PRA  HZ I        1051 40.74        12.3 0.40            104            393 209 
 ORTC HZ EP       1050 52.18                             106    0.33 6  396 216 
 ORTC HN ES       1051 34.89                             106    0.93 6  396 216 
 ORTC HZ I        1051 40.66         9.0 0.54            104            396 216 
 SJC  HZ EP   4   1050 51.15                             105   -2.11 0  408 327 
 SJC  HN ES   4   1051 32.25                             105   -4.22 0  408 327 
 SJC  HZ I        1051 39.83         3.7 0.34            104            408 327 
 CRJC HZ EP   9   1050 57.57                             103   -2.61 0  466   4 
 CRJC HN ES   2   1051 45.76                                   -0.41 2  466   4 
 CRJC HZ I        1051 47.86        25.1 0.90            102            466   4 
                                                                                
