 2013  521 1052 32.9 L   6.758 -73.156150.9  RSN  8 0.4 1.8LRSN                1
 GAP=199        0.78       4.0     5.0  5.1  0.6490E+01  0.4757E+01 -0.5111E+00E
 Epicentro: LOS SANTOS - SANTANDER                                             3
 ACTION:UPD 13-06-20 09:52 OP:ep   STATUS:               ID:20130521105232 L   I
 2013-05-21-1050-00M.COL___259                                                 6
 STAT SP IPHASW D HRMM SECON CODA AMPLIT PERI AZIMU VELO AIN AR TRES W  DIS CAZ7
 BAR2 SZ EP       1052 53.19                             173    0.1110 18.6 189 
 BAR2 SZ ES       1053  8.82                             173    0.0110 18.6 189 
 BAR2 SZ I        1053  9.98        12.5 0.48            168           18.6 189 
 BRR  HZ EP       1052 55.07                             153    0.3710 72.5 302 
 BRR  HE ES       1053 12.11                             153    0.4210 72.5 302 
 RUS  HZ EP       1052 57.05                             146    0.1910 96.0 175 
 RUS  HN ES   1   1053 14.72                             146   -0.82 7 96.0 175 
 RUS  HZ I        1053 19.25         4.7 0.46            146           96.0 175 
 PTB  HZ EP       1052 59.93                             134   -0.20 9  146 261 
 PTB  HN ES   1   1053 20.94                             134   -0.42 7  146 261 
 PTB  HZ I        1053 27.05         9.6 0.20            132            146 261 
 ZAR  HZ EP       1053  5.66                             123   -0.11 9  205 293 
 ZAR  HE ES   1   1053 31.10                             123   -0.30 6  205 293 
 ZAR  HZ I        1053 37.59         7.7 0.28            124            205 293 
 NOR  HN ES   1   1053 36.78                             120    0.41 6  231 235 
 SML  HZ EP   1   1053 10.09                             118   -0.15 6  247 336 
 SML  HN ES   1   1053 38.77                             118   -0.58 6  247 336 
 PRA  HZ EP       1053 26.20                             108    0.12 6  387 210 
                                                                                
