 2015  421 1434  9.4 L   6.819 -73.156148.5  RSN 15 0.4 2.2LRSN                1
 GAP=134        0.99       3.0     4.1  6.1 -0.7504E+00  0.3786E+01  0.1893E+01E
 Epicentro: LOS SANTOS - SANTANDER                                             3
 ACTION:UPD 15-06-03 16:56 OP:cam  STATUS:               ID:20150421143409 L   I
 OLDACT:REG 15-04-21 20:48 OP:spq  STATUS:               ID:20150421142750     3
 2015-04-21-1427-50M.COL___268                                                 6
 STAT SP IPHASW D HRMM SECON CODA AMPLIT PERI AZIMU VELO AIN AR TRES W  DIS CAZ7
 BAR2 EZ EP       1434 29.39                             170   -0.0110 25.2 187 
 BAR2 EZ ES   1   1434 44.37                             170   -0.63 7 25.2 187 
 BAR2 EZ I        1434 45.84        42.0 0.16            166           25.2 187 
 BRR  HZ EP       1434 31.18                             154    0.4410 69.2 297 
 BRR  HN ES       1434 48.16                             154    0.7810 69.2 297 
 BRR  HZ I        1434 51.92        23.7 0.36            150           69.2 297 
 PAM  SZ EP       1434 32.31                             152    0.4510 76.5  41 
 PAM  SN ES   1   1434 49.08                             152   -0.30 7 76.5  41 
 PAM  SZ I        1434 51.38        20.1 0.50            158           76.5  41 
 RUS  HZ EP       1434 33.40                             144   -0.1810  103 175 
 RUS  HN ES   1   1434 52.61                             144    0.17 7  103 175 
 RUS  HZ I        1434 54.21        10.4 0.20            145            103 175 
 PTB  HZ EP       1434 35.90                             133   -0.63 9  147 258 
 PTB  HN ES       1434 56.92                             133   -0.77 9  147 258 
 PTB  HZ I        1435  2.66        20.4 0.18            131            147 258 
 OCA  HN ES       1434 59.42                             131   -0.39 9  158 353 
 OCA  HZ I        1435  1.66        59.0 0.32            133            158 353 
 SPBC HZ EP       1434 38.33                             129    0.13 9  164 218 
 SPBC HE ES   1   1435  0.73                             129    0.07 7  164 218 
 SPBC HZ I        1435  7.37        24.3 0.22            129            164 218 
 ZAR  HN ES       1435  7.56                             123    0.43 9  202 292 
 ZAR  HZ I        1435 16.09        16.8 0.28            123            202 292 
 NOR  HZ EP       1434 45.63                             119    0.30 8  235 234 
 NOR  HE ES       1435 13.64                             119    0.30 8  235 234 
 NOR  HZ I        1435 19.47        10.6 0.20            119            235 234 
 SML  HZ EP       1434 45.89                             118   -0.04 8  241 335 
 SML  HN ES   1   1435 14.12                             118   -0.29 6  241 335 
 CHI  HZ EP   1   1434 47.36                             117   -0.09 6  250 195 
 CHI  HN ES   1   1435 16.91                             117   -0.20 6  250 195 
 CHI  HZ I        1435 22.93        19.1 0.94            119            250 195 
 HEL  HN ES   4   1435 22.45                             115    1.34 0  271 255 
 HEL  HZ I        1435 28.05         9.9 0.46            116            271 255 
 GUY2CHZ EP   4   1434 54.78                             113    1.61 0  301 234 
 GUY2CHN ES   4   1435 28.93                             113    1.62 0  301 234 
 GUY2CHZ I        1435 37.73         6.6 0.26                           301 234 
 TOL  SZ EP   4   1434 59.64                             110    1.79 0  344 224 
 TOL  SN ES   4   1435 37.56                             110    1.92 0  344 224 
 TOL  SZ I        1435 42.53         6.7 0.76            111            344 224 
 MON  HE ES   1   1435 35.83                             109   -0.53 5  351 308 
 MON  HZ I        1435 39.66         2.6 0.52            110            351 308 
                                                                                
