 2017 1121 1615  9.1 L   6.025 -73.978 95.7  RSN  4 0.2 1.0LRSN                1
 GAP=141        0.55       3.0     2.0  4.8  0.4588E+00 -0.5298E+00 -0.1596E+01E
 Epicentro: EL PENON - SANTANDER                                               3
 ACTION:UPD 17-12-12 19:58 OP:rebc STATUS:               ID:20171121161509 L   I
 OLDACT:REG 17-11-21 21:09 OP:osc  STATUS:               ID:20171121160414     3
 2017-11-21-1608-00M.COL___484                                                 6
 STAT SP IPHASW D HRMM SECON CODA AMPLIT PERI AZIMU VELO AIN AR TRES W  DIS CAZ7
 SPBC HZ EP       1615 23.12                             154   -0.2210 42.6 194 
 SPBC HN ES       1615 34.63                             154    0.1810 42.6 194 
 SPBC HZ I        1615 35.66         6.7 0.24            156           42.6 194 
 PTB  HZ EP       1615 25.52                             138   -0.1510 77.6 317 
 PTB  HN ES       1615 38.68                             138    0.0910 77.6 317 
 PTB  HZ I        1615 41.35         1.7 0.14            139           77.6 317 
 RUS  HZ EP       1615 28.42                             131    0.1110  100  98 
 RUS  HN ES       1615 43.20                             131   -0.0910  100  98 
 RUS  HZ I        1615 43.92         2.2 0.24            134            100  98 
 NOR  HZ EP       1615 29.10                             127    0.3210  111 243 
 NOR  HE ES       1615 43.90                             127   -0.2310  111 243 
 NOR  HZ I        1615 46.85         2.9 0.34            128            111 243 
                                                                                
