 2012  421 1317  8.9 L   6.777 -73.153138.8  RSN 13 0.3 2.4LRSN                1
 GAP=137        0.65       2.6     2.8  4.1 -0.1164E+01  0.3643E+01  0.2882E+01E
 Epicentro: LOS SANTOS - SANTANDER                                             3
 ACTION:UP  12-07-05 11:55 OP:tino STATUS:               ID:20120421131708 L   I
 2012-04-21-1310-00M.COL___186                                                 6
 STAT SP IPHASW D HRMM SECON CODA AMPLIT PERI AZIMU VELO AIN AR TRES W  DIS CAZ7
 BAR2 SZ EP       1317 27.68                             171     0.010   21 189 
 BAR2 SZ ES   1   1317 42.30                             171     0.0 7   21 189 
 BAR2 SZ I        1317 45.58        63.3 0.24                            21 189 
 BRR  HZ EP       1317 29.49                             151     0.210   72 301 
 BRR  HN ES   1   1317 45.82                             151     0.5 7   72 301 
 BRR  HZ I        1317 50.26        49.3 0.28                            72 301 
 PAM  SZ EP       1317 30.57                             149     0.010   80  39 
 PAM  SE ES       1317 47.33                             149    -0.110   80  39 
 RUS  HZ EP       1317 31.69                             143    -0.110   98 175 
 RUS  HE ES   1   1317 49.44                             143    -0.2 7   98 175 
 PTB  HZ EP   1   1317 34.54                             131    -0.7 7  146 260 
 PTB  HE ES   1   1317 55.07                             131    -0.6 7  146 260 
 OCA  SZ EP   1   1317 37.21                             127     0.3 7  163 354 
 ZAR  HZ EP   1   1317 40.26                             121    -0.7 6  204 293 
 ZAR  HN ES   1   1318  5.92                             121     0.0 6  204 293 
 ZAR  HZ I        1318 15.83        17.4 0.29                           204 293 
 NOR  SZ EP       1317 44.06                             117     0.1 8  233 235 
 NOR  SN ES   1   1318 11.61                             117     0.2 6  233 235 
 CHI  HZ EP       1317 45.96                             116     0.0 8  246 195 
 CHI  HZ I        1317 46.61        14.5 0.46                           246 195 
 CHI  HN ES   1   1318 14.93                             116     0.1 6  246 195 
 HEL  HZ EP   1   1317 48.83                             113     0.2 6  271 256 
 HEL  HN ES   1   1318 19.62                             113     0.0 6  271 256 
 HEL  HZ I        1318 26.62        18.2 0.35                           271 256 
 RREF HZ EP   1   1317 54.54                             110     0.0 5  319 230 
 RREF HN ES   1   1318 30.52                             110     0.5 5  319 230 
 TOL  SZ EP   1   1317 57.21                             108     0.6 5  341 225 
 PRA  HZ EP       1318  1.71                             105    -0.2 6  389 210 
 PRA  HE ES   1   1318 43.36                             105     0.2 4  389 210 
                                                                                
