 2014  221 1430 50.9 L   6.788 -73.116152.9  RSN  8 0.5 1.8LRSN                1
 GAP=141        1.17       4.4     5.0  6.9 -0.8457E+00  0.1029E+02 -0.3345E+01E
 Epicentro: LOS SANTOS - SANTANDER                                             3
 ACTION:UPD 14-03-10 08:11 OP:ep   STATUS:               ID:20140221143050 L   I
 OLDACT:REG 14-02-21 17:03 OP:carl STATUS:               ID:20140221143000     3
 2014-02-21-1430-00M.COL___215                                                 6
 STAT SP IPHASW D HRMM SECON CODA AMPLIT PERI AZIMU VELO AIN AR TRES W  DIS CAZ7
 BAR2 SZ EP       1431 11.34                             171   -0.0010 22.8 199 
 BAR2 SZ ES       1431 27.21                             171   -0.1110 22.8 199 
 BAR2 SZ I        1431 30.58        11.2 0.58            169           22.8 199 
 BRR  HZ EP       1431 13.35                             153    0.3710 74.7 298 
 BRR  HN ES       1431 30.97                             153    0.7310 74.7 298 
 PAM  SZ EP       1431 14.29                             152    0.5110 76.4  37 
 PAM  SN ES       1431 31.40                             152   -0.2710 76.4  37 
 PAM  SZ I        1431 33.54         7.4 0.42            157           76.4  37 
 RUS  HZ EP     D 1431 15.19                             146   -0.0210 99.1 178 
 RUS  HN ES       1431 34.04                             146   -0.1710 99.1 178 
 RUS  HZ I        1431 36.85         2.9 0.54            148           99.1 178 
 PTB  HZ EP       1431 18.30                             133   -0.38 9  151 260 
 PTB  HN ES       1431 39.48                             133   -0.91 9  151 260 
 PTB  HZ I        1431 46.77        13.0 0.42            134            151 260 
 ZAR  HZ EP       1431 24.03                             123   -0.11 8  208 292 
 ZAR  HN ES       1431 50.88                             123    0.78 8  208 292 
 ZAR  HZ I        1431 55.85         8.6 0.40            125            208 292 
 NOR  HZ EP       1431 27.64                             120    0.42 8  237 235 
 NOR  HE ES       1431 55.61                             120    0.03 8  237 235 
 NOR  HZ I        1431 59.04         7.2 0.18            121            237 235 
 SML  HZ EP       1431 27.91                             119   -0.27 8  246 335 
 SML  HN ES       1431 56.43                             119   -0.85 8  246 335 
                                                                                
