 2016  521 1759 14.8 L   6.254 -73.463123.9  RSN  6 0.2 1.6LRSN                1
 GAP=110        0.61       2.7     3.3  5.3  0.1165E+01  0.1044E+02  0.1130E+01E
 Epicentro: EL GUACAMAYO - SANTANDER                                           3
 ACTION:UPD 16-08-18 17:48 OP:cam  STATUS:               ID:20160521175914 L   I
 OLDACT:REG 16-05-21 19:45 OP:drio STATUS:               ID:20160521175744     3
 2016-05-21-1757-44M.COL___289                                                 6
 STAT SP IPHASW D HRMM SECON CODA AMPLIT PERI AZIMU VELO AIN AR TRES W  DIS CAZ7
 BAR2 EZ EP       1759 33.09                             157    0.4010 48.6  40 
 BAR2 EZ ES       1759 46.79                             157    0.1310 48.6  40 
 BAR2 EZ I        1759 48.07        12.7 0.40            162           48.6  40 
 RUS  HZ EP       1759 33.49                             154   -0.0510 58.0 134 
 RUS  HE ES       1759 47.83                             154   -0.3410 58.0 134 
 RUS  HZ I        1759 50.64         4.6 0.32            156           58.0 134 
 BRR  HZ EP       1759 35.36                             139   -0.2210 98.2 344 
 BRR  HN ES       1759 51.94                             139    0.1410 98.2 344 
 PTB  HZ EP   4   1759 35.80                             134   -1.15 0  114 286 
 PTB  HE ES   4   1759 52.08                             134   -2.16 0  114 286 
 PTB  HZ I        1759 55.44         4.8 0.38            136            114 286 
 NOR  HZ EP       1759 42.82                             122    0.11 9  173 244 
 NOR  HE ES       18 0  4.66                             122    0.17 9  173 244 
 NOR  HZ I        18 0  7.93         8.6 0.24            123            173 244 
 ZAR  HZ EP       1759 46.03                             117   -0.10 8  206 312 
 ZAR  HE ES       18 0 10.29                             117   -0.30 8  206 312 
 ZAR  HZ I        18 0 12.78         5.6 0.32            119            206 312 
                                                                                
