 2011 1121 1006 35.1 L   6.784 -73.115142.5  RSN  5 0.4 1.6LRSN                1
 GAP=141        0.75       5.1     5.6  7.8  0.6007E+01  0.4911E+01  0.6853E-01E
 Epicentro: LOS SANTOS - SANTANDER                                             3
 ACTION:UPD 12-07-13 16:11 OP:ep   STATUS:               ID:20111121100635 L   I
 2011-11-21-1005-03S.COL___178                                                 6
 STAT SP IPHASW D HRMM SECON CODA AMPLIT PERI AZIMU VELO AIN AR TRES W  DIS CAZ7
 BAR2 SZ EP       10 6 54.40                             171    0.0810 22.5 199 
 BAR2 SZ ES   1   10 7  9.05                             171   -0.26 7 22.5 199 
 BAR2 SZ I        10 7 10.68        17.0 0.19                          22.5 199 
 BRR  HZ EP   1   10 6 55.56                             151   -0.56 7 75.0 298 
 BRR  HZ I        10 6 56.06         6.3 0.35                          75.0 298 
 BRR  HE ES   1   10 7 13.18                             151    0.67 7 75.0 298 
 PAM  SZ EP   1   10 6 57.37                             150    0.44 7 76.7  37 
 PAM  SZ I        10 6 57.59         4.6 0.18                          76.7  37 
 PAM  SN ES   1   10 7 13.64                             150   -0.31 7 76.7  37 
 RUS  HZ EP   1   10 6 58.49                             144    0.10 7 98.7 178 
 RUS  HN ES   1   10 7 16.54                             144   -0.02 7 98.7 178 
 RUS  HZ I        10 7 18.00         3.8 0.26                          98.7 178 
 ZAR  HN ES   1   10 7 32.90                             121   -0.28 6  208 292 
 ZAR  HZ I        10 7 38.76         5.2 0.19                           208 292 
                                                                                
