 2014  721 1854 30.4 L   6.718 -73.135143.7  RSN  6 0.5 1.4LRSN                1
 GAP=141        1.15       5.9     5.3  8.6  0.7234E+00  0.1369E+02 -0.4568E+01E
 Epicentro: JORDAN - SANTANDER                                                 3
 ACTION:UPD 15-03-16 20:45 OP:nd   STATUS:               ID:20140721185430 L   I
 OLDACT:REG 14-07-21 22:15 OP:fm   STATUS:               ID:20140721184820     3
 2014-07-21-1848-20M.COL___272                                                 6
 STAT SP IPHASW D HRMM SECON CODA AMPLIT PERI AZIMU VELO AIN AR TRES W  DIS CAZ7
 BAR2 SZ ES   1   1855  5.45                             174    0.85 7 14.9 201 
 BAR2 SZ I        1855  5.81         6.9 0.22            174           14.9 201 
 BRR  HZ EP   1   1854 51.60                             150   -0.02 7 76.9 304 
 BRR  HN ES       1855  8.48                             150    0.2810 76.9 304 
 BRR  HZ I        1855  9.69         6.7 0.26            150           76.9 304 
 PAM  SZ EP       1854 52.52                             148   -0.2310 83.9  35 
 PAM  SE ES       1855  9.86                             148   -0.3610 83.9  35 
 PAM  SZ I        1855 12.06         4.8 0.66            150           83.9  35 
 RUS  HZ EP   1   1854 53.94                             146    0.68 7 91.5 176 
 RUS  HN ES       1855 10.80                             146   -0.3310 91.5 176 
 RUS  HZ I        1855 13.25         2.5 0.36            148           91.5 176 
 PTB  HZ EP       1854 56.60                             131   -0.53 9  147 262 
 PTB  HN ES       1855 17.69                             131   -0.31 9  147 262 
 PTB  HZ I        1855 19.41         3.1 0.24            132            147 262 
 ZAR  HZ EP       1855  4.09                             121    0.94 8  209 294 
 ZAR  HN ES       1855 28.51                             121   -0.22 8  209 294 
 ZAR  HZ I        1855 34.59         2.5 0.26            122            209 294 
                                                                                
