 2013  921 1655 39.6 L   6.754 -73.144142.5  RSN  8 0.5 1.9LRSN                1
 GAP=139        1.29       5.5     5.3  8.1 -0.2475E+01  0.1259E+02 -0.6418E+01E
 Epicentro: LOS SANTOS - SANTANDER                                             3
 ACTION:UPD 13-10-22 09:24 OP:ep   STATUS:               ID:20130921165539 L   I
 OLDACT:REG 13-09-21 19:05 OP:carl STATUS:               ID:20130921164959     3
 2013-09-21-1649-59M.COL___269                                                 6
 STAT SP IPHASW D HRMM SECON CODA AMPLIT PERI AZIMU VELO AIN AR TRES W  DIS CAZ7
 BAR2 SZ EP       1655 58.92                             172    0.1510 18.3 193 
 BAR2 SZ ES       1656 13.30                             172   -0.3910 18.3 193 
 BAR2 SZ I        1656 14.62        18.2 0.20            174           18.3 193 
 BRR  HZ EP       1656  0.85                             151    0.2710 73.9 302 
 BRR  HN ES       1656 17.50                             151    0.5810 73.9 302 
 BRR  HZ I        1656 21.31        14.2 0.46            150           73.9 302 
 PAM  SZ EP       1656  1.84                             149    0.1110 81.3  37 
 PAM  SN ES       1656 18.86                             149   -0.1110 81.3  37 
 PAM  SZ I        1656 21.34        12.1 0.42            151           81.3  37 
 RUS  HZ EP       1656  2.91                             145    0.2310 95.4 176 
 RUS  HN ES       1656 20.78                             145    0.1110 95.4 176 
 RUS  HZ I        1656 22.07         5.2 0.28            149           95.4 176 
 PTB  HZ EP       1656  5.81                             131   -0.45 9  147 261 
 PTB  HN ES       1656 25.96                             131   -1.07 9  147 261 
 PTB  HZ I        1656 29.28        11.2 0.14            133            147 261 
 ZAR  HZ EP       1656 12.71                             121    0.63 8  206 293 
 ZAR  HN ES       1656 38.01                             121    0.61 8  206 293 
 ZAR  HN I        1656 42.45        17.4 0.34            123            206 293 
 NOR  HN ES       1656 42.58                             118    0.23 8  232 236 
 SML  HZ EP       1656 15.49                             116   -1.10 8  248 336 
 SML  HN ES   4   1656 43.42                             116   -2.00 0  248 336 
                                                                                
