 2011 1221 1120 28.4 L   5.976 -74.194 75.0  RSN  7 0.4 1.4LRSN                1
 GAP=133        0.74       3.4     2.5  9.3 -0.3854E+01 -0.4336E+01  0.9227E+01E
 Epicentro: LA BELLEZA - SANTANDER                                             3
 ACTION:UPD 12-07-13 16:17 OP:ep   STATUS:               ID:20111221112028 L   I
 2011-12-21-1120-00M.COL___189                                                 6
 STAT SP IPHASW D HRMM SECON CODA AMPLIT PERI AZIMU VELO AIN AR TRES W  DIS CAZ7
 PTB  HZ EP       1120 41.75                             133   -0.5810 68.7 335 
 PTB  HE ES   1   1120 53.01                             133   -0.22 7 68.7 335 
 PTB  HZ I        1120 53.63         0.2 0.14                          68.7 335 
 NOR  SZ IP       1120 44.11                             126   -0.0710 87.6 239 
 NOR  SN ES   1   1120 56.60                             126    0.08 7 87.6 239 
 RUS  HZ EP   1   1120 48.42                             116   -0.13 7  123  94 
 RUS  HN ES   1   1121  4.51                             116    0.20 7  123  94 
 BAR2 SZ EP   2   1120 49.21                             114    0.12 5  131  59 
 BAR2 SZ ES   1   1121  5.69                             114    0.42 7  131  59 
 BAR2 SZ I        1121  7.42        10.5 0.11                           131  59 
 BRR  HZ EP   1   1120 49.10                             113   -0.24 7  136  23 
 BRR  HN ES   1   1121  6.03                             113    0.31 7  136  23 
 BRR  HZ I        1121  9.21        19.6 0.09                           136  23 
 HEL  HZ EP   1   1120 51.27                             111   -0.10 7  150 279 
 HEL  HN ES   1   1121 10.24                             111    0.91 7  150 279 
 HEL  HZ I        1121 13.32        15.3 0.34                           150 279 
 RREF HZ EP   1   1120 54.79                             108    0.18 7  175 227 
 RREF HE ES   1   1121 14.92                             108   -0.17 7  175 227 
 RREF HZ I        1121 20.52         6.2 0.24                           175 227 
                                                                                
