 2010 1021 1236 36.5 L   6.766 -73.112145.0  RSN  7 0.3 1.8LRSN                1
 GAP=163        0.59       4.3     7.7  6.9 -0.9332E+01  0.2562E+01 -0.2415E+01E
 Epicentro: LOS SANTOS - SANTANDER                                             3
 ACTION:UP  11-02-18 11:11 OP:tino STATUS:               ID:20101021123636 L   I
 2010-10-21-1233-39S.COL___128                                                 6
 STAT SP IPHASW D HRMM SECON CODA AMPLIT PERI AZIMU VELO SNR AR TRES W  DIS CAZ7
 BAR2 SZ EP   1   1236 55.91                             171     0.0 7   21 202 
 BAR2 SZ ES   2   1237 10.50                             171    -0.6 5   21 202 
 BAR2 SZ I        1237 11.97        27.2 0.40                            21 202 
 BTL  SZ EP   1   1236 56.49                             170     0.5 7   24 314 
 BRR  HZ EP   1   1236 57.90                             151     0.1 7   76 300 
 BRR  HE ES   2   1237 14.65                             151     0.2 5   76 300 
 BRR  HZ I        1237 19.24        19.2 0.10                            76 300 
 RUS  HZ EP   1   1236 59.84                             145     0.0 7   97 178 
 RUS  HE ES   2   1237 18.39                             145     0.3 5   97 178 
 RUS  HZ I        1237 19.89         5.4 0.37                            97 178 
 GUE  SZ EP   1   1237  1.03                             139    -0.3 7  120  10 
 GRA  SZ EP   1   1237  1.87                             136     0.0 7  128  15 
 GRA  SZ I        1237  3.17         7.1 0.32                           128  15 
 GRA  SZ ES   2   1237 21.71                             136     0.1 5  128  15 
 NOR  SZ EP   1   1237 11.98                             118    -0.3 6  236 236 
                                                                                
