 2010 1221 1635 26.6 L   6.816 -73.110139.7  RSN  9 0.2 2.0LRSN                1
 GAP=162        0.53       3.0     5.8  5.2 -0.8936E+01  0.1355E+02 -0.3454E+01E
 Epicentro: LOS SANTOS - SANTANDER                                             3
 ACTION:UP  11-01-14 15:26 OP:pat  STATUS:               ID:20101221163526 L   I
 2010-12-21-1633-47S.COL___135                                                 6
 STAT SP IPHASW D HRMM SECON CODA AMPLIT PERI AZIMU VELO SNR AR TRES W  DIS CAZ7
 BTL  SZ EP       1635 45.76                             171     0.310   21 303 
 BAR2 SZ EP       1635 45.65                             169     0.110   26 198 
 BAR2 SZ ES   1   1636  0.05                             169    -0.3 7   26 198 
 BAR2 SZ I        1636  2.08        27.8 0.24                            26 198 
 RUS  HZ EP   1   1635 49.78                             142    -0.1 7  102 178 
 RUS  HN ES   1   1636  8.06                             142     0.0 7  102 178 
 RUS  HZ I        1636  9.94         7.5 0.30                           102 178 
 GRA  SZ EP   1   1635 51.23                             136     0.2 7  123  16 
 GRA  SZ ES   1   1636 10.05                             136    -0.1 7  123  16 
 GRA  SZ I        1636 13.73        16.0 0.33                           123  16 
 OCA  SZ EP   1   1635 53.93                             128    -0.4 7  159 352 
 OCA  SZ I        1636 18.96        24.2 0.36                           159 352 
 NOR  SZ EP   1   1636  2.19                             117    -0.3 6  239 235 
 NOR  SN ES   2   1636 30.14                             117    -0.3 4  239 235 
 CHI  HZ EP   2   1636  4.04                             115    -0.2 4  251 196 
 CHI  HZ I        1636 40.33         5.7 0.67                           251 196 
 HEL  HE ES   2   1636 38.92                             113     0.4 4  276 256 
 HEL  HZ I        1636 45.13         7.0 0.29                           276 256 
 PRA  HZ EP   1   1636 20.29                             105     0.0 4  395 210 
 PRA  HE ES   2   1637  2.56                             105     0.3 3  395 210 
                                                                                
