 2012  921 1253  8.0 L   6.900 -73.694 98.0  RSN  4 0.1 1.6LRSN                1
 GAP=126        0.37       3.6     2.3  4.0  0.1714E+01  0.4411E-01  0.5097E+01E
 Epicentro: SAN VICENTE DE CHUCURI - SANTANDER                                 3
 ACTION:UPD 12-10-22 14:20 OP:ep   STATUS:               ID:20120921125308 L   I
 2012-09-21-1250-00S.MAN___224                                                 6
 STAT SP IPHASW D HRMM SECON CODA AMPLIT PERI AZIMU VELO AIN AR TRES W  DIS CAZ7
 BRR  HZ EP       1253 21.38                             166   -0.1310 23.0 355 
 BRR  HE ES       1253 32.19                             166    0.1110 23.0 355 
 BRR  HZ I        1253 33.67        12.8 0.17                          23.0 355 
 BAR2 SZ EP       1253 24.17                             144    0.0210 66.0 121 
 BAR2 SZ ES       1253 36.72                             144   -0.0610 66.0 121 
 BAR2 SZ I        1253 38.32        15.4 0.46                          66.0 121 
 PTB  HN ES   1   1253 40.19                             133   -0.02 7 93.2 245 
 RUS  HZ EP   2   1253 30.59                             124    0.29 5  130 149 
                                                                                
