 2014  721 1532 13.6 L   6.790 -73.149150.0  RSN 10 0.5 1.8LRSN                1
 GAP=200        1.12       4.9     7.0  9.7  0.1252E+02 -0.8040E+01 -0.1322E+02E
 Epicentro: LOS SANTOS - SANTANDER                                             3
 ACTION:UPD 15-03-16 20:45 OP:nd   STATUS:               ID:20140721153213 L   I
 OLDACT:REG 14-07-21 22:05 OP:fm   STATUS:               ID:20140721152821     3
 2014-07-21-1528-21M.COL___272                                                 6
 STAT SP IPHASW D HRMM SECON CODA AMPLIT PERI AZIMU VELO AIN AR TRES W  DIS CAZ7
 BAR2 SZ EP   1   1532 32.95                             171   -0.79 7 22.1 189 
 BAR2 SZ I        1532 51.90        13.6 0.32            172           22.1 189 
 BRR  HZ EP       1532 35.91                             153    0.6710 71.4 299 
 BRR  HN ES   1   1532 52.71                             153    0.61 7 71.4 299 
 BRR  HZ I        1533  3.27        10.2 0.52            154           71.4 299 
 RUS  HZ EP       1532 38.14                             145    0.4210 99.5 176 
 RUS  HN ES       1532 56.15                             145   -0.3610 99.5 176 
 RUS  HZ I        1532 59.63         5.8 0.32            150           99.5 176 
 PTB  HZ EP       1532 41.20                             133    0.31 9  147 259 
 PTB  HN ES       1533  1.91                             133   -0.24 9  147 259 
 PTB  HZ I        1533  9.52         9.6 0.56            136            147 259 
 SPBC HZ EP       1532 42.27                             130   -0.07 9  162 219 
 SPBC HN ES   1   1533  4.55                             130   -0.20 7  162 219 
 SPBC HZ I        1533 10.81        11.2 0.40            134            162 219 
 ZAR  HN ES       1533 12.03                             123    0.15 9  204 292 
 ZAR  HZ I        1533 19.51         7.0 0.40            126            204 292 
 NOR  HZ I        1533 21.98         4.9 0.20            123            234 235 
 SML  HZ EP       1532 50.79                             118    0.21 8  245 335 
 SML  HN ES       1533 18.43                             118   -0.98 8  245 335 
 SML  HZ I        1533 26.50         7.0 0.24            122            245 335 
 RREF HZ EP   1   1532 59.22                             111   -0.61 5  321 229 
 RREF HN ES   4   1533 37.56                             111    1.68 0  321 229 
 RREF HZ I        1533 46.93         3.8 0.34            115            321 229 
 SJC  HZ EP   4   1533  8.10                             106   -1.31 0  410 327 
 SJC  HN ES   4   1533 49.25                             106   -3.68 0  410 327 
 SJC  HZ I        1533 58.28         1.4 0.60            109            410 327 
                                                                                
