 2016  221 1211  3.6 L   6.779 -73.160152.0  RSN  7 0.4 1.4LRSN                1
 GAP=136        0.90       3.9     4.3  6.5  0.1132E+00  0.8506E+01  0.5800E+01E
 Epicentro: LOS SANTOS - SANTANDER                                             3
 ACTION:UPD 16-03-04 21:28 OP:rebc STATUS:               ID:20160221121103 L   I
 OLDACT:REG 16-02-21 22:01 OP:ak   STATUS:               ID:20160221120550     3
 2016-02-21-1205-50M.COL___315                                                 6
 STAT SP IPHASW D HRMM SECON CODA AMPLIT PERI AZIMU VELO AIN AR TRES W  DIS CAZ7
 BAR2 EZ EP       1211 23.55                             172   -0.3410 20.8 187 
 BAR2 EZ ES       1211 40.49                             172    0.7410 20.8 187 
 BAR2 EZ I        1211 41.90         3.5 0.09            168           20.8 187 
 PAM  EZ EP   2   1211 26.83                             151    0.23 5 80.2  39 
 PAM  EN ES       1211 44.22                             151   -0.3510 80.2  39 
 PAM  EZ I        1211 45.76         2.8 0.20            158           80.2  39 
 RUS  HZ EP       1211 28.06                             146    0.2910 98.4 175 
 RUS  HN ES       1211 46.42                             146   -0.2410 98.4 175 
 RUS  HZ I        1211 47.39         2.4 0.44            146           98.4 175 
 PTB  HZ EP       1211 30.50                             134   -0.37 9  146 260 
 PTB  HN ES       1211 51.92                             134   -0.25 9  146 260 
 PTB  HZ I        1211 59.10         6.2 0.52            134            146 260 
 SPBC HZ EP       1211 32.44                             131    0.16 9  160 219 
 SPBC HN ES       1211 54.64                             131   -0.05 9  160 219 
 SPBC HZ I        1212  1.69         6.3 0.36            131            160 219 
 ZAR  HN ES       1212  2.25                             124    0.30 9  204 293 
 CHI  HZ EP       1211 41.78                             119    0.46 8  246 195 
 CHI  HN ES       1212 10.41                             119   -0.37 8  246 195 
 CHI  HZ I        1212 16.82         1.3 0.30            120            246 195 
                                                                                
