 2010 1121 1600 41.5 L   6.821 -73.051140.0  RSN  5 0.2 1.6LRSN                1
 GAP=169        0.51       4.3     7.9  6.5  0.1685E+01 -0.3519E+01 -0.6459E+01E
 Epicentro: LOS SANTOS - SANTANDER                                             3
 ACTION:UP  10-12-17 16:54 OP:REBC STATUS:               ID:20101121160041 L   I
 2010-11-21-1600-02S.COL___132                                                 6
 STAT SP IPHASW D HRMM SECON CODA AMPLIT PERI AZIMU VELO SNR AR TRES W  DIS CAZ7
 BTL  SZ EP       16 1  0.71                             169     0.210   26 294 
 BAR2 SZ EP       16 1  0.64                             168     0.110   29 210 
 BAR2 SZ ES   1   16 1 15.38                             168    -0.1 7   29 210 
 BAR2 SZ I        16 1 18.12        11.5 0.41                            29 210 
 BRR  HZ IP     C 16 1  2.41                             149    -0.110   80 294 
 BRR  HZ I        16 1  2.67        22.6 0.13                            80 294 
 BRR  HE ES   2   16 1 18.88                             149    -0.1 5   80 294 
 RUS  HZ EP   2   16 1  4.93                             142     0.1 5  103 182 
 RUS  HN ES   2   16 1 22.67                             142    -0.4 5  103 182 
 RUS  HZ I        16 1 24.94         2.7 0.30                           103 182 
 GRA  SZ EP   2   16 1  5.23                             137    -0.6 5  121  13 
 GRA  SZ ES   2   16 1 24.89                             137     0.1 5  121  13 
 GRA  SZ I        16 1 27.21         3.1 0.19                           121  13 
                                                                                
