 2017  321 1447 51.6 L   6.757 -73.185148.2  RSN  4 0.1 1.5LRSN                1
 GAP=139        0.40       5.0     2.2  4.4  0.1640E+00  0.1009E+01 -0.9627E+01E
 Epicentro: LOS SANTOS - SANTANDER                                             3
 ACTION:UPD 17-05-25 18:43 OP:jn   STATUS:               ID:20170321144751 L   I
 OLDACT:DUP 17-03-21 22:50 OP:cog  STATUS:               ID:20170321143301d    3
 2017-03-21-1438-00M.COL___394                                                 6
 STAT SP IPHASW D HRMM SECON CODA AMPLIT PERI AZIMU VELO AIN AR TRES W  DIS CAZ7
 BAR2 EZ EP       1448 11.46                             173    0.0110 18.3 179 
 BAR2 EZ ES       1448 27.01                             173    0.0910 18.3 179 
 BAR2 EZ I        1448 28.30         8.5 0.22            166           18.3 179 
 PAM  EZ EP       1448 14.38                             149   -0.1010 83.8  40 
 PAM  EZ I        1448 33.62         4.3 0.41            132           83.8  40 
 PTB  HZ EP       1448 18.47                             134    0.14 9  143 260 
 PTB  HN ES       1448 38.97                             134   -0.19 9  143 260 
 PTB  HZ I        1448 44.05         3.7 0.21            133            143 260 
 ZAR  HN ES       1448 49.34                             123    0.08 9  202 294 
                                                                                
