 2013 1221 1054 53.6 L   6.791 -73.190145.5  RSN  8 0.5 1.8LRSN                1
 GAP=197        1.08       3.7     5.4  7.0  0.3725E+01  0.7013E+01 -0.4073E+01E
 Epicentro: ZAPATOCA - SANTANDER                                               3
 ACTION:UPD 14-01-13 10:19 OP:ep   STATUS:               ID:20131221105453 L   I
 OLDACT:REG 13-12-21 15:50 OP:nd   STATUS:               ID:20131221105000     3
 2013-12-21-1050-00M.COL___285                                                 6
 STAT SP IPHASW D HRMM SECON CODA AMPLIT PERI AZIMU VELO AIN AR TRES W  DIS CAZ7
 BAR2 SZ EP       1055 12.99                             171   -0.2210 22.0 178 
 BAR2 SZ ES       1055 28.53                             171    0.0510 22.0 178 
 BAR2 SZ I        1055 29.74        13.0 0.28            173           22.0 178 
 RUS  HZ EP       1055 16.87                             144   -0.4610  100 173 
 RUS  HN ES       1055 35.88                             144    0.0810  100 173 
 RUS  HZ I        1055 37.07         2.9 0.16            150            100 173 
 PTB  HZ EP       1055 19.74                             133   -0.40 9  143 259 
 PTB  HN ES       1055 40.38                             133   -0.43 9  143 259 
 PTB  HZ I        1055 48.67         8.2 0.36            131            143 259 
 SPBC HZ EP       1055 21.94                             130    0.18 9  159 218 
 SPBC HN ES       1055 43.72                             130    0.03 9  159 218 
 SPBC HZ I        1055 47.35         9.5 0.24            131            159 218 
 ZAR  HZ EP       1055 25.21                             123   -0.44 9  200 293 
 ZAR  HN ES       1055 51.28                             123    0.67 9  200 293 
 ZAR  HZ I        1055 57.55         6.4 0.42            121            200 293 
 NOR  HZ EP       1055 28.88                             119    0.01 8  230 234 
 NOR  HN ES       1055 55.97                             119   -0.38 8  230 234 
 NOR  HZ I        1056  4.29         4.5 0.30            120            230 234 
 SML  HZ EP       1055 30.69                             117    0.55 8  243 336 
 SML  HN ES       1055 58.85                             117    0.24 8  243 336 
 SML  HZ I        1056 26.12        13.0 0.26            117            243 336 
 CHI  HZ EP       1055 30.85                             117   -0.24 8  246 194 
 CHI  HN ES       1056  1.61                             117    1.32 8  246 194 
 CHI  HZ I        1056  8.05         1.7 0.26            120            246 194 
                                                                                
