 2010 1121 1853 47.7 L   6.796 -73.086142.4  RSN 10 0.4 2.1LRSN                1
 GAP=165        0.76       3.1     5.2  6.3 -0.4182E+01  0.4470E+01  0.2579E+01E
 Epicentro: LOS SANTOS - SANTANDER                                             3
 ACTION:UP  10-12-17 16:54 OP:REBC STATUS:               ID:20101121185347 L   I
 2010-11-21-1850-33S.COL___132                                                 6
 STAT SP IPHASW D HRMM SECON CODA AMPLIT PERI AZIMU VELO SNR AR TRES W  DIS CAZ7
 BAR2 SZ EP       1854  7.06                             170     0.110   25 206 
 BAR2 SZ ES   2   1854 21.79                             170    -0.2 5   25 206 
 BAR2 SZ I        1854 23.64        30.8 0.32                            25 206 
 BRR  HZ EP       1854  9.13                             150     0.310   77 297 
 BRR  HE ES   1   1854 25.78                             150     0.5 7   77 297 
 BRR  HZ I        1854 31.04        26.6 0.13                            77 297 
 RUS  HZ EP       1854 11.10                             143     0.110  100 180 
 RUS  HE ES   1   1854 29.19                             143    -0.1 7  100 180 
 RUS  HZ I        1854 31.27        23.1 0.52                           100 180 
 GRA  SZ EP       1854 12.17                             137    -0.310  124  14 
 GRA  SZ ES   1   1854 31.66                             137    -0.2 7  124  14 
 GRA  SZ I        1854 33.12        19.1 0.35                           124  14 
 OCA  SZ EP   1   1854 16.05                             129     0.2 7  162 351 
 OCA  SZ ES   1   1854 37.69                             129    -0.2 7  162 351 
 OCA  SZ I        1854 45.09        16.5 0.34                           162 351 
 NOR  SZ EP   2   1854 23.62                             117    -0.2 4  240 236 
 NOR  SE ES   2   1854 51.70                             117    -0.2 4  240 236 
 CHI  HZ EP   2   1854 25.10                             116    -0.2 4  250 197 
 CHI  HE ES   2   1854 54.32                             116    -0.4 4  250 197 
 CHI  HZ I        1855  2.20         6.0 0.38                           250 197 
 HEL  HZ EP   2   1854 28.82                             114     0.4 4  278 256 
 HEL  HN ES   1   1854 59.19                             114    -1.0 6  278 256 
 HEL  HZ I        1855  5.65         6.7 0.60                           278 256 
 RREF HZ EP   1   1854 35.13                             110     0.9 5  326 230 
 RREF HZ I        1855 18.58         6.1 0.65                           326 230 
 PRA  HZ EP   1   1854 41.28                             106    -0.1 4  395 210 
 PRA  HE ES   2   1855 23.34                             106     0.0 3  395 210 
                                                                                
