 2016  721 1029 56.2 L   6.547 -73.544107.3  RSN  4 0.2 1.6LRSN                1
 GAP=137        0.59       2.8     3.3  5.9  0.2166E+01  0.1058E+02 -0.1291E+01E
 Epicentro: EL CARMEN - SANTANDER                                              3
 ACTION:UPD 17-03-29 16:53 OP:lp   STATUS:               ID:20160721102956 L   I
 OLDACT:REG 16-07-21 19:23 OP:lv   STATUS:               ID:20160721102759     3
 2016-07-21-1027-59S.COL___325                                                 6
 STAT SP IPHASW D HRMM SECON CODA AMPLIT PERI AZIMU VELO AIN AR TRES W  DIS CAZ7
 BAR2 EZ EP       1030 11.75                             158   -0.1110 40.3  83 
 BAR2 EZ ES       1030 24.08                             158    0.0210 40.3  83 
 RUS  HZ EP       1030 15.58                             138    0.2010 88.5 145 
 RUS  HE ES       1030 30.28                             138   -0.0610 88.5 145 
 SPBC HZ EP       1030 16.78                             129   -0.4010  115 211 
 SPBC HN ES       1030 33.73                             129    0.2010  115 211 
 SPBC HZ I        1030 39.00         6.1 0.10            130            115 211 
 ZAR  HZ EP       1030 24.00                             116    0.32 9  179 306 
 ZAR  HE ES       1030 44.97                             116   -0.14 9  179 306 
 ZAR  HZ I        1030 48.35         5.7 0.31            118            179 306 
                                                                                
