 2017  221 1233 27.5 L   7.388 -73.369 95.9  RSN  4 0.3 1.0LRSN                1
 GAP=223        0.65       7.2     9.1  7.1  0.4535E+02 -0.3507E+02 -0.1405E+02E
 Epicentro: SABANA DE TORRES - SANTANDER                                       3
 ACTION:UPD 17-05-24 15:39 OP:jn   STATUS:               ID:20170221123327 L   I
 OLDACT:UP  17-02-21 22:36 OP:cog  STATUS:               ID:20170221122746     3
 OLDACT:REG 17-02-21 20:54 OP:cog  STATUS:               ID:20170221122746     3
 2017-02-21-1228-00M.COL___373                                                 6
 STAT SP IPHASW D HRMM SECON CODA AMPLIT PERI AZIMU VELO AIN AR TRES W  DIS CAZ7
 BRR  HZ EP       1233 42.20                             152    0.1910 49.0 231 
 BRR  HN ES       1233 53.09                             152   -0.2410 49.0 231 
 BRR  HZ I        1233 58.38         5.4 0.44            159           49.0 231 
 PAM  EZ EP   4   1233 38.53                             139   -5.94 0 74.1  94 
 PAM  EN ES   3   1233 57.30                             139   -0.40 2 74.1  94 
 PAM  EZ I        1234  1.52         1.9 0.26            143           74.1  94 
 BAR2 EZ EP       1233 45.37                             134   -0.1310 90.4 167 
 BAR2 EZ ES       1233 59.92                             134    0.3810 90.4 167 
 BAR2 EZ I        1234  0.87         6.2 0.36            140           90.4 167 
 RUS  HZ EP       1233 53.96                             116    0.13 9  168 169 
 RUS  HN ES       1234 14.02                             116   -0.34 9  168 169 
 RUS  HZ I        1234 17.07         0.7 0.44            121            168 169 
                                                                                
