 2014 1121 1055 29.4 L   6.767 -73.139142.7  RSN  5 0.4 1.2LRSN                1
 GAP=139        0.87       5.4     5.1  7.4 -0.4498E+01  0.2312E+01  0.4682E+01E
 Epicentro: LOS SANTOS - SANTANDER                                             3
 ACTION:UPD 14-12-19 15:45 OP:nd   STATUS:               ID:20141121105529 L   I
 OLDACT:REG 14-11-21 21:11 OP:spq  STATUS:               ID:20141121104748     3
 2014-11-21-1047-48M.COL___304                                                 6
 STAT SP IPHASW D HRMM SECON CODA AMPLIT PERI AZIMU VELO AIN AR TRES W  DIS CAZ7
 BAR2 SZ EP       1055 48.61                             172    0.0410 20.0 194 
 BAR2 SZ ES   1   1056  3.08                             172   -0.46 7 20.0 194 
 BAR2 SZ I        1056  4.57         2.8 0.04            172           20.0 194 
 BRR  HZ EP       1055 50.48                             151    0.1510 73.6 301 
 BRR  HE ES       1056  7.25                             151    0.5710 73.6 301 
 BRR  HZ I        1056 10.73         9.0 0.40            152           73.6 301 
 PAM  SZ EP     C 1055 51.42                             150    0.0110 79.7  37 
 PAM  SN ES       1056  8.31                             150   -0.2810 79.7  37 
 PAM  SZ I        1056 10.39         3.3 0.54            153           79.7  37 
 RUS  HZ EP   1   1055 52.99                             144    0.43 7 96.9 176 
 RUS  HE ES   1   1056 10.83                             144    0.19 7 96.9 176 
 RUS  HZ I        1056 13.11         1.7 0.36            147           96.9 176 
 PTB  HZ EP   1   1055 55.39                             131   -0.71 7  148 260 
 PTB  HN ES   1   1056 16.49                             131   -0.46 7  148 260 
 PTB  HZ I        1056 18.62         1.7 0.18            133            148 260 
                                                                                
