 2010 1121 1403  6.0 L   6.779 -73.176148.9  RSN  4 0.1 1.5LRSN                1
 GAP=207        0.36       6.3    11.9  4.7  0.5646E+02 -0.1635E+01  0.3499E+01E
 Epicentro: LOS SANTOS - SANTANDER                                             3
 ACTION:UP  10-12-17 16:54 OP:REBC STATUS:               ID:20101121140306 L   I
 2010-11-21-1400-25S.COL___132                                                 6
 STAT SP IPHASW D HRMM SECON CODA AMPLIT PERI AZIMU VELO SNR AR TRES W  DIS CAZ7
 BTL  SZ EP   1   14 3 25.75                             173    -0.1 7   18 327 
 BTL  SZ ES   1   14 3 41.57                             173     0.1 7   18 327 
 BAR2 SZ EP   2   14 3 25.70                             172    -0.2 5   21 182 
 BAR2 SZ I        14 3 26.08         6.1 0.43                            21 182 
 BAR2 SZ ES   3   14 3 41.43                             172    -0.1 2   21 182 
 BRR  HZ EP   1   14 3 27.46                             154     0.1 7   70 302 
 BRR  HE ES   2   14 3 43.94                             154    -0.1 5   70 302 
 BRR  HZ I        14 3 47.63        14.1 0.37                            70 302 
 RUS  HZ EP   1   14 3 30.03                             145     0.1 7   99 174 
 RUS  HN ES   2   14 3 48.45                             145    -0.1 5   99 174 
 RUS  HZ I        14 3 50.26         3.1 0.29                            99 174 
                                                                                
