 2013  721 1039  6.7 L   6.841 -73.128139.8  RSN 10 0.5 1.8LRSN                1
 GAP=193        1.27       4.2     6.4  6.7  0.4882E+01  0.1072E+02  0.7569E+00E
 Epicentro: LOS SANTOS - SANTANDER                                             3
 ACTION:UPD 13-08-12 10:39 OP:ep   STATUS:               ID:20130721103906 L   I
 OLDACT:REG 13-07-21 16:46 OP:nd   STATUS:               ID:20130721103836     3
 2013-07-21-1038-36M.COL___228                                                 6
 STAT SP IPHASW D HRMM SECON CODA AMPLIT PERI AZIMU VELO AIN AR TRES W  DIS CAZ7
 GIR2 SZ EP       1039 25.78                             168    0.1910 27.3 345 
 GIR2 SZ ES       1039 39.52                             168   -0.7810 27.3 345 
 GIR2 SZ I        1039 42.57        13.0 0.34            167           27.3 345 
 BAR2 SZ EP       1039 25.79                             168    0.0310 28.1 192 
 BAR2 SZ ES       1039 40.47                             168   -0.1310 28.1 192 
 BAR2 SZ I        1039 44.17        10.6 0.20            166           28.1 192 
 BRR  HZ IP     C 1039 27.61                             151    0.3910 71.0 295 
 BRR  HN ES       1039 44.34                             151    1.1310 71.0 295 
 BRR  HZ I        1039 48.56        17.3 0.50            149           71.0 295 
 RUS  HZ EP       1039 30.48                             141    0.2510  105 177 
 RUS  HN ES       1039 48.65                             141    0.0910  105 177 
 RUS  HZ I        1039 50.33         3.2 0.18            143            105 177 
 PTB  HZ EP       1039 33.64                             130    0.15 9  151 257 
 PTB  HN ES       1039 53.41                             130   -0.95 9  151 257 
 PTB  HZ I        1039 56.32        12.0 0.14            130            151 257 
 SPBC HZ EP       1039 35.11                             127   -0.13 9  168 219 
 SPBC HN ES       1039 57.29                             127   -0.19 9  168 219 
 SPBC HZ I        1040  5.26         6.6 0.20            127            168 219 
 ZAR  HZ EP       1039 38.63                             121   -0.18 9  204 291 
 ZAR  HE ES       1040  4.61                             121    0.77 9  204 291 
 ZAR  HZ I        1040 10.25         6.8 0.30            122            204 291 
 SML  HZ EP       1039 42.51                             116   -0.16 8  240 334 
 SML  HN ES       1040  9.92                             116   -0.79 8  240 334 
 SML  HZ I        1040 15.19         9.0 0.26            118            240 334 
 PRA  HZ EP       1040  0.84                             105    0.21 6  397 209 
 PRA  HN ES       1040 42.35                             105   -0.31 6  397 209 
 PRA  HZ I        1040 48.29         3.3 0.32            107            397 209 
 SJC  HZ EP   4   1040  0.53                             105   -1.26 0  407 326 
 SJC  HN ES   4   1040 41.97                             105   -2.76 0  407 326 
 SJC  HZ I        1040 44.91         1.6 0.58            106            407 326 
                                                                                
