 2012  921 1649 49.4 L   6.828 -73.141143.1  RSN  5 0.2 1.5LRSN                1
 GAP=136        0.47       3.8     4.7  7.5 -0.1369E+00  0.8182E+01  0.7048E+01E
 Epicentro: LOS SANTOS - SANTANDER                                             3
 ACTION:UPD 12-10-22 14:20 OP:ep   STATUS:               ID:20120921164949 L   I
 2012-09-21-1644-50M.COL___215                                                 6
 STAT SP IPHASW D HRMM SECON CODA AMPLIT PERI AZIMU VELO AIN AR TRES W  DIS CAZ7
 BAR2 SZ EP   1   1650  8.67                             169   -0.09 7 26.5 190 
 BAR2 SZ I        1650 26.39         6.6 0.34                          26.5 190 
 BRR  HZ EP   1   1650 10.40                             152    0.21 7 70.2 296 
 BRR  HZ I        1650 21.72        10.0 0.49                          70.2 296 
 BRR  HN ES   2   1650 26.82                             152    0.40 5 70.2 296 
 PAM  SN ES   1   1650 27.93                             151   -0.20 7 74.6  41 
 PAM  SZ I        1650 30.24         5.3 0.50                          74.6  41 
 RUS  HZ EP   1   1650 13.07                             142   -0.03 7  104 176 
 RUS  HN ES   1   1650 31.74                             142    0.14 7  104 176 
 PTB  HN ES   2   1650 36.67                             131   -0.52 5  149 258 
                                                                                
