 2012  521 1040 49.8 L   7.413 -73.175134.0  RSN  5 0.4 1.4LRSN                1
 GAP=219        0.75       8.4     6.4  9.8 -0.1900E+01  0.2340E+01 -0.3253E+02E
 Epicentro: EL PLAYON - SANTANDER                                              3
 ACTION:UP  12-07-05 12:07 OP:pat  STATUS:               ID:20120521104049 L   I
 2012-05-21-1040-00S.COL___200                                                 6
 STAT SP IPHASW D HRMM SECON CODA AMPLIT PERI AZIMU VELO SNR AR TRES W  DIS CAZ7
 PAM  SZ EP   1   1041  9.54                             158     0.1 7   53  99 
 BRR  HZ EP   1   1041  9.71                             152     0.2 7   68 240 
 BRR  HE ES   2   1041 23.91                             152    -1.0 5   68 240 
 BAR2 SZ EP   1   1041 11.39                             144     0.1 7   91 181 
 BAR2 SZ ES       1041 28.33                             144     0.210   91 181 
 BAR2 SZ I        1041 29.38         4.5 0.20                            91 181 
 RUS  HZ EP   1   1041 18.04                             126    -0.4 7  168 177 
 RUS  HZ I        1041 38.40         2.1 0.78                           168 177 
 RUS  HN ES   2   1041 40.46                             126    -0.4 5  168 177 
 PTB  HZ EP   1   1041 17.96                             125    -0.2 7  171 236 
 PTB  HN ES   1   1041 40.60                             125     0.4 7  171 236 
 PTB  HZ I        1041 43.50         3.4 0.17                           171 236 
                                                                                
