 2013 1121 1333 35.1 L   6.798 -73.162144.8  RSN 11 0.5 2.1LRSN                1
 GAP=135        1.28       4.1     5.1  7.0 -0.2518E+01  0.1140E+02 -0.1518E+01E
 Epicentro: LOS SANTOS - SANTANDER                                             3
 ACTION:UPD 14-01-09 16:30 OP:ep   STATUS:               ID:20131121133335 L   I
 OLDACT:REG 13-11-21 15:43 OP:nd   STATUS:               ID:20131121133000     3
 2013-11-21-1330-00M.COL___282                                                 6
 STAT SP IPHASW D HRMM SECON CODA AMPLIT PERI AZIMU VELO AIN AR TRES W  DIS CAZ7
 BAR2 SZ EP       1333 54.52                             171   -0.0710 22.9 186 
 BAR2 SZ ES       1334  9.91                             171    0.1110 22.9 186 
 BAR2 SZ I        1334 11.38        31.6 0.26            171           22.9 186 
 BRR  HZ EP       1333 56.60                             153    0.5610 69.7 299 
 BRR  HN ES       1334 13.47                             153    1.0810 69.7 299 
 BRR  HZ I        1334 18.88        13.4 0.14            151           69.7 299 
 PAM  SZ EP       1333 57.37                             150    0.1010 78.7  40 
 PAM  SN ES       1334 14.33                             150   -0.2510 78.7  40 
 PAM  SZ I        1334 16.85        14.7 0.56            154           78.7  40 
 RUS  HZ EP       1333 58.44                             144   -0.3010  101 175 
 RUS  HN ES       1334 16.94                             144   -0.2410  101 175 
 RUS  HZ I        1334 20.17         7.7 0.34            148            101 175 
 PTB  HZ EP       1334  1.53                             132   -0.28 9  146 259 
 PTB  HN ES       1334 22.33                             132   -0.32 9  146 259 
 PTB  HZ I        1334 28.37        15.6 0.52            133            146 259 
 SPBC HZ EP       1334  3.59                             129    0.20 9  162 219 
 SPBC HN ES       1334 25.25                             129   -0.21 9  162 219 
 SPBC HZ I        1334 32.70        21.4 0.26            131            162 219 
 ZAR  HZ EP       1334  7.02                             122   -0.28 9  202 292 
 ZAR  HN ES       1334 32.33                             122   -0.10 9  202 292 
 ZAR  HZ I        1334 38.21        15.1 0.46            124            202 292 
 NOR  HZ EP       1334 10.43                             119   -0.16 8  233 234 
 NOR  HN ES       1334 37.63                             119   -0.65 8  233 234 
 NOR  HZ I        1334 41.01         9.0 0.26            121            233 234 
 SML  HZ EP       1334 12.16                             117    0.57 8  243 336 
 SML  HN ES       1334 38.86                             117   -1.21 8  243 336 
 SML  HZ I        1334 44.39        18.5 0.10            119            243 336 
 GUY2CHZ EP       1334 19.80                             112    1.33 7  300 235 
 GUY2CHN ES   2   1334 52.90                             112    0.59 4  300 235 
 GUY2CHZ I        1335  1.93         6.6 0.60                           300 235 
 SJC  HZ EP   4   1334 28.86                             106   -1.66 0  408 327 
 SJC  HN ES   4   1335  9.22                             106   -4.53 0  408 327 
 SJC  HZ I        1335 23.18         1.5 0.26            108            408 327 
                                                                                
