 2014  921 1135 22.0 L   6.807 -73.165145.6  RSN  9 0.5 1.6LRSN                1
 GAP=134        1.33       4.2     5.6  8.7 -0.1177E+01  0.1010E+02 -0.6755E+01E
 Epicentro: LOS SANTOS - SANTANDER                                             3
 ACTION:UPD 14-10-03 23:07 OP:nd   STATUS:               ID:20140921113522 L   I
 OLDACT:DUP 14-09-22 00:13 OP:carl STATUS:               ID:20140921112820d    3
 2014-09-21-1128-19M.COL___284                                                 6
 STAT SP IPHASW D HRMM SECON CODA AMPLIT PERI AZIMU VELO AIN AR TRES W  DIS CAZ7
 BAR2 SZ EP       1135 41.76                             170    0.1210 23.8 185 
 BAR2 SZ ES       1135 56.81                             170   -0.1310 23.8 185 
 BAR2 SZ I        1135 57.71         9.1 0.18            170           23.8 185 
 BRR  HZ EP       1135 43.81                             153    0.7810 68.9 299 
 BRR  HN ES       1136  0.10                             153    0.6910 68.9 299 
 BRR  HZ I        1136  3.00        10.6 0.26            151           68.9 299 
 PAM  SZ EP       1135 44.59                             150    0.3210 78.2  41 
 PAM  SN ES       1136  1.30                             150   -0.3210 78.2  41 
 PAM  SZ I        1136  3.63         4.2 0.38            154           78.2  41 
 RUS  HZ EP       1135 45.59                             143   -0.2410  102 175 
 RUS  HN ES       1136  4.52                             143    0.1310  102 175 
 RUS  HZ I        1136  5.84         4.3 0.40            146            102 175 
 PTB  HZ EP       1135 48.70                             132   -0.10 9  146 258 
 PTB  HN ES       1136  8.48                             132   -1.20 9  146 258 
 PTB  HZ I        1136 12.09         6.4 0.14            132            146 258 
 OCA  HN ES       1136 11.86                             130   -0.37 9  159 354 
 SPBC HN ES       1136 12.52                             129   -0.08 9  162 218 
 SPBC HZ I        1136 16.66         4.9 0.26            130            162 218 
 ZAR  HN ES       1136 20.23                             123    0.89 9  202 292 
 ZAR  HZ I        1136 28.65         5.2 0.52            123            202 292 
 SML  HZ EP       1135 58.28                             118   -0.19 8  242 336 
 SML  HE ES       1136 26.32                             118   -0.58 8  242 336 
                                                                                
