 2014  421 1925  9.7 L   7.434 -73.192134.8  RSN 10 0.2 2.2LRSN                1
 GAP= 69        0.48       2.6     1.9  3.3  0.1450E+00  0.1771E+00  0.6844E-01E
 Epicentro: EL PLAYON - SANTANDER                                              3
 OLDACT:REG 14-04-21 22:13 OP:fm   STATUS:               ID:20140421191817     3
 ACTION:UPD 14-05-13 23:10 OP:nd   STATUS:               ID:20140421192509 L   I
 OLDACT:UP  14-04-22 00:39 OP:fm   STATUS:               ID:20140421191817     3
 2014-04-21-1918-17M.COL___245                                                 6
 STAT SP IPHASW D HRMM SECON CODA AMPLIT PERI AZIMU VELO AIN AR TRES W  DIS CAZ7
 PAM  SZ EP     C 1925 29.89                             157    0.3310 55.4 101 
 PAM  SN ES       1925 45.00                             157   -0.0310 55.4 101 
 PAM  SZ I        1925 47.52        31.3 0.18            142           55.4 101 
 BRR  HZ EP   1   1925 29.19                             152   -0.32 7 67.8 238 
 BRR  HN ES       1925 44.79                             152   -0.1510 67.8 238 
 BRR  SZ I        1925 46.67        46.3 0.20            133           67.8 238 
 OCA  HZ EP   1   1925 30.97                             144   -0.21 7 90.1 351 
 OCA  HN ES   1   1925 48.02                             144    0.12 7 90.1 351 
 OCA  SZ I        1925 49.85        32.5 0.22            137           90.1 351 
 RUS  HZ EP   1   1925 38.39                             125   -0.33 7  171 176 
 RUS  HE ES   4   1925 58.90                             125   -2.42 0  171 176 
 PTB  HZ EP   1   1925 38.10                             125   -0.01 7  171 235 
 PTB  HN ES   1   1926  0.33                             125    0.08 7  171 235 
 PTB  SZ I        1926  8.32         8.5 1.62            110            171 235 
 SML  HZ EP   1   1925 38.63                             123   -0.30 7  180 327 
 SML  HE ES   4   1926  0.59                             123   -1.11 0  180 327 
 ZAR  HZ EP   1   1925 39.54                             123    0.14 7  184 272 
 ZAR  HN ES   1   1926  2.92                             123    0.38 7  184 272 
 ZAR  SZ I        1926  6.06        28.6 0.44            110            184 272 
 TAM  HZ EP   1   1925 40.34                             122    0.26 7  190 125 
 TAM  SZ I        1926  3.25        18.2 0.38            108            190 125 
 TAM  HN ES   1   1926  3.78                             122    0.02 7  190 125 
 URE  HN ES   4   1926 15.26                             113   -2.02 0  261 278 
 SDV  BZ EP   1   1925 55.15                             108   -0.05 5  324  60 
 SDV  BN ES   4   1926 29.07                             108   -1.59 0  324  60 
 SDV  SZ I        1926 31.22         7.1 4.50            101            324  60 
 RREF HZ EP   4   1926  4.93                             106    4.13 0  368 221 
 RREF HN ES   4   1926 42.30                             106    1.67 0  368 221 
 RREF SZ I        1926 50.23         2.8 1.50             99            368 221 
                                                                                
