 2017  321 1943 28.1 L   6.783 -73.115140.0  RSN  8 0.5 2.0LRSN                1
 GAP=163        1.11       8.3     5.7  6.9 -0.7803E+01  0.8714E+01  0.1082E+02E
 Epicentro: LOS SANTOS - SANTANDER                                             3
 ACTION:UPD 17-05-25 18:43 OP:jn   STATUS:               ID:20170321194328 L   I
 OLDACT:UP  17-03-22 00:32 OP:cog  STATUS:               ID:20170321193744     3
 OLDACT:REG 17-03-21 20:56 OP:cog  STATUS:               ID:20170321193744     3
 2017-03-21-1938-00M.COL___406                                                 6
 STAT SP IPHASW D HRMM SECON CODA AMPLIT PERI AZIMU VELO AIN AR TRES W  DIS CAZ7
 BAR2 EZ ES       1944  1.19                             170   -0.5710 22.4 200 
 BRR  HZ EP       1943 48.82                             150   -0.0310 75.1 299 
 BRR  HN ES       1944  5.69                             150    0.6510 75.1 299 
 BRR  HZ I        1944  6.26        21.5 0.30            145           75.1 299 
 PAM  EZ EP       1943 49.78                             150    0.1310 76.7  37 
 PAM  EN ES       1944  6.63                             150    0.1610 76.7  37 
 PAM  EZ I        1944  8.73        10.4 0.52            148           76.7  37 
 PTB  HZ EP   9   1943 53.58                             130   -1.29 0  151 260 
 PTB  HN ES       1944 14.77                             130    0.30 9  151 260 
 PTB  HZ I        1944 17.29        11.3 0.20            128            151 260 
 ZAR  HZ EP       1943 59.94                             121   -0.63 8  208 292 
 ZAR  HN ES       1944 25.47                             121   -0.44 8  208 292 
 ZAR  HZ I        1944 30.81        10.9 0.19            119            208 292 
 NOR  HZ EP       1944  3.62                             117   -0.06 8  236 235 
 NOR  HN ES   4   1944 30.43                             117   -1.00 0  236 235 
 NOR  HZ I        1944 32.90         8.1 0.26            117            236 235 
 URE  HZ EP   4   1944  7.95                             112   -1.37 0  288 292 
 URE  HN ES   4   1944 43.14                             112    1.66 0  288 292 
 URE  HZ I        1944 47.44         7.6 0.36            111            288 292 
 GUY2CHZ EP       1944 12.57                             111    0.94 7  303 235 
 GUY2CHN ES   4   1944 49.30                             111    3.70 0  303 235 
 GUY2CHZ  IAML    1944 51.46         5.2 0.44                           303 235 
                                                                                
