 2015  321 1745 30.3 L   6.810 -73.150145.7  RSN 13 0.5 2.4LRSN                1
 GAP=135        1.10       3.1     4.3  5.8 -0.2578E+01  0.8556E+01 -0.1061E+01E
 Epicentro: LOS SANTOS - SANTANDER                                             3
 ACTION:UPD 15-04-30 16:28 OP:nd   STATUS:               ID:20150321174530 L   I
 OLDACT:UP  15-03-21 23:51 OP:cam  STATUS:               ID:20150321173750     3
 OLDACT:REG 15-03-21 20:01 OP:cam  STATUS:               ID:20150321173750     3
 2015-03-21-1737-50M.COL___275                                                 6
 STAT SP IPHASW D HRMM SECON CODA AMPLIT PERI AZIMU VELO AIN AR TRES W  DIS CAZ7
 BAR2 EZ EP     C 1745 49.93                             170    0.0210 24.4 188 
 BAR2 EZ ES       1746  5.07                             170   -0.1610 24.4 188 
 BAR2 EZ I        1746  5.85        59.2 0.34            171           24.4 188 
 BRR  HZ IP     D 1745 51.83                             153    0.4810 70.2 298 
 BRR  HN ES       1746  8.53                             153    0.7310 70.2 298 
 BRR  HZ I        1746 11.93        22.0 0.28            149           70.2 298 
 PAM  SZ IP     D 1745 52.74                             151    0.3010 76.9  40 
 PAM  SN ES       1746  9.73                             151   -0.0110 76.9  40 
 PAM  SZ I        1746 11.52        55.8 0.56            153           76.9  40 
 RUS  HZ EP     C 1745 53.80                             144   -0.3010  102 176 
 RUS  HN ES       1746 12.48                             144   -0.2010  102 176 
 RUS  HZ I        1746 13.16        31.3 0.24            148            102 176 
 PTB  HZ EP     C 1745 56.99                             132   -0.21 9  147 258 
 PTB  HN ES       1746 17.18                             132   -1.03 9  147 258 
 PTB  HZ I        1746 20.40        23.8 0.36            132            147 258 
 OCA  HZ EP   4   1745 59.40                             130    0.94 0  159 353 
 OCA  HN ES       1746 20.24                             130   -0.21 9  159 353 
 OCA  HZ I        1746 24.50        65.4 0.24            130            159 353 
 SPBC HZ EP       1745 58.67                             129   -0.14 9  164 219 
 SPBC HN ES       1746 20.79                             129   -0.29 9  164 219 
 SPBC HZ I        1746 23.68        31.3 0.12            130            164 219 
 ZAR  HZ EP       1746  3.10                             122    0.48 9  203 292 
 ZAR  HN ES       1746 28.32                             122    0.47 9  203 292 
 ZAR  HZ I        1746 34.44        26.7 0.30            122            203 292 
 NOR  HZ EP       1746  6.44                             118    0.42 8  235 234 
 NOR  HN ES       1746 33.80                             118   -0.10 8  235 234 
 NOR  HZ I        1746 36.79        18.9 0.30            120            235 234 
 SML  HZ EP       1746  6.32                             117   -0.44 8  242 335 
 SML  HE ES       1746 35.09                             117   -0.13 8  242 335 
 SML  HZ I        1746 40.60        17.1 0.26            118            242 335 
 URE  HN ES   4   1746 41.28                             114   -1.91 0  283 292 
 URE  HN I        1746 52.32        31.9 0.26            114            283 292 
 GUY2CHZ EP       1746 14.61                             112    0.71 7  301 235 
 GUY2CHE ES       1746 48.43                             112    0.50 7  301 235 
 GUY2CHZ I        1746 57.39        11.2 0.34                           301 235 
 SJC  HZ EP       1746 24.46                             106   -1.22 6  408 327 
 SJC  HN ES   4   1747  5.27                             106   -3.64 0  408 327 
 SJC  HZ I        1747  9.77        10.1 0.52            107            408 327 
                                                                                
