 2015 1121 1950 42.1 L   6.710 -73.489112.9  RSN  6 0.3 1.7LRSN                1
 GAP=146        0.62       2.8     2.8  4.4  0.2912E+01  0.3278E+01 -0.3177E+00E
 Epicentro: EL CARMEN - SANTANDER                                              3
 ACTION:UPD 15-12-28 16:12 OP:cam  STATUS:               ID:20151121195042 L   I
 OLDACT:UP  15-11-22 01:42 OP:ak   STATUS:               ID:20151121194150     3
 OLDACT:REG 15-11-21 22:07 OP:ak   STATUS:               ID:20151121194150     3
 2015-11-21-1941-50M.COL___316                                                 6
 STAT SP IPHASW D HRMM SECON CODA AMPLIT PERI AZIMU VELO AIN AR TRES W  DIS CAZ7
 BAR2 EZ EP       1950 58.39                             161    0.2110 36.3 111 
 BAR2 EZ ES       1951 10.85                             161    0.1010 36.3 111 
 BAR2 EZ I        1951 11.42        24.4 0.20            160           36.3 111 
 BRR  HZ EP       1950 58.28                             154   -0.2010 50.4 331 
 BRR  HN ES       1951 10.94                             154   -0.3510 50.4 331 
 BRR  HZ I        1951 12.49        16.9 0.25            153           50.4 331 
 RUS  HZ EP       1951  2.73                             135   -0.0410  101 154 
 RUS  HN ES       1951 18.82                             135   -0.1010  101 154 
 RUS  HZ I        1951 20.01         7.7 0.22            137            101 154 
 PAM  EZ EP       1951  3.85                             132    0.1410  112  51 
 PAM  EN ES       1951 20.67                             132    0.0810  112  51 
 PAM  EZ I        1951 25.34         7.3 0.32            131            112  51 
 ZAR  HZ EP       1951  9.44                             118    0.10 9  174 300 
 ZAR  HE ES       1951 30.96                             118    0.35 9  174 300 
 ZAR  HZ I        1951 32.18         8.7 0.30            119            174 300 
 SJC  HZ EP   1   1951 34.51                             100   -0.95 4  399 332 
 SJC  HE ES   4   1952 14.13                             100   -2.99 0  399 332 
                                                                                
