 2011 1021 1623 36.8 L   6.755 -73.136142.9  RSN  8 0.4 2.0LRSN                1
 GAP=140        0.91       4.6     5.1  7.8 -0.3394E+01  0.1149E+02 -0.1639E+01E
 Epicentro: LOS SANTOS - SANTANDER                                             3
 ACTION:UPD 12-07-13 16:05 OP:ep   STATUS:               ID:20111021162336 L   I
 2011-10-21-1620-35S.COL___171                                                 6
 STAT SP IPHASW D HRMM SECON CODA AMPLIT PERI AZIMU VELO AIN AR TRES W  DIS CAZ7
 BAR2 SZ EP       1623 56.28                             172    0.2510 18.7 196 
 BAR2 SZ ES   1   1624 10.89                             172   -0.12 7 18.7 196 
 BAR2 SZ I        1624 12.22        16.1 0.18                          18.7 196 
 BRR  HZ EP   1   1623 58.24                             151    0.37 7 74.6 301 
 BRR  HE ES   1   1624 14.77                             151    0.50 7 74.6 301 
 BRR  HZ I        1624 16.66        33.0 0.12                          74.6 301 
 PAM  SZ EP   1   1623 58.96                             149    0.02 7 80.6  37 
 PAM  SN ES   1   1624 15.60                             149   -0.59 7 80.6  37 
 RUS  HZ EP       1624  0.32                             145    0.3810 95.6 176 
 RUS  HN ES   1   1624 17.94                             145   -0.02 7 95.6 176 
 RUS  HZ I        1624 19.68         7.8 0.20                          95.6 176 
 OCA  SZ EP   1   1624  4.67                             128   -0.73 7  165 353 
 ZAR  HZ EP   1   1624  9.70                             121    0.31 6  207 293 
 ZAR  HN ES   1   1624 34.95                             121    0.17 6  207 293 
 ZAR  HZ I        1624 40.02        11.3 0.44                           207 293 
 NOR  SE ES       1624 38.86                             118   -0.89 8  233 236 
 RREF HN ES   2   1624 58.40                             110    0.15 3  319 230 
 RREF HZ I        1625  5.35         5.1 0.22                           319 230 
                                                                                
