 2016 1221 1254 16.3 L   6.791 -73.106144.3  RSN  5 0.3 1.4LRSN                1
 GAP=142        0.62       3.9     4.0  5.7 -0.5729E+01  0.2894E+01  0.8090E-01E
 Epicentro: LOS SANTOS - SANTANDER                                             3
 ACTION:UPD 17-01-11 20:17 OP:rebc STATUS:               ID:20161221125416 L   I
 OLDACT:UP  16-12-21 22:40 OP:dani STATUS:               ID:20161221124748d    3
 OLDACT:DUP 16-12-21 22:38 OP:dani STATUS:               ID:20161221124748d    3
 OLDACT:UP  16-12-21 22:37 OP:dani STATUS:               ID:20161221124747d    3
 OLDACT:UP  16-12-21 22:36 OP:dani STATUS:               ID:20161221124747d    3
 OLDACT:DUP 16-12-21 22:14 OP:dani STATUS:               ID:20161221124747d    3
 OLDACT:UP  16-12-21 22:13 OP:dani STATUS:               ID:20161221124746d    3
 OLDACT:REG 16-12-21 20:12 OP:dani STATUS:               ID:20161221124746d    3
 2016-12-21-1248-00M.COL___372                                                 6
 STAT SP IPHASW D HRMM SECON CODA AMPLIT PERI AZIMU VELO AIN AR TRES W  DIS CAZ7
 BAR2 EZ EP       1254 35.50                             170   -0.2510 23.6 201 
 BAR2 EZ ES       1254 51.05                             170    0.1210 23.6 201 
 BAR2 EZ I        1254 53.46         7.9 0.26            172           23.6 201 
 PAM  EZ EP       1254 38.15                             151   -0.0810 75.4  36 
 PAM  EN ES       1254 55.60                             151    0.2510 75.4  36 
 PAM  EZ I        1254 57.91         3.3 0.44            153           75.4  36 
 RUS  HZ EP       1254 39.79                             144   -0.0210 99.4 179 
 RUS  HE ES       1254 58.15                             144   -0.0110 99.4 179 
 RUS  HZ I        1254 59.67         5.8 0.29            147           99.4 179 
 PTB  HE ES       1255  4.56                             131   -0.20 9  152 260 
 GUY2CHE ES   2   1255 35.71                             112    1.30 4  304 235 
                                                                                
