 2014  321 1939  7.6 L   6.824 -73.134144.2  RSN 10 0.3 1.9LRSN                1
 GAP=137        0.65       2.7     3.3  5.0 -0.1556E+01  0.5740E+01 -0.7347E+00E
 Epicentro: LOS SANTOS - SANTANDER                                             3
 OLDACT:REG 14-03-21 15:36 OP:y    STATUS:               ID:20140321193815     3
 ACTION:UPD 14-04-09 23:19 OP:nd   STATUS:               ID:20140321193907 L   I
 OLDACT:UP  14-03-21 18:36 OP:fm   STATUS:               ID:20140321193815     3
 2014-03-21-1938-15M.COL___243                                                 6
 STAT SP IPHASW D HRMM SECON CODA AMPLIT PERI AZIMU VELO AIN AR TRES W  DIS CAZ7
 BAR2 SZ EP       1939 26.89                             169   -0.1810 26.2 192 
 BAR2 SZ ES   1   1939 42.01                             169   -0.28 7 26.2 192 
 BAR2 SZ I        1939 42.79        32.0 0.36            170           26.2 192 
 BRR  HZ EP       1939 28.62                             152    0.0810 71.1 296 
 BRR  HN ES   1   1939 45.29                             152    0.38 7 71.1 296 
 BRR  SZ I        1939 50.30        21.8 0.58            151           71.1 296 
 PAM  SZ EP       1939 29.72                             151    0.2710 74.5  40 
 PAM  SN ES       1939 46.47                             151   -0.0510 74.5  40 
 PAM  SZ I        1939 48.61        13.8 0.56            154           74.5  40 
 RUS  HZ EP       1939 31.37                             143    0.0210  103 177 
 RUS  HN ES       1939 50.01                             143    0.1010  103 177 
 RUS  SZ I        1939 50.72         6.7 1.04            147            103 177 
 PTB  HZ EP   1   1939 33.96                             131   -0.61 7  150 258 
 PTB  HE ES   1   1939 54.93                             131   -0.71 7  150 258 
 PTB  SZ I        1939 57.39        10.7 0.16            132            150 258 
 SPBC HN ES   1   1939 58.44                             128   -0.13 7  166 219 
 ZAR  HZ EP   1   1939 39.96                             122    0.03 6  204 291 
 ZAR  HN ES   2   1940  5.94                             122    0.76 4  204 291 
 ZAR  SZ I        1940  8.91         8.7 0.12            123            204 291 
 NOR  HZ EP   2   1939 43.44                             118   -0.04 4  237 234 
 NOR  HN ES   1   1940 12.18                             118    0.68 6  237 234 
 NOR  SZ I        1940 14.47         5.5 0.42            120            237 234 
 SML  HN ES   1   1940 12.12                             117   -0.13 6  242 335 
 GUY2CHZ EP   2   1939 51.53                             112    0.14 4  304 235 
 GUY2CHE ES   2   1940 25.92                             112    0.34 4  304 235 
 GUY2CSZ I        1940 30.16         2.7 1.38                           304 235 
                                                                                
