 2010 1121 1957 25.9 L   6.762 -73.085142.5  RSN  4 0.3 1.8LRSN                1
 GAP=166        0.61       4.5     9.7  8.7 -0.2872E+01 -0.2725E+02 -0.8106E+01E
 Epicentro: LOS SANTOS - SANTANDER                                             3
 ACTION:UP  10-12-17 16:54 OP:REBC STATUS:               ID:20101121195725 L   I
 2010-11-21-1953-50S.COL___131                                                 6
 STAT SP IPHASW D HRMM SECON CODA AMPLIT PERI AZIMU VELO SNR AR TRES W  DIS CAZ7
 BAR2 SZ EP   1   1957 44.62                             171    -0.4 8   22 210 
 BAR2 SZ ES   2   1957 59.65                             171    -0.4 5   22 210 
 BAR2 SZ I        1958  2.03        16.9 0.24                            22 210 
 BRR  HZ EP   1   1957 47.04                             149    -0.1 8   79 299 
 BRR  HZ I        1957 47.42        25.6 0.10                            79 299 
 BRR  HE ES   2   1958  3.97                             149     0.2 5   79 299 
 RUS  HZ EP   1   1957 49.07                             144     0.1 8   96 180 
 RUS  HE ES   2   1958  7.50                             144     0.5 5   96 180 
 RUS  HZ I        1958  8.35         5.0 0.13                            96 180 
 GRA  SZ IP     D 1957 51.17                             136     0.210  128  14 
 GRA  SZ ES   2   1958 10.63                             136     0.0 5  128  14 
                                                                                
