 2012  621 1350 47.2 L   6.873 -73.316123.0  RSN 15 0.4 2.7LRSN                1
 GAP= 97        0.76       2.3     3.0  4.7 -0.3763E+00  0.5230E+01  0.3150E+00E
 Epicentro: BETULIA - SANTANDER                                                3
 ACTION:UPD 12-08-06 17:51 OP:ep   STATUS:               ID:20120621135047 L   I
 2012-06-21-1350-00M.COL___199                                                 6
 STAT SP IPHASW D HRMM SECON CODA AMPLIT PERI AZIMU VELO AIN AR TRES W  DIS CAZ7
 BAR2 SZ IP       1351  4.63                             164    0.1610 34.4 155 
 BAR2 SZ ES   1   1351 17.62                             164   -0.28 7 34.4 155 
 BRR  HZ IP     C 1351  5.05                             156    0.2410 50.8 301 
 BRR  HN ES   1   1351 19.21                             156    0.70 7 50.8 301 
 BRR  HZ I        1351 20.28       266.0 0.17                          50.8 301 
 PAM  SZ EP       1351  7.65                             143   -0.0110 85.4  53 
 PAM  SN ES   1   1351 23.63                             143    0.06 7 85.4  53 
 RUS  HZ EP   1   1351  9.31                             135   -0.43 7  111 167 
 RUS  HE ES   1   1351 27.18                             135   -0.10 7  111 167 
 RUS  HZ I        1351 28.32        63.1 0.25                           111 167 
 PTB  HZ EP       1351  9.97                             130   -0.9210  131 254 
 PTB  HN ES   2   1351 29.06                             130   -0.27 5  131 254 
 PTB  HZ I        1351 32.10        65.6 0.21                           131 254 
 OCA  HZ EP       1351 12.74                             126   -0.22 9  151 360 
 OCA  HN ES   1   1351 32.48                             126   -0.54 7  151 360 
 ZAR  HZ EP       1351 16.33                             120    0.21 9  184 292 
 ZAR  HN ES   2   1351 38.91                             120    0.27 4  184 292 
 ZAR  HZ I        1351 44.47        98.9 0.32                           184 292 
 YOP  SN ES   1   1351 41.54                             118    0.49 6  195 149 
 NOR  SZ EP   1   1351 21.03                             114    0.37 6  225 230 
 NOR  SE ES   1   1351 46.92                             114    0.20 6  225 230 
 CHI  HZ EP   1   1351 24.39                             112    0.18 6  252 191 
 CHI  HE ES   1   1351 52.91                             112   -0.13 6  252 191 
 CHI  HZ I        1352  0.72        17.2 0.24                           252 191 
 HEL  HZ EP   1   1351 25.07                             111    0.48 6  256 253 
 HEL  HN ES   1   1351 53.51                             111   -0.20 6  256 253 
 HEL  HZ I        1351 59.79        31.5 0.20                           256 253 
 VIL  SZ EP   1   1351 29.65                             107   -0.64 5  308 188 
 DBB  SZ EP       1351 31.90                             106    0.27 7  320 273 
 DBB  SZ ES   2   1352  6.12                             106   -0.14 3  320 273 
 COD  HZ EP   1   1351 33.82                             105    0.10 5  339 358 
 COD  HN ES   1   1352 10.40                             105    0.44 5  339 358 
 COD  HZ I        1352 17.21        18.2 0.50                           339 358 
 PRA  HZ EP   1   1351 40.51                             102    0.64 4  390 207 
 PRA  HN ES   2   1352 21.51                             102    0.59 3  390 207 
                                                                                
