 2015  621 2026 45.4 L   6.808 -73.167137.1  RSN 10 0.5 1.7LRSN                1
 GAP=134        1.16       3.4     4.9  7.3 -0.3099E+01  0.1660E+02 -0.2292E+01E
 Epicentro: LOS SANTOS - SANTANDER                                             3
 ACTION:UPD 15-09-10 22:14 OP:cam  STATUS:               ID:20150621202645 L   I
 OLDACT:REG 15-06-22 02:41 OP:ak   STATUS:               ID:20150621201749     3
 2015-06-21-2017-49M.COL___328                                                 6
 STAT SP IPHASW D HRMM SECON CODA AMPLIT PERI AZIMU VELO AIN AR TRES W  DIS CAZ7
 BAR2 EZ EP       2027  4.00                             170   -0.0410 24.0 184 
 BAR2 EZ ES       2027 18.80                             170    0.2610 24.0 184 
 BAR2 EZ I        2027 20.49        13.0 0.15            170           24.0 184 
 BRR  HZ EP   1   2027  6.01                             152    0.50 7 68.7 299 
 BRR  HN ES   1   2027 22.02                             152    0.86 7 68.7 299 
 PAM  SZ EP       2027  7.15                             149    0.3710 78.2  41 
 PAM  SN ES       2027 22.55                             149   -0.8810 78.2  41 
 PAM  SZ I        2027 26.35        11.0 0.63            153           78.2  41 
 RUS  HZ EP       2027  8.79                             141    0.3610  102 175 
 RUS  HE ES       2027 26.20                             141   -0.1610  102 175 
 RUS  HZ I        2027 28.14         4.0 0.14            145            102 175 
 OCA  HZ EP       2027 13.41                             128    0.44 9  159 354 
 OCA  HN ES       2027 33.98                             128   -0.47 9  159 354 
 OCA  HZ I        2027 39.02        13.8 0.30            130            159 354 
 ZAR  HZ EP   1   2027 17.84                             121    0.77 6  202 292 
 ZAR  HN ES       2027 42.35                             121    0.61 9  202 292 
 ZAR  HZ I        2027 48.60         7.0 0.42            122            202 292 
 NOR  HZ EP       2027 20.43                             117   -0.10 8  233 234 
 NOR  HN ES       2027 47.04                             117   -0.87 8  233 234 
 NOR  HZ I        2027 51.88         3.0 0.14            118            233 234 
 SML  HZ EP   1   2027 20.97                             116   -0.42 6  242 336 
 SML  HE ES       2027 48.91                             116   -0.53 8  242 336 
 HEL  HZ EP   1   2027 25.52                             113    0.52 6  270 255 
 HEL  HN ES   1   2027 55.27                             113   -0.58 6  270 255 
 HEL  HZ I        2028  2.84         3.0 0.35            115            270 255 
 GUY2CHZ EP   1   2027 28.02                             111   -0.49 5  300 234 
 GUY2CHN ES       2028  1.85                             111   -0.25 7  300 234 
 GUY2CHZ I        2028  7.50         1.5 0.27                           300 234 
 SJC  HZ EP   4   2027 37.18                             104   -3.31 0  407 327 
 SJC  HN ES   4   2028 16.63                             104   -6.79 0  407 327 
                                                                                
