 2011  621 2239 51.9 L   6.813 -73.095142.4  RSN  8 0.3 2.1LRSN                1
 GAP=142        0.73       3.3     5.8  5.5 -0.5562E+01  0.4337E+01 -0.1552E+01E
 Epicentro: LOS SANTOS - SANTANDER                                             3
 ACTION:UP  11-07-14 19:07 OP:ep   STATUS:               ID:20110621223951 L   I
 2011-06-21-2239-30S.COL___140                                                 6
 STAT SP IPHASW D HRMM SECON CODA AMPLIT PERI AZIMU VELO SNR AR TRES W  DIS CAZ7
 BAR2 SZ EP       2240 11.13                             169    -0.110   26 202 
 BAR2 SZ ES   1   2240 26.36                             169     0.1 7   26 202 
 BAR2 SZ I        2240 28.13        22.4 0.26                            26 202 
 PAM  SZ EP   1   2240 13.76                             152     0.2 7   73  37 
 PAM  SE ES   1   2240 30.51                             152     0.2 7   73  37 
 BRR  HZ EP       2240 12.82                             151    -0.110   76 296 
 BRR  HE ES   1   2240 29.47                             151     0.1 7   76 296 
 BRR  HZ I        2240 31.07        33.3 0.16                            76 296 
 RUS  HZ EP   1   2240 15.26                             143    -0.2 7  102 179 
 RUS  HN ES   1   2240 33.55                             143    -0.2 7  102 179 
 RUS  HZ I        2240 35.83        19.6 0.27                           102 179 
 BRI  SZ EP       2240 15.44                             141     0.210  105  18 
 BRI  SZ ES   1   2240 33.94                             141     0.5 7  105  18 
 BRI  SZ I        2240 39.00        19.0 0.54                           105  18 
 GRA  SZ IP       2240 16.73                             137     0.110  123  15 
 GRA  SZ ES   1   2240 35.44                             137    -0.4 7  123  15 
 GRA  SZ I        2240 37.37        22.2 0.30                           123  15 
 OCA  SZ EP   1   2240 19.49                             129    -0.4 7  160 351 
 OCA  SZ ES   1   2240 41.37                             129    -0.4 7  160 351 
 OCA  SZ I        2240 45.58        14.0 0.23                           160 351 
 HEL  HZ EP   1   2240 33.27                             114     0.7 6  278 256 
 HEL  HZ I        2241  8.36         6.4 0.29                           278 256 
                                                                                
