 2012  221 2153 11.5 L   6.762 -73.148137.1  RSN  9 0.4 1.9LRSN                1
 GAP=138        0.82       4.6     4.6  6.3 -0.4978E+01  0.6340E+01  0.2911E+01E
 ACTION:UP  12-03-07 16:32 OP:epov STATUS:               ID:20120221215311 L   I
 2012-02-21-2150-00M.COL___191                                                 6
 STAT SP IPHASW D HRMM SECON CODA AMPLIT PERI AZIMU VELO AIN AR TRES W  DIS CAZ7
 BAR2 SZ EP       2153 30.10                             172    0.1410 19.2 192 
 BAR2 SZ ES   1   2153 44.47                             172    0.07 7 19.2 192 
 BAR2 SZ I        2153 45.77        21.3 0.23                          19.2 192 
 GIR2 SZ EP   1   2153 30.03                             165   -0.19 7 35.4 352 
 BRR  HZ EP   1   2153 31.94                             150    0.15 7 73.1 301 
 BRR  HZ I        2153 32.28        38.8 0.08                          73.1 301 
 BRR  HN ES   1   2153 48.22                             150    0.58 7 73.1 301 
 PAM  SZ EP       2153 33.03                             148    0.0610 80.8  38 
 PAM  SN ES   1   2153 49.52                             148   -0.23 7 80.8  38 
 RUS  HZ EP   1   2153 33.79                             143   -0.27 7 96.4 176 
 RUS  HN ES   1   2153 51.52                             143   -0.16 7 96.4 176 
 RUS  HZ I        2153 54.83         6.3 0.29                          96.4 176 
 PTB  HZ EP   1   2153 36.98                             130   -0.66 7  147 260 
 PTB  HN ES   1   2153 57.48                             130   -0.58 7  147 260 
 ZAR  HZ EP   1   2153 43.85                             120    0.35 6  205 293 
 ZAR  HZ I        2154 14.30        10.5 0.27                           205 293 
 NOR  SZ EP   1   2153 45.85                             117   -0.57 6  232 235 
 NOR  SN ES   1   2154 14.10                             117    0.42 6  232 235 
 CHI  HZ EP   1   2153 49.26                             116    1.02 6  245 195 
 CHI  HZ I        2154 23.75         2.1 0.44                           245 195 
                                                                                
