 2012 1021 2247  2.5 L   6.776 -73.129142.0  RSN  8 0.3 2.1LRSN                1
 GAP= 97        0.42       3.0     3.6  5.1  0.1294E+00 -0.7664E+00  0.3948E+01E
 Epicentro: LOS SANTOS - SANTANDER                                             3
 ACTION:UPD 12-11-22 17:05 OP:ep   STATUS:               ID:20121021224702 L   I
 2012-10-21-2240-00M.COL___233                                                 6
 STAT SP IPHASW D HRMM SECON CODA AMPLIT PERI AZIMU VELO AIN AR TRES W  DIS CAZ7
 BAR2 SZ EP   3   2247 21.42                             171   -0.24 2 21.1 196 
 BAR2 SZ ES   3   2247 36.30                             171   -0.28 2 21.1 196 
 BAR2 SZ I        2247 37.37        19.9 0.16                          21.1 196 
 GIR2 SZ EP       2247 21.60                             166   -0.2310 34.3 348 
 GIR2 SZ ES   3   2247 36.40                             166   -0.49 2 34.3 348 
 BRR  HZ EP       2247 23.68                             151    0.2510 74.1 300 
 BRR  HN ES   3   2247 40.31                             151    0.56 2 74.1 300 
 BRR  HN I        2247 44.71        35.1 0.16                          74.1 300 
 PAM  SZ EP       2247 24.45                             150    0.0510 78.4  37 
 PAM  SN ES   1   2247 41.57                             150    0.11 7 78.4  37 
 PAM  SZ I        2247 43.91        15.4 0.78                          78.4  37 
 RUS  HZ EP       2247 25.69                             144   -0.0110 97.8 177 
 RUS  HN ES   2   2247 43.63                             144   -0.15 5 97.8 177 
 RUS  HN I        2247 45.44        19.3 0.32                          97.8 177 
 TAM  HZ EP       2247 29.74                             130    0.06 9  153 104 
 OCA  HZ EP   3   2247 29.90                             128   -0.92 2  163 353 
 OCA  HN ES   3   2247 52.00                             128   -0.89 2  163 353 
 ZAR  HZ EP   3   2247 34.79                             121   -0.22 2  207 293 
 ZAR  HN I        2248  8.08        13.2 0.12                           207 293 
                                                                                
