 2010  921 2148 12.8 L   6.766 -73.075147.0  RSN  8 0.4 1.8LRSN                1
 GAP=167        0.82       5.5     9.3  9.0 -0.1982E+02  0.2154E+01  0.4458E+01E
 Epicentro: LOS SANTOS - SANTANDER                                             3
 ACTION:UP  11-02-18 11:04 OP:tino STATUS:               ID:20100921214812 L   I
 2010-09-21-2145-14S.COL___122                                                 6
 STAT SP IPHASW D HRMM SECON CODA AMPLIT PERI AZIMU VELO SNR AR TRES W  DIS CAZ7
 BAR2 SZ EP   1   2148 32.40                             171    -0.2 7   23 212 
 BAR2 SZ ES   2   2148 47.24                             171    -0.7 5   23 212 
 BAR2 SZ I        2148 52.81        11.3 0.42                            23 212 
 BTL  SZ EP   1   2148 33.23                             169     0.6 7   27 308 
 BRR  HZ EP   1   2148 34.63                             150     0.0 7   80 298 
 BRR  HN ES   2   2148 52.17                             150     0.6 5   80 298 
 BRR  HZ I        2148 52.96        19.1 0.29                            80 298 
 RUS  HZ EP   1   2148 36.40                             145     0.0 7   97 181 
 RUS  HZ I        2148 37.53         6.0 0.42                            97 181 
 RUS  HN ES   2   2148 55.07                             145     0.3 5   97 181 
 GUE  SZ EP   1   2148 37.18                             139    -0.6 7  119   8 
 GRA  SZ EP   1   2148 38.71                             137     0.4 7  127  14 
 GRA  SZ ES   2   2148 57.78                             137    -0.4 5  127  14 
 GRA  SZ I        2148 59.62         8.7 0.23                           127  14 
 NOR  SZ EP   1   2148 48.78                             118    -0.3 6  239 236 
 NOR  SN ES   2   2149 16.92                             118    -0.4 4  239 236 
 CHI  HZ EP   1   2148 50.50                             117     0.1 6  247 197 
 CHI  HZ I        2149 23.04         3.8 0.60                           247 197 
                                                                                
