 2014  921 2143 50.6 L   6.784 -73.122151.2  RSN  6 0.4 1.5LRSN                1
 GAP=140        0.88       4.8     5.0  7.9  0.4555E+01  0.5408E+01 -0.3491E+01E
 Epicentro: LOS SANTOS - SANTANDER                                             3
 ACTION:UPD 14-10-03 23:07 OP:nd   STATUS:               ID:20140921214350 L   I
 OLDACT:UP  14-09-22 04:26 OP:mh   STATUS:               ID:20140921213820     3
 OLDACT:UP  14-09-22 04:25 OP:mh   STATUS:               ID:20140921213820     3
 OLDACT:REG 14-09-22 03:15 OP:mh   STATUS:               ID:20140921213820     3
 2014-09-21-2138-20M.COL___284                                                 6
 STAT SP IPHASW D HRMM SECON CODA AMPLIT PERI AZIMU VELO AIN AR TRES W  DIS CAZ7
 BAR2 SZ EP   1   2144 11.18                             171    0.30 7 22.3 197 
 BAR2 SZ I        2144 27.82         6.6 0.22            169           22.3 197 
 BRR  HZ EP       2144 12.96                             152    0.4310 74.3 299 
 BRR  HN ES       2144 29.80                             152    0.1810 74.3 299 
 BRR  HZ I        2144 36.90         7.2 0.44            151           74.3 299 
 PAM  SZ EP       2144 13.83                             152    0.4310 77.1  37 
 PAM  SN ES       2144 30.84                             152   -0.3210 77.1  37 
 PAM  SZ I        2144 32.91         2.9 0.24            152           77.1  37 
 RUS  HZ EP   1   2144 14.52                             145   -0.26 7 98.7 178 
 RUS  HN ES       2144 33.40                             145   -0.2210 98.7 178 
 RUS  HZ I        2144 35.27         3.1 0.13            143           98.7 178 
 ZAR  HN ES       2144 49.24                             123   -0.33 8  207 292 
 SML  HZ EP   1   2144 27.04                             118   -0.80 6  246 335 
 SML  HN ES   4   2144 55.24                             118   -1.64 0  246 335 
 SML  HZ I        2145  0.17         4.9 0.10            117            246 335 
                                                                                
