 2017  221 2219 44.0 L   6.766 -73.155143.1  RSN  8 0.3 1.9LRSN                1
 GAP=137        0.76       3.0     3.1  5.1 -0.3345E+00  0.4485E+01  0.2978E+01E
 Epicentro: LOS SANTOS - SANTANDER                                             3
 ACTION:UPD 17-05-24 15:39 OP:jn   STATUS:               ID:20170221221944 L   I
 OLDACT:REG 17-02-22 02:51 OP:cara STATUS:               ID:20170221221746     3
 2017-02-21-2218-00M.COL___382                                                 6
 STAT SP IPHASW D HRMM SECON CODA AMPLIT PERI AZIMU VELO AIN AR TRES W  DIS CAZ7
 BAR2 EZ EP       2220  2.97                             172   -0.2310 19.5 189 
 BAR2 EZ ES       2220 18.01                             172   -0.2010 19.5 189 
 BAR2 EZ I        2220 19.97        32.1 0.28            171           19.5 189 
 BRR  HZ EP       2220  5.25                             152    0.3710 72.2 301 
 BRR  HN ES       2220 21.69                             152    0.4910 72.2 301 
 BRR  HZ I        2220 26.02        16.7 0.46            150           72.2 301 
 PAM  EZ EP       2220  6.30                             149    0.1910 80.9  38 
 PAM  EN ES       2220 22.95                             149   -0.4410 80.9  38 
 PAM  EZ I        2220 25.55        16.2 0.54            153           80.9  38 
 RUS  HZ EP       2220  7.31                             144    0.1210 97.0 175 
 RUS  HN ES       2220 25.52                             144    0.2110 97.0 175 
 RUS  HZ I        2220 27.00         6.0 0.28            148           97.0 175 
 PTB  HZ EP       2220 10.46                             132   -0.10 9  146 260 
 PTB  HN ES       2220 31.43                             132    0.12 9  146 260 
 PTB  HZ I        2220 37.44         9.0 0.28            132            146 260 
 ZAR  HN ES       2220 41.01                             122   -0.49 9  205 293 
 ZAR  HZ I        2220 48.34         9.3 0.40            123            205 293 
 NOR  HZ EP       2220 19.42                             118    0.20 8  232 235 
 NOR  HN ES       2220 46.47                             118   -0.25 8  232 235 
 NOR  HZ I        2220 50.02         5.2 0.42            120            232 235 
 CHI  HN ES       2220 49.81                             117   -0.25 8  245 195 
                                                                                
