 2017  821 2323 11.2 L   6.810 -73.270125.7  RSN  4 0.2 1.4LRSN                1
 GAP=214        0.50       5.2     5.8  4.4  0.2560E+02  0.5070E+01  0.3149E+01E
 Epicentro: ZAPATOCA - SANTANDER                                               3
 ACTION:UPD 17-09-04 20:23 OP:rebc STATUS:               ID:20170821232311 L   I
 OLDACT:DUP 17-08-22 04:23 OP:lv   STATUS:               ID:20170821231741d    3
 2017-08-21-2318-00M.COL___414                                                 6
 STAT SP IPHASW D HRMM SECON CODA AMPLIT PERI AZIMU VELO AIN AR TRES W  DIS CAZ7
 BAR2 EZ EP       2323 28.80                             168    0.3310 25.9 158 
 BAR2 EZ ES       2323 41.91                             168   -0.0410 25.9 158 
 BAR2 EZ I        2323 42.81         7.5 0.20            168           25.9 158 
 BRR  HZ EP       2323 29.22                             153   -0.2410 58.9 304 
 BRR  HN ES       2323 43.72                             153   -0.0110 58.9 304 
 RUS  HZ EP       2323 33.15                             138   -0.1010  104 168 
 RUS  HN ES       2323 50.46                             138   -0.0110  104 168 
 ZAR  HE ES       2324  4.34                             119    0.09 9  191 293 
                                                                                
