 2010  721 2039 17.4 L   6.768 -73.090140.0  RSN  4 0.3 1.4LRSN                1
 GAP=171        0.89      11.3    20.2 13.0  0.1711E+03 -0.1569E+03 -0.5252E+02E
 Epicentro: LOS SANTOS - SANTANDER                                             3
 ACTION:UPD 10-12-01 15:19 OP:pat  STATUS:               ID:20100721203917 L   I
 2010-07-21-2036-16S.COL___123                                                 6
 STAT SP IPHASW D HRMM SECON CODA AMPLIT PERI AZIMU VELO AIN AR TRES W  DIS CAZ7
 BAR2 SZ ES   2   2039 50.71                             171    -0.3 5   22 208 
 BAR2 SZ I        2039 54.03         7.4 0.93                            22 208 
 BRR  HZ EP       2039 37.89                             150    -0.510   78 299 
 BRR  HN ES       2039 54.98                             150     0.310   78 299 
 BRR  HZ I        2039 59.44         9.4 0.30                            78 299 
 RUS  HZ EP       2039 40.53                             144     0.210   97 180 
 RUS  HN ES   2   2039 58.01                             144    -0.2 5   97 180 
 RUS  HZ I        2040  1.12         3.6 0.24                            97 180 
 GUE  SZ EP   2   2039 42.11                             138     0.3 5  119   9 
 GUE  SZ I        2040  1.92         2.2 0.63                           119   9 
                                                                                
