 2010  921 2214 14.7 L   6.780 -73.100143.2  RSN 11 0.4 2.5LRSN                1
 GAP=164        0.78       4.0     8.1  7.0 -0.1234E+02  0.6692E+01  0.2887E+01E
 Epicentro: LOS SANTOS - SANTANDER                                             3
 ACTION:UP  11-02-18 11:04 OP:tino STATUS:               ID:20100921221414 L   I
 2010-09-21-2212-09S.COL___122                                                 6
 STAT SP IPHASW D HRMM SECON CODA AMPLIT PERI AZIMU VELO SNR AR TRES W  DIS CAZ7
 BAR2 SZ IP     C 2214 33.91                             171    -0.110   23 204 
 BAR2 SZ ES   2   2214 48.54                             171    -0.5 5   23 204 
 BAR2 SZ I        2214 49.57        80.6 0.21                            23 204 
 BTL  SZ EP   1   2214 34.14                             170     0.1 7   24 310 
 GIR2 SZ EP   1   2214 35.04                             166     0.9 7   35 343 
 GIR2 SZ ES   2   2214 49.55                             166     0.2 5   35 343 
 BRR  HZ EP   1   2214 35.89                             150     0.0 7   77 298 
 BRR  HE ES   2   2214 52.77                             150     0.3 5   77 298 
 BRR  HZ I        2214 53.99       102.6 0.17                            77 298 
 RUS  HZ EP   1   2214 37.87                             144    -0.2 7   98 179 
 RUS  HE ES   2   2214 55.90                             144    -0.3 5   98 179 
 RUS  HZ I        2214 57.58        38.5 0.20                            98 179 
 GUE  SZ EP   1   2214 39.23                             139    -0.1 7  118   9 
 GRA  SZ EP   1   2214 39.95                             136     0.2 7  126  15 
 GRA  SZ ES   2   2214 59.88                             136     0.5 5  126  15 
 GRA  SZ I        2215  1.70        74.2 0.23                           126  15 
 OCA  SZ EP   1   2214 42.59                             128    -0.5 7  163 351 
 OCA  SZ ES   2   2215  4.26                             128    -1.0 5  163 351 
 OCA  SZ I        2215  7.68        81.7 0.50                           163 351 
 NOR  SZ EP   1   2214 50.32                             118    -0.3 6  238 236 
 NOR  SE ES   2   2215 18.65                             118     0.0 4  238 236 
 CHI  HZ EP   1   2214 52.14                             117    -0.1 6  248 196 
 CHI  HN ES   2   2215 21.76                             117     0.3 4  248 196 
 CHI  HZ I        2215 25.49         9.2 0.23                           248 196 
 RREF HZ EP   1   2215  1.50                             110     0.5 5  324 230 
 RREF HZ I        2215 42.35         9.7 0.19                           324 230 
                                                                                
