 2010  621 2354 23.1 L   6.405 -73.591111.7  RSN  5 0.3 1.5LRSN                1
 GAP= 94        0.49       4.6     4.6  7.9  0.7983E+01  0.2258E+02  0.1622E+02E
 Epicentro: SANTA HELENA DEL OPON - SANTANDER                                  3
 ACTION:UP  10-08-24 10:12 OP:vdl  STATUS:               ID:20100621235423 L   I
 2010-06-21-2351-36S.COL___118                                                 6
 STAT SP IPHASW D HRMM SECON CODA AMPLIT PERI AZIMU VELO SNR AR TRES W  DIS CAZ7
 BAR2 SZ EP   1   2354 40.11                             154     0.4 7   50  65 
 BAR2 SZ ES   1   2354 52.79                             154     0.1 7   50  65 
 BRR  HZ EP   1   2354 41.11                             142    -0.2 7   79 350 
 BRR  HZ I        2354 49.72         9.5 0.06                            79 350 
 BRR  HE ES   2   2354 55.34                             142    -0.1 5   79 350 
 RUS  HZ EP       2354 41.98                             142    -0.110   80 135 
 RUS  HZ I        2354 42.18         4.3 0.17                            80 135 
 RUS  HN ES   2   2354 56.49                             142    -0.3 5   80 135 
 HEL  HZ EP   2   2354 55.41                             112     0.0 4  216 264 
 HEL  HN ES   2   2355 20.31                             112    -0.2 4  216 264 
 HEL  HZ I        2355 22.20         3.9 0.55                           216 264 
 RREF HN ES   3   2355 30.11                             108     0.8 2  256 230 
 RREF HZ I        2355 35.21         1.8 0.19                           256 230 
                                                                                
