 2015  921 2129  3.4 L   6.796 -73.165144.3  RSN 17 0.4 2.4LRSN                1
 GAP=134        0.85       2.2     3.0  4.2 -0.8668E+00  0.4239E+01  0.1005E+01E
 Epicentro: LOS SANTOS - SANTANDER                                             3
 ACTION:UPD 15-10-28 16:27 OP:cam  STATUS:               ID:20150921212903 L   I
 OLDACT:REG 15-09-22 02:52 OP:drio STATUS:               ID:20150921212749     3
 2015-09-21-2127-49M.COL___358                                                 6
 STAT SP IPHASW D HRMM SECON CODA AMPLIT PERI AZIMU VELO AIN AR TRES W  DIS CAZ7
 BAR2 EZ EP       2129 22.90                             171    0.0610 22.6 185 
 BAR2 EZ ES       2129 37.86                             171   -0.1510 22.6 185 
 BAR2 EZ I        2129 40.57        47.8 0.22            170           22.6 185 
 BRR  HZ EP       2129 24.69                             153    0.3910 69.5 300 
 BRR  HE ES       2129 41.06                             153    0.4610 69.5 300 
 BRR  HZ I        2129 45.80        44.1 0.48            151           69.5 300 
 PAM  EZ EP     C 2129 25.66                             150    0.0910 79.1  41 
 PAM  EE ES       2129 43.17                             150    0.3210 79.1  41 
 PAM  EZ I        2129 44.99        34.3 0.50            154           79.1  41 
 RUS  HZ EP       2129 26.73                             144   -0.2610  100 175 
 RUS  HN ES       2129 45.07                             144   -0.3210  100 175 
 RUS  HZ I        2129 46.72        18.0 0.26            145            100 175 
 PTB  HZ EP       2129 29.72                             132   -0.33 9  146 259 
 PTB  HN ES       2129 50.45                             132   -0.39 9  146 259 
 PTB  HZ I        2129 53.64        22.2 0.12            132            146 259 
 SPBC HZ EP       2129 31.83                             129    0.20 9  162 218 
 SPBC HE ES       2129 53.19                             129   -0.46 9  162 218 
 SPBC HZ I        2129 55.99        46.4 0.12            129            162 218 
 ZAR  HZ EP       2129 35.39                             122   -0.18 9  202 292 
 ZAR  HE ES       2130  1.22                             122    0.57 9  202 292 
 ZAR  HZ I        2130  8.39        19.3 0.58            123            202 292 
 NOR  HZ EP       2129 38.90                             118    0.07 8  233 234 
 NOR  HE ES       2130  6.39                             118   -0.08 8  233 234 
 NOR  HZ I        2130 10.85        23.5 0.18            119            233 234 
 SML  HZ EP       2129 39.60                             117   -0.29 8  243 336 
 SML  HE ES       2130  7.81                             117   -0.55 8  243 336 
 SML  HZ I        2130 15.23        21.1 0.18            118            243 336 
 CHI  HZ EP       2129 40.94                             117    0.03 8  248 195 
 CHI  HE ES       2130 10.24                             117    0.07 8  248 195 
 CHI  HZ I        2130 18.44         9.8 0.40            118            248 195 
 HEL  HZ EP   4   2129 44.54                             115    1.24 0  270 256 
 HEL  HN ES       2130 14.25                             115   -0.17 8  270 256 
 HEL  HZ I        2130 21.18         9.6 0.30            115            270 256 
 URE  HZ EP       2129 43.55                             113   -0.65 7  282 292 
 GUY2CHZ EP       2129 47.55                             112    0.83 7  299 235 
 GUY2CHN ES       2130 20.97                             112    0.46 7  299 235 
 GUY2CHZ I        2130 29.37        12.0 0.26                           299 235 
 ANIL HN ES       2130 31.10                             108   -0.48 6  356 224 
 ANIL HZ I        2130 36.77        27.8 0.46            109            356 224 
 PRA  HZ EP       2129 57.06                             106    0.35 6  391 209 
 PRA  HE ES       2130 38.53                             106    0.25 6  391 209 
 PRA  HZ I        2130 44.49        14.7 0.32            107            391 209 
 ORTC HN ES       2130 39.66                             106    0.70 6  394 216 
 ORTC HZ I        2130 47.36         8.8 0.28            107            394 216 
 SJC  HZ EP   4   2129 56.92                             105   -1.90 0  408 327 
 SJC  HN ES   4   2130 37.49                             105   -4.56 0  408 327 
 SJC  HZ I        2130 44.14         3.0 0.26            107            408 327 
                                                                                
