 2015  621 2142 38.2 L   6.788 -73.104150.6  RSN 11 0.4 1.9LRSN                1
 GAP=187        0.84       2.5     4.0  4.8 -0.1553E+01  0.5547E+01  0.8686E+00E
 Epicentro: LOS SANTOS - SANTANDER                                             3
 ACTION:UPD 15-09-10 22:14 OP:cam  STATUS:               ID:20150621214238 L   I
 OLDACT:UP  15-06-22 03:44 OP:ak   STATUS:               ID:20150621213750d    3
 OLDACT:REG 15-06-22 03:02 OP:ak   STATUS:               ID:20150621213749     3
 2015-06-21-2137-49M.COL___328                                                 6
 STAT SP IPHASW D HRMM SECON CODA AMPLIT PERI AZIMU VELO AIN AR TRES W  DIS CAZ7
 BAR2 EZ EP       2142 58.41                             171   -0.0210 23.3 202 
 BAR2 EZ ES       2143 13.75                             171   -0.4510 23.3 202 
 BAR2 EZ I        2143 17.01         8.3 0.20            169           23.3 202 
 BRR  HZ IP     C 2143  0.58                             152    0.4210 75.9 298 
 BRR  HN ES       2143 18.07                             152    0.8010 75.9 298 
 BRR  HZ I        2143 21.12        10.0 0.20            149           75.9 298 
 RUS  HZ EP       2143  2.54                             145    0.2010 99.0 179 
 RUS  HN ES   1   2143 20.92                             145   -0.23 7 99.0 179 
 RUS  HZ I        2143 22.87         4.3 0.22            148           99.0 179 
 OCA  HZ EP       2143  6.84                             130   -0.25 9  162 352 
 OCA  HN ES       2143 29.58                             130   -0.03 9  162 352 
 OCA  HZ I        2143 33.80        22.0 0.39            132            162 352 
 ZAR  HZ EP       2143 11.27                             123   -0.20 8  209 292 
 ZAR  HN ES       2143 37.58                             123    0.18 8  209 292 
 ZAR  HZ I        2143 43.80         8.2 0.09            123            209 292 
 NOR  HZ EP       2143 14.67                             119    0.12 8  238 235 
 NOR  HN ES       2143 42.77                             119   -0.11 8  238 235 
 NOR  HZ I        2143 46.42         8.2 0.14            120            238 235 
 SML  HZ EP       2143 15.17                             118   -0.29 8  247 334 
 SML  HE ES       2143 43.91                             118   -0.60 8  247 334 
 SML  HZ I        2143 50.38        15.1 0.08            119            247 334 
 HEL  HZ EP       2143 19.65                             115    0.52 7  276 256 
 HEL  HN ES       2143 50.57                             115   -0.48 7  276 256 
 HEL  HZ I        2143 58.48         4.9 0.26            116            276 256 
 GUY2CHZ EP   1   2143 22.81                             113    0.42 5  304 235 
 GUY2CHN ES       2143 56.39                             113   -0.45 7  304 235 
 GUY2CHZ I        2144  3.61         4.8 0.28                           304 235 
 TOL  SZ EP   1   2143 27.57                             110    0.64 5  346 225 
 TOL  SN ES       2144  5.00                             110    0.07 6  346 225 
 TOL  SZ I        2144  9.76         2.7 0.25            111            346 225 
 PRA  HZ EP       2143 31.91                             107   -0.13 6  393 210 
 PRA  HN ES       2144 13.78                             107   -0.24 6  393 210 
 PRA  HZ I        2144 20.64         3.2 0.18            109            393 210 
                                                                                
