 2010 1121 2120 12.0 L   6.755 -73.123150.2  RSN  8 0.3 2.0LRSN                1
 GAP=162        0.57       3.7     5.7  5.9 -0.6999E+01  0.6734E+01  0.8749E+00E
 Epicentro: LOS SANTOS - SANTANDER                                             3
 ACTION:UP  10-12-17 16:54 OP:REBC STATUS:               ID:20101121212012 L   I
 2010-11-21-2118-15S.COL___129                                                 6
 STAT SP IPHASW D HRMM SECON CODA AMPLIT PERI AZIMU VELO SNR AR TRES W  DIS CAZ7
 BAR2 SZ IP       2120 31.95                             172    -0.210   19 200 
 BAR2 SZ ES   2   2120 47.26                             172    -0.5 5   19 200 
 BAR2 SZ I        2120 48.16        21.7 0.17                            19 200 
 BRR  HZ IP     C 2120 34.04                             152     0.110   76 301 
 BRR  HZ I        2120 36.85        35.9 0.00                            76 301 
 BRR  HE ES   2   2120 51.38                             152     0.4 5   76 301 
 RUS  HZ EP   1   2120 35.78                             146    -0.1 7   95 177 
 RUS  HN ES   2   2120 54.64                             146     0.2 5   95 177 
 RUS  HZ I        2120 56.00        12.7 0.35                            95 177 
 GUE  SZ EP   1   2120 37.39                             139    -0.1 7  121  10 
 GRA  SZ EP   1   2120 38.07                             137     0.1 7  130  16 
 GRA  SZ ES   2   2120 58.41                             137     0.2 5  130  16 
 GRA  SZ I        2120 58.93        11.6 0.29                           130  16 
 NOR  SZ EP   1   2120 47.91                             119     0.0 6  234 236 
 NOR  SE ES   2   2121 16.07                             119     0.1 4  234 236 
 CHI  HZ EP   1   2120 50.01                             118     0.5 6  244 196 
 CHI  HZ I        2121 27.68         4.3 0.75                           244 196 
 HEL  HZ EP   1   2120 52.06                             115    -0.5 6  273 257 
 HEL  HZ I        2121 30.64         6.1 0.34                           273 257 
                                                                                
