 2013  421 2207 38.0 L   6.779 -73.125143.0  RSN  4 0.1 1.2LRSN                1
 GAP=150        0.42       2.8     7.9  4.4 -0.1190E+02  0.5331E+01  0.7434E+00E
 Epicentro: LOS SANTOS - SANTANDER                                             3
 ACTION:UPD 13-05-22 14:40 OP:EP   STATUS:               ID:20130421220738 L   I
 2013-04-21-2200-00M.COL___250                                                 6
 STAT SP IPHASW D HRMM SECON CODA AMPLIT PERI AZIMU VELO AIN AR TRES W  DIS CAZ7
 BAR2 SZ EP       22 7 57.32                             171    0.0410 21.6 197 
 BAR2 SZ I        22 8 18.27         3.8 0.27            150           21.6 197 
 GIR2 SZ EP   1   22 7 57.17                             166   -0.27 7 34.0 347 
 GIR2 SZ ES   1   22 8 12.71                             166    0.12 7 34.0 347 
 GIR2 SZ I        22 8 14.51         4.4 0.32            144           34.0 347 
 PAM  SZ EP       22 8  0.18                             150    0.2110 77.8  37 
 PAM  SE ES       22 8 16.96                             150   -0.1210 77.8  37 
 PAM  SZ I        22 8 18.37         3.1 0.32            144           77.8  37 
 RUS  HZ EP       22 8  1.26                             144   -0.0610 98.1 177 
 RUS  HN ES       22 8 19.51                             144    0.0210 98.1 177 
 RUS  HZ I        22 8 21.44         1.6 0.34            133           98.1 177 
                                                                                
