 2015  421 2024  1.2 L   6.767 -73.124137.3  RSN  7 0.5 1.7LRSN                1
 GAP=141        1.27       4.6     5.9  7.9  0.2836E+00  0.1734E+02 -0.3956E+01E
 Epicentro: LOS SANTOS - SANTANDER                                             3
 ACTION:UPD 15-06-03 16:56 OP:cam  STATUS:               ID:20150421202401 L   I
 OLDACT:REG 15-04-22 05:21 OP:carl STATUS:               ID:20150421201746     3
 2015-04-21-2017-46M.COL___277                                                 6
 STAT SP IPHASW D HRMM SECON CODA AMPLIT PERI AZIMU VELO AIN AR TRES W  DIS CAZ7
 BAR2 EZ EP       2024 19.94                             171    0.1610 20.4 198 
 BAR2 EZ ES       2024 32.98                             171   -1.2810 20.4 198 
 BAR2 EZ I        2024 36.24        13.0 0.18            170           20.4 198 
 BRR  HZ EP       2024 21.89                             150    0.1910 75.1 300 
 BRR  HN ES       2024 38.66                             150    0.9910 75.1 300 
 PAM  SZ EP       2024 22.88                             149    0.2510 78.8  37 
 PAM  SN ES       2024 39.54                             149    0.2010 78.8  37 
 PAM  SZ I        2024 41.23         7.0 0.20            152           78.8  37 
 RUS  HZ EP       2024 23.97                             143    0.1010 96.8 177 
 RUS  HN ES       2024 41.73                             143    0.1910 96.8 177 
 RUS  HZ I        2024 43.22         6.3 0.22            145           96.8 177 
 ZAR  HZ EP       2024 33.27                             120   -0.24 8  208 293 
 ZAR  HN ES       2024 58.56                             120   -0.14 8  208 293 
 ZAR  HZ I        2025  4.76         8.8 0.50            120            208 293 
 NOR  HZ EP       2024 36.51                             117    0.05 8  235 236 
 NOR  HN ES       2025  3.93                             117   -0.02 8  235 236 
 NOR  HZ I        2025  9.27         4.5 0.16            117            235 236 
 SML  HZ EP       2024 37.39                             115   -0.47 8  248 335 
 SML  HE ES       2025  6.05                             115   -0.39 8  248 335 
 SML  HZ I        2025 10.56         5.0 0.10            116            248 335 
                                                                                
