 2011 1021 2040 15.3 L   6.771 -73.077146.6  RSN  6 0.3 1.9LRSN                1
 GAP=147        0.59       4.0     5.9  5.3  0.6710E+00  0.1234E+01  0.1338E+01E
 Epicentro: LOS SANTOS - SANTANDER                                             3
 ACTION:UPD 12-07-13 16:05 OP:ep   STATUS:               ID:20111021204015 L   I
 2011-10-21-2038-04S.COL___171                                                 6
 STAT SP IPHASW D HRMM SECON CODA AMPLIT PERI AZIMU VELO AIN AR TRES W  DIS CAZ7
 BAR2 SZ EP   1   2040 34.69                             171   -0.30 7 22.9 210 
 BAR2 SZ ES   1   2040 50.09                             171   -0.28 7 22.9 210 
 BAR2 SZ I        2040 51.47        24.3 0.27                          22.9 210 
 GIR2 SZ EP   1   2040 35.10                             165   -0.09 7 36.4 339 
 GIR2 SZ ES   1   2040 51.17                             165    0.44 7 36.4 339 
 PAM  SZ EP   1   2040 37.60                             152    0.14 7 75.5  34 
 PAM  SZ I        2040 37.78         7.0 0.17                          75.5  34 
 PAM  SN ES   1   2040 54.72                             152   -0.05 7 75.5  34 
 BRR  HZ EP   1   2040 36.57                             150   -0.42 7 79.4 298 
 BRR  HZ I        2040 36.83        36.2 0.14                          79.4 298 
 BRR  HN ES   1   2040 53.89                             150   -0.04 7 79.4 298 
 RUS  HZ EP   1   2040 39.01                             145    0.15 7 97.1 180 
 RUS  HE ES   1   2040 57.46                             145    0.21 7 97.1 180 
 RUS  HZ I        2040 58.19         7.9 0.41                          97.1 180 
 ZAR  HZ EP   2   2040 49.41                             121    0.79 4  212 292 
 ZAR  HZ I        2041 19.70         9.3 0.40                           212 292 
                                                                                
