 2013  121 2036 35.8 L   6.796 -73.173144.8  RSN  8 0.5 1.8LRSN                1
 GAP=133        0.90       4.6     4.7  7.5 -0.1905E+01  0.8207E+01  0.6690E+01E
 Epicentro: LOS SANTOS - SANTANDER                                             3
 ACTION:UPD 13-02-15 09:15 OP:ep   STATUS:               ID:20130121203635 L   I
 2013-01-21-2030-00M.COL___240                                                 6
 STAT SP IPHASW D HRMM SECON CODA AMPLIT PERI AZIMU VELO AIN AR TRES W  DIS CAZ7
 BAR2 SZ EP   1   2036 55.36                             171    0.04 7 22.5 183 
 BAR2 SZ ES   1   2037 10.69                             171    0.16 7 22.5 183 
 BAR2 SZ I        2037 11.76        35.8 0.24            168           22.5 183 
 BRR  HZ EP   2   2036 57.01                             153    0.28 5 68.8 300 
 BRR  HN ES   2   2037 14.29                             153    1.26 5 68.8 300 
 PAM  SZ EP       2036 58.16                             150    0.0910 79.7  41 
 PAM  SN ES   1   2037 15.27                             150   -0.16 7 79.7  41 
 PAM  SZ I        2037 16.80         7.5 0.40            154           79.7  41 
 RUS  HZ EP     D 2036 59.42                             144   -0.0410  100 174 
 RUS  HN ES   1   2037 17.68                             144   -0.22 7  100 174 
 RUS  HZ I        2037 19.23         6.5 0.34            143            100 174 
 PTB  HZ EP       2037  2.02                             132   -0.41 9  145 259 
 PTB  HN ES   1   2037 22.59                             132   -0.59 7  145 259 
 PTB  HZ I        2037 24.96         8.5 0.46            131            145 259 
 ZAR  HN ES   1   2037 32.40                             123   -0.57 6  201 293 
 ZAR  HZ I        2037 39.09         6.8 0.64            122            201 293 
 NOR  HZ EP   1   2037 11.85                             119    0.65 6  232 234 
 NOR  HE ES   1   2037 39.83                             119    1.04 6  232 234 
 NOR  HZ I        2037 44.56         8.2 0.30            118            232 234 
 CHI  HZ EP   1   2037 13.61                             117    0.28 6  247 195 
 CHI  HN ES   1   2037 42.09                             117   -0.50 6  247 195 
 CHI  HZ I        2037 50.13         3.8 0.48            117            247 195 
                                                                                
