 2012  821 2158 21.1 L   6.800 -73.152138.1  RSN  5 0.3 1.7LRSN                1
 GAP=136        0.68       3.9     4.4  7.2  0.4745E+00  0.3756E+01  0.1349E+01E
 Epicentro: LOS SANTOS - SANTANDER                                             3
 ACTION:UPD 12-09-10 11:57 OP:ep   STATUS:               ID:20120821215821 L   I
 2012-08-21-2150-00M.COL___217                                                 6
 STAT SP IPHASW D HRMM SECON CODA AMPLIT PERI AZIMU VELO AIN AR TRES W  DIS CAZ7
 BAR2 SZ EP   1   2158 39.67                             170   -0.10 7 23.2 188 
 BRR  HZ EP       2158 41.51                             151    0.1510 70.6 299 
 BRR  HE ES   1   2158 57.53                             151    0.35 7 70.6 299 
 BRR  HZ I        2159  0.96        66.3 0.04                          70.6 299 
 PAM  SZ EP   1   2158 42.34                             149   -0.16 7 77.8  40 
 PAM  SZ I        2158 42.96        11.5 0.27                          77.8  40 
 PAM  SN ES   1   2158 59.00                             149   -0.21 7 77.8  40 
 RUS  HZ EP       2158 44.52                             142    0.4510  101 176 
 RUS  HN ES       2159  1.82                             142   -0.1910  101 176 
 RUS  HZ I        2159  3.65         4.0 0.26                           101 176 
 PTB  HZ EP   1   2158 46.81                             130   -0.55 7  147 259 
 PTB  HN ES   1   2159  7.72                             130   -0.14 7  147 259 
 PTB  HZ I        2159 13.71         2.2 0.43                           147 259 
                                                                                
