 2013  721 2212 40.2 L   6.742 -73.150149.0  RSN  4 0.4 1.4LRSN                1
 GAP=183        1.15       7.7     8.6 12.5  0.9733E+01  0.1054E+02 -0.2799E+01E
 Epicentro: JORDAN - SANTANDER                                                 3
 ACTION:UPD 13-08-12 10:39 OP:ep   STATUS:               ID:20130721221240 L   I
 OLDACT:REG 13-07-21 23:43 OP:stll STATUS:               ID:20130721220849     3
 2013-07-21-2208-49M.COL___228                                                 6
 STAT SP IPHASW D HRMM SECON CODA AMPLIT PERI AZIMU VELO AIN AR TRES W  DIS CAZ7
 GIR2 SZ EP       2213  0.41                             165   -0.0210 37.6 353 
 GIR2 SZ ES       2213 15.61                             165   -0.6110 37.6 353 
 BRR  HZ EP       2213  1.92                             152    0.0710 74.1 303 
 BRR  HN ES       2213 19.52                             152    0.7810 74.1 303 
 BRR  HN I        2213 20.12        10.9 0.28            155           74.1 303 
 RUS  HN ES       2213 22.42                             146    0.1810 94.2 175 
 RUS  HN I        2213 25.19         2.0 0.36            146           94.2 175 
 PTB  HN ES       2213 27.95                             133   -0.46 9  146 261 
                                                                                
