 2016  721 2211 21.8 L   6.138 -73.756106.0  RSN  7 0.5 1.8LRSN                1
 GAP=107        1.21       4.2     4.3 10.0 -0.4352E+01  0.1920E+02 -0.1117E+02E
 Epicentro: LANDAZURI - SANTANDER                                              3
 ACTION:UPD 17-03-29 16:53 OP:lp   STATUS:               ID:20160721221121 L   I
 OLDACT:DUP 16-07-22 03:58 OP:dani STATUS:               ID:20160721220760d    3
 OLDACT:UP  16-07-22 03:58 OP:dani STATUS:               ID:20160721220759     3
 OLDACT:UP  16-07-22 03:57 OP:dani STATUS:               ID:20160721220759     3
 OLDACT:UP  16-07-22 03:57 OP:dani STATUS:               ID:20160721220759     3
 OLDACT:UP  16-07-22 03:56 OP:dani STATUS:               ID:20160721220759     3
 OLDACT:REG 16-07-22 03:03 OP:dani STATUS:               ID:20160721220759     3
 2016-07-21-2207-59S.COL___334                                                 6
 STAT SP IPHASW D HRMM SECON CODA AMPLIT PERI AZIMU VELO AIN AR TRES W  DIS CAZ7
 SPBC HZ EP       2211 38.29                             146   -0.1310 64.1 213 
 SPBC HN ES       2211 51.84                             146    0.4310 64.1 213 
 SPBC HZ I        2211 56.26        13.2 0.32            152           64.1 213 
 RUS  HZ EP       2211 40.27                             141    0.1910 79.3 110 
 RUS  HE ES       2211 53.85                             141   -0.5210 79.3 110 
 RUS  HZ I        2211 59.47         7.1 0.46            147           79.3 110 
 BRR  HZ EP       2211 41.92                             131    0.1210  107   3 
 BRR  HE ES       2211 57.87                             131    0.4510  107   3 
 BRR  HZ I        2212  0.42        13.5 0.12            137            107   3 
 NOR  HZ EP       2211 44.35                             123   -0.59 9  139 243 
 NOR  HN ES       2212  2.44                             123   -0.57 9  139 243 
 NOR  HZ I        2212  6.16        19.2 0.14            130            139 243 
 ZAR  HZ EP       2211 50.44                             113   -0.30 9  193 321 
 ZAR  HN ES       2212 13.26                             113   -0.08 9  193 321 
 ZAR  HZ I        2212 15.81         9.9 0.20            120            193 321 
 HEL  HE ES       2212 14.26                             113   -0.54 9  196 272 
 GUY2CHZ EP       2211 53.36                             112    0.70 9  205 241 
 GUY2CHN ES     D 2212 17.72                             112    0.96 9  205 241 
 GUY2CHZ I        2212 23.43         4.2 0.31                           205 241 
                                                                                
