 2011  421 2235  3.7 L   6.810 -73.154144.6  RSN 15 0.3 2.5LRSN                1
 GAP=113        0.73       2.8     4.4  4.9 -0.2884E+01  0.4387E+01  0.1588E+01E
 Epicentro: LOS SANTOS - SANTANDER                                             3
 ACTION:UP  11-06-22 15:32 OP:REBC STATUS:               ID:20110421223503 L   I
 2011-04-21-2232-40S.COL___139                                                 6
 STAT SP IPHASW D HRMM SECON CODA AMPLIT PERI AZIMU VELO SNR AR TRES W  DIS CAZ7
 BTL  SZ EP       2235 22.45                             173    -0.610   17 314 
 BAR2 SZ IP       2235 23.23                             170     0.110   24 187 
 BAR2 SZ ES   1   2235 38.21                             170    -0.2 7   24 187 
 BAR2 SZ I        2235 41.07        82.8 0.42                            24 187 
 GIR2 SZ EP       2235 23.30                             168     0.110   30 352 
 BRR  HZ EP   1   2235 24.98                             153     0.4 7   70 298 
 BRR  HN ES   1   2235 41.55                             153     0.6 7   70 298 
 BRR  HZ I        2235 45.75        87.9 0.21                            70 298 
 PAM  SZ EP   1   2235 26.21                             151     0.5 7   77  41 
 PAM  SE ES   1   2235 42.92                             151     0.0 7   77  41 
 RUS  HZ EP   1   2235 27.24                             143    -0.1 7  102 176 
 RUS  HE ES   1   2235 45.76                             143    -0.1 7  102 176 
 RUS  HZ I        2235 48.16        29.2 0.30                           102 176 
 GRA  SZ EP       2235 29.12                             137     0.410  125  18 
 GRA  SZ ES   2   2235 47.90                             137    -0.4 5  125  18 
 GRA  SZ I        2235 53.25        33.4 0.33                           125  18 
 OCA  SZ EP       2235 31.41                             129    -0.4 9  159 353 
 OCA  SZ ES   2   2235 53.48                             129    -0.2 5  159 353 
 OCA  SZ I        2235 58.01        41.2 0.21                           159 353 
 YOP  SZ EP   1   2235 34.06                             126     0.3 7  180 153 
 YOP  SE ES   2   2235 57.03                             126    -0.2 4  180 153 
 YOP  SZ I        2235 59.06        28.3 0.30                           180 153 
 NOR  SZ EP   1   2235 38.92                             118    -0.4 6  235 234 
 NOR  SN ES   2   2236  7.00                             118    -0.1 4  235 234 
 CHI  HZ EP   1   2235 41.45                             117     0.1 6  249 195 
 CHI  HE ES   2   2236 10.93                             117     0.1 4  249 195 
 CHI  HZ I        2236 17.09        21.5 0.19                           249 195 
 HEL  HZ EP   2   2235 43.46                             114    -0.3 4  271 256 
 HEL  HN ES   2   2236 14.63                             114    -0.4 4  271 256 
 HEL  HZ I        2236 23.44        25.0 0.33                           271 256 
 GUY  SZ EP   2   2235 48.13                             112     0.7 4  303 235 
 GUY  SE ES   2   2236 21.52                             112    -0.1 4  303 235 
 GUY  SZ I        2236 29.58        40.6 0.42                           303 235 
 TOL  SZ EP   2   2235 51.89                             109     0.0 3  344 224 
 PRA  HZ EP   1   2235 57.10                             106    -0.1 4  393 209 
 PRA  HE ES   2   2236 39.87                             106     0.9 3  393 209 
                                                                                
