 2015  321 2241 10.5 L   6.790 -73.148142.0  RSN  6 0.3 1.4LRSN                1
 GAP=137        0.70       3.5     3.5  6.0 -0.1299E+01  0.7398E+01  0.8748E+00E
 Epicentro: LOS SANTOS - SANTANDER                                             3
 ACTION:UPD 15-04-30 16:28 OP:nd   STATUS:               ID:20150321224110 L   I
 OLDACT:REG 15-03-22 05:25 OP:spq  STATUS:               ID:20150321223748     3
 2015-03-21-2237-48M.COL___275                                                 6
 STAT SP IPHASW D HRMM SECON CODA AMPLIT PERI AZIMU VELO AIN AR TRES W  DIS CAZ7
 BAR2 EZ EP       2241 29.39                             171   -0.2310 22.2 190 
 BAR2 EZ ES   1   2241 44.50                             171   -0.06 7 22.2 190 
 BAR2 EZ I        2241 48.82         5.2 0.45            168           22.2 190 
 PAM  SZ EP       2241 32.32                             150   -0.0210 78.4  39 
 PAM  SN ES       2241 49.49                             150    0.0810 78.4  39 
 PAM  SZ I        2241 51.60         4.2 0.20            158           78.4  39 
 RUS  HZ EP       2241 33.74                             143   -0.0310 99.5 176 
 RUS  HE ES   1   2241 52.26                             143    0.31 7 99.5 176 
 RUS  HZ I        2241 55.38         1.4 0.48            147           99.5 176 
 PTB  HZ EP   1   2241 36.52                             131   -0.57 7  147 259 
 PTB  HN ES   1   2241 57.61                             131   -0.24 7  147 259 
 PTB  HZ I        2242  3.27         4.2 0.26            133            147 259 
 SPBC HZ EP       2241 38.44                             128   -0.14 9  162 219 
 SPBC HN ES   1   2242  0.91                             128    0.40 7  162 219 
 SPBC HZ I        2242  7.72         5.4 0.36            131            162 219 
 ZAR  HZ EP   1   2241 43.62                             122    0.93 6  204 292 
 ZAR  HN ES       2242  7.84                             122    0.02 9  204 292 
 ZAR  HZ I        2242 14.96         3.5 0.28            125            204 292 
                                                                                
