 2014  121 2108 42.3 L   6.836 -73.173142.7  RSN  6 0.5 1.8LRSN                1
 GAP=131        1.28       6.4     5.6  8.7  0.3922E+01  0.1242E+02 -0.1879E+01E
 Epicentro: LOS SANTOS - SANTANDER                                             3
 ACTION:UPD 14-03-13 09:57 OP:ep   STATUS:               ID:20140121210842 L   I
 OLDACT:DUP 14-01-21 23:28 OP:carl STATUS:               ID:20140121210001d    3
 2014-01-21-2100-00M.COL___279                                                 6
 STAT SP IPHASW D HRMM SECON CODA AMPLIT PERI AZIMU VELO AIN AR TRES W  DIS CAZ7
 BAR2 SZ EP       21 9  1.95                             169    0.2910 27.0 182 
 BAR2 SZ ES       21 9 16.38                             169   -0.3710 27.0 182 
 BAR2 SZ I        21 9 18.64        18.3 0.26            171           27.0 182 
 BRR  HZ EP       21 9  3.43                             153    0.5510 66.6 297 
 BRR  HN ES       21 9 19.68                             153    0.7610 66.6 297 
 BRR  HZ I        21 9 23.60        13.3 0.12            152           66.6 297 
 PAM  SZ EP       21 9  4.38                             151    0.2310 76.4  43 
 PAM  SE ES       21 9 20.49                             151   -0.6910 76.4  43 
 PAM  SZ I        21 9 23.35         9.0 0.46            153           76.4  43 
 RUS  HZ EP       21 9  6.48                             142    0.4010  105 175 
 RUS  HN ES       21 9 24.69                             142    0.0710  105 175 
 RUS  HZ I        21 9 26.40         5.3 0.30            146            105 175 
 PTB  HZ EP       21 9  7.87                             132   -0.97 9  146 257 
 PTB  HN ES       21 9 29.21                             132   -0.32 9  146 257 
 ZAR  HZ EP       21 9 13.86                             122   -0.26 9  200 291 
 ZAR  HN ES       21 9 39.03                             122    0.11 9  200 291 
 ZAR  HZ I        21 9 45.72        10.8 0.56            124            200 291 
                                                                                
