 2017 1021 2224 10.6 L   6.752 -73.146139.1  RSN 11 0.4 1.6LRSN                1
 GAP=113        0.92       3.1     3.3  5.0 -0.1499E+00  0.3021E+01  0.3559E+01E
 Epicentro: LOS SANTOS - SANTANDER                                             3
 ACTION:UPD 17-11-07 19:34 OP:rebc STATUS:               ID:20171021222410 L   I
 OLDACT:UP  17-10-22 06:51 OP:mg   STATUS:               ID:20171021221741     3
 OLDACT:REG 17-10-22 03:48 OP:mg   STATUS:               ID:20171021221741     3
 2017-10-21-2218-00M.COL___420                                                 6
 STAT SP IPHASW D HRMM SECON CODA AMPLIT PERI AZIMU VELO AIN AR TRES W  DIS CAZ7
 BAR2 EZ EP       2224 28.99                             172   -0.3210 18.1 193 
 BAR2 EZ ES       2224 43.89                             172   -0.0310 18.1 193 
 BAR2 EZ I        2224 45.33        11.5 0.25            170           18.1 193 
 BRR  HZ EP       2224 31.19                             150    0.0210 73.9 302 
 BRR  HN ES       2224 48.12                             150    0.8910 73.9 302 
 BRR  HZ I        2224 50.30        13.9 0.26            149           73.9 302 
 PAM  EZ EP       2224 32.17                             148   -0.1810 81.6  37 
 PAM  EN ES       2224 49.01                             148   -0.3310 81.6  37 
 PAM  EZ I        2224 50.77         7.9 0.26            153           81.6  37 
 RUS  HZ EP       2224 33.22                             144   -0.0710 95.3 176 
 RUS  HN ES       2224 51.16                             144    0.1510 95.3 176 
 RUS  HZ I        2224 53.31         9.1 0.29            145           95.3 176 
 PTB  HZ EP       2224 36.48                             131   -0.44 9  147 261 
 PTB  HN ES       2224 56.72                             131   -0.75 9  147 261 
 PTB  HZ I        2224 59.37         4.6 0.17            130            147 261 
 SPBC HZ EP       2224 38.45                             128    0.28 9  159 220 
 SPBC HN ES       2224 59.56                             128   -0.14 9  159 220 
 SPBC HZ I        2225  6.31         6.4 0.07            128            159 220 
 YPLC HZ EP       2224 39.61                             126    0.18 9  172 150 
 ZAR  HZ EP       2224 43.29                             121    0.48 8  206 294 
 ZAR  HN ES       2225  8.06                             121    0.11 8  206 294 
 ZAR  HZ I        2225 17.73         4.3 0.25            121            206 294 
 NOR  HZ EP       2224 45.63                             117    0.04 8  232 236 
 NOR  HN ES       2225 12.71                             117   -0.20 8  232 236 
 NOR  HZ I        2225 19.02         3.1 0.18            118            232 236 
 CHI  HZ EP       2224 47.56                             116    0.21 8  243 195 
 CHI  HN ES       2225 16.32                             116    0.29 8  243 195 
 CHI  HZ I        2225 19.89         1.7 0.20            117            243 195 
 GUY2CHZ EP   4   2224 55.15                             111    1.61 0  298 236 
 GUY2CHN ES   4   2225 30.19                             111    3.14 0  298 236 
 GUY2CHZ I        2225 36.37         2.2 0.42                           298 236 
                                                                                
