 2013  721 2241 42.1 L   6.787 -73.149144.3  RSN  9 0.3 2.1LRSN                1
 GAP=137        0.87       3.8     3.4  4.8 -0.1180E+01  0.1630E+01 -0.2592E+01E
 Epicentro: LOS SANTOS - SANTANDER                                             3
 ACTION:UPD 13-08-12 10:39 OP:ep   STATUS:               ID:20130721224142 L   I
 OLDACT:REG 13-07-21 23:44 OP:stll STATUS:               ID:20130721223849     3
 2013-07-21-2238-49M.COL___228                                                 6
 STAT SP IPHASW D HRMM SECON CODA AMPLIT PERI AZIMU VELO AIN AR TRES W  DIS CAZ7
 BAR2 SZ EP       2242  1.69                             171    0.2110 21.8 190 
 BAR2 SZ I        2242  2.06        14.3 0.30            169           21.8 190 
 BAR2 SZ ES       2242 16.87                             171    0.2410 21.8 190 
 GIR2 SZ EP       2242  1.57                             167   -0.0310 32.6 351 
 GIR2 SZ ES       2242 16.48                             167   -0.3510 32.6 351 
 BRR  HZ EP       2242  3.51                             152    0.4410 71.6 300 
 BRR  HN ES       2242 19.72                             152    0.2610 71.6 300 
 BRR  HN I        2242 21.15        38.6 0.32            150           71.6 300 
 PAM  SZ EP       2242  4.56                             150    0.3610 78.7  39 
 PAM  SZ I        2242  4.84        14.2 0.22            153           78.7  39 
 PAM  SN ES       2242 21.10                             150   -0.3710 78.7  39 
 RUS  HZ EP       2242  5.77                             144    0.2110 99.2 176 
 RUS  HN ES       2242 23.79                             144   -0.1110 99.2 176 
 RUS  HN I        2242 25.47         7.4 0.18            144           99.2 176 
 GRA  SZ EP       2242  7.19                             136   -0.1110  127  17 
 PTB  HZ EP       2242  8.45                             132   -0.40 9  147 259 
 PTB  HE ES       2242 29.34                             132   -0.40 9  147 259 
 PTB  HE I        2242 35.05        14.6 0.42            130            147 259 
 CAPV BZ EP       2242  9.45                             131   -0.01 9  151  38 
 ZAR  HZ EP       2242 13.81                             122   -0.62 9  204 293 
 ZAR  HE ES       2242 40.23                             122    0.56 9  204 293 
 ZAR  HE I        2242 45.12        38.8 0.34            121            204 293 
                                                                                
