 2016 1021 2038 17.0 L   6.774 -73.143142.0  RSN 11 0.4 2.2LRSN                1
 GAP=138        1.04       4.7     4.3  6.6 -0.6648E+01  0.7628E+01  0.5028E+01E
 Epicentro: LOS SANTOS - SANTANDER                                             3
 ACTION:UPD 16-11-09 19:21 OP:rebc STATUS:               ID:20161021203817 L   I
 OLDACT:UP  16-10-22 04:16 OP:dnl  STATUS:               ID:20161021202749d    3
 OLDACT:DUP 16-10-22 04:12 OP:dnl  STATUS:               ID:20161021202749d    3
 2016-10-21-2028-00M.COL___355                                                 6
 STAT SP IPHASW D HRMM SECON CODA AMPLIT PERI AZIMU VELO AIN AR TRES W  DIS CAZ7
 BAR2 EZ EP       2038 36.12                             171   -0.0210 20.5 192 
 BAR2 EZ ES       2038 50.81                             171   -0.2510 20.5 192 
 BAR2 EZ I        2038 52.50        48.6 0.20            169           20.5 192 
 BRR  HZ IP     C 2038 37.92                             151    0.0610 72.9 300 
 BRR  HE ES       2038 54.93                             151    0.8210 72.9 300 
 BRR  HZ I        2038 58.86        42.1 0.12            152           72.9 300 
 PAM  EZ EP       2038 38.91                             150   -0.0510 79.5  38 
 PAM  EN ES       2038 55.95                             150   -0.1310 79.5  38 
 PAM  EZ I        2038 58.55        34.3 0.48            154           79.5  38 
 RUS  HZ EP       2038 40.15                             144   -0.0410 97.7 176 
 RUS  HE ES       2038 58.66                             144    0.4010 97.7 176 
 RUS  HZ I        2039  0.20        20.4 0.24            145           97.7 176 
 PTB  HZ EP       2038 42.77                             131   -0.89 9  148 260 
 PTB  HN ES       2039  3.87                             131   -0.56 9  148 260 
 PTB  HZ I        2039  8.82        28.9 0.14            132            148 260 
 SPBC HZ EP       2038 45.25                             129    0.22 9  161 220 
 SPBC HN ES       2039  6.48                             129   -0.40 9  161 220 
 SPBC HZ I        2039 10.14        23.5 0.40            129            161 220 
 NOR  HZ EP   2   2038 52.90                             118    0.52 4  233 235 
 NOR  HN ES       2039 19.64                             118   -0.31 8  233 235 
 NOR  HZ I        2039 22.29        13.2 0.18            119            233 235 
 CHI  HZ EP   2   2038 54.73                             117    0.52 4  246 195 
 CHI  HN ES   4   2039 21.63                             117   -1.59 0  246 195 
 CHI  HZ I        2039 31.62         7.3 0.34            118            246 195 
 HEL  HZ EP   4   2038 58.71                             114    1.72 0  272 256 
 HEL  HN ES       2039 28.62                             114    0.45 8  272 256 
 HEL  HZ I        2039 34.51        14.3 0.38            115            272 256 
 GUY2CHZ EP   2   2039  0.47                             112    0.18 4  300 235 
 GUY2CHN ES       2039 34.79                             112    0.75 7  300 235 
 GUY2CHZ I        2039 41.57         6.0 0.22                           300 235 
 SJC  HZ EP   4   2039 10.66                             105   -2.10 0  412 327 
 SJC  HN ES   4   2039 50.04                             105   -6.20 0  412 327 
 SJC  HZ I        2039 55.81         5.6 0.50            107            412 327 
                                                                                
