 2010  121 2144 21.9 L   6.847 -72.990146.0  RSN  6 0.4 2.5LRSN                1
 GAP=199        0.65       4.2    12.5  8.1 -0.1190E+02  0.3679E+02  0.3649E+00E
 Epicentro: CEPITA - SANTANDER                                                 3
 ACTION:UP  10-08-24 09:45 OP:vdl  STATUS:               ID:20100121214421 L   I
 2010-01-21-2143-17S.COL___095                                                 6
 STAT SP IPHASW D HRMM SECON CODA AMPLIT PERI AZIMU VELO SNR AR TRES W  DIS CAZ7
 BAR2 SZ EP   1   2144 42.27                             166     0.4 7   35 217 
 BAR2 SZ ES   2   2144 57.07                             166    -0.4 5   35 217 
 RUS  BZ EP   1   2144 46.24                             142     0.1 7  106 186 
 RUS  BE ES   2   2145  5.07                             142     0.1 5  106 186 
 RUS  BZ I        2145  6.53        21.0 0.21                           106 186 
 OCA  SZ EP   1   2144 49.61                             130    -0.5 7  158 347 
 OCA  SZ ES   2   2145 12.30                             130     0.3 5  158 347 
 CHI  HZ EP   1   2145  0.76                             116     0.0 6  259 199 
 CHI  HN ES   2   2145 30.44                             116    -0.6 4  259 199 
 CHI  HZ I        2145 33.77        20.5 0.39                           259 199 
 RREF BZ EP   1   2145 10.55                             110     0.6 5  338 231 
 RREF BN ES   2   2145 47.38                             110    -0.1 3  338 231 
 RREF BZ I        2145 51.26        12.4 0.22                           338 231 
 PRA  HZ EP   1   2145 16.42                             106    -0.6 4  405 211 
 PRA  HZ I        2146  3.14        16.1 0.31                           405 211 
                                                                                
