 2013  821 2100 30.8 L   6.763 -73.179152.7  RSN  6 0.3 1.6LRSN                1
 GAP=231        0.65       4.3     4.2  5.8  0.7298E+01  0.7139E+00 -0.2066E+01E
 Epicentro: VILLANUEVA - SANTANDER                                             3
 ACTION:UPD 14-01-14 09:05 OP:ep   STATUS:               ID:20130821210030 L   I
 OLDACT:REG 13-08-21 21:15 OP:jn   STATUS:               ID:20130821205959     3
 2013-08-21-2059-59M.COL___270                                                 6
 STAT SP IPHASW D HRMM SECON CODA AMPLIT PERI AZIMU VELO AIN AR TRES W  DIS CAZ7
 BAR2 SZ EP       21 0 50.95                             173   -0.2310 18.8 181 
 BAR2 SZ ES   1   21 1  7.17                             173    0.09 7 18.8 181 
 BAR2 SZ I        21 1  9.52         4.3 0.14            169           18.8 181 
 BRR  HZ EP     C 21 0 52.75                             154    0.1110 70.2 303 
 BRR  HN ES   1   21 1 10.19                             154    0.51 7 70.2 303 
 BRR  HZ I        21 1 11.07        10.3 0.52            150           70.2 303 
 RUS  HZ EP       21 0 54.94                             146   -0.0310 96.8 174 
 RUS  HE ES       21 1 13.63                             146   -0.2010 96.8 174 
 RUS  HZ I        21 1 14.77         3.4 0.22            147           96.8 174 
 PTB  HZ EP   1   21 0 57.96                             134    0.01 7  143 260 
 PTB  HN ES       21 1 18.86                             134   -0.28 9  143 260 
 PTB  HZ I        21 1 24.79         4.5 0.18            132            143 260 
 SPBC HZ EP   1   21 0 59.88                             132    0.55 7  158 219 
 SPBC HN ES   1   21 1 21.92                             132    0.34 7  158 219 
 SPBC HZ I        21 1 24.93         9.8 0.20            131            158 219 
 ZAR  HE ES   1   21 1 28.67                             124   -0.38 6  202 294 
 ZAR  HZ I        21 1 36.01         6.4 0.24            124            202 294 
                                                                                
