 2012 1021 2245 46.3 L   6.790 -73.126150.0  RSN  5 0.1 1.6LRSN                1
 GAP=140        0.31       3.6     3.9  4.0 -0.1600E+01  0.1604E-01 -0.3615E+01E
 Epicentro: LOS SANTOS - SANTANDER                                             3
 ACTION:UPD 12-11-22 17:05 OP:ep   STATUS:               ID:20121021224546 L   I
 2012-10-21-2240-00M.COL___233                                                 6
 STAT SP IPHASW D HRMM SECON CODA AMPLIT PERI AZIMU VELO AIN AR TRES W  DIS CAZ7
 BAR2 SZ ES   2   2246 21.92                             171   -0.22 5 22.7 196 
 BAR2 SZ I        2246 22.95         7.1 0.20                          22.7 196 
 GIR2 SZ ES   2   2246 22.26                             167   -0.04 5 32.8 347 
 BRR  HZ EP       2246  8.03                             152   -0.0310 73.7 298 
 BRR  HZ I        2246  8.31         8.9 0.24                          73.7 298 
 BRR  HN ES   2   2246 25.17                             152    0.15 5 73.7 298 
 PAM  SZ EP       2246  8.95                             152    0.0010 76.9  38 
 PAM  SN ES   2   2246 26.68                             152    0.07 5 76.9  38 
 RUS  HN ES   2   2246 29.30                             145    0.13 5 99.3 177 
                                                                                
