 2017  221 2049 22.4 L   6.829 -73.326118.8  RSN  5 0.2 1.6LRSN                1
 GAP=105        0.61       2.9     2.6  4.5 -0.5835E+00  0.1309E+01  0.1085E+01E
 Epicentro: ZAPATOCA - SANTANDER                                               3
 ACTION:UPD 17-05-24 15:39 OP:jn   STATUS:               ID:20170221204922 L   I
 OLDACT:REG 17-02-22 02:47 OP:cara STATUS:               ID:20170221204740     3
 2017-02-21-2048-00M.COL___379                                                 6
 STAT SP IPHASW D HRMM SECON CODA AMPLIT PERI AZIMU VELO AIN AR TRES W  DIS CAZ7
 BAR2 EZ EP       2049 39.11                             165    0.1210 30.6 149 
 BAR2 EZ ES       2049 51.90                             165   -0.0410 30.6 149 
 BRR  HZ EP       2049 39.67                             154    0.0910 52.6 306 
 BRR  HN ES       2049 52.64                             154   -0.3410 52.6 306 
 BRR  HZ I        2049 54.51        19.2 0.34            155           52.6 306 
 PAM  EZ EP       2049 42.73                             141    0.0410 89.4  51 
 PAM  EN ES       2049 58.69                             141    0.1610 89.4  51 
 PAM  EZ I        2050  0.64         4.2 0.17            143           89.4  51 
 RUS  HZ EP       2049 44.03                             135   -0.1010  107 165 
 RUS  HN ES       2050  1.06                             135   -0.0310  107 165 
 RUS  HZ I        2050  2.71         3.8 0.16            137            107 165 
 PTB  HZ EP       2049 45.13                             129   -0.3410  129 256 
 PTB  HN ES       2050  3.92                             129    0.4410  129 256 
 PTB  HZ I        2050  6.56        11.4 0.30            130            129 256 
                                                                                
