 2015  521 2321 14.8 L   6.784 -73.196132.6  RSN  9 0.4 1.8LRSN                1
 GAP=131        0.94       2.7     4.0  5.4 -0.1957E+00  0.7710E+01  0.4370E+00E
 Epicentro: ZAPATOCA - SANTANDER                                               3
 ACTION:UPD 15-09-10 22:06 OP:cam  STATUS:               ID:20150521232114 L   I
 OLDACT:REG 15-05-22 02:50 OP:drio STATUS:               ID:20150521231749     3
 2015-05-21-2317-49M.COL___297                                                 6
 STAT SP IPHASW D HRMM SECON CODA AMPLIT PERI AZIMU VELO AIN AR TRES W  DIS CAZ7
 BAR2 EZ EP       2321 33.04                             170    0.2210 21.3 176 
 BAR2 EZ ES       2321 46.20                             170   -0.6710 21.3 176 
 BAR2 EZ I        2321 49.20        13.1 0.18            171           21.3 176 
 BRR  HN ES       2321 49.89                             151    0.3510 67.3 302 
 PAM  SZ EP       2321 36.02                             147    0.0410 82.4  42 
 PAM  SN ES       2321 52.74                             147    0.2510 82.4  42 
 PAM  SZ I        2321 55.12        18.5 0.48            146           82.4  42 
 RUS  HZ EP       2321 37.06                             141   -0.1510 99.4 173 
 RUS  HE ES       2321 54.94                             141    0.2710 99.4 173 
 RUS  HZ I        2321 56.47         6.9 0.26            142           99.4 173 
 SPBC HE ES       2322  2.87                             127   -0.09 9  158 218 
 ZAR  HZ EP       2321 46.67                             120    0.71 9  200 293 
 ZAR  HN ES       2322 10.54                             120    0.28 9  200 293 
 SML  HZ EP       2321 50.49                             115   -0.18 8  243 337 
 SML  HE ES       2322 17.76                             115   -0.87 8  243 337 
 SML  HZ I        2322 24.94         8.0 0.24            115            243 337 
 CHI  HZ EP       2321 51.17                             115   -0.30 8  246 194 
 CHI  HN ES       2322 20.16                             115    0.09 8  246 194 
 CHI  HZ I        2322 24.03         5.1 0.40            115            246 194 
 GUY2CHZ EP       2321 57.36                             110    0.15 7  296 234 
 GUY2CHN ES       2322 29.81                             110   -0.47 7  296 234 
 GUY2CHZ I        2322 40.20         2.7 0.26                           296 234 
                                                                                
