 2014 1221 2232 37.9 L   5.861 -73.722119.0  RSN  4 0.5 2.2LRSN                1
 GAP=180        1.20       4.4    15.3 17.0 -0.1927E+02  0.9892E+02  0.3967E+01E
 Epicentro: PUENTE NACIONAL - SANTANDER                                        3
 ACTION:UPD 15-02-10 17:06 OP:nd   STATUS:               ID:20141221223237 L   I
 OLDACT:DUP 14-12-22 04:31 OP:cam  STATUS:               ID:20141221222821d    3
 OLDACT:REG 14-12-22 04:00 OP:cam  STATUS:               ID:20141221222820     3
 2014-12-21-2228-20M.COL___287                                                 6
 STAT SP IPHASW D HRMM SECON CODA AMPLIT PERI AZIMU VELO AIN AR TRES W  DIS CAZ7
 RUS  HZ EP       2232 57.20                             147    0.3410 70.8  87 
 BAR2 EZ EP       2232 58.98                             137    0.2610  100  36 
 BAR2 EZ ES       2233 14.59                             137   -0.4010  100  36 
 BAR2 EZ I        2233 16.89        17.5 0.26            139            100  36 
 CHI  HZ EP       2233  2.47                             128    0.29 9  136 180 
 CHI  HN ES       2233 20.93                             128   -0.23 9  136 180 
 BRR  HZ EP       2233  0.90                             127   -0.88 9  138   0 
 BRR  HN ES       2233 21.04                             127    0.60 9  138   0 
 BRR  HN I        2233 21.41        43.6 0.18            129            138   0 
                                                                                
