 2012  621 2059 55.0 L   6.954 -73.069159.5  RSN 17 0.5 3.4LRSN 3.5WRSN        1
 SPEC AVERAGE  MO 14.3 ST 15.0 OM  3.2 f0 3.68 R0.4494 AL 4.54 WI 24.4 MW  3.5 3
 SPEC SD       MO  0.1 ST 11.3 OM  0.7 f00.892 R0.1133 AL      WI      MW  0.1 3
 GAP=165        1.03       3.4     4.9  5.5  0.3019E+01  0.3017E+01  0.9988E+00E
 Epicentro: PIEDECUESTA - SANTANDER                                            3
 SPEC ROSCBH Z MO 14.5 ST  9.1 OM  2.6 f0 2.98 R0.5215 AL 3.89 WI 18.9 MW  3.6 3
 SPEC ROSCBH Z T21 1 9 K 0.000 GD  315 VS 4.20 DE 3.00 Q0230.0 QA 0.60 VS 4.20 3
 SPEC RUS HH Z MO 14.2 ST  9.0 OM  2.5 f0 3.75 R0.4144 AL 6.26 WI 17.4 MW  3.4 3
 SPEC RUS HH Z T21 039 K 0.000 GD  197 VS 4.20 DE 3.00 Q0230.0 QA 0.60 VS 4.20 3
 SPEC COD HH Z MO 14.3 ST 18.4 OM  2.4 f0 4.18 R0.3718 AL 3.67 WI 24.1 MW  3.5 3
 SPEC COD HH Z T21 115 K 0.000 GD  368 VS 4.20 DE 3.00 Q0230.0 QA 0.60 VS 4.20 3
 SPEC HEL HH Z MO 14.4 ST 35.4 OM  2.5 f0 5.01 R0.3102 AL 5.10 WI 28.0 MW  3.5 3
 SPEC HEL HH Z T21 1 6 K 0.000 GD  326 VS 4.20 DE 3.00 Q0230.0 QA 0.60 VS 4.20 3
 SPEC CHI HH Z MO 14.3 ST  3.2 OM  2.4 f0 2.47 R0.6291 AL 3.80 WI 33.4 MW  3.5 3
 SPEC CHI HH Z T21 1 4 K 0.000 GD  311 VS 4.20 DE 3.00 Q0230.0 QA 0.60 VS 4.20 3
 ACTION:UP  12-08-06 17:51 OP:ep   STATUS:               ID:20120621205955 L   I
 2012-06-21-2100-00M.COL___199                                                 6
 STAT SP IPHASW D HRMM SECON CODA AMPLIT PERI AZIMU VELO AIN AR TRES W  DIS CAZ7
 BAR2 SZ IP       21 0 16.75                             165    0.0410 41.9 197 
 BAR2 SZ ES       21 0 33.13                             165   -0.5510 41.9 197 
 BAR2 SZ I        21 0 39.94       603.8 0.45                          41.9 197 
 BRR  HZ IP     C 21 0 18.21                             154    0.5110 73.0 283 
 BRR  HN ES   1   21 0 36.40                             154    0.96 7 73.0 283 
 BRR  HZ I        21 0 39.20       799.8 0.15                          73.0 283 
 RUS  HZ EP       21 0 20.94                             142   -0.3410  117 181 
 RUS  HN ES       21 0 41.58                             142   -0.2310  117 181 
 RUS  HZ I        21 0 42.75       544.6 0.43                           117 181 
 OCA  HZ EP       21 0 22.82                             136   -0.19 9  145 349 
 OCA  HN ES   1   21 0 45.29                             136    0.40 7  145 349 
 OCA  HZ I        21 0 53.30       607.9 0.42                           145 349 
 PTB  HZ EP       21 0 23.49                             133   -0.67 9  160 253 
 PTB  HN ES       21 0 46.53                             133   -0.40 9  160 253 
 PTB  HZ I        21 0 49.07       337.2 0.20                           160 253 
 YOP  SZ IP     D 21 0 27.42                             127    0.25 9  191 158 
 YOP  SN ES   1   21 0 53.11                             127    0.81 7  191 158 
 YOP  SZ I        21 0 58.59       123.2 0.35                           191 158 
 ZAR  HZ EP       21 0 28.39                             125   -0.17 8  206 287 
 ZAR  HE ES   1   21 0 55.30                             125    0.53 6  206 287 
 ZAR  HZ I        21 1  0.92       353.3 0.31                           206 287 
 NOR  SZ EP   1   21 0 33.25                             119   -0.05 6  252 232 
 NOR  SE ES   1   21 1  2.66                             119   -0.54 6  252 232 
 CHI  HZ EP   1   21 0 35.24                             118   -0.20 6  267 196 
 CHI  HN ES   1   21 1  6.48                             118   -0.54 6  267 196 
 CHI  HZ I        21 1 12.87        71.9 0.53                           267 196 
 ROSC BZ EP   1   21 0 37.26                             117    1.37 6  272 211 
 ROSC BE ES   1   21 1  8.59                             117    0.77 6  272 211 
 ROSC BZ I        21 1 17.23       174.5 0.55                           272 211 
 HEL  HZ EP   1   21 0 37.67                             116    0.38 6  285 253 
 HEL  HZ I        21 1 16.45       126.2 0.24                           285 253 
 VIL  SZ EP   1   21 0 41.27                             113    0.19 5  322 192 
 VIL  SE ES   1   21 1 17.14                             113    0.08 5  322 192 
 VIL  SZ I        21 1 20.64        53.5 0.24                           322 192 
 COD  HZ EP   1   21 0 40.99                             112   -1.10 5  332 353 
 DBB  SZ EP       21 0 43.77                             111   -0.11 6  347 271 
 TOL  SZ EP   1   21 0 46.56                             110    0.71 5  362 224 
 ANIL HZ EP   1   21 0 48.30                             110    0.91 5  375 224 
 PRA  HZ EP       21 0 50.71                             108   -0.47 6  411 209 
 PRA  HN ES   1   21 1 34.65                             108   -0.38 4  411 209 
                                                                                
