 2010  521 2148 21.2 L   6.881 -73.655 93.4  RSN  5 0.3 1.9LRSN                1
 GAP=148        0.51       6.6     9.2 14.3 -0.4923E+02  0.1102E+03 -0.6887E+02E
 Epicentro: SAN VICENTE DE CHUCURI - SANTANDER                                 3
 ACTION:UP  10-08-24 10:06 OP:vdl  STATUS:               ID:20100521214821 L   I
 2010-05-21-2147-20S.COL___111                                                 6
 STAT SP IPHASW D HRMM SECON CODA AMPLIT PERI AZIMU VELO SNR AR TRES W  DIS CAZ7
 BAR2 SZ EP   1   2148 36.83                             144     0.2 7   61 122 
 BAR2 SZ ES   2   2148 48.36                             144    -0.3 5   61 122 
 GUE  SZ ES   2   2149  0.00                             121    -0.4 5  132  37 
 BRI  SZ EP   1   2148 42.78                             121    -0.3 7  132  46 
 BRI  SZ ES   2   2149  0.44                             121     0.3 5  132  46 
 GUE  SZ EP   1   2148 43.10                             121    -0.2 7  132  37 
 GRA  SZ EP   1   2148 44.60                             118     0.1 7  145  40 
 GRA  SZ ES   2   2149  3.09                             118     0.5 5  145  40 
 HEL  HZ EP   1   2148 53.35                             108     0.1 6  221 250 
 HEL  HZ I        2149 24.04         6.8 0.45                           221 250 
                                                                                
