 2013  921 2148 46.7 L   6.025 -73.671117.0  RSN  6 0.4 1.8LRSN                1
 GAP=125        1.10       4.6     4.1  8.3 -0.5241E+01  0.7253E+01 -0.3931E+01E
 Epicentro: VELEZ - SANTANDER                                                  3
 ACTION:UPD 13-10-22 09:24 OP:ep   STATUS:               ID:20130921214846 L   I
 OLDACT:UP  13-09-21 22:01 OP:cam  STATUS:               ID:20130921213959     3
 OLDACT:UP  13-09-21 22:01 OP:cam  STATUS:               ID:20130921213959     3
 OLDACT:REG 13-09-21 21:45 OP:cam  STATUS:               ID:20130921213959     3
 2013-09-21-2139-59M.COL___269                                                 6
 STAT SP IPHASW D HRMM SECON CODA AMPLIT PERI AZIMU VELO AIN AR TRES W  DIS CAZ7
 SPBC HZ EP       2149  4.23                             151   -0.0610 60.6 227 
 SPBC HN ES       2149 18.07                             151    0.0810 60.6 227 
 SPBC HZ I        2149 20.86        23.5 0.26            152           60.6 227 
 RUS  HZ EP       2149  5.02                             149   -0.2210 66.7 103 
 RUS  HN ES       2149 19.52                             149   -0.1810 66.7 103 
 RUS  HZ I        2149 22.95         6.7 0.24            152           66.7 103 
 BAR2 SZ EP       2149  6.14                             142    0.1410 82.8  41 
 BAR2 SZ ES       2149 21.14                             142    0.1010 82.8  41 
 BAR2 SZ I        2149 22.03        21.9 0.44            147           82.8  41 
 PTB  HZ EP       2149  6.51                             135   -0.8710  104 303 
 PTB  HE ES       2149 22.89                             135   -0.6010  104 303 
 PTB  HZ I        2149 24.97        12.6 0.50            139            104 303 
 BRR  HZ EP       2149  9.10                             131    0.3310  120 358 
 BRR  HE ES       2149 26.51                             131    0.5310  120 358 
 BRR  HZ I        2149 27.61        10.6 0.34            135            120 358 
 NOR  HZ EP       2149 11.24                             126    0.25 9  142 249 
 NOR  HN ES       2149 30.55                             126    0.63 9  142 249 
 NOR  HZ I        2149 33.72        18.6 0.18            129            142 249 
                                                                                
