 2015  521 2353 58.7 L   6.798 -73.146144.5  RSN 20 0.4 2.5LRSN                1
 GAP= 65        0.90       2.1     2.4  4.1 -0.3089E+00  0.2890E+01  0.1771E+01E
 Epicentro: LOS SANTOS - SANTANDER                                             3
 ACTION:UPD 15-09-10 22:06 OP:cam  STATUS:               ID:20150521235358 L   I
 OLDACT:REG 15-05-22 02:55 OP:drio STATUS:               ID:20150521234748     3
 2015-05-21-2347-48M.COL___297                                                 6
 STAT SP IPHASW D HRMM SECON CODA AMPLIT PERI AZIMU VELO AIN AR TRES W  DIS CAZ7
 BAR2 EZ EP       2354 18.36                             170    0.1910 23.1 190 
 BAR2 EZ ES       2354 33.56                             170    0.2110 23.1 190 
 BAR2 EZ I        2354 34.73       143.1 0.18            169           23.1 190 
 BRR  HZ EP       2354 20.11                             152    0.4010 71.3 299 
 BRR  HN ES       2354 35.74                             152   -0.3610 71.3 299 
 BRR  HZ I        2354 38.33        39.5 0.14            149           71.3 299 
 PAM  SZ EP       2354 21.11                             151    0.3310 77.6  39 
 PAM  SN ES       2354 38.49                             151    0.4810 77.6  39 
 PAM  SZ I        2354 40.81        53.2 0.62            153           77.6  39 
 RUS  HZ EP       2354 22.20                             144   -0.1110  100 176 
 RUS  HE ES       2354 41.00                             144    0.2810  100 176 
 RUS  HZ I        2354 42.15        52.3 0.28            145            100 176 
 TAM  HZ EP       2354 26.50                             130    0.23 9  155 105 
 TAM  HN ES       2354 46.75                             130   -1.02 9  155 105 
 TAM  HZ I        2354 47.39        27.5 0.42            134            155 105 
 OCA  HZ EP       2354 26.30                             129   -0.63 9  160 353 
 OCA  HN ES       2354 49.40                             129    0.46 9  160 353 
 OCA  HZ I        2354 52.18        73.7 0.24            130            160 353 
 SPBC HZ EP       2354 27.22                             129    0.14 9  163 219 
 SPBC HN ES       2354 48.89                             129   -0.33 9  163 219 
 SPBC HZ I        2354 51.98        82.8 0.22            128            163 219 
 ZAR  HZ EP       2354 30.93                             122   -0.13 9  204 292 
 ZAR  HE ES       2354 56.03                             122   -0.28 9  204 292 
 ZAR  HZ I        2355  6.96        27.9 0.30            121            204 292 
 NOR  HZ EP       2354 34.62                             118    0.28 8  235 235 
 NOR  HN ES       2355  2.20                             118    0.07 8  235 235 
 NOR  HZ I        2355  5.77        36.1 0.20            118            235 235 
 SML  HN ES       2355  3.17                             117   -0.63 8  244 335 
 CHI  HZ EP       2354 36.40                             117    0.10 8  248 195 
 CHI  HE ES       2355  5.29                             117   -0.34 8  248 195 
 CHI  HZ I        2355 14.02        15.4 0.56            117            248 195 
 HEL  HZ EP       2354 38.91                             114    0.07 8  272 256 
 HEL  HN ES       2355  9.88                             114   -0.26 8  272 256 
 HEL  HZ I        2355 17.33        20.9 0.24            114            272 256 
 GUY2CHZ EP       2354 43.16                             112    0.93 7  301 235 
 GUY2CHN ES       2355 16.00                             112   -0.19 7  301 235 
 GUY2CHZ I        2355 23.27        19.3 0.32                           301 235 
 VIL  SZ EP       2354 42.13                             112    0.10 7  303 192 
 VIL  SE ES       2355 15.69                             112   -0.14 7  303 192 
 VIL  SZ I        2355 25.10        20.3 0.42            112            303 192 
 PTGC HZ EP       2354 42.20                             111   -0.27 7  308 159 
 PTGC HN ES   4   2355 14.57                             111   -2.05 0  308 159 
 CBOC HZ EP       2354 46.23                             110    0.68 7  334 252 
 CBOC HN ES       2355 21.93                             110   -0.16 7  334 252 
 CBOC HZ I        2355 27.46         5.1 0.50            110            334 252 
 MON  HZ EP       2354 47.17                             108   -0.49 6  354 308 
 MON  HN ES   4   2355 23.01                             108   -2.84 0  354 308 
 MON  HZ I        2355 44.90         5.6 0.50            108            354 308 
 ANIL HZ EP       2354 48.55                             108    0.12 6  357 225 
 ANIL HN ES       2355 27.44                             108    0.21 6  357 225 
 ORTC HZ EP       2354 52.44                             106   -0.11 6  395 216 
 ORTC HN ES       2355 34.35                             106   -0.21 6  395 216 
 ORTC HZ I        2355 41.25        16.2 0.70            107            395 216 
 SJC  HZ EP   4   2354 52.32                             105   -1.91 0  409 327 
 SJC  HN ES   4   2355 33.67                             105   -3.88 0  409 327 
 SJC  HZ I        2355 37.89         5.0 0.56            106            409 327 
                                                                                
