 2012  821 2052 24.6 L   6.766 -73.128140.9  RSN  5 0.2 1.8LRSN                1
 GAP=140        0.49       3.3     3.2  4.6 -0.1485E+01  0.1416E+01 -0.6543E+00E
 Epicentro: LOS SANTOS - SANTANDER                                             3
 ACTION:UPD 12-09-10 11:57 OP:ep   STATUS:               ID:20120821205224 L   I
 2012-08-21-2050-00M.COL___217                                                 6
 STAT SP IPHASW D HRMM SECON CODA AMPLIT PERI AZIMU VELO AIN AR TRES W  DIS CAZ7
 BAR2 SZ EP   1   2052 43.45                             171   -0.16 7 20.1 198 
 BAR2 SZ ES   1   2052 58.29                             171   -0.13 7 20.1 198 
 BAR2 SZ I        2053  2.66        14.1 0.39                          20.1 198 
 BRR  HZ EP       2052 45.33                             150   -0.1410 74.8 300 
 BRR  HE ES   1   2053  2.16                             150    0.44 7 74.8 300 
 BRR  HZ I        2053  6.43        13.7 0.15                          74.8 300 
 PAM  SZ EP       2052 46.52                             149    0.0810 79.1  37 
 PAM  SZ I        2052 46.86        27.5 0.18                          79.1  37 
 PAM  SE ES   1   2053  3.30                             149   -0.15 7 79.1  37 
 RUS  HZ EP   1   2052 47.67                             144    0.05 7 96.7 177 
 RUS  HE ES   1   2053  5.70                             144    0.14 7 96.7 177 
 RUS  HZ I        2053  8.42         4.8 0.23                          96.7 177 
 PTB  HZ EP   1   2052 51.57                             131    0.25 7  149 260 
 PTB  HN ES   1   2053 11.79                             131   -0.36 7  149 260 
 PTB  HZ I        2053 14.91         4.8 0.18                           149 260 
                                                                                
