 2012 1221 2359 28.9 L   6.799 -73.146147.6  RSN  8 0.4 2.2LRSN 3.2WRSN        1
 SPEC AVERAGE  MO 13.8 ST  5.2 OM  3.1 f0 3.81 R0.3891 AL 2.37 WI 20.6 MW  3.2 3
 SPEC SD       MO  0.2 ST  1.4 OM  1.0 f00.356 R0.0389 AL      WI      MW  0.1 3
 GAP=136        0.94       3.1     4.1  6.2 -0.3203E+00  0.3796E+01 -0.9670E-01E
 Epicentro: LOS SANTOS - SANTANDER                                             3
 SPEC ZAR HH E MO 13.9 ST  6.9 OM  2.1 f0 4.07 R0.3612 AL 2.00 WI 23.2 MW  3.2 3
 SPEC ZAR HH E T 0 026 K 0.000 GD  251 VS 4.20 DE 3.00 Q0230.0 QA 0.60 VS 4.20 3
 SPEC OCA HH N MO 14.0 ST  5.1 OM  2.3 f0 3.31 R0.4441 AL 2.07 WI 23.2 MW  3.3 3
 SPEC OCA HH N T 0 018 K 0.000 GD  217 VS 4.20 DE 3.00 Q0230.0 QA 0.60 VS 4.20 3
 SPEC BRR HH N MO 13.6 ST  3.5 OM  2.0 f0 4.06 R0.3621 AL 3.04 WI 15.3 MW  3.0 3
 SPEC BRR HH N T 0 0 7 K 0.000 GD  163 VS 4.20 DE 3.00 Q0230.0 QA 0.60 VS 4.20 3
 ACTION:UPD 13-01-04 14:29 OP:ep   STATUS:               ID:20121221235928 L   I
 2012-12-21-2358-06M.COL___215                                                 6
 STAT SP IPHASW D HRMM SECON CODA AMPLIT PERI AZIMU VELO AIN AR TRES W  DIS CAZ7
 BAR2 SZ EP       2359 48.90                             171    0.1610 23.2 190 
 BAR2 SZ I        2359 49.13        23.6 0.36                          23.2 190 
 BAR2 SZ ES       24 0  3.99                             171   -0.2210 23.2 190 
 BRR  HZ EP       2359 50.76                             153    0.5210 71.2 299 
 BRR  HN ES       24 0  7.58                             153    0.7010 71.2 299 
 BRR  HN I        24 0  8.51        53.4 0.30                          71.2 299 
 PAM  SZ EP       2359 51.68                             151    0.3710 77.5  40 
 PAM  SN ES       24 0  8.70                             151   -0.0910 77.5  40 
 PAM  SN I        24 0  9.29        22.5 0.42                          77.5  40 
 RUS  HZ EP       2359 52.64                             144   -0.1710  100 176 
 RUS  HZ I        2359 54.19         4.5 0.40                           100 176 
 RUS  HN ES       24 0 11.37                             144   -0.1010  100 176 
 PTB  HZ EP       2359 55.81                             132   -0.19 9  148 259 
 PTB  HN ES       24 0 16.73                             132   -0.41 9  148 259 
 PTB  HN I        24 0 22.44        44.3 0.32                           148 259 
 OCA  HZ EP       2359 57.27                             130   -0.08 9  160 353 
 OCA  HN ES       24 0 18.83                             130   -0.72 9  160 353 
 OCA  HN I        24 0 24.36        50.8 0.24                           160 353 
 ZAR  HE ES       24 0 26.90                             123    0.05 9  204 292 
 ZAR  HN I        24 0 32.58        27.1 0.26                           204 292 
 CHI  HN ES       24 0 36.11                             117   -0.04 8  249 195 
                                                                                
