 2014  721 2331 30.6 L   6.891 -73.114144.9  RSN  6 0.5 1.7LRSN                1
 GAP=248        1.33       7.5     8.0  9.1  0.2679E+02  0.8652E+01 -0.3683E+01E
 Epicentro: PIEDECUESTA - SANTANDER                                            3
 ACTION:UPD 15-03-16 20:45 OP:nd   STATUS:               ID:20140721233130 L   I
 OLDACT:REG 14-07-22 03:33 OP:stll STATUS:               ID:20140721232820     3
 2014-07-21-2328-20M.COL___269                                                 6
 STAT SP IPHASW D HRMM SECON CODA AMPLIT PERI AZIMU VELO AIN AR TRES W  DIS CAZ7
 BAR2 SZ EP       2331 49.99                             166   -0.4310 33.9 193 
 BAR2 SZ ES       2332  5.75                             166   -0.1010 33.9 193 
 BAR2 SZ I        2332  7.24         8.0 0.50            161           33.9 193 
 BRR  HZ EP       2331 52.13                             153    0.4910 70.3 290 
 BRR  HN ES       2332  8.36                             153    0.3510 70.3 290 
 RUS  HZ EP       2331 55.20                             141    0.1610  110 178 
 RUS  HN ES       2332 13.88                             141   -0.1910  110 178 
 RUS  HZ I        2332 15.17         4.5 0.38            140            110 178 
 PTB  HZ EP       2331 57.17                             131   -0.88 9  153 255 
 PTB  HN ES       2332 18.49                             131   -0.94 9  153 255 
 PTB  HZ I        2332 24.34         6.8 0.38            128            153 255 
 SPBC HZ EP       2332  0.17                             127    0.14 9  173 218 
 SPBC HE ES       2332 23.95                             127    0.99 9  173 218 
 SPBC HZ I        2332 27.61         7.6 0.26            125            173 218 
 ZAR  HZ EP       2332  3.30                             122    0.30 9  204 289 
 ZAR  HN ES       2332 28.44                             122    0.20 9  204 289 
 ZAR  HZ I        2332 33.54         6.4 0.42            121            204 289 
                                                                                
