 2017 1021 2338  7.3 L   6.818 -73.154150.0  RSN  7 0.4 1.3LRSN                1
 GAP=135        1.01       4.3     5.1  6.7 -0.4802E+01  0.2179E+01  0.6666E+01E
 Epicentro: LOS SANTOS - SANTANDER                                             3
 ACTION:UPD 17-11-07 19:34 OP:rebc STATUS:               ID:20171021233807 L   I
 OLDACT:UP  17-10-22 07:13 OP:mg   STATUS:               ID:20171021232618     3
 OLDACT:UP  17-10-22 07:10 OP:mg   STATUS:               ID:20171021232618     3
 OLDACT:REG 17-10-22 04:13 OP:mg   STATUS:               ID:20171021232618     3
 2017-10-21-2328-00M.COL___420                                                 6
 STAT SP IPHASW D HRMM SECON CODA AMPLIT PERI AZIMU VELO AIN AR TRES W  DIS CAZ7
 BAR2 EZ EP       2338 27.25                             170   -0.2110 25.2 187 
 BAR2 HE ES       2338 42.97                             170   -0.2310 25.2 187 
 BAR2 EZ I        2338 44.23         4.7 0.29            168           25.2 187 
 BRR  HZ EP       2338 29.28                             154    0.4810 69.5 297 
 BRR  HN ES       2338 45.96                             154    0.3810 69.5 297 
 BRR  HZ I        2338 49.90         3.1 0.19            154           69.5 297 
 PAM  EZ EP       2338 30.05                             152    0.1510 76.4  41 
 PAM  EE ES       2338 47.67                             152    0.1310 76.4  41 
 PAM  EZ I        2338 49.45         3.9 0.39            156           76.4  41 
 RUS  HZ EP       2338 31.38                             144   -0.2210  103 176 
 RUS  HN ES       2338 50.18                             144   -0.3910  103 176 
 RUS  HZ I        2338 52.00         2.0 0.22            145            103 176 
 PTB  HZ EP       2338 34.06                             133   -0.50 9  147 258 
 PTB  HE ES       2338 55.36                             133   -0.47 9  147 258 
 PTB  HZ I        2338 56.69         1.7 0.17            134            147 258 
 SPBC HE ES       2338 59.06                             130    0.30 9  164 218 
 SPBC HZ I        2339  5.71         5.1 0.12            130            164 218 
 CHI  HZ EP       2338 45.25                             118   -0.15 8  250 195 
 CHI  HN ES       2339 16.12                             118    0.99 8  250 195 
 CHI  HZ I        2339 20.16         0.8 0.38            119            250 195 
                                                                                
