 2015  121 2143 56.7 L   6.817 -73.191156.0  RSN  5 0.5 1.7LRSN                1
 GAP=135        1.24      14.0     6.3 13.2 -0.2951E+02 -0.4981E+01  0.7988E+02E
 Epicentro: ZAPATOCA - SANTANDER                                               3
 ACTION:UPD 15-03-02 15:41 OP:nd   STATUS:               ID:20150121214356 L   I
 OLDACT:UP  15-01-22 04:46 OP:mher STATUS:               ID:20150121213745     3
 OLDACT:REG 15-01-22 02:30 OP:mh   STATUS:               ID:20150121213745     3
 2015-01-21-2137-45M.COL___238                                                 6
 STAT SP IPHASW D HRMM SECON CODA AMPLIT PERI AZIMU VELO AIN AR TRES W  DIS CAZ7
 BAR2 EZ EP       2144 17.88                             171    0.3010 24.9 178 
 BAR2 EZ I        2144 35.68        11.9 0.00            149           24.9 178 
 BRR  HZ EP       2144 18.82                             156    0.1410 65.9 299 
 BRR  HN ES       2144 36.63                             156    0.7910 65.9 299 
 BRR  HZ I        2144 40.91        10.7 0.17            160           65.9 299 
 PAM  SZ EP       2144 20.49                             152    0.3810 79.3  43 
 PAM  SN ES       2144 37.61                             152   -0.7710 79.3  43 
 PAM  SZ I        2144 38.46         7.0 0.34            155           79.3  43 
 PTB  HZ EP       2144 23.71                             135   -0.41 9  143 258 
 PTB  HN ES       2144 45.10                             135   -0.41 9  143 258 
 PTB  HZ I        2144 50.06         5.6 0.12            132            143 258 
 ZAR  HN ES       2144 54.56                             125   -0.16 9  199 292 
                                                                                
