 2017 1121 2222 53.3 L   6.820 -73.162134.9  RSN  4 0.2 1.0LRSN                1
 GAP=184        0.63       4.2     7.4  7.3 -0.2302E+02  0.2359E+02 -0.4201E+01E
 Epicentro: LOS SANTOS - SANTANDER                                             3
 ACTION:UPD 17-12-12 19:58 OP:rebc STATUS:               ID:20171121222253 L   I
 OLDACT:DUP 17-11-22 05:10 OP:lv   STATUS:               ID:20171121220927d    3
 2017-11-21-2218-00M.COL___483                                                 6
 STAT SP IPHASW D HRMM SECON CODA AMPLIT PERI AZIMU VELO AIN AR TRES W  DIS CAZ7
 PAM  EZ EP       2223 14.68                             149    0.3110 76.9  42 
 PAM  EN ES       2223 30.53                             149   -0.2510 76.9  42 
 PAM  EZ I        2223 34.85         2.5 0.54            151           76.9  42 
 RUS  HZ EP       2223 15.95                             141   -0.2610  103 175 
 RUS  HN ES       2223 34.33                             141    0.2810  103 175 
 RUS  HZ I        2223 35.89         1.7 0.48            145            103 175 
 SPBC HZ EP       2223 21.17                             126    0.09 9  164 218 
 SPBC HN ES       2223 42.70                             126   -0.02 9  164 218 
 CHI  HE ES       2223 59.49                             115   -0.24 8  250 195 
                                                                                
