 2010  621 2019 37.2 L   5.985 -73.974  3.8  RSN  9 0.6 1.9LRSN                1
 GAP=136        1.38       4.8     4.2  7.9 -0.8719E+01  0.2023E+01 -0.4669E+01E
 Epicentro: LA BELLEZA - SANTANDER                                             3
 ACTION:UP  10-08-24 10:12 OP:vdl  STATUS:               ID:20100621201937 L   I
 2010-06-21-2017-40S.COL___118                                                 6
 STAT SP IPHASW D HRMM SECON CODA AMPLIT PERI AZIMU VELO SNR AR TRES W  DIS CAZ7
 RUS  HZ IP     D 2019 53.58                              47     0.210   99  96 
 RUS  HZ I        2019 53.71        22.4 0.15                            99  96 
 RUS  HE ES   1   2020  5.04                              47    -0.9 7   99  96 
 BAR2 SZ EP   1   2019 55.43                              47     0.7 7  110  52 
 BAR2 SZ ES   2   2020  8.37                              47    -0.1 5  110  52 
 BRR  HZ EP       2019 56.60                              47    -0.510  127  13 
 BRR  HZ I        2019 58.31        31.8 0.18                           127  13 
 BRR  HN ES   1   2020 12.01                              47    -0.7 7  127  13 
 HEL  HZ EP   1   2020  3.46                              47    -1.1 7  174 278 
 HEL  HZ I        2020 24.91        17.4 0.24                           174 278 
 GUY  HE ES   1   2020 27.19                              47     0.6 7  176 242 
 RREF HZ EP   1   2020  8.43                              37     0.9 6  194 232 
 RREF HE ES   1   2020 30.46                              37    -0.6 6  194 232 
 RREF HZ I        2020 34.34         7.3 0.19                           194 232 
 BTN  SZ ES   1   2020 31.13                              37     0.3 6  196  30 
 GUE  SZ EP       2020 12.24                              37     0.0 8  235  30 
 GUE  SZ ES   1   2020 40.23                              37     0.7 6  235  30 
 GRA  SZ EP   1   2020 14.46                              37     0.9 6  247  32 
 GRA  SZ ES   1   2020 42.27                              37     0.4 6  247  32 
                                                                                
