 2010  821 2139 52.8 L   6.790 -73.288118.0  RSN  4 0.2 1.2LRSN                1
 GAP=140        0.41       3.9     7.8  7.6  0.1457E+02 -0.3786E+02 -0.4573E+01E
 Epicentro: ZAPATOCA - SANTANDER                                               3
 ACTION:UP  10-09-07 10:57 OP:vdl  STATUS:               ID:20100821213952 L   I
 2010-08-21-2136-57S.COL___120                                                 6
 STAT SP IPHASW D HRMM SECON CODA AMPLIT PERI AZIMU VELO SNR AR TRES W  DIS CAZ7
 BAR2 SZ EP       2140  9.27                             167     0.110   25 152 
 BAR2 SZ I        2140  9.45         7.9 0.16                            25 152 
 BAR2 SZ ES   3   2140 22.04                             167     0.2 2   25 152 
 BRR  HZ EP       2140 10.10                             153    -0.110   59 307 
 BRR  HE ES   1   2140 23.95                             153     0.1 7   59 307 
 RUS  HZ EP       2140 14.05                             138     0.010  102 167 
 RUS  HZ I        2140 14.42         2.0 0.18                           102 167 
 RUS  HE ES   3   2140 29.84                             138    -0.8 2  102 167 
 GUE  SZ EP   1   2140 15.52                             130     0.0 7  122  19 
                                                                                
