 2010 1021 2045 16.8 L   6.760 -73.154148.8  RSN  4 0.3 1.9LRSN                1
 GAP=233        0.75       6.1    12.6  7.7  0.3537E+02  0.5288E+01  0.1416E+02E
 Epicentro: LOS SANTOS - SANTANDER                                             3
 ACTION:UP  11-02-18 11:11 OP:tino STATUS:               ID:20101021204516 L   I
 2010-10-21-2041-43S.COL___125                                                 6
 STAT SP IPHASW D HRMM SECON CODA AMPLIT PERI AZIMU VELO SNR AR TRES W  DIS CAZ7
 BAR2 SZ EP   1   2045 36.15                             172    -0.6 7   19 190 
 BAR2 SZ ES   1   2045 52.12                             172    -0.2 7   19 190 
 BAR2 SZ I        2045 53.51        30.8 0.35                            19 190 
 BRR  HZ EP   1   2045 38.75                             152     0.4 7   73 302 
 BRR  HN ES   1   2045 55.19                             152     0.0 7   73 302 
 BRR  HZ I        2045 58.84        26.7 0.42                            73 302 
 RUS  HZ IP     C 2045 40.70                             146     0.110   96 175 
 RUS  HE ES   1   2045 59.44                             146     0.3 7   96 175 
 RUS  HZ I        2046  0.64         7.3 0.34                            96 175 
 CHI  HZ EP   1   2045 54.26                             118     0.1 6  244 195 
 CHI  HE ES   1   2046 23.05                             118    -0.3 6  244 195 
 CHI  HZ I        2046 32.26         4.4 0.48                           244 195 
                                                                                
