 2011  121 2135  0.0 L   6.595 -73.453114.0  RSN 13 0.5 3.1LRSN                1
 GAP= 86        1.09       4.0     7.5  9.7 -0.1682E+02  0.4566E+02 -0.1383E+02E
 Epicentro: EL CARMEN DE CHUCURI - SANTANDER                                   3
 ACTION:UP  11-02-08 08:41 OP:pat  STATUS:               ID:20110121213500 L   I
 2011-01-21-2131-56S.COL___138                                                 6
 STAT SP IPHASW D HRMM SECON CODA AMPLIT PERI AZIMU VELO SNR AR TRES W  DIS CAZ7
 BAR2 SZ IP       2135 16.28                             165     0.210   30  91 
 BAR2 SZ ES   1   2135 28.42                             165    -0.1 7   30  91 
 BAR2 SZ I        2135 31.09       895.7 0.21                            30  91 
 BTL  SZ IP       2135 16.88                             159     0.410   41  30 
 RUS  HZ IP     D 2135 19.51                             140    -0.310   88 152 
 RUS  HN ES   1   2135 35.23                             140     0.1 7   88 152 
 RUS  HZ I        2135 36.47       318.8 0.23                            88 152 
 GUE  SZ EP       2135 24.68                             124    -0.4 9  149  23 
 GRA  SZ IP       2135 25.99                             122     0.0 9  160  27 
 GRA  SZ ES   1   2135 46.02                             122    -0.3 7  160  27 
 OCA  SZ EP       2135 28.07                             118    -0.4 9  182   5 
 OCA  SZ ES   1   2135 51.45                             118     0.9 7  182   5 
 OCA  SZ I        2135 53.26       257.5 0.16                           182   5 
 NOR  SZ EP       2135 28.97                             116    -0.6 9  194 234 
 NOR  SN ES   1   2135 51.96                             116    -0.7 6  194 234 
 ROSC BZ EP   1   2135 33.42                             113     0.9 6  217 206 
 ROSC BE ES   2   2135 58.53                             113     0.7 4  217 206 
 ROSC BZ I        2136  4.43       107.5 0.53                           217 206 
 CHI  HZ EP   1   2135 32.37                             113    -0.5 6  220 188 
 CHI  HZ I        2135 33.88       109.8 0.13                           220 188 
 CHI  HE ES   1   2135 58.42                             113    -0.1 6  220 188 
 HEL  HZ EP   1   2135 34.54                             111     0.1 6  234 259 
 HEL  HZ I        2136  8.71        52.6 0.20                           234 259 
 RREF HZ EP   1   2135 41.26                             107     1.0 6  281 228 
 RREF HZ I        2136 18.18        71.7 0.51                           281 228 
 TOL  SZ EP   1   2135 43.21                             105     0.7 5  304 223 
 DBB  SZ EP   1   2135 42.61                             105    -0.1 5  308 279 
                                                                                
