 2014  321 2107 40.0 L   6.788 -73.132152.3  RSN  6 0.4 1.6LRSN                1
 GAP=139        1.12       5.0     5.5  8.3 -0.5478E+01  0.5325E+01  0.1398E+02E
 Epicentro: LOS SANTOS - SANTANDER                                             3
 ACTION:UPD 14-04-09 23:19 OP:nd   STATUS:               ID:20140321210740 L   I
 OLDACT:REG 14-03-21 21:28 OP:nd   STATUS:               ID:20140321210044     3
 2014-03-21-2100-44M.COL___246                                                 6
 STAT SP IPHASW D HRMM SECON CODA AMPLIT PERI AZIMU VELO AIN AR TRES W  DIS CAZ7
 BRR  HZ EP       21 8  2.14                             153    0.2210 73.2 299 
 BRR  HN ES       21 8 19.91                             153    0.8510 73.2 299 
 BRR  HZ I        21 8 26.82        16.2 0.40            153           73.2 299 
 PAM  SZ EP       21 8  3.08                             152    0.2110 77.4  38 
 PAM  SN ES       21 8 20.46                             152   -0.2910 77.4  38 
 PAM  SZ I        21 8 22.44         7.0 0.52            158           77.4  38 
 RUS  HZ EP       21 8  4.07                             146   -0.1910 99.2 177 
 RUS  HN ES       21 8 22.90                             146   -0.3110 99.2 177 
 RUS  HZ I        21 8 26.35         2.2 0.42            149           99.2 177 
 PTB  HZ EP       21 8  7.20                             133   -0.38 9  149 259 
 PTB  HN ES       21 8 28.28                             133   -0.84 9  149 259 
 PTB  HZ I        21 8 35.90         9.3 0.36            135            149 259 
 NOR  HZ EP       21 8 16.15                             120    0.02 8  235 235 
 NOR  HN ES       21 8 44.52                             120    0.18 8  235 235 
 NOR  HZ I        21 8 47.95         4.6 0.18            123            235 235 
 CHI  HZ EP       21 8 17.98                             119    0.05 8  248 196 
 CHI  HN ES       21 8 48.21                             119    0.66 8  248 196 
 CHI  HZ I        21 8 50.74         1.2 0.22            122            248 196 
                                                                                
