 2015  321 2119 47.7 L   6.792 -73.075140.8  RSN  4 0.2 1.3LRSN                1
 GAP=146        0.56       3.8     4.6  6.5 -0.6904E+00  0.5855E+01 -0.3760E+01E
 Epicentro: LOS SANTOS - SANTANDER                                             3
 ACTION:UPD 15-04-30 16:28 OP:nd   STATUS:               ID:20150321211947 L   I
 OLDACT:REG 15-03-22 05:17 OP:spq  STATUS:               ID:20150321211749     3
 2015-03-21-2117-49M.COL___275                                                 6
 STAT SP IPHASW D HRMM SECON CODA AMPLIT PERI AZIMU VELO AIN AR TRES W  DIS CAZ7
 BAR2 EZ EP   1   2120  6.66                             169   -0.14 7 25.1 208 
 BAR2 EZ ES   1   2120 22.06                             169    0.38 7 25.1 208 
 BAR2 EZ I        2120 22.79         8.4 0.20            169           25.1 208 
 PAM  SZ EP       2120  9.43                             151    0.2610 73.3  34 
 PAM  SN ES   1   2120 25.55                             151   -0.35 7 73.3  34 
 PAM  SZ I        2120 28.54         2.8 0.30            153           73.3  34 
 RUS  HZ EP   1   2120 10.84                             143   -0.07 7 99.5 181 
 RUS  HE ES   1   2120 28.82                             143   -0.18 7 99.5 181 
 RUS  HZ I        2120 31.26         1.6 0.30            146           99.5 181 
 ZAR  HN ES   1   2120 46.20                             120   -0.13 6  212 292 
 ZAR  HZ I        2120 51.01         2.6 0.50            121            212 292 
                                                                                
