 2015 1221 2138 40.7 L   6.798 -73.141144.1  RSN  8 0.5 2.1LRSN                1
 GAP=201        1.15       4.0     6.0  6.7  0.7421E+01  0.7954E+01  0.2148E+00E
 Epicentro: LOS SANTOS - SANTANDER                                             3
 ACTION:UPD 16-02-04 15:06 OP:cam  STATUS:               ID:20151221213840 L   I
 OLDACT:UP  15-12-22 03:49 OP:ar   STATUS:               ID:20151221213749     3
 OLDACT:REG 15-12-22 02:58 OP:ar   STATUS:               ID:20151221213749     3
 2015-12-21-2137-49M.COL___337                                                 6
 STAT SP IPHASW D HRMM SECON CODA AMPLIT PERI AZIMU VELO AIN AR TRES W  DIS CAZ7
 BAR2 EZ EP       2139  0.06                             171   -0.1010 23.2 191 
 BAR2 EZ ES       2139 15.13                             171   -0.1810 23.2 191 
 BAR2 EZ I        2139 16.54        46.1 0.16            169           23.2 191 
 BRR  HZ EP       2139  1.90                             152    0.1710 71.8 298 
 BRR  HN ES       2139 19.03                             152    0.9110 71.8 298 
 BRR  HZ I        2139 20.09        15.5 0.26            149           71.8 298 
 RUS  HZ EP       2139  4.00                             144   -0.3010  100 176 
 RUS  HE ES       2139 22.85                             144    0.1610  100 176 
 RUS  HZ I        2139 23.91        22.9 0.26            145            100 176 
 PTB  HZ EP       2139  7.17                             132   -0.44 9  148 259 
 PTB  HN ES       2139 27.65                             132   -0.92 9  148 259 
 PTB  HZ I        2139 34.83        10.2 0.72            130            148 259 
 ZAR  HZ EP       2139 13.54                             122    0.41 9  205 292 
 ZAR  HN ES       2139 38.33                             122   -0.07 9  205 292 
 ZAR  HZ I        2139 44.57        10.6 0.09            121            205 292 
 SML  HZ EP       2139 17.78                             117    0.47 8  244 335 
 SML  HN ES       2139 45.11                             117   -0.73 8  244 335 
 SML  HZ I        2139 54.25        13.1 0.28            117            244 335 
 CHI  HZ EP       2139 18.14                             117   -0.19 8  249 195 
 CHI  HN ES       2139 47.67                             117    0.02 8  249 195 
 CHI  HZ I        2139 53.05         5.5 0.30            117            249 195 
 GUY2CHZ EP       2139 24.93                             112    0.63 7  301 235 
 GUY2CHN ES       2139 58.71                             112    0.43 7  301 235 
 GUY2CHZ I        2140  9.90         4.7 0.46                           301 235 
                                                                                
