 2014  621 2259  1.6 L   6.813 -73.122144.4  RSN 15 0.5 2.0LRSN                1
 GAP=139        1.12       3.4     4.7  6.8 -0.1600E+01  0.8717E+01 -0.1689E+01E
 Epicentro: LOS SANTOS - SANTANDER                                             3
 ACTION:UPD 14-07-01 22:55 OP:nd   STATUS:               ID:20140621225901 L   I
 OLDACT:REG 14-06-22 03:25 OP:fm   STATUS:               ID:20140621225806     3
 2014-06-21-2258-06M.COL___262                                                 6
 STAT SP IPHASW D HRMM SECON CODA AMPLIT PERI AZIMU VELO AIN AR TRES W  DIS CAZ7
 BAR2 SZ EP       2259 21.15                             170    0.0910 25.3 195 
 BAR2 SZ ES   1   2259 35.79                             170   -0.49 7 25.3 195 
 BAR2 SZ I        2259 36.93        14.3 0.26            162           25.3 195 
 BRR  HZ EP       2259 23.11                             152    0.4610 72.9 297 
 BRR  HE ES       2259 39.69                             152    0.5810 72.9 297 
 BRR  HZ I        2259 42.77        18.2 0.32            144           72.9 297 
 PAM  SZ EP       2259 24.17                             151    0.7110 74.6  39 
 PAM  SN ES       2259 40.83                             151    0.2810 74.6  39 
 PAM  SZ I        2259 43.12        30.9 0.46            153           74.6  39 
 RUS  HZ EP       2259 25.13                             143   -0.1310  102 178 
 RUS  HN ES       2259 43.39                             143   -0.3710  102 178 
 RUS  HZ I        2259 44.55        10.8 0.34            136            102 178 
 PTB  HZ EP       2259 28.03                             131   -0.64 9  151 258 
 PTB  HE ES       2259 49.17                             131   -0.65 9  151 258 
 PTB  HZ I        2259 51.98         8.7 0.12            123            151 258 
 OCA  HZ EP       2259 29.47                             130   -0.18 9  159 352 
 OCA  HN ES       2259 51.03                             130   -0.55 9  159 352 
 OCA  HZ I        2259 55.94        13.8 0.30            125            159 352 
 SPBC HZ EP   1   2259 30.37                             128    0.16 7  166 219 
 SPBC HZ I        2259 56.46        14.1 0.20            121            166 219 
 ZAR  HZ EP       2259 34.42                             122    0.31 8  206 291 
 ZAR  HN ES       23 0  0.02                             122    0.52 8  206 291 
 ZAR  HZ I        23 0  5.38        10.1 0.34            115            206 291 
 SML  HZ EP       2259 37.58                             117   -0.50 8  244 335 
 SML  HE ES       23 0  6.12                             117   -0.45 8  244 335 
 SML  HZ I        23 0  8.62        10.0 0.10            112            244 335 
 ROSC BN ES   1   23 0  9.80                             116    0.02 6  255 211 
 ROSC BZ I        23 0 18.69         8.1 0.30            110            255 211 
 HEL  HN ES   4   23 0 15.96                             114    2.38 0  275 256 
 HEL  HZ I        23 0 30.51         3.1 0.52            108            275 256 
 URE  HN ES   4   23 0 13.43                             113   -1.49 0  286 291 
 URE  HZ I        23 0 26.35         5.2 0.18            108            286 291 
 GUY2CHZ EP   4   2259 47.85                             112    2.42 0  304 235 
 GUY2CHN ES   4   23 0 17.59                             112   -2.07 0  304 235 
 GUY2CHZ I        23 0 28.30         2.2 0.46                           304 235 
 RREF HZ EP   4   2259 49.62                             110    1.65 0  325 229 
 RREF HE ES       23 0 24.84                             110    0.66 7  325 229 
 RREF HZ I        23 0 30.29         3.6 0.22            105            325 229 
 PRA  HZ EP   4   2259 53.92                             106   -1.40 0  395 210 
 PRA  HN ES   4   23 0 35.77                             106   -1.50 0  395 210 
 PRA  HZ I        23 0 41.79         3.2 0.24            102            395 210 
                                                                                
