 2017  621 2117 23.5 L   6.823 -73.202159.1  RSN  5 0.3 1.7LRSN                1
 GAP=278        0.78       4.7     7.8  7.8 -0.7703E+01 -0.4460E+01  0.9017E+00E
 Epicentro: ZAPATOCA - SANTANDER                                               3
 ACTION:UPD 17-09-14 16:54 OP:jn   STATUS:               ID:20170621211723 L   I
 OLDACT:UP  17-06-22 07:03 OP:dani STATUS:               ID:20170621210744d    3
 OLDACT:UP  17-06-22 07:03 OP:dani STATUS:               ID:20170621210744d    3
 OLDACT:DUP 17-06-22 07:00 OP:dani STATUS:               ID:20170621210744d    3
 OLDACT:UP  17-06-22 07:00 OP:dani STATUS:               ID:20170621210743     3
 OLDACT:UP  17-06-22 06:58 OP:dani STATUS:               ID:20170621210743     3
 OLDACT:UP  17-06-22 06:58 OP:dani STATUS:               ID:20170621210743     3
 OLDACT:UP  17-06-22 06:58 OP:dani STATUS:               ID:20170621210743     3
 OLDACT:REG 17-06-22 06:17 OP:dani STATUS:               ID:20170621210743     3
 2017-06-21-2108-00M.COL___352                                                 6
 STAT SP IPHASW D HRMM SECON CODA AMPLIT PERI AZIMU VELO AIN AR TRES W  DIS CAZ7
 BRR  HZ EP       2117 45.86                             157    0.0510 64.5 299 
 BRR  HE ES       2118  2.96                             157   -0.2210 64.5 299 
 BRR  HZ I        2118  7.71        11.6 0.21            149           64.5 299 
 PTB  HZ EP       2117 51.57                             136    0.42 9  142 257 
 PTB  HE ES       2118 12.66                             136   -0.02 9  142 257 
 PTB  HZ I        2118 14.96         3.4 0.17            134            142 257 
 SPBC HE ES       2118 16.11                             132    0.26 9  161 217 
 ZAR  HZ EP       2117 55.75                             126   -0.47 9  197 292 
 ZAR  HE ES       2118 22.06                             126    0.35 9  197 292 
 ZAR  HZ I        2118 30.99         4.5 0.12            124            197 292 
 NOR  HN ES       2118 27.45                             122   -0.47 8  231 233 
                                                                                
