 2013 1121 2326 47.5 L   6.872 -73.144139.4  RSN  6 0.4 1.6LRSN                1
 GAP=190        1.03       6.5     5.1  8.0 -0.1251E+02  0.3433E+01  0.1884E+02E
 Epicentro: LOS SANTOS - SANTANDER                                             3
 ACTION:UPD 14-01-09 16:30 OP:ep   STATUS:               ID:20131121232647 L   I
 OLDACT:REG 13-11-22 00:41 OP:stll STATUS:               ID:20131121231813     3
 2013-11-21-2318-13M.COL___237                                                 6
 STAT SP IPHASW D HRMM SECON CODA AMPLIT PERI AZIMU VELO AIN AR TRES W  DIS CAZ7
 BRR  HZ EP       2327  7.47                             152   -0.3610 68.0 293 
 BRR  HZ I        2327 21.80        11.1 0.56            159           68.0 293 
 BRR  HE ES       2327 23.52                             152   -0.1210 68.0 293 
 PAM  SZ EP       2327  9.10                             151    0.3810 71.3  43 
 PAM  SZ I        2327 24.41         2.0 0.50            142           71.3  43 
 PAM  SN ES       2327 25.04                             151   -0.2010 71.3  43 
 PTB  HZ EP   9   2327 12.47                             129   -1.71 0  150 256 
 PTB  HN ES       2327 32.41                                   -0.84 9  150 256 
 PTB  HZ I        2327 35.62         3.8 0.38            130            150 256 
 OCA  HN ES       2327 35.88                             129    0.13 9  152 353 
 OCA  HN I        2327 40.85        24.4 0.28            126            152 353 
 ZAR  HZ EP       2327 19.11                             121   -0.20 9  201 290 
 ZAR  HZ I        2327 21.62         3.1 0.28            120            201 290 
 ZAR  HN ES       2327 44.14                             121    0.06 9  201 290 
 GUY2CHZ EP       2327 31.07                             110   -0.35 7  306 234 
 GUY2CHN ES       2328  6.57                             110    0.93 7  306 234 
 GUY2CHZ I        2328 14.22         1.7 0.60                           306 234 
                                                                                
