 2017  321 2042 18.4 L   6.877 -73.505 18.8  RSN  7 0.6 1.4LRSN                1
 GAP=102        1.59       4.4     3.9  6.7  0.5287E+01  0.1375E+02  0.1493E+02E
 Epicentro: SAN VICENTE DE CHUCURI - SANTANDER                                 3
 ACTION:UPD 17-05-25 18:43 OP:jn   STATUS:               ID:20170321204218 L   I
 OLDACT:UP  17-03-22 04:05 OP:edw  STATUS:               ID:20170321203710d    3
 OLDACT:UP  17-03-22 04:04 OP:edw  STATUS:               ID:20170321203710d    3
 OLDACT:DUP 17-03-22 04:01 OP:edw  STATUS:               ID:20170321203710d    3
 OLDACT:UP  17-03-22 03:59 OP:edw  STATUS:               ID:20170321203709     3
 OLDACT:REG 17-03-22 02:32 OP:edw  STATUS:               ID:20170321203709     3
 2017-03-21-2038-00M.COL___409                                                 6
 STAT SP IPHASW D HRMM SECON CODA AMPLIT PERI AZIMU VELO AIN AR TRES W  DIS CAZ7
 BRR  HZ IP     D 2042 24.64                             116   -0.0710 34.3 318 
 BRR  HN ES       2042 30.03                             116    0.4010 34.3 318 
 BRR  HZ I        2042 30.51        67.1 0.10            116           34.3 318 
 BAR2 EZ EP       2042 26.95                             109    0.1210 47.5 131 
 BAR2 EZ ES       2042 33.60                             109    0.1910 47.5 131 
 BAR2 EZ I        2042 34.70        23.9 0.30            109           47.5 131 
 PAM  EZ EP       2042 36.05                              99    0.8210  103  60 
 PAM  EN ES       2042 47.56                              99   -0.7910  103  60 
 PAM  EZ I        2042 49.57         5.9 0.18             99            103  60 
 PTB  HZ EP       2042 35.06                              98   -1.0310  112 251 
 SPBC HZ EP       2042 41.54                              56    0.38 9  149 205 
 SPBC HN ES       2042 58.14                              56   -0.77 9  149 205 
 SPBC HZ I        2043  0.72         7.2 0.06             56            149 205 
 ZAR  HZ EP   4   2042 44.20                              56    1.26 0  164 295 
 ZAR  HE ES       2043  1.98                              56   -0.09 9  164 295 
 ZAR  HZ I        2043  2.49         3.3 0.08             56            164 295 
 NOR  HN ES       2043 13.27                              56    1.04 8  209 226 
                                                                                
