 2010 1221 2346  4.6 L   6.752 -73.033137.4  RSN  4 0.1 1.3LRSN                1
 GAP=172        0.46       3.2    17.6  7.8  0.3779E+01 -0.1001E+03 -0.5635E+01E
 Epicentro: ARATOCA - SANTANDER                                                3
 ACTION:UP  11-01-14 15:26 OP:pat  STATUS:               ID:20101221234604 L   I
 2010-12-21-2341-41S.COL___135                                                 6
 STAT SP IPHASW D HRMM SECON CODA AMPLIT PERI AZIMU VELO SNR AR TRES W  DIS CAZ7
 BAR2 SZ EP       2346 23.03                             169    -0.210   24 223 
 BTL  SZ EP       2346 23.47                             166     0.010   32 305 
 BTL  SZ ES   1   2346 38.26                             166     0.1 7   32 305 
 RUS  HZ EP       2346 27.32                             144     0.210   95 183 
 RUS  HN ES   1   2346 44.66                             144    -0.1 7   95 183 
 RUS  HZ I        2346 46.32         3.6 0.23                            95 183 
 GRA  SZ EP       2346 29.32                             134     0.010  128  11 
 GRA  SZ I        2346 55.56         2.5 0.46                           128  11 
                                                                                
