 2013  521 2051 59.4 L   7.202 -73.248126.2  RSN  6 0.2 1.7LRSN                1
 GAP=177        0.55       4.1     3.0  4.7 -0.3498E+01  0.2884E+01  0.3388E+01E
 Epicentro: LEBRIJA - SANTANDER                                                3
 ACTION:UPD 13-06-20 09:52 OP:ep   STATUS:               ID:20130521205159 L   I
 2013-05-21-2050-00M.COL___259                                                 6
 STAT SP IPHASW D HRMM SECON CODA AMPLIT PERI AZIMU VELO AIN AR TRES W  DIS CAZ7
 GIR2 SZ EP   1   2052 16.24                             173   -0.11 7 14.9 156 
 GIR2 SZ ES   1   2052 29.55                             173   -0.03 7 14.9 156 
 GIR2 SZ I        2052 30.31        10.1 0.36            172           14.9 156 
 BRR  HZ EP   1   2052 17.51                             156    0.14 7 52.4 258 
 BRR  HN ES   1   2052 31.64                             156    0.23 7 52.4 258 
 BRR  HN I        2052 32.37        57.1 0.32            157           52.4 258 
 PAM  SZ EP   1   2052 18.51                             152   -0.11 7 62.4  76 
 PAM  SN ES       2052 33.43                             152   -0.2010 62.4  76 
 PAM  SZ I        2052 37.05         5.9 0.36            153           62.4  76 
 BAR2 SZ EP   1   2052 19.00                             150    0.42 7 67.8 174 
 BAR2 SZ ES   1   2052 33.96                             150    0.41 7 67.8 174 
 BAR2 SZ I        2052 34.89        21.3 0.14            150           67.8 174 
 RUS  HZ EP   1   2052 25.39                             128    0.11 7  146 173 
 RUS  HN ES   1   2052 45.13                             128   -0.35 7  146 173 
 RUS  HZ I        2052 47.32         4.3 0.22            129            146 173 
 PTB  HZ EP   1   2052 25.36                             126    0.09 7  152 241 
 PTB  HE ES       2052 45.16                             126   -0.31 9  152 241 
 PTB  HZ I        2052 47.85         6.0 0.20            128            152 241 
                                                                                
