 2010  921 2045 16.0 L   6.789 -73.070140.7  RSN  5 0.2 1.8LRSN                1
 GAP=167        0.43       3.1     6.8  6.2 -0.2402E+01 -0.1487E+02 -0.4547E+01E
 Epicentro: LOS SANTOS - SANTANDER                                             3
 ACTION:UP  11-02-18 11:04 OP:tino STATUS:               ID:20100921204516 L   I
 2010-09-21-2040-43S.COL___122                                                 6
 STAT SP IPHASW D HRMM SECON CODA AMPLIT PERI AZIMU VELO SNR AR TRES W  DIS CAZ7
 BAR2 SZ EP   1   2045 34.90                             169    -0.1 8   25 210 
 BAR2 SZ ES   2   2045 50.08                             169     0.2 5   25 210 
 BAR2 SZ I        2045 51.69        19.9 0.35                            25 210 
 BRR  HZ EP   1   2045 36.90                             149    -0.2 8   79 296 
 BRR  HE ES   2   2045 53.63                             149     0.1 5   79 296 
 BRR  HZ I        2045 58.03        21.7 0.19                            79 296 
 RUS  HZ EP   1   2045 39.16                             143     0.0 8   99 181 
 RUS  HE ES   2   2045 57.07                             143    -0.1 5   99 181 
 RUS  HZ I        2045 59.24         6.3 0.24                            99 181 
 GUE  SZ EP   1   2045 40.15                             138    -0.1 8  116   8 
 GRA  SZ IP     D 2045 40.91                             136     0.210  125  14 
 GRA  SZ ES   2   2045 59.61                             136    -0.3 5  125  14 
 GRA  SZ I        2046  2.77         6.7 0.21                           125  14 
                                                                                
