 2016 1021 2204 47.7 L   6.733 -73.132137.8  RSN  4 0.4 1.3LRSN                1
 GAP=141        0.93       5.4     5.4  7.7 -0.9182E+01  0.1167E+02 -0.4323E+01E
 Epicentro: JORDAN - SANTANDER                                                 3
 ACTION:UPD 16-11-09 19:21 OP:rebc STATUS:               ID:20161021220447 L   I
 OLDACT:REG 16-10-22 03:38 OP:dnl  STATUS:               ID:20161021215747     3
 2016-10-21-2158-00M.COL___355                                                 6
 STAT SP IPHASW D HRMM SECON CODA AMPLIT PERI AZIMU VELO AIN AR TRES W  DIS CAZ7
 BAR2 EZ EP       22 5  6.03                             173   -0.1910 16.5 200 
 BAR2 EZ ES       22 5 20.89                             173    0.2010 16.5 200 
 BAR2 EZ I        22 5 22.88         7.4 0.22            170           16.5 200 
 PAM  EZ EP       22 5  9.52                             148    0.1510 82.3  35 
 PAM  EE ES       22 5 26.15                             148   -0.1310 82.3  35 
 PAM  EZ I        22 5 28.67         6.3 0.30            154           82.3  35 
 RUS  HZ EP       22 5 10.70                             144    0.6010 93.1 177 
 RUS  HE ES       22 5 27.20                             144   -0.3910 93.1 177 
 RUS  HZ I        22 5 34.27         1.4 0.42            145           93.1 177 
 PTB  HZ EP       22 5 13.48                             130   -0.55 9  148 262 
 PTB  HE ES       22 5 34.86                             130    0.27 9  148 262 
 PTB  HZ I        22 5 39.73         2.4 0.42            132            148 262 
                                                                                
