 2017  321 2239 36.7 L   6.304 -73.574110.6  RSN  5 0.3 1.5LRSN                1
 GAP=231        0.70       5.5     2.7  5.5 -0.2212E+01  0.2317E+01  0.1575E+01E
 Epicentro: SANTA HELENA DEL OPON - SANTANDER                                  3
 ACTION:UPD 17-05-25 18:43 OP:jn   STATUS:               ID:20170321223936 L   I
 OLDACT:REG 17-03-22 02:43 OP:edw  STATUS:               ID:20170321223746     3
 2017-03-21-2238-00M.COL___403                                                 6
 STAT SP IPHASW D HRMM SECON CODA AMPLIT PERI AZIMU VELO AIN AR TRES W  DIS CAZ7
 BAR2 EZ IP       2239 53.75                             152    0.3610 53.8  54 
 BAR2 EZ ES       2240  6.56                             152    0.1310 53.8  54 
 BAR2 EZ I        2240  7.95        17.6 0.34            153           53.8  54 
 BRR  HZ EP       2239 55.60                             138   -0.0110 90.1 350 
 BRR  HN ES       2240 10.59                             138    0.2210 90.1 350 
 PTB  HZ IP     D 2239 56.30                             134   -0.2510  101 285 
 PTB  HN ES       2240 11.75                             134   -0.3110  101 285 
 PTB  HZ I        2240 17.66         4.3 0.32            134            101 285 
 PAM  EZ EP       2240  1.70                             122   -0.17 9  150  40 
 PAM  EN ES       2240 21.14                             122   -0.39 9  150  40 
 PAM  EZ I        2240 25.94         2.8 0.68            124            150  40 
 ZAR  HZ EP       2240  6.32                             115    0.40 9  193 313 
 ZAR  HN ES       2240 28.78                             115    0.05 9  193 313 
 ZAR  HZ I        2240 34.19         6.6 0.26            116            193 313 
                                                                                
