 2012  821 2224 24.3 L   6.783 -73.182134.0  RSN  4 0.4 1.6LRSN                1
 GAP=133        0.89       5.9     5.4  9.6 -0.5272E+01  0.6037E+01  0.4746E+01E
 Epicentro: LOS SANTOS - SANTANDER                                             3
 ACTION:UPD 12-09-10 11:57 OP:ep   STATUS:               ID:20120821222424 L   I
 2012-08-21-2220-00M.COL___218                                                 6
 STAT SP IPHASW D HRMM SECON CODA AMPLIT PERI AZIMU VELO AIN AR TRES W  DIS CAZ7
 BRR  HZ EP       2224 44.60                             151    0.5910 68.7 301 
 BRR  HZ I        2224 58.00        14.6 0.32                          68.7 301 
 BRR  HN ES   1   2224 59.78                             151    0.38 7 68.7 301 
 PAM  SZ EP       2224 45.51                             147    0.0010 81.4  41 
 PAM  SZ I        2224 45.87         6.5 0.14                          81.4  41 
 PAM  SN ES   1   2225  1.51                             147   -0.56 7 81.4  41 
 RUS  HZ EP   1   2224 46.85                             142    0.08 7 99.1 174 
 RUS  HN ES   1   2225  4.42                             142    0.10 7 99.1 174 
 PTB  HZ EP       2224 49.49                             130   -0.41 9  143 259 
 PTB  HE ES   1   2225  9.43                             130   -0.46 7  143 259 
 PTB  HZ I        2225 13.46         4.5 0.13                           143 259 
                                                                                
