 2014 1221 2050  0.6 L   6.635 -73.372128.3  RSN  6 0.4 1.7LRSN                1
 GAP=106        1.15       5.0     6.9  8.1  0.1350E+02  0.1663E+02 -0.4367E+01E
 Epicentro: GALAN - SANTANDER                                                  3
 ACTION:UPD 15-02-10 17:06 OP:nd   STATUS:               ID:20141221205000 L   I
 OLDACT:UP  14-12-22 04:12 OP:cam  STATUS:               ID:20141221204819     3
 OLDACT:UP  14-12-22 04:11 OP:cam  STATUS:               ID:20141221204819     3
 OLDACT:REG 14-12-22 03:57 OP:cam  STATUS:               ID:20141221204819     3
 2014-12-21-2048-19M.COL___296                                                 6
 STAT SP IPHASW D HRMM SECON CODA AMPLIT PERI AZIMU VELO AIN AR TRES W  DIS CAZ7
 BAR2 EZ EP       2050 18.52                             170    0.4010 21.5 103 
 BAR2 EZ ES       2050 31.49                             170   -0.2810 21.5 103 
 BAR2 EZ I        2050 32.36        16.2 0.16            170           21.5 103 
 BRR  HZ EP       2050 20.24                             152    0.7410 64.3 324 
 BRR  HE ES       2050 34.58                             152    0.3610 64.3 324 
 BRR  HE I        2050 35.28        29.2 0.30            142           64.3 324 
 RUS  HZ EP       2050 22.24                             144    0.4810 88.1 159 
 RUS  HN ES       2050 37.79                             144   -0.4610 88.1 159 
 RUS  HZ I        2050 38.97         9.4 0.20            136           88.1 159 
 PTB  HZ EP       2050 23.20                             134   -0.5010  120 265 
 PTB  HZ I        2050 45.43         4.1 0.44            122            120 265 
 OCA  HZ EP       2050 28.71                             122   -0.67 9  177   2 
 OCA  HN ES       2050 51.62                             122   -0.19 9  177   2 
 OCA  HZ I        2050 53.63         6.9 0.38            119            177   2 
 ZAR  HZ EP       2050 30.55                             120    0.10 9  190 300 
 ZAR  HN ES       2050 53.50                             120   -0.22 9  190 300 
 ZAR  HZ I        2050 59.96         6.1 0.36            112            190 300 
                                                                                
