 2015  221 2219 44.7 L   6.875 -73.183142.1  RSN  6 0.4 1.3LRSN                1
 GAP=128        1.04       4.5     5.4  8.3 -0.4185E+01  0.9601E+01 -0.3845E+01E
 Epicentro: BETULIA - SANTANDER                                                3
 ACTION:UPD 15-04-30 21:28 OP:nd   STATUS:               ID:20150221221944 L   I
 OLDACT:REG 15-02-22 03:56 OP:stll STATUS:               ID:20150221221745     3
 2015-02-21-2217-45M.COL___278                                                 6
 STAT SP IPHASW D HRMM SECON CODA AMPLIT PERI AZIMU VELO AIN AR TRES W  DIS CAZ7
 BAR2 EZ EP       2220  3.91                             167   -0.1810 31.3 180 
 BAR2 EZ ES       2220 19.73                             167    0.5310 31.3 180 
 BRR  HZ EP       2220  5.74                             154    0.6910 63.8 294 
 BRR  HN ES       2220 20.66                             154   -0.2510 63.8 294 
 PAM  SZ EP       2220  6.58                             151    0.2410 74.1  46 
 PAM  SZ I        2220  6.91         3.3 0.20            153           74.1  46 
 PAM  SE ES       2220 23.23                             151    0.0310 74.1  46 
 RUS  HN ES       2220 26.94                             141   -0.5610  109 174 
 RUS  HZ I        2220 30.08         2.1 0.50            140            109 174 
 PTB  HZ EP       2220 10.91                             132   -0.27 9  146 255 
 PTB  HN ES       2220 31.97                             132    0.15 9  146 255 
 PTB  HZ I        2220 35.43         3.8 0.18            131            146 255 
 OCA  HN ES       2220 32.66                             130   -0.47 9  152 354 
                                                                                
