 2013  221 2123 52.4 L   6.803 -73.130150.2  RSN  7 0.4 2.1LRSN                1
 GAP=138        0.86       5.0     4.8  6.9  0.4989E+01  0.6095E+01  0.2697E+01E
 Epicentro: LOS SANTOS - SANTANDER                                             3
 ACTION:UPD 13-03-12 09:34 OP:ep   STATUS:               ID:20130221212352 L   I
 2013-02-21-2120-00M.COL___235                                                 6
 STAT SP IPHASW D HRMM SECON CODA AMPLIT PERI AZIMU VELO AIN AR TRES W  DIS CAZ7
 BAR2 SZ EP   1   2124 11.83                             171   -0.71 7 24.0 194 
 BAR2 SZ ES       2124 28.28                             171    0.0110 24.0 194 
 BAR2 SZ I        2124 31.45        19.0 0.24            168           24.0 194 
 BRR  HZ EP   1   2124 14.34                             153    0.28 7 72.5 298 
 BRR  HN ES   2   2124 31.70                             153    0.71 5 72.5 298 
 BRR  HZ I        2124 36.90        19.9 0.38            150           72.5 298 
 PAM  SZ EP   1   2124 15.24                             152    0.27 7 76.0  39 
 PAM  SN ES   2   2124 32.48                             152   -0.12 5 76.0  39 
 PAM  SN I        2124 33.21         9.4 0.22            157           76.0  39 
 RUS  HZ EP   1   2124 16.55                             145   -0.02 7  101 177 
 RUS  HN ES   2   2124 35.42                             145   -0.03 5  101 177 
 RUS  HN I        2124 36.64         9.6 0.18            148            101 177 
 PTB  HZ EP   1   2124 19.42                             133   -0.43 7  150 259 
 PTB  HN ES       2124 40.73                             133   -0.56 9  150 259 
 PTB  HN I        2124 45.60        51.3 0.52            133            150 259 
 ZAR  HZ EP   1   2124 25.03                             123   -0.22 6  206 292 
 ZAR  HN ES       2124 51.41                             123    0.51 8  206 292 
 ZAR  HN I        2124 59.44        21.1 0.28            124            206 292 
 CHI  HZ EP   1   2124 30.49                             118    0.10 6  249 196 
 CHI  HE ES   1   2125  1.00                             118    0.94 6  249 196 
 CHI  HE I        2125  3.05         5.2 0.46            121            249 196 
                                                                                
