 2016  721 2320  4.4 L   6.754 -73.161146.0  RSN  7 0.5 2.1LRSN                1
 GAP=232        1.20       6.9     7.2  9.0  0.1635E+02  0.1650E+02  0.7551E+01E
 Epicentro: LOS SANTOS - SANTANDER                                             3
 ACTION:UPD 17-03-29 16:53 OP:lp   STATUS:               ID:20160721232004 L   I
 OLDACT:UP  16-07-22 04:31 OP:dani STATUS:               ID:20160721231759     3
 OLDACT:UP  16-07-22 04:31 OP:dani STATUS:               ID:20160721231759     3
 OLDACT:UP  16-07-22 04:31 OP:dani STATUS:               ID:20160721231759     3
 OLDACT:REG 16-07-22 03:06 OP:dani STATUS:               ID:20160721231759     3
 2016-07-21-2317-59S.COL___334                                                 6
 STAT SP IPHASW D HRMM SECON CODA AMPLIT PERI AZIMU VELO AIN AR TRES W  DIS CAZ7
 BAR2 EZ EP       2320 23.92                             172   -0.0510 18.0 187 
 BAR2 HE ES       2320 38.33                             172   -0.9010 18.0 187 
 BRR  HZ EP       2320 25.89                             152    0.2410 72.3 303 
 BRR  HN ES       2320 42.78                             152    0.5610 72.3 303 
 BRR  HZ I        2320 44.55        20.3 0.22            151           72.3 303 
 RUS  HZ EP       2320 28.10                             145    0.2710 95.6 175 
 RUS  HE ES       2320 46.56                             145    0.4610 95.6 175 
 SPBC HZ EP   4   2320 28.52                             130   -3.93 0  158 220 
 SPBC HE ES   4   2320 52.64                             130   -1.69 0  158 220 
 SPBC HZ I        2320 58.02        34.1 0.22            129            158 220 
 ZAR  HN ES       2321  2.07                             122   -0.20 9  204 294 
 NOR  HZ EP       2320 38.95                             119   -0.74 8  230 235 
 NOR  HE ES       2321  7.30                             119    0.09 8  230 235 
 NOR  HZ I        2321 11.86         6.0 0.34            118            230 235 
 GUY2CHZ EP   9   2320 50.15                             113    2.61 0  297 235 
 GUY2CHN ES       2321 24.35                             112    0.56 7  297 235 
 GUY2CHZ I        2321 30.52         3.2 0.44                           297 235 
                                                                                
