 2013  121 2030 42.1 L   6.805 -73.184144.1  RSN  8 0.3 1.7LRSN                1
 GAP=132        0.52       2.9     3.0  4.6 -0.2140E+01  0.3181E+01  0.2035E+01E
 Epicentro: LOS SANTOS - SANTANDER                                             3
 ACTION:UPD 13-02-15 09:15 OP:ep   STATUS:               ID:20130121203042 L   I
 2013-01-21-2030-00M.COL___240                                                 6
 STAT SP IPHASW D HRMM SECON CODA AMPLIT PERI AZIMU VELO AIN AR TRES W  DIS CAZ7
 BAR2 SZ EP   2   2031  1.11                             170   -0.39 5 23.5 180 
 BAR2 SZ ES   1   2031 16.74                             170    0.09 7 23.5 180 
 BAR2 SZ I        2031 17.89        28.7 0.26            166           23.5 180 
 BRR  HN ES   2   2031 19.43                             154    0.44 5 67.2 300 
 PAM  SZ EP       2031  4.41                             150    0.1710 79.7  42 
 PAM  SN ES   1   2031 21.41                             150   -0.13 7 79.7  42 
 PAM  SZ I        2031 23.54         7.0 0.46            153           79.7  42 
 RUS  HZ EP   1   2031  5.55                             143   -0.17 7  102 174 
 RUS  HE ES   1   2031 24.06                             143   -0.11 7  102 174 
 RUS  HZ I        2031 26.08         4.4 0.22            141            102 174 
 PTB  HZ EP   1   2031  8.35                             132   -0.18 7  144 258 
 PTB  HN ES   1   2031 28.76                             132   -0.41 7  144 258 
 PTB  HZ I        2031 31.33         7.0 0.36            132            144 258 
 ZAR  HE ES   2   2031 39.55                             123    0.69 4  200 292 
 NOR  HZ EP   1   2031 17.18                             118   -0.18 6  232 234 
 NOR  HN ES   1   2031 44.92                             118    0.03 6  232 234 
 NOR  HZ I        2031 51.01         6.9 0.16            118            232 234 
 CHI  HZ EP   2   2031 19.88                             117    0.27 4  248 194 
 CHI  HN ES   1   2031 49.41                             117    0.51 6  248 194 
 CHI  HZ I        2031 56.13         3.0 0.34            116            248 194 
                                                                                
