 2012  421 2146 23.5 L   6.727 -73.241154.1  RSN  4 0.2 1.3LRSN                1
 GAP=220        0.50       5.7     5.6  7.8  0.2177E+02 -0.5822E+01 -0.6364E+01E
 Epicentro: VILLANUEVA - SANTANDER                                             3
 ACTION:UPD 12-07-05 11:55 OP:tino STATUS:               ID:20120421214623 L   I
 2012-04-21-2140-00M.COL___186                                                 6
 STAT SP IPHASW D HRMM SECON CODA AMPLIT PERI AZIMU VELO AIN AR TRES W  DIS CAZ7
 BRR  HZ EP   1   2146 45.42                             155     0.1 7   67 309 
 BRR  HE ES   1   2147  2.52                             155     0.1 7   67 309 
 RUS  HZ EP   1   2146 47.77                             147     0.1 7   94 169 
 RUS  HN ES   1   2147  6.28                             147    -0.2 7   94 169 
 RUS  HZ I        2147  7.38         3.1 0.43                            94 169 
 PTB  HN ES   1   2147 11.20                             136     0.2 7  136 261 
 PTB  HZ I        2147 13.50         2.3 0.16                           136 261 
 ZAR  HN ES   1   2147 20.78                             125    -0.4 6  198 295 
                                                                                
