 2015  721 2144 24.9 L   6.818 -73.113150.8  RSN 13 0.3 2.3LRSN                1
 GAP=121        0.78       2.7     3.3  5.0 -0.1405E+01  0.5852E+01 -0.9424E+00E
 Epicentro: LOS SANTOS - SANTANDER                                             3
 ACTION:UPD 15-09-08 21:50 OP:cam  STATUS:               ID:20150721214424 L   I
 OLDACT:REG 15-07-22 05:47 OP:spq  STATUS:               ID:20150721213750     3
 2015-07-21-2137-50M.COL___331                                                 6
 STAT SP IPHASW D HRMM SECON CODA AMPLIT PERI AZIMU VELO AIN AR TRES W  DIS CAZ7
 BAR2 EZ IP     D 2144 45.34                             170    0.1010 26.1 197 
 BAR2 EZ ES   1   2145  0.70                             170   -0.36 7 26.1 197 
 BAR2 EZ I        2145  3.00        24.2 0.24            168           26.1 197 
 PAM  EZ EP     C 2144 48.23                             153    0.7510 73.5  38 
 PAM  EN ES       2145  5.32                             153    0.2710 73.5  38 
 PAM  EZ I        2145  7.08        18.9 0.20            156           73.5  38 
 RUS  HZ EP       2144 49.26                             144   -0.0610  102 178 
 RUS  HN ES       2145  8.16                             144   -0.1710  102 178 
 RUS  HZ I        2145  8.71        15.3 0.46            147            102 178 
 OCA  HN ES       2145 15.62                             131   -0.17 9  159 352 
 OCA  HZ I        2145 19.41        73.4 0.20            132            159 352 
 ZAR  HZ EP       2144 58.03                             123    0.04 8  207 291 
 ZAR  HE ES       2145 23.84                             123    0.07 8  207 291 
 ZAR  HZ I        2145 29.53        40.3 0.68            123            207 291 
 NOR  HZ EP       2145  1.32                             119   -0.09 8  239 235 
 NOR  HE ES       2145 29.50                             119   -0.35 8  239 235 
 NOR  HZ I        2145 34.90        15.6 0.28            120            239 235 
 SML  HZ EP       2145  1.52                             118   -0.31 8  243 334 
 SML  HN ES   1   2145 30.14                             118   -0.46 6  243 334 
 SML  HZ I        2145 34.69        34.8 0.10            119            243 334 
 HEL  HZ EP   4   2145  7.14                             115    1.28 0  276 256 
 HEL  HN ES   1   2145 38.18                             115    0.40 6  276 256 
 HEL  HZ I        2145 43.71        10.4 0.62            116            276 256 
 SOCV BZ EP       2145  7.15                             113   -0.61 7  297  57 
 SOCV BN ES   4   2145 38.36                             113   -2.80 0  297  57 
 GUY2CHZ EP   1   2145  9.56                             113    0.31 5  305 235 
 GUY2CHE ES   4   2145 45.40                             113    1.59 0  305 235 
 GUY2CHZ I        2145 51.99         9.9 0.54                           305 235 
 TOL  SZ EP   1   2145 14.38                             110    0.51 5  347 225 
 TOL  SN ES   4   2145 53.94                             110    1.92 0  347 225 
 TOL  SZ I        2145 57.48         8.4 0.74            111            347 225 
 MON  HE ES   4   2145 51.52                             109   -1.34 0  355 308 
 MON  HZ I        2145 56.65         4.0 0.16            110            355 308 
 SJC  HZ EP   4   2145 19.09                             106   -1.63 0  410 326 
 SJC  HN ES   4   2146  1.24                             106   -2.98 0  410 326 
 SJC  HZ I        2146  5.06         4.2 0.46            107            410 326 
                                                                                
