 2013 1121 2350 30.3 L   6.814 -73.184143.4  RSN  7 0.6 2.0LRSN 2.6WRSN        1
 SPEC AVERAGE  MO 13.0 ST138.9 OM  1.7 f0 23.1 R0.1420 AL 0.00 WI 20.0 MW  2.6 3
 SPEC SD       MO  0.1 ST149.2 OM  0.7 f0 13.6 R0.1176 AL      WI      MW  0.1 3
 GAP=137        1.44       7.4     6.1  9.0 -0.1583E+02  0.7324E+01 -0.2085E+01E
 Epicentro: ZAPATOCA - SANTANDER                                               3
 SPEC BAR2SH Z MO 13.2 ST 40.4 OM  1.4 f0 15.6 R0.1233 AL-0.00 WI 20.0 MW  2.8 3
 SPEC BAR2SH Z T2351 2 K 0.050 GD  145 VS 5.20 DE 3.20 Q0750.0 QA 1.50 VS 5.20 3
 SPEC BRR HH Z MO 13.1 ST  9.2 OM  1.2 f0 10.8 R0.1781 AL-0.00 WI 20.0 MW  2.7 3
 SPEC BRR HH Z T2351 6 K 0.050 GD  158 VS 5.20 DE 3.20 Q0750.0 QA 1.50 VS 5.20 3
 SPEC PAM SH Z MO 13.0 ST0.754 OM  1.1 f0 5.01 R0.3840 AL-0.00 WI 20.0 MW  2.6 3
 SPEC PAM SH Z T2351 7 K 0.050 GD  163 VS 5.20 DE 3.20 Q0750.0 QA 1.50 VS 5.20 3
 SPEC PTB HH Z MO 13.0 ST378.6 OM  1.0 f0 40.0 R0.0481 AL-0.00 WI 20.0 MW  2.6 3
 SPEC PTB HH Z T235115 K 0.050 GD  203 VS 5.20 DE 3.20 Q0750.0 QA 1.50 VS 5.20 3
 SPEC SPBCHH Z MO 12.9 ST308.3 OM  0.9 f0 39.5 R0.0487 AL-0.00 WI 20.0 MW  2.5 3
 SPEC SPBCHH Z T235119 K 0.050 GD  216 VS 5.20 DE 3.20 Q0750.0 QA 1.50 VS 5.20 3
 SPEC ZAR HH Z MO 12.9 ST 96.1 OM  0.8 f0 27.7 R0.0695 AL-0.00 WI 20.0 MW  2.5 3
 SPEC ZAR HH Z T235124 K 0.050 GD  246 VS 5.20 DE 3.20 Q0750.0 QA 1.50 VS 5.20 3
 OLDACT:REG 13-11-22 06:06 OP:stll STATUS:               ID:20131121234800     3
 ACTION:UPD 14-01-09 16:30 OP:ep   STATUS:               ID:20131121235030 L   I
 OLDACT:UP  13-11-22 06:08 OP:stll STATUS:               ID:20131121234800     3
 2013-11-21-2348-00S.MAN___282                                                 6
 STAT SP IPHASW D HRMM SECON CODA AMPLIT PERI AZIMU VELO AIN AR TRES W  DIS CAZ7
 BAR2 SZ IP     C 2350 49.55                             170   -0.0810 24.5 180 
 BAR2 SZ ES       2351  3.93                             170   -0.8010 24.5 180 
 BAR2 SZ I        2351  6.13        38.9 0.18            168           24.5 180 
 BRR  HZ IP       2350 51.44                             154    0.5410 66.7 299 
 BRR  HN ES       2351  8.22                             154    1.2210 66.7 299 
 BRR  SZ I        2351  9.09        17.7 0.14            152           66.7 299 
 PAM  SZ IP       2350 52.55                             150    0.2310 79.0  43 
 PAM  SN ES       2351  9.22                             150   -0.3110 79.0  43 
 PAM  SZ I        2351 10.89        11.5 0.20            154           79.0  43 
 PTB  HZ EP       2350 56.15                             132   -0.53 9  144 258 
 PTB  HN ES       2351 17.22                             132   -0.07 9  144 258 
 PTB  SZ I        2351 21.56        10.1 0.16            132            144 258 
 CAPV BZ EP       2350 57.66                             131    0.06 9  151  40 
 SPBC HZ EP       2350 58.56                             129    0.12 9  162 217 
 SPBC HN ES       2351 20.79                             129    0.37 9  162 217 
 SPBC SZ I        2351 27.61        20.0 0.22            129            162 217 
 ZAR  HZ EP       2351  2.10                             122    0.02 9  200 292 
 ZAR  HE ES       2351 25.89                             122   -1.01 9  200 292 
 ZAR  SZ I        2351 33.29        11.0 0.24            123            200 292 
                                                                                
