 2017 1121 2112 50.2 L   6.800 -73.186136.0  RSN 11 0.3 2.1LRSN                1
 GAP=132        0.77       2.9     3.2  4.7 -0.2308E+01  0.6815E+01 -0.1505E+01E
 Epicentro: ZAPATOCA - SANTANDER                                               3
 ACTION:UPD 17-12-12 19:58 OP:rebc STATUS:               ID:20171121211250 L   I
 OLDACT:REG 17-11-22 03:45 OP:lv   STATUS:               ID:20171121210052     3
 2017-11-21-2108-00M.COL___486                                                 6
 STAT SP IPHASW D HRMM SECON CODA AMPLIT PERI AZIMU VELO AIN AR TRES W  DIS CAZ7
 BAR2 EZ IP     D 2113  8.78                             170    0.1010 23.0 179 
 BAR2 EZ ES       2113 23.23                             170    0.1610 23.0 179 
 BAR2 EZ I        2113 24.54        42.5 0.16            170           23.0 179 
 PAM  EZ IP     C 2113 11.62                             148    0.0210 80.3  42 
 PAM  EN ES       2113 28.47                             148    0.2010 80.3  42 
 PAM  EZ I        2113 30.94        27.0 0.52            152           80.3  42 
 RUS  HZ EP       2113 12.78                             142   -0.2910  101 174 
 RUS  HN ES       2113 30.89                             142    0.0110  101 174 
 RUS  HZ I        2113 31.98        12.0 0.22            144            101 174 
 PTB  HZ EP       2113 15.61                             131   -0.40 9  143 258 
 PTB  HE ES       2113 35.73                             131   -0.39 9  143 258 
 PTB  HZ I        2113 39.27        18.2 0.12            131            143 258 
 SPBC HZ EP       2113 17.65                             127   -0.08 9  160 218 
 SPBC HN ES       2113 39.03                             127   -0.15 9  160 218 
 SPBC HZ I        2113 42.01        15.3 0.44            129            160 218 
 ZAR  HZ EP       2113 22.02                             121    0.39 9  200 293 
 ZAR  HN ES   4   2113 48.07                             121    1.96 0  200 293 
 ZAR  HZ I        2113 50.13        13.0 0.48            122            200 293 
 NOR  HZ EP       2113 24.66                             117   -0.36 8  231 234 
 NOR  HN ES       2113 52.54                             117    0.39 8  231 234 
 NOR  HZ I        2113 54.69         7.6 0.46            118            231 234 
 HEL  HZ EP   4   2113 31.19                             113    1.71 0  268 256 
 HEL  HN ES   4   2113 59.17                             113   -0.92 0  268 256 
 HEL  HZ I        2114  7.80         7.5 0.24            114            268 256 
 URE  HZ EP       2113 30.34                             112   -0.04 7  280 292 
 URE  HN ES       2114  1.82                             112    0.13 7  280 292 
 URE  HZ I        2114  2.91         8.9 0.14            113            280 292 
 GUY2CHZ EP   9   2113 34.25                             111    1.26 0  298 234 
 GUY2CHN ES       2114  8.54                                    0.94 7  298 234 
 GUY2CHZ I        2114 14.16         5.9 0.32                           298 234 
 PRA  HZ EP       2113 43.66                             105    0.49 6  390 209 
 PRA  HN ES       2114 24.93                             105    0.46 6  390 209 
 PRA  HZ I        2114 29.43         2.3 0.30            106            390 209 
                                                                                
