 2014 1221 2148 42.1 L   6.809 -73.170148.0  RSN  4 0.3 1.5LRSN                1
 GAP=133        0.90       5.1     4.7  7.9 -0.2860E+01  0.2917E+01  0.5809E+01E
 Epicentro: LOS SANTOS - SANTANDER                                             3
 ACTION:UPD 15-02-10 17:06 OP:nd   STATUS:               ID:20141221214842 L   I
 OLDACT:UP  14-12-22 04:26 OP:cam  STATUS:               ID:20141221214818     3
 OLDACT:REG 14-12-22 03:58 OP:cam  STATUS:               ID:20141221214818     3
 2014-12-21-2148-18M.COL___290                                                 6
 STAT SP IPHASW D HRMM SECON CODA AMPLIT PERI AZIMU VELO AIN AR TRES W  DIS CAZ7
 BRR  HZ EP       2149  3.73                             154    0.4110 68.3 299 
 BRR  HN ES       2149 20.34                             154    0.4610 68.3 299 
 BRR  HN I        2149 21.05        12.8 0.30            154           68.3 299 
 PAM  SZ EP       2149  4.72                             151    0.1210 78.4  42 
 PAM  SN ES       2149 21.68                             151   -0.4710 78.4  42 
 PAM  SZ I        2149 23.41         4.7 0.56            154           78.4  42 
 RUS  HZ EP       2149  6.12                             144   -0.0310  102 175 
 RUS  HN ES       2149 25.07                             144    0.1510  102 175 
 RUS  HZ I        2149 26.43         3.1 0.26            145            102 175 
 PTB  HZ EP       2149  8.74                             133   -0.27 9  145 258 
 PTB  HN ES       2149 29.55                             133   -0.47 9  145 258 
 PTB  HN I        2149 34.66         5.2 0.22            134            145 258 
                                                                                
