 2016 1221 2306 43.8 L   6.782 -73.129148.0  RSN  8 0.3 1.8LRSN                1
 GAP=121        0.75       3.2     3.8  4.7 -0.8344E+00  0.1421E+00  0.5043E+01E
 Epicentro: LOS SANTOS - SANTANDER                                             3
 ACTION:UPD 17-01-11 20:17 OP:rebc STATUS:               ID:20161221230643 L   I
 OLDACT:UP  16-12-22 08:56 OP:ar   STATUS:               ID:20161221225744     3
 OLDACT:REG 16-12-22 03:35 OP:ar   STATUS:               ID:20161221225744     3
 2016-12-21-2258-00M.COL___372                                                 6
 STAT SP IPHASW D HRMM SECON CODA AMPLIT PERI AZIMU VELO AIN AR TRES W  DIS CAZ7
 BAR2 EZ EP       23 7  3.59                             171   -0.0410 21.8 196 
 BAR2 EZ ES       23 7 18.93                             171   -0.2010 21.8 196 
 BAR2 EZ I        23 7 19.54        16.0 0.36            169           21.8 196 
 BRR  HZ EP       23 7  5.58                             152    0.2810 73.8 299 
 BRR  HN ES       23 7 22.40                             152    0.3010 73.8 299 
 BRR  HZ I        23 7 24.13        11.3 0.18            149           73.8 299 
 PAM  EZ EP       23 7  6.56                             151    0.3210 77.8  38 
 PAM  EN ES       23 7 23.51                             151   -0.2610 77.8  38 
 PAM  EZ I        23 7 25.73        10.0 0.56            154           77.8  38 
 RUS  HZ EP       23 7  7.65                             145    0.0610 98.5 177 
 RUS  HE ES       23 7 26.28                             145    0.1110 98.5 177 
 RUS  HZ I        23 7 27.25         5.1 0.20            146           98.5 177 
 PTB  HZ EP       23 7 10.61                             132   -0.44 9  149 260 
 PTB  HE ES       23 7 32.05                             132   -0.27 9  149 260 
 PTB  HZ I        23 7 37.97         6.9 0.36            131            149 260 
 ZAR  HZ EP   4   23 7 18.24                             122    1.63 0  207 292 
 ZAR  HN ES   4   23 7 39.93                             122   -2.30 0  207 292 
 ZAR  HZ I        23 7 46.63         8.9 0.30            122            207 292 
 CHI  HZ EP       23 7 21.79                             118    0.36 8  247 196 
 CHI  HN ES       23 7 51.06                             118    0.25 8  247 196 
 CHI  HZ I        23 7 54.58         4.6 0.62            118            247 196 
 PTGC HZ EP       23 7 26.79                             112   -0.65 7  306 159 
                                                                                
