 2012 1221 2351 20.1 L   6.780 -73.166142.0  RSN  7 0.4 1.7LRSN                1
 GAP= 75        1.10       5.6     4.9  7.3 -0.1893E+01 -0.2711E+01  0.2401E+01E
 Epicentro: LOS SANTOS - SANTANDER                                             3
 ACTION:UPD 13-01-04 14:29 OP:ep   STATUS:               ID:20121221235120 L   I
 2012-12-21-2350-00M.COL___243                                                 6
 STAT SP IPHASW D HRMM SECON CODA AMPLIT PERI AZIMU VELO AIN AR TRES W  DIS CAZ7
 BAR2 SZ EP       2351 39.19                             171   -0.0610 20.8 185 
 BAR2 SZ ES       2351 54.33                             171    0.1610 20.8 185 
 BAR2 SZ I        2351 54.97         9.5 0.12                          20.8 185 
 GIR2 SZ EP       2351 39.34                             166   -0.0610 33.2 355 
 BRR  HZ EP       2351 41.15                             152    0.3410 70.3 301 
 BRR  HN ES       2351 57.61                             152    0.6610 70.3 301 
 BRR  HN I        2351 58.24        14.4 0.26                          70.3 301 
 PAM  SZ EP       2351 41.99                             149   -0.1410 80.5  40 
 PAM  SZ I        2351 42.28         5.9 0.16                          80.5  40 
 PAM  SN ES       2351 58.89                             149   -0.4110 80.5  40 
 RUS  HZ EP       2351 43.62                             144    0.2710 98.6 175 
 RUS  HE ES       2352  1.51                             144    0.0310 98.6 175 
 RUS  HN I        2352  3.14         8.7 0.28                          98.6 175 
 PTB  HZ EP       2351 46.90                             132    0.36 9  145 260 
 PTB  HN ES       2352  6.08                             132   -1.07 9  145 260 
 PTB  HN I        2352  9.45         9.7 0.22                           145 260 
 TAM  HZ IP       2351 47.46                             129   -0.20 9  157 104 
 TAM  HZ EP       2351 47.49                                            157 104 
                                                                                
