 2012 1121 2350  9.7 L   6.812 -73.169139.8  RSN 10 0.3 2.1LRSN 2.7WRSN        1
 SPEC AVERAGE  MO 13.1 ST  5.8 OM  3.1 f0 5.42 R0.2822 AL 2.70 WI 15.5 MW  2.7 3
 SPEC SD       MO  0.3 ST  5.0 OM  1.6 f0 1.07 R0.0557 AL      WI      MW  0.2 3
 GAP= 69        0.84       2.7     3.3  5.2  0.1222E+00  0.3417E+01  0.2251E+01E
 Epicentro: LOS SANTOS - SANTANDER                                             3
 SPEC ZAR HH N MO 13.5 ST 10.8 OM  1.7 f0 6.49 R0.2265 AL 3.14 WI 20.7 MW  2.9 3
 SPEC ZAR HH N T2351 4 K 0.000 GD  244 VS 4.20 DE 3.00 Q0230.0 QA 0.60 VS 4.20 3
 SPEC RUS HH N MO 12.8 ST0.728 OM  1.2 f0 4.35 R0.3379 AL 2.26 WI 10.3 MW  2.5 3
 SPEC RUS HH N T235050 K 0.000 GD  173 VS 4.20 DE 3.00 Q0230.0 QA 0.60 VS 4.20 3
 ACTION:UPD 12-12-05 15:35 OP:}ep  STATUS:               ID:20121121235009 L   I
 2012-11-21-2350-00M.COL___234                                                 6
 STAT SP IPHASW D HRMM SECON CODA AMPLIT PERI AZIMU VELO AIN AR TRES W  DIS CAZ7
 BAR2 SZ EP       2350 28.94                             170    0.2710 24.3 183 
 BAR2 SZ ES       2350 43.68                             170    0.2410 24.3 183 
 BAR2 SZ I        2350 45.93        17.0 0.22                          24.3 183 
 GIR2 SZ EP       2350 29.08                             167    0.4310 29.6 355 
 PAM  SZ EP       2350 31.40                             149    0.0410 78.1  42 
 PAM  SN ES       2350 47.89                             149   -0.3410 78.1  42 
 PAM  SN I        2350 49.06        20.8 0.50                          78.1  42 
 RUS  HZ EP       2350 33.46                             142    0.4410  102 175 
 RUS  HN ES       2350 51.01                             142   -0.1710  102 175 
 RUS  HN I        2350 52.18        12.0 0.16                           102 175 
 PTB  HZ EP       2350 35.28                             131   -0.73 9  145 258 
 PTB  HN ES       2350 56.34                             131   -0.17 9  145 258 
 PTB  HN I        2350 58.87        25.4 0.22                           145 258 
 TAM  HZ IP     C 2350 37.01                             129   -0.21 9  158 105 
 TAM  HZ I        2350 37.21        18.4 0.34                           158 105 
 ZAR  HE ES       2351  6.64                             121    0.37 9  201 292 
 ZAR  HN I        2351 10.91        21.0 0.50                           201 292 
 SML  HN ES       2351 13.68                             116   -0.22 8  241 336 
 SML  HN I        2351 16.60        40.0 0.10                           241 336 
 CHI  HZ EP       2350 47.28                             116    0.10 8  249 195 
 CHI  HE ES       2351 15.92                             116   -0.46 8  249 195 
 CHI  HZ I        2351 24.18         2.8 0.30                           249 195 
 PRA  HZ EP       2351  3.21                             105    0.17 6  392 209 
 PRA  HN ES       2351 44.91                             105    0.29 6  392 209 
 PRA  HN I        2351 51.21         3.5 0.22                           392 209 
                                                                                
