 2012  421 2124 59.9 L   6.802 -73.146150.1  RSN 17 0.4 3.5LRSN 4.0WRSN        1
 SPEC AVERAGE  MO 15.0 ST 40.8 OM  3.2 f0 2.86 R0.5222 AL 2.10 WI 18.6 MW  4.0 3
 GAP=136        0.99       3.5     4.6  6.1 -0.2555E+01  0.6561E+01  0.4379E+01E
 Epicentro: LOS SANTOS - SANTANDER                                             3
 SPEC COD HH N MO 15.0 ST 51.7 OM  3.0 f0 3.41 R0.4311 AL 1.72 WI 21.9 MW  3.9 3
 SPEC COD HH N T212622 K 0.020 GD  378 VS 4.20 DE 3.20 Q0230.0 QA 0.60 VS 4.20 3
 SPEC ROSCBH N MO 15.6 ST 72.8 OM  3.7 f0 2.43 R0.6049 AL 3.40 WI 20.8 MW  4.3 3
 SPEC ROSCBH N T2126 8 K 0.020 GD  294 VS 4.20 DE 3.20 Q0230.0 QA 0.60 VS 4.20 3
 SPEC PTB HH N MO 14.8 ST 21.8 OM  3.1 f0 2.88 R0.5104 AL 1.47 WI 10.4 MW  3.8 3
 SPEC PTB HH N T212547 K 0.020 GD  210 VS 4.20 DE 3.20 Q0230.0 QA 0.60 VS 4.20 3
 SPEC HEL HH N MO 14.8 ST 16.9 OM  2.9 f0 2.71 R0.5424 AL 1.81 WI 21.2 MW  3.8 3
 SPEC HEL HH N T212610 K 0.020 GD  310 VS 4.20 DE 3.20 Q0230.0 QA 0.60 VS 4.20 3
 ACTION:UP  12-07-05 14:03 OP:tino STATUS:               ID:20120421212459 L   I
 2012-04-21-2120-00M.COL___186                                                 6
 STAT SP IPHASW D HRMM SECON CODA AMPLIT PERI AZIMU VELO AIN AR TRES W  DIS CAZ7
 BAR2 SZ IP       2125 20.06                             171   -0.0110 23.6 190 
 BAR2 SZ ES   1   2125 36.12                             171    0.34 7 23.6 190 
 BAR2 SZ I        2125 36.98       392.9 0.31                          23.6 190 
 BRR  HZ EP       2125 21.96                             153    0.4410 71.0 298 
 BRR  HN ES   1   2125 38.89                             153    0.52 7 71.0 298 
 BRR  HZ I        2125 42.22       584.1 0.21                          71.0 298 
 PAM  SZ EP       2125 22.84                             152    0.2610 77.2  40 
 PAM  SE ES   1   2125 40.04                             152   -0.22 7 77.2  40 
 RUS  HZ EP       2125 23.80                             145   -0.3110  101 176 
 RUS  HN ES   1   2125 42.67                             145   -0.31 7  101 176 
 RUS  HZ I        2125 43.72       232.2 0.31                           101 176 
 PTB  HZ EP       2125 26.50                             133   -0.74 9  148 259 
 PTB  HN ES   1   2125 47.99                             133   -0.56 7  148 259 
 PTB  HZ I        2125 55.44       541.2 0.44                           148 259 
 OCA  SZ EP   1   2125 28.41                             131   -0.13 7  160 353 
 OCA  SZ ES   1   2125 50.66                             131   -0.21 7  160 353 
 ZAR  HZ EP   1   2125 32.40                             123   -0.23 6  204 292 
 ZAR  HN ES   1   2125 58.58                             123    0.43 6  204 292 
 ZAR  HZ I        2126  3.97       361.8 0.39                           204 292 
 NOR  SZ EP       2125 35.75                             119   -0.16 8  235 234 
 NOR  SN ES   1   2126  3.39                             119   -0.59 6  235 234 
 CHI  HZ EP   1   2125 38.13                             118    0.25 6  249 195 
 CHI  HZ I        2126 13.13       150.3 0.43                           249 195 
 ROSC BN ES   1   2126  8.91                             117    0.68 6  253 211 
 ROSC BZ I        2126 17.45       239.6 0.43                           253 211 
 HEL  HZ EP   1   2125 41.00                             116    0.65 6  272 256 
 HEL  HN ES   1   2126 11.35                             116   -0.54 6  272 256 
 HEL  HZ I        2126 18.42       171.6 0.28                           272 256 
 GUY  SZ I        2126 25.81       249.7 0.44                           304 235 
 VIL  SN ES   1   2126 17.23                             113   -0.37 5  304 192 
 GUY  SZ EP   1   2125 44.69                             113    0.69 5  304 235 
 VIL  SZ EP   1   2125 43.31                             113   -0.25 5  304 192 
 VIL  SZ I        2126 24.16        97.7 0.42                           304 192 
 RREF HZ EP   1   2125 46.99                             112    0.73 5  322 229 
 RREF HZ I        2126 32.32       186.5 0.30                           322 229 
 TOL  SZ EP   1   2125 48.90                             110    0.54 5  344 225 
 COD  HZ EP   1   2125 47.87                             110   -0.56 5  348 355 
 COD  HZ I        2126 32.32       112.9 0.34                           348 355 
 PRA  HZ EP   1   2125 53.68                             107    0.07 4  392 210 
 PRA  HN ES   1   2126 36.26                             107    0.77 4  392 210 
                                                                                
