 2014 1021 2203 17.2 L   6.780 -73.170148.0  RSN  8 0.4 1.9LRSN                1
 GAP=134        0.92       4.7     4.8  7.2 -0.4931E+01  0.1646E+01  0.5288E+01E
 Epicentro: LOS SANTOS - SANTANDER                                             3
 ACTION:UPD 14-11-29 23:53 OP:nd   STATUS:               ID:20141021215744dL   I
 OLDACT:DUP 14-10-23 09:57 OP:fm   STATUS:               ID:20141021215744dL   3
 2014-10-21-2157-43M.COL___277                                                 6
 STAT SP IPHASW D HRMM SECON CODA AMPLIT PERI AZIMU VELO AIN AR TRES W  DIS CAZ7
 BAR2 SZ EP   1   22 3 37.27                             172    0.23 7 20.8 184 
 BAR2 SZ ES   1   22 3 53.26                             172    0.74 7 20.8 184 
 BAR2 SZ I        22 3 54.02        10.4 0.26            170           20.8 184 
 BRR  HZ EP   1   22 3 38.54                             153    0.03 7 69.9 301 
 BRR  HN ES       22 3 55.18                             153    0.0410 69.9 301 
 BRR  HZ I        22 3 59.59        14.9 0.34            150           69.9 301 
 PAM  SZ EP       22 3 40.19                             150    0.3510 80.8  40 
 PAM  SN ES       22 3 57.10                             150   -0.4210 80.8  40 
 PAM  SZ I        22 3 59.47        15.0 0.56            154           80.8  40 
 RUS  HZ EP       22 3 41.28                             145    0.2610 98.6 174 
 RUS  HN ES       22 3 59.14                             145   -0.4710 98.6 174 
 RUS  HZ I        22 4  0.92         5.5 0.28            147           98.6 174 
 PTB  HZ EP   1   22 3 43.15                             133   -0.91 7  145 259 
 PTB  HN ES       22 4  5.04                             133    0.01 9  145 259 
 PTB  HZ I        22 4 11.12         6.2 0.26            132            145 259 
 SPBC HZ EP   1   22 3 45.50                             130   -0.04 7  160 219 
 SPBC HN ES   1   22 4  7.94                             130    0.29 7  160 219 
 SPBC HZ I        22 4 14.21        11.8 0.26            131            160 219 
 SML  HN ES   4   22 4 21.18                             118   -1.59 0  245 336 
 SML  HZ I        22 4 25.54        17.5 0.10            119            245 336 
 GUY2CHZ EP   4   22 4  2.81                             113    2.30 0  298 235 
 GUY2CHN ES   4   22 4 37.82                             113    3.52 0  298 235 
 GUY2CHZ I        22 4 43.98         3.5 0.70                           298 235 
                                                                                
