 2015  321 2202  4.6 L   6.064 -73.652116.6  RSN 23 0.4 2.4LRSN                1
 GAP= 74        0.88       2.1     2.2  4.5 -0.1887E+01  0.3426E+01 -0.9909E+00E
 Epicentro: CHIPATA - SANTANDER                                                3
 ACTION:UPD 15-04-30 16:28 OP:nd   STATUS:               ID:20150321220204 L   I
 OLDACT:REG 15-03-22 05:20 OP:spq  STATUS:               ID:20150321215749     3
 2015-03-21-2157-49M.COL___275                                                 6
 STAT SP IPHASW D HRMM SECON CODA AMPLIT PERI AZIMU VELO AIN AR TRES W  DIS CAZ7
 SPBC HZ EP       22 2 22.01                             149   -0.3610 65.1 226 
 SPBC HN ES       22 2 36.21                             149   -0.0510 65.1 226 
 SPBC HZ I        22 2 37.00        94.6 0.04            149           65.1 226 
 RUS  HZ IP     D 22 2 22.82                             149   -0.1610 65.7 107 
 RUS  HE ES       22 2 37.28                             149   -0.0710 65.7 107 
 RUS  HZ I        22 2 38.42        42.0 0.30            149           65.7 107 
 BAR2 EZ EP     D 22 2 23.68                             144    0.2210 78.1  42 
 BAR2 EZ ES   1   22 2 38.15                             144   -0.05 7 78.1  42 
 BAR2 EZ I        22 2 39.32        87.8 0.24            145           78.1  42 
 PTB  HZ EP   4   22 2 24.02                             135   -1.13 0  103 301 
 PTB  HE ES   4   22 2 39.91                             135   -1.30 0  103 301 
 PTB  HZ I        22 2 43.00        53.4 0.40            136            103 301 
 BRR  HZ EP       22 2 26.46                             132    0.2710  116 357 
 BRR  HE ES       22 2 43.40                             132    0.3210  116 357 
 BRR  HZ I        22 2 47.03        41.9 0.12            133            116 357 
 NOR  HZ EP       22 2 28.93                             125   -0.23 9  146 248 
 NOR  HE ES       22 2 48.16                             125   -0.20 9  146 248 
 NOR  HZ I        22 2 51.53        81.0 0.20            126            146 248 
 ROSC BZ EP   4   22 2 33.18                             123    2.71 0  154 209 
 ROSC BN ES   4   22 2 53.37                             123    2.68 0  154 209 
 ROSC BZ I        22 2 57.13        23.8 0.30            124            154 209 
 PAM  SZ EP       22 2 33.30                             119    0.44 9  176  37 
 PAM  SN ES       22 2 54.43                             119   -0.50 9  176  37 
 PAM  SZ I        22 2 58.01        17.2 0.28            120            176  37 
 ZAR  HZ EP       22 2 35.18                             115   -0.39 8  207 320 
 ZAR  HN ES       22 2 59.89                             115    0.12 8  207 320 
 ZAR  HZ I        22 3  1.92        53.2 0.36            116            207 320 
 HEL  HZ EP       22 2 36.12                             115   -0.09 8  208 274 
 HEL  HN ES   1   22 3  0.52                             115   -0.37 6  208 274 
 HEL  HZ I        22 3  4.63        21.1 0.36            116            208 274 
 TAM  HZ EP   1   22 2 36.00                             114    0.02 6  210  79 
 TAM  HN ES   1   22 3  0.61                             114    0.12 6  210  79 
 TAM  HZ I        22 3  8.51        21.4 0.32            115            210  79 
 GUY2CHZ EP       22 2 36.25                             114   -0.43 8  211 244 
 GUY2CHN ES       22 3  2.43                             114    0.69 8  211 244 
 GUY2CHZ I        22 3  9.68        20.5 0.34                           211 244 
 VIL  SE ES       22 3  1.89                             114    0.02 8  216 181 
 VIL  SZ I        22 3  5.81        26.4 0.36            114            216 181 
 RREF HN ES   4   22 3  6.70                             113    1.34 0  228 236 
 RREF HZ I        22 3 10.84        20.0 0.26            113            228 236 
 OCA  HZ EP   1   22 2 40.29                             111    0.41 6  243   9 
 OCA  HN ES   1   22 3  8.13                             111    0.70 6  243   9 
 OCA  HZ I        22 3 10.97        30.5 0.16            112            243   9 
 TOL  SZ EP       22 2 40.06                             110   -0.45 8  247 229 
 TOL  SN ES       22 3  7.73                             110   -0.83 8  247 229 
 TOL  SZ I        22 3 11.52        15.1 0.40            111            247 229 
 ANIL HZ EP       22 2 42.73                             109    0.69 8  261 228 
 ANIL HN ES       22 3 11.89                             109    0.60 8  261 228 
 CBOC HZ EP       22 2 42.24                             109    0.16 8  262 265 
 CBOC HN ES   1   22 3 11.61                             109    0.26 6  262 265 
 CBOC HZ I        22 3 16.69         5.3 0.30            110            262 265 
 URE  HZ EP   4   22 2 42.27                             107   -1.59 0  279 312 
 URE  HN ES   4   22 3 12.40                             107   -2.12 0  279 312 
 URE  HZ I        22 3 15.39        28.2 0.16            108            279 312 
 ORTC HZ EP       22 2 45.75                             106   -0.17 7  297 217 
 ORTC HN ES       22 3 19.15                             106    0.97 7  297 217 
 ORTC HZ I        22 3 20.94         6.8 0.22            107            297 217 
 DBB  SZ EP       22 2 46.06                             106   -0.52 7  302 291 
 DBB  SZ ES   1   22 3 19.43                             106    0.07 5  302 291 
 SML  HZ EP   1   22 2 46.58                             106   -0.39 5  306 351 
 SML  HN ES   1   22 3 19.56                             106   -0.50 5  306 351 
 SML  HZ I        22 3 23.77        19.9 0.10            106            306 351 
 MON  HZ EP   4   22 2 53.26                             102   -1.69 0  374 324 
 MON  HN ES   4   22 3 27.61                             102   -6.65 0  374 324 
 MON  HZ I        22 3 34.43         6.2 0.74            102            374 324 
                                                                                
