 2014  721 2300 27.3 L   6.843 -73.068133.4  RSN  5 0.3 1.6LRSN                1
 GAP=232        0.62       4.2     4.3  6.4  0.6750E+00  0.5947E+01 -0.1454E+02E
 Epicentro: LOS SANTOS - SANTANDER                                             3
 ACTION:UPD 15-03-16 20:45 OP:nd   STATUS:               ID:20140721230027 L   I
 OLDACT:REG 14-07-22 03:32 OP:stll STATUS:               ID:20140721225820     3
 2014-07-21-2258-20M.COL___269                                                 6
 STAT SP IPHASW D HRMM SECON CODA AMPLIT PERI AZIMU VELO AIN AR TRES W  DIS CAZ7
 BAR2 SZ EP       23 0 45.27                             167   -0.4010 30.5 205 
 BAR2 SZ ES       23 1  0.14                             167    0.1710 30.5 205 
 BAR2 SZ I        23 1  3.19         5.9 0.28            173           30.5 205 
 BRR  HZ EP   2   23 0 48.01                             148    0.48 5 77.0 292 
 PTB  HZ EP       23 0 54.24                             127    0.01 9  157 258 
 PTB  HN ES       23 1 15.25                             127    0.04 9  157 258 
 PTB  HZ I        23 1 17.80         4.0 0.16            132            157 258 
 ZAR  HZ EP   2   23 0 59.58                             119   -0.11 4  210 290 
 ZAR  HE ES       23 1 24.83                             119   -0.09 8  210 290 
 SML  HZ EP       23 1  3.73                             115    0.48 8  243 333 
 SML  HN ES       23 1 31.03                             115   -0.23 8  243 333 
 SML  HZ I        23 1 39.51         4.9 0.24            117            243 333 
                                                                                
