 2012 1221 2038 40.9 L   7.394 -73.425127.9  RSN  6 0.5 1.9LRSN                1
 GAP=188        1.19       5.8     7.6 11.6  0.1052E+02 -0.2637E+02  0.1400E+01E
 Epicentro: SABANA DE TORRES - SANTANDER                                       3
 ACTION:UPD 13-01-04 14:29 OP:ep   STATUS:               ID:20121221203840 L   I
 2012-12-21-2030-00M.COL___243                                                 6
 STAT SP IPHASW D HRMM SECON CODA AMPLIT PERI AZIMU VELO AIN AR TRES W  DIS CAZ7
 BRR  HZ EP       2038 59.04                             159    0.2510 44.9 225 
 BRR  HN ES       2039 12.93                             159    0.2310 44.9 225 
 BRR  HN I        2039 13.35        40.5 0.20                          44.9 225 
 BAR2 SZ EP       2039  1.54                             142   -0.4810 92.6 163 
 BAR2 SZ I        2039  1.68        30.0 0.10                          92.6 163 
 PTB  HZ EP       2039  7.54                             127    0.99 9  148 230 
 PTB  HE ES       2039 26.41                             127   -0.11 9  148 230 
 PTB  HN I        2039 30.33         5.3 0.36                           148 230 
 ZAR  HE ES       2039 27.72                             125   -0.61 9  159 274 
 ZAR  HN I        2039 36.54         6.7 0.12                           159 274 
 RUS  HZ EP       2039  9.03                             124   -0.36 9  170 167 
 SML  HN ES       2039 30.60                             123    0.05 9  171 335 
                                                                                
