 2015  321 2101 19.6 L   6.798 -73.080154.5  RSN  8 0.3 1.6LRSN                1
 GAP=206        0.71       3.6     4.5  6.0  0.2593E+01  0.2649E+01  0.8325E+00E
 Epicentro: LOS SANTOS - SANTANDER                                             3
 ACTION:UPD 15-04-30 16:28 OP:nd   STATUS:               ID:20150321210119 L   I
 OLDACT:REG 15-03-22 05:10 OP:spq  STATUS:               ID:20150321205748     3
 2015-03-21-2057-48M.COL___276                                                 6
 STAT SP IPHASW D HRMM SECON CODA AMPLIT PERI AZIMU VELO AIN AR TRES W  DIS CAZ7
 BAR2 EZ EP       21 1 40.33                             170    0.0110 25.4 206 
 BAR2 EZ ES   1   21 1 56.14                             170   -0.34 7 25.4 206 
 BAR2 EZ I        21 2  0.70         5.1 0.18            166           25.4 206 
 BRR  HZ EP       21 1 42.38                             152    0.3210 77.7 296 
 BRR  HE ES       21 1 59.97                             152    0.3910 77.7 296 
 BRR  HZ I        21 2  2.60        11.9 0.64            150           77.7 296 
 RUS  HZ EP       21 1 44.26                             146    0.0810  100 180 
 RUS  HE ES   1   21 2  3.15                             146   -0.21 7  100 180 
 RUS  HZ I        21 2  3.90         2.7 0.42            147            100 180 
 PTB  HZ EP   1   21 1 47.32                             133   -0.60 7  155 259 
 PTB  HN ES   1   21 2 10.19                             133    0.18 7  155 259 
 PTB  HZ I        21 2 14.21         4.2 0.22            132            155 259 
 SPBC HE ES   1   21 2 12.25                             130   -0.03 7  168 221 
 SPBC HZ I        21 2 18.36         7.4 0.22            130            168 221 
 ZAR  HN ES   1   21 2 19.40                             123   -0.22 6  211 291 
 ZAR  HZ I        21 2 24.75         4.6 0.30            124            211 291 
 NOR  HZ EP   1   21 1 57.04                             120    0.58 6  240 236 
 NOR  HN ES       21 2 24.92                             120   -0.29 8  240 236 
 NOR  HZ I        21 2 29.97         2.5 0.26            121            240 236 
 SML  HN ES   1   21 2 25.72                             119   -0.60 6  247 334 
                                                                                
