 2017  821 2159  8.4 L   6.756 -73.122141.7  RSN  6 0.3 1.6LRSN                1
 GAP=142        0.74       3.7     4.1  5.3 -0.5254E+01  0.6103E+01  0.2977E+01E
 Epicentro: LOS SANTOS - SANTANDER                                             3
 ACTION:UPD 17-09-04 20:23 OP:rebc STATUS:               ID:20170821215908 L   I
 OLDACT:REG 17-08-22 03:09 OP:lv   STATUS:               ID:20170821215743     3
 2017-08-21-2158-00M.COL___414                                                 6
 STAT SP IPHASW D HRMM SECON CODA AMPLIT PERI AZIMU VELO AIN AR TRES W  DIS CAZ7
 BAR2 EZ EP       2159 27.22                             172   -0.2210 19.4 200 
 BAR2 EZ ES       2159 41.99                             172   -0.3210 19.4 200 
 BAR2 EZ I        2159 43.33        11.7 0.16            171           19.4 200 
 BRR  HZ IP     D 2159 29.00                             150   -0.3610 75.9 301 
 BRR  HN ES       2159 46.13                             150    0.4010 75.9 301 
 BRR  HZ I        2159 48.71         5.8 0.22            150           75.9 301 
 PAM  EZ EP       2159 30.10                             149   -0.1910 79.6  36 
 PAM  EE ES       2159 47.56                             149    0.1710 79.6  36 
 RUS  HZ EP       2159 31.86                             144    0.4910 95.6 177 
 RUS  HN ES       2159 49.30                             144   -0.0010 95.6 177 
 RUS  HZ I        2159 50.91         5.8 0.34            146           95.6 177 
 NOR  HZ EP       2159 44.04                             118    0.23 8  234 236 
 NOR  HE ES       22 0 11.42                             118   -0.03 8  234 236 
 NOR  HZ I        22 0 12.88         4.3 0.18            119            234 236 
 GUY2CHZ EP   4   2159 53.09                             112    1.35 0  301 236 
 GUY2CHN ES       22 0 25.37                             112   -0.19 7  301 236 
 GUY2CHZ I        22 0 31.70         2.3 0.26                           301 236 
                                                                                
