 2015 1221 2308 11.6 L   6.816 -73.140150.3  RSN 26 0.5 2.7LRSN                1
 GAP= 53        1.07       2.4     2.6  4.3 -0.7320E+00  0.1791E+01  0.1235E+01E
 Epicentro: LOS SANTOS - SANTANDER                                             3
 ACTION:UPD 16-02-04 15:06 OP:cam  STATUS:               ID:20151221230811 L   I
 OLDACT:UP  15-12-22 06:17 OP:ar   STATUS:               ID:20151221225748d    3
 OLDACT:UP  15-12-22 06:09 OP:ar   STATUS:               ID:20151221225748d    3
 OLDACT:DUP 15-12-22 05:45 OP:ar   STATUS:               ID:20151221225748d    3
 OLDACT:REG 15-12-22 03:16 OP:ar   STATUS:               ID:20151221225747     3
 2015-12-21-2257-47M.COL___337                                                 6
 STAT SP IPHASW D HRMM SECON CODA AMPLIT PERI AZIMU VELO AIN AR TRES W  DIS CAZ7
 BAR2 EZ EP     D 23 8 31.76                             170   -0.0110 25.2 191 
 BAR2 EZ ES       23 8 47.10                             170   -0.4410 25.2 191 
 BAR2 EZ I        23 8 47.95        97.0 0.20            169           25.2 191 
 BRR  HZ EP       23 8 33.59                             153    0.4110 70.9 297 
 BRR  HN ES       23 8 50.57                             153    0.5210 70.9 297 
 BRR  HZ I        23 8 53.15        44.5 0.20            151           70.9 297 
 PAM  EZ EP     D 23 8 34.76                             152    0.6010 75.6  40 
 PAM  EN ES       23 8 51.70                             152   -0.0810 75.6  40 
 PAM  EZ I        23 8 53.95       105.2 0.44            155           75.6  40 
 RUS  HZ EP       23 8 35.79                             144   -0.0910  102 176 
 RUS  HN ES       23 8 54.88                             144    0.0210  102 176 
 RUS  HZ I        23 8 55.48        62.2 0.28            145            102 176 
 PTB  HZ EP       23 8 38.35                             133   -0.64 9  149 258 
 PTB  HE ES       23 9  0.16                             133   -0.22 9  149 258 
 PTB  HZ I        23 9  6.50        58.2 0.62            132            149 258 
 TAM  HZ IP     D 23 8 40.22                             132    0.63 9  155 106 
 TAM  HN ES       23 9  1.82                             132    0.37 9  155 106 
 TAM  HZ I        23 9  2.44        28.7 0.32            135            155 106 
 OCA  HZ EP       23 8 40.76                             131    0.69 9  159 353 
 OCA  HN ES       23 9  1.54                             131   -0.76 9  159 353 
 OCA  HZ I        23 9  6.61        94.3 0.46            132            159 353 
 SPBC HZ EP       23 8 40.73                             130    0.15 9  165 219 
 SPBC HN ES       23 9  3.44                             130    0.23 9  165 219 
 SPBC HZ I        23 9  5.29        77.2 0.30            129            165 219 
 ZAR  HZ EP   4   23 8 49.61                             123    5.32 0  204 292 
 ZAR  HN ES       23 9  9.59                             123   -0.24 9  204 292 
 ZAR  HZ I        23 9 15.01        44.9 0.42            123            204 292 
 NOR  HZ EP       23 8 47.84                             119    0.12 8  236 234 
 NOR  HN ES       23 9 16.28                             119    0.35 8  236 234 
 NOR  HZ I        23 9 21.59        32.5 0.22            119            236 234 
 SML  HZ EP       23 8 48.15                             119   -0.14 8  242 335 
 SML  HN ES       23 9 16.94                             119   -0.01 8  242 335 
 SML  HZ I        23 9 20.19        39.4 0.50            119            242 335 
 CHI  HZ EP       23 8 49.84                             118    0.12 8  251 195 
 CHI  HN ES       23 9 19.13                             118   -0.35 8  251 195 
 CHI  HZ I        23 9 24.28        31.9 0.52            119            251 195 
 ROSC BZ EP   9   23 8 52.31                             117    2.18 0  255 211 
 ROSC BN ES       23 9 22.44                             116    0.04 8  255 211 
 ROSC BZ I        23 9 26.20        72.4 0.40            118            255 211 
 HEL  HZ EP   4   23 8 53.60                             116    1.48 0  273 255 
 HEL  HN ES       23 9 23.74                             116   -0.02 8  273 255 
 HEL  HZ I        23 9 29.76        28.7 0.30            115            273 255 
 URE  HZ EP       23 8 52.55                             114   -0.29 7  284 292 
 URE  HN ES   4   23 9 22.28                             114   -2.76 0  284 292 
 URE  HZ I        23 9 36.75        28.6 0.22            114            284 292 
 SOCV BZ EP       23 8 53.78                             113   -0.87 7  300  57 
 SOCV BN ES   4   23 9 24.93                             113   -3.33 0  300  57 
 GUY2CHZ EP   3   23 8 56.74                             113    1.19 2  303 235 
 GUY2CHN ES   4   23 9 33.85                             113    3.98 0  303 235 
 GUY2CHZ I        23 9 35.94        20.8 0.32                           303 235 
 VIL  SZ EP       23 8 54.63                             113   -0.77 7  305 192 
 VIL  SN ES       23 9 28.79                             113   -0.81 7  305 192 
 PTGC HZ EP       23 8 54.99                             112   -0.80 7  310 159 
 PTGC HN ES   4   23 9 28.47                             112   -1.81 0  310 159 
 PTGC HZ I        23 9 30.09        46.0 0.30            114            310 159 
 ELA  HZ EP   9   23 9  0.63                             111    1.84 0  331 229 
 ELA  HN ES       23 9 37.66                             110    0.19 7  331 229 
 ELA  HZ I        23 9 48.26        17.0 0.38            111            331 229 
 CBOC HZ EP       23 9  0.01                             111    1.22 7  335 252 
 CBOC HN ES       23 9 35.50                             111   -0.14 7  335 252 
 CBOC HZ I        23 9 41.29         8.0 0.42            111            335 252 
 DBB  SZ EP       23 8 59.57                             110    0.29 7  340 274 
 DBB  SZ ES       23 9 35.62                             110   -0.88 7  340 274 
 DBB  SZ I        23 9 39.43        65.8 0.52            110            340 274 
 ANIL HZ EP   9   23 9  3.03                             109    1.29 0  359 224 
 ANIL HN ES       23 9 42.94                             108    0.77 6  359 224 
 ANIL HZ I        23 9 46.30        66.4 0.32            109            359 224 
 PRA  HZ EP       23 9  5.85                             107    0.39 6  394 210 
 PRA  HN ES       23 9 46.85                             107   -0.65 6  394 210 
 PRA  HZ I        23 9 48.69         5.9 0.42            108            394 210 
 ORTC HZ EP       23 9  5.54                             107   -0.31 6  397 216 
 ORTC HN ES       23 9 49.36                             107    1.16 6  397 216 
 PAL  HZ EP       23 9  7.20                             107    0.16 6  407 239 
 PAL  HN ES       23 9 50.70                             107    0.38 6  407 239 
 PAL  HZ I        23 9 53.42         5.9 0.48            107            407 239 
                                                                                
