 2013  421 2126 29.4 L   6.753 -73.170150.0  RSN  6 0.3 1.6LRSN                1
 GAP=178        0.68       4.6     6.8  4.8  0.1880E+02 -0.3615E+00 -0.2734E+01E
 Epicentro: VILLANUEVA - SANTANDER                                             3
 ACTION:UPD 13-05-22 14:40 OP:EP   STATUS:               ID:20130421212629 L   I
 2013-04-21-2120-00M.COL___250                                                 6
 STAT SP IPHASW D HRMM SECON CODA AMPLIT PERI AZIMU VELO AIN AR TRES W  DIS CAZ7
 BAR2 SZ EP       2126 49.31                             173   -0.1410 17.8 184 
 BAR2 SZ ES   1   2127  4.55                             173   -0.54 7 17.8 184 
 BAR2 SZ I        2127  6.20         8.5 0.44            172           17.8 184 
 GIR2 SZ EP       2126 49.64                             166   -0.0810 36.2 356 
 GIR2 SZ ES       2127  5.69                             166    0.1210 36.2 356 
 GIR2 SZ I        2127  6.57        10.5 0.62            166           36.2 356 
 BRR  HZ EP       2126 51.26                             153    0.2210 71.6 303 
 BRR  HN ES       2127  8.21                             153    0.3010 71.6 303 
 BRR  HZ I        2127 11.46         8.6 0.38            152           71.6 303 
 RUS  HZ EP       2126 53.58                             146    0.3510 95.6 174 
 RUS  HN ES       2127 11.69                             146   -0.1210 95.6 174 
 RUS  HZ I        2127 13.01         4.0 0.36            147           95.6 174 
 ZAR  HN ES   1   2127 27.24                             123   -0.34 6  204 294 
 SML  HZ EP       2127  6.34                             118   -0.33 8  247 336 
                                                                                
