 2017  321 2043 54.4 L   6.778 -73.129143.6  RSN 12 0.4 2.0LRSN                1
 GAP=158        1.39       5.4     5.5  7.7 -0.6499E+01  0.4470E+01  0.1071E+02E
 Epicentro: LOS SANTOS - SANTANDER                                             3
 ACTION:UPD 17-05-25 18:43 OP:jn   STATUS:               ID:20170321204354 L   I
 OLDACT:UP  17-03-22 03:59 OP:edw  STATUS:               ID:20170321203709     3
 OLDACT:REG 17-03-22 02:32 OP:edw  STATUS:               ID:20170321203709     3
 2017-03-21-2038-00M.COL___409                                                 6
 STAT SP IPHASW D HRMM SECON CODA AMPLIT PERI AZIMU VELO AIN AR TRES W  DIS CAZ7
 BAR2 EZ IP     D 2044 13.60                             171   -0.1210 21.3 196 
 BAR2 EZ ES       2044 28.71                             171   -0.0910 21.3 196 
 BAR2 EZ I        2044 30.85        25.6 0.26            170           21.3 196 
 BRR  HZ IP     C 2044 15.26                             152   -0.2010 74.0 300 
 BRR  HN ES       2044 32.80                             152    0.9010 74.0 300 
 BRR  HZ I        2044 36.71        14.1 0.16            151           74.0 300 
 PAM  EZ IP     C 2044 16.15                             150   -0.2710 78.2  37 
 PAM  EN ES       2044 33.75                             150    0.1410 78.2  37 
 PAM  EZ I        2044 36.23         7.8 0.21            153           78.2  37 
 PTB  HZ EP   9   2044 20.23                             132   -1.07 0  149 260 
 PTB  HN ES       2044 41.45                             133    0.23 9  149 260 
 PTB  HZ I        2044 43.09        12.2 0.13            132            149 260 
 SPBC HZ EP       2044 22.46                             129   -0.19 9  162 220 
 SPBC HN ES       2044 44.45                             129   -0.24 9  162 220 
 SPBC HZ I        2044 47.38        22.8 0.19            130            162 220 
 ZAR  HZ EP       2044 26.57                             122   -0.39 8  207 293 
 ZAR  HN ES       2044 52.04                             122   -0.33 8  207 293 
 ZAR  HZ I        2044 58.51        21.2 0.30            122            207 293 
 NOR  HZ EP   9   2044 29.58                             118   -0.42 0  235 235 
 NOR  HN ES       2044 56.15                             119   -1.21 8  235 235 
 NOR  HZ I        2045  2.01         6.8 0.16            119            235 235 
 CHI  HZ IP     C 2044 31.62                             117   -0.14 8  247 196 
 CHI  HN ES       2045  1.15                             117    0.24 8  247 196 
 CHI  HZ I        2045  4.79         3.0 0.40            118            247 196 
 URE  HZ EP   9   2044 34.43                             113   -1.21 0  286 292 
 URE  HN ES       2045  5.00                             114   -1.61 7  286 292 
 URE  HZ I        2045  8.26         7.2 0.14            114            286 292 
 GUY2CHZ EP   4   2044 39.38                             112    1.48 0  301 235 
 GUY2CHN ES       2045 12.49                             112    0.65 7  301 235 
 GUY2CHZ  IAML    2045 20.81         4.9 0.34                           301 235 
 ELA  HN ES   4   2045 19.34                             110    1.77 0  329 230 
 CBOC HZ EP       2044 41.55                             109    0.23 7  335 253 
 CBOC HN ES       2045 18.01                             109    0.08 7  335 253 
 CBOC HZ I        2045 23.47         1.6 0.22            110            335 253 
 SJC  HZ EP   9   2044 47.57                             105   -2.66 0  412 327 
 SJC  HN ES       2045 29.28                             106   -1.85 6  412 327 
                                                                                
