 2016  121 2042 28.8 L   6.788 -73.170135.2  RSN  7 0.3 1.7LRSN                1
 GAP=134        0.82       3.4     3.5  5.9 -0.2411E+01  0.9083E+01 -0.1824E+01E
 Epicentro: LOS SANTOS - SANTANDER                                             3
 ACTION:UPD 16-03-09 23:27 OP:cam  STATUS:               ID:20160121204228 L   I
 OLDACT:REG 16-01-22 03:27 OP:drio STATUS:               ID:20160121203748     3
 2016-01-21-2037-48M.COL___326                                                 6
 STAT SP IPHASW D HRMM SECON CODA AMPLIT PERI AZIMU VELO AIN AR TRES W  DIS CAZ7
 BAR2 EZ EP       2042 47.07                             170   -0.0410 21.6 183 
 BAR2 EZ ES       2043  1.67                             170    0.2710 21.6 183 
 BAR2 EZ I        2043  2.69        14.8 0.14            172           21.6 183 
 PAM  EZ EP       2042 49.85                             148   -0.2110 80.2  40 
 PAM  EN ES       2043  6.66                             148   -0.0010 80.2  40 
 PAM  EZ I        2043  7.34         7.9 0.40            150           80.2  40 
 RUS  HZ EP       2042 51.44                             142    0.0210 99.4 174 
 RUS  HE ES       2043  8.96                             142   -0.1210 99.4 174 
 RUS  HZ I        2043 10.66         7.8 0.26            147           99.4 174 
 PTB  HZ EP       2042 54.07                             130   -0.56 9  145 259 
 PTB  HN ES       2043 14.22                             130   -0.57 9  145 259 
 PTB  HZ I        2043 17.06         8.8 0.18            130            145 259 
 SPBC HZ EP       2042 56.42                             127    0.20 9  160 219 
 SPBC HE ES       2043 17.96                             127    0.34 9  160 219 
 SPBC HZ I        2043 18.93        11.2 0.22            129            160 219 
 ZAR  HZ EP       2043  0.96                             120    0.61 9  202 293 
 ZAR  HE ES       2043 25.22                             120    0.25 9  202 293 
 ZAR  HZ I        2043 37.02         6.3 0.36            120            202 293 
 GUY2CHZ EP   4   2043 12.96                             110    1.38 0  298 235 
 GUY2CHE ES       2043 44.96                             110    0.00 7  298 235 
 GUY2CHZ I        2043 53.62         2.1 0.30                           298 235 
                                                                                
