 2014  821 2201 25.5 L   6.042 -73.675112.0  RSN  6 0.3 1.2LRSN                1
 GAP=121        0.77       4.7     3.4  7.0 -0.3347E+01  0.7713E+01  0.6305E+01E
 Epicentro: VELEZ - SANTANDER                                                  3
 ACTION:UPD 14-09-15 21:52 OP:nd   STATUS:               ID:20140821220125 L   I
 OLDACT:REG 14-08-22 04:40 OP:spq  STATUS:               ID:20140821215818     3
 2014-08-21-2158-18M.COL___260                                                 6
 STAT SP IPHASW D HRMM SECON CODA AMPLIT PERI AZIMU VELO AIN AR TRES W  DIS CAZ7
 SPBC HZ EP       22 1 42.36                             149   -0.2210 61.6 226 
 SPBC HN ES   1   22 1 55.57                             149   -0.35 7 61.6 226 
 SPBC HZ I        22 2  1.51         3.4 0.16            152           61.6 226 
 RUS  HZ EP   1   22 1 44.05                             147    0.52 7 67.5 104 
 RUS  HN ES   1   22 1 57.76                             147    0.13 7 67.5 104 
 RUS  HZ I        22 1 59.68         1.6 0.18            153           67.5 104 
 BAR2 SZ ES   1   22 1 58.81                             142    0.03 7 81.7  42 
 BAR2 SZ I        22 2  1.11         7.4 0.24            149           81.7  42 
 PTB  HZ EP       22 1 45.26                             134   -0.3210  103 302 
 PTB  HE ES       22 2  1.52                             134    0.2410  103 302 
 PTB  HZ I        22 2  3.43         2.5 0.10            141            103 302 
 NOR  HZ EP       22 1 48.91                             124   -0.52 9  142 248 
 NOR  HE ES       22 2  8.22                             124    0.10 9  142 248 
 NOR  HZ I        22 2 10.50         3.8 0.18            130            142 248 
 GUY2CHZ EP       22 1 57.19                             114    0.20 8  208 244 
 GUY2CHN ES       22 2 22.05                             114    0.47 8  208 244 
 GUY2CHZ I        22 2 25.09         1.3 0.33                           208 244 
                                                                                
