 2015  421 2303 12.0 L   7.453 -73.193130.8  RSN 10 0.5 2.3LRSN                1
 GAP=112        1.28       3.6     5.1  7.8  0.1768E+01  0.1378E+02  0.3974E+01E
 Epicentro: EL PLAYON - SANTANDER                                              3
 ACTION:UPD 15-06-03 16:56 OP:cam  STATUS:               ID:20150421230312 L   I
 OLDACT:REG 15-04-22 05:24 OP:carl STATUS:               ID:20150421225748     3
 2015-04-21-2257-48M.COL___277                                                 6
 STAT SP IPHASW D HRMM SECON CODA AMPLIT PERI AZIMU VELO AIN AR TRES W  DIS CAZ7
 PAM  SZ EP       23 3 31.91                             156    0.5010 55.8 103 
 PAM  SN ES       23 3 46.91                             156    0.3610 55.8 103 
 PAM  SZ I        23 3 49.79        38.2 0.30            162           55.8 103 
 BRR  HZ IP     C 23 3 31.65                             150    0.2210 68.9 236 
 BRR  HN ES       23 3 46.91                             150    0.3410 68.9 236 
 BRR  HZ I        23 3 51.05        38.2 0.26            151           68.9 236 
 OCA  HE ES       23 3 49.04                             144   -0.1710 88.0 351 
 OCA  HZ I        23 3 56.16        23.0 0.46            147           88.0 351 
 BAR2 EZ EP       23 3 33.58                             142    0.0310 95.2 179 
 BAR2 EZ ES       23 3 50.09                             142   -0.2610 95.2 179 
 BAR2 EZ I        23 3 51.08        86.5 0.12            145           95.2 179 
 PTB  HZ EP       23 3 40.03                             124   -0.20 9  172 234 
 PTB  HN ES       23 4  1.33                             124   -0.91 9  172 234 
 PTB  HZ I        23 4  4.46        22.0 0.54            126            172 234 
 RUS  HZ EP       23 3 40.50                             124   -0.42 9  173 176 
 RUS  HN ES       23 4  2.91                             124   -0.55 9  173 176 
 RUS  HZ I        23 4  3.90         9.0 0.36            128            173 176 
 SML  HZ EP       23 3 40.47                             123   -0.29 9  178 327 
 SML  HN ES       23 4  2.22                             123   -0.96 9  178 327 
 SML  HZ I        23 4  4.73        25.3 0.22            126            178 327 
 ZAR  HZ EP       23 3 42.42                             122    1.01 9  184 271 
 ZAR  HN ES       23 4  5.11                             122    0.78 9  184 271 
 ZAR  HZ I        23 4  9.54        42.7 0.26            124            184 271 
 SPBC HN ES       23 4 12.08                             117    0.41 8  222 206 
 SPBC HZ I        23 4 19.97        25.2 0.24            120            222 206 
 NOR  HZ EP       23 3 52.11                             111    0.17 7  279 222 
 NOR  HN ES       23 4 22.86                             111   -0.21 7  279 222 
 NOR  HZ I        23 4 29.11        12.6 0.18            114            279 222 
                                                                                
