 2013  821 2107 19.4 L   6.674 -73.394143.3  RSN  5 0.3 1.2LRSN                1
 GAP=147        0.78       6.0     6.2 11.7  0.1226E+02 -0.2165E+02 -0.2751E+02E
 Epicentro: EL CARMEN DE CHUCURI - SANTANDER                                   3
 ACTION:UPD 14-01-14 09:05 OP:ep   STATUS:               ID:20130821210719 L   I
 OLDACT:DUP 13-08-21 21:51 OP:jn   STATUS:               ID:20130821205960d    3
 OLDACT:REG 13-08-21 21:15 OP:jn   STATUS:               ID:20130821205959     3
 2013-08-21-2059-59M.COL___270                                                 6
 STAT SP IPHASW D HRMM SECON CODA AMPLIT PERI AZIMU VELO AIN AR TRES W  DIS CAZ7
 BAR2 SZ EP       21 7 38.20                             170   -0.5510 25.0 111 
 BAR2 SZ I        21 7 54.38         3.9 0.38            172           25.0 111 
 BRR  HZ EP       21 7 40.08                             156    0.4410 59.5 324 
 BRR  HE ES   2   21 7 55.49                             156    0.05 5 59.5 324 
 BRR  HZ I        21 8  0.76         4.8 0.38            151           59.5 324 
 RUS  HZ EP       21 7 42.37                             145    0.0210 92.9 158 
 RUS  HN ES       21 8  0.40                             145    0.1410 92.9 158 
 RUS  HZ I        21 8  2.66         1.6 0.34            142           92.9 158 
 PTB  HN ES   1   21 8  2.22                             138   -0.28 7  118 263 
 SPBC HE ES   1   21 8  5.43                             134    0.15 7  136 214 
 SPBC HZ I        21 8 18.66         2.7 0.28            128            136 214 
                                                                                
