 2016 1021 2328 37.3 L   6.802 -73.166144.6  RSN  8 0.5 1.8LRSN                1
 GAP=134        1.08       4.4     5.2  7.3 -0.5992E+01  0.2136E+01  0.5421E+01E
 Epicentro: LOS SANTOS - SANTANDER                                             3
 ACTION:UPD 16-11-09 19:21 OP:rebc STATUS:               ID:20161021232837 L   I
 OLDACT:UP  16-10-22 04:48 OP:dnl  STATUS:               ID:20161021232749     3
 OLDACT:REG 16-10-22 03:40 OP:dnl  STATUS:               ID:20161021232749     3
 2016-10-21-2328-00M.COL___358                                                 6
 STAT SP IPHASW D HRMM SECON CODA AMPLIT PERI AZIMU VELO AIN AR TRES W  DIS CAZ7
 BAR2 EZ EP       2328 56.74                             170   -0.0610 23.2 185 
 BAR2 EZ ES       2329 11.30                             170   -0.7010 23.2 185 
 BAR2 EZ I        2329 12.69        17.7 0.50            170           23.2 185 
 BRR  HZ EP       2328 58.39                             153    0.1710 69.2 299 
 BRR  HE ES       2329 15.46                             153    0.9310 69.2 299 
 BRR  HZ I        2329 18.46        15.4 0.36            153           69.2 299 
 PAM  EZ EP       2328 59.68                             150    0.2010 78.7  41 
 PAM  EE ES       2329 16.70                             150   -0.0810 78.7  41 
 PAM  EZ I        2329 19.10        13.6 0.48            153           78.7  41 
 RUS  HZ EP       2329  0.85                             143   -0.1210  101 175 
 RUS  HN ES       2329 19.51                             143    0.0810  101 175 
 RUS  HZ I        2329 21.07         6.4 0.40            145            101 175 
 PTB  HZ EP       2329  3.33                             132   -0.66 9  146 259 
 PTB  HN ES       2329 24.32                             132   -0.48 9  146 259 
 PTB  HZ I        2329 26.48         5.8 0.24            133            146 259 
 SPBC HZ EP   2   2329  5.83                             129    0.23 5  162 218 
 SPBC HN ES       2329 27.76                             129    0.09 9  162 218 
 SPBC HZ I        2329 32.38        11.0 0.38            130            162 218 
 CHI  HZ EP   2   2329 15.00                             117    0.10 4  248 195 
 CHI  HN ES       2329 44.94                             117    0.72 8  248 195 
 CHI  HZ I        2329 47.21         3.1 0.30            118            248 195 
 GUY2CHZ EP   9   2329 22.41                             112    1.74 0  299 234 
 GUY2CHN ES       2329 56.24                             111    0.01 7  299 234 
 GUY2CHZ I        2330  2.58         2.9 0.36                           299 234 
                                                                                
