 2011 1021 2345 42.6 L   6.781 -73.241142.6  RSN  4 0.2 1.5LRSN                1
 GAP=161        0.43       5.8     6.1  8.3  0.2544E+02  0.1759E+02  0.1254E+02E
 Epicentro: ZAPATOCA - SANTANDER                                               3
 ACTION:UPD 12-07-13 16:05 OP:ep   STATUS:               ID:20111021234542 L   I
 2011-10-21-2340-00M.COL___175                                                 6
 STAT SP IPHASW D HRMM SECON CODA AMPLIT PERI AZIMU VELO AIN AR TRES W  DIS CAZ7
 GIR2 SZ EP   2   2346  1.60                             166   -0.37 5 33.4   9 
 GIR2 SZ ES   2   2346 17.09                             166    0.02 5 33.4   9 
 BRR  HZ EP   1   2346  3.29                             155    0.30 7 63.3 305 
 BRR  HZ I        2346  3.50         8.2 0.11                          63.3 305 
 RUS  HZ EP   1   2346  5.96                             143   -0.03 7 99.8 170 
 RUS  HN ES   2   2346 24.19                             143   -0.04 5 99.8 170 
 RUS  HZ I        2346 25.23         3.9 0.52                          99.8 170 
 ZAR  HN ES   1   2346 38.23                             123   -0.14 6  195 294 
 ZAR  HZ I        2346 46.36         2.7 0.21                           195 294 
                                                                                
