 2012 1021 2216 52.5 L   6.784 -73.093140.0  RSN  5 0.2 1.6LRSN                1
 GAP=144        0.52       5.1     7.4 10.2  0.4637E+01 -0.4336E+02  0.7257E+01E
 Epicentro: LOS SANTOS - SANTANDER                                             3
 ACTION:UPD 12-11-22 17:05 OP:ep   STATUS:               ID:20121021221652 L   I
 2012-10-21-2210-00M.COL___233                                                 6
 STAT SP IPHASW D HRMM SECON CODA AMPLIT PERI AZIMU VELO AIN AR TRES W  DIS CAZ7
 BAR2 SZ EP       2217 11.15                             170   -0.3210 23.4 205 
 BAR2 SZ ES   3   2217 25.93                             170   -0.31 2 23.4 205 
 BAR2 SZ I        2217 27.72        15.7 0.40                          23.4 205 
 GIR2 SZ EP   3   2217 11.40                             166   -0.21 2 34.4 341 
 PAM  SZ EP       2217 14.12                             151    0.1210 75.2  35 
 BRR  HZ EP       2217 13.27                             150   -0.1510 77.2 298 
 BRR  HN ES   1   2217 30.00                             150    0.29 7 77.2 298 
 BRR  HZ I        2217 32.23        11.4 0.32                          77.2 298 
 RUS  HZ EP       2217 15.80                             143    0.2310 98.6 179 
 RUS  HZ I        2217 16.56         2.9 0.14                          98.6 179 
 RUS  HN ES   3   2217 33.46                             143   -0.08 2 98.6 179 
                                                                                
