 2011 1221 2156 36.1 L   6.746 -73.217155.8  RSN  4 0.3 1.7LRSN                1
 GAP=221        0.56       6.8     7.9  7.1  0.3243E+02 -0.4471E+01 -0.2315E+01E
 Epicentro: VILLANUEVA - SANTANDER                                             3
 ACTION:UPD 12-07-13 16:17 OP:ep   STATUS:               ID:20111221215636 L   I
 2011-12-21-2150-00M.COL___189                                                 6
 STAT SP IPHASW D HRMM SECON CODA AMPLIT PERI AZIMU VELO AIN AR TRES W  DIS CAZ7
 BAR2 SZ EP   1   2156 56.49                             173   -0.31 7 17.4 167 
 BAR2 SZ ES   2   2157 12.40                             173   -0.57 5 17.4 167 
 BAR2 SZ I        2157 12.57         8.0 0.28                          17.4 167 
 BRR  HZ EP   1   2156 58.48                             155    0.36 7 67.8 306 
 BRR  HZ I        2157  7.60        19.4 0.43                          67.8 306 
 BRR  HE ES   1   2157 15.45                             155    0.12 7 67.8 306 
 RUS  HZ EP   1   2157  0.48                             147    0.02 7 95.5 171 
 RUS  HZ I        2157  1.72         3.3 0.10                          95.5 171 
 RUS  HN ES   1   2157 19.77                             147    0.27 7 95.5 171 
 PTB  HZ EP   2   2157  2.65                             136   -0.45 5  139 261 
 PTB  HN ES   2   2157 24.12                             136   -0.08 5  139 261 
                                                                                
