 2016  521 2357 18.8 L   6.778 -73.129144.9  RSN  8 0.4 1.8LRSN                1
 GAP=140        1.00       4.7     4.1  7.9 -0.4813E+01  0.5256E+01  0.8796E+01E
 Epicentro: LOS SANTOS - SANTANDER                                             3
 ACTION:UPD 16-08-18 17:48 OP:cam  STATUS:               ID:20160521235718 L   I
 OLDACT:DUP 16-05-22 06:46 OP:dani STATUS:               ID:20160521234749d    3
 OLDACT:UP  16-05-22 06:38 OP:dani STATUS:               ID:20160521234748     3
 OLDACT:REG 16-05-22 03:46 OP:dani STATUS:               ID:20160521234748     3
 2016-05-21-2347-48M.COL___298                                                 6
 STAT SP IPHASW D HRMM SECON CODA AMPLIT PERI AZIMU VELO AIN AR TRES W  DIS CAZ7
 BRR  HZ EP     C 2357 39.90                             151   -0.0810 73.9 299 
 BRR  HN ES       2357 56.92                             151    0.3910 73.9 299 
 BRR  HZ I        2357 57.48        11.1 0.12            151           73.9 299 
 PAM  EZ EP       2357 41.02                             150    0.0910 78.1  37 
 PAM  EN ES       2357 57.95                             150   -0.2810 78.1  37 
 PAM  EZ I        2357 58.54         9.2 0.34            152           78.1  37 
 RUS  HZ EP       2357 42.30                             144    0.0510 98.1 177 
 RUS  HE ES   2   2358  0.79                             144    0.22 5 98.1 177 
 RUS  HZ I        2358  1.45         6.3 0.20            146           98.1 177 
 PTB  HZ EP       2357 45.12                             131   -0.66 9  149 260 
 PTB  HE ES       2358  6.11                             131   -0.75 9  149 260 
 PTB  HZ I        2358  7.77         7.4 0.15            132            149 260 
 SPBC HZ EP       2357 47.03                             129   -0.10 9  162 220 
 SPBC HE ES       2358  9.86                             129    0.60 9  162 220 
 SPBC HZ I        2358 12.46        10.8 0.22            130            162 220 
 ZAR  HZ EP       2357 52.17                             122    0.75 8  207 293 
 ZAR  HE ES       2358 17.08                             122    0.19 8  207 293 
 ZAR  HZ I        2358 22.35         8.7 0.38            122            207 293 
 NOR  HN EP   4   2357 52.72                             118   -1.73 0  235 235 
 NOR  HE ES       2358 22.11                             118   -0.18 8  235 235 
 HEL  HN ES       2358 30.54                             114    0.04 8  273 256 
 CBOC HN ES   4   2358 38.26                             110   -4.15 0  335 253 
                                                                                
