 2011  421 2238 33.4 L   6.759 -73.097145.9  RSN  9 0.3 1.7LRSN                1
 GAP=120        0.57       3.1     5.1  5.4 -0.5468E+01  0.3251E+01  0.2664E+01E
 Epicentro: LOS SANTOS - SANTANDER                                             3
 ACTION:UP  11-06-22 15:32 OP:REBC STATUS:               ID:20110421223833 L   I
 2011-04-21-2236-34S.COL___139                                                 6
 STAT SP IPHASW D HRMM SECON CODA AMPLIT PERI AZIMU VELO SNR AR TRES W  DIS CAZ7
 BAR2 SZ EP   1   2238 53.24                             171     0.2 7   21 207 
 BAR2 SZ ES   2   2239  8.43                             171     0.1 5   21 207 
 BAR2 SZ I        2239 10.02        12.6 0.33                            21 207 
 BTL  SZ EP   1   2238 53.27                             170     0.1 7   26 313 
 GIR2 SZ EP   2   2238 53.47                             165     0.2 5   37 343 
 BRR  HZ EP   2   2238 55.04                             150     0.0 5   78 300 
 BRR  HN ES   2   2239 12.40                             150     0.6 5   78 300 
 BRR  HZ I        2239 14.87        15.2 0.12                            78 300 
 PAM  SZ EP   1   2238 55.84                             151     0.2 7   78  34 
 PAM  SN ES   1   2239 12.89                             151    -0.1 7   78  34 
 RUS  HZ EP   1   2238 57.11                             145     0.3 7   96 179 
 RUS  HN ES   1   2239 14.83                             145    -0.3 7   96 179 
 RUS  HZ I        2239 17.18         4.7 0.22                            96 179 
 GRA  SZ EP   1   2238 58.87                             136    -0.1 7  129  15 
 GRA  SZ ES   1   2239 18.40                             136    -0.4 7  129  15 
 GRA  SZ I        2239 19.82        11.2 0.33                           129  15 
 YOP  SZ EP   1   2239  2.96                             127     0.1 7  172 154 
 YOP  SZ I        2239  5.85         4.5 0.41                           172 154 
 NOR  SZ EP   1   2239  8.88                             118    -0.5 6  237 236 
 NOR  SE ES   2   2239 37.04                             118    -0.3 4  237 236 
                                                                                
