 2010  621 2136 24.4 L   6.798 -73.125147.3  RSN 13 0.4 3.2LRSN                1
 GAP=127        0.93       3.4     5.3  5.9 -0.8548E+01  0.3500E+01  0.7791E+00E
 Epicentro: LOS SANTOS - SANTANDER                                             3
 ACTION:UP  10-08-24 10:12 OP:vdl  STATUS:               ID:20100621213624 L   I
 2010-06-21-2134-51S.COL___118                                                 6
 STAT SP IPHASW D HRMM SECON CODA AMPLIT PERI AZIMU VELO SNR AR TRES W  DIS CAZ7
 BAR2 SZ IP       2136 44.23                             170     0.010   24 196 
 BAR2 SZ ES   1   2136 58.81                             170    -0.8 7   24 196 
 BRR  HZ IP     C 2136 46.02                             152     0.210   73 298 
 BRR  HN ES   1   2137  2.90                             152     0.4 7   73 298 
 BRR  HZ I        2137  3.70       615.8 0.12                            73 298 
 RUS  HZ IP     D 2136 48.31                             144     0.110  100 177 
 RUS  HE ES   1   2137  6.92                             144     0.1 7  100 177 
 RUS  HZ I        2137  8.72       163.1 0.33                           100 177 
 BRI  SZ IP       2136 48.67                             142     0.310  108  20 
 BRI  SZ ES   1   2137  7.24                             142     0.2 7  108  20 
 GUE  SZ EP       2136 49.11                             140    -0.110  116  11 
 GUE  SZ ES   1   2137  9.44                             140     0.9 7  116  11 
 GRA  SZ IP       2136 49.95                             137     0.210  125  16 
 GRA  SZ ES   1   2137  9.24                             137    -0.2 7  125  16 
 OCA  SZ EP       2136 52.44                             130    -0.4 9  161 352 
 OCA  SZ ES   1   2137 14.31                             130    -0.7 7  161 352 
 OCA  SZ I        2137 18.15       241.7 0.14                           161 352 
 CHI  HZ EP   2   2137  2.15                             117     0.0 4  249 196 
 CHI  HE ES   2   2137 31.84                             117     0.2 4  249 196 
 CHI  HZ I        2137 35.77        47.3 0.32                           249 196 
 ROSC BE ES   1   2137 32.27                             117    -0.3 6  254 211 
 ROSC BZ I        2137 39.20        80.3 0.06                           254 211 
 HEL  HZ EP   1   2137  5.16                             115     0.3 6  274 256 
 HEL  HN ES   1   2137 35.94                             115    -0.6 6  274 256 
 HEL  HZ I        2137 42.39       122.1 0.36                           274 256 
 RREF HZ EP   1   2137 11.22                             111     0.5 5  323 230 
 RREF HE ES   1   2137 47.24                             111     0.3 5  323 230 
 RREF HZ I        2137 56.64        94.5 0.46                           323 230 
 DBB  SZ EP   1   2137 11.98                             110    -0.2 5  342 274 
 SDV  BZ EP       2137 13.61                             109    -0.7 6  359  50 
 SDV  BZ I        2137 56.39        36.2 0.76                           359  50 
                                                                                
