 2011  821 2142 23.0 L   6.772 -73.126143.2  RSN  6 0.4 1.8LRSN                1
 GAP=158        0.70       4.2     7.1  5.9  0.3116E+01  0.4133E+01 -0.3645E+01E
 Epicentro: LOS SANTOS - SANTANDER                                             3
 ACTION:UPD 12-07-13 15:53 OP:ep   STATUS:               ID:20110821214222 L   I
 2011-08-21-2140-39S.COL___152                                                 6
 STAT SP IPHASW D HRMM SECON CODA AMPLIT PERI AZIMU VELO AIN AR TRES W  DIS CAZ7
 BAR2 SZ EP   2   2142 41.72                             171   -0.54 5 20.8 197 
 BAR2 SZ ES   1   2142 56.63                             171   -0.66 7 20.8 197 
 BAR2 SZ I        2142 59.38        20.5 0.32                          20.8 197 
 BRR  HZ EP       2142 44.11                             151    0.0510 74.6 300 
 BRR  HN ES   1   2143  1.03                             151    0.54 7 74.6 300 
 BRR  HZ I        2143  2.20         9.9 0.16                          74.6 300 
 RUS  HZ EP       2142 46.38                             144    0.1210 97.3 177 
 RUS  HE ES   1   2143  4.74                             144    0.34 7 97.3 177 
 RUS  HZ I        2143  5.57         8.7 0.36                          97.3 177 
 BRI  SZ EP   3   2142 47.00                             140    0.19 2  111  19 
 OCA  SZ EP       2142 51.30                             128   -0.12 9  164 353 
 OCA  SZ I        2143 14.33        10.6 0.53                           164 353 
 NOR  SZ EP       2142 58.61                             118    0.04 8  235 235 
 NOR  SN ES   2   2143 25.78                             118   -0.54 4  235 235 
                                                                                
