 2010  921 2150 26.2 L   6.832 -73.076147.3  RSN  9 0.4 1.9LRSN                1
 GAP=166        0.81       4.9     8.8  8.6 -0.1563E+02  0.2821E+01  0.5160E+01E
 Epicentro: LOS SANTOS - SANTANDER                                             3
 ACTION:UP  11-02-18 11:04 OP:tino STATUS:               ID:20100921215026 L   I
 2010-09-21-2147-12S.COL___122                                                 6
 STAT SP IPHASW D HRMM SECON CODA AMPLIT PERI AZIMU VELO SNR AR TRES W  DIS CAZ7
 BTL  SZ EP   1   2150 46.33                             171     0.3 7   23 294 
 BAR2 SZ IP     C 2150 46.19                             168     0.110   29 204 
 BAR2 SZ ES   2   2151  1.29                             168    -0.4 5   29 204 
 BAR2 SZ I        2151  2.30        18.8 0.58                            29 204 
 GIR2 SZ EP   2   2150 46.95                             168     0.9 5   30 335 
 GIR2 SZ ES   3   2151  1.94                             168     0.5 2   30 335 
 BRR  HZ IP     D 2150 47.78                             151     0.010   77 293 
 BRR  HE ES   2   2151  4.79                             151     0.1 5   77 293 
 BRR  HZ I        2151  8.31        22.9 0.14                            77 293 
 RUS  HZ EP   1   2150 50.40                             143     0.1 7  104 180 
 RUS  HE ES   2   2151  8.90                             143    -0.3 5  104 180 
 RUS  HZ I        2151 11.06         9.1 0.28                           104 180 
 GUE  SZ EP   1   2150 49.67                             141    -1.0 7  112   9 
 GRA  SZ EP   1   2150 51.45                             139     0.3 7  120  14 
 GRA  SZ ES   2   2151 10.51                             139    -0.1 5  120  14 
 GRA  SZ I        2151 11.71        14.1 0.30                           120  14 
 NOR  SZ EP   1   2151  2.84                             118    -0.1 6  243 235 
 NOR  SN ES   2   2151 31.39                             118    -0.2 4  243 235 
 CHI  HZ EP   1   2151  5.01                             117     0.4 6  254 197 
 CHI  HE ES   2   2151 34.22                             117    -0.3 4  254 197 
 CHI  HZ I        2151 40.99         3.3 0.72                           254 197 
                                                                                
