 2012  721 2100 13.9 L   6.765 -73.147142.7  RSN  8 0.3 1.9LRSN                1
 GAP=138        0.75       4.1     3.9  6.3 -0.7640E+00  0.3367E+01  0.4155E+01E
 Epicentro: LOS SANTOS - SANTANDER                                             3
 ACTION:UPD 12-08-14 11:46 OP:ep   STATUS:               ID:20120721210013 L   I
 2012-07-21-2100-00M.COL___215                                                 6
 STAT SP IPHASW D HRMM SECON CODA AMPLIT PERI AZIMU VELO AIN AR TRES W  DIS CAZ7
 BAR2 SZ EP   1   21 0 33.13                             172     0.1 7   19 191 
 BAR2 SZ ES   1   21 0 48.03                             172     0.0 7   19 191 
 BAR2 SZ I        21 0 50.70        19.2 0.27            158             19 191 
 BRR  HZ EP       21 0 34.95                             151     0.210   73 301 
 BRR  HN ES   1   21 0 51.82                             151     0.7 7   73 301 
 BRR  HZ I        21 0 54.47        17.6 0.26            143             73 301 
 PAM  SZ EP       21 0 35.95                             149     0.010   81  38 
 PAM  SN ES   1   21 0 52.66                             149    -0.5 7   81  38 
 RUS  HZ EP       21 0 37.14                             144     0.110   97 176 
 RUS  HN ES   1   21 0 54.91                             144    -0.2 7   97 176 
 RUS  HZ I        21 0 57.23        10.1 0.28            127             97 176 
 PTB  HZ EP   1   21 0 40.24                             131    -0.3 7  147 260 
 PTB  HN ES   1   21 1  0.91                             131    -0.4 7  147 260 
 PTB  HZ I        21 1  4.28         7.0 0.09            118            147 260 
 ZAR  HN ES   1   21 1 11.16                             121    -0.3 6  205 293 
 ZAR  HZ I        21 1 17.86        11.2 0.27            112            205 293 
 NOR  SN ES   1   21 1 16.66                             118     0.0 6  232 235 
 CHI  HZ EP   1   21 0 51.14                             117     0.2 6  245 195 
 CHI  HZ I        21 1 27.98         3.8 0.36            106            245 195 
