 2014 1021 2102 34.6 L   6.733 -73.147139.3  RSN  4 0.2 1.4LRSN                1
 GAP=139        0.43       3.4     2.9  4.6 -0.5188E+01  0.5318E+01 -0.3915E+01E
 Epicentro: LOS SANTOS - SANTANDER                                             3
 ACTION:UPD 14-11-29 23:53 OP:nd   STATUS:               ID:20141021205744dL   I
 OLDACT:DUP 14-10-23 09:02 OP:fm   STATUS:               ID:20141021205744dL   3
 2014-10-21-2057-43M.COL___277                                                 6
 STAT SP IPHASW D HRMM SECON CODA AMPLIT PERI AZIMU VELO AIN AR TRES W  DIS CAZ7
 BAR2 SZ EP   1   21 2 53.67                             173    0.34 7 16.1 194 
 BAR2 SZ ES   1   21 3  7.90                             173   -0.04 7 16.1 194 
 BAR2 SZ I        21 3 10.79         5.2 0.20            173           16.1 194 
 PAM  SZ EP       21 2 56.56                             148    0.0410 83.3  36 
 PAM  SN ES       21 3 13.54                             148   -0.0710 83.3  36 
 PAM  SZ I        21 3 15.70         7.4 0.58            151           83.3  36 
 RUS  HN ES   1   21 3 14.74                             145   -0.08 7 93.2 176 
 RUS  HZ I        21 3 17.34         2.7 0.32            147           93.2 176 
 PTB  HZ EP       21 3  0.71                             131   -0.21 9  146 262 
 PTB  HN ES       21 3 21.54                             131    0.09 9  146 262 
 PTB  HZ I        21 3 23.32         3.4 0.48            134            146 262 
                                                                                
