 2017  721 2012 44.0 L   6.824 -73.175143.8  RSN  7 0.4 1.9LRSN                1
 GAP=253        0.93       7.3     4.8  6.2  0.1368E+02  0.4092E+01 -0.1553E+01E
 Epicentro: ZAPATOCA - SANTANDER                                               3
 ACTION:UPD 17-08-30 15:35 OP:rebc STATUS:               ID:20170721201244 L   I
 OLDACT:UP  17-07-22 04:00 OP:edw  STATUS:               ID:20170721200740d    3
 OLDACT:UP  17-07-22 03:58 OP:edw  STATUS:               ID:20170721200740d    3
 OLDACT:DUP 17-07-22 03:44 OP:edw  STATUS:               ID:20170721200740d    3
 2017-07-21-2008-00M.COL___395                                                 6
 STAT SP IPHASW D HRMM SECON CODA AMPLIT PERI AZIMU VELO AIN AR TRES W  DIS CAZ7
 BAR2 EZ EP       2013  3.36                             169   -0.0910 25.7 182 
 BAR2 EZ ES       2013 18.81                             169    0.2010 25.7 182 
 BAR2 EZ I        2013 21.27        15.7 0.54            166           25.7 182 
 RUS  HZ EP       2013  7.82                             143    0.0410  104 174 
 RUS  HN ES       2013 26.76                             143    0.4410  104 174 
 RUS  HZ I        2013 27.17         9.0 0.20            143            104 174 
 PTB  HZ EP       2013 10.96                             132    0.39 9  145 258 
 PTB  HN ES       2013 30.55                             132   -0.75 9  145 258 
 PTB  HZ I        2013 38.80         7.9 0.50            132            145 258 
 SPBC HZ EP       2013 12.43                             129    0.07 9  163 218 
 SPBC HN ES       2013 34.41                             129   -0.07 9  163 218 
 SPBC HZ I        2013 38.58        15.5 0.20            129            163 218 
 YPLC HZ EP       2013 13.42                             125   -0.62 9  181 151 
 YPLC HE ES       2013 37.21                             125   -0.26 9  181 151 
 YPLC HZ I        2013 38.50         8.8 0.30            128            181 151 
 ZAR  HN ES   4   2013 42.63                             122    1.84 0  200 292 
 NOR  HZ EP       2013 19.97                             118    0.46 8  234 233 
 NOR  HN ES   4   2013 47.11                             118   -0.09 0  234 233 
 NOR  HZ I        2013 51.15         7.0 0.26            119            234 233 
 GUY2CHZ EP       2013 27.64                             112    0.24 7  300 234 
 GUY2CHE ES   4   2014  4.78                             112    3.52 0  300 234 
 GUY2CHZ I        2014 10.29         5.8 0.78                           300 234 
                                                                                
