 2016  621 2304 47.3 L   6.753 -73.146144.7  RSN  8 0.4 2.0LRSN                1
 GAP=139        0.98       4.4     4.1  6.2 -0.9327E+00  0.8237E+01  0.1326E+01E
 Epicentro: LOS SANTOS - SANTANDER                                             3
 ACTION:UPD 16-07-21 22:21 OP:rebc STATUS:               ID:20160621230447 L   I
 OLDACT:UP  16-06-22 02:59 OP:drio STATUS:               ID:20160621225746     3
 OLDACT:REG 16-06-22 02:39 OP:drio STATUS:               ID:20160621225746     3
 2016-06-21-2257-46M.COL___325                                                 6
 STAT SP IPHASW D HRMM SECON CODA AMPLIT PERI AZIMU VELO AIN AR TRES W  DIS CAZ7
 BAR2 EZ EP       23 5  6.54                             172   -0.1610 18.3 193 
 BAR2 EZ ES       23 5 21.57                             172   -0.2710 18.3 193 
 BAR2 EZ I        23 5 22.66        25.3 0.20                          18.3 193 
 BRR  HZ EP       23 5  8.58                             151    0.1110 73.7 302 
 BRR  HN ES       23 5 25.72                             151    0.7310 73.7 302 
 BRR  HZ I        23 5 27.39        16.5 0.50                          73.7 302 
 PAM  EZ EP       23 5  9.62                             149   -0.0310 81.5  37 
 PAM  EN ES       23 5 26.91                             149   -0.1710 81.5  37 
 PAM  EZ I        23 5 28.77         9.7 0.46                          81.5  37 
 RUS  HZ EP       23 5 10.52                             145   -0.0610 95.4 176 
 RUS  HE ES       23 5 29.06                             145    0.3310 95.4 176 
 RUS  HZ I        23 5 29.80        13.6 0.44                          95.4 176 
 PTB  HZ EP       23 5 13.72                             132   -0.37 9  147 261 
 PTB  HN ES       23 5 34.11                             132   -0.87 9  147 261 
 PTB  HZ I        23 5 37.01        12.5 0.14                           147 261 
 ZAR  HZ EP       23 5 19.81                             122   -0.06 8  206 293 
 ZAR  HE ES       23 5 45.48                             122    0.20 8  206 293 
 ZAR  HZ I        23 5 51.02        17.7 0.58                           206 293 
 NOR  HZ EP       23 5 23.20                             119    0.56 8  232 235 
 NOR  HN ES       23 5 50.40                             119    0.19 8  232 235 
 NOR  HZ I        23 5 53.02         8.6 0.42                           232 235 
 GUY2CHZ EP   4   23 5 32.76                             112    2.24 0  298 236 
 GUY2CHE ES   4   23 6  8.10                             112    3.87 0  298 236 
 GUY2CHZ I        23 6 11.87         5.6 0.36                           298 236 
 SJC  HZ EP   4   23 5 41.10                             105   -2.23 0  414 327 
 SJC  HN ES   4   23 6 21.73                             105   -5.30 0  414 327 
                                                                                
