 2010 1221 2317 34.4 L   6.800 -73.156138.5  RSN 12 0.4 2.6LRSN                1
 GAP=135        1.00       3.2     5.7  7.2 -0.3004E+01  0.1403E+02  0.2904E+01E
 Epicentro: LOS SANTOS - SANTANDER                                             3
 ACTION:UP  11-01-14 15:26 OP:pat  STATUS:               ID:20101221231734 L   I
 2010-12-21-2300-00M.COL___135                                                 6
 STAT SP IPHASW D HRMM SECON CODA AMPLIT PERI AZIMU VELO SNR AR TRES W  DIS CAZ7
 BTL  SZ IP       2317 53.88                             172     0.810   18 317 
 BAR2 SZ IP       2317 53.17                             170     0.010   23 187 
 BAR2 SZ ES   1   2318  7.74                             170    -0.1 7   23 187 
 BAR2 SZ I        2318  9.01       111.6 0.30                            23 187 
 RUS  HZ IP     C 2317 57.16                             142    -0.310  101 175 
 RUS  HN ES   1   2318 15.36                             142    -0.1 7  101 175 
 RUS  HZ I        2318 17.42        63.1 0.31                           101 175 
 GRA  SZ IP       2317 59.16                             135     0.110  126  18 
 GRA  SZ ES   1   2318 18.03                             135    -0.2 7  126  18 
 GRA  SZ I        2318 19.74        83.5 0.46                           126  18 
 OCA  SZ IP       2318  1.94                             128    -0.2 9  160 354 
 OCA  SZ ES   1   2318 23.25                             128    -0.5 7  160 354 
 OCA  SZ I        2318 29.97        81.7 0.32                           160 354 
 YOP  SZ EP       2318  3.91                             125    -0.1 9  180 153 
 YOP  SN ES   1   2318 27.66                             125     0.6 7  180 153 
 YOP  SZ I        2318 30.45        33.0 0.28                           180 153 
 NOR  SZ EP       2318  9.67                             117     0.0 8  234 234 
 NOR  SN ES   1   2318 36.59                             117    -0.5 6  234 234 
 CHI  HZ EP       2318 11.62                             116    -0.1 8  248 195 
 CHI  HN ES   1   2318 40.50                             116    -0.3 6  248 195 
 CHI  HZ I        2318 43.93        23.7 0.63                           248 195 
 HEL  HZ EP       2318 14.92                             113     0.8 8  271 256 
 HEL  HN ES   2   2318 45.12                             113     0.0 4  271 256 
 HEL  HZ I        2318 51.52        17.7 0.18                           271 256 
 RREF HN ES   2   2318 56.24                             109     0.4 3  321 229 
 RREF HZ I        2319  1.35        23.8 0.48                           321 229 
 PRA  HZ EP       2318 27.92                             105     0.3 6  391 209 
 PRA  HN ES   1   2319  9.00                             105    -0.1 4  391 209 
 SJA  SZ EP       2318 27.66                             105    -1.1 6  400 193 
                                                                                
