 2012  821 2035 52.8 L   6.783 -73.135147.4  RSN  5 0.3 1.5LRSN                1
 GAP=139        0.60       4.4     4.2  6.9 -0.1909E+01  0.2064E+01  0.4417E+01E
 Epicentro: LOS SANTOS - SANTANDER                                             3
 ACTION:UPD 12-09-10 11:57 OP:ep   STATUS:               ID:20120821203552 L   I
 2012-08-21-2030-00M.COL___217                                                 6
 STAT SP IPHASW D HRMM SECON CODA AMPLIT PERI AZIMU VELO AIN AR TRES W  DIS CAZ7
 BAR2 SZ EP   1   2036 12.53                             171   -0.09 7 21.7 194 
 BRR  HZ EP   1   2036 14.47                             152    0.21 7 73.1 299 
 BRR  HZ I        2036 17.75        13.7 0.21                          73.1 299 
 BRR  HN ES   1   2036 31.40                             152    0.42 7 73.1 299 
 PAM  SZ EP   1   2036 15.48                             151    0.22 7 78.1  38 
 PAM  SN ES   1   2036 32.34                             151   -0.41 7 78.1  38 
 PAM  SZ I        2036 33.82         2.4 0.31                          78.1  38 
 RUS  HZ EP   1   2036 16.82                             145    0.22 7 98.6 177 
 RUS  HN ES   1   2036 35.13                             145    0.00 7 98.6 177 
 RUS  HZ I        2037  1.28        16.3 0.93                          98.6 177 
 PTB  HZ EP   1   2036 19.58                             132   -0.42 7  149 260 
 PTB  HE ES   1   2036 40.95                             132   -0.24 7  149 260 
 PTB  HZ I        2036 46.59         1.8 0.11                           149 260 
                                                                                
