 2010 1121 2215  8.7 L   6.804 -73.033152.4  RSN  4 0.1 1.5LRSN                1
 GAP=249        0.31       4.9     9.6  4.1  0.3488E+02 -0.2497E+01  0.8560E+00E
 Epicentro: CEPITA - SANTANDER                                                 3
 ACTION:UP  10-12-17 16:54 OP:REBC STATUS:               ID:20101121221508 L   I
 2010-11-21-2212-36S.COL___129                                                 6
 STAT SP IPHASW D HRMM SECON CODA AMPLIT PERI AZIMU VELO SNR AR TRES W  DIS CAZ7
 BAR2 SZ EP   1   2215 29.16                             169    -0.1 7   29 215 
 BAR2 SZ ES   2   2215 45.44                             169     0.2 5   29 215 
 BAR2 SZ I        2215 45.80        10.7 0.24                            29 215 
 BRR  HZ IP     C 2215 31.21                             150     0.010   82 294 
 BRR  HE ES   2   2215 48.64                             150    -0.1 5   82 294 
 BRR  HZ I        2215 51.19         7.4 0.33                            82 294 
 RUS  HZ EP   1   2215 33.11                             145     0.0 7  101 183 
 RUS  HN ES   2   2215 52.09                             145    -0.1 5  101 183 
 RUS  HZ I        2215 53.29         2.1 0.32                           101 183 
 CHI  HZ EP   1   2215 47.24                             118     0.1 6  253 198 
                                                                                
