 2011  621 2243 23.1 L   6.775 -73.156141.7  RSN  4 0.2 1.6LRSN                1
 GAP=136        0.43       3.5     5.5  6.3  0.5233E+01 -0.6175E+01  0.1150E+01E
 Epicentro: LOS SANTOS - SANTANDER                                             3
 ACTION:UP  11-07-14 19:07 OP:ep   STATUS:               ID:20110621224323 L   I
 2011-06-21-2239-30S.COL___140                                                 6
 STAT SP IPHASW D HRMM SECON CODA AMPLIT PERI AZIMU VELO SNR AR TRES W  DIS CAZ7
 BAR2 SZ EP       2243 42.17                             171     0.010   20 188 
 BAR2 SZ I        2243 42.44         7.3 0.23                            20 188 
 BRR  HZ EP   1   2243 44.11                             152     0.3 7   72 301 
 BRR  HN ES   1   2243 59.85                             152    -0.2 7   72 301 
 BRR  HZ I        2244  4.70        19.7 0.11                            72 301 
 PAM  SZ EP   2   2243 44.91                             149    -0.1 5   80  39 
 PAM  SN ES   2   2244  2.27                             149     0.1 5   80  39 
 RUS  HZ EP   1   2243 46.09                             144    -0.2 7   98 175 
 RUS  HZ I        2243 46.65         3.2 0.15                            98 175 
 RUS  HN ES   1   2244  4.43                             144     0.1 7   98 175 
                                                                                
