 2015 1021 2203 33.1 L   6.850 -73.111142.9  RSN  7 0.5 1.6LRSN                1
 GAP=204        1.13       4.1     7.2  6.9  0.1167E+02  0.1233E+02  0.1160E+01E
 Epicentro: LOS SANTOS - SANTANDER                                             3
 ACTION:UPD 15-12-22 20:41 OP:cam  STATUS:               ID:20151021220333 L   I
 OLDACT:UP  15-10-22 06:06 OP:ak   STATUS:               ID:20151021215749d    3
 OLDACT:DUP 15-10-22 05:57 OP:ak   STATUS:               ID:20151021215749d    3
 OLDACT:REG 15-10-22 04:37 OP:ak   STATUS:               ID:20151021215748     3
 2015-10-21-2157-48M.COL___322                                                 6
 STAT SP IPHASW D HRMM SECON CODA AMPLIT PERI AZIMU VELO AIN AR TRES W  DIS CAZ7
 BAR2 EZ EP       22 3 52.84                             168    0.3110 29.6 195 
 BAR2 EZ ES       22 4  7.03                             168   -0.6510 29.6 195 
 BAR2 EZ I        22 4  9.15         6.6 0.24            166           29.6 195 
 BRR  HZ EP       22 3 54.65                             152    0.6510 72.2 293 
 BRR  HN ES       22 4 11.17                             152    0.8810 72.2 293 
 RUS  HZ EP       22 3 57.09                             142    0.1210  106 178 
 RUS  HE ES       22 4 15.36                             142   -0.2210  106 178 
 ZAR  HZ EP       22 4  5.44                             121   -0.08 8  206 290 
 ZAR  HN ES       22 4 30.23                             121   -0.57 8  206 290 
 ZAR  HZ I        22 4 36.36         3.8 0.11            121            206 290 
 SML  HZ EP       22 4  8.74                             117   -0.46 8  240 334 
 SML  HN ES       22 4 36.86                             117   -0.49 8  240 334 
 CHI  HZ EP       22 4 11.30                             116   -0.04 8  255 196 
 CHI  HE ES       22 4 40.89                             116   -0.27 8  255 196 
 CHI  HZ I        22 4 42.82         2.6 0.38            116            255 196 
 GUY2CHZ EP       22 4 17.72                             111    0.43 7  307 234 
 GUY2CHN ES       22 4 51.71                             111   -0.05 7  307 234 
                                                                                
