 2017  621 2205 32.9 L   6.853 -73.108137.0  RSN  4 0.3 1.7LRSN                1
 GAP=301        0.72       7.3     7.1  8.0 -0.1681E+02 -0.1948E+02  0.3196E+02E
 Epicentro: LOS SANTOS - SANTANDER                                             3
 ACTION:UPD 17-09-14 16:54 OP:jn   STATUS:               ID:20170621220532 L   I
 OLDACT:UP  17-06-22 07:16 OP:dani STATUS:               ID:20170621215740     3
 OLDACT:REG 17-06-22 06:20 OP:dani STATUS:               ID:20170621215740     3
 2017-06-21-2158-00M.COL___346                                                 6
 STAT SP IPHASW D HRMM SECON CODA AMPLIT PERI AZIMU VELO AIN AR TRES W  DIS CAZ7
 BRR  HZ EP       22 5 52.76                             150   -0.3910 72.4 293 
 BRR  HN ES       22 6  9.21                             150    0.2410 72.4 293 
 BRR  HZ I        22 6 12.95        17.9 0.37            154           72.4 293 
 PTB  HZ EP   9   22 5 57.58                             129   -2.06 0  153 257 
 PTB  HN ES       22 6 18.34                             129   -0.12 9  153 257 
 PTB  HZ I        22 6 21.36         4.9 0.48            133            153 257 
 ZAR  HZ EP   4   22 6  2.78                             120   -2.17 0  206 290 
 ZAR  HN ES       22 6 29.98                             120    0.01 8  206 290 
 ZAR  HZ I        22 6 31.01         5.9 0.38            123            206 290 
 GUY2CHZ EP       22 6 17.44                             110    0.57 7  308 234 
 GUY2CHE ES       22 6 50.91                             110   -0.28 7  308 234 
 GUY2CHZ I        22 6 56.09         1.5 0.23                           308 234 
                                                                                
