 2017  621 2111 30.9 L   6.781 -73.185142.6  RSN  6 0.4 1.8LRSN                1
 GAP=276        1.10       5.8     9.3  9.7 -0.9950E+01 -0.2614E+02  0.1171E+02E
 Epicentro: LOS SANTOS - SANTANDER                                             3
 ACTION:UPD 17-09-14 16:54 OP:jn   STATUS:               ID:20170621211130 L   I
 OLDACT:UP  17-06-22 07:00 OP:dani STATUS:               ID:20170621210743     3
 OLDACT:UP  17-06-22 06:58 OP:dani STATUS:               ID:20170621210743     3
 OLDACT:UP  17-06-22 06:58 OP:dani STATUS:               ID:20170621210743     3
 OLDACT:UP  17-06-22 06:58 OP:dani STATUS:               ID:20170621210743     3
 OLDACT:REG 17-06-22 06:17 OP:dani STATUS:               ID:20170621210743     3
 2017-06-21-2108-00M.COL___352                                                 6
 STAT SP IPHASW D HRMM SECON CODA AMPLIT PERI AZIMU VELO AIN AR TRES W  DIS CAZ7
 BRR  HZ EP       2111 51.04                             153   -0.5010 68.5 302 
 BRR  HN ES       2112  8.29                             153    0.6410 68.5 302 
 BRR  HZ I        2112 12.11        11.9 0.36            150           68.5 302 
 PTB  HZ EP       2111 56.98                             133   -0.19 9  143 259 
 PTB  HE ES       2112 16.93                             133   -0.74 9  143 259 
 PTB  HZ I        2112 22.75         4.6 0.44            132            143 259 
 SPBC HZ EP       2111 58.53                             129   -0.19 9  159 218 
 SPBC HN ES       2112 20.37                             129   -0.07 9  159 218 
 SPBC HZ I        2112 22.77        11.4 0.18            130            159 218 
 ZAR  HZ EP       2112  3.03                             122    0.24 9  201 293 
 ZAR  HN ES       2112 27.72                             122    0.04 9  201 293 
 ZAR  HZ I        2112 32.54         5.1 0.18            123            201 293 
 NOR  HZ EP       2112  6.48                             119    0.57 8  230 234 
 NOR  HE ES       2112 33.72                             119    0.48 8  230 234 
 NOR  HZ I        2112 38.85         5.2 0.16            120            230 234 
 GUY2CHZ EP   9   2112 16.18                             112    2.38 0  296 235 
 GUY2CHN ES       2112 48.99                             110   -0.67 7  296 235 
 GUY2CHZ I        2113  1.73         3.6 0.36                           296 235 
                                                                                
