 2012 1221 2047 16.8 L   6.806 -73.135145.9  RSN  9 0.5 2.4LRSN 3.1WRSN        1
 SPEC AVERAGE  MO 13.8 ST  6.3 OM  3.0 f0 3.96 R0.4048 AL 2.42 WI 17.7 MW  3.1 3
 SPEC SD       MO  0.1 ST  3.5 OM  0.9 f0 1.05 R0.1274 AL      WI      MW  0.1 3
 GAP=184        1.35       4.5     6.3  7.7  0.5691E+00  0.1010E+02 -0.6583E+01E
 Epicentro: LOS SANTOS - SANTANDER                                             3
 SPEC NOR HH N MO 13.9 ST  9.3 OM  2.1 f0 4.36 R0.3372 AL 2.32 WI 21.6 MW  3.2 3
 SPEC NOR HH N T204820 K 0.000 GD  277 VS 4.20 DE 3.00 Q0230.0 QA 0.60 VS 4.20 3
 SPEC OCA HH N MO 13.8 ST  1.4 OM  2.1 f0 2.52 R0.5833 AL 1.43 WI 17.3 MW  3.1 3
 SPEC OCA HH N T2048 6 K 0.000 GD  216 VS 4.20 DE 3.00 Q0230.0 QA 0.60 VS 4.20 3
 SPEC BRR HH N MO 13.7 ST  8.3 OM  2.1 f0 5.00 R0.2940 AL 3.51 WI 14.1 MW  3.1 3
 SPEC BRR HH N T204755 K 0.000 GD  162 VS 4.20 DE 3.00 Q0230.0 QA 0.60 VS 4.20 3
 ACTION:UPD 13-01-04 14:29 OP:ep   STATUS:               ID:20121221204716 L   I
 2012-12-21-2040-00M.COL___243                                                 6
 STAT SP IPHASW D HRMM SECON CODA AMPLIT PERI AZIMU VELO AIN AR TRES W  DIS CAZ7
 BAR2 SZ EP       2047 36.67                             170    0.1910 24.2 192 
 BAR2 SZ ES       2047 51.33                             170   -0.4910 24.2 192 
 BAR2 SZ I        2047 52.53        62.3 0.34                          24.2 192 
 GIR2 SZ EP       2047 36.60                             167    0.1010 30.8 348 
 GIR2 SZ ES       2047 51.98                             167    0.1410 30.8 348 
 GIR2 SZ I        2047 53.56        32.9 0.38                          30.8 348 
 BRR  HZ EP       2047 38.20                             152    0.1810 71.9 298 
 BRR  HN ES       2047 55.41                             152    0.8510 71.9 298 
 BRR  HN I        2047 56.16        90.1 0.22                          71.9 298 
 RUS  HZ EP       2047 40.66                             144    0.0310  101 177 
 RUS  HN ES       2047 59.06                             144   -0.1410  101 177 
 PTB  HZ EP       2047 43.58                             132   -0.33 9  149 259 
 PTB  HN ES       2048  4.01                             132   -1.03 9  149 259 
 PTB  HZ I        2048  7.03        10.8 0.30                           149 259 
 OCA  HZ EP       2047 44.49                             130   -0.60 9  160 353 
 OCA  HN ES       2048  7.58                             130    0.44 9  160 353 
 OCA  HN I        2048 16.04        50.5 0.40                           160 353 
 ZAR  HZ EP       2047 50.49                             122    1.13 9  205 292 
 ZAR  HE ES       2048 14.49                             122   -0.24 9  205 292 
 ZAR  HN I        2048 19.94        28.3 0.12                           205 292 
 NOR  HN ES       2048 21.34                             118    0.66 8  236 234 
 NOR  HN I        2048 28.44        18.1 0.18                           236 234 
 SML  HZ EP       2047 53.13                             117   -0.31 8  244 335 
 SML  HN ES       2048 21.30                             117   -0.70 8  244 335 
                                                                                
