 2016  221 2024 37.0 L   6.660 -73.199141.0  RSN  4 0.4 1.2LRSN                1
 GAP=215        0.52       8.4     7.6  8.8  0.3368E+02  0.1548E+02  0.1362E+02E
 Epicentro: VILLANUEVA - SANTANDER                                             3
 ACTION:UPD 16-03-04 21:28 OP:rebc STATUS:               ID:20160221202437 L   I
 OLDACT:REG 16-02-22 03:35 OP:dnl  STATUS:               ID:20160221201750     3
 2016-02-21-2017-50M.COL___330                                                 6
 STAT SP IPHASW D HRMM SECON CODA AMPLIT PERI AZIMU VELO AIN AR TRES W  DIS CAZ7
 BAR2 EZ EP   2   2024 55.55                             177   -0.26 5 7.73 166 
 BAR2 EZ ES   2   2025 10.65                             177    0.15 5 7.73 166 
 BAR2 EZ I        2025 12.31         3.9 0.16            166           7.73 166 
 BRR  HZ EP   3   2024 56.54                             150   -1.31 2 75.2 311 
 BRR  HN ES   2   2025 14.35                             150    0.22 5 75.2 311 
 RUS  HZ EP   2   2024 59.64                             147    0.41 5 85.8 171 
 RUS  HN ES   2   2025 16.31                             147   -0.27 5 85.8 171 
 RUS  HZ I        2025 19.59         1.2 0.24            144           85.8 171 
 PTB  HZ EP   2   2025  3.17                             133    0.34 5  140 265 
 PTB  HN ES   2   2025 22.74                             133   -0.25 5  140 265 
 PTB  HZ I        2025 28.95         3.6 0.26            130            140 265 
                                                                                
