 2012  821 2240 47.6 L   6.589 -73.332 31.0  RSN  6 0.2 1.9LRSN                1
 GAP=107        0.53       1.6     1.8  1.7 -0.3157E-01  0.1279E+01 -0.1867E+00E
 Epicentro: HATO - SANTANDER                                                   3
 ACTION:UPD 12-09-10 11:57 OP:ep   STATUS:               ID:20120821224047 L   I
 2012-08-21-2240-00M.COL___218                                                 6
 STAT SP IPHASW D HRMM SECON CODA AMPLIT PERI AZIMU VELO AIN AR TRES W  DIS CAZ7
 BAR2 SZ EP       2240 53.63                             150    0.1810 16.6  89 
 BAR2 SZ ES       2240 57.91                             150   -0.1210 16.6  89 
 BAR2 SZ I        2240 59.76       159.4 0.37                          16.6  89 
 GIR2 SZ EP       2240 57.55                             112   -0.1710 56.3  16 
 BRR  HZ EP       2240 59.38                              61   -0.1210 71.0 324 
 BRR  HZ I        2241  0.12        53.4 0.11                          71.0 324 
 BRR  HN ES   1   2241  8.56                              61   -0.23 7 71.0 324 
 RUS  HZ IP     C 2241  1.46                              61    0.0310 81.8 160 
 RUS  HN ES   1   2241 11.94                              61   -0.30 7 81.8 160 
 RUS  HZ I        2241 13.01        24.9 0.27                          81.8 160 
 PAM  SZ EP       2241  5.19                              61    0.4210  109  40 
 PAM  SN ES       2241 18.11                              61   -0.0710  109  40 
 PAM  SZ I        2241 19.73        35.1 0.17                           109  40 
 PTB  HZ EP       2241  6.29                              61    0.1010  124 268 
 PTB  HE ES   1   2241 20.86                              61    0.14 7  124 268 
 PTB  HZ I        2241 22.44        23.2 0.19                           124 268 
                                                                                
