 2013  521 2248 56.2 L   6.779 -73.141144.0  RSN  8 0.5 1.8LRSN                1
 GAP=138        1.17       6.7     5.1  8.9 -0.9794E+00  0.1260E+02  0.7759E+01E
 Epicentro: LOS SANTOS - SANTANDER                                             3
 ACTION:UPD 13-06-20 09:52 OP:ep   STATUS:               ID:20130521224856 L   I
 2013-05-21-2247-50M.COL___212                                                 6
 STAT SP IPHASW D HRMM SECON CODA AMPLIT PERI AZIMU VELO AIN AR TRES W  DIS CAZ7
 BAR2 SZ ES   1   2249 31.02                             171    0.33 7 21.1 192 
 BAR2 SZ I        2249 31.69        17.1 0.24            170           21.1 192 
 GIR2 SZ EP   1   2249 15.68                             166   -0.05 7 33.7 350 
 GIR2 SZ ES   1   2249 30.76                             166   -0.21 7 33.7 350 
 GIR2 SZ I        2249 31.44         7.6 0.12            167           33.7 350 
 BRR  HZ EP   1   2249 17.44                             152    0.19 7 72.8 300 
 BRR  HN ES   1   2249 34.19                             152    0.52 7 72.8 300 
 BRR  HZ I        2249 38.12        13.6 0.30            151           72.8 300 
 PAM  SZ IP     C 2249 18.60                             150    0.2810 78.9  38 
 PAM  SN ES   1   2249 34.71                             150   -0.86 7 78.9  38 
 PAM  SZ I        2249 37.37        17.0 0.46            153           78.9  38 
 RUS  HZ EP       2249 19.73                             144    0.1210 98.2 176 
 RUS  HN ES   1   2249 38.25                             144    0.39 7 98.2 176 
 RUS  HZ I        2249 39.83        10.6 0.26            145           98.2 176 
 PTB  HZ EP   1   2249 22.69                             131   -0.34 7  148 260 
 PTB  HN ES       2249 42.91                             131   -1.04 9  148 260 
 PTB  HZ I        2249 46.43        10.7 0.32            132            148 260 
 ZAR  HN ES       2249 54.70                             122    0.70 8  205 293 
 HEL  HZ EP   1   2249 35.42                             114   -0.89 6  272 256 
 HEL  HN ES       2250  8.09                             114    0.49 8  272 256 
 HEL  HZ I        2250 14.71         4.2 0.44            115            272 256 
                                                                                
