 2011 1021 2048 44.8 L   6.781 -73.092144.1  RSN  6 0.3 1.4LRSN                1
 GAP=144        0.50       4.2     4.3  6.1  0.1249E+01  0.1029E+01  0.4453E+01E
 Epicentro: LOS SANTOS - SANTANDER                                             3
 ACTION:UPD 12-07-13 16:05 OP:ep   STATUS:               ID:20111021204844 L   I
 2011-10-21-2047-06S.COL___171                                                 6
 STAT SP IPHASW D HRMM SECON CODA AMPLIT PERI AZIMU VELO AIN AR TRES W  DIS CAZ7
 BAR2 SZ EP   2   2049  4.10                             170   -0.12 5 23.1 205 
 BAR2 SZ ES   2   2049 19.69                             170    0.32 5 23.1 205 
 BAR2 SZ I        2049 20.58         5.4 0.32                          23.1 205 
 GIR2 SZ EP   2   2049  3.98                             166   -0.39 5 34.8 341 
 PAM  SZ EP   1   2049  6.86                             151    0.14 7 75.5  35 
 PAM  SE ES   1   2049 23.86                             151    0.04 7 75.5  35 
 PAM  SZ I        2049 25.94         2.4 0.41                          75.5  35 
 BRR  HZ EP   1   2049  5.77                             150   -0.36 7 77.4 298 
 BRR  HN ES   1   2049 22.61                             150   -0.16 7 77.4 298 
 BRR  HZ I        2049 24.19        10.1 0.25                          77.4 298 
 RUS  HZ EP   1   2049  8.43                             144    0.22 7 98.3 179 
 RUS  HZ I        2049  9.20         2.9 0.13                          98.3 179 
 RUS  HN ES   2   2049 26.43                             144   -0.05 5 98.3 179 
 ZAR  HN ES   2   2049 44.24                             121    0.73 4  210 292 
 ZAR  HZ I        2049 47.58         3.1 0.11                           210 292 
                                                                                
