 2010  121 2238  8.6 L   6.770 -72.876148.4  RSN  4 0.4 1.6LRSN                1
 GAP=313        0.71      10.4    14.1  9.4 -0.3842E+02  0.4616E+02  0.1115E+02E
 Epicentro: SAN ANDRES - SANTANDER                                             3
 ACTION:UP  10-08-24 09:45 OP:vdl  STATUS:               ID:20100121223808 L   I
 2010-01-21-2234-32S.COL___095                                                 6
 STAT SP IPHASW D HRMM SECON CODA AMPLIT PERI AZIMU VELO SNR AR TRES W  DIS CAZ7
 BAR2 SZ EP   1   2238 29.45                             165     0.511   39 240 
 BAR2 SZ ES   2   2238 44.22                             165    -0.6 8   39 240 
 RUS  BZ EP   1   2238 32.49                             145     0.011  100 193 
 RUS  BE ES   2   2238 51.39                             145     0.2 8  100 193 
 RUS  BZ I        2238 52.31         3.9 0.38                           100 193 
 CHI  HZ EP   1   2238 46.90                             117    -0.2 9  255 202 
 CHI  HE ES   2   2239 16.85                             117    -0.3 6  255 202 
 CHI  HZ I        2239 25.92         1.8 0.77                           255 202 
 RREF BZ EP       2238 56.88                             110    -0.410  343 233 
 RREF BE ES   2   2239 35.94                             110     0.7 5  343 233 
 RREF BZ I        2239 37.20         2.7 0.29                           343 233 
                                                                                
