 2017  921 2201  5.2 L   6.807 -73.151148.8  RSN  9 0.3 2.0LRSN                1
 GAP=135        0.83       3.2     3.9  5.4 -0.4376E+00  0.5846E+01  0.5927E+01E
 Epicentro: LOS SANTOS - SANTANDER                                             3
 ACTION:UPD 17-10-05 19:14 OP:rebc STATUS:               ID:20170921220105 L   I
 OLDACT:UP  17-09-22 05:16 OP:dnl  STATUS:               ID:20170921215739     3
 OLDACT:UP  17-09-22 05:16 OP:dnl  STATUS:               ID:20170921215739     3
 OLDACT:REG 17-09-22 04:41 OP:ndl  STATUS:               ID:20170921215739     3
 2017-09-21-2158-00M.COL___444                                                 6
 STAT SP IPHASW D HRMM SECON CODA AMPLIT PERI AZIMU VELO AIN AR TRES W  DIS CAZ7
 BAR2 EZ EP       22 1 25.07                             170   -0.1710 24.0 188 
 BAR2 EZ ES       22 1 40.44                             170   -0.4010 24.0 188 
 BAR2 EZ I        22 1 42.10        21.9 0.30            169           24.0 188 
 BRR  HZ EP       22 1 26.80                             153    0.1410 70.3 298 
 BRR  HE ES       22 1 43.98                             153    0.6110 70.3 298 
 BRR  HZ I        22 1 46.41        16.2 0.34            151           70.3 298 
 PAM  EZ EP       22 1 28.03                             151    0.2710 77.2  40 
 PAM  EE ES       22 1 45.31                             151   -0.0210 77.2  40 
 PAM  EZ I        22 1 47.20        12.8 0.54            155           77.2  40 
 RUS  HZ EP       22 1 29.19                             144   -0.1510  101 176 
 RUS  HE ES       22 1 48.03                             144   -0.1110  101 176 
 RUS  HZ I        22 1 48.79        12.3 0.24            145            101 176 
 ZAR  HE ES       22 2  2.45                             123   -0.73 9  203 292 
 ZAR  HZ I        22 2  8.17         8.6 0.36            123            203 292 
 NOR  HZ EP       22 1 41.07                             119   -0.06 8  235 234 
 NOR  HN ES       22 2  9.60                             119    0.47 8  235 234 
 NOR  HZ I        22 2 13.70         7.2 0.26            119            235 234 
 CHI  HZ EP       22 1 43.20                             118    0.04 8  249 195 
 CHI  HE ES       22 2 13.07                             118    0.33 8  249 195 
 CHI  HZ I        22 2 15.78         5.1 0.38            118            249 195 
 GUY2CHZ EP   4   22 1 50.43                             113    1.46 0  301 235 
 GUY2CHE ES   4   22 2 25.50                             113    2.41 0  301 235 
 GUY2CHZ I        22 2 31.15         3.8 0.26                           301 235 
 PRA  HZ EP   2   22 1 58.86                             107   -0.03 3  392 209 
 PRA  HE ES       22 2 40.35                             107   -0.41 6  392 209 
 PRA  HZ I        22 2 48.73         4.2 0.32            107            392 209 
                                                                                
