 2013 1121 2211 22.9 L   6.707 -73.147144.4  RSN  5 0.6 1.3LRSN                1
 GAP=140        1.68       8.8     8.7 12.5 -0.7555E+01  0.1624E+02  0.1038E+01E
 Epicentro: VILLANUEVA - SANTANDER                                             3
 ACTION:UPD 14-01-09 16:30 OP:ep   STATUS:               ID:20131121221122 L   I
 OLDACT:REG 13-11-22 00:36 OP:stll STATUS:               ID:20131121220812     3
 2013-11-21-2208-12M.COL___238                                                 6
 STAT SP IPHASW D HRMM SECON CODA AMPLIT PERI AZIMU VELO AIN AR TRES W  DIS CAZ7
 BAR2 SZ ES       2211 57.62                             174    0.3110 13.3 197 
 BRR  HZ EP       2211 44.39                             150    0.1410 76.5 305 
 BRR  HN ES       2212  1.14                             150    0.2610 76.5 305 
 PAM  SZ EP       2211 46.79                             148    1.2710 85.6  35 
 PAM  SN ES       2212  2.07                             148   -1.0710 85.6  35 
 PAM  SZ I        2212  4.67         3.1 0.54            150           85.6  35 
 RUS  HZ EP       2211 45.15                             146   -0.6910 90.3 176 
 RUS  HN ES       2212  3.99                             146    0.2910 90.3 176 
 RUS  HZ I        2212  7.39         2.4 0.50            146           90.3 176 
 PTB  HZ EP       2211 49.21                             132   -0.42 9  146 263 
 PTB  HN ES       2212 10.31                             132   -0.15 9  146 263 
 PTB  HZ I        2212 12.16         4.9 0.36            134            146 263 
                                                                                
