 2013  621 2016 24.2 L   6.089 -73.729 99.0  RSN  7 0.5 1.7LRSN                1
 GAP= 73        0.88       4.6     3.9 11.2 -0.4294E+01  0.1031E+02  0.1287E+02E
 Epicentro: BOLIVAR - SANTANDER                                                3
 ACTION:UPD 14-01-08 09:56 OP:ep   STATUS:               ID:20130621201624 L   I
 OLDACT:REG 13-06-21 21:53 OP:mh   STATUS:               ID:20130621200959     3
 2013-06-21-2009-59M.COL___264                                                 6
 STAT SP IPHASW D HRMM SECON CODA AMPLIT PERI AZIMU VELO AIN AR TRES W  DIS CAZ7
 RUS  HZ EP   1   2016 41.38                             141   -0.10 7 74.7 107 
 RUS  HN ES   2   2016 54.74                             141   -0.24 5 74.7 107 
 RUS  HN I        2017  0.14        10.6 0.48            144           74.7 107 
 BAR2 SZ EP   1   2016 41.50                             138   -0.24 7 82.2  47 
 BAR2 SZ ES   1   2016 55.90                             138    0.47 7 82.2  47 
 BAR2 SZ I        2016 56.88        12.7 0.24            145           82.2  47 
 PTB  HN ES   1   2016 56.05                             133   -0.77 7 94.7 302 
 PTB  HN I        2016 56.98         9.5 0.34            142           94.7 302 
 BRR  HZ EP   1   2016 44.66                             128    0.48 7  113   1 
 NOR  HZ EP   1   2016 46.51                             122   -0.43 7  139 245 
 NOR  HN ES   1   2017  5.52                             122    0.83 7  139 245 
 NOR  HN I        2017  7.74        18.6 0.16            127            139 245 
 CHI  HN ES   1   2017  9.56                             118   -0.22 7  161 180 
 GUY2CHZ EP   1   2016 54.65                             112   -0.12 6  205 242 
 GUY2CHE ES   1   2017 18.92                             112    0.29 6  205 242 
 GUY2CHE I        2017 24.22         4.8 0.32                           205 242 
                                                                                
