 2011  221 2032 41.1 L   6.817 -73.125143.4  RSN 13 0.4 2.8LRSN                1
 GAP=138        0.86       3.1     4.8  6.9 -0.3347E+01  0.1461E+02  0.1380E+01E
 Epicentro: LOS SANTOS - SANTANDER                                             3
 ACTION:UP  11-03-28 15:10 OP:jfem STATUS:               ID:20110221203241 L   I
 2011-02-21-2029-27S.COL___136                                                 6
 STAT SP IPHASW D HRMM SECON CODA AMPLIT PERI AZIMU VELO SNR AR TRES W  DIS CAZ7
 BTL  SZ IP       2033  0.85                             172     0.510   19 305 
 BAR2 SZ EP       2033  0.75                             169     0.210   26 195 
 BAR2 SZ ES   1   2033 15.63                             169     0.0 7   26 195 
 BAR2 SZ I        2033 17.53       172.3 0.31                            26 195 
 RUS  HZ EP       2033  4.58                             143    -0.210  102 177 
 RUS  HN ES   2   2033 23.15                             143     0.0 5  102 177 
 RUS  HZ I        2033 24.57        56.1 0.26                           102 177 
 GRA  SZ IP       2033  5.52                             137    -0.410  123  17 
 GRA  SZ I        2033  6.67        93.1 0.30                           123  17 
 GRA  SZ ES   1   2033 25.20                             137    -0.1 7  123  17 
 OCA  SZ EP       2033  9.04                             129    -0.1 9  159 352 
 OCA  SZ ES   2   2033 31.60                             129     0.7 5  159 352 
 OCA  SZ I        2033 37.68        76.0 0.25                           159 352 
 YOP  SZ EP   1   2033 11.05                             126     0.0 7  180 154 
 YOP  SN ES   1   2033 34.16                             126    -0.2 7  180 154 
 NOR  SZ EP       2033 16.44                             118    -0.6 8  238 235 
 NOR  SN ES   1   2033 44.51                             118    -0.6 6  238 235 
 CHI  HZ EP   1   2033 18.64                             116    -0.3 6  251 196 
 CHI  HN ES   1   2033 48.83                             116     0.4 6  251 196 
 CHI  HZ I        2033 55.86        20.4 0.39                           251 196 
 ROSC BZ EP   1   2033 18.95                             116    -0.5 6  256 211 
 ROSC BZ I        2033 56.69        59.3 0.55                           256 211 
 HEL  HZ EP   2   2033 22.04                             114     0.5 4  275 256 
 HEL  HZ I        2033 59.08        27.0 0.34                           275 256 
 RREF HZ EP       2033 28.19                             110     0.7 7  325 229 
 RREF HE ES   1   2034  4.07                             110     0.4 5  325 229 
 RREF HZ I        2034  9.12        29.5 0.26                           325 229 
 DBB  SZ EP   1   2033 29.25                             109     0.5 5  342 274 
 DBB  SZ ES   1   2034  5.18                             109    -0.7 5  342 274 
 TOL  SZ EP       2033 30.03                             109     0.4 6  346 225 
 TOL  SZ ES   1   2034  7.51                             109     0.1 5  346 225 
                                                                                
