 2013  621 2203 45.6 L   6.739 -73.210152.4  RSN  5 0.2 2.2LRSN                1
 GAP=223        0.51       5.4     5.0  6.7  0.1697E+02 -0.2776E+01 -0.3648E+01E
 Epicentro: VILLANUEVA - SANTANDER                                             3
 ACTION:UPD 14-01-08 09:56 OP:ep   STATUS:               ID:20130621220345 L   I
 OLDACT:REG 13-06-21 21:56 OP:mh   STATUS:               ID:20130621215959     3
 2013-06-21-2159-59M.COL___264                                                 6
 STAT SP IPHASW D HRMM SECON CODA AMPLIT PERI AZIMU VELO AIN AR TRES W  DIS CAZ7
 BAR2 SZ EP   1   22 4  6.23                             174    0.31 7 16.5 169 
 BRR  HZ EP   1   22 4  7.42                             154    0.07 7 68.8 306 
 BRR  HN ES   1   22 4 24.02                             154   -0.29 7 68.8 306 
 BRR  HN I        22 4 24.52        35.7 0.46            150           68.8 306 
 RUS  HZ EP   1   22 4  9.48                             147   -0.13 7 94.6 171 
 RUS  HN ES   1   22 4 28.41                             147    0.08 7 94.6 171 
 RUS  HN I        22 4 30.83         6.2 0.40            143           94.6 171 
 PTB  HZ EP   1   22 4 12.03                             135   -0.38 7  140 261 
 PTB  HN ES   1   22 4 33.41                             135    0.09 7  140 261 
 PTB  HN I        22 4 38.74        16.8 0.26            130            140 261 
 ZAR  HE ES   1   22 4 43.75                             124    0.29 6  200 295 
 ZAR  HE I        22 4 48.94        37.8 0.40            122            200 295 
                                                                                
