 2013  421 2329 30.2 L   6.744 -73.145143.8  RSN  6 0.3 1.6LRSN                1
 GAP=139        0.81       4.4     4.6  6.0 -0.2530E+01  0.4559E+01 -0.1644E+01E
 Epicentro: JORDAN - SANTANDER                                                 3
 ACTION:UPD 13-05-22 14:40 OP:EP   STATUS:               ID:20130421232930 L   I
 2013-04-21-2327-51M.COL___215                                                 6
 STAT SP IPHASW D HRMM SECON CODA AMPLIT PERI AZIMU VELO AIN AR TRES W  DIS CAZ7
 BAR2 SZ EP   1   2329 49.67                             173    0.22 7 17.3 194 
 BAR2 SZ ES       2330  4.53                             173    0.0410 17.3 194 
 BAR2 SZ I        2330  6.96         9.9 0.28            175           17.3 194 
 GIR2 SZ EP       2329 49.61                             165   -0.1810 37.4 352 
 GIR2 SZ I        2330  6.69         4.8 0.54            161           37.4 352 
 BRR  HZ EP       2329 51.50                             151    0.2110 74.4 303 
 BRR  HN ES       2330  8.29                             151    0.5210 74.4 303 
 BRR  HZ I        2330 12.75         6.3 0.24            148           74.4 303 
 PAM  SZ EP       2329 52.54                             149    0.0710 82.2  37 
 PAM  SN ES       2330  9.47                             149   -0.4010 82.2  37 
 PAM  SZ I        2330 11.71         8.4 0.68            146           82.2  37 
 RUS  HZ EP   1   2329 53.71                             145    0.43 7 94.4 176 
 RUS  HN ES       2330 11.21                             145   -0.1010 94.4 176 
 RUS  HZ I        2330 13.88         7.0 0.28            146           94.4 176 
 PTB  HZ EP       2329 56.68                             132   -0.20 9  147 261 
 PTB  HN ES   1   2330 16.98                             132   -0.74 7  147 261 
 PTB  HZ I        2330 20.06         7.5 0.22            130            147 261 
                                                                                
