 2013 1121 2002 26.4 L   6.748 -73.127144.7  RSN  8 0.4 1.6LRSN                1
 GAP=141        1.03       4.6     4.7  6.4 -0.9034E+01  0.2835E+01  0.7390E+00E
 Epicentro: LOS SANTOS - SANTANDER                                             3
 ACTION:UPD 14-01-09 16:30 OP:ep   STATUS:               ID:20131121200226 L   I
 OLDACT:REG 13-11-22 00:27 OP:stll STATUS:               ID:20131121195816     3
 2013-11-21-1958-16M.COL___235                                                 6
 STAT SP IPHASW D HRMM SECON CODA AMPLIT PERI AZIMU VELO AIN AR TRES W  DIS CAZ7
 BAR2 SZ EP       20 2 45.91                             173    0.1310 18.2 199 
 BAR2 SZ ES       20 3  1.08                             173    0.1710 18.2 199 
 BAR2 SZ I        20 3  2.22        15.3 0.26            172           18.2 199 
 BRR  HZ EP       20 2 48.12                             151    0.4410 75.9 302 
 BRR  HN ES       20 3  4.36                             151    0.0710 75.9 302 
 PAM  SZ EP       20 2 48.97                             149    0.2910 80.7  36 
 PAM  SZ I        20 2 49.15         9.5 0.22            151           80.7  36 
 PAM  SN ES       20 3  5.91                             149   -0.1610 80.7  36 
 RUS  HZ EP       20 2 49.96                             145    0.3610 94.7 177 
 RUS  HZ I        20 2 51.45         2.5 0.46            146           94.7 177 
 RUS  HN ES       20 3  7.49                             145   -0.2210 94.7 177 
 PTB  HZ EP       20 2 53.03                             132   -0.31 9  149 261 
 PTB  HN ES       20 3 13.89                             132   -0.49 9  149 261 
 PTB  HZ I        20 3 19.86         5.6 0.48            131            149 261 
 CAPV BZ EP       20 2 53.84                             131   -0.15 9  153  36 
 SPBC HZ EP       20 2 53.55                             129   -0.94 9  160 221 
 SPBC HE ES       20 3 16.52                             129    0.10 9  160 221 
 GUY2CHN ES       20 3 44.46                             112    0.88 7  300 236 
 GUY2CHZ I        20 3 52.89         2.8 0.74                           300 236 
                                                                                
