 2010 1221 2331 27.8 L   6.796 -73.035145.2  RSN  6 0.5 1.9LRSN                1
 GAP=171        1.17       6.2    26.3  9.6 -0.9025E+02  0.1307E+02 -0.4463E+01E
 Epicentro: CEPITA - SANTANDER                                                 3
 ACTION:UP  11-01-14 15:26 OP:pat  STATUS:               ID:20101221233127 L   I
 2010-12-21-2330-01S.COL___135                                                 6
 STAT SP IPHASW D HRMM SECON CODA AMPLIT PERI AZIMU VELO SNR AR TRES W  DIS CAZ7
 BAR2 SZ EP       2331 47.65                             169     0.210   28 216 
 BAR2 SZ ES   1   2332  2.49                             169    -0.3 7   28 216 
 BAR2 SZ I        2332  4.22        34.3 0.26                            28 216 
 BTL  SZ EP       2331 47.79                             168     0.310   29 298 
 BTL  SZ ES   2   2332  3.58                             168     0.7 5   29 298 
 RUS  HZ EP       2331 51.81                             143     0.410  100 183 
 RUS  HN ES   1   2332  9.46                             143    -0.4 7  100 183 
 RUS  HZ I        2332 11.33         6.6 0.51                           100 183 
 GRA  SZ EP       2331 53.26                             137     0.510  123  12 
 GRA  SZ I        2331 54.38        10.2 0.44                           123  12 
 GRA  SZ ES   1   2332 11.41                             137    -0.8 7  123  12 
 OCA  SZ EP       2331 55.83                             129    -0.5 9  163 349 
 OCA  SZ I        2332 23.14         9.0 0.10                           163 349 
 CHI  HZ EP       2332  5.37                             116    -0.4 8  252 198 
 CHI  HN ES   2   2332 35.06                             116    -0.4 4  252 198 
 CHI  HZ I        2332 44.15         3.6 0.73                           252 198 
                                                                                
