 2015  321 2353 41.5 L   6.715 -73.139158.0  RSN  5 0.3 1.2LRSN                1
 GAP=141        0.63       5.6     4.6  7.4  0.5596E+01 -0.5904E+01 -0.1163E+02E
 Epicentro: JORDAN - SANTANDER                                                 3
 ACTION:UPD 15-04-30 16:28 OP:nd   STATUS:               ID:20150321235341 L   I
 OLDACT:REG 15-03-22 05:35 OP:spq  STATUS:               ID:20150321234749     3
 2015-03-21-2347-49M.COL___275                                                 6
 STAT SP IPHASW D HRMM SECON CODA AMPLIT PERI AZIMU VELO AIN AR TRES W  DIS CAZ7
 BRR  HZ EP   1   2354  4.29                             153    0.04 7 76.8 304 
 BRR  HE ES       2354 22.24                             153    0.2210 76.8 304 
 BRR  HZ I        2354 25.64         4.2 0.56            151           76.8 304 
 PAM  SZ EP       2354  5.19                             151   -0.2110 84.4  35 
 RUS  HE ES   1   2354 24.86                             149    0.04 7 91.2 176 
 RUS  HZ I        2354 25.79         1.0 0.39            153           91.2 176 
 PTB  HZ EP   1   2354  9.94                             135    0.55 7  147 262 
 PTB  HE ES   1   2354 30.60                             135   -0.57 7  147 262 
 PTB  HZ I        2354 32.94         1.7 0.16            135            147 262 
 ZAR  HZ EP   2   2354 15.00                             124   -0.18 4  208 294 
 ZAR  HE ES   1   2354 41.42                             124   -0.05 6  208 294 
 ZAR  HZ I        2354 47.42         2.1 0.36            125            208 294 
                                                                                
