 2010  821 2338 22.1 L   6.774 -73.153145.4  RSN 11 0.4 2.2LRSN                1
 GAP=158        0.92       3.7    10.2  7.2 -0.1498E+02  0.2029E+02  0.9674E+00E
 Epicentro: LOS SANTOS - SANTANDER                                             3
 ACTION:UP  10-09-07 10:57 OP:vdl  STATUS:               ID:20100821233822 L   I
 2010-08-21-2335-37S.COL___120                                                 6
 STAT SP IPHASW D HRMM SECON CODA AMPLIT PERI AZIMU VELO SNR AR TRES W  DIS CAZ7
 BAR2 SZ IP       2338 41.53                             172    -0.110   20 190 
 BAR2 SZ ES   2   2338 56.44                             172    -0.5 5   20 190 
 BAR2 SZ I        2338 58.06        42.9 0.15                            20 190 
 GIR2 SZ EP       2338 41.63                             165    -0.210   34 352 
 GIR2 SZ ES   1   2338 57.22                             165     0.0 7   34 352 
 BRR  HZ IP     D 2338 43.44                             151     0.210   72 301 
 BRR  HZ I        2339  3.25        39.2 0.15                            72 301 
 RUS  HZ EP       2338 45.32                             145    -0.310   98 175 
 RUS  HN ES   1   2339  4.40                                     0.4 7   98 175 
 RUS  HZ I        2339  5.89        18.4 0.43                            98 175 
 GUE  SZ EP       2338 46.59                             138    -0.510  119  12 
 GRA  SZ EP       2338 48.23                             135     0.610  129  17 
 GRA  SZ ES   1   2339  8.15                             135     0.7 7  129  17 
 GRA  SZ I        2339  9.17        25.2 0.50                           129  17 
 OCA  SZ EP   1   2338 50.29                                    -0.4 7  163 354 
 OCA  SZ ES   1   2339 12.56                             128    -0.4 7  163 354 
 CHI  HZ EP       2338 59.39                             117    -0.1 8  246 195 
 CHI  HE ES   2   2339 28.71                                     0.1 4  246 195 
 CHI  HZ I        2339 32.37         8.0 0.53                           246 195 
 ROSC BN ES   3   2339 29.66                             116     0.3 2  250 211 
 RREF HZ EP   1   2339  8.89                             110     0.9 5  319 230 
 RREF HN ES   2   2339 43.86                             110     0.1 3  319 230 
 RREF HZ I        2339 53.59        12.1 0.86                           319 230 
 PRA  HZ EP   1   2339 15.50                             106     0.2 4  389 210 
 PRA  HN ES   3   2339 56.56                             106    -0.2 1  389 210 
 PRA  HZ I        2339 59.37         5.4 0.40                           389 210 
                                                                                
