 2016  621 2233 20.1 L   6.776 -73.166146.0  RSN  6 0.4 1.6LRSN                1
 GAP=135        0.93       4.6     4.1  6.3  0.2037E+01  0.6387E+01 -0.1302E+01E
 Epicentro: LOS SANTOS - SANTANDER                                             3
 ACTION:UPD 16-07-21 22:21 OP:rebc STATUS:               ID:20160621223320 L   I
 OLDACT:UP  16-06-22 02:54 OP:drio STATUS:               ID:20160621222745     3
 OLDACT:REG 16-06-22 02:37 OP:drio STATUS:               ID:20160621222745     3
 2016-06-21-2227-45M.COL___325                                                 6
 STAT SP IPHASW D HRMM SECON CODA AMPLIT PERI AZIMU VELO AIN AR TRES W  DIS CAZ7
 BAR2 EZ EP       2233 39.53                             172   -0.1410 20.4 185 
 BAR2 EZ ES       2233 54.71                             172   -0.2510 20.4 185 
 BAR2 EZ I        2233 55.46        12.3 0.24                          20.4 185 
 BRR  HZ EP       2233 41.26                             153    0.0510 70.6 301 
 BRR  HN ES       2233 58.25                             153    0.5510 70.6 301 
 BRR  HZ I        2233 58.93         9.6 0.28                          70.6 301 
 PAM  EZ EP       2233 42.54                             150    0.0210 80.9  40 
 PAM  EE ES       2233 59.77                             150   -0.2610 80.9  40 
 PAM  EZ I        2234  1.50         7.4 0.56                          80.9  40 
 RUS  HZ EP       2233 43.64                             145   -0.0210 98.1 175 
 RUS  HN ES       2234  2.49                             145    0.4210 98.1 175 
 RUS  HZ I        2234  4.43         3.0 0.20                          98.1 175 
 PTB  HZ EP       2233 46.29                             133   -0.52 9  145 260 
 PTB  HN ES       2234  7.28                             133   -0.40 9  145 260 
 PTB  HZ I        2234  8.71         6.2 0.12                           145 260 
 ZAR  HZ EP       2233 53.14                             123    0.71 9  203 293 
 ZAR  HN ES       2234 17.55                             123   -0.12 9  203 293 
 ZAR  HZ I        2234 22.95         6.6 0.28                           203 293 
                                                                                
