 2012  521 2147 55.8 L   6.537 -73.775 78.0  RSN  5 0.4 1.2LRSN                1
 GAP=143        0.77       9.1     4.3 12.0 -0.1986E+02 -0.8159E+01  0.2187E+02E
 Epicentro: SANTA HELENA DEL OPON - SANTANDER                                  3
 ACTION:UP  12-07-05 12:07 OP:pat  STATUS:               ID:20120521214755 L   I
 2012-05-21-2140-00M.COL___200                                                 6
 STAT SP IPHASW D HRMM SECON CODA AMPLIT PERI AZIMU VELO SNR AR TRES W  DIS CAZ7
 BAR2 SZ ES   3   2148 21.79                             135     0.6 2   66  85 
 PTB  HZ IP       2148 10.17                             131    -0.410   75 270 
 PTB  HN ES   1   2148 22.25                             131     0.1 7   75 270 
 PTB  HZ I        2148 22.57         5.2 0.24                            75 270 
 RUS  HZ EP   2   2148 13.83                             121    -0.3 5  105 133 
 RUS  HN ES   3   2148 28.81                             121     0.4 2  105 133 
 PAM  SN ES   1   2148 37.11                             111     0.1 7  148  53 
 HEL  HZ EP       2148 25.07                             105     0.5 9  198 259 
 HEL  HZ I        2148 36.86         2.1 0.50                           198 259 
                                                                                
