 2017  221 2126 11.7 L   6.819 -73.160140.6  RSN  5 0.2 1.5LRSN                1
 GAP=134        0.66       3.5     3.3  4.9 -0.1189E+01  0.2513E+01  0.7328E+00E
 Epicentro: LOS SANTOS - SANTANDER                                             3
 ACTION:UPD 17-05-24 15:39 OP:jn   STATUS:               ID:20170221212611 L   I
 OLDACT:REG 17-02-22 02:48 OP:cara STATUS:               ID:20170221211743     3
 2017-02-21-2118-00M.COL___379                                                 6
 STAT SP IPHASW D HRMM SECON CODA AMPLIT PERI AZIMU VELO AIN AR TRES W  DIS CAZ7
 BAR2 EZ ES       2126 45.94                             169    0.3010 25.2 186 
 BAR2 EZ I        2126 47.03        12.8 0.54            171           25.2 186 
 BRR  HZ EP       2126 32.49                             152    0.3110 68.8 298 
 BRR  HN ES       2126 48.07                             152   -0.0710 68.8 298 
 BRR  HZ I        2126 51.21         9.4 0.42            153           68.8 298 
 PAM  EZ EP       2126 33.56                             150    0.1910 76.9  41 
 PAM  EN ES       2126 49.93                             150   -0.3110 76.9  41 
 PAM  EZ I        2126 52.83         3.6 0.42            152           76.9  41 
 RUS  HZ EP       2126 35.21                             142    0.0710  103 175 
 RUS  HN ES       2126 53.22                             142   -0.1810  103 175 
 RUS  HZ I        2126 55.21         3.5 0.12            145            103 175 
 PTB  HZ EP       2126 37.78                             131   -0.39 9  147 258 
 PTB  HN ES       2126 58.84                             131    0.04 9  147 258 
 PTB  HZ I        2127  0.77         4.6 0.34            133            147 258 
                                                                                
