 2012  821 2008 16.8 L   6.764 -73.143146.6  RSN  9 0.4 2.5LRSN                1
 GAP=139        0.77       3.3     3.8  5.1  0.4787E+00  0.3676E+01  0.4009E+01E
 Epicentro: LOS SANTOS - SANTANDER                                             3
 ACTION:UPD 12-09-10 11:57 OP:ep   STATUS:               ID:20120821200816 L   I
 2012-08-21-2000-00M.COL___217                                                 6
 STAT SP IPHASW D HRMM SECON CODA AMPLIT PERI AZIMU VELO AIN AR TRES W  DIS CAZ7
 BAR2 SZ EP       20 8 36.40                             172   -0.0510 19.5 193 
 BAR2 SZ ES   1   20 8 51.92                             172    0.14 7 19.5 193 
 BRR  HZ IP     C 20 8 38.27                             152    0.1210 73.5 301 
 BRR  HE ES       20 8 55.45                             152    0.6310 73.5 301 
 PAM  SZ EP       20 8 39.26                             150    0.0010 80.2  38 
 PAM  SZ I        20 8 39.68        53.9 0.23                          80.2  38 
 PAM  SE ES   1   20 8 56.37                             150   -0.42 7 80.2  38 
 RUS  HZ EP       20 8 40.36                             145    0.0210 96.6 176 
 RUS  HE ES       20 8 58.55                             145   -0.1610 96.6 176 
 RUS  HZ I        20 9  0.31        53.2 0.25                          96.6 176 
 PTB  HN ES   1   20 9  4.39                             132   -0.46 7  147 260 
 ZAR  HZ EP   1   20 8 48.95                             122   -0.53 6  206 293 
 ZAR  HE ES   1   20 9 14.33                             122   -0.64 6  206 293 
 ZAR  HZ I        20 9 20.34        34.8 0.28                           206 293 
 NOR  SZ EP   1   20 8 52.42                             119    0.07 6  233 235 
 NOR  SN ES   1   20 9 20.08                             119   -0.02 6  233 235 
 NOR  SZ I        20 9 28.40        18.6 0.21                           233 235 
 CHI  HZ EP       20 8 54.37                             118    0.24 8  245 195 
 CHI  HZ I        20 8 54.90        16.1 0.11                           245 195 
 CHI  HN ES   1   20 9 22.82                             118   -0.44 6  245 195 
 TOL  SZ EP       20 9  5.47                             110    0.68 7  341 225 
                                                                                
