 2013  421 2117 32.4 L   6.760 -73.166149.1  RSN  7 0.5 1.6LRSN                1
 GAP=136        1.27       6.6     6.1  9.3  0.4212E+00  0.9646E+01  0.6923E+01E
 Epicentro: LOS SANTOS - SANTANDER                                             3
 ACTION:UPD 13-05-22 14:40 OP:EP   STATUS:               ID:20130421211732 L   I
 2013-04-21-2110-00M.COL___250                                                 6
 STAT SP IPHASW D HRMM SECON CODA AMPLIT PERI AZIMU VELO AIN AR TRES W  DIS CAZ7
 BAR2 SZ EP   1   2117 52.13                             173   -0.24 7 18.7 186 
 BAR2 SZ ES   1   2118  7.72                             173   -0.21 7 18.7 186 
 BAR2 SZ I        2118  9.48         7.2 0.16            172           18.7 186 
 GIR2 SZ ES   1   2118  8.30                             166   -0.05 7 35.4 355 
 BRR  HZ EP       2117 54.46                             153    0.5110 71.5 302 
 BRR  HN ES       2118 11.73                             153    0.9910 71.5 302 
 BRR  HZ I        2118 14.86         6.6 0.54            155           71.5 302 
 PAM  SZ EP       2117 55.32                             150    0.0410 82.2  39 
 PAM  SN ES       2118 12.44                             150   -0.6710 82.2  39 
 PAM  SZ I        2118 14.71         5.5 0.50            153           82.2  39 
 RUS  HZ EP       2117 56.52                             146    0.3110 96.4 175 
 RUS  HE ES       2118 14.95                             146    0.1910 96.4 175 
 RUS  HZ I        2118 17.93         4.2 0.36            147           96.4 175 
 PTB  HZ EP       2117 59.01                             133   -0.39 9  145 260 
 PTB  HN ES       2118 19.56                             133   -0.88 9  145 260 
 PTB  HZ I        2118 22.57         7.3 0.13            135            145 260 
 ZAR  HN ES   1   2118 30.56                             123    0.06 6  204 294 
                                                                                
