 2011  421 2308 32.9 L   6.780 -73.116145.8  RSN  9 0.4 2.0LRSN                1
 GAP=141        0.70       4.1     5.9  5.9 -0.7912E+01  0.1893E+01 -0.1825E+01E
 Epicentro: LOS SANTOS - SANTANDER                                             3
 ACTION:UP  11-06-22 15:32 OP:REBC STATUS:               ID:20110421230832 L   I
 2011-04-21-2307-00S.COL___139                                                 6
 STAT SP IPHASW D HRMM SECON CODA AMPLIT PERI AZIMU VELO SNR AR TRES W  DIS CAZ7
 BAR2 SZ EP   1   23 8 52.64                             171     0.1 7   22 199 
 BAR2 SZ ES   1   23 9  7.54                             171    -0.2 7   22 199 
 BAR2 SZ I        23 9 10.73        18.1 0.12                            22 199 
 GIR2 SZ EP   1   23 8 52.73                             166     0.1 7   34 346 
 BRR  HZ EP       23 8 54.40                             151     0.110   75 299 
 BRR  HE ES   1   23 9 11.44                             151     0.5 7   75 299 
 BRR  HZ I        23 9 14.26        28.0 0.15                            75 299 
 PAM  SZ EP   1   23 8 55.25                             151     0.2 7   77  37 
 PAM  SN ES   1   23 9 12.40                             151     0.0 7   77  37 
 RUS  HZ EP   1   23 8 56.76                             144     0.3 7   98 178 
 RUS  HN ES   2   23 9 14.29                             144    -0.6 5   98 178 
 RUS  HZ I        23 9 17.91         6.9 0.20                            98 178 
 BRI  SZ EP   1   23 8 56.97                             141     0.1 7  109  19 
 GRA  SZ EP   1   23 8 58.41                             137     0.2 7  127  16 
 GRA  SZ ES   2   23 9 17.38                             137    -0.6 5  127  16 
 GRA  SZ I        23 9 19.29        18.7 0.45                           127  16 
 OCA  SZ EP   1   23 9  0.88                             129    -0.6 7  163 352 
 OCA  SZ ES   2   23 9 23.28                             129    -0.4 5  163 352 
 OCA  SZ I        23 9 28.03        12.5 0.25                           163 352 
 NOR  SZ EP   2   23 9  8.30                             118    -0.5 4  236 235 
 NOR  SN ES   2   23 9 36.05                             118    -0.7 4  236 235 
                                                                                
