 2012  821 2043 54.1 L   6.702 -73.205141.0  RSN  4 0.1 1.4LRSN                1
 GAP=220        0.31       3.0     2.4  3.1  0.3064E+01  0.1239E+01  0.4132E+00E
 Epicentro: VILLANUEVA - SANTANDER                                             3
 ACTION:UPD 12-09-10 11:57 OP:ep   STATUS:               ID:20120821204354 L   I
 2012-08-21-2040-00M.COL___217                                                 6
 STAT SP IPHASW D HRMM SECON CODA AMPLIT PERI AZIMU VELO AIN AR TRES W  DIS CAZ7
 BAR2 SZ EP   1   2044 12.90                             175   -0.12 8 12.4 168 
 BAR2 SZ ES   1   2044 27.64                             175   -0.10 8 12.4 168 
 BAR2 SZ I        2044 28.60         6.2 0.23                          12.4 168 
 BRR  HZ EP   1   2044 14.82                             151    0.02 8 71.7 309 
 BRR  HZ I        2044 26.55         9.2 0.39                          71.7 309 
 BRR  HE ES   1   2044 31.05                             151    0.13 8 71.7 309 
 RUS  HZ EP   1   2044 16.83                             146    0.13 8 90.5 171 
 RUS  HE ES   1   2044 34.34                             146    0.04 8 90.5 171 
 PTB  HZ EP       2044 19.93                             133   -0.0410  140 263 
 PTB  HE ES       2044 40.10                             133   -0.0210  140 263 
 PTB  HZ I        2044 43.09         2.1 0.32                           140 263 
                                                                                
