 2011  921 2356 26.7 L   6.791 -73.124150.4  RSN  7 0.3 1.8LRSN                1
 GAP=185        0.43       3.1     5.9  5.5  0.6027E+01  0.3327E+01 -0.8123E-01E
 Epicentro: LOS SANTOS - SANTANDER                                             3
 ACTION:UPD 12-07-13 15:59 OP:ep   STATUS:               ID:20110921235626 L   I
 2011-09-21-2353-41S.COL___152                                                 6
 STAT SP IPHASW D HRMM SECON CODA AMPLIT PERI AZIMU VELO AIN AR TRES W  DIS CAZ7
 BTL  SZ EP   2   2356 47.00                             172    0.12 5 21.2 312 
 BAR2 SZ EP   2   2356 46.44                             171   -0.47 5 22.9 196 
 BAR2 SZ ES   2   2357  2.60                             171   -0.05 5 22.9 196 
 BRR  HZ EP   1   2356 48.43                             152   -0.10 7 73.8 298 
 BRR  HZ I        2356 49.95        17.4 0.16                          73.8 298 
 BRR  HE ES   2   2357  5.86                             152    0.33 5 73.8 298 
 RUS  HZ EP   2   2356 51.18                             145    0.32 5 99.4 177 
 RUS  HN ES   2   2357  9.36                             145   -0.32 5 99.4 177 
 RUS  HZ I        2357 10.14         5.6 0.32                          99.4 177 
 OCA  SZ EP   2   2356 55.79                             130    0.26 5  162 352 
 OCA  SZ ES   2   2357 18.10                             130    0.11 5  162 352 
 OCA  SZ I        2357 27.71        11.0 0.33                           162 352 
 ZAR  HZ EP   2   2356 59.62                             123   -0.13 4  207 292 
 ZAR  HN ES   2   2357 25.30                             123   -0.20 4  207 292 
 ZAR  HZ I        2357 31.44         8.6 0.26                           207 292 
 CHI  HZ EP   2   2357  4.34                             118   -0.31 4  248 196 
 CHI  HN ES   2   2357 34.91                             118    0.68 4  248 196 
 CHI  HZ I        2357 39.61         3.1 0.33                           248 196 
                                                                                
