 2014 1021 2129  5.0 L   6.780 -73.202136.2  RSN  7 0.4 1.6LRSN                1
 GAP=131        0.99       5.8     5.0  7.8 -0.5630E+01  0.4908E+01  0.7327E+01E
 Epicentro: ZAPATOCA - SANTANDER                                               3
 ACTION:UPD 14-11-29 23:53 OP:nd   STATUS:               ID:20141021211750dL   I
 OLDACT:DUP 14-10-23 09:06 OP:fm   STATUS:               ID:20141021211750dL   3
 2014-10-21-2117-49M.COL___280                                                 6
 STAT SP IPHASW D HRMM SECON CODA AMPLIT PERI AZIMU VELO AIN AR TRES W  DIS CAZ7
 BAR2 SZ EP   1   2129 23.75                             171    0.36 7 20.9 174 
 BAR2 SZ ES   1   2129 38.57                             171    0.81 7 20.9 174 
 BAR2 SZ I        2129 40.31        16.6 0.20            173           20.9 174 
 BRR  HN ES       2129 39.57                             152   -0.7710 67.0 303 
 BRR  HZ I        2129 46.47         8.7 0.34            153           67.0 303 
 PAM  SZ EP       2129 26.63                             147    0.0910 83.1  42 
 PAM  SN ES       2129 43.41                             147    0.0510 83.1  42 
 PAM  SZ I        2129 45.63         7.0 0.34            151           83.1  42 
 RUS  HZ EP   1   2129 27.36                             142   -0.31 7 99.0 172 
 RUS  HN ES   1   2129 44.97                             142   -0.40 7 99.0 172 
 RUS  HZ I        2129 47.34         3.1 0.52            147           99.0 172 
 PTB  HZ EP   1   2129 30.40                             131   -0.16 7  141 259 
 PTB  HN ES       2129 51.07                             131    0.54 9  141 259 
 PTB  HZ I        2129 53.30         5.0 0.36            134            141 259 
 SPBC HZ EP   1   2129 32.01                             128   -0.20 7  158 218 
 ZAR  HZ EP   1   2129 36.47                             121    0.18 6  199 293 
                                                                                
