 2017 1021 2256 57.3 L   6.785 -73.158140.0  RSN  5 0.2 1.3LRSN                1
 GAP=136        0.51       2.7     2.6  3.8 -0.6220E+00  0.1256E+01  0.4658E+00E
 Epicentro: LOS SANTOS - SANTANDER                                             3
 ACTION:UPD 17-11-07 19:34 OP:rebc STATUS:               ID:20171021225657 L   I
 OLDACT:UP  17-10-22 07:06 OP:mg   STATUS:               ID:20171021224741     3
 OLDACT:UP  17-10-22 07:05 OP:mg   STATUS:               ID:20171021224741     3
 OLDACT:UP  17-10-22 07:04 OP:mg   STATUS:               ID:20171021224741     3
 OLDACT:UP  17-10-22 07:04 OP:mg   STATUS:               ID:20171021224741     3
 OLDACT:REG 17-10-22 03:52 OP:mg   STATUS:               ID:20171021224741     3
 2017-10-21-2248-00M.COL___420                                                 6
 STAT SP IPHASW D HRMM SECON CODA AMPLIT PERI AZIMU VELO AIN AR TRES W  DIS CAZ7
 BAR2 EZ EP       2257 16.10                             171   -0.1310 21.5 187 
 BAR2 EZ ES       2257 30.78                             171   -0.2010 21.5 187 
 BAR2 EZ I        2257 32.21         6.3 0.26            173           21.5 187 
 BRR  HZ EP       2257 17.97                             152    0.1310 70.8 300 
 BRR  HE ES       2257 34.15                             152    0.3210 70.8 300 
 BRR  HZ I        2257 39.07         6.3 0.23            152           70.8 300 
 PAM  EZ EP       2257 19.15                             149    0.0810 79.5  40 
 PAM  EN ES       2257 35.87                             149   -0.1510 79.5  40 
 PAM  EZ I        2257 40.27         2.3 0.18            152           79.5  40 
 RUS  HZ EP       2257 20.42                             143    0.0110 99.1 175 
 RUS  HN ES       2257 38.62                             143    0.2110 99.1 175 
 RUS  HZ I        2257 40.86         3.1 0.20            148           99.1 175 
 PTB  HZ EP       2257 23.62                             131   -0.07 9  146 259 
 PTB  HN ES       2257 44.00                             131   -0.24 9  146 259 
 PTB  HZ I        2257 48.98         2.3 0.29            133            146 259 
                                                                                
