 2017  221 2055 58.1 L   6.750 -73.164146.1  RSN  6 0.3 1.6LRSN                1
 GAP=136        0.72       3.6     3.5  4.9 -0.3207E+01  0.4208E+01  0.2108E+01E
 Epicentro: LOS SANTOS - SANTANDER                                             3
 ACTION:UPD 17-05-24 15:39 OP:jn   STATUS:               ID:20170221205558 L   I
 OLDACT:DUP 17-02-22 03:16 OP:cara STATUS:               ID:20170221204741d    3
 OLDACT:REG 17-02-22 02:47 OP:cara STATUS:               ID:20170221204740     3
 2017-02-21-2048-00M.COL___379                                                 6
 STAT SP IPHASW D HRMM SECON CODA AMPLIT PERI AZIMU VELO AIN AR TRES W  DIS CAZ7
 BAR2 EZ ES       2056 33.06                             173    0.1210 17.6 187 
 BAR2 EZ I        2056 36.65        11.5 0.20            171           17.6 187 
 BRR  HZ EP       2056 19.64                             152    0.2810 72.3 303 
 BRR  HN ES       2056 36.27                             152    0.3410 72.3 303 
 BRR  HZ I        2056 39.01         7.4 0.16            154           72.3 303 
 PAM  EZ EP       2056 20.52                             149   -0.1810 82.9  38 
 PAM  EN ES       2056 37.98                             149   -0.3310 82.9  38 
 PAM  EZ I        2056 39.59         3.6 0.20            154           82.9  38 
 RUS  HZ EP       2056 22.03                             145    0.5110 95.3 175 
 RUS  HN ES       2056 39.58                             145   -0.2010 95.3 175 
 RUS  HZ I        2056 42.54         3.1 0.17            147           95.3 175 
 PTB  HZ EP       2056 24.69                             133   -0.16 9  145 261 
 PTB  HN ES       2056 45.44                             133   -0.25 9  145 261 
 PTB  HZ I        2056 47.93         7.4 0.12            134            145 261 
 NOR  HZ EP       2056 33.22                             119   -0.13 8  230 235 
 NOR  HN ES       2057  0.72                             119   -0.12 8  230 235 
 NOR  HZ I        2057  6.35         3.9 0.18            121            230 235 
                                                                                
