 2010  521 2218 32.4 L   6.723 -72.913140.0  RSN  5 0.3 2.1LRSN                1
 GAP=227        0.58       9.0    16.6  7.4 -0.1311E+03 -0.2002E+01  0.8628E+01E
 Epicentro: CEPITA - SANTANDER                                                 3
 ACTION:UP  10-08-24 10:06 OP:vdl  STATUS:               ID:20100521221832 L   I
 2010-05-21-2215-47S.COL___111                                                 6
 STAT SP IPHASW D HRMM SECON CODA AMPLIT PERI AZIMU VELO SNR AR TRES W  DIS CAZ7
 BAR2 SZ EP   1   2218 51.44                             166    -0.1 8   33 244 
 BAR2 SZ ES   2   2219  6.40                             166    -0.1 5   33 244 
 BRI  SZ EP   1   2218 56.11                             139     0.2 8  111   7 
 BRI  SZ ES   2   2219 14.80                             139     0.6 5  111   7 
 GUE  SZ IP       2218 56.82                             136    -0.210  122 359 
 GUE  SZ ES   2   2219 16.06                             136    -0.2 5  122 359 
 GRA  SZ EP   1   2218 57.14                             135    -0.2 7  129   5 
 GRA  SZ ES   2   2219 17.13                             135     0.2 5  129   5 
 RREF BZ EP   1   2219 20.71                             108     0.8 5  337 233 
 RREF BN ES   2   2219 56.62                             108    -0.5 3  337 233 
 RREF BZ I        2220  0.89         4.7 0.82                           337 233 
                                                                                
