 2014  421 2304 17.4 L   6.828 -73.144141.8  RSN 19 0.6 2.5LRSN                1
 GAP= 70        1.38       3.2     4.0  6.6 -0.3773E+01  0.7546E+00  0.3833E+01E
 Epicentro: LOS SANTOS - SANTANDER                                             3
 ACTION:UPD 14-05-13 23:10 OP:nd   STATUS:               ID:20140421230417 L   I
 OLDACT:DUP 14-04-22 08:44 OP:stll STATUS:               ID:20140421225818d    3
 2014-04-21-2258-17M.COL___242                                                 6
 STAT SP IPHASW D HRMM SECON CODA AMPLIT PERI AZIMU VELO AIN AR TRES W  DIS CAZ7
 BRR  HZ IP     D 23 4 38.46                             152    0.4410 69.9 296 
 BRR  HN ES       23 4 55.03                             152    0.9110 69.9 296 
 BRR  HZ I        23 4 58.56        37.7 0.32            151           69.9 296 
 PAM  SZ IP     D 23 4 39.48                             151    0.4710 74.9  41 
 PAM  SN ES       23 4 55.95                             151    0.0610 74.9  41 
 PAM  HZ I        23 4 58.33        77.4 0.48            154           74.9  41 
 RUS  HZ IP     C 23 4 40.70                             142   -0.2610  104 176 
 RUS  HN ES       23 4 59.31                             142   -0.0510  104 176 
 RUS  HZ I        23 5  0.33        49.7 0.24            145            104 176 
 PTB  HZ EP       23 4 43.42                             131   -0.67 9  149 258 
 PTB  HN ES       23 5  4.10                             131   -0.83 9  149 258 
 PTB  HZ I        23 5 10.93        32.0 0.46            132            149 258 
 TAM  HZ EP       23 4 45.01                             129    0.22 9  156 106 
 OCA  HZ EP       23 4 45.46                             129    0.38 9  157 353 
 OCA  HN ES       23 5  6.62                             129   -0.07 9  157 353 
 OCA  HZ I        23 5 13.83        28.6 0.32            131            157 353 
 SPBC HZ EP       23 4 45.46                             128   -0.35 9  166 218 
 SPBC HE ES       23 5  7.69                             128   -0.31 9  166 218 
 SPBC HZ I        23 5 10.02        68.8 0.30            129            166 218 
 ZAR  HZ EP       23 4 48.86                             122   -0.60 9  203 291 
 ZAR  HN ES       23 5 14.02                             122   -0.46 9  203 291 
 ZAR  HZ I        23 5 20.12        19.6 0.14            123            203 291 
 ZAR  HN I        23 5 22.94        46.9 0.38                           203 291 
 NOR  HZ EP       23 4 52.81                             117   -0.28 8  237 234 
 NOR  HN ES       23 5 20.40                             117   -0.54 8  237 234 
 NOR  HZ I        23 5 23.66        21.4 0.24            119            237 234 
 SML  HZ EP       23 4 53.62                             117    0.15 8  241 335 
 SML  HE ES       23 5 21.61                             117   -0.02 8  241 335 
 SML  HZ I        23 5 24.80        39.7 0.30            119            241 335 
 CHI  HZ EP       23 4 54.86                             116   -0.33 8  252 195 
 CHI  HN ES       23 5 24.06                             116   -0.62 8  252 195 
 CHI  HZ I        23 5 27.20        20.9 0.48            118            252 195 
 ROSC BZ EP       23 4 56.05                             116    0.47 8  256 211 
 ROSC BN ES       23 5 25.95                             116    0.57 8  256 211 
 ROSC HZ I        23 5 30.07        33.3 0.45            118            256 211 
 HEL  HZ EP       23 4 58.66                             114    1.17 8  273 255 
 HEL  HN ES       23 5 27.70                             114   -1.09 8  273 255 
 HEL  HZ I        23 5 34.67        15.7 0.26            115            273 255 
 SOCV BZ EP       23 4 59.11                             111   -0.91 7  299  57 
 SOCV BN ES   4   23 5 30.25                             111   -3.04 0  299  57 
 GUY2CHZ EP       23 5  2.70                             111    1.68 7  303 234 
 GUY2CHN ES       23 5 35.73                             111    0.66 7  303 234 
 GUY2CHZ I        23 5 41.68        11.6 0.32                           303 234 
 RREF HZ EP       23 5  4.28                             110    0.69 7  324 229 
 RREF HN ES       23 5 39.61                             110   -0.04 7  324 229 
 RREF HZ I        23 5 48.45        17.6 0.44            112            324 229 
 SDV  BZ EP       23 5  6.30                             108   -0.71 6  358  51 
 ANIL HZ EP       23 5  8.08                             108    0.78 6  360 224 
 ANIL HE ES       23 5 47.18                             108    0.94 6  360 224 
 PRA  HZ EP       23 5 10.26                             106   -0.83 6  395 209 
 PRA  HE ES       23 5 52.45                             106   -0.53 6  395 209 
 PRA  HZ I        23 5 58.56        12.9 0.28            107            395 209 
                                                                                
