 2014  921 2309 42.2 L   6.043 -73.706113.3  RSN  8 0.3 1.6LRSN                1
 GAP=120        0.86       3.2     3.0  5.5 -0.1695E+01  0.3041E+01 -0.3865E+01E
 Epicentro: VELEZ - SANTANDER                                                  3
 ACTION:UPD 14-10-03 23:07 OP:nd   STATUS:               ID:20140921230942 L   I
 OLDACT:UP  14-09-22 04:36 OP:mh   STATUS:               ID:20140921230819     3
 OLDACT:UP  14-09-22 04:32 OP:mh   STATUS:               ID:20140921230819     3
 OLDACT:REG 14-09-22 03:18 OP:mh   STATUS:               ID:20140921230819     3
 2014-09-21-2308-19M.COL___278                                                 6
 STAT SP IPHASW D HRMM SECON CODA AMPLIT PERI AZIMU VELO AIN AR TRES W  DIS CAZ7
 SPBC HZ EP       23 9 59.70                             150    0.4210 59.3 223 
 SPBC HN ES       2310 12.64                             150    0.0210 59.3 223 
 SPBC HZ I        2310 14.67        10.5 0.32            154           59.3 223 
 RUS  HZ EP       2310  0.55                             146   -0.0510 71.0 104 
 RUS  HN ES       2310 14.78                             146   -0.2010 71.0 104 
 RUS  HZ I        2310 15.90         3.4 0.36            150           71.0 104 
 BAR2 SZ EP       2310  1.27                             141    0.0810 83.9  44 
 BAR2 SZ ES       2310 16.00                             141   -0.0210 83.9  44 
 BAR2 SZ I        2310 17.34        23.0 0.24            143           83.9  44 
 PTB  HZ EP       2310  1.47                             136   -0.6710 99.5 304 
 PTB  HN ES       2310 17.43                             136   -0.2910 99.5 304 
 PTB  HZ I        2310 20.94         9.8 0.07            137           99.5 304 
 BRR  HZ EP       2310  4.12                             130    0.3810  118 360 
 BRR  HN ES       2310 21.20                             130    0.6310  118 360 
 BRR  HZ I        2310 24.12         7.8 0.14            132            118 360 
 PAM  SZ EP       2310 10.51                             118   -0.36 9  181  38 
 PAM  SN ES       2310 33.14                             118   -0.12 9  181  38 
 PAM  SZ I        2310 36.15         2.0 0.36            120            181  38 
 GUY2CHZ EP       2310 13.70                             114    0.28 9  205 244 
 GUY2CHN ES   4   2310 38.60                             114    0.81 0  205 244 
 ZAR  HZ EP       2310 12.84                             114    0.04 9  205 322 
 ZAR  HN ES   1   2310 36.45                             114   -0.24 6  205 322 
 ZAR  HZ I        2310 38.80         5.5 0.42            116            205 322 
                                                                                
