 2010  621 2047  4.8 L   6.778 -73.045146.4  RSN  9 0.4 2.2LRSN                1
 GAP=168        0.92       3.9     7.9  6.6 -0.1624E+02 -0.7532E+00  0.3330E+01E
 Epicentro: LOS SANTOS - SANTANDER                                             3
 ACTION:UP  10-08-24 10:12 OP:vdl  STATUS:               ID:20100621204704 L   I
 2010-06-21-2044-33S.COL___118                                                 6
 STAT SP IPHASW D HRMM SECON CODA AMPLIT PERI AZIMU VELO SNR AR TRES W  DIS CAZ7
 BAR2 SZ EP       2047 24.46                             170    -0.110   26 217 
 BAR2 SZ ES   1   2047 39.91                             170     0.0 7   26 217 
 BRR  HZ IP     C 2047 26.36                             149    -0.310   82 296 
 BRR  HZ I        2047 26.65        79.5 0.20                            82 296 
 BRR  HN ES   1   2047 43.86                             149     0.2 7   82 296 
 BTN  SZ IP       2047 26.67                             149    -0.510   83 356 
 BTN  SZ ES   1   2047 43.80                             149    -0.8 7   83 356 
 RUS  HZ EP   1   2047 28.88                             144     0.5 7   98 182 
 RUS  HE ES   1   2047 47.14                             144     0.3 7   98 182 
 RUS  HZ I        2047 48.29        12.3 0.21                            98 182 
 BRI  SZ EP       2047 29.00                             142     0.410  107  15 
 BRI  SZ ES   1   2047 47.75                             142     0.5 7  107  15 
 GUE  SZ EP       2047 29.53                             139    -0.110  117   6 
 GUE  SZ ES   2   2047 48.89                             139    -0.1 5  117   6 
 GRA  SZ IP       2047 30.28                             137     0.310  125  12 
 GRA  SZ ES   1   2047 49.67                             137    -0.1 7  125  12 
 CHI  HZ EP   2   2047 42.08                             117    -0.5 4  249 198 
 CHI  HZ I        2047 45.15         6.2 0.34                           249 198 
 CHI  HE ES   1   2048 11.27                             117    -0.8 6  249 198 
 RREF HZ EP   1   2047 51.90                             110     0.2 5  329 231 
 RREF HN ES   1   2048 29.31                             110     0.9 5  329 231 
 RREF HZ I        2048 36.64         6.2 0.57                           329 231 
                                                                                
