 2010  721 2226 39.9 L   6.736 -73.096142.0  RSN  6 0.3 1.9LRSN                1
 GAP=165        0.88       5.8    11.7 10.1  0.3576E+02 -0.7124E+02 -0.3290E+02E
 Epicentro: JORDAN - SANTANDER                                                 3
 ACTION:UPD 10-12-01 15:19 OP:pat  STATUS:               ID:20100721222639 L   I
 2010-07-21-2220-59S.COL___123                                                 6
 STAT SP IPHASW D HRMM SECON CODA AMPLIT PERI AZIMU VELO AIN AR TRES W  DIS CAZ7
 BAR2 SZ EP       2226 58.80                             172    -0.110   19 211 
 BAR2 SZ I        2226 59.19        23.9 0.35                            19 211 
 BAR2 SZ ES   1   2227 13.42                             172    -0.4 7   19 211 
 GIR2 SZ EP       2226 59.06                             164    -0.310   39 344 
 BRR  HZ EP       2227  0.87                             149    -0.210   80 301 
 BRR  HZ I        2227  2.23        37.1 0.06                            80 301 
 BRR  HN ES       2227 17.89                             149     0.210   80 301 
 RUS  HZ EP       2227  2.75                             145     0.010   93 179 
 RUS  HN ES       2227 20.78                             145     0.210   93 179 
 RUS  HZ I        2227 21.86        10.5 0.55                            93 179 
 GUE  SZ EP       2227  5.22                             137     0.510  122   9 
 GUE  SZ I        2227  6.97         6.9 0.01                           122   9 
 GRA  SZ EP   1   2227  5.00                             135    -0.2 7  131  14 
 GRA  SZ I        2227  6.35        12.3 0.21                           131  14 
                                                                                
