 2011  621 2043 58.8 L   6.752 -73.117147.9  RSN  5 0.1 2.0LRSN                1
 GAP=142        0.37       2.5     3.3  3.7 -0.1014E+01  0.1256E+01  0.1834E+00E
 Epicentro: LOS SANTOS - SANTANDER                                             3
 ACTION:UP  11-07-14 19:07 OP:ep   STATUS:               ID:20110621204358 L   I
 2011-06-21-2040-00M.COL___126                                                 6
 STAT SP IPHASW D HRMM SECON CODA AMPLIT PERI AZIMU VELO SNR AR TRES W  DIS CAZ7
 BAR2 SZ EP   1   2044 18.62                             172     0.1 7   19 202 
 BAR2 SZ ES   1   2044 34.11                             172     0.1 7   19 202 
 BAR2 SZ I        2044 35.36        23.7 0.26                            19 202 
 BRR  HZ EP       2044 20.45                             151     0.010   77 301 
 BRR  HZ I        2044 20.72        38.2 0.16                            77 301 
 BRR  HN ES   1   2044 37.44                             151     0.1 7   77 301 
 PAM  SZ EP   1   2044 21.23                             150    -0.1 7   80  35 
 PAM  SN ES   1   2044 38.82                             150    -0.1 7   80  35 
 RUS  HZ EP   1   2044 22.53                             146     0.2 7   95 178 
 RUS  HN ES   1   2044 40.58                             146    -0.1 7   95 178 
 RUS  HZ I        2044 42.45         6.1 0.45                            95 178 
 NOR  SN ES   2   2045  2.19                             119    -0.3 4  234 236 
                                                                                
