 2015  221 2037 26.4 L   6.782 -73.217144.8  RSN  6 0.5 2.0LRSN                1
 GAP=127        1.37       6.4     6.6  9.3 -0.1062E+02  0.7992E+01  0.6213E+01E
 Epicentro: ZAPATOCA - SANTANDER                                               3
 ACTION:UPD 15-04-30 21:28 OP:nd   STATUS:               ID:20150221203726 L   I
 OLDACT:REG 15-02-22 03:52 OP:stll STATUS:               ID:20150221202750     3
 2015-02-21-2027-50M.COL___284                                                 6
 STAT SP IPHASW D HRMM SECON CODA AMPLIT PERI AZIMU VELO AIN AR TRES W  DIS CAZ7
 BAR2 EZ EP       2037 45.74                             171   -0.1510 21.3 170 
 BAR2 EZ I        2037 46.11        26.1 0.10            169           21.3 170 
 BAR2 EZ ES       2038  1.05                             171   -0.0310 21.3 170 
 BRR  HZ EP       2037 47.68                             154    0.5310 65.4 303 
 BRR  HN ES       2038  4.04                             154    0.7310 65.4 303 
 PAM  SZ EP       2037 48.55                             148   -0.4010 84.1  43 
 PAM  SZ I        2037 48.93        23.6 0.24            151           84.1  43 
 PAM  SN ES       2038  6.33                             148   -0.1910 84.1  43 
 RUS  HZ EP       2037 49.53                             144   -0.4610 99.4 171 
 RUS  HN ES       2038  8.58                             144    0.2110 99.4 171 
 RUS  HZ I        2038  9.44         9.3 0.34            143           99.4 171 
 PTB  HZ EP       2037 52.71                             133    0.14 9  140 259 
 PTB  HN ES       2038 11.75                             133   -1.22 9  140 259 
 PTB  HZ I        2038 14.31        13.2 0.16            133            140 259 
 SPBC HZ EP       2037 55.00                             130    0.77 9  157 217 
 SPBC HE ES       2038 16.01                             130    0.09 9  157 217 
 SPBC HZ I        2038 19.98        17.3 0.10            129            157 217 
                                                                                
