 2016  721 2209 21.6 L   6.773 -73.111145.0  RSN 20 0.4 2.5LRSN                1
 GAP= 97        0.92       3.1     2.8  4.1 -0.2522E+01  0.2226E+01  0.1856E+01E
 Epicentro: LOS SANTOS - SANTANDER                                             3
 ACTION:UPD 17-03-29 16:53 OP:lp   STATUS:               ID:20160721220921 L   I
 OLDACT:UP  16-07-22 03:58 OP:dani STATUS:               ID:20160721220759     3
 OLDACT:UP  16-07-22 03:57 OP:dani STATUS:               ID:20160721220759     3
 OLDACT:UP  16-07-22 03:57 OP:dani STATUS:               ID:20160721220759     3
 OLDACT:UP  16-07-22 03:56 OP:dani STATUS:               ID:20160721220759     3
 OLDACT:REG 16-07-22 03:03 OP:dani STATUS:               ID:20160721220759     3
 2016-07-21-2207-59S.COL___334                                                 6
 STAT SP IPHASW D HRMM SECON CODA AMPLIT PERI AZIMU VELO AIN AR TRES W  DIS CAZ7
 BAR2 EZ EP       22 9 40.96                             171   -0.1610 21.5 201 
 BAR2 HE ES       22 9 56.35                             171    0.0210 21.5 201 
 BRR  HZ IP     D 22 9 42.85                             151   -0.1110 76.0 299 
 BRR  HN ES       22 9 59.95                             151    0.3510 76.0 299 
 BRR  HZ I        2210  3.38        46.8 0.30            144           76.0 299 
 PAM  EZ EP       22 9 43.93                             151    0.1810 77.4  36 
 PAM  EE ES       2210  0.98                             151   -0.0410 77.4  36 
 PAM  EZ I        2210  3.29        34.9 0.58            151           77.4  36 
 RUS  HZ EP       22 9 44.97                             145   -0.0910 97.4 178 
 RUS  HE ES       2210  3.47                             145    0.1210 97.4 178 
 RUS  HZ I        2210  4.76        34.8 0.32            144           97.4 178 
 TAM  HZ IP     D 22 9 49.29                             131    0.47 9  151 104 
 TAM  HE ES       2210  9.92                             131   -0.12 9  151 104 
 TAM  HZ I        2210 10.20        26.9 0.38            133            151 104 
 SPBC HZ EP       22 9 49.71                             129   -0.36 9  163 221 
 SPBC HN ES       2210 11.84                             129   -0.42 9  163 221 
 SPBC HZ I        2210 18.18        52.4 0.18            126            163 221 
 ZAR  HZ EP       22 9 54.56                             121    0.07 8  209 293 
 ZAR  HZ I        2210 25.66        33.9 0.36            118            209 293 
 NOR  HZ EP       22 9 57.43                             118   -0.02 8  236 236 
 NOR  HE ES       2210 24.95                             118   -0.45 8  236 236 
 NOR  HZ I        2210 30.18        34.4 0.42            115            236 236 
 CHI  HZ EP       22 9 59.36                             117    0.29 8  247 196 
 CHI  HN ES       2210 28.73                             117    0.45 8  247 196 
 CHI  HZ I        2210 35.55        19.4 0.48            115            247 196 
 ROSC BZ EP   9   2210  1.11                             117    1.48 0  252 212 
 ROSC BE ES       2210 30.73                             117   -0.03 8  252 212 
 ROSC BZ I        2210 36.99        22.0 0.50            114            252 212 
 HEL  HZ EP       2210  2.98                             114    0.86 8  275 257 
 HEL  HN ES   4   2210 35.79                             114    2.08 0  275 257 
 HEL  HZ I        2210 40.66        14.7 0.48            112            275 257 
 URE  HE ES   4   2210 32.19                             113   -3.38 0  288 292 
 SOCV BZ EP       2210  3.66                             112   -0.79 7  300  56 
 SOCV BN ES   4   2210 35.93                             112   -1.94 0  300  56 
 GUY2CHZ IP       2210  5.92                             112    0.58 7  303 236 
 GUY2CHN ES       2210 39.04                             112   -0.42 7  303 236 
 GUY2CHZ I        2210 47.62        24.0 0.34                           303 236 
 PTGC HZ EP       2210  4.12                             112   -0.84 7  305 159 
 PTGC HN ES   4   2210 34.25                             112   -4.53 0  305 159 
 PTGC HZ I        2210 40.05        16.2 0.50            111            305 159 
 ELA  HZ EP   4   2210 10.51                             110    1.97 0  330 230 
 ELA  HE ES   4   2210 42.89                             110   -2.26 0  330 230 
 ELA  HZ I        2210 57.82        11.6 0.58            108            330 230 
 CBOC HZ EP       2210  8.82                             110    0.01 7  336 253 
 CBOC HN ES       2210 44.75                             110   -0.87 7  336 253 
 CBOC HZ I        2210 50.43         4.3 0.25            107            336 253 
 ANIL HZ EP       2210 12.42                             108    0.97 6  358 225 
 PRA  HZ EP       2210 14.75                             106   -0.27 6  391 210 
 PRA  HE ES       2210 57.25                             106    0.56 6  391 210 
 PRA  HZ I        2211  3.66        17.0 0.64            105            391 210 
 PAL  HZ EP       2210 17.01                             106    0.06 6  407 240 
 PAL  HN ES   4   2210 55.89                             106   -4.23 0  407 240 
 PAL  HZ I        2211  6.58         5.9 0.32            104            407 240 
 SJC  HZ EP   4   2210 15.44                             105   -2.25 0  414 327 
 SJC  HN ES   4   2210 56.68                             105   -4.74 0  414 327 
 SJC  HZ I        2211  0.56         5.5 0.52            104            414 327 
                                                                                
