 2016  521 2314  8.4 L   6.809 -73.127150.1  RSN  9 0.3 1.7LRSN                1
 GAP=138        0.63       2.6     2.8  4.6  0.3087E+00  0.1805E+01  0.4400E+01E
 Epicentro: LOS SANTOS - SANTANDER                                             3
 ACTION:UPD 16-08-18 17:48 OP:cam  STATUS:               ID:20160521231408 L   I
 OLDACT:UP  16-05-22 06:25 OP:dani STATUS:               ID:20160521230741     3
 OLDACT:REG 16-05-22 03:39 OP:dani STATUS:               ID:20160521230741     3
 2016-05-21-2307-41M.COL___297                                                 6
 STAT SP IPHASW D HRMM SECON CODA AMPLIT PERI AZIMU VELO AIN AR TRES W  DIS CAZ7
 BAR2 EZ EP       2314 28.36                             170   -0.2110 24.7 194 
 BAR2 EZ I        2314 44.91        13.2 0.22            170           24.7 194 
 BRR  HZ EP       2314 30.33                             153    0.2510 72.5 297 
 BRR  HN ES       2314 47.31                             153    0.3110 72.5 297 
 BRR  HZ I        2314 49.63         9.7 0.34            153           72.5 297 
 PAM  EZ EP       2314 31.25                             152    0.3010 75.3  39 
 PAM  EN ES       2314 48.37                             152   -0.1710 75.3  39 
 PAM  EZ I        2314 51.56         4.8 0.50            152           75.3  39 
 RUS  HZ EP       2314 32.35                             144   -0.2810  101 177 
 RUS  HE ES       2314 51.46                             144   -0.0710  101 177 
 RUS  HZ I        2314 52.41         3.4 0.20            144            101 177 
 PTB  HZ EP       2314 35.76                             132   -0.15 9  150 259 
 PTB  HE ES       2314 57.59                             132    0.22 9  150 259 
 PTB  HZ I        2314 58.67         5.0 0.14            132            150 259 
 SPBC HZ EP       2314 37.33                             130   -0.08 9  165 219 
 SPBC HN ES   2   2314 59.89                             130   -0.16 5  165 219 
 SPBC HZ I        2315  4.17         8.7 0.18            129            165 219 
 ZAR  HZ EP   4   2314 35.37                             123   -5.90 0  206 292 
 ZAR  HE ES       2315  6.43                             123   -0.49 8  206 292 
 ZAR  HZ I        2315 11.53         6.0 0.32            123            206 292 
 CHI  HZ EP       2314 46.55                             118    0.06 8  250 196 
 CHI  HN ES       2315 16.26                             118    0.05 8  250 196 
 CHI  HZ I        2315 22.00         3.3 0.36            117            250 196 
 PRA  HZ EP       2315  2.83                             107    0.55 6  394 210 
 PRA  HN ES   4   2315 47.92                             107    3.61 0  394 210 
 PRA  HZ I        2315 50.38         3.7 0.72            107            394 210 
                                                                                
