 2012 1021 2141 36.0 L   6.757 -73.101145.6  RSN  4 0.1 1.6LRSN                1
 GAP=144        0.29       2.7     3.9  4.0 -0.2317E+01  0.3480E+01  0.2290E+01E
 Epicentro: LOS SANTOS - SANTANDER                                             3
 ACTION:UPD 12-11-22 17:05 OP:ep   STATUS:               ID:20121021214136 L   I
 2012-10-21-2140-00M.COL___233                                                 6
 STAT SP IPHASW D HRMM SECON CODA AMPLIT PERI AZIMU VELO AIN AR TRES W  DIS CAZ7
 BAR2 SZ EP   3   2141 55.50                             172   -0.10 2 20.3 206 
 BAR2 SZ ES   2   2142 10.87                             172    0.02 5 20.3 206 
 BAR2 SZ I        2142 13.42         9.9 0.40                          20.3 206 
 BRR  HZ EP       2141 57.51                             150   -0.0610 77.9 300 
 BRR  HN ES   3   2142 14.59                             150    0.24 2 77.9 300 
 PAM  SZ EP       2141 58.39                             150    0.1010 78.2  35 
 PAM  SZ I        2141 58.44         5.6 0.18                          78.2  35 
 PAM  SN ES   1   2142 15.57                             150   -0.07 7 78.2  35 
 RUS  HZ EP       2141 59.42                             145   -0.0110 95.6 179 
 RUS  HN ES   3   2142 17.48                             145   -0.18 2 95.6 179 
                                                                                
