 2014  921 2235 42.4 L   6.805 -73.177142.7  RSN 10 0.3 1.8LRSN                1
 GAP=132        0.70       2.0     3.3  3.8 -0.1134E+01  0.2994E+01 -0.2792E+00E
 Epicentro: LOS SANTOS - SANTANDER                                             3
 ACTION:UPD 14-10-03 23:07 OP:nd   STATUS:               ID:20140921223542 L   I
 OLDACT:UP  14-09-22 04:33 OP:mh   STATUS:               ID:20140921222819     3
 OLDACT:UP  14-09-22 04:31 OP:mh   STATUS:               ID:20140921222819     3
 OLDACT:UP  14-09-22 04:29 OP:mh   STATUS:               ID:20140921222819     3
 OLDACT:REG 14-09-22 03:16 OP:mh   STATUS:               ID:20140921222819     3
 2014-09-21-2228-19M.COL___284                                                 6
 STAT SP IPHASW D HRMM SECON CODA AMPLIT PERI AZIMU VELO AIN AR TRES W  DIS CAZ7
 BAR2 SZ EP       2236  1.77                             170    0.0610 23.5 181 
 BAR2 SZ ES       2236 16.57                             170   -0.1710 23.5 181 
 BAR2 SZ I        2236 17.68        14.2 0.20            172           23.5 181 
 BRR  HZ EP   1   2236  3.94                             153    0.86 7 67.9 300 
 BRR  HN ES       2236 19.39                             153    0.2210 67.9 300 
 BRR  HZ I        2236 25.40         8.9 0.22            152           67.9 300 
 PAM  SZ EP       2236  4.87                             150    0.4310 79.2  42 
 PAM  SN ES       2236 21.67                             150    0.0610 79.2  42 
 PAM  SZ I        2236 24.20        12.8 0.66            152           79.2  42 
 RUS  HZ EP       2236  5.86                             143   -0.1010  101 174 
 RUS  HN ES       2236 23.99                             143   -0.3110  101 174 
 PTB  HZ EP       2236  8.94                             132    0.08 9  144 258 
 PTB  HN ES       2236 29.60                             132    0.13 9  144 258 
 PTB  HZ I        2236 32.02         7.4 0.17            133            144 258 
 OCA  HZ EP       2236 10.45                             129    0.02 9  159 354 
 OCA  HN ES       2236 31.92                             129   -0.34 9  159 354 
 OCA  HZ I        2236 36.86         9.1 0.42            131            159 354 
 SPBC HZ EP   1   2236 10.68                             129    0.14 7  161 218 
 SPBC HN ES   1   2236 32.41                             129   -0.05 7  161 218 
 SPBC HZ I        2236 35.20         7.9 0.24            131            161 218 
 SML  HZ EP       2236 18.41                             117   -0.28 8  242 336 
 SML  HN ES       2236 46.44                             117   -0.52 8  242 336 
 GUY2CHZ EP   1   2236 25.75                             112    0.12 5  299 234 
 GUY2CHN ES   4   2237  0.84                             112    1.53 0  299 234 
 PRA  HZ EP       2236 35.59                             106   -0.12 6  391 209 
 PRA  HN ES       2237 16.90                             106   -0.37 6  391 209 
                                                                                
