 2017  821 2149 39.4 L   6.791 -73.118139.5  RSN 12 0.4 2.0LRSN                1
 GAP=141        0.97       3.4     4.0  5.5 -0.3447E+00  0.9071E+01  0.5293E+01E
 Epicentro: LOS SANTOS - SANTANDER                                             3
 ACTION:UPD 17-09-04 20:23 OP:rebc STATUS:               ID:20170821214939 L   I
 OLDACT:REG 17-08-22 03:08 OP:lv   STATUS:               ID:20170821214740     3
 2017-08-21-2148-00M.COL___414                                                 6
 STAT SP IPHASW D HRMM SECON CODA AMPLIT PERI AZIMU VELO AIN AR TRES W  DIS CAZ7
 BAR2 EZ EP       2149 58.04                             170   -0.2110 23.1 198 
 BAR2 EZ ES       2150 12.50                             170   -0.4710 23.1 198 
 BRR  HZ EP       2149 59.82                             150   -0.2210 74.4 298 
 BRR  HE ES       2150 16.80                             150    0.6410 74.4 298 
 PAM  EZ EP       2150  1.05                             150    0.1910 76.3  37 
 PAM  EN ES       2150 17.77                             150    0.1510 76.3  37 
 PAM  EZ I        2150 19.96        14.1 0.52            154           76.3  37 
 RUS  HZ EP       2150  2.10                             143   -0.3310 99.4 178 
 RUS  HN ES       2150 20.68                             143    0.2710 99.4 178 
 RUS  HZ I        2150 21.74         8.4 0.35            144           99.4 178 
 ZAR  HZ EP       2150 11.73                             121   -0.03 8  207 292 
 ZAR  HN ES       2150 36.45                             121   -0.57 8  207 292 
 ZAR  HZ I        2150 42.21        12.7 0.36            121            207 292 
 NOR  HZ EP       2150 14.46                             117   -0.50 8  237 235 
 NOR  HN ES       2150 42.52                             117   -0.19 8  237 235 
 NOR  HZ I        2150 47.17         6.7 0.18            117            237 235 
 CHI  HZ EP       2150 16.51                             116   -0.21 8  248 196 
 CHI  HN ES       2150 46.09                             116    0.25 8  248 196 
 CHI  HZ I        2150 49.65         4.0 0.25            117            248 196 
 HEL  HZ EP       2150 20.33                             113    0.74 8  275 256 
 HEL  HN ES       2150 50.49                             113   -0.46 8  275 256 
 HEL  HZ I        2150 57.07         5.4 0.32            114            275 256 
 GUY2CHZ EP       2150 23.68                             111    0.76 7  303 235 
 GUY2CHE ES       2150 57.79                             111    0.90 7  303 235 
 GUY2CHZ I        2151  4.66         4.5 0.58                           303 235 
 LL6C HE ES   4   2150 58.75                             109   -1.76 0  326 357 
 DBB  EZ EP   3   2150 27.37                             108    0.40 2  343 274 
 PRA  HZ EP       2150 32.66                             105   -0.10 6  393 210 
 PRA  HE ES       2151 14.04                             105   -0.36 6  393 210 
 PRA  HZ I        2151 20.19         6.7 0.28            106            393 210 
 SJC  HZ EP   4   2150 32.40                             105   -2.64 0  412 327 
 SJC  HN ES   4   2151 12.63                             105   -5.83 0  412 327 
 SJC  HZ I        2151 17.76         1.9 0.54            106            412 327 
                                                                                
