 2010 1021 2026 16.9 L   6.790 -73.093146.3  RSN  7 0.2 1.8LRSN                1
 GAP=242        0.46       3.4     5.5  4.4  0.5867E+01  0.6693E+01  0.3840E+01E
 Epicentro: LOS SANTOS - SANTANDER                                             3
 ACTION:UP  11-02-18 11:11 OP:tino STATUS:               ID:20101021202616 L   I
 2010-10-21-2023-11S.COL___125                                                 6
 STAT SP IPHASW D HRMM SECON CODA AMPLIT PERI AZIMU VELO SNR AR TRES W  DIS CAZ7
 BAR2 SZ EP   1   2026 36.65                             170     0.1 7   24 205 
 BAR2 SZ ES   1   2026 51.72                             170    -0.2 7   24 205 
 BAR2 SZ I        2026 52.61        14.2 0.37                            24 205 
 BRR  HZ IP     C 2026 38.32                             151    -0.110   77 297 
 BRR  HZ I        2026 38.57        18.9 0.11                            77 297 
 BRR  HE ES   1   2026 55.56                             151     0.3 7   77 297 
 RUS  HZ EP   1   2026 40.58                             144     0.0 7   99 179 
 RUS  HN ES   1   2026 59.09                             144     0.0 7   99 179 
 RUS  HZ I        2027  0.49         4.6 0.38                            99 179 
 NOR  SZ EP   2   2026 52.87                             118    -0.2 4  239 236 
 NOR  SE ES   2   2027 20.85                             118    -0.5 4  239 236 
 CHI  HZ EP   2   2026 55.00                             117     0.3 4  249 197 
 CHI  HN ES   2   2027 24.66                             117     0.5 4  249 197 
 CHI  HZ I        2027 30.20         4.0 0.39                           249 197 
 HEL  HZ EP   2   2026 57.62                             114    -0.1 4  277 256 
 HEL  HZ I        2027 35.04         3.6 0.31                           277 256 
 PRA  HZ EP   2   2027 10.60                             106     0.0 3  394 210 
 PRA  HE ES   2   2027 52.68                             106     0.1 3  394 210 
                                                                                
