 2011  521 2018 15.6 L   6.791 -73.131139.0  RSN  8 0.3 1.8LRSN                1
 GAP=139        0.46       2.5     4.7  6.0 -0.3361E+01  0.8026E+01 -0.1595E+00E
 Epicentro: LOS SANTOS - SANTANDER                                             3
 ACTION:UP  11-06-29 08:55 OP:tino STATUS:               ID:20110521201815 L   I
 2011-05-21-2012-57S.COL___141                                                 6
 STAT SP IPHASW D HRMM SECON CODA AMPLIT PERI AZIMU VELO SNR AR TRES W  DIS CAZ7
 BTL  SZ EP   2   2018 34.88                             171     0.6 5   21 313 
 BRR  HZ EP   1   2018 36.19                             151     0.1 7   73 299 
 BRR  HN ES   2   2018 52.30                             151     0.2 5   73 299 
 BRR  HZ I        2018 57.83        16.7 0.51                            73 299 
 PAM  SZ EP   2   2018 37.08                             150     0.0 5   77  38 
 PAM  SN ES   2   2018 53.59                             150    -0.2 5   77  38 
 RUS  HZ EP   1   2018 38.54                             143     0.0 7   99 177 
 RUS  HN ES   1   2018 56.46                             143    -0.1 7   99 177 
 RUS  HZ I        2018 57.85         8.3 0.29                            99 177 
 BRI  SZ ES   2   2018 57.32                             140     0.3 5  109  20 
 BRI  SZ I        2018 59.48         8.2 0.45                           109  20 
 GRA  SZ EP   2   2018 40.25                             135     0.0 5  126  17 
 GRA  SZ ES   2   2018 59.03                             135    -0.5 5  126  17 
 GRA  SZ I        2019  1.91         6.3 0.28                           126  17 
 OCA  SZ EP   2   2018 43.66                             128     0.2 5  161 353 
 OCA  SZ ES   2   2019  4.85                             128    -0.4 5  161 353 
 OCA  SZ I        2019 15.63         9.6 0.25                           161 353 
 NOR  SZ EP   2   2018 50.62                             117    -0.4 4  235 235 
 NOR  SN ES   2   2019 18.44                             117    -0.2 4  235 235 
                                                                                
