 2017  721 2249 58.6 L   6.818 -73.131150.0  RSN  7 0.4 1.5LRSN                1
 GAP=137        1.01       5.3     5.0  7.4 -0.2295E+01  0.5108E+01  0.1490E+01E
 Epicentro: LOS SANTOS - SANTANDER                                             3
 ACTION:UPD 17-08-30 15:35 OP:rebc STATUS:               ID:20170721224958 L   I
 OLDACT:UP  17-07-22 05:07 OP:edw  STATUS:               ID:20170721224736     3
 OLDACT:UP  17-07-22 05:06 OP:edw  STATUS:               ID:20170721224736     3
 OLDACT:REG 17-07-22 03:35 OP:edw  STATUS:               ID:20170721224736     3
 2017-07-21-2248-00M.COL___395                                                 6
 STAT SP IPHASW D HRMM SECON CODA AMPLIT PERI AZIMU VELO AIN AR TRES W  DIS CAZ7
 BAR2 EZ EP       2250 18.82                             170    0.0510 25.6 193 
 BAR2 EZ ES       2250 34.59                             170    0.0710 25.6 193 
 BAR2 EZ I        2250 36.40         4.8 0.24            171           25.6 193 
 BRR  HZ EP     C 2250 20.62                             153    0.4010 71.7 296 
 BRR  HZ I        2250 37.13        13.1 0.36            148           71.7 296 
 BRR  HN ES       2250 37.63                             153    0.5310 71.7 296 
 PAM  EZ EP       2250 21.23                             153    0.1310 74.8  40 
 PAM  HN ES       2250 37.99                             153   -0.6810 74.8  40 
 PAM  EZ I        2250 39.05         5.8 0.36            148           74.8  40 
 RUS  HZ EP       2250 22.83                             144   -0.0610  102 177 
 RUS  HN ES       2250 42.23                             144    0.3810  102 177 
 RUS  HZ I        2250 43.68         4.2 0.30            142            102 177 
 PTB  HZ EP       2250 25.65                             133   -0.43 9  150 258 
 PTB  HN ES       2250 47.02                             133   -0.50 9  150 258 
 PTB  HZ I        2250 49.28         3.9 0.28            128            150 258 
 SPBC HE ES   2   2250 49.61                             130   -0.72 5  166 219 
 ZAR  HN ES   2   2250 57.72                             123    0.75 4  205 291 
                                                                                
