 2013  821 2157 26.4 L   6.800 -73.153140.6  RSN 15 0.5 2.6LRSN                1
 GAP=136        1.16       3.8     5.2  6.9 -0.1548E+01  0.1120E+02  0.5038E+01E
 Epicentro: LOS SANTOS - SANTANDER                                             3
 ACTION:UPD 14-01-14 09:05 OP:ep   STATUS:               ID:20130821215726 L   I
 OLDACT:REG 13-08-21 21:21 OP:jn   STATUS:               ID:20130821214960d    3
 2013-08-21-2149-59M.COL___269                                                 6
 STAT SP IPHASW D HRMM SECON CODA AMPLIT PERI AZIMU VELO AIN AR TRES W  DIS CAZ7
 BAR2 SZ EP       2157 45.50                             170    0.1110 23.3 188 
 BAR2 SZ ES       2157 59.21                             170   -1.0010 23.3 188 
 BAR2 SZ I        2158  1.39        58.4 0.24            165           23.3 188 
 BRR  HZ IP     C 2157 47.21                             152    0.2810 70.4 299 
 BRR  HN ES       2158  3.89                             152    0.9310 70.4 299 
 BRR  HZ I        2158  8.44        61.9 0.12            132           70.4 299 
 PAM  SZ EP       2157 48.20                             150    0.1210 77.9  40 
 PAM  SN ES       2158  4.96                             150   -0.0410 77.9  40 
 PAM  SZ I        2158  7.24       112.9 0.54            132           77.9  40 
 RUS  HZ EP       2157 49.60                             143   -0.0410  101 176 
 RUS  HN ES   1   2158  8.18                             143    0.41 7  101 176 
 RUS  HZ I        2158 10.11        24.6 0.22            126            101 176 
 PTB  HZ EP       2157 52.13                             131   -0.73 9  147 259 
 PTB  HE ES   1   2158 13.15                             131   -0.36 7  147 259 
 PTB  HZ I        2158 15.74        57.2 0.16            112            147 259 
 OCA  HN ES   1   2158 16.86                             128    0.82 7  160 353 
 OCA  HZ I        2158 19.62        64.9 0.18            110            160 353 
 SPBC HN ES   1   2158 16.20                             128   -0.13 7  163 219 
 ZAR  HZ EP   1   2157 57.71                             121   -0.71 6  203 292 
 ZAR  HE ES   1   2158 23.52                             121    0.12 6  203 292 
 ZAR  HZ I        2158 29.37        41.2 0.44            105            203 292 
 NOR  HZ EP       2158  2.05                             117    0.30 8  234 234 
 NOR  HE ES   1   2158 29.49                             117    0.16 6  234 234 
 NOR  HZ I        2158 33.50        23.9 0.24            104            234 234 
 SML  HE ES   1   2158 29.65                             116   -1.34 6  243 335 
 CHI  HZ EP   1   2158  3.81                             116    0.03 6  248 195 
 CHI  HN ES       2158 33.20                             116    0.25 8  248 195 
 CHI  HZ I        2158 36.69        14.1 0.36            103            248 195 
 HEL  HZ EP   1   2158  6.47                             114    0.22 6  271 256 
 HEL  HZ I        2158 45.09        21.1 0.32            101            271 256 
 URE  HZ EP   4   2158  5.40                             113   -1.72 0  283 292 
 URE  HZ I        2158 47.47        24.3 0.20            101            283 292 
 GUY2CHZ EP   1   2158 10.17                             111    0.49 5  301 235 
 GUY2CHZ I        2158 53.60        16.8 0.30                           301 235 
 PRA  HZ EP   1   2158 19.67                             106   -0.02 4  392 209 
 PRA  HZ I        2159  8.30        23.1 0.28             97            392 209 
 SJC  HZ EP   4   2158 19.87                             105   -1.85 0  409 327 
                                                                                
