 2015  721 2325 30.8 L   6.496 -73.130145.1  RSN  7 0.3 1.8LRSN                1
 GAP=182        0.62       2.5     3.9  5.1 -0.1136E+01  0.7783E+01 -0.3777E+01E
 Epicentro: VALLE DE SAN JOSE - SANTANDER                                      3
 ACTION:UPD 15-09-08 21:50 OP:cam  STATUS:               ID:20150721232530 L   I
 OLDACT:REG 15-07-22 05:53 OP:spq  STATUS:               ID:20150721231750     3
 2015-07-21-2317-50M.COL___334                                                 6
 STAT SP IPHASW D HRMM SECON CODA AMPLIT PERI AZIMU VELO AIN AR TRES W  DIS CAZ7
 BAR2 EZ EP     D 2325 50.18                             175    0.0510 12.1 331 
 BAR2 EZ ES   1   2326  5.14                             175   -0.11 7 12.1 331 
 BAR2 EZ I        2326  6.17        21.2 0.38            171           12.1 331 
 RUS  HZ EP       2325 52.40                             154    0.0910 66.9 176 
 RUS  HE ES       2326  9.20                             154    0.0710 66.9 176 
 RUS  HZ I        2326 10.48        11.5 0.20            158           66.9 176 
 OCA  HZ EP       2326  2.34                             124    0.04 9  194 354 
 OCA  HN ES       2326 26.81                             124   -0.11 9  194 354 
 OCA  HZ I        2326 29.74        13.0 0.22            125            194 354 
 NOR  HZ EP       2326  4.43                             120   -0.28 8  218 242 
 NOR  HE ES       2326 30.79                             120   -0.41 8  218 242 
 NOR  HZ I        2326 33.40         3.1 0.26            121            218 242 
 ZAR  HN ES       2326 31.88                             120    0.40 8  220 300 
 ZAR  HZ I        2326 36.80         8.0 0.54            120            220 300 
 SML  HZ EP   1   2326 10.46                             114   -0.35 6  275 338 
 SML  HE ES   1   2326 41.91                             114   -0.14 6  275 338 
 SML  HZ I        2326 45.29         5.5 0.11            115            275 338 
 GUY2CHZ EP   1   2326 13.32                             114    0.85 6  285 241 
 GUY2CHE ES   4   2326 46.70                             114    1.69 0  285 241 
 GUY2CHZ I        2326 52.96         1.6 0.56                           285 241 
                                                                                
