 2016 1221 2116 55.4 L   6.800 -73.108149.4  RSN  8 0.4 1.9LRSN                1
 GAP=141        1.08       4.5     6.0  7.2  0.3061E+01  0.9062E+01  0.9809E+01E
 Epicentro: LOS SANTOS - SANTANDER                                             3
 ACTION:UPD 17-01-11 20:17 OP:rebc STATUS:               ID:20161221211655 L   I
 OLDACT:UP  16-12-22 05:09 OP:ar   STATUS:               ID:20161221210746     3
 OLDACT:REG 16-12-22 03:25 OP:ar   STATUS:               ID:20161221210746     3
 2016-12-21-2108-00M.COL___384                                                 6
 STAT SP IPHASW D HRMM SECON CODA AMPLIT PERI AZIMU VELO AIN AR TRES W  DIS CAZ7
 BAR2 EZ EP       2117 15.28                             170   -0.1810 24.4 200 
 BAR2 EZ ES       2117 31.00                             170   -0.1310 24.4 200 
 BAR2 EZ I        2117 34.26        16.8 0.38            167           24.4 200 
 PAM  EZ EP       2117 18.20                             152    0.3710 74.8  37 
 PAM  EN ES       2117 35.25                             152   -0.0910 74.8  37 
 PAM  EZ I        2117 37.58        13.5 0.44            157           74.8  37 
 BRR  HZ EP       2117 17.34                             152    0.2210 74.8 297 
 BRR  HE ES       2117 34.73                             152    0.6510 74.8 297 
 BRR  HZ I        2117 38.87        14.0 0.14            150           74.8 297 
 RUS  HZ EP       2117 19.14                             145   -0.3310  100 178 
 RUS  HN ES       2117 37.80                             145   -0.4710  100 178 
 RUS  HZ I        2117 39.03         7.2 0.42            146            100 178 
 ZAR  HN ES       2117 53.50                             123   -0.74 8  208 292 
 ZAR  HZ I        2117 58.77        13.8 0.30            123            208 292 
 CHI  HZ EP       2117 33.26                             118   -0.13 8  250 196 
 CHI  HE ES       2118  3.96                             118    0.91 8  250 196 
 CHI  HZ I        2118  8.33         3.1 0.46            119            250 196 
 GUY2CHZ EP   4   2117 42.16                             113    2.63 0  305 235 
 GUY2CHN ES   4   2118 17.05                             113    3.08 0  305 235 
 GUY2CHZ I        2118 20.11         4.8 0.32                           305 235 
 ORTC HZ EP       2117 49.73                             107    0.03 6  398 217 
 ORTC HN ES   4   2118 29.81                             107   -2.27 0  398 217 
 ORTC HZ I        2118 38.11         4.4 0.50            108            398 217 
                                                                                
