 2010  721 2141 18.0 L   6.813 -73.417119.7  RSN  4 0.1 1.4LRSN                1
 GAP=155        0.36       3.2     5.7  4.5  0.8080E+01 -0.1630E+02 -0.3236E+01E
 Epicentro: SAN VICENTE DE CHUCURI - SANTANDER                                 3
 ACTION:UPD 10-12-01 15:19 OP:pat  STATUS:               ID:20100721214118 L   I
 2010-07-21-2137-39S.COL___123                                                 6
 STAT SP IPHASW D HRMM SECON CODA AMPLIT PERI AZIMU VELO AIN AR TRES W  DIS CAZ7
 BAR2 SZ EP       2141 34.83                             162     0.010   36 133 
 BAR2 SZ ES   2   2141 47.88                             162    -0.1 5   36 133 
 BAR2 SZ I        2141 48.91        12.7 0.34                            36 133 
 BRR  HZ EP       2141 34.80                             158    -0.110   46 315 
 BRR  HN ES       2141 48.22                             158     0.110   46 315 
 BRR  HZ I        2142  2.94        12.0 1.20                            46 315 
 RUS  HZ EP   1   2141 40.04                             135     0.1 7  108 160 
 RUS  HN ES   3   2141 56.85                             135    -0.2 2  108 160 
 RUS  HZ I        2141 59.41         1.6 0.81                           108 160 
 GUE  SZ EP       2141 41.18                             131     0.010  125  26 
 GUE  SZ I        2141 59.40         2.9 0.19                           125  26 
                                                                                
