 2014 1021 2131 21.6 L   6.842 -73.370123.3  RSN  7 0.5 1.9LRSN                1
 GAP= 91        1.30       4.7     6.1 10.0  0.2409E+00  0.6824E+01 -0.7426E+01E
 Epicentro: SAN VICENTE DE CHUCURI - SANTANDER                                 3
 ACTION:UPD 14-11-29 23:53 OP:nd   STATUS:               ID:20141021213121 L   I
 OLDACT:DUP 14-10-23 09:30 OP:fm   STATUS:               ID:20141021212747d    3
 2014-10-21-2127-46M.COL___280                                                 6
 STAT SP IPHASW D HRMM SECON CODA AMPLIT PERI AZIMU VELO AIN AR TRES W  DIS CAZ7
 BAR2 SZ EP       2131 39.68                             164    0.7910 34.5 143 
 BAR2 SZ ES   1   2131 52.69                             164    0.34 7 34.5 143 
 BAR2 SZ I        2131 54.24        63.8 0.26            167           34.5 143 
 BRR  HZ EP       2131 39.26                             157    0.1810 47.9 308 
 BRR  HN ES       2131 53.32                             157    0.6210 47.9 308 
 BRR  HZ I        2131 54.94        17.9 0.38            156           47.9 308 
 PAM  SZ EP   1   2131 41.98                             141   -0.60 7 92.2  53 
 PAM  SN ES   1   2131 58.81                             141   -0.11 7 92.2  53 
 PAM  SZ I        2132  1.55         8.1 0.26            144           92.2  53 
 RUS  HZ EP   1   2131 44.72                             136    0.73 7  110 163 
 RUS  HN ES       2132  0.70                             136   -0.7410  110 163 
 RUS  HZ I        2132  3.35         8.3 0.28            140            110 163 
 PTB  HZ EP       2131 44.55                             132   -0.1210  125 255 
 PTB  HE ES       2132  2.09                             132   -0.5610  125 255 
 PTB  HZ I        2132  8.48         7.0 0.24            133            125 255 
 OCA  HN ES       2132  7.29                             125   -0.78 9  155   2 
 OCA  HZ I        2132 10.49        12.0 0.32            127            155   2 
 SML  HZ EP   1   2131 55.86                             114    0.30 6  230 340 
 SML  HE ES   1   2132 22.38                             114    0.34 6  230 340 
 SML  HZ I        2132 27.39        13.8 0.30            115            230 340 
                                                                                
