 2012  721 2045 31.8 L   6.800 -73.146142.5  RSN 14 0.3 2.8LRSN                1
 GAP= 65        0.75       2.7     2.5  4.2  0.8886E+00  0.2025E+01  0.2094E+01E
 Epicentro: LOS SANTOS - SANTANDER                                             3
 SPEC SD       MO  0.1 ST  1.3 OM  1.2 f00.392 R0.0437 AL      WI      MW  0.1 3
 SPEC ROSCBH Z MO 13.8 ST  3.0 OM  2.0 f0 3.17 R0.4637 AL 3.03 WI 17.8 MW  3.2 3
 SPEC ROSCBH Z T204640 K 0.000 GD  290 VS 4.20 DE 3.00 Q0230.0 QA 0.60 VS 4.20 3
 SPEC HEL HH Z MO 13.8 ST  5.5 OM  1.9 f0 4.12 R0.3568 AL 3.24 WI  9.4 MW  3.1 3
 SPEC HEL HH Z T204646 K 0.000 GD  307 VS 4.20 DE 3.00 Q0230.0 QA 0.60 VS 4.20 3
 SPEC CHI HH Z MO 13.6 ST  2.6 OM  1.8 f0 3.53 R0.4164 AL 2.70 WI 14.8 MW  3.0 3
 SPEC CHI HH Z T204640 K 0.000 GD  286 VS 4.20 DE 3.00 Q0230.0 QA 0.60 VS 4.20 3
 ACTION:UPD 12-08-14 11:46 OP:ep   STATUS:               ID:20120721204531 L   I
 2012-07-21-2040-00M.COL___215                                                 6
 STAT SP IPHASW D HRMM SECON CODA AMPLIT PERI AZIMU VELO AIN AR TRES W  DIS CAZ7
 BAR2 SZ IP       2045 51.16                             170     0.110   23 190 
 BAR2 SZ I        2045 51.72       119.1 0.20            162             23 190 
 BAR2 SZ ES   1   2046  6.03                             170     0.0 7   23 190 
 BRR  HZ IP     C 2045 52.90                             152     0.310   71 299 
 BRR  HN ES       2046  9.32                             152     0.510   71 299 
 BRR  HZ I        2046 13.21       198.6 0.16            128             71 299 
 PAM  SZ EP       2045 53.94                             150     0.210   77  40 
 PAM  SN ES       2046 10.36                             150    -0.410   77  40 
 RUS  HZ EP       2045 55.27                             143     0.010  101 176 
 RUS  HN ES       2046 13.44                             143    -0.110  101 176 
 RUS  HZ I        2046 15.84        57.9 0.39            126            101 176 
 PTB  HZ EP   1   2045 57.93                             131    -0.6 7  148 259 
 PTB  HN ES   1   2046 19.00                             131    -0.3 7  148 259 
 PTB  HZ I        2046 22.64        57.2 0.21            111            148 259 
 TAM  HZ EP       2045 59.57                             130     0.3 9  155 105 
 TAM  HE ES   1   2046 20.57                             130    -0.1 7  155 105 
 OCA  HZ EP   1   2045 59.26                             129    -0.6 7  160 353 
 OCA  HZ I        2046 25.89       132.8 0.33            109            160 353 
 YOP  SZ EP       2046  1.68                             126     0.1 9  179 153 
 YOP  SZ I        2046  2.94        35.5 0.25            110            179 153 
 YOP  SE ES   1   2046 24.58                             126    -0.3 7  179 153 
 ZAR  HZ EP       2046  3.84                             122    -0.2 9  204 292 
 ZAR  HE ES   1   2046 29.25                             122     0.1 6  204 292 
 ZAR  HZ I        2046 35.29       120.4 0.38            104            204 292 
 NOR  SZ EP       2046  7.39                             118     0.0 8  235 234 
 NOR  SN ES   1   2046 35.29                             118     0.2 6  235 234 
 CHI  HZ EP   1   2046  9.28                             116    -0.1 6  249 195 
 CHI  HE ES   1   2046 38.27                             116    -0.3 6  249 195 
 CHI  HZ I        2046 46.80        31.7 0.41            103            249 195 
 ROSC BZ EP   1   2046 10.13                             116     0.4 6  253 211 
 ROSC BZ I        2046 46.31        64.2 0.40            102            253 211 
 HEL  HZ EP   1   2046 11.99                             114     0.1 6  272 256 
 HEL  HZ I        2046 51.14        40.5 0.35            101            272 256 
 DBB  SZ EP   1   2046 18.91                             109    -0.3 5  339 274 
