 2017 1121 2127  5.9 L   6.790 -73.133142.7  RSN 26 0.5 2.5LRSN                1
 GAP= 66        1.00       2.2     3.0  4.4 -0.8507E+00  0.2865E+01  0.6214E+00E
 Epicentro: LOS SANTOS - SANTANDER                                             3
 ACTION:UPD 17-12-12 19:58 OP:rebc STATUS:               ID:20171121212705 L   I
 OLDACT:UP  17-11-22 05:06 OP:lv   STATUS:               ID:20171121211133     3
 OLDACT:REG 17-11-22 03:46 OP:lv   STATUS:               ID:20171121211133     3
 2017-11-21-2118-00M.COL___483                                                 6
 STAT SP IPHASW D HRMM SECON CODA AMPLIT PERI AZIMU VELO AIN AR TRES W  DIS CAZ7
 BAR2 EZ EP       2127 25.05                             171   -0.0510 22.5 194 
 BAR2 EZ ES       2127 40.02                             171   -0.0810 22.5 194 
 BAR2 EZ I        2127 41.26        53.7 0.24            167           22.5 194 
 PAM  EZ EP       2127 27.92                             150    0.1810 77.4  38 
 PAM  EN ES       2127 45.00                             150    0.1910 77.4  38 
 PAM  EZ I        2127 47.64        94.5 0.62            154           77.4  38 
 RUS  HZ EP       2127 29.00                             143   -0.2110 99.4 177 
 RUS  HN ES       2127 47.61                             143    0.1810 99.4 177 
 RUS  HZ I        2127 50.17        35.0 0.48            142           99.4 177 
 PTB  HZ EP       2127 31.88                             131   -0.79 9  149 259 
 PTB  HN ES       2127 53.15                             131   -0.44 9  149 259 
 PTB  HZ I        2127 54.57        21.6 0.42            128            149 259 
 TAM  HZ IP     D 2127 33.24                             130    0.10 9  153 105 
 TAM  HN ES   4   2127 55.08                             130    0.66 0  153 105 
 OCA  HZ EP       2127 34.41                             129    0.36 9  162 353 
 OCA  HN ES       2127 56.16                             129    0.12 9  162 353 
 OCA  HZ I        2128  0.46       106.0 0.50            129            162 353 
 SPBC HZ EP       2127 34.08                             128   -0.04 9  163 220 
 SPBC HN ES       2127 55.81                             128   -0.35 9  163 220 
 SPBC HZ I        2128  1.58        49.9 0.42            126            163 220 
 YPLC HZ EP       2127 35.86                             126    0.60 9  175 152 
 YPLC HN ES   4   2127 56.09                             126   -2.11 0  175 152 
 YPLC HZ I        2128  0.01        29.3 0.28            127            175 152 
 ZAR  HZ EP       2127 38.08                             121   -0.20 8  206 292 
 ZAR  HN ES       2128  3.57                             121    0.01 8  206 292 
 ZAR  HZ I        2128 10.22        31.9 0.28            120            206 292 
 TABC EZ EP   9   2127 42.50                             119    1.11 0  230 211 
 TABC EZ ES       2128 11.04                                    0.82 8  230 211 
 TABC EZ I        2128 15.40        26.5 0.34            117            230 211 
 NOR  HZ EP       2127 41.28                             118   -0.18 8  235 235 
 NOR  HN ES   4   2128  8.26                             118   -0.96 0  235 235 
 NOR  HZ I        2128 12.57        19.3 0.42            116            235 235 
 CHI  HZ EP       2127 43.09                             116   -0.21 8  248 196 
 CHI  HN ES       2128 12.50                             116   -0.01 8  248 196 
 CHI  HZ I        2128 18.04        11.1 0.52            116            248 196 
 ROSC BZ EP       2127 44.59                             116    0.81 8  252 211 
 ROSC BN ES   4   2128 17.54                             116    4.18 0  252 211 
 ROSC BZ I        2128 20.74        27.3 0.45            115            252 211 
 HEL  HZ EP       2127 46.66                             114    0.63 8  273 256 
 HEL  HN ES       2128 17.36                             114   -0.00 8  273 256 
 HEL  HZ I        2128 24.46        16.0 0.44            113            273 256 
 URE  HZ EP   4   2127 39.67                             113   -7.30 0  286 292 
 URE  HN ES   4   2128 16.65                             113   -2.38 0  286 292 
 URE  HZ I        2128 28.10        25.5 0.20            112            286 292 
 DRL03HZ EP       2127 47.19                             112   -0.27 7  290 353 
 DRL03HN ES       2128 19.90                             112   -0.02 7  290 353 
 GUY2CHZ EP       2127 50.37                             112    1.00 7  302 235 
 GUY2CHN ES   4   2128 26.42                             112    3.10 0  302 235 
 GUY2CHZ I        2128 31.78        18.2 0.32                           302 235 
 VIL  EZ EP   4   2127 50.20                             111    1.16 0  303 192 
 VIL  EN ES       2128 22.29                             111   -0.43 7  303 192 
 VIL  EZ I        2128 32.18        25.4 0.38            111            303 192 
 PTGC HZ EP       2127 48.21                             111   -1.19 7  307 159 
 PTGC HN ES   4   2128 20.14                             111   -3.22 0  307 159 
 PTGC HZ I        2128 25.98        15.7 0.52            111            307 159 
 CBOC HZ EP       2127 53.67                             109    0.92 7  335 252 
 CBOC HN ES   4   2128 39.17                             109    9.84 0  335 252 
 CBOC HZ I        2128 43.80         9.3 0.16            108            335 252 
 ARGC HZ EP   4   2127 56.77                             108    1.20 0  361 340 
 ARGC HN ES       2128 34.14                             108   -0.21 6  361 340 
 ARGC HZ I        2128 43.11         7.4 0.24            107            361 340 
 PRA  HZ EP       2127 58.68                             106   -0.56 6  392 210 
 PRA  HE ES   4   2128 38.64                             106   -2.23 0  392 210 
 PRA  HZ I        2128 46.75        11.6 0.34            105            392 210 
 ORTC HZ EP       2127 59.78                             106    0.12 6  395 216 
 ORTC HN ES       2128 42.39                             106    0.77 6  395 216 
 ORTC HZ I        2128 47.91         7.9 0.40            105            395 216 
 PAL  HZ EP       2128  0.79                             105   -0.19 6  406 239 
 PAL  HZ I        2128 27.89        20.1 0.10            105            406 239 
 PAL  HN ES       2128 43.69                             105   -0.29 6  406 239 
 SJC  HZ EP   4   2127 59.78                             105   -1.74 0  411 327 
 SJC  HN ES   4   2128 39.37                             105   -5.56 0  411 327 
 SJC  HZ I        2128 45.03         7.8 0.40            105            411 327 
 URI  HZ EP   3   2128 15.07                             100   -3.82 1  558  13 
 URI  HN ES   3   2129 12.79                             100   -3.06 1  558  13 
                                                                                
