 2015 1021 2324 55.3 L   6.830 -73.164139.2  RSN 23 0.5 2.7LRSN                1
 GAP= 69        1.08       2.5     2.8  5.0 -0.1481E+00  0.5325E+01  0.2072E+01E
 Epicentro: LOS SANTOS - SANTANDER                                             3
       0.0      14.0     -62.0 30.0 25.0 30.0  0.0  0.1           RSN FPFIT    F
 ACTION:UPD 15-12-22 20:41 OP:cam  STATUS:               ID:20151021232455 L   I
 OLDACT:UP  15-11-01 03:31 OP:DRIO STATUS:               ID:20151021232455 L   3
 OLDACT:UP  15-10-22 06:49 OP:nlst STATUS:               ID:20151021232455 L   3
 OLDACT:REG 15-10-22 04:44 OP:ak   STATUS:               ID:20151021231748     3
 2015-10-21-2317-48M.COL___319                                                 6
 STAT SP IPHASW D HRMM SECON CODA AMPLIT PERI AZIMU VELO AIN AR TRES W  DIS CAZ7
 BAR2 EZ IP     D 2325 14.35                             169    0.1710 26.4 185 
 BAR2 EZ ES       2325 28.83                             169   -0.0910 26.4 185 
 BAR2 EZ I        2325 30.11       170.0 0.18            168           26.4 185 
 BRR  HZ IP     D 2325 16.26                             152    0.7410 67.9 297 
 BRR  HN ES       2325 32.09                             152    0.7810 67.9 297 
 BRR  HZ I        2325 34.71        81.5 0.27            152           67.9 297 
 PAM  EZ IP     C 2325 17.22                             150    0.5110 76.2  42 
 PAM  EN ES       2325 33.63                             150    0.1910 76.2  42 
 PAM  EZ I        2325 36.52       131.1 0.52            153           76.2  42 
 RUS  HZ EP     D 2325 18.33                             141   -0.3110  104 175 
 RUS  HE ES       2325 36.46                             141   -0.4010  104 175 
 RUS  HZ I        2325 37.55        57.8 0.24            143            104 175 
 OCA  HZ EP   4   2325 18.33                             129   -4.41 0  157 354 
 OCA  HN ES       2325 43.48                             129   -0.69 9  157 354 
 OCA  HZ I        2325 47.88       181.1 0.40            131            157 354 
 TAM  HZ IP     C 2325 22.72                             129    0.02 9  158 106 
 TAM  HN ES       2325 43.90                             129   -0.19 9  158 106 
 TAM  HZ I        2325 44.58        23.2 0.34            132            158 106 
 SPBC HZ EP     D 2325 23.29                             127   -0.11 9  165 218 
 SPBC HE ES       2325 45.34                             127   -0.01 9  165 218 
 SPBC HZ I        2325 47.60        65.1 0.10            128            165 218 
 ZAR  HZ EP   1   2325 27.37                             121    0.40 6  201 291 
 ZAR  HN ES       2325 52.18                             121    0.48 9  201 291 
 ZAR  HZ I        2325 59.09        46.2 0.43            122            201 291 
 NOR  HZ EP       2325 30.22                             117   -0.44 8  235 234 
 NOR  HE ES       2325 58.13                             117   -0.14 8  235 234 
 NOR  HZ I        2326  0.28        46.0 0.16            118            235 234 
 SML  HZ EP       2325 30.67                             116   -0.45 8  240 335 
 SML  HN ES       2325 58.22                             116   -0.85 8  240 335 
 SML  HZ I        2326  2.51        57.5 0.05            118            240 335 
 CHI  HZ EP       2325 32.67                             115   -0.24 8  251 195 
 CHI  HN ES       2326  1.76                             115   -0.50 8  251 195 
 CHI  HZ I        2326  9.20        12.2 0.24            117            251 195 
 ROSC BZ EP   4   2325 27.19                             115   -6.05 0  255 210 
 ROSC BN ES   4   2326  6.12                             115    3.26 0  255 210 
 ROSC BZ I        2326 10.49        41.8 0.45            116            255 210 
 HEL  HZ EP   1   2325 35.79                             114    0.76 6  271 255 
 HEL  HN ES       2326  5.23                             114   -0.82 8  271 255 
 HEL  HZ I        2326 13.36        35.1 0.28            114            271 255 
 URE  HZ EP       2325 35.54                             113   -0.14 7  281 291 
 URE  HN ES       2326  6.54                             113   -0.66 7  281 291 
 URE  HZ I        2326  8.46        42.5 0.16            113            281 291 
 GUY2CHZ EP       2325 39.28                             111    0.66 7  301 234 
 GUY2CHN ES       2326 11.87                             111   -0.56 7  301 234 
 GUY2CHZ I        2326 19.76        30.6 0.30                           301 234 
 ELA  HZ EP   1   2325 41.90                             109   -0.03 5  330 229 
 ELA  HN ES       2326 19.15                             109    0.83 7  330 229 
 ELA  HZ I        2326 25.42        18.1 0.48            110            330 229 
 CBOC HZ EP   4   2325 43.22                             109    1.40 0  333 251 
 CBOC HE ES       2326 18.51                             109    0.38 7  333 251 
 DBB  SZ EP       2325 42.94                             108    0.71 7  337 274 
 DBB  SZ ES       2326 18.38                             108   -0.48 7  337 274 
 MON  HZ EP   9   2325 41.89                             108   -1.71 0  350 308 
 MON  HN ES       2326 19.36                             108   -0.23 6  350 308 
 MON  HZ I        2326 22.09        11.9 0.18            109            350 308 
 ANIL HZ EP       2325 45.46                             107    0.52 6  358 224 
 ANIL HN ES       2326 24.30                             107    0.61 6  358 224 
 ANIL HZ I        2326 30.02        36.3 0.68            108            358 224 
 ORTC HZ EP   1   2325 49.79                             105    0.64 4  397 216 
 ORTC HN ES       2326 30.43                             105   -0.75 6  397 216 
 ORTC HZ I        2326 35.96        10.8 0.62            106            397 216 
 SJC  HZ EP   4   2325 48.65                             105   -1.52 0  405 327 
 SJC  HE ES   4   2326 29.68                             105   -3.31 0  405 327 
 SJC  HZ I        2326 34.74         7.3 0.52            106            405 327 
 PAL  HZ EP       2325 50.31                             105    0.09 6  406 239 
 PAL  HE ES   4   2326 31.68                             105   -1.40 0  406 239 
 PAL  HZ I        2326 35.36        12.4 0.62            106            406 239 
 CRJC HZ EP   4   2325 55.29                             102   -1.92 0  464   4 
 CRJC HN ES   4   2326 40.05                             102   -5.48 0  464   4 
                                                                                
