 2010  821 2212 30.6 L   6.771 -73.086144.0  RSN  6 0.3 1.6LRSN                1
 GAP=166        0.71       4.5     8.6  8.2 -0.6281E+01 -0.2366E+02 -0.1260E+01E
 Epicentro: LOS SANTOS - SANTANDER                                             3
 ACTION:UP  10-09-07 10:57 OP:vdl  STATUS:               ID:20100821221230 L   I
 2010-08-21-2209-34S.COL___120                                                 6
 STAT SP IPHASW D HRMM SECON CODA AMPLIT PERI AZIMU VELO SNR AR TRES W  DIS CAZ7
 BAR2 SZ EP       2212 49.92                             171     0.010   23 209 
 BAR2 SZ ES   2   2213  5.06                             171     0.0 5   23 209 
 BAR2 SZ I        2213  5.79        12.8 0.23                            23 209 
 GIR2 SZ EP   3   2212 49.94                             165    -0.2 2   36 341 
 GIR2 SZ ES   3   2213  5.26                             165    -0.2 2   36 341 
 BRR  HZ IP     C 2212 51.74                             150    -0.210   79 298 
 BRR  HZ I        2212 52.03        12.6 0.23                            79 298 
 BRR  HN ES   1   2213  8.95                             150     0.3 7   79 298 
 RUS  HZ EP   1   2212 54.13                             145     0.2 7   97 180 
 RUS  HN ES   2   2213 12.03                             145    -0.1 5   97 180 
 RUS  HZ I        2213 13.24         2.6 0.30                            97 180 
 GUE  SZ EP       2212 54.85                             139    -0.410  118   9 
 GRA  SZ EP   1   2212 56.40                             137     0.6 7  127  14 
 GRA  SZ ES   1   2213 15.51                             137     0.1 7  127  14 
 GRA  SZ I        2213 17.44         5.3 0.53                           127  14 
                                                                                
