 2015 1221 2211 54.8 L   6.770 -73.197144.7  RSN  6 0.5 2.0LRSN                1
 GAP=196        1.34       6.8     8.1  9.8  0.2565E+02 -0.1048E+01 -0.2069E+02E
 Epicentro: ZAPATOCA - SANTANDER                                               3
 ACTION:UPD 16-02-04 15:06 OP:cam  STATUS:               ID:20151221221154 L   I
 OLDACT:REG 15-12-22 03:09 OP:ar   STATUS:               ID:20151221220748     3
 2015-12-21-2207-48M.COL___337                                                 6
 STAT SP IPHASW D HRMM SECON CODA AMPLIT PERI AZIMU VELO AIN AR TRES W  DIS CAZ7
 BAR2 EZ EP       2212 14.27                             172    0.0410 19.7 175 
 BAR2 EZ ES       2212 28.69                             172   -0.7010 19.7 175 
 BAR2 EZ I        2212 29.91        28.7 0.14            172           19.7 175 
 BRR  HZ EP       2212 16.03                             153    0.3710 68.1 303 
 BRR  HN ES       2212 32.71                             153    0.7810 68.1 303 
 BRR  HZ I        2212 33.96        20.7 0.44            152           68.1 303 
 RUS  HZ EP       2212 18.54                             144    0.3010 97.8 173 
 RUS  HN ES       2212 36.69                             144    0.1610 97.8 173 
 RUS  HZ I        2212 38.15         9.3 0.42            146           97.8 173 
 PTB  HZ EP       2212 20.96                             133   -0.16 9  142 260 
 PTB  HN ES       2212 40.79                             133   -0.87 9  142 260 
 PTB  HZ I        2212 44.49        11.2 0.16            132            142 260 
 ZAR  HZ EP   4   2212 28.76                             123    1.99 0  200 294 
 ZAR  HN ES       2212 52.46                             123    0.75 9  200 294 
 ZAR  HZ I        2212 55.46         6.6 0.12            123            200 294 
 SML  HZ EP       2212 31.15                             117   -0.30 8  244 337 
 SML  HN ES       2212 59.40                             117   -0.63 8  244 337 
 SML  HZ I        2213  2.94        13.3 0.10            118            244 337 
                                                                                
