 2014  921 2015 26.6 L   6.817 -73.145147.4  RSN  7 0.4 1.6LRSN                1
 GAP=136        1.02       4.4     5.6  7.1  0.4333E+00  0.1245E+02 -0.8153E+01E
 Epicentro: LOS SANTOS - SANTANDER                                             3
 ACTION:UPD 14-10-03 23:07 OP:nd   STATUS:               ID:20140921201526 L   I
 OLDACT:REG 14-09-22 03:12 OP:mh   STATUS:               ID:20140921200816     3
 2014-09-21-2008-16M.COL___287                                                 6
 STAT SP IPHASW D HRMM SECON CODA AMPLIT PERI AZIMU VELO AIN AR TRES W  DIS CAZ7
 BAR2 SZ EP   1   2015 46.89                             170    0.39 7 25.2 189 
 BAR2 SZ ES       2016  2.33                             170    0.3410 25.2 189 
 BAR2 SZ I        2016  3.50        11.3 0.14            170           25.2 189 
 BRR  HZ EP       2015 48.59                             153    0.6710 70.4 297 
 BRR  HN ES   1   2016  4.79                             153    0.28 7 70.4 297 
 BRR  HZ I        2016  6.42         7.2 0.52            149           70.4 297 
 PAM  SZ EP   1   2015 49.67                             152    0.73 7 75.9  40 
 PAM  SN ES       2016  6.02                             152   -0.3110 75.9  40 
 PAM  SZ I        2016  8.79         4.8 0.48            155           75.9  40 
 RUS  HZ EP       2015 50.12                             144   -0.5710  102 176 
 RUS  HN ES       2016  9.07                             144   -0.3710  102 176 
 RUS  HZ I        2016 10.58         2.2 0.22            148            102 176 
 PTB  HZ EP   1   2015 53.88                             132    0.10 7  148 258 
 PTB  HN ES       2016 14.79                             132   -0.16 9  148 258 
 PTB  HZ I        2016 21.89         5.2 0.38            132            148 258 
 ZAR  HZ EP       2015 59.13                             123    0.00 9  203 292 
 ZAR  HN ES   4   2016 27.63                             123    3.17 0  203 292 
 ZAR  HZ I        2016 31.06         4.5 0.36            123            203 292 
 SML  HZ EP       2016  3.11                             118   -0.07 8  242 335 
 SML  HN ES       2016 31.02                             118   -0.66 8  242 335 
 SML  HZ I        2016 38.62         3.6 0.10            119            242 335 
                                                                                
