 2016 1121 2045 36.4 L   6.345 -73.576117.2  RSN  8 0.3 1.9LRSN                1
 GAP=149        0.87       4.6     3.6  6.4 -0.7402E+01  0.6313E+01 -0.3114E+01E
 Epicentro: SANTA HELENA DEL OPON - SANTANDER                                  3
 ACTION:UPD 17-10-26 21:10 OP:lp   STATUS:               ID:20161121204536 L   I
 OLDACT:UP  16-11-22 03:22 OP:and  STATUS:               ID:20161121203746     3
 OLDACT:UP  16-11-22 03:21 OP:and  STATUS:               ID:20161121203746     3
 OLDACT:REG 16-11-22 02:22 OP:and  STATUS:               ID:20161121203746     3
 2016-11-21-2038-00M.COL___349                                                 6
 STAT SP IPHASW D HRMM SECON CODA AMPLIT PERI AZIMU VELO AIN AR TRES W  DIS CAZ7
 BAR2 EZ IP     C 2045 53.74                             154    0.0310 51.4  58 
 BAR2 EZ ES       2046  6.79                             154   -0.4110 51.4  58 
 BAR2 EZ I        2046  8.09        44.5 0.41            154           51.4  58 
 BRR  HZ EP       2045 55.34                             141   -0.2510 85.6 350 
 BRR  HN ES   4   2046 13.14                             141    2.59 0 85.6 350 
 PTB  HZ IP   9 C 2045 55.47                             136   -1.28 0 99.7 283 
 PTB  HN ES       2046 10.69                                   -0.6410 99.7 283 
 PTB  HZ I        2046 12.86        13.8 0.16            135           99.7 283 
 PAM  EZ EP       2046  1.84                             124    0.12 9  147  41 
 PAM  EN ES       2046 21.94                             124    0.48 9  147  41 
 PAM  EZ I        2046 25.98         4.1 0.26            124            147  41 
 NOR  HZ EP       2046  3.29                             120    0.02 9  167 239 
 NOR  HE ES       2046 24.35                             120    0.14 9  167 239 
 NOR  HZ I        2046 25.42         7.6 0.16            120            167 239 
 ZAR  HZ EP       2046  5.64                             116   -0.01 9  190 312 
 ZAR  HE ES       2046 28.77                             116    0.31 9  190 312 
 ZAR  HZ I        2046 33.32        17.9 0.38            116            190 312 
 PRA  HZ EP   9   2046 19.02                             104   -2.13 0  325 207 
 PRA  HN ES       2046 54.29                             105    0.38 7  325 207 
 PRA  HZ I        2046 59.07         2.7 0.30            104            325 207 
 SJC  HZ EP       2046 32.88                              99   -0.88 5  431 336 
 SJC  HN ES   4   2047 14.96                              99   -3.54 0  431 336 
                                                                                
