 2012 1221 2326 51.2 L   6.754 -73.145146.3  RSN  6 0.3 1.6LRSN                1
 GAP=139        0.72       3.7     3.7  4.7 -0.1574E+01  0.1972E+01  0.1967E+01E
 Epicentro: LOS SANTOS - SANTANDER                                             3
 ACTION:UPD 13-01-04 14:29 OP:ep   STATUS:               ID:20121221232651 L   I
 2012-12-21-2320-00M.COL___243                                                 6
 STAT SP IPHASW D HRMM SECON CODA AMPLIT PERI AZIMU VELO AIN AR TRES W  DIS CAZ7
 BAR2 SZ EP       2327 10.94                             172    0.0910 18.4 193 
 BAR2 SZ ES       2327 25.77                             172   -0.3710 18.4 193 
 BAR2 SZ I        2327 28.60         8.2 0.40                          18.4 193 
 GIR2 SZ EP       2327 10.92                             165   -0.2010 36.3 352 
 GIR2 SZ ES       2327 27.00                             165    0.3710 36.3 352 
 BRR  HZ EP       2327 12.83                             152    0.2310 73.8 302 
 BRR  HN ES       2327 29.56                             152    0.3110 73.8 302 
 BRR  HN I        2327 35.97         8.2 0.18                          73.8 302 
 PAM  SZ EP       2327 13.67                             150   -0.0810 81.3  37 
 PAM  SN ES       2327 31.04                             150   -0.2710 81.3  37 
 PAM  SN I        2327 32.25         6.1 0.48                          81.3  37 
 RUS  HZ EP       2327 15.06                             145    0.3710 95.5 176 
 RUS  HN ES       2327 33.01                             145    0.0310 95.5 176 
 RUS  HN I        2327 35.08         3.2 0.14                          95.5 176 
 PTB  HZ EP       2327 17.89                             132   -0.29 9  147 261 
 PTB  HN ES       2327 38.94                             132   -0.25 9  147 261 
 PTB  HN I        2327 44.52        12.4 0.38                           147 261 
                                                                                
