 2012  921 2111 26.5 L   6.758 -73.136150.3  RSN  7 0.3 1.8LRSN                1
 GAP=140        0.61       4.1     3.8  5.7  0.1106E+01  0.2208E+01  0.1013E+01E
 Epicentro: LOS SANTOS - SANTANDER                                             3
 ACTION:UPD 12-10-22 14:20 OP:ep   STATUS:               ID:20120921211126 L   I
 2012-09-21-2110-00M.COL___221                                                 6
 STAT SP IPHASW D HRMM SECON CODA AMPLIT PERI AZIMU VELO AIN AR TRES W  DIS CAZ7
 BAR2 SZ EP   1   2111 46.48                             172   -0.17 7 19.0 196 
 BAR2 SZ ES   1   2112  2.48                             172    0.16 7 19.0 196 
 BAR2 SZ I        2112  4.17        18.9 0.20                          19.0 196 
 GIR2 SZ EP   1   2111 46.98                             166    0.09 7 36.1 350 
 GIR2 SZ ES   1   2112  2.71                             166   -0.05 7 36.1 350 
 BRR  HZ EP   1   2111 48.61                             152    0.24 7 74.4 301 
 BRR  HZ I        2111 48.89        25.5 0.14                          74.4 301 
 BRR  HE ES   1   2112  6.01                             152    0.62 7 74.4 301 
 PAM  SZ EP   1   2111 49.58                             151    0.15 7 80.4  37 
 PAM  SZ I        2111 49.81         6.2 0.22                          80.4  37 
 PAM  SN ES   1   2112  6.77                             151   -0.50 7 80.4  37 
 RUS  HZ EP   1   2111 50.54                             146    0.12 7 95.8 176 
 RUS  HZ I        2111 51.36         3.9 0.21                          95.8 176 
 RUS  HN ES   1   2112  8.94                             146   -0.10 7 95.8 176 
 PTB  HN ES   1   2112 14.84                             133   -0.40 7  148 261 
 ZAR  HN ES   1   2112 25.04                             123   -0.29 6  207 293 
 ZAR  HZ I        2112 31.32        10.3 0.32                           207 293 
                                                                                
