 2017  321 2142 59.9 L   6.771 -73.110144.5  RSN 11 0.2 2.1LRSN                1
 GAP=123        0.52       2.4     3.3  3.2 -0.1263E+01  0.9750E+00  0.2449E+01E
 Epicentro: LOS SANTOS - SANTANDER                                             3
 ACTION:UPD 17-05-25 18:43 OP:jn   STATUS:               ID:20170321214259 L   I
 OLDACT:UP  17-03-22 04:19 OP:edw  STATUS:               ID:20170321213741     3
 OLDACT:REG 17-03-22 02:38 OP:edw  STATUS:               ID:20170321213741     3
 2017-03-21-2138-00M.COL___409                                                 6
 STAT SP IPHASW D HRMM SECON CODA AMPLIT PERI AZIMU VELO AIN AR TRES W  DIS CAZ7
 BAR2 EZ EP       2143 19.20                             171   -0.1510 21.3 202 
 BAR2 EZ ES       2143 34.33                             171   -0.1810 21.3 202 
 BAR2 EZ I        2143 36.95        31.9 0.30            167           21.3 202 
 BRR  HZ EP     D 2143 21.01                             151   -0.2010 76.2 299 
 BRR  HN ES       2143 38.02                             151    0.1910 76.2 299 
 BRR  HZ I        2143 40.73        13.8 0.16            149           76.2 299 
 PAM  EZ EP   2   2143 22.16                             150    0.16 5 77.5  36 
 PAM  EN ES   2   2143 39.57                             150    0.34 5 77.5  36 
 PTB  HZ EP   9   2143 25.99                             131   -1.08 0  151 260 
 PTB  HN ES       2143 46.87                             131   -0.31 9  151 260 
 PTB  HZ I        2143 47.95        10.2 0.16            129            151 260 
 SPBC HZ EP   4   2143 27.06                             129   -1.25 0  163 221 
 SPBC HN ES   4   2143 45.21                             129   -5.26 0  163 221 
 SPBC HZ I        2143 51.61        46.7 0.30            127            163 221 
 ZAR  HZ EP       2143 32.96                             121    0.19 8  209 293 
 ZAR  HN ES   4   2143 56.95                             121   -1.46 0  209 293 
 ZAR  HZ I        2144  3.61         7.0 0.12            121            209 293 
 NOR  HZ EP       2143 35.59                             118   -0.12 8  236 236 
 NOR  HN ES       2144  3.47                             118   -0.17 8  236 236 
 NOR  HZ I        2144 11.00         8.8 0.20            117            236 236 
 CHI  HZ EP     D 2143 37.46                             117    0.14 8  247 196 
 CHI  HE ES       2144  6.86                             117    0.37 8  247 196 
 CHI  HZ I        2144 12.94         4.0 0.32            117            247 196 
 GUY2CHZ EP   4   2143 44.58                             112    0.97 0  303 236 
 GUY2CHN ES   4   2144 19.20                             112    1.50 0  303 236 
 GUY2CHZ  IAML    2144 25.34         4.9 0.28                           303 236 
 PTGC HZ EP   9   2143 42.31                             111   -0.90 0  304 159 
 PTGC HN ES       2144 15.71                             112   -0.37 7  304 159 
 PRA  HZ EP       2143 53.03                             106   -0.26 6  391 210 
 PRA  HN ES       2144 35.02                             106    0.10 6  391 210 
 PRA  HZ I        2144 41.47         4.3 0.40            106            391 210 
                                                                                
