 2011  421 2010 58.2 L   6.794 -73.122145.2  RSN 13 0.3 2.3LRSN                1
 GAP=116        0.77       2.7     4.5  5.3 -0.2889E+01  0.2304E+01  0.1745E+01E
 Epicentro: LOS SANTOS - SANTANDER                                             3
 ACTION:UP  11-06-22 15:32 OP:REBC STATUS:               ID:20110421201058 L   I
 2011-04-21-2009-09S.COL___138                                                 6
 STAT SP IPHASW D HRMM SECON CODA AMPLIT PERI AZIMU VELO SNR AR TRES W  DIS CAZ7
 BAR2 SZ EP       2011 17.79                             170     0.010   23 197 
 BAR2 SZ I        2011 18.26        47.7 0.06                            23 197 
 BAR2 SZ ES   1   2011 33.18                             170     0.1 7   23 197 
 GIR2 SZ EP       2011 18.02                             167     0.110   33 346 
 BRR  HZ IP     C 2011 19.80                             152     0.310   74 298 
 BRR  HE ES   1   2011 36.56                             152     0.5 7   74 298 
 BRR  HZ I        2011 39.48        49.9 0.15                            74 298 
 PAM  SZ EP   1   2011 20.72                             151     0.4 7   76  38 
 PAM  SE ES   2   2011 37.42                             151    -0.1 5   76  38 
 PAM  SZ I        2011 40.30        18.7 0.35                            76  38 
 RUS  HZ EP       2011 21.84                             144     0.010  100 178 
 RUS  HE ES   1   2011 40.13                             144    -0.2 7  100 178 
 RUS  HZ I        2011 43.33        29.7 0.43                           100 178 
 BRI  SZ EP   1   2011 22.49                             141     0.4 7  108  19 
 GRA  SZ EP       2011 23.54                             137     0.110  126  16 
 GRA  SZ ES   1   2011 42.48                             137    -0.6 7  126  16 
 GRA  SZ I        2011 44.45        46.2 0.25                           126  16 
 OCA  SZ EP       2011 26.25                             129    -0.4 9  161 352 
 OCA  SZ ES   1   2011 48.07                             129    -0.7 7  161 352 
 OCA  SZ I        2011 53.00        42.9 0.25                           161 352 
 YOP  SZ EP   1   2011 28.25                             126     0.2 7  177 154 
 YOP  SE ES   2   2011 51.19                             126    -0.1 4  177 154 
 YOP  SZ I        2011 56.27        13.0 0.30                           177 154 
 NOR  SZ EP   1   2011 33.79                             118    -0.3 6  236 235 
 NOR  SN ES   1   2012  1.61                             118    -0.5 6  236 235 
 CHI  HZ EP   1   2011 35.76                             117    -0.2 6  249 196 
 CHI  HZ I        2012 13.63        12.3 0.44                           249 196 
 HEL  HZ EP   2   2011 39.32                             114     0.6 4  274 256 
 HEL  HN ES   2   2012 10.52                             114     0.3 4  274 256 
 HEL  HZ I        2012 16.16        11.9 0.25                           274 256 
 PRA  HZ EP   1   2011 51.95                             106     0.1 4  393 210 
 PRA  HE ES   1   2012 33.17                             106    -0.5 4  393 210 
                                                                                
