 2014  321 2103 28.8 L   6.818 -73.168148.9  RSN  6 0.4 1.6LRSN                1
 GAP=133        0.82       3.8     5.0  7.5 -0.5502E+01  0.1304E+02  0.4758E+01E
 Epicentro: LOS SANTOS - SANTANDER                                             3
 ACTION:UPD 14-04-09 23:19 OP:nd   STATUS:               ID:20140321210328 L   I
 OLDACT:DUP 14-03-21 21:59 OP:nd   STATUS:               ID:20140321210045d    3
 2014-03-21-2100-44M.COL___246                                                 6
 STAT SP IPHASW D HRMM SECON CODA AMPLIT PERI AZIMU VELO AIN AR TRES W  DIS CAZ7
 BRR  HZ EP       21 3 50.71                             154    0.5710 68.1 298 
 BRR  HN ES   2   21 4  7.32                             154    0.54 5 68.1 298 
 BRR  HZ I        21 4 17.74        24.4 0.42            151           68.1 298 
 PAM  SZ EP       21 3 51.35                             151   -0.0310 77.4  42 
 PAM  SN ES       21 4  8.75                             151   -0.2210 77.4  42 
 PAM  SZ I        21 4 13.53         5.4 0.64            158           77.4  42 
 RUS  HZ EP       21 3 53.02                             144   -0.0210  103 175 
 RUS  HN ES       21 4 11.59                             144   -0.3410  103 175 
 RUS  HZ I        21 4 12.53         2.8 0.28            151            103 175 
 PTB  HZ EP       21 3 55.67                             133   -0.20 9  146 258 
 PTB  HN ES   2   21 4 16.74                             133   -0.23 5  146 258 
 PTB  HZ I        21 4 23.89         5.9 0.38            135            146 258 
 NOR  HZ EP   2   21 4  3.50                             119   -1.15 4  234 234 
 NOR  HN ES       21 4 32.43                             119   -0.17 8  234 234 
 NOR  HZ I        21 4 36.47         3.2 0.20            124            234 234 
 CHI  HZ EP       21 4  6.94                             117    0.10 8  250 195 
 CHI  HN ES       21 4 37.08                             117    0.59 8  250 195 
 CHI  HZ I        21 4 41.90         1.8 0.36            124            250 195 
                                                                                
