 2015  221 2145 32.8 L   6.815 -73.162142.3  RSN 23 0.5 3.2LRSN                1
 GAP= 64        1.76       3.9     4.7  7.7 -0.1652E+01  0.9469E+01  0.4629E+01E
 Epicentro: LOS SANTOS - SANTANDER                                             3
 ACTION:UPD 15-04-30 21:28 OP:nd   STATUS:               ID:20150221214532 L   I
 OLDACT:DUP 15-02-22 07:17 OP:stll STATUS:               ID:20150221213748d    3
 2015-02-21-2137-47M.COL___284                                                 6
 STAT SP IPHASW D HRMM SECON CODA AMPLIT PERI AZIMU VELO AIN AR TRES W  DIS CAZ7
 BAR2 EZ IP     C 2145 52.31                             169    0.3110 24.8 185 
 BAR2 EZ ES       2146  6.71                             169   -0.3010 24.8 185 
 BAR2 EZ I        2146  8.75       371.8 0.18            169           24.8 185 
 BRR  HZ IP     D 2145 54.15                             153    0.7510 68.8 298 
 BRR  HN ES       2146 10.49                             153    1.0010 68.8 298 
 BRR  HZ I        2146 13.79       150.6 0.22            146           68.8 298 
 PAM  SZ IP     D 2145 55.02                             150    0.4210 77.3  41 
 PAM  SZ I        2145 55.37       256.9 0.22            147           77.3  41 
 PAM  SE ES       2146 11.79                             150    0.1610 77.3  41 
 RUS  HZ IP     C 2145 56.19                             142   -0.1110  102 175 
 RUS  HZ I        2145 57.14       107.3 0.48            140            102 175 
 RUS  HE ES       2146 14.27                             142   -0.4010  102 175 
 PTB  HZ EP       2145 58.93                             131   -0.38 9  146 258 
 PTB  HN ES       2146 19.66                             131   -0.37 9  146 258 
 PTB  HZ I        2146 27.54       173.7 0.38            126            146 258 
 TAM  HZ EP       2146  0.47                             129    0.10 9  157 105 
 TAM  HZ I        2146 21.21        77.6 0.38            126            157 105 
 TAM  HN ES       2146 21.60                             129   -0.30 9  157 105 
 OCA  HZ EP       2146  0.52                             129   -0.10 9  158 354 
 OCA  HN ES       2146 22.04                             129   -0.31 9  158 354 
 OCA  HZ I        2146 28.56       118.3 0.30            123            158 354 
 SPBC HZ EP       2146  1.25                             128    0.24 9  163 218 
 SPBC HN ES       2146 22.85                             128   -0.20 9  163 218 
 SPBC HZ I        2146 27.28       209.7 0.66            123            163 218 
 ZAR  HZ EP       2146  4.87                             122    0.13 9  202 292 
 ZAR  HE ES       2146 30.15                             122    0.47 9  202 292 
 ZAR  HZ I        2146 35.72       151.6 0.32            116            202 292 
 NOR  HZ EP       2146  8.09                             118   -0.14 8  234 234 
 NOR  HN ES       2146 36.18                             118    0.27 8  234 234 
 NOR  HZ I        2146 41.68       116.6 0.38            113            234 234 
 SML  HZ EP       2146  8.69                             117   -0.25 8  241 336 
 SML  HN ES       2146 36.17                             117   -0.99 8  241 336 
 SML  HZ I        2146 41.44        81.4 0.36            112            241 336 
 CHI  HZ EP     D 2146 10.37                             116   -0.02 8  250 195 
 CHI  HN ES       2146 38.98                             116   -0.77 8  250 195 
 CHI  HZ I        2146 45.10        68.3 0.24            112            250 195 
 ROSC BZ EP       2146 11.76                             116    1.01 8  253 210 
 ROSC BE ES       2146 40.55                             116    0.17 8  253 210 
 ROSC BZ I        2146 49.88       243.3 0.35            112            253 210 
 GUY2CHZ EP       2146 16.31                             111    0.16 7  301 234 
 GUY2CHE ES       2146 49.95                             111   -0.05 7  301 234 
 GUY2CHZ I        2146 58.65       130.2 0.40                           301 234 
 PTGC HZ EP   9   2146 15.14                             111   -1.57 0  311 158 
 PTGC HZ I        2146 15.79       222.3 0.16            107            311 158 
 PTGC HN ES       2146 47.77                                   -1.66 7  311 158 
 CBOC HZ EP       2146 19.14                             109   -0.25 7  332 252 
 CBOC HE ES       2146 54.82                             109   -0.95 7  332 252 
 CBOC HZ I        2147 10.86        30.7 0.42            105            332 252 
 DBB  SZ EP       2146 19.83                             109   -0.04 7  338 274 
 DBB  SZ I        2146 58.94       185.5 0.58            105            338 274 
 MON  HZ EP   9   2146 19.54                             108   -1.80 0  351 308 
 MON  HN ES       2146 57.15                                   -0.28 6  351 308 
 MON  HZ I        2147 13.19        30.6 0.58            104            351 308 
 ARGC HZ EP   9   2146 22.05                             108    0.03 0  357 341 
 ARGC HN ES       2146 59.13                                   -1.35 6  357 341 
 ARGC HZ I        2147  8.69        28.9 0.26            104            357 341 
 PRA  HZ EP       2146 25.74                             106   -0.49 6  393 209 
 PRA  HE ES       2147  7.61                             106   -0.33 6  393 209 
 PRA  HZ I        2147 14.70       101.5 0.28            102            393 209 
 ORTC HZ EP       2146 26.22                             106   -0.37 6  396 216 
 ORTC HN ES       2147  9.29                             106    0.70 6  396 216 
 ORTC HZ I        2147 15.35        63.9 0.44            102            396 216 
 CRJC HZ EP   9   2146 32.77                             103   -2.20 0  466   4 
 CRJC HE ES       2147 16.07                                   -5.23 5  466   4 
 CRJC HZ I        2147 28.58        18.8 0.16            100            466   4 
 SMAR HZ EP   9   2146 37.34                             102   -0.95 0  495 346 
 SMAR HZ I        2146 37.88        18.5 0.18             99            495 346 
 SMAR HN ES       2147 24.73                                   -3.73 4  495 346 
                                                                                
