 2014  121 2100 53.8 L   6.062 -73.732113.3  RSN  8 0.5 2.0LRSN                1
 GAP= 75        1.26       3.5     4.2  8.2 -0.2228E+00  0.7024E+01 -0.8475E+00E
 Epicentro: BOLIVAR - SANTANDER                                                3
 ACTION:UPD 14-03-13 09:57 OP:ep   STATUS:               ID:20140121210053 L   I
 OLDACT:REG 14-01-21 23:18 OP:carl STATUS:               ID:20140121210000     3
 2014-01-21-2100-00M.COL___279                                                 6
 STAT SP IPHASW D HRMM SECON CODA AMPLIT PERI AZIMU VELO AIN AR TRES W  DIS CAZ7
 SPBC HZ EP       21 1 11.29                             151    0.4410 58.9 220 
 SPBC HN ES       21 1 24.88                             151    0.7010 58.9 220 
 SPBC HZ I        21 1 26.74        30.6 0.14            151           58.9 220 
 RUS  HZ IP     D 21 1 12.40                             145   -0.0310 74.3 105 
 RUS  HN ES       21 1 26.98                             145   -0.0010 74.3 105 
 RUS  HZ I        21 1 28.11         9.0 0.28            148           74.3 105 
 BAR2 SZ EP       21 1 13.17                             141    0.3410 84.5  46 
 BAR2 SZ ES       21 1 27.70                             141    0.0110 84.5  46 
 BAR2 SZ I        21 1 28.66        69.7 0.12            144           84.5  46 
 PTB  HZ EP       21 1 12.70                             137   -0.7410 95.9 303 
 PTB  HN ES       21 1 27.91                             137   -0.8810 95.9 303 
 PTB  HZ I        21 1 31.21        12.6 0.10            139           95.9 303 
 BRR  HZ EP       21 1 14.48                             131   -0.6710  116   1 
 BRR  HN ES       21 1 31.99                             131    0.1610  116   1 
 BRR  HZ I        21 1 34.90        17.7 0.20            134            116   1 
 NOR  HZ EP       21 1 17.71                             126    0.39 9  137 246 
 NOR  HN ES       21 1 35.57                             126   -0.12 9  137 246 
 NOR  HZ I        21 1 38.45        21.8 0.40            127            137 246 
 CHI  HZ EP       21 1 19.81                             122   -0.11 9  158 180 
 CHI  HN ES       21 1 39.85                             122   -0.47 9  158 180 
 CHI  HZ I        21 1 45.23         4.5 0.22            124            158 180 
 ZAR  HZ EP       21 1 24.64                             115    0.62 9  201 322 
 ZAR  HN ES       21 1 48.21                             115    0.60 9  201 322 
 ZAR  HZ I        21 1 49.54        16.8 0.12            117            201 322 
                                                                                
