 2011  621 2148 29.2 L   6.782 -73.099148.4  RSN  6 0.2 1.6LRSN                1
 GAP=143        0.55       3.1     5.7  5.1 -0.4523E+01 -0.3814E+01 -0.1593E+01E
 Epicentro: LOS SANTOS - SANTANDER                                             3
 ACTION:UP  11-07-14 19:07 OP:ep   STATUS:               ID:20110621214829 L   I
 2011-06-21-2140-00M.COL___126                                                 6
 STAT SP IPHASW D HRMM SECON CODA AMPLIT PERI AZIMU VELO SNR AR TRES W  DIS CAZ7
 BAR2 SZ EP   1   2148 48.94                             171    -0.2 8   23 204 
 BAR2 SZ ES   1   2149  4.42                             171    -0.3 8   23 204 
 BAR2 SZ I        2149  5.71        16.2 0.20                            23 204 
 PAM  SZ EP   1   2148 51.85                             152     0.2 8   76  36 
 PAM  SN ES   1   2149  8.91                             152    -0.2 8   76  36 
 PAM  SZ I        2149 11.17         3.8 0.44                            76  36 
 BRR  HZ EP   1   2148 50.75                             151    -0.2 8   77 298 
 BRR  HN ES   1   2149  8.14                             151     0.2 8   77 298 
 RUS  HZ EP   1   2148 52.88                             145    -0.2 8   98 179 
 RUS  HE ES   1   2149 12.07                             145     0.4 8   98 179 
 RUS  HZ I        2149 14.48         3.6 0.35                            98 179 
 BRI  SZ EP   2   2148 53.53                             142     0.2 5  109  18 
 GRA  SZ EP       2148 54.79                             137     0.110  126  15 
 GRA  SZ ES   1   2149 14.69                             137     0.1 7  126  15 
 GRA  SZ I        2149 15.99         8.6 0.22                           126  15 
                                                                                
