 2011 1221 2301 51.5 L   6.754 -73.164147.7  RSN  5 0.4 1.4LRSN                1
 GAP=180        0.60       6.9     7.4  7.4  0.2055E+02  0.7119E+00  0.1149E+02E
 Epicentro: LOS SANTOS - SANTANDER                                             3
 ACTION:UPD 12-07-13 16:17 OP:ep   STATUS:               ID:20111221230151 L   I
 2011-12-21-2300-00M.COL___191                                                 6
 STAT SP IPHASW D HRMM SECON CODA AMPLIT PERI AZIMU VELO AIN AR TRES W  DIS CAZ7
 BAR2 SZ EP   1   23 2 11.16                             173   -0.07 7 17.9 186 
 BAR2 SZ ES   2   23 2 26.58                             173   -0.06 5 17.9 186 
 GIR2 SZ EP   2   23 2 10.86                             166   -0.64 5 36.1 355 
 GIR2 SZ ES   2   23 2 26.85                             166   -0.28 5 36.1 355 
 BRR  HZ EP   1   23 2 12.81                             153   -0.06 7 72.1 303 
 BRR  HN ES   1   23 2 30.01                             153    0.45 7 72.1 303 
 RUS  HZ EP   1   23 2 15.55                             146    0.50 7 95.6 175 
 RUS  HZ I        23 2 15.77         4.4 0.16                          95.6 175 
 RUS  HN ES   2   23 2 33.10                             146   -0.35 5 95.6 175 
 PTB  HZ EP   2   23 2 18.13                             133   -0.19 5  145 261 
 PTB  HN ES   2   23 2 38.87                             133   -0.41 5  145 261 
                                                                                
