 2014  921 2358 30.2 L   6.771 -73.165146.1  RSN  7 0.3 1.4LRSN                1
 GAP=135        0.79       3.4     3.9  6.4 -0.1607E+01  0.2710E+01  0.1512E+01E
 Epicentro: LOS SANTOS - SANTANDER                                             3
 ACTION:UPD 14-10-03 23:07 OP:nd   STATUS:               ID:20140921235830 L   I
 OLDACT:UP  14-09-22 04:49 OP:mh   STATUS:               ID:20140921234817     3
 OLDACT:REG 14-09-22 03:19 OP:mh   STATUS:               ID:20140921234817     3
 2014-09-21-2348-17M.COL___275                                                 6
 STAT SP IPHASW D HRMM SECON CODA AMPLIT PERI AZIMU VELO AIN AR TRES W  DIS CAZ7
 BAR2 SZ EP       2358 49.33                             172   -0.4410 19.9 185 
 BAR2 SZ I        2359  5.98         5.4 0.14            169           19.9 185 
 BRR  HZ EP       2358 51.82                             153    0.4810 70.9 302 
 BRR  HN ES       2359  8.30                             153    0.4510 70.9 302 
 BRR  HZ I        2359 10.45         6.6 0.14            154           70.9 302 
 PAM  SZ EP     C 2358 52.77                             150    0.1210 81.2  39 
 PAM  SN ES       2359  9.91                             150   -0.2710 81.2  39 
 PAM  SZ I        2359 11.89         4.0 0.50            150           81.2  39 
 RUS  HZ EP       2358 53.79                             145    0.0510 97.6 175 
 RUS  HN ES       2359 12.19                             145    0.0610 97.6 175 
 RUS  HZ I        2359 13.39         2.0 0.26            142           97.6 175 
 PTB  HZ EP       2358 56.80                             133   -0.12 9  145 260 
 PTB  HN ES       2359 17.42                             133   -0.36 9  145 260 
 PTB  HZ I        2359 19.78         3.7 0.18            132            145 260 
 SPBC HZ EP   1   2358 58.70                             130    0.37 7  159 219 
 SPBC HN ES   1   2359 20.13                             130   -0.17 7  159 219 
 SPBC HZ I        2359 26.57         3.3 0.36            128            159 219 
 SML  HN ES   1   2359 35.42                             117   -0.36 6  246 336 
                                                                                
