 2017 1021 2154 54.3 L   6.764 -73.107  4.0  RSN  5 0.4 1.2LRSN                1
 GAP=143        1.13       2.3     2.9  6.5 -0.9304E+00  0.2646E+01  0.5184E+00E
 Epicentro: LOS SANTOS - SANTANDER                                             3
 ACTION:UPD 17-11-07 19:34 OP:rebc STATUS:               ID:20171021215454 L   I
 OLDACT:UP  17-10-22 05:59 OP:mg   STATUS:               ID:20171021214327     3
 OLDACT:REG 17-10-22 03:35 OP:mg   STATUS:               ID:20171021214327     3
 2017-10-21-2148-00M.COL___419                                                 6
 STAT SP IPHASW D HRMM SECON CODA AMPLIT PERI AZIMU VELO AIN AR TRES W  DIS CAZ7
 BAR2 EZ IP     C 2154 58.05                              47   -0.2010 20.7 204 
 BAR2 EZ ES       2155  0.62                              47   -0.7310 20.7 204 
 BAR2 EZ I        2155  1.98        71.9 0.24             95           20.7 204 
 BRR  HZ EP       2155  7.09                              47    0.5810 76.9 300 
 BRR  HN ES       2155 15.90                              47   -0.1610 76.9 300 
 BRR  HZ I        2155 18.18        16.6 0.47             47           76.9 300 
 PAM  EZ EP       2155  7.27                              47    0.0910 78.0  35 
 PAM  EN ES       2155 16.78                              47   -0.4710 78.0  35 
 PAM  EZ I        2155 17.55        13.4 0.24             47           78.0  35 
 RUS  HZ EP       2155 10.58                              47    0.6010 96.4 178 
 RUS  HN ES       2155 22.40                              47    0.1710 96.4 178 
 RUS  HZ I        2155 24.31         3.7 0.17             47           96.4 178 
 PTB  HZ EP       2155 18.20                              47    0.41 9  151 261 
 PTB  HZ ES       2155 35.87                              47   -0.27 9  151 261 
 PTB  HZ I        2155 38.44         1.6 0.18             47            151 261 
                                                                                
