 2011  721 2142 16.2 L   7.585 -73.228134.7  RSN  5 0.1 1.9LRSN                1
 GAP=189        0.34       3.4     3.8  4.5 -0.7885E+01  0.6898E+01 -0.4043E+01E
 Epicentro: EL PLAYON - SANTANDER                                              3
 ACTION:UPD 12-07-25 14:02 OP:epov STATUS:               ID:20110721214216 L   I
 2011-07-21-2140-34S.COL___143                                                 6
 STAT SP IPHASW D HRMM SECON CODA AMPLIT PERI AZIMU VELO AIN AR TRES W  DIS CAZ7
 BRI  SZ EP   1   2142 35.52                             159    0.20 7 49.7  73 
 BRI  SZ ES   1   2142 50.37                             159    0.16 7 49.7  73 
 BRI  SZ I        2142 52.46        15.6 0.39                          49.7  73 
 GRA  SZ EP   1   2142 35.46                             156   -0.19 7 57.3  55 
 GRA  SZ ES   1   2142 50.72                             156   -0.08 7 57.3  55 
 GRA  SZ I        2142 51.21        26.4 0.26                          57.3  55 
 PAM  SN ES   1   2142 52.24                             153   -0.08 7 64.3 115 
 PAM  SZ I        2142 54.27        11.0 0.36                          64.3 115 
 BRR  HZ EP   1   2142 36.45                             149    0.01 7 75.2 225 
 BRR  HN ES   1   2142 52.18                             149   -0.02 7 75.2 225 
 BRR  HZ I        2143  7.77        21.4 0.38                          75.2 225 
 BAR2 SZ ES   1   2142 57.27                             139    0.00 7  110 177 
                                                                                
