 2017 1121 2238 20.2 L   6.793 -73.144137.6  RSN  4 0.3 1.4LRSN                1
 GAP=137        0.77       4.0     3.7  8.6 -0.4426E+00  0.1167E+02 -0.4035E+00E
 Epicentro: LOS SANTOS - SANTANDER                                             3
 ACTION:UPD 17-12-12 19:58 OP:rebc STATUS:               ID:20171121223820 L   I
 OLDACT:DUP 17-11-22 05:18 OP:lv   STATUS:               ID:20171121221739d    3
 2017-11-21-2228-00M.COL___483                                                 6
 STAT SP IPHASW D HRMM SECON CODA AMPLIT PERI AZIMU VELO AIN AR TRES W  DIS CAZ7
 PAM  EZ EP       2238 41.58                             149    0.0410 77.9  39 
 PAM  EE ES       2238 58.10                             149   -0.1210 77.9  39 
 PAM  EZ I        2239  0.49         4.3 0.60            149           77.9  39 
 RUS  HZ EP       2238 42.80                             142   -0.2510 99.7 176 
 RUS  HN ES       2239  1.25                             142    0.3410 99.7 176 
 PTB  HZ EP       2238 46.59                             130    0.11 9  148 259 
 PTB  HE ES       2239  6.51                             130   -0.50 9  148 259 
 PTB  HZ I        2239  8.23         1.9 0.50            131            148 259 
 ZAR  HE ES       2239 17.53                             120    0.45 9  205 292 
 ZAR  HZ I        2239 23.38         4.4 0.32            121            205 292 
                                                                                
