 2017 1021 2218 52.2 L   6.757 -73.155144.6  RSN  7 0.4 1.6LRSN                1
 GAP=137        0.88       4.1     3.6  6.8 -0.9669E+00  0.5733E+01  0.4321E+01E
 Epicentro: LOS SANTOS - SANTANDER                                             3
 ACTION:UPD 17-11-07 19:34 OP:rebc STATUS:               ID:20171021221852 L   I
 OLDACT:UP  17-10-22 06:43 OP:mg   STATUS:               ID:20171021220620     3
 OLDACT:UP  17-10-22 06:38 OP:mg   STATUS:               ID:20171021220620     3
 OLDACT:UP  17-10-22 06:38 OP:mg   STATUS:               ID:20171021220620     3
 OLDACT:REG 17-10-22 03:42 OP:mg   STATUS:               ID:20171021220620     3
 2017-10-21-2208-00M.COL___410                                                 6
 STAT SP IPHASW D HRMM SECON CODA AMPLIT PERI AZIMU VELO AIN AR TRES W  DIS CAZ7
 BAR2 EZ EP       2219 11.29                             172   -0.3110 18.5 189 
 BAR2 EZ ES   2   2219 26.46                             172   -0.28 5 18.5 189 
 BAR2 EZ I        2219 27.87         9.3 0.19            172           18.5 189 
 BRR  HZ EP       2219 13.49                             152    0.1810 72.7 302 
 BRR  HN ES       2219 29.87                             152    0.0910 72.7 302 
 BRR  HZ I        2219 32.74         9.0 0.28            152           72.7 302 
 PAM  EZ IP     D 2219 14.73                             149    0.1710 81.7  38 
 PAM  EN ES       2219 31.94                             149   -0.0610 81.7  38 
 PAM  EZ I        2219 34.17         4.2 0.27            152           81.7  38 
 RUS  HZ EP       2219 15.74                             145    0.2410 95.9 175 
 RUS  HE ES       2219 33.80                             145    0.1210 95.9 175 
 RUS  HZ I        2219 35.16         8.3 0.31            146           95.9 175 
 PTB  HZ EP       2219 18.44                             132   -0.46 9  146 261 
 PTB  HN ES       2219 39.10                             132   -0.63 9  146 261 
 PTB  HZ I        2219 40.03         3.1 0.18            133            146 261 
 ZAR  HZ EP   4   2219 27.90                             122    3.24 0  205 293 
 ZAR  HE ES       2219 50.46                             122    0.48 9  205 293 
 ZAR  HZ I        2219 52.43         5.4 0.11            123            205 293 
 NOR  HZ EP   1   2219 26.99                             119   -0.49 6  231 235 
 NOR  HN ES       2219 55.65                             119    0.65 8  231 235 
 NOR  HZ I        2220  0.49         1.7 0.16            120            231 235 
                                                                                
