 2015  321 2107 27.1 L   6.800 -73.109149.7  RSN 10 0.3 1.7LRSN                1
 GAP=141        0.71       2.9     3.5  5.3  0.5133E-01  0.4774E+01  0.1311E+01E
 Epicentro: LOS SANTOS - SANTANDER                                             3
 ACTION:UPD 15-04-30 16:28 OP:nd   STATUS:               ID:20150321210727 L   I
 OLDACT:DUP 15-03-22 06:45 OP:spq  STATUS:               ID:20150321205749d    3
 2015-03-21-2057-48M.COL___276                                                 6
 STAT SP IPHASW D HRMM SECON CODA AMPLIT PERI AZIMU VELO AIN AR TRES W  DIS CAZ7
 BAR2 EZ EP       21 7 47.23                             170    0.0110 24.3 199 
 BAR2 EZ ES   1   21 8  2.42                             170   -0.49 7 24.3 199 
 BAR2 EZ I        21 8  3.28         8.1 0.23            168           24.3 199 
 BRR  HZ EP       21 7 49.05                             152    0.1810 74.8 297 
 BRR  HN ES       21 8  6.33                             152    0.4810 74.8 297 
 BRR  HZ I        21 8 11.07         7.4 0.26            149           74.8 297 
 PAM  SZ EP       21 7 49.84                             152    0.2510 74.9  37 
 PAM  SN ES       21 8  7.20                             152    0.0710 74.9  37 
 PAM  SZ I        21 8  9.29         7.1 0.46            157           74.9  37 
 RUS  HZ EP       21 7 51.11                             145   -0.1010  100 178 
 RUS  HN ES       21 8  9.78                             145   -0.2510  100 178 
 RUS  HZ I        21 8 10.85         4.3 0.34            147            100 178 
 PTB  HN ES   4   21 8 14.98                             132   -1.32 0  152 259 
 PTB  HZ I        21 8 20.66         8.9 0.42            132            152 259 
 SPBC HZ EP   1   21 7 56.02                             129   -0.11 7  166 220 
 SPBC HE ES   1   21 8 18.99                             129    0.21 7  166 220 
 SPBC HZ I        21 8 25.32        12.6 0.30            130            166 220 
 ZAR  HN ES       21 8 25.63                             123   -0.36 8  208 292 
 ZAR  HZ I        21 8 31.48         4.9 0.50            123            208 292 
 NOR  HE ES   1   21 8 31.99                             119    0.27 6  238 235 
 NOR  HZ I        21 8 34.73         6.5 0.18            120            238 235 
 SML  HE ES   1   21 8 32.20                             118   -0.82 6  245 334 
 GUY2CHZ EP   1   21 8 11.40                             113    0.15 5  304 235 
 GUY2CHN ES   4   21 8 46.91                             113    1.21 0  304 235 
 GUY2CHZ I        21 8 54.24         3.2 0.28                           304 235 
                                                                                
