 2017 1021 2107 54.2 L   6.658 -74.064 10.9  RSN  9 0.5 2.2LRSN                1
 GAP= 82        1.35       2.6     2.3  7.0 -0.4306E+00 -0.3208E+01 -0.1341E+01E
 Epicentro: PUERTO PARRA - SANTANDER                                           3
 ACTION:UPD 17-11-07 19:34 OP:rebc STATUS:               ID:20171021210754 L   I
 OLDACT:UP  17-10-22 05:51 OP:mg   STATUS:               ID:20171021205221     3
 OLDACT:UP  17-10-22 05:50 OP:mg   STATUS:               ID:20171021205221     3
 OLDACT:UP  17-10-22 05:50 OP:mg   STATUS:               ID:20171021205221     3
 OLDACT:REG 17-10-22 03:11 OP:mg   STATUS:               ID:20171021205221     3
 2017-10-21-2058-00M.COL___417                                                 6
 STAT SP IPHASW D HRMM SECON CODA AMPLIT PERI AZIMU VELO AIN AR TRES W  DIS CAZ7
 PTB  HZ IP     D 21 8  1.44                             100   -0.3410 45.3 253 
 PTB  HN ES       21 8  7.14                             100   -0.5410 45.3 253 
 PTB  HZ I        21 8  7.41       144.2 0.18             97           45.3 253 
 BRR  HZ EP     D 21 8  4.64                              97    0.2210 63.1  38 
 BRR  HN ES       21 8 13.08                              97    0.6910 63.1  38 
 BRR  HZ I        21 8 13.53        80.2 0.12             95           63.1  38 
 BAR2 EZ IP     D 21 8  9.92                              94    0.0210 97.7  94 
 BAR2 EZ ES       21 8 21.54                              94   -0.6010 97.7  94 
 SPBC HZ EP       21 8 12.39                              94    0.6010  111 180 
 SPBC HN ES       21 8 25.99                              94    0.5010  111 180 
 SPBC HZ I        21 8 28.12        49.9 0.09             93            111 180 
 ZAR  HZ EP       21 8 14.03                              93   -0.1010  127 316 
 ZAR  HN ES       21 8 29.29                              93   -0.3810  127 316 
 ZAR  HZ I        21 8 31.35        40.9 0.10             92            127 316 
 RUS  HZ EP       21 8 16.34                              93    0.14 9  138 128 
 RUS  HE ES       21 8 32.42                              93   -0.92 9  138 128 
 RUS  HZ I        21 8 36.50        78.2 0.22             92            138 128 
 NOR  HZ EP       21 8 18.15                              93    0.49 9  150 216 
 NOR  HN ES   4   21 8 34.22                              93   -1.73 0  150 216 
 NOR  HZ I        21 8 37.21        16.1 0.12             92            150 216 
 PAM  EZ EP       21 8 21.41                              56    0.88 9  169  63 
 PAM  EN ES       21 8 40.41                              56   -0.65 9  169  63 
 PAM  EZ I        21 8 43.54        26.6 0.38             56            169  63 
 GUY2CHZ EP   4   21 8 27.18                              56    0.95 0  214 222 
 GUY2CHN ES   1   21 8 51.25                              56    0.05 6  214 222 
 GUY2CHZ I        21 8 55.16        18.8 0.36                           214 222 
 CHI  HZ EP   9   21 8 32.71                              56    4.92 0  227 171 
 CHI  HN ES   4   21 8 58.48                              56   -0.42 0  227 171 
                                                                                
