 2011  621 2244 41.5 L   6.792 -73.109145.3  RSN  6 0.3 1.9LRSN                1
 GAP=142        0.63       3.4     6.3  6.8  0.6885E+00  0.6974E-01 -0.2763E+01E
 Epicentro: LOS SANTOS - SANTANDER                                             3
 ACTION:UP  11-07-14 19:07 OP:ep   STATUS:               ID:20110621224441 L   I
 2011-06-21-2239-30S.COL___140                                                 6
 STAT SP IPHASW D HRMM SECON CODA AMPLIT PERI AZIMU VELO SNR AR TRES W  DIS CAZ7
 BAR2 SZ EP   1   2245  0.72                             170    -0.3 7   23 200 
 BAR2 SZ ES   2   2245 16.16                             170    -0.1 5   23 200 
 BAR2 SZ I        2245 17.00        25.0 0.36                            23 200 
 BRR  HZ EP       2245  2.71                             151    -0.110   75 298 
 BRR  HZ I        2245  2.94        39.5 0.10                            75 298 
 BRR  HN ES   1   2245 19.66                             151     0.2 7   75 298 
 PAM  SZ EP   2   2245  3.95                             151     0.4 5   76  37 
 PAM  SN ES   2   2245 21.24                             151     0.5 5   76  37 
 RUS  HZ EP   1   2245  5.09                             144     0.0 7   99 178 
 RUS  HN ES   1   2245 23.44                             144    -0.1 7   99 178 
 RUS  HZ I        2245 25.31         5.7 0.46                            99 178 
 OCA  SZ EP   1   2245 10.21                             129     0.3 7  162 352 
 OCA  SZ ES   1   2245 31.54                             129    -0.5 7  162 352 
 OCA  SZ I        2245 39.64         6.9 0.23                           162 352 
 NOR  SN ES   2   2245 45.89                             118     0.3 4  237 235 
                                                                                
