 2016 1121 2028 13.3 L   6.776 -73.123145.1  RSN 10 0.4 2.1LRSN                1
 GAP=159        0.84       3.2     3.7  4.8 -0.2424E+01  0.2910E+01  0.3972E+01E
 Epicentro: LOS SANTOS - SANTANDER                                             3
 ACTION:UPD 17-10-26 21:10 OP:lp   STATUS:               ID:20161121202813 L   I
 OLDACT:UP  16-11-22 03:09 OP:and  STATUS:               ID:20161121201748     3
 OLDACT:UP  16-11-22 03:05 OP:and  STATUS:               ID:20161121201748     3
 OLDACT:REG 16-11-22 02:20 OP:and  STATUS:               ID:20161121201748     3
 2016-11-21-2018-00M.COL___349                                                 6
 STAT SP IPHASW D HRMM SECON CODA AMPLIT PERI AZIMU VELO AIN AR TRES W  DIS CAZ7
 BAR2 EZ EP     C 2028 32.75                             171   -0.1010 21.4 198 
 BAR2 EZ ES       2028 48.15                             171    0.0910 21.4 198 
 BAR2 EZ I        2028 50.56        41.2 0.32            168           21.4 198 
 BRR  HZ IP     D 2028 34.59                             151   -0.0210 74.7 299 
 BRR  HN ES       2028 51.46                             151    0.2610 74.7 299 
 BRR  HZ I        2028 55.55        29.2 0.42            151           74.7 299 
 PAM  EZ EP       2028 35.37                             150   -0.1410 77.9  37 
 PAM  EN ES       2028 52.65                             150   -0.1510 77.9  37 
 PAM  EZ I        2028 54.88        16.9 0.56            157           77.9  37 
 PTB  HZ EP   4   2028 39.51                             131   -0.92 0  150 260 
 PTB  HE ES       2029  1.02                             131   -0.54 9  150 260 
 PTB  HZ I        2029  7.75        10.2 0.16            132            150 260 
 ZAR  HZ EP       2028 46.31                             122    0.23 8  207 293 
 ZAR  HE ES       2029 12.35                             122    0.73 8  207 293 
 ZAR  HZ I        2029 16.09         9.6 0.27            123            207 293 
 NOR  HZ EP       2028 48.98                             118   -0.10 8  235 235 
 NOR  HE ES       2029 16.13                             118   -0.83 8  235 235 
 NOR  HZ I        2029 24.70         5.7 0.23            119            235 235 
 CHI  HZ EP       2028 51.03                             117    0.24 8  247 196 
 CHI  HN ES       2029 20.51                             117    0.50 8  247 196 
 CHI  HZ I        2029 23.83         7.2 0.50            119            247 196 
 ROSC BZ EP   9   2028 53.25                             117    1.93 0  252 212 
 ROSC BN ES       2029 22.88                                    0.01 8  252 212 
 ROSC BZ I        2029 26.60        16.9 0.45            118            252 212 
 PRA  HZ EP       2029  7.07                             106    0.36 6  391 210 
 PRA  HN ES       2029 48.44                             106    0.10 6  391 210 
 PRA  HZ I        2029 51.71         6.8 0.30            108            391 210 
 SJC  HZ EP       2029  8.75                             105   -0.55 6  413 327 
 SJC  HN ES   4   2029 50.77                             105   -2.17 0  413 327 
                                                                                
