 2015  321 2158  8.9 L   6.761 -73.116151.2  RSN  6 0.3 1.5LRSN                1
 GAP=142        0.68       3.8     4.3  6.1  0.3240E+00 -0.1040E+01  0.8929E+00E
 Epicentro: LOS SANTOS - SANTANDER                                             3
 ACTION:UPD 15-04-30 16:28 OP:nd   STATUS:               ID:20150321215808 L   I
 OLDACT:DUP 15-03-22 07:53 OP:spq  STATUS:               ID:20150321214748d    3
 2015-03-21-2147-47M.COL___275                                                 6
 STAT SP IPHASW D HRMM SECON CODA AMPLIT PERI AZIMU VELO AIN AR TRES W  DIS CAZ7
 BAR2 EZ EP   1   2158 28.99                             172   -0.09 7 20.0 201 
 BAR2 EZ ES   1   2158 44.86                             172   -0.00 7 20.0 201 
 BAR2 EZ I        2158 46.80         7.4 0.30            168           20.0 201 
 BRR  HZ EP       2158 30.94                             152    0.0610 76.2 300 
 BRR  HE ES       2158 48.46                             152    0.4010 76.2 300 
 BRR  HZ I        2158 51.40        10.5 0.30            148           76.2 300 
 PAM  SZ EP       2158 31.80                             151    0.0610 78.8  36 
 PAM  SN ES   1   2158 49.04                             151   -0.55 7 78.8  36 
 PAM  SZ I        2158 51.22         2.6 0.74            155           78.8  36 
 RUS  HZ EP       2158 33.03                             146    0.1910 96.1 178 
 RUS  HN ES   1   2158 51.64                             146    0.10 7 96.1 178 
 RUS  HZ I        2158 53.04         2.5 0.42            147           96.1 178 
 SPBC HE ES   1   2158 59.60                             130   -0.54 7  162 221 
 SPBC HZ I        2159  5.96         6.5 0.16            130            162 221 
 ZAR  HE ES   1   2159  7.70                             123   -0.41 6  209 293 
 ZAR  HZ I        2159 15.31         3.7 0.30            122            209 293 
                                                                                
