 2016  921 2241 40.8 L   6.796 -73.143145.3  RSN  6 0.5 1.7LRSN                1
 GAP=137        1.14       5.8     5.2  9.0  0.2740E+01  0.8023E+01 -0.3522E+00E
 Epicentro: LOS SANTOS - SANTANDER                                             3
 ACTION:UPD 17-08-17 21:14 OP:lp   STATUS:               ID:20160921224140 L   I
 OLDACT:REG 16-09-22 03:31 OP:dnl  STATUS:               ID:20160921223510     3
 2016-09-21-2238-00M.COL___357                                                 6
 STAT SP IPHASW D HRMM SECON CODA AMPLIT PERI AZIMU VELO AIN AR TRES W  DIS CAZ7
 BAR2 EZ EP   2   2241 59.83                             171   -0.50 5 23.0 191 
 BAR2 EZ ES       2242 15.43                             171   -0.1610 23.0 191 
 BAR2 EZ I        2242 17.09        19.1 0.16            170           23.0 191 
 BRR  HZ EP   2   2242  2.26                             152    0.37 5 71.6 299 
 BRR  HN ES       2242 19.34                             152    0.9810 71.6 299 
 BRR  HZ I        2242 19.77        14.6 0.30            150           71.6 299 
 PAM  EZ EP       2242  3.34                             151    0.4010 77.5  39 
 PAM  EE ES       2242 19.66                             151   -0.5710 77.5  39 
 PAM  EZ I        2242 22.65         9.3 0.52            153           77.5  39 
 RUS  HZ EP       2242  4.41                             144   -0.0310  100 176 
 RUS  HN ES       2242 22.93                             144    0.0310  100 176 
 RUS  HZ I        2242 24.56         3.3 0.20            145            100 176 
 PTB  HZ EP   2   2242  7.45                             132   -0.26 5  148 259 
 PTB  HE ES       2242 28.58                             132   -0.15 9  148 259 
 PTB  HZ I        2242 35.38         4.7 0.18            131            148 259 
 ZAR  HZ EP   2   2242 13.95                             122    0.73 4  204 292 
 ZAR  HN ES       2242 37.75                             122   -0.79 9  204 292 
 ZAR  HZ I        2242 44.52         5.0 0.40            122            204 292 
                                                                                
