 2014  421 2236 16.7 L   6.726 -73.171143.5  RSN  7 0.4 1.9LRSN                1
 GAP=136        1.10       5.0     4.6  8.7 -0.1679E+01  0.1183E+02  0.3249E+01E
 Epicentro: VILLANUEVA - SANTANDER                                             3
 ACTION:UPD 14-05-13 23:10 OP:nd   STATUS:               ID:20140421223616 L   I
 OLDACT:REG 14-04-22 03:50 OP:stll STATUS:               ID:20140421222815     3
 2014-04-21-2228-15M.COL___242                                                 6
 STAT SP IPHASW D HRMM SECON CODA AMPLIT PERI AZIMU VELO AIN AR TRES W  DIS CAZ7
 BRR  HZ EP       2236 38.15                             151    0.4310 73.1 305 
 BRR  HN ES       2236 54.98                             151    0.8710 73.1 305 
 PAM  SZ EP       2236 39.01                             148   -0.1810 85.5  38 
 PAM  SZ I        2236 39.36        20.1 0.24            147           85.5  38 
 PAM  SN ES       2236 56.14                             148   -0.5810 85.5  38 
 RUS  HZ EP       2236 40.09                             146    0.4110 92.7 174 
 RUS  HN ES       2236 57.53                             146   -0.0610 92.7 174 
 PTB  HZ EP       2236 42.95                             132   -0.16 9  144 262 
 PTB  HZ I        2236 45.44         7.9 0.16            130            144 262 
 PTB  HN ES       2237  2.98                             132   -0.73 9  144 262 
 ZAR  HZ EP       2236 49.05                             122   -0.02 9  205 295 
 ZAR  HN ES       2237 14.23                             122   -0.09 9  205 295 
 ZAR  HZ I        2237 20.38         6.9 0.28            120            205 295 
 NOR  HN ES   2   2237 18.57                             119   -0.17 4  228 236 
 GUY2CHN ES       2237 32.77                             112    0.02 7  294 236 
                                                                                
