 2016  221 2151 59.9 L   6.832 -73.207131.3  RSN  6 0.4 1.3LRSN                1
 GAP=128        0.52       5.3     4.9  8.1 -0.9758E+01  0.9854E+01 -0.1227E+02E
 Epicentro: ZAPATOCA - SANTANDER                                               3
 ACTION:UPD 16-03-04 21:28 OP:rebc STATUS:               ID:20160221215159 L   I
 OLDACT:REG 16-02-22 03:38 OP:dnl  STATUS:               ID:20160221214750     3
 2016-02-21-2147-50M.COL___329                                                 6
 STAT SP IPHASW D HRMM SECON CODA AMPLIT PERI AZIMU VELO AIN AR TRES W  DIS CAZ7
 BAR2 EZ EP   2   2152 18.23                             168    0.31 5 26.7 174 
 BAR2 EZ ES   2   2152 31.85                             168   -0.09 5 26.7 174 
 BAR2 EZ I        2152 33.95         6.3 0.15            159           26.7 174 
 BRR  HZ I        2153 14.57         6.3 0.18            142           63.6 299 
 PAM  EZ EP       2152 20.89                             147    0.1210 79.3  45 
 PAM  EN ES   2   2152 36.72                             147   -0.29 5 79.3  45 
 PAM  EZ I        2152 40.42         4.4 0.42            148           79.3  45 
 RUS  HZ EP   2   2152 22.67                             139    0.04 5  105 172 
 RUS  HE ES   2   2152 39.75                             139   -0.58 5  105 172 
 RUS  HZ I        2152 41.57         2.5 0.22            163            105 172 
 PTB  HZ EP   2   2152 25.20                             129   -0.02 5  142 257 
 PTB  HN ES   2   2152 45.49                             129    0.56 5  142 257 
 PTB  HZ I        2152 47.02         1.6 0.13            134            142 257 
 ZAR  HZ EP   3   2152 29.32                             120   -1.36 2  196 292 
 ZAR  HE ES   3   2152 54.02                             120   -0.64 2  196 292 
 ZAR  HZ I        2153  3.07         2.3 0.24            124            196 292 
                                                                                
