 2017  921 2231 25.4 L   6.769 -73.093144.0  RSN  5 0.2 1.6LRSN                1
 GAP=145        0.62       3.3     3.9  5.0 -0.4096E+01  0.4179E+01  0.2451E+00E
 Epicentro: LOS SANTOS - SANTANDER                                             3
 ACTION:UPD 17-10-05 19:14 OP:rebc STATUS:               ID:20170921223125 L   I
 OLDACT:REG 17-09-22 04:42 OP:ndl  STATUS:               ID:20170921222739     3
 2017-09-21-2228-00M.COL___444                                                 6
 STAT SP IPHASW D HRMM SECON CODA AMPLIT PERI AZIMU VELO AIN AR TRES W  DIS CAZ7
 BAR2 EZ EP       2231 44.70                             171   -0.1010 21.9 207 
 BAR2 EZ ES       2231 59.52                             171   -0.4110 21.9 207 
 BAR2 EZ I        2232  1.12        10.5 0.20            167           21.9 207 
 PAM  EZ EP       2231 47.38                             151   -0.0110 76.6  35 
 PAM  EN ES       2232  4.88                             151    0.3410 76.6  35 
 PAM  EZ I        2232  6.87         6.2 0.58            154           76.6  35 
 BRR  HZ IP       2231 46.48                             150   -0.2910 77.9 299 
 BRR  HN ES       2232  3.54                             150    0.1110 77.9 299 
 BRR  HZ I        2232 13.94        14.5 0.38            145           77.9 299 
 RUS  HZ EP   2   2231 48.83                             144    0.10 5 96.9 179 
 RUS  HN ES       2232  7.05                             144    0.1410 96.9 179 
 RUS  HZ I        2232  8.23         3.8 0.24            150           96.9 179 
 NOR  HZ EP   2   2232  1.28                             118   -0.06 4  238 236 
 NOR  HE ES       2232 29.69                             118    0.32 8  238 236 
 NOR  HZ I        2232 33.84         2.2 0.48            120            238 236 
                                                                                
