 2014 1221 2239  5.0 L   6.755 -73.118150.8  RSN  6 0.5 1.6LRSN                1
 GAP=142        1.35       6.5     7.0  9.3 -0.1160E+02  0.9780E+01  0.5641E+01E
 Epicentro: LOS SANTOS - SANTANDER                                             3
 ACTION:UPD 15-02-10 17:06 OP:nd   STATUS:               ID:20141221223905 L   I
 OLDACT:REG 14-12-22 04:00 OP:cam  STATUS:               ID:20141221223817     3
 2014-12-21-2238-17M.COL___290                                                 6
 STAT SP IPHASW D HRMM SECON CODA AMPLIT PERI AZIMU VELO AIN AR TRES W  DIS CAZ7
 BAR2 EZ ES       2239 40.26                             172   -0.6110 19.4 202 
 BAR2 EZ I        2239 41.56        11.4 0.16            172           19.4 202 
 BRR  HZ EP       2239 27.24                             152    0.2810 76.3 301 
 BRR  HN ES       2239 44.77                             152    0.6610 76.3 301 
 BRR  HZ I        2239 46.30         6.2 0.36            153           76.3 301 
 PAM  SZ EP       2239 28.41                             151    0.5610 79.5  36 
 PAM  SN ES       2239 45.10                             151   -0.6010 79.5  36 
 PAM  SZ I        2239 49.43         3.5 0.74            153           79.5  36 
 RUS  HZ EP       2239 28.61                             146   -0.2610 95.5 178 
 RUS  HN ES       2239 48.25                             146    0.7410 95.5 178 
 RUS  HZ I        2239 48.86         4.0 0.24            147           95.5 178 
 PTB  HZ EP       2239 32.67                             133    0.12 9  150 261 
 PTB  HN ES       2239 53.60                             133   -0.46 9  150 261 
 PTB  HZ I        2239 55.32         5.0 0.16            134            150 261 
 SPBC HZ EP       2239 32.99                             130   -0.70 9  161 221 
 SPBC HN ES       2239 56.23                             130    0.14 9  161 221 
 SPBC HZ I        2240  1.76         7.5 0.26            132            161 221 
                                                                                
