 2013  521 2316 39.3 L   6.797 -73.118147.1  RSN 11 0.5 2.4LRSN                1
 GAP=140        1.02       3.5     4.2  6.2 -0.4836E+00  0.7805E+01 -0.9887E+00E
 Epicentro: LOS SANTOS - SANTANDER                                             3
 ACTION:UPD 13-06-20 09:52 OP:ep   STATUS:               ID:20130521231639 L   I
 2013-05-21-2310-00M.COL___259                                                 6
 STAT SP IPHASW D HRMM SECON CODA AMPLIT PERI AZIMU VELO AIN AR TRES W  DIS CAZ7
 BAR2 SZ EP       2316 59.19                             170    0.0610 23.7 197 
 BAR2 SZ ES   1   2317 14.33                             170   -0.24 7 23.7 197 
 BAR2 SZ I        2317 15.74        58.2 0.42            167           23.7 197 
 GIR2 SZ EP       2316 59.21                             167    0.0210 32.3 345 
 GIR2 SZ ES   1   2317 14.55                             167   -0.13 7 32.3 345 
 GIR2 SZ I        2317 16.21        38.5 0.12            165           32.3 345 
 BRR  HZ IP     D 2317  1.00                             152    0.2210 74.0 298 
 BRR  HN ES   1   2317 18.07                             152    0.55 7 74.0 298 
 BRR  HZ I        2317 18.54        44.4 0.12            148           74.0 298 
 PAM  SZ EP       2317  1.97                             151    0.3810 75.8  38 
 PAM  SN ES   1   2317 19.12                             151    0.16 7 75.8  38 
 PAM  SZ I        2317 19.83        34.8 0.20            156           75.8  38 
 RUS  HZ EP   1   2317  3.37                             144    0.20 7  100 178 
 RUS  HN ES       2317 21.47                             144   -0.3010  100 178 
 RUS  HZ I        2317 23.32        36.3 0.28            145            100 178 
 PTB  HZ EP   1 C 2317  5.94                             132   -0.73 7  151 259 
 PTB  HE ES       2317 27.34                             132   -0.65 9  151 259 
 PTB  HZ I        2317 32.49        45.4 0.28            130            151 259 
 ZAR  HZ EP   1   2317 12.41                             122    0.25 6  207 292 
 ZAR  HN ES       2317 38.40                             122    0.62 8  207 292 
 ZAR  HZ I        2317 44.51        42.3 0.78            121            207 292 
 NOR  HZ EP   1   2317 15.46                             118    0.08 6  237 235 
 NOR  HN ES   1   2317 42.50                             118   -1.00 6  237 235 
 NOR  HZ I        2317 51.57        14.7 0.22            118            237 235 
 SML  HZ EP       2317 15.57                             117   -0.63 8  245 335 
 SML  HE ES       2317 44.43                             117   -0.53 8  245 335 
 SML  HZ I        2317 49.98        28.4 0.10            118            245 335 
 CHI  HZ EP   1   2317 16.90                             117   -0.25 6  249 196 
 CHI  HN ES   1   2317 47.57                             117    0.92 6  249 196 
 CHI  HZ I        2317 50.10        14.0 0.38            118            249 196 
 HEL  HZ EP   1   2317 19.96                             115    0.04 6  275 256 
 HEL  HN ES       2317 52.47                             115    0.88 8  275 256 
 HEL  HZ I        2317 58.58        19.3 0.38            114            275 256 
                                                                                
