 2011 1021 2233  2.1 L   6.791 -73.111151.4  RSN  4 0.3 1.4LRSN                1
 GAP=141        0.49       5.2     6.2  6.9  0.8840E+00 -0.9830E+01  0.4711E+01E
 Epicentro: LOS SANTOS - SANTANDER                                             3
 ACTION:UPD 12-07-13 16:05 OP:ep   STATUS:               ID:20111021223302 L   I
 2011-10-21-2231-15S.COL___171                                                 6
 STAT SP IPHASW D HRMM SECON CODA AMPLIT PERI AZIMU VELO AIN AR TRES W  DIS CAZ7
 GIR2 SZ EP   2   2233 22.06                             167   -0.48 5 33.1 344 
 GIR2 SZ ES   2   2233 38.31                             167   -0.13 5 33.1 344 
 BRR  HZ EP   1   2233 23.92                             152   -0.20 7 75.1 298 
 BRR  HZ I        2233 24.39         4.6 0.11                          75.1 298 
 BRR  HE ES   1   2233 41.45                             152    0.19 7 75.1 298 
 PAM  SZ EP   1   2233 24.96                             152    0.09 7 75.8  37 
 PAM  SZ I        2233 25.08         5.7 0.18                          75.8  37 
 PAM  SN ES   2   2233 42.70                             152    0.10 5 75.8  37 
 RUS  HZ EP   2   2233 26.95                             145    0.58 5 99.4 178 
 RUS  HN ES   2   2233 45.00                             145   -0.26 5 99.4 178 
 RUS  HZ I        2233 47.40         3.3 0.37                          99.4 178 
                                                                                
