 2014  621 2115 25.8 L   6.780 -73.143144.6  RSN  6 0.4 1.5LRSN                1
 GAP=138        1.09       5.0     5.7  8.7 -0.3054E+01  0.6491E+01  0.1752E+01E
 Epicentro: LOS SANTOS - SANTANDER                                             3
 ACTION:UPD 14-07-01 22:55 OP:nd   STATUS:               ID:20140621211525 L   I
 OLDACT:DUP 14-06-22 03:58 OP:fm   STATUS:               ID:20140621210818d    3
 OLDACT:REG 14-06-22 03:22 OP:fm   STATUS:               ID:20140621210817     3
 2014-06-21-2108-17M.COL___265                                                 6
 STAT SP IPHASW D HRMM SECON CODA AMPLIT PERI AZIMU VELO AIN AR TRES W  DIS CAZ7
 BAR2 SZ ES   1   2116  0.50                             171    0.09 7 21.2 192 
 BAR2 SZ I        2116  1.45        11.4 0.36            171           21.2 192 
 BRR  HZ EP       2115 47.33                             152    0.4410 72.5 300 
 BRR  HN ES       2116  3.73                             152    0.3810 72.5 300 
 BRR  HZ I        2116  8.95         9.9 0.50            153           72.5 300 
 PAM  SZ EP       2115 47.79                             150   -0.1910 78.9  38 
 PAM  SE ES       2116  4.59                             150   -0.6910 78.9  38 
 PAM  SZ I        2116  7.42         6.7 0.50            154           78.9  38 
 RUS  HZ EP       2115 49.74                             144    0.4710 98.4 176 
 RUS  HN ES       2116  7.72                             144    0.1410 98.4 176 
 RUS  HZ I        2116 10.54         2.0 0.42            147           98.4 176 
 PTB  HZ EP       2115 52.13                             132   -0.53 9  148 260 
 PTB  HN ES       2116 13.15                             132   -0.46 9  148 260 
 PTB  HZ I        2116 16.61         4.3 0.10            134            148 260 
 OCA  HN ES   1   2116 16.98                             129    0.58 7  162 353 
                                                                                
