 2010 1221 2045 30.5 L   7.400 -73.261118.0  RSN  4 0.2 1.7LRSN                1
 GAP=175        0.48       6.6    16.5  9.1 -0.8500E+02  0.4711E+02 -0.2405E+02E
 Epicentro: EL PLAYON - SANTANDER                                              3
 ACTION:UP  11-01-14 15:26 OP:pat  STATUS:               ID:20101221204530 L   I
 2010-12-21-2043-07S.COL___134                                                 6
 STAT SP IPHASW D HRMM SECON CODA AMPLIT PERI AZIMU VELO SNR AR TRES W  DIS CAZ7
 BTL  SZ EP       2045 48.19                             154     0.210   53 181 
 BTL  SZ ES   2   2046  1.33                             154    -0.4 5   53 181 
 GRA  SZ EP       2045 49.00                             146    -0.210   74  43 
 GRA  SZ ES   2   2046  4.01                             146     0.3 5   74  43 
 GRA  SZ I        2046  7.23        16.0 0.31                            74  43 
 BAR2 SZ ES   2   2046  5.99                             140     0.0 5   90 175 
 BAR2 SZ I        2046  7.59        10.1 0.27                            90 175 
 OCA  SZ ES   3   2046  6.27                             139     0.0 2   93 356 
                                                                                
