 2014 1121 2028 35.6 L   7.045 -73.347122.2  RSN  6 0.3 1.9LRSN                1
 GAP=139        0.86       4.2     3.2  6.4  0.1421E+01  0.3600E+01  0.2461E+01E
 Epicentro: LEBRIJA - SANTANDER                                                3
 ACTION:UPD 14-12-19 15:45 OP:nd   STATUS:               ID:20141121202835 L   I
 OLDACT:REG 14-11-22 08:31 OP:cam  STATUS:               ID:20141121202817     3
 2014-11-21-2028-17M.COL___300                                                 6
 STAT SP IPHASW D HRMM SECON CODA AMPLIT PERI AZIMU VELO AIN AR TRES W  DIS CAZ7
 BRR  HZ EP       2028 52.64                             160    0.0410 40.9 280 
 BRR  HN ES       2029  5.90                             160    0.0210 40.9 280 
 BRR  HN I        2029  6.91        34.7 0.38            159           40.9 280 
 BAR2 SZ EP     C 2028 53.88                             155    0.3510 53.2 160 
 BAR2 SZ ES       2029  7.89                             155    0.3710 53.2 160 
 BAR2 SZ I        2029  9.10        22.4 0.26            158           53.2 160 
 PAM  SZ EP       2028 55.46                             145    0.0310 78.6  65 
 PAM  SN ES       2029 10.46                             145   -0.4510 78.6  65 
 PAM  SZ I        2029 12.61         9.9 0.36            147           78.6  65 
 RUS  HZ EP       2028 59.81                             130    0.0810  131 167 
 RUS  HN ES       2029 18.56                             130   -0.0110  131 167 
 PTB  HZ EP       2028 59.12                             129   -0.3610  135 246 
 PTB  HN ES       2029 17.54                             129   -0.5810  135 246 
 PTB  HZ I        2029 20.60         5.4 0.52            130            135 246 
 ZAR  HN ES       2029 25.63                             121    0.53 9  174 287 
 ZAR  HN I        2029 28.99        14.5 0.34            122            174 287 
                                                                                
