 2013 1121 2029  4.4 L   6.695 -73.160148.8  RSN  5 0.3 2.0LRSN                1
 GAP=157        0.79       7.8     4.7  5.8 -0.1662E+02  0.5855E+01 -0.8598E+00E
 Epicentro: VILLANUEVA - SANTANDER                                             3
 ACTION:UPD 14-01-09 16:30 OP:ep   STATUS:               ID:20131121202904 L   I
 OLDACT:REG 13-11-22 00:30 OP:stll STATUS:               ID:20131121202818     3
 2013-11-21-2028-18M.COL___238                                                 6
 STAT SP IPHASW D HRMM SECON CODA AMPLIT PERI AZIMU VELO AIN AR TRES W  DIS CAZ7
 BAR2 SZ EP       2029 24.53                             175    0.3510 11.6 192 
 BAR2 SZ ES       2029 39.40                             175   -0.2410 11.6 192 
 BAR2 SZ I        2029 41.07        42.3 0.18            173           11.6 192 
 BRR  HZ EP       2029 26.48                             151    0.3610 76.1 307 
 BRR  HZ I        2029 26.63        25.5 0.14            151           76.1 307 
 BRR  HN ES       2029 43.49                             151    0.4010 76.1 307 
 PAM  SZ EP       2029 27.51                             148   -0.0210 87.6  35 
 PAM  SN ES       2029 45.30                             148   -0.3010 87.6  35 
 PAM  SZ I        2029 46.66        10.7 0.56            152           87.6  35 
 PTB  HZ EP       2029 31.25                             133   -0.02 9  144 263 
 PTB  HN ES       2029 52.03                             133   -0.24 9  144 263 
 PTB  HZ I        2029 58.05        10.8 0.20            133            144 263 
 ZAR  HZ EP       2029 36.87                             122   -0.46 8  207 295 
                                                                                
