 2011  822 0632 34.6 L   6.765 -73.161151.9  RSN  4 0.3 1.4LRSN                1
 GAP=181        0.56       4.1    11.2  6.6  0.2516E+02 -0.2669E+02 -0.1040E+02E
 Epicentro: LOS SANTOS - SANTANDER                                             3
 ACTION:UPD 12-07-13 15:53 OP:ep   STATUS:               ID:20110822063234 L   I
 2011-08-22-0629-24S.COL___153                                                 6
 STAT SP IPHASW D HRMM SECON CODA AMPLIT PERI AZIMU VELO AIN AR TRES W  DIS CAZ7
 BAR2 SZ EP   1    632 54.59                             172   -0.26 7 19.2 187 
 BAR2 SZ ES   1    633 10.36                             172   -0.32 7 19.2 187 
 BAR2 SZ I         633 12.06         4.7 0.29                          19.2 187 
 BRR  HZ EP   1    632 56.55                             153    0.15 7 71.7 302 
 BRR  HE ES   1    633 13.38                             153   -0.05 7 71.7 302 
 BRR  HZ I         633 16.05         3.8 0.13                          71.7 302 
 RUS  HZ EP   1    632 58.79                             146    0.14 7 96.8 175 
 RUS  HE ES   1    633 17.74                             146    0.29 7 96.8 175 
 OCA  SZ EP   1    633  3.34                             130   -0.35 7  164 354 
 OCA  SZ ES   1    633 26.83                             130    0.41 7  164 354 
 OCA  SZ I         633 29.88         3.6 0.21                           164 354 
                                                                                
