 2016  422 0641 53.7 L   5.945 -73.905 55.3  RSN  6 0.2 1.5LRSN                1
 GAP=116        0.61       2.4     1.7  4.7 -0.1368E+01  0.1484E+01 -0.3679E+01E
 Epicentro: LA BELLEZA - SANTANDER                                             3
 ACTION:UPD 16-05-05 14:23 OP:rebc STATUS:               ID:20160422064153 L   I
 OLDACT:ARG 16-04-22 12:58 OP:cara STATUS:               ID:20160422063746     3
 2016-04-22-0637-46M.COL___312                                                 6
 STAT SP IPHASW D HRMM SECON CODA AMPLIT PERI AZIMU VELO AIN AR TRES W  DIS CAZ7
 SPBC HZ EP        642  3.15                             141   -0.1510 37.3 210 
 SPBC HN ES        642 10.87                             141    0.0410 37.3 210 
 SPBC HZ I         642 13.18        30.4 0.20            146           37.3 210 
 PTB  HZ IP     C  642  8.09                             113   -0.3610 89.6 317 
 PTB  HN ES        642 20.01                             113    0.0210 89.6 317 
 PTB  HZ I         642 20.68        15.0 0.42            116           89.6 317 
 RUS  HZ IP        642  9.08                             113   -0.1510 91.2  94 
 RUS  HN ES   4    642 20.15                             113   -1.23 0 91.2  94 
 RUS  HZ I         642 21.65         4.3 0.24            118           91.2  94 
 BAR2 EZ EP        642 10.94                             108    0.1710  107  48 
 BAR2 EZ IP        642 11.24                                            107  48 
 BAR2 EZ ES        642 24.35                             108    0.2210  107  48 
 BAR2 EZ I         642 26.83        12.5 0.32            112            107  48 
 GUY2CHZ IP        642 20.02                              99    0.17 9  180 244 
 GUY2CHN ES        642 40.49                              99    0.21 9  180 244 
 GUY2CHZ I         642 43.74         3.7 0.62                           180 244 
 HEL  HZ EP        642 19.50                              99   -0.39 9  182 279 
 HEL  HN ES        642 40.66                              99    0.30 9  182 279 
 HEL  HZ I         642 43.89         3.3 0.20            101            182 279 
                                                                                
