 2015  822 0913 23.1 L   6.866 -72.974153.0  RSN  5 0.2 1.3LRSN                1
 GAP=258        0.51       6.3     6.7  5.4  0.3298E+02 -0.1273E+01 -0.1144E+01E
 Epicentro: CEPITA - SANTANDER                                                 3
 ACTION:UPD 15-09-15 23:04 OP:cam  STATUS:               ID:20150822091323 L   I
 OLDACT:REG 15-08-22 14:30 OP:spq  STATUS:               ID:20150822090739     3
 2015-08-22-0907-39M.COL___340                                                 6
 STAT SP IPHASW D HRMM SECON CODA AMPLIT PERI AZIMU VELO AIN AR TRES W  DIS CAZ7
 BAR2 EZ EP        913 44.04                             166    0.1210 38.0 217 
 BRR  HZ EP   1    913 45.80                             149   -0.05 7 85.8 288 
 BRR  HN ES        914  3.64                             149    0.0210 85.8 288 
 BRR  HZ I         914  5.34         2.6 0.30            146           85.8 288 
 RUS  HZ EP   1    913 48.32                             143    0.24 7  108 186 
 RUS  HE ES   1    914  7.31                             143   -0.27 7  108 186 
 RUS  HZ I         914  8.27         1.4 0.38            142            108 186 
 ZAR  HZ EP   1    913 56.97                             122   -0.58 6  219 289 
 ZAR  HN ES        914 24.60                             122    0.14 8  219 289 
 ZAR  HZ I         914 28.56         3.0 0.58            121            219 289 
 GUY2CHZ EP   1    914  9.36                             112    0.13 5  321 236 
 GUY2CHE ES   4    914 47.05                             112    1.81 0  321 236 
 GUY2CHZ I         914 51.07         1.0 0.38                           321 236 
                                                                                
