 2011 1122 0241 38.2 L   6.794 -73.134142.3  RSN  8 0.4 1.9LRSN                1
 GAP=138        0.58       3.7     4.6  5.2  0.3183E+00  0.5142E+01 -0.6106E-01E
 Epicentro: LOS SANTOS - SANTANDER                                             3
 ACTION:UPD 12-07-13 16:11 OP:ep   STATUS:               ID:20111122024138 L   I
 2011-11-22-0239-51S.COL___178                                                 6
 STAT SP IPHASW D HRMM SECON CODA AMPLIT PERI AZIMU VELO AIN AR TRES W  DIS CAZ7
 BAR2 SZ ES   1    242 12.42                             171    0.07 7 23.0 194 
 BAR2 SZ I         242 13.61        21.1 0.24                          23.0 194 
 BRR  HZ EP        241 59.09                             151    0.0610 72.7 298 
 BRR  HN ES   1    242 15.79                             151    0.49 7 72.7 298 
 BRR  HZ I         242 20.96        13.1 0.16                          72.7 298 
 PAM  SZ EP   1    242  0.03                             150    0.03 7 77.0  38 
 PAM  SN ES   2    242 16.55                             150   -0.47 5 77.0  38 
 RUS  HZ EP   1    242  1.61                             143    0.08 7 99.9 177 
 RUS  HE ES   1    242 19.52                             143   -0.23 7 99.9 177 
 RUS  HZ I         242 21.21         7.0 0.47                          99.9 177 
 OCA  SZ EP   2    242  6.21                             129   -0.08 5  161 353 
 OCA  SZ I         242 30.95        10.4 0.22                           161 353 
 ZAR  HN ES   2    242 34.90                             121   -0.89 4  206 292 
 ZAR  HZ I         242 41.86         7.1 0.38                           206 292 
 NOR  SZ EP   1    242 13.69                             118   -0.08 6  235 235 
 NOR  SN ES   2    242 41.04                             118   -0.51 4  235 235 
 RREF HZ EP   2    242 25.03                             110    0.80 3  322 230 
 RREF HZ I         243  9.17         3.4 0.22                           322 230 
                                                                                
