 2012 1022 0236 55.7 L   6.801 -73.127151.2  RSN 13 0.3 2.9LRSN                1
 GAP= 67        0.75       2.5     2.6  4.4  0.7969E+00  0.2361E+01  0.2814E+01E
 Epicentro: LOS SANTOS - SANTANDER                                             3
 ACTION:UPD 12-11-22 17:05 OP:ep   STATUS:               ID:20121022023655 L   I
 2012-10-22-0230-00M.COL___233                                                 6
 STAT SP IPHASW D HRMM SECON CODA AMPLIT PERI AZIMU VELO AIN AR TRES W  DIS CAZ7
 BAR2 SZ EP   1    237 15.73                             171   -0.26 7 23.9 195 
 BAR2 SZ ES   1    237 31.78                             171   -0.04 7 23.9 195 
 BAR2 SZ I         237 33.60       110.7 0.32                          23.9 195 
 GIR2 SZ EP   1    237 15.91                             168   -0.12 7 31.6 347 
 GIR2 SZ ES   2    237 32.10                             168    0.22 5 31.6 347 
 BRR  HZ EP   1    237 17.65                             153    0.11 7 73.0 298 
 BRR  HZ I         237 21.36        71.1 0.12                          73.0 298 
 BRR  HN ES        237 35.24                             153    0.6710 73.0 298 
 BRR  HN I         237 35.98       318.2 0.24                          73.0 298 
 PAM  SZ EP   1    237 18.64                             152    0.22 7 76.0  38 
 PAM  SN ES        237 36.04                             152   -0.0910 76.0  38 
 RUS  HZ EP   1    237 19.62                             145   -0.36 7  101 177 
 RUS  HN ES        237 38.46                             145   -0.4610  101 177 
 TAM  HZ EP        237 23.92                             132    0.29 9  153 105 
 TAM  HN ES        237 45.73                             132    0.31 9  153 105 
 TAM  HN I         237 46.49       101.9 0.37                           153 105 
 OCA  HZ EP   1    237 23.96                             131   -0.49 7  160 352 
 OCA  HN ES        237 46.47                             131   -0.41 9  160 352 
 OCA  HN I         237 50.17       212.1 0.27                           160 352 
 YOP  SZ EP   1    237 26.28                             128    0.22 7  178 154 
 ZAR  HZ EP   1    237 28.28                             123   -0.42 6  206 292 
 ZAR  HN ES        237 54.34                             123   -0.09 8  206 292 
 ZAR  HN I         237 56.39        92.1 0.13                           206 292 
 CHI  HZ EP   1    237 33.72                             118   -0.05 6  249 196 
 CHI  HN ES        238  3.11                             118   -0.36 8  249 196 
 CHI  HN I         238  7.47        42.8 0.45                           249 196 
 ROSC BZ EP   1    237 34.73                             118    0.49 6  254 211 
 HEL  HZ EP   1    237 36.60                             116    0.18 6  274 256 
 HEL  HN ES        238  8.37                             116    0.19 8  274 256 
 RREF HZ EP   1    237 42.93                             112    0.66 5  323 230 
                                                                                
