 2016  822 0623 10.0 L   6.741 -73.170149.6  RSN  5 0.3 1.3LRSN                1
 GAP=241        0.74       4.7     4.9  6.0  0.3355E+01  0.5385E+01  0.4238E+01E
 Epicentro: LOS SANTOS - SANTANDER                                             3
 ACTION:UPD 16-10-29 15:37 OP:rebc STATUS:               ID:20160822062310 L   I
 OLDACT:REG 16-08-22 13:41 OP:ak   STATUS:               ID:20160822061733     3
 2016-08-22-0618-00M.COL___368                                                 6
 STAT SP IPHASW D HRMM SECON CODA AMPLIT PERI AZIMU VELO AIN AR TRES W  DIS CAZ7
 BAR2 EZ EP        623 29.84                             173   -0.1110 16.5 185 
 BAR2 EZ ES        623 45.47                             173   -0.0610 16.5 185 
 BAR2 EZ I         623 47.77         5.7 0.23                          16.5 185 
 BRR  HZ EP        623 31.79                             153    0.1910 72.3 304 
 BRR  HN ES        623 48.54                             153    0.0810 72.3 304 
 BRR  HZ I         623 51.48         2.5 0.22                          72.3 304 
 PTB  HZ EP        623 36.44                             134   -0.48 9  144 261 
 PTB  HN ES        623 57.51                             134   -0.43 9  144 261 
 PTB  HZ I         624  0.27         1.6 0.21                           144 261 
 SPBC HZ EP        623 38.38                             131    0.23 9  156 220 
 SPBC HN ES        624  0.43                             131    0.31 9  156 220 
 SPBC HZ I         624  7.85         3.3 0.26                           156 220 
 ZAR  HN ES        624  8.54                             123    0.35 9  204 294 
                                                                                
