 2017  122 0709 26.2 L   6.709 -73.163147.9  RSN  5 0.4 0.9LRSN                1
 GAP=153        0.89       9.3     5.0  8.4  0.2468E+01 -0.3161E+01 -0.2424E+01E
 Epicentro: VILLANUEVA - SANTANDER                                             3
 ACTION:UPD 17-05-22 16:02 OP:jn   STATUS:               ID:20170122070926 L   I
 OLDACT:REG 17-01-22 13:13 OP:dani STATUS:               ID:20170122070643     3
 2017-01-22-0707-00M.COL___331                                                 6
 STAT SP IPHASW D HRMM SECON CODA AMPLIT PERI AZIMU VELO AIN AR TRES W  DIS CAZ7
 BAR2 EZ EP        7 9 45.90                             175    0.0110 13.1 190 
 BAR2 EZ ES   1    710  1.40                             175    0.13 7 13.1 190 
 BRR  HZ EP        7 9 47.81                             152    0.0510 75.0 306 
 BRR  HE ES        710  4.90                             152    0.3010 75.0 306 
 BRR  HZ I         710  5.73         1.8 0.21            152           75.0 306 
 PAM  EZ EP        7 9 48.77                             148   -0.4010 86.5  36 
 PTB  HZ EP        7 9 53.59                             133    0.60 9  144 263 
 PTB  HN ES        710 13.32                             133   -0.60 9  144 263 
 PTB  HZ I         710 16.06         0.9 0.13            133            144 263 
 ZAR  HE ES        710 24.53                             122   -0.05 8  206 295 
                                                                                
