 2013  822 0131 41.8 L   6.778 -73.174147.5  RSN  5 0.3 1.5LRSN                1
 GAP=233        0.68       4.0     4.4  5.7  0.4051E+01 -0.5189E+00  0.1133E+01E
 Epicentro: LOS SANTOS - SANTANDER                                             3
 ACTION:UPD 14-01-14 09:05 OP:ep   STATUS:               ID:20130822013141 L   I
 OLDACT:REG 13-08-22 07:18 OP:nd   STATUS:               ID:20130822012959     3
 2013-08-22-0129-59M.COL___271                                                 6
 STAT SP IPHASW D HRMM SECON CODA AMPLIT PERI AZIMU VELO AIN AR TRES W  DIS CAZ7
 BAR2 SZ EP        132  1.36                             172   -0.1910 20.5 183 
 BAR2 SZ ES   2    132 16.90                             172   -0.09 5 20.5 183 
 BAR2 SZ I         132 19.25         6.6 0.28            173           20.5 183 
 BRR  HZ EP        132  3.10                             153    0.0810 69.7 302 
 BRR  HN ES        132 19.89                             153    0.2810 69.7 302 
 BRR  HZ I         132 31.80        12.2 0.34            153           69.7 302 
 RUS  HZ EP        132  5.69                             145    0.1610 98.4 174 
 RUS  HN ES        132 23.86                             145   -0.2110 98.4 174 
 RUS  HZ I         132 25.38         3.0 0.30            152           98.4 174 
 PTB  HZ EP        132  8.13                             133   -0.43 9  144 260 
 PTB  HN ES        132 29.20                             133   -0.26 9  144 260 
 PTB  HZ I         132 31.85         3.3 0.16            136            144 260 
 SPBC HZ EP        132 10.42                             130    0.39 9  159 219 
 SPBC HN ES        132 32.32                             130    0.23 9  159 219 
 SPBC HZ I         132 38.72         4.9 0.28            136            159 219 
                                                                                
