 2016  522 0554 12.1 L   6.808 -73.146148.4  RSN 19 0.3 2.4LRSN                1
 GAP= 71        0.79       2.0     2.2  3.6 -0.7199E+00  0.1473E+01  0.7896E+00E
 Epicentro: LOS SANTOS - SANTANDER                                             3
 ACTION:UPD 16-08-18 17:48 OP:cam  STATUS:               ID:20160522055412 L   I
 OLDACT:UP  16-05-24 15:34 OP:dnl  STATUS:               ID:20160522055412 L   3
 OLDACT:DUP 16-05-22 15:39 OP:dnl  STATUS:               ID:20160522054744d    3
 2016-05-22-0547-43M.COL___286                                                 6
 STAT SP IPHASW D HRMM SECON CODA AMPLIT PERI AZIMU VELO AIN AR TRES W  DIS CAZ7
 BAR2 EZ EP        554 31.95                             170   -0.0910 24.2 190 
 BAR2 EZ ES        554 47.16                             170   -0.4610 24.2 190 
 BAR2 EZ I         554 48.54        84.1 0.28            169           24.2 190 
 BRR  HZ EP     C  554 33.76                             153    0.2710 70.8 298 
 BRR  HN ES        554 50.87                             153    0.6810 70.8 298 
 BRR  HZ I         554 54.82        43.3 0.26            152           70.8 298 
 PAM  EZ IP     C  554 34.74                             151    0.2110 76.7  40 
 PAM  EN ES        554 51.89                             151   -0.1610 76.7  40 
 PAM  EZ I         554 55.46        14.6 0.56            150           76.7  40 
 RUS  HZ EP        554 35.91                             144   -0.2410  101 176 
 RUS  HE ES        554 54.69                             144   -0.2410  101 176 
 RUS  HZ I         554 56.02        26.9 0.28            142            101 176 
 PTB  HZ EP        554 38.78                             133   -0.49 9  148 258 
 PTB  HE ES        555  0.54                             133    0.05 9  148 258 
 PTB  HZ I         555  6.40        17.7 0.10            130            148 258 
 TAM  HZ EP     C  554 40.34                             131    0.35 9  155 105 
 TAM  HZ I         555  1.42        15.5 0.38            129            155 105 
 TAM  HE ES        555  1.98                             131    0.22 9  155 105 
 OCA  HZ EP        554 39.95                             130   -0.56 9  159 353 
 OCA  HN ES        555  2.97                             130    0.28 9  159 353 
 OCA  HZ I         555  5.58        56.7 0.16            128            159 353 
 SPBC HZ EP        554 40.90                             129    0.06 9  164 219 
 SPBC HE ES        555  3.57                             129    0.29 9  164 219 
 SPBC HZ I         555  7.80        45.1 0.22            127            164 219 
 ZAR  HZ EP        554 44.55                             123   -0.11 9  204 292 
 ZAR  HN ES        555  9.85                             123   -0.22 9  204 292 
 ZAR  HZ I         555 15.32        30.7 0.40            121            204 292 
 NOR  HZ EP        554 48.11                             119    0.10 8  235 234 
 NOR  HN ES        555 15.51                             119   -0.53 8  235 234 
 NOR  HZ I         555 21.50        13.6 0.24            117            235 234 
 CHI  HZ EP        554 50.23                             118    0.22 8  249 195 
 CHI  HE ES        555 19.49                             118   -0.12 8  249 195 
 CHI  HZ I         555 22.94        12.5 0.66            115            249 195 
 ROSC BZ EP   9    554 52.11                             117    1.69 0  254 211 
 ROSC BE ES        555 21.80                             117   -0.22 8  254 211 
 ROSC BZ I         555 26.64        41.3 0.45            115            254 211 
 HEL  HZ EP   4    554 53.68                             115    1.24 0  272 256 
 HEL  HE ES        555 24.12                             115    0.19 8  272 256 
 HEL  HZ I         555 30.07         8.1 0.26            113            272 256 
 LL6C HZ EP        554 57.30                             111   -0.49 7  324 358 
 LL6C HN ES   4    555 31.88                             111   -1.56 0  324 358 
 LL6C HZ I         555 39.14         5.5 0.30            109            324 358 
 CBOC HZ EP        554 59.74                             110    0.61 7  334 252 
 CBOC HE ES   4    555 34.51                             110   -1.32 0  334 252 
 CBOC HZ I         555 46.73         3.2 0.50            109            334 252 
 DBB  SZ EP   2    554 59.42                             110   -0.23 3  339 274 
 DBB  SZ ES   4    555 35.47                             110   -1.29 0  339 274 
 DBB  SZ I         555 39.60        31.3 0.48            108            339 274 
 ANIL HZ EP   4    555  3.22                             109    1.17 0  358 224 
 ANIL HE ES   4    555 44.49                             109    3.45 0  358 224 
 ANIL HZ I         555 46.24        25.7 0.24            107            358 224 
 PRA  HZ EP        555  5.68                             107   -0.10 6  393 210 
 PRA  HN ES        555 47.44                             107   -0.22 6  393 210 
 PRA  HZ I         555 54.20        19.0 0.38            105            393 210 
 ORTC HZ EP        555  6.38                             107    0.21 6  396 216 
 ORTC HN ES        555 49.04                             107    0.68 6  396 216 
 ORTC HZ I         555 55.70         6.6 0.66            105            396 216 
                                                                                
