 2015  622 0808 43.7 L   6.826 -73.104148.4  RSN  8 0.4 1.8LRSN                1
 GAP=187        0.92       3.6     4.8  7.6  0.1116E+01  0.6341E+01  0.1123E+01E
 Epicentro: LOS SANTOS - SANTANDER                                             3
 ACTION:UPD 15-09-10 22:14 OP:cam  STATUS:               ID:20150622080843 L   I
 OLDACT:UP  15-06-22 17:09 OP:mh   STATUS:               ID:20150622080738     3
 OLDACT:REG 15-06-22 13:09 OP:mh   STATUS:               ID:20150622080738     3
 2015-06-22-0807-38M.COL___310                                                 6
 STAT SP IPHASW D HRMM SECON CODA AMPLIT PERI AZIMU VELO AIN AR TRES W  DIS CAZ7
 BAR2 EZ EP        8 9  3.66                             169   -0.1110 27.3 198 
 BAR2 EZ I         8 9 19.89        11.1 0.20            169           27.3 198 
 BRR  HZ EP        8 9  5.55                             152    0.2210 74.0 295 
 BRR  HN ES        8 9 22.60                             152    0.4210 74.0 295 
 BRR  HZ I         8 9 26.56         8.7 0.46            153           74.0 295 
 RUS  HZ EP        8 9  8.07                             144    0.1310  103 179 
 RUS  HN ES        8 9 26.59                             144   -0.2410  103 179 
 RUS  HZ I         8 9 27.77         3.5 0.34            143            103 179 
 OCA  HZ EP        8 9 11.58                             131   -0.46 9  158 351 
 OCA  HN ES        8 9 34.23                             131    0.10 9  158 351 
 OCA  HZ I         8 9 36.42        16.5 0.26            131            158 351 
 ZAR  HN ES        8 9 41.76                             123   -0.63 8  207 291 
 ZAR  HZ I         8 9 46.88         8.4 0.56            123            207 291 
 NOR  HZ EP   1    8 9 19.90                             118   -0.30 6  240 235 
 NOR  HN ES   1    8 9 48.47                             118   -0.17 6  240 235 
 NOR  HZ I         8 9 53.30         4.8 0.18            119            240 235 
 HEL  HZ EP        8 9 25.63                             115    0.97 7  277 255 
 HEL  HE ES        8 9 56.50                             115   -0.07 7  277 255 
 HEL  HZ I         810  0.91         2.2 0.30            115            277 255 
 GUY2CHZ EP   4    8 9 27.58                             112   -0.50 0  307 235 
 GUY2CHN ES   4    810  2.50                             112   -0.17 0  307 235 
 GUY2CHZ I         810 10.18         2.9 0.34                           307 235 
                                                                                
