 2010  622 0445 12.4 L   6.803 -73.045144.9  RSN 12 0.4 2.4LRSN                1
 GAP=167        0.78       3.4     5.4  5.5 -0.7961E+01  0.6208E+01 -0.1453E+01E
 Epicentro: LOS SANTOS - SANTANDER                                             3
 ACTION:UP  10-08-24 10:12 OP:vdl  STATUS:               ID:20100622044512 L   I
 2010-06-22-0442-17S.COL___118                                                 6
 STAT SP IPHASW D HRMM SECON CODA AMPLIT PERI AZIMU VELO SNR AR TRES W  DIS CAZ7
 BAR2 SZ IP        445 32.08                             169     0.110   28 213 
 BAR2 SZ ES   1    445 47.04                             169    -0.3 7   28 213 
 BRR  HZ IP     C  445 33.96                             149    -0.110   81 295 
 BRR  HZ I         445 34.27        88.1 0.25                            81 295 
 BRR  HE ES   1    445 51.33                             149     0.4 7   81 295 
 RUS  HZ EP        445 36.09                             144     0.010  101 182 
 RUS  HN ES   1    445 54.40                             144    -0.1 7  101 182 
 RUS  HZ I         445 55.96        25.9 0.41                           101 182 
 BRI  SZ EP        445 35.55                             142    -0.410  105  15 
 GUE  SZ EP        445 37.07                             140     0.210  114   7 
 GRA  SZ EP        445 37.42                             138     0.110  123  13 
 GRA  SZ ES   1    445 57.29                             138     0.6 7  123  13 
 OCA  SZ EP        445 40.45                             129    -0.3 9  162 349 
 OCA  SZ ES   2    446  1.99                             129    -0.9 5  162 349 
 OCA  SZ I         446  8.38        37.4 0.28                           162 349 
 CHI  HN ES   3    446 19.20                             117    -0.9 2  252 198 
 CHI  HZ I         446 25.35        13.6 0.54                           252 198 
 HEL  HZ EP        445 53.53                             114    -0.2 7  283 256 
 HEL  HE ES   2    446 25.72                             114    -0.3 4  283 256 
 HEL  HZ I         446 31.11         9.7 0.57                           283 256 
 GUY  HZ EP   2    445 57.41                             111     0.4 3  311 236 
 GUY  HN ES   2    446 31.88                             111     0.0 3  311 236 
 RREF HZ EP        445 59.29                             110    -0.2 7  330 231 
 RREF HN ES   2    446 36.42                             110     0.2 3  330 231 
 RREF HZ I         446 42.13        14.6 0.18                           330 231 
 TOL  SZ EP   1    446  2.72                             109     1.2 5  352 226 
                                                                                
