 2016  222 0122 51.6 L   6.588 -73.306106.1  RSN  6 0.8 0.9LRSN                1
 GAP= 98        1.99       8.4    10.2 13.0  0.2456E+01  0.1107E+02 -0.2103E+00E
 Epicentro: HATO - SANTANDER                                                   3
 ACTION:UPD 16-03-04 21:28 OP:rebc STATUS:               ID:20160222012248 L   I
 OLDACT:UP  16-02-24 18:22 OP:nlst STATUS:               ID:20160222012248 L   3
 OLDACT:UP  16-02-22 14:48 OP:mh   STATUS:               ID:20160222011740d    3
 OLDACT:DUP 16-02-22 14:29 OP:mh   STATUS:               ID:20160222011740d    3
 2016-02-22-0117-39M.COL___330                                                 6
 STAT SP IPHASW D HRMM SECON CODA AMPLIT PERI AZIMU VELO AIN AR TRES W  DIS CAZ7
 BAR2 EZ EP        123  5.82                             172   -0.4610 13.7  88 
 BAR2 EZ ES        123 18.12                             172    0.4110 13.7  88 
 BAR2 EZ I         123 24.05         2.2 0.18            161           13.7  88 
 BRR  HZ EP        123  7.58                             143   -1.1810 72.9 322 
 BRR  HZ ES        123 22.28                             143    0.1410 72.9 322 
 BRR  HZ I         123 28.94         3.3 0.47            166           72.9 322 
 RUS  HZ EP        123  9.39                             140   -0.6610 80.7 162 
 RUS  HN ES        123 24.68                             140    0.2410 80.7 162 
 RUS  HZ I         123 49.01         0.8 0.66            138           80.7 162 
 PAM  EZ EP        123 11.90                             131   -0.3710  107  39 
 PAM  EN ES        123 29.11                             131    0.7310  107  39 
 PAM  EZ I         123 30.89         1.6 0.20            144            107  39 
 PTB  HZ EP   9    123 10.33                             126   -3.26 0  127 268 
 PTB  HN ES        123 26.66                             129   -0.8110  127 268 
 PTB  HZ I         123 27.88         2.6 0.46            139            127 268 
 HEL  HZ EPg       123 29.40                             107    1.87 8  250 260 
                                                                                
