 2010  622 0902  9.1 L   6.829 -72.952139.9  RSN  6 0.4 1.9LRSN                1
 GAP=180        0.75       4.2     7.7  7.4 -0.8648E+01 -0.1028E+02  0.2694E+01E
 Epicentro: CEPITA - SANTANDER                                                 3
 ACTION:UP  10-08-24 10:12 OP:vdl  STATUS:               ID:20100622090209 L   I
 2010-06-22-0858-52S.COL___118                                                 6
 STAT SP IPHASW D HRMM SECON CODA AMPLIT PERI AZIMU VELO SNR AR TRES W  DIS CAZ7
 BAR2 SZ EP        9 2 28.74                             165     0.310   37 224 
 BAR2 SZ ES   1    9 2 43.25                             165    -0.2 7   37 224 
 BRR  HZ EP        9 2 30.65                             145    -0.210   89 290 
 BRR  HN ES   1    9 2 47.96                             145     0.2 7   89 290 
 BRR  HZ I         9 2 50.27        22.1 0.16                            89 290 
 RUS  HZ EP        9 2 32.61                             141     0.010  105 188 
 RUS  HN ES   2    9 2 50.72                             141    -0.2 5  105 188 
 RUS  HZ I         9 2 52.59         5.3 0.50                           105 188 
 GUE  SZ EP        9 2 32.43                             140    -0.410  111   2 
 GRA  SZ EP   2    9 2 34.21                             138     1.0 5  118   8 
 GRA  SZ ES   1    9 2 51.94                             138     0.0 7  118   8 
 RREF HZ EP   2    9 2 57.50                             108     0.3 3  340 231 
 RREF HN ES   2    9 3 34.16                             108    -0.5 3  340 231 
 RREF HZ I         9 3 41.16         4.3 0.23                           340 231 
                                                                                
