 2017 1222 0801 59.2 L   6.857 -73.294126.5  RSN  7 0.5 1.5LRSN                1
 GAP= 97        1.17       3.8     4.3  8.6 -0.1564E+01  0.1134E+02 -0.2089E+01E
 Epicentro: BETULIA - SANTANDER                                                3
 ACTION:UPD 18-01-04 13:23 OP:rebc STATUS:               ID:20171222080159 L   I
 OLDACT:UP  17-12-22 16:16 OP:EDW  STATUS:               ID:20171222075129     3
 OLDACT:REG 17-12-22 13:18 OP:dani STATUS:               ID:20171222075129     3
 2017-12-22-0758-00M.COL___454                                                 6
 STAT SP IPHASW D HRMM SECON CODA AMPLIT PERI AZIMU VELO AIN AR TRES W  DIS CAZ7
 BAR2 EZ EP        8 2 16.81                             165    0.0810 31.8 157 
 BAR2 EZ ES        8 2 30.26                             165   -0.1510 31.8 157 
 PAM  EZ EP        8 2 20.03                             144    0.1510 84.6  51 
 PAM  EN ES        8 2 36.22                             144    0.1910 84.6  51 
 PAM  EZ I         8 2 38.54         3.2 0.66            147           84.6  51 
 PTB  HZ EP        8 2 22.20                             130   -1.0710  133 255 
 PTB  HE ES        8 2 42.66                             130    0.6110  133 255 
 PTB  HZ I         8 2 44.49         3.1 0.26            132            133 255 
 OCA  HZ EP        8 2 25.30                             126   -0.03 9  153 359 
 OCA  HN ES        8 2 45.20                             126   -0.53 9  153 359 
 OCA  HZ I         8 2 46.39        17.7 0.18            128            153 359 
 SPBC HZ EP        8 2 25.99                             125    0.17 9  159 213 
 SPBC HN ES        8 2 46.03                             125   -0.57 9  159 213 
 SPBC HZ I         8 2 47.79         4.0 0.18            127            159 213 
 ZAR  HZ EP        8 2 29.16                             120    0.59 9  186 292 
 ZAR  HE ES        8 2 51.83                             120    0.33 9  186 292 
 YPLC HE ES        8 2 52.75                             120    0.33 9  191 148 
                                                                                
