 2016  422 0027 49.6 L   6.803 -73.174144.0  RSN 10 0.3 2.2LRSN                1
 GAP=133        0.65       1.9     2.6  3.8 -0.1170E+01  0.3444E+01  0.1421E+00E
 Epicentro: LOS SANTOS - SANTANDER                                             3
 ACTION:UPD 16-05-05 14:23 OP:rebc STATUS:               ID:20160422002749 L   I
 OLDACT:ARG 16-04-22 12:58 OP:cara STATUS:               ID:20160422001747     3
 2016-04-22-0017-47M.COL___319                                                 6
 STAT SP IPHASW D HRMM SECON CODA AMPLIT PERI AZIMU VELO AIN AR TRES W  DIS CAZ7
 BAR2 EZ IP        028  9.06                             170    0.0810 23.3 182 
 BAR2 EZ ES        028 24.25                             170    0.1310 23.3 182 
 BAR2 EZ I         028 25.52        53.2 0.28            170           23.3 182 
 PAM  EZ EP     C  028 11.82                             150    0.1210 79.1  41 
 PAM  EZ I         028 12.06        72.4 0.20            155           79.1  41 
 PAM  EN ES        028 29.03                             150    0.0710 79.1  41 
 RUS  HZ EP     C  028 13.00                             143   -0.1910  101 174 
 RUS  HN ES        028 31.61                             143    0.0010  101 174 
 RUS  HZ I         028 33.04        16.6 0.24            146            101 174 
 PTB  HZ EP        028 15.76                             132   -0.36 9  145 258 
 PTB  HN ES        028 36.72                             132   -0.11 9  145 258 
 PTB  HZ I         028 44.00        13.7 0.44            132            145 258 
 OCA  HZ EP        028 17.05                             129   -0.63 9  160 354 
 OCA  HN ES        028 39.64                             129    0.04 9  160 354 
 OCA  HZ I         028 43.97        26.4 0.34            131            160 354 
 SPBC HZ EP        028 17.78                             129    0.01 9  162 218 
 SPBC HN ES        028 39.37                             129   -0.40 9  162 218 
 SPBC HZ I         028 44.85        27.6 0.18            130            162 218 
 ZAR  HZ EP        028 21.88                             122    0.29 9  201 292 
 ZAR  HN ES        028 46.90                             122    0.34 9  201 292 
 ZAR  HZ I         028 52.21        14.1 0.18            123            201 292 
 NOR  HZ EP        028 25.15                             118    0.21 8  232 234 
 NOR  HE ES        028 52.64                             118    0.10 8  232 234 
 NOR  HZ I         028 58.49         7.7 0.26            120            232 234 
 CHI  HZ IP     C  028 27.32                             117    0.20 8  248 194 
 CHI  HN ES        028 56.63                             117    0.23 8  248 194 
 CHI  HZ I         028 59.98         7.2 0.64            119            248 194 
 GUY2CHZ EP        028 33.30                             112    0.47 7  299 234 
 GUY2CHN ES        029  6.26                             112   -0.31 7  299 234 
 GUY2CHZ I         029 15.25         7.9 0.36                           299 234 
                                                                                
