 2013  722 0014 29.3 L   6.760 -73.157154.4 *RSN  6 0.3 1.6LRSN                1
 GAP=182        0.63       4.7     4.9  5.4  0.9551E+01 -0.8947E+00 -0.3640E+01E
 Sismo no localizable                                                          3
 ACTION:UPD 13-08-12 10:39 OP:ep   STATUS:               ID:20130722000959 L   I
 OLDACT:UP  13-07-22 09:14 OP:cam  STATUS:               ID:20130722000959 L   3
 OLDACT:UPD 13-07-22 08:35 OP:stll STATUS:               ID:20130722000959 L   3
 2013-07-22-0009-59M.COL___267                                                 6
 STAT SP IPHASW D HRMM SECON CODA AMPLIT PERI AZIMU VELO AIN AR TRES W  DIS CAZ7
 BAR2 SZ ES   1    015  5.55                             173   -0.42 7 18.7 188 
 GIR2 SZ EP   1    014 49.74                             166   -0.39 7 35.5 354 
 BRR  HZ EP        014 51.75                             154    0.2910 72.3 302 
 BRR  HE ES        015  9.05                             154    0.3110 72.3 302 
 BRR  HZ I         015 12.05         8.3 0.22                          72.3 302 
 RUS  HZ EP        014 53.71                             147    0.0810 96.2 175 
 RUS  HN ES        015 12.71                             147    0.1210 96.2 175 
 RUS  HZ I         015 13.39         4.2 0.34                          96.2 175 
 PTB  HZ EP        014 56.74                             134   -0.08 9  146 260 
 PTB  HN ES        015 18.01                             134   -0.26 9  146 260 
 PTB  HZ I         015 25.21         6.6 0.40                           146 260 
 SML  HZ EP   2    015  6.53                             119   -0.28 4  247 336 
                                                                                
