 2014  922 0536  7.7 L   6.787 -73.142150.0  RSN  6 0.4 1.4LRSN                1
 GAP=201        1.11       4.6     7.1  7.5  0.6438E+01  0.2275E+01 -0.7430E+01E
 Epicentro: LOS SANTOS - SANTANDER                                             3
 ACTION:UPD 14-10-03 23:07 OP:nd   STATUS:               ID:20140922053607 L   I
 OLDACT:UP  14-09-22 14:21 OP:cam  STATUS:               ID:20140922053000     3
 OLDACT:REG 14-09-22 12:46 OP:cam  STATUS:               ID:20140922053000     3
 2014-09-22-0530-00M.COL___252                                                 6
 STAT SP IPHASW D HRMM SECON CODA AMPLIT PERI AZIMU VELO AIN AR TRES W  DIS CAZ7
 BAR2 SZ EP        536 28.06                             171    0.1910 22.0 192 
 BAR2 SZ ES        536 42.98                             171   -0.5810 22.0 192 
 BAR2 SZ I         536 44.82         3.4 0.22            170           22.0 192 
 BRR  HZ EP        536 29.66                             153    0.2410 72.3 299 
 BRR  HN ES        536 47.28                             153    0.9510 72.3 299 
 BRR  HZ I         536 50.90         3.6 0.36            152           72.3 299 
 RUS  HZ EP        536 32.03                             145    0.2110 99.1 176 
 RUS  HN ES        536 50.41                             145   -0.1810 99.1 176 
 RUS  HZ I         536 53.19         2.1 0.56            147           99.1 176 
 PTB  HZ EP        536 35.08                             133   -0.00 9  148 259 
 PTB  HN ES        536 56.19                             133   -0.21 9  148 259 
 PTB  HZ I         536 58.26         2.5 0.36            133            148 259 
 SPBC HZ EP        536 36.85                             130    0.35 9  162 219 
 SPBC HN ES        536 58.55                             130   -0.37 9  162 219 
 SPBC HZ I         537  3.99         4.1 0.20            131            162 219 
 SML  HZ EP        536 44.38                             118   -0.40 8  245 335 
 SML  HE ES        537 13.04                             118   -0.63 8  245 335 
 SML  HZ I         537 15.92         3.3 0.32            120            245 335 
                                                                                
