 2013  422 0438  8.2 L   6.811 -73.159150.2  RSN 12 0.4 2.6LRSN                1
 GAP= 64        1.06       3.3     3.4  5.2  0.1209E+01  0.1702E+01  0.1500E+01E
 Epicentro: LOS SANTOS - SANTANDER                                             3
 ACTION:UPD 13-05-22 14:40 OP:EP   STATUS:               ID:20130422043808 L   I
 2013-04-22-0437-37M.COL___212                                                 6
 STAT SP IPHASW D HRMM SECON CODA AMPLIT PERI AZIMU VELO AIN AR TRES W  DIS CAZ7
 BAR2 SZ EP        438 28.37                             171   -0.0210 24.3 186 
 BAR2 SZ ES        438 43.59                             171   -0.5410 24.3 186 
 BAR2 SZ I         438 45.25        72.3 0.30            173           24.3 186 
 GIR2 SZ EP        438 28.47                             168    0.0910 29.9 353 
 GIR2 SZ ES        438 44.36                             168    0.2610 29.9 353 
 GIR2 SZ I         438 45.63        50.9 0.38            162           29.9 353 
 BRR  HZ IP     C  438 30.27                             154    0.5310 69.4 298 
 BRR  HE ES        438 47.47                             154    0.9410 69.4 298 
 BRR  HZ I         438 48.62        41.8 0.14            148           69.4 298 
 PAM  SZ EP        438 31.16                             152    0.2610 77.4  41 
 PAM  SN ES        438 48.47                             152   -0.1310 77.4  41 
 PAM  SZ I         438 50.65        62.1 0.52            147           77.4  41 
 RUS  HZ EP        438 32.20                             144   -0.2910  102 175 
 RUS  HN ES        438 50.84                             144   -0.5910  102 175 
 RUS  HZ I         438 52.15        33.4 0.26            144            102 175 
 PTB  HZ EP        438 35.09                             133   -0.35 9  147 258 
 PTB  HN ES        438 56.37                             133   -0.30 9  147 258 
 PTB  HZ I         439  2.05        62.1 0.34            129            147 258 
 TAM  HZ EP        438 36.51                             131    0.11 9  157 105 
 TAM  HZ I         438 36.56        34.6 0.34            128            157 105 
 TAM  HN ES        438 57.97                             131   -0.41 9  157 105 
 OCA  HZ EP   1    438 36.11                             131   -0.64 7  159 354 
 OCA  HZ I         439  4.32        37.6 0.37            125            159 354 
 YOP  SZ EP        438 38.78                             127    0.04 9  181 153 
 YOP  SN ES        439  3.52                             127    0.96 9  181 153 
 YOP  SN I         439  6.00        46.1 0.16            125            181 153 
 NOR  HZ EP   1    438 44.59                             119    0.44 6  234 234 
 NOR  HN ES        439 11.97                             119   -0.21 8  234 234 
 NOR  HN I         439 17.24        62.4 0.22            116            234 234 
 SML  HZ EP        438 44.72                             119   -0.19 8  242 335 
 SML  HN ES        439 13.38                             119   -0.15 8  242 335 
 SML  HZ I         439 16.13        49.7 0.10            114            242 335 
 URE  HN ES   4    439 19.62                             115   -1.73 0  282 292 
 PRA  HZ EP   1    439  1.86                             107   -0.07 4  392 209 
 PRA  HN ES   1    439 44.01                             107    0.19 4  392 209 
 PRA  HZ I         439 46.56         9.4 0.39            105            392 209 
                                                                                
