 2015  222 0251 52.0 L   6.826 -73.125147.9  RSN  4 0.5 1.4LRSN                1
 GAP=203        1.07       5.2    11.3 10.1  0.2164E+02 -0.2013E+02 -0.9642E+01E
 Epicentro: LOS SANTOS - SANTANDER                                             3
 ACTION:UPD 15-04-30 21:28 OP:nd   STATUS:               ID:20150222025152 L   I
 OLDACT:REG 15-02-22 12:29 OP:mh   STATUS:               ID:20150222024743     3
 2015-02-22-0247-43M.COL___281                                                 6
 STAT SP IPHASW D HRMM SECON CODA AMPLIT PERI AZIMU VELO AIN AR TRES W  DIS CAZ7
 BRR  HZ EP   1    252 14.11                             153    0.71 7 71.9 296 
 BRR  HN ES        252 30.31                             153    0.2010 71.9 296 
 BRR  HZ I         252 38.87         5.2 0.36            145           71.9 296 
 RUS  HZ EP        252 16.62                             143    0.4810  103 177 
 RUS  HN ES        252 34.51                             143   -0.4710  103 177 
 RUS  HZ I         252 36.29         1.9 0.46            146            103 177 
 SPBC HZ EP        252 20.51                             129   -0.48 9  167 219 
 SPBC HN ES        252 43.69                             129    0.07 9  167 219 
 SPBC HZ I         252 52.08         2.6 0.12            128            167 219 
 SML  HZ EP   1    252 28.73                             118    0.18 6  242 335 
 SML  HN ES   1    252 56.11                             118   -0.97 6  242 335 
 SML  HZ I         253  2.56         3.2 0.10            119            242 335 
                                                                                
