 2010 1022 0738 22.9 L   6.864 -72.984139.3  RSN  6 0.5 1.7LRSN                1
 GAP=199        0.95       6.3    14.9 11.7  0.2998E+02 -0.4296E+02 -0.2150E+01E
 Epicentro: CEPITA - SANTANDER                                                 3
 ACTION:UP  11-02-18 11:11 OP:tino STATUS:               ID:20101022073822 L   I
 2010-10-22-0736-32S.COL___125                                                 6
 STAT SP IPHASW D HRMM SECON CODA AMPLIT PERI AZIMU VELO SNR AR TRES W  DIS CAZ7
 BAR2 SZ EP   1    738 42.43                             163     0.3 7   37 216 
 BAR2 SZ ES   2    738 57.02                             163    -0.1 5   37 216 
 BAR2 SZ I         738 59.06         9.5 0.58                            37 216 
 BRR  HZ IP     C  738 44.31                             146     0.110   85 289 
 BRR  HE ES   1    739  1.22                             146     0.4 7   85 289 
 BRR  HZ I         739  3.93        11.3 0.06                            85 289 
 RUS  HZ EP   1    738 46.48                             140    -0.1 7  108 186 
 RUS  HN ES   2    739  4.93                             140    -0.1 5  108 186 
 RUS  HZ I         739  6.23         4.0 0.31                           108 186 
 OCA  SZ EP   2    738 51.36                             129     1.0 5  156 346 
 OCA  SZ ES   1    739 10.87                             129    -0.9 7  156 346 
 OCA  SZ I         739 18.99         3.9 0.20                           156 346 
 HEL  HZ EP   2    739  4.46                             111    -0.5 4  291 255 
 PRA  HZ EP   2    739 17.26                             105    -0.7 3  407 211 
 PRA  HZ I         740  2.57         5.7 0.41                           407 211 
                                                                                
