 2013  122 0439 20.5 L   6.791 -73.163144.2  RSN  7 0.4 1.9LRSN 2.7WRSN        1
 SPEC AVERAGE  MO 13.2 ST  3.6 OM  1.6 f0 5.03 R0.3048 AL 2.64 WI 11.6 MW  2.7 3
 SPEC SD       MO  0.2 ST  2.5 OM  0.6 f00.975 R0.0661 AL      WI      MW  0.1 3
 GAP=135        0.94       3.9     4.1  7.5  0.1289E+01  0.4281E+01  0.9308E+01E
 Epicentro: LOS SANTOS - SANTANDER                                             3
 SPEC PAM SH E MO 13.3 ST  4.5 OM  0.9 f0 5.64 R0.2606 AL 2.67 WI  6.5 MW  2.8 3
 SPEC PAM SH E T 43942 K 0.000 GD  164 VP 7.60 DE 3.00 Q0230.0 QA 0.60 VS 4.20 3
 SPEC PAM SH Z MO 13.4 ST  7.3 OM  1.0 f0 6.15 R0.2390 AL 3.27 WI  7.3 MW  2.8 3
 SPEC PAM SH Z T 43942 K 0.000 GD  164 VP 7.60 DE 3.00 Q0230.0 QA 0.60 VS 4.20 3
 SPEC CHI HH N MO 12.9 ST0.533 OM  1.1 f0 3.58 R0.4106 AL 2.06 WI 14.0 MW  2.6 3
 SPEC CHI HH N T 44027 K 0.000 GD  286 VS 4.20 DE 3.00 Q0230.0 QA 0.60 VS 4.20 3
 SPEC BRR HH N MO 13.2 ST  2.2 OM  1.6 f0 4.76 R0.3088 AL 2.56 WI 18.5 MW  2.7 3
 SPEC BRR HH N T 43958 K 0.000 GD  160 VS 4.20 DE 3.00 Q0230.0 QA 0.60 VS 4.20 3
 ACTION:UPD 13-02-15 09:15 OP:ep   STATUS:               ID:20130122043920 L   I
 2013-01-22-0438-48M.COL___183                                                 6
 STAT SP IPHASW D HRMM SECON CODA AMPLIT PERI AZIMU VELO AIN AR TRES W  DIS CAZ7
 BAR2 SZ EP        439 39.96                             171    0.0310 22.1 186 
 BAR2 SZ I         439 40.48        22.6 0.10            169           22.1 186 
 BRR  HZ EP        439 41.68                             153    0.2610 70.0 300 
 BRR  HZ I         439 41.99        15.3 0.28            152           70.0 300 
 BRR  HN ES        439 58.57                             153    0.8410 70.0 300 
 PAM  SZ EP        439 42.78                             150    0.1110 79.3  40 
 PAM  SZ I         439 43.05        25.2 0.22            152           79.3  40 
 PAM  SN ES        439 59.56                             150   -0.4010 79.3  40 
 RUS  HZ EP        439 44.08                             144    0.0310 99.8 175 
 RUS  HZ I         439 45.19         4.7 0.16            143           99.8 175 
 RUS  HN ES        440  2.09                             144   -0.3210 99.8 175 
 PTB  HZ EP        439 46.84                             132   -0.32 9  146 259 
 PTB  HN ES        440  7.55                             132   -0.41 9  146 259 
 PTB  HN I         440 11.64        12.4 0.30            131            146 259 
 ZAR  HN ES        440 17.51                             122   -0.32 9  203 293 
 CHI  HZ EP        439 58.15                             117    0.19 8  247 195 
 CHI  HN ES        440 27.51                             117    0.33 8  247 195 
 CHI  HN I         440 30.36         4.6 0.52            117            247 195 
                                                                                
