 2015 1222 0415 23.7 L   6.750 -73.147145.2  RSN  6 0.3 1.5LRSN                1
 GAP=233        0.85       4.7     5.3  6.6  0.2320E+00  0.1106E+02  0.2418E+01E
 Epicentro: LOS SANTOS - SANTANDER                                             3
 ACTION:UPD 16-02-04 15:06 OP:cam  STATUS:               ID:20151222041523 L   I
 OLDACT:REG 15-12-22 12:49 OP:dnl  STATUS:               ID:20151222040750     3
 2015-12-22-0407-50M.COL___334                                                 6
 STAT SP IPHASW D HRMM SECON CODA AMPLIT PERI AZIMU VELO AIN AR TRES W  DIS CAZ7
 BAR2 EZ EP        415 43.05                             173   -0.1510 17.9 193 
 BAR2 EZ ES        415 58.06                             173   -0.3110 17.9 193 
 BAR2 EZ I         416  0.79         6.7 0.26            168           17.9 193 
 BRR  HZ EP        415 45.17                             151    0.2010 73.9 302 
 BRR  HE ES        416  2.06                             151    0.5210 73.9 302 
 BRR  HZ I         416  4.03         3.9 0.10            151           73.9 302 
 RUS  HE ES        416  5.26                             145    0.0510 95.1 176 
 RUS  HZ I         416  6.95         3.8 0.33            145           95.1 176 
 PTB  HZ EP        415 50.10                             132   -0.46 9  147 261 
 PTB  HE ES        416 10.96                             132   -0.52 9  147 261 
 SPBC HZ EP        415 52.07                             130    0.29 9  159 220 
 SPBC HN ES        416 13.87                             130    0.22 9  159 220 
 SPBC HZ I         416 20.00         6.3 0.09            129            159 220 
 NOR  HE ES        416 26.82                             119    0.17 8  231 236 
 NOR  HZ I         416 32.73         3.8 0.27            119            231 236 
                                                                                
