 2015  722 0119 12.5 L   6.853 -73.206140.1  RSN  5 0.3 1.9LRSN                1
 GAP=197        0.78       3.4     4.6  6.3  0.4776E+00  0.8998E+01 -0.6824E+01E
 Epicentro: ZAPATOCA - SANTANDER                                               3
 ACTION:UPD 15-09-08 21:50 OP:cam  STATUS:               ID:20150722011912 L   I
 OLDACT:REG 15-07-22 12:45 OP:stll STATUS:               ID:20150722011750     3
 2015-07-22-0117-50M.COL___334                                                 6
 STAT SP IPHASW D HRMM SECON CODA AMPLIT PERI AZIMU VELO AIN AR TRES W  DIS CAZ7
 BAR2 EZ EP        119 31.81                             168    0.2410 28.9 175 
 BAR2 EZ ES        119 46.63                             168    0.1810 28.9 175 
 BAR2 EZ I         119 47.98        17.1 0.24            169           28.9 175 
 RUS  HZ EP        119 35.91                             141   -0.2710  107 173 
 RUS  HN ES        119 54.43                             141   -0.2210  107 173 
 RUS  HZ I         119 56.18        10.6 0.42            144            107 173 
 CPBEREZ EP        119 39.23                             132    0.70 9  143 256 
 CPBEREN ES        119 58.54                             132   -0.30 9  143 256 
 NOR  HZ EP        119 47.71                             117    0.01 8  233 232 
 NOR  HE ES        120 15.11                             117   -0.05 8  233 232 
 NOR  HZ I         120 23.20         6.8 0.24            118            233 232 
 SML  HZ EP        119 47.57                             117   -0.36 8  236 336 
 SML  HN ES        120 15.52                             117   -0.05 8  236 336 
 SML  HZ I         120 23.37         6.4 0.50            117            236 336 
                                                                                
