 2017  422 0240 26.2 L   6.789 -73.142145.9  RSN 11 0.5 2.0LRSN                1
 GAP=153        1.03       4.0     4.1  5.9 -0.3583E+01  0.6747E+01  0.6517E+01E
 Epicentro: LOS SANTOS - SANTANDER                                             3
 ACTION:UPD 17-05-30 21:14 OP:jn   STATUS:               ID:20170422024026 L   I
 OLDACT:REG 17-04-22 11:50 OP:dnl  STATUS:               ID:20170422022934     3
 2017-04-22-0238-00M.COL___362                                                 6
 STAT SP IPHASW D HRMM SECON CODA AMPLIT PERI AZIMU VELO AIN AR TRES W  DIS CAZ7
 BAR2 EZ IP     D  240 45.52                             171   -0.2810 22.2 192 
 BAR2 EZ ES        241  1.12                             171    0.0210 22.2 192 
 BAR2 EZ I         241  2.27        22.4 0.20            169           22.2 192 
 BRR  HZ IP     C  240 47.40                             152    0.0110 72.2 299 
 BRR  HE ES        241  4.73                             152    0.7910 72.2 299 
 BRR  HZ I         241  8.69        18.4 0.24            152           72.2 299 
 PAM  EZ IP     C  240 48.33                             151   -0.1110 78.0  39 
 PAM  EN ES        241  5.79                             151   -0.0210 78.0  39 
 PAM  EZ I         241  7.79        22.8 0.56            155           78.0  39 
 PTB  HZ EP   2    240 52.46                             132   -0.71 5  148 259 
 PTB  HN ES        241 13.33                             132   -0.90 9  148 259 
 PTB  HZ I         241 16.57         8.2 0.26            132            148 259 
 SPBC HZ EP        240 54.42                             129   -0.20 9  163 219 
 SPBC HN ES        241 16.99                             129    0.19 9  163 219 
 SPBC HZ I         241 18.41        20.2 0.42            130            163 219 
 ZAR  HZ EP        240 58.31                             122   -0.41 9  205 292 
 ZAR  HN ES        241 24.05                             122   -0.05 9  205 292 
 ZAR  HZ I         241 28.16        27.0 0.96            123            205 292 
 NOR  HZ EP        241  1.53                             119   -0.34 8  234 235 
 NOR  HE ES        241 29.79                             119    0.07 8  234 235 
 NOR  HZ I         241 34.99         6.7 0.20            119            234 235 
 CHI  HZ EP   2    241  3.71                             117   -0.05 4  248 195 
 CHI  HE ES        241 32.82                             117   -0.26 8  248 195 
 CHI  HZ I         241 37.28         3.9 0.22            119            248 195 
 HEL  HZ EP        241  7.46                             115    1.05 8  272 256 
 HEL  HN ES        241 37.79                             115    0.00 8  272 256 
 HEL  HZ I         241 44.58         3.7 0.24            116            272 256 
 CBOC HZ EP        241 13.93                             110    0.83 7  334 252 
 CBOC HE ES        241 49.38                             110   -0.32 7  334 252 
 CBOC HZ I         241 52.27         1.6 0.42            111            334 252 
 PRA  HZ EP        241 19.81                             107    0.21 6  391 210 
 PRA  HE ES        242  2.17                             107    0.90 6  391 210 
 PRA  HZ I         242  7.15         6.7 0.30            108            391 210 
                                                                                
