 2015  722 0628 30.1 L   6.819 -73.160140.4  RSN  7 0.4 1.9LRSN                1
 GAP=134        1.01       3.5     4.5  7.0 -0.6010E+00  0.1098E+02 -0.7293E+01E
 Epicentro: LOS SANTOS - SANTANDER                                             3
 ACTION:UPD 15-09-08 21:50 OP:cam  STATUS:               ID:20150722062830 L   I
 OLDACT:REG 15-07-22 12:55 OP:stll STATUS:               ID:20150722061741     3
 2015-07-22-0617-41M.COL___334                                                 6
 STAT SP IPHASW D HRMM SECON CODA AMPLIT PERI AZIMU VELO AIN AR TRES W  DIS CAZ7
 BAR2 EZ IP     D  628 49.40                             169    0.2710 25.2 186 
 BAR2 EZ I         628 49.49        11.9 0.20            171           25.2 186 
 BAR2 EZ ES        629  4.65                             169    0.6810 25.2 186 
 PAM  EZ EP        628 51.75                             150    0.0310 76.8  41 
 PAM  EN ES        629  7.96                             150   -0.6110 76.8  41 
 RUS  HZ EP        628 53.16                             142   -0.3410  103 175 
 RUS  HN ES        629 11.73                             142   -0.0110  103 175 
 RUS  HZ I         629 12.75         3.6 0.48            146            103 175 
 CPBEREZ EP        628 56.30                             131   -0.25 9  147 258 
 CPBEREN ES        629 16.57                             131   -0.60 9  147 258 
 OCA  HZ EP        628 58.29                             129    0.50 9  158 354 
 OCA  HN ES        629 19.46                             129    0.07 9  158 354 
 OCA  HZ I         629 23.31        16.8 0.20            129            158 354 
 ZAR  HZ EP        629  2.13                             121    0.15 9  202 292 
 ZAR  HN ES        629 27.30                             121    0.46 9  202 292 
 ZAR  HZ I         629 33.86         9.7 0.38            122            202 292 
 SML  HZ EP        629  6.30                             117    0.14 8  241 335 
 SML  HN ES        629 33.81                             117   -0.48 8  241 335 
 SML  HZ I         629 38.73        10.2 0.10            117            241 335 
                                                                                
