 2012  122 0112 41.4 L   6.742 -73.188157.9  RSN  4 0.3 1.6LRSN                1
 GAP=134        0.73       6.7     6.5  9.7  0.1039E+02 -0.1537E+02 -0.1234E+02E
 Epicentro: VILLANUEVA - SANTANDER                                             3
 ACTION:UP  12-02-03 08:19 OP:REBC STATUS:               ID:20120122011241 L   I
 2012-01-22-0110-00M.COL___186                                                 6
 STAT SP IPHASW D HRMM SECON CODA AMPLIT PERI AZIMU VELO SNR AR TRES W  DIS CAZ7
 BRR  HZ EP   1    113  3.83                             155     0.0 7   71 305 
 BRR  HZ I         113  4.41         7.4 0.35                            71 305 
 BRR  HN ES   1    113 21.71                             155     0.4 7   71 305 
 PAM  SZ EP   1    113  4.89                             150    -0.4 7   85  39 
 RUS  HZ EP   1    113  6.31                             148     0.4 7   95 173 
 RUS  HE ES   1    113 24.94                             148    -0.1 7   95 173 
 PTB  HZ EP   1    113  9.06                             136     0.2 7  142 261 
 PTB  HN ES   1    113 29.82                             136    -0.5 7  142 261 
                                                                                
