 2010 1222 0916 48.4 L   6.789 -73.097146.8  RSN  9 0.3 2.0LRSN                1
 GAP=164        0.52       2.2     5.2  4.5 -0.4355E+01  0.8983E+01  0.7198E-01E
 Epicentro: LOS SANTOS - SANTANDER                                             3
 ACTION:UP  11-01-14 15:26 OP:pat  STATUS:               ID:20101222091648 L   I
 2010-12-22-0914-19S.COL___135                                                 6
 STAT SP IPHASW D HRMM SECON CODA AMPLIT PERI AZIMU VELO SNR AR TRES W  DIS CAZ7
 BAR2 SZ EP   1    917  8.01                             170    -0.210   24 204 
 BAR2 SZ ES   1    917 23.60                             170     0.010   24 204 
 BAR2 SZ I         917 24.80        34.0 0.24                            24 204 
 RUS  HZ EP   1    917 11.89                             145    -0.310   99 179 
 RUS  HE ES   1    917 30.70                             145     0.010   99 179 
 RUS  HZ I         917 31.72        11.0 0.10                            99 179 
 GRA  SZ EP   1    917 13.82                             137     0.1 9  125  15 
 GRA  SZ ES   1    917 33.68                             137     0.2 9  125  15 
 GRA  SZ I         917 38.24         8.7 0.39                           125  15 
 OCA  SZ EP   1    917 16.55                             130    -0.4 9  162 351 
 OCA  SZ ES   1    917 39.38                             130     0.1 9  162 351 
 OCA  SZ I         917 43.27         9.5 0.81                           162 351 
 NOR  SZ EP   2    917 24.16                             118    -0.4 5  239 236 
 NOR  SE ES   2    917 52.43                             118    -0.4 5  239 236 
 CHI  HZ IP     C  917 26.10                             117    -0.110  249 196 
 CHI  HE ES   1    917 56.02                             117     0.4 7  249 196 
 CHI  HZ I         918  0.80         5.0 0.25                           249 196 
 HEL  HZ EP   2    917 29.90                             115     0.7 5  277 256 
 HEL  HN ES   2    918  0.98                             115    -0.1 5  277 256 
 HEL  HZ I         918  5.92         5.5 0.30                           277 256 
 RREF HZ EP   1    917 35.31                             111     0.3 6  325 230 
 RREF HZ I         918 17.20         7.3 0.35                           325 230 
 PRA  HZ EP   1    917 42.35                             107     0.2 6  394 210 
 PRA  HN ES   2    918 24.22                             107     0.2 4  394 210 
                                                                                
