 2014  522 0648 50.0 L   6.799 -73.176145.5  RSN 14 0.4 2.0LRSN                1
 GAP=133        0.89       2.6     3.4  5.4 -0.1551E+01  0.3612E+01  0.1780E+01E
 Epicentro: LOS SANTOS - SANTANDER                                             3
 ACTION:UPD 15-03-16 16:59 OP:nd   STATUS:               ID:20140522064850 L   I
 OLDACT:REG 14-05-22 13:20 OP:spq  STATUS:               ID:20140522064807     3
 2014-05-22-0648-07M.COL___252                                                 6
 STAT SP IPHASW D HRMM SECON CODA AMPLIT PERI AZIMU VELO AIN AR TRES W  DIS CAZ7
 BRR  HZ EP     C  649 11.57                             153    0.6010 68.3 300 
 BRR  HN ES        649 27.61                             153    0.2810 68.3 300 
 BRR  HZ I         649 30.87        11.6 0.41            150           68.3 300 
 PAM  SZ EP        649 12.56                             150    0.2210 79.6  41 
 PAM  SN ES        649 29.88                             150    0.1310 79.6  41 
 PAM  SZ I         649 31.79        16.4 0.84            155           79.6  41 
 RUS  HZ EP        649 13.61                             144   -0.1410  101 174 
 RUS  HN ES   1    649 32.00                             144   -0.27 7  101 174 
 RUS  HZ I         649 35.22        11.3 0.52            145            101 174 
 PTB  HZ EP        649 16.22                             133   -0.44 9  144 259 
 PTB  HN ES        649 37.48                             133    0.03 9  144 259 
 OCA  HZ EP   1    649 18.53                             130    0.25 7  160 354 
 OCA  HN ES        649 39.88                             130   -0.45 9  160 354 
 OCA  HZ I         649 45.62        13.2 0.13            131            160 354 
 SPBC HZ EP        649 18.35                             129    0.07 9  161 218 
 SPBC HN ES        649 40.01                             129   -0.33 9  161 218 
 SPBC HZ I         649 43.33        17.4 0.38            129            161 218 
 ZAR  HZ EP        649 22.78                             123    0.66 9  201 293 
 ZAR  HN ES   1    649 47.43                             123    0.26 6  201 293 
 ZAR  HZ I         649 53.78        14.0 0.23            123            201 293 
 SML  HZ EP        649 25.98                             118   -0.50 8  242 336 
 SML  HN ES        649 54.22                             118   -0.71 8  242 336 
 SML  HZ I         650  2.08        16.4 0.10            119            242 336 
 CHI  HZ EP        649 27.62                             117    0.03 8  248 194 
 CHI  HN ES   1    649 56.60                             117   -0.30 6  248 194 
 CHI  HZ I         650  2.93         5.7 0.36            118            248 194 
 ROSC BZ EP   1    649 27.98                             117    0.06 6  251 210 
 ROSC BN ES   4    649 59.85                             117    2.36 0  251 210 
 ROSC BZ I         650  3.31        12.7 0.41            118            251 210 
 HEL  HZ EP   4    649 32.24                             115    2.39 0  269 256 
 HEL  HN ES        650  1.30                             115    0.38 8  269 256 
 HEL  HZ I         650  8.57         4.8 0.17            115            269 256 
 GUY2CHZ EP   4    649 34.61                             112    1.32 0  298 234 
 GUY2CHN ES   4    650 11.50                             112    4.45 0  298 234 
 GUY2CHZ I         650 16.73         4.6 0.36                           298 234 
 RREF HZ EP   4    649 38.05                             111    2.21 0  319 229 
 RREF HN ES   4    650 14.72                             111    3.13 0  319 229 
 RREF HZ I         650 21.24         7.5 0.32            112            319 229 
 CBOC HZ EP        649 37.05                             110    0.51 7  330 252 
 CBOC HN ES        650 12.16                             110   -0.68 7  330 252 
 CBOC HZ I         650 26.21         2.2 0.49            110            330 252 
 SJC  HZ EP   4    649 43.51                             106   -1.85 0  407 327 
 SJC  HN ES   4    650 21.22                             106   -7.31 0  407 327 
                                                                                
