 2017 1022 0449 20.4 L   6.789 -73.133149.4  RSN  5 0.3 1.3LRSN                1
 GAP=238        0.76       5.2     5.6  6.4  0.7204E+01  0.1018E+02  0.6271E+01E
 Epicentro: LOS SANTOS - SANTANDER                                             3
 ACTION:UPD 17-11-07 19:35 OP:rebc STATUS:               ID:20171022044920 L   I
 OLDACT:UP  17-10-22 16:36 OP:dani STATUS:               ID:20171022044608     3
 OLDACT:UP  17-10-22 16:36 OP:dani STATUS:               ID:20171022044608     3
 OLDACT:UP  17-10-22 16:35 OP:dani STATUS:               ID:20171022044608     3
 OLDACT:UP  17-10-22 16:35 OP:dani STATUS:               ID:20171022044608     3
 OLDACT:UP  17-10-22 16:34 OP:dani STATUS:               ID:20171022044608     3
 OLDACT:REG 17-10-22 13:46 OP:dani STATUS:               ID:20171022044608     3
 2017-10-22-0448-00M.COL___414                                                 6
 STAT SP IPHASW D HRMM SECON CODA AMPLIT PERI AZIMU VELO AIN AR TRES W  DIS CAZ7
 BAR2 EZ EP        449 40.34                             171   -0.1510 22.4 194 
 BAR2 EZ ES        449 55.75                             171   -0.3910 22.4 194 
 BAR2 EZ I         449 58.30         7.0 0.43            173           22.4 194 
 BRR  HN ES        449 59.45                             152    0.4710 73.1 299 
 BRR  HZ I         450  3.02         3.6 0.29            151           73.1 299 
 RUS  HN ES        450  3.39                             145    0.2010 99.2 177 
 PTB  HZ EP        449 47.61                             133   -0.21 9  149 259 
 PTB  HN ES        450  8.88                             133   -0.29 9  149 259 
 PTB  HZ I         450 11.97         1.2 0.13            134            149 259 
 SPBC HZ EP        449 49.52                             130    0.30 9  163 220 
 SPBC HN ES        450 11.73                             130    0.06 9  163 220 
                                                                                
