 2014  422 0458 59.6 L   6.808 -73.142141.8  RSN  5 0.5 1.6LRSN                1
 GAP=201        0.85       5.6     7.4 13.7  0.1664E+02 -0.2154E+02 -0.4236E+02E
 Epicentro: LOS SANTOS - SANTANDER                                             3
 OLDACT:REG 14-04-22 13:32 OP:fm   STATUS:               ID:20140422045644     3
 ACTION:UPD 14-05-13 23:10 OP:nd   STATUS:               ID:20140422045859 L   I
 OLDACT:UP  14-04-22 13:38 OP:fm   STATUS:               ID:20140422045644     3
 2014-04-22-0456-44M.COL___236                                                 6
 STAT SP IPHASW D HRMM SECON CODA AMPLIT PERI AZIMU VELO AIN AR TRES W  DIS CAZ7
 RUS  HZ EP   1    459 23.14                             143    0.15 7  101 176 
 RUS  HZ I         459 40.18         3.6 2.88            140            101 176 
 RUS  HE ES   1    459 41.10                             143   -0.16 7  101 176 
 PTB  HZ EP   1    459 25.85                             131   -0.42 7  148 259 
 PTB  HN ES   1    459 46.31                             131   -0.78 7  148 259 
 PTB  HZ I         459 54.07         4.5 0.50            133            148 259 
 SPBC HZ EP   1    459 27.73                             128   -0.12 7  164 219 
 SPBC HE ES   1    459 50.76                             128    0.85 7  164 219 
 SPBC HZ I         459 56.84         5.0 0.42            128            164 219 
 ZAR  HZ EP   2    459 32.39                             121    0.63 4  204 292 
 ZAR  HE ES   1    459 57.21                             121    0.33 6  204 292 
 ZAR  HZ I         5 0  3.04         3.5 0.30            123            204 292 
 SML  HZ EP   1    459 35.52                             117   -0.39 6  243 335 
 SML  HN ES   1    5 0  4.66                             117    0.41 6  243 335 
 SML  HZ I         5 0  8.41         4.4 0.10            117            243 335 
                                                                                
