 2012  322 0823 49.3 L   6.666 -73.146157.1  RSN  5 0.3 1.6LRSN                1
 GAP=227        0.68       8.3     7.6  8.5  0.3660E+02  0.7009E+01  0.1833E+01E
 ACTION:UP  12-03-31 23:21 OP:EP   STATUS:               ID:20120322082349 L   I
 2012-03-22-0820-00M.COL___202                                                 6
 STAT SP IPHASW D HRMM SECON CODA AMPLIT PERI AZIMU VELO SNR AR TRES W  DIS CAZ7
 BAR2 SZ EP        824 10.32                             177     0.210    9 207 
 BAR2 SZ ES   2    824 25.87                             177    -0.5 5    9 207 
 BAR2 SZ I         824 26.93         9.8 0.19                             9 207 
 BRR  HZ EP        824 12.34                             152     0.210   79 308 
 BRR  HZ I         824 12.52         9.7 0.16                            79 308 
 BRR  HE ES   2    824 29.88                             152    -0.1 5   79 308 
 RUS  HZ EP        824 12.91                             150    -0.410   86 175 
 RUS  HN ES   2    824 32.51                             150     0.6 5   86 175 
 RUS  HZ I         824 33.45         4.9 0.64                            86 175 
 PTB  HZ EP        824 17.20                             135     0.1 9  146 265 
 PTB  HN ES   2    824 38.61                             135    -0.1 5  146 265 
 PTB  HZ I         824 45.62         2.2 0.41                           146 265 
 ZAR  HN ES   2    824 49.24                             124    -0.3 4  210 296 
                                                                                
