 2010  722 0346 40.0 L   6.736 -73.508112.0  RSN  4 0.2 1.1LRSN                1
 GAP=178        0.45       4.4     9.3  7.7  0.2992E+02 -0.4800E+02 -0.2001E+02E
 Epicentro: EL CARMEN DE CHUCURI - SANTANDER                                   3
 ACTION:UPD 10-12-01 15:19 OP:pat  STATUS:               ID:20100722034640 L   I
 2010-07-22-0344-40S.COL___123                                                 6
 STAT SP IPHASW D HRMM SECON CODA AMPLIT PERI AZIMU VELO AIN AR TRES W  DIS CAZ7
 BAR2 SZ EP   1    346 56.18                             159     0.1 7   39 114 
 BAR2 SZ I         347  9.10         3.0 0.05                            39 114 
 BRR  HZ EP        346 55.96                             156    -0.110   47 331 
 BRR  HN ES   1    347  8.86                             156     0.2 7   47 331 
 BRR  HZ I         347  9.58         5.3 0.13                            47 331 
 RUS  HZ EP   2    347  1.26                             134     0.3 5  105 153 
 RUS  HE ES   1    347 17.15                             134    -0.1 7  105 153 
 RUS  HZ I         347 18.21         2.5 0.14                           105 153 
 GUE  SZ IP        347  3.72                             126     0.0 9  137  28 
                                                                                
