 2014  322 0140 49.9 L   6.808 -73.148138.1  RSN 13 0.4 2.1LRSN                1
 GAP= 71        0.92       2.8     2.8  5.6  0.9702E-01  0.3802E+01  0.1231E+01E
 Epicentro: LOS SANTOS - SANTANDER                                             3
 OLDACT:REG 14-03-22 07:37 OP:mh   STATUS:               ID:20140322013819     3
 ACTION:UPD 14-04-09 23:19 OP:nd   STATUS:               ID:20140322014049 L   I
 OLDACT:UP  14-03-22 11:38 OP:mh   STATUS:               ID:20140322013819     3
 OLDACT:UP  14-03-22 11:37 OP:mh   STATUS:               ID:20140322013819     3
 OLDACT:UP  14-03-22 11:36 OP:mh   STATUS:               ID:20140322013819     3
 OLDACT:UP  14-03-22 11:36 OP:mh   STATUS:               ID:20140322013819     3
 2014-03-22-0138-19M.COL___246                                                 6
 OLDACT:UP  14-03-22 11:36 OP:mh   STATUS:               ID:20140322013819     3
 STAT SP IPHASW D HRMM SECON CODA AMPLIT PERI AZIMU VELO AIN AR TRES W  DIS CAZ7
 BAR2 SZ IP     D  141  8.73                             170    0.1210 24.1 189 
 BAR2 SZ ES   1    141 23.11                             170   -0.11 7 24.1 189 
 BAR2 SZ I         141 24.65        52.1 0.28            167           24.1 189 
 BRR  HZ EP        141 10.63                             151    0.4510 70.5 298 
 BRR  HN ES   1    141 26.08                             151    0.08 7 70.5 298 
 BRR  SZ I         141 32.92        24.5 0.12            150           70.5 298 
 PAM  SZ EP        141 11.59                             149    0.3310 76.9  40 
 PAM  SN ES   1    141 28.37                             149    0.44 7 76.9  40 
 PAM  SZ I         141 30.41        27.5 0.44            155           76.9  40 
 RUS  HZ EP   1    141 12.92                             142   -0.04 7  101 176 
 RUS  HN ES   1    141 30.46                             142   -0.49 7  101 176 
 RUS  SZ I         141 33.63         6.4 0.50            142            101 176 
 PTB  HZ EP   1    141 15.59                             130   -0.64 7  148 258 
 PTB  HN ES   1    141 36.15                             130   -0.63 7  148 258 
 PTB  SZ I         141 38.61        20.5 0.12            130            148 258 
 TAM  HZ IP     D  141 17.06                             129    0.04 9  156 105 
 TAM  HN ES        141 38.12                             129   -0.05 9  156 105 
 TAM  SZ I         141 38.94        12.2 0.24            132            156 105 
 OCA  HZ EP   1    141 17.11                             128   -0.42 7  159 353 
 OCA  HN ES        141 38.88                             128   -0.21 9  159 353 
 OCA  SZ I         141 44.61        18.2 0.28            130            159 353 
 ZAR  HZ EP        141 21.68                             121   -0.11 9  203 292 
 ZAR  HN ES        141 47.51                             121    0.85 9  203 292 
 ZAR  SZ I         141 55.27        13.9 0.44            121            203 292 
 NOR  HZ EP        141 25.43                             117    0.22 8  235 234 
 NOR  HN ES        141 52.68                             117   -0.09 8  235 234 
 NOR  SZ I         141 58.21         6.0 0.38            117            235 234 
 SML  HZ EP        141 25.20                             116   -0.80 8  243 335 
 SML  HN ES   1    141 53.41                             116   -0.75 6  243 335 
 SML  SZ I         142  0.84        27.0 0.08            117            243 335 
 CHI  HZ EP        141 27.42                             115    0.16 8  249 195 
 CHI  HN ES   1    141 56.09                             115   -0.31 6  249 195 
 CHI  SZ I         142 20.94         4.8 2.08            116            249 195 
 HEL  HZ EP        141 30.50                             113    0.78 8  272 256 
 HEL  HE ES     C  142  0.59                             113   -0.19 8  272 256 
 HEL  HZ I         142  7.67         6.2 0.43            114            272 256 
 SJC  HZ EP   4    141 36.02                             104   -9.09 0  408 327 
 SJC  HN ES   4    142 23.48                             104   -4.70 0  408 327 
 SJC  SZ I         142 35.34        14.5 3.64            106            408 327 
                                                                                
