 2012  322 0422 17.7 L   6.743 -73.184156.2  RSN  5 0.3 1.4LRSN                1
 GAP=229        0.63       8.3     7.0  8.2  0.2788E+02  0.7382E+01 -0.5090E+01E
 ACTION:UP  12-03-31 23:21 OP:EP   STATUS:               ID:20120322042217 L   I
 2012-03-22-0420-00M.COL___202                                                 6
 STAT SP IPHASW D HRMM SECON CODA AMPLIT PERI AZIMU VELO SNR AR TRES W  DIS CAZ7
 BAR2 SZ EP        422 38.18                             174    -0.310   17 179 
 BAR2 SZ ES   2    422 54.28                             174    -0.4 5   17 179 
 BRR  HZ EP        422 40.10                             154     0.110   71 305 
 BRR  HE ES   2    422 57.78                             154     0.4 5   71 305 
 BRR  HZ I         422 59.16         4.8 0.18                            71 305 
 RUS  HZ EP   2    422 42.47                             147     0.4 5   95 173 
 RUS  HZ I         423  1.44         3.2 0.69                            95 173 
 RUS  HN ES   2    423  1.58                             147     0.5 5   95 173 
 PTB  HZ EP        422 45.03                             135     0.0 9  142 261 
 PTB  HN ES   2    423  6.12                             135    -0.3 5  142 261 
 PTB  HZ I         423 11.48         1.7 0.42                           142 261 
 ZAR  HN ES   2    423 16.50                             125     0.1 4  203 294 
 ZAR  HZ I         423 22.62         3.4 0.36                           203 294 
                                                                                
