 2012  122 0536 46.5 L   6.689 -73.105148.0  RSN  5 0.3 1.7LRSN                1
 GAP=187        0.60       8.3     4.5  7.5 -0.1170E+01  0.2646E+01  0.1168E+02E
 Epicentro: JORDAN - SANTANDER                                                 3
 ACTION:UP  12-02-03 08:19 OP:REBC STATUS:               ID:20120122053646 L   I
 2012-01-22-0530-00M.COL___186                                                 6
 STAT SP IPHASW D HRMM SECON CODA AMPLIT PERI AZIMU VELO SNR AR TRES W  DIS CAZ7
 BAR2 SZ EP   1    537  6.61                             174     0.4 7   14 219 
 BAR2 SZ ES   2    537 21.14                             174    -0.5 5   14 219 
 BAR2 SZ I         537 23.64         5.8 0.32                            14 219 
 BRR  HZ EP        537  8.46                             150     0.010   81 305 
 BRR  HZ I         537  8.74        12.5 0.17                            81 305 
 BRR  HE ES   1    537 26.00                             150     0.4 7   81 305 
 PAM  SZ EP   1    537  9.23                             149    -0.1 7   85  32 
 PAM  SN ES   2    537 26.98                             149    -0.2 5   85  32 
 PTB  HZ EP   1    537 13.60                             132    -0.2 7  150 264 
 PTB  HN ES   2    537 35.09                             132    -0.1 5  150 264 
 ZAR  HE ES   1    537 45.93                             122    -0.2 6  213 295 
 ZAR  HZ I         537 51.68         4.6 0.29                           213 295 
                                                                                
