 2011  122 0257 15.0 L   6.789 -73.160141.3  RSN  6 0.3 1.8LRSN                1
 GAP=181        0.62       3.1     8.0  6.5 -0.5343E+01  0.2238E+02 -0.1921E+01E
 Epicentro: LOS SANTOS - SANTANDER                                             3
 ACTION:UP  11-02-08 08:41 OP:pat  STATUS:               ID:20110122025715 L   I
 2011-01-22-0254-21S.COL___138                                                 6
 STAT SP IPHASW D HRMM SECON CODA AMPLIT PERI AZIMU VELO SNR AR TRES W  DIS CAZ7
 BAR2 SZ EP   1    257 33.79                             171    -0.2 7   22 187 
 BAR2 SZ ES   1    257 48.81                             171    -0.1 7   22 187 
 BAR2 SZ I         257 50.40        15.6 0.07                            22 187 
 RUS  HZ EP   1    257 37.81                             143    -0.4 7   99 175 
 RUS  HE ES   1    257 56.64                             143     0.3 7   99 175 
 RUS  HZ I         257 58.24         8.9 0.44                            99 175 
 OCA  SZ EP   1    257 43.35                             128     0.3 7  161 354 
 OCA  SZ ES   1    258  4.85                             128    -0.1 7  161 354 
 OCA  SZ I         258  8.77         7.3 0.38                           161 354 
 NOR  SZ EP   2    257 50.23                             118     0.0 4  233 235 
 NOR  SN ES   2    258 17.94                             118     0.2 4  233 235 
 CHI  HZ EP   1    257 52.03                             116    -0.2 6  247 195 
 CHI  HZ I         257 54.57         3.4 0.41                           247 195 
 CHI  HE ES   2    258 21.60                             116     0.3 4  247 195 
 RREF HZ EP   2    258  1.59                             110     0.9 3  320 229 
 RREF HN ES   2    258 35.69                             110    -0.6 3  320 229 
 RREF HZ I         258 46.02         3.9 0.62                           320 229 
                                                                                
