 2015  222 0143 42.6 L   6.829 -73.177141.3  RSN  7 0.4 1.7LRSN                1
 GAP=131        1.04       4.6     4.9  7.6  0.1574E+01  0.1078E+02 -0.9232E+01E
 Epicentro: ZAPATOCA - SANTANDER                                               3
 ACTION:UPD 15-04-30 21:28 OP:nd   STATUS:               ID:20150222014342 L   I
 OLDACT:REG 15-02-22 12:27 OP:mh   STATUS:               ID:20150222013742     3
 2015-02-22-0137-42M.COL___281                                                 6
 STAT SP IPHASW D HRMM SECON CODA AMPLIT PERI AZIMU VELO AIN AR TRES W  DIS CAZ7
 BAR2 EZ EP        144  1.37                             169   -0.4110 26.1 181 
 BAR2 EZ ES        144 16.26                             169   -0.4710 26.1 181 
 BAR2 EZ I         144 18.82         8.5 0.24            172           26.1 181 
 PAM  SZ EP        144  5.05                             150    0.6810 77.3  43 
 PAM  SN ES   1    144 21.76                             150    0.44 7 77.3  43 
 PAM  SZ I         144 23.90         8.4 0.46            152           77.3  43 
 RUS  HZ EP        144  6.02                             142   -0.1810  104 174 
 RUS  HN ES        144 24.80                             142    0.2110  104 174 
 RUS  HZ I         144 25.49         6.1 0.36            147            104 174 
 PTB  HZ EP   1    144  8.54                             131   -0.44 7  145 257 
 PTB  HN ES        144 29.57                             131    0.04 9  145 257 
 PTB  HZ I         144 31.35         5.0 0.16            133            145 257 
 ZAR  HZ EP   1    144 14.36                             122    0.04 6  200 292 
 ZAR  HE ES        144 39.47                             122    0.42 9  200 292 
 ZAR  HZ I         144 46.57         3.3 0.10            123            200 292 
 SML  HZ EP        144 17.73                             117   -0.80 8  239 336 
 SML  HN ES   1    144 46.40                             117   -0.14 6  239 336 
 SML  HZ I         144 50.06         8.4 0.26            118            239 336 
 GUY2CHZ EP        144 26.59                             111    0.67 7  300 234 
 GUY2CHN ES   4    144 58.46                             111   -1.22 0  300 234 
 GUY2CHZ I         145  8.18         2.1 0.36                           300 234 
 MON  HN ES   4    145  4.72                             108   -3.85 0  349 308 
                                                                                
