 2014 1122 0121  1.0 L   6.754 -73.144155.1  RSN  6 0.4 1.2LRSN                1
 GAP=139        1.07       5.7     5.0  7.8  0.2535E+01  0.6597E+01  0.3728E+00E
 Epicentro: LOS SANTOS - SANTANDER                                             3
 ACTION:UPD 14-12-19 15:45 OP:nd   STATUS:               ID:20141122012101 L   I
 OLDACT:REG 14-11-22 12:58 OP:fm   STATUS:               ID:20141122011748     3
 2014-11-22-0117-48M.COL___300                                                 6
 STAT SP IPHASW D HRMM SECON CODA AMPLIT PERI AZIMU VELO AIN AR TRES W  DIS CAZ7
 BAR2 SZ EP        121 22.35                             173    0.7110 18.3 193 
 BAR2 SZ ES        121 37.98                             173    0.2210 18.3 193 
 BAR2 SZ I         121 40.53         3.4 0.28            174           18.3 193 
 BRR  HZ EP        121 23.88                             153    0.6010 73.9 302 
 BRR  HN ES        121 40.84                             153    0.1510 73.9 302 
 BRR  HZ I         121 50.03         5.1 0.28            154           73.9 302 
 PAM  SZ EP        121 23.73                             151   -0.6810 81.3  37 
 PAM  SN ES        121 42.51                             151   -0.1910 81.3  37 
 PAM  SZ I         121 44.71         3.0 0.24            155           81.3  37 
 RUS  HZ EP        121 25.42                             147    0.1210 95.5 176 
 RUS  HN ES        121 43.99                             147   -0.2910 95.5 176 
 RUS  HZ I         121 46.20         1.6 0.22            152           95.5 176 
 PTB  HZ EP        121 28.37                             134   -0.28 9  147 261 
 PTB  HN ES        121 49.83                             134   -0.41 9  147 261 
 PTB  HZ I         121 52.88         2.2 0.48            137            147 261 
 ZAR  HN ES        122  0.19                             124   -0.03 8  206 293 
                                                                                
