 2017 1122 0734 21.0 L   6.797 -73.174151.1  RSN  4 0.1 1.0LRSN                1
 GAP=142        0.33       2.9     2.1  3.2 -0.4019E-01  0.4184E+00 -0.3671E+01E
 Epicentro: LOS SANTOS - SANTANDER                                             3
 ACTION:UPD 17-12-12 19:58 OP:rebc STATUS:               ID:20171122073421 L   I
 OLDACT:UP  17-11-22 16:11 OP:dani STATUS:               ID:20171122072745     3
 OLDACT:UP  17-11-22 16:11 OP:dani STATUS:               ID:20171122072745     3
 OLDACT:UP  17-11-22 16:10 OP:dani STATUS:               ID:20171122072745     3
 OLDACT:REG 17-11-22 13:20 OP:osc  STATUS:               ID:20171122072745     3
 2017-11-22-0728-00M.COL___480                                                 6
 STAT SP IPHASW D HRMM SECON CODA AMPLIT PERI AZIMU VELO AIN AR TRES W  DIS CAZ7
 BAR2 EZ EP        734 41.10                             171   -0.1510 22.7 182 
 BAR2 EZ ES        734 57.02                             171   -0.0410 22.7 182 
 BAR2 EZ I         734 59.66         4.0 0.54            171           22.7 182 
 PAM  EZ EP        734 44.01                             151    0.1010 79.6  41 
 RUS  HZ EP        734 45.25                             145   -0.0210  101 174 
 RUS  HN ES        735  4.28                             145    0.0710  101 174 
 RUS  HZ I         735  5.81         1.2 0.30            148            101 174 
 PTB  HZ EP        734 48.14                             134    0.01 9  145 259 
 PTB  HE ES        735  9.32                             134    0.03 9  145 259 
 PTB  HZ I         735 14.01         0.9 0.42            134            145 259 
                                                                                
