 2010  622 0205 41.3 L   7.096 -73.372116.0  RSN  6 0.5 1.6LRSN                1
 GAP=124        1.07       5.9    11.2 13.1 -0.2638E+02 -0.9364E+01  0.1479E+02E
 Epicentro: LEBRIJA - SANTANDER                                                3
 ACTION:UP  10-08-24 10:12 OP:vdl  STATUS:               ID:20100622020541 L   I
 2010-06-22-0202-04S.COL___118                                                 6
 STAT SP IPHASW D HRMM SECON CODA AMPLIT PERI AZIMU VELO SNR AR TRES W  DIS CAZ7
 BRR  HZ EP        2 5 57.64                             161     0.210   38 272 
 BRR  HZ I         2 5 57.84        12.5 0.09                            38 272 
 BRR  HE ES   2    2 6 10.20                             161     0.1 5   38 272 
 BAR2 SZ EP   2    2 5 59.17                             151     0.3 5   59 160 
 BAR2 SZ ES   2    2 6 12.51                             151    -0.1 5   59 160 
 GUE  SZ EP        2 6  1.09                             138    -0.410   95  31 
 GUE  SZ ES   1    2 6 16.62                             138    -0.7 7   95  31 
 GRA  SZ EP   2    2 6  3.20                             134     0.8 5  107  36 
 GRA  SZ ES   1    2 6 19.82                             134     1.0 7  107  36 
 OCA  SZ ES   2    2 6 21.37                             129    -0.5 5  127   3 
 OCA  SZ I         2 6 23.72        14.3 0.24                           127   3 
 RUS  HZ EP   1    2 6  5.48                             127    -0.1 7  137 167 
 RUS  HE ES   2    2 6 24.17                             127    -0.3 5  137 167 
 RUS  HZ I         2 6 27.43         2.4 0.32                           137 167 
                                                                                
