 2011  622 0507 41.8 L   6.829 -73.039138.9  RSN  6 0.3 1.3LRSN                1
 GAP=170        0.76       3.9    10.7  7.3 -0.3769E+01 -0.1165E+02 -0.3524E+01E
 Epicentro: CEPITA - SANTANDER                                                 3
 ACTION:UP  11-07-14 19:07 OP:ep   STATUS:               ID:20110622050741 L   I
 2011-06-22-0506-15S.COL___140                                                 6
 STAT SP IPHASW D HRMM SECON CODA AMPLIT PERI AZIMU VELO SNR AR TRES W  DIS CAZ7
 BTL  SZ EP        5 8  0.94                             169     0.310   27 291 
 BAR2 SZ EP   1    5 8  0.65                             167    -0.1 7   31 211 
 BAR2 SZ ES   1    5 8 15.05                             167    -0.5 7   31 211 
 BAR2 SZ I         5 8 17.76         5.1 0.31                            31 211 
 GIR2 SZ EP   1    5 8  0.24                             166    -0.4 7   33 328 
 GIR2 SZ ES   1    5 8 15.57                             166     0.2 7   33 328 
 BRR  HZ EP   1    5 8  2.56                             148    -0.2 7   81 293 
 BRR  HN ES   2    5 8 19.33                             148     0.2 5   81 293 
 BRR  HZ I         5 8 22.32         5.4 0.43                            81 293 
 RUS  HZ EP   1    5 8  4.69                             141    -0.4 7  104 183 
 RUS  HZ I         5 8  5.92         2.3 0.17                           104 183 
 RUS  HN ES        5 8 23.53                             141     0.310  104 183 
 GRA  SZ EP   1    5 8  6.27                             137     0.4 7  120  13 
 GRA  SZ ES   1    5 8 24.57                             137    -0.1 7  120  13 
 GRA  SZ I         5 8 28.04         2.5 0.26                           120  13 
                                                                                
