 2014  822 0431  8.9 L   6.787 -73.115145.5  RSN  9 0.4 2.1LRSN                1
 GAP=141        0.88       3.1     3.6  6.1 -0.2219E+01  0.7123E+01 -0.2014E+01E
 Epicentro: LOS SANTOS - SANTANDER                                             3
 ACTION:UPD 14-09-15 21:52 OP:nd   STATUS:               ID:20140822043108 L   I
 OLDACT:UP  14-08-22 17:19 OP:mh   STATUS:               ID:20140822042818     3
 OLDACT:REG 14-08-22 13:00 OP:mh   STATUS:               ID:20140822042818     3
 2014-08-22-0428-18M.COL___221                                                 6
 STAT SP IPHASW D HRMM SECON CODA AMPLIT PERI AZIMU VELO AIN AR TRES W  DIS CAZ7
 BRR  HZ EP        431 30.59                             151    0.4110 74.9 298 
 BRR  HN ES   1    431 46.77                             151   -0.04 7 74.9 298 
 BRR  HZ I         431 51.22        14.4 0.25            150           74.9 298 
 PAM  SZ EP        431 31.06                             151    0.0910 76.4  37 
 PAM  SN ES        431 48.39                             151    0.1610 76.4  37 
 PAM  SZ I         431 50.83        21.9 0.41            157           76.4  37 
 RUS  HZ EP        431 32.57                             144    0.1110 99.0 178 
 RUS  HN ES        431 50.68                             144   -0.1910 99.0 178 
 PTB  HZ EP        431 35.32                             131   -0.75 9  151 260 
 PTB  HN ES        431 56.51                             131   -0.80 9  151 260 
 PTB  HZ I         432  3.90        19.6 0.37            133            151 260 
 SPBC HZ EP        431 37.60                             129    0.17 9  164 220 
 SPBC HN ES        431 59.79                             129    0.07 9  164 220 
 SPBC HZ I         432  6.70        20.5 0.16            131            164 220 
 ZAR  HZ EP        431 41.46                             122   -0.20 8  208 292 
 ZAR  HN ES        432  7.87                             122    0.63 8  208 292 
 ZAR  HZ I         432 13.12        11.2 0.13            124            208 292 
 NOR  HZ EP   1    431 44.79                             118    0.02 6  237 235 
 NOR  HN ES        432 13.26                             118    0.47 8  237 235 
 NOR  HZ I         432 18.02        11.4 0.28            121            237 235 
 SML  HZ EP        431 45.59                             117   -0.16 8  246 335 
 SML  HN ES   1    432 14.37                             117   -0.17 6  246 335 
 HEL  HZ EP   1    431 49.24                             114   -0.14 6  275 256 
 HEL  HN ES        432 21.29                             114    0.30 8  275 256 
 HEL  HZ I         432 27.83         9.6 0.56            117            275 256 
 URE  HZ EP   4    431 52.56                             113    2.24 0  288 292 
 URE  HN ES   4    432 20.47                             113   -2.19 0  288 292 
                                                                                
