 2010 1222 0542 48.9 L   6.800 -73.161145.3  RSN  8 0.2 2.1LRSN                1
 GAP=157        0.36       1.6     3.9  3.4 -0.2949E+01  0.5327E+01 -0.9341E+00E
 Epicentro: LOS SANTOS - SANTANDER                                             3
 ACTION:UP  11-01-14 15:26 OP:pat  STATUS:               ID:20101222054248 L   I
 2010-12-22-0541-17S.COL___135                                                 6
 STAT SP IPHASW D HRMM SECON CODA AMPLIT PERI AZIMU VELO SNR AR TRES W  DIS CAZ7
 BAR2 SZ IP        543  8.47                             171     0.010   23 186 
 BAR2 SZ ES   1    543 23.91                             171     0.2 7   23 186 
 BAR2 SZ I         543 25.25        25.0 0.31                            23 186 
 RUS  HZ EP   1    543 12.54                             144    -0.1 7  101 175 
 RUS  HN ES   1    543 31.04                             144    -0.1 7  101 175 
 RUS  HZ I         543 32.33        12.3 0.30                           101 175 
 GRA  SZ IP        543 14.24                             137     0.110  126  18 
 GRA  SZ ES   1    543 33.89                             137     0.0 7  126  18 
 GRA  SZ I         543 34.95        22.8 0.14                           126  18 
 OCA  SZ EP   1    543 16.95                             130    -0.2 7  160 354 
 OCA  SZ ES   1    543 39.19                             130     0.0 7  160 354 
 OCA  SZ I         543 44.74        23.2 0.34                           160 354 
 NOR  SZ EP   2    543 24.67                             119     0.2 4  233 234 
 NOR  SN ES   2    543 51.93                             119    -0.3 4  233 234 
 CHI  HZ EP   1    543 26.53                             117     0.0 6  248 195 
 CHI  HZ I         543 29.15         4.6 0.40                           248 195 
 CHI  HE ES   2    543 56.02                             117     0.1 4  248 195 
 HEL  HZ EP   2    543 29.52                             115     0.6 4  270 256 
 HEL  HZ I         544  6.75         9.1 0.32                           270 256 
 RREF HZ EP   2    543 34.69                             111    -0.2 3  320 229 
 RREF HE ES   2    544 10.66                             111    -0.1 3  320 229 
                                                                                
