 2012  122 0734  6.0 L   6.771 -73.110153.6  RSN  5 0.3 1.2LRSN                1
 GAP=142        0.69       5.5     5.2  6.9  0.9594E+00  0.9701E+00 -0.1947E+01E
 Epicentro: LOS SANTOS - SANTANDER                                             3
 ACTION:UP  12-02-03 08:19 OP:REBC STATUS:               ID:20120122073406 L   I
 2012-01-22-0730-00M.COL___186                                                 6
 STAT SP IPHASW D HRMM SECON CODA AMPLIT PERI AZIMU VELO SNR AR TRES W  DIS CAZ7
 BAR2 SZ EP   1    734 26.39                             172    -0.2 7   21 202 
 BAR2 SZ ES   1    734 42.22                             172    -0.4 7   21 202 
 BRR  HZ EP   1    734 28.27                             152     0.0 7   76 299 
 BRR  HN ES   1    734 46.30                             152     0.6 7   76 299 
 BRR  HZ I         734 49.89         3.4 0.17                            76 299 
 PAM  SZ EP   1    734 29.09                             152     0.0 7   77  36 
 PAM  SE ES   2    734 46.81                             152    -0.3 5   77  36 
 RUS  HZ EP   1    734 30.77                             146     0.4 7   97 178 
 RUS  HN ES   1    734 49.37                             146     0.1 7   97 178 
 RUS  HZ I         734 49.88         2.0 0.28                            97 178 
 PTB  HZ EP   1    734 33.68                             133    -0.3 7  151 260 
 PTB  HE ES   1    734 55.44                             133    -0.3 7  151 260 
                                                                                
