 2016 1022 0632 43.4 L   6.787 -73.231146.9  RSN  4 0.3 1.0LRSN                1
 GAP=227        0.71       4.8     6.8  7.4 -0.1751E+01 -0.1125E+02  0.9264E+01E
 Epicentro: ZAPATOCA - SANTANDER                                               3
 ACTION:UPD 16-11-09 19:21 OP:rebc STATUS:               ID:20161022063243 L   I
 OLDACT:REG 16-10-22 13:16 OP:and  STATUS:               ID:20161022062745     3
 2016-10-22-0628-00M.COL___346                                                 6
 STAT SP IPHASW D HRMM SECON CODA AMPLIT PERI AZIMU VELO AIN AR TRES W  DIS CAZ7
 BRR  HZ EP        633  4.32                             156    0.0510 63.8 304 
 BRR  HN ES        633 20.76                             156    0.2110 63.8 304 
 RUS  HZ EP   2    633  6.72                             144   -0.51 5  100 171 
 RUS  HN ES   2    633 25.46                             144   -0.37 5  100 171 
 RUS  HZ I         633 26.25         1.1 0.26            144            100 171 
 PTB  HZ EP        633  9.49                             135   -0.11 9  138 259 
 PTB  HN ES        633 29.56                             135   -0.49 9  138 259 
 PTB  HZ I         633 37.07         1.1 0.27            131            138 259 
 SPBC HZ EP        633 11.66                             131    0.33 9  156 217 
 SPBC HN ES        633 33.39                             131    0.27 9  156 217 
 SPBC HZ I         633 35.97         1.7 0.09            129            156 217 
                                                                                
