 2011  922 0906  8.2 L   6.583 -73.293126.0  RSN  6 0.3 1.4LRSN                1
 GAP=137        0.49       4.9     5.9  5.1  0.2036E+02  0.3309E+01  0.3753E+01E
 Epicentro: PALMAR - SANTANDER                                                 3
 ACTION:UPD 12-07-13 15:59 OP:ep   STATUS:               ID:20110922090608 L   I
 2011-09-22-0900-00M.COL___167                                                 6
 STAT SP IPHASW D HRMM SECON CODA AMPLIT PERI AZIMU VELO AIN AR TRES W  DIS CAZ7
 BAR2 SZ EP        9 6 25.28                             174   -0.0210 12.3  85 
 BAR2 SZ ES   2    9 6 37.77                             174   -0.84 5 12.3  85 
 BAR2 SZ I         9 6 40.42         5.6 0.65                          12.3  85 
 BTL  SZ EP        9 6 26.02                             163    0.1010 37.2   4 
 GIR2 SZ EP        9 6 26.60                             155   -0.0110 55.9  11 
 BRR  HZ EP        9 6 27.46                             148   -0.0310 74.2 321 
 BRR  HE ES        9 6 42.69                             148    0.2010 74.2 321 
 BRR  HZ I         9 6 44.10         9.2 0.34                          74.2 321 
 RUS  HZ EP        9 6 28.58                             146    0.0210 79.8 163 
 RUS  HZ I         9 6 28.84         2.6 0.21                          79.8 163 
 RUS  HN ES   2    9 6 44.73                             146    0.32 5 79.8 163 
 ZAR  HZ EP   1    9 6 38.92                             118   -0.13 6  200 300 
 ZAR  HN ES   2    9 7  2.75                             118   -0.33 4  200 300 
 ZAR  HZ I         9 7  6.84         2.9 0.39                           200 300 
                                                                                
