 2016 1222 0658 24.3 L   6.795 -73.171146.5  RSN  5 0.3 1.1LRSN                1
 GAP=234        0.77       6.0     5.4  6.2  0.2050E+02  0.4026E+01 -0.2419E+00E
 Epicentro: LOS SANTOS - SANTANDER                                             3
 ACTION:UPD 17-01-11 20:17 OP:rebc STATUS:               ID:20161222065824 L   I
 OLDACT:UP  16-12-22 16:02 OP:cog  STATUS:               ID:20161222064745     3
 OLDACT:REG 16-12-22 13:07 OP:cog  STATUS:               ID:20161222064745     3
 2016-12-22-0648-00M.COL___362                                                 6
 STAT SP IPHASW D HRMM SECON CODA AMPLIT PERI AZIMU VELO AIN AR TRES W  DIS CAZ7
 BAR2 EZ EP        658 43.94                             171   -0.0310 22.5 183 
 BAR2 EZ ES        658 59.03                             171   -0.3110 22.5 183 
 BAR2 EZ I         659  0.27         3.5 0.21            166           22.5 183 
 BRR  HZ EP        658 45.08                             153   -0.3010 69.0 300 
 BRR  HE ES        659  2.40                             153    0.5610 69.0 300 
 BRR  HZ I         659  5.90         3.4 0.32            151           69.0 300 
 RUS  HZ EP        658 48.21                             144    0.1410  100 174 
 RUS  HN ES        659  6.63                             144   -0.0110  100 174 
 RUS  HZ I         659  7.77         1.3 0.30            144            100 174 
 PTB  HZ EP        658 51.37                             133    0.33 9  145 259 
 PTB  HN ES        659 11.84                             133   -0.09 9  145 259 
 PTB  HZ I         659 18.85         1.9 0.44            131            145 259 
 ZAR  HN ES        659 21.31                             123   -0.36 9  202 293 
                                                                                
