 2013  722 0450 38.2 L   6.744 -73.152150.5  RSN  6 0.4 1.3LRSN                1
 GAP=182        0.83       6.4     7.5  7.5  0.2198E+02 -0.4966E+01 -0.7779E+01E
 Epicentro: JORDAN - SANTANDER                                                 3
 ACTION:UPD 13-08-12 10:39 OP:ep   STATUS:               ID:20130722045038 L   I
 OLDACT:UP  13-07-22 10:40 OP:cam  STATUS:               ID:20130722044959     3
 OLDACT:REG 13-07-22 08:33 OP:cam  STATUS:               ID:20130722044959     3
 2013-07-22-0449-59M.COL___267                                                 6
 STAT SP IPHASW D HRMM SECON CODA AMPLIT PERI AZIMU VELO AIN AR TRES W  DIS CAZ7
 BAR2 SZ EP        450 58.25                             174   -0.0510 17.1 191 
 BAR2 SZ ES        451 13.48                             174   -0.4910 17.1 191 
 GIR2 SZ EP   1    450 58.42                             165   -0.19 7 37.3 353 
 BRR  HZ EP        451  0.22                             152    0.2110 73.8 303 
 BRR  HN ES        451 17.61                             152    0.5910 73.8 303 
 BRR  HZ I         451 18.34         4.6 0.16            151           73.8 303 
 RUS  HZ EP   1    451  2.42                             147    0.42 7 94.4 175 
 RUS  HN ES   1    451 20.55                             147   -0.01 7 94.4 175 
 RUS  HZ I         451 21.96         2.0 0.28            145           94.4 175 
 PTB  HZ EP   2    451  5.13                             133   -0.28 5  146 261 
 PTB  HN ES   1    451 26.19                             133   -0.44 7  146 261 
 PTB  HZ I         451 29.52         2.3 0.10            131            146 261 
 SML  HN ES   2    451 44.33                             118   -0.58 4  249 336 
                                                                                
