 2015 1222 0922 40.6 L   6.817 -73.140146.0  RSN 14 0.5 2.0LRSN                1
 GAP=184        0.99       2.7     5.3  6.3 -0.3189E+00  0.2480E+01  0.1900E+01E
 Epicentro: LOS SANTOS - SANTANDER                                             3
 ACTION:UPD 16-02-04 15:06 OP:cam  STATUS:               ID:20151222092240 L   I
 OLDACT:REG 15-12-22 13:08 OP:dnl  STATUS:               ID:20151222091750     3
 2015-12-22-0917-50M.COL___334                                                 6
 STAT SP IPHASW D HRMM SECON CODA AMPLIT PERI AZIMU VELO AIN AR TRES W  DIS CAZ7
 BAR2 EZ EP        923  0.43                             170    0.1110 25.3 191 
 BAR2 EZ ES   2    923 15.16                             170   -0.53 5 25.3 191 
 BAR2 EZ I         923 16.65        18.6 0.23            167           25.3 191 
 BRR  HZ EP        923  2.36                             153    0.5810 70.9 297 
 BRR  HE ES        923 19.33                             153    1.0510 70.9 297 
 BRR  HZ I         923 23.55        16.5 0.16            147           70.9 297 
 RUS  HZ EP        923  4.56                             144    0.0310  102 176 
 RUS  HE ES        923 23.10                             144   -0.0810  102 176 
 RUS  HZ I         923 24.19         6.7 0.24            147            102 176 
 PTB  HZ EP        923  7.22                             132   -0.48 9  149 258 
 PTB  HN ES        923 28.28                             132   -0.54 9  149 258 
 PTB  HZ I         923 35.50         8.2 0.23            130            149 258 
 OCA  HZ EP   3    923  8.40                             130   -0.39 2  158 353 
 OCA  HE ES        923 30.04                             130   -0.71 9  158 353 
 OCA  HZ I         923 39.92        17.7 0.14            130            158 353 
 SPBC HZ EP        923  9.39                             129    0.07 9  165 219 
 SPBC HN ES        923 31.58                             129   -0.12 9  165 219 
 SPBC HZ I         923 34.73        18.5 0.10            129            165 219 
 ZAR  HZ EP   2    923 13.42                             123    0.34 4  204 292 
 ZAR  HE ES   2    923 38.61                             123    0.22 4  204 292 
 ZAR  HZ I         923 45.72         9.1 0.33            121            204 292 
 NOR  HZ EP   1    923 16.74                             119    0.20 6  236 234 
 NOR  HE ES   2    923 44.12                             119   -0.43 4  236 234 
 NOR  HZ I         923 51.94         8.5 0.20            119            236 234 
 SML  HZ EP        923 16.82                             118   -0.29 8  242 335 
 SML  HN ES        923 45.49                             118   -0.08 8  242 335 
 SML  HZ I         923 49.39        13.2 0.07            118            242 335 
 CHI  HZ EP        923 18.91                             117    0.36 8  251 195 
 CHI  HN ES        923 47.87                             117   -0.26 8  251 195 
 CHI  HZ I         923 51.48         7.0 0.44            119            251 195 
 URE  HZ EP   4    923 25.51                             114    3.81 0  284 292 
 URE  HE ES   4    923 50.33                             114   -3.40 0  284 292 
 URE  HZ I         924  2.10         7.0 0.24            114            284 292 
 GUY2CHZ EP   4    923 26.66                             112    2.24 0  303 235 
 GUY2CHE ES   1    923 59.51                             112    0.92 5  303 235 
 GUY2CHZ I         924  4.63         4.1 0.32                           303 235 
 ANIL HE ES   1    924  9.20                             109   -0.46 5  359 224 
 PRA  HZ EP   2    923 35.10                             107    0.72 3  394 210 
 PRA  HE ES        924 15.82                             107   -0.49 6  394 210 
 PRA  HZ I         924 21.66         4.9 0.39            108            394 210 
                                                                                
