 2017  722 0557  7.4 L   6.816 -73.152146.0  RSN 17 0.5 2.1LRSN                1
 GAP=111        1.02       3.8     3.4  5.6  0.1718E+01  0.6741E+01  0.5828E+01E
 Epicentro: LOS SANTOS - SANTANDER                                             3
 ACTION:UPD 17-08-30 15:35 OP:rebc STATUS:               ID:20170722055707 L   I
 OLDACT:UP  17-07-22 14:25 OP:dnl  STATUS:               ID:20170722054739     3
 OLDACT:UP  17-07-22 14:25 OP:dnl  STATUS:               ID:20170722054739     3
 OLDACT:REG 17-07-22 13:15 OP:dnl  STATUS:               ID:20170722054739     3
 2017-07-22-0548-00M.COL___380                                                 6
 STAT SP IPHASW D HRMM SECON CODA AMPLIT PERI AZIMU VELO AIN AR TRES W  DIS CAZ7
 BAR2 EZ IP     C  557 26.85                             170   -0.2310 25.0 188 
 BAR2 EZ ES        557 42.00                             170   -0.4310 25.0 188 
 BAR2 EZ I         557 44.69        40.4 0.26            166           25.0 188 
 BRR  HZ IP     C  557 28.65                             153    0.1710 69.8 298 
 BRR  HN ES        557 45.76                             153    0.8310 69.8 298 
 BRR  HZ I         557 48.93        20.0 0.26            150           69.8 298 
 PAM  EZ EP        557 29.83                             151    0.2610 76.5  41 
 PAM  EN ES        557 47.09                             151    0.2210 76.5  41 
 PAM  EZ I         557 49.07        22.8 0.48            154           76.5  41 
 RUS  HZ EP        557 30.87                             143   -0.4210  102 176 
 RUS  HN ES        557 50.13                             143    0.2010  102 176 
 RUS  HZ I         557 50.73        19.9 0.30            140            102 176 
 PTB  HZ EP        557 33.39                             132   -0.95 9  147 258 
 PTB  HE ES        557 54.86                             132   -0.51 9  147 258 
 PTB  HZ I         557 56.30        11.7 0.34            129            147 258 
 SPBC HZ EP        557 35.83                             129   -0.16 9  164 218 
 SPBC HZ I         558  0.31        25.8 0.24            126            164 218 
 YPLC HZ IP     C  557 37.32                             126   -0.06 9  179 151 
 YPLC HN ES        558  0.89                             126    0.12 9  179 151 
 YPLC HZ I         558  2.21        24.5 0.28            125            179 151 
 ZAR  HZ EP        557 39.44                             123   -0.27 9  203 292 
 ZAR  HE ES        558  4.73                             123   -0.19 9  203 292 
 ZAR  HZ I         558 10.84        10.0 0.26            120            203 292 
 NOR  HZ EP        557 42.96                             119   -0.22 8  235 234 
 NOR  HN ES        558 11.25                             119    0.16 8  235 234 
 NOR  HZ I         558 15.56        11.1 0.28            116            235 234 
 ROSC BZ EP   4    557 47.20                             117    1.56 0  254 211 
 ROSC BN ES   4    558 19.19                             117    3.71 0  254 211 
 ROSC BZ I         558 25.17        11.4 0.40            114            254 211 
 HEL  HZ EP   2    557 47.20                             115   -0.38 4  272 255 
 HEL  HN ES   4    558 18.16                             115   -0.78 0  272 255 
 HEL  HZ I         558 26.98         8.5 0.28            113            272 255 
 URE  HZ EP   4    557 52.10                             114    3.78 0  283 292 
 GUY2CHZ EP   2    557 52.35                             112    1.30 4  302 234 
 GUY2CHN ES   4    558 29.24                             112    4.12 0  302 234 
 GUY2CHZ I         558 32.11         7.7 0.30                           302 234 
 PTGC HZ EP   4    557 50.10                             112   -1.36 0  311 159 
 PTGC HN ES   4    558 23.27                             112   -2.58 0  311 159 
 PTGC HZ I         558 25.21         6.8 0.24            110            311 159 
 CBOC HZ EP        557 55.11                             110    0.82 7  334 252 
 CBOC HN ES        558 31.10                             110    0.22 7  334 252 
 CBOC HZ I         558 40.18         2.0 0.36            108            334 252 
 ORTC HZ EP   2    558  2.15                             106    0.72 3  396 216 
 ORTC HE ES        558 44.55                             106    0.96 6  396 216 
 ORTC HZ I         558 50.75         4.4 0.36            105            396 216 
 PAL  HZ EP   2    558  2.65                             106    0.06 3  406 239 
 PAL  HN ES        558 46.18                             106    0.53 6  406 239 
 PAL  HZ I         558 49.27         2.8 0.16            104            406 239 
 SJC  HZ EP   4    558  1.09                             106   -1.64 0  407 327 
 SJC  HN ES   4    558 41.80                             106   -4.11 0  407 327 
 SJC  HZ I         558 46.59         2.4 0.58            105            407 327 
                                                                                
