 2015  222 0848  3.3 L   6.805 -73.099146.2  RSN  5 0.3 1.6LRSN                1
 GAP=205        0.80       4.4    10.8  6.1  0.2539E+02 -0.5670E+01 -0.3649E+01E
 Epicentro: LOS SANTOS - SANTANDER                                             3
 ACTION:UPD 15-04-30 21:28 OP:nd   STATUS:               ID:20150222084803 L   I
 OLDACT:UP  15-02-22 19:34 OP:mh   STATUS:               ID:20150222083742     3
 OLDACT:UP  15-02-22 19:31 OP:mh   STATUS:               ID:20150222083742     3
 OLDACT:UP  15-02-22 19:31 OP:mh   STATUS:               ID:20150222083742     3
 OLDACT:REG 15-02-22 12:48 OP:mh   STATUS:               ID:20150222083742     3
 2015-02-22-0837-42M.COL___275                                                 6
 STAT SP IPHASW D HRMM SECON CODA AMPLIT PERI AZIMU VELO AIN AR TRES W  DIS CAZ7
 BAR2 EZ EP   1    848 23.17                             170    0.16 7 25.3 201 
 BAR2 EZ ES        848 38.14                             170   -0.2510 25.3 201 
 BAR2 EZ I         848 40.53         8.8 0.10            169           25.3 201 
 BRR  HZ EP        848 25.14                             151    0.4110 75.5 296 
 BRR  HN ES        848 41.55                             151    0.1010 75.5 296 
 BRR  HZ I         848 45.70        10.0 0.36            150           75.5 296 
 RUS  HZ EP        848 27.47                             144    0.3610  101 179 
 RUS  HN ES        848 45.51                             144   -0.1710  101 179 
 RUS  HZ I         848 48.05         4.0 0.24            146            101 179 
 SML  HZ EP        848 39.49                             117   -0.63 8  245 334 
 SML  HN ES   4    848 59.99                             117   -8.86 0  245 334 
 CHI  HN ES        849 10.59                             117   -0.22 8  251 196 
                                                                                
