 2011 1222 0932 53.1 L   6.803 -73.140145.5  RSN  6 0.3 1.7LRSN                1
 GAP=137        0.66       4.2     5.1  6.0  0.2258E+01 -0.1391E+01  0.3152E+01E
 Epicentro: LOS SANTOS - SANTANDER                                             3
 ACTION:UPD 12-07-13 16:17 OP:ep   STATUS:               ID:20111222093253 L   I
 2011-12-22-0930-00M.COL___191                                                 6
 STAT SP IPHASW D HRMM SECON CODA AMPLIT PERI AZIMU VELO AIN AR TRES W  DIS CAZ7
 BAR2 SZ EP        933 12.66                             170   -0.0610 23.7 191 
 BAR2 SZ ES   1    933 27.52                             170   -0.49 7 23.7 191 
 BAR2 SZ I         933 30.27         8.2 0.45                          23.7 191 
 BRR  HZ EP   1    933 14.40                             152    0.15 7 71.6 298 
 BRR  HN ES   1    933 31.42                             152    0.68 7 71.6 298 
 BRR  HN I         933 32.31        40.8 0.19                          71.6 298 
 PAM  SZ EP   1    933 15.17                             151   -0.09 7 76.7  39 
 RUS  HZ EP   1    933 16.98                             144    0.12 7  101 176 
 RUS  HN ES   1    933 35.45                             144    0.08 7  101 176 
 RUS  HZ I         933 36.47         5.9 0.20                           101 176 
 PTB  HZ EP   1    933 19.71                             132   -0.41 7  148 259 
 PTB  HE ES   1    933 40.84                             132   -0.34 7  148 259 
 CHI  HZ EP   1    933 31.04                             117    0.19 6  249 195 
 CHI  HN ES   1    934  0.57                             117    0.29 6  249 195 
 CHI  HZ I         934  6.68         2.2 0.37                           249 195 
                                                                                
