 2010 1022 0546 45.4 L   6.786 -73.096136.1  RSN 10 0.5 2.1LRSN                1
 GAP=164        1.10       5.0     8.5  8.0 -0.1043E+02  0.1087E+02 -0.4149E-01E
 Epicentro: LOS SANTOS - SANTANDER                                             3
 ACTION:UP  11-02-18 11:11 OP:tino STATUS:               ID:20101022054645 L   I
 2010-10-22-0544-30S.COL___125                                                 6
 STAT SP IPHASW D HRMM SECON CODA AMPLIT PERI AZIMU VELO SNR AR TRES W  DIS CAZ7
 BAR2 SZ IP        547  3.82                             170     0.010   24 204 
 BAR2 SZ ES   1    547 17.90                             170    -0.4 7   24 204 
 BAR2 SZ I         547 20.94        52.7 0.39                            24 204 
 BRR  HZ IP     C  547  5.71                             149    -0.110   77 298 
 BRR  HN ES   1    547 22.59                             149     0.8 7   77 298 
 BRR  HZ I         547 24.11        53.3 0.17                            77 298 
 RUS  HZ EP   1    547  7.86                             142    -0.2 7   99 179 
 RUS  HE ES   1    547 26.10                             142     0.3 7   99 179 
 RUS  HZ I         547 27.80        15.1 0.34                            99 179 
 GRA  SZ EP        547  9.75                             135     0.010  126  15 
 GRA  SZ I         547 31.51        28.6 0.25                           126  15 
 OCA  SZ EP   1    547 12.83                             127    -0.3 7  162 351 
 OCA  SZ I         547 37.52        24.9 0.40                           162 351 
 NOR  SZ EP   1    547 20.44                             116    -0.5 6  239 236 
 NOR  SN ES   1    547 47.80                             116    -1.0 6  239 236 
 NOR  SZ I         547 52.26         1.9 0.40                           239 236 
 CHI  HZ EP   1    547 23.40                             115     0.8 6  249 196 
 CHI  HN ES   1    547 51.35                             115    -0.2 6  249 196 
 CHI  HZ I         548  1.15         2.7 0.55                           249 196 
 HEL  HZ EP   1    547 26.11                             112     0.4 6  277 256 
 HEL  HZ I         548  5.44         5.6 0.28                           277 256 
 RREF HZ EP   1    547 32.39                             109     0.9 5  325 230 
 RREF HZ I         548 14.23         4.7 0.37                           325 230 
 PRA  HZ EP   1    547 38.50                             105    -0.3 4  393 210 
 PRA  HE ES   2    548 20.98                             105     0.6 3  393 210 
 PRA  HZ I         548 26.38         8.5 0.20                           393 210 
                                                                                
