 2012 1222 0747 54.2 L   6.725 -73.158146.0  RSN  9 0.4 1.7LRSN                1
 GAP=108        0.80       4.6     3.8  4.7  0.5750E+01  0.2100E+01  0.2401E+01E
 Epicentro: VILLANUEVA - SANTANDER                                             3
 ACTION:UPD 13-01-04 14:29 OP:ep   STATUS:               ID:20121222074754 L   I
 2012-12-22-0740-00M.COL___243                                                 6
 STAT SP IPHASW D HRMM SECON CODA AMPLIT PERI AZIMU VELO AIN AR TRES W  DIS CAZ7
 BAR2 SZ EP        748 13.38                             174   -0.3010 14.9 191 
 BAR2 SZ ES        748 29.14                             174    0.2310 14.9 191 
 BAR2 SZ I         748 30.41        21.8 0.31                          14.9 191 
 GIR2 SZ EP        748 13.91                             164   -0.2010 39.4 354 
 GIR2 SZ ES   1    748 29.27                             164   -0.40 7 39.4 354 
 BRR  HZ IP     C  748 15.74                             152    0.2110 74.4 305 
 BRR  HN ES        748 32.76                             152    0.5710 74.4 305 
 BRR  HZ I         748 34.48         6.2 0.17                          74.4 305 
 RUS  HZ EP     C  748 17.39                             146    0.0210 92.4 175 
 RUS  HN ES        748 35.46                             146    0.0010 92.4 175 
 RUS  HZ I         748 37.48         6.7 0.32                          92.4 175 
 PTB  HZ EP        748 20.38                             133   -0.53 9  145 262 
 PTB  HN ES   1    748 41.32                             133   -0.45 7  145 262 
 PTB  HZ I         748 45.51         6.8 0.15                           145 262 
 TAM  HZ EP        748 21.92                             131    0.12 9  154 102 
 ZAR  HZ EP   1    748 26.61                             122   -0.23 6  206 294 
 ZAR  HE ES   1    748 52.13                             122   -0.20 6  206 294 
 ZAR  HZ I         749  0.65         5.4 0.38                           206 294 
 CHI  HZ EP   1    748 31.13                             118    0.16 6  240 195 
 HEL  HZ EP   1    748 34.95                             115    0.92 6  269 257 
 HEL  HE ES   1    749  5.40                             115    0.27 6  269 257 
 HEL  HZ I         749 12.81         2.9 0.19                           269 257 
 MON  HZ EP   4    748 41.25                             108   -2.41 0  358 310 
                                                                                
