 2015  622 0855 27.5 L   6.814 -73.076154.1  RSN 19 0.4 2.9LRSN                1
 GAP=170        0.87       2.4     3.8  4.5 -0.5621E+00  0.5060E+01  0.1627E+01E
 Epicentro: LOS SANTOS - SANTANDER                                             3
 ACTION:UPD 15-09-10 22:14 OP:cam  STATUS:               ID:20150622085527 L   I
 OLDACT:UP  15-06-22 18:23 OP:mh   STATUS:               ID:20150622084741     3
 OLDACT:UP  15-06-22 18:23 OP:mh   STATUS:               ID:20150622084741     3
 OLDACT:UP  15-06-22 18:18 OP:mh   STATUS:               ID:20150622084741     3
 OLDACT:REG 15-06-22 13:10 OP:mh   STATUS:               ID:20150622084741     3
 2015-06-22-0847-41M.COL___310                                                 6
 STAT SP IPHASW D HRMM SECON CODA AMPLIT PERI AZIMU VELO AIN AR TRES W  DIS CAZ7
 BAR2 EZ IP     D  855 48.32                             170    0.0810 27.2 206 
 BAR2 EZ ES        856  4.25                             170   -0.1410 27.2 206 
 BAR2 EZ I         856  5.20        82.3 0.28            165           27.2 206 
 BRR  HZ IP     D  855 50.22                             152    0.2910 77.4 295 
 BRR  HN ES        856  7.81                             152    0.4110 77.4 295 
 BRR  HZ I         856 10.07        97.2 0.14            147           77.4 295 
 RUS  HZ EP        855 52.12                             145   -0.0810  102 180 
 RUS  HN ES        856 11.10                             145   -0.3410  102 180 
 RUS  HZ I         856 14.15        44.2 0.42            145            102 180 
 OCA  HZ EP        855 56.51                             131    0.05 9  160 350 
 OCA  HN ES        856 19.33                             131    0.30 9  160 350 
 OCA  HZ I         856 22.56       125.8 0.18            132            160 350 
 ZAR  HZ EP   1    856  0.51                             123   -0.69 6  211 291 
 ZAR  HN ES        856 27.36                             123   -0.10 8  211 291 
 ZAR  HZ I         856 32.88       104.6 0.34            122            211 291 
 NOR  HZ EP        856  3.85                             119   -0.67 8  242 235 
 NOR  HN ES        856 33.23                             119   -0.13 8  242 235 
 NOR  HZ I         856 40.12        50.2 0.24            118            242 235 
 SML  HZ EP   1    856  4.80                             119   -0.04 6  246 334 
 SML  HN ES        856 33.35                             119   -0.60 8  246 334 
 SML  HZ I         856 39.60       106.3 0.10            119            246 334 
 ROSC BZ EP   1    856  7.32                             118    0.63 6  258 212 
 ROSC BN ES        856 37.42                             118    0.18 8  258 212 
 ROSC BZ I         856 41.69        51.3 0.45            117            258 212 
 HEL  HZ EP   1    856  9.09                             116    0.05 6  280 256 
 HEL  HN ES        856 41.17                             116   -0.25 7  280 256 
 HEL  HZ I         856 46.23        38.1 0.36            115            280 256 
 LL2C HZ EP   4    856 12.96                             113    1.53 0  306 353 
 LL2C HN ES   4    856 47.23                             113    1.56 0  306 353 
 PTGC HZ EP   1    856 11.05                             113   -0.58 5  307 160 
 PTGC HN ES   4    856 44.42                             113   -1.60 0  307 160 
 PTGC HZ I         856 46.74        30.8 0.38            114            307 160 
 GUY2CHZ EP        856 13.15                             113    0.81 7  308 235 
 GUY2CHN ES   4    856 48.54                             113    1.25 0  308 235 
 GUY2CHZ I         856 53.55        55.9 0.84                           308 235 
 CBOC HZ EP        856 16.04                             111    0.35 7  341 252 
 CBOC HN ES        856 53.43                             111    0.18 7  341 252 
 DBB  SZ EP   1    856 15.40                             110   -0.82 5  347 274 
 DBB  SZ ES   4    856 51.64                             110   -2.56 0  347 274 
 DBB  SZ I         856 57.15        98.8 0.42            110            347 274 
 TOL  SZ EP        856 18.18                             110    1.30 6  350 225 
 TOL  SN ES        856 54.90                             110   -0.47 6  350 225 
 TOL  SZ I         857 17.28        13.2 0.54            110            350 225 
 MON  HZ EP   4    856 15.46                             110   -2.00 0  359 307 
 MON  HN ES   4    856 54.66                             110   -1.74 0  359 307 
 MON  HZ I         857  9.27        20.4 0.52            109            359 307 
 ARGC HZ EP   4    856 18.28                             110    0.62 0  360 339 
 ARGC HE ES   4    856 56.58                             110   -0.18 0  360 339 
 PRA  HZ EP   1    856 21.75                             108   -0.20 4  397 210 
 PRA  HN ES        857  4.37                             108   -0.03 6  397 210 
 PRA  HZ I         857  7.16        31.1 0.56            108            397 210 
 ORTC HZ EP   1    856 22.20                             107   -0.22 4  401 217 
 ORTC HN ES        857  5.64                             107    0.40 6  401 217 
 ORTC HZ I         857 11.67        10.5 0.22            107            401 217 
 SJC  HZ EP   4    856 21.99                             107   -1.73 0  412 326 
 SJC  HN ES   4    857  3.38                             107   -4.18 0  412 326 
 SJC  HZ I         857  8.54        11.8 0.18            107            412 326 
 PAL  HZ EP        856 23.42                             107   -0.42 6  413 239 
 PAL  HN ES   4    857  4.77                             107   -2.99 0  413 239 
 SMAR HZ EP   4    856 32.73                             103   -0.95 0  497 345 
 SMAR HN ES   4    857 20.92                             103   -4.35 0  497 345 
                                                                                
