 2013  222 0938 55.6 L   6.783 -73.143146.0  RSN  6 0.4 1.5LRSN                1
 GAP=138        0.71       4.8     4.9  6.4 -0.1810E+01  0.3197E+01  0.6094E+01E
 Epicentro: LOS SANTOS - SANTANDER                                             3
 ACTION:UPD 13-03-12 09:34 OP:ep   STATUS:               ID:20130222093855 L   I
 2013-02-22-0936-47M.COL___185                                                 6
 STAT SP IPHASW D HRMM SECON CODA AMPLIT PERI AZIMU VELO AIN AR TRES W  DIS CAZ7
 BAR2 SZ EP   1    939 15.15                             171   -0.04 7 21.6 192 
 BAR2 SZ ES   1    939 30.63                             171    0.14 7 21.6 192 
 BAR2 SZ I         939 32.95         7.1 0.32            148           21.6 192 
 BRR  HZ EP   1    939 17.00                             152    0.20 7 72.3 300 
 BRR  HN ES   1    939 33.95                             152    0.59 7 72.3 300 
 PAM  SZ EP   1    939 17.97                             150    0.09 7 78.6  39 
 PAM  SN ES   1    939 34.90                             150   -0.38 7 78.6  39 
 PAM  SZ I         939 35.38         5.5 0.44            139           78.6  39 
 RUS  HZ EP   1    939 19.26                             144    0.06 7 98.7 176 
 RUS  HN ES   1    939 37.47                             144   -0.17 7 98.7 176 
 PTB  HZ EP   1    939 21.88                             132   -0.66 7  148 260 
 PTB  HN ES   1    939 43.25                             132   -0.33 7  148 260 
 PTB  HZ I         939 45.31         4.0 0.26            118            148 260 
 CHI  HZ EP   1    939 33.69                             117    0.60 6  247 195 
 CHI  HZ I         940  6.77         1.5 0.40            104            247 195 
                                                                                
