 2012  222 0159 15.6 L   6.805 -73.158147.2  RSN 19 0.4 3.2LRSN                1
 GAP=112        0.80       2.8     4.3  5.0 -0.1766E+01  0.8482E+01  0.1892E+01E
 ACTION:UP  12-03-07 16:32 OP:epov STATUS:               ID:20120222015915 L   I
 2012-02-22-0156-59S.COL___194                                                 6
 STAT SP IPHASW D HRMM SECON CODA AMPLIT PERI AZIMU VELO AIN AR TRES W  DIS CAZ7
 BAR2 SZ IP        159 35.28                             170   -0.1010 23.7 186 
 BAR2 SZ ES   1    159 50.87                             170    0.05 7 23.7 186 
 BAR2 SZ I         159 52.21       283.6 0.27                          23.7 186 
 GIR2 SZ EP   1    159 35.40                             168    0.01 7 30.5 353 
 GIR2 SZ ES   1    159 50.93                             168    0.08 7 30.5 353 
 BRR  HZ EP        159 37.20                             153    0.4110 69.7 299 
 BRR  HZ I         159 56.82       439.6 0.18                          69.7 299 
 PAM  SZ EP        159 38.18                             151    0.2210 77.8  41 
 PAM  SE ES   1    159 55.33                             151   -0.10 7 77.8  41 
 PAM  SZ I         159 57.50       128.1 0.41                          77.8  41 
 RUS  HZ IP     D  159 39.08                             144   -0.4310  101 175 
 RUS  HN ES   1    159 57.91                             144   -0.27 7  101 175 
 RUS  HZ I         159 58.98       150.9 0.31                           101 175 
 PTB  HZ EP        159 41.73                             133   -0.81 9  147 259 
 PTB  HN ES   1    2 0  3.33                             133   -0.25 7  147 259 
 OCA  SZ EP   1    159 44.03                             130    0.11 7  160 354 
 OCA  SZ ES   1    2 0  6.17                             130    0.13 7  160 354 
 YOP  SN ES   1    2 0 10.05                             126    0.63 7  180 153 
 NOR  SZ EP   1    159 50.99                             119   -0.31 6  234 234 
 NOR  SN ES   1    2 0 19.77                             119    0.61 6  234 234 
 CHI  HZ EP   1    159 53.20                             117   -0.17 6  249 195 
 CHI  HE ES   1    2 0 22.73                             117   -0.12 6  249 195 
 CHI  HZ I         2 0 28.40       102.3 0.38                           249 195 
 ROSC BZ EP   1    159 54.60                             117    0.86 6  253 211 
 ROSC BZ I         2 0 28.80       169.6 0.44                           253 211 
 HEL  HZ EP   1    159 56.54                             115    0.82 6  271 256 
 HEL  HZ I         2 0 33.66        88.3 0.28                           271 256 
 VIL  SZ EP   2    159 59.12                             112    0.04 4  304 191 
 VIL  SZ I         2 0 39.41        59.9 0.68                           304 191 
 RREF HZ EP   1    2 0  2.03                             111    0.34 5  321 229 
 RREF HZ I         2 0 47.54       107.3 0.35                           321 229 
 DBB  SZ EP   1    2 0  3.65                             110    0.71 5  338 274 
 TOL  SZ EP   1    2 0  3.40                             110   -0.42 5  343 224 
 COD  HZ EP   1    2 0  2.93                             109   -0.99 5  348 355 
 COD  HZ I         2 0 47.56       120.0 0.35                           348 355 
 PRA  HZ EP   1    2 0  8.96                             107   -0.16 4  392 209 
 PRA  HN ES   1    2 0 50.74                             107   -0.14 4  392 209 
 PAL  HZ EP   2    2 0 10.79                             106    0.12 3  405 239 
                                                                                
