 2017  722 0708 35.6 L   6.813 -73.162148.9  RSN  9 0.4 1.6LRSN                1
 GAP=110        1.07       4.2     4.0  6.6  0.3842E+01  0.5865E+01  0.6151E+01E
 Epicentro: LOS SANTOS - SANTANDER                                             3
 ACTION:UPD 17-08-30 15:35 OP:rebc STATUS:               ID:20170722070835 L   I
 OLDACT:DUP 17-07-22 15:50 OP:dnl  STATUS:               ID:20170722065740d    3
 2017-07-22-0658-00M.COL___380                                                 6
 STAT SP IPHASW D HRMM SECON CODA AMPLIT PERI AZIMU VELO AIN AR TRES W  DIS CAZ7
 BAR2 EZ EP        7 8 55.44                             170   -0.2110 24.5 185 
 BAR2 EZ ES        7 9 11.22                             170   -0.0510 24.5 185 
 BAR2 EZ I         7 9 13.14         8.7 0.22            169           24.5 185 
 BRR  HZ EP        7 8 57.18                             154    0.2010 68.9 298 
 BRR  HE ES        7 9 14.51                             154    0.8610 68.9 298 
 BRR  HZ I         7 9 17.49        10.7 0.24            153           68.9 298 
 PAM  EN ES        7 9 15.28                             151   -0.4810 77.5  41 
 PAM  EZ I         7 9 18.65         5.7 0.54            156           77.5  41 
 RUS  HZ EP        7 8 59.65                             144   -0.1410  102 175 
 RUS  HE ES        7 9 18.48                             144   -0.1610  102 175 
 RUS  HZ I         7 9 20.27         2.7 0.38            146            102 175 
 PTB  HZ EP   2    7 9  2.19                             133   -0.52 5  146 258 
 PTB  HN ES        7 9 22.84                             133   -1.00 9  146 258 
 PTB  HZ I         7 9 28.27         4.4 0.22            134            146 258 
 SPBC HZ EP        7 9  4.36                             130    0.00 9  163 218 
 SPBC HN ES        7 9 27.23                             130    0.45 9  163 218 
 SPBC HZ I         7 9 32.52         7.6 0.10            131            163 218 
 YPLC HZ EP        7 9  5.89                             127    0.04 9  179 151 
 YPLC HN ES        7 9 29.90                             127    0.47 9  179 151 
 YPLC HZ I         7 9 30.81         6.4 0.26            130            179 151 
 ZAR  HZ EP        7 9  8.12                             123    0.08 9  202 292 
 ZAR  HE ES        7 9 33.67                             123    0.33 9  202 292 
 ZAR  HZ I         7 9 38.33         5.2 0.26            125            202 292 
 NOR  HZ EP   2    7 9 12.08                             119    0.61 4  234 234 
 NOR  HE ES        7 9 39.12                             119   -0.31 8  234 234 
 NOR  HZ I         7 9 44.63         3.8 0.32            121            234 234 
                                                                                
