 2013  522 0454 24.6 L   6.798 -73.144145.6  RSN 13 0.4 1.9LRSN                1
 GAP=137        0.99       3.0     4.1  5.4 -0.2211E+01  0.7417E+01  0.8898E+00E
 Epicentro: LOS SANTOS - SANTANDER                                             3
 ACTION:UPD 13-06-20 09:52 OP:ep   STATUS:               ID:20130522045424 L   I
 2013-05-22-0450-00M.COL___259                                                 6
 STAT SP IPHASW D HRMM SECON CODA AMPLIT PERI AZIMU VELO AIN AR TRES W  DIS CAZ7
 BAR2 SZ EP        454 44.26                             170    0.0410 23.2 191 
 BAR2 SZ ES        454 59.35                             170   -0.1610 23.2 191 
 BAR2 SZ I         455  0.62        12.9 0.34            169           23.2 191 
 GIR2 SZ EP   1    454 44.36                             167    0.09 7 31.5 350 
 GIR2 SZ ES        454 59.48                             167   -0.1210 31.5 350 
 BRR  HZ EP        454 46.09                             152    0.3410 71.5 299 
 BRR  HE ES   1    455  3.01                             152    0.76 7 71.5 299 
 BRR  HZ I         455  6.74         9.8 0.40            149           71.5 299 
 PAM  SZ EP        454 46.97                             151    0.1610 77.4  39 
 PAM  SN ES        455  4.31                             151    0.1910 77.4  39 
 PAM  SZ I         455  6.45        16.0 0.52            155           77.4  39 
 RUS  HZ EP        454 48.23                             144   -0.1010  100 176 
 RUS  HN ES        455  7.05                             144    0.2210  100 176 
 RUS  HZ I         455  8.59         9.8 0.36            147            100 176 
 PTB  HZ EP        454 50.65                             132   -0.93 9  148 259 
 PTB  HN ES        455 12.25                             132   -0.36 9  148 259 
 PTB  HZ I         455 19.81        16.0 0.30            131            148 259 
 OCA  HZ EP        454 52.96                             130    0.04 9  160 353 
 OCA  HE ES        455 14.06                             130   -0.95 9  160 353 
 OCA  HZ I         455 19.96        10.3 0.34            131            160 353 
 ZAR  HE ES   1    455 22.53                             122    0.14 6  204 292 
 ZAR  HZ I         455 30.25         8.5 0.16            122            204 292 
 NOR  HE ES        455 28.24                             118    0.04 8  235 235 
 SML  HE ES        455 30.40                             117    0.57 8  244 335 
 HEL  HZ EP   1    455  5.76                             115    0.93 6  272 256 
 HEL  HE ES   1    455 36.67                             115    0.47 6  272 256 
 HEL  HZ I         455 42.54         5.1 0.30            115            272 256 
 GUY2CHZ EP   1    455  8.28                             112    0.07 5  301 235 
 GUY2CHZ I         455 49.64         4.9 0.30                           301 235 
 PRA  HZ EP        455 18.25                             106    0.14 6  392 210 
 PRA  HE ES        455 59.51                             106   -0.34 6  392 210 
 PRA  HZ I         456  5.51         4.1 0.24            108            392 210 
                                                                                
