 2015  722 0225  2.7 L   7.326 -73.409116.5  RSN  5 0.6 1.6LRSN                1
 GAP=157        1.38       4.9     7.7 13.2  0.1191E+02  0.2667E+02  0.2042E+01E
 Epicentro: SABANA DE TORRES - SANTANDER                                       3
 ACTION:UPD 15-09-08 21:50 OP:cam  STATUS:               ID:20150722022502 L   I
 OLDACT:REG 15-07-22 12:48 OP:stll STATUS:               ID:20150722021750     3
 2015-07-22-0217-50M.COL___331                                                 6
 STAT SP IPHASW D HRMM SECON CODA AMPLIT PERI AZIMU VELO AIN AR TRES W  DIS CAZ7
 BAR2 EZ EP        225 22.44                             142    0.3310 84.9 163 
 BAR2 EZ ES        225 36.99                             142   -0.2510 84.9 163 
 BAR2 EZ I         225 37.79        10.0 0.26            144           84.9 163 
 OCA  HZ EP        225 23.27                             136   -0.0710  101   6 
 OCA  HZ I         225 23.59        18.3 0.34            135            101   6 
 OCA  HN ES        225 39.08                             136   -0.3310  101   6 
 ZAR  HZ EP        225 28.05                             122   -0.78 9  161 277 
 ZAR  HN ES        225 49.35                             122    0.16 9  161 277 
 ZAR  HZ I         225 51.56         4.2 0.46            121            161 277 
 RUS  HZ EP        225 30.21                             122    0.60 9  163 167 
 RUS  HZ I         225 31.63         2.4 0.12            123            163 167 
 SML  HZ EP        225 29.99                             119   -0.69 9  179 336 
 SML  HN ES        225 53.60                             119    1.11 9  179 336 
 SML  HZ I         226  1.03         6.9 0.10            118            179 336 
                                                                                
