 2016  722 0908 27.1 L   6.756 -73.474111.8  RSN  5 0.3 1.2LRSN                1
 GAP=154        0.56       2.8     3.5  5.7  0.4766E+01  0.9143E+01  0.4444E+01E
 Epicentro: EL CARMEN - SANTANDER                                              3
 ACTION:UPD 17-03-29 16:53 OP:lp   STATUS:               ID:20160722090827 L   I
 OLDACT:DUP 16-07-22 17:56 OP:ak   STATUS:               ID:20160722085760d    3
 2016-07-22-0857-59S.COL___327                                                 6
 STAT SP IPHASW D HRMM SECON CODA AMPLIT PERI AZIMU VELO AIN AR TRES W  DIS CAZ7
 BAR2 EZ EP        9 8 43.20                             160    0.0810 37.0 119 
 BAR2 EZ ES        9 8 55.53                             160   -0.0910 37.0 119 
 BRR  HZ EP        9 8 43.26                             155    0.0410 46.9 326 
 BRR  HN ES        9 8 56.06                             155    0.2610 46.9 326 
 BRR  HZ I         9 8 56.66         6.4 0.12            157           46.9 326 
 RUS  HZ EP   2    9 8 48.00                             134   -0.06 5  105 156 
 RUS  HN ES        9 9  4.20                             134   -0.2110  105 156 
 RUS  HZ I         9 9  5.61         2.6 0.26            135            105 156 
 SPBC HZ EP   2    9 8 51.51                             125    0.77 5  139 209 
 SPBC HE ES        9 9  9.21                             125    0.03 9  139 209 
 SPBC HZ I         9 9 13.37         2.2 0.20            124            139 209 
 ZAR  HN ES        9 9 15.02                             118   -0.33 9  173 298 
                                                                                
