 2014 1022 0421 57.1 L   6.771 -73.186156.0  RSN  4 0.3 1.6LRSN                1
 GAP=133        0.73       3.7     4.4  7.7 -0.3175E+01  0.5447E+01 -0.6023E+01E
 Epicentro: LOS SANTOS - SANTANDER                                             3
 ACTION:UPD 14-11-29 23:54 OP:nd   STATUS:               ID:20141022042157 L   I
 OLDACT:DUP 14-10-24 20:08 OP:mh   STATUS:               ID:20141022041751d    3
 2014-10-22-0417-50M.COL___277                                                 6
 STAT SP IPHASW D HRMM SECON CODA AMPLIT PERI AZIMU VELO AIN AR TRES W  DIS CAZ7
 PAM  SZ EP        422 21.16                             151    0.4710 82.7  41 
 PAM  SN ES   1    422 38.65                             151   -0.46 7 82.7  41 
 PAM  SZ I         422 41.30         6.7 0.72            152           82.7  41 
 RUS  HZ EP        422 21.28                             147   -0.3710 97.8 173 
 RUS  HN ES        422 41.03                             147    0.2010 97.8 173 
 RUS  HZ I         422 42.38         7.4 0.31            151           97.8 173 
 PTB  HZ EP        422 24.49                             135    0.03 9  143 260 
 PTB  HN ES        422 45.80                             135   -0.02 9  143 260 
 PTB  HZ I         422 47.85         5.0 0.07            138            143 260 
 OCA  HZ EP   1    422 26.20                             131   -0.24 7  163 355 
 OCA  HN ES   1    422 49.48                             131    0.13 7  163 355 
 OCA  HZ I         422 52.88         4.9 0.32            133            163 355 
                                                                                
