 2017  522 0314 17.3 L   6.780 -73.154145.6  RSN  7 0.4 2.7LRSN                1
 GAP=136        0.96       3.9     4.0  6.7 -0.2040E+01  0.6498E+01  0.2913E+01E
 Epicentro: LOS SANTOS - SANTANDER                                             3
 ACTION:UPD 17-06-16 13:37 OP:jn   STATUS:               ID:20170522031417 L   I
 OLDACT:REG 17-05-22 13:05 OP:ar   STATUS:               ID:20170522030740     3
 2017-05-22-0308-00M.COL___365                                                 6
 STAT SP IPHASW D HRMM SECON CODA AMPLIT PERI AZIMU VELO AIN AR TRES W  DIS CAZ7
 BRR  HZ IP     C  314 38.56                             152    0.1310 71.5 300 
 BRR  HN ES        314 55.61                             152    0.6910 71.5 300 
 BRR  HZ I         314 59.46        83.6 0.32            151           71.5 300 
 PAM  EZ EP        314 39.55                             150   -0.0710 79.7  39 
 PAM  EE ES        314 56.62                             150   -0.4210 79.7  39 
 PAM  EZ I         314 58.92        99.6 0.50            156           79.7  39 
 RUS  HZ EP        314 40.76                             144   -0.1010 98.4 175 
 RUS  HN ES        314 59.35                             144    0.1010 98.4 175 
 RUS  HZ I         315  0.87        51.3 0.46            147           98.4 175 
 PTB  HZ EP        314 44.45                             132    0.33 9  146 260 
 PTB  HN ES        315  4.26                             132   -0.78 9  146 260 
 PTB  HZ I         315 10.71        59.3 0.30            133            146 260 
 SPBC HZ EP        314 45.85                             129    0.30 9  161 219 
 SPBC HE ES        315  7.66                             129    0.06 9  161 219 
 SPBC HZ I         315 12.31        90.6 0.32            131            161 219 
 ZAR  HZ EP        314 50.09                             122    0.37 9  204 293 
 ZAR  HN ES        315 14.79                             122   -0.22 9  204 293 
 ZAR  HZ I         315 19.73        75.9 0.38            124            204 293 
 NOR  HZ EP        314 52.23                             119   -0.56 8  233 235 
 NOR  HE ES        315 20.52                             119    0.05 8  233 235 
 NOR  HZ I         315 29.93        33.7 0.38            121            233 235 
                                                                                
