 2011  422 0815 41.1 L   7.443 -73.454108.2  RSN 10 0.5 1.7LRSN                1
 GAP=152        1.34       6.3     9.0 13.0 -0.1514E+02 -0.1148E+01 -0.1295E+02E
 Epicentro: SABANA DE TORRES - SANTANDER                                       3
 ACTION:UP  11-06-22 15:32 OP:REBC STATUS:               ID:20110422081541 L   I
 2011-04-22-0814-16S.COL___139                                                 6
 STAT SP IPHASW D HRMM SECON CODA AMPLIT PERI AZIMU VELO SNR AR TRES W  DIS CAZ7
 BRR  HZ EP        815 56.82                             155     0.010   47 217 
 BRR  HN ES   1    816  9.71                             155     0.7 7   47 217 
 BRR  HZ I         816 10.72        27.2 0.15                            47 217 
 GIR2 SZ EP        815 56.72                             153    -0.410   50 144 
 BTL  SZ EP        815 58.53                             148     0.510   62 160 
 GUE  SZ EP        815 58.58                             144    -0.310   72  54 
 BRI  SZ EP        815 59.40                             141     0.310   79  67 
 PAM  SZ EP        815 59.71                             139    -0.310   84  98 
 PAM  SN ES   1    816 14.62                             139    -0.1 7   84  98 
 PAM  SZ I         816 16.26         5.2 0.15                            84  98 
 GRA  SZ EP        816  0.27                             138     0.510   87  56 
 GRA  SZ ES   1    816 14.97                             138     0.7 7   87  56 
 GRA  SZ I         816 16.76        26.7 0.31                            87  56 
 OCA  SZ EP        815 59.84                             137    -0.110   89  10 
 OCA  SZ ES   1    816 13.64                             137    -1.0 7   89  10 
 OCA  SZ I         816 14.34        16.3 0.29                            89  10 
 BAR2 SZ ES   1    816 15.47                             134    -0.8 7   99 162 
 BAR2 SZ I         816 16.63        11.6 0.19                            99 162 
 RUS  HZ EP   3    816  8.64                             117    -0.3 2  176 167 
 RUS  HZ I         816 40.24         1.4 0.34                           176 167 
                                                                                
