 2015  822 0409  8.6 L   6.798 -73.117146.8  RSN  8 0.3 1.5LRSN                1
 GAP=140        0.86       3.6     5.4  6.4 -0.7220E+01  0.6647E+01  0.4409E+01E
 Epicentro: LOS SANTOS - SANTANDER                                             3
 ACTION:UPD 15-09-15 23:04 OP:cam  STATUS:               ID:20150822040908 L   I
 OLDACT:REG 15-08-22 14:13 OP:spq  STATUS:               ID:20150822040750     3
 2015-08-22-0407-50M.COL___351                                                 6
 STAT SP IPHASW D HRMM SECON CODA AMPLIT PERI AZIMU VELO AIN AR TRES W  DIS CAZ7
 BAR2 EZ EP     D  4 9 28.24                             170   -0.0910 23.9 198 
 BAR2 EZ ES   1    4 9 43.77                             170    0.03 7 23.9 198 
 BAR2 EZ I         4 9 44.30         4.3 0.28            171           23.9 198 
 BRR  HZ EP     D  4 9 30.17                             152    0.1810 74.1 298 
 BRR  HN ES        4 9 47.26                             152    0.5610 74.1 298 
 BRR  HZ I         4 9 48.39         5.6 0.46            152           74.1 298 
 PAM  EZ EP     C  4 9 31.24                             152    0.4610 75.6  38 
 PAM  EN ES        4 9 48.03                             152   -0.0810 75.6  38 
 PAM  EZ I         4 9 50.57         5.8 0.74            152           75.6  38 
 RUS  HZ EP   1    4 9 32.30                             144   -0.09 7  100 178 
 RUS  HN ES   1    4 9 50.89                             144   -0.08 7  100 178 
 RUS  HZ I         4 9 51.80         3.1 0.30            146            100 178 
 OCA  HE ES        4 9 58.45                             130   -0.75 9  161 352 
 OCA  HZ I         410  2.36         5.3 0.43            130            161 352 
 SPBC HZ EP        4 9 37.26                             129   -0.06 9  165 220 
 SPBC HE ES        4 9 59.24                             129   -0.50 9  165 220 
 SPBC HZ I         410  1.79         5.9 0.26            130            165 220 
 NOR  HZ EP        4 9 44.81                             118    0.19 8  237 235 
 GUY2CHZ EP   4    4 9 54.13                             112    1.63 0  304 235 
 GUY2CHE ES   1    410 26.80                             112    0.04 5  304 235 
 GUY2CHZ I         410 35.32         2.3 0.72                           304 235 
                                                                                
