 2014  322 0541 21.8 L   6.819 -73.169145.4  RSN  9 0.4 1.8LRSN                1
 GAP=133        0.94       3.1     3.8  6.0 -0.9037E+00  0.7390E+01 -0.1195E+01E
 Epicentro: LOS SANTOS - SANTANDER                                             3
 ACTION:UPD 14-04-09 23:19 OP:nd   STATUS:               ID:20140322054121 L   I
 OLDACT:UP  14-03-22 12:51 OP:mh   STATUS:               ID:20140322053813     3
 OLDACT:REG 14-03-22 09:04 OP:mh   STATUS:               ID:20140322053813     3
 2014-03-22-0538-13M.COL___234                                                 6
 STAT SP IPHASW D HRMM SECON CODA AMPLIT PERI AZIMU VELO AIN AR TRES W  DIS CAZ7
 BAR2 SZ EP        541 41.73                             170    0.3110 25.1 183 
 BAR2 SZ ES        541 56.97                             170    0.2410 25.1 183 
 BAR2 SZ I         541 58.38        20.2 0.10            169           25.1 183 
 PAM  SZ EP        541 44.67                             151    0.6910 77.4  42 
 PAM  SN ES        542  0.82                             151   -0.4610 77.4  42 
 PAM  SZ I         542  2.60         9.0 0.25            155           77.4  42 
 RUS  HZ EP        541 45.29                             143   -0.3910  103 175 
 RUS  HN ES   1    542  4.21                             143   -0.10 7  103 175 
 RUS  HZ I         542  6.02         4.7 0.24            145            103 175 
 PTB  HZ EP        541 48.42                             132   -0.13 9  146 258 
 PTB  HN ES        542  9.24                             132   -0.17 9  146 258 
 PTB  HZ I         542 14.56         7.5 0.26            132            146 258 
 SPBC HZ EP        541 50.74                             129    0.47 9  163 218 
 SPBC HN ES        542 12.66                             129    0.17 9  163 218 
 SPBC HZ I         542 17.24         9.6 0.09            130            163 218 
 ZAR  HZ EP        541 53.18                             123   -0.71 9  201 292 
 ZAR  HN ES        542 19.04                             123    0.11 9  201 292 
 ZAR  HZ I         542 24.92         6.3 0.24            123            201 292 
 SML  HZ EP        541 58.00                             118   -0.08 8  241 336 
 SML  HN ES        542 26.35                             118   -0.03 8  241 336 
 SML  HZ I         542 31.93         8.0 0.08            119            241 336 
 CHI  HZ EP        541 59.73                             117    0.10 8  250 194 
 CHI  HN ES   1    542 28.17                             117   -0.96 6  250 194 
 CHI  HZ I         542 32.82         4.5 0.60            119            250 194 
 HEL  HZ EP   4    542  3.74                             115    1.97 0  270 255 
 HEL  HN ES        542 33.25                             115    0.29 8  270 255 
 HEL  HZ I         542 39.82         4.0 0.30            116            270 255 
 CBOC HZ EP   4    542  9.62                             110    1.13 0  332 252 
 CBOC HN ES   4    542 43.51                             110   -1.40 0  332 252 
                                                                                
