 2013  922 0834 34.1 L   6.727 -73.206148.0  RSN  5 0.4 1.2LRSN                1
 GAP=223        0.88       6.1     7.8  8.2  0.8888E+01  0.8438E+01  0.7677E+01E
 Epicentro: VILLANUEVA - SANTANDER                                             3
 ACTION:UPD 13-10-22 09:24 OP:ep   STATUS:               ID:20130922083434 L   I
 OLDACT:REG 13-09-22 07:57 OP:jn   STATUS:               ID:20130922082959     3
 2013-09-22-0829-59M.COL___269                                                 6
 STAT SP IPHASW D HRMM SECON CODA AMPLIT PERI AZIMU VELO AIN AR TRES W  DIS CAZ7
 BAR2 SZ ES   2    835  8.62                             174   -0.64 5 15.1 170 
 BRR  HZ EP        834 55.20                             154   -0.2110 70.0 307 
 BRR  HN ES        835 12.53                             154    0.4910 70.0 307 
 BRR  HZ I         835 14.94         2.3 0.36            149           70.0 307 
 RUS  HN ES   1    835 15.79                             147   -0.05 7 93.2 172 
 PTB  HZ EP        835  0.04                             134   -0.49 9  140 262 
 PTB  HN ES        835 20.98                             134   -0.17 9  140 262 
 PTB  HZ I         835 28.42         2.8 0.36            130            140 262 
 SPBC HZ EP        835  2.28                             132    0.50 9  153 219 
 SPBC HN ES   1    835 23.51                             132    0.13 7  153 219 
 SPBC HZ I         835 32.15         1.9 0.18            128            153 219 
                                                                                
