 2016  222 0700 19.5 L   6.937 -73.192130.4  RSN  4 0.3 1.0LRSN                1
 GAP=140        0.76       3.5     7.9  9.5 -0.1509E+02  0.4458E+02 -0.6925E+01E
 Epicentro: BETULIA - SANTANDER                                                3
 ACTION:UPD 16-03-04 21:28 OP:rebc STATUS:               ID:20160222070019 L   I
 OLDACT:UP  16-02-22 18:04 OP:mh   STATUS:               ID:20160222065747d    3
 OLDACT:DUP 16-02-22 18:01 OP:mh   STATUS:               ID:20160222065747d    3
 OLDACT:UP  16-02-22 17:58 OP:mh   STATUS:               ID:20160222065746     3
 OLDACT:REG 16-02-22 12:49 OP:mh   STATUS:               ID:20160222065746     3
 2016-02-22-0657-46M.COL___319                                                 6
 STAT SP IPHASW D HRMM SECON CODA AMPLIT PERI AZIMU VELO AIN AR TRES W  DIS CAZ7
 PAM  EZ EP   1    7 0 39.75                             150    0.12 7 70.2  51 
 PAM  EN ES        7 0 54.93                             150   -0.4210 70.2  51 
 PAM  EZ I         7 1  3.86         3.5 0.46            142           70.2  51 
 RUS  HZ EP   1    7 0 43.04                             136    0.03 7  116 174 
 RUS  HN ES   1    7 1  2.05                             136    0.67 7  116 174 
 RUS  HZ I         7 1 42.85         0.8 0.40            130            116 174 
 OCA  HZ EP        7 0 45.32                             129    0.20 9  145 354 
 OCA  HN ES   1    7 1  5.45                             129    0.33 7  145 354 
 SPBC HZ EP        7 0 47.41                             123   -0.35 9  172 214 
 SPBC HN ES        7 1  9.72                             123   -0.10 9  172 214 
 SPBC HZ I         7 1 13.02         1.6 0.10            128            172 214 
                                                                                
