 2014  322 0227 15.5 L   6.791 -73.132147.1  RSN  8 0.4 2.1LRSN                1
 GAP=139        1.01       4.1     4.6  7.7 -0.1296E+01  0.1207E+02 -0.8395E+01E
 Epicentro: LOS SANTOS - SANTANDER                                             3
 ACTION:UPD 14-04-09 23:19 OP:nd   STATUS:               ID:20140322022715 L   I
 OLDACT:UP  14-03-22 12:11 OP:mh   STATUS:               ID:20140322021818d    3
 OLDACT:DUP 14-03-22 12:06 OP:mh   STATUS:               ID:20140322021818d    3
 2014-03-22-0218-17M.COL___243                                                 6
 STAT SP IPHASW D HRMM SECON CODA AMPLIT PERI AZIMU VELO AIN AR TRES W  DIS CAZ7
 BAR2 SZ EP        227 35.82                             171    0.5210 22.7 194 
 BAR2 SZ ES        227 50.28                             171   -0.4510 22.7 194 
 BAR2 SZ I         227 53.49         9.3 0.06            170           22.7 194 
 PAM  SZ EP        227 38.41                             151    0.5410 77.2  38 
 PAM  SE ES        227 55.52                             151    0.2210 77.2  38 
 PAM  SZ I         227 58.00         6.1 0.39            156           77.2  38 
 RUS  HZ EP        227 39.06                             144   -0.2710 99.5 177 
 RUS  HN ES        227 57.68                             144   -0.2210 99.5 177 
 RUS  HZ I         228  1.52         2.0 0.13            149           99.5 177 
 PTB  HZ EP        227 42.22                             132   -0.50 9  149 259 
 PTB  HN ES        228  4.15                             132    0.23 9  149 259 
 PTB  HZ I         228 11.10         6.7 0.25            133            149 259 
 ZAR  HN ES        228 14.20                             122    0.45 8  206 292 
 ZAR  HZ I         228 20.07         4.7 0.09            124            206 292 
 NOR  HN ES   1    228 19.66                             119    0.28 6  235 235 
 SML  HZ EP        227 52.24                             117   -0.15 8  245 335 
 SML  HN ES        228 20.46                             117   -0.68 8  245 335 
 SML  HZ I         228 24.17     10391.4 0.02            120            245 335 
 GUY2CHZ EP   4    228  1.04                             112    1.77 0  302 235 
 GUY2CHN ES   4    228 37.31                             112    3.92 0  302 235 
 GUY2CHZ I         228 41.50         1.9 0.35                           302 235 
                                                                                
