 2012  822 0623 34.0 L   6.965 -73.093154.6  RSN  8 0.2 1.3LRSN                1
 GAP=133        0.45       2.9     2.5  4.7 -0.1198E+00  0.4091E+01  0.7070E+00E
 Epicentro: PIEDECUESTA - SANTANDER                                            3
 ACTION:UPD 12-09-10 11:57 OP:ep   STATUS:               ID:20120822062334 L   I
 2012-08-22-0620-00M.COL___218                                                 6
 STAT SP IPHASW D HRMM SECON CODA AMPLIT PERI AZIMU VELO AIN AR TRES W  DIS CAZ7
 GIR2 SZ EP   1    623 54.35                             174   -0.06 7 16.7 319 
 BAR2 SZ EP   1    623 55.36                             164    0.19 7 42.4 193 
 BAR2 SZ ES   2    624 11.44                             164   -0.26 5 42.4 193 
 BAR2 SZ I         624 12.85         8.4 0.23                          42.4 193 
 PAM  SZ EP   1    623 56.46                             158    0.21 7 60.1  46 
 PAM  SN ES        624 13.66                             158    0.0410 60.1  46 
 PAM  SZ I         624 15.66         2.9 0.19                          60.1  46 
 BRR  HZ EP   1    623 56.07                             154    0.04 7 70.1 283 
 BRR  HN ES   1    624 13.18                             154   -0.05 7 70.1 283 
 BRR  HZ I         624 14.29         4.9 0.15                          70.1 283 
 RUS  HN ES   1    624 20.01                             141   -0.15 7  119 179 
 OCA  HN ES   2    624 22.58                             135   -0.31 5  143 350 
 PTB  HZ EP   1    624  2.18                             132   -0.40 7  158 253 
 PTB  HZ I         624  2.60         1.2 0.06                           158 253 
 PTB  HN ES   1    624 25.32                             132    0.43 7  158 253 
 ZAR  HN ES        624 32.62                             124   -0.04 9  203 287 
                                                                                
