 2016  522 0111 31.3 L   6.806 -73.128143.6  RSN  8 0.4 2.0LRSN                1
 GAP=138        1.15       3.9     4.9  7.1 -0.2363E+01  0.7004E+01 -0.1642E+01E
 Epicentro: LOS SANTOS - SANTANDER                                             3
 ACTION:UPD 16-08-18 17:48 OP:cam  STATUS:               ID:20160522011131 L   I
 OLDACT:UP  16-05-22 13:27 OP:mh   STATUS:               ID:20160522010742     3
 OLDACT:REG 16-05-22 12:58 OP:mh   STATUS:               ID:20160522010742     3
 2016-05-22-0107-42M.COL___298                                                 6
 STAT SP IPHASW D HRMM SECON CODA AMPLIT PERI AZIMU VELO AIN AR TRES W  DIS CAZ7
 BAR2 EZ EP        111 50.87                             170    0.2210 24.4 194 
 BAR2 EZ ES        112  5.39                             170   -0.3810 24.4 194 
 BAR2 EZ I         112  7.99        14.5 0.17            170           24.4 194 
 BRR  HZ IP     C  111 52.72                             152    0.4710 72.6 297 
 BRR  HN ES        112  9.34                             152    0.7110 72.6 297 
 BRR  HZ I         112 13.72        17.7 0.09            152           72.6 297 
 PAM  EZ EP        111 53.71                             151    0.5710 75.6  39 
 PAM  EN ES        112 10.47                             151    0.2710 75.6  39 
 PAM  EZ I         112 12.77        15.6 0.34            154           75.6  39 
 RUS  HZ EP        111 55.00                             143    0.1610  101 177 
 RUS  HN ES        112 12.68                             143   -0.5510  101 177 
 PTB  HZ EP        111 57.71                             131   -0.53 9  150 259 
 PTB  HN ES        112 19.27                             131   -0.01 9  150 259 
 OCA  HZ EP        111 58.94                             129   -0.42 9  160 352 
 OCA  HN ES        112 20.30                             129   -0.97 9  160 352 
 OCA  HZ I         112 21.62        20.8 0.36            132            160 352 
 SPBC HZ EP        111 59.87                             128    0.11 9  165 219 
 SPBC HN ES        112 21.95                             128   -0.04 9  165 219 
 SPBC HZ I         112 25.48        10.2 0.30            131            165 219 
 ZAR  HZ EP   1    112  3.91                             122    0.19 6  206 292 
 ZAR  HN ES        112 29.09                             122    0.04 8  206 292 
 ZAR  HZ I         112 32.41        15.0 0.10            124            206 292 
 HEL  HN ES   4    112 40.59                             114   -2.46 0  274 256 
                                                                                
