 2014  222 0031 39.3 L   6.820 -73.177141.1  RSN  7 0.3 1.5LRSN                1
 GAP=132        0.61       2.7     3.4  5.6  0.2182E+00  0.5057E+01 -0.2954E+00E
 Epicentro: LOS SANTOS - SANTANDER                                             3
 ACTION:UPD 14-03-10 08:12 OP:ep   STATUS:               ID:20140222003139 L   I
 OLDACT:REG 14-02-22 08:35 OP:fm   STATUS:               ID:20140222003000     3
 2014-02-22-0030-00M.COL___215                                                 6
 STAT SP IPHASW D HRMM SECON CODA AMPLIT PERI AZIMU VELO AIN AR TRES W  DIS CAZ7
 BAR2 SZ ES   1    032 13.57                             169    0.23 7 25.1 181 
 PAM  SZ EP        032  1.03                             150   -0.0610 78.0  42 
 PAM  SN ES        032 18.03                             150   -0.0310 78.0  42 
 PAM  SZ I         032 19.75         4.7 0.72            123           78.0  42 
 RUS  HZ EP        032  2.72                             142   -0.0910  103 174 
 RUS  HN ES        032 21.16                             142    0.0410  103 174 
 RUS  HZ I         032 22.77         3.8 0.32            111            103 174 
 PTB  HN ES   1    032 25.58                             131   -0.61 7  145 258 
 ZAR  HN ES   1    032 36.42                             122    0.61 6  200 292 
 ZAR  HN I         032 41.59         6.5 0.46            101            200 292 
 SML  HE ES   1    032 43.26                             117   -0.15 6  240 336 
 CHI  HZ EP   1    032 17.20                             116    0.30 6  250 194 
 CHI  HZ I         032 51.99         1.5 0.54             97            250 194 
                                                                                
