 2013  122 0242 36.3 L   6.780 -73.138139.8  RSN  7 0.3 2.0LRSN 2.8WRSN        1
 SPEC AVERAGE  MO 13.3 ST  5.1 OM  1.9 f0 5.39 R0.2789 AL 2.53 WI 18.7 MW  2.8 3
 SPEC SD       MO  0.1 ST  2.2 OM  0.6 f00.781 R0.0445 AL      WI      MW  0.1 3
 GAP= 98        0.86       3.6     3.1  5.4 -0.6730E+00 -0.1585E+00  0.5176E+01E
 Epicentro: LOS SANTOS - SANTANDER                                             3
 SPEC PTB HH N MO 13.3 ST  6.6 OM  1.6 f0 6.33 R0.2322 AL 1.77 WI 18.2 MW  2.8 3
 SPEC PTB HH N T 24322 K 0.000 GD  203 VS 4.20 DE 3.00 Q0230.0 QA 0.60 VS 4.20 3
 SPEC PAM SH Z MO 13.3 ST  4.8 OM  1.0 f0 5.38 R0.2732 AL 2.65 WI 12.6 MW  2.8 3
 SPEC PAM SH Z T 24257 K 0.000 GD  160 VP 7.60 DE 3.00 Q0230.0 QA 0.60 VS 4.20 3
 SPEC CHI HH N MO 13.2 ST  1.7 OM  1.4 f0 4.18 R0.3517 AL 2.39 WI 25.1 MW  2.8 3
 SPEC CHI HH N T 24339 K 0.000 GD  283 VS 4.20 DE 3.00 Q0230.0 QA 0.60 VS 4.20 3
 SPEC BRR HH N MO 13.5 ST  7.4 OM  1.9 f0 5.69 R0.2583 AL 3.30 WI 18.9 MW  2.9 3
 SPEC BRR HH N T 24313 K 0.000 GD  157 VS 4.20 DE 3.00 Q0230.0 QA 0.60 VS 4.20 3
 ACTION:UPD 13-02-15 09:15 OP:ep   STATUS:               ID:20130122024236 L   I
 2013-01-22-0238-48M.COL___181                                                 6
 STAT SP IPHASW D HRMM SECON CODA AMPLIT PERI AZIMU VELO AIN AR TRES W  DIS CAZ7
 BAR2 SZ EP        242 55.17                             171    0.0110 21.3 193 
 BAR2 SZ ES        243  9.28                             171   -0.6110 21.3 193 
 BAR2 SZ I         243 12.50        19.0 0.36            172           21.3 193 
 BRR  HZ EP        242 56.99                             151    0.0810 73.1 300 
 BRR  HN ES        243 13.70                             151    0.7110 73.1 300 
 BRR  HN I         243 17.46        55.8 0.18            151           73.1 300 
 PAM  SZ IP     D  242 58.08                             149    0.1310 78.6  38 
 PAM  SZ I         242 58.28        21.9 0.18            151           78.6  38 
 PAM  SN ES        243 14.72                             149   -0.1210 78.6  38 
 RUS  HZ EP        242 59.30                             143    0.0110 98.3 176 
 RUS  HN ES        243 17.40                             143    0.1710 98.3 176 
 RUS  HN I         243 18.64        12.5 0.26            146           98.3 176 
 PTB  HZ EP        243  2.18                             130   -0.64 9  148 260 
 PTB  HN ES        243 23.37                             130   -0.15 9  148 260 
 PTB  HN I         243 25.24        24.1 0.26            132            148 260 
 TAM  HZ EP        243  3.44                             129    0.07 9  154 104 
 TAM  HZ I         243  3.71         6.3 0.20            132            154 104 
 TAM  HN ES        243 24.48                             129   -0.01 9  154 104 
 CHI  HZ EP        243 13.55                             116    0.10 8  247 196 
 CHI  HN ES        243 42.76                             116    0.32 8  247 196 
                                                                                
