 2017  322 0316  7.3 L   6.938 -73.537108.7  RSN  5 0.3 1.1LRSN                1
 GAP=112        0.81       6.5     3.5  7.4  0.3786E+00  0.1878E+01 -0.1240E+02E
 Epicentro: SAN VICENTE DE CHUCURI - SANTANDER                                 3
 ACTION:UPD 17-05-25 18:43 OP:jn   STATUS:               ID:20170322031606 L   I
 OLDACT:UP  17-04-28 14:25 OP:nlst STATUS:               ID:20170322031606 L   3
 OLDACT:UP  17-03-22 14:17 OP:dani STATUS:               ID:20170322030744     3
 OLDACT:UP  17-03-22 14:16 OP:dani STATUS:               ID:20170322030744     3
 OLDACT:UP  17-03-22 14:16 OP:dani STATUS:               ID:20170322030744     3
 OLDACT:UP  17-03-22 14:16 OP:dani STATUS:               ID:20170322030744     3
 OLDACT:REG 17-03-22 12:22 OP:dani STATUS:               ID:20170322030744     3
 2017-03-22-0308-00M.COL___367                                                 6
 STAT SP IPHASW D HRMM SECON CODA AMPLIT PERI AZIMU VELO AIN AR TRES W  DIS CAZ7
 BRR  HZ EP        316 21.87                             165   -0.3410 26.9 314 
 BRR  HN ES   1    316 33.68                             165   -0.19 7 26.9 314 
 BAR2 EZ EP        316 24.28                             151    0.4510 54.7 134 
 BAR2 EZ ES        316 36.85                             151    0.1010 54.7 134 
 BAR2 EZ I         316 38.45         6.8 0.20            153           54.7 134 
 PAM  EZ EP        316 27.63                             134   -0.1310  103  64 
 PAM  EE ES   4    316 42.38                             134   -1.38 0  103  64 
 PAM  EZ I         316 45.31         2.9 0.33            136            103  64 
 PTB  HZ EP        316 27.65                             131   -0.2110  111 247 
 PTB  HN ES        316 43.79                             131   -0.1410  111 247 
 PTB  HZ I         316 46.20         1.7 0.18            133            111 247 
 ZAR  HE ES   1    316 53.11                             120    0.76 7  158 293 
                                                                                
