 2012  322 0032 55.6 L   6.784 -73.182146.0  RSN  6 0.4 1.5LRSN                1
 GAP=133        0.83       8.0     7.2 10.1  0.3998E+01  0.2517E+02 -0.1614E+01E
 ACTION:UP  12-03-31 23:21 OP:EP   STATUS:               ID:20120322003255 L   I
 2012-03-22-0030-00M.COL___202                                                 6
 STAT SP IPHASW D HRMM SECON CODA AMPLIT PERI AZIMU VELO SNR AR TRES W  DIS CAZ7
 BAR2 SZ EP   2    033 15.15                             171     0.0 5   21 180 
 BAR2 SZ ES   2    033 29.86                             171    -0.6 5   21 180 
 BAR2 SZ I         033 31.26         9.3 0.17                            21 180 
 BRR  HZ EP        033 16.90                             153     0.310   69 301 
 BRR  HN ES   2    033 33.67                             153     0.7 5   69 301 
 BRR  HZ I         033 34.64        14.0 0.37                            69 301 
 PAM  SZ EP   2    033 17.99                             150    -0.1 5   81  41 
 PAM  SN ES   2    033 35.03                             150    -0.5 5   81  41 
 RUS  HZ EP   2    033 19.56                             144     0.3 5   99 174 
 RUS  HN ES   2    033 38.33                             144     0.6 5   99 174 
 RUS  HZ I         033 38.85         2.6 0.23                            99 174 
 PTB  HZ EP        033 21.66                             133    -0.5 9  143 259 
 PTB  HN ES   2    033 42.58                             133    -0.3 5  143 259 
 PTB  HZ I         033 45.81         2.8 0.17                           143 259 
 ZAR  HZ EP   2    033 27.91                             123     0.2 4  201 293 
 ZAR  HN ES   2    033 53.11                             123     0.3 4  201 293 
 ZAR  HZ I         033 59.80         3.7 0.25                           201 293 
                                                                                
