 2011  622 0044 16.4 L   6.786 -73.102148.7  RSN 16 0.3 2.2LRSN                1
 GAP=143        0.44       2.0     3.1  3.0 -0.3117E+01  0.1043E+01  0.1095E+01E
 Epicentro: LOS SANTOS - SANTANDER                                             3
 ACTION:UP  11-07-14 19:07 OP:ep   STATUS:               ID:20110622004416 L   I
 2011-06-22-0041-35S.COL___140                                                 6
 STAT SP IPHASW D HRMM SECON CODA AMPLIT PERI AZIMU VELO SNR AR TRES W  DIS CAZ7
 BAR2 SZ EP   1    044 36.07                             171    -0.3 8   23 202 
 BTL  SZ EP   1    044 36.33                             171     0.0 8   23 309 
 BAR2 SZ ES   1    044 52.01                             171     0.1 8   23 202 
 BAR2 SZ I         044 54.01        36.0 0.32                            23 202 
 GIR2 SZ EP   2    044 36.26                             167    -0.2 5   34 343 
 GIR2 SZ ES   2    044 52.47                             167     0.3 5   34 343 
 BRR  HZ EP   1    044 38.05                             151    -0.1 8   76 298 
 BRR  HZ I         044 38.50        56.0 0.17                            76 298 
 BRR  HE ES   1    044 55.05                             151     0.0 8   76 298 
 PAM  SZ EP   1    044 38.94                             152     0.1 8   76  36 
 PAM  SN ES   2    044 56.22                             152    -0.1 5   76  36 
 RUS  HZ EP   2    044 40.15                             145    -0.1 5   99 179 
 RUS  HN ES   2    044 58.55                             145    -0.4 5   99 179 
 RUS  HZ I         044 59.92        16.8 0.38                            99 179 
 BRI  SZ IP        044 40.69                             142     0.210  108  18 
 BRI  SZ ES   1    044 59.22                             142    -0.1 7  108  18 
 GRA  SZ IP        044 41.96                             138     0.110  126  15 
 GRA  SZ I         044 43.27        18.8 0.30                           126  15 
 GRA  SZ ES   1    045  2.13                             138     0.3 7  126  15 
 OCA  SZ EP   1    044 44.84                             130    -0.3 7  162 352 
 OCA  SZ ES   1    045  7.25                             130    -0.3 7  162 352 
 OCA  SZ I         045 13.03        28.2 0.36                           162 352 
 NOR  SZ EP   1    044 52.35                             119    -0.2 6  238 235 
 NOR  SN ES   2    045 20.59                             119    -0.3 4  238 235 
 CHI  HZ EP   1    044 54.32                             118     0.1 6  248 196 
 CHI  HN ES   2    045 24.21                             118     0.5 4  248 196 
 CHI  HZ I         045 29.35         7.9 0.23                           248 196 
 HEL  HZ EP   2    044 57.28                             115     0.1 4  276 256 
 HEL  HE ES   2    045 29.40                             115     0.3 4  276 256 
 HEL  HZ I         045 36.49         4.7 0.71                           276 256 
 RREF HZ EP   2    045  2.53                             111    -0.4 3  324 230 
 RREF HE ES   2    045 39.85                             111     0.6 3  324 230 
 RREF HZ I         045 44.80        11.7 0.29                           324 230 
 DBB  SZ EP   2    045  5.18                             110     0.7 3  344 274 
 PRA  HZ EP   2    045  9.95                             107    -0.2 3  393 210 
 PRA  HN ES   2    045 52.45                             107     0.4 3  393 210 
 SJA  SZ EP   2    045 10.94                             107     0.0 3  400 194 
                                                                                
