 2017  322 0824 12.6 L   6.791 -73.140144.7  RSN  5 0.3 1.2LRSN                1
 GAP=253        0.90       5.7     6.0  7.2  0.6046E+01  0.8540E+01  0.6305E+01E
 Epicentro: LOS SANTOS - SANTANDER                                             3
 ACTION:UPD 17-05-25 18:43 OP:jn   STATUS:               ID:20170322082412 L   I
 OLDACT:DUP 17-03-22 16:44 OP:dani STATUS:               ID:20170322081742d    3
 2017-03-22-0818-00M.COL___352                                                 6
 STAT SP IPHASW D HRMM SECON CODA AMPLIT PERI AZIMU VELO AIN AR TRES W  DIS CAZ7
 BAR2 EZ EP        824 31.87                             171   -0.1910 22.5 192 
 BAR2 EZ ES        824 46.93                             171   -0.3310 22.5 192 
 BAR2 EZ I         824 48.00         4.9 0.38            169           22.5 192 
 BRR  HZ EP        824 33.85                             152    0.1810 72.2 299 
 BRR  HN ES        824 50.65                             152    0.5310 72.2 299 
 BRR  HZ I         824 54.05         2.0 0.17            150           72.2 299 
 PTB  HZ EP        824 39.42                             132   -0.08 9  148 259 
 PTB  HN ES        824 59.88                             132   -0.61 9  148 259 
 PTB  HZ I         825  6.99         1.6 0.54            131            148 259 
 SPBC HZ EP        824 41.03                             129    0.07 9  163 219 
 SPBC HN ES        825  3.58                             129    0.49 9  163 219 
 ZAR  HE ES        825 10.32                             122   -0.06 9  205 292 
                                                                                
