 2011  722 0845  1.6 L   6.760 -73.085153.2  RSN 12 0.2 2.0LRSN                1
 GAP=163        0.42       1.5     2.9  2.8 -0.1530E+01  0.6484E+00  0.8218E+00E
 Epicentro: LOS SANTOS - SANTANDER                                             3
 ACTION:UPD 12-07-25 14:02 OP:epov STATUS:               ID:20110722084501 L   I
 2011-07-22-0840-00M.COL___137                                                 6
 STAT SP IPHASW D HRMM SECON CODA AMPLIT PERI AZIMU VELO AIN AR TRES W  DIS CAZ7
 BAR2 SZ IP        845 21.97                             172   -0.1310 21.4 210 
 BAR2 SZ ES   1    845 38.01                             172   -0.07 7 21.4 210 
 BAR2 SZ I         845 38.76        38.9 0.25                          21.4 210 
 BTL  SZ EP   1    845 22.48                             170    0.28 7 26.7 311 
 BTL  SZ ES   2    845 38.58                             170    0.31 5 26.7 311 
 GIR2 SZ EP        845 22.38                             166    0.0510 37.2 341 
 GIR2 SZ ES   2    845 38.67                             166    0.18 5 37.2 341 
 BRR  HZ IP     C  845 23.85                             151   -0.1710 79.2 299 
 BRR  HZ I         845 24.14        35.6 0.18                          79.2 299 
 BRR  HN ES   1    845 41.40                             151   -0.09 7 79.2 299 
 RUS  HZ IP     C  845 25.97                             146    0.1910 95.9 180 
 RUS  HE ES   1    845 44.66                             146    0.03 7 95.9 180 
 RUS  HZ I         845 45.86         7.2 0.27                          95.9 180 
 BRI  SZ EP   2    845 26.64                             142    0.28 5  110  17 
 GRA  SZ IP        845 27.80                             138    0.0810  128  14 
 GRA  SZ ES        845 47.77                             138   -0.3210  128  14 
 GRA  SZ I         845 49.07         8.0 0.40                           128  14 
 OCA  SZ EP   1    845 31.36                             130    0.36 7  166 351 
 OCA  SZ ES        845 53.84                             130   -0.08 9  166 351 
 OCA  SZ I         845 59.66        10.1 0.49                           166 351 
 NOR  SZ EP   1    845 38.03                             120   -0.07 6  238 236 
 NOR  SN ES   1    846  6.40                             120   -0.16 6  238 236 
 CHI  HZ EP        845 39.37                             119   -0.10 8  246 197 
 CHI  HE ES   1    846  9.19                             119    0.19 6  246 197 
 CHI  HZ I         846 17.55         3.9 0.55                           246 197 
 HEL  HZ EP   2    845 43.20                             116    0.39 4  278 257 
 HEL  HN ES   2    846 15.14                             116    0.19 4  278 257 
 PRA  HZ EP   1    845 54.82                             108   -0.52 4  392 211 
 PRA  HN ES   2    846 37.11                             108   -0.14 3  392 211 
                                                                                
