 2014 1122 0147 42.7 L   6.155 -73.744105.0  RSN  6 0.4 1.1LRSN                1
 GAP=102        1.07       4.5     3.5  9.0 -0.5252E+00  0.7614E+01 -0.1352E+02E
 Epicentro: LANDAZURI - SANTANDER                                              3
 ACTION:UPD 14-12-19 15:45 OP:nd   STATUS:               ID:20141122014742 L   I
 OLDACT:DUP 14-11-22 14:58 OP:fm   STATUS:               ID:20141122013747d    3
 OLDACT:REG 14-11-22 13:03 OP:fm   STATUS:               ID:20141122013746     3
 2014-11-22-0137-46M.COL___300                                                 6
 STAT SP IPHASW D HRMM SECON CODA AMPLIT PERI AZIMU VELO AIN AR TRES W  DIS CAZ7
 SPBC HZ EP        148  0.14                             145    0.7610 66.4 213 
 SPBC HN ES        148 12.83                             145    0.4210 66.4 213 
 RUS  HZ EP        148  0.50                             141   -0.3510 78.7 112 
 RUS  HN ES        148 14.48                             141   -0.5510 78.7 112 
 RUS  HZ I         148 18.46         1.3 0.32            142           78.7 112 
 BAR2 SZ EP        148  0.77                             140    0.2710 78.7  52 
 BAR2 SZ ES        148 14.65                             140    0.2510 78.7  52 
 BAR2 SZ I         148 15.38         6.4 0.34            143           78.7  52 
 PTB  HZ EP        148  0.67                             136   -0.4010 89.6 298 
 PTB  HN ES        148 15.39                             136   -0.0310 89.6 298 
 PTB  HZ I         148 16.47         3.2 0.32            138           89.6 298 
 NOR  HE ES        148 23.70                             122   -0.47 9  141 242 
 NOR  HZ I         148 28.10         3.1 0.36            123            141 242 
 ZAR  HZ EP        148 11.76                             113    0.24 9  192 320 
 ZAR  HN ES        148 33.87                             113   -0.16 9  192 320 
 ZAR  HZ I         148 35.84         1.2 0.24            115            192 320 
                                                                                
