 2017  222 0645 13.5 L   6.776 -73.143151.8  RSN  7 0.3 2.0LRSN                1
 GAP=138        0.85       4.5     4.1  6.6 -0.4986E+01  0.4001E+01  0.6269E+01E
 Epicentro: LOS SANTOS - SANTANDER                                             3
 ACTION:UPD 17-05-24 15:39 OP:jn   STATUS:               ID:20170222064513 L   I
 OLDACT:DUP 17-02-22 14:50 OP:cog  STATUS:               ID:20170222063742d    3
 2017-02-22-0638-00M.COL___379                                                 6
 STAT SP IPHASW D HRMM SECON CODA AMPLIT PERI AZIMU VELO AIN AR TRES W  DIS CAZ7
 BAR2 EZ EP        645 33.88                             172    0.0310 20.8 192 
 BAR2 EZ I         645 50.11        26.2 0.12            170           20.8 192 
 BRR  HZ EP        645 35.72                             153    0.2910 72.7 300 
 BRR  HE ES        645 53.13                             153    0.6310 72.7 300 
 BRR  HZ I         645 54.02        13.5 0.32            153           72.7 300 
 PAM  EZ EP        645 36.59                             151    0.0810 79.2  38 
 PAM  EN ES        645 53.84                             151   -0.5810 79.2  38 
 PAM  EZ I         645 55.94        11.2 0.56            149           79.2  38 
 RUS  HZ EP        645 37.79                             146    0.0810 98.0 176 
 RUS  HN ES        645 56.70                             146    0.1410 98.0 176 
 RUS  HZ I         645 57.49        11.0 0.34            143           98.0 176 
 PTB  HZ EP        645 40.82                             133   -0.17 9  148 260 
 PTB  HN ES        646  1.88                             133   -0.52 9  148 260 
 PTB  HZ I         646  3.13        11.5 0.26            132            148 260 
 NOR  HZ EP        645 49.56                             120    0.07 8  233 235 
 NOR  HE ES        646 17.33                             120   -0.20 8  233 235 
 NOR  HZ I         646 23.44         9.2 0.40            118            233 235 
 ROSC BZ EP   9    645 53.90                             118    2.13 0  251 211 
 ROSC BN ES   3    646 23.59                                   -0.13 2  251 211 
                                                                                
