 2013  222 0502 44.4 L   6.787 -73.165140.4  RSN  8 0.4 1.6LRSN                1
 GAP=135        0.88       3.6     4.9  6.8  0.3247E+00  0.6916E+01  0.1248E+01E
 Epicentro: LOS SANTOS - SANTANDER                                             3
 ACTION:UPD 13-03-12 09:34 OP:ep   STATUS:               ID:20130222050244 L   I
 2013-02-22-0500-00M.COL___238                                                 6
 STAT SP IPHASW D HRMM SECON CODA AMPLIT PERI AZIMU VELO AIN AR TRES W  DIS CAZ7
 BAR2 SZ EP   1    5 3  3.49                             171    0.19 7 21.7 185 
 BAR2 SZ ES   1    5 3 17.89                             171   -0.19 7 21.7 185 
 BRR  HZ EP     C  5 3  5.17                             152    0.3210 70.1 300 
 BRR  HN ES   1    5 3 21.79                             152    0.95 7 70.1 300 
 BRR  HZ I         5 3 24.75         8.6 0.14            150           70.1 300 
 PAM  SZ EP   1    5 3  6.33                             149    0.19 7 79.8  40 
 PAM  SN ES   1    5 3 23.17                             149    0.03 7 79.8  40 
 PAM  SZ I         5 3 25.21         7.1 0.44            152           79.8  40 
 RUS  HZ EP   1    5 3  7.27                             143   -0.21 7 99.4 175 
 RUS  HN ES   1    5 3 24.98                             143   -0.55 7 99.4 175 
 RUS  HZ I         5 3 26.39         3.5 0.20            145           99.4 175 
 PTB  HZ EP   1    5 3 11.15                             131    0.48 7  145 259 
 PTB  HN ES   1    5 3 30.38                             131   -0.82 7  145 259 
 PTB  HZ I         5 3 34.10         7.9 0.20            131            145 259 
 OCA  HZ EP   1    5 3 11.96                             128   -0.40 7  161 354 
 OCA  HE ES   1    5 3 33.78                             128   -0.42 7  161 354 
 OCA  HZ I         5 3 38.41         6.4 0.12            129            161 354 
 ZAR  HZ EP   1    5 3 15.95                             121   -0.35 6  203 293 
 ZAR  HN ES   1    5 3 41.09                             121   -0.14 6  203 293 
 ZAR  HZ I         5 3 48.01         4.2 0.16            121            203 293 
 CHI  HZ EP   1    5 3 21.60                             116    0.05 6  247 195 
 CHI  HN ES   1    5 3 51.11                             116    0.55 6  247 195 
 CHI  HZ I         5 3 56.71         1.3 0.22            117            247 195 
                                                                                
