 2015  122 0919 36.2 L   6.792 -73.129155.4  RSN  8 0.5 1.6LRSN                1
 GAP=139        1.23       4.0     5.9  7.2  0.1378E+01  0.1370E+02  0.1473E+01E
 Epicentro: LOS SANTOS - SANTANDER                                             3
 ACTION:UPD 15-03-02 15:41 OP:nd   STATUS:               ID:20150122091936 L   I
 OLDACT:REG 15-01-22 13:03 OP:carl STATUS:               ID:20150122091749     3
 2015-01-22-0917-49M.COL___261                                                 6
 STAT SP IPHASW D HRMM SECON CODA AMPLIT PERI AZIMU VELO AIN AR TRES W  DIS CAZ7
 BAR2 EZ EP        919 57.06                             171    0.1110 22.8 195 
 BAR2 EZ ES        920 12.71                             171   -0.4510 22.8 195 
 BAR2 EZ I         920 14.30         6.0 0.24            170           22.8 195 
 BRR  HZ IP     D  919 59.14                             153    0.6610 73.3 298 
 BRR  HN ES        920 16.41                             153    0.5310 73.3 298 
 BRR  HZ I         920 19.41        10.0 0.44            152           73.3 298 
 PAM  SZ EP        920  0.07                             153    0.6710 76.9  38 
 PAM  SN ES        920 17.15                             153   -0.3610 76.9  38 
 PAM  SZ I         920 19.26         8.8 0.56            155           76.9  38 
 RUS  HZ EP        920  1.02                             146    0.2110 99.6 177 
 RUS  HN ES        920 19.82                             146   -0.2110 99.6 177 
 RUS  HZ I         920 20.68         2.9 0.30            147           99.6 177 
 ZAR  HZ EP        920  9.60                             124    0.13 8  206 292 
 ZAR  HN ES        920 35.08                             124   -0.37 8  206 292 
 NOR  HZ EP        920 11.61                             120   -0.97 8  236 235 
 NOR  HE ES        920 41.70                             120    0.72 8  236 235 
 NOR  HZ I         920 45.87         3.5 0.20            120            236 235 
 SML  HZ EP        920 13.66                             119    0.13 8  245 335 
 SML  HN ES        920 41.86                             119   -0.81 8  245 335 
 SML  HZ I         920 48.70         8.4 0.10            120            245 335 
 CHI  HZ EP        920 13.79                             119   -0.59 8  248 196 
 CHI  HN ES        920 44.17                             119   -0.01 8  248 196 
 CHI  HZ I         920 50.21         2.0 0.32            120            248 196 
                                                                                
