 2010  222 0001 16.8 L   6.826 -73.068150.7  RSN  6 0.3 1.9LRSN                1
 GAP=234        0.62       4.9     7.8  5.4  0.1784E+02  0.1667E+02  0.1785E+01E
 Epicentro: LOS SANTOS - SANTANDER                                             3
 ACTION:UP  10-08-24 09:50 OP:vdl  STATUS:               ID:20100222000116 L   I
 2010-02-22-0000-00S.COL___093                                                 6
 STAT SP IPHASW D HRMM SECON CODA AMPLIT PERI AZIMU VELO SNR AR TRES W  DIS CAZ7
 BAR2 SZ EP        0 1 37.33                             169     0.210   29 206 
 BAR2 SZ ES        0 1 52.93                             169    -0.110   29 206 
 BRR  HZ IP        0 1 38.95                             151     0.110   78 294 
 BRR  HZ I         0 1 39.24        27.2 0.16                            78 294 
 RUS  BZ EP        0 1 41.38                             144     0.210  103 181 
 RUS  BE ES   2    0 1 59.49                             144    -0.8 5  103 181 
 RUS  BZ I         0 2  0.76         8.7 0.30                           103 181 
 CHI  HZ EP        0 1 55.26                             117    -0.1 8  254 197 
 CHI  HN ES   2    0 2 25.34                             117     0.0 4  254 197 
 CHI  HZ I         0 2 36.34         4.0 0.45                           254 197 
 HEL  HZ EP   2    0 1 57.92                             115    -0.3 4  281 256 
 HEL  HN ES   2    0 2 31.27                             115     0.7 4  281 256 
 MON  HZ EP        0 2  6.11                             109    -0.4 6  358 307 
 MON  HN ES   2    0 2 45.15                             109    -0.2 3  358 307 
 MON  HZ I         0 2 58.03         3.1 0.50                           358 307 
                                                                                
