 2012  222 0830 58.5 L   6.753 -73.169144.0  RSN 10 0.4 2.2LRSN                1
 GAP=136        0.78       4.6     4.6  5.6 -0.4416E+01  0.5927E+01  0.7717E+01E
 ACTION:UP  12-03-07 16:33 OP:epov STATUS:               ID:20120222083058 L   I
 2012-02-22-0830-00M.COL___191                                                 6
 STAT SP IPHASW D HRMM SECON CODA AMPLIT PERI AZIMU VELO AIN AR TRES W  DIS CAZ7
 BAR2 SZ EP        831 17.78                             173   -0.0310 17.8 185 
 BAR2 SZ ES   1    831 32.99                             173    0.12 7 17.8 185 
 BAR2 SZ I         831 35.78        56.0 0.29                          17.8 185 
 GIR2 SZ EP   1    831 17.91                             165   -0.18 7 36.1 356 
 GIR2 SZ ES   1    831 33.57                             165    0.19 7 36.1 356 
 BRR  HZ EP        831 19.65                             152    0.1810 71.7 303 
 BRR  HN ES   1    831 36.49                             152    0.65 7 71.7 303 
 BRR  HZ I         831 40.93        34.7 0.10                          71.7 303 
 PAM  SZ EP   1    831 20.70                             149   -0.16 7 83.0  39 
 PAM  SZ I         831 20.84        22.0 0.19                          83.0  39 
 PAM  SN ES   1    831 37.99                             149   -0.33 7 83.0  39 
 RUS  HZ EP   1    831 21.59                             145   -0.12 7 95.6 174 
 RUS  HN ES   1    831 39.89                             145    0.07 7 95.6 174 
 RUS  HZ I         831 41.65        17.6 0.41                          95.6 174 
 PTB  HZ EP   1    831 24.44                             132   -0.56 7  144 261 
 PTB  HN ES   1    831 44.71                             132   -0.97 7  144 261 
 NOR  SZ EP   1    831 33.72                             119    0.15 6  230 235 
 NOR  SN ES   1    832  1.01                             119    0.08 6  230 235 
 CHI  HZ EP   1    831 35.76                             117    0.29 6  243 195 
 CHI  HZ I         832  9.45         8.9 0.29                           243 195 
 HEL  HZ EP   1    831 39.14                             115    0.94 6  268 257 
 HEL  HZ I         832 16.18        10.5 0.29                           268 257 
 PRA  HZ EP   1    831 51.16                             106   -0.11 4  386 210 
                                                                                
