 2012  522 0940  5.5 L   6.632 -73.612108.0  RSN  4 0.2 1.1LRSN                1
 GAP=119        0.55       4.7     4.1  7.9  0.7512E+01  0.1686E+02  0.1072E+02E
 Epicentro: EL CARMEN DE CHUCURI - SANTANDER                                   3
 ACTION:UP  12-07-05 12:07 OP:pat  STATUS:               ID:20120522094005 L   I
 2012-05-22-0940-00M.COL___200                                                 6
 STAT SP IPHASW D HRMM SECON CODA AMPLIT PERI AZIMU VELO SNR AR TRES W  DIS CAZ7
 BAR2 SZ ES   1    940 34.20                             154     0.0 7   48  95 
 BAR2 SZ I         940 34.86         6.4 0.20                            48  95 
 BRR  HZ EP   1    940 21.26                             151    -0.3 7   54 348 
 BRR  HE ES   1    940 34.26                             151     0.1 7   54 348 
 PTB  HZ EP        940 24.78                             136     0.210   94 264 
 PTB  HZ I         940 24.86         3.1 0.10                            94 264 
 PTB  HN ES   1    940 39.22                             136    -0.2 7   94 264 
 RUS  HN ES   1    940 41.54                             134     0.0 7  101 144 
 RUS  HZ I         940 43.90         1.6 0.23                           101 144 
                                                                                
