 2016  222 0712 51.4 L   6.815 -73.155146.7  RSN 14 0.5 2.0LRSN                1
 GAP=135        1.04       3.1     4.0  5.6 -0.1571E+01  0.5901E+01  0.2471E+01E
 Epicentro: LOS SANTOS - SANTANDER                                             3
 ACTION:UPD 16-03-04 21:28 OP:rebc STATUS:               ID:20160222071251 L   I
 OLDACT:UP  16-02-22 18:16 OP:mh   STATUS:               ID:20160222070750     3
 OLDACT:UP  16-02-22 18:16 OP:mh   STATUS:               ID:20160222070750     3
 OLDACT:REG 16-02-22 12:50 OP:mh   STATUS:               ID:20160222070750     3
 2016-02-22-0707-50M.COL___316                                                 6
 STAT SP IPHASW D HRMM SECON CODA AMPLIT PERI AZIMU VELO AIN AR TRES W  DIS CAZ7
 BAR2 EZ EP   1    713 10.70                             170   -0.45 7 24.8 187 
 BAR2 EZ ES        713 26.44                             170   -0.1410 24.8 187 
 BAR2 EZ I         713 27.54        16.0 0.16            167           24.8 187 
 BRR  HZ EP   1    713 12.61                             153    0.08 7 69.5 298 
 BRR  HN ES        713 30.13                             153    1.0910 69.5 298 
 BRR  HZ I         713 33.73        17.5 0.16            150           69.5 298 
 PAM  EZ EP        713 13.84                             151    0.1810 76.8  41 
 PAM  EN ES        713 30.85                             151   -0.1810 76.8  41 
 PAM  EZ I         713 32.92        14.2 0.48            156           76.8  41 
 RUS  HZ EP        713 15.13                             144   -0.2210  102 176 
 RUS  HN ES        713 33.96                             144   -0.0910  102 176 
 RUS  HZ I         713 35.24         8.4 0.28            144            102 176 
 PTB  HZ EP   1    713 17.62                             132   -0.74 7  147 258 
 PTB  HN ES        713 39.35                             132   -0.06 9  147 258 
 PTB  HZ I         713 40.77        13.0 0.42            130            147 258 
 OCA  HZ EP   1    713 19.68                             130    0.09 7  158 353 
 OCA  HN ES        713 41.39                             130   -0.21 9  158 353 
 OCA  HZ I         713 46.04        28.6 0.26            131            158 353 
 SPBC HZ EP   1    713 19.92                             129   -0.09 7  164 218 
 SPBC HN ES        713 42.67                             129    0.32 9  164 218 
 SPBC HZ I         713 49.64        21.6 0.33            128            164 218 
 ZAR  HZ EP        713 23.46                             123   -0.26 9  202 292 
 ZAR  HN ES        713 48.26                             123   -0.69 9  202 292 
 ZAR  HZ I         713 54.21        11.5 0.30            122            202 292 
 NOR  HZ EP   1    713 26.92                             119   -0.26 6  235 234 
 NOR  HN ES        713 54.62                             119   -0.48 8  235 234 
 NOR  HZ I         713 59.81        11.0 0.32            118            235 234 
 CHI  HZ EP        713 29.25                             117   -0.02 8  250 195 
 CHI  HN ES        713 58.86                             117    0.02 8  250 195 
 CHI  HZ I         714  9.13         3.8 0.62            118            250 195 
 ROSC BZ EP   1    713 30.01                             117    0.36 6  254 211 
 ROSC BN ES   4    714  2.96                             117    3.46 0  254 211 
 ROSC BZ I         714  6.17         8.0 0.45            117            254 211 
 HEL  HZ EP        713 32.35                             115    0.78 8  272 255 
 HEL  HN ES   1    714  2.99                             115    0.06 6  272 255 
 HEL  HZ I         714 11.13         7.5 0.58            115            272 255 
 URE  HZ EP   4    713 34.50                             114    2.18 0  282 292 
 URE  HN ES   4    714  2.52                             114   -1.73 0  282 292 
 URE  HZ I         714 16.14         6.4 0.18            114            282 292 
 GUY2CHZ EP   1    713 36.49                             113    1.44 5  301 234 
 GUY2CHN ES   4    714 11.74                             113    2.63 0  301 234 
 GUY2CHZ I         714 17.00         6.0 0.58                           301 234 
                                                                                
