 2011  822 0926 11.9 L   6.850 -72.948129.1  RSN  4 0.3 1.5LRSN                1
 GAP=203        0.64       5.2    12.5  9.3  0.3985E+02 -0.6777E+02 -0.2730E+02E
 Epicentro: CEPITA - SANTANDER                                                 3
 ACTION:UPD 12-07-13 15:53 OP:ep   STATUS:               ID:20110822092611 L   I
 2011-08-22-0921-52S.COL___153                                                 6
 STAT SP IPHASW D HRMM SECON CODA AMPLIT PERI AZIMU VELO AIN AR TRES W  DIS CAZ7
 BAR2 SZ EP   2    926 30.29                             163    0.32 5 38.6 222 
 BAR2 SZ ES   1    926 43.78                             163   -0.29 7 38.6 222 
 BAR2 SZ I         926 46.50         7.2 0.28                          38.6 222 
 BRR  HZ EP   1    926 32.20                             143   -0.27 7 89.1 289 
 BRR  HN ES   1    926 48.68                             143    0.15 7 89.1 289 
 BRR  HZ I         926 53.32         5.2 0.27                          89.1 289 
 RUS  HZ EP   1    926 34.13                             138   -0.42 7  107 188 
 RUS  HZ I         926 52.34         7.4 0.46                           107 188 
 RUS  HN ES   1    926 52.65                             138    0.43 7  107 188 
 OCA  SZ EP   1    926 39.24                             126    0.42 7  159 345 
 OCA  SZ ES   2    926 59.60                             126   -0.23 5  159 345 
 OCA  SZ I         927  3.76         4.9 0.19                           159 345 
                                                                                
