 2011  722 0359 51.8 L   6.784 -73.024140.0  RSN  8 0.5 2.0LRSN                1
 GAP=173        0.75       3.2     7.9  7.3 -0.6565E+01 -0.5444E+01  0.5032E+01E
 Epicentro: CEPITA - SANTANDER                                                 3
 ACTION:UPD 12-07-25 14:02 OP:epov STATUS:               ID:20110722035951 L   I
 2011-07-22-0358-35S.COL___125                                                 6
 STAT SP IPHASW D HRMM SECON CODA AMPLIT PERI AZIMU VELO AIN AR TRES W  DIS CAZ7
 BRR  HZ EP   1    4 0 12.80                             147   -0.28 8 84.0 295 
 BRR  HE ES   1    4 0 29.90                             147    0.18 8 84.0 295 
 BRR  HZ I         4 0 31.93        24.5 0.18                          84.0 295 
 RUS  HZ EP   1    4 0 14.62                             143   -0.19 8 98.7 184 
 RUS  HN ES   1    4 0 32.87                             143    0.08 8 98.7 184 
 RUS  HZ I         4 0 35.21        12.7 0.31                          98.7 184 
 GRA  SZ EP        4 0 16.68                             136    0.3210  124  11 
 GRA  SZ ES   1    4 0 35.01                             136   -0.54 7  124  11 
 GRA  SZ I         4 0 37.62        11.9 0.40                           124  11 
 OCA  SZ EP   1    4 0 20.35                             127    0.35 7  164 349 
 OCA  SZ ES   1    4 0 42.10                             127    0.06 7  164 349 
 OCA  SZ I         4 0 46.49        13.7 0.17                           164 349 
 NOR  SZ EP   2    4 0 27.02                             116   -1.23 4  245 237 
 CHI  HZ EP   1    4 0 28.92                             116   -0.46 6  251 198 
 CHI  HN ES   2    4 0 59.27                             116    0.55 4  251 198 
 ROSC BZ EP   1    4 0 30.90                             115    0.71 6  258 214 
 TOL  SZ EP   2    4 0 40.19                             108   -0.56 3  352 226 
                                                                                
