 2012  122 0538 27.6 L   6.772 -73.117148.6  RSN  6 0.3 1.5LRSN                1
 GAP=141        0.58       4.7     3.8  5.8 -0.1191E+01  0.2804E+01  0.3474E+01E
 Epicentro: LOS SANTOS - SANTANDER                                             3
 ACTION:UP  12-02-03 08:19 OP:REBC STATUS:               ID:20120122053827 L   I
 2012-01-22-0530-00M.COL___186                                                 6
 STAT SP IPHASW D HRMM SECON CODA AMPLIT PERI AZIMU VELO SNR AR TRES W  DIS CAZ7
 BAR2 SZ EP   1    538 47.40                             171    -0.1 7   21 200 
 BAR2 SZ I         538 47.80         5.3 0.11                            21 200 
 BAR2 SZ ES   1    539  3.35                             171     0.3 7   21 200 
 BRR  HZ EP   1    538 49.45                             152     0.1 7   75 299 
 BRR  HZ I         538 49.83         7.1 0.11                            75 299 
 BRR  HE ES   1    539  6.47                             152     0.2 7   75 299 
 PAM  SZ EP   1    538 50.48                             151     0.3 7   78  36 
 PAM  SE ES   1    539  7.27                             151    -0.5 7   78  36 
 RUS  HZ EP   1    538 51.52                             145     0.1 7   97 178 
 RUS  HE ES   2    539  9.91                             145    -0.1 5   97 178 
 PTB  HZ EP   1    538 54.79                             132    -0.3 7  150 260 
 PTB  HN ES   1    539 16.14                             132    -0.3 7  150 260 
 ZAR  HN ES   2    539 26.60                             122     0.2 4  208 293 
 ZAR  HZ I         539 32.35         2.8 0.31                           208 293 
                                                                                
