 2013 1122 0816 59.6 L   6.833 -73.147144.1  RSN  9 0.5 1.8LRSN                1
 GAP=135        1.30       4.5     6.3  8.3 -0.2241E+01  0.8047E+01 -0.9031E+01E
 Epicentro: LOS SANTOS - SANTANDER                                             3
 ACTION:UPD 14-01-09 16:30 OP:ep   STATUS:               ID:20131122081659 L   I
 OLDACT:REG 13-11-22 11:30 OP:mh   STATUS:               ID:20131122081000     3
 2013-11-22-0810-00M.COL___282                                                 6
 STAT SP IPHASW D HRMM SECON CODA AMPLIT PERI AZIMU VELO AIN AR TRES W  DIS CAZ7
 BAR2 SZ EP        817 19.02                             169   -0.1210 26.9 188 
 BAR2 SZ ES        817 33.71                             169   -0.6410 26.9 188 
 BRR  HZ EP        817 21.01                             153    0.5110 69.4 296 
 BRR  HN ES        817 37.64                             153    0.8710 69.4 296 
 BRR  HZ I         817 40.47        11.1 0.19            149           69.4 296 
 PAM  SZ EP        817 22.24                             151    0.7310 74.7  41 
 PAM  SN ES   1    817 38.96                             151    0.39 7 74.7  41 
 RUS  HZ EP        817 23.11                             143   -0.3810  104 176 
 RUS  HN ES        817 41.63                             143   -0.4610  104 176 
 RUS  HZ I         817 43.89         2.6 0.27            146            104 176 
 PTB  HZ EP        817 26.10                             131   -0.42 9  148 257 
 PTB  HN ES   1    817 46.89                             131   -0.60 7  148 257 
 PTB  HZ I         817 48.59         7.5 0.13            131            148 257 
 OCA  HZ EP        817 27.40                             130   -0.07 9  157 353 
 OCA  HN ES        817 48.71                             130   -0.47 9  157 353 
 SPBC HE ES        817 51.47                             128    0.86 9  166 218 
 ZAR  HZ EP   1    817 32.31                             122    0.49 6  203 291 
 ZAR  HN ES   1    817 56.28                             122   -0.64 6  203 291 
 ZAR  HZ I         818  3.64         9.1 0.25            122            203 291 
 SML  HZ EP        817 35.53                             117   -0.27 8  240 335 
 SML  HN ES   2    818  3.46                             117   -0.55 4  240 335 
 SML  HZ I         818 13.54         9.3 0.14            117            240 335 
                                                                                
