 2015 1022 0220 12.8 L   6.800 -73.158141.1  RSN 19 0.5 2.5LRSN                1
 GAP= 70        1.03       2.5     3.1  4.9 -0.7197E-01  0.4307E+01  0.2511E+01E
 Epicentro: LOS SANTOS - SANTANDER                                             3
 ACTION:UPD 15-12-22 20:42 OP:cam  STATUS:               ID:20151022022012 L   I
 OLDACT:UP  15-10-22 15:43 OP:mh   STATUS:               ID:20151022021747     3
 OLDACT:REG 15-10-22 12:12 OP:mh   STATUS:               ID:20151022021747     3
 2015-10-22-0217-47M.COL___319                                                 6
 STAT SP IPHASW D HRMM SECON CODA AMPLIT PERI AZIMU VELO AIN AR TRES W  DIS CAZ7
 BAR2 EZ IP     D  220 31.86                             170    0.0010 23.2 187 
 BAR2 EZ ES        220 46.83                             170    0.1010 23.2 187 
 BAR2 EZ I         220 47.95        95.0 0.16            170           23.2 187 
 BRR  HZ EP   1    220 33.63                             152    0.26 7 70.0 299 
 BRR  HE ES        220 49.91                             152    0.4910 70.0 299 
 BRR  HZ I         220 54.36        67.4 0.12            151           70.0 299 
 PAM  EZ IP     D  220 34.65                             150    0.0910 78.2  40 
 PAM  EN ES        220 51.72                             150    0.1810 78.2  40 
 PAM  EZ I         220 53.88        50.8 0.62            151           78.2  40 
 RUS  HZ EP        220 35.89                             143   -0.2010  101 175 
 RUS  HN ES        220 54.00                             143   -0.2710  101 175 
 RUS  HZ I         220 55.08        44.2 0.32            144            101 175 
 TAM  HZ IP     D  220 40.19                             129   -0.03 9  156 105 
 TAM  HN ES        221  1.92                             129    0.30 9  156 105 
 TAM  HZ I         221 12.18        11.5 0.52            131            156 105 
 OCA  HZ EP        220 41.21                             129    0.49 9  160 354 
 OCA  HN ES        221  1.57                             129   -0.94 9  160 354 
 OCA  HZ I         221  6.32        91.5 0.14            129            160 354 
 SPBC HZ EP   1    220 40.91                             128    0.05 7  162 219 
 SPBC HN ES   1    221  2.28                             128   -0.47 7  162 219 
 SPBC HZ I         221  3.53        45.8 0.32            128            162 219 
 ZAR  HZ EP        220 44.86                             121    0.06 9  203 292 
 ZAR  HN ES        221 10.06                             121    0.29 9  203 292 
 ZAR  HZ I         221 16.18        48.9 0.24            122            203 292 
 NOR  HZ EP        220 47.91                             118   -0.23 8  234 234 
 NOR  HN ES        221 15.66                             118   -0.05 8  234 234 
 NOR  HZ I         221 21.21        21.8 0.18            118            234 234 
 SML  HZ EP   1    220 48.47                             116   -0.62 6  243 336 
 SML  HN ES        221 16.79                             116   -0.62 8  243 336 
 SML  HZ I         221 23.69        62.0 0.24            117            243 336 
 CHI  HZ EP        220 50.04                             116   -0.16 8  248 195 
 CHI  HN ES   1    221 19.42                             116    0.04 6  248 195 
 CHI  HZ I         221 26.39        13.5 0.44            117            248 195 
 ROSC BZ EP        220 51.19                             116    0.61 8  252 211 
 ROSC BN ES   4    221 22.43                             116    2.36 0  252 211 
 ROSC BZ I         221 27.73        26.1 0.40            116            252 211 
 HEL  HZ EP        220 54.03                             114    1.41 8  271 256 
 HEL  HN ES        221 23.19                             114   -0.50 8  271 256 
 HEL  HZ I         221 30.76         9.0 0.30            114            271 256 
 URE  HZ EP   4    220 52.89                             113   -0.60 0  283 292 
 URE  HN ES   4    221 23.23                             113   -2.01 0  283 292 
 URE  HZ I         221 24.52        27.1 0.12            113            283 292 
 GUY2CHZ EP        220 56.30                             111    0.24 7  300 235 
 GUY2CHN ES   4    221 30.27                             111    0.45 0  300 235 
 GUY2CHZ I         221 38.25        10.0 0.42                           300 235 
 VIL  SZ EP        220 55.72                             111   -0.25 7  303 191 
 VIL  SN ES        221 28.76                             111   -0.89 7  303 191 
 MON  HZ EP   4    220 59.12                             108   -2.37 0  353 309 
 MON  HN ES   4    221 37.53                             108   -1.94 0  353 309 
 MON  HZ I         221 52.08        10.4 0.58            108            353 309 
 ORTC HZ EP        221  5.98                             106   -0.48 6  395 216 
 ORTC HN ES        221 48.84                             106    0.51 6  395 216 
 ORTC HZ I         221 55.96         8.7 0.38            106            395 216 
 SJC  HZ EP   4    221  5.84                             105   -2.27 0  408 327 
 SJC  HN ES   4    221 46.97                             105   -4.29 0  408 327 
 SJC  HZ I         221 51.43         5.6 0.52            105            408 327 
                                                                                
