 2012  422 0321 56.9 L   6.760 -73.147138.7  RSN  7 0.4 2.1LRSN                1
 GAP=138        0.96       4.9     5.5  8.6 -0.4414E+00  0.7573E+01 -0.5965E+01E
 Epicentro: LOS SANTOS - SANTANDER                                             3
 ACTION:UPD 12-07-05 11:55 OP:tino STATUS:               ID:20120422032156 L   I
 2012-04-22-0320-00M.COL___186                                                 6
 STAT SP IPHASW D HRMM SECON CODA AMPLIT PERI AZIMU VELO AIN AR TRES W  DIS CAZ7
 BAR2 SZ EP   1    322 15.73                             172     0.1 7   19 192 
 BAR2 SZ ES   1    322 30.13                             172     0.0 7   19 192 
 BAR2 SZ I         322 31.79        29.9 0.14                            19 192 
 BRR  HZ EP   1    322 17.93                             150     0.5 7   73 302 
 BRR  HE ES   1    322 33.93                             150     0.5 7   73 302 
 BRR  HZ I         322 36.01        45.2 0.20                            73 302 
 PAM  SZ EP   1    322 18.81                             148     0.2 7   81  38 
 PAM  SN ES   1    322 35.40                             148    -0.1 7   81  38 
 RUS  HZ EP   1    322 20.10                             144     0.5 7   96 176 
 RUS  HN ES   1    322 36.98                             144    -0.4 7   96 176 
 RUS  HZ I         322 39.96        10.2 0.21                            96 176 
 PTB  HZ EP   1    322 22.72                             130    -0.5 7  147 261 
 PTB  HN ES   1    322 43.07                             130    -0.7 7  147 261 
 PTB  HZ I         322 46.86        16.9 0.12                           147 261 
 OCA  SZ EP   1    322 24.65                             127    -0.4 7  165 353 
 OCA  SZ ES   1    322 46.53                             127    -0.5 7  165 353 
 ZAR  HN ES   1    322 54.67                             120     0.5 6  206 293 
                                                                                
