 2012  822 0541  7.2 L   6.767 -73.150154.3  RSN  7 0.2 1.6LRSN                1
 GAP=137        0.44       3.0     4.3  6.0  0.1829E+01 -0.1467E+01 -0.8731E+01E
 Epicentro: LOS SANTOS - SANTANDER                                             3
 ACTION:UPD 12-09-10 11:57 OP:ep   STATUS:               ID:20120822054107 L   I
 2012-08-22-0540-00M.COL___218                                                 6
 STAT SP IPHASW D HRMM SECON CODA AMPLIT PERI AZIMU VELO AIN AR TRES W  DIS CAZ7
 BAR2 SZ EP   1    541 27.64                             172   -0.18 7 19.7 190 
 BAR2 SZ I         541 45.68         9.6 0.12                          19.7 190 
 GIR2 SZ EP   1    541 28.08                             167    0.07 7 34.8 352 
 BRR  HZ EP   1    541 29.66                             153    0.28 7 72.6 301 
 BRR  HN ES   2    541 46.81                             153    0.14 5 72.6 301 
 BRR  HZ I         541 49.35        12.4 0.08                          72.6 301 
 PAM  SZ EP   1    541 30.44                             151   -0.10 7 80.5  38 
 PAM  SZ I         541 50.26         5.5 0.54                          80.5  38 
 RUS  HZ EP   1    541 31.60                             146    0.02 7 97.0 176 
 RUS  HN ES        541 50.59                             146    0.0110 97.0 176 
 RUS  HZ I         541 51.29         2.4 0.37                          97.0 176 
 PTB  HZ EP   1    541 34.51                             134   -0.30 7  147 260 
 PTB  HN ES   2    541 56.30                             134   -0.02 5  147 260 
 PTB  HZ I         542  1.56         4.9 0.40                           147 260 
 OCA  HZ EP   1    541 36.89                             131    0.35 7  164 353 
 OCA  HN ES   2    541 58.92                             131   -0.49 5  164 353 
 OCA  HZ I         542  2.74         9.1 0.18                           164 353 
                                                                                
