 2011  622 0151 52.5 L   6.533 -73.514115.0  RSN  5 0.3 1.6LRSN                1
 GAP=195        0.64       6.6    19.6 13.0  0.8336E+02  0.2031E+03  0.5379E+02E
 Epicentro: EL CARMEN DE CHUCURI - SANTANDER                                   3
 ACTION:UP  11-07-14 19:07 OP:ep   STATUS:               ID:20110622015152 L   I
 2011-06-22-0148-00S.COL___140                                                 6
 STAT SP IPHASW D HRMM SECON CODA AMPLIT PERI AZIMU VELO SNR AR TRES W  DIS CAZ7
 BAR2 SZ EP   1    152  8.51                             161    -0.3 7   37  80 
 BAR2 SZ ES   1    152 21.96                             161     0.3 7   37  80 
 BAR2 SZ I         152 23.11        37.9 0.38                            37  80 
 BTL  SZ EP   1    152  9.80                             155     0.3 7   51  33 
 BRR  HZ EP   1    152 10.00                             147    -0.1 7   67 341 
 BRR  HZ I         152 18.47         6.5 0.18                            67 341 
 GIR2 SZ EP   2    152 10.35                             146    -0.1 5   70  30 
 GIR2 SZ ES   1    152 24.39                             146    -0.2 7   70  30 
 RUS  HZ EP        152 12.25                             141     0.210   85 146 
 RUS  HN ES   2    152 26.91                             141    -0.5 5   85 146 
 RUS  HZ I         152 28.92         3.4 0.59                            85 146 
                                                                                
