 2016  922 0117 55.0 L   6.798 -73.099149.7  RSN  5 0.2 1.3LRSN                1
 GAP=143        0.52       2.8     3.9  4.4 -0.1879E+01  0.1296E+01  0.2647E+01E
 Epicentro: LOS SANTOS - SANTANDER                                             3
 ACTION:UPD 17-08-17 21:15 OP:lp   STATUS:               ID:20160922011755 L   I
 OLDACT:UP  16-09-22 14:47 OP:and  STATUS:               ID:20160922010734     3
 OLDACT:UP  16-09-22 14:45 OP:and  STATUS:               ID:20160922010734     3
 OLDACT:REG 16-09-22 11:26 OP:and  STATUS:               ID:20160922010734     3
 2016-09-22-0108-00M.COL___369                                                 6
 STAT SP IPHASW D HRMM SECON CODA AMPLIT PERI AZIMU VELO AIN AR TRES W  DIS CAZ7
 BAR2 EZ EP   2    118 15.04                             170   -0.06 5 24.5 202 
 BAR2 EZ ES   2    118 30.36                             170   -0.44 5 24.5 202 
 BAR2 EZ I         118 31.18         8.7 0.18            167           24.5 202 
 PAM  EZ EP        118 17.75                             152    0.3110 74.4  36 
 PAM  EN ES        118 34.79                             152   -0.1710 74.4  36 
 PAM  EZ I         118 35.37         2.9 0.20            156           74.4  36 
 BRR  HZ EP        118 16.87                             152    0.0510 75.9 297 
 BRR  HE ES        118 33.88                             152    0.0310 75.9 297 
 RUS  HZ EP        118 18.85                             145   -0.2310  100 179 
 RUS  HN ES        118 38.10                             145    0.2210  100 179 
 RUS  HZ I         118 38.61         1.1 0.17            144            100 179 
 SPBC HZ EP        118 23.89                             129   -0.18 9  166 220 
 SPBC HE ES   2    118 47.04                             129    0.27 5  166 220 
 SPBC HZ I         118 52.27         3.7 0.19            128            166 220 
                                                                                
