 2010  822 0718 37.2 L   7.190 -74.033  1.4  RSN  4 0.3 1.0LRSN                1
 GAP=276        0.71       4.3    13.1 13.9 -0.2963E+02 -0.1604E+03  0.3077E+02E
 Epicentro: PUERTO WILCHES - SANTANDER                                         3
 ACTION:UP  10-09-07 10:57 OP:vdl  STATUS:               ID:20100822071837 L   I
 2010-08-22-0714-53S.COL___120                                                 6
 STAT SP IPHASW D HRMM SECON CODA AMPLIT PERI AZIMU VELO SNR AR TRES W  DIS CAZ7
 BRR  HZ EP        718 43.39                              47    -0.310   37 104 
 BRR  HN ES        718 48.89                              47     0.210   37 104 
 BRR  HZ I         718 49.73        16.1 1.08                            37 104 
 GUE  SZ EP   1    719  0.33                              47     0.5 7  141  60 
 GUE  SZ I         719 18.98         1.3 0.34                           141  60 
 GRA  SZ ES   1    719 20.95                              47    -0.3 7  156  60 
 GRA  SZ I         719 23.39         4.7 0.23                           156  60 
 RUS  HZ EP   1    719  5.69                              47     0.1 7  178 144 
 RUS  HN ES   1    719 27.69                              47    -0.1 7  178 144 
 RUS  HZ I         719 29.10         1.5 0.28                           178 144 
                                                                                
