 2016  322 0036  2.8 L   6.830 -73.508 12.6  RSN  5 0.3 1.3LRSN                1
 GAP=190        0.71       3.7     1.9  6.7  0.1237E+01  0.3168E+01 -0.1724E+02E
 Epicentro: SAN VICENTE DE CHUCURI - SANTANDER                                 3
 ACTION:UPD 16-05-13 21:26 OP:cam  STATUS:               ID:20160322003602 L   I
 OLDACT:REG 16-03-22 12:41 OP:ak   STATUS:               ID:20160322002743     3
 2016-03-22-0027-43M.COL___308                                                 6
 STAT SP IPHASW D HRMM SECON CODA AMPLIT PERI AZIMU VELO AIN AR TRES W  DIS CAZ7
 BAR2 EZ IP        036 10.40                             102   -0.1310 44.6 126 
 BAR2 EZ ES        036 16.47                             102   -0.1010 44.6 126 
 BAR2 EZ I         036 17.64        12.1 0.30             47           44.6 126 
 PTB  HZ EP        036 19.87                              95   -0.2110  110 253 
 PTB  HE ES        036 33.55                              95   -0.0110  110 253 
 PTB  HZ I         036 35.52        14.4 0.16             47            110 253 
 RUS  HZ EP        036 21.69                              95    0.4910  114 156 
 RUS  HN ES        036 35.30                              95   -0.2510  114 156 
 RUS  HZ I         036 38.62         2.2 0.17             47            114 156 
 SPBC HZ EP   2    036 25.45                              93    0.04 5  144 206 
 SPBC HN ES        036 43.16                              93    0.11 9  144 206 
 SPBC HZ I         036 47.57         7.6 0.34             47            144 206 
 ZAR  HZ EP        036 28.58                              56    0.48 9  166 296 
 ZAR  HN ES        036 47.48                              56   -0.35 9  166 296 
 ZAR  HZ I         036 49.88         7.8 0.18             47            166 296 
                                                                                
