 2016  222 0431  8.4 L   6.745 -73.129154.0  RSN  9 0.4 1.4LRSN                1
 GAP=141        0.91       3.2     4.6  6.0 -0.5662E-01  0.2979E+01  0.5829E-01E
 Epicentro: LOS SANTOS - SANTANDER                                             3
 ACTION:UPD 16-03-04 21:28 OP:rebc STATUS:               ID:20160222043108 L   I
 OLDACT:UP  16-02-22 16:33 OP:mh   STATUS:               ID:20160222042748     3
 OLDACT:UP  16-02-22 16:33 OP:mh   STATUS:               ID:20160222042748     3
 OLDACT:REG 16-02-22 12:46 OP:mh   STATUS:               ID:20160222042748     3
 2016-02-22-0427-48M.COL___324                                                 6
 STAT SP IPHASW D HRMM SECON CODA AMPLIT PERI AZIMU VELO AIN AR TRES W  DIS CAZ7
 BAR2 EZ EP        431 29.32                             173    0.3710 17.9 199 
 BAR2 EZ ES        431 44.55                             173   -0.4110 17.9 199 
 BAR2 EZ I         431 45.13         4.8 0.46            168           17.9 199 
 BRR  HZ EP        431 30.76                             152    0.0410 75.8 302 
 BRR  HN ES        431 48.37                             152    0.2610 75.8 302 
 BRR  HZ I         431 55.59         6.9 0.46            147           75.8 302 
 PAM  EZ EP        431 32.18                             151    0.4510 81.0  36 
 PAM  EN ES   1    431 49.65                             151   -0.26 7 81.0  36 
 PAM  EZ I         431 49.83         1.8 0.24            154           81.0  36 
 RUS  HZ EP   1    431 32.89                             147    0.32 7 94.4 177 
 RUS  HE ES        431 51.16                             147   -0.2510 94.4 177 
 RUS  HZ I         431 53.32         1.4 0.18            148           94.4 177 
 PTB  HZ EP   1    431 36.02                             133   -0.12 7  149 261 
 PTB  HN ES        431 57.75                             133   -0.01 9  149 261 
 PTB  HZ I         432  3.28         3.9 0.56            130            149 261 
 OCA  HZ EP   1    431 38.34                             130    0.39 7  166 353 
 OCA  HE ES        432  0.59                             130   -0.40 9  166 353 
 OCA  HZ I         432  4.14         7.0 0.38            129            166 353 
 ZAR  HZ EP   1    431 41.47                             123   -0.35 6  208 293 
 ZAR  HN ES   1    432  7.96                             123    0.08 6  208 293 
 ZAR  HZ I         432 14.29         3.8 0.50            121            208 293 
 CHI  HZ EP   1    431 44.69                             119   -1.33 6  243 196 
 CHI  HN ES        432 15.83                             119    0.48 8  243 196 
 CHI  HZ I         432 20.57         0.9 0.38            119            243 196 
 URE  HZ EP   4    431 51.48                             114    1.14 0  288 293 
 URE  HN ES   4    432 19.90                             114   -3.14 0  288 293 
 SJC  HZ EP   4    432  3.44                             106   -1.53 0  415 327 
 SJC  HN ES   4    432 46.67                             106   -2.41 0  415 327 
 SJC  HZ I         433  1.03         1.3 0.56            106            415 327 
                                                                                
