 2015 1122 0637 51.6 L   6.822 -73.126154.0  RSN  9 0.7 1.6LRSN                1
 GAP=138        1.37       5.3     7.7  9.3  0.1169E+02  0.1203E+02 -0.1105E+02E
 Epicentro: LOS SANTOS - SANTANDER                                             3
 ACTION:UPD 15-12-28 16:12 OP:cam  STATUS:               ID:20151122063751 L   I
 OLDACT:REG 15-11-22 16:08 OP:ak   STATUS:               ID:20151122063200     3
 2015-11-22-0631-59S.COL___153                                                 6
 STAT SP IPHASW D HRMM SECON CODA AMPLIT PERI AZIMU VELO AIN AR TRES W  DIS CAZ7
 BAR2 EZ EP        638 12.66                             170    0.3910 26.1 194 
 BAR2 EZ ES        638 27.79                             170   -0.6010 26.1 194 
 BAR2 EZ I         638 29.69         6.6 0.26            170           26.1 194 
 BRR  HZ EP        638 14.21                             154    0.5310 72.0 296 
 BRR  HN ES        638 31.06                             154    0.1610 72.0 296 
 BRR  HZ I         638 32.50         6.5 0.14            151           72.0 296 
 PAM  EZ EP        638 15.06                             153    0.5510 74.2  39 
 PAM  EN ES        638 32.63                             153    0.2510 74.2  39 
 PAM  EZ I         638 34.57         8.3 0.58            155           74.2  39 
 RUS  HZ EP        638 16.27                             145   -0.0410  103 177 
 RUS  HN ES        638 34.89                             145   -0.7110  103 177 
 RUS  HZ I         638 36.60         2.4 0.28            147            103 177 
 OCA  HZ EP   2    638 20.35                             132   -0.01 5  158 352 
 OCA  HN ES        638 42.49                             132   -0.31 9  158 352 
 OCA  HZ I         638 46.17         7.9 0.20            131            158 352 
 ZAR  HZ EP   4    638 26.63                             124    1.94 0  205 291 
 ZAR  HN ES        638 51.11                             124    0.59 9  205 291 
 ZAR  HZ I         638 57.51         6.5 0.30            123            205 291 
 SML  HZ EP   2    638 27.81                             119   -0.74 4  242 335 
 SML  HN ES        638 57.63                             119    0.24 8  242 335 
 SML  HZ I         639  1.63         4.7 0.10            119            242 335 
 MON  HN ES   4    639 17.57                             110   -1.87 0  354 308 
 MON  HZ I         639 24.93         1.0 0.42            110            354 308 
 SJC  HZ EP        638 47.32                             107   -0.02 6  408 327 
 SJC  HN ES        639 28.49                             107   -2.33 6  408 327 
                                                                                
