 2017  422 0613 57.0 L   6.796 -73.153144.9  RSN 21 0.5 2.4LRSN                1
 GAP=111        1.08       3.6     3.4  5.5  0.9757E+00  0.5953E+01  0.5476E+01E
 Epicentro: LOS SANTOS - SANTANDER                                             3
 ACTION:UPD 17-05-30 21:14 OP:jn   STATUS:               ID:20170422061357 L   I
 OLDACT:UP  17-04-22 13:53 OP:dnl  STATUS:               ID:20170422060053     3
 OLDACT:UP  17-04-22 13:52 OP:dnl  STATUS:               ID:20170422060053     3
 OLDACT:UP  17-04-22 13:51 OP:dnl  STATUS:               ID:20170422060053     3
 OLDACT:REG 17-04-22 11:56 OP:dnl  STATUS:               ID:20170422060053     3
 2017-04-22-0608-00M.COL___368                                                 6
 STAT SP IPHASW D HRMM SECON CODA AMPLIT PERI AZIMU VELO AIN AR TRES W  DIS CAZ7
 BAR2 EZ IP     D  614 16.33                             171   -0.2010 22.7 188 
 BAR2 EZ ES        614 31.22                             171   -0.5310 22.7 188 
 BAR2 EZ I         614 32.27        82.9 0.26            168           22.7 188 
 BRR  HZ IP     D  614 18.25                             153    0.2110 70.7 299 
 BRR  HN ES        614 35.42                             153    0.9710 70.7 299 
 BRR  HZ I         614 38.62        49.0 0.20            147           70.7 299 
 PAM  EZ IP     D  614 19.17                             150   -0.0210 78.2  40 
 PAM  EN ES        614 36.24                             150   -0.2510 78.2  40 
 PAM  EZ I         614 38.95        25.6 0.22            152           78.2  40 
 PTB  HZ EP        614 22.98                             132   -0.85 9  147 259 
 PTB  HN ES        614 44.09                             132   -0.66 9  147 259 
 PTB  HZ I         614 47.54        26.0 0.34            128            147 259 
 SPBC HZ EP        614 25.41                             129    0.05 9  162 219 
 SPBC HE ES        614 47.40                             129   -0.08 9  162 219 
 SPBC HZ I         614 48.50        44.5 0.16            126            162 219 
 YPLC HZ IP     D  614 26.60                             126   -0.14 9  177 151 
 YPLC HE ES        614 50.51                             126    0.58 9  177 151 
 YPLC HZ I         614 53.82        26.7 0.24            127            177 151 
 ZAR  HZ EP        614 29.02                             122   -0.32 9  203 292 
 ZAR  HE ES        614 55.41                             122    0.85 9  203 292 
 ZAR  HZ I         615  0.76        57.4 0.56            119            203 292 
 NOR  HZ EP        614 32.91                             118    0.32 8  234 234 
 NOR  HN ES        615  0.10                             118   -0.25 8  234 234 
 NOR  HZ I         615  8.45        22.0 0.34            116            234 234 
 CHI  HZ EP   2    614 34.26                             117   -0.33 4  248 195 
 CHI  HE ES        615  4.23                             117    0.33 8  248 195 
 CHI  HZ I         615  9.62         8.7 0.24            116            248 195 
 HEL  HZ EP   4    614 38.29                             115    1.21 0  271 256 
 HEL  HN ES        615  8.65                             115    0.31 8  271 256 
 HEL  HZ I         615 15.12        23.4 0.42            113            271 256 
 PTGC HZ IP   4 C  614 39.37                             111   -1.44 0  309 158 
 PTGC HN ES   4    615 12.29                             111   -2.69 0  309 158 
 PTGC HZ I         615 13.29        10.7 0.32            111            309 158 
 ELA  HZ EP   4    614 47.12                             110    3.40 0  328 229 
 ELA  HN ES   4    615 21.61                             110    1.45 0  328 229 
 ELA  HZ I         615 28.00        10.4 0.36            109            328 229 
 CBOC HZ EP        614 44.51                             110    0.73 7  333 252 
 CBOC HN ES        615 20.18                             110   -0.09 7  333 252 
 CBOC HZ I         615 33.19         6.3 0.66            108            333 252 
 DBB  EZ EP        614 44.82                             109    0.46 7  339 274 
 DBB  EN ES        615 20.43                             109   -0.87 7  339 274 
 DBB  EZ I         615 28.63         8.5 0.34            108            339 274 
 ANIL HZ EP   4    614 50.33                             108    3.65 0  356 224 
 ANIL HE ES   4    615 28.33                             108    2.91 0  356 224 
 ANIL HZ I         615 33.93        29.9 0.28            107            356 224 
 ARGC HZ EP   4    614 44.34                             108   -2.31 0  359 341 
 ARGC HN ES   4    615 27.33                             108    1.96 0  359 341 
 ARGC HZ I         615 40.16         4.9 0.42            107            359 341 
 PRA  HZ EP        614 50.17                             106   -0.24 6  391 209 
 PRA  HE ES        615 32.16                             106    0.10 6  391 209 
 PRA  HZ I         615 41.00         7.8 0.24            105            391 209 
 ORTC HZ EP        614 50.99                             106    0.19 6  395 216 
 ORTC HN ES   4    615 34.52                             106    1.76 0  395 216 
 ORTC HZ I         615 39.24         7.3 0.58            105            395 216 
 APAC HZ EP        614 50.64                             106   -0.46 6  398 288 
 APAC HN ES   4    615 30.66                             106   -2.63 0  398 288 
 APAC HZ I         615 47.69        10.2 0.38            105            398 288 
 PAL  HZ EP        614 52.27                             106    0.24 6  405 239 
 PAL  HN ES   4    615 33.76                             106   -1.19 0  405 239 
 PAL  HZ I         615 43.43         6.1 0.30            104            405 239 
 SJC  HZ IP   4 D  614 51.02                             106   -1.52 0  409 327 
 SJC  HN ES   4    615 32.21                             106   -3.64 0  409 327 
 SJC  HZ I         615 36.53         8.5 0.48            104            409 327 
                                                                                
