 2015  522 0137 20.1 L   6.787 -73.107151.7  RSN  6 0.2 2.1LRSN                1
 GAP=142        0.56       2.0     3.0  4.8 -0.1187E+01  0.6699E+01 -0.1899E+01E
 Epicentro: LOS SANTOS - SANTANDER                                             3
 ACTION:UPD 15-09-10 22:06 OP:cam  STATUS:               ID:20150522013720 L   I
 OLDACT:REG 15-05-22 13:20 OP:ar   STATUS:               ID:20150522012748     3
 2015-05-22-0127-48M.COL___294                                                 6
 STAT SP IPHASW D HRMM SECON CODA AMPLIT PERI AZIMU VELO AIN AR TRES W  DIS CAZ7
 PAM  SZ EP        137 43.31                             152    0.4110 75.9  36 
 PAM  SN ES        138  0.40                             152   -0.2510 75.9  36 
 PAM  SZ I         138  1.45        12.1 0.16            157           75.9  36 
 RUS  HZ EP        137 44.19                             145   -0.1810 99.0 178 
 RUS  HN ES        138  3.33                             145    0.0710 99.0 178 
 RUS  HZ I         138  4.09         5.8 0.42            148           99.0 178 
 SPBC HZ EP        137 49.32                             130    0.07 9  165 220 
 SPBC HN ES        138 12.01                             130    0.05 9  165 220 
 SPBC HZ I         138 18.36        20.2 0.34            132            165 220 
 ZAR  HZ EP        137 52.96                             123   -0.47 8  209 292 
 ZAR  HE ES        138 19.50                             123    0.10 8  209 292 
 ZAR  HZ I         138 24.65        11.0 0.14            124            209 292 
 NOR  HZ EP        137 56.56                             119    0.06 8  237 235 
 NOR  HN ES        138 24.84                             119   -0.02 8  237 235 
 SML  HZ EP        137 57.41                             118   -0.03 8  247 335 
 SML  HN ES        138 26.70                             118    0.18 8  247 335 
 SML  HZ I         138 29.95        19.1 0.10            120            247 335 
                                                                                
