 2016  822 0922 10.9 L   6.585 -73.419119.6  RSN 10 0.3 1.6LRSN                1
 GAP=117        0.78       2.9     2.9  4.7  0.1249E+01  0.6865E+01  0.3940E+01E
 Epicentro: HATO - SANTANDER                                                   3
 ACTION:UPD 16-10-29 15:38 OP:rebc STATUS:               ID:20160822092210 L   I
 OLDACT:REG 16-08-22 13:50 OP:ak   STATUS:               ID:20160822091745     3
 2016-08-22-0918-00M.COL___363                                                 6
 STAT SP IPHASW D HRMM SECON CODA AMPLIT PERI AZIMU VELO AIN AR TRES W  DIS CAZ7
 BAR2 EZ EP        922 27.47                             166    0.0110 26.2  88 
 BAR2 EZ ES        922 40.51                             166    0.1310 26.2  88 
 BAR2 EZ I         922 41.67        20.8 0.10                          26.2  88 
 BRR  HZ EP        922 29.07                             149    0.1110 66.2 331 
 BRR  HN ES        922 43.13                             149    0.0810 66.2 331 
 BRR  HZ I         922 44.90         7.8 0.26                          66.2 331 
 RUS  HZ EP        922 30.58                             142   -0.3810 85.1 154 
 RUS  HN ES        922 46.81                             142    0.2010 85.1 154 
 RUS  HZ I         922 47.56         9.7 0.24                          85.1 154 
 PTB  HZ EP   9    922 31.27                             133   -1.47 0  115 268 
 PTB  HN ES        922 47.46                                   -0.8510  115 268 
 PTB  HZ I         922 51.32         8.8 0.17                           115 268 
 ZAR  HZ EP        922 39.57                             118   -0.47 9  188 302 
 ZAR  HE ES        923  2.92                             118    0.15 9  188 302 
 ZAR  HZ I         923  8.94         3.9 0.06                           188 302 
 NOR  HZ EP   2    922 40.79                             117   -0.20 4  196 235 
 NOR  HE ES        923  4.69                             117    0.23 9  196 235 
 NOR  HZ I         923  8.55         6.5 0.20                           196 235 
 HEL  HZ EP        922 46.39                             112    0.43 8  237 260 
 HEL  HN ES        923 12.81                             112   -0.50 8  237 260 
 HEL  HZ I         923 16.07         2.2 0.30                           237 260 
 GUY2CHZ EP   2    922 49.36                             110    0.38 4  263 235 
 GUY2CHZ I         923 16.56         1.9 0.07                           263 235 
 GUY2CHN ES        923 18.59                             110   -0.10 8  263 235 
 CBOC HZ EP        922 52.63                             107   -0.03 7  298 255 
 CBOC HE ES        923 25.33                             107    0.10 7  298 255 
 CBOC HZ I         923 27.94         1.0 0.25                           298 255 
 PRA  HZ EP        922 59.60                             103    0.17 6  357 207 
 PRA  HN ES        923 37.01                             103   -0.28 6  357 207 
 PRA  HZ I         923 40.84         1.9 0.25                           357 207 
                                                                                
