 2011  422 0731 54.9 L   6.568 -72.919189.2  RSN 21 0.5 3.3LRSN                1
 GAP=142        1.07       3.4     5.8  5.7 -0.5167E+01  0.7207E+01  0.4098E+01E
 Epicentro: MOGOTES - SANTANDER                                                3
 ACTION:UP  11-06-22 15:32 OP:REBC STATUS:               ID:20110422073154 L   I
 2011-04-22-0730-26S.COL___139                                                 6
 STAT SP IPHASW D HRMM SECON CODA AMPLIT PERI AZIMU VELO SNR AR TRES W  DIS CAZ7
 BAR2 SZ IP        732 19.69                             171    -0.210   29 275 
 BAR2 SZ ES   1    732 39.59                             171     0.3 7   29 275 
 BTL  SZ IP   4    732 21.94                             163     1.4 0   55 315 
 GIR2 SZ IP        732 20.55                             161    -0.210   64 332 
 GIR2 SZ ES   1    732 40.56                             161    -0.4 7   64 332 
 RUS  HZ IP     D  732 22.14                             157     0.310   77 194 
 RUS  HN ES   1    732 43.32                             157     0.5 7   77 194 
 RUS  HZ I         732 45.17       360.0 0.30                            77 194 
 PAM  SZ IP        732 22.29                             154    -0.110   89  16 
 PAM  SZ I         732 22.68       114.8 0.28                            89  16 
 PAM  SN ES   2    732 43.55                             154    -0.4 5   89  16 
 BRR  HZ IP     D  732 22.69                             149     0.010  106 304 
 BRR  HN ES   1    732 44.96                             149     0.5 7  106 304 
 BRR  HZ I         732 47.67       144.7 0.17                           106 304 
 BRI  SZ IP        732 24.51                             145     0.110  128   6 
 BRI  SZ ES   1    732 47.77                             145     0.3 7  128   6 
 GUE  SZ EP        732 25.61                             142     0.1 9  140 360 
 YOP  SZ IP        732 26.03                             141     0.4 9  145 158 
 YOP  SN ES   1    732 49.04                             141    -0.5 7  145 158 
 GRA  SZ IP        732 25.52                             141    -0.2 9  146   5 
 GRA  SZ ES   1    732 49.36                             141    -0.5 7  146   5 
 GRA  SZ I         732 54.01       155.2 0.31                           146   5 
 OCA  SZ IP        732 28.94                             133    -0.5 9  190 347 
 OCA  SZ I         733  1.73       119.0 0.53                           190 347 
 CHI  HZ IP     D  732 33.93                             127     0.2 8  232 203 
 CHI  HZ I         732 34.67       132.7 0.67                           232 203 
 CHI  HN ES   1    733  4.52                             127     0.5 6  232 203 
 NOR  SZ EP        732 33.93                             126    -0.3 8  243 243 
 NOR  SN ES   1    733  4.28                             126    -0.7 6  243 243 
 ROSC BZ EP        732 35.71                             125     0.7 8  246 219 
 VIL  SZ EP        732 38.15                             121    -0.5 7  285 198 
 VIL  SN ES   1    733 11.94                             121    -0.8 6  285 198 
 HEL  HZ EP        732 40.19                             121     0.5 7  292 262 
 HEL  HZ I         732 41.55        68.2 0.36                           292 262 
 HEL  HN ES   2    733 13.64                             121    -1.0 4  292 262 
 GUY  SZ EP        732 42.65                             119     0.8 7  311 242 
 GUY  SZ I         733 25.94        85.2 0.50                           311 242 
 TOL  SZ EP        732 45.46                             116     0.1 7  345 231 
 ANIL HZ EP        732 47.90                             115     1.1 6  358 230 
 ANIL HZ I         732 49.79        55.3 0.39                           358 230 
 DBB  SZ IP        732 47.15                             115    -0.3 6  367 278 
 SJA  SZ IP     C  732 48.21                             114    -0.9 6  382 197 
 SJA  SZ I         732 48.65       115.3 0.50                           382 197 
 PRA  HZ EP        732 48.61                             113    -0.6 6  384 215 
 PRA  HN ES   2    733 30.90                             113    -0.8 3  384 215 
                                                                                
