 2016 1222 0704 56.2 L   6.822 -73.310118.0  RSN  7 0.4 1.6LRSN                1
 GAP=104        0.69       3.2     3.2  5.5  0.2458E+01  0.2436E+01  0.3329E+00E
 Epicentro: ZAPATOCA - SANTANDER                                               3
 ACTION:UPD 17-01-11 20:17 OP:rebc STATUS:               ID:20161222070456 L   I
 OLDACT:UP  16-12-22 16:11 OP:cog  STATUS:               ID:20161222065744d    3
 OLDACT:DUP 16-12-22 16:05 OP:cog  STATUS:               ID:20161222065744d    3
 2016-12-22-0658-00M.COL___362                                                 6
 STAT SP IPHASW D HRMM SECON CODA AMPLIT PERI AZIMU VELO AIN AR TRES W  DIS CAZ7
 BAR2 EZ EP        7 5 12.78                             165    0.1510 29.0 151 
 BAR2 EZ ES        7 5 25.58                             165    0.1110 29.0 151 
 BAR2 EZ I         7 5 27.23        24.5 0.28            167           29.0 151 
 BRR  HZ EP        7 5 13.16                             153   -0.2210 54.5 305 
 BRR  HN ES        7 5 27.10                             153    0.3110 54.5 305 
 BRR  HZ I         7 5 27.72        10.8 0.14            152           54.5 305 
 BRR  HZ I         7 5 46.98                                           54.5 305 
 PAM  EZ EP        7 5 16.23                             141   -0.1010 88.4  50 
 PAM  EE ES        7 5 31.74                             141   -0.3110 88.4  50 
 PAM  EZ I         7 5 35.04         7.3 0.30            145           88.4  50 
 RUS  HZ EP        7 5 17.87                             135    0.1310  106 166 
 RUS  HN ES        7 5 34.53                             135   -0.0410  106 166 
 RUS  HZ I         7 5 36.60         4.2 0.22            137            106 166 
 PTB  HZ EP   3    7 5 18.21                             129   -1.14 2  131 256 
 PTB  HN ES   3    7 5 35.21                             129   -2.21 2  131 256 
 PTB  HZ I         7 5 42.85         5.0 0.20            129            131 256 
 ZAR  HZ EP   4    7 5 27.07                             118    2.02 0  186 294 
 ZAR  HE ES        7 5 47.78                             118    0.21 9  186 294 
 ZAR  HZ I         7 5 51.21         6.4 0.28            119            186 294 
 GUY2CHZ EP   4    7 5 38.53                             107    1.41 0  288 232 
 GUY2CHE ES   4    7 6 10.18                             107    1.13 0  288 232 
 GUY2CHZ I         7 6 16.58         1.9 0.38                           288 232 
                                                                                
