 2017 1222 0748 43.0 L   6.816 -73.181138.5  RSN  7 0.5 1.5LRSN                1
 GAP=138        1.18       4.8     5.6  8.7 -0.1168E+02  0.1943E+02 -0.5955E+01E
 Epicentro: ZAPATOCA - SANTANDER                                               3
 ACTION:UPD 18-01-04 13:23 OP:rebc STATUS:               ID:20171222074843 L   I
 OLDACT:UP  17-12-22 16:02 OP:EDW  STATUS:               ID:20171222073734     3
 OLDACT:REG 17-12-22 13:16 OP:dani STATUS:               ID:20171222073734     3
 2017-12-22-0738-00M.COL___454                                                 6
 STAT SP IPHASW D HRMM SECON CODA AMPLIT PERI AZIMU VELO AIN AR TRES W  DIS CAZ7
 BAR2 EZ EP        749  1.93                             169    0.1410 24.8 180 
 BAR2 EZ ES        749 16.24                             169   -0.2010 24.8 180 
 BAR2 EZ I         749 18.19         9.0 0.22            168           24.8 180 
 PAM  EZ EP        749  4.55                             149    0.0310 78.5  43 
 PAM  EE ES        749 21.66                             149    0.3610 78.5  43 
 PAM  EZ I         749 23.51         8.8 0.50            155           78.5  43 
 PTB  HZ EP        749  8.71                             131   -0.36 9  144 258 
 PTB  HN ES        749 28.91                             131   -0.49 9  144 258 
 PTB  HZ I         749 35.08         2.2 0.28            133            144 258 
 OCA  HZ EP        749  9.73                             128   -0.81 9  158 354 
 OCA  HN ES        749 31.89                             128   -0.14 9  158 354 
 OCA  HZ I         749 33.21         6.6 0.62            133            158 354 
 SPBC HZ EP        749 10.67                             127   -0.19 9  162 218 
 SPBC HE ES        749 33.08                             127    0.49 9  162 218 
 SPBC HZ I         749 40.99         2.9 0.38            129            162 218 
 ZAR  HZ EP        749 15.74                             121    1.20 9  200 292 
 ZAR  HN ES        749 39.44                             121    0.30 9  200 292 
 GUY2CHN ES        749 59.37                             111   -0.25 7  299 234 
                                                                                
