 2013  922 0616 41.6 L   6.765 -73.183150.0  RSN  6 0.5 1.3LRSN                1
 GAP=231        1.09       6.4     7.8 10.2  0.2048E+02  0.2184E+02  0.3671E+00E
 Epicentro: VILLANUEVA - SANTANDER                                             3
 ACTION:UPD 13-10-22 09:24 OP:ep   STATUS:               ID:20130922061641 L   I
 OLDACT:REG 13-09-22 07:45 OP:jn   STATUS:               ID:20130922060959     3
 2013-09-22-0609-59M.COL___269                                                 6
 STAT SP IPHASW D HRMM SECON CODA AMPLIT PERI AZIMU VELO AIN AR TRES W  DIS CAZ7
 BAR2 SZ ES   1    617 16.02                             172   -1.24 7 19.1 180 
 BAR2 SZ I         617 17.68         4.8 0.28            168           19.1 180 
 BRR  HZ EP        617  3.20                             154    0.1310 69.7 303 
 BRR  HE ES        617 20.55                             154    0.6910 69.7 303 
 BRR  HZ I         617 22.99         3.4 0.34            152           69.7 303 
 RUS  HZ EP   2    617  5.84                             146    0.37 5 97.1 173 
 RUS  HN ES        617 24.38                             146    0.2410 97.1 173 
 RUS  HZ I         617 25.11         2.2 0.20            146           97.1 173 
 PTB  HZ EP        617  8.14                             134   -0.31 9  143 260 
 PTB  HN ES        617 29.22                             134   -0.21 9  143 260 
 PTB  HZ I         617 34.40         2.5 0.44            133            143 260 
 SPBC HZ EP   2    617  9.54                             131   -0.32 5  158 219 
 SPBC HN ES        617 32.19                             131    0.25 9  158 219 
 SPBC HZ I         617 36.74         3.5 0.44            130            158 219 
 ZAR  HN ES        617 39.20                             124   -0.19 9  202 294 
 ZAR  HZ I         617 41.26         1.8 0.10            124            202 294 
                                                                                
