 2016  822 0658 55.0 L   6.752 -73.168134.0  RSN  5 0.5 1.2LRSN                1
 GAP=242        1.12       6.9     7.3  9.4  0.6378E+01  0.1932E+02  0.1888E+01E
 Epicentro: LOS SANTOS - SANTANDER                                             3
 ACTION:UPD 16-10-29 15:37 OP:rebc STATUS:               ID:20160822065855 L   I
 OLDACT:REG 16-08-22 13:44 OP:ak   STATUS:               ID:20160822065733     3
 2016-08-22-0658-00M.COL___368                                                 6
 STAT SP IPHASW D HRMM SECON CODA AMPLIT PERI AZIMU VELO AIN AR TRES W  DIS CAZ7
 BAR2 EZ EP        659 12.52                             172   -0.6110 17.8 185 
 BAR2 EZ ES        659 27.28                             172    0.0310 17.8 185 
 BAR2 EZ I         659 29.58         4.6 0.14                          17.8 185 
 BRR  HZ EP        659 14.82                             150   -0.1210 71.8 303 
 BRR  HN ES        659 31.21                             150    0.7210 71.8 303 
 BRR  HZ I         659 32.40         4.1 0.10                          71.8 303 
 PTB  HZ EP        659 21.17                             130    0.43 9  144 261 
 PTB  HN ES        659 40.19                             130   -0.61 9  144 261 
 PTB  HZ I         659 42.96         1.0 0.23                           144 261 
 SPBC HZ EP   2    659 22.01                             128   -0.08 5  158 220 
 SPBC HN ES        659 43.57                             128    0.37 9  158 220 
 SPBC HZ I         659 46.62         3.0 0.24                           158 220 
 ZAR  HZ EP   2    659 27.48                             120    0.77 4  204 294 
 ZAR  HN ES        659 51.01                             120   -0.41 9  204 294 
                                                                                
