 2013  922 0151  6.0 L   6.802 -73.155141.4  RSN 11 0.5 2.1LRSN                1
 GAP=135        1.22       3.7     5.3  6.6 -0.1046E+01  0.7612E+01 -0.1740E+01E
 Epicentro: LOS SANTOS - SANTANDER                                             3
 ACTION:UPD 13-10-22 09:24 OP:ep   STATUS:               ID:20130922015106 L   I
 OLDACT:REG 13-09-22 07:23 OP:jn   STATUS:               ID:20130922014959     3
 2013-09-22-0149-59M.COL___269                                                 6
 STAT SP IPHASW D HRMM SECON CODA AMPLIT PERI AZIMU VELO AIN AR TRES W  DIS CAZ7
 BAR2 SZ EP        151 25.17                             170    0.0210 23.4 187 
 BAR2 SZ ES        151 40.40                             170    0.3510 23.4 187 
 BAR2 SZ I         151 41.03        22.8 0.26            169           23.4 187 
 BRR  HZ EP        151 26.88                             152    0.2210 70.2 299 
 BRR  HN ES        151 43.27                             152    0.5310 70.2 299 
 BRR  HZ I         151 47.91        37.4 0.10            151           70.2 299 
 PAM  SZ EP        151 28.01                             150    0.1910 77.8  40 
 PAM  SN ES        151 44.82                             150    0.0110 77.8  40 
 PAM  SZ I         151 47.01        13.7 0.46            153           77.8  40 
 RUS  HZ EP        151 29.84                             143    0.4510  101 175 
 RUS  HN ES        151 47.13                             143   -0.4710  101 175 
 RUS  HZ I         151 49.35        13.7 0.28            144            101 175 
 PTB  HZ EP        151 31.78                             131   -0.78 9  147 259 
 PTB  HN ES        151 52.83                             131   -0.42 9  147 259 
 PTB  HZ I         151 54.55        11.3 0.16            131            147 259 
 OCA  HZ EP        151 34.02                             129    0.04 9  160 353 
 OCA  HE ES   1    151 54.74                             129   -1.03 7  160 353 
 SPBC HN ES   1    151 56.00                             128   -0.10 7  163 219 
 ZAR  HZ EP        151 39.00                             122    0.91 9  203 292 
 ZAR  HE ES   1    152  3.17                             122    0.08 6  203 292 
 ZAR  HZ I         152  8.80        18.8 0.28            122            203 292 
 SML  HZ EP        151 41.41                             117   -0.94 8  243 335 
 SML  HE ES   1    152 10.75                             117    0.08 6  243 335 
 SML  HZ I         152 13.20        27.9 0.10            118            243 335 
 CHI  HZ EP        151 43.65                             116    0.16 8  249 195 
 CHI  HN ES   1    152 11.78                             116   -0.93 6  249 195 
 CHI  HZ I         152 20.62         5.2 0.52            117            249 195 
 GUY2CHZ EP   1    151 50.52                             112    1.15 5  300 235 
 GUY2CHZ I         152 34.78         5.5 0.50                           300 235 
                                                                                
