 2013 1122 0214 43.2 L   6.770 -73.141148.0  RSN 10 0.5 1.7LRSN                1
 GAP=156        1.04       4.0     4.9  7.3 -0.3841E+01  0.5724E+01  0.8082E+01E
 Epicentro: LOS SANTOS - SANTANDER                                             3
 ACTION:UPD 14-01-09 16:30 OP:ep   STATUS:               ID:20131122021443 L   I
 OLDACT:UP  13-11-22 12:46 OP:mh   STATUS:               ID:20131122021000     3
 OLDACT:REG 13-11-22 08:01 OP:mh   STATUS:               ID:20131122021000     3
 2013-11-22-0210-00M.COL___282                                                 6
 STAT SP IPHASW D HRMM SECON CODA AMPLIT PERI AZIMU VELO AIN AR TRES W  DIS CAZ7
 BAR2 SZ EP   1    215  2.95                             172   -0.08 7 20.1 193 
 BAR2 SZ I         215 19.17        21.2 0.22            171           20.1 193 
 BRR  HZ EP        215  5.02                             152    0.3210 73.3 301 
 BRR  HN ES        215 21.93                             152    0.4510 73.3 301 
 BRR  HZ I         215 23.75         7.0 0.13            156           73.3 301 
 PAM  SZ EP        215  6.19                             151    0.4210 79.7  38 
 PAM  SN ES        215 23.11                             151   -0.2810 79.7  38 
 PAM  SZ I         215 26.17         5.3 0.42            152           79.7  38 
 PTB  HZ EP        215  9.65                             133   -0.68 9  148 260 
 PTB  HN ES   1    215 30.51                             133   -0.99 7  148 260 
 PTB  HZ I         215 34.77         6.8 0.15            135            148 260 
 SPBC HZ EP        215 11.62                             130   -0.03 9  161 220 
 SPBC HN ES   2    215 33.68                             130   -0.17 5  161 220 
 ZAR  HZ EP        215 16.06                             123    0.10 8  206 293 
 ZAR  HN ES        215 41.65                             123    0.12 8  206 293 
 NOR  HZ EP        215 18.34                             119   -0.55 8  233 235 
 NOR  HE ES        215 47.37                             119    0.63 8  233 235 
 NOR  HZ I         215 53.38         4.8 0.19            121            233 235 
 CHI  HZ EP   1    215 20.80                             118    0.13 6  246 195 
 CHI  HN ES        215 49.63                             118   -0.29 8  246 195 
 CHI  HZ I         215 52.92         1.6 0.05            119            246 195 
 SML  HZ EP        215 19.96                             118   -0.33 8  247 336 
 SML  HN ES   1    215 48.92                             118   -0.32 6  247 336 
 SML  HZ I         215 54.21        10.0 0.06            120            247 336 
 GUY2CHZ EP        215 27.72                             113    0.99 7  300 235 
 GUY2CHN ES   4    216  1.40                             113    0.70 0  300 235 
                                                                                
