 2011  922 0439 48.4 L   6.732 -73.109142.6  RSN  9 0.4 1.9LRSN                1
 GAP=186        0.72       2.9     5.8  5.4 -0.4140E+01  0.7212E+01  0.1704E+01E
 Epicentro: JORDAN - SANTANDER                                                 3
 ACTION:UPD 12-07-13 15:59 OP:ep   STATUS:               ID:20110922043948 L   I
 2011-09-22-0436-20S.COL___152                                                 6
 STAT SP IPHASW D HRMM SECON CODA AMPLIT PERI AZIMU VELO AIN AR TRES W  DIS CAZ7
 BAR2 SZ EP        440  7.47                             173   -0.0510 17.4 208 
 BAR2 SZ ES   1    440 22.03                             173   -0.42 7 17.4 208 
 BAR2 SZ I         440 24.42        18.8 0.40                          17.4 208 
 BTL  SZ EP   1    440  7.85                             169    0.14 7 27.1 320 
 BRR  HZ EP   1    440  9.18                             149   -0.44 7 78.5 302 
 BRR  HN ES   1    440 26.80                             149    0.61 7 78.5 302 
 BRR  HZ I         440 30.11        14.0 0.15                          78.5 302 
 RUS  HZ EP   1    440 11.54                             145    0.27 7 92.8 178 
 RUS  HE ES   1    440 29.28                             145    0.16 7 92.8 178 
 RUS  HZ I         440 32.96        10.7 0.61                          92.8 178 
 OCA  SZ EP        440 17.46                             127    0.25 9  168 352 
 OCA  SZ ES   1    440 39.30                             127   -0.40 7  168 352 
 OCA  SZ I         440 43.64        12.0 0.33                           168 352 
 NOR  SZ EP   1    440 22.99                             118   -0.84 6  234 237 
 NOR  SE ES   1    440 51.42                             118   -0.06 6  234 237 
 CHI  HZ EP   1    440 25.55                             117    0.32 6  242 197 
 CHI  HN ES   1    440 53.72                             117   -0.26 6  242 197 
 CHI  HZ I         441  3.34         4.4 0.54                           242 197 
 RREF HZ EP   1    440 34.99                             110    0.80 5  320 231 
 RREF HN ES   1    441 10.01                             110    0.09 5  320 231 
 RREF HZ I         441 19.26         5.3 0.50                           320 231 
 PRA  HZ EP   1    440 40.93                             106   -0.33 4  388 211 
 PRA  HE ES   1    441 22.46                             106   -0.05 4  388 211 
                                                                                
