 2012  722 0548 23.5 L   6.745 -73.208149.1  RSN  7 0.4 1.5LRSN                1
 GAP=175        0.85       4.9     7.2 10.4  0.1087E+02  0.1906E+02  0.9031E+00E
 Epicentro: VILLANUEVA - SANTANDER                                             3
 ACTION:UPD 12-08-14 11:46 OP:ep   STATUS:               ID:20120722054823 L   I
 2012-07-22-0540-00M.COL___215                                                 6
 STAT SP IPHASW D HRMM SECON CODA AMPLIT PERI AZIMU VELO AIN AR TRES W  DIS CAZ7
 BAR2 SZ EP   1    548 43.30                             173    -0.1 7   17 170 
 BAR2 SZ I         548 43.49         5.6 0.15            170             17 170 
 BAR2 SZ ES   2    548 58.58                             173    -0.4 5   17 170 
 BRR  HZ EP        548 45.18                             154     0.310   69 306 
 BRR  HZ I         548 45.68        12.7 0.17            150             69 306 
 BRR  HE ES   2    549  2.34                             154     0.8 5   69 306 
 RUS  HZ EP   1    548 47.71                             146     0.5 7   95 172 
 RUS  HN ES   1    549  5.52                             146    -0.2 7   95 172 
 RUS  HZ I         549  7.17         4.2 0.37            147             95 172 
 PTB  HZ EP        548 49.97                             134    -0.1 9  140 261 
 PTB  HN ES   2    549 11.13                             134     0.4 5  140 261 
 PTB  HZ I         549 14.33         2.1 0.21            132            140 261 
 OCA  HN ES   1    549 14.88                             129    -0.4 7  166 356 
 ZAR  HN ES   1    549 20.50                             123    -0.4 6  200 294 
 ZAR  HZ I         549 28.38         4.5 0.33            123            200 294 
 CHI  HN ES   2    549 28.72                             118    -0.8 4  241 194 
