 2014  522 0057 30.9 L   6.845 -73.159132.7  RSN 14 0.5 1.8LRSN                1
 GAP=133        1.14       3.2     4.5  6.7 -0.3269E+01  0.1216E+02  0.4745E+00E
 Epicentro: LOS SANTOS - SANTANDER                                             3
 ACTION:UPD 15-03-16 16:59 OP:nd   STATUS:               ID:20140522005730 L   I
 OLDACT:DUP 14-05-22 14:53 OP:spq  STATUS:               ID:20140522004815d    3
 OLDACT:REG 14-05-22 12:19 OP:spq  STATUS:               ID:20140522004814     3
 2014-05-22-0048-14M.COL___252                                                 6
 STAT SP IPHASW D HRMM SECON CODA AMPLIT PERI AZIMU VELO AIN AR TRES W  DIS CAZ7
 BAR2 SZ EPg       057 49.23                             167    0.1210 28.0 185 
 BAR2 SZ ESg  1    058  2.73                             167   -0.56 7 28.0 185 
 BAR2 SZ I         058  6.76        12.1 0.21            168           28.0 185 
 BRR  HN ESg       058  6.08                             151    0.3610 67.7 295 
 BRR  HZ I         058 10.90        13.9 0.46            149           67.7 295 
 PAM  SZ EP        057 52.25                             149    0.6410 74.6  43 
 PAM  SN ES        058  6.99                             149   -0.7410 74.6  43 
 PAM  SZ I         058 11.54        10.0 0.54            155           74.6  43 
 RUS  HE ES        058 12.20                             139    0.5310  106 175 
 RUS  HZ I         058 13.50         3.2 0.20            145            106 175 
 PTB  HZ EP        057 56.45                             129   -0.39 9  147 257 
 PTB  HN ES        058 16.30                             129   -0.74 9  147 257 
 PTB  HZ I         058 24.76        11.0 0.40            130            147 257 
 OCA  HN ES        058 19.28                             127    0.57 9  155 353 
 OCA  HZ I         058 24.81         6.1 0.18            130            155 353 
 SPBC HZ EP        057 58.29                             125   -0.47 9  166 218 
 SPBC HN ES        058 20.67                             125    0.20 9  166 218 
 SPBC HZ I         058 24.34         7.6 0.28            129            166 218 
 ZAR  HZ EP        058  1.53                             120   -0.70 9  201 291 
 ZAR  HE ES        058 27.28                             120    0.64 9  201 291 
 ZAR  HZ I         058 35.68         6.2 0.24            121            201 291 
 NOR  HZ EP        058  5.73                             115   -0.41 8  236 233 
 NOR  HN ES        058 33.53                             115   -0.06 8  236 233 
 NOR  HZ I         058 37.03         4.4 0.14            118            236 233 
 SML  HZ EP   1    058  5.97                             115   -0.34 6  239 335 
 SML  HN ES        058 33.74                             115   -0.15 8  239 335 
 SML  HZ I         058 40.94         7.6 0.10            118            239 335 
 HEL  HN ES   1    058 41.92                             112    0.56 6  272 255 
 HEL  HZ I         058 47.45         4.0 0.34            114            272 255 
 GUY2CHZ EP        058 14.71                             110    0.54 7  303 234 
 GUY2CHN ES   1    058 48.25                             110    0.36 5  303 234 
 GUY2CHZ I         058 55.98         1.9 0.24                           303 234 
 RREF HZ EP   1    058 17.27                             108    0.47 5  324 229 
 RREF HE ES   1    058 52.62                             108    0.06 5  324 229 
 RREF HZ I         059  1.55         3.2 0.26            111            324 229 
 SJC  HZ EP   4    058 23.43                             104   -2.09 0  404 327 
 SJC  HN ES   4    059  4.70                             104   -3.39 0  404 327 
 SJC  HZ I         059  9.56         2.1 0.42            106            404 327 
                                                                                
