 2010  122 0529 55.3 L   6.857 -73.088140.3  RSN 12 0.5 2.4LRSN                1
 GAP=189        1.09       4.5     9.9  9.8  0.4793E+00  0.5417E+02  0.1030E+02E
 Epicentro: LOS SANTOS - SANTANDER                                             3
 ACTION:UP  10-08-24 09:45 OP:vdl  STATUS:               ID:20100122052955 L   I
 2010-01-22-0526-27S.COL___095                                                 6
 STAT SP IPHASW D HRMM SECON CODA AMPLIT PERI AZIMU VELO SNR AR TRES W  DIS CAZ7
 GIR2 SZ EP        530 14.41                             168     0.210   27 335 
 BAR2 SZ EP        530 14.40                             167    -0.110   31 200 
 BAR2 SZ ES   1    530 29.17                             167    -0.3 7   31 200 
 RUS  BZ EP        530 18.59                             141    -0.410  107 180 
 RUS  BZ I         530 38.90        43.3 0.26                           107 180 
 OCA  SZ EP        530 22.68                             129     0.0 9  155 351 
 OCA  SZ ES   1    530 44.45                             129     0.4 7  155 351 
 CHI  HZ EP        530 32.80                             115    -0.8 8  256 196 
 CHI  HN ES        531  4.02                             115     0.6 8  256 196 
 CHI  HZ I         531  5.54        14.0 0.43                           256 196 
 ROSC BZ EP        530 34.70                             115     0.6 8  261 212 
 ROSC BZ I         531  9.07        16.1 0.08                           261 212 
 HEL  HZ EP        530 36.61                             113     0.5 7  280 255 
 RREF BZ EP        530 41.70                             109    -0.5 7  331 229 
 DBB  SZ EP        530 42.73                             108    -0.5 6  345 273 
 DBB  SZ ES   1    531 19.89                             108    -0.8 5  345 273 
 TOL  SZ EP        530 45.28                             108     0.9 6  352 225 
 ANIL BZ EP        530 46.38                             107     0.4 6  366 225 
 PRA  HZ EP   1    530 48.81                             105    -0.8 4  401 210 
                                                                                
