 2016 1222 0113 24.7 L   6.815 -73.155148.0  RSN  7 0.5 1.5LRSN                1
 GAP=135        1.12       4.8     5.4  8.3 -0.5996E+01  0.4618E+01  0.1612E+02E
 Epicentro: LOS SANTOS - SANTANDER                                             3
 ACTION:UPD 17-01-11 20:17 OP:rebc STATUS:               ID:20161222011324 L   I
 OLDACT:REG 16-12-22 12:31 OP:cog  STATUS:               ID:20161222010741     3
 2016-12-22-0108-00M.COL___375                                                 6
 STAT SP IPHASW D HRMM SECON CODA AMPLIT PERI AZIMU VELO AIN AR TRES W  DIS CAZ7
 BRR  HZ EP        113 45.64                             153   -0.3810 69.5 298 
 BRR  HE ES        114  3.41                             153    0.7810 69.5 298 
 BRR  HZ I         114  7.59         7.9 0.14            155           69.5 298 
 PAM  EZ EP        113 47.36                             151    0.2310 76.7  41 
 PAM  EN ES        114  4.71                             151    0.0910 76.7  41 
 PAM  EZ I         114  5.30         4.2 0.46            155           76.7  41 
 RUS  HZ EP        113 48.38                             144   -0.4410  102 176 
 RUS  HE ES        114  7.29                             144   -0.3210  102 176 
 RUS  HZ I         114 10.01         2.5 0.48            146            102 176 
 PTB  HZ EP        113 51.46                             133   -0.35 9  147 258 
 PTB  HN ES        114 12.18                             133   -0.76 9  147 258 
 PTB  HZ I         114 14.83         4.1 0.14            135            147 258 
 CHI  HZ EP        114  2.71                             117    0.02 8  250 195 
 CHI  HE ES        114 32.43                             117    0.12 8  250 195 
 CHI  HZ I         114 33.93         2.3 0.30            120            250 195 
 ROSC BZ EP        114  3.41                             117    0.35 8  254 211 
 ROSC BE ES        114 33.90                             117    0.93 8  254 211 
 GUY2CHZ EP   3    114  9.31                             113    0.86 2  301 234 
 GUY2CHE ES        114 42.77                             113    0.21 7  301 234 
 GUY2CHZ I         114 50.65         2.7 0.30                           301 234 
                                                                                
