 2017 1022 0939 13.9 L   6.777 -73.135141.1  RSN  8 0.4 1.4LRSN                1
 GAP=114        0.92       3.9     3.9  5.7  0.2704E+01  0.5065E+01  0.3893E+01E
 Epicentro: LOS SANTOS - SANTANDER                                             3
 ACTION:UPD 17-11-07 19:35 OP:rebc STATUS:               ID:20171022093913 L   I
 OLDACT:UP  17-10-22 17:49 OP:dani STATUS:               ID:20171022092521d    3
 OLDACT:UP  17-10-22 17:49 OP:dani STATUS:               ID:20171022092521d    3
 OLDACT:UP  17-10-22 17:48 OP:dani STATUS:               ID:20171022092521d    3
 OLDACT:UP  17-10-22 17:48 OP:dani STATUS:               ID:20171022092521d    3
 OLDACT:UP  17-10-22 17:46 OP:leo  STATUS:               ID:20171022092521d    3
 OLDACT:UP  17-10-22 17:44 OP:leo  STATUS:               ID:20171022092521d    3
 OLDACT:REG 17-10-22 14:14 OP:dani STATUS:               ID:20171022092521d    3
 2017-10-22-0938-00M.COL___381                                                 6
 STAT SP IPHASW D HRMM SECON CODA AMPLIT PERI AZIMU VELO AIN AR TRES W  DIS CAZ7
 BAR2 EZ EP        939 32.78                             171   -0.1010 21.1 194 
 BAR2 EZ ES        939 47.23                             171   -0.4910 21.1 194 
 BAR2 EZ I         939 49.62         5.1 0.30            170           21.1 194 
 BRR  HZ EP        939 34.79                             151    0.1510 73.5 300 
 BRR  HE ES        939 50.40                             151   -0.4510 73.5 300 
 BRR  HZ I         939 59.57         7.7 0.32            151           73.5 300 
 PAM  EN ES        939 53.03                             149    0.3710 78.6  38 
 RUS  HZ EP        939 37.21                             143    0.2510 98.0 177 
 RUS  HN ES        939 55.20                             143    0.2210 98.0 177 
 PTB  HZ EP        939 39.84                             131   -0.67 9  148 260 
 PTB  HE ES        940  1.87                             131    0.56 9  148 260 
 PTB  HZ I         940  3.43         2.8 0.28            132            148 260 
 SPBC HZ EP        939 41.79                             128   -0.10 9  162 220 
 SPBC HN ES        940  3.77                             128    0.02 9  162 220 
 SPBC HZ I         940  9.88         2.9 0.16            130            162 220 
 YPLC HZ EP        939 43.10                             126    0.06 9  174 151 
 ZAR  HZ EP        939 45.99                             121   -0.23 8  206 293 
 ZAR  HN ES        940 11.93                             121    0.47 8  206 293 
 ZAR  HZ I         940 13.66         2.4 0.48            123            206 293 
                                                                                
