 2015 1122 0755  2.7 L   7.221 -73.898 82.1  RSN  4 0.2 1.1LRSN                1
 GAP=155        0.53       3.0     2.7  4.9  0.4066E+01 -0.1922E+00 -0.6854E+01E
 Epicentro: PUERTO WILCHES - SANTANDER                                         3
 ACTION:UPD 15-12-28 16:12 OP:cam  STATUS:               ID:20151122075502 L   I
 OLDACT:DUP 15-11-22 18:40 OP:ak   STATUS:               ID:20151122075201d    3
 OLDACT:REG 15-11-22 16:12 OP:ak   STATUS:               ID:20151122075200     3
 2015-11-22-0751-59S.COL___153                                                 6
 STAT SP IPHASW D HRMM SECON CODA AMPLIT PERI AZIMU VELO AIN AR TRES W  DIS CAZ7
 BRR  HZ EP        755 14.16                             162   -0.2010 24.1 121 
 BRR  HN ES        755 23.57                             162    0.0710 24.1 121 
 BRR  HZ I         755 24.63         6.2 0.17            164           24.1 121 
 BAR2 EZ EP   2    755 21.61                             124    0.58 5  105 131 
 BAR2 EZ ES        755 35.32                             124   -0.0410  105 131 
 BAR2 EZ I         755 36.77         2.3 0.26            126            105 131 
 ZAR  HZ EP   1    755 21.38                             122    0.15 7  110 286 
 ZAR  HN ES        755 35.68                             122   -0.0310  110 286 
 ZAR  HZ I         755 38.12         3.3 0.24            123            110 286 
 SML  HZ EP        755 28.25                             110   -0.29 9  176 354 
 SML  HN ES        755 48.99                             110    0.26 9  176 354 
 SML  HZ I         755 52.61         3.1 0.44            110            176 354 
                                                                                
