 2015 1122 0158 23.5 L   6.838 -73.000141.3  RSN  4 0.1 1.0LRSN                1
 GAP=214        0.43       4.9     9.9  5.2  0.4171E+02 -0.3198E+02 -0.1732E+02E
 Epicentro: CEPITA - SANTANDER                                                 3
 ACTION:UPD 15-12-28 16:12 OP:cam  STATUS:               ID:20151122015822 L   I
 OLDACT:UP  15-12-07 19:32 OP:nlst STATUS:               ID:20151122015822 L   3
 OLDACT:UP  15-12-01 10:57 OP:ak   STATUS:               ID:20151122015822 L   3
 OLDACT:DUP 15-11-22 17:18 OP:ak   STATUS:               ID:20151122014402d    3
 2015-11-22-0143-59S.COL___156                                                 6
 STAT SP IPHASW D HRMM SECON CODA AMPLIT PERI AZIMU VELO AIN AR TRES W  DIS CAZ7
 BAR2 EZ EP        158 42.61                             166   -0.2510 33.9 217 
 BAR2 EZ ES        158 58.11                             166    0.1510 33.9 217 
 BAR2 EZ I         158 59.12         2.6 0.14            168           33.9 217 
 BRR  HZ EP        158 45.17                             147    0.2010 84.2 291 
 BRR  HE ES        159  1.61                             147   -0.1110 84.2 291 
 RUS  HZ EP   1    158 47.24                             142    0.10 7  105 185 
 RUS  HE ES   1    159  5.52                             142   -0.06 7  105 185 
 RUS  HZ I         159  6.05         1.6 0.22            143            105 185 
 SML  HZ EP   2    159  0.33                             116    0.07 4  247 332 
 SML  HN ES        159 28.92                             116   -0.02 8  247 332 
                                                                                
