 2013 1122 0625 55.7 L   6.704 -73.289146.0  RSN  4 0.4 1.3LRSN                1
 GAP=183        0.91       7.5     8.5  9.6  0.3656E+02 -0.9534E+01 -0.2566E+01E
 Epicentro: GALAN - SANTANDER                                                  3
 ACTION:UPD 14-01-09 16:30 OP:ep   STATUS:               ID:20131122062555 L   I
 OLDACT:REG 13-11-22 11:28 OP:mh   STATUS:               ID:20131122062000     3
 2013-11-22-0620-00M.COL___282                                                 6
 STAT SP IPHASW D HRMM SECON CODA AMPLIT PERI AZIMU VELO AIN AR TRES W  DIS CAZ7
 BAR2 SZ EP        626 15.89                             173    0.6310 17.1 136 
 BAR2 SZ I         626 30.48        15.4 0.19            173           17.1 136 
 BRR  HZ EP        626 16.11                             155   -0.4210 64.5 314 
 BRR  HN ES        626 32.74                             155   -0.0210 64.5 314 
 BRR  HZ I         626 36.67         5.3 0.09            152           64.5 314 
 RUS  HZ EP        626 18.55                             146   -0.3810 92.6 166 
 RUS  HN ES        626 37.03                             146   -0.0110 92.6 166 
 RUS  HZ I         626 38.81         1.1 0.26            147           92.6 166 
 PTB  HZ EP   1    626 21.61                             136    0.44 7  130 262 
 PTB  HN ES   1    626 40.96                             136   -0.06 7  130 262 
 PTB  HZ I         626 47.27         2.4 0.20            135            130 262 
                                                                                
