 2015  822 0532 25.9 L   6.774 -73.158149.8  RSN  4 0.3 1.2LRSN                1
 GAP=234        0.73       4.6     6.6  7.9  0.1404E+02  0.8875E+00  0.4162E+01E
 Epicentro: LOS SANTOS - SANTANDER                                             3
 ACTION:UPD 15-09-15 23:04 OP:cam  STATUS:               ID:20150822053225 L   I
 OLDACT:DUP 15-08-22 17:27 OP:spq  STATUS:               ID:20150822052742d    3
 2015-08-22-0527-41M.COL___349                                                 6
 STAT SP IPHASW D HRMM SECON CODA AMPLIT PERI AZIMU VELO AIN AR TRES W  DIS CAZ7
 BRR  HZ EP        532 47.39                             153   -0.1210 71.4 301 
 BRR  HN ES        533  4.70                             153    0.3510 71.4 301 
 BRR  HZ I         533  7.99         2.2 0.32            150           71.4 301 
 RUS  HZ EP   1    532 49.82                             145   -0.05 7 97.8 175 
 RUS  HE ES   1    533  8.09                             145   -0.46 7 97.8 175 
 RUS  HZ I         533  9.03         1.6 0.24            146           97.8 175 
 SPBC HZ EP        532 54.81                             131    0.38 9  160 219 
 SPBC HN ES        533 16.71                             131    0.03 9  160 219 
 SPBC HZ I         533 20.99         2.8 0.10            130            160 219 
 ZAR  HN ES        533 23.70                             123   -0.40 9  204 293 
 ZAR  HZ I         533 29.47         2.4 0.38            123            204 293 
                                                                                
