 2016 1222 0713 34.3 L   6.740 -73.347127.5  RSN  5 0.2 1.1LRSN                1
 GAP=177        0.66       4.5     4.0  5.3  0.1102E+02  0.5777E+01  0.3457E+01E
 Epicentro: ZAPATOCA - SANTANDER                                               3
 ACTION:UPD 17-01-11 20:17 OP:rebc STATUS:               ID:20161222071334 L   I
 OLDACT:REG 16-12-22 13:08 OP:cog  STATUS:               ID:20161222070647     3
 2016-12-22-0707-00M.COL___362                                                 6
 STAT SP IPHASW D HRMM SECON CODA AMPLIT PERI AZIMU VELO AIN AR TRES W  DIS CAZ7
 BAR2 EZ EP        713 51.65                             169   -0.1110 24.5 132 
 BAR2 EZ ES        714  5.15                             169   -0.2310 24.5 132 
 BRR  HZ EP        713 52.60                             154   -0.0910 57.2 315 
 BRR  HN ES        714  7.14                             154    0.1010 57.2 315 
 BRR  HZ I         714  7.79         4.5 0.28            155           57.2 315 
 RUS  HZ EP        713 56.20                             140    0.0910 98.1 163 
 RUS  HE ES        714 13.47                             140    0.3510 98.1 163 
 RUS  HZ I         714 14.24         1.2 0.20            140           98.1 163 
 PTB  HZ EP        713 57.45                             133   -0.2310  125 260 
 PTB  HE ES        714 15.65                             133   -0.2610  125 260 
 PTB  HZ I         714 18.31         2.8 0.18            132            125 260 
 ZAR  HN ES        714 27.19                             121    0.46 9  186 297 
                                                                                
