 2011  922 0052 28.3 L   6.795 -73.167141.6  RSN 20 0.4 3.7LRSN                1
 GAP= 67        0.83       2.4     3.6  4.1 -0.1150E+01  0.5123E+01  0.2328E+01E
 Epicentro: LOS SANTOS - SANTANDER                                             3
 ACTION:UPD 12-07-13 15:59 OP:ep   STATUS:               ID:20110922005228 L   I
 2011-09-22-0051-39S.COL___161                                                 6
 STAT SP IPHASW D HRMM SECON CODA AMPLIT PERI AZIMU VELO AIN AR TRES W  DIS CAZ7
 SAN  SZ IP        052 47.87                             175    0.6610 10.8 108 
 SAN  SZ ES   1    053  1.98                             175    0.04 7 10.8 108 
 BTL  SZ EP        052 47.54                             173    0.1810 17.6 321 
 BAR2 SZ IP        052 47.40                             171   -0.0410 22.5 184 
 BAR2 SZ ES   1    053  1.61                             171   -0.74 7 22.5 184 
 BAR2 SZ I         053  3.15       996.8 0.14                          22.5 184 
 GIR2 SZ IP        052 47.53                             167    0.0210 31.5 355 
 GIR2 SZ ES   1    053  2.42                             167   -0.05 7 31.5 355 
 BRR  HZ IP     D  052 49.29                             152    0.3610 69.4 300 
 BRR  HE ES   1    053  5.87                             152    0.88 7 69.4 300 
 BRR  HZ I         053  7.34       992.0 0.18                          69.4 300 
 PAM  SZ IP        052 50.30                             149    0.0810 79.3  41 
 PAM  SN ES   1    053  7.25                             149   -0.04 7 79.3  41 
 RUS  HZ IP     D  052 51.29                             143   -0.3610  100 175 
 RUS  HE ES   1    053  9.70                             143   -0.13 7  100 175 
 RUS  HZ I         053 11.45       561.8 0.30                           100 175 
 BRI  SZ IP        052 52.12                             140    0.1910  110  22 
 BRI  SZ ES   1    053  9.53                             140   -0.81 7  110  22 
 GUE  SZ EP        052 52.59                             138   -0.1510  118  13 
 OCA  SZ IP        052 56.04                             129   -0.31 9  161 354 
 OCA  SZ ES   1    053 17.82                             129   -0.38 7  161 354 
 OCA  SZ I         053 26.89       568.5 0.27                           161 354 
 YOP  SZ IP        052 58.20                             125    0.07 9  179 153 
 YOP  SE ES   1    053 22.01                             125    0.63 7  179 153 
 ZAR  HZ EP        053  0.28                             122   -0.03 9  202 293 
 ZAR  HN ES   2    053 26.09                             122    0.84 4  202 293 
 ZAR  HZ I         053 34.28       572.7 0.30                           202 293 
 NOR  SZ EP        053  3.48                             118   -0.10 8  232 234 
 NOR  SN ES   1    053 30.55                             118   -0.53 6  232 234 
 HEL  HZ EP        053  7.78                             114   -0.29 8  270 256 
 HEL  HZ I         053 46.81       370.4 0.30                           270 256 
 GUY  SZ EP   1    053 11.88                             111    0.12 5  301 235 
 GUY  SN ES   1    053 44.99                             111   -0.65 5  301 235 
 GUY  SZ I         053 52.67       441.7 0.08                           301 235 
 VIL  SZ EP        053 11.47                             111    0.02 7  302 191 
 VIL  SN ES   1    053 44.88                             111   -0.20 5  302 191 
 RREF HZ EP        053 14.15                             110    0.10 7  320 229 
 RREF HZ I         053 55.23       233.0 0.36                           320 229 
 TOL  SZ EP   1    053 16.69                             109    0.50 5  341 224 
 ANIL HZ EP        053 18.18                             108    0.44 6  355 224 
 PRA  HZ EP        053 20.87                             106   -0.65 6  390 209 
                                                                                
