 2010  722 0530 38.1 L   6.771 -73.087146.5  RSN  7 0.4 1.5LRSN                1
 GAP=166        0.95       5.8    11.3  9.0  0.8010E+01 -0.1944E+02 -0.1109E+02E
 Epicentro: LOS SANTOS - SANTANDER                                             3
 ACTION:UPD 10-12-01 15:19 OP:pat  STATUS:               ID:20100722053038 L   I
 2010-07-22-0529-03S.COL___123                                                 6
 STAT SP IPHASW D HRMM SECON CODA AMPLIT PERI AZIMU VELO AIN AR TRES W  DIS CAZ7
 BAR2 SZ EP        530 57.52                             171    -0.310   23 208 
 BAR2 SZ ES   1    531 13.02                             171    -0.1 7   23 208 
 BAR2 SZ I         531 14.06        14.2 0.22                            23 208 
 BRR  HZ EP        530 59.45                             151    -0.310   79 298 
 BRR  HN ES   1    531 16.95                             151     0.3 7   79 298 
 BRR  HZ I         531 18.23         6.8 0.02                            79 298 
 RUS  HZ EP   1    531  1.43                             145    -0.2 7   97 180 
 RUS  HN ES   1    531 20.58                             145     0.5 7   97 180 
 RUS  HZ I         531 21.32         5.4 0.11                            97 180 
 GUE  SZ EP   1    531  2.77                             139    -0.3 7  118   9 
 GUE  SZ I         531 24.41         1.8 0.36                           118   9 
 GRA  SZ EP   1    531  4.35                             137     0.8 7  127  14 
 GRA  SZ I         531 25.15         5.1 0.48                           127  14 
 CHI  HZ EP   2    531 15.54                             118    -0.2 4  247 197 
 CHI  HE ES   2    531 44.98                             118     0.0 4  247 197 
 HEL  HZ EP   2    531 19.54                             115     0.6 4  278 257 
 HEL  HZ I         531 55.59         2.4 0.24                           278 257 
                                                                                
