 2016 1022 0945 47.9 L   6.579 -73.499116.0  RSN 19 0.4 2.4LRSN                1
 GAP= 70        1.12       3.6     3.3  5.5 -0.3443E+01  0.2629E+01  0.5089E+01E
 Epicentro: EL CARMEN - SANTANDER                                              3
 ACTION:UPD 16-11-09 19:21 OP:rebc STATUS:               ID:20161022094547 L   I
 OLDACT:UP  16-10-23 00:35 OP:and  STATUS:               ID:20161022093748d    3
 OLDACT:UP  16-10-23 00:34 OP:and  STATUS:               ID:20161022093748d    3
 OLDACT:UP  16-10-23 00:33 OP:and  STATUS:               ID:20161022093748d    3
 OLDACT:DUP 16-10-23 00:27 OP:and  STATUS:               ID:20161022093748d    3
 OLDACT:UP  16-10-23 00:26 OP:and  STATUS:               ID:20161022093747     3
 OLDACT:REG 16-10-22 13:27 OP:and  STATUS:               ID:20161022093747     3
 2016-10-22-0938-00M.COL___337                                                 6
 STAT SP IPHASW D HRMM SECON CODA AMPLIT PERI AZIMU VELO AIN AR TRES W  DIS CAZ7
 BAR2 EZ IP     D  946  4.53                             163    0.1710 35.0  88 
 BAR2 EZ ES        946 17.19                             163    0.0110 35.0  88 
 BRR  HZ EP        946  5.40                             150   -0.0210 63.0 338 
 BRR  HE ES        946 19.43                             150    0.3710 63.0 338 
 BRR  HZ I         946 25.30        46.1 0.46            148           63.0 338 
 RUS  HZ EP        946  7.74                             141   -0.1910 88.8 149 
 RUS  HN ES        946 23.25                             141   -0.2810 88.8 149 
 RUS  HZ I         946 24.78        46.9 0.32            144           88.8 149 
 PTB  HZ IP   9 C  946  7.47                             135   -1.23 0  106 268 
 PTB  HN ES        946 24.62                             135    0.9510  106 268 
 PTB  HZ I         946 27.66        69.8 0.10            133            106 268 
 SPBC HZ EP        946  9.61                             131   -0.5010  121 212 
 SPBC HN ES        946 27.65                             131    0.2410  121 212 
 SPBC HZ I         946 31.70        70.2 0.44            131            121 212 
 PAM  EZ EP        946 11.12                             131    0.3410  122  46 
 PAM  EN ES        946 28.42                             131   -0.1810  122  46 
 PAM  EZ I         946 32.97        36.6 0.42            133            122  46 
 OCA  HZ EP   4    946 17.46                             118    0.77 0  185   6 
 OCA  HN ES   4    946 39.82                             118    0.69 0  185   6 
 OCA  HZ I         946 45.93        83.4 0.26            119            185   6 
 NOR  HZ EP        946 16.40                             118   -0.61 9  189 234 
 NOR  HN ES        946 39.55                             118   -0.14 9  189 234 
 NOR  HZ I         946 40.86        26.9 0.16            118            189 234 
 TAM  HZ EP        946 17.28                             118    0.20 9  190  95 
 TAM  HN ES   4    946 41.40                             118    1.58 0  190  95 
 ROSC BZ EP   4    946 20.11                             115    0.03 0  213 205 
 ROSC BN ES   4    946 47.99                             115    2.83 0  213 205 
 ROSC BZ I         946 52.12        17.8 0.35            115            213 205 
 CHI  HZ EP        946 21.02                             114    0.42 8  217 187 
 CHI  HN ES        946 47.14                             114    1.06 8  217 187 
 HEL  HZ EP        946 22.11                             113    0.27 8  229 259 
 HEL  HN ES        946 48.25                             113   -0.04 8  229 259 
 HEL  HZ I         946 50.98        17.6 0.22            113            229 259 
 GUY2CHZ EP   4    946 26.04                             110    1.04 0  255 234 
 GUY2CHN ES   4    946 56.16                             110    2.24 0  255 234 
 GUY2CHZ I         947  3.03        16.4 0.38                           255 234 
 ELA  HZ EP   4    946 29.68                             108    1.32 0  284 228 
 ELA  HN ES   4    947  1.14                             108    1.24 0  284 228 
 ELA  HZ I         947 10.89        10.5 0.66            108            284 228 
 CBOC HZ EP   4    946 29.79                             107    1.23 0  289 254 
 CBOC HN ES        946 59.30                             107   -0.95 7  289 254 
 CBOC HZ I         947  3.66         8.4 0.46            107            289 254 
 PTGC HZ EP        946 29.14                             106   -0.89 7  304 150 
 PTGC HN ES   4    947  0.66                             106   -2.21 0  304 150 
 PTGC HZ I         947  1.64        13.1 0.30            107            304 150 
 ANIL HZ EP   4    946 32.15                             106    0.67 0  313 223 
 ANIL HN ES   4    947  7.44                             106    2.00 0  313 223 
 ANIL HZ I         947 15.09        25.6 0.34            106            313 223 
 LL6C HN ES   4    946 55.59                             103   -17.0 0  350   4 
 PRA  HZ EP        946 36.10                             103    0.27 6  352 206 
 PRA  HN ES        947 13.28                             103    0.08 6  352 206 
 PRA  HZ I         947 19.15         8.0 0.28            104            352 206 
 PAL  HZ EP        946 36.99                             103    0.23 6  360 239 
 PAL  HN ES   4    947 13.28                             103   -1.56 0  360 239 
 PAL  HZ I         947 20.74         8.6 0.46            103            360 239 
 SJC  HZ EP   4    946 43.25                             101    0.36 0  411 333 
 SJC  HN ES   4    947 23.03                             101   -2.72 0  411 333 
 CRJC HN ES   4    947 41.72                              98   -2.31 0  496   8 
                                                                                
