 2016 1022 0402 26.0 L   6.006 -74.024  1.2  RSN  9 0.5 1.3LRSN                1
 GAP=143        1.24       2.5     3.4  6.0 -0.3611E+01  0.1412E+01  0.3423E+00E
 Epicentro: LA BELLEZA - SANTANDER                                             3
 ACTION:UPD 16-11-09 19:21 OP:rebc STATUS:               ID:20161022040226 L   I
 OLDACT:UP  16-10-22 20:13 OP:and  STATUS:               ID:20161022035746     3
 OLDACT:UP  16-10-22 20:10 OP:and  STATUS:               ID:20161022035746     3
 OLDACT:UP  16-10-22 17:12 OP:and  STATUS:               ID:20161022035746     3
 OLDACT:UP  16-10-22 17:09 OP:and  STATUS:               ID:20161022035746     3
 OLDACT:REG 16-10-22 13:07 OP:and  STATUS:               ID:20161022035746     3
 2016-10-22-0358-00M.COL___355                                                 6
 STAT SP IPHASW D HRMM SECON CODA AMPLIT PERI AZIMU VELO AIN AR TRES W  DIS CAZ7
 SPBC HZ IP     D  4 2 32.56                              47   -0.4610 39.5 188 
 SPBC HN ES        4 2 37.87                              47   -0.6710 39.5 188 
 SPBC HZ I         4 2 39.46        21.2 0.10             47           39.5 188 
 PTB  HZ EP        4 2 38.03                              47   -0.4310 75.9 321 
 PTB  HE ES        4 2 47.52                              47   -0.7010 75.9 321 
 PTB  HZ I         4 2 47.85        17.9 0.16             47           75.9 321 
 RUS  HZ EP   4    4 2 42.27                              47   -1.09 0  105  97 
 RUS  HE ES   4    4 2 54.18                              47   -2.75 0  105  97 
 RUS  HZ I         4 2 58.80         3.4 0.22             47            105  97 
 NOR  HZ EP   2    4 2 43.55                              47    0.55 5  106 242 
 NOR  HN ES        4 2 56.43                              47    0.1310  106 242 
 NOR  HZ I         4 2 57.40         8.9 0.05             47            106 242 
 BRR  HZ EP        4 2 46.38                              47    0.2610  127  16 
 BRR  HE ES        4 3  2.23                              47    0.3910  127  16 
 CHI  HZ EP   4    4 2 52.32                              47    1.36 0  156 168 
 CHI  HN ES   4    4 3 15.32                              47    4.86 0  156 168 
 HEL  HZ EP        4 2 52.44                              47   -0.31 9  168 277 
 HEL  HN ES   4    4 3 12.42                              47   -1.23 0  168 277 
 HEL  HZ I         4 3 14.12         4.1 0.22             47            168 277 
 GUY2CHZ EP        4 2 54.41                              47    0.94 9  172 240 
 GUY2CHE ES        4 3 15.11                              47    0.17 9  172 240 
 GUY2CHZ I         4 3 15.92         3.4 0.22                           172 240 
 ELA  HZ EP   4    4 2 58.81                              37    1.72 0  198 230 
 ELA  HN ES        4 3 22.15                              37    0.77 9  198 230 
 ELA  HZ I         4 3 25.09         3.8 0.30             37            198 230 
 PAM  EZ EP        4 2 58.52                              37    0.28 8  208  45 
 PAM  EN ES        4 3 23.40                              37   -0.02 8  208  45 
 PAM  EZ I         4 3 26.59         4.3 0.16             37            208  45 
                                                                                
