 2017  122 0900 19.0 L   6.762 -73.164147.3  RSN 16 0.6 2.1LRSN                1
 GAP= 65        1.02       3.6     3.4  5.1  0.6102E+00  0.1555E+01  0.3736E+01E
 Epicentro: LOS SANTOS - SANTANDER                                             3
 ACTION:UPD 17-05-22 16:02 OP:jn   STATUS:               ID:20170122090019 L   I
 OLDACT:UP  17-01-22 17:56 OP:dani STATUS:               ID:20170122085744d    3
 OLDACT:UP  17-01-22 17:55 OP:dani STATUS:               ID:20170122085744d    3
 OLDACT:UP  17-01-22 17:55 OP:dani STATUS:               ID:20170122085744d    3
 OLDACT:UP  17-01-22 17:54 OP:dani STATUS:               ID:20170122085744d    3
 OLDACT:UP  17-01-22 17:54 OP:dani STATUS:               ID:20170122085744d    3
 OLDACT:UP  17-01-22 17:54 OP:dani STATUS:               ID:20170122085744d    3
 OLDACT:DUP 17-01-22 17:49 OP:dani STATUS:               ID:20170122085744d    3
 OLDACT:REG 17-01-22 13:23 OP:dani STATUS:               ID:20170122085743     3
 2017-01-22-0858-00M.COL___331                                                 6
 STAT SP IPHASW D HRMM SECON CODA AMPLIT PERI AZIMU VELO AIN AR TRES W  DIS CAZ7
 BAR2 EZ EP     D  9 0 38.81                             172    0.0510 18.9 186 
 BAR2 EZ ES        9 0 53.73                             172   -0.4210 18.9 186 
 BAR2 EZ I         9 0 55.03        46.8 0.26            164           18.9 186 
 BRR  HZ EP     C  9 0 40.59                             153    0.2310 71.5 302 
 BRR  HN ES        9 0 57.61                             153    0.6110 71.5 302 
 BRR  HZ I         9 1  1.90        25.0 0.12            150           71.5 302 
 PAM  EZ EP        9 0 41.78                             150    0.1010 81.9  39 
 PAM  EN ES        9 0 58.79                             150   -0.5610 81.9  39 
 PAM  EZ I         9 1  1.24        41.7 0.80            155           81.9  39 
 RUS  HZ EP        9 0 42.77                             145    0.1210 96.6 175 
 RUS  HN ES        9 1  1.75                             145    0.6810 96.6 175 
 RUS  HZ I         9 1  3.09        15.4 0.46            139           96.6 175 
 PTB  HZ EP        9 0 45.42                             133   -0.45 9  145 260 
 PTB  HN ES        9 1  6.71                             133   -0.10 9  145 260 
 PTB  HZ I         9 1 12.88        12.9 0.24            128            145 260 
 TAM  HZ EP        9 0 47.22                             131    0.30 9  156 103 
 TAM  HE ES   3    9 1  6.99                             131   -1.68 2  156 103 
 TAM  HZ I         9 1 10.16        11.4 0.39            130            156 103 
 ZAR  HZ EP        9 0 51.32                             123   -0.23 9  204 293 
 ZAR  HN ES        9 1 16.84                             123   -0.07 9  204 293 
 ZAR  HZ I         9 1 22.01        12.7 0.25            120            204 293 
 CHI  HZ EP        9 0 57.03                             118    0.71 8  244 195 
 CHI  HZ I         9 1 29.81        12.3 0.58            114            244 195 
 ROSC BE ES        9 1 25.47                             117   -0.66 8  248 211 
 URE  HZ EP   9    9 0 58.61                             114   -1.53 0  284 293 
 URE  HE ES        9 1 30.64                             114   -0.03 7  284 293 
 URE  HZ I         9 1 42.80        10.2 0.22            112            284 293 
 PTGC HZ EP        9 1  1.99                             112   -0.61 7  306 158 
 PTGC HE ES   3    9 1 35.32                             112   -1.26 2  306 158 
 PTGC HZ I         9 1 40.24         8.6 0.28            110            306 158 
 LL6C HZ EP   9    9 0 44.75                             110   -20.5 0  329 358 
 LL6C HE ES        9 1 21.52                                    0.71 7  329 358 
 LL6C HZ I         9 1 28.04         6.0 0.37            110            329 358 
 CBOC HZ EP   3    9 1  6.76                             110    1.12 2  330 253 
 CBOC HN ES        9 1 41.31                             110   -0.68 7  330 253 
 CBOC HZ I         9 1 48.99         2.2 0.36            108            330 253 
 ARGC HZ EP        9 1  9.20                             108    0.08 6  362 341 
 ORTC HZ EP        9 1 13.22                             107    0.75 6  391 216 
 ORTC HN ES   3    9 1 56.56                             107    2.41 1  391 216 
 ORTC HZ I         9 2  0.19         6.1 0.13            105            391 216 
 SJC  HZ EP   3    9 1 13.01                             106   -1.91 1  412 328 
 SJC  HE ES   4    9 1 54.51                             106   -4.01 0  412 328 
 SJC  HZ I         9 2  0.92         3.0 0.52            105            412 328 
                                                                                
