 2010  322 0046 43.6 L   5.957 -73.748111.3  RSN 10 0.3 2.1LRSN                1
 GAP= 84        0.60       2.2     3.6  6.9 -0.2095E+01  0.1535E+02 -0.3118E-01E
 Epicentro: GUAVATA - SANTANDER                                                3
 ACTION:UP  10-08-24 09:55 OP:vdl  STATUS:               ID:20100322004643 L   I
 2010-03-22-0044-48S.COL___098                                                 6
 STAT SP IPHASW D HRMM SECON CODA AMPLIT PERI AZIMU VELO SNR AR TRES W  DIS CAZ7
 RUS  HZ IP        047  2.07                             144     0.110   74  95 
 RUS  HN ES   1    047 16.40                             144     0.0 7   74  95 
 RUS  HZ I         047 18.08        16.5 0.59                            74  95 
 BAR2 SZ IP        047  3.42                             136     0.210   94  42 
 BAR2 SZ ES   1    047 18.55                             136     0.0 7   94  42 
 BRR  HZ EP        047  5.78                             127    -0.110  127   2 
 BRR  HE ES   1    047 22.92                             127    -0.4 7  127   2 
 BRR  HZ I         047 23.68        23.8 0.12                           127   2 
 CHI  HZ EP        047  8.33                             123    -0.1 9  147 179 
 CHI  HE ES   1    047 27.78                             123     0.0 7  147 179 
 CHI  HZ I         047 32.59         9.5 0.26                           147 179 
 HEL  HZ EP   1    047 14.01                             114     0.1 6  199 278 
 HEL  HN ES   2    047 37.84                             114     0.3 4  199 278 
 HEL  HZ I         047 39.88         7.1 0.51                           199 278 
 RREF BZ EP   1    047 15.49                             113    -0.3 6  212 237 
 RREF BN ES   2    047 40.78                             113    -0.1 4  212 237 
 RREF BZ I         047 45.23        10.5 0.14                           212 237 
 TOL  SZ EP   1    047 17.54                             110     0.0 6  231 229 
 ANIL BE ES   2    047 47.13                             109     0.5 4  245 229 
 ANIL BZ I         047 50.26        26.4 0.29                           245 229 
 OCA  SZ EP   1    047 20.91                             108     0.7 6  257  11 
 OCA  SZ ES   2    047 48.39                             108    -0.4 4  257  11 
 OCA  SZ I         047 54.38        18.7 0.29                           257  11 
 PRA  HZ EP   1    047 22.03                             106    -0.6 6  278 207 
 PRA  HZ I         047 57.94         9.9 0.29                           278 207 
                                                                                
