 2010  322 0142 56.3 L   6.852 -72.991141.6  RSN  8 0.4 1.9LRSN                1
 GAP=199        0.67       3.2     7.8  6.2  0.3924E+01 -0.5990E+00  0.2614E+01E
 Epicentro: CEPITA - SANTANDER                                                 3
 ACTION:UP  10-08-24 09:55 OP:vdl  STATUS:               ID:20100322014256 L   I
 2010-03-22-0138-27S.COL___098                                                 6
 STAT SP IPHASW D HRMM SECON CODA AMPLIT PERI AZIMU VELO SNR AR TRES W  DIS CAZ7
 BAR2 SZ IP        143 15.91                             165     0.110   36 216 
 BAR2 SZ ES   2    143 30.85                             165    -0.1 5   36 216 
 BRR  HZ EP        143 17.76                             147    -0.110   85 290 
 BRR  HE ES   1    143 34.86                             147     0.2 7   85 290 
 BRR  HZ I         143 35.57        19.9 0.12                            85 290 
 RUS  HZ EP        143 19.96                             141    -0.210  107 185 
 RUS  HE ES   1    143 38.69                             141     0.0 7  107 185 
 RUS  HZ I         143 40.44         7.1 0.27                           107 185 
 OCA  SZ EP   1    143 24.88                             129     0.8 7  158 347 
 OCA  SZ ES   1    143 45.18                             129    -0.5 7  158 347 
 CHI  HZ EP   2    143 34.73                             115    -0.2 4  259 198 
 CHI  HN ES   2    144  5.57                             115     0.5 4  259 198 
 CHI  HZ I         144 11.39         2.8 0.42                           259 198 
 HEL  HZ EP   3    143 37.94                             112    -0.4 2  290 256 
 HEL  HN ES   3    144 10.39                             112    -0.8 2  290 256 
 HEL  HZ I         144 14.27         4.6 0.28                           290 256 
 RREF BZ EP   1    143 44.60                             109     0.4 5  339 231 
 RREF BE ES   3    144 21.81                             109     0.2 2  339 231 
 RREF BZ I         144 24.22         2.6 0.42                           339 231 
 PRA  HZ EP   1    143 50.81                             105    -0.5 4  406 211 
 PRA  HE ES   2    144 34.26                             105     0.1 3  406 211 
 PRA  HZ I         144 36.61         3.2 0.40                           406 211 
                                                                                
