 2017 1022 0001 53.2 L   6.668 -74.091 12.0  RSN  6 0.3 1.7LRSN                1
 GAP=150        0.75       2.1     2.3  5.0 -0.2117E+01 -0.5137E+01 -0.3201E+00E
 Epicentro: PUERTO PARRA - SANTANDER                                           3
 ACTION:UPD 17-11-07 19:34 OP:rebc STATUS:               ID:20171022000153 L   I
 OLDACT:UP  17-10-22 14:44 OP:dani STATUS:               ID:20171021235958     3
 OLDACT:UP  17-10-22 14:44 OP:dani STATUS:               ID:20171021235958     3
 OLDACT:REG 17-10-22 13:22 OP:dani STATUS:               ID:20171021235958     3
 2017-10-22-0000-15M.COL___423                                                 6
 STAT SP IPHASW D HRMM SECON CODA AMPLIT PERI AZIMU VELO AIN AR TRES W  DIS CAZ7
 PTB  HZ EP     D  0 2  0.21                             101   -0.1710 42.8 251 
 PTB  HE ES        0 2  5.99                             101   -0.0210 42.8 251 
 PTB  HZ I         0 2  6.21        39.4 0.16             47           42.8 251 
 BRR  HZ EP        0 2  3.42                              97   -0.1410 64.2  41 
 BRR  HE ES        0 2 11.90                              97    0.2310 64.2  41 
 BRR  HZ I         0 2 12.34        24.8 0.21             47           64.2  41 
 BAR2 EZ EP        0 2  8.79                              95   -0.5510  101  95 
 BAR2 EZ ES   4    0 2 18.88                              95   -3.07 0  101  95 
 BAR2 EZ I         0 2 23.05        25.4 0.62             47            101  95 
 SPBC HZ EP        0 2 11.29                              94    0.3810  112 179 
 SPBC HN ES        0 2 24.67                              94   -0.0910  112 179 
 SPBC HZ I         0 2 26.92        11.3 0.07             47            112 179 
 RUS  HZ EP        0 2 15.79                              93    0.17 9  141 127 
 RUS  HN ES   3    0 2 33.62                              93    0.49 2  141 127 
 RUS  HZ I         0 2 35.41        19.9 0.21             47            141 127 
 PAM  EZ EP        0 2 20.15                              56    0.48 9  171  64 
 PAM  EE ES        0 2 40.09                              56   -0.25 9  171  64 
 PAM  EZ I         0 2 42.30         6.4 0.39             47            171  64 
                                                                                
