 2011  622 0953 15.6 L   6.785 -73.105147.9  RSN 19 0.3 3.1LRSN                1
 GAP=142        0.58       2.0     3.5  3.5 -0.3195E+01  0.3153E+01  0.1149E+01E
 Epicentro: LOS SANTOS - SANTANDER                                             3
 ACTION:UP  11-07-14 19:07 OP:ep   STATUS:               ID:20110622095315 L   I
 2011-06-22-0951-37S.COL___140                                                 6
 STAT SP IPHASW D HRMM SECON CODA AMPLIT PERI AZIMU VELO SNR AR TRES W  DIS CAZ7
 BAR2 SZ EP        953 35.47                             171     0.010   23 202 
 BTL  SZ IP        953 35.62                             171     0.110   23 309 
 BTL  SZ ES   2    953 50.99                             171     0.0 5   23 309 
 BAR2 SZ I         953 36.73       162.3 0.41                            23 202 
 BAR2 SZ ES   1    953 50.92                             171    -0.1 7   23 202 
 GIR2 SZ IP        953 35.55                             166    -0.110   34 343 
 PAM  SZ EP   1    953 38.19                             151     0.2 7   76  36 
 BRR  HZ IP     C  953 37.36                             151     0.110   76 298 
 BRR  HE ES   1    953 54.38                             151     0.2 7   76 298 
 BRR  HZ I         953 57.05       282.7 0.14                            76 298 
 PAM  SN ES   1    953 55.80                             151     0.4 7   76  36 
 RUS  HZ EP   1    953 39.28                             145    -0.2 7   99 179 
 RUS  HE ES   1    953 57.85                             145    -0.2 7   99 179 
 RUS  HZ I         953 59.34       114.5 0.21                            99 179 
 BRI  SZ EP        953 40.02                             142     0.310  108  18 
 BRI  SZ ES   1    953 58.46                             142    -0.1 7  108  18 
 BRI  SZ I         954  1.83       171.2 0.22                           108  18 
 GRA  SZ IP        953 41.27                             137     0.210  126  15 
 GRA  SZ ES   1    954  0.69                             137    -0.3 7  126  15 
 GRA  SZ I         954  2.02       274.4 0.25                           126  15 
 OCA  SZ EP   1    953 44.05                             130    -0.3 7  162 352 
 OCA  SZ ES   1    954  5.90                             130    -0.8 7  162 352 
 OCA  SZ I         954 11.91       165.7 0.28                           162 352 
 NOR  SZ EP   1    953 51.16                             119    -0.6 6  237 235 
 NOR  SN ES   2    954 20.29                             119     0.3 4  237 235 
 CHI  HZ EP   1    953 53.36                             117     0.0 6  248 196 
 CHI  HN ES   1    954 22.53                             117    -0.3 6  248 196 
 ROSC BN ES   2    954 24.05                             117     0.2 4  254 212 
 ROSC BZ I         954 32.34        80.8 0.55                           254 212 
 HEL  HZ EP   1    953 56.74                             115     0.4 6  276 256 
 HEL  HN ES   2    954 28.05                             115    -0.1 4  276 256 
 HEL  HZ I         954 33.76        78.2 0.48                           276 256 
 VIL  SZ EP   1    953 59.13                             112     0.1 5  303 192 
 VIL  SN ES   2    954 32.29                             112    -0.7 4  303 192 
 VIL  SZ I         954 41.26        30.2 0.51                           303 192 
 RREF HZ EP   1    954  2.33                             111     0.2 5  324 230 
 RREF HE ES   1    954 38.61                             111     0.2 5  324 230 
 RREF HZ I         954 47.12        94.1 0.34                           324 230 
 DBB  SZ EP   1    954  3.48                             109    -0.2 5  344 274 
 TOL  SZ EP   1    954  4.61                             109     0.4 5  345 225 
 PRA  HZ EP   1    954  9.09                             107    -0.2 4  393 210 
 PRA  HN ES   2    954 51.43                             107     0.2 3  393 210 
 SJA  SZ EP   2    954 10.20                             106     0.0 3  399 194 
                                                                                
