 2016 1122 0800 18.7 L   6.877 -73.195146.0  RSN  4 0.3 0.8LRSN                1
 GAP=131        0.63       7.0     3.8  7.0  0.1730E+01  0.8973E+01 -0.1045E+02E
 Epicentro: BETULIA - SANTANDER                                                3
 ACTION:UPD 17-10-26 21:10 OP:lp   STATUS:               ID:20161122080018 L   I
 OLDACT:REG 16-11-22 13:15 OP:edw  STATUS:               ID:20161122075748     3
 2016-11-22-0758-00M.COL___349                                                 6
 STAT SP IPHASW D HRMM SECON CODA AMPLIT PERI AZIMU VELO AIN AR TRES W  DIS CAZ7
 BAR2 EZ EP        8 0 38.42                             167   -0.1710 31.5 178 
 BAR2 EZ ES        8 0 54.40                             167    0.3310 31.5 178 
 PAM  EZ EP   2    8 0 41.11                             152    0.28 5 74.9  47 
 PAM  EE ES   2    8 0 57.43                             152   -0.63 5 74.9  47 
 PTB  HZ EP        8 0 45.42                             133   -0.00 9  144 255 
 PTB  HN ES        8 1  5.97                             133   -0.26 9  144 255 
 PTB  HZ I         8 1  7.15         0.9 0.12            133            144 255 
 ZAR  HN ES        8 1 15.25                             124    0.22 9  196 290 
                                                                                
