 2014  722 0529 19.6 L   6.559 -73.702 97.5  RSN 10 0.5 1.8LRSN                1
 GAP= 74        1.01       2.6     3.8  7.5 -0.2059E+01  0.1468E+02 -0.2787E+01E
 Epicentro: EL CARMEN - SANTANDER                                              3
 ACTION:UPD 15-03-16 20:46 OP:nd   STATUS:               ID:20140722052919 L   I
 OLDACT:UP  14-07-22 15:00 OP:mh   STATUS:               ID:20140722052818     3
 OLDACT:REG 14-07-22 12:29 OP:mh   STATUS:               ID:20140722052818     3
 2014-07-22-0528-18M.COL___269                                                 6
 STAT SP IPHASW D HRMM SECON CODA AMPLIT PERI AZIMU VELO AIN AR TRES W  DIS CAZ7
 BAR2 SZ EP     C  529 35.71                             148    0.5210 57.6  86 
 BAR2 SZ ES   1    529 47.57                             148    0.24 7 57.6  86 
 BAR2 SZ I         529 48.87        20.5 0.25            150           57.6  86 
 BRR  HZ EP     C  529 35.18                             146    0.1310 60.6 359 
 BRR  HN ES        529 47.49                             146    0.4010 60.6 359 
 BRR  HZ I         529 48.36        18.2 0.09            144           60.6 359 
 PTB  HZ EP   4    529 35.21                             136   -1.64 0 83.4 269 
 PTB  HN ES   4    529 47.66                             136   -2.63 0 83.4 269 
 RUS  HZ EP   1    529 39.19                             131    0.16 7  101 137 
 RUS  HN ES        529 53.95                             131   -0.2210  101 137 
 SPBC HZ EP   1    529 38.86                             129   -0.36 7  108 202 
 SPBC HN ES        529 53.75                             129   -0.7610  108 202 
 SPBC HZ I         529 57.17         9.0 0.09            130            108 202 
 ZAR  HZ EP        529 45.22                             116    0.26 9  164 309 
 ZAR  HN ES   1    530  5.12                             116    0.40 7  164 309 
 ZAR  HZ I         530  9.16        12.9 0.16            115            164 309 
 NOR  HZ EP   1    529 45.50                             116   -0.13 7  170 230 
 NOR  HN ES   1    530  5.84                             116   -0.08 7  170 230 
 NOR  HZ I         530  8.17         7.0 0.08            115            170 230 
 OCA  HZ EP   4    529 45.81                             113   -2.29 0  190  13 
 OCA  HE ES        530  9.58                             113   -0.72 9  190  13 
 OCA  HZ I         530 20.48         5.9 0.15            112            190  13 
 HEL  HZ EP   1    529 50.62                             111    0.46 6  206 259 
 HEL  HN ES   1    530 13.74                             111   -0.23 6  206 259 
 HEL  HZ I         530 17.16         7.0 0.24            110            206 259 
 GUY2CHZ EP        529 54.60                             108    0.84 8  236 231 
 GUY2CHN ES        530 20.37                             108   -0.02 8  236 231 
 SML  HZ EP        529 54.60                             107   -0.36 8  251 351 
 SML  HN ES   1    530 21.70                             107   -0.82 6  251 351 
                                                                                
