 2013 1222 0613  2.0 L   6.792 -73.166145.2  RSN  9 0.3 1.7LRSN                1
 GAP=134        0.72       2.7     3.5  5.4 -0.2670E+01  0.6605E+01 -0.1742E+01E
 Epicentro: LOS SANTOS - SANTANDER                                             3
 ACTION:UPD 14-01-13 10:20 OP:ep   STATUS:               ID:20131222061302 L   I
 OLDACT:DUP 13-12-22 12:23 OP:jn   STATUS:               ID:20131222061001d    3
 OLDACT:REG 13-12-22 09:35 OP:jn   STATUS:               ID:20131222061000     3
 2013-12-22-0610-00M.COL___285                                                 6
 STAT SP IPHASW D HRMM SECON CODA AMPLIT PERI AZIMU VELO AIN AR TRES W  DIS CAZ7
 BAR2 SZ EP        613 21.69                             171    0.1810 22.2 185 
 BAR2 SZ ES        613 36.70                             171   -0.0610 22.2 185 
 BAR2 SZ I         613 37.92        18.9 0.38            166           22.2 185 
 PAM  SZ EP        613 24.49                             150    0.2310 79.5  40 
 PAM  SN ES        613 41.83                             150    0.1910 79.5  40 
 PAM  SZ I         613 43.82         7.8 0.54            146           79.5  40 
 RUS  HZ EP        613 25.63                             144    0.0110 99.9 175 
 RUS  HN ES        613 43.38                             144   -0.6910 99.9 175 
 RUS  HZ I         613 45.43         4.6 0.26            136           99.9 175 
 PTB  HZ EP        613 28.34                             132   -0.34 9  145 259 
 PTB  HN ES        613 49.56                             132    0.06 9  145 259 
 PTB  HZ I         613 57.00         7.2 0.42            123            145 259 
 SPBC HZ EP        613 30.50                             129    0.27 9  161 219 
 SPBC HN ES        613 52.61                             129    0.34 9  161 219 
 SPBC HZ I         613 55.22         6.6 0.44            120            161 219 
 OCA  HN ES   1    613 52.43                             129    0.05 7  161 354 
 OCA  HZ I         613 56.81         5.7 0.32            122            161 354 
 ZAR  HN ES   2    613 59.36                             122    0.03 4  202 293 
 NOR  HN ES   1    614  5.31                             118    0.25 6  232 234 
 NOR  HZ I         614 11.65         3.2 0.14            111            232 234 
 SML  HZ EP   2    613 37.98                             117   -0.57 4  244 336 
 SML  HN ES   1    614  6.61                             117   -0.46 6  244 336 
                                                                                
