 2015  822 0505 30.5 L   6.802 -73.120143.1  RSN  5 0.3 1.3LRSN                1
 GAP=140        0.69       3.3     5.4  6.3  0.2258E+00 -0.1691E+01  0.5090E+00E
 Epicentro: LOS SANTOS - SANTANDER                                             3
 ACTION:UPD 15-09-15 23:04 OP:cam  STATUS:               ID:20150822050530 L   I
 OLDACT:REG 15-08-22 14:16 OP:spq  STATUS:               ID:20150822045747     3
 2015-08-22-0457-47M.COL___348                                                 6
 STAT SP IPHASW D HRMM SECON CODA AMPLIT PERI AZIMU VELO AIN AR TRES W  DIS CAZ7
 BAR2 EZ EP        5 5 49.88                             170    0.0610 24.2 197 
 BAR2 EZ ES   1    5 6  4.46                             170   -0.43 7 24.2 197 
 BAR2 EZ I         5 6  5.47         5.4 0.34            171           24.2 197 
 BRR  HZ EP        5 5 51.37                             151   -0.1210 73.6 297 
 BRR  HN ES        5 6  8.25                             151    0.3810 73.6 297 
 BRR  HZ I         5 6 11.73         4.1 0.48            151           73.6 297 
 PAM  EZ EP        5 5 52.59                             151    0.2910 75.4  38 
 PAM  EN ES        5 6  9.45                             151    0.1310 75.4  38 
 PAM  EZ I         5 6 11.48         4.5 0.50            153           75.4  38 
 RUS  HZ EP   1    5 5 53.94                             143   -0.04 7  101 178 
 RUS  HN ES   1    5 6 12.14                             143   -0.17 7  101 178 
 RUS  HZ I         5 6 13.71         1.1 0.22            146            101 178 
 OCA  HE ES        5 6 20.08                             129   -0.46 9  160 352 
 OCA  HZ I         5 6 22.51         6.3 0.18            131            160 352 
                                                                                
