 2010  922 0426  0.8 L   6.782 -73.155147.1  RSN  4 0.3 1.3LRSN                1
 GAP=158        0.76       5.5     9.8 11.4 -0.9924E+01 -0.3735E+02  0.1172E+02E
 Epicentro: LOS SANTOS - SANTANDER                                             3
 ACTION:UP  11-02-18 11:04 OP:tino STATUS:               ID:20100922042560 L   I
 2010-09-22-0423-37S.COL___122                                                 6
 STAT SP IPHASW D HRMM SECON CODA AMPLIT PERI AZIMU VELO SNR AR TRES W  DIS CAZ7
 BTL  SZ EP        426 20.35                             173    -0.210   20 321 
 BRR  HZ EP        426 21.87                             154    -0.210   71 300 
 BRR  HN ES   1    426 38.98                             154     0.3 7   71 300 
 BRR  HZ I         426 39.61         4.5 0.12                            71 300 
 RUS  HZ EP   1    426 24.52                             145     0.0 7   99 175 
 RUS  HE ES   2    426 43.21                             145     0.2 5   99 175 
 RUS  HZ I         426 44.78         2.3 0.27                            99 175 
 GRA  SZ EP   1    426 26.98                                     0.6 7  128  18 
 GRA  SZ ES   1    426 45.96                             139    -0.3 7  128  18 
 GRA  SZ I         426 46.64         4.3 0.31                           128  18 
                                                                                
