 2010 1222 0516 41.9 L   6.840 -73.139146.0  RSN  4 0.3 1.5LRSN                1
 GAP=229        0.66       7.4    13.0  9.5  0.6372E+02  0.5389E+02  0.9436E+01E
 Epicentro: LOS SANTOS - SANTANDER                                             3
 ACTION:UP  11-01-14 15:26 OP:pat  STATUS:               ID:20101222051641 L   I
 2010-12-22-0500-00M.COL___135                                                 6
 STAT SP IPHASW D HRMM SECON CODA AMPLIT PERI AZIMU VELO SNR AR TRES W  DIS CAZ7
 BAR2 SZ EP   1    517  1.93                             169     0.3 7   28 190 
 BAR2 SZ ES   2    517 17.41                             169     0.4 5   28 190 
 BAR2 SZ I         517 18.69         8.6 0.46                            28 190 
 RUS  HZ EP   1    517  5.87                             143    -0.1 7  105 177 
 RUS  HE ES   1    517 24.36                             143    -0.4 7  105 177 
 RUS  HZ I         517 25.83         2.9 0.42                           105 177 
 CHI  HZ EP   1    517 19.98                             117    -0.1 6  253 195 
 CHI  HE ES   2    517 50.47                             117     0.6 4  253 195 
 CHI  HZ I         517 58.15         2.1 0.61                           253 195 
 MON  HE ES   1    518  8.40                             109    -0.2 5  351 308 
 MON  HZ I         518  9.80         1.7 0.65                           351 308 
                                                                                
