 2017  722 0305 18.3 L   5.905 -73.793115.9  RSN  4 0.2 1.4LRSN                1
 GAP=186        0.47       3.0     3.0  5.6 -0.1830E+01 -0.4477E+01 -0.5456E+01E
 Epicentro: SUCRE - SANTANDER                                                  3
 ACTION:UPD 17-08-30 15:35 OP:rebc STATUS:               ID:20170722030518 L   I
 OLDACT:REG 17-07-22 13:11 OP:dnl  STATUS:               ID:20170722025742     3
 2017-07-22-0258-00M.COL___386                                                 6
 STAT SP IPHASW D HRMM SECON CODA AMPLIT PERI AZIMU VELO AIN AR TRES W  DIS CAZ7
 SPBC HZ EP   2    3 5 34.30                             159   -0.43 5 41.7 228 
 SPBC HN ES        3 5 47.54                             159   -0.0410 41.7 228 
 SPBC HZ I         3 5 48.73         8.6 0.22            161           41.7 228 
 BAR2 EZ I         3 5 56.22        11.3 0.46            137            102  42 
 PTB  HZ I         3 5 55.84         1.5 0.10            136            102 314 
 BAR2 EZ EP        3 5 39.22                             136    0.2710  102  42 
 BAR2 EZ ES        3 5 55.07                             136   -0.0210  102  42 
 PTB  HZ EP   2    3 5 38.56                             135   -0.07 5  102 314 
 PTB  HN ES        3 5 54.67                             135    0.1510  102 314 
 BRR  HZ EP   2    3 5 41.32                             127   -0.19 5  133   4 
 BRR  HE ES        3 5 59.44                             127   -0.2110  133   4 
 BRR  HZ I         3 6  2.95         7.6 0.66            128            133   4 
                                                                                
