 2014 1122 0809 36.5 L   6.795 -73.155148.3  RSN 10 0.4 1.5LRSN                1
 GAP=136        1.02       3.5     4.3  6.4 -0.1371E+01  0.1079E+02  0.2405E+01E
 Epicentro: LOS SANTOS - SANTANDER                                             3
 ACTION:UPD 14-12-19 15:45 OP:nd   STATUS:               ID:20141122080936 L   I
 OLDACT:REG 14-11-22 13:53 OP:fm   STATUS:               ID:20141122080749     3
 2014-11-22-0807-49M.COL___306                                                 6
 STAT SP IPHASW D HRMM SECON CODA AMPLIT PERI AZIMU VELO AIN AR TRES W  DIS CAZ7
 BAR2 SZ EP        8 9 56.66                             171    0.2010 22.6 188 
 BAR2 SZ ES        810 11.77                             171   -0.2310 22.6 188 
 BAR2 SZ I         810 15.10         5.6 0.40            171           22.6 188 
 BRR  HZ EP        8 9 58.21                             153    0.2910 70.5 299 
 BRR  HE ES        810 15.50                             153    0.9010 70.5 299 
 BRR  HZ I         810 18.58         4.8 0.14            152           70.5 299 
 PAM  SE ES        810 16.37                             151   -0.3110 78.5  40 
 RUS  HZ EP        810  1.02                             144    0.5110  100 175 
 RUS  HN ES        810 19.14                             144   -0.0610  100 175 
 RUS  HZ I         810 20.28         3.3 0.24            148            100 175 
 PTB  HZ EP        810  2.82                             133   -0.79 9  147 259 
 PTB  HN ES        810 24.52                             133   -0.20 9  147 259 
 PTB  HZ I         810 26.78         6.3 0.12            133            147 259 
 OCA  HE ES        810 26.96                             130   -0.39 9  161 354 
 OCA  HZ I         810 34.78         2.4 0.14            132            161 354 
 SPBC HZ EP        810  4.99                             130   -0.14 9  162 219 
 SPBC HN ES        810 27.25                             130   -0.18 9  162 219 
 SPBC HZ I         810 33.76         6.0 0.28            132            162 219 
 ZAR  HZ EP        810  9.39                             123    0.32 9  203 292 
 ZAR  HN ES        810 34.24                             123   -0.20 9  203 292 
 ZAR  HZ I         810 37.56         2.9 0.12            124            203 292 
 NOR  HZ EP        810 12.44                             119    0.15 8  233 234 
 NOR  HN ES        810 39.81                             119   -0.36 8  233 234 
 NOR  HZ I         810 44.57         3.3 0.16            121            233 234 
 HEL  HN ES        810 48.47                             115    0.35 8  271 256 
 HEL  HZ I         810 55.03         1.5 0.24            117            271 256 
                                                                                
