 2017 1222 0210  1.8 L   6.825 -73.183141.9  RSN  7 0.4 1.6LRSN                1
 GAP=107        0.91       3.1     3.7  6.6 -0.8986E+00  0.7332E+01 -0.1042E+01E
 Epicentro: ZAPATOCA - SANTANDER                                               3
 ACTION:UPD 18-01-04 13:22 OP:rebc STATUS:               ID:20171222021001 L   I
 OLDACT:UP  17-12-22 14:47 OP:dani STATUS:               ID:20171222020231     3
 OLDACT:UP  17-12-22 14:46 OP:dani STATUS:               ID:20171222020231     3
 OLDACT:REG 17-12-22 12:44 OP:dani STATUS:               ID:20171222020231     3
 2017-12-22-0208-00M.COL___468                                                 6
 STAT SP IPHASW D HRMM SECON CODA AMPLIT PERI AZIMU VELO AIN AR TRES W  DIS CAZ7
 BAR2 EZ EP        210 20.67                             169   -0.3010 25.7 180 
 BAR2 EZ ES        210 35.95                             169    0.0010 25.7 180 
 BAR2 EZ I         210 37.33        13.2 0.26            171           25.7 180 
 PAM  EZ EP        210 23.66                             150    0.0710 78.0  43 
 PAM  EE ES        210 40.60                             150   -0.0310 78.0  43 
 PAM  EZ I         210 42.90         5.2 0.58            154           78.0  43 
 PTB  HZ EP        210 27.54                             132   -0.55 9  144 257 
 PTB  HN ES        210 48.24                             132   -0.39 9  144 257 
 PTB  HZ I         210 53.66         3.7 0.12            132            144 257 
 OCA  HZ EP        210 30.00                             129    0.54 9  157 355 
 OCA  HN ES        210 50.82                             129   -0.25 9  157 355 
 OCA  HZ I         210 54.02         9.6 0.15            131            157 355 
 SPBC HZ EP        210 29.95                             128    0.03 9  163 217 
 SPBC HN ES        210 52.25                             128    0.36 9  163 217 
 SPBC HZ I         210 54.21         7.4 0.24            130            163 217 
 YPLC HE ES        210 55.27                             125    0.20 9  181 151 
 ZAR  HZ EP        210 33.13                             122   -0.31 9  199 292 
 ZAR  HN ES        210 58.95                             122    0.79 9  199 292 
 ZAR  HZ I         211  7.18         3.1 0.21            123            199 292 
 GUY2CHN ES   4    211 22.88                             112    4.17 0  299 234 
                                                                                
