 2016 1222 0916 32.1 L   6.786 -73.132144.0  RSN  8 0.4 1.6LRSN                1
 GAP=121        0.99       4.0     4.2  6.1  0.2044E+01  0.2871E+01  0.7305E+01E
 Epicentro: LOS SANTOS - SANTANDER                                             3
 ACTION:UPD 17-01-11 20:17 OP:rebc STATUS:               ID:20161222091632 L   I
 OLDACT:UP  16-12-22 16:58 OP:cog  STATUS:               ID:20161222090747d    3
 OLDACT:UP  16-12-22 16:58 OP:cog  STATUS:               ID:20161222090747d    3
 OLDACT:UP  16-12-22 16:57 OP:cog  STATUS:               ID:20161222090747d    3
 OLDACT:DUP 16-12-22 16:47 OP:cog  STATUS:               ID:20161222090747d    3
 2016-12-22-0908-00M.COL___347                                                 6
 STAT SP IPHASW D HRMM SECON CODA AMPLIT PERI AZIMU VELO AIN AR TRES W  DIS CAZ7
 BAR2 EZ EP        916 51.66                             171    0.1210 22.1 195 
 BAR2 EZ ES        917  6.46                             171   -0.2010 22.1 195 
 BAR2 EZ I         917  7.48        10.9 0.32            169           22.1 195 
 BRR  HZ EP        916 53.58                             151    0.3610 73.3 299 
 BRR  HN ES        917  9.98                             151    0.3210 73.3 299 
 BRR  HZ I         917 12.12        15.9 0.16            152           73.3 299 
 PAM  EZ EP        916 54.48                             150    0.2910 77.7  38 
 PAM  EN ES        917 11.06                             150   -0.3210 77.7  38 
 PAM  EZ I         917 12.18         4.5 0.28            153           77.7  38 
 RUS  HZ EP        916 55.66                             144    0.0610 98.9 177 
 RUS  HN ES        917 13.94                             144    0.0410 98.9 177 
 RUS  HZ I         917 15.40         4.0 0.34            144           98.9 177 
 PTB  HZ EP        916 58.42                             131   -0.66 9  149 260 
 PTB  HN ES        917 19.52                             131   -0.56 9  149 260 
 PTB  HZ I         917 22.14         7.1 0.18            132            149 260 
 ZAR  HZ EP   4    917  5.83                             122    1.15 0  206 292 
 ZAR  HN ES        917 30.32                             122    0.26 8  206 292 
 CHI  HZ EP        917 10.15                             117    0.53 8  248 196 
 CHI  HN ES        917 39.32                             117    0.47 8  248 196 
 CHI  HZ I         917 44.65         1.6 0.22            117            248 196 
 GUY2CHZ EP   4    917 18.03                             112    2.32 0  302 235 
 GUY2CHN ES   4    917 50.80                             112    1.11 0  302 235 
 PTGC HZ EP        917 14.85                             111   -0.84 7  307 159 
 PTGC HN ES   4    917 48.21                             111   -1.45 0  307 159 
                                                                                
