 2010  422 0334 27.2 L   6.764 -73.106150.7  RSN  9 0.6 2.1LRSN                1
 GAP=147        1.12       7.0    11.6  9.5 -0.3224E+02 -0.4128E+02  0.9111E+01E
 Epicentro: LOS SANTOS - SANTANDER                                             3
 ACTION:UP  10-08-24 10:00 OP:vdl  STATUS:               ID:20100422033439 L   I
 2010-04-22-0331-36S.COL___104                                                 6
 STAT SP IPHASW D HRMM SECON CODA AMPLIT PERI AZIMU VELO AIN AR TRES W  DIS CAZ7
 BAR2 SZ IP        334 47.06                             172    -0.310   21 204 
 BAR2 SZ ES   1    335  2.61                             172    -0.5 7   21 204 
 GIR2 SZ EP   2    334 47.17                             165    -0.4 5   36 345 
 GIR2 SZ ES   2    335  3.13                             165    -0.3 5   36 345 
 BRR  HZ IP     C  334 49.40                             151     0.210   77 300 
 BRR  HE ES   1    335  6.68                             151     0.3 7   77 300 
 BRR  HZ I         335  8.18        21.9 0.14                            77 300 
 GRA  SZ IP        334 53.88                             137     0.810  128  15 
 GRA  SZ ES   1    335 13.77                             137     0.5 7  128  15 
 OCA  SZ EP   1    334 55.55                             129    -0.7 7  165 352 
 OCA  SZ ES   2    335 18.19                             129    -0.8 5  165 352 
 OCA  SZ I         335 22.08        28.7 0.28                           165 352 
 CHI  HZ EP   2    335  5.33                             118     0.5 4  246 196 
 CHI  HE ES   2    335 34.82                             118     0.6 4  246 196 
 CHI  HZ I         335 37.95         5.9 0.53                           246 196 
 HEL  HN ES   3    335 38.78                             115    -1.1 2  275 257 
 HEL  HZ I         335 46.05         4.0 0.31                           275 257 
 SDV  BZ IP     C  335 16.46                             109    -0.9 6  360  49 
 PRA  HZ EP   2    335 20.97                             107     0.3 3  391 210 
 PRA  HZ I         336  8.60         4.3 0.34                           391 210 
                                                                                
