 2017  222 0209 54.0 L   5.903 -73.683120.7  RSN  4 0.3 0.7LRSN                1
 GAP=218        0.82       6.0     4.9  9.0  0.1229E+02  0.1890E+02  0.8741E+01E
 Epicentro: PUENTE NACIONAL - SANTANDER                                        3
 ACTION:UPD 17-05-24 15:39 OP:jn   STATUS:               ID:20170222020954 L   I
 OLDACT:REG 17-02-22 12:47 OP:cog  STATUS:               ID:20170222020742     3
 2017-02-22-0208-00M.COL___382                                                 6
 STAT SP IPHASW D HRMM SECON CODA AMPLIT PERI AZIMU VELO AIN AR TRES W  DIS CAZ7
 RUS  HZ EP        210 12.47                             150   -0.4010 66.4  91 
 RUS  HN ES        210 27.63                             150    0.0210 66.4  91 
 RUS  HZ I         210 28.28         0.8 0.10            154           66.4  91 
 BAR2 EZ ES        210 30.88                             140    0.4110 94.2  36 
 PTB  HZ EP        210 15.94                             134    0.3910  111 309 
 PTB  HN ES        210 32.28                             134   -0.1110  111 309 
 PTB  HZ I         210 34.72         1.2 0.26            136            111 309 
 BRR  HZ EP        210 17.65                             129    0.0810  133 359 
 BRR  HN ES        210 35.56                             129   -0.4210  133 359 
                                                                                
