 2013  222 0617 28.6 L   6.685 -73.577100.0  RSN  5 0.4 1.2LRSN                1
 GAP=121        0.80       7.3     5.1 10.0  0.1523E+02  0.1408E+02 -0.1184E+02E
 Epicentro: EL CARMEN DE CHUCURI - SANTANDER                                   3
 ACTION:UPD 13-03-12 09:34 OP:ep   STATUS:               ID:20130222061728 L   I
 2013-02-22-0610-00M.COL___238                                                 6
 STAT SP IPHASW D HRMM SECON CODA AMPLIT PERI AZIMU VELO AIN AR TRES W  DIS CAZ7
 BAR2 SZ EP   1    617 43.31                             154   -0.36 7 44.8 103 
 BAR2 SZ ES   1    617 55.64                             154    0.22 7 44.8 103 
 BAR2 SZ I         617 56.70         9.5 0.50             47           44.8 103 
 BRR  HZ EP   1    617 43.23                             152   -0.33 7 49.0 342 
 PTB  HZ EP   1    617 46.86                             131   -0.53 7 98.6 261 
 PTB  HN ES   1    618  2.08                             131    0.05 7 98.6 261 
 RUS  HZ EP   1    617 48.47                             131    0.01 7  103 148 
 RUS  HN ES   1    618  4.15                             131    0.21 7  103 148 
 RUS  HZ I         618  6.12         2.3 0.22             47            103 148 
 ZAR  HZ EP   1    617 55.30                             115    0.88 7  167 302 
 ZAR  HZ I         618 20.43         1.7 0.09             47            167 302 
                                                                                
