 2017 1222 0758  1.3 L   6.863 -73.184148.0  RSN  6 0.4 1.3LRSN                1
 GAP=134        0.98       4.3     4.8  7.8 -0.6174E+01  0.1422E+02 -0.1255E+01E
 Epicentro: ZAPATOCA - SANTANDER                                               3
 ACTION:UPD 18-01-04 13:23 OP:rebc STATUS:               ID:20171222075801 L   I
 OLDACT:DUP 17-12-22 16:17 OP:EDW  STATUS:               ID:20171222075130d    3
 OLDACT:UP  17-12-22 16:16 OP:EDW  STATUS:               ID:20171222075129     3
 OLDACT:REG 17-12-22 13:18 OP:dani STATUS:               ID:20171222075129     3
 2017-12-22-0758-00M.COL___454                                                 6
 STAT SP IPHASW D HRMM SECON CODA AMPLIT PERI AZIMU VELO AIN AR TRES W  DIS CAZ7
 BAR2 EZ EP        758 21.16                             168   -0.2010 29.9 180 
 BAR2 EZ ES        758 37.06                             168    0.0610 29.9 180 
 PAM  EZ EP     C  758 24.10                             152    0.4610 75.1  45 
 PAM  EN ES        758 41.38                             152    0.3310 75.1  45 
 PAM  EZ I         758 43.96         2.8 0.54            157           75.1  45 
 PTB  HZ EP        758 27.99                             133   -0.24 9  145 256 
 PTB  HE ES        758 49.31                             133    0.08 9  145 256 
 PTB  HZ I         758 53.86         1.7 0.20            135            145 256 
 OCA  HN ES        758 49.93                             132   -0.88 9  153 354 
 SPBC HZ EP        758 30.14                             129   -0.12 9  166 216 
 SPBC HN ES        758 52.50                             129   -0.34 9  166 216 
 SPBC HZ I         758 58.94         3.9 0.20            131            166 216 
 ZAR  HZ EP        758 33.58                             124    0.33 9  198 291 
 ZAR  HE ES        758 58.65                             124    0.50 9  198 291 
                                                                                
