 2012 1122 0100 56.6 L   6.774 -73.175140.0  RSN  4 0.1 1.3LRSN                1
 GAP=140        0.29       2.0     2.2  3.7 -0.1041E+01  0.2750E+01 -0.8592E+00E
 Epicentro: LOS SANTOS - SANTANDER                                             3
 ACTION:UPD 12-12-05 15:35 OP:}ep  STATUS:               ID:20121122010056 L   I
 2012-11-22-0100-00M.COL___234                                                 6
 STAT SP IPHASW D HRMM SECON CODA AMPLIT PERI AZIMU VELO AIN AR TRES W  DIS CAZ7
 PAM  SZ EP   1    1 1 18.40                             148   -0.03 7 81.7  40 
 PAM  SZ I         1 1 18.77         4.4 0.22                          81.7  40 
 PAM  SN ES   1    1 1 35.53                             148    0.04 7 81.7  40 
 RUS  HZ EP   1    1 1 19.57                             143    0.02 7 98.0 174 
 RUS  HE ES        1 1 37.48                             143   -0.0110 98.0 174 
 RUS  HE I         1 1 39.31         5.2 0.50                          98.0 174 
 PTB  HZ EP   1    1 1 22.61                             131   -0.10 7  144 260 
 PTB  HE ES   1    1 1 43.18                             131    0.06 7  144 260 
 PTB  HZ I         1 1 49.41         2.6 0.39                           144 260 
 CHI  HZ EP   2    1 1 33.67                             116    0.13 4  245 195 
 CHI  HZ I         1 2  7.24         1.0 0.22                           245 195 
                                                                                
