 2011  922 0714 33.8 L   6.540 -73.539110.9  RSN  5 0.2 1.6LRSN                1
 GAP=161        0.51       5.4     6.9  6.0  0.3076E+02  0.2440E+02  0.1627E+02E
 Epicentro: EL CARMEN DE CHUCURI - SANTANDER                                   3
 ACTION:UPD 12-07-13 15:59 OP:ep   STATUS:               ID:20110922071433 L   I
 2011-09-22-0710-53S.COL___152                                                 6
 STAT SP IPHASW D HRMM SECON CODA AMPLIT PERI AZIMU VELO AIN AR TRES W  DIS CAZ7
 BAR2 SZ EP        714 50.08                             158    0.2310 39.8  82 
 BAR2 SZ ES   1    715  2.45                             158    0.09 7 39.8  82 
 BAR2 SZ I         715  3.83        29.0 0.45                          39.8  82 
 BTL  SZ EP   1    714 50.65                             153    0.22 7 51.5  36 
 BRR  HZ EP        714 50.72                             147   -0.2210 65.6 343 
 BRR  HZ I         714 59.00         6.1 0.10                          65.6 343 
 BRR  HN ES        715  4.17                             147   -0.1210 65.6 343 
 RUS  HZ EP   1    714 52.83                             139   -0.41 7 87.5 145 
 RUS  HE ES   1    715  8.47                             139    0.08 7 87.5 145 
 ZAR  HZ EP   1    715  1.75                             117    0.17 7  180 306 
 ZAR  HN ES   2    715 23.48                             117    0.24 4  180 306 
 ZAR  HZ I         715 27.23         4.8 0.32                           180 306 
                                                                                
