 2017  722 0851 53.9 L   7.177 -73.580 23.2  RSN  6 0.6 1.3LRSN                1
 GAP=156        1.48       4.9     3.1  3.9  0.1997E+01  0.3284E+01  0.1615E+01E
 Epicentro: SABANA DE TORRES - SANTANDER                                       3
 ACTION:UPD 17-08-30 15:35 OP:rebc STATUS:               ID:20170722085153 L   I
 OLDACT:REG 17-07-22 13:18 OP:dnl  STATUS:               ID:20170722084728     3
 2017-07-22-0848-00M.COL___377                                                 6
 STAT SP IPHASW D HRMM SECON CODA AMPLIT PERI AZIMU VELO AIN AR TRES W  DIS CAZ7
 BRR  HZ IP     C  851 58.58                             143    0.0610 16.5 242 
 BRR  HE ES        852  2.62                             143    0.5010 16.5 242 
 BRR  HZ I         852  3.10        35.6 0.40            142           16.5 242 
 BAR2 EZ EP        852  6.92                             105   -0.0710 78.2 146 
 BAR2 EZ ES        852 16.47                             105   -0.7210 78.2 146 
 BAR2 EZ I         852 18.23        14.1 0.38            104           78.2 146 
 PAM  EZ EP        852 10.43                             102    0.1210 98.9  79 
 PAM  EN ES        852 22.70                             102   -0.3910 98.9  79 
 PAM  EZ I         852 24.26         6.5 0.22            101           98.9  79 
 PTB  HZ EP        852 11.84                              56   -0.6810  120 234 
 PTB  HN ES        852 26.22                              56   -0.8110  120 234 
 PTB  HZ I         852 26.85         4.3 0.12             56            120 234 
 ZAR  HZ EP        852 16.14                              56    0.44 9  145 284 
 ZAR  HE ES        852 32.60                              56   -0.09 9  145 284 
 ZAR  HZ I         852 33.78         8.6 0.30             56            145 284 
 RUS  HZ EP        852 18.10                              56    0.94 9  152 159 
 RUS  HN ES        852 36.23                              56    0.94 9  152 159 
 RUS  HZ I         852 38.67         4.9 0.32             56            152 159 
                                                                                
