 2013  622 0646 14.7 L   6.821 -73.149147.0  RSN 13 0.5 2.2LRSN                1
 GAP=183        0.90       3.0     5.0  5.8 -0.1808E+01  0.8526E+01  0.4118E+01E
 Epicentro: LOS SANTOS - SANTANDER                                             3
 ACTION:UPD 14-01-08 09:56 OP:ep   STATUS:               ID:20130622064614 L   I
 OLDACT:REG 13-06-22 09:01 OP:carl STATUS:               ID:20130622063959     3
 2013-06-22-0639-59M.COL___267                                                 6
 STAT SP IPHASW D HRMM SECON CODA AMPLIT PERI AZIMU VELO AIN AR TRES W  DIS CAZ7
 BAR2 SZ IP     D  646 34.58                             170    0.0110 25.6 188 
 BAR2 SZ ES   1    646 49.67                             170   -0.36 7 25.6 188 
 BAR2 SZ I         646 52.26        27.6 0.34            167           25.6 188 
 GIR2 SZ IP     D  646 34.72                             168    0.2210 28.9 350 
 GIR2 SZ ES   1    646 50.33                             168    0.42 7 28.9 350 
 BRR  HZ IP     C  646 36.47                             153    0.5210 69.8 297 
 BRR  HN ES   1    646 53.62                             153    1.13 7 69.8 297 
 BRR  HZ I         646 54.50        24.3 0.12            148           69.8 297 
 RUS  HZ EP        646 38.48                             143   -0.3010  103 176 
 RUS  HN ES   1    646 57.29                             143   -0.25 7  103 176 
 RUS  HZ I         646 58.09        13.8 0.32            144            103 176 
 PTB  HZ EP   1    646 41.40                             132   -0.42 7  148 258 
 PTB  HN ES   1    647  2.40                             132   -0.55 7  148 258 
 PTB  HZ I         647  6.02        17.6 0.12            130            148 258 
 OCA  HN ES        647  4.44                             130   -0.47 9  158 353 
 OCA  HN I         647  9.00        43.6 0.20            130            158 353 
 NOR  HZ EP   1    646 51.13                             119    0.47 6  236 234 
 NOR  HN ES   1    647 18.40                             119   -0.27 6  236 234 
 NOR  HZ I         647 25.71        15.7 0.16            118            236 234 
 SML  HZ EP   1    646 51.26                             118    0.07 6  241 335 
 SML  HN ES   1    647 18.61                             118   -1.01 6  241 335 
 SML  HZ I         647 27.23        12.6 0.10            118            241 335 
 CHI  HZ EP   1    646 52.73                             117   -0.01 6  251 195 
 CHI  HN ES   1    647 21.87                             117   -0.51 6  251 195 
 CHI  HZ I         647 30.11         5.3 0.54            117            251 195 
 HEL  HZ EP   1    646 55.51                             115    0.47 6  272 255 
 HEL  HN ES   1    647 26.08                             115   -0.40 6  272 255 
 HEL  HZ I         647 34.86         5.7 0.24            114            272 255 
 GUY2CHZ EP   1    646 59.21                             112    0.68 5  302 234 
 GUY2CHN ES   1    647 32.70                             112    0.02 5  302 234 
 GUY2CHZ I         647 42.40         7.4 0.28                           302 234 
 PRA  HZ EP   1    647  8.85                             107    0.33 4  394 209 
 PRA  HN ES   1    647 50.30                             107   -0.17 4  394 209 
 PRA  HZ I         647 57.87         5.3 0.32            107            394 209 
 ORTC HZ EP   1    647  9.08                             106    0.18 4  397 216 
 ORTC HN ES        647 51.28                             106    0.14 6  397 216 
                                                                                
