 2013  122 0528 34.6 L   6.781 -73.136139.3  RSN  5 0.6 1.4LRSN                1
 GAP=156        1.61      12.4     9.0 12.1 -0.4020E+02 -0.1227E+01  0.5624E+02E
 Epicentro: LOS SANTOS - SANTANDER                                             3
 ACTION:UPD 13-02-15 09:15 OP:ep   STATUS:               ID:20130122052834 L   I
 2013-01-22-0518-37M.COL___180                                                 6
 STAT SP IPHASW D HRMM SECON CODA AMPLIT PERI AZIMU VELO AIN AR TRES W  DIS CAZ7
 BAR2 SZ EP        528 53.47                             171    0.1010 21.5 194 
 BAR2 SZ ES        529  8.30                             171    0.2610 21.5 194 
 BAR2 SZ I         529 10.27         4.8 0.18            172           21.5 194 
 BRR  HZ EP        528 55.60                             151    0.4810 73.1 300 
 BRR  HN ES        529 12.11                             151    0.9510 73.1 300 
 BRR  HN I         529 16.54         7.6 0.16            150           73.1 300 
 PAM  SZ EP        528 56.47                             149    0.3210 78.4  38 
 PAM  SN ES        529 11.98                             149   -1.0010 78.4  38 
 PTB  HZ EP        529  0.63                             130   -0.43 9  148 260 
 PTB  HN ES        529 20.74                             130   -0.99 9  148 260 
 CHI  HZ EP        529 11.91                             116    0.20 8  247 196 
                                                                                
