 2017  722 0920 45.0 L   6.627 -73.528106.0  RSN  5 0.3 1.3LRSN                1
 GAP=117        0.69       4.2     3.7  6.3  0.6430E+01  0.8580E+01  0.4910E+01E
 Epicentro: EL CARMEN - SANTANDER                                              3
 ACTION:UPD 17-08-30 15:35 OP:rebc STATUS:               ID:20170722092045 L   I
 OLDACT:REG 17-07-22 13:19 OP:dnl  STATUS:               ID:20170722091740     3
 2017-07-22-0918-00M.COL___377                                                 6
 STAT SP IPHASW D HRMM SECON CODA AMPLIT PERI AZIMU VELO AIN AR TRES W  DIS CAZ7
 BAR2 EZ EP        921  0.34                             159   -0.1210 38.5  96 
 BAR2 EZ ES        921 12.53                             159    0.0410 38.5  96 
 BAR2 EZ I         921 13.62        19.0 0.20            161           38.5  96 
 BRR  HZ EP        921  0.70                             150   -0.3910 56.8 339 
 BRR  HE ES        921 13.91                             150    0.3010 56.8 339 
 BRR  HZ I         921 14.58         9.6 0.40            150           56.8 339 
 RUS  HZ EP   2    921  5.53                             136    0.88 5 95.0 149 
 RUS  HN ES        921 19.93                             136   -0.0110 95.0 149 
 RUS  HZ I         921 23.16         2.2 0.52            136           95.0 149 
 PTB  HZ IP     D  921  4.48                             133   -0.2310  103 265 
 PTB  HN ES        921 20.15                             133    0.1010  103 265 
 PTB  HZ I         921 21.53         2.2 0.58            131            103 265 
 ZAR  HZ EP   2    921 12.54                             117    0.49 4  175 303 
 ZAR  HN ES   4    921 34.74                             117    1.63 0  175 303 
 ZAR  HZ I         921 38.49         2.0 0.44            116            175 303 
                                                                                
