 2016  922 0207 38.9 L   6.803 -73.141148.0  RSN  8 0.4 1.5LRSN                1
 GAP=137        0.87       3.9     3.9  6.7 -0.8799E+00  0.4350E+01  0.3435E+01E
 Epicentro: LOS SANTOS - SANTANDER                                             3
 ACTION:UPD 17-08-17 21:15 OP:lp   STATUS:               ID:20160922020742dL   I
 OLDACT:UP  16-09-22 15:38 OP:and  STATUS:               ID:20160922015735     3
 OLDACT:REG 16-09-22 11:30 OP:and  STATUS:               ID:20160922015735     3
 2016-09-22-0158-00M.COL___369                                                 6
 STAT SP IPHASW D HRMM SECON CODA AMPLIT PERI AZIMU VELO AIN AR TRES W  DIS CAZ7
 BAR2 EZ ES   2    2 8 13.43                             171   -0.93 5 23.7 191 
 BAR2 EZ I         2 8 16.31         9.3 0.32            170           23.7 191 
 BRR  HZ EP        2 8  0.32                             153   -0.0210 71.5 298 
 BRR  HN ES        2 8 17.42                             153    0.3910 71.5 298 
 BRR  HZ I         2 8 21.47         4.9 0.16            153           71.5 298 
 PAM  EZ IP     D  2 8  1.50                             152    0.1510 76.8  39 
 PAM  EN ES        2 8 18.77                             152   -0.0710 76.8  39 
 PAM  EZ I         2 8 20.66         5.2 0.52            156           76.8  39 
 RUS  HZ EP        2 8  2.93                             144    0.0110  101 176 
 RUS  HE ES        2 8 21.76                             144    0.1210  101 176 
 RUS  HZ I         2 8 22.40         5.0 0.32            147            101 176 
 PTB  HZ EP        2 8  5.72                             133   -0.41 9  148 259 
 PTB  HN ES        2 8 28.00                             133    0.66 9  148 259 
 PTB  HZ I         2 8 31.41         2.5 0.11            134            148 259 
 SPBC HZ EP        2 8  7.75                             130    0.10 9  164 219 
 SPBC HE ES        2 8 29.75                             130   -0.31 9  164 219 
 SPBC HZ I         2 8 34.30         4.7 0.10            132            164 219 
 ZAR  HE ES        2 8 36.47                             123   -0.53 9  204 292 
 GUY2CHN ES   4 C  2 8 58.12                             113    1.27 0  302 235 
 GUY2CHZ I         2 9  4.48         1.7 0.36                           302 235 
                                                                                
