 2017  622 0651 45.1 L   6.790 -73.158149.9  RSN  5 0.2 1.5LRSN                1
 GAP=279        0.53       3.0     4.7  4.8 -0.1802E+01 -0.6608E+01  0.2608E+01E
 Epicentro: LOS SANTOS - SANTANDER                                             3
 ACTION:UPD 17-09-14 16:54 OP:jn   STATUS:               ID:20170622065145 L   I
 OLDACT:UP  17-06-22 16:34 OP:lv   STATUS:               ID:20170622064732d    3
 OLDACT:DUP 17-06-22 16:20 OP:lv   STATUS:               ID:20170622064732d    3
 2017-06-22-0648-00M.COL___348                                                 6
 STAT SP IPHASW D HRMM SECON CODA AMPLIT PERI AZIMU VELO AIN AR TRES W  DIS CAZ7
 BRR  HZ IP     D  652  6.69                             153    0.0610 70.5 300 
 BRR  HN ES        652 23.36                             153   -0.0810 70.5 300 
 BRR  HZ I         652 26.86         6.1 0.17            150           70.5 300 
 PTB  HZ EP   9    652 11.24                             133   -1.00 0  146 259 
 PTB  HN ES        652 32.67                                    0.24 9  146 259 
 PTB  HZ I         652 33.65         3.0 0.09            132            146 259 
 SPBC HZ EP        652 14.11                             130    0.38 9  161 219 
 SPBC HN ES        652 35.90                             130   -0.18 9  161 219 
 ZAR  HZ EP        652 17.50                             123   -0.20 9  203 293 
 ZAR  HN ES        652 43.24                             123    0.10 9  203 293 
 ZAR  HZ I         652 49.10         3.0 0.07            122            203 293 
 GUY2CHN ES        653  2.54                             113   -0.15 7  299 235 
                                                                                
