 2010  822 0726 25.6 L   7.200 -74.019  8.9  RSN  5 0.3 1.6LRSN                1
 GAP=276        0.84       4.7     7.3  9.3  0.5431E+01  0.3774E+02  0.2242E+02E
 Epicentro: PUERTO WILCHES - SANTANDER                                         3
 ACTION:UP  10-09-07 10:57 OP:vdl  STATUS:               ID:20100822072625 L   I
 2010-08-22-0724-48S.COL___120                                                 6
 STAT SP IPHASW D HRMM SECON CODA AMPLIT PERI AZIMU VELO SNR AR TRES W  DIS CAZ7
 BRR  HZ EP        726 31.03                              92    -0.510   35 107 
 BRR  HN ES        726 36.57                              92     0.310   35 107 
 BAR2 SZ EP   1    726 43.64                              91    -0.1 7  114 126 
 GUE  SZ EP        726 47.82                              90     0.2 9  139  60 
 GUE  SZ I         727  6.59         4.5 0.31                           139  60 
 GRA  SZ EP   1    726 49.78                              90     0.1 7  154  60 
 GRA  SZ ES   1    727  8.21                                    -0.3 7  154  60 
 GRA  SZ I         727  9.50        15.2 0.17                           154  60 
 RUS  HZ EP        726 53.54                              56     0.3 9  178 144 
 RUS  HN ES   1    727 14.59                              56    -0.2 7  178 144 
 RUS  HZ I         727 16.89         5.4 0.38                           178 144 
                                                                                
