 2013  722 0538 17.6 L   6.798 -73.126143.8  RSN  7 0.5 1.7LRSN                1
 GAP=185        1.25       5.4     6.8  8.4  0.9820E+01  0.1207E+02 -0.1684E+01E
 Epicentro: LOS SANTOS - SANTANDER                                             3
 ACTION:UPD 13-08-12 10:39 OP:ep   STATUS:               ID:20130722053817 L   I
 OLDACT:UP  13-07-22 10:50 OP:cam  STATUS:               ID:20130722052959     3
 OLDACT:REG 13-07-22 08:49 OP:cam  STATUS:               ID:20130722052959     3
 2013-07-22-0529-59M.COL___267                                                 6
 STAT SP IPHASW D HRMM SECON CODA AMPLIT PERI AZIMU VELO AIN AR TRES W  DIS CAZ7
 BAR2 SZ EP        538 36.87                             170   -0.1610 23.6 195 
 BAR2 SZ ES        538 51.96                             170   -0.2010 23.6 195 
 BAR2 SZ I         538 53.04        17.6 0.21            170           23.6 195 
 GIR2 SZ EP        538 37.02                             167   -0.0710 31.9 347 
 GIR2 SZ ES   1    538 52.58                             167    0.32 7 31.9 347 
 BRR  HZ IP     D  538 38.79                             151    0.1110 73.2 298 
 BRR  HN ES        538 55.94                             151    0.8410 73.2 298 
 BRR  HZ I         538 58.80         9.8 0.14            151           73.2 298 
 RUS  HZ EP        538 41.55                             143    0.3810  100 177 
 RUS  HN ES        538 59.45                             143   -0.0810  100 177 
 RUS  HZ I         539  0.25         6.9 0.22            145            100 177 
 PTB  HZ EP        538 44.04                             131   -0.59 9  150 259 
 PTB  HN ES        539  4.97                             131   -0.72 9  150 259 
 PTB  HZ I         539  7.91         7.3 0.16            132            150 259 
 OCA  HN ES        539  7.10                             129   -0.73 9  161 352 
 ZAR  HZ EP        538 51.09                             122    0.92 8  206 292 
 ZAR  HE ES        539 15.65                             122    0.11 8  206 292 
 ZAR  HZ I         539 17.08         4.3 0.32            123            206 292 
                                                                                
