 2016  422 0126 21.3 L   6.831 -73.112141.3  RSN  7 0.3 1.6LRSN                1
 GAP=139        0.76       3.5     3.4  5.2 -0.2259E+01  0.8388E+01 -0.1572E+00E
 Epicentro: LOS SANTOS - SANTANDER                                             3
 ACTION:UPD 16-05-05 14:23 OP:rebc STATUS:               ID:20160422012621 L   I
 OLDACT:ARG 16-04-22 12:58 OP:cara STATUS:               ID:20160422011749     3
 2016-04-22-0117-49M.COL___316                                                 6
 STAT SP IPHASW D HRMM SECON CODA AMPLIT PERI AZIMU VELO AIN AR TRES W  DIS CAZ7
 BAR2 EZ IP        126 40.35                             168   -0.1010 27.5 196 
 BAR2 EZ ES        126 55.80                             168    0.3910 27.5 196 
 BAR2 EZ I         127  0.90         5.9 0.50            169           27.5 196 
 PAM  EZ IP        126 43.03                             152    0.3210 72.4  39 
 PAM  EZ I         126 43.18        13.3 0.38            156           72.4  39 
 PAM  EN ES        126 59.25                             152   -0.1810 72.4  39 
 RUS  HZ EP        126 44.56                             142   -0.2510  104 178 
 RUS  HE ES        127  3.01                             142   -0.1710  104 178 
 RUS  HZ I         127  4.42         3.4 0.28            147            104 178 
 PTB  HZ EP        126 47.70                             130   -0.57 9  152 258 
 PTB  HN ES        127  9.09                             130   -0.24 9  152 258 
 PTB  HZ I         127 15.99         4.9 0.26            132            152 258 
 ZAR  HZ EP        126 53.71                             121    0.06 8  206 291 
 ZAR  HE ES        127 18.94                             121    0.04 8  206 291 
 ZAR  HZ I         127 23.76         5.5 0.38            124            206 291 
 NOR  HZ EP        126 57.54                             117    0.27 8  240 234 
 NOR  HE ES        127 25.86                             117    0.50 8  240 234 
 NOR  HZ I         127 27.86         2.5 0.14            120            240 234 
 GUY2CHZ EP        127  5.70                             111    0.47 7  306 235 
 GUY2CHE ES        127 39.26                             111   -0.27 7  306 235 
 GUY2CHZ I         127 48.37         1.9 0.62                           306 235 
                                                                                
