 2010 1022 0346 59.1 L   6.788 -73.125142.4  RSN 16 0.4 2.9LRSN                1
 GAP=104        0.75       2.6     4.1  4.9 -0.4361E+01  0.1998E+01  0.2309E+01E
 Epicentro: LOS SANTOS - SANTANDER                                             3
 ACTION:UP  11-02-18 11:11 OP:tino STATUS:               ID:20101022034659 L   I
 2010-10-22-0345-24S.COL___125                                                 6
 STAT SP IPHASW D HRMM SECON CODA AMPLIT PERI AZIMU VELO SNR AR TRES W  DIS CAZ7
 BAR2 SZ IP        347 18.45                             171     0.110   23 197 
 BAR2 SZ ES   1    347 32.79                             171    -0.5 7   23 197 
 BAR2 SZ I         347 34.64       151.6 0.16                            23 197 
 BRR  HZ IP     C  347 20.24                             151     0.210   74 299 
 BRR  HZ I         347 21.32       270.6 0.06                            74 299 
 BRR  HE ES   1    347 36.92                             151     0.6 7   74 299 
 RUS  HZ EP   1    347 22.47                             143     0.1 7   99 177 
 RUS  HN ES   2    347 40.34                             143    -0.3 5   99 177 
 GRA  SZ IP        347 24.26                             136     0.210  126  16 
 GRA  SZ I         347 25.66       135.8 0.21                           126  16 
 GRA  SZ ES   1    347 43.27                             136    -0.3 7  126  16 
 OCA  SZ IP        347 26.84                             129    -0.5 9  162 352 
 OCA  SZ ES   1    347 49.52                             129     0.2 7  162 352 
 OCA  SZ I         347 53.92        79.4 0.34                           162 352 
 YOP  SZ EP   1    347 29.21                             126     0.5 7  177 154 
 NOR  SZ EP   1    347 35.01                             118     0.3 6  236 235 
 NOR  SN ES   1    348  2.52                             118    -0.1 6  236 235 
 CHI  HZ EP   1    347 36.79                             116     0.3 6  248 196 
 CHI  HE ES   1    348  5.38                             116    -0.4 6  248 196 
 CHI  HZ I         348 13.28        19.1 0.56                           248 196 
 ROSC BE ES   1    348  7.10                             116     0.5 6  253 212 
 ROSC BZ I         348 16.26        37.1 0.47                           253 212 
 HEL  HZ EP   1    347 38.93                             114    -0.4 6  274 256 
 HEL  HE ES   2    348 10.10                             114    -0.6 4  274 256 
 HEL  HZ I         348 16.89        28.7 0.50                           274 256 
 VIL  SZ EP   2    347 42.67                             112     0.6 4  301 190 
 GUY  SZ EP   2    347 42.65                             112     0.0 4  302 235 
 GUY  SE ES   2    348 16.47                             112    -0.2 4  302 235 
 GUY  SZ I         348 23.99        29.9 0.41                           302 235 
 RREF HZ EP   1    347 45.33                             110     0.1 5  323 230 
 RREF HN ES   1    348 20.71                             110    -0.4 5  323 230 
 RREF HZ I         348 28.23        26.7 0.81                           323 230 
 DBB  SZ EP        347 46.84                             109     0.1 7  342 274 
 SDV  BZ EP   1    347 48.25                             108    -0.7 5  360  50 
 SDV  BZ I         348 27.23        19.5 0.36                           360  50 
 PRA  HZ EP   1    347 52.32                             106    -0.2 4  392 210 
 PRA  HE ES   1    348 33.43                             106    -0.7 4  392 210 
 PRA  HZ I         348 41.49        73.7 0.49                           392 210 
                                                                                
