 2013  522 0834 37.1 L   6.789 -73.164136.7  RSN  5 0.4 1.3LRSN                1
 GAP=181        0.80       4.3     5.0 11.5  0.4584E+01  0.1070E+02 -0.8974E+01E
 Epicentro: LOS SANTOS - SANTANDER                                             3
 ACTION:UPD 13-06-20 09:52 OP:ep   STATUS:               ID:20130522083437 L   I
 2013-05-22-0830-00M.COL___259                                                 6
 STAT SP IPHASW D HRMM SECON CODA AMPLIT PERI AZIMU VELO AIN AR TRES W  DIS CAZ7
 RUS  HZ EP        835  0.04                             142    0.1610 99.5 175 
 RUS  HN ES        835 17.64                             142   -0.0110 99.5 175 
 RUS  HZ I         835 19.51         2.0 0.20            144           99.5 175 
 PTB  HZ EP        835  2.70                             130   -0.43 9  146 259 
 PTB  HN ES        835 23.08                             130   -0.36 9  146 259 
 PTB  HZ I         835 29.64         3.1 0.43            131            146 259 
 OCA  HN ES   1    835 26.52                             127    0.10 7  161 354 
 ZAR  HN ES   1    835 34.07                             120    0.51 6  203 293 
 NOR  HE ES   1    835 40.06                             117    0.73 6  232 234 
 NOR  HZ I         835 43.51         2.2 0.18            118            232 234 
                                                                                
