 2012 1122 0620 47.4 L   6.977 -73.098134.0  RSN  4 0.2 1.4LRSN                1
 GAP=287        0.39       9.0     5.1  9.8  0.3283E+02 -0.2428E+02 -0.6652E+02E
 Epicentro: PIEDECUESTA - SANTANDER                                            3
 ACTION:UPD 12-12-05 15:35 OP:}ep  STATUS:               ID:20121122062047 L   I
 2012-11-22-0620-00M.COL___234                                                 6
 STAT SP IPHASW D HRMM SECON CODA AMPLIT PERI AZIMU VELO AIN AR TRES W  DIS CAZ7
 BAR2 SZ EP   2    621  5.83                             160   -0.38 5 43.6 192 
 BAR2 SZ I         621 23.93         7.8 0.18                          43.6 192 
 RUS  HZ EP        621 11.65                             135    0.1110  120 179 
 RUS  HE ES        621 30.38                             135   -0.0210  120 179 
 RUS  HE I         621 32.14         4.2 0.22                           120 179 
 PTB  HZ EP   1    621 14.47                             126    0.12 7  158 252 
 PTB  HE ES   1    621 35.37                             126   -0.04 7  158 252 
 PTB  HZ I         621 37.46         1.9 0.19                           158 252 
 PRA  HZ EP   2    621 42.50                             103   -0.33 3  412 209 
 PRA  HZ I         621 50.27         0.9 0.39                           412 209 
                                                                                
