 2017 1122 0652 38.9 L   6.808 -73.178126.9  RSN  5 0.4 0.9LRSN                1
 GAP=132        1.04       6.9     5.2  9.8  0.9639E+01  0.5085E+01 -0.2369E+02E
 Epicentro: ZAPATOCA - SANTANDER                                               3
 ACTION:UPD 17-12-12 19:58 OP:rebc STATUS:               ID:20171122065238 L   I
 OLDACT:UP  17-11-22 16:21 OP:dani STATUS:               ID:20171122064741     3
 OLDACT:UP  17-11-22 16:21 OP:dani STATUS:               ID:20171122064741     3
 OLDACT:REG 17-11-22 13:18 OP:osc  STATUS:               ID:20171122064741     3
 2017-11-22-0648-00M.COL___480                                                 6
 STAT SP IPHASW D HRMM SECON CODA AMPLIT PERI AZIMU VELO AIN AR TRES W  DIS CAZ7
 BAR2 EZ EP        652 56.43                             169    0.1610 23.9 181 
 BAR2 EZ ES        653  9.39                             169   -0.4310 23.9 181 
 PAM  EZ EP        652 59.32                             146    0.0810 79.0  42 
 RUS  HZ EP        653  1.05                             139    0.1210  102 174 
 RUS  HN ES        653 18.51                             139    0.3810  102 174 
 RUS  HZ I         653 20.97         1.3 0.38            138            102 174 
 PTB  HZ EP        653  3.22                             128   -0.84 9  144 258 
 PTB  HN ES        653 23.74                             128    0.04 9  144 258 
 PTB  HZ I         653 25.56         1.1 0.22            128            144 258 
 ZAR  HN ES        653 34.43                             118    0.55 9  200 292 
                                                                                
