 2015 1022 0922  6.7 L   6.882 -73.278127.1  RSN  8 0.3 1.5LRSN                1
 GAP=110        0.43       2.3     3.6  3.4  0.2938E+01  0.1766E+01 -0.3744E+00E
 Epicentro: BETULIA - SANTANDER                                                3
 ACTION:UPD 15-12-22 20:42 OP:cam  STATUS:               ID:20151022092206 L   I
 OLDACT:REG 15-10-22 12:23 OP:mh   STATUS:               ID:20151022091746     3
 2015-10-22-0917-46M.COL___319                                                 6
 STAT SP IPHASW D HRMM SECON CODA AMPLIT PERI AZIMU VELO AIN AR TRES W  DIS CAZ7
 BAR2 EZ EP        922 24.43                             164    0.0310 33.8 162 
 BAR2 EZ ES        922 38.30                             164    0.1010 33.8 162 
 BAR2 EZ I         922 38.83        16.3 0.24            164           33.8 162 
 BRR  HZ EP        922 24.82                             156   -0.0810 54.0 297 
 BRR  HN ES        922 39.00                             156   -0.0910 54.0 297 
 BRR  HZ I         922 39.41         8.2 0.13            150           54.0 297 
 PAM  EE ES   2    922 43.82                             146    0.54 5 81.5  52 
 PAM  EZ I         922 45.11         4.1 0.18            147           81.5  52 
 RUS  HZ EP   2    922 29.56                             136   -0.01 5  112 169 
 RUS  HE ES   2    922 46.84                             136   -0.57 5  112 169 
 RUS  HZ I         922 48.70         3.3 0.32            135            112 169 
 OCA  HZ EP   2    922 32.46                             127   -0.18 5  150 358 
 OCA  HN ES   2    922 52.42                             127   -0.44 5  150 358 
 ZAR  HZ EP   2    922 36.02                             120   -0.19 4  187 291 
 ZAR  HE ES   2    922 59.71                             120    0.49 4  187 291 
 ZAR  HZ I         923  6.58         3.6 0.17            117            187 291 
 SML  HZ EP   2    922 40.74                             115   -0.04 4  230 338 
 SML  HN ES   2    923  7.60                             115    0.24 4  230 338 
 SML  HZ I         923 13.24         9.0 0.10            112            230 338 
 CHI  HZ EP   2    922 44.30                             112    0.24 4  254 191 
 CHI  HN ES   2    923 13.51                             112    0.31 4  254 191 
 CHI  HZ I         923 19.21         1.0 0.30            110            254 191 
                                                                                
