 2010  622 0957 21.5 L   6.808 -73.073138.1  RSN 11 0.4 2.4LRSN                1
 GAP=164        0.80       4.4     7.3  7.5 -0.1542E+02  0.1704E+02  0.2661E+00E
 Epicentro: LOS SANTOS - SANTANDER                                             3
 ACTION:UP  10-08-24 10:12 OP:vdl  STATUS:               ID:20100622095721 L   I
 2010-06-22-0955-30S.COL___118                                                 6
 STAT SP IPHASW D HRMM SECON CODA AMPLIT PERI AZIMU VELO SNR AR TRES W  DIS CAZ7
 BAR2 SZ IP        957 40.17                             168    -0.110   27 207 
 BAR2 SZ ES   2    957 54.55                             168    -0.4 5   27 207 
 BRR  HZ IP     C  957 42.03                             149    -0.210   78 295 
 BRR  HE ES   2    957 58.81                             149     0.4 5   78 295 
 BRR  HZ I         958  3.23        94.6 0.09                            78 295 
 RUS  HZ EP   1    957 44.26                             142    -0.3 7  101 181 
 RUS  HN ES   2    958  2.58                             142     0.0 5  101 181 
 RUS  HZ I         958  4.37        28.7 0.25                           101 181 
 BRI  SZ EP   1    957 44.83                             141     0.4 7  105  17 
 BRI  SZ ES   2    958  3.18                             141     0.9 5  105  17 
 GUE  SZ EP   1    957 45.14                             138    -0.2 7  114   8 
 GRA  SZ EP   1    957 46.04                             136     0.2 7  123  14 
 GRA  SZ ES   2    958  5.54                             136     0.7 5  123  14 
 OCA  SZ EP   1    957 48.63                             128    -0.7 7  161 350 
 OCA  SZ ES   2    958 10.42                             128    -0.5 5  161 350 
 OCA  SZ I         958 14.05        38.6 0.40                           161 350 
 HEL  HZ EP   1    958  1.87                             112    -0.4 6  280 256 
 HEL  HZ I         958 38.63        11.0 0.47                           280 256 
 GUY  HZ EP   1    958  6.05                             110     0.4 5  308 236 
 GUY  HN ES   2    958 40.41                             110     0.4 4  308 236 
 RREF HZ EP   1    958  8.59                             109     0.5 5  328 230 
 RREF HE ES   2    958 44.67                             109     0.2 3  328 230 
 RREF HZ I         958 49.50        11.5 0.42                           328 230 
 TOL  SZ EP   1    958 11.03                             107     0.8 5  350 225 
                                                                                
