 2012  622 0317 42.2 L   6.722 -73.119147.9  RSN  4 0.3 1.8LRSN                1
 GAP=172        0.61       7.7     5.4  5.9 -0.1675E+02  0.4441E+01  0.6303E+01E
 Epicentro: JORDAN - SANTANDER                                                 3
 ACTION:UPD 12-08-06 17:51 OP:ep   STATUS:               ID:20120622031742 L   I
 2012-06-22-0300-00M.COL___193                                                 6
 STAT SP IPHASW D HRMM SECON CODA AMPLIT PERI AZIMU VELO AIN AR TRES W  DIS CAZ7
 BAR2 SZ EP        318  2.19                             173    0.2010 16.0 206 
 BAR2 SZ ES   1    318 17.36                             173   -0.05 7 16.0 206 
 BAR2 SZ I         318 18.85        15.5 0.22                          16.0 206 
 BRR  HZ EP        318  4.08                             150    0.0710 78.2 303 
 BRR  HN ES   1    318 21.36                             150    0.35 7 78.2 303 
 BRR  HZ I         318 22.88        14.4 0.54                          78.2 303 
 PAM  SZ EP        318  5.09                             150    0.1110 82.5  34 
 PAM  SN ES   1    318 22.22                             150   -0.51 7 82.5  34 
 PAM  SZ I         318 24.75         5.8 0.64                          82.5  34 
 PTB  HZ EP        318  9.27                             132   -0.24 9  149 262 
 PTB  HN ES   3    318 29.90                             132   -0.89 2  149 262 
                                                                                
