 2017  622 0434 26.0 L   6.752 -73.174153.6  RSN  6 0.3 1.6LRSN                1
 GAP=214        0.79       4.2     6.7  7.6  0.7945E+01 -0.2158E+02  0.2786E+01E
 Epicentro: LOS SANTOS - SANTANDER                                             3
 ACTION:UPD 17-09-14 16:54 OP:jn   STATUS:               ID:20170622043426 L   I
 OLDACT:REG 17-06-22 13:08 OP:lv   STATUS:               ID:20170622042738     3
 2017-06-22-0428-00M.COL___349                                                 6
 STAT SP IPHASW D HRMM SECON CODA AMPLIT PERI AZIMU VELO AIN AR TRES W  DIS CAZ7
 BRR  HZ EP        434 47.94                             154   -0.0810 71.2 304 
 BRR  HN ES        435  5.27                             154    0.0910 71.2 304 
 BRR  HZ I         435  8.56         7.6 0.26            151           71.2 304 
 PTB  HZ EP        434 53.29                             134    0.01 9  144 261 
 PTB  HN ES        435 13.97                             134   -0.57 9  144 261 
 PTB  HZ I         435 21.30         3.2 0.29            133            144 261 
 SPBC HZ EP        434 55.21                             132    0.64 9  157 219 
 SPBC HN ES        435 17.08                             132    0.25 9  157 219 
 SPBC HZ I         435 19.74         5.7 0.09            132            157 219 
 ZAR  HZ EP        434 58.84                             124   -0.06 9  203 294 
 ZAR  HN ES        435 24.68                             124    0.13 9  203 294 
 ZAR  HZ I         435 29.55         5.6 0.17            124            203 294 
 CHI  HN ES   1    435 32.51                             119   -0.27 6  243 195 
 PTGC HZ EP        435  9.37                             113   -0.44 7  305 158 
 PTGC HN ES   4    435 42.11                             113   -1.86 0  305 158 
 SJC  HZ EP   4    435 20.46                             107   -1.72 0  412 328 
 SJC  HN ES   4    436  2.08                             107   -3.90 0  412 328 
                                                                                
