 2012  222 0131 16.9 L   6.788 -73.083144.5  RSN 10 0.4 2.1LRSN                1
 GAP=145        0.73       3.7     5.2  5.0 -0.5561E+01  0.5241E+01  0.3629E+01E
 ACTION:UP  12-03-07 16:32 OP:epov STATUS:               ID:20120222013116 L   I
 2012-02-22-0128-59S.COL___194                                                 6
 STAT SP IPHASW D HRMM SECON CODA AMPLIT PERI AZIMU VELO AIN AR TRES W  DIS CAZ7
 BAR2 SZ EP        131 36.40                             170    0.0110 24.3 207 
 BAR2 SZ I         131 36.77        28.9 0.12                          24.3 207 
 BAR2 SZ ES   1    131 51.34                             170   -0.26 7 24.3 207 
 GIR2 SZ EP   1    131 36.45                             166   -0.06 7 34.4 339 
 GIR2 SZ ES   1    131 51.44                             166   -0.37 7 34.4 339 
 PAM  SZ EP        131 39.27                             152    0.4810 74.3  35 
 PAM  SN ES   1    131 55.62                             152   -0.26 7 74.3  35 
 PAM  SZ I         131 58.86        16.7 0.53                          74.3  35 
 BRR  HZ EP        131 38.37                             150    0.0610 78.0 297 
 BRR  HN ES   1    131 55.55                             150    0.54 7 78.0 297 
 BRR  HZ I         131 59.53        53.2 0.14                          78.0 297 
 RUS  HZ EP        131 40.35                             144   -0.0610 99.0 180 
 RUS  HZ I         131 40.97        10.0 0.14                          99.0 180 
 RUS  HE ES   1    131 59.02                             144    0.27 7 99.0 180 
 OCA  SZ EP   1    131 44.79                             129   -0.54 7  163 351 
 NOR  SZ EP   1    131 52.44                             118   -0.64 6  240 236 
 NOR  SN ES   1    132 20.89                             118   -0.42 6  240 236 
 CHI  HZ EP   1    131 54.52                             117   -0.07 6  249 197 
 CHI  HZ I         132 32.01         5.1 0.34                           249 197 
 HEL  HZ EP   1    131 58.50                             114    0.74 6  278 256 
 HEL  HZ I         132 35.49        10.6 0.35                           278 256 
 PRA  HZ EP   2    132  9.99                             106   -0.65 3  394 211 
 PRA  HN ES   1    132 52.93                             106    0.37 4  394 211 
                                                                                
