 2011  722 0827 53.6 L   6.755 -73.067143.1  RSN  6 0.2 1.7LRSN                1
 GAP=221        0.44       7.6     7.7  5.9 -0.4887E+02 -0.2398E+02  0.2265E+02E
 Epicentro: LOS SANTOS - SANTANDER                                             3
 ACTION:UPD 12-07-25 14:02 OP:epov STATUS:               ID:20110722082753 L   I
 2011-07-22-0823-37S.COL___142                                                 6
 STAT SP IPHASW D HRMM SECON CODA AMPLIT PERI AZIMU VELO AIN AR TRES W  DIS CAZ7
 GIR2 SZ EP   1    828 12.92                             164   -0.20 8 38.5 339 
 GIR2 SZ ES   2    828 28.38                             164   -0.01 5 38.5 339 
 BRR  HZ EP   1    828 14.93                             149   -0.09 8 81.3 299 
 BRR  HZ I         828 18.39        11.5 0.13                          81.3 299 
 BRR  HN ES   1    828 31.97                             149    0.21 8 81.3 299 
 BRI  SZ EP   2    828 17.83                             140    0.49 5  110  16 
 BRI  SZ ES   2    828 35.62                             140   -0.28 5  110  16 
 GRA  SZ EP        828 18.98                             136    0.2110  128  13 
 GRA  SZ ES   1    828 38.33                             136   -0.11 7  128  13 
 GRA  SZ I         828 40.33         5.6 0.49                           128  13 
 OCA  SZ EP   1    828 22.00                             128   -0.25 7  166 350 
 OCA  SZ I         828 47.85         5.2 0.38                           166 350 
 NOR  SE ES   2    828 57.57                             117   -0.15 4  239 237 
                                                                                
