 2017 1022 0251 12.6 L   6.772 -73.096133.9  RSN  9 0.6 1.5LRSN                1
 GAP=118        1.35       6.1     6.2  7.6  0.8699E+01  0.4997E+01  0.5006E+01E
 Epicentro: LOS SANTOS - SANTANDER                                             3
 ACTION:UPD 17-11-07 19:35 OP:rebc STATUS:               ID:20171022025112 L   I
 OLDACT:UP  17-10-22 16:00 OP:dani STATUS:               ID:20171022024341     3
 OLDACT:REG 17-10-22 13:35 OP:dani STATUS:               ID:20171022024341     3
 2017-10-22-0248-00M.COL___408                                                 6
 STAT SP IPHASW D HRMM SECON CODA AMPLIT PERI AZIMU VELO AIN AR TRES W  DIS CAZ7
 BAR2 HZ EP        251 30.33                             170   -0.4610 22.0 206 
 BAR2 HZ ES        251 44.95                             170   -0.0210 22.0 206 
 PAM  EZ EP        251 33.34                             149   -0.1910 76.5  35 
 PAM  EN ES        251 50.19                             149    0.3510 76.5  35 
 PAM  EZ I         251 51.21         6.9 0.22            149           76.5  35 
 BRR  HZ EP     C  251 32.24                             148   -0.6510 77.5 299 
 BRR  HE ES        251 49.11                             148    0.4110 77.5 299 
 RUS  HZ EP        251 35.00                             142    0.0310 97.3 179 
 RUS  HN ES        251 52.73                             142    0.3310 97.3 179 
 RUS  HZ I         251 53.72         6.0 0.27            143           97.3 179 
 PTB  HZ EP   9    251 37.19                             128   -1.91 0  153 260 
 PTB  HN ES        251 57.77                             129   -0.08 9  153 260 
 PTB  HZ I         252  0.34         4.6 0.26            129            153 260 
 YPLC HZ EP        251 40.74                             125   -0.30 9  172 152 
 ZAR  HN ES        252  9.31                             119   -0.91 8  210 292 
 URE  HZ EP        251 55.48                             111    1.63 7  290 292 
 GUY2CHZ EP        251 56.47                             110    0.45 7  304 236 
 GUY2CHN ES   4    252 31.94                             110    2.07 0  304 236 
 GUY2CHZ I         252 33.54         1.1 0.31                           304 236 
                                                                                
