 2017  122 0931 21.6 L   6.797 -73.167146.8  RSN  7 0.1 1.4LRSN                1
 GAP=134        0.40       1.9     3.0  2.8  0.1472E+01  0.1493E+01 -0.1717E+00E
 Epicentro: LOS SANTOS - SANTANDER                                             3
 ACTION:UPD 17-05-22 16:02 OP:jn   STATUS:               ID:20170122093121 L   I
 OLDACT:UP  17-01-22 18:21 OP:dani STATUS:               ID:20170122092740     3
 OLDACT:REG 17-01-22 13:25 OP:dani STATUS:               ID:20170122092740     3
 2017-01-22-0928-00M.COL___331                                                 6
 STAT SP IPHASW D HRMM SECON CODA AMPLIT PERI AZIMU VELO AIN AR TRES W  DIS CAZ7
 BAR2 EZ EP        931 41.17                             171   -0.1910 22.8 184 
 BAR2 EZ ES        931 56.77                             171    0.0110 22.8 184 
 BAR2 EZ I         931 57.84         7.3 0.20            167           22.8 184 
 BRR  HZ EP        931 43.01                             153    0.2410 69.3 300 
 BRR  HN ES        931 59.32                             153    0.0410 69.3 300 
 BRR  HZ I         932  1.56         6.9 0.33            152           69.3 300 
 PAM  EZ EP        931 44.09                             150    0.0510 79.1  41 
 RUS  HZ EP        931 45.54                             144    0.0810  100 175 
 RUS  HE ES        932  3.96                             144   -0.1110  100 175 
 RUS  HZ I         932  5.06         4.3 0.23            142            100 175 
 PTB  HZ EP        931 48.33                             133   -0.13 9  145 259 
 ZAR  HZ EP        931 53.81                             123   -0.11 9  202 292 
 CHI  HN ES        932 28.79                             117    0.14 8  248 195 
 CHI  HZ I         932 34.87         1.1 0.34            117            248 195 
                                                                                
