 2010  922 0510 42.0 L   6.782 -73.062148.9  RSN  9 0.3 1.7LRSN                1
 GAP=174        0.54       3.1     4.9  5.3  0.1054E+01 -0.3645E+01  0.1111E+01E
 Epicentro: LOS SANTOS - SANTANDER                                             3
 ACTION:UP  11-02-18 11:04 OP:tino STATUS:               ID:20100922051042 L   I
 2010-09-22-0508-39S.COL___122                                                 6
 STAT SP IPHASW D HRMM SECON CODA AMPLIT PERI AZIMU VELO SNR AR TRES W  DIS CAZ7
 BAR2 SZ EP   2    511  1.99                             170    -0.1 5   25 213 
 BAR2 SZ I         511 18.97        10.1 0.35                            25 213 
 BTL  SZ EP        511  2.36                             169     0.210   27 304 
 BRR  HZ EP        511  3.74                             150    -0.310   80 297 
 BRR  HE ES        511 21.36                             150     0.110   80 297 
 BRR  HZ I         511 25.44        10.6 0.15                            80 297 
 RUS  HZ EP   1    511  6.08                             145     0.1 7   98 181 
 RUS  HN ES   1    511 24.50                             145    -0.1 7   98 181 
 RUS  HZ I         511 26.25         6.0 0.58                            98 181 
 GUE  SZ EP   2    511  6.94                             140    -0.1 5  117   7 
 OCA  SZ EP   1    511 10.88                             130     0.0 7  164 350 
 OCA  SZ I         511 43.73         4.9 0.36                           164 350 
 NOR  SZ EP   2    511 18.32                             119    -0.3 4  241 236 
 NOR  SE ES   2    511 46.60                             119    -0.6 4  241 236 
 CHI  HZ EP   1    511 19.95                             118     0.0 6  249 197 
 CHI  HE ES   2    511 49.95                             118     0.4 4  249 197 
 CHI  HZ I         511 55.18         2.7 0.43                           249 197 
 HEL  HZ EP   2    511 23.88                             115     0.5 4  281 257 
 HEL  HN ES   2    511 55.95                             115     0.4 4  281 257 
 HEL  HZ I         512  0.36         2.6 0.50                           281 257 
                                                                                
