 2013 1222 0610 26.2 L   6.546 -73.557111.8  RSN  5 0.5 0.9LRSN                1
 GAP=126        1.14       5.6     5.4 10.3  0.4572E+01  0.5651E+01 -0.2716E+02E
 Epicentro: EL CARMEN DE CHUCURI - SANTANDER                                   3
 ACTION:UPD 14-01-13 10:20 OP:ep   STATUS:               ID:20131222061026 L   I
 OLDACT:REG 13-12-22 09:35 OP:jn   STATUS:               ID:20131222061000     3
 2013-12-22-0610-00M.COL___285                                                 6
 STAT SP IPHASW D HRMM SECON CODA AMPLIT PERI AZIMU VELO AIN AR TRES W  DIS CAZ7
 BAR2 SZ ES        610 55.63                             158    0.5910 41.7  83 
 RUS  HZ EP        610 46.17                             139    0.3710 89.2 144 
 RUS  HN ES        611  0.83                             139   -0.3010 89.2 144 
 RUS  HZ I         611  3.24         0.9 0.32            144           89.2 144 
 PTB  HN ES        611  1.11                             135   -0.3710 99.5 270 
 PTB  HZ I         611  6.68         2.4 0.10            137           99.5 270 
 PAM  SZ EP   2    610 48.44                             127   -0.92 5  129  47 
 PAM  SN ES   1    611  6.63                             127   -0.83 7  129  47 
 PAM  SZ I         611  9.85         1.6 0.22            132            129  47 
 SML  HZ EP        611  2.51                             108   -0.01 8  256 347 
 SML  HN ES        611 31.49                             108    0.61 8  256 347 
                                                                                
