 2010 1022 0054  4.1 L   6.340 -73.516110.0  RSN  5 0.2 1.7LRSN                1
 GAP=138        0.55       5.7    10.2  9.5  0.3911E+02  0.6971E+02  0.3697E+02E
 Epicentro: CONTRATACION - SANTANDER                                           3
 ACTION:UP  11-02-18 11:11 OP:tino STATUS:               ID:20101022005404 L   I
 2010-10-22-0052-14S.COL___125                                                 6
 STAT SP IPHASW D HRMM SECON CODA AMPLIT PERI AZIMU VELO SNR AR TRES W  DIS CAZ7
 BAR2 SZ EP   1    054 20.60                             156     0.3 7   46  53 
 BAR2 SZ ES   1    054 33.15                             156     0.2 7   46  53 
 BAR2 SZ I         054 35.35        17.5 0.14                            46  53 
 RUS  HZ EP   1    054 21.73                             146    -0.3 7   69 136 
 RUS  HN ES   2    054 36.01                             146    -0.1 5   69 136 
 BRR  HZ EP   1    054 22.49                             139    -0.3 7   88 346 
 BRR  HZ I         054 22.63        10.4 0.02                            88 346 
 BRR  HN ES   1    054 37.34                             139     0.0 7   88 346 
 GRA  SZ EP   3    054 33.13                             116     0.2 2  188  25 
 GRA  SZ I         054 35.49         2.5 0.45                           188  25 
 PRA  HZ EP   1    054 49.30                             103     0.4 5  328 208 
 PRA  HZ I         054 49.93         6.5 0.17                           328 208 
                                                                                
