 2015  822 0225 16.8 L   6.792 -73.127151.6  RSN 11 0.4 1.8LRSN                1
 GAP=139        0.82       3.0     3.7  5.6 -0.1713E+01  0.5921E+01  0.4536E+00E
 Epicentro: LOS SANTOS - SANTANDER                                             3
 ACTION:UPD 15-09-15 23:04 OP:cam  STATUS:               ID:20150822022516 L   I
 OLDACT:REG 15-08-22 14:09 OP:spq  STATUS:               ID:20150822021735     3
 2015-08-22-0217-35M.COL___352                                                 6
 STAT SP IPHASW D HRMM SECON CODA AMPLIT PERI AZIMU VELO AIN AR TRES W  DIS CAZ7
 BAR2 EZ EP        225 37.01                             171   -0.1110 22.9 195 
 BAR2 EZ ES   1    225 52.17                             171   -0.80 7 22.9 195 
 BAR2 EZ I         225 53.80        10.0 0.46            169           22.9 195 
 BRR  HZ EP        225 38.80                             153    0.0910 73.4 298 
 BRR  HN ES        225 56.40                             153    0.6110 73.4 298 
 BRR  HZ I         226  1.18         7.7 0.12            148           73.4 298 
 PAM  EZ EP        225 39.89                             152    0.2910 76.8  38 
 PAM  EN ES        225 57.42                             152    0.0310 76.8  38 
 PAM  EZ I         225 59.16         6.9 0.58            155           76.8  38 
 RUS  HZ EP        225 40.90                             145   -0.1610 99.6 177 
 RUS  HE ES        225 59.87                             145   -0.1110 99.6 177 
 RUS  HZ I         226  0.60         6.7 0.26            147           99.6 177 
 SPBC HZ EP        225 46.07                             130    0.26 9  164 220 
 SPBC HN ES        226  8.48                             130    0.04 9  164 220 
 SPBC HZ I         226 13.02         9.5 0.18            130            164 220 
 ZAR  HE ES        226 15.17                             123   -0.48 8  206 292 
 ZAR  HZ I         226 20.77        10.1 0.64            122            206 292 
 NOR  HZ EP   1    225 52.73                             120   -0.27 6  236 235 
 NOR  HE ES        226 21.71                             120    0.47 8  236 235 
 NOR  HZ I         226 28.44         4.7 0.32            119            236 235 
 SML  HZ EP   1    225 53.94                             118    0.00 6  245 335 
 SML  HE ES   1    226 22.40                             118   -0.51 6  245 335 
 SML  HZ I         226 29.86         6.8 0.10            118            245 335 
 GUY2CHZ EP   4    226  2.09                             113    1.27 0  302 235 
 GUY2CHE ES   1    226 34.74                             113   -0.41 5  302 235 
 GUY2CHZ I         226 45.91         3.1 0.44                           302 235 
 TOL  SZ EP   4    226  7.25                             110    1.86 0  344 225 
 TOL  SN ES   4    226 44.92                             110    1.63 0  344 225 
 TOL  SZ I         226 50.44         2.7 0.38            110            344 225 
 SJC  HZ EP   4    226 11.21                             106   -1.57 0  411 327 
 SJC  HN ES   4    226 54.57                             106   -1.87 0  411 327 
 SJC  HZ I         227  1.83         1.5 0.40            107            411 327 
                                                                                
