 2011 1122 0817 59.0 L   6.818 -73.077143.0  RSN  4 0.2 1.3LRSN                1
 GAP=144        0.44       3.6     5.6  6.6  0.4916E+01 -0.5706E+01  0.1667E+01E
 Epicentro: LOS SANTOS - SANTANDER                                             3
 ACTION:UPD 12-07-13 16:11 OP:ep   STATUS:               ID:20111122081759 L   I
 2011-11-22-0816-50S.COL___178                                                 6
 STAT SP IPHASW D HRMM SECON CODA AMPLIT PERI AZIMU VELO AIN AR TRES W  DIS CAZ7
 BAR2 SZ EP   2    818 18.13                             169   -0.22 5 27.6 205 
 BAR2 SZ I         818 39.72         5.9 0.61                          27.6 205 
 PAM  SZ EP   2    818 21.05                             152    0.54 5 71.1  36 
 PAM  SN ES   2    818 37.06                             152   -0.26 5 71.1  36 
 BRR  HZ EP   1    818 19.96                             150   -0.19 7 77.0 295 
 BRR  HN ES   1    818 36.79                             150    0.11 7 77.0 295 
 BRR  HZ I         818 40.25         4.4 0.31                          77.0 295 
 RUS  HZ EP   1    818 22.57                             143    0.00 7  102 180 
 RUS  HN ES   1    818 41.03                             143    0.05 7  102 180 
 RUS  HZ I         818 42.65         1.6 0.30                           102 180 
                                                                                
