 2010 1022 0820 22.9 L   6.758 -73.151139.9  RSN 10 0.5 1.9LRSN                1
 GAP=158        1.12       5.0     8.6  8.6 -0.1359E+02  0.1141E+02 -0.3641E+01E
 Epicentro: LOS SANTOS - SANTANDER                                             3
 ACTION:UP  11-02-18 11:11 OP:tino STATUS:               ID:20101022082022 L   I
 2010-10-22-0817-36S.COL___125                                                 6
 STAT SP IPHASW D HRMM SECON CODA AMPLIT PERI AZIMU VELO SNR AR TRES W  DIS CAZ7
 BAR2 SZ IP        820 41.57                             172    -0.110   19 191 
 BAR2 SZ ES   1    820 56.05                             172    -0.3 7   19 191 
 BAR2 SZ I         820 57.45        15.0 0.24                            19 191 
 BRR  HZ IP     C  820 43.59                             151     0.110   73 302 
 BRR  HZ I         820 44.05        21.2 0.18                            73 302 
 BRR  HN ES   1    821  0.40                             151     0.8 7   73 302 
 RUS  HZ EP   1    820 46.10                             144     0.4 7   96 176 
 RUS  HE ES   1    821  3.63                             144     0.1 7   96 176 
 RUS  HZ I         821  4.98         5.6 0.34                            96 176 
 GUE  SZ EP   1    820 47.99                             137     0.6 7  121  12 
 GRA  SZ IP        820 47.68                             135    -0.310  130  17 
 GRA  SZ I         820 48.99        17.1 0.10                           130  17 
 OCA  SZ EP   1    820 50.33                             128    -0.8 7  165 354 
 OCA  SZ ES   1    821 12.90                             128    -0.3 7  165 354 
 OCA  SZ I         821 17.25        13.8 0.12                           165 354 
 NOR  SZ EP   2    820 58.14                             118     0.2 4  232 235 
 NOR  SN ES   1    821 24.44                             118    -0.8 6  232 235 
 HEL  HZ EP   1    821  3.10                             114     0.5 6  270 257 
 HEL  HZ I         821 40.22         3.2 0.25                           270 257 
 GUY  SZ EP   2    821  6.49                             111     0.6 4  298 236 
 PRA  HZ EP   1    821 16.47                             106     0.8 4  388 210 
 PRA  HE ES   1    821 55.92                             106    -0.9 4  388 210 
 PRA  HZ I         822  3.98         7.9 0.14                           388 210 
                                                                                
