 2013  922 0458 16.2 L   6.567 -73.375 19.6  RSN  4 0.3 0.8LRSN                1
 GAP=115        0.64       2.7     3.5  8.9  0.6767E+01  0.2598E+02  0.1513E+02E
 Epicentro: HATO - SANTANDER                                                   3
 ACTION:UPD 13-10-22 09:24 OP:ep   STATUS:               ID:20130922045816 L   I
 OLDACT:DUP 13-09-22 11:26 OP:jn   STATUS:               ID:20130922044960d    3
 2013-09-22-0449-59M.COL___269                                                 6
 STAT SP IPHASW D HRMM SECON CODA AMPLIT PERI AZIMU VELO AIN AR TRES W  DIS CAZ7
 BAR2 SZ EP        458 21.28                             131    0.0810 21.4  83 
 BAR2 SZ ES        458 25.25                             131    0.1310 21.4  83 
 BAR2 SZ I         458 26.70        12.7 0.32            159           21.4  83 
 BRR  HZ EP        458 27.61                             103   -0.1010 70.4 328 
 BRR  HN ES        458 36.51                             103   -0.1910 70.4 328 
 BRR  HZ I         458 37.29         5.3 0.10             92           70.4 328 
 RUS  HZ EP        458 30.11                             102    0.2610 81.3 157 
 RUS  HN ES   1    458 39.87                             102   -0.64 7 81.3 157 
 RUS  HZ I         458 42.28         1.8 0.20             91           81.3 157 
 PTB  HZ EP   1    458 35.13                              98    0.05 7  120 269 
 PTB  HN ES   1    458 50.13                              98    0.31 7  120 269 
 PTB  HZ I         458 51.38         1.6 0.38             91            120 269 
                                                                                
