 2014  522 0248 52.8 L   6.232 -73.684 76.5  RSN  4 0.3 0.9LRSN                1
 GAP=162        0.64       4.5     3.3  9.4  0.9406E+01 -0.8105E+01 -0.2395E+02E
 Epicentro: LANDAZURI - SANTANDER                                              3
 ACTION:UPD 15-03-16 16:59 OP:nd   STATUS:               ID:20140522024852 L   I
 OLDACT:UP  14-05-22 16:36 OP:spq  STATUS:               ID:20140522023817     3
 OLDACT:REG 14-05-22 12:33 OP:spq  STATUS:               ID:20140522023817     3
 2014-05-22-0238-17M.COL___255                                                 6
 STAT SP IPHASW D HRMM SECON CODA AMPLIT PERI AZIMU VELO AIN AR TRES W  DIS CAZ7
 RUS  HZ EP        249  8.58                             131    0.3410 76.4 119 
 RUS  HN ES   1    249 19.96                             131   -0.33 7 76.4 119 
 RUS  HZ I         249 24.43         2.1 0.24            146           76.4 119 
 SPBC HZ EP   1    249  7.21                             130   -0.57 7 77.2 214 
 SPBC HE ES   1    249 19.74                             130    0.27 7 77.2 214 
 SPBC HZ I         249 23.26         2.7 0.09            146           77.2 214 
 PTB  HZ EP        249  9.19                             125    0.0710 91.9 292 
 PTB  HN ES        249 21.84                             125   -0.0210 91.9 292 
 PTB  HZ I         249 27.59         2.5 0.22            136           91.9 292 
 ZAR  HZ EP   1    249 20.11                             106   -0.09 7  190 317 
 ZAR  HN ES        249 41.58                             106   -0.00 9  190 317 
 ZAR  HZ I         249 45.80         2.1 0.22            115            190 317 
                                                                                
