 2012 1022 0434 13.6 L   7.397 -73.175128.2  RSN  8 0.4 2.3LRSN                1
 GAP=107        0.77       3.2     4.3  6.9  0.3780E+01  0.1431E+02  0.6242E+01E
 Epicentro: EL PLAYON - SANTANDER                                              3
 ACTION:UPD 12-11-22 17:05 OP:ep   STATUS:               ID:20121022043413 L   I
 2012-10-22-0430-00M.COL___233                                                 6
 STAT SP IPHASW D HRMM SECON CODA AMPLIT PERI AZIMU VELO AIN AR TRES W  DIS CAZ7
 GIR2 SZ EP   1    434 31.55                             164    0.19 7 35.2 183 
 PAM  SZ EP   1    434 32.96                             156    0.35 7 52.9  97 
 PAM  SN ES        434 47.82                             156    0.4210 52.9  97 
 PAM  SN I         434 49.53        54.5 0.30                          52.9  97 
 BRR  HZ IP        434 32.73                             151    0.0410 67.4 242 
 BRR  HN ES   2    434 47.90                             151    0.36 5 67.4 242 
 BRR  HZ I         434 48.97        42.0 0.11                          67.4 242 
 BAR2 SZ EP   1    434 34.61                             143    0.14 7 89.0 181 
 BAR2 SZ ES   1    434 50.60                             143   -0.12 7 89.0 181 
 BAR2 SZ I         434 52.29        50.0 0.12                          89.0 181 
 OCA  HZ EP   1    434 34.21                             141   -0.56 7 94.5 350 
 OCA  HN ES        434 50.92                             141   -0.3210 94.5 350 
 OCA  HN I         434 52.97        53.5 0.27                          94.5 350 
 RUS  HZ EP   1    434 41.80                             124    0.07 7  167 177 
 RUS  HN ES        435  3.01                             124   -0.63 9  167 177 
 ZAR  HZ EP   1    434 43.08                             121   -0.02 7  186 273 
 ZAR  HN ES        435  6.14                             121    0.07 9  186 273 
 ZAR  HZ I         435 10.63        22.5 0.25                           186 273 
 HEL  HZ EP   1    434 56.04                             109    0.69 5  292 243 
 HEL  HN I         435 35.72         4.6 0.25                           292 243 
                                                                                
