 2014 1122 0234 25.5 L   6.766 -73.121149.0  RSN  6 0.4 1.4LRSN                1
 GAP=141        1.09       5.2     5.1  8.3 -0.4298E+01  0.1266E+02 -0.1002E+01E
 Epicentro: LOS SANTOS - SANTANDER                                             3
 ACTION:UPD 14-12-19 15:45 OP:nd   STATUS:               ID:20141122023425 L   I
 OLDACT:REG 14-11-22 13:09 OP:fm   STATUS:               ID:20141122022742     3
 2014-11-22-0227-42M.COL___300                                                 6
 STAT SP IPHASW D HRMM SECON CODA AMPLIT PERI AZIMU VELO AIN AR TRES W  DIS CAZ7
 BAR2 SZ EP        234 45.84                             172    0.4210 20.4 199 
 BAR2 SZ ES        235  1.42                             172    0.4210 20.4 199 
 BAR2 SZ I         235  1.97         7.4 0.20            172           20.4 199 
 PAM  SZ EP        234 48.27                             151    0.1810 78.7  36 
 PAM  SN ES        235  5.50                             151   -0.2510 78.7  36 
 PAM  SZ I         235  9.77         3.5 0.26            152           78.7  36 
 RUS  HZ EP        234 48.97                             146   -0.2810 96.7 178 
 RUS  HN ES        235  7.36                             146   -0.4610 96.7 178 
 RUS  HZ I         235  8.86         1.6 0.42            149           96.7 178 
 PTB  HZ EP        234 52.59                             132   -0.28 9  150 260 
 PTB  HN ES        235 13.49                             132   -0.76 9  150 260 
 PTB  HZ I         235 16.34         3.7 0.14            133            150 260 
 SPBC HZ EP        234 54.15                             130    0.05 9  162 221 
 SPBC HN ES        235 17.17                             130    0.73 9  162 221 
 SPBC HZ I         235 21.09         3.5 0.16            132            162 221 
 ZAR  HN ES        235 24.60                             122    0.30 8  208 293 
 ZAR  HZ I         235 30.64         2.9 0.46            123            208 293 
                                                                                
