 2017  722 0726 10.8 L   6.817 -73.153147.5  RSN  8 0.5 1.7LRSN                1
 GAP=135        1.24       6.5     6.0  8.8 -0.8480E+01  0.1723E+02  0.1286E+02E
 Epicentro: LOS SANTOS - SANTANDER                                             3
 ACTION:UPD 17-08-30 15:35 OP:rebc STATUS:               ID:20170722072610 L   I
 OLDACT:UP  17-07-22 16:00 OP:dnl  STATUS:               ID:20170722071741     3
 OLDACT:REG 17-07-22 13:17 OP:dnl  STATUS:               ID:20170722071741     3
 2017-07-22-0718-00M.COL___380                                                 6
 STAT SP IPHASW D HRMM SECON CODA AMPLIT PERI AZIMU VELO AIN AR TRES W  DIS CAZ7
 BAR2 EZ EP        726 30.50                             170   -0.1810 25.0 188 
 BAR2 EZ ES        726 45.60                             170   -0.5810 25.0 188 
 BAR2 EZ I         726 48.42        13.1 0.26            170           25.0 188 
 BRR  HZ IP     C  726 32.38                             153    0.3210 69.6 297 
 BRR  HN ES        726 49.44                             153    0.8110 69.6 297 
 BRR  HZ I         726 51.98         6.5 0.34            151           69.6 297 
 PAM  EZ EP   2    726 33.57                             151    0.42 5 76.5  41 
 PAM  EN ES        726 50.54                             151   -0.0410 76.5  41 
 PAM  EZ I         726 52.81        10.4 0.46            155           76.5  41 
 RUS  HZ EP        726 34.84                             144   -0.0310  102 176 
 RUS  HN ES        726 53.97                             144    0.3410  102 176 
 RUS  HZ I         726 54.45         7.5 0.28            146            102 176 
 PTB  HZ EP        726 36.99                             132   -0.89 9  147 258 
 PTB  HN ES        726 58.23                             132   -0.77 9  147 258 
 PTB  HZ I         727  1.99         4.4 0.16            132            147 258 
 NOR  HZ EP        726 47.00                             119    0.31 8  235 234 
 NOR  HE ES        727 15.04                             119    0.37 8  235 234 
 NOR  HZ I         727 19.27         4.3 0.26            120            235 234 
 HEL  HZ EP   4    726 53.05                             115    1.97 0  272 255 
 HEL  HE ES   4    727 20.66                             115   -1.82 0  272 255 
 HEL  HZ I         727 30.71         2.9 0.28            116            272 255 
 GUY2CHZ EP   4    726 56.62                             113    2.07 0  302 234 
 GUY2CHN ES        727 29.15                             113    0.49 7  302 234 
 GUY2CHZ I         727 35.82         2.6 0.64                           302 234 
 SJC  HZ EP   4    727  4.77                             106   -1.43 0  407 327 
 SJC  HN ES   4    727 44.66                             106   -4.74 0  407 327 
                                                                                
