 2017 1022 0407 23.6 L   6.770 -73.144146.0  RSN  5 0.2 1.2LRSN                1
 GAP=235        0.65       4.9     5.0  4.9  0.1108E+02  0.5054E+01  0.3204E+01E
 Epicentro: LOS SANTOS - SANTANDER                                             3
 ACTION:UPD 17-11-07 19:35 OP:rebc STATUS:               ID:20171022040723 L   I
 OLDACT:UP  17-10-22 16:16 OP:dani STATUS:               ID:20171022035250d    3
 OLDACT:DUP 17-10-22 16:14 OP:dani STATUS:               ID:20171022035250d    3
 2017-10-22-0358-00M.COL___414                                                 6
 STAT SP IPHASW D HRMM SECON CODA AMPLIT PERI AZIMU VELO AIN AR TRES W  DIS CAZ7
 BAR2 EZ EP        4 7 42.87                             172   -0.3210 20.1 192 
 BAR2 EZ ES        4 7 58.43                             172   -0.0410 20.1 192 
 BAR2 EZ I         4 8  1.70         5.7 0.48            173           20.1 192 
 BRR  HZ EP        4 7 44.67                             152   -0.1910 73.0 301 
 BRR  HN ES        4 8  1.72                             152    0.2710 73.0 301 
 BRR  HZ I         4 8  4.10         4.1 0.39            154           73.0 301 
 RUS  HZ EP   1    4 7 47.41                             145    0.28 7 97.3 176 
 RUS  HN ES        4 8  5.58                             145    0.0910 97.3 176 
 RUS  HZ I         4 8  6.75         1.9 0.22            148           97.3 176 
 PTB  HZ EP        4 7 50.95                             132    0.42 9  147 260 
 PTB  HN ES        4 8 11.28                             132   -0.27 9  147 260 
 PTB  HZ I         4 8 12.71         0.8 0.12            135            147 260 
 SPBC HZ EP     D  4 7 51.76                             130   -0.11 9  161 220 
                                                                                
