 2011  422 0306 30.5 L   6.829 -72.997138.0  RSN  4 0.3 1.3LRSN                1
 GAP=223        0.66      10.7    16.5 13.9  0.1158E+03 -0.1132E+03 -0.2252E+01E
 Epicentro: CEPITA - SANTANDER                                                 3
 ACTION:UP  11-06-22 15:32 OP:REBC STATUS:               ID:20110422030629 L   I
 2011-04-22-0300-00M.COL___140                                                 6
 STAT SP IPHASW D HRMM SECON CODA AMPLIT PERI AZIMU VELO SNR AR TRES W  DIS CAZ7
 BAR2 SZ EP        3 6 49.59                             169     0.210   33 218 
 BAR2 SZ I         3 6 50.58         8.6 0.47                            33 218 
 GIR2 SZ EP   1    3 6 49.59                             167     0.2 7   35 322 
 GIR2 SZ ES   3    3 7  2.93                                    -1.1 2   35 322 
 BRR  HZ EP        3 6 51.37                             151    -0.310   85 291 
 BRR  HZ I         3 6 51.59         2.9 0.17                            85 291 
 BRR  HN ES   1    3 7  8.40                             151     0.2 7   85 291 
 RUS  HZ EP        3 6 53.62                             144    -0.110  104 185 
 RUS  HN ES   3    3 7 12.32                             144     0.5 2  104 185 
 RUS  HZ I         3 7 14.18         1.8 0.35                           104 185 
                                                                                
