 2011  722 0134 48.6 L   6.779 -73.120143.9  RSN  5 0.3 1.4LRSN                1
 GAP=159        0.54       4.1     5.5  7.5 -0.1288E+02 -0.1061E+02  0.5414E+01E
 Epicentro: LOS SANTOS - SANTANDER                                             3
 ACTION:UPD 12-07-25 14:02 OP:epov STATUS:               ID:20110722013448 L   I
 2011-07-22-0120-00M.COL___139                                                 6
 STAT SP IPHASW D HRMM SECON CODA AMPLIT PERI AZIMU VELO AIN AR TRES W  DIS CAZ7
 BRR  HZ EP   1    135  9.86                             151    0.12 8 74.8 299 
 BRR  HN ES   1    135 26.54                             151    0.30 8 74.8 299 
 RUS  HZ EP   2    135 12.30                             144    0.34 5 98.1 178 
 RUS  HN ES   2    135 30.11                             144   -0.10 5 98.1 178 
 RUS  HZ I         135 31.36         3.3 0.21                          98.1 178 
 BRI  SZ EP   2    135 12.59                             141    0.20 5  110  19 
 GRA  SZ EP        135 13.82                             136    0.0410  127  16 
 GRA  SZ ES   1    135 33.00                             136   -0.43 7  127  16 
 GRA  SZ I         135 34.34         5.5 0.32                           127  16 
 NOR  SN ES   1    135 51.73                             118   -0.44 6  236 235 
                                                                                
