 2012  722 0443 52.1 L   6.706 -73.243150.8  RSN  4 0.2 1.2LRSN                1
 GAP=201        0.48       8.6     5.3  8.4 -0.4922E+01 -0.1265E+02  0.2830E+02E
 Epicentro: BARICHARA - SANTANDER                                              3
 ACTION:UPD 12-08-14 11:46 OP:ep   STATUS:               ID:20120722044352 L   I
 2012-07-22-0440-00M.COL___215                                                 6
 STAT SP IPHASW D HRMM SECON CODA AMPLIT PERI AZIMU VELO AIN AR TRES W  DIS CAZ7
 BAR2 SZ EP   1    444 12.00                             174    -0.2 7   14 152 
 BAR2 SZ I         444 29.37         3.1 0.22            141             14 152 
 BRR  HZ EP        444 13.64                             154     0.010   68 311 
 BRR  HZ I         444 13.96         5.4 0.17            166             68 311 
 BRR  HN ES   1    444 30.55                             154     0.1 7   68 311 
 PTB  HZ EP   1    444 18.68                             136     0.3 7  135 262 
 PTB  HN ES   1    444 38.82                             136    -0.1 7  135 262 
 PTB  HZ I         444 41.99         1.3 0.17            136            135 262 
 ZAR  HE ES   2    444 49.09                             124    -0.3 4  198 296 
