 2015 1222 0221 19.8 L   7.493 -73.170136.0  RSN 25 0.6 2.4LRSN                1
 GAP= 69        1.08       3.0     3.1  4.9 -0.2434E+01  0.1986E+01  0.2087E+00E
 Epicentro: EL PLAYON - SANTANDER                                              3
 ACTION:UPD 16-02-04 15:06 OP:cam  STATUS:               ID:20151222022119 L   I
 OLDACT:REG 15-12-22 12:46 OP:dnl  STATUS:               ID:20151222021749     3
 2015-12-22-0217-49M.COL___334                                                 6
 STAT SP IPHASW D HRMM SECON CODA AMPLIT PERI AZIMU VELO AIN AR TRES W  DIS CAZ7
 PAM  EZ EP        221 40.61                             157    0.8410 54.6 108 
 PAM  EE ES        221 55.71                             157    0.4110 54.6 108 
 PAM  EZ I         221 56.87        54.0 0.13            159           54.6 108 
 BRR  HN ES        221 55.61                             150   -0.2610 73.5 235 
 BRR  HZ I         221 56.85        39.5 0.14            147           73.5 235 
 OCA  HZ EP        221 41.65                             146    0.6610 84.1 349 
 OCA  HE ES        221 58.19                             146    0.7110 84.1 349 
 OCA  HZ I         222  1.00        90.0 0.17            146           84.1 349 
 BAR2 EZ IP     D  221 42.26                             142    0.0410 99.6 181 
 BAR2 EZ ES        221 58.71                             142   -0.9610 99.6 181 
 BAR2 EZ I         222  0.90        42.3 0.19            141           99.6 181 
 SML  HZ EP   2    221 49.08                             125    0.37 4  175 326 
 SML  HN ES   2    222 10.63                             125   -0.59 4  175 326 
 SML  HZ I         222 12.01        70.9 0.05            123            175 326 
 PTB  HZ EP   1    221 48.56                             124   -0.32 7  177 234 
 PTB  HN ES   1    222 11.31                             124   -0.23 7  177 234 
 PTB  HZ I         222 14.04        28.6 0.11            123            177 234 
 RUS  HZ EP        221 49.36                             125   -0.18 9  177 177 
 RUS  HE ES   3    222 11.35                             125   -1.35 2  177 177 
 ZAR  HZ EP   2    221 50.36                             123    0.53 4  186 270 
 ZAR  HN ES        222 13.64                             123    0.43 9  186 270 
 ZAR  HZ I         222 16.15        16.5 0.19            121            186 270 
 SPBC HZ EP        221 54.61                             117    0.41 8  227 206 
 SPBC HN ES   2    222 21.04                             117    0.04 4  227 206 
 SPBC HZ I         222 24.15        27.9 0.15            116            227 206 
 URE  HZ EP        221 57.40                             114   -0.63 8  262 276 
 URE  HN ES   4    222 25.50                             114   -2.32 0  262 276 
 URE  HZ I         222 27.81        13.5 0.16            112            262 276 
 SOCV BZ EP        221 59.10                             113    0.23 8  270  71 
 SOCV BN ES        222 28.45                             113   -0.87 8  270  71 
 NOR  HZ EP        222  0.42                             112   -0.14 7  284 221 
 NOR  HN ES        222 31.53                             112   -0.79 7  284 221 
 NOR  HZ I         222 37.97        24.3 0.15            111            284 221 
 ARGC HZ EP   4    221 56.06                             111   -4.75 0  287 336 
 ARGC HE ES   2    222 32.08                             111   -0.69 4  287 336 
 ARGC HZ I         222 44.71        11.7 0.31            111            287 336 
 HEL  HZ EP        222  2.85                             111    0.35 7  298 241 
 HEL  HN ES   4    222 33.77                             111   -2.00 0  298 241 
 HEL  HZ I         222 44.98        10.6 0.33            110            298 241 
 SDV  BZ EP   4    222  5.61                             109    0.88 0  319  61 
 SDV  BN ES        222 38.86                             109   -0.89 7  319  61 
 CHI  HZ EP   2    222  5.70                             109    0.29 3  323 191 
 CHI  HE ES   2    222 41.84                             109    0.89 3  323 191 
 CHI  HZ I         222 47.39         8.4 0.28            108            323 191 
 SJC  HZ EP   2    222  7.82                             107    0.17 3  346 320 
 SJC  HN ES        222 43.62                             107   -1.32 6  346 320 
 SJC  HZ I         222 46.40         4.4 0.31            107            346 320 
 GUY2CHZ EP        222  8.91                             107    0.35 6  349 224 
 GUY2CHE ES        222 46.84                             107    0.28 6  349 224 
 GUY2CHZ I         222 56.92         7.7 0.41                           349 224 
 CBOC HZ EP   1    222 10.00                             106    0.30 5  362 240 
 CBOC HN ES   4    222 46.74                             106   -1.86 0  362 240 
 CBOC HZ I         222 48.91         3.4 0.18            106            362 240 
 ELA  HN ES   4    222 52.02                             106   -1.43 0  382 220 
 ELA  HZ I         223  3.31         8.1 0.46            105            382 220 
 CRJC HZ EP        222 12.73                             105   -0.30 6  391   5 
 CRJC HE ES   4    222 49.35                             105   -5.17 0  391   5 
 CRJC HZ I         222 55.47        11.5 0.17            105            391   5 
 ANIL HZ EP        222 16.06                             104    0.12 6  414 217 
 ANIL HE ES   4    223  1.99                             104    2.29 0  414 217 
 PAL  HZ EP   2    222 20.28                             103    0.58 3  448 230 
 PAL  HE ES   4    223  4.92                             103   -1.46 0  448 230 
 ORTC HZ EP   2    222 20.74                             102   -0.15 2  458 210 
 ORTC HE ES   2    223  8.82                             102    0.31 2  458 210 
 ORTC HZ I         223 18.55         5.3 0.36            102            458 210 
 PRA  HZ EP   2    222 21.20                             102    0.20 2  459 205 
 PRA  HE ES   2    223  8.88                             102    0.17 2  459 205 
 PRA  HZ I         223 17.18        12.0 0.23            102            459 205 
                                                                                
