 2016  722 0751 13.1 L   6.550 -73.477124.6  RSN  4 0.1 1.3LRSN                1
 GAP=124        0.33       1.6     2.3  2.9  0.2146E+00  0.1772E+01  0.8992E+00E
 Epicentro: EL CARMEN - SANTANDER                                              3
 ACTION:UPD 17-03-29 16:53 OP:lp   STATUS:               ID:20160722075113 L   I
 OLDACT:REG 16-07-22 14:50 OP:ar   STATUS:               ID:20160722074759     3
 2016-07-22-0747-59S.COL___328                                                 6
 STAT SP IPHASW D HRMM SECON CODA AMPLIT PERI AZIMU VELO AIN AR TRES W  DIS CAZ7
 BAR2 EZ EP        751 30.27                             164   -0.1510 32.9  82 
 BAR2 EZ ES        751 44.08                             164    0.1110 32.9  82 
 BRR  HZ EP        751 31.74                             150    0.0510 66.9 337 
 BRR  HN ES        751 46.18                             150   -0.0510 66.9 337 
 BRR  HZ I         751 46.52         4.4 0.32            150           66.9 337 
 RUS  HZ EP        751 33.62                             144    0.0410 84.7 149 
 RUS  HN ES        751 49.55                             144   -0.0510 84.7 149 
 SPBC HZ EP        751 35.88                             133    0.0710  119 214 
 SPBC HN ES        751 53.52                             133   -0.0310  119 214 
 SPBC HZ I         751 55.05         3.1 0.10            133            119 214 
                                                                                
