 2012  122 0727 37.6 L   6.757 -73.134156.0  RSN  6 0.4 1.4LRSN                1
 GAP=140        0.53       5.0     4.6  6.5  0.1152E+02 -0.1718E+01 -0.3895E+01E
 Epicentro: LOS SANTOS - SANTANDER                                             3
 ACTION:UP  12-02-03 08:19 OP:REBC STATUS:               ID:20120122072737 L   I
 2012-01-22-0720-00M.COL___186                                                 6
 STAT SP IPHASW D HRMM SECON CODA AMPLIT PERI AZIMU VELO SNR AR TRES W  DIS CAZ7
 BAR2 SZ EP   1    727 58.41                             173     0.0 7   19 197 
 BAR2 SZ ES   3    728 14.13                             173    -0.5 2   19 197 
 BAR2 SZ I         728 15.19         3.7 0.46                            19 197 
 BRR  HZ EP        728  0.22                             153     0.210   75 301 
 BRR  HE ES   1    728 17.85                             153     0.3 7   75 301 
 BRR  HZ I         728 19.36         4.8 0.15                            75 301 
 PAM  SZ EP   3    728  1.19                             152     0.1 2   80  37 
 PAM  SN ES   3    728 17.84                             152    -1.6 2   80  37 
 RUS  HZ EP   1    728  2.04                             147     0.0 7   96 177 
 RUS  HN ES   1    728 21.23                             147     0.1 7   96 177 
 PTB  HZ EP   1    728  5.23                             134    -0.2 7  148 261 
 PTB  HN ES   1    728 26.98                             134    -0.2 7  148 261 
 ZAR  HN ES   1    728 36.97                             124    -0.2 6  207 293 
                                                                                
