 2012  522 0707 20.3 L   6.706 -73.217147.1  RSN  5 0.3 1.5LRSN                1
 GAP=214        0.78       7.6     7.0  8.1  0.3083E+02  0.7118E+01 -0.2417E+01E
 Epicentro: VILLANUEVA - SANTANDER                                             3
 ACTION:DUP 12-07-05 12:07 OP:pat  STATUS:               ID:20120522070721dL   I
 2012-05-22-0700-00M.COL___200                                                 6
 STAT SP IPHASW D HRMM SECON CODA AMPLIT PERI AZIMU VELO SNR AR TRES W  DIS CAZ7
 BAR2 SZ EP   1    7 7 39.64                             175    -0.3 7   13 163 
 BAR2 SZ ES   1    7 7 54.95                             175    -0.3 7   13 163 
 BAR2 SZ I         7 7 56.36        14.1 0.23                            13 163 
 BRR  HZ EP        7 7 41.49                             153    -0.110   70 309 
 BRR  HZ I         7 7 41.74         9.4 0.14                            70 309 
 BRR  HN ES   1    7 7 58.72                             153     0.6 7   70 309 
 RUS  HZ EP   1    7 7 43.98                             147     0.4 7   91 171 
 RUS  HN ES   1    7 8  1.53                             147    -0.1 7   91 171 
 RUS  HZ I         7 8  3.48         3.6 0.37                            91 171 
 PTB  HZ EP   1    7 7 46.60                             134     0.1 7  138 262 
 PTB  HN ES   1    7 8  7.05                             134     0.1 7  138 262 
 PTB  HZ I         7 8 11.09         2.2 0.16                           138 262 
 ZAR  HN ES   1    7 8 17.21                             123    -0.4 6  201 296 
                                                                                
