 2011  622 0832 19.4 L   6.770 -73.112140.6  RSN 17 0.3 2.7LRSN                1
 GAP=142        0.74       2.7     4.7  4.3 -0.5159E+01  0.4243E+01  0.1517E+01E
 Epicentro: LOS SANTOS - SANTANDER                                             3
 ACTION:UP  11-07-14 19:07 OP:ep   STATUS:               ID:20110622083219 L   I
 2011-06-22-0828-25S.COL___140                                                 6
 STAT SP IPHASW D HRMM SECON CODA AMPLIT PERI AZIMU VELO SNR AR TRES W  DIS CAZ7
 BAR2 SZ IP        832 38.45                             171     0.110   21 202 
 BAR2 SZ I         832 39.03       186.8 0.36                            21 202 
 BAR2 SZ ES   1    832 52.69                             171    -0.4 7   21 202 
 BTL  SZ IP        832 38.88                             170     0.510   24 314 
 BTL  SZ ES   1    832 53.65                             170     0.4 7   24 314 
 GIR2 SZ IP        832 38.59                             165     0.010   35 345 
 BRR  HZ EP        832 40.39                             150     0.110   76 299 
 BRR  HN ES   1    832 56.72                             150     0.2 7   76 299 
 BRR  HZ I         833  2.65       130.0 0.12                            76 299 
 PAM  SZ EP   1    832 41.43                             150     0.4 7   78  36 
 PAM  SN ES   1    832 58.21                             150     0.2 7   78  36 
 RUS  HZ EP   1    832 42.33                             144     0.0 7   97 178 
 RUS  HN ES   1    833  0.16                             144    -0.1 7   97 178 
 RUS  HZ I         833  2.05        87.5 0.30                            97 178 
 BRI  SZ EP   1    832 43.17                             140     0.3 7  110  18 
 BRI  SZ ES   1    833  0.68                             140    -0.6 7  110  18 
 GRA  SZ EP        832 44.46                             135     0.110  128  15 
 GRA  SZ ES   1    833  3.14                             135    -0.7 7  128  15 
 GRA  SZ I         833  5.10       116.2 0.34                           128  15 
 OCA  SZ EP        832 47.15                             128    -0.5 9  164 352 
 OCA  SZ ES   2    833  9.44                             128    -0.3 5  164 352 
 OCA  SZ I         833 10.44        89.8 0.44                           164 352 
 NOR  SZ EP   1    832 54.43                             117    -0.5 6  236 236 
 NOR  SN ES   2    833 22.39                             117    -0.3 4  236 236 
 CHI  HZ EP   1    832 56.66                             116     0.1 6  246 196 
 CHI  HE ES   1    833 25.40                             116    -0.1 6  246 196 
 CHI  HZ I         833 30.45        16.0 0.34                           246 196 
 HEL  HZ EP   2    833  0.20                             113     0.6 4  275 257 
 HEL  HN ES   2    833 30.70                             113    -0.3 4  275 257 
 HEL  HZ I         833 37.26        27.3 0.27                           275 257 
 VIL  SZ EP   1    833  1.72                             111    -0.5 5  301 192 
 VIL  SN ES   2    833 35.45                             111    -0.3 4  301 192 
 VIL  SZ I         833 41.31        19.6 0.55                           301 192 
 RREF HZ EP   2    833  5.57                             110     0.2 3  322 230 
 RREF HN ES   2    833 40.97                             110    -0.3 3  322 230 
 RREF HZ I         833 46.95        29.2 0.17                           322 230 
 DBB  SZ EP   1    833  7.47                             108     0.4 5  343 275 
 PRA  HZ EP   1    833 12.59                             106     0.0 4  391 210 
 SJA  SZ EP   2    833 13.48                             105     0.0 3  398 194 
                                                                                
