 2013 1122 0827 44.5 L   6.827 -73.164139.6  RSN 11 0.5 2.1LRSN                1
 GAP=133        0.99       4.2     4.4  6.7 -0.6858E+01  0.9205E+01 -0.2426E+00E
 Epicentro: LOS SANTOS - SANTANDER                                             3
 ACTION:UPD 14-01-09 16:30 OP:ep   STATUS:               ID:20131122082744 L   I
 OLDACT:UP  13-11-22 14:32 OP:mh   STATUS:               ID:20131122082000     3
 OLDACT:REG 13-11-22 11:30 OP:mh   STATUS:               ID:20131122082000     3
 2013-11-22-0820-00M.COL___282                                                 6
 STAT SP IPHASW D HRMM SECON CODA AMPLIT PERI AZIMU VELO AIN AR TRES W  DIS CAZ7
 BAR2 SZ EP        828  3.33                             169   -0.1410 26.0 185 
 BAR2 SZ ES   1    828 17.91                             169   -0.34 7 26.0 185 
 BAR2 SZ I         828 19.53        33.6 0.15            165           26.0 185 
 BRR  HZ EP   1    828  5.27                             152    0.44 7 68.1 297 
 BRR  HN ES   1    828 20.82                             152    0.15 7 68.1 297 
 BRR  HZ I         828 26.54        36.9 0.05            153           68.1 297 
 PAM  SZ EP        828  6.36                             150    0.3310 76.4  42 
 PAM  SN ES        828 23.13                             150    0.3310 76.4  42 
 PAM  SZ I         828 25.79        32.1 0.55            150           76.4  42 
 RUS  HZ EP   1    828  7.38                             142   -0.52 7  104 175 
 RUS  HZ I         828 27.05         8.0 0.24            138            104 175 
 PTB  HZ EP   1    828  9.90                             131   -0.97 7  146 258 
 PTB  HN ES        828 30.96                             131   -0.46 9  146 258 
 PTB  HZ I         828 34.27        16.2 0.14            129            146 258 
 OCA  HZ EP   1    828 11.78                             129   -0.28 7  157 354 
 OCA  HN ES        828 33.46                             129   -0.08 9  157 354 
 OCA  HZ I         828 37.00        17.3 0.44            129            157 354 
 ZAR  HZ EP        828 16.53                             121    0.26 9  201 292 
 ZAR  HN ES   1    828 41.68                             121    0.65 6  201 292 
 ZAR  HZ I         828 47.73        12.5 0.34            120            201 292 
 NOR  HZ EP   1    828 20.26                             117    0.34 6  235 234 
 NOR  HN ES   1    828 47.81                             117    0.29 6  235 234 
 SML  HZ EP        828 19.83                             116   -0.60 8  240 335 
 SML  HN ES   2    828 47.88                             116   -0.55 4  240 335 
 SML  HZ I         828 54.95        21.6 0.08            116            240 335 
 HEL  HZ EP   1    828 25.33                             114    1.03 6  271 255 
 HEL  HN ES   1    828 54.84                             114   -0.48 6  271 255 
 HEL  HZ I         829  2.36         3.2 0.29            112            271 255 
 GUY2CHZ EP   4    828 29.29                             111    1.43 0  301 234 
 GUY2CHN ES   1    829  2.72                             111    1.05 5  301 234 
 GUY2CHZ I         829  8.78         4.1 0.25                           301 234 
 PTGC HZ EP   4    828 26.72                             110   -1.79 0  312 159 
 PTGC HN ES   4    828 59.72                             110   -3.09 0  312 159 
 SJC  HZ EP   4    828 38.31                             105   -1.16 0  406 327 
                                                                                
