 2012  222 0938 39.8 L   6.735 -73.147144.8  RSN 11 0.4 2.4LRSN                1
 GAP=139        0.86       4.2     5.1  5.7 -0.6158E+01  0.3891E+01  0.5071E+01E
 ACTION:UP  12-03-07 16:33 OP:epov STATUS:               ID:20120222093839 L   I
 2012-02-22-0936-59S.COL___194                                                 6
 STAT SP IPHASW D HRMM SECON CODA AMPLIT PERI AZIMU VELO AIN AR TRES W  DIS CAZ7
 BAR2 SZ EP        938 59.16                             173   -0.0510 16.3 194 
 BAR2 SZ ES   1    939 13.93                             173   -0.40 7 16.3 194 
 BAR2 SZ I         939 15.45        67.2 0.38                          16.3 194 
 GIR2 SZ EP   1    938 59.24                             165   -0.34 7 38.3 352 
 GIR2 SZ ES   1    939 15.17                             165    0.17 7 38.3 352 
 BRR  HZ IP     C  939  1.02                             151   -0.0510 74.8 303 
 BRR  HZ I         939  1.33       141.1 0.16                          74.8 303 
 BRR  HE ES   1    939 18.44                             151    0.80 7 74.8 303 
 PAM  SZ EP        939  1.92                             149   -0.3610 83.1  36 
 PAM  SZ I         939  2.21        29.2 0.18                          83.1  36 
 PAM  SN ES   1    939 19.41                             149   -0.39 7 83.1  36 
 RUS  HZ EP   1    939  3.26                             146    0.29 7 93.5 176 
 RUS  HN ES   1    939 21.63                             146    0.60 7 93.5 176 
 RUS  HZ I         939 23.04        26.8 0.32                          93.5 176 
 PTB  HZ EP   1    939  5.84                             132   -0.74 7  146 262 
 PTB  HN ES   1    939 27.14                             132   -0.32 7  146 262 
 OCA  SZ EP   1    939  9.55                             128    0.83 7  167 353 
 OCA  SZ ES   2    939 31.62                             128    0.35 5  167 353 
 NOR  SZ EP   1    939 15.34                             119    0.30 6  230 236 
 NOR  SN ES   1    939 42.35                             119   -0.16 6  230 236 
 CHI  HZ EP   1    939 17.14                             118    0.43 6  242 196 
 CHI  HZ I         939 19.82         7.7 0.38                           242 196 
 ROSC BZ EP   1    939 16.82                             117   -0.39 6  247 212 
 PRA  HZ EP   1    939 32.80                             107    0.23 4  386 210 
                                                                                
