 2011  522 0210  7.8 L   6.768 -73.125148.3  RSN 14 0.3 2.4LRSN                1
 GAP=141        0.62       2.6     3.8  3.9 -0.4475E+01  0.3977E+01  0.1323E+01E
 Epicentro: LOS SANTOS - SANTANDER                                             3
 ACTION:UP  11-06-29 08:55 OP:tino STATUS:               ID:20110522021007 L   I
 2011-05-22-0200-00M.COL___142                                                 6
 STAT SP IPHASW D HRMM SECON CODA AMPLIT PERI AZIMU VELO SNR AR TRES W  DIS CAZ7
 BAR2 SZ EP        210 27.63                             172    -0.110   20 198 
 BAR2 SZ ES   1    210 43.18                             172     0.0 7   20 198 
 BAR2 SZ I         210 44.49        96.1 0.20                            20 198 
 BTL  SZ EP        210 28.27                             171     0.510   23 316 
 GIR2 SZ EP   1    210 27.99                             166     0.1 7   35 348 
 GIR2 SZ ES   1    210 43.66                             166     0.1 7   35 348 
 BRR  HZ EP        210 29.55                             152     0.110   75 300 
 BRR  HE ES   1    210 46.83                             152     0.5 7   75 300 
 BRR  HZ I         210 47.92        51.4 0.09                            75 300 
 PAM  SZ EP        210 30.54                             151     0.110   79  37 
 PAM  SE ES   1    210 47.48                             151    -0.5 7   79  37 
 RUS  HZ EP        210 31.59                             145     0.010   97 177 
 RUS  HE ES   1    210 49.88                             145    -0.2 7   97 177 
 RUS  HZ I         210 52.27        25.5 0.40                            97 177 
 GRA  SZ EP        210 33.52                             137     0.010  128  16 
 GRA  SZ ES   1    210 53.32                             137    -0.2 7  128  16 
 GRA  SZ I         210 57.90        19.2 0.55                           128  16 
 OCA  SZ EP   1    210 36.65                             129     0.0 7  164 352 
 OCA  SZ ES   1    210 58.70                             129    -0.5 7  164 352 
 OCA  SZ I         211  2.18        25.8 0.27                           164 352 
 NOR  SZ EP   1    210 43.80                             119     0.1 6  235 235 
 NOR  SN ES   1    211 11.53                             119    -0.1 6  235 235 
 HEL  HZ EP   1    210 48.03                             115    -0.3 6  273 257 
 HEL  HE ES   2    211 19.22                             115    -0.7 4  273 257 
 HEL  HZ I         211 27.23        14.4 0.23                           273 257 
 GUY  SZ EP   1    210 52.14                             113     0.3 5  303 236 
 GUY  SZ I         211 37.44        26.3 0.25                           303 236 
 RREF HZ EP   1    210 53.95                             111    -0.1 5  321 230 
 RREF HN ES   1    211 29.89                             111    -0.2 5  321 230 
 RREF HZ I         211 38.30        14.2 0.34                           321 230 
 TOL  SZ EP   1    210 56.12                             110     0.0 5  343 225 
 PRA  HZ EP   1    211  1.30                             107     0.1 4  390 210 
 PRA  HE ES   1    211 42.52                             107    -0.3 4  390 210 
                                                                                
