 2010 1022 0135  8.0 L   6.792 -73.079146.1  RSN  7 0.1 1.8LRSN                1
 GAP=166        0.33       2.6     5.2  3.1  0.6085E+01 -0.2879E+01 -0.1197E+01E
 Epicentro: LOS SANTOS - SANTANDER                                             3
 ACTION:UP  11-02-18 11:11 OP:tino STATUS:               ID:20101022013508 L   I
 2010-10-22-0133-15S.COL___125                                                 6
 STAT SP IPHASW D HRMM SECON CODA AMPLIT PERI AZIMU VELO SNR AR TRES W  DIS CAZ7
 BAR2 SZ EP   1    135 27.61                             170    -0.1 7   25 208 
 BAR2 SZ ES   1    135 43.10                             170     0.0 7   25 208 
 BAR2 SZ I         135 45.61        11.8 0.40                            25 208 
 BRR  HZ IP     D  135 29.67                             150     0.010   78 297 
 BRR  HE ES   1    135 46.48                             150     0.0 7   78 297 
 BRR  HZ I         135 51.20        14.1 0.14                            78 297 
 RUS  HZ EP   1    135 31.80                             144     0.1 7   99 180 
 RUS  HN ES   1    135 50.29                             144     0.1 7   99 180 
 RUS  HZ I         135 51.21         6.2 0.34                            99 180 
 GRA  SZ EP   2    135 33.34                             137     0.1 5  125  14 
 GRA  SZ I         135 55.98         4.7 0.46                           125  14 
 OCA  SZ EP   2    135 36.53                             129     0.0 5  162 351 
 OCA  SZ I         136  2.88         8.5 0.15                           162 351 
 CHI  HZ EP   2    135 45.53                             117    -0.4 4  250 197 
 CHI  HZ I         136 20.67         3.7 0.36                           250 197 
 PRA  HZ EP   1    136  2.12                             106     0.2 4  395 211 
 PRA  HZ I         136 47.58         9.8 0.39                           395 211 
                                                                                
