 2013 1222 0106 51.8 L   6.791 -73.137141.5  RSN  7 0.5 1.5LRSN                1
 GAP=139        1.32       6.6     7.0  9.6 -0.1339E+02  0.1543E+02  0.7704E+01E
 Epicentro: LOS SANTOS - SANTANDER                                             3
 ACTION:UPD 14-01-13 10:20 OP:ep   STATUS:               ID:20131222010651 L   I
 OLDACT:REG 13-12-22 08:52 OP:jn   STATUS:               ID:20131222010000     3
 2013-12-22-0100-00M.COL___285                                                 6
 STAT SP IPHASW D HRMM SECON CODA AMPLIT PERI AZIMU VELO AIN AR TRES W  DIS CAZ7
 BAR2 SZ EP        1 7 10.97                             171    0.0510 22.6 193 
 BAR2 SZ ES        1 7 26.67                             171    0.8510 22.6 193 
 BAR2 SZ I         1 7 27.55        12.9 0.14            164           22.6 193 
 PAM  SZ EP        1 7 13.96                             150    0.3710 77.5  39 
 PAM  SN ES   1    1 7 30.20                             150   -0.37 7 77.5  39 
 PAM  SZ I         1 7 31.53         5.2 0.20            145           77.5  39 
 RUS  HZ EP        1 7 15.14                             143    0.0610 99.6 177 
 RUS  HN ES        1 7 32.26                             143   -0.9610 99.6 177 
 RUS  HZ I         1 7 36.05         2.4 0.28            133           99.6 177 
 PTB  HZ EP        1 7 17.94                             131   -0.57 9  148 259 
 PTB  HN ES        1 7 38.83                             131   -0.50 9  148 259 
 PTB  HZ I         1 7 41.45         5.0 0.12            121            148 259 
 SPBC HZ EP   1    1 7 20.35                             128    0.37 7  163 219 
 SPBC HZ I         1 7 49.31         5.8 0.26            118            163 219 
 NOR  HN ES        1 7 55.75                             118    0.73 8  235 235 
 NOR  HZ I         1 8  3.71         2.5 0.18            109            235 235 
 CHI  HZ EP        1 7 29.00                             116   -0.21 8  248 195 
 CHI  HN ES        1 7 58.79                             116    0.41 8  248 195 
 CHI  HZ I         1 8  5.34         1.7 0.34            108            248 195 
                                                                                
