 2014  322 0855 16.1 L   6.806 -73.180148.5  RSN 10 0.3 2.1LRSN                1
 GAP=132        0.80       2.5     3.4  5.0 -0.2683E+00  0.6230E+01 -0.6459E+00E
 Epicentro: LOS SANTOS - SANTANDER                                             3
 OLDACT:UP  14-03-22 13:48 OP:mh   STATUS:               ID:20140322084815d    3
 OLDACT:DUP 14-03-22 13:40 OP:mh   STATUS:               ID:20140322084815d    3
 ACTION:UPD 14-04-09 23:19 OP:nd   STATUS:               ID:20140322085516 L   I
 OLDACT:UP  14-03-22 13:48 OP:mh   STATUS:               ID:20140322084815d    3
 2014-03-22-0848-13M.COL___231                                                 6
 STAT SP IPHASW D HRMM SECON CODA AMPLIT PERI AZIMU VELO AIN AR TRES W  DIS CAZ7
 BAR2 SZ EP        855 36.19                             170    0.1210 23.7 181 
 BAR2 SZ ES        855 51.98                             170    0.3310 23.7 181 
 BAR2 SZ I         855 52.72        48.9 0.24            169           23.7 181 
 PAM  SZ EP        855 39.15                             151    0.4210 79.3  42 
 PAM  SN ES        855 56.22                             151   -0.1510 79.3  42 
 PAM  SZ I         855 58.93        14.8 0.62            155           79.3  42 
 RUS  HZ EP        855 40.18                             144   -0.0210  102 174 
 RUS  HN ES        855 58.47                             144   -0.5310  102 174 
 RUS  SZ I         856  0.04        11.3 0.34            146            102 174 
 PTB  HZ EP        855 43.14                             133    0.16 9  144 258 
 PTB  HN ES        856  3.90                             133   -0.04 9  144 258 
 PTB  SZ I         856  6.52        13.0 0.14            131            144 258 
 SPBC HZ EP   4    855 44.98                             130    0.33 0  161 218 
 SPBC HN ES   4    856  7.62                             130    0.71 0  161 218 
 SPBC SZ I         856 11.72        14.1 0.32            130            161 218 
 ZAR  HZ EP   1    855 48.37                             123    0.03 6  200 292 
 ZAR  HE ES        856 14.01                             123    0.52 9  200 292 
 ZAR  SZ I         856 19.09        10.9 0.50            123            200 292 
 NOR  HZ EP        855 51.93                             119    0.22 8  232 234 
 NOR  HN ES        856 19.21                             119   -0.27 8  232 234 
 NOR  SZ I         856 28.00         8.5 0.22            119            232 234 
 SML  HZ EP        855 52.55                             118   -0.10 8  241 336 
 SML  HN ES        856 20.42                             118   -0.73 8  241 336 
 SML  SZ I         856 24.71        16.9 0.06            119            241 336 
 CHI  HZ EP        855 54.17                             118    0.24 8  248 194 
 CHI  HN ES        856 23.29                             118   -0.14 8  248 194 
 CHI  SZ I         856 28.63         5.4 1.72            119            248 194 
 URE  HZ EP   1    855 56.29                             114   -0.60 6  280 292 
 URE  HE ES   4    856 26.40                             114   -2.30 0  280 292 
 URE  SZ I         856 43.54         4.9 0.62            114            280 292 
                                                                                
