 2016  522 0212 17.5 L   6.810 -73.159143.7  RSN  8 0.4 1.7LRSN                1
 GAP=134        1.00       3.3     4.2  6.1 -0.1632E+01  0.5636E+01 -0.1532E+01E
 Epicentro: LOS SANTOS - SANTANDER                                             3
 ACTION:UPD 16-08-18 17:48 OP:cam  STATUS:               ID:20160522021217 L   I
 OLDACT:UP  16-05-22 15:24 OP:mh   STATUS:               ID:20160522020746     3
 OLDACT:REG 16-05-22 13:02 OP:mh   STATUS:               ID:20160522020746     3
 2016-05-22-0207-46M.COL___298                                                 6
 STAT SP IPHASW D HRMM SECON CODA AMPLIT PERI AZIMU VELO AIN AR TRES W  DIS CAZ7
 BAR2 EZ EP        212 36.78                             170   -0.0710 24.2 186 
 BAR2 EZ ES        212 51.94                             170   -0.0410 24.2 186 
 BAR2 EZ I         212 53.26        15.1 0.26            169           24.2 186 
 BRR  HZ EP        212 38.38                             153    0.1110 69.4 298 
 BRR  HN ES        212 55.14                             153    0.6310 69.4 298 
 BRR  HZ I         212 56.74         7.9 0.50            151           69.4 298 
 PAM  EZ EP        212 39.64                             150    0.1910 77.5  41 
 PAM  EN ES        212 56.81                             150    0.2010 77.5  41 
 PAM  EZ I         212 58.75         6.2 0.52            155           77.5  41 
 RUS  HZ EP        212 40.65                             143   -0.4410  102 175 
 RUS  HN ES        212 59.27                             143   -0.2510  102 175 
 RUS  HZ I         213  1.00         3.1 0.11            145            102 175 
 PTB  HZ EP        212 43.84                             132   -0.30 9  147 258 
 PTB  HN ES        213  4.43                             132   -0.52 9  147 258 
 PTB  HZ I         213 11.63         4.3 0.18            132            147 258 
 OCA  HZ EP        212 45.90                             129    0.42 9  159 354 
 OCA  HN ES        213  6.52                             129   -0.83 9  159 354 
 OCA  HZ I         213 11.22         8.7 0.46            131            159 354 
 SPBC HZ EP        212 45.96                             129    0.18 9  163 218 
 SPBC HN ES        213  8.35                             129    0.47 9  163 218 
 SPBC HZ I         213 15.54         8.5 0.24            129            163 218 
 ZAR  HZ EP        212 50.04                             122    0.46 9  202 292 
 ZAR  HN ES        213 14.45                             122   -0.19 9  202 292 
 ZAR  HZ I         213 20.09         5.7 0.07            123            202 292 
                                                                                
