 2017  322 0538 33.7 L   6.795 -73.320120.8  RSN  6 0.4 1.5LRSN                1
 GAP=100        0.87       4.3     3.5  6.7 -0.4041E+01  0.6838E+01 -0.4019E+01E
 Epicentro: ZAPATOCA - SANTANDER                                               3
 ACTION:UPD 17-05-25 18:43 OP:jn   STATUS:               ID:20170322053833 L   I
 OLDACT:UP  17-03-22 15:32 OP:dani STATUS:               ID:20170322052748     3
 OLDACT:REG 17-03-22 12:32 OP:dani STATUS:               ID:20170322052748     3
 2017-03-22-0528-00M.COL___367                                                 6
 STAT SP IPHASW D HRMM SECON CODA AMPLIT PERI AZIMU VELO AIN AR TRES W  DIS CAZ7
 BAR2 EZ EP     D  538 50.83                             167    0.3410 27.1 146 
 BAR2 EZ ES        539  3.56                             167    0.0110 27.1 146 
 BAR2 EZ I         539  5.00        26.8 0.22            165           27.1 146 
 BRR  HZ EP        538 51.22                             154   -0.0910 55.4 309 
 BRR  HN ES        539  5.23                             154    0.2110 55.4 309 
 BRR  HZ I         539  6.15        11.8 0.12            156           55.4 309 
 PAM  EZ EP        538 54.07                             141   -0.3310 91.3  49 
 PAM  EE ES        539 10.47                             141   -0.0310 91.3  49 
 PAM  EZ I         539 14.45         4.7 0.41            144           91.3  49 
 PTB  HZ EP   3    538 55.96                             130   -1.01 2  129 257 
 PTB  HN ES        539 14.42                             130   -0.6710  129 257 
 PTB  HZ I         539 18.81         2.6 0.14            130            129 257 
 SPBC HZ EP   3    539  0.97                             125    1.71 2  151 213 
 SPBC HN ES        539 19.26                             125    0.10 9  151 213 
 SPBC HZ I         539 26.09         4.1 0.15            125            151 213 
 ZAR  HZ EP        539  2.68                             119   -0.13 9  187 295 
 ZAR  HN ES        539 26.10                             119    0.62 9  187 295 
 ZAR  HZ I         539 27.60         3.2 0.11            120            187 295 
                                                                                
