 2017  822 0101 19.0 L   6.811 -73.150150.3  RSN 15 0.5 2.0LRSN                1
 GAP= 65        1.21       3.0     3.6  5.6  0.1128E+00  0.3824E+01  0.1679E+01E
 Epicentro: LOS SANTOS - SANTANDER                                             3
 ACTION:UPD 17-09-04 20:23 OP:rebc STATUS:               ID:20170822010119 L   I
 OLDACT:REG 17-08-22 12:31 OP:osc  STATUS:               ID:20170822005748     3
 2017-08-22-0058-00M.COL___414                                                 6
 STAT SP IPHASW D HRMM SECON CODA AMPLIT PERI AZIMU VELO AIN AR TRES W  DIS CAZ7
 BAR2 EZ EP        1 1 38.99                             170   -0.1910 24.4 188 
 BAR2 EZ ES        1 1 54.52                             170   -0.4110 24.4 188 
 BAR2 EZ I         1 1 55.65        43.7 0.16            170           24.4 188 
 BRR  HZ IP     C  1 1 40.80                             154    0.2310 70.2 298 
 BRR  HE ES        1 1 58.14                             154    0.7310 70.2 298 
 BRR  HZ I         1 2  2.03        14.5 0.14            152           70.2 298 
 PAM  EZ EP        1 1 41.91                             152    0.2610 76.8  40 
 PAM  EN ES        1 1 59.37                             152    0.0410 76.8  40 
 PAM  EZ I         1 2  1.44        14.8 0.48            155           76.8  40 
 RUS  HZ EP        1 1 43.25                             144   -0.0210  102 176 
 RUS  HN ES        1 2  1.75                             144   -0.4610  102 176 
 RUS  HZ I         1 2  2.62        10.8 0.28            146            102 176 
 TAM  HZ EP        1 1 47.38                             131    0.28 9  156 105 
 TAM  HN ES        1 2  9.21                             131    0.19 9  156 105 
 SPBC HZ EP        1 1 48.29                             130    0.40 9  164 219 
 SPBC HE ES        1 2 10.03                             130   -0.41 9  164 219 
 SPBC HZ I         1 2 12.93        14.9 0.14            130            164 219 
 YPLC HZ IP     D  1 1 49.40                             127    0.17 9  178 151 
 YPLC HE ES        1 2 12.97                             127    0.14 9  178 151 
 ZAR  HZ EP        1 1 53.00                             123    1.36 9  203 292 
 ZAR  HE ES        1 2 16.74                             123   -0.37 9  203 292 
 ZAR  HZ I         1 2 23.64        12.9 0.24            123            203 292 
 CHI  HZ EP        1 1 57.42                             118    0.37 8  250 195 
 CHI  HE ES        1 2 26.91                             118    0.18 8  250 195 
 CHI  HZ I         1 2 29.97         3.2 0.16            119            250 195 
 ROSC BZ EP        1 1 57.96                             118    0.52 8  254 211 
 ROSC BN ES        1 2 27.05                             118   -0.38 8  254 211 
 ROSC BZ I         1 2 33.67         9.5 0.40            118            254 211 
 HEL  HE ES   4    1 2 28.78                             116   -2.17 0  272 256 
 GUY2CHZ EP        1 2  1.84                             113   -1.00 7  301 235 
 GUY2CHE ES        1 2 37.46                             113    0.42 7  301 235 
 GUY2CHZ I         1 2 44.68         2.2 0.27                           301 235 
 PTGC HZ EP        1 2  2.20                             112   -0.99 7  310 159 
 PTGC HN ES   4    1 2 34.88                             112   -2.79 0  310 159 
 LL6C HZ EP        1 2  3.71                             111   -1.04 7  324 358 
 LL6C HE ES        1 2 39.59                             111   -0.85 7  324 358 
 PRA  HZ EP        1 2 12.95                             107    0.19 6  393 209 
 PRA  HE ES        1 2 54.00                             107   -0.70 6  393 209 
 PRA  HZ I         1 3  1.26         4.1 0.32            108            393 209 
 SJC  HZ EP   4    1 2 13.26                             106   -1.30 0  408 327 
 SJC  HE ES        1 2 57.47                             106   -0.43 6  408 327 
 SJC  HZ I         1 3  2.16         2.2 0.36            107            408 327 
                                                                                
