 2017  422 0729 51.1 L   6.715 -73.173146.3  RSN  5 0.3 1.3LRSN                1
 GAP=147        0.74       6.4     3.6  6.2 -0.4543E+01  0.4117E+01 -0.2993E+01E
 Epicentro: VILLANUEVA - SANTANDER                                             3
 ACTION:UPD 17-05-30 21:15 OP:jn   STATUS:               ID:20170422072951 L   I
 OLDACT:REG 17-04-22 11:59 OP:dnl  STATUS:               ID:20170422072202     3
 2017-04-22-0728-00M.COL___368                                                 6
 STAT SP IPHASW D HRMM SECON CODA AMPLIT PERI AZIMU VELO AIN AR TRES W  DIS CAZ7
 BAR2 EZ EP        730 10.76                             175    0.1510 13.6 184 
 BAR2 EZ ES        730 25.69                             175   -0.1610 13.6 184 
 BAR2 EZ I         730 26.68         6.6 0.38            174           13.6 184 
 BRR  HZ EP        730 12.55                             152    0.1410 73.7 306 
 BRR  HN ES        730 29.64                             152    0.5810 73.7 306 
 BRR  HZ I         730 30.68         5.2 0.36            149           73.7 306 
 PAM  EZ EP        730 13.67                             148   -0.2410 86.6  37 
 PAM  EN ES        730 31.61                             148   -0.1210 86.6  37 
 PAM  EZ I         730 33.76         1.7 0.36            150           86.6  37 
 PTB  HZ EP   2    730 18.36                             133    0.69 5  143 262 
 PTB  HN ES        730 38.08                             133   -0.34 9  143 262 
 PTB  HZ I         730 44.89         1.4 0.40            132            143 262 
 ZAR  HZ EP   2    730 23.52                             122   -0.13 4  205 295 
 ZAR  HE ES        730 48.82                             122   -0.24 9  205 295 
 ZAR  HZ I         730 54.01         2.8 0.44            122            205 295 
                                                                                
