 2012 1022 0052 17.9 L   6.827 -73.130150.0  RSN 14 0.5 3.0LRSN                1
 GAP= 66        0.77       3.2     3.2  6.2  0.2837E+01  0.5424E+01  0.3568E+01E
 Epicentro: LOS SANTOS - SANTANDER                                             3
 ACTION:UPD 12-11-22 17:05 OP:ep   STATUS:               ID:20121022005217 L   I
 2012-10-22-0050-00M.COL___233                                                 6
 STAT SP IPHASW D HRMM SECON CODA AMPLIT PERI AZIMU VELO AIN AR TRES W  DIS CAZ7
 BAR2 SZ EP   1    052 37.84                             169   -0.25 7 26.6 193 
 BAR2 SZ ES   2    052 53.27                             169   -0.58 5 26.6 193 
 BAR2 SZ I         052 55.98       240.1 0.36                          26.6 193 
 GIR2 SZ EP   1    052 37.87                             169   -0.12 7 28.7 346 
 BRR  HZ IP     D  052 39.67                             153    0.1710 71.4 296 
 BRR  HN ES   2    052 57.15                             153    0.79 5 71.4 296 
 BRR  HN I         052 57.71       365.7 0.28                          71.4 296 
 PAM  SZ EP        052 40.56                             153    0.2010 74.0  40 
 PAM  SN ES   2    052 57.98                             153    0.10 5 74.0  40 
 PAM  SN I         052 59.23       186.6 0.25                          74.0  40 
 RUS  HZ EP   1    052 41.65                             144   -0.61 7  103 177 
 RUS  HN ES   2    053  0.51                             144   -0.76 5  103 177 
 RUS  HN I         053  2.14       198.0 0.41                           103 177 
 TAM  HZ IP     D  052 45.94                             132    0.12 9  154 106 
 TAM  HE ES   2    053  7.60                             132   -0.01 5  154 106 
 OCA  HZ EP   1    052 45.92                             131   -0.35 7  157 352 
 OCA  HN ES   2    053  8.73                             131    0.32 5  157 352 
 YOP  SZ EP   1    052 48.22                             127   -0.20 7  181 154 
 YOP  SN ES        053 12.62                             127    0.37 9  181 154 
 YOP  SN I         053 15.62        91.2 0.22                           181 154 
 ZAR  HZ EP   1    052 50.31                             123   -0.35 6  205 291 
 ZAR  HN ES        053 16.30                             123    0.08 9  205 291 
 ZAR  HN I         053 22.20       183.1 0.51                           205 291 
 CHI  HZ EP   1    052 55.74                             118   -0.44 6  252 195 
 CHI  HN ES   2    053 25.44                             118   -0.62 4  252 195 
 CHI  HZ I         053 33.22        29.9 0.36                           252 195 
 ROSC BZ EP   1    052 57.36                             117    0.75 6  256 211 
 ROSC BZ I         052 59.02        32.4 0.28                           256 211 
 ROSC BE ES   2    053 27.68                             117    0.86 4  256 211 
 HEL  HZ EP   1    052 59.46                             115    0.88 6  275 255 
 HEL  HN ES   2    053 29.65                             115   -0.68 4  275 255 
 HEL  HN I         053 36.56        40.7 0.42                           275 255 
 RREF HZ EP   1    053  4.84                             111    0.25 5  325 229 
 RREF HE ES   2    053 41.74                             111    0.73 3  325 229 
 DBB  SZ EP        053  5.03                             110   -0.68 7  341 274 
                                                                                
