 2017  522 0025 47.2 L   7.341 -73.392108.2  RSN  5 0.4 1.2LRSN                1
 GAP=174        1.04       5.7     3.7  8.0  0.1797E+01  0.6412E+01  0.5313E+01E
 Epicentro: SABANA DE TORRES - SANTANDER                                       3
 ACTION:UPD 17-06-16 13:37 OP:jn   STATUS:               ID:20170522002547 L   I
 OLDACT:DUP 17-05-22 13:34 OP:ar   STATUS:               ID:20170522000249d    3
 OLDACT:REG 17-05-22 12:51 OP:ar   STATUS:               ID:20170522000246     3
 2017-05-22-0018-00M.COL___356                                                 6
 STAT SP IPHASW D HRMM SECON CODA AMPLIT PERI AZIMU VELO AIN AR TRES W  DIS CAZ7
 BRR  HZ EP        026  2.37                             156   -0.4210 43.8 234 
 BRR  HN ES        026 15.20                             156    0.2610 43.8 234 
 BRR  HZ I         026 17.02         9.9 0.32            156           43.8 234 
 PAM  EZ EP        026  5.31                             143   -0.2210 76.4  90 
 PAM  EE ES        026 19.81                             143   -0.0110 76.4  90 
 PAM  EZ I         026 21.70         4.0 0.16            147           76.4  90 
 PTB  HZ EP        026 11.70                             122    0.32 9  147 233 
 PTB  HN ES        026 29.34                             122   -0.89 9  147 233 
 PTB  HZ I         026 34.49         2.8 0.52            124            147 233 
 ZAR  HZ EP        026 13.09                             119    0.10 9  163 276 
 ZAR  HN ES        026 33.60                             119    0.50 9  163 276 
 ZAR  HZ I         026 36.36         3.8 0.12            121            163 276 
 RUS  HZ EP        026 13.69                             119   -0.04 9  164 168 
 RUS  HN ES        026 34.93                             119    0.52 9  164 168 
 RUS  HZ I         026 36.21         0.9 0.40            122            164 168 
                                                                                
