 2015 1022 0335 52.2 L   7.180 -73.043164.6  RSN 13 0.4 2.0LRSN                1
 GAP=117        0.92       2.7     4.8  5.3  0.1703E+01  0.5363E+01  0.1921E+01E
 Epicentro: TONA - SANTANDER                                                   3
 ACTION:UPD 15-12-22 20:42 OP:cam  STATUS:               ID:20151022033552 L   I
 OLDACT:UP  15-10-22 16:50 OP:mh   STATUS:               ID:20151022032748d    3
 OLDACT:DUP 15-10-22 16:27 OP:mh   STATUS:               ID:20151022032748d    3
 2015-10-22-0327-47M.COL___319                                                 6
 STAT SP IPHASW D HRMM SECON CODA AMPLIT PERI AZIMU VELO AIN AR TRES W  DIS CAZ7
 PAM  EZ IP     C  336 15.01                             165    0.0710 41.8  65 
 PAM  EN ES        336 32.45                             165   -0.2210 41.8  65 
 PAM  EZ I         336 34.46        12.2 0.46            172           41.8  65 
 BAR2 EZ EP     C  336 15.58                             157    0.0210 66.8 193 
 BAR2 EZ ES        336 33.56                             157   -0.2110 66.8 193 
 BRR  HZ EP     C  336 15.84                             155    0.2610 74.3 264 
 BRR  HN ES        336 34.78                             155    0.9710 74.3 264 
 BRR  HZ I         336 36.22        19.1 0.14            149           74.3 264 
 OCA  HZ EP   1    336 18.90                             142    0.08 7  121 345 
 OCA  HN ES        336 39.32                             142   -0.2510  121 345 
 OCA  HZ I         336 41.29        33.0 0.20            142            121 345 
 RUS  HZ EP        336 21.24                             137    0.25 9  142 182 
 RUS  HN ES        336 43.19                             137   -0.24 9  142 182 
 RUS  HZ I         336 45.01         7.1 0.30            137            142 182 
 ZAR  HZ EP   1    336 26.11                             126    0.23 6  203 280 
 ZAR  HN ES        336 51.42                             126   -0.72 9  203 280 
 ZAR  HZ I         336 58.30        12.5 0.06            124            203 280 
 SPBC HZ EP        336 25.95                             126   -0.08 9  204 214 
 SPBC HN ES        336 51.92                             126   -0.49 9  204 214 
 SPBC HZ I         336 57.18         9.2 0.18            125            204 214 
 SML  HZ EP        336 26.27                             125   -0.46 8  212 328 
 SML  HN ES        336 53.94                             125    0.29 8  212 328 
 SML  HZ I         336 56.92        14.4 0.36            125            212 328 
 URE  HZ EP   4    336 36.51                             117    2.45 0  282 283 
 URE  HN ES   4    337  3.79                             117   -2.91 0  282 283 
 URE  HZ I         337 17.13        10.2 0.18            116            282 283 
 CHI  HZ EP        336 35.74                             116    0.05 7  292 195 
 CHI  HN ES        337  9.83                             116    0.23 7  292 195 
 CHI  HZ I         337 17.64         2.1 0.76            117            292 195 
 GUY2CHZ EP   1    336 41.00                             113    0.40 5  336 230 
 GUY2CHN ES   4    337 20.30                             113    1.95 0  336 230 
 GUY2CHZ I         337 28.03         3.5 0.28                           336 230 
 MON  HZ EP   4    336 43.75                             113    3.43 0  339 302 
 MON  HN ES   4    337 15.08                             113   -2.76 0  339 302 
 MON  HZ I         337 23.14         1.5 0.50            112            339 302 
 SJC  HZ EP   4    336 43.98                             110   -1.28 0  381 322 
 SJC  HN ES   4    337 22.72                             110   -3.91 0  381 322 
 SJC  HZ I         337 27.09         3.1 0.62            110            381 322 
                                                                                
