 2017  922 0311  5.3 L   6.536 -73.713102.2  RSN  6 0.3 1.7LRSN                1
 GAP= 94        0.65       3.1     2.9  6.9 -0.1094E-01  0.1085E+02  0.8986E+01E
 Epicentro: SANTA HELENA DEL OPON - SANTANDER                                  3
 ACTION:UPD 17-10-05 19:15 OP:rebc STATUS:               ID:20170922031105 L   I
 OLDACT:UP  17-09-22 17:57 OP:leo  STATUS:               ID:20170922030739     3
 OLDACT:UP  17-09-22 17:55 OP:leo  STATUS:               ID:20170922030739     3
 OLDACT:REG 17-09-22 13:59 OP:y    STATUS:               ID:20170922030739     3
 2017-09-22-0308-00M.COL___444                                                 6
 STAT SP IPHASW D HRMM SECON CODA AMPLIT PERI AZIMU VELO AIN AR TRES W  DIS CAZ7
 BAR2 EZ EP        311 21.71                             148    0.2910 59.0  84 
 BAR2 EZ ES        311 33.78                             148   -0.2310 59.0  84 
 BAR2 EZ I         311 34.90        37.6 0.14            157           59.0  84 
 BRR  HZ EP        311 21.18                             146   -0.1710 63.2   0 
 BRR  HN ES        311 34.06                             146    0.1710 63.2   0 
 BRR  HZ I         311 43.21        10.7 0.20            147           63.2   0 
 RUS  HZ EP        311 24.69                             132   -0.2810 99.6 136 
 RUS  HE ES        311 40.55                             132    0.2210 99.6 136 
 RUS  HZ I         311 41.23         6.8 0.22            144           99.6 136 
 ZAR  HZ EP   3    311 30.67                             116   -0.27 2  165 310 
 ZAR  HN ES   4    311 52.58                             116    1.62 0  165 310 
 ZAR  HZ I         311 55.34         9.5 0.32            121            165 310 
 NOR  HZ EP        311 31.39                             116    0.14 9  167 230 
 NOR  HE ES        311 51.12                             116   -0.39 9  167 230 
 NOR  HZ I         311 53.19         7.8 0.30            123            167 230 
 GUY2CHZ EP   4    311 40.61                             108    1.32 0  233 232 
 GUY2CHN ES        312  6.16                             108    0.33 8  233 232 
 GUY2CHZ I         312 10.78         3.5 0.36                           233 232 
                                                                                
