 2010  322 0421 11.0 L   6.785 -73.101137.8  RSN  5 0.2 1.6LRSN                1
 GAP=241        0.34       5.6     7.7  6.4  0.2248E+02  0.1492E+02  0.5941E+01E
 Epicentro: LOS SANTOS - SANTANDER                                             3
 ACTION:UP  10-08-24 09:55 OP:vdl  STATUS:               ID:20100322042111 L   I
 2010-03-22-0419-53S.COL___098                                                 6
 STAT SP IPHASW D HRMM SECON CODA AMPLIT PERI AZIMU VELO SNR AR TRES W  DIS CAZ7
 BAR2 SZ EP        421 29.72                             170     0.010   23 203 
 BAR2 SZ ES   2    421 44.20                             170     0.0 5   23 203 
 BRR  HZ EP        421 31.64                             149     0.010   76 298 
 BRR  HZ I         421 52.31        16.0 0.37                            76 298 
 RUS  HZ EP   1    421 33.74                             143    -0.1 7   99 179 
 RUS  HZ I         421 53.71         2.6 0.46                            99 179 
 HEL  HN ES   3    422 22.36                             113    -0.4 2  276 256 
 PRA  HZ EP   3    422  4.33                             105    -0.1 1  393 210 
 PRA  HE ES   3    422 46.86                             105     0.8 1  393 210 
 PRA  HZ I         422 52.38         2.1 0.45                           393 210 
                                                                                
