 2016  622 0024 38.8 L   6.108 -73.711111.8  RSN 10 0.4 1.6LRSN                1
 GAP=110        0.91       2.8     2.8  5.7 -0.1525E+01  0.7031E+01 -0.1966E+01E
 Epicentro: CHIPATA - SANTANDER                                                3
 ACTION:UPD 16-07-21 22:21 OP:rebc STATUS:               ID:20160622002438 L   I
 OLDACT:REG 16-06-22 13:05 OP:ak   STATUS:               ID:20160622001744     3
 2016-06-22-0017-44M.COL___325                                                 6
 STAT SP IPHASW D HRMM SECON CODA AMPLIT PERI AZIMU VELO AIN AR TRES W  DIS CAZ7
 SPBC HZ EP        024 56.16                             148    0.1410 64.3 219 
 SPBC HN ES        025  9.61                             148    0.1310 64.3 219 
 SPBC HZ I         025 11.73        18.6 0.18                          64.3 219 
 RUS  HZ IP     D  024 56.81                             145   -0.3910 73.4 109 
 RUS  HN ES        025 11.18                             145   -0.4110 73.4 109 
 RUS  HZ I         025 14.29         3.2 0.22                          73.4 109 
 BAR2 EZ EP        024 57.48                             142    0.2110 79.3  47 
 BAR2 EZ ES        025 12.21                             142    0.4910 79.3  47 
 BAR2 EZ I         025 14.69        17.7 0.50                          79.3  47 
 PTB  HZ IP     C  024 57.67                             136   -0.5710 95.3 300 
 PTB  HN ES        025 13.09                             136   -0.3510 95.3 300 
 PTB  HZ I         025 16.48         9.8 0.12                          95.3 300 
 BRR  HZ EP        024 59.77                             132    0.2210  111 360 
 BRR  HN ES        025 15.74                             132   -0.0310  111 360 
 BRR  HZ I         025 18.80         7.7 0.36                           111 360 
 NOR  HZ EP        025  2.67                             124    0.04 9  142 245 
 NOR  HE ES        025 21.70                             124    0.45 9  142 245 
 NOR  HZ I         025 23.64         7.4 0.20                           142 245 
 ZAR  HZ EP        025  8.84                             114    0.18 9  199 320 
 ZAR  HN ES        025 32.41                             114    0.42 9  199 320 
 ZAR  HZ I         025 34.86         6.5 0.15                           199 320 
 GUY2CHZ EP        025  9.88                             114   -0.36 8  208 242 
 GUY2CHN ES        025 35.08                             114    0.28 8  208 242 
 GUY2CHZ I         025 41.71         4.3 0.42                           208 242 
 CBOC HZ EP        025 15.92                             108    0.52 8  256 264 
 CBOC HN ES        025 43.58                             108   -0.40 8  256 264 
 CBOC HZ I         025 46.95         1.5 0.26                           256 264 
 URE  HZ EP   2    025 17.47                             107    0.52 4  271 312 
 URE  HE ES        025 46.08                             107   -0.66 8  271 312 
 URE  HZ I         025 47.10         5.3 0.18                           271 312 
                                                                                
