 2010  422 0914 38.8 L   6.797 -73.069144.4  RSN 15 0.6 3.1LRSN                1
 GAP=148        1.10       4.6     6.7  6.3 -0.1921E+02 -0.3454E+01  0.9132E+01E
 Epicentro: LOS SANTOS - SANTANDER                                             3
 ACTION:UPD 10-08-24 10:00 OP:vdl  STATUS:               ID:20100422091438 L   I
 2010-04-22-0912-51S.COL___104                                                 6
 STAT SP IPHASW D HRMM SECON CODA AMPLIT PERI AZIMU VELO SNR AR TRES W  DIS CAZ7
 BAR2 SZ IP        914 58.27                             169    -0.110   26 209 
 BAR2 SZ ES   1    915 12.84                             169    -0.7 7   26 209 
 GIR2 SZ EP        914 58.34                             166    -0.110   34 336 
 GIR2 SZ ES   1    915 13.36                             166    -0.3 7   34 336 
 BRR  HZ IP     C  915  0.64                             149     0.310   79 296 
 BRR  HE ES   1    915 17.35                             149     0.3 7   79 296 
 BRR  HZ I         915 18.76       266.9 0.15                            79 296 
 BRI  SZ IP        915  2.96                             141     0.610  106  16 
 BRI  SZ ES   1    915 21.50                             141     0.7 7  106  16 
 GUE  SZ EP        915  3.24                             139    -0.110  115   8 
 GUE  SZ ES   2    915 22.63                             139     0.2 5  115   8 
 OCA  SZ IP        915  6.99                             129    -0.2 9  162 350 
 OCA  SZ ES   1    915 28.82                             129    -0.5 7  162 350 
 OCA  SZ I         915 36.32       200.2 0.51                           162 350 
 CHI  HZ EP   1    915 16.45                             116    -0.2 6  251 197 
 CHI  HE ES   1    915 45.39                             116    -0.8 6  251 197 
 CHI  HZ I         915 55.15        42.6 0.37                           251 197 
 ROSC BZ EP        915 18.18                             116     0.9 8  257 213 
 ROSC BE ES   1    915 48.54                             116     1.2 6  257 213 
 HEL  HZ EP   2    915 19.03                             114    -0.9 4  280 256 
 HEL  HE ES   2    915 50.76                             114    -1.1 4  280 256 
 HEL  HZ I         915 57.45        60.4 0.36                           280 256 
 RREF BZ EP   1    915 25.72                             110     0.1 5  328 230 
 RREF BE ES   2    916  2.16                             110     0.0 3  328 230 
 RREF BZ I         916 12.27        42.9 0.31                           328 230 
 DBB  SZ IP        915 26.79                             108    -0.4 6  348 274 
 TOL  SZ EP        915 28.13                             109     0.4 6  349 226 
 TOL  SZ ES   2    916  5.01                             109    -0.8 3  349 226 
 SDV  BZ IP     C  915 28.19                             108     0.1 6  354  49 
 SDV  BE ES   1    916  5.30                             108    -1.2 5  354  49 
 SDV  BZ I         916 10.09        41.0 0.46                           354  49 
 ANIL BZ EP   1    915 29.48                             108     0.2 5  363 226 
 ANIL BE ES   1    916  8.73                             108     0.2 5  363 226 
 ANIL BZ I         916 20.21        68.6 0.44                           363 226 
 PRA  HZ EP   1    915 31.71                             106    -1.1 4  396 211 
 PRA  HE ES   1    916 14.02                             106    -0.8 4  396 211 
 PRA  HZ I         916 20.63        34.5 0.22                           396 211 
                                                                                
