 2017  322 0825 21.9 L   6.768 -73.176154.3  RSN  4 0.3 1.1LRSN                1
 GAP=276        0.80       5.2     8.2  8.9  0.1821E+01 -0.1963E+02  0.1053E+02E
 Epicentro: LOS SANTOS - SANTANDER                                             3
 ACTION:UPD 17-05-25 18:43 OP:jn   STATUS:               ID:20170322082521 L   I
 OLDACT:DUP 17-03-22 16:57 OP:dani STATUS:               ID:20170322081744d    3
 OLDACT:DUP 17-03-22 16:44 OP:dani STATUS:               ID:20170322081742d    3
 2017-03-22-0818-00M.COL___352                                                 6
 STAT SP IPHASW D HRMM SECON CODA AMPLIT PERI AZIMU VELO AIN AR TRES W  DIS CAZ7
 BRR  HZ EP        825 43.90                             154   -0.0310 70.2 302 
 BRR  HN ES        826  1.14                             154    0.0410 70.2 302 
 BRR  HZ I         826  2.69         2.3 0.32            154           70.2 302 
 PTB  HZ EP        825 49.01                             135   -0.23 9  144 260 
 PTB  HN ES        826  9.99                             135   -0.57 9  144 260 
 PTB  HZ I         826 15.78         1.3 0.39            134            144 260 
 SPBC HZ EP        825 50.67                             132    0.04 9  158 219 
 SPBC HE ES        826 13.41                             132    0.38 9  158 219 
 SPBC HZ I         826 16.36         1.6 0.09            132            158 219 
 ZAR  HE ES        826 20.83                             124    0.46 9  202 293 
                                                                                
