 2015 1122 0326  2.8 L   6.781 -73.134145.7  RSN  6 0.3 1.5LRSN                1
 GAP=201        0.77       3.5     6.5  6.1  0.8724E+01 -0.2364E+01 -0.7335E+01E
 Epicentro: LOS SANTOS - SANTANDER                                             3
 ACTION:UPD 15-12-28 16:12 OP:cam  STATUS:               ID:20151122032602 L   I
 OLDACT:UP  15-12-01 10:57 OP:ak   STATUS:               ID:20151122032602 L   3
 OLDACT:REG 15-11-22 15:53 OP:ak   STATUS:               ID:20151122032000     3
 2015-11-22-0319-59S.COL___156                                                 6
 STAT SP IPHASW D HRMM SECON CODA AMPLIT PERI AZIMU VELO AIN AR TRES W  DIS CAZ7
 BAR2 EZ EP        326 22.05                             171   -0.3810 21.5 194 
 BAR2 EZ ES        326 37.33                             171   -0.3810 21.5 194 
 BAR2 EZ I         326 38.30         4.9 0.34            174           21.5 194 
 BRR  HZ EP        326 24.30                             152    0.1910 73.4 300 
 BRR  HN ES        326 40.75                             152    0.0510 73.4 300 
 BRR  HN I         326 41.54        14.7 0.38            151           73.4 300 
 RUS  HZ EP        326 26.35                             144   -0.0810 98.4 177 
 RUS  HE ES        326 45.39                             144    0.5610 98.4 177 
 RUS  HZ I         326 45.92         2.3 0.32            146           98.4 177 
 SPBC HN ES        326 53.36                             129   -0.06 9  162 220 
 ZAR  HN ES   2    327  0.44                             122   -0.52 4  206 293 
 SML  HZ EP        326 39.67                             117   -0.07 8  246 335 
 SML  HE ES        327  8.87                             117    0.36 8  246 335 
 SML  HZ I         327 15.22         2.3 0.30            117            246 335 
                                                                                
