 2016  222 0044 36.6 L   6.786 -73.172149.4  RSN 10 0.5 1.7LRSN                1
 GAP=134        1.13       4.0     4.4  6.6 -0.3218E+00  0.8048E+01  0.4601E+01E
 Epicentro: LOS SANTOS - SANTANDER                                             3
 ACTION:UPD 16-03-04 21:28 OP:rebc STATUS:               ID:20160222004436 L   I
 OLDACT:UP  16-02-24 08:04 OP:AK   STATUS:               ID:20160222004436 L   3
 OLDACT:UP  16-02-22 13:52 OP:mh   STATUS:               ID:20160222003750     3
 OLDACT:REG 16-02-22 12:40 OP:mh   STATUS:               ID:20160222003750     3
 2016-02-22-0037-50M.COL___330                                                 6
 STAT SP IPHASW D HRMM SECON CODA AMPLIT PERI AZIMU VELO AIN AR TRES W  DIS CAZ7
 BAR2 EZ EP   1    044 56.36                             171   -0.23 7 21.4 183 
 BAR2 EZ ES        045 11.88                             171   -0.3410 21.4 183 
 BAR2 EZ I         045 13.52        16.7 0.40            166           21.4 183 
 BRR  HZ I         044 58.50         9.8 0.22            151           69.4 301 
 BRR  HZ EP     C  044 58.53                             154    0.5210 69.4 301 
 BRR  HE ES        045 15.49                             154    0.7510 69.4 301 
 PAM  EZ EP        044 59.48                             151    0.1310 80.5  40 
 PAM  EN ES        045 16.41                             151   -0.7210 80.5  40 
 PAM  EZ I         045 18.63         8.6 0.50            149           80.5  40 
 RUS  HZ EP        045  0.61                             145    0.0310 99.2 174 
 RUS  HN ES        045 19.32                             145    0.0110 99.2 174 
 RUS  HZ I         045 19.73         3.9 0.66            138           99.2 174 
 PTB  HZ EP        045  3.69                             133    0.15 9  145 259 
 PTB  HN ES        045 24.25                             133   -0.35 9  145 259 
 PTB  HZ I         045 26.48         4.1 0.42            128            145 259 
 SPBC HZ EP        045  4.27                             130   -0.78 9  160 219 
 SPBC HN ES        045 27.92                             130    0.64 9  160 219 
 SPBC HZ I         045 32.45         9.3 0.20            124            160 219 
 OCA  HN ES   2    045 28.47                             130    0.80 5  162 354 
 ZAR  HZ EP   1    045  8.91                             123   -0.12 6  202 293 
 ZAR  HN ES        045 34.26                             123   -0.10 9  202 293 
 ZAR  HZ I         045 39.33         6.0 0.30            119            202 293 
 CHI  HZ EP        045 14.83                             118    0.62 8  246 195 
 CHI  HN ES        045 43.77                             118    0.18 8  246 195 
 CHI  HZ I         045 47.33         3.0 0.62            113            246 195 
 HEL  HZ EP        045 16.51                             116   -0.09 8  269 256 
 HEL  HN ES        045 47.07                             116   -0.77 8  269 256 
 HEL  HZ I         045 57.25         2.7 0.48            111            269 256 
                                                                                
