 2013  422 0401  5.9 L   6.794 -73.196146.5  RSN 12 0.4 2.2LRSN                1
 GAP=131        0.96       2.9     4.0  5.2 -0.5732E+00  0.7129E+01 -0.2818E+00E
 Epicentro: ZAPATOCA - SANTANDER                                               3
 ACTION:UPD 13-05-22 14:40 OP:EP   STATUS:               ID:20130422040105 L   I
 2013-04-22-0400-00M.COL___250                                                 6
 STAT SP IPHASW D HRMM SECON CODA AMPLIT PERI AZIMU VELO AIN AR TRES W  DIS CAZ7
 BAR2 SZ EP        4 1 25.53                             171   -0.0910 22.3 176 
 BAR2 SZ ES        4 1 40.83                             171   -0.1610 22.3 176 
 BAR2 SZ I         4 1 42.18        12.1 0.40            170           22.3 176 
 GIR2 SZ EP        4 1 26.09                             167    0.4010 31.5   1 
 GIR2 SZ I         4 1 42.55         8.3 0.14            166           31.5   1 
 BRR  HZ EP        4 1 27.63                             154    0.7310 66.7 301 
 BRR  HN ES        4 1 43.89                             154    0.6210 66.7 301 
 BRR  HN I         4 1 48.99        25.8 0.30            151           66.7 301 
 PAM  SZ EP        4 1 28.55                             150    0.0810 81.6  42 
 PAM  SN ES        4 1 45.93                             150   -0.1310 81.6  42 
 PAM  SN I         4 1 46.81        12.4 0.50            153           81.6  42 
 RUS  HZ EP        4 1 29.59                             144   -0.1410  100 173 
 RUS  HN ES        4 1 47.70                             144   -0.6110  100 173 
 RUS  HN I         4 1 49.81        12.3 0.38            145            100 173 
 PTB  HZ EP        4 1 32.45                             133    0.01 9  142 259 
 PTB  HN ES        4 1 53.00                             133   -0.13 9  142 259 
 PTB  HN I         4 1 59.20        34.8 0.26            131            142 259 
 OCA  HZ EP   1    4 1 34.39                             130    0.09 7  160 355 
 OCA  HN ES        4 1 56.54                             130    0.10 9  160 355 
 OCA  HN I         4 1 59.61        47.7 0.20            130            160 355 
 NOR  HZ EP        4 1 41.12                             119   -0.04 8  230 234 
 NOR  HN ES   2    4 2  9.24                             119    0.59 4  230 234 
 NOR  HN I         4 2 14.84        24.8 0.16            119            230 234 
 SML  HZ EP        4 1 42.34                             118   -0.07 8  242 337 
 SML  HN ES        4 2 10.16                             118   -0.71 8  242 337 
 SML  HN I         4 2 12.95        45.9 0.10            118            242 337 
 HEL  HZ EP   4    4 1 47.52                             115    1.97 0  266 256 
 HEL  HN ES   4    4 2 20.45                             115    3.98 0  266 256 
 HEL  HN I         4 2 24.69         5.3 0.28            115            266 256 
 URE  HZ EP        4 1 45.69                             114   -0.79 7  279 292 
 URE  HN ES        4 2 17.75                             114   -0.36 7  279 292 
 URE  HN I         4 2 26.39         8.4 0.24            114            279 292 
 PRA  HZ EP        4 1 59.81                             107    0.74 6  389 209 
 PRA  HN ES        4 2 40.79                             107    0.26 6  389 209 
 PRA  HN I         4 2 47.44         8.5 0.92            107            389 209 
                                                                                
