 2014  822 0645 21.7 L   6.825 -73.160149.7  RSN  4 0.2 1.4LRSN                1
 GAP=133        0.52       2.3     3.6  5.8 -0.1380E+01  0.7936E+01  0.4799E+00E
 Epicentro: LOS SANTOS - SANTANDER                                             3
 ACTION:UPD 14-09-15 21:52 OP:nd   STATUS:               ID:20140822064521 L   I
 OLDACT:REG 14-08-22 13:37 OP:mh   STATUS:               ID:20140822063811     3
 2014-08-22-0638-11M.COL___238                                                 6
 STAT SP IPHASW D HRMM SECON CODA AMPLIT PERI AZIMU VELO AIN AR TRES W  DIS CAZ7
 PAM  SZ EP        645 44.43                             152    0.1610 76.3  42 
 PAM  SN ES        646  1.76                             152   -0.1210 76.3  42 
 PAM  SZ I         646  4.61         8.6 0.82            155           76.3  42 
 RUS  HZ EP        645 46.22                             144    0.1710  103 175 
 RUS  HN ES        646  4.98                             144   -0.0610  103 175 
 RUS  HZ I         646  6.84         2.3 0.54            148            103 175 
 PTB  HZ EP        645 48.55                             133   -0.35 9  147 258 
 PTB  HN ES   1    646 10.37                             133    0.25 7  147 258 
 PTB  HZ I         646 12.82         2.8 0.27            135            147 258 
 OCA  HZ EP   4    645 47.50                             131   -2.54 0  157 354 
 OCA  HN ES        646 12.20                             131    0.04 9  157 354 
 OCA  HZ I         646 16.04         4.0 0.20            133            157 354 
                                                                                
