 2011 1222 0627 34.9 L   6.788 -73.126142.5  RSN  6 0.3 1.6LRSN                1
 GAP=239        0.63       4.1     5.4  5.9  0.4327E+01  0.5782E+01  0.5478E+01E
 Epicentro: LOS SANTOS - SANTANDER                                             3
 ACTION:UPD 12-07-13 16:17 OP:ep   STATUS:               ID:20111222062734 L   I
 2011-12-22-0620-00M.COL___191                                                 6
 STAT SP IPHASW D HRMM SECON CODA AMPLIT PERI AZIMU VELO AIN AR TRES W  DIS CAZ7
 BAR2 SZ EP        627 53.92                             171   -0.2010 22.5 196 
 BAR2 SZ ES   1    628  8.76                             171   -0.35 7 22.5 196 
 BAR2 SZ I         628 11.71         7.6 0.19                          22.5 196 
 BRR  HZ EP        627 55.97                             151    0.1210 73.8 299 
 BRR  HE ES   1    628 12.74                             151    0.56 7 73.8 299 
 BRR  HZ I         628 15.81         7.8 0.15                          73.8 299 
 RUS  HZ EP   1    627 58.32                             144    0.10 7 99.1 177 
 RUS  HN ES   1    628 16.39                             144   -0.02 7 99.1 177 
 RUS  HZ I         628 18.60         5.4 0.37                          99.1 177 
 PTB  HZ EP   1    628  1.41                             131   -0.37 7  150 260 
 PTB  HE ES   2    628 22.47                             131   -0.27 5  150 260 
 NOR  SN ES   1    628 38.04                             118   -0.31 6  236 235 
 CHI  HZ EP   1    628 12.49                             116    0.15 6  248 196 
 CHI  HN ES   1    628 42.14                             116    0.60 6  248 196 
 CHI  HZ I         628 45.41         2.6 0.12                           248 196 
                                                                                
