 2016 1222 0942 52.7 L   6.824 -73.191140.0  RSN  5 0.3 1.1LRSN                1
 GAP=130        0.59       3.0     3.8  6.5  0.1565E+01  0.9943E+01  0.5148E+01E
 Epicentro: ZAPATOCA - SANTANDER                                               3
 ACTION:UPD 17-01-11 20:17 OP:rebc STATUS:               ID:20161222094252 L   I
 OLDACT:REG 16-12-22 13:27 OP:cog  STATUS:               ID:20161222093744     3
 2016-12-22-0938-00M.COL___347                                                 6
 STAT SP IPHASW D HRMM SECON CODA AMPLIT PERI AZIMU VELO AIN AR TRES W  DIS CAZ7
 BAR2 EZ EP        943 11.99                             169    0.3510 25.6 178 
 BAR2 EZ I         943 27.80         2.9 0.24            166           25.6 178 
 PAM  EZ EP        943 14.16                             149   -0.1810 78.7  44 
 PAM  EE ES        943 31.08                             149   -0.1810 78.7  44 
 PAM  EZ I         943 33.75         3.1 0.50            148           78.7  44 
 RUS  HZ EP        943 16.32                             142    0.2510  104 173 
 RUS  HN ES        943 34.31                             142   -0.0310  104 173 
 RUS  HZ I         943 35.32         1.4 0.26            138            104 173 
 ZAR  HE ES        943 48.68                             122   -0.03 9  198 292 
 CHI  HZ EP        943 29.98                             116   -0.20 8  250 194 
 CHI  HN ES   3    943 58.07                             116   -1.39 2  250 194 
 CHI  HZ I         944  7.12         1.0 0.38            113            250 194 
                                                                                
