 2013  822 0517 11.7 L   6.808 -73.151144.0  RSN 19 0.5 2.2LRSN                1
 GAP=113        1.17       3.1     4.4  5.6 -0.2183E+01  0.6977E+01  0.1614E+01E
 Epicentro: LOS SANTOS - SANTANDER                                             3
 ACTION:UPD 14-01-14 09:05 OP:ep   STATUS:               ID:20130822051711 L   I
 OLDACT:REG 13-08-22 07:28 OP:nd   STATUS:               ID:20130822050959     3
 2013-08-22-0509-59M.COL___271                                                 6
 STAT SP IPHASW D HRMM SECON CODA AMPLIT PERI AZIMU VELO AIN AR TRES W  DIS CAZ7
 BAR2 SZ IP     D  517 31.12                             170    0.0110 24.1 188 
 BAR2 SZ ES        517 46.12                             170   -0.1510 24.1 188 
 BAR2 SZ I         517 48.82        40.4 0.22            169           24.1 188 
 BRR  HZ IP     C  517 32.91                             153    0.3310 70.3 298 
 BRR  HN ES        517 49.54                             153    0.6510 70.3 298 
 BRR  HZ I         517 53.20        35.7 0.28            149           70.3 298 
 PAM  SZ IP     C  517 34.06                             151    0.3810 77.1  40 
 PAM  SN ES        517 51.13                             151    0.2810 77.1  40 
 PAM  SZ I         517 53.86        19.2 0.24            154           77.1  40 
 RUS  HZ IP     C  517 35.01                             143   -0.3110  101 176 
 RUS  HN ES        517 53.57                             143   -0.1910  101 176 
 RUS  HZ I         517 54.94        12.9 0.18            145            101 176 
 PTB  HZ EP        517 37.87                             132   -0.60 9  147 258 
 PTB  HN ES        517 58.71                             132   -0.65 9  147 258 
 PTB  HZ I         518  1.50        20.5 0.13            130            147 258 
 OCA  HZ EP        517 39.67                             129   -0.09 9  159 353 
 OCA  HN ES        518  0.97                             129   -0.70 9  159 353 
 OCA  HZ I         518  7.94        11.2 0.30            130            159 353 
 SPBC HZ IP     D  517 40.09                             129    0.02 9  164 219 
 SPBC HN ES        518  2.64                             129    0.42 9  164 219 
 SPBC HZ I         518  8.16        26.7 0.44            129            164 219 
 YOP  SZ EP   3    517 41.94                             126    0.25 2  180 153 
 YOP  SN ES   4    518  5.35                             126    0.25 0  180 153 
 YOP  SZ I         518  6.62        21.9 0.22            129            180 153 
 ZAR  HZ EP        517 43.56                             122   -0.36 9  203 292 
 ZAR  HN ES        518  9.44                             122    0.37 9  203 292 
 ZAR  HZ I         518 13.96        14.8 0.24            121            203 292 
 NOR  HZ EP        517 47.19                             118   -0.12 8  235 234 
 NOR  HN ES        518 14.65                             118   -0.45 8  235 234 
 NOR  HZ I         518 20.71        13.3 0.20            118            235 234 
 SML  HZ EP        517 47.39                             117   -0.70 8  243 335 
 SML  HN ES   2    518 17.24                             117    0.74 4  243 335 
 SML  HZ I         518 20.86        15.5 0.08            118            243 335 
 CHI  HZ EP        517 49.40                             117    0.05 8  249 195 
 CHI  HN ES        518 18.53                             117   -0.21 8  249 195 
 CHI  HZ I         518 21.72         7.7 0.38            118            249 195 
 ROSC BZ EP   4    517 50.89                             116    1.14 0  253 211 
 ROSC BN ES   4    518 21.69                             116    2.25 0  253 211 
 HEL  HZ EP        517 52.28                             114    0.52 8  272 256 
 HEL  HN ES   4    518 24.53                             114    1.50 0  272 256 
 HEL  HZ I         518 29.93        10.1 0.46            114            272 256 
 GUY2CHZ EP   4    517 56.15                             112    0.94 0  301 235 
 GUY2CHN ES   4    518 31.66                             112    2.50 0  301 235 
 GUY2CHZ I         518 36.43         9.1 0.48                           301 235 
 RREF HZ EP        517 59.85                             110    2.09 7  322 229 
 RREF HN ES   4    518 35.85                             110    2.15 0  322 229 
 RREF HZ I         518 38.33         5.9 0.28            111            322 229 
 CBOC HZ EP   1    517 58.68                             110    0.19 5  333 252 
 CBOC HN ES   1    518 35.36                             110    0.36 5  333 252 
 CBOC HZ I         518 52.28         3.5 0.68            110            333 252 
 COD  HZ EP   4    517 59.85                             109   -0.03 0  347 355 
 COD  HN ES   4    518 35.36                             109   -2.11 0  347 355 
 COD  HZ I         518 44.39         2.3 0.64            110            347 355 
 PRA  HZ EP        518  4.89                             106   -0.30 6  392 209 
 PRA  HN ES        518 46.46                             106   -0.47 6  392 209 
 PRA  HZ I         518 53.41         7.9 0.40            107            392 209 
 SJC  HZ EP   4    518  5.24                             105   -1.82 0  408 327 
 SJC  HN ES   4    518 46.55                             105   -3.71 0  408 327 
 SJC  HZ I         518 53.95         2.5 0.34            106            408 327 
                                                                                
