 2010 1022 0445 30.2 L   6.782 -73.064144.5  RSN 12 0.4 2.2LRSN                1
 GAP=142        0.78       3.4     5.7  5.6 -0.5601E+01  0.3511E+01  0.1615E+01E
 Epicentro: LOS SANTOS - SANTANDER                                             3
 ACTION:UP  11-02-18 11:11 OP:tino STATUS:               ID:20101022044530 L   I
 2010-10-22-0443-17S.COL___125                                                 6
 STAT SP IPHASW D HRMM SECON CODA AMPLIT PERI AZIMU VELO SNR AR TRES W  DIS CAZ7
 BAR2 SZ IP        445 49.70                             170     0.010   25 212 
 BAR2 SZ ES   1    446  4.66                             170    -0.3 7   25 212 
 BAR2 SZ I         446  7.66        34.1 0.34                            25 212 
 BRR  HZ IP     C  445 51.59                             149    -0.110   80 297 
 BRR  HE ES   1    446  8.96                             149     0.4 7   80 297 
 BRR  HZ I         446 11.79        37.1 0.12                            80 297 
 RUS  HZ EP   1    445 53.50                             144    -0.2 7   98 181 
 RUS  HN ES   1    446 12.12                             144     0.2 7   98 181 
 RUS  HZ I         446 13.35         8.7 0.24                            98 181 
 GRA  SZ IP     C  445 55.50                             137     0.210  125  13 
 GRA  SZ I         446 17.42        14.7 0.22                           125  13 
 OCA  SZ EP   1    445 58.21                             129    -0.5 7  164 350 
 OCA  SZ I         446 26.86        10.3 0.44                           164 350 
 YOP  SZ EP   2    445 59.99                             127     0.4 4  173 156 
 NOR  SZ EP   1    446  5.78                             118    -0.8 6  241 236 
 NOR  SN ES   2    446 33.87                             118    -1.0 4  241 236 
 CHI  HZ EP   1    446  7.89                             117     0.0 6  249 197 
 CHI  HN ES   1    446 36.97                             117    -0.3 6  249 197 
 CHI  HZ I         446 46.62         7.8 0.60                           249 197 
 ROSC BZ EP   2    446  8.40                             116    -0.2 4  256 213 
 ROSC BE ES   1    446 39.13                             116     0.6 6  256 213 
 ROSC BZ I         446 46.90         9.2 0.48                           256 213 
 HEL  HZ EP   2    446 11.79                             114     0.5 4  280 257 
 HEL  HE ES   2    446 43.59                             114     0.3 4  280 257 
 HEL  HZ I         446 48.31         6.7 0.56                           280 257 
 RREF HZ EP   1    446 17.68                             110     0.8 5  327 231 
 RREF HN ES   2    446 53.44                             110     0.1 3  327 231 
 RREF HZ I         447  2.15        11.4 0.20                           327 231 
 PRA  HZ EP        446 24.10                             106     0.1 6  395 211 
 PRA  HN ES   1    447  5.86                             106    -0.1 4  395 211 
 PRA  HZ I         447  8.91        17.4 0.15                           395 211 
                                                                                
