 2010  722 0606  1.2 L   6.761 -73.176150.3  RSN  9 0.4 1.5LRSN                1
 GAP=156        0.75       4.5     7.8  7.0  0.3169E+01 -0.5063E+01 -0.8129E+01E
 Epicentro: VILLANUEVA - SANTANDER                                             3
 ACTION:UPD 10-12-01 15:19 OP:pat  STATUS:               ID:20100722060601 L   I
 2010-07-22-0604-33S.COL___123                                                 6
 STAT SP IPHASW D HRMM SECON CODA AMPLIT PERI AZIMU VELO AIN AR TRES W  DIS CAZ7
 BAR2 SZ ES   1    6 6 36.71                             173    -0.3 7   19 183 
 GIR2 SZ EP   3    6 6 21.40                             166    -0.2 2   35 357 
 BRR  HZ IP     D  6 6 22.89                             153     0.010   71 303 
 BRR  HN ES   1    6 6 40.22                             153     0.5 7   71 303 
 BRR  HZ I         6 6 44.43         6.8 0.05                            71 303 
 RUS  HZ EP   1    6 6 25.34                             146     0.2 7   97 174 
 RUS  HN ES   1    6 6 43.72                             146    -0.1 7   97 174 
 RUS  HZ I         6 6 44.42         3.9 0.43                            97 174 
 GUE  SZ EP   1    6 6 26.16                             139    -0.6 7  121  13 
 GRA  SZ EP   2    6 6 27.67                             137     0.4 5  131  18 
 GRA  SZ I         6 6 50.24         4.1 0.27                           131  18 
 OCA  SZ EP   1    6 6 30.46                             130     0.2 7  164 354 
 OCA  SZ I         6 6 56.24         6.2 0.41                           164 354 
 CHI  HZ EP   2    6 6 38.67                             119     0.0 4  244 195 
 CHI  HE ES   2    6 7  8.17                             119     0.3 4  244 195 
 CHI  HZ I         6 7 13.65         1.9 0.22                           244 195 
 HEL  HE ES   2    6 7 11.55                             116    -0.9 4  268 257 
 HEL  HZ I         6 7 19.21         2.4 0.62                           268 257 
                                                                                
