 2015 1222 0652 55.6 L   6.764 -73.167150.1  RSN  5 0.4 1.4LRSN                1
 GAP=209        0.96       4.5     7.3  6.9 -0.3654E+01  0.3954E+01 -0.5397E+01E
 Epicentro: LOS SANTOS - SANTANDER                                             3
 ACTION:UPD 16-02-04 15:06 OP:cam  STATUS:               ID:20151222065255 L   I
 OLDACT:DUP 15-12-22 14:24 OP:dnl  STATUS:               ID:20151222064749d    3
 OLDACT:REG 15-12-22 13:00 OP:dnl  STATUS:               ID:20151222064748     3
 2015-12-22-0647-48M.COL___334                                                 6
 STAT SP IPHASW D HRMM SECON CODA AMPLIT PERI AZIMU VELO AIN AR TRES W  DIS CAZ7
 BAR2 EZ EP        653 15.22                             172   -0.4510 19.0 185 
 BAR2 EZ ES        653 31.19                             172   -0.1410 19.0 185 
 BAR2 EZ I         653 31.72         7.7 0.05            171           19.0 185 
 BRR  HZ EP        653 17.86                             153    0.6410 71.2 302 
 BRR  HN ES        653 34.54                             153    0.4710 71.2 302 
 BRR  HZ I         653 37.88         2.5 0.17            150           71.2 302 
 PTB  HZ EP        653 22.50                             134   -0.15 9  145 260 
 PTB  HN ES        653 43.51                             134   -0.24 9  145 260 
 PTB  HZ I         653 46.57         1.7 0.27            132            145 260 
 SPBC HZ EP        653 24.42                             131    0.42 9  159 219 
 SPBC HN ES        653 45.94                             131   -0.22 9  159 219 
 SPBC HZ I         653 50.81         2.7 0.06            131            159 219 
 SML  HZ EP        653 32.72                             118   -0.04 8  246 336 
 SML  HE ES        654  1.23                             118   -0.51 8  246 336 
 SML  HZ I         654  6.61         3.8 0.08            118            246 336 
                                                                                
