 2013 1022 0508 24.2 L   6.767 -73.145151.3  RSN  7 0.3 1.6LRSN                1
 GAP=138        0.87       3.7     3.8  5.5 -0.4834E+00  0.5045E+01  0.4445E-01E
 Epicentro: LOS SANTOS - SANTANDER                                             3
 ACTION:UPD 13-11-25 09:23 OP:ep   STATUS:               ID:20131022050824 L   I
 OLDACT:REG 13-10-22 09:18 OP:carl STATUS:               ID:20131022050748     3
 2013-10-22-0507-48M.COL___215                                                 6
 STAT SP IPHASW D HRMM SECON CODA AMPLIT PERI AZIMU VELO AIN AR TRES W  DIS CAZ7
 BAR2 SZ EP        5 8 44.39                             172   -0.0510 19.8 192 
 BAR2 SZ ES        5 9  0.08                             172   -0.1410 19.8 192 
 BAR2 SZ I         5 9  1.09        10.0 0.26            173           19.8 192 
 BRR  HZ EP        5 8 46.46                             153    0.4010 73.0 301 
 BRR  HN ES        5 9  3.76                             153    0.6610 73.0 301 
 BRR  HZ I         5 9  7.37         6.2 0.46            151           73.0 301 
 PAM  SZ EP        5 8 47.28                             151    0.1010 80.2  38 
 PAM  SN ES        5 9  4.77                             151   -0.3310 80.2  38 
 PAM  SZ I         5 9  6.78         5.3 0.42            152           80.2  38 
 RUS  HZ EP        5 8 47.90                             146   -0.3610 97.0 176 
 RUS  HN ES        5 9  7.09                             146    0.0710 97.0 176 
 RUS  HZ I         5 9  8.54         4.4 0.42            150           97.0 176 
 PTB  HZ EP        5 8 51.39                             133   -0.19 9  147 260 
 PTB  HN ES        5 9 12.56                             133   -0.37 9  147 260 
 PTB  HZ I         5 9 14.77         3.8 0.18            134            147 260 
 SPBC HZ EP        5 8 53.12                             131    0.24 9  160 220 
 SPBC HN ES        5 9 15.41                             131    0.16 9  160 220 
 ZAR  HZ EP        5 8 57.49                             123    0.32 8  205 293 
 ZAR  HN ES        5 9 22.29                             123   -0.58 8  205 293 
 ZAR  HZ I         5 9 30.65         4.3 0.24            124            205 293 
                                                                                
