 2012  422 0545  9.0 L   6.720 -73.149140.9  RSN  6 0.4 1.4LRSN                1
 GAP=140        1.03       7.1     6.0 11.2 -0.4917E+01  0.1675E+02  0.4039E+01E
 Epicentro: VILLANUEVA - SANTANDER                                             3
 ACTION:UPD 12-07-05 11:55 OP:tino STATUS:               ID:20120422054509 L   I
 2012-04-22-0540-00M.COL___186                                                 6
 STAT SP IPHASW D HRMM SECON CODA AMPLIT PERI AZIMU VELO AIN AR TRES W  DIS CAZ7
 BRR  HZ EP   1    545 30.53                             150     0.7 8   76 305 
 BRR  HN ES   1    545 46.71                             150     0.6 8   76 305 
 BRR  HZ I         545 51.45         9.2 0.13                            76 305 
 PAM  SZ EP   1    545 31.33                             148     0.2 8   85  36 
 PAM  SN ES   1    545 47.84                             148    -0.6 8   85  36 
 RUS  HZ I         545 33.83         4.1 0.15                            92 175 
 RUS  HN ES   1    545 49.16                             145    -0.1 8   92 175 
 PTB  HZ EP   1    545 35.39                             131     0.0 7  146 262 
 PTB  HN ES        545 55.99                             131     0.010  146 262 
 PTB  HZ I         546  1.91         2.3 0.13                           146 262 
 ZAR  HN ES   1    546  5.98                             121    -0.8 7  207 294 
 ZAR  HZ I         546 12.07         2.8 0.10                           207 294 
 NOR  SZ EP   1    545 43.57                             118    -0.3 7  229 236 
                                                                                
