 2012  222 0408 47.8 L   6.799 -73.137153.2  RSN 31 0.5 3.7LRSN                1
 GAP=104        0.81       2.8     3.5  4.2 -0.2181E+01  0.2324E+01  0.3789E+01E
 ACTION:UP  12-03-07 16:32 OP:epov STATUS:               ID:20120222040847 L   I
 2012-02-22-0406-59S.COL___194                                                 6
 STAT SP IPHASW D HRMM SECON CODA AMPLIT PERI AZIMU VELO AIN AR TRES W  DIS CAZ7
 BAR2 SZ EP        4 9  8.43                             171    0.0610 23.4 192 
 BAR2 SZ ES   1    4 9 23.82                             171   -0.57 7 23.4 192 
 BAR2 SZ I         4 9 24.72      1374.1 0.42                          23.4 192 
 GIR2 SZ EP   1    4 9  8.53                             168    0.12 7 31.6 349 
 GIR2 SZ ES   1    4 9 24.31                             168   -0.15 7 31.6 349 
 BRR  HZ IP     C  4 9 10.23                             153    0.3810 72.1 298 
 BRR  HZ I         4 9 10.67      1270.2 0.20                          72.1 298 
 BRR  HE ES   1    4 9 27.71                             153    0.69 7 72.1 298 
 PAM  SZ IP        4 9 11.14                             152    0.3110 76.9  39 
 PAM  SN ES   1    4 9 28.59                             152   -0.17 7 76.9  39 
 PAM  SZ I         4 9 30.61       440.8 0.51                          76.9  39 
 RUS  HZ IP     D  4 9 12.21                             145   -0.1110  100 177 
 RUS  HZ I         4 9 32.34       611.3 0.41                           100 177 
 PTB  HZ IP     C  4 9 14.80                             133   -0.71 9  149 259 
 PTB  HN ES   1    4 9 36.18                             133   -0.91 7  149 259 
 OCA  SZ EP   1    4 9 17.23                             131    0.46 7  161 353 
 OCA  SZ ES   1    4 9 39.58                             131    0.25 7  161 353 
 YOP  SZ EP   1    4 9 18.82                             128    0.44 7  178 154 
 YOP  SZ I         4 9 19.64       241.1 0.45                           178 154 
 YOP  SN ES   1    4 9 41.88                             128   -0.32 7  178 154 
 NOR  SZ EP   1    4 9 24.19                             120    0.10 6  235 235 
 NOR  SN ES   1    4 9 52.10                             120   -0.26 6  235 235 
 CHI  HZ EP        4 9 25.85                             118   -0.13 8  249 195 
 CHI  HZ I         4 9 59.97       236.8 0.43                           249 195 
 ROSC BN ES   1    4 9 56.67                             118    0.16 6  253 211 
 ROSC BZ I         410  2.23       638.6 0.48                           253 211 
 HEL  HZ EP   1    4 9 28.33                             116   -0.21 6  273 256 
 HEL  HZ I         410  7.46       349.7 0.34                           273 256 
 VIL  SZ EP   1    4 9 31.35                             113   -0.27 5  303 192 
 VIL  SN ES   1    410  6.05                             113    0.29 5  303 192 
 GUY  SZ EP   1    4 9 32.99                             113    0.85 5  304 235 
 GUY  SZ I         410 12.76       626.6 0.55                           304 235 
 RREF HZ EP   1    4 9 35.41                             112    1.02 5  322 230 
 RREF HZ I         410 18.53       417.8 0.51                           322 230 
 DBB  SZ EP   1    4 9 36.28                             111    0.54 5  340 274 
 TOL  SZ EP   1    4 9 37.00                             110    0.53 5  344 225 
 TOL  SZ ES   1    410 14.44                             110    0.04 5  344 225 
 COD  HZ EP   2    4 9 35.50                             110   -1.05 3  349 354 
 COD  HZ I         410 22.51       256.1 0.47                           349 354 
 MON  HZ EP   1    4 9 35.51                             110   -1.73 5  355 308 
 MON  HZ I         410 28.72       261.7 0.79                           355 308 
 ANIL HZ EP   1    4 9 38.16                             110    0.15 5  358 225 
 ANIL HN ES   2    410 18.11                             110    0.97 3  358 225 
 ANIL HZ I         410 25.11       746.3 0.33                           358 225 
 SDV  BZ EP        4 9 37.78                             109   -0.32 6  360  50 
 SDV  BZ I         4 9 38.96        98.7 0.33                           360  50 
 PRA  HZ EP        4 9 41.60                             108   -0.07 6  392 210 
 PRA  HE ES   1    410 23.76                             108    0.11 4  392 210 
 PAL  HZ EP   1    4 9 43.77                             107    0.42 4  406 239 
 YOT  HZ EP   1    4 9 50.69                             104   -0.48 4  473 229 
 YOT  HN ES   2    410 40.09                             104   -0.48 2  473 229 
 YOT  HZ I         410 51.82        40.6 0.41                           473 229 
 GUA  SZ EP   1    4 9 50.99                             104   -0.19 4  474 173 
 SOL  SZ EP   2    4 9 52.33                             104    0.84 2  477 263 
 HORQ SZ EP   1    4 9 58.20                             102   -0.34 3  533 227 
 MARA HZ EP   1    4 9 58.18                             102   -0.92 3  538 216 
 MARA HZ I         410  1.54        32.4 0.16                           538 216 
 MAL  SZ EP   1    410  2.05                             101    0.88 3  558 237 
 PCON HZ EP   2    410  8.68                             100    0.26 1  613 216 
 PCON HZ I         411 42.76        21.3 0.55                           613 216 
 FLO2 HZ EP   1    410 10.56                             100   -0.58 2  641 206 
 FLO2 HZ I         410 12.03        22.5 0.19                           641 206 
                                                                                
