 2017 1022 0937 12.8 L   6.764 -73.159146.3  RSN  7 0.5 1.6LRSN                1
 GAP=112        1.23       5.3     5.0  7.6  0.9841E+01  0.5436E+01  0.3934E+01E
 Epicentro: LOS SANTOS - SANTANDER                                             3
 ACTION:UPD 17-11-07 19:35 OP:rebc STATUS:               ID:20171022093712 L   I
 OLDACT:UP  17-10-22 17:24 OP:leo  STATUS:               ID:20171022092520     3
 OLDACT:REG 17-10-22 14:14 OP:dani STATUS:               ID:20171022092520     3
 2017-10-22-0928-00M.COL___381                                                 6
 STAT SP IPHASW D HRMM SECON CODA AMPLIT PERI AZIMU VELO AIN AR TRES W  DIS CAZ7
 BAR2 EZ EP        937 32.31                             172   -0.1310 19.2 188 
 BAR2 EZ ES        937 47.17                             172   -0.5810 19.2 188 
 BAR2 EZ I         937 48.64        10.6 0.44            170           19.2 188 
 BRR  HZ EP        937 34.40                             152    0.3310 71.9 302 
 BRR  HN ES        937 51.52                             152    0.8710 71.9 302 
 BRR  HZ I         937 55.49         6.1 0.32            151           71.9 302 
 PAM  EZ EP        937 35.58                             150    0.2410 81.4  39 
 PAM  EN ES        937 52.67                             150   -0.2310 81.4  39 
 PAM  EZ I         937 53.52         8.4 0.20            154           81.4  39 
 RUS  HZ EP        937 36.08                             145   -0.2810 96.7 175 
 RUS  HN ES        937 54.70                             145   -0.0110 96.7 175 
 RUS  HZ I         937 55.37         5.2 0.22            146           96.7 175 
 PTB  HZ EP        937 39.25                             133   -0.39 9  146 260 
 PTB  HE ES        938  1.01                             133    0.45 9  146 260 
 PTB  HZ I         938  8.78         2.9 0.46            132            146 260 
 YPLC HZ EP        937 42.43                             127    0.04 9  174 150 
 YPLC HN ES        938  5.69                             127    0.24 9  174 150 
 YPLC HZ I         938  6.79         3.4 0.28            130            174 150 
 ZAR  HZ EP        937 45.78                             122    0.46 9  204 293 
 ZAR  HN ES        938  9.52                             122   -1.15 9  204 293 
 ZAR  HZ I         938 13.15         4.7 0.60            123            204 293 
                                                                                
