 2014  722 0608 44.3 L   6.833 -73.099141.0  RSN  5 0.3 1.7LRSN                1
 GAP=188        0.77       3.1     4.8  8.2 -0.3130E+01  0.5666E+01 -0.3177E+01E
 Epicentro: LOS SANTOS - SANTANDER                                             3
 ACTION:UPD 15-03-16 20:46 OP:nd   STATUS:               ID:20140722060844 L   I
 OLDACT:UP  14-07-22 16:10 OP:mh   STATUS:               ID:20140722055822d    3
 OLDACT:DUP 14-07-22 16:07 OP:mh   STATUS:               ID:20140722055822d    3
 OLDACT:UP  14-07-22 15:32 OP:mh   STATUS:               ID:20140722055818     3
 OLDACT:REG 14-07-22 12:30 OP:mh   STATUS:               ID:20140722055818     3
 2014-07-22-0558-18M.COL___266                                                 6
 STAT SP IPHASW D HRMM SECON CODA AMPLIT PERI AZIMU VELO AIN AR TRES W  DIS CAZ7
 RUS  HZ EP        6 9  7.88                             142    0.0810  104 179 
 RUS  HN ES        6 9 26.01                             142   -0.1510  104 179 
 RUS  HZ I         6 9 28.59         4.4 0.75            149            104 179 
 PTB  HZ EP        6 9 11.09                             130   -0.30 9  154 258 
 PTB  HN ES        6 9 32.40                             130   -0.14 9  154 258 
 PTB  HZ I         6 9 40.01        10.3 0.10            133            154 258 
 OCA  HZ EP   1    6 9 11.08                             129   -0.85 7  157 351 
 OCA  HN ES        6 9 33.94                             129    0.44 9  157 351 
 OCA  HZ I         6 9 40.59         6.7 0.10            133            157 351 
 SPBC HZ EP        6 9 13.25                             127    0.26 9  169 220 
 SPBC HN ES        6 9 35.56                             127    0.16 9  169 220 
 SPBC HZ I         6 9 39.79         8.0 0.17            132            169 220 
 NOR  HZ EP   1    6 9 20.92                             117    0.51 6  241 234 
 NOR  HN ES        6 9 48.55                             117   -0.05 8  241 234 
 NOR  HZ I         6 9 53.99         3.3 0.21            121            241 234 
                                                                                
