 2016  622 0842 40.7 L   6.830 -73.089147.4  RSN  7 0.3 1.4LRSN                1
 GAP=246        0.74       3.6     4.4  4.8  0.5722E+01  0.4164E+01  0.1267E+01E
 Epicentro: LOS SANTOS - SANTANDER                                             3
 ACTION:UPD 16-07-21 22:21 OP:rebc STATUS:               ID:20160622084240 L   I
 OLDACT:REG 16-06-22 14:03 OP:ak   STATUS:               ID:20160622083741     3
 2016-06-22-0837-41M.COL___316                                                 6
 STAT SP IPHASW D HRMM SECON CODA AMPLIT PERI AZIMU VELO AIN AR TRES W  DIS CAZ7
 BAR2 EZ EP        843  0.40                             169   -0.2610 28.2 201 
 BAR2 EZ ES        843 16.28                             169    0.0810 28.2 201 
 BAR2 EZ I         843 17.74         4.7 0.16                          28.2 201 
 BRR  HZ EP        843  2.83                             152    0.5510 75.3 294 
 BRR  HN ES        843 19.46                             152    0.3610 75.3 294 
 BRR  HZ I         843 23.53         4.1 0.27                          75.3 294 
 RUS  HZ EP        843  4.66                             143   -0.1910  104 180 
 RUS  HE ES        843 23.50                             143   -0.1710  104 180 
 RUS  HZ I         843 25.15         2.3 0.32                           104 180 
 PTB  HZ EP        843  8.19                             131   -0.25 9  155 258 
 PTB  HN ES        843 29.73                             131   -0.33 9  155 258 
 PTB  HZ I         843 32.40         2.4 0.08                           155 258 
 SPBC HZ EP        843 10.26                             128    0.30 9  170 220 
 SPBC HN ES        843 32.91                             128    0.14 9  170 220 
 SPBC HZ I         843 37.05         4.4 0.21                           170 220 
 ZAR  HZ EP        843 13.51                             122   -0.24 8  209 291 
 ZAR  HN ES        843 39.21                             122   -0.30 8  209 291 
 ZAR  HZ I         843 44.59         2.9 0.36                           209 291 
 PRA  HZ EP   2    843 35.89                             107    0.90 3  398 210 
 PRA  HN ES        844 17.56                             107    0.24 6  398 210 
 PRA  HZ I         844 20.15         1.2 0.35                           398 210 
                                                                                
