 2011  522 0222 28.3 L   6.525 -73.519103.9  RSN  7 0.3 1.6LRSN                1
 GAP=196        0.75       3.9     7.0  7.5  0.8142E+01  0.8149E+01 -0.5862E+01E
 Epicentro: EL CARMEN DE CHUCURI - SANTANDER                                   3
 ACTION:UP  11-06-29 08:55 OP:tino STATUS:               ID:20110522022228 L   I
 2011-05-22-0219-36S.COL___141                                                 6
 STAT SP IPHASW D HRMM SECON CODA AMPLIT PERI AZIMU VELO SNR AR TRES W  DIS CAZ7
 BAR2 SZ EP        222 43.57                             158     0.110   38  79 
 BAR2 SZ ES   1    222 55.68                             158     0.4 7   38  79 
 BAR2 SZ I         222 57.40        31.8 0.37                            38  79 
 BTL  SZ EP        222 44.32                             152     0.210   52  33 
 BRR  HZ EP        222 44.53                             144    -0.310   68 342 
 BRR  HN ES   1    222 57.71                             144    -0.1 7   68 342 
 BRR  HZ I         223  1.02        11.3 0.18                            68 342 
 GIR2 SZ EP        222 45.22                             143    -0.110   71  30 
 RUS  HZ EP   1    222 46.69                             138    -0.2 7   85 145 
 RUS  HN ES   1    223  1.15                             138    -0.2 7   85 145 
 RUS  HZ I         223  4.48         3.5 0.16                            85 145 
 PAM  SN ES   1    223  7.99                             125    -0.3 7  128  45 
 OCA  SZ EP   1    222 57.78                             113     0.7 7  191   7 
 OCA  SZ I         223  7.55         5.7 0.33                           191   7 
 OCA  SZ ES   1    223 19.26                             113    -0.3 7  191   7 
                                                                                
