 2013  222 0032 25.6 L   6.841 -73.479108.7  RSN  5 0.4 1.4LRSN                1
 GAP= 99        0.82       4.9     4.2  8.0 -0.1090E+01  0.1808E+01  0.3763E+01E
 Epicentro: SAN VICENTE DE CHUCURI - SANTANDER                                 3
 ACTION:UPD 13-03-12 09:34 OP:ep   STATUS:               ID:20130222003225 L   I
 2013-02-22-0030-00M.COL___238                                                 6
 STAT SP IPHASW D HRMM SECON CODA AMPLIT PERI AZIMU VELO AIN AR TRES W  DIS CAZ7
 BRR  HZ EP     D  032 41.10                             159    0.1410 39.1 319 
 BRR  HE ES   1    032 53.63                             159    0.65 7 39.1 319 
 BAR2 SZ EP   1    032 41.78                             157    0.30 7 42.8 130 
 BAR2 SZ ES   1    032 53.76                             157   -0.14 7 42.8 130 
 BAR2 SZ I         032 55.30        17.2 0.36            156           42.8 130 
 PAM  SZ EP   1    032 46.19                             134    0.18 7  102  57 
 PAM  SN ES   1    033  1.25                             134   -0.72 7  102  57 
 PAM  SZ I         033  3.95         3.4 0.22            135            102  57 
 PTB  HZ EP   1    032 46.14                             130   -0.22 7  113 253 
 PTB  HN ES   1    033  2.00                             130   -0.60 7  113 253 
 PTB  HZ I         033  3.70         6.3 0.42            132            113 253 
 RUS  HZ EP   1    032 47.31                             130    0.26 7  114 157 
 RUS  HN ES   1    033  3.85                             130    0.02 7  114 157 
 RUS  HZ I         033  6.78         2.2 0.26            131            114 157 
                                                                                
