 2016 1122 0645 58.5 L   6.648 -73.117146.5  RSN  4 0.3 0.9LRSN                1
 GAP=198        0.85       8.8     5.3  6.9 -0.2345E+02  0.1476E+01  0.9063E+01E
 Epicentro: VILLANUEVA - SANTANDER                                             3
 ACTION:UPD 17-10-26 21:10 OP:lp   STATUS:               ID:20161122064558 L   I
 OLDACT:DUP 16-11-22 16:24 OP:edw  STATUS:               ID:20161122063749d    3
 OLDACT:REG 16-11-22 13:03 OP:edw  STATUS:               ID:20161122063748     3
 2016-11-22-0638-00M.COL___349                                                 6
 STAT SP IPHASW D HRMM SECON CODA AMPLIT PERI AZIMU VELO AIN AR TRES W  DIS CAZ7
 BAR2 EZ EP        646 18.45                             176    0.4210 9.46 229 
 BAR2 EZ ES        646 33.18                             176   -0.0710 9.46 229 
 BAR2 EZ I         646 39.68         4.1 0.46            169           9.46 229 
 BRR  HZ EP        646 20.62                             149    0.1810 83.0 308 
 BRR  HE ES        646 37.93                             149    0.3810 83.0 308 
 PAM  EZ EP        646 21.66                             147    0.1110 89.3  31 
 PAM  EN ES        646 39.08                             147   -0.4410 89.3  31 
 PAM  EZ I         646 39.79         0.8 0.13            157           89.3  31 
 PTB  HZ EP        646 25.14                             132   -0.47 9  149 265 
 PTB  HN ES        646 46.54                             132   -0.20 9  149 265 
 PTB  HZ I         646 53.29         0.9 0.26            135            149 265 
                                                                                
