 2010 1122 0117 42.7 L   6.798 -73.082147.5  RSN  9 0.4 1.7LRSN                1
 GAP=166        0.85       4.6     7.2  8.2 -0.8493E+01  0.2730E+01  0.4486E+01E
 Epicentro: LOS SANTOS - SANTANDER                                             3
 ACTION:UP  10-12-17 16:54 OP:REBC STATUS:               ID:20101122011742 L   I
 2010-11-22-0114-38S.COL___129                                                 6
 STAT SP IPHASW D HRMM SECON CODA AMPLIT PERI AZIMU VELO SNR AR TRES W  DIS CAZ7
 BAR2 SZ EP   1    118  2.55                             170     0.0 8   25 206 
 BAR2 SZ I         118 20.35        16.2 0.23                            25 206 
 BRR  HZ EP   1    118  4.31                             151    -0.1 8   78 296 
 BRR  HE ES   1    118 20.72                             151    -0.6 8   78 296 
 BRR  HZ I         118 23.79        10.2 0.19                            78 296 
 RUS  HZ EP   1    118  6.56                             144     0.0 8  100 180 
 RUS  HE ES   1    118 25.40                             144     0.2 8  100 180 
 RUS  HZ I         118 26.89         5.1 0.48                           100 180 
 GRA  SZ EP        118  8.34                             137     0.410  124  14 
 GRA  SZ I         118 32.13         6.5 0.50                           124  14 
 NOR  SZ EP   1    118 18.70                             118    -0.4 6  241 236 
 NOR  SE ES   2    118 47.75                             118     0.2 4  241 236 
 NOR  SZ I         118 56.23         0.8 0.26                           241 236 
 CHI  HZ EP   1    118 19.97                             117    -0.7 6  250 197 
 CHI  HE ES   1    118 50.17                             117    -0.1 6  250 197 
 CHI  HZ I         118 53.70         5.6 0.28                           250 197 
 HEL  HZ EP   2    118 23.86                             114     0.1 4  279 256 
 HEL  HZ I         119  1.11         4.0 0.04                           279 256 
 RREF HZ EP   2    118 29.70                             111     0.2 4  327 230 
 RREF HE ES   1    119  6.95                             111     0.9 5  327 230 
 RREF HZ I         119  9.82         3.9 0.24                           327 230 
 PRA  HZ EP   1    118 36.68                             106     0.0 4  395 210 
                                                                                
