 2016  422 0248 38.7 L   6.828 -73.135144.3  RSN  7 0.2 1.7LRSN                1
 GAP=136        0.56       2.5     2.7  4.0 -0.4136E+00  0.5033E+01  0.2968E+00E
 Epicentro: LOS SANTOS - SANTANDER                                             3
 ACTION:UPD 16-05-05 14:23 OP:rebc STATUS:               ID:20160422024838 L   I
 OLDACT:ARG 16-04-22 12:58 OP:cara STATUS:               ID:20160422024746     3
 2016-04-22-0247-46M.COL___313                                                 6
 STAT SP IPHASW D HRMM SECON CODA AMPLIT PERI AZIMU VELO AIN AR TRES W  DIS CAZ7
 BAR2 EZ IP        248 58.57                             169    0.3010 26.6 191 
 BAR2 EZ ES        249 13.53                             169    0.0310 26.6 191 
 BAR2 EZ I         249 16.12         7.0 0.28            169           26.6 191 
 PAM  EE ES        249 17.71                             152    0.0310 74.3  40 
 PAM  EZ I         249 20.61         5.1 0.44            157           74.3  40 
 RUS  HZ IP        249  2.46                             143   -0.1110  104 177 
 RUS  HE ES        249 20.89                             143   -0.2710  104 177 
 RUS  HZ I         249 22.57         2.6 0.60            147            104 177 
 PTB  HZ EP        249  5.37                             131   -0.38 9  150 258 
 PTB  HN ES        249 26.58                             131   -0.23 9  150 258 
 PTB  HZ I         249 32.32         7.0 0.24            133            150 258 
 SPBC HZ EP        249  7.62                             128    0.20 9  166 219 
 SPBC HN ES        249 30.12                             128    0.32 9  166 219 
 SPBC HZ I         249 36.55        11.6 0.36            131            166 219 
 ZAR  HZ EP        249 10.98                             122   -0.10 9  204 291 
 ZAR  HE ES        249 36.45                             122    0.14 9  204 291 
 ZAR  HZ I         249 42.81         6.5 0.22            124            204 291 
 NOR  HZ EP        249 14.72                             118    0.04 8  237 234 
 NOR  HE ES        249 42.79                             118    0.08 8  237 234 
 NOR  HZ I         249 46.07         4.6 0.14            120            237 234 
                                                                                
