 2013  922 0712 42.4 L   6.679 -73.546107.5  RSN  6 0.4 1.5LRSN                1
 GAP=125        0.96       4.7     4.6  8.8  0.7131E+01  0.1752E+02  0.9526E+01E
 Epicentro: EL CARMEN DE CHUCURI - SANTANDER                                   3
 ACTION:UPD 13-10-22 09:24 OP:ep   STATUS:               ID:20130922071242 L   I
 OLDACT:REG 13-09-22 07:47 OP:jn   STATUS:               ID:20130922070959     3
 2013-09-22-0709-59M.COL___269                                                 6
 STAT SP IPHASW D HRMM SECON CODA AMPLIT PERI AZIMU VELO AIN AR TRES W  DIS CAZ7
 BAR2 SZ EP        712 58.01                             157   -0.1410 41.3 103 
 BAR2 SZ ES        713 10.38                             157   -0.0310 41.3 103 
 BAR2 SZ I         713 11.04        16.0 0.12            161           41.3 103 
 BRR  HZ EP        712 58.06                             153   -0.2210 50.7 339 
 BRR  HN ES        713 10.86                             153    0.2110 50.7 339 
 BRR  HZ I         713 11.48        12.1 0.12            155           50.7 339 
 RUS  HN ES   1    713 18.69                             134    0.21 7  101 150 
 RUS  HZ I         713 19.91         6.3 0.24            134            101 150 
 PTB  HZ EP        713  1.75                             133   -0.3610  102 261 
 PTB  HN ES        713 16.84                             133   -0.6310  102 261 
 PTB  HZ I         713 18.49         4.7 0.12            131            102 261 
 SPBC HZ EP   1    713  5.04                             126    0.40 7  128 207 
 SPBC HN ES   1    713 22.58                             126    0.61 7  128 207 
 SPBC HZ I         713 29.87         3.8 0.18            124            128 207 
 ZAR  HN ES        713 30.38                             117    0.65 9  171 302 
 ZAR  HZ I         713 34.72         4.4 0.34            118            171 302 
                                                                                
