 2016 1222 0157 20.6 L   5.903 -73.657123.9  RSN  6 0.3 1.5LRSN                1
 GAP=125        0.73       2.5     3.7  6.1  0.2462E+01  0.9830E+01  0.1868E+01E
 Epicentro: PUENTE NACIONAL - SANTANDER                                        3
 ACTION:UPD 17-01-11 20:17 OP:rebc STATUS:               ID:20161222015720 L   I
 OLDACT:REG 16-12-22 12:35 OP:cog  STATUS:               ID:20161222014743     3
 2016-12-22-0148-00M.COL___375                                                 6
 STAT SP IPHASW D HRMM SECON CODA AMPLIT PERI AZIMU VELO AIN AR TRES W  DIS CAZ7
 RUS  HZ EP        157 39.70                             151    0.0110 63.6  91 
 RUS  HN ES        157 54.57                             151    0.0010 63.6  91 
 RUS  HZ I         157 55.18         8.5 0.32            155           63.6  91 
 BAR2 EZ EP        157 41.36                             141    0.0510 92.6  35 
 BAR2 EZ ES        157 57.58                             141    0.1410 92.6  35 
 BAR2 EZ I         157 59.85         8.8 0.28            146           92.6  35 
 PTB  HZ EP        157 41.98                             135   -0.7010  113 309 
 PTB  HN ES        158  0.07                             135    0.1910  113 309 
 PTB  HZ I         158  1.58         5.8 0.10            138            113 309 
 BRR  HZ EP        157 44.45                             130   -0.0410  133 357 
 BRR  HN ES        158  2.83                             130   -0.2810  133 357 
 BRR  HZ I         158  6.79         5.3 0.28            134            133 357 
 CHI  HZ EP        157 45.81                             128    0.03 9  141 183 
 CHI  HN ES        158  5.43                             128    0.03 9  141 183 
 CHI  HZ I         158 10.83         2.0 0.44            131            141 183 
 GUY2CHZ EP   4    157 55.19                             117    2.90 0  204 248 
 GUY2CHE ES   4    158 20.35                             117    3.36 0  204 248 
 ZAR  HZ EP        157 54.09                             115    0.57 8  220 323 
 ZAR  HN ES        158 19.35                             115    0.17 8  220 323 
                                                                                
