 2013 1122 0443 12.9 L   6.831 -73.132149.2  RSN  6 0.6 1.5LRSN                1
 GAP=185        1.18       5.9    10.8 11.6  0.2140E+02 -0.3275E+02 -0.1453E+02E
 Epicentro: LOS SANTOS - SANTANDER                                             3
 ACTION:UPD 14-01-09 16:30 OP:ep   STATUS:               ID:20131122044312 L   I
 OLDACT:REG 13-11-22 11:21 OP:mh   STATUS:               ID:20131122044000     3
 2013-11-22-0440-00M.COL___282                                                 6
 STAT SP IPHASW D HRMM SECON CODA AMPLIT PERI AZIMU VELO AIN AR TRES W  DIS CAZ7
 BAR2 SZ EP   1    443 32.39                             169   -0.68 7 27.0 192 
 BAR2 SZ I         443 49.25         8.4 0.18            167           27.0 192 
 BRR  HZ EP        443 35.18                             153    0.7210 71.0 296 
 BRR  HN ES        443 51.61                             153    0.3710 71.0 296 
 BRR  HZ I         443 56.39         6.4 0.12            163           71.0 296 
 RUS  HZ EP        443 37.59                             144    0.3110  104 177 
 RUS  HN ES   1    443 55.64                             144   -0.62 7  104 177 
 PTB  HZ EP   1    443 40.94                             132    0.54 7  150 258 
 PTB  HN ES   1    444  1.06                             132   -0.74 7  150 258 
 PTB  HZ I         444  4.14         2.4 0.26            139            150 258 
 OCA  HN ES   1    444  3.32                             131    0.02 7  157 352 
 SML  HZ EP        443 48.92                             118   -0.59 8  241 335 
 SML  HN ES   1    444 17.46                             118   -0.56 6  241 335 
                                                                                
