 2012  622 0503 44.1 L   6.686 -73.119151.3  RSN  4 0.4 1.4LRSN                1
 GAP=232        0.64      11.6    11.1  7.5  0.6852E+02  0.3380E+02  0.2437E+02E
 Epicentro: JORDAN - SANTANDER                                                 3
 ACTION:UPD 12-08-06 17:51 OP:ep   STATUS:               ID:20120622050344 L   I
 2012-06-22-0500-00M.COL___193                                                 6
 STAT SP IPHASW D HRMM SECON CODA AMPLIT PERI AZIMU VELO AIN AR TRES W  DIS CAZ7
 BAR2 SZ EP        5 4  4.51                             176    0.2310 12.5 214 
 BAR2 SZ ES   1    5 4 19.50                             176   -0.48 7 12.5 214 
 BAR2 SZ I         5 4 22.24         4.3 0.38                          12.5 214 
 BRR  HZ EP        5 4  6.38                             150   -0.0410 80.4 305 
 BRR  HE ES   1    5 4 24.03                             150    0.23 7 80.4 305 
 BRR  HZ I         5 4 26.78         5.8 0.22                          80.4 305 
 RUS  HN ES   3    5 4 27.02                             149    1.14 2 87.8 177 
 PTB  HZ EP        5 4 11.53                             133   -0.13 9  149 264 
                                                                                
