 2010  622 0835 21.4 L   7.527 -73.291129.7  RSN  5 0.4 1.1LRSN                1
 GAP=156        0.86      33.8    29.1 11.5 -0.9375E+03  0.5205E+02 -0.3681E+02E
 Epicentro: EL PLAYON - SANTANDER                                              3
 ACTION:UP  10-08-24 10:12 OP:vdl  STATUS:               ID:20100622083521 L   I
 2010-06-22-0831-46S.COL___118                                                 6
 STAT SP IPHASW D HRMM SECON CODA AMPLIT PERI AZIMU VELO SNR AR TRES W  DIS CAZ7
 GUE  SZ EP        835 39.60                             157    -0.610   52  50 
 GUE  SZ ES   2    835 54.52                             157    -0.4 5   52  50 
 BRI  SZ EP        835 40.53                             154     0.210   58  69 
 BRR  HZ EP        835 40.54                             151     0.110   66 225 
 BRR  HZ I         835 50.79         4.1 0.31                            66 225 
 BRR  HE ES   2    835 55.51                             151     0.1 5   66 225 
 GRA  SZ EP        835 41.03                             151     0.310   67  54 
 GRA  SZ ES   1    835 56.24                             151     0.3 7   67  54 
 OCA  SZ EP   3    835 42.12                             148     0.6 2   79 358 
 OCA  SZ I         836  1.13         2.2 0.17                            79 358 
                                                                                
