 2017 1222 0634  2.1 L   6.820 -73.211141.1  RSN  4 0.2 1.1LRSN                1
 GAP=147        0.46       4.3     3.6  4.9 -0.1169E+02  0.5781E+01 -0.3471E+01E
 Epicentro: ZAPATOCA - SANTANDER                                               3
 ACTION:UPD 18-01-04 13:23 OP:rebc STATUS:               ID:20171222063402 L   I
 OLDACT:DUP 17-12-22 17:01 OP:dani STATUS:               ID:20171222062446d    3
 2017-12-22-0628-00M.COL___460                                                 6
 STAT SP IPHASW D HRMM SECON CODA AMPLIT PERI AZIMU VELO AIN AR TRES W  DIS CAZ7
 BAR2 EZ EP   1    634 21.05                             169   -0.20 7 25.4 173 
 BAR2 EZ ES   1    634 35.87                             169   -0.29 7 25.4 173 
 PAM  EZ EP        634 24.02                             149   -0.0410 80.6  45 
 PAM  EN ES        634 41.35                             149    0.1910 80.6  45 
 PAM  EZ I         634 42.79         2.5 0.60            150           80.6  45 
 PTB  HZ EP        634 28.10                             132   -0.03 9  141 257 
 PTB  HN ES        634 48.37                             132   -0.02 9  141 257 
 PTB  HZ I         634 50.68         1.5 0.30            133            141 257 
 SPBC HE ES        634 51.98                             128    0.20 9  160 216 
                                                                                
