 2016 1022 0022 54.5 L   6.845 -73.187140.0  RSN  4 0.2 1.3LRSN                1
 GAP=129        0.47       3.1     4.4  6.7 -0.6017E+01  0.1843E+02 -0.5911E+01E
 Epicentro: ZAPATOCA - SANTANDER                                               3
 ACTION:UPD 16-11-09 19:21 OP:rebc STATUS:               ID:20161022002254 L   I
 OLDACT:UP  16-10-22 14:27 OP:and  STATUS:               ID:20161022001743d    3
 OLDACT:DUP 16-10-22 14:22 OP:and  STATUS:               ID:20161022001743d    3
 OLDACT:UP  16-10-22 14:21 OP:and  STATUS:               ID:20161022001742     3
 OLDACT:UP  16-10-22 13:58 OP:and  STATUS:               ID:20161022001742     3
 OLDACT:REG 16-10-22 12:46 OP:and  STATUS:               ID:20161022001742     3
 2016-10-22-0018-00M.COL___358                                                 6
 STAT SP IPHASW D HRMM SECON CODA AMPLIT PERI AZIMU VELO AIN AR TRES W  DIS CAZ7
 BRR  HZ EP   2    023 15.15                             154    0.45 5 64.9 297 
 BRR  HZ I         023 29.60        10.4 0.32            142           64.9 297 
 PAM  EZ IP     C  023 16.26                             150    0.1710 76.7  45 
 PAM  EN ES        023 32.79                             150   -0.1210 76.7  45 
 RUS  HZ EP   2    023 17.79                             141   -0.33 5  106 174 
 RUS  HN ES        023 36.60                             141    0.0810  106 174 
 RUS  HZ I         023 36.85         1.4 0.28            141            106 174 
 PTB  HZ EP        023 20.54                             131   -0.18 9  144 257 
 PTB  HN ES   2    023 41.13                             131   -0.02 5  144 257 
                                                                                
