 2017  722 0647 21.3 L   6.605 -73.182139.0  RSN  4 0.2 1.2LRSN                1
 GAP=227        0.44       5.3     3.4  4.6  0.7011E+01  0.5486E+01  0.1006E+01E
 Epicentro: BARICHARA - SANTANDER                                              3
 ACTION:UPD 17-08-30 15:35 OP:rebc STATUS:               ID:20170722064721 L   I
 OLDACT:REG 17-07-22 13:16 OP:dnl  STATUS:               ID:20170722063740     3
 2017-07-22-0638-00M.COL___380                                                 6
 STAT SP IPHASW D HRMM SECON CODA AMPLIT PERI AZIMU VELO AIN AR TRES W  DIS CAZ7
 BAR2 EZ EP        647 39.87                             179    0.0110 1.38 180 
 BAR2 EZ ES        647 54.40                             179    0.0610 1.38 180 
 BAR2 EZ I         647 55.49         4.2 0.30            174           1.38 180 
 BRR  HZ EP   2    647 41.84                             148   -0.46 5 80.7 314 
 BRR  HE ES        647 58.69                             148    0.0110 80.7 314 
 BRR  HZ I         648  0.25         3.9 0.54            145           80.7 314 
 PTB  HZ EP   2    647 46.94                             132   -0.16 5  141 267 
 PTB  HN ES        648  7.22                             132   -0.01 9  141 267 
 PTB  HZ I         648 10.92         0.7 0.18            130            141 267 
 ZAR  HZ EP   2    647 54.60                             120    0.72 4  210 298 
 ZAR  HE ES        648 19.23                             120   -0.07 8  210 298 
 ZAR  HZ I         648 25.27         2.5 0.34            119            210 298 
                                                                                
