 2012  222 0001 55.4 L   6.750 -73.146141.7  RSN  7 0.4 1.8LRSN                1
 GAP=139        0.72       4.8     5.3  6.8 -0.3956E+01  0.6891E+01  0.3405E+01E
 ACTION:UP  12-03-07 16:32 OP:epov STATUS:               ID:20120222000155 L   I
 2012-02-22-0000-00M.COL___190                                                 6
 STAT SP IPHASW D HRMM SECON CODA AMPLIT PERI AZIMU VELO AIN AR TRES W  DIS CAZ7
 BAR2 SZ EP   1    0 2 14.51                             172    0.07 7 17.9 193 
 BAR2 SZ ES   1    0 2 29.08                             172   -0.21 7 17.9 193 
 BAR2 SZ I         0 2 30.55        24.7 0.13                          17.9 193 
 BRR  HZ EP   1    0 2 16.40                             151    0.12 7 74.0 302 
 BRR  HN ES   1    0 2 33.34                             151    0.78 7 74.0 302 
 BRR  HZ I         0 2 35.82        15.6 0.26                          74.0 302 
 PAM  SZ EP   1    0 2 17.48                             149    0.02 7 81.7  37 
 PAM  SN ES   1    0 2 34.18                             149   -0.48 7 81.7  37 
 PAM  SZ I         0 2 36.69         9.2 0.58                          81.7  37 
 RUS  HZ EP   1    0 2 18.54                             145    0.18 7 95.1 176 
 RUS  HZ I         0 2 19.39         5.2 0.10                          95.1 176 
 RUS  HE ES   1    0 2 36.38                             145    0.12 7 95.1 176 
 PTB  HZ EP   1    0 2 21.48                             131   -0.47 7  147 261 
 PTB  HE ES   2    0 2 42.00                             131   -0.66 5  147 261 
 NOR  SN ES   2    0 2 57.71                             118   -0.26 4  232 236 
 PRA  HZ EP   2    0 2 49.08                             106    0.86 3  387 210 
                                                                                
