 2011  822 0647 33.7 L   6.472 -73.729 98.5  RSN  5 0.2 1.6LRSN                1
 GAP=130        0.46       2.5     3.9  5.4  0.6448E+00  0.5927E+01 -0.3873E+00E
 Epicentro: SANTA HELENA DEL OPON - SANTANDER                                  3
 ACTION:UPD 12-07-13 15:53 OP:ep   STATUS:               ID:20110822064733 L   I
 2011-08-22-0643-31S.COL___153                                                 6
 STAT SP IPHASW D HRMM SECON CODA AMPLIT PERI AZIMU VELO AIN AR TRES W  DIS CAZ7
 BAR2 SZ EP   1    647 49.93                             146    0.24 7 61.9  78 
 BAR2 SZ I         647 50.59        15.0 0.09                          61.9  78 
 BAR2 SZ ES   1    648  1.95                             146   -0.19 7 61.9  78 
 BRR  HZ EP   1    647 50.06                             142    0.10 7 70.2   2 
 BRR  HE ES   1    648  2.85                             142    0.24 7 70.2   2 
 BRR  HZ I         648  4.37         7.8 0.17                          70.2   2 
 RUS  HZ EP   1    647 52.94                             133    0.14 7 96.0 132 
 RUS  HE ES   2    648  7.41                             133   -0.26 5 96.0 132 
 NOR  SN ES   2    648 18.16                             117   -0.30 5  161 232 
 OCA  SZ EP   1    648  3.38                             112   -0.01 6  201  13 
 OCA  SZ ES   1    648 26.12                             112   -0.41 6  201  13 
 OCA  SZ I         648 32.96         4.4 0.61                           201  13 
                                                                                
