 2017 1222 0504 10.2 L   6.809 -73.174139.6  RSN  6 0.3 1.4LRSN                1
 GAP=140        0.66       3.0     3.3  5.3 -0.4291E+01  0.7232E+01 -0.4971E+01E
 Epicentro: LOS SANTOS - SANTANDER                                             3
 ACTION:UPD 18-01-04 13:23 OP:rebc STATUS:               ID:20171222050410 L   I
 OLDACT:REG 17-12-22 13:02 OP:dani STATUS:               ID:20171222045033     3
 2017-12-22-0457-00M.COL___469                                                 6
 STAT SP IPHASW D HRMM SECON CODA AMPLIT PERI AZIMU VELO AIN AR TRES W  DIS CAZ7
 BAR2 EZ EP        5 4 28.77                             170   -0.3110 24.0 182 
 BAR2 EZ ES        5 4 43.90                             170    0.0810 24.0 182 
 BAR2 EZ I         5 4 45.43         3.9 0.14            171           24.0 182 
 PAM  EZ EP        5 4 31.72                             149   -0.1010 78.7  42 
 PAM  EE ES        5 4 48.98                             149    0.2810 78.7  42 
 PAM  EZ I         5 4 50.97         6.1 0.46            153           78.7  42 
 PTB  HZ EP        5 4 36.57                             131    0.19 9  145 258 
 PTB  HN ES        5 4 56.73                             131   -0.09 9  145 258 
 PTB  HZ I         5 5  3.82         1.5 0.36            132            145 258 
 OCA  HZ EP        5 4 37.65                             128   -0.24 9  159 354 
 OCA  HE ES        5 4 59.34                             128   -0.16 9  159 354 
 OCA  HZ I         5 5  2.43         6.6 0.14            130            159 354 
 SPBC HN ES        5 4 59.79                             128   -0.08 9  162 218 
 ZAR  HZ EP        5 4 42.52                             121    0.63 9  201 292 
 ZAR  HE ES        5 5  6.47                             121   -0.15 9  201 292 
 ZAR  HZ I         5 5 12.29         2.8 0.66            123            201 292 
                                                                                
