 2015  222 0753 18.5 L   6.916 -73.172174.0  RSN  5 0.4 1.5LRSN                1
 GAP=134        1.02       9.1     7.9  9.5 -0.4556E+02 -0.4955E+01  0.1485E+02E
 Epicentro: BETULIA - SANTANDER                                                3
 ACTION:UPD 15-04-30 21:28 OP:nd   STATUS:               ID:20150222075318 L   I
 OLDACT:UP  15-02-22 19:27 OP:mh   STATUS:               ID:20150222074736d    3
 OLDACT:UP  15-02-22 19:27 OP:mh   STATUS:               ID:20150222074736d    3
 OLDACT:DUP 15-02-22 19:23 OP:mh   STATUS:               ID:20150222074736d    3
 2015-02-22-0747-35M.COL___275                                                 6
 STAT SP IPHASW D HRMM SECON CODA AMPLIT PERI AZIMU VELO AIN AR TRES W  DIS CAZ7
 BAR2 EZ EP        753 42.08                             168    0.2810 35.8 182 
 BAR2 EZ ES   1    753 59.33                             168   -0.64 7 35.8 182 
 BRR  HZ EP        753 42.06                             159   -0.3410 63.3 290 
 BRR  HN ES   1    754  1.43                             159    0.39 7 63.3 290 
 BRR  HZ I         754  7.16         4.4 0.26            157           63.3 290 
 PAM  SZ EP        753 42.89                             157   -0.5410 70.1  48 
 PAM  SN ES        754  3.34                             157    0.4710 70.1  48 
 PTB  HZ EP   4    753 50.47                             138    2.55 0  148 254 
 PTB  HN ES        754 10.81                             138   -0.05 9  148 254 
 PTB  HZ I         754 14.56         3.1 0.16            138            148 254 
 SPBC HZ EP   1    753 50.83                             133    0.79 7  172 216 
 SPBC HN ES        754 14.60                             133   -0.05 9  172 216 
 SPBC HZ I         754 20.03         3.7 0.40            135            172 216 
 SML  HZ EP   4    753 59.06                             125    3.50 0  231 335 
                                                                                
