 2014 1122 0949 51.8 L   6.790 -73.102156.5  RSN  9 0.4 1.5LRSN                1
 GAP=143        1.08       3.6     4.4  7.0 -0.6342E+00  0.6630E+01  0.3838E+01E
 Epicentro: LOS SANTOS - SANTANDER                                             3
 ACTION:UPD 14-12-19 15:45 OP:nd   STATUS:               ID:20141122094951 L   I
 OLDACT:REG 14-11-22 13:56 OP:fm   STATUS:               ID:20141122094746     3
 2014-11-22-0947-46M.COL___306                                                 6
 STAT SP IPHASW D HRMM SECON CODA AMPLIT PERI AZIMU VELO AIN AR TRES W  DIS CAZ7
 BAR2 SZ EP        950 12.82                             171    0.0810 23.5 202 
 BAR2 SZ I         950 32.26         6.4 0.18            170           23.5 202 
 PAM  SZ EP        950 15.70                             153    0.6310 75.4  36 
 PAM  SN ES        950 33.21                             153   -0.0010 75.4  36 
 PAM  SZ I         950 35.14         7.6 0.52            155           75.4  36 
 BRR  HZ EP        950 14.58                             153    0.1910 76.0 298 
 BRR  HN ES        950 32.06                             153    0.0510 76.0 298 
 BRR  HZ I         950 36.09         5.0 0.34            153           76.0 298 
 RUS  HZ EP        950 16.48                             146   -0.0610 99.2 179 
 RUS  HN ES        950 35.95                             146    0.1210 99.2 179 
 RUS  HZ I         950 37.93         1.6 0.32            147           99.2 179 
 PTB  HZ EP        950 19.62                             133   -0.45 9  152 260 
 PTB  HN ES        950 41.25                             133   -0.86 9  152 260 
 PTB  HZ I         950 48.32         6.4 0.40            134            152 260 
 OCA  HZ EP        950 20.97                             132   -0.17 9  162 352 
 OCA  HE ES        950 43.62                             132   -0.40 9  162 352 
 OCA  HZ I         950 52.24         5.8 0.48            133            162 352 
 ZAR  HZ EP        950 24.94                             124   -0.53 8  209 292 
 ZAR  HE ES        950 52.39                             124    0.66 8  209 292 
 ZAR  HZ I         950 57.08         5.1 0.42            125            209 292 
 CHI  HZ EP        950 29.63                             119   -0.52 8  249 196 
 CHI  HN ES        951  0.19                             119    0.14 8  249 196 
 CHI  HZ I         951  8.68         1.1 0.34            120            249 196 
 HEL  HZ EP        950 33.86                             116    0.79 7  276 256 
 HEL  HN ES        951  5.81                             116    0.56 7  276 256 
 HEL  HZ I         951 12.25         2.5 0.44            117            276 256 
                                                                                
