 2016  522 0233 33.1 L   6.866 -73.156145.8  RSN 12 0.4 2.3LRSN                1
 GAP=125        1.05       3.1     3.9  5.2 -0.3011E+01  0.3563E+01  0.1517E-01E
 Epicentro: LOS SANTOS - SANTANDER                                             3
 ACTION:UPD 16-08-18 17:48 OP:cam  STATUS:               ID:20160522023333 L   I
 OLDACT:UP  16-05-22 15:34 OP:mh   STATUS:               ID:20160522022743     3
 OLDACT:UP  16-05-22 15:34 OP:mh   STATUS:               ID:20160522022743     3
 OLDACT:UP  16-05-22 15:33 OP:mh   STATUS:               ID:20160522022743     3
 OLDACT:UP  16-05-22 15:32 OP:mh   STATUS:               ID:20160522022743     3
 OLDACT:REG 16-05-22 13:03 OP:mh   STATUS:               ID:20160522022743     3
 2016-05-22-0227-43M.COL___298                                                 6
 STAT SP IPHASW D HRMM SECON CODA AMPLIT PERI AZIMU VELO AIN AR TRES W  DIS CAZ7
 BAR2 EZ EP        233 52.93                             168    0.0510 30.4 186 
 BAR2 EZ ES        234  8.09                             168   -0.2310 30.4 186 
 BAR2 EZ I         234  9.92        32.5 0.24            167           30.4 186 
 BRR  HZ IP     C  233 54.50                             154    0.5010 67.0 293 
 BRR  HN ES        234 10.49                             154    0.1810 67.0 293 
 BRR  HZ I         234 15.10        36.3 0.14            152           67.0 293 
 PAM  EZ EP        233 55.54                             152    0.5210 72.6  44 
 PAM  EN ES        234 12.63                             152    0.5010 72.6  44 
 PAM  EZ I         234 14.22        57.8 0.46            156           72.6  44 
 RUS  HZ EP        233 57.21                             142   -0.1710  108 176 
 RUS  HN ES        234 16.10                             142   -0.2310  108 176 
 PTB  HZ EP        233 59.80                             132   -0.30 9  148 256 
 PTB  HN ES        234 20.82                             132   -0.35 9  148 256 
 PTB  HZ I         234 23.55        23.5 0.16            132            148 256 
 OCA  HZ EP        234  0.60                             131   -0.10 9  153 353 
 OCA  HN ES        234 21.46                             131   -0.79 9  153 353 
 OCA  HZ I         234 26.11        49.6 0.18            133            153 353 
 SPBC HZ EP        234  1.97                             128   -0.09 9  168 217 
 SPBC HN ES        234 24.46                             128   -0.21 9  168 217 
 SPBC HZ I         234 32.65        17.9 0.06            129            168 217 
 ZAR  HZ EP        234  5.50                             123    0.35 9  200 290 
 ZAR  HN ES        234 30.93                             123    0.77 9  200 290 
 ZAR  HZ I         234 35.98        23.6 0.46            123            200 290 
 NOR  HZ EP        234  9.65                             118    0.47 8  238 233 
 NOR  HN ES        234 36.65                             118   -0.69 8  238 233 
 NOR  HZ I         234 43.66        12.9 0.26            119            238 233 
 SDV  BZ EP        234 22.24                             108   -0.44 6  357  51 
 SDV  BE ES   4    234 58.74                             108   -2.63 0  357  51 
 SDV  BZ I         235  1.67         2.4 0.40            110            357  51 
 PRA  HZ EP        234 27.71                             106    0.42 6  398 209 
 PRA  HN ES        235  9.94                             106    0.37 6  398 209 
 PRA  HZ I         235 18.30         3.8 0.36            107            398 209 
 SJC  HZ EP        234 26.80                             106   -1.05 6  402 327 
 SJC  HE ES   4    235  7.64                             106   -2.93 0  402 327 
 SJC  HZ I         235 11.30         5.9 0.58            107            402 327 
                                                                                
