 2010  722 0929 46.3 L   6.779 -73.198142.0  RSN  5 0.4 1.6LRSN                1
 GAP=153        0.89       9.3    24.3 13.7  0.6799E+02  0.5709E+02 -0.3773E+02E
 Epicentro: ZAPATOCA - SANTANDER                                               3
 ACTION:UPD 10-12-01 15:19 OP:pat  STATUS:               ID:20100722092946 L   I
 2010-07-22-0926-39S.COL___123                                                 6
 STAT SP IPHASW D HRMM SECON CODA AMPLIT PERI AZIMU VELO AIN AR TRES W  DIS CAZ7
 BAR2 SZ EP   1    930  5.01                             172    -0.4 7   21 176 
 BAR2 SZ ES   2    930 20.03                             172    -0.3 5   21 176 
 BAR2 SZ I         930 21.72        10.1 0.15                            21 176 
 BRR  HZ EP   1    930  7.01                             153     0.2 7   67 303 
 BRR  HZ I         930 24.78        14.4 0.58                            67 303 
 RUS  HZ EP   1    930  9.04                             144    -0.5 7   99 173 
 RUS  HN ES   1    930 28.21                             144     0.5 7   99 173 
 RUS  HZ I         930 29.56         3.8 0.35                            99 173 
 GRA  SZ EP   2    930 12.08                             136     0.6 5  130  20 
 CHI  HZ EP   2    930 23.42                             117     0.1 4  245 194 
 CHI  HZ I         930 23.81         2.0 0.12                           245 194 
                                                                                
