 2016  522 0925 22.6 L   6.794 -73.155138.2  RSN  8 0.5 1.6LRSN                1
 GAP=194        1.11       5.0     6.4  8.7 -0.9115E+01  0.2169E+02 -0.3575E+01E
 Epicentro: LOS SANTOS - SANTANDER                                             3
 ACTION:UPD 16-08-18 17:48 OP:cam  STATUS:               ID:20160522092522 L   I
 OLDACT:UP  16-05-22 17:04 OP:mh   STATUS:               ID:20160522091745     3
 OLDACT:UP  16-05-22 17:03 OP:mh   STATUS:               ID:20160522091745     3
 OLDACT:REG 16-05-22 13:17 OP:mh   STATUS:               ID:20160522091745     3
 2016-05-22-0917-45M.COL___286                                                 6
 STAT SP IPHASW D HRMM SECON CODA AMPLIT PERI AZIMU VELO AIN AR TRES W  DIS CAZ7
 BAR2 EZ EP        925 41.65                             170    0.3010 22.5 188 
 BAR2 EZ ES        925 56.09                             170    0.1510 22.5 188 
 BAR2 EZ I         925 57.45         6.9 0.19            170           22.5 188 
 BRR  HZ EP     C  925 43.57                             151    0.6210 70.6 299 
 BRR  HN ES        925 58.95                             151    0.1710 70.6 299 
 BRR  HZ I         926  4.54         7.6 0.12            150           70.6 299 
 PTB  HZ EP        925 48.33                             130   -0.57 9  147 259 
 PTB  HN ES        926  9.04                             130   -0.34 9  147 259 
 PTB  HZ I         926 11.63         4.9 0.36            131            147 259 
 OCA  HN ES        926 11.26                             128   -0.84 9  161 354 
 OCA  HZ I         926 15.34        11.7 0.32            130            161 354 
 SPBC HN ES   1    926 11.45                             127   -0.71 7  162 219 
 SPBC HZ I         926 16.39         6.2 0.05            129            162 219 
 ZAR  HZ EP        925 54.81                             121    0.28 9  203 292 
 ZAR  HN ES        926 19.87                             121    0.47 9  203 292 
 NOR  HN ES        926 25.04                             117   -0.20 8  233 234 
 NOR  HZ I         926 27.30         3.2 0.18            119            233 234 
 HEL  HN ES        926 33.63                             113    0.31 8  271 256 
 HEL  HZ I         926 40.56         1.8 0.52            115            271 256 
                                                                                
