 2012  622 0007 54.0 L   6.807 -73.166144.5  RSN  7 0.5 2.3LRSN                1
 GAP=134        0.96       4.9     5.6  7.7  0.1699E+01  0.6725E+01 -0.3837E+01E
 Epicentro: LOS SANTOS - SANTANDER                                             3
 ACTION:UPD 12-08-06 17:51 OP:ep   STATUS:               ID:20120622000754 L   I
 2012-06-22-0000-00M.COL___193                                                 6
 STAT SP IPHASW D HRMM SECON CODA AMPLIT PERI AZIMU VELO AIN AR TRES W  DIS CAZ7
 BAR2 SZ IP        0 8 13.57                             170    0.1010 23.8 184 
 BAR2 SZ ES   1    0 8 28.35                             170   -0.32 7 23.8 184 
 BAR2 SZ I         0 8 29.38        48.5 0.32                          23.8 184 
 BRR  HZ IP     D  0 8 15.35                             153    0.4910 68.9 299 
 BRR  HZ I         0 8 15.53        85.9 0.32                          68.9 299 
 BRR  HE ES   1    0 8 32.01                             153    0.86 7 68.9 299 
 PAM  SZ EP        0 8 16.37                             150    0.2510 78.3  41 
 PAM  SZ I         0 8 16.61        33.4 0.22                          78.3  41 
 PAM  SN ES   2    0 8 33.27                             150   -0.11 5 78.3  41 
 RUS  HZ EP        0 8 17.92                             143    0.2410  102 175 
 RUS  HN ES   1    0 8 35.68                             143   -0.48 7  102 175 
 RUS  HZ I         0 8 37.11        24.2 0.20                           102 175 
 PTB  HZ EP        0 8 20.13                             132   -0.53 9  146 258 
 PTB  HN ES   1    0 8 41.13                             132   -0.34 7  146 258 
 PTB  HZ I         0 8 43.67        11.5 0.16                           146 258 
 OCA  HZ EP   2    0 8 21.26                             129   -0.84 5  159 354 
 OCA  HN ES   1    0 8 43.25                             129   -0.78 7  159 354 
 OCA  HZ I         0 8 46.56        55.6 0.18                           159 354 
 ZAR  HZ EP        0 8 26.17                             122    0.07 9  202 292 
 ZAR  HN ES   2    0 8 51.30                             122    0.15 4  202 292 
 ZAR  HZ I         0 8 57.02        22.8 0.44                           202 292 
                                                                                
