 2015  222 0728 17.7 L   6.754 -73.175149.0  RSN  8 0.3 1.4LRSN                1
 GAP=197        0.72       3.4     4.1  5.1 -0.2438E+00  0.8886E+00 -0.1285E+01E
 Epicentro: LOS SANTOS - SANTANDER                                             3
 ACTION:UPD 15-04-30 21:28 OP:nd   STATUS:               ID:20150222072817 L   I
 OLDACT:UP  15-02-22 19:18 OP:mh   STATUS:               ID:20150222071747     3
 OLDACT:UP  15-02-22 19:17 OP:mh   STATUS:               ID:20150222071747     3
 OLDACT:UP  15-02-22 19:14 OP:mh   STATUS:               ID:20150222071747     3
 OLDACT:REG 15-02-22 12:47 OP:mh   STATUS:               ID:20150222071747     3
 2015-02-22-0717-47M.COL___275                                                 6
 STAT SP IPHASW D HRMM SECON CODA AMPLIT PERI AZIMU VELO AIN AR TRES W  DIS CAZ7
 BAR2 EZ EP        728 37.41                             173   -0.2110 17.9 182 
 BRR  HZ EP        728 39.25                             153    0.0710 71.0 303 
 BRR  HN ES        728 56.16                             153    0.2210 71.0 303 
 BRR  HZ I         729  0.05         2.7 0.22            149           71.0 303 
 RUS  HZ EP        728 41.36                             146   -0.0710 95.8 174 
 RUS  HN ES        728 59.76                             146   -0.1810 95.8 174 
 RUS  HZ I         729  1.82         1.5 0.20            150           95.8 174 
 PTB  HZ EP        728 44.57                             134    0.01 9  144 261 
 PTB  HN ES        729  5.03                             134   -0.48 9  144 261 
 PTB  HZ I         729 11.42         3.5 0.46            133            144 261 
 SPBC HZ EP        728 46.04                             131    0.16 9  157 219 
 SPBC HN ES        729  8.59                             131    0.72 9  157 219 
 SPBC HZ I         729 10.75         4.3 0.24            132            157 219 
 NOR  HZ EP        728 52.87                             120   -0.14 8  229 235 
 NOR  HN ES        729 20.28                             120   -0.28 8  229 235 
 NOR  HZ I         729 28.73         2.6 0.27            121            229 235 
 SML  HZ EP        728 55.01                             118    0.15 8  247 336 
 SML  HN ES   4    729 24.05                             118    0.20 0  247 336 
 SML  HZ I         729 30.32         3.2 0.15            119            247 336 
 GUY2CHZ EP        729  0.90                             113    0.08 7  296 235 
 GUY2CHN ES   4    729 38.97                             113    4.51 0  296 235 
                                                                                
