 2016  622 0759 28.1 L   6.761 -73.180153.4  RSN  4 0.5 0.8LRSN                1
 GAP=238        1.05      12.5     7.8  9.6  0.3857E+02  0.1262E+02 -0.8374E+01E
 Epicentro: LOS SANTOS - SANTANDER                                             3
 ACTION:UPD 16-07-21 22:21 OP:rebc STATUS:               ID:20160622075928 L   I
 OLDACT:DUP 16-06-22 18:47 OP:ak   STATUS:               ID:20160622075743d    3
 OLDACT:REG 16-06-22 14:02 OP:ak   STATUS:               ID:20160622075742     3
 2016-06-22-0757-42M.COL___316                                                 6
 STAT SP IPHASW D HRMM SECON CODA AMPLIT PERI AZIMU VELO AIN AR TRES W  DIS CAZ7
 BAR2 EZ EP        759 48.64                             173    0.0510 18.7 181 
 BAR2 EZ ES        8 0  4.06                             173   -0.4910 18.7 181 
 BAR2 EZ I         8 0  6.00         1.5 0.23                          18.7 181 
 BRR  HZ EP        759 50.27                             154    0.2310 70.1 303 
 BRR  HN ES        8 0  7.64                             154    0.5110 70.1 303 
 PTB  HZ EP   1    759 54.98                             135   -0.34 7  143 260 
 PTB  HE ES        8 0 16.93                             135    0.39 9  143 260 
 PTB  HZ I         8 0 17.33         0.8 0.14                           143 260 
 ZAR  HZ EP   2    8 0  1.42                             124    0.53 4  202 294 
 ZAR  HE ES        8 0 25.65                             124   -0.79 9  202 294 
                                                                                
