 2010  922 0706 37.5 L   6.782 -73.094141.5  RSN 14 0.4 2.3LRSN                1
 GAP=165        1.08       4.3     8.2  8.8 -0.1332E+02  0.6873E+01 -0.1393E-01E
 Epicentro: LOS SANTOS - SANTANDER                                             3
 ACTION:UP  11-02-18 11:04 OP:tino STATUS:               ID:20100922070637 L   I
 2010-09-22-0703-55S.COL___122                                                 6
 STAT SP IPHASW D HRMM SECON CODA AMPLIT PERI AZIMU VELO SNR AR TRES W  DIS CAZ7
 BAR2 SZ IP        7 6 56.43                             170    -0.210   23 205 
 BAR2 SZ ES   2    7 7 10.84                             170    -0.7 5   23 205 
 BTL  SZ EP        7 6 56.64                             170     0.010   24 308 
 GIR2 SZ EP        7 6 57.53                             166     0.810   35 342 
 BRR  HZ IP     C  7 6 58.35                             150    -0.210   77 298 
 BRR  HN ES   1    7 7 15.23                             150     0.3 7   77 298 
 BRR  HZ I         7 7 20.55        50.1 0.13                            77 298 
 RUS  HZ EP        7 7  0.43                             144    -0.210   98 179 
 RUS  HE ES   1    7 7 18.78                             144     0.0 7   98 179 
 RUS  HZ I         7 7 20.08        34.7 0.38                            98 179 
 GUE  SZ EP        7 7  2.51                             138     0.610  117   9 
 GUE  SZ I         7 7  3.37        15.6 0.09                           117   9 
 GRA  SZ IP        7 7  2.40                             136     0.010  126  15 
 GRA  SZ ES   1    7 7 21.54                             136    -0.3 7  126  15 
 GRA  SZ I         7 7 23.09        55.7 0.29                           126  15 
 OCA  SZ EP        7 7  5.00                             128    -0.7 9  163 351 
 OCA  SZ I         7 7 33.12        47.2 0.29                           163 351 
 NOR  SZ EP   1    7 7 12.81                             117    -0.6 6  238 236 
 NOR  SZ I         7 7 45.01         2.7 0.26                           238 236 
 CHI  HZ EP   1    7 7 15.16                             116     0.2 6  248 197 
 CHI  HE ES   1    7 7 44.01                             116    -0.1 6  248 197 
 CHI  HZ I         7 7 47.20        12.0 0.27                           248 197 
 ROSC BN ES   2    7 7 45.70                             116     0.5 4  254 212 
 ROSC BZ I         7 7 51.38        23.1 0.10                           254 212 
 HEL  HZ EP   2    7 7 17.96                             113    -0.1 4  277 256 
 HEL  HE ES   2    7 7 49.36                             113    -0.3 4  277 256 
 HEL  HZ I         7 7 55.16        10.9 0.21                           277 256 
 RREF HN ES   2    7 8  0.95                             110     1.0 3  325 230 
 RREF HZ I         7 8  4.60        14.6 0.67                           325 230 
 TOL  SZ EP   2    7 7 26.45                             108     0.6 3  346 226 
                                                                                
