 2016 1022 0055 58.6 L   6.844 -73.152150.0  RSN 16 0.4 2.1LRSN                1
 GAP= 69        0.89       3.1     3.1  4.8 -0.2511E+01  0.1561E+01 -0.4225E+00E
 Epicentro: LOS SANTOS - SANTANDER                                             3
 ACTION:UPD 16-11-09 19:21 OP:rebc STATUS:               ID:20161022005558 L   I
 OLDACT:UP  16-10-22 15:00 OP:and  STATUS:               ID:20161022004750     3
 OLDACT:UP  16-10-22 14:57 OP:and  STATUS:               ID:20161022004750     3
 OLDACT:UP  16-10-22 14:35 OP:and  STATUS:               ID:20161022004750     3
 OLDACT:UP  16-10-22 14:33 OP:and  STATUS:               ID:20161022004750     3
 OLDACT:REG 16-10-22 12:50 OP:and  STATUS:               ID:20161022004750     3
 2016-10-22-0048-00M.COL___358                                                 6
 STAT SP IPHASW D HRMM SECON CODA AMPLIT PERI AZIMU VELO AIN AR TRES W  DIS CAZ7
 BAR2 EZ EP        056 18.90                             169    0.0310 28.0 187 
 BAR2 EZ ES        056 34.65                             169   -0.0110 28.0 187 
 BAR2 EZ I         056 34.96        37.2 0.26            167           28.0 187 
 BRR  HZ IP     D  056 20.54                             154    0.4510 68.4 295 
 BRR  HN ES   2    056 38.10                             154    1.28 5 68.4 295 
 BRR  HZ I         056 41.19        12.8 0.11            149           68.4 295 
 PAM  EZ IP     D  056 21.56                             152    0.4410 74.2  42 
 PAM  EN ES        056 38.65                             152   -0.0010 74.2  42 
 PAM  EZ I         056 41.02        17.7 0.21            156           74.2  42 
 RUS  HZ EP        056 22.70                             143   -0.4510  105 176 
 RUS  HN ES        056 41.57                             143   -0.7010  105 176 
 RUS  HZ I         056 42.45         7.3 0.40            144            105 176 
 PTB  HZ EP        056 25.73                             133   -0.25 9  148 257 
 PTB  HE ES        056 46.89                             133   -0.42 9  148 257 
 PTB  HZ I         056 54.01        17.4 0.38            130            148 257 
 TAM  HZ IP     C  056 27.01                             131    0.18 9  157 107 
 TAM  HN ES        056 48.75                             131   -0.07 9  157 107 
 SPBC HZ EP        056 27.73                             129   -0.04 9  167 218 
 SPBC HN ES        056 50.85                             129    0.35 9  167 218 
 SPBC HZ I         056 51.89        15.8 0.18            128            167 218 
 NOR  HZ EP   2    056 35.05                             119    0.20 4  237 233 
 NOR  HN ES   2    057  3.03                             119   -0.07 4  237 233 
 NOR  HZ I         057 11.44        10.9 0.24            118            237 233 
 CHI  HZ EP        056 37.02                             117   -0.03 8  253 195 
 CHI  HE ES        057  7.45                             117    0.43 8  253 195 
 CHI  HZ I         057  8.92         4.1 0.22            117            253 195 
 ROSC BZ EP   9    056 39.80                             117    2.40 0  257 210 
 ROSC BE ES        057  9.66                                   -0.38 8  257 210 
 ROSC BZ I         057 16.69        15.9 0.40            117            257 210 
 HEL  HZ EP   9    056 42.05                             115    2.93 0  273 255 
 HEL  HN ES        057 13.26                             116   -0.37 8  273 255 
 HEL  HZ I         057 17.54         5.5 0.30            114            273 255 
 GUY2CHZ EP   4    056 44.03                             113    1.34 0  303 234 
 GUY2CHN ES   4    057 21.57                             113    4.51 0  303 234 
 GUY2CHZ I         057 25.56         5.5 0.39                           303 234 
 PTGC HZ EP   4    056 41.86                             112   -1.36 0  313 159 
 PTGC HN ES   4    057 15.40                             112   -2.59 0  313 159 
 LL6C HZ EP   9    056 24.12                             111   -19.8 0  320 358 
 LL6C HN ES        057  0.17                                    0.69 7  320 358 
 PRA  HZ EP   2    056 53.51                             107    0.76 3  396 209 
 PRA  HN ES   2    057 35.55                             107    0.59 3  396 209 
 PRA  HZ I         057 41.32         5.2 0.24            107            396 209 
 SJC  HZ IP     D  056 53.12                             106   -0.70 6  405 327 
 SJC  HN ES   4    057 34.85                             106   -2.01 0  405 327 
 CRJC HZ EP   4    056 59.10                             104   -1.59 0  463   4 
 CRJC HN ES        057 48.96                             104   -0.13 5  463   4 
                                                                                
