 2016 1022 0509 32.9 L   6.775 -73.149142.0  RSN  9 0.4 1.6LRSN                1
 GAP=137        0.94       4.0     4.4  5.7 -0.5322E+01  0.5328E+01  0.5633E+01E
 Epicentro: LOS SANTOS - SANTANDER                                             3
 ACTION:UPD 16-11-09 19:21 OP:rebc STATUS:               ID:20161022050932 L   I
 OLDACT:REG 16-10-22 13:12 OP:and  STATUS:               ID:20161022050745     3
 2016-10-22-0508-00M.COL___346                                                 6
 STAT SP IPHASW D HRMM SECON CODA AMPLIT PERI AZIMU VELO AIN AR TRES W  DIS CAZ7
 BAR2 EZ EP        5 9 51.92                             171   -0.1310 20.5 190 
 BAR2 EZ ES        510  6.91                             171   -0.0510 20.5 190 
 BAR2 EZ I         510  7.91        12.6 0.23            172           20.5 190 
 BRR  HZ IP     C  5 9 53.82                             152    0.0910 72.3 301 
 BRR  HN ES        510 10.78                             152    0.8210 72.3 301 
 BRR  HZ I         510 12.41         7.3 0.14            152           72.3 301 
 PAM  EZ EP        5 9 54.91                             150    0.0210 79.7  38 
 PAM  EN ES        510 11.98                             150   -0.0310 79.7  38 
 PAM  EZ I         510 13.97         8.6 0.50            151           79.7  38 
 RUS  HZ EP        5 9 55.86                             144   -0.2510 97.8 176 
 RUS  HN ES        510 14.15                             144   -0.0410 97.8 176 
 RUS  HZ I         510 15.43         3.1 0.30            146           97.8 176 
 PTB  HZ EP        5 9 58.77                             131   -0.74 9  147 260 
 PTB  HN ES        510 19.60                             131   -0.65 9  147 260 
 PTB  HZ I         510 21.94         5.5 0.14            133            147 260 
 SPBC HZ EP        510  1.08                             129    0.17 9  161 220 
 SPBC HN ES        510 22.79                             129    0.05 9  161 220 
 SPBC HZ I         510 25.05         4.6 0.08            130            161 220 
 CHI  HN ES   2    510 39.08                             117   -0.04 4  246 195 
 HEL  HN ES   4    510 45.55                             114    1.58 0  271 256 
 GUY2CHZ EP        510 16.26                             112    0.11 7  299 235 
 GUY2CHN ES        510 49.96                             112    0.10 7  299 235 
 GUY2CHZ I         510 58.33         1.4 0.56                           299 235 
 PRA  HZ EP        510 26.56                             106    0.54 6  389 210 
 PRA  HN ES        511  8.30                             106    0.87 6  389 210 
 SJC  HZ EP   4    510 26.76                             105   -1.86 0  411 327 
 SJC  HN ES   4    511  6.24                             105   -5.82 0  411 327 
                                                                                
