 2015  222 0243  7.9 L   6.800 -73.206138.9  RSN  5 0.4 1.4LRSN                1
 GAP=138        1.00       4.3     9.0  8.4 -0.1889E+02  0.2254E+02 -0.6167E+01E
 Epicentro: ZAPATOCA - SANTANDER                                               3
 ACTION:UPD 15-04-30 21:28 OP:nd   STATUS:               ID:20150222024307 L   I
 OLDACT:REG 15-02-22 12:28 OP:mh   STATUS:               ID:20150222023739     3
 2015-02-22-0237-39M.COL___281                                                 6
 STAT SP IPHASW D HRMM SECON CODA AMPLIT PERI AZIMU VELO AIN AR TRES W  DIS CAZ7
 BAR2 EZ EP   1    243 26.49                             170   -0.24 7 23.1 174 
 BAR2 EZ ES        243 41.09                             170   -0.3010 23.1 174 
 BAR2 EZ I         243 45.11         5.5 0.27            170           23.1 174 
 PAM  SZ EP        243 29.99                             148    0.2910 81.8  43 
 PAM  SN ES   1    243 47.37                             148    0.69 7 81.8  43 
 PAM  SZ I         243 47.76         3.1 0.22            153           81.8  43 
 RUS  HZ EP        243 30.39                             142   -0.6810  101 172 
 RUS  HN ES   1    243 49.25                             142    0.15 7  101 172 
 RUS  HZ I         243 50.37         2.5 0.34            148            101 172 
 SPBC HZ EP        243 35.63                             128    0.11 9  159 217 
 SPBC HN ES        243 57.51                             128    0.48 9  159 217 
 SPBC HZ I         244  1.61         5.9 0.10            130            159 217 
 OCA  HZ EP   1    243 36.09                             128    0.43 7  160 356 
 OCA  HN ES        243 56.87                             128   -0.41 9  160 356 
 OCA  HZ I         244  4.31         3.6 0.28            130            160 356 
                                                                                
