 2012  422 0005 23.7 L   6.739 -73.140147.2  RSN  7 0.4 1.7LRSN                1
 GAP=140        0.95       5.0     5.9  7.6 -0.3249E+00  0.3273E+01 -0.4943E+01E
 Epicentro: JORDAN - SANTANDER                                                 3
 ACTION:UPD 12-07-05 11:55 OP:tino STATUS:               ID:20120422000523 L   I
 2012-04-22-0000-00M.COL___186                                                 6
 STAT SP IPHASW D HRMM SECON CODA AMPLIT PERI AZIMU VELO AIN AR TRES W  DIS CAZ7
 BAR2 SZ EP   1    0 5 43.43                             173     0.0 7   17 196 
 BAR2 SZ ES        0 5 58.65                             173    -0.110   17 196 
 BAR2 SZ I         0 6  0.01        18.1 0.18                            17 196 
 BRR  HZ EP   1    0 5 45.53                             151     0.3 7   75 303 
 BRR  HN ES        0 6  2.38                             151     0.410   75 303 
 BRR  HZ I         0 6  6.69        16.4 0.14                            75 303 
 PAM  SZ EP   1    0 5 46.56                             150     0.2 7   82  36 
 PAM  SZ I         0 5 46.73         8.2 0.20                            82  36 
 PAM  SN ES   1    0 6  3.39                             150    -0.6 7   82  36 
 RUS  HZ EP   1    0 5 47.52                             146     0.4 7   94 176 
 RUS  HE ES   1    0 6  5.52                             146     0.1 7   94 176 
 RUS  HZ I         0 6  7.28         5.1 0.25                            94 176 
 PTB  HZ EP   1    0 5 50.45                             132    -0.3 7  147 261 
 PTB  HN ES   1    0 6 11.14                             132    -0.7 7  147 261 
 PTB  HZ I         0 6 13.45         4.3 0.24                           147 261 
 OCA  SZ EP   1    0 5 52.10                             129    -0.7 7  167 353 
 OCA  SZ ES   1    0 6 15.92                             129     0.5 7  167 353 
 ZAR  HN ES   2    0 6 22.49                             122     0.3 4  207 294 
                                                                                
