 2013 1122 0452 55.8 L   6.735 -73.156150.6  RSN  5 0.5 1.3LRSN                1
 GAP=231        1.21       9.6     8.9  9.7  0.4865E+02  0.9758E+01 -0.3767E+00E
 Epicentro: VILLANUEVA - SANTANDER                                             3
 ACTION:UPD 14-01-09 16:30 OP:ep   STATUS:               ID:20131122045255 L   I
 OLDACT:REG 13-11-22 11:21 OP:mh   STATUS:               ID:20131122045000     3
 2013-11-22-0450-00M.COL___282                                                 6
 STAT SP IPHASW D HRMM SECON CODA AMPLIT PERI AZIMU VELO AIN AR TRES W  DIS CAZ7
 BAR2 SZ EP        453 15.24                             174   -0.6310 16.0 190 
 BAR2 SZ ES        453 30.92                             174   -0.6210 16.0 190 
 BAR2 SZ I         453 32.99         7.5 0.17            173           16.0 190 
 BRR  HZ EP        453 17.73                             152    0.1210 73.9 304 
 BRR  HN ES        453 35.27                             152    0.6510 73.9 304 
 BRR  HZ I         453 38.09         3.4 0.13            153           73.9 304 
 RUS  HZ EP        453 20.13                             147    0.6110 93.5 175 
 RUS  HE ES        453 38.37                             147    0.3310 93.5 175 
 RUS  HZ I         453 39.71         2.2 0.25            149           93.5 175 
 PTB  HZ EP        453 22.60                             134   -0.34 9  145 262 
 PTB  HN ES        453 43.84                             134   -0.27 9  145 262 
 PTB  HZ I         453 46.94         3.0 0.10            135            145 262 
 ZAR  HN ES   1    453 54.60                             123    0.18 6  206 294 
                                                                                
