 2014 1122 0507 51.5 L   6.817 -73.140148.0  RSN 15 0.4 1.8LRSN                1
 GAP= 71        0.97       2.6     2.7  4.8 -0.7560E+00  0.3206E+01  0.1588E+01E
 Epicentro: LOS SANTOS - SANTANDER                                             3
 ACTION:UPD 14-12-19 15:45 OP:nd   STATUS:               ID:20141122050751 L   I
 OLDACT:REG 14-11-22 13:44 OP:fm   STATUS:               ID:20141122045743     3
 2014-11-22-0457-43M.COL___306                                                 6
 STAT SP IPHASW D HRMM SECON CODA AMPLIT PERI AZIMU VELO AIN AR TRES W  DIS CAZ7
 BAR2 SZ EP        5 8 10.98                             170   -0.4310 25.2 191 
 BAR2 SZ ES   1    5 8 27.07                             170    0.11 7 25.2 191 
 BAR2 SZ I         5 8 27.96        13.0 0.50            169           25.2 191 
 BRR  HZ EP        5 8 12.63                             153   -0.2210 70.8 297 
 BRR  HN ES        5 8 30.27                             153    0.7610 70.8 297 
 BRR  HZ I         5 8 33.79         9.1 0.12            154           70.8 297 
 PAM  SZ EP        5 8 14.17                             152    0.3510 75.6  40 
 PAM  SN ES        5 8 31.46                             152    0.2010 75.6  40 
 PAM  SZ I         5 8 33.57        13.2 0.56            154           75.6  40 
 RUS  HZ EP        5 8 15.35                             144   -0.2310  102 176 
 RUS  HN ES        5 8 34.17                             144   -0.2010  102 176 
 RUS  HZ I         5 8 35.84         8.6 0.32            145            102 176 
 PTB  HZ EP        5 8 18.39                             132   -0.32 9  149 258 
 PTB  HE ES        5 8 40.04                             132    0.09 9  149 258 
 PTB  HZ I         5 8 41.27         7.3 0.30            133            149 258 
 TAM  HZ EP        5 8 19.50                             131    0.18 9  155 106 
 TAM  HN ES        5 8 41.07                             131    0.02 9  155 106 
 TAM  HZ I         5 8 49.23         6.2 0.30            133            155 106 
 OCA  HZ EP        5 8 20.20                             130    0.40 9  159 353 
 OCA  HN ES        5 8 41.03                             130   -0.85 9  159 353 
 OCA  HZ I         5 8 46.90        11.5 0.38            133            159 353 
 SPBC HZ EP        5 8 20.40                             129    0.09 9  165 219 
 SPBC HE ES        5 8 42.50                             129   -0.31 9  165 219 
 SPBC HZ I         5 8 45.13        11.3 0.28            130            165 219 
 ZAR  HZ EP        5 8 24.08                             123    0.03 9  204 292 
 ZAR  HN ES        5 8 49.04                             123   -0.42 9  204 292 
 ZAR  HZ I         5 8 55.35         9.7 0.22            124            204 292 
 NOR  HZ EP        5 8 28.15                             119    0.65 8  236 234 
 NOR  HE ES        5 8 55.30                             119   -0.30 8  236 234 
 NOR  HZ I         5 9  1.12         6.6 0.30            120            236 234 
 CHI  HZ EP        5 8 28.93                             117   -0.58 8  251 195 
 CHI  HN ES        5 8 58.79                             117   -0.38 8  251 195 
 CHI  HZ I         5 9  5.71         3.5 0.36            119            251 195 
 ROSC BZ EP        5 8 30.78                             117    0.86 8  255 211 
 ROSC BN ES        5 9  0.32                             117    0.41 8  255 211 
 ROSC BZ I         5 9  8.27         8.3 0.60            118            255 211 
 HEL  HZ EP        5 8 31.97                             115    0.06 8  273 255 
 HEL  HN ES        5 9  4.10                             115    0.64 8  273 255 
 HEL  HZ I         5 9 12.02         4.3 0.58            116            273 255 
 CBOC HZ EP        5 8 38.43                             110   -0.18 7  335 252 
 CBOC HE ES        5 9 15.18                             110   -0.20 7  335 252 
 CBOC HZ I         5 9 21.97         1.4 0.28            111            335 252 
 MON  HZ EP        5 8 40.34                             109   -0.14 6  353 308 
 MON  HN ES   4    5 9 17.05                             109   -1.66 0  353 308 
 MON  HZ I         5 9 19.50         1.9 0.62            110            353 308 
                                                                                
