 2011  622 0135 30.0 L   6.820 -73.089143.0  RSN 10 0.3 1.6LRSN                1
 GAP=162        0.63       3.0     6.0  5.3 -0.8072E+01 -0.4012E+01  0.2418E+01E
 Epicentro: LOS SANTOS - SANTANDER                                             3
 ACTION:UP  11-07-14 19:07 OP:ep   STATUS:               ID:20110622013530 L   I
 2011-06-22-0134-00S.COL___140                                                 6
 STAT SP IPHASW D HRMM SECON CODA AMPLIT PERI AZIMU VELO SNR AR TRES W  DIS CAZ7
 BTL  SZ EP   1    135 49.34                             171     0.1 8   23 299 
 BAR2 SZ ES   1    136  4.32                             169    -0.2 8   27 202 
 BAR2 SZ I         136  5.11         7.0 0.18                            27 202 
 GIR2 SZ EP   2    135 49.28                             167     0.0 5   31 338 
 BRR  HZ EP   1    135 51.09                             150     0.0 8   76 295 
 BRR  HN ES   1    136  7.88                             150     0.3 8   76 295 
 BRR  HZ I         136 11.43        12.2 0.15                            76 295 
 RUS  HZ EP   1    135 53.78                             143     0.2 8  103 180 
 RUS  HN ES   2    136 12.22                             143     0.2 5  103 180 
 RUS  HZ I         136 13.67         4.0 0.25                           103 180 
 BRI  SZ EP   1    135 53.62                             142     0.3 8  104  18 
 BRI  SZ ES   1    136 11.60                             142     0.1 8  104  18 
 GRA  SZ IP        135 54.89                             137     0.210  122  15 
 GRA  SZ ES   1    136 13.23                             137    -0.7 7  122  15 
 GRA  SZ I         136 17.32         5.5 0.56                           122  15 
 OCA  SZ EP   1    135 57.58                             129    -0.4 7  159 351 
 OCA  SZ ES   2    136 19.85                             129     0.1 5  159 351 
 OCA  SZ I         136 24.04         9.7 0.64                           159 351 
 NOR  SN ES   2    136 34.18                             117    -0.4 4  241 235 
 CHI  HZ EP   1    136  7.83                             116    -0.1 6  252 196 
 CHI  HN ES   2    136 37.11                             116    -0.5 4  252 196 
 CHI  HZ I         136 44.86         2.7 0.53                           252 196 
                                                                                
