 2013  822 0524 12.7 L   6.808 -73.127148.2  RSN 19 0.4 2.2LRSN                1
 GAP=138        0.84       2.0     3.4  4.0 -0.1762E+01  0.4535E+01 -0.3252E+00E
 Epicentro: LOS SANTOS - SANTANDER                                             3
 ACTION:UPD 14-01-14 09:05 OP:ep   STATUS:               ID:20130822052412 L   I
 OLDACT:REG 13-08-22 07:29 OP:nd   STATUS:               ID:20130822051959     3
 2013-08-22-0519-59M.COL___270                                                 6
 STAT SP IPHASW D HRMM SECON CODA AMPLIT PERI AZIMU VELO AIN AR TRES W  DIS CAZ7
 BAR2 SZ IP     D  524 32.79                             170    0.0910 24.7 194 
 BAR2 SZ ES        524 48.44                             170    0.1810 24.7 194 
 BAR2 SZ I         524 50.53        38.8 0.32            169           24.7 194 
 BRR  HZ IP     C  524 34.52                             153    0.2810 72.6 297 
 BRR  HN ES        524 51.64                             153    0.6410 72.6 297 
 BRR  HZ I         524 52.91        29.9 0.14            150           72.6 297 
 PAM  SZ IP     D  524 35.73                             152    0.6210 75.4  39 
 PAM  SN ES        524 52.66                             152    0.1210 75.4  39 
 PAM  SZ I         524 56.01        18.6 0.50            154           75.4  39 
 RUS  HZ EP        524 36.68                             144   -0.1210  101 177 
 RUS  HN ES        524 54.97                             144   -0.5810  101 177 
 RUS  HZ I         524 56.85        17.1 0.30            145            101 177 
 PTB  HZ EP        524 39.54                             132   -0.57 9  150 259 
 PTB  HN ES   2    525  1.06                             132   -0.40 5  150 259 
 PTB  HZ I         525  3.21        21.3 0.10            131            150 259 
 OCA  HZ EP        524 40.69                             130   -0.50 9  160 352 
 OCA  HN ES        525  2.76                             130   -0.61 9  160 352 
 OCA  HZ I         525  7.91        23.5 0.32            131            160 352 
 SPBC HZ EP        524 41.66                             129    0.04 9  165 219 
 SPBC HN ES        525  4.00                             129   -0.15 9  165 219 
 SPBC HZ I         525  8.28        26.8 0.22            129            165 219 
 YOP  SZ EP   4    524 43.54                             127    0.58 0  179 154 
 YOP  SE ES   4    525  5.48                             127   -1.04 0  179 154 
 YOP  SZ I         525  8.70        11.1 0.18            129            179 154 
 ZAR  HZ EP        524 45.35                             123   -0.16 8  206 292 
 ZAR  HN ES   2    525 10.86                             123   -0.21 4  206 292 
 ZAR  HZ I         525 15.99        23.7 0.26            122            206 292 
 NOR  HZ EP        524 48.81                             119   -0.04 8  237 235 
 NOR  HN ES        525 16.80                             119   -0.22 8  237 235 
 NOR  HZ I         525 22.30        10.8 0.26            119            237 235 
 SML  HZ EP        524 49.56                             118    0.05 8  244 335 
 SML  HN ES        525 17.88                             118   -0.31 8  244 335 
 SML  HZ I         525 21.81        29.7 0.10            118            244 335 
 CHI  HZ EP        524 51.24                             117    0.50 8  250 196 
 CHI  HN ES        525 20.29                             117   -0.08 8  250 196 
 CHI  HZ I         525 25.65        12.6 0.36            118            250 196 
 ROSC BZ EP   4    524 52.37                             117    1.17 0  255 211 
 ROSC BN ES   4    525 23.24                             117    2.04 0  255 211 
 HEL  HZ EP        524 53.98                             115    0.65 8  274 256 
 HEL  HN ES        525 25.03                             115    0.05 8  274 256 
 HEL  HZ I         525 29.01         8.0 0.26            115            274 256 
 GUY2CHZ EP        524 56.96                             113    0.24 7  303 235 
 GUY2CHN ES   3    525 31.36                             113    0.35 2  303 235 
 GUY2CHZ I         525 39.23        10.9 0.58                           303 235 
 CBOC HZ EP   2    525  1.00                             110    0.98 3  336 252 
 CBOC HN ES   2    525 37.39                             110    0.50 3  336 252 
 CBOC HZ I         525 45.69         2.7 0.40            110            336 252 
 COD  HZ EP        525  0.71                             109   -0.43 6  348 354 
 COD  HN ES        525 39.25                             109    0.37 6  348 354 
 COD  HZ I         525 44.79         4.7 0.42            110            348 354 
 PRA  HZ EP        525  6.52                             107   -0.05 6  394 210 
 PRA  HN ES        525 48.28                             107   -0.26 6  394 210 
 PRA  HZ I         525 53.07        11.6 0.54            107            394 210 
 ORTC HZ EP   2    525  7.14                             107    0.16 3  397 216 
 ORTC HN ES   4    525 50.63                             107    1.35 0  397 216 
 ORTC HZ I         525 55.92         5.5 0.42            107            397 216 
 SJC  HZ IP   4 C  525  6.97                             106   -1.46 0  410 327 
 SJC  HN ES   4    525 47.85                             106   -4.01 0  410 327 
 SJC  HZ I         526  0.35         3.6 0.42            107            410 327 
                                                                                
