 2015  222 0414 57.0 L   6.439 -73.763 94.9  RSN  8 0.4 1.5LRSN                1
 GAP= 73        0.97       3.0     3.2  7.2 -0.3967E+00  0.4175E+01 -0.7218E+01E
 Epicentro: SANTA HELENA DEL OPON - SANTANDER                                  3
 ACTION:UPD 15-04-30 21:28 OP:nd   STATUS:               ID:20150222041457 L   I
 OLDACT:UP  15-02-22 17:51 OP:mh   STATUS:               ID:20150222040735     3
 OLDACT:REG 15-02-22 12:34 OP:mh   STATUS:               ID:20150222040735     3
 2015-02-22-0407-35M.COL___281                                                 6
 STAT SP IPHASW D HRMM SECON CODA AMPLIT PERI AZIMU VELO AIN AR TRES W  DIS CAZ7
 BAR2 EZ EP        415 12.65                             143   -0.2310 66.4  75 
 BAR2 EZ ES        415 25.41                             143    0.1110 66.4  75 
 BAR2 EZ I         415 27.51        12.7 0.11            145           66.4  75 
 PTB  HZ EP        415 12.54                             138   -0.9010 77.5 278 
 PTB  HN ES        415 26.33                             138    0.0310 77.5 278 
 PTB  HZ I         415 29.20         6.4 0.18            141           77.5 278 
 SPBC HZ EP        415 15.04                             132    0.0910 93.5 201 
 SPBC HN ES        415 29.46                             132    0.4810 93.5 201 
 SPBC HZ I         415 33.50         7.3 0.38            136           93.5 201 
 RUS  HZ EP   1    415 15.30                             132   -0.47 7 96.5 129 
 RUS  HN ES   1    415 30.30                             132   -0.13 7 96.5 129 
 RUS  HZ I         415 32.64         3.5 0.40            135           96.5 129 
 ZAR  HZ EP        415 22.73                             115    0.16 9  168 314 
 ZAR  HE ES        415 42.61                             115    0.07 9  168 314 
 OCA  HZ EP        415 27.79                             110    0.82 9  205  14 
 OCA  HN ES        415 50.31                             110   -0.07 9  205  14 
 OCA  HZ I         415 56.00         5.4 0.16            112            205  14 
 GUY2CHZ EP        415 29.47                             109    0.06 8  222 233 
 GUY2CHN ES   4    415 56.17                             109    1.44 0  222 233 
 GUY2CHZ I         416  0.63         1.8 0.30                           222 233 
 SML  HZ EP   4    415 28.05                             105   -5.59 0  263 353 
 SML  HN ES   1    416  2.21                             105   -0.05 6  263 353 
 SML  HZ I         416  5.00         4.7 0.10            106            263 353 
                                                                                
