 2017 1122 0204 46.1 L   6.823 -73.119143.0  RSN  8 0.4 1.5LRSN                1
 GAP=247        1.03       5.4     5.3  7.3  0.6642E+01  0.1370E+02  0.3585E+01E
 Epicentro: LOS SANTOS - SANTANDER                                             3
 ACTION:UPD 17-12-12 19:58 OP:rebc STATUS:               ID:20171122020446 L   I
 OLDACT:REG 17-11-22 12:53 OP:osc  STATUS:               ID:20171122015532     3
 2017-11-22-0158-00M.COL___480                                                 6
 STAT SP IPHASW D HRMM SECON CODA AMPLIT PERI AZIMU VELO AIN AR TRES W  DIS CAZ7
 BAR2 EZ EP        2 5  5.81                             169    0.3510 26.5 195 
 BAR2 EZ ES        2 5 20.57                             169    0.0010 26.5 195 
 BAR2 EZ I         2 5 21.89         7.2 0.36            166           26.5 195 
 RUS  HZ EP        2 5  9.85                             142    0.0910  103 178 
 RUS  HN ES        2 5 28.21                             142    0.0010  103 178 
 RUS  HZ I         2 5 29.37         5.2 0.24            142            103 178 
 PTB  HZ EP        2 5 12.80                             131   -0.35 9  151 258 
 PTB  HN ES        2 5 33.76                             131   -0.49 9  151 258 
 PTB  HZ I         2 5 35.52         2.4 0.50            131            151 258 
 SPBC HZ EP        2 5 14.70                             128   -0.05 9  167 219 
 SPBC HE ES        2 5 37.16                             128    0.05 9  167 219 
 SPBC HZ I         2 5 40.94         6.8 0.10            128            167 219 
 ZAR  HN ES        2 5 44.10                             121    0.25 8  206 291 
 NOR  HZ EP        2 5 20.95                             117   -1.14 8  239 234 
 NOR  HN ES        2 5 50.51                             117    0.35 8  239 234 
 NOR  HZ I         2 5 54.44         1.9 0.36            118            239 234 
 CHI  HE ES        2 5 53.41                             116   -0.15 8  252 196 
 GUY2CHZ EP        2 5 31.01                             111    0.99 7  305 235 
 GUY2CHE ES        2 6  4.68                             111    0.41 7  305 235 
 GUY2CHZ I         2 6 14.54         1.3 0.46                           305 235 
                                                                                
