 2012  822 0833 11.8 L   6.766 -73.126155.7  RSN  7 0.4 1.6LRSN                1
 GAP=141        0.88       6.2     5.1  9.0 -0.2395E+01  0.1527E+02  0.1403E+01E
 Epicentro: LOS SANTOS - SANTANDER                                             3
 ACTION:UPD 12-09-10 11:57 OP:ep   STATUS:               ID:20120822083311 L   I
 2012-08-22-0830-00M.COL___218                                                 6
 STAT SP IPHASW D HRMM SECON CODA AMPLIT PERI AZIMU VELO AIN AR TRES W  DIS CAZ7
 BAR2 SZ EP   1    833 32.76                             172    0.18 7 20.3 198 
 BAR2 SZ ES   1    833 48.62                             172   -0.16 7 20.3 198 
 BAR2 SZ I         833 49.80        12.2 0.27                          20.3 198 
 GIR2 SZ EP   1    833 32.56                             167   -0.21 7 35.3 348 
 BRR  HZ EP   1    833 34.63                             153    0.39 7 74.9 300 
 BRR  HZ I         833 35.19         8.3 0.19                          74.9 300 
 BRR  HN ES        833 52.35                             153    0.6110 74.9 300 
 PAM  SN ES        833 53.04                             152   -0.3610 78.9  37 
 RUS  HN ES   1    833 55.67                             147    0.29 7 96.7 177 
 PTB  HZ EP   1    833 39.77                             134    0.04 7  149 260 
 PTB  HN ES        834  0.87                             134   -0.64 9  149 260 
 PTB  HZ I         834  2.51         3.0 0.29                           149 260 
 ZAR  HN ES   1    834 11.39                             124    0.03 6  208 293 
                                                                                
