 2011  922 0019 43.5 L   7.261 -73.273136.5  RSN  4 0.1 1.9LRSN                1
 GAP=281        0.40      13.1    13.6  8.2  0.1569E+03 -0.9438E+02 -0.8231E+02E
 Epicentro: RIONEGRO - SANTANDER                                               3
 ACTION:UPD 12-07-13 15:59 OP:ep   STATUS:               ID:20110922001943 L   I
 2011-09-22-0015-06S.COL___151                                                 6
 STAT SP IPHASW D HRMM SECON CODA AMPLIT PERI AZIMU VELO AIN AR TRES W  DIS CAZ7
 BTL  SZ EP        020  2.40                             163   -0.0410 37.9 179 
 BRR  HZ EP        020  2.81                             158    0.1910 51.4 251 
 BRR  HZ I         020  3.10        45.9 0.11                          51.4 251 
 BRR  HN ES        020 17.42                             158   -0.1110 51.4 251 
 BAR2 SZ EP        020  4.11                             149   -0.1110 74.7 172 
 BAR2 SZ ES   1    020 20.53                             149    0.15 7 74.7 172 
 BAR2 SZ I         020 26.60         5.0 0.23                          74.7 172 
 RUS  HZ EP   2    020 10.82                             129   -0.04 5  153 172 
                                                                                
