 2014 1022 0101 39.5 L   6.801 -73.131149.7  RSN 23 0.4 2.6LRSN                1
 GAP= 72        0.90       2.2     2.5  4.3 -0.3759E+00  0.2675E+01  0.1375E+01E
 Epicentro: LOS SANTOS - SANTANDER                                             3
 ACTION:UPD 14-11-29 23:53 OP:nd   STATUS:               ID:20141022010139 L   I
 OLDACT:DUP 14-10-24 04:24 OP:fm   STATUS:               ID:20141022005752d    3
 2014-10-22-0057-50M.COL___280                                                 6
 STAT SP IPHASW D HRMM SECON CODA AMPLIT PERI AZIMU VELO AIN AR TRES W  DIS CAZ7
 BAR2 SZ EP        1 1 59.53                             171   -0.0410 23.8 194 
 BAR2 SZ ES   1    1 2 15.24                             171   -0.01 7 23.8 194 
 BAR2 SZ I         1 2 17.27        66.1 0.30            168           23.8 194 
 BRR  HZ EP        1 2  1.48                             153    0.3710 72.5 298 
 BRR  HE ES        1 2 18.38                             153    0.3910 72.5 298 
 BRR  HZ I         1 2 23.80        46.9 0.26            152           72.5 298 
 PAM  SZ EP        1 2  2.34                             152    0.3110 76.3  39 
 PAM  SN ES        1 2 19.34                             152   -0.2910 76.3  39 
 PAM  SZ I         1 2 21.61        40.9 0.54            157           76.3  39 
 RUS  HZ EP        1 2  3.42                             145   -0.1810  101 177 
 RUS  HN ES        1 2 22.46                             145    0.0310  101 177 
 RUS  HZ I         1 2 25.50        22.5 0.30            145            101 177 
 PTB  HZ EP        1 2  6.18                             133   -0.71 9  149 259 
 PTB  HE ES        1 2 28.18                             133   -0.11 9  149 259 
 PTB  HZ I         1 2 29.91        67.0 0.18            132            149 259 
 TAM  HZ EP        1 2  7.71                             132    0.40 9  154 105 
 TAM  HN ES        1 2 28.94                             132   -0.10 9  154 105 
 TAM  HZ I         1 2 30.13        28.9 0.24            136            154 105 
 OCA  HZ EP        1 2  7.89                             130   -0.19 9  160 353 
 OCA  HE ES        1 2 30.63                             130    0.22 9  160 353 
 OCA  HZ I         1 2 35.13        44.4 0.26            133            160 353 
 SPBC HZ EP        1 2  8.34                             130   -0.03 9  164 219 
 SPBC HN ES        1 2 30.66                             130   -0.25 9  164 219 
 SPBC HZ I         1 2 38.05        80.1 0.14            130            164 219 
 ZAR  HZ EP        1 2 12.08                             123   -0.23 8  205 292 
 ZAR  HE ES        1 2 37.42                             123   -0.51 8  205 292 
 ZAR  HZ I         1 2 43.51        48.2 0.50            124            205 292 
 SML  HZ EP        1 2 15.94                             118   -0.43 8  244 335 
 SML  HN ES        1 2 45.49                             118    0.34 8  244 335 
 SML  HZ I         1 2 48.06        63.0 0.10            120            244 335 
 CHI  HZ EP        1 2 17.58                             118    0.14 8  249 196 
 CHI  HN ES        1 2 46.52                             118   -0.54 8  249 196 
 CHI  HZ I         1 2 56.69        15.2 0.28            119            249 196 
 HEL  HZ EP   4    1 2 21.21                             115    1.16 0  274 256 
 HEL  HN ES        1 2 52.02                             115    0.31 8  274 256 
 HEL  HZ I         1 2 58.72        35.6 0.42            116            274 256 
 URE  HE ES   4    1 2 51.08                             114   -2.11 0  285 292 
 URE  HZ I         1 3  3.58        26.8 0.22            115            285 292 
 GUY2CHZ EP   4    1 2 24.50                             113    1.09 0  303 235 
 GUY2CHN ES        1 2 58.84                             113    1.15 7  303 235 
 GUY2CHZ I         1 3  6.20        31.0 0.58                           303 235 
 VIL  SZ EP   1    1 2 22.66                             113   -0.45 5  304 192 
 VIL  SN ES   4    1 2 55.48                             113   -1.68 0  304 192 
 VIL  SZ I         1 3  1.74        23.2 0.34            114            304 192 
 RREF HZ EP   4    1 2 22.69                             111   -3.23 0  323 230 
 RREF HE ES   4    1 2 58.66                             111   -3.50 0  323 230 
 RREF HZ I         1 3  8.50        23.0 0.24            112            323 230 
 CBOC HZ EP        1 2 27.30                             110    0.58 7  335 252 
 CBOC HE ES        1 3  2.94                             110   -0.64 7  335 252 
 CBOC HZ I         1 3 11.66        10.2 0.44            111            335 252 
 DBB  SZ EP        1 2 27.07                             110   -0.21 7  341 274 
 DBB  SZ ES   4    1 3  3.47                             110   -1.11 0  341 274 
 TOL  SZ EP   4    1 2 29.00                             110    0.98 0  345 225 
 TOL  SE ES   4    1 3  7.68                             110    1.79 0  345 225 
 MON  HZ EP   4    1 2 26.14                             109   -2.61 0  355 308 
 MON  HE ES   4    1 3  4.89                             109   -2.30 0  355 308 
 MON  HZ I         1 3  7.77         7.9 0.64            111            355 308 
 ANIL HZ EP   4    1 2 31.28                             109    1.72 0  359 225 
 ANIL HE ES   4    1 3 10.15                             109    1.52 0  359 225 
 ANIL HZ I         1 3 15.71         5.6 0.36            110            359 225 
 PRA  HZ EP        1 2 32.91                             107   -0.31 6  393 210 
 PRA  HN ES        1 3 15.21                             107    0.05 6  393 210 
 PRA  HZ I         1 3 22.05        17.5 0.34            108            393 210 
 ORTC HZ EP        1 2 34.14                             107    0.50 6  396 216 
 ORTC HN ES        1 3 16.84                             107    0.94 6  396 216 
 ORTC HZ I         1 3 23.09        14.4 0.72            108            396 216 
 SJC  HZ EP   4    1 2 33.37                             106   -1.87 0  410 327 
 SJC  HN ES   4    1 3 14.47                             106   -4.28 0  410 327 
 SJC  HZ I         1 3 19.15         7.5 0.42            108            410 327 
 MACC HZ EP   4    1 2 45.93                             102   -2.38 0  521 189 
 MACC HN ES   4    1 3 37.72                             102   -4.30 0  521 189 
                                                                                
