 2011 1022 0532 21.5 L   6.808 -73.105144.0  RSN  6 0.2 1.3LRSN                1
 GAP=141        0.38       3.5     3.7  6.0 -0.2443E+00  0.5958E+01  0.1359E+01E
 Epicentro: LOS SANTOS - SANTANDER                                             3
 ACTION:UPD 12-07-13 16:05 OP:ep   STATUS:               ID:20111022053221 L   I
 2011-10-22-0530-26S.COL___171                                                 6
 STAT SP IPHASW D HRMM SECON CODA AMPLIT PERI AZIMU VELO AIN AR TRES W  DIS CAZ7
 BAR2 SZ ES   2    532 55.85                             170   -0.34 5 25.3 200 
 BAR2 SZ I         532 59.02         6.8 0.65                          25.3 200 
 PAM  SZ EP   2    532 43.38                             152    0.01 5 73.9  37 
 PAM  SN ES   2    533  0.65                             152    0.26 5 73.9  37 
 BRR  HZ EP   2    532 42.31                             151   -0.40 5 74.8 296 
 BRR  HN ES   2    532 59.24                             151    0.02 5 74.8 296 
 BRR  HZ I         533  1.72         2.8 0.26                          74.8 296 
 RUS  HZ EP   2    532 45.18                             143    0.01 5  101 179 
 RUS  HN ES   2    533  3.80                             143    0.20 5  101 179 
 RUS  HZ I         533  5.18         2.5 0.36                           101 179 
 ZAR  HE ES   2    533 20.04                             121    0.23 4  208 291 
 ZAR  HZ I         533 22.72         2.5 0.08                           208 291 
 NOR  SE ES   2    533 25.88                             118    0.12 4  239 235 
                                                                                
