 2014  522 0744  0.4 L   6.757 -73.156144.6  RSN  7 0.5 1.4LRSN                1
 GAP=137        1.19       4.6     5.2  8.7  0.2023E-01  0.9246E+01 -0.7655E+01E
 Epicentro: LOS SANTOS - SANTANDER                                             3
 ACTION:UPD 15-03-16 16:59 OP:nd   STATUS:               ID:20140522074400 L   I
 OLDACT:REG 14-05-22 13:25 OP:spq  STATUS:               ID:20140522073813     3
 2014-05-22-0738-13M.COL___246                                                 6
 STAT SP IPHASW D HRMM SECON CODA AMPLIT PERI AZIMU VELO AIN AR TRES W  DIS CAZ7
 BRR  HZ EP        744 21.49                             152   -0.0210 72.6 302 
 BRR  HE ES        744 38.57                             152    0.6010 72.6 302 
 BRR  HZ I         744 46.23         4.4 0.58            151           72.6 302 
 PAM  SZ EP        744 22.46                             149   -0.3110 81.8  38 
 PAM  SN ES        744 39.66                             149   -0.5510 81.8  38 
 PAM  SZ I         744 41.97         4.2 0.76            152           81.8  38 
 RUS  HZ EP        744 24.06                             145    0.3510 95.9 175 
 RUS  HN ES        744 42.36                             145    0.4810 95.9 175 
 RUS  HZ I         744 43.51         2.5 0.24            152           95.9 175 
 PTB  HZ EP        744 26.50                             132   -0.59 9  146 261 
 PTB  HE ES        744 47.44                             132   -0.47 9  146 261 
 PTB  HZ I         744 49.61         3.2 0.40            135            146 261 
 SPBC HN ES   1    744 49.47                             129   -0.75 7  159 220 
 ZAR  HZ EP        744 33.80                             122    0.95 9  205 293 
 ZAR  HE ES        744 58.14                             122   -0.02 9  205 293 
 ZAR  HZ I         745  3.97         1.9 0.28            125            205 293 
 SML  HZ EP        744 37.39                             117    0.01 8  248 336 
 SML  HN ES        745  6.30                             117    0.07 8  248 336 
 SML  HZ I         745 12.50         2.7 0.10            120            248 336 
                                                                                
