 2014  722 0821 52.1 L   6.346 -73.664 99.7  RSN  8 0.5 1.2LRSN                1
 GAP= 83        1.11       3.9     3.8  9.4 -0.1832E+01  0.1085E+02 -0.1027E+02E
 Epicentro: SANTA HELENA DEL OPON - SANTANDER                                  3
 ACTION:UPD 15-03-16 20:46 OP:nd   STATUS:               ID:20140722082152 L   I
 OLDACT:DUP 14-07-22 17:15 OP:spq  STATUS:               ID:20140722081818d    3
 OLDACT:UP  14-07-22 17:14 OP:spq  STATUS:               ID:20140722081817     3
 OLDACT:REG 14-07-22 12:37 OP:mh   STATUS:               ID:20140722081817     3
 2014-07-22-0818-17M.COL___260                                                 6
 STAT SP IPHASW D HRMM SECON CODA AMPLIT PERI AZIMU VELO AIN AR TRES W  DIS CAZ7
 BAR2 SZ EP        822  7.94                             147   -0.1210 59.8  63 
 BAR2 SZ ES   1    822 20.99                             147    0.51 7 59.8  63 
 RUS  HZ EP   1    822  9.52                             138   -0.52 7 81.5 128 
 RUS  HN ES   1    822 23.81                             138   -0.21 7 81.5 128 
 RUS  HZ I         822 27.68         1.5 0.10            142           81.5 128 
 SPBC HZ EP        822 10.35                             135    0.2310 89.1 211 
 SPBC HE ES        822 24.75                             135    0.5910 89.1 211 
 SPBC HZ I         822 26.88         5.2 0.22            137           89.1 211 
 PTB  HZ EP        822  9.66                             135   -0.4610 90.2 284 
 PTB  HE ES        822 23.32                             135   -0.8410 90.2 284 
 PTB  HZ I         822 26.65         4.1 0.13            134           90.2 284 
 ZAR  HZ EP        822 19.49                             114   -0.17 9  183 314 
 ZAR  HE ES        822 41.35                             114    0.21 9  183 314 
 ZAR  HZ I         822 47.09         3.2 0.30            114            183 314 
 HEL  HN ES        822 47.58                             112    0.75 8  207 265 
 HEL  HZ I         822 56.16         1.1 0.38            111            207 265 
 OCA  HN ES        822 47.93                             111    0.42 8  213  10 
 OCA  HZ I         822 53.76         4.1 0.30            110            213  10 
 GUY2CHZ EP   1    822 25.28                             110    0.15 6  226 237 
 GUY2CHN ES   1    822 50.35                             110   -0.52 6  226 237 
 GUY2CHZ I         823  1.14         1.3 0.24                           226 237 
                                                                                
