 2017  922 0553  3.8 L   6.798 -73.129146.6  RSN  9 0.3 1.6LRSN                1
 GAP=139        0.77       2.9     3.3  4.9  0.1685E+00  0.5701E+01  0.3107E+01E
 Epicentro: LOS SANTOS - SANTANDER                                             3
 ACTION:UPD 17-10-05 19:15 OP:rebc STATUS:               ID:20170922055303 L   I
 OLDACT:UP  17-09-22 17:41 OP:osc  STATUS:               ID:20170922054744     3
 OLDACT:REG 17-09-22 14:25 OP:y    STATUS:               ID:20170922054744     3
 2017-09-22-0548-00M.COL___411                                                 6
 STAT SP IPHASW D HRMM SECON CODA AMPLIT PERI AZIMU VELO AIN AR TRES W  DIS CAZ7
 BAR2 EZ EP        553 23.22                             170   -0.3010 23.5 194 
 BAR2 EZ ES        553 38.51                             170   -0.4010 23.5 194 
 BAR2 EZ I         553 39.29        11.4 0.30            169           23.5 194 
 BRR  HZ EP        553 24.96                             152   -0.1610 72.9 298 
 BRR  HE ES        553 42.24                             152    0.4810 72.9 298 
 BRR  HZ I         553 46.95         7.8 0.16            150           72.9 298 
 PAM  EZ EP        553 26.16                             151    0.1210 76.4  38 
 PAM  EE ES        553 43.45                             151    0.0610 76.4  38 
 PAM  EZ I         553 45.37         5.4 0.50            155           76.4  38 
 RUS  HZ EP        553 27.38                             144   -0.2210  100 177 
 RUS  HE ES        553 46.50                             144    0.3310  100 177 
 RUS  HZ I         553 47.01         5.1 0.22            146            100 177 
 ZAR  HN EP        553 37.01                             122    0.54 8  206 292 
 ZAR  HE ES        554  1.41                             122   -0.55 8  206 292 
 NOR  HZ EP        553 39.80                             118    0.09 8  236 235 
 NOR  HE ES        554  7.95                             118    0.22 8  236 235 
 NOR  HZ I         554 11.95         2.9 0.22            119            236 235 
 CHI  HZ EP        553 41.54                             117   -0.02 8  249 196 
 CHI  HN ES        554 11.00                             117   -0.02 8  249 196 
 CHI  HZ I         554 13.11         3.3 0.40            119            249 196 
 HEL  HZ EP   4    553 46.00                             115    1.77 0  274 256 
 HEL  HE ES        554 15.62                             115   -0.15 8  274 256 
 HEL  HZ I         554 22.71         2.2 0.26            116            274 256 
 GUY2CHZ EP   4    553 49.16                             112    1.57 0  303 235 
 GUY2CHE ES   4    554 20.60                             112   -1.15 0  303 235 
 GUY2CHZ I         554 28.45         1.6 0.28                           303 235 
                                                                                
