 2010 1122 0427  4.4 L   6.846 -72.998143.6  RSN  5 0.1 1.4LRSN                1
 GAP=255        0.29       3.9     5.7  3.4  0.1720E+02 -0.2790E+01  0.3712E+00E
 Epicentro: CEPITA - SANTANDER                                                 3
 ACTION:UP  10-12-17 16:54 OP:REBC STATUS:               ID:20101122042704 L   I
 2010-11-22-0422-57S.COL___129                                                 6
 STAT SP IPHASW D HRMM SECON CODA AMPLIT PERI AZIMU VELO SNR AR TRES W  DIS CAZ7
 BAR2 SZ EP   1    427 24.11                             166     0.0 7   35 216 
 BAR2 SZ I         427 41.17         5.2 0.23                            35 216 
 BRR  HZ EP   1    427 26.07                             148     0.0 7   84 290 
 BRR  HE ES        427 43.05                             148     0.010   84 290 
 BRR  HZ I         427 46.29         6.6 0.16                            84 290 
 RUS  HZ EP   1    427 28.30                             142     0.0 7  106 185 
 RUS  HN ES   1    427 46.98                             142     0.0 7  106 185 
 RUS  HZ I         427 47.92         2.7 0.37                           106 185 
 CHI  HZ EP   2    427 43.21                             116     0.2 4  258 198 
 CHI  HZ I         428 15.66         1.3 0.38                           258 198 
 HEL  HZ EP   1    427 46.37                             113    -0.1 5  289 256 
 HEL  HZ I         428 22.23         1.2 0.36                           289 256 
                                                                                
