 2014  122 0232  7.5 L   6.974 -73.096123.2  RSN  4 0.4 1.3LRSN                1
 GAP=207        0.79       4.7     5.3 10.9  0.2464E+01  0.7080E+01 -0.2546E+02E
 Epicentro: PIEDECUESTA - SANTANDER                                            3
 ACTION:UPD 14-03-13 09:57 OP:ep   STATUS:               ID:20140122023207 L   I
 OLDACT:REG 14-01-22 07:24 OP:nd   STATUS:               ID:20140122023000     3
 2014-01-22-0230-00M.COL___279                                                 6
 STAT SP IPHASW D HRMM SECON CODA AMPLIT PERI AZIMU VELO AIN AR TRES W  DIS CAZ7
 RUS  HZ EP        232 30.48                             133   -0.2510  120 179 
 RUS  HN ES        232 49.18                             133    0.3310  120 179 
 RUS  HZ I         232 50.01         1.2 0.34            145            120 179 
 PTB  HZ EP        232 33.27                             124   -0.48 9  158 252 
 PTB  HN ES        232 53.92                             124   -0.29 9  158 252 
 PTB  HZ I         232 57.21         2.3 0.20            132            158 252 
 SML  HZ EP        232 41.38                             114    0.07 8  229 332 
 SML  HN ES   2    233  8.24                             114    0.57 4  229 332 
 SML  HZ I         233 16.64         2.1 0.22            118            229 332 
 GUY2CHZ EP        232 52.54                             106    0.52 7  317 233 
 GUY2CHN ES        233 27.13                             106    0.38 7  317 233 
 GUY2CHZ I         233 33.17         1.7 0.78                           317 233 
                                                                                
