 2010 1222 0415 16.2 L   5.867 -74.071 87.0  RSN  5 0.3 1.3LRSN                1
 GAP=128        0.56       6.0     3.2 10.6 -0.9912E+01 -0.1042E+02  0.1046E+02E
 Epicentro: LA BELLEZA - SANTANDER                                             3
 ACTION:UP  11-01-14 15:26 OP:pat  STATUS:               ID:20101222041516 L   I
 2010-12-22-0412-08S.COL___135                                                 6
 STAT SP IPHASW D HRMM SECON CODA AMPLIT PERI AZIMU VELO SNR AR TRES W  DIS CAZ7
 NOR  SZ EP   1    415 33.43                             129    -0.2 8   95 249 
 NOR  SN ES   1    415 47.21                             129     0.0 8   95 249 
 RUS  HZ IP     C  415 35.44                             125    -0.210  109  88 
 RUS  HE ES   2    415 50.92                             125     0.1 5  109  88 
 BAR2 SZ EP   2    415 36.97                             120    -0.2 5  127  51 
 BAR2 SZ ES   2    415 53.96                             120     0.5 5  127  51 
 BAR2 SZ I         415 55.01         7.1 0.53                           127  51 
 CHI  HZ EP   1    415 39.34                             117     0.3 7  142 165 
 CHI  HZ I         415 40.33         1.8 0.21                           142 165 
 HEL  HZ EP   2    415 41.97                             113     0.4 5  165 283 
 HEL  HZ I         416  5.31         3.4 0.52                           165 283 
                                                                                
