 2012 1222 0718 11.8 L   6.465 -73.696102.8  RSN 10 0.3 1.9LRSN                1
 GAP= 80        0.63       2.6     2.3  4.6  0.7919E+00  0.4157E+01 -0.4449E-01E
 Epicentro: SANTA HELENA DEL OPON - SANTANDER                                  3
 ACTION:UPD 13-01-04 14:29 OP:ep   STATUS:               ID:20121222071811 L   I
 2012-12-22-0710-00M.COL___243                                                 6
 STAT SP IPHASW D HRMM SECON CODA AMPLIT PERI AZIMU VELO AIN AR TRES W  DIS CAZ7
 BAR2 SZ IP        718 28.20                             148    0.2110 58.5  76 
 BAR2 SZ ES        718 40.64                             148    0.0310 58.5  76 
 BAR2 SZ I         718 42.38        67.0 0.36                          58.5  76 
 BRR  HZ EP        718 28.49                             142   -0.0310 71.0 359 
 BRR  HN ES        718 41.78                             142    0.2310 71.0 359 
 BRR  HZ I         718 43.74        16.2 0.23                          71.0 359 
 PTB  HZ EP     D  718 29.17                             137   -0.4310 84.5 276 
 PTB  HN ES   1    718 43.44                             137   -0.04 7 84.5 276 
 PTB  HZ I         718 44.43        19.7 0.08                          84.5 276 
 GIR2 SZ EP        718 29.99                             136   -0.0610 87.7  39 
 RUS  HZ EP   1    718 31.01                             135    0.05 7 92.8 133 
 RUS  HN ES   1    718 45.54                             135   -0.35 7 92.8 133 
 RUS  HN I         718 48.32        18.5 0.38                          92.8 133 
 ZAR  HZ EP        718 38.33                             116    0.10 9  171 312 
 ZAR  HN ES   1    718 58.70                             116   -0.14 7  171 312 
 ZAR  HZ I         719  3.45        12.8 0.24                           171 312 
 OCA  HZ EP   1    718 41.90                             111    0.22 6  201  12 
 OCA  HN ES   1    719  4.92                             111   -0.04 6  201  12 
 OCA  HZ I         719 10.86         8.5 0.21                           201  12 
 CHI  HZ EP   2    718 42.11                             111   -0.17 4  203 181 
 HEL  HZ EP   1    718 43.20                             111    0.74 6  205 262 
 HEL  HN ES   1    719  6.62                             111    0.27 6  205 262 
 HEL  HZ I         719 12.66         4.9 0.25                           205 262 
 MON  HZ EP   4    718 56.09                             100   -1.27 0  336 320 
 MON  HZ I         718 56.65         2.5 0.14                           336 320 
 MON  HN ES   1    719 32.00                             100   -0.89 5  336 320 
                                                                                
