 2012 1122 0429 39.3 L   6.773 -73.156139.4  RSN  5 0.2 1.6LRSN                1
 GAP=136        0.47       3.0     2.7  5.2 -0.2376E+00  0.4385E+01 -0.1810E+01E
 Epicentro: LOS SANTOS - SANTANDER                                             3
 ACTION:UPD 12-12-05 15:35 OP:}ep  STATUS:               ID:20121122042939 L   I
 2012-11-22-0424-44M.COL___207                                                 6
 STAT SP IPHASW D HRMM SECON CODA AMPLIT PERI AZIMU VELO AIN AR TRES W  DIS CAZ7
 BAR2 SZ ES   2    430 13.28                             171    0.48 5 20.2 188 
 BAR2 SZ I         430 15.60        14.0 0.25                          20.2 188 
 PAM  SZ EP        430  1.20                             148    0.1410 80.4  39 
 PAM  SZ I         430  1.62        12.7 0.28                          80.4  39 
 PAM  SE ES   1    430 17.70                             148   -0.31 7 80.4  39 
 RUS  HZ EP        430  2.31                             143    0.0610 97.7 175 
 RUS  HE ES   1    430 20.09                             143   -0.04 7 97.7 175 
 RUS  HE I         430 21.69         6.6 0.19                          97.7 175 
 PTB  HZ EP   1    430  5.38                             131   -0.25 7  146 260 
 PTB  HE ES   1    430 25.90                             131   -0.24 7  146 260 
 PTB  HZ I         430 29.33         3.2 0.16                           146 260 
 ZAR  HZ EP   1    430 11.44                             121    0.07 6  204 293 
 ZAR  HN ES   1    430 36.60                             121    0.23 6  204 293 
 ZAR  HZ I         430 43.12         2.5 0.38                           204 293 
                                                                                
