 2010  122 0623  8.4 L   6.782 -73.008144.4  RSN  8 0.5 1.8LRSN                1
 GAP=197        0.92       3.9     8.2  8.2 -0.6819E+01  0.1971E+02 -0.1173E+00E
 Epicentro: CEPITA - SANTANDER                                                 3
 ACTION:UP  10-08-24 09:45 OP:vdl  STATUS:               ID:20100122062308 L   I
 2010-01-22-0621-22S.COL___095                                                 6
 STAT SP IPHASW D HRMM SECON CODA AMPLIT PERI AZIMU VELO SNR AR TRES W  DIS CAZ7
 BAR2 SZ EP        623 27.95                             168    -0.110   29 223 
 BAR2 SZ ES   1    623 43.07                             168    -0.2 7   29 223 
 RUS  BZ EP        623 31.78                             144    -0.110   99 185 
 RUS  BN ES   1    623 50.55                             144     0.3 7   99 185 
 RUS  BZ I         623 52.31         9.7 0.09                            99 185 
 OCA  SZ EP        623 36.77                             129    -0.3 9  165 348 
 OCA  SZ ES   1    624  0.05                             129     0.7 7  165 348 
 CHI  HZ EP        623 46.10                             117    -0.2 8  251 199 
 CHI  HZ I         623 46.88         3.5 0.21                           251 199 
 CHI  HN ES        624 16.04                             117     0.1 8  251 199 
 HEL  HN ES   1    624 22.03                             113    -0.7 6  286 257 
 HEL  HZ I         624 27.06         3.8 0.32                           286 257 
 RREF BN ES   1    624 33.27                             110     0.7 5  332 231 
 RREF BZ I         624 39.97         4.1 0.38                           332 231 
 TOL  SZ EP   1    623 58.81                             109     1.1 5  353 227 
 PRA  HE ES   2    624 44.00                             106    -0.9 3  398 212 
                                                                                
