 2010  722 0039 18.2 L   6.834 -73.030146.3  RSN  4 0.6 1.3LRSN                1
 GAP=171        1.31      15.3    38.7 47.1  0.4105E+03 -0.1618E+04 -0.5698E+03E
 Epicentro: CEPITA - SANTANDER                                                 3
 ACTION:UPD 10-12-01 15:19 OP:pat  STATUS:               ID:20100722003918 L   I
 2010-07-22-0037-17S.COL___123                                                 6
 STAT SP IPHASW D HRMM SECON CODA AMPLIT PERI AZIMU VELO AIN AR TRES W  DIS CAZ7
 BRR  HZ EP   3    039 40.20                             149     0.2 3   81 292 
 BRR  HZ I         039 49.10         7.8 0.28                            81 292 
 BRR  HE ES   1    039 57.05                             149     0.1 8   81 292 
 RUS  HZ EP   2    039 42.37                             143     0.1 5  104 183 
 RUS  HE ES   1    040  0.98                             143     0.0 8  104 183 
 RUS  HZ I         040  6.27         1.8 0.50                           104 183 
 GUE  SZ EP        039 41.84                             141    -0.710  111   6 
 GRA  SZ EP   1    039 43.99                             139     1.1 7  119  12 
 GRA  SZ I         039 45.00         2.0 0.30                           119  12 
                                                                                
