 2015  822 0506 49.5 L   7.294 -73.466 17.9  RSN  5 0.3 0.9LRSN                1
 GAP=136        0.82       2.2     2.7  4.9 -0.1990E+01 -0.5654E+01  0.3044E+01E
 Epicentro: SABANA DE TORRES - SANTANDER                                       3
 ACTION:UPD 15-09-15 23:04 OP:cam  STATUS:               ID:20150822050649 L   I
 OLDACT:DUP 15-08-22 17:00 OP:spq  STATUS:               ID:20150822045748d    3
 2015-08-22-0457-47M.COL___348                                                 6
 STAT SP IPHASW D HRMM SECON CODA AMPLIT PERI AZIMU VELO AIN AR TRES W  DIS CAZ7
 BRR  HZ EP        5 6 55.67                             115   -0.0810 34.1 233 
 BRR  HE ES        5 7  0.84                             115    0.2310 34.1 233 
 BRR  HZ I         5 7  1.81         4.4 0.44            122           34.1 233 
 BAR2 EZ EP        5 7  2.73                             100   -0.5010 83.7 158 
 BAR2 EZ ES   1    5 7 13.72                             100   -0.21 7 83.7 158 
 BAR2 EZ I         5 7 14.56         2.7 0.23            102           83.7 158 
 PAM  EZ EP        5 7  4.28                             100    0.6310 84.8  87 
 PAM  EN ES   1    5 7 14.65                             100   -0.03 7 84.8  87 
 PAM  EZ I         5 7 19.40         2.4 0.48            101           84.8  87 
 OCA  HN ES        5 7 19.36                              98   -0.2710  106   9 
 OCA  HZ I         5 7 23.68         7.0 0.34             99            106   9 
 RUS  HZ EP        5 7 14.42                              56    0.16 9  161 165 
 RUS  HN ES   1    5 7 33.50                              56   -0.06 7  161 165 
 RUS  HZ I         5 7 34.83         2.8 0.42             56            161 165 
                                                                                
