 2015  522 0931 11.0 L   6.814 -73.109152.7  RSN  6 0.2 1.6LRSN                1
 GAP=187        0.64       3.3     5.1  6.2  0.8648E+01  0.1600E+01 -0.8501E+00E
 Epicentro: LOS SANTOS - SANTANDER                                             3
 ACTION:UPD 15-09-10 22:06 OP:cam  STATUS:               ID:20150522093111 L   I
 OLDACT:REG 15-05-22 14:20 OP:ar   STATUS:               ID:20150522092750     3
 2015-05-22-0927-50M.COL___282                                                 6
 STAT SP IPHASW D HRMM SECON CODA AMPLIT PERI AZIMU VELO AIN AR TRES W  DIS CAZ7
 BAR2 EZ EP        931 31.06                             170   -0.4310 25.9 198 
 BRR  HZ EP        931 33.04                             153    0.0010 74.1 296 
 BRR  HN ES        931 50.47                             153    0.2310 74.1 296 
 BRR  HZ I         931 58.60         5.1 0.24            151           74.1 296 
 RUS  HZ EP        931 35.71                             145    0.2010  102 178 
 RUS  HE ES        931 54.65                             145    0.0010  102 178 
 RUS  HZ I         931 56.59         4.6 0.38            150            102 178 
 OCA  HN ES        932  2.19                             131    0.02 9  159 352 
 OCA  HZ I         932  4.49         5.8 0.14            136            159 352 
 ZAR  HZ EP        931 44.50                             123    0.30 8  207 291 
 ZAR  HE ES        932  9.81                             123   -0.31 8  207 291 
 ZAR  HZ I         932 16.17         4.1 0.32            126            207 291 
 GUY2CHZ EP   4    931 56.09                             113    0.70 0  305 235 
 GUY2CHN ES   4    932 27.45                             113   -2.58 0  305 235 
 GUY2CHZ I         932 39.76         2.2 0.50                           305 235 
                                                                                
