 2017  222 0141 21.6 L   6.776 -73.140151.6  RSN  6 0.3 1.5LRSN                1
 GAP=138        0.88       4.5     4.0  5.9  0.1925E+01  0.5681E+01 -0.1206E+01E
 Epicentro: LOS SANTOS - SANTANDER                                             3
 ACTION:UPD 17-05-24 15:39 OP:jn   STATUS:               ID:20170222014121 L   I
 OLDACT:REG 17-02-22 12:45 OP:cog  STATUS:               ID:20170222013742     3
 2017-02-22-0138-00M.COL___382                                                 6
 STAT SP IPHASW D HRMM SECON CODA AMPLIT PERI AZIMU VELO AIN AR TRES W  DIS CAZ7
 BAR2 EZ EP        141 41.87                             172    0.0310 20.9 193 
 BAR2 EZ ES        141 57.73                             172    0.0710 20.9 193 
 BAR2 EZ I         141 58.58         8.2 0.36            171           20.9 193 
 BRR  HZ EP        141 43.56                             153    0.1310 73.0 300 
 BRR  HN ES        142  1.07                             153    0.5710 73.0 300 
 BRR  HZ I         142  2.08         6.0 0.17            153           73.0 300 
 PAM  EZ EP        141 44.64                             151    0.1510 79.1  38 
 PAM  EN ES        142  1.82                             151   -0.5610 79.1  38 
 PAM  EZ I         142  3.83         6.3 0.54            154           79.1  38 
 RUS  HZ EP        141 45.85                             146    0.1510 97.9 176 
 RUS  HN ES        142  4.62                             146    0.0910 97.9 176 
 RUS  HZ I         142  6.65         3.0 0.22            147           97.9 176 
 PTB  HZ EP        141 48.86                             133   -0.15 9  148 260 
 PTB  HN ES        142  9.71                             133   -0.72 9  148 260 
 PTB  HZ I         142 15.25         5.7 0.30            134            148 260 
 ZAR  HZ EP        141 54.43                             123   -0.11 8  206 293 
 ZAR  HE ES        142 20.55                             123    0.28 8  206 293 
                                                                                
