 2013  122 0815 17.5 L   6.801 -73.161142.7  RSN  6 0.4 1.9LRSN                1
 GAP=135        1.07       4.6     5.4  7.2 -0.2529E+01  0.4170E+01  0.8856E+01E
 Epicentro: LOS SANTOS - SANTANDER                                             3
 ACTION:UPD 13-02-15 09:15 OP:ep   STATUS:               ID:20130122081517 L   I
 2013-01-22-0808-42M.COL___183                                                 6
 STAT SP IPHASW D HRMM SECON CODA AMPLIT PERI AZIMU VELO AIN AR TRES W  DIS CAZ7
 BAR2 SZ EP        815 36.81                             170    0.1110 23.2 186 
 BAR2 SZ ES        815 51.70                             170   -0.0210 23.2 186 
 BAR2 SZ I         815 53.33        16.8 0.18            170           23.2 186 
 BRR  HZ IP     C  815 38.50                             152    0.3210 69.7 299 
 BRR  HN ES        815 55.13                             152    0.7910 69.7 299 
 BRR  HN I         815 56.37        37.7 0.24            152           69.7 299 
 PAM  SZ EP        815 39.60                             150    0.2010 78.4  41 
 PAM  SN ES        815 55.96                             150   -0.5610 78.4  41 
 PAM  SN I         815 58.57         3.6 0.48            153           78.4  41 
 RUS  HZ EP        815 41.02                             143    0.1110  101 175 
 RUS  HN ES        815 59.05                             143   -0.1610  101 175 
 PTB  HZ EP        815 43.32                             132   -0.69 9  146 259 
 PTB  HN ES        816  4.19                             132   -0.54 9  146 259 
 PTB  HN I         816  9.61         9.1 0.40            132            146 259 
 CHI  HZ EP        815 55.09                             116    0.15 8  248 195 
 CHI  HE ES        816 24.50                             116    0.32 8  248 195 
 CHI  HN I         816 26.74         6.5 0.52            118            248 195 
                                                                                
