 2013  222 0336  0.0 L   6.805 -73.199138.8  RSN  8 0.4 1.7LRSN                1
 GAP=130        0.74       3.5     4.9  7.2 -0.2927E+01  0.1108E+02  0.2723E+01E
 Epicentro: ZAPATOCA - SANTANDER                                               3
 ACTION:UPD 13-03-12 09:34 OP:ep   STATUS:               ID:20130222033600 L   I
 2013-02-22-0330-00M.COL___238                                                 6
 STAT SP IPHASW D HRMM SECON CODA AMPLIT PERI AZIMU VELO AIN AR TRES W  DIS CAZ7
 BAR2 SZ EP   1    336 18.97                             170    0.14 7 23.6 176 
 BAR2 SZ ES   1    336 33.37                             170   -0.13 7 23.6 176 
 BAR2 SZ I         336 35.57        24.4 0.14            169           23.6 176 
 BRR  HZ EP   1    336 20.80                             153    0.67 7 65.8 301 
 BRR  HN ES   4    336 37.77                             153    1.97 0 65.8 301 
 BRR  HZ I         336 39.61         8.3 0.14            148           65.8 301 
 PAM  SZ EP   1    336 21.95                             148    0.22 7 80.9  43 
 PAM  SN ES   1    336 38.76                             148    0.10 7 80.9  43 
 PAM  SZ I         336 40.92         8.4 0.54            153           80.9  43 
 RUS  HZ EP   1    336 22.73                             142   -0.46 7  102 173 
 RUS  HN ES   1    336 41.39                             142    0.14 7  102 173 
 RUS  HZ I         336 42.70         8.7 0.22            146            102 173 
 PTB  HZ EP   1    336 25.40                             131   -0.52 7  142 258 
 PTB  HN ES   1    336 45.85                             131   -0.27 7  142 258 
 PTB  HZ I         336 52.93         8.1 0.34            130            142 258 
 OCA  HE ES   1    336 48.84                             128   -0.45 7  159 355 
 OCA  HZ I         336 54.67         6.1 0.36            129            159 355 
 CHI  HZ EP   1    336 37.37                             116    0.12 6  248 194 
 CHI  HN ES   1    337  6.23                             116   -0.04 6  248 194 
 CHI  HZ I         337 10.34         3.4 0.80            118            248 194 
 HEL  HN ES   2    337 11.15                             114    1.26 4  267 255 
 HEL  HZ I         337 18.39         4.0 0.42            114            267 255 
                                                                                
