 2012  322 0135 39.6 L   6.795 -73.133148.0  RSN 10 0.4 1.8LRSN                1
 GAP=138        0.74       4.4     4.6  6.4 -0.1933E+01 -0.7531E+00  0.1386E+02E
 ACTION:UP  12-03-31 23:21 OP:EP   STATUS:               ID:20120322013539 L   I
 2012-03-22-0130-00M.COL___202                                                 6
 STAT SP IPHASW D HRMM SECON CODA AMPLIT PERI AZIMU VELO SNR AR TRES W  DIS CAZ7
 BAR2 SZ ES   2    136 15.33                             171     0.3 5   23 194 
 BRR  HZ EP        136  1.21                             152     0.110   73 298 
 BRR  HE ES        136 18.21                             152     0.410   73 298 
 BRR  HZ I         136 20.78        15.6 0.39                            73 298 
 PAM  SZ EP        136  2.13                             151     0.110   77  38 
 PAM  SN ES   2    136 18.76                             151    -0.8 5   77  38 
 RUS  HZ EP        136  3.48                             144    -0.110  100 177 
 RUS  HN ES   2    136 21.77                             144    -0.4 5  100 177 
 RUS  HZ I         136 23.10         8.3 0.17                           100 177 
 PTB  HZ EP        136  6.40                             132    -0.5 9  149 259 
 PTB  HN ES   2    136 27.26                             132    -0.9 5  149 259 
 PTB  HZ I         136 30.48         4.8 0.15                           149 259 
 ZAR  HN ES   2    136 37.74                             123    -0.2 4  206 292 
 ZAR  HZ I         136 43.96         5.2 0.14                           206 292 
 NOR  SN ES   2    136 43.87                             119     0.3 4  236 235 
 CHI  HZ EP        136 17.54                             118     0.1 8  249 196 
 CHI  HE ES   2    136 47.20                             118     0.3 4  249 196 
 CHI  HZ I         136 53.64         3.4 0.38                           249 196 
 RREF HZ EP   2    136 26.12                             111     0.2 3  323 230 
 RREF HN ES   2    137  2.30                             111     0.2 3  323 230 
 RREF HZ I         137  8.60         3.0 0.18                           323 230 
 PRA  HZ EP        136 33.72                             107     0.5 6  392 210 
 PRA  HN ES   2    137 14.68                             107    -0.4 3  392 210 
                                                                                
