 2014  522 0507 25.7 L   6.758 -73.192146.0  RSN  4 0.3 1.0LRSN                1
 GAP=229        0.77       7.2     6.7  9.5  0.2861E+02 -0.4929E+01 -0.9819E+01E
 Epicentro: VILLANUEVA - SANTANDER                                             3
 ACTION:UPD 15-03-16 16:59 OP:nd   STATUS:               ID:20140522050725 L   I
 OLDACT:DUP 14-05-22 17:33 OP:mh   STATUS:               ID:20140522045811d    3
 OLDACT:DUP 14-05-22 17:20 OP:mh   STATUS:               ID:20140522045810d    3
 OLDACT:UP  14-05-22 17:19 OP:mh   STATUS:               ID:20140522045809     3
 OLDACT:REG 14-05-22 13:08 OP:spq  STATUS:               ID:20140522045809     3
 2014-05-22-0458-09M.COL___249                                                 6
 STAT SP IPHASW D HRMM SECON CODA AMPLIT PERI AZIMU VELO AIN AR TRES W  DIS CAZ7
 BRR  HZ EP        5 7 47.02                             153    0.2310 69.2 304 
 BRR  HN ES   1    5 8  3.34                             153    0.12 7 69.2 304 
 RUS  HZ EP   1    5 7 49.44                             145    0.23 7 96.4 173 
 RUS  HN ES   1    5 8  7.05                             145   -0.47 7 96.4 173 
 RUS  HZ I         5 8  8.98         1.5 0.24            146           96.4 173 
 PTB  HZ EP        5 7 52.01                             133   -0.17 9  142 260 
 PTB  HN ES        5 8 13.22                             133    0.40 9  142 260 
 PTB  HZ I         5 8 16.21         1.8 0.24            131            142 260 
 ZAR  HZ EP   4    5 8  0.23                             123    2.34 0  201 294 
 ZAR  HN ES        5 8 22.47                             123   -0.50 9  201 294 
 ZAR  HZ I         5 8 31.87         0.9 0.26            122            201 294 
                                                                                
