 2010  322 0444 35.1 L   6.814 -73.014135.9  RSN  4 0.3 1.6LRSN                1
 GAP=196        0.59       5.3    14.3  8.1  0.4658E+02 -0.4764E+02 -0.1965E+02E
 Epicentro: CEPITA - SANTANDER                                                 3
 ACTION:UP  10-08-24 09:55 OP:vdl  STATUS:               ID:20100322044435 L   I
 2010-03-22-0443-02S.COL___098                                                 6
 STAT SP IPHASW D HRMM SECON CODA AMPLIT PERI AZIMU VELO SNR AR TRES W  DIS CAZ7
 BAR2 SZ EP        444 53.61                             166    -0.210   31 217 
 BAR2 SZ ES   1    445  8.27                             166     0.0 7   31 217 
 BRR  HZ EP   1    444 55.71                             146    -0.3 7   84 293 
 BRR  HZ I         445  3.96        11.5 0.49                            84 293 
 BRR  HN ES   2    445 12.75                             146     0.4 5   84 293 
 RUS  HZ EP   1    444 58.26                             141     0.2 7  102 184 
 RUS  HE ES   1    445 16.00                             141     0.1 7  102 184 
 RUS  HZ I         445 16.89         2.7 0.39                           102 184 
 OCA  SZ EP   2    445  3.45                             127     0.7 5  161 348 
 OCA  SZ ES   2    445 24.22                             127    -0.1 5  161 348 
 OCA  SZ I         445 28.93         9.0 0.26                           161 348 
                                                                                
