 2014 1122 0413 31.1 L   6.763 -73.204149.0  RSN  7 0.4 1.1LRSN                1
 GAP=131        1.05       5.3     5.0  7.5  0.5588E+01  0.1526E+01 -0.9036E+01E
 Epicentro: ZAPATOCA - SANTANDER                                               3
 ACTION:UPD 14-12-19 15:45 OP:nd   STATUS:               ID:20141122041331 L   I
 OLDACT:REG 14-11-22 13:42 OP:fm   STATUS:               ID:20141122040745     3
 2014-11-22-0407-45M.COL___306                                                 6
 STAT SP IPHASW D HRMM SECON CODA AMPLIT PERI AZIMU VELO AIN AR TRES W  DIS CAZ7
 BAR2 SZ EP        413 51.24                             172    0.2110 19.0 173 
 BAR2 SZ ES        414  5.80                             172   -0.7910 19.0 173 
 BAR2 SZ I         414  8.29         3.1 0.32            169           19.0 173 
 BRR  HZ EP        413 52.70                             154    0.2910 67.8 304 
 BRR  HN ES        414  9.61                             154    0.5710 67.8 304 
 BRR  HZ I         414 12.54         3.1 0.20            152           67.8 304 
 PAM  SZ EP        413 54.11                             149    0.0110 84.7  41 
 RUS  HZ EP        413 54.83                             145   -0.0910 97.1 172 
 RUS  HN ES        414 13.77                             145    0.2610 97.1 172 
 RUS  HZ I         414 15.84         1.0 0.36            145           97.1 172 
 PTB  HZ EP        413 57.11                             134   -0.58 9  141 260 
 PTB  HE ES        414 18.68                             134    0.23 9  141 260 
 PTB  HZ I         414 22.42         1.6 0.32            133            141 260 
 SPBC HE ES        414 21.17                             131    0.11 9  156 218 
 SPBC HZ I         414 28.93         2.1 0.22            130            156 218 
 ZAR  HZ EP        414  3.55                             124    0.24 9  200 294 
 ZAR  HN ES        414 27.87                             124   -0.57 9  200 294 
 ZAR  HZ I         414 35.07         1.8 0.70            124            200 294 
                                                                                
