 2017  822 0411 49.1 L   7.228 -73.741 87.9  RSN  5 0.4 1.3LRSN                1
 GAP=215        1.10       6.8     5.9  8.0  0.2756E+02  0.1591E+02  0.1996E+02E
 Epicentro: PUERTO WILCHES - SANTANDER                                         3
 ACTION:UPD 17-09-04 20:23 OP:rebc STATUS:               ID:20170822041149 L   I
 OLDACT:REG 17-08-22 12:47 OP:osc  STATUS:               ID:20170822040742     3
 2017-08-22-0408-00M.COL___414                                                 6
 STAT SP IPHASW D HRMM SECON CODA AMPLIT PERI AZIMU VELO AIN AR TRES W  DIS CAZ7
 BRR  HZ EP     C  412  0.64                             170   -0.5410 13.7 167 
 BRR  HE ES        412 10.46                             170   -0.1610 13.7 167 
 BRR  HZ I         412 11.07        11.9 0.16            168           13.7 167 
 BAR2 EZ EP        412  6.58                             130   -0.1310 93.5 139 
 BAR2 EZ ES        412 20.62                             130    0.1710 93.5 139 
 ZAR  HZ EP        412  9.66                             120   -0.1310  127 283 
 ZAR  HE ES        412 26.60                             120    0.6610  127 283 
 ZAR  HZ I         412 30.53         3.9 0.12            119            127 283 
 RUS  HZ EP        412 14.81                             114    0.24 9  165 154 
 RUS  HN ES        412 35.26                             114    0.81 9  165 154 
 SPBC HZ EP        412 15.15                             111   -0.45 9  178 192 
 SPBC HN ES        412 35.86                             111   -0.43 9  178 192 
 SPBC HZ I         412 38.11         2.5 0.18            112            178 192 
                                                                                
