 2012  822 0706 43.6 L   6.745 -73.155151.9  RSN  6 0.4 1.2LRSN                1
 GAP=138        0.73       5.5     4.8  8.8 -0.3234E+01 -0.7919E+01  0.1129E+02E
 Epicentro: JORDAN - SANTANDER                                                 3
 ACTION:UPD 12-09-10 11:57 OP:ep   STATUS:               ID:20120822070644dL   I
 2012-08-22-0700-00M.COL___218                                                 6
 STAT SP IPHASW D HRMM SECON CODA AMPLIT PERI AZIMU VELO AIN AR TRES W  DIS CAZ7
 BRR  HZ EP   1    7 7  5.68                             153    0.15 7 73.5 303 
 BRR  HN ES        7 7 22.86                             153    0.2110 73.5 303 
 BRR  HZ I         7 7 26.42         3.3 0.29                          73.5 303 
 PAM  SZ EP   1    7 7  6.59                             150   -0.19 7 82.8  37 
 PAM  SN ES   2    7 7 23.92                             150   -0.95 5 82.8  37 
 PAM  SZ I         7 7 25.66         3.7 0.47                          82.8  37 
 RUS  HZ EP   1    7 7  7.99                             147    0.45 7 94.6 175 
 RUS  HE ES   2    7 7 26.57                             147    0.35 5 94.6 175 
 RUS  HZ I         7 7 27.60         1.3 0.26                          94.6 175 
 PTB  HZ EP   1    7 7 10.56                             134   -0.33 7  146 261 
 PTB  HN ES        7 7 31.83                             134   -0.35 9  146 261 
 PTB  HZ I         7 7 37.54         2.5 0.26                           146 261 
 OCA  HN ES   2    7 7 36.43                             130    0.60 5  166 354 
 ZAR  HN ES   2    7 7 42.65                             124    0.31 4  206 294 
                                                                                
