 2013  122 0523 32.2 L   6.725 -73.343125.7  RSN  5 0.3 1.6LRSN                1
 GAP= 98        0.91       4.9     4.5  8.4 -0.9356E+00  0.1287E+02  0.3780E+00E
 Epicentro: GALAN - SANTANDER                                                  3
 ACTION:UPD 13-02-15 09:15 OP:ep   STATUS:               ID:20130122052332 L   I
 2013-01-22-0518-37M.COL___180                                                 6
 STAT SP IPHASW D HRMM SECON CODA AMPLIT PERI AZIMU VELO AIN AR TRES W  DIS CAZ7
 BAR2 SZ EP        523 49.89                             169    0.4510 23.1 130 
 BAR2 SZ ES        524  2.44                             169   -0.4310 23.1 130 
 BAR2 SZ I         524  4.34        11.7 0.46            171           23.1 130 
 BRR  HZ EP        523 50.73                             153    0.2410 58.7 316 
 BRR  HZ I         523 50.86        17.4 0.14            153           58.7 316 
 BRR  HN ES        524  5.08                             153    0.3310 58.7 316 
 RUS  HN ES        524 10.69                             140    0.1810 96.5 163 
 PAM  SN ES        524 10.53                             140   -0.2310 98.3  46 
 PAM  SN I         524 12.35         3.3 0.40            141           98.3  46 
 PTB  HZ EP        523 54.92                             132   -0.5510  125 261 
 PTB  HN ES        524 13.57                             132   -0.0410  125 261 
 PTB  HN I         524 15.81         5.8 0.36            133            125 261 
                                                                                
