 2010  922 0456 32.0 L   6.822 -72.974150.0  RSN  9 0.4 1.8LRSN                1
 GAP=178        1.11       5.1    11.8  9.7 -0.1305E+02 -0.1923E+02 -0.5489E+01E
 Epicentro: CEPITA - SANTANDER                                                 3
 ACTION:UP  11-02-18 11:04 OP:tino STATUS:               ID:20100922045632 L   I
 2010-09-22-0454-35S.COL___122                                                 6
 STAT SP IPHASW D HRMM SECON CODA AMPLIT PERI AZIMU VELO SNR AR TRES W  DIS CAZ7
 BTL  SZ EP   1    456 52.62                             167     0.2 7   34 288 
 BAR2 SZ EP        456 52.33                             167    -0.110   34 222 
 BAR2 SZ ES   1    457  7.88                             167    -0.4 7   34 222 
 BAR2 SZ I         457  9.10        16.7 0.31                            34 222 
 BRR  HZ IP     C  456 54.11                             148    -0.410   87 291 
 BRR  HZ I         456 54.37        18.1 0.16                            87 291 
 BRR  HN ES   1    457 12.84                             148     0.7 7   87 291 
 RUS  HZ EP   2    456 56.69                             144     0.3 5  104 187 
 RUS  HE ES   1    457 15.36                             144     0.0 7  104 187 
 RUS  HZ I         457 16.49         6.3 0.37                           104 187 
 GUE  SZ EP        456 56.18                             142    -0.510  112   3 
 GRA  SZ EP        456 57.83                             140     0.810  119   9 
 GRA  SZ ES   1    457 16.98                             140     0.4 7  119   9 
 GRA  SZ I         457 20.25        12.6 0.48                           119   9 
 OCA  SZ EP   1    457  0.41                             130    -0.3 7  161 346 
 OCA  SZ ES   1    457 22.67                             130    -0.4 7  161 346 
 OCA  SZ I         457 26.79         7.4 0.22                           161 346 
 CHI  HZ EP   2    457 10.73                             117     0.0 4  257 199 
 CHI  HZ I         457 12.91         1.9 0.40                           257 199 
 CHI  HE ES   2    457 41.22                             117     0.2 4  257 199 
 HEL  HZ EP   2    457 15.07                             114     0.6 4  291 256 
 HEL  HZ I         457 51.89         3.5 0.54                           291 256 
                                                                                
