 2011  522 0123 35.3 L   6.810 -73.094137.4  RSN  8 0.3 1.7LRSN                1
 GAP=143        0.74       3.6     7.1  6.8 -0.1411E+01 -0.3228E+01 -0.4261E+01E
 Epicentro: LOS SANTOS - SANTANDER                                             3
 ACTION:UP  11-06-29 08:55 OP:tino STATUS:               ID:20110522012335 L   I
 2011-05-22-0119-08S.COL___141                                                 6
 STAT SP IPHASW D HRMM SECON CODA AMPLIT PERI AZIMU VELO SNR AR TRES W  DIS CAZ7
 BTL  SZ EP   1    123 54.39                             170     0.5 7   23 302 
 BAR2 SZ EP   1    123 53.97                             169     0.0 7   26 202 
 BAR2 SZ ES   1    124  8.29                             169    -0.3 7   26 202 
 BAR2 SZ I         124  9.61        16.0 0.23                            26 202 
 GIR2 SZ EP   1    123 54.01                             166     0.0 7   32 340 
 PAM  SZ EP   1    123 56.75                             151     0.4 7   73  37 
 PAM  SN ES   1    124 13.07                             151     0.3 7   73  37 
 BRR  HZ EP   1    123 55.74                             149    -0.1 7   76 296 
 BRR  HZ I         123 56.24        12.1 0.10                            76 296 
 BRR  HE ES   1    124 12.26                             149     0.4 7   76 296 
 RUS  HZ EP   1    123 58.03                             142    -0.3 7  101 179 
 RUS  HN ES   1    124 16.05                             142    -0.2 7  101 179 
 RUS  HZ I         124 18.19         6.3 0.37                           101 179 
 GRA  SZ EP   1    123 59.69                             136     0.1 7  123  15 
 GRA  SZ ES   2    124 18.14                             136    -0.4 5  123  15 
 GRA  SZ I         124 20.17         6.1 0.30                           123  15 
 OCA  SZ EP   1    124  2.85                             128    -0.1 7  160 351 
 OCA  SZ ES   1    124 23.80                             128    -0.7 7  160 351 
 OCA  SZ I         124 27.65         4.0 0.24                           160 351 
                                                                                
