 2017 1022 0257 31.0 L   6.781 -73.173149.3  RSN  5 0.3 0.9LRSN                1
 GAP=134        0.90       7.1     5.6  8.6  0.1508E+01  0.3451E+01 -0.2680E+02E
 Epicentro: LOS SANTOS - SANTANDER                                             3
 ACTION:UPD 17-11-07 19:35 OP:rebc STATUS:               ID:20171022025731 L   I
 OLDACT:DUP 17-10-22 16:01 OP:dani STATUS:               ID:20171022024342d    3
 OLDACT:UP  17-10-22 16:00 OP:dani STATUS:               ID:20171022024341     3
 OLDACT:REG 17-10-22 13:35 OP:dani STATUS:               ID:20171022024341     3
 2017-10-22-0248-00M.COL___408                                                 6
 STAT SP IPHASW D HRMM SECON CODA AMPLIT PERI AZIMU VELO AIN AR TRES W  DIS CAZ7
 BAR2 EZ EP        257 51.01                             172   -0.0410 20.9 183 
 BAR2 EZ ES        258  7.06                             172    0.4010 20.9 183 
 BRR  HZ EP        257 52.67                             154    0.1810 69.7 301 
 PAM  EZ EP        257 53.43                             150   -0.4210 80.9  40 
 RUS  HZ EP        257 55.55                             145    0.5310 98.7 174 
 RUS  HE ES        258 13.24                             145   -0.4710 98.7 174 
 RUS  HZ I         258 15.26         1.1 0.28            145           98.7 174 
 PTB  HZ EP        257 57.98                             133   -0.03 9  144 259 
 PTB  HE ES        258 18.85                             133   -0.18 9  144 259 
 PTB  HZ I         258 22.43         1.4 0.06            133            144 259 
                                                                                
