 2011  622 0714 49.7 L   6.800 -73.036144.2  RSN  5 0.2 1.1LRSN                1
 GAP=212        0.55       8.4    14.4  9.6  0.8949E+02 -0.8251E+02 -0.3434E+02E
 Epicentro: CEPITA - SANTANDER                                                 3
 ACTION:UP  11-07-14 19:07 OP:ep   STATUS:               ID:20110622071449 L   I
 2011-06-22-0714-36S.COL___139                                                 6
 STAT SP IPHASW D HRMM SECON CODA AMPLIT PERI AZIMU VELO SNR AR TRES W  DIS CAZ7
 BAR2 SZ EP   1    715  9.41                             169     0.2 7   28 215 
 BAR2 SZ I         715 17.96         2.3 0.23                            28 215 
 BAR2 SZ ES   2    715 24.14                             169    -0.3 5   28 215 
 BTL  SZ EP   1    715  9.56                             169     0.3 7   29 297 
 GIR2 SZ EP   1    715  9.25                             166    -0.1 7   35 331 
 BRR  HZ EP   1    715 11.29                             149     0.0 7   82 295 
 BRR  HZ I         715 11.39         6.0 0.13                            82 295 
 BRR  HE ES   1    715 28.14                             149    -0.1 7   82 295 
 RUS  HZ EP   1    715 12.94                             144    -0.3 7  100 183 
 RUS  HZ I         715 15.14         1.1 0.39                           100 183 
 RUS  HN ES   2    715 32.07                             144     0.4 5  100 183 
                                                                                
