 2014  922 0357  6.2 L   6.813 -73.178149.1  RSN  7 0.5 1.5LRSN                1
 GAP=132        1.19       4.5     5.8  7.9 -0.2903E+01  0.8439E+01 -0.7468E+01E
 Epicentro: ZAPATOCA - SANTANDER                                               3
 ACTION:UPD 14-10-03 23:07 OP:nd   STATUS:               ID:20140922035706 L   I
 OLDACT:UP  14-09-22 13:58 OP:cam  STATUS:               ID:20140922035000     3
 OLDACT:UP  14-09-22 13:58 OP:cam  STATUS:               ID:20140922035000     3
 OLDACT:REG 14-09-22 12:42 OP:cam  STATUS:               ID:20140922035000     3
 2014-09-22-0350-00M.COL___252                                                 6
 STAT SP IPHASW D HRMM SECON CODA AMPLIT PERI AZIMU VELO AIN AR TRES W  DIS CAZ7
 BAR2 SZ EP     D  357 26.28                             170   -0.0210 24.4 181 
 BAR2 SZ ES        357 41.89                             170   -0.0610 24.4 181 
 BAR2 SZ I         357 42.63         3.5 0.56            173           24.4 181 
 BRR  HZ EP     C  357 28.10                             154    0.5510 67.4 299 
 BRR  HN ES        357 45.11                             154    0.9410 67.4 299 
 BRR  HN I         357 45.65        11.1 0.34            153           67.4 299 
 PAM  SZ EP     D  357 29.28                             151    0.3910 78.6  42 
 PAM  SN ES        357 46.07                             151   -0.4810 78.6  42 
 PAM  SZ I         357 48.22         5.1 0.50            150           78.6  42 
 RUS  HZ EP        357 30.37                             144   -0.0810  102 174 
 RUS  HN ES        357 49.06                             144   -0.2810  102 174 
 RUS  HZ I         357 50.11         3.2 0.34            147            102 174 
 PTB  HZ EP        357 33.34                             133    0.13 9  145 258 
 PTB  HN ES        357 53.46                             133   -0.77 9  145 258 
 PTB  HZ I         357 55.49         3.0 0.26            134            145 258 
 SPBC HN ES        357 57.35                             130    0.09 9  162 218 
 SML  HZ EP        357 42.76                             118   -0.00 8  241 336 
 SML  HN ES        358 10.51                             118   -0.73 8  241 336 
 SML  HZ I         358 18.50         3.1 0.26            118            241 336 
                                                                                
