 2016 1022 0944 32.0 L   6.805 -73.131144.4  RSN 20 0.5 2.5LRSN                1
 GAP= 72        1.00       3.7     3.5  4.9 -0.3862E+01  0.3993E+01  0.4447E+01E
 Epicentro: LOS SANTOS - SANTANDER                                             3
 ACTION:UPD 16-11-09 19:21 OP:rebc STATUS:               ID:20161022094432 L   I
 OLDACT:UP  16-10-23 00:26 OP:and  STATUS:               ID:20161022093747     3
 OLDACT:REG 16-10-22 13:27 OP:and  STATUS:               ID:20161022093747     3
 2016-10-22-0938-00M.COL___337                                                 6
 STAT SP IPHASW D HRMM SECON CODA AMPLIT PERI AZIMU VELO AIN AR TRES W  DIS CAZ7
 BAR2 EZ IP     D  944 51.29                             170   -0.1710 24.2 194 
 BAR2 EZ ES        945  5.86                             170   -0.8010 24.2 194 
 BAR2 EZ I         945  9.12        80.4 0.40            169           24.2 194 
 BRR  HZ EP        944 53.09                             152    0.0410 72.4 298 
 BRR  HE ES        945  9.63                             152    0.1410 72.4 298 
 BRR  HZ I         945 13.32        53.4 0.22            151           72.4 298 
 PAM  EZ EP        944 54.25                             151    0.2910 75.9  39 
 PAM  EN ES        945 11.45                             151    0.3410 75.9  39 
 PAM  EZ I         945 14.36        51.6 0.30            155           75.9  39 
 RUS  HZ IP        944 55.25                             143   -0.3810  101 177 
 RUS  HN ES        945 14.54                             143    0.4710  101 177 
 RUS  HZ I         945 15.18        32.3 0.38            145            101 177 
 PTB  HZ EP   9    944 57.79                             131   -1.21 0  149 259 
 PTB  HN ES        945 19.13                             132    0.27 9  149 259 
 PTB  HZ I         945 22.66        35.4 0.15            132            149 259 
 TAM  HZ EP        944 59.76                             131    0.35 9  154 105 
 TAM  HN ES   4    945 21.80                             131    0.99 0  154 105 
 OCA  HZ EP   2    945  0.29                             129    0.13 5  160 353 
 OCA  HN ES   2    945 22.13                             129   -0.00 5  160 353 
 OCA  HZ I         945 25.32        56.6 0.13            132            160 353 
 SPBC HZ EP        945  0.13                             128   -0.38 9  165 219 
 SPBC HN ES   4    945 22.29                             128   -0.48 0  165 219 
 SPBC HZ I         945 28.46        65.6 0.24            130            165 219 
 NOR  HZ EP        945  7.46                             118   -0.35 8  236 235 
 NOR  HN ES        945 35.60                             118   -0.16 8  236 235 
 NOR  HZ I         945 40.80        26.8 0.20            119            236 235 
 CHI  HZ EP        945  9.60                             117   -0.11 8  250 196 
 CHI  HN ES        945 38.86                             117   -0.27 8  250 196 
 CHI  HZ I         945 42.99         9.2 0.24            119            250 196 
 ROSC BZ EP   4    945 11.31                             116    1.14 0  254 211 
 ROSC BN ES   4    945 42.23                             116    2.28 0  254 211 
 ROSC BZ I         945 45.96        34.0 0.45            118            254 211 
 HEL  HZ EP        945 12.10                             114   -0.22 8  274 256 
 HEL  HN ES        945 44.25                             114    0.47 8  274 256 
 HEL  HZ I         945 50.02        19.5 0.48            116            274 256 
 GUY2CHZ EP        945 15.70                             112   -0.01 7  303 235 
 GUY2CHN ES   4    945 53.84                             112    4.01 0  303 235 
 GUY2CHZ I         945 56.49        18.3 0.50                           303 235 
 PTGC HZ EP   4    945 14.51                             111   -1.25 0  309 159 
 PTGC HN ES   4    945 47.66                             111   -2.25 0  309 159 
 PTGC HZ I         945 49.18        18.4 0.22            114            309 159 
 LL6C HZ EP   4    944 57.20                             110   -20.4 0  324 357 
 LL6C HN ES   4    945 32.42                             110   -20.7 0  324 357 
 ELA  HZ EP   4    945 20.75                             110    1.79 0  331 230 
 ELA  HN ES        945 56.61                             110    1.01 7  331 230 
 ELA  HZ I         946  2.96        11.4 0.33            111            331 230 
 CBOC HZ EP        945 19.09                             109    0.05 7  335 252 
 CBOC HN ES        945 55.23                             109   -0.51 7  335 252 
 ANIL HZ EP   4    945 23.05                             108    1.14 0  359 225 
 ANIL HN ES        946  2.23                             108    1.37 6  359 225 
 PRA  HZ EP   4    945 23.98                             106   -1.62 0  393 210 
 PRA  HN ES   4    946  6.79                             106   -0.64 0  393 210 
 PRA  HZ I         946  7.05         4.5 0.36            108            393 210 
 PAL  HZ EP        945 26.83                             106   -0.46 6  407 239 
 PAL  HN ES        946  9.93                             106   -0.51 6  407 239 
 PAL  HZ I         946 13.20         5.4 0.22            107            407 239 
 SJC  HZ EP   4    945 25.46                             105   -2.09 0  410 327 
 SJC  HN ES   4    946  6.35                             105   -4.55 0  410 327 
 CRJC HZ EP   9    945 31.77                             103   -2.60 0  467   3 
 CRJC HN ES        946 19.46                             104   -0.97 5  467   3 
 URI  HZ EP   4    945 42.10                             100   -2.75 0  556  13 
                                                                                
