 2016  922 0832  2.8 L   6.791 -73.128145.5  RSN  4 0.3 1.4LRSN                1
 GAP=245        0.83       7.7     6.9 11.0  0.3565E+02 -0.2554E+02 -0.5069E+02E
 Epicentro: LOS SANTOS - SANTANDER                                             3
 ACTION:UPD 17-08-17 21:15 OP:lp   STATUS:               ID:20160922083202 L   I
 OLDACT:UP  16-09-22 18:24 OP:drio STATUS:               ID:20160922082730     3
 OLDACT:REG 16-09-22 11:56 OP:and  STATUS:               ID:20160922082730     3
 2016-09-22-0828-00M.COL___360                                                 6
 STAT SP IPHASW D HRMM SECON CODA AMPLIT PERI AZIMU VELO AIN AR TRES W  DIS CAZ7
 RUS  HZ EP        832 26.87                             144    0.4210 99.5 177 
 RUS  HE ES        832 44.66                             144   -0.2310 99.5 177 
 RUS  HZ I         832 46.22         1.6 0.38            149           99.5 177 
 PTB  HZ EP        832 29.19                             132   -0.71 9  149 259 
 PTB  HE ES        832 51.31                             132    0.27 9  149 259 
 PTB  HZ I         832 52.52         2.6 0.28            134            149 259 
 SPBC HZ EP        832 31.50                             129    0.18 9  164 220 
 SPBC HN ES        832 53.55                             129   -0.02 9  164 220 
 SPBC HZ I         832 56.20         2.9 0.38            133            164 220 
 ZAR  HZ EP        832 35.49                             122    0.04 8  206 292 
 ZAR  HE ES        833  0.98                             122    0.06 8  206 292 
 ZAR  HZ I         833  7.54         4.4 0.30            124            206 292 
                                                                                
