 2012  222 0957 47.5 L   6.780 -73.146148.1  RSN 10 0.3 2.3LRSN                1
 GAP=137        0.54       2.4     3.4  3.8 -0.2020E+01  0.2256E+01  0.1642E+01E
 ACTION:UP  12-03-07 16:33 OP:epov STATUS:               ID:20120222095747 L   I
 2012-02-22-0956-59S.COL___194                                                 6
 STAT SP IPHASW D HRMM SECON CODA AMPLIT PERI AZIMU VELO AIN AR TRES W  DIS CAZ7
 BAR2 SZ EP   1    958  7.41                             171    0.00 7 21.1 191 
 BAR2 SZ ES   1    958 22.75                             171   -0.15 7 21.1 191 
 BAR2 SZ I         958 24.11        70.1 0.21                          21.1 191 
 GIR2 SZ EP   1    958  7.48                             167   -0.07 7 33.4 351 
 GIR2 SZ ES   1    958 23.12                             167   -0.03 7 33.4 351 
 BRR  HZ IP     C  958  9.22                             153    0.2310 72.2 300 
 BRR  HZ I         958  9.52        98.4 0.14                          72.2 300 
 BRR  HN ES   1    958 26.40                             153    0.67 7 72.2 300 
 PAM  SZ EP   1    958 10.31                             151    0.20 7 79.1  39 
 PAM  SN ES   1    958 27.50                             151   -0.21 7 79.1  39 
 PAM  SZ I         958 30.00         8.9 0.21                          79.1  39 
 RUS  HZ EP   1    958 11.29                             145   -0.07 7 98.4 176 
 RUS  HE ES   1    958 29.91                             145   -0.04 7 98.4 176 
 RUS  HZ I         958 31.25        28.7 0.39                          98.4 176 
 PTB  HZ EP   1    958 14.11                             133   -0.54 7  147 260 
 PTB  HE ES   1    958 35.32                             133   -0.48 7  147 260 
 OCA  SZ EP   1    958 16.08                             130   -0.15 7  162 353 
 OCA  SZ ES   1    958 38.52                             130   -0.10 7  162 353 
 NOR  SZ EP   1    958 23.27                             119    0.01 6  233 235 
 NOR  SE ES   1    958 51.29                             119    0.17 6  233 235 
 CHI  HZ EP   1    958 25.46                             118    0.33 6  246 195 
 CHI  HE ES   2    958 54.54                             118    0.08 4  246 195 
 PRA  HZ EP   1    958 41.02                             107    0.11 4  390 210 
                                                                                
