 2014  622 0918  3.7 L   6.819 -73.174140.5  RSN 19 0.5 2.6LRSN                1
 GAP= 69        1.00       2.3     2.7  4.8 -0.1122E+01  0.4638E+01  0.9950E+00E
 Epicentro: LOS SANTOS - SANTANDER                                             3
 ACTION:UPD 14-07-01 22:55 OP:nd   STATUS:               ID:20140622091803 L   I
 OLDACT:REG 14-06-22 14:21 OP:carl STATUS:               ID:20140622090815     3
 2014-06-22-0908-15M.COL___256                                                 6
 STAT SP IPHASW D HRMM SECON CODA AMPLIT PERI AZIMU VELO AIN AR TRES W  DIS CAZ7
 BAR2 SZ IP     D  918 22.97                             169    0.2010 25.1 182 
 BAR2 SZ ES        918 38.03                             169    0.4110 25.1 182 
 BAR2 SZ I         918 39.25       132.9 0.18            168           25.1 182 
 PAM  SZ EP        918 25.91                             150    0.4910 77.8  42 
 PAM  SN ES        918 42.72                             150    0.3910 77.8  42 
 PAM  SZ I         918 44.82        44.1 0.34            155           77.8  42 
 RUS  HZ EP        918 26.92                             142   -0.2310  103 174 
 RUS  HE ES        918 45.06                             142   -0.3510  103 174 
 RUS  HZ I         918 46.40        26.4 0.22            144            103 174 
 PTB  HZ EP        918 29.47                             131   -0.57 9  145 258 
 PTB  HN ES        918 50.49                             131   -0.06 9  145 258 
 PTB  HZ I         918 54.61        50.8 0.18            131            145 258 
 OCA  HZ EP        918 31.40                             129   -0.00 9  158 354 
 OCA  HN ES        918 52.60                             129   -0.39 9  158 354 
 OCA  HZ I         918 56.46        55.2 0.20            132            158 354 
 TAM  HZ IP     C  918 31.29                             129   -0.05 9  159 105 
 TAM  HN ES        918 52.70                             129   -0.17 9  159 105 
 TAM  HZ I         918 53.17        29.8 0.66            134            159 105 
 SPBC HZ EP     C  918 31.94                             128    0.13 9  163 218 
 SPBC HE ES        918 53.42                             128   -0.29 9  163 218 
 SPBC HZ I         919  0.73        58.6 0.26            129            163 218 
 ZAR  HZ EP        918 35.84                             122    0.38 9  200 292 
 ZAR  HN ES        919  0.90                             122    0.70 9  200 292 
 ZAR  HZ I         919  8.33        37.7 0.18            123            200 292 
 NOR  HZ EP        918 39.24                             117    0.21 8  233 234 
 NOR  HN ES        919  6.42                             117   -0.13 8  233 234 
 NOR  HZ I         919 10.80        35.6 0.58            119            233 234 
 SML  HZ EP        918 39.28                             117   -0.43 8  240 336 
 SML  HN ES        919  6.80                             117   -0.98 8  240 336 
 SML  HZ I         919 10.23        43.8 0.32            119            240 336 
 CHI  HZ EP        918 41.15                             116   -0.13 8  250 194 
 CHI  HN ES        919  9.96                             116   -0.62 8  250 194 
 CHI  HZ I         919 16.21        18.0 0.40            118            250 194 
 ROSC BZ EP   4    918 42.63                             116    1.03 0  253 210 
 ROSC BN ES   4    919 12.99                             116    1.86 0  253 210 
 ROSC BZ I         919 16.74        34.4 0.55            117            253 210 
 HEL  HZ EP        918 44.27                             114    0.86 8  270 255 
 HEL  HN ES        919 14.25                             114   -0.10 8  270 255 
 HEL  HZ I         919 21.95        20.9 0.34            115            270 255 
 URE  HZ EP   4    918 43.95                             113   -0.19 0  280 292 
 URE  HE ES   4    919 14.08                             113   -1.57 0  280 292 
 GUY2CHZ EP        918 47.35                             111    0.39 7  300 234 
 GUY2CHN ES        919 20.36                             111   -0.31 7  300 234 
 GUY2CHZ I         919 29.52        35.9 0.34                           300 234 
 RREF HZ EP        918 49.31                             110   -0.23 7  321 229 
 RREF HN ES        919 25.78                             110    0.50 7  321 229 
 RREF HZ I         919 35.21        29.6 0.28            111            321 229 
 CBOC HZ EP        918 50.80                             109    0.63 7  331 252 
 CBOC HN ES        919 25.20                             109   -1.19 7  331 252 
 CBOC HZ I         919 39.86         7.7 0.66            110            331 252 
 TOL  SZ EP        918 52.30                             108    0.59 7  343 224 
 TOL  SN ES        919 29.56                             108    0.43 7  343 224 
 PRA  HZ EP        918 56.60                             106   -0.52 6  392 209 
 PRA  HE ES        919 38.96                             106    0.20 6  392 209 
 PRA  HZ I         919 45.05        27.4 0.24            107            392 209 
 ORTC HZ EP        918 57.40                             105   -0.07 6  395 216 
 ORTC HN ES        919 39.73                             105    0.35 6  395 216 
 ORTC HZ I         919 45.68        15.5 0.46            107            395 216 
 SJC  HZ EP   4    918 57.61                             105   -1.10 0  406 327 
 SJC  HN ES   4    919 38.55                             105   -3.05 0  406 327 
 MACC HZ EP   4    919  9.80                             101   -2.72 0  522 188 
 MACC HN ES   4    920  1.12                             101   -5.05 0  522 188 
                                                                                
