 2012 1222 0131 45.0 L   6.730 -73.189150.8  RSN  4 0.2 1.4LRSN                1
 GAP=174        0.45       4.2     4.3  5.5  0.6540E+01 -0.1581E+01 -0.2863E+01E
 Epicentro: VILLANUEVA - SANTANDER                                             3
 ACTION:UPD 13-01-04 14:29 OP:ep   STATUS:               ID:20121222013145 L   I
 2012-12-22-0130-00M.COL___243                                                 6
 STAT SP IPHASW D HRMM SECON CODA AMPLIT PERI AZIMU VELO AIN AR TRES W  DIS CAZ7
 GIR2 SZ EP   1    132  5.23                             165   -0.25 7 38.6 359 
 BRR  HZ EP        132  6.84                             153    0.1510 71.3 306 
 BRR  HZ I         132 15.45         5.2 0.50                          71.3 306 
 BRR  HE ES   1    132 23.69                             153    0.07 7 71.3 306 
 RUS  HZ EP   1    132  9.02                             147    0.28 7 93.3 173 
 RUS  HE ES   1    132 27.15                             147   -0.11 7 93.3 173 
 RUS  HE I         132 28.51         4.0 0.19                          93.3 173 
 PTB  HZ EP        132 11.66                             134   -0.18 9  142 262 
 PTB  HE ES   1    132 32.83                             134    0.04 7  142 262 
 PTB  HZ I         132 36.55         2.2 0.11                           142 262 
                                                                                
