 2016  522 0636 53.3 L   6.673 -73.590109.1  RSN  4 0.3 1.2LRSN                1
 GAP=117        0.86       6.0     4.4  9.0  0.1133E+02  0.1381E+02  0.1992E+02E
 Epicentro: EL CARMEN - SANTANDER                                              3
 ACTION:UPD 16-08-18 17:48 OP:cam  STATUS:               ID:20160522063653 L   I
 OLDACT:REG 16-05-22 13:12 OP:mh   STATUS:               ID:20160522062744     3
 2016-05-22-0627-44M.COL___289                                                 6
 STAT SP IPHASW D HRMM SECON CODA AMPLIT PERI AZIMU VELO AIN AR TRES W  DIS CAZ7
 BAR2 EZ EP        637  9.16                             156   -0.3010 46.0 101 
 BAR2 EZ ES        637 21.61                             156   -0.4310 46.0 101 
 BAR2 EZ I         637 22.20         5.9 0.10            158           46.0 101 
 BRR  HZ EP   2    637  9.27                             153   -0.04 5 49.9 344 
 BRR  HN ES        637 22.21                             153    0.4310 49.9 344 
 BRR  HZ I         637 22.45         6.7 0.32            156           49.9 344 
 PTB  HZ EP        637 12.96                             135    0.2410 96.9 261 
 PTB  HN ES        637 27.52                             135   -0.3210 96.9 261 
 PTB  HZ I         637 29.67         3.4 0.16            135           96.9 261 
 RUS  HZ EP   2    637 13.72                             134   -0.17 5  103 147 
 RUS  HN ES        637 30.37                             134    0.4410  103 147 
 RUS  HZ I         637 31.07         2.7 0.22            135            103 147 
                                                                                
