 2017  822 0425 42.6 L   6.747 -73.108139.3  RSN  6 0.4 1.5LRSN                1
 GAP=237        0.88       4.2     5.9  6.8  0.5244E+01  0.1665E+02  0.8706E-02E
 Epicentro: LOS SANTOS - SANTANDER                                             3
 ACTION:UPD 17-09-04 20:23 OP:rebc STATUS:               ID:20170822042542 L   I
 OLDACT:DUP 17-08-22 16:20 OP:osc  STATUS:               ID:20170822041741d    3
 OLDACT:REG 17-08-22 12:48 OP:osc  STATUS:               ID:20170822041740     3
 2017-08-22-0418-00M.COL___411                                                 6
 STAT SP IPHASW D HRMM SECON CODA AMPLIT PERI AZIMU VELO AIN AR TRES W  DIS CAZ7
 BAR2 EZ EP        426  1.15                             172   -0.2410 19.0 206 
 BAR2 EZ ES        426 16.04                             172    0.0110 19.0 206 
 BAR2 EZ I         426 16.97         8.6 0.24            170           19.0 206 
 BRR  HZ EP     C  426  3.06                             149   -0.4110 77.8 301 
 BRR  HN ES        426 20.15                             149    0.4210 77.8 301 
 BRR  HZ I         426 30.08         3.6 0.34            147           77.8 301 
 RUS  HN ES        426 22.89                             144   -0.0910 94.5 178 
 RUS  HZ I         426 24.50         3.4 0.18            151           94.5 178 
 SPBC HZ EP        426 10.80                             128    0.35 9  161 221 
 SPBC HE ES        426 32.32                             128    0.15 9  161 221 
 SPBC HZ I         426 34.63         4.8 0.22            132            161 221 
 ZAR  HZ EP        426 15.92                             120    0.63 8  210 293 
 ZAR  HN ES        426 40.27                             120   -0.51 8  210 293 
 ZAR  HZ I         426 45.95         3.9 0.36            122            210 293 
 NOR  HE ES        426 45.30                             117   -0.28 8  235 236 
                                                                                
