 2012  322 0901 51.3 L   6.782 -73.428128.0  RSN  4 0.3 1.3LRSN                1
 GAP=169        0.58       6.5     6.3  8.0  0.2007E+02  0.1954E+00  0.7478E+01E
 ACTION:UP  12-03-31 23:21 OP:EP   STATUS:               ID:20120322090151 L   I
 2012-03-22-0900-00M.COL___202                                                 6
 STAT SP IPHASW D HRMM SECON CODA AMPLIT PERI AZIMU VELO SNR AR TRES W  DIS CAZ7
 BAR2 SZ EP        9 2  9.01                             164    -0.110   34 128 
 BAR2 SZ ES   2    9 2 22.39                             164    -0.6 5   34 128 
 BAR2 SZ I         9 2 23.51        16.1 0.32                            34 128 
 BRR  HZ EP        9 2  9.34                             158     0.110   48 319 
 BRR  HZ I         9 2  9.51         6.0 0.11                            48 319 
 BRR  HE ES   2    9 2 23.59                             158     0.3 5   48 319 
 RUS  HZ EP        9 2 13.61                             138    -0.110  105 159 
 RUS  HN ES   2    9 2 31.79                             138     0.6 5  105 159 
 PTB  HZ EP   2    9 2 14.14                             135     0.1 5  117 257 
 PTB  HN ES   2    9 2 31.42                             135    -0.3 5  117 257 
 PTB  HZ I         9 2 37.46         1.2 0.39                           117 257 
                                                                                
