 2012  122 0025 27.0 L   7.551 -73.227133.2  RSN  5 0.2 1.5LRSN                1
 GAP=204        0.53       6.8     3.0  5.5 -0.3238E+01  0.3971E+01 -0.2844E+01E
 Epicentro: EL PLAYON - SANTANDER                                              3
 ACTION:UP  12-02-03 08:19 OP:REBC STATUS:               ID:20120122002527 L   I
 2012-01-22-0020-00M.COL___186                                                 6
 STAT SP IPHASW D HRMM SECON CODA AMPLIT PERI AZIMU VELO SNR AR TRES W  DIS CAZ7
 PAM  SZ EP        025 47.03                             154     0.010   63 112 
 PAM  SN ES   1    026  2.44                             154    -0.2 7   63 112 
 BRR  HZ EP        025 46.90                             150     0.010   73 228 
 BRR  HN ES   1    026  2.83                             150     0.4 7   73 228 
 BRR  HZ I         026  3.36        16.3 0.15                            73 228 
 PTB  HZ EP   1    025 55.75                             124     0.0 7  176 231 
 PTB  HE ES   1    026 17.88                             124    -0.3 7  176 231 
 ZAR  HZ EP   1    025 56.42                             123     0.2 7  180 268 
 ZAR  HN ES   1    026 18.65                             123    -0.3 7  180 268 
 ZAR  HZ I         026 22.31         3.5 0.11                           180 268 
 RUS  HZ EP   1    025 57.27                             123     0.1 7  184 175 
 RUS  HZ I         025 58.26         1.8 0.42                           184 175 
                                                                                
