 2014  522 0732 56.2 L   6.764 -73.194154.4  RSN  5 0.2 1.1LRSN                1
 GAP=229        0.64       4.5     5.1  6.8  0.1332E+02 -0.1359E+01 -0.2578E+01E
 Epicentro: VILLANUEVA - SANTANDER                                             3
 ACTION:UPD 15-03-16 16:59 OP:nd   STATUS:               ID:20140522073256 L   I
 OLDACT:UP  14-05-22 16:34 OP:fm   STATUS:               ID:20140522072813d    3
 OLDACT:DUP 14-05-22 16:30 OP:fm   STATUS:               ID:20140522072813d    3
 OLDACT:UP  14-05-22 16:23 OP:fm   STATUS:               ID:20140522072812     3
 OLDACT:UP  14-05-22 16:15 OP:fm   STATUS:               ID:20140522072812     3
 OLDACT:REG 14-05-22 13:24 OP:spq  STATUS:               ID:20140522072812     3
 2014-05-22-0728-12M.COL___249                                                 6
 STAT SP IPHASW D HRMM SECON CODA AMPLIT PERI AZIMU VELO AIN AR TRES W  DIS CAZ7
 BRR  HZ EP        733 17.92                             155   -0.2210 68.7 304 
 BRR  HN ES        733 35.51                             155    0.2510 68.7 304 
 BRR  HZ I         733 39.65         3.1 0.44            154           68.7 304 
 RUS  HZ EP        733 20.94                             146    0.3910 97.1 173 
 RUS  HN ES        733 39.22                             146   -0.3410 97.1 173 
 RUS  HZ I         733 40.84         1.1 0.40            149           97.1 173 
 PTB  HZ EP   1    733 23.25                             135   -0.10 7  142 260 
 PTB  HN ES   1    733 44.64                             135    0.10 7  142 260 
 PTB  HZ I         733 50.80         1.6 0.46            136            142 260 
 SPBC HN ES   1    733 47.19                             132    0.13 7  157 218 
 ZAR  HE ES        733 54.18                             125   -0.18 9  201 294 
                                                                                
