 2011  922 0914  8.7 L   7.048 -73.320130.2  RSN  4 0.1 1.4LRSN                1
 GAP=240        0.32       6.5     4.6  3.5  0.1732E+02  0.7007E+01  0.6148E+01E
 Epicentro: LEBRIJA - SANTANDER                                                3
 ACTION:UPD 12-07-13 15:59 OP:ep   STATUS:               ID:20110922091408 L   I
 2011-09-22-0912-36S.COL___152                                                 6
 STAT SP IPHASW D HRMM SECON CODA AMPLIT PERI AZIMU VELO AIN AR TRES W  DIS CAZ7
 BTL  SZ EP   2    914 26.21                             173   -0.10 5 15.4 158 
 BRR  HZ EP   1    914 26.69                             160   -0.07 7 43.8 279 
 BRR  HZ I         914 38.22         4.1 0.41                          43.8 279 
 BRR  HN ES   1    914 40.90                             160    0.05 7 43.8 279 
 BAR2 SZ EP        914 27.60                             157    0.0910 52.7 163 
 BAR2 SZ I         914 27.85         6.3 0.13                          52.7 163 
 BAR2 SZ ES   1    914 42.10                             157   -0.08 7 52.7 163 
 HEL  HZ EP        914 47.02                             112   -0.01 8  262 249 
 HEL  HZ I         914 47.24         2.4 0.10                           262 249 
                                                                                
