 2012 1222 0044 22.9 L   6.784 -73.149142.4  RSN 14 0.5 2.7LRSN                1
 GAP= 71        1.01       3.3     3.5  5.3  0.5855E+00  0.3179E+01  0.2553E+01E
 Epicentro: LOS SANTOS - SANTANDER                                             3
 ACTION:UPD 13-01-04 14:29 OP:ep   STATUS:               ID:20121222004422 L   I
 2012-12-22-0040-00M.COL___243                                                 6
 STAT SP IPHASW D HRMM SECON CODA AMPLIT PERI AZIMU VELO AIN AR TRES W  DIS CAZ7
 BAR2 SZ IP        044 42.26                             171    0.2110 21.5 190 
 BAR2 SZ ES        044 56.71                             171   -0.3110 21.5 190 
 BAR2 SZ I         044 58.81       193.4 0.17                          21.5 190 
 GIR2 SZ EP        044 42.28                             166    0.1010 33.0 352 
 BRR  HZ IP     C  044 44.07                             152    0.3910 71.7 300 
 BRR  HN ES        045  0.81                             152    0.9010 71.7 300 
 BRR  HZ I         045  4.34        83.8 0.42                          71.7 300 
 PAM  SZ EP        044 45.14                             150    0.3210 79.0  39 
 PAM  SN ES        045  1.60                             150   -0.3510 79.0  39 
 PAM  SZ I         045  4.23        74.7 0.44                          79.0  39 
 RUS  HZ EP        044 46.27                             144    0.1210 98.8 176 
 RUS  HN ES   1    045  3.95                             144   -0.37 7 98.8 176 
 RUS  HN I         045  6.69        81.3 0.29                          98.8 176 
 PTB  HZ EP        044 48.99                             131   -0.50 9  147 259 
 PTB  HN ES   1    045  9.97                             131   -0.29 7  147 259 
 PTB  HZ I         045 13.35        54.9 0.33                           147 259 
 TAM  HZ EP     C  044 50.62                             130    0.35 9  155 104 
 TAM  HZ I         044 50.95        43.3 0.41                           155 104 
 TAM  HN ES   1    045 11.58                             130   -0.07 7  155 104 
 OCA  HZ EP        044 50.35                             129   -0.72 9  162 353 
 OCA  HZ I         045 15.39        69.9 0.25                           162 353 
 ZAR  HZ EP   1    044 55.35                             122    0.23 6  204 293 
 ZAR  HE ES   1    045 20.36                             122    0.08 6  204 293 
 ZAR  HZ I         045 26.43        59.9 0.32                           204 293 
 SML  HZ EP   1    044 58.56                             117   -0.90 6  245 336 
 SML  HN ES   1    045 27.71                             117   -0.29 6  245 336 
 CHI  HZ EP        045  0.51                             117    0.34 8  247 195 
 CHI  HN ES   1    045 28.46                             117   -0.82 6  247 195 
 CHI  HE ES   1    045 29.24                             117            247 195 
 CHI  HZ I         045 36.96        25.1 0.51                           247 195 
 ROSC BZ EP   4    045  2.38                             116    1.78 0  251 211 
 HEL  HZ EP   1    045  3.43                             114    0.62 6  271 256 
 HEL  HN ES   1    045 33.34                             114   -0.63 6  271 256 
 HEL  HZ I         045 41.73        25.6 0.55                           271 256 
 VIL  SZ EP   1    045  5.51                             112   -0.40 5  302 192 
 VIL  SE ES   1    045 39.57                             112    0.07 5  302 192 
 VIL  SZ I         045 50.40        32.0 0.53                           302 192 
 TOL  SZ EP   1    045 11.62                             109    0.82 5  342 225 
 TOL  SZ I         045 56.61        16.0 0.55                           342 225 
 MON  HZ EP   4    045  9.47                             108   -2.35 0  354 309 
 MON  HN ES   4    045 47.92                             108   -2.09 0  354 309 
                                                                                
