 2010  622 0719 50.4 L   7.075 -73.595 18.5  RSN  6 0.5 1.7LRSN                1
 GAP=129        1.08       3.9     7.5  5.9  0.2701E+01 -0.3349E+02 -0.3545E+01E
 Epicentro: SAN VICENTE DE CHUCURI - SANTANDER                                 3
 ACTION:UP  10-08-24 10:12 OP:vdl  STATUS:               ID:20100622071950 L   I
 2010-06-22-0717-29S.COL___118                                                 6
 STAT SP IPHASW D HRMM SECON CODA AMPLIT PERI AZIMU VELO SNR AR TRES W  DIS CAZ7
 BRR  HZ IP     C  719 53.87                             142    -0.310   13 286 
 BRR  HN ES   1    719 57.68                             142     0.6 7   13 286 
 BRR  HZ I         719 58.12       311.6 0.12                            13 286 
 BAR2 SZ EP   1    720  2.08                             103    -0.1 7   70 140 
 GUE  SZ EP        720  7.80                              98    -0.610  112  41 
 GRA  SZ EP        720 10.78                              56     0.510  125  44 
 GRA  SZ ES   2    720 26.82                              56     1.1 5  125  44 
 OCA  SZ EP        720 11.19                              56     0.010  132  13 
 OCA  SZ ES   1    720 27.01                              56    -0.3 7  132  13 
 OCA  SZ I         720 29.62         8.5 0.33                           132  13 
 RUS  HZ EP        720 12.96                              56     0.1 9  142 157 
 RUS  HN ES   2    720 29.99                              56    -0.3 5  142 157 
 RUS  HZ I         720 31.63         8.4 0.12                           142 157 
                                                                                
