 2013  222 0537 14.0 L   6.824 -73.151146.0  RSN 18 0.5 2.9LRSN 3.3WRSN        1
 SPEC AVERAGE  MO 14.1 ST 13.6 OM  2.6 f0 3.83 R0.3911 AL 2.58 WI 23.2 MW  3.3 3
 SPEC SD       MO  0.2 ST 17.6 OM  0.4 f00.560 R0.0518 AL      WI      MW  0.2 3
 GAP= 70        0.94       3.2     3.4  5.4 -0.1507E+00  0.2782E+01  0.1072E+01E
 Epicentro: LOS SANTOS - SANTANDER                                             3
 SPEC ZAR HH N MO 14.3 ST 13.7 OM  2.5 f0 3.69 R0.3984 AL 1.67 WI 41.4 MW  3.5 3
 SPEC ZAR HH N T 538 7 K 0.000 GD  250 VS 4.20 DE 3.20 Q0300.0 QA 0.60 VS 4.20 3
 SPEC TAM HH E MO 13.9 ST  7.3 OM  2.2 f0 3.98 R0.3693 AL 2.36 WI 15.1 MW  3.2 3
 SPEC TAM HH E T 538 0 K 0.000 GD  213 VS 4.20 DE 3.20 Q0300.0 QA 0.60 VS 4.20 3
 SPEC OCA HH Z MO 14.0 ST  6.3 OM  2.3 f0 3.49 R0.4212 AL 2.61 WI 27.3 MW  3.3 3
 SPEC OCA HH Z T 538 0 K 0.000 GD  215 VS 4.20 DE 3.20 Q0300.0 QA 0.60 VS 4.20 3
 SPEC OCA HH N MO 14.5 ST 62.7 OM  2.8 f0 5.12 R0.2871 AL 3.92 WI 20.1 MW  3.6 3
 SPEC OCA HH N T 538 2 K 0.000 GD  215 VS 4.20 DE 3.20 Q0300.0 QA 0.60 VS 4.20 3
 SPEC PTB HH E MO 14.1 ST  7.6 OM  2.4 f0 3.49 R0.4212 AL 1.94 WI 24.6 MW  3.4 3
 SPEC PTB HH E T 53757 K 0.000 GD  207 VS 4.20 DE 3.20 Q0300.0 QA 0.60 VS 4.20 3
 SPEC RUS HH N MO 13.6 ST  2.7 OM  2.0 f0 3.53 R0.4164 AL 2.57 WI 11.9 MW  3.0 3
 SPEC RUS HH N T 53754 K 0.000 GD  178 VS 4.20 DE 3.20 Q0300.0 QA 0.60 VS 4.20 3
 SPEC HEL HH N MO 14.0 ST  7.6 OM  2.1 f0 3.84 R0.3828 AL 2.46 WI 19.3 MW  3.3 3
 SPEC HEL HH N T 53823 K 0.000 GD  308 VS 4.20 DE 3.20 Q0300.0 QA 0.60 VS 4.20 3
 SPEC CHI HH N MO 13.9 ST  7.8 OM  2.0 f0 4.28 R0.3435 AL 3.79 WI 24.5 MW  3.2 3
 SPEC CHI HH N T 53819 K 0.000 GD  290 VS 4.20 DE 3.20 Q0300.0 QA 0.60 VS 4.20 3
 SPEC BRR HH E MO 14.2 ST  6.3 OM  2.6 f0 3.06 R0.4804 AL 1.94 WI 24.8 MW  3.4 3
 SPEC BRR HH E T 53750 K 0.000 GD  161 VS 4.20 DE 3.20 Q0300.0 QA 0.60 VS 4.20 3
 ACTION:UPD 13-03-12 09:34 OP:ep   STATUS:               ID:20130222053714 L   I
 2013-02-22-0535-49M.COL___185                                                 6
 STAT SP IPHASW D HRMM SECON CODA AMPLIT PERI AZIMU VELO AIN AR TRES W  DIS CAZ7
 BAR2 SZ EP        537 33.81                             169    0.1210 25.9 188 
 BAR2 SZ ES   1    537 48.27                             169   -0.79 7 25.9 188 
 BAR2 SZ I         537 51.10       264.7 0.28            160           25.9 188 
 BRR  HZ IP     C  537 35.63                             153    0.5810 69.5 297 
 BRR  HE ES   1    537 52.25                             153    0.76 7 69.5 297 
 BRR  HZ I         537 57.30       209.1 0.14            146           69.5 297 
 PAM  SZ EP        537 36.56                             151    0.4410 75.7  41 
 PAM  SN ES   1    537 53.33                             151   -0.05 7 75.7  41 
 PAM  SZ I         537 55.94       173.8 0.52            151           75.7  41 
 RUS  HZ EP        537 37.87                             143   -0.0810  103 176 
 RUS  HN ES   1    537 56.07                             143   -0.57 7  103 176 
 RUS  HZ I         537 58.37        48.9 0.24            133            103 176 
 PTB  HZ EP        537 40.50                             132   -0.46 9  148 258 
 PTB  HE ES   1    538  1.81                             132   -0.20 7  148 258 
 PTB  HZ I         538  4.34       139.6 0.16            123            148 258 
 TAM  HZ IP     D  537 42.24                             130    0.45 9  156 106 
 TAM  HE ES   1    538  3.34                             130   -0.14 7  156 106 
 TAM  HZ I         538  4.29        53.9 0.24            124            156 106 
 OCA  HZ EP        537 41.98                             130   -0.07 9  158 353 
 OCA  HN ES   1    538  3.31                             130   -0.63 7  158 353 
 OCA  HZ I         538  7.01       150.9 0.56            125            158 353 
 ZAR  HZ EP   1    537 46.65                             122    0.37 6  203 291 
 ZAR  HN ES   1    538 12.28                             122    0.80 6  203 291 
 ZAR  HZ I         538 17.48       134.4 0.34            115            203 291 
 CHI  HZ EP   1    537 52.22                             117    0.27 6  251 195 
 CHI  HN ES   1    538 21.44                             117   -0.13 6  251 195 
 CHI  HZ I         538 25.80        27.9 0.30            109            251 195 
 ROSC BZ EP   1    537 53.06                             116    0.73 6  255 211 
 ROSC BZ I         538 30.30        67.8 0.48            109            255 211 
 HEL  HZ EP   1    537 54.22                             115    0.01 6  272 255 
 HEL  HN ES   2    538 25.27                             115   -0.33 4  272 255 
 HEL  HZ I         538 33.09        54.5 0.40            108            272 255 
 URE  HZ EP   1    537 54.05                             114   -0.84 6  282 291 
 VIL  SZ EP   1    537 57.55                             112   -0.14 5  306 191 
 VIL  SZ I         538 35.96        43.1 0.28            105            306 191 
 RREF HZ EP   1    538  0.10                             111   -0.18 5  323 229 
 RREF HN ES   2    538 35.72                             111   -0.68 3  323 229 
 RREF HZ I         538 42.96        45.2 0.22            104            323 229 
 COD  HE ES   1    538 38.09                             109   -1.45 5  346 355 
 COD  HZ I         538 45.56        11.2 0.54            104            346 355 
 SDV  BZ EP   1    538  3.53                             108   -0.35 5  359  51 
 YOT  HZ EP   1    538 16.91                             103   -0.28 4  473 229 
 SMAR HZ EP   1    538 19.41                             102   -0.12 3  494 346 
                                                                                
