 2014 1022 0620  8.6 L   6.783 -73.175142.0  RSN  5 0.4 1.5LRSN                1
 GAP=134        1.15       6.7     6.0  9.6 -0.7880E+01  0.1021E+02 -0.3234E+01E
 Epicentro: LOS SANTOS - SANTANDER                                             3
 ACTION:UPD 14-11-29 23:54 OP:nd   STATUS:               ID:20141022062008 L   I
 OLDACT:UP  14-10-24 21:59 OP:cam  STATUS:               ID:20141022061743     3
 OLDACT:REG 14-10-23 19:37 OP:mh   STATUS:               ID:20141022061743     3
 2014-10-22-0617-43M.COL___277                                                 6
 STAT SP IPHASW D HRMM SECON CODA AMPLIT PERI AZIMU VELO AIN AR TRES W  DIS CAZ7
 BAR2 SZ EP        620 27.36                             171   -0.3410 21.1 182 
 BAR2 SZ ES        620 41.97                             171   -0.6510 21.1 182 
 BAR2 SZ I         620 44.05         6.1 0.22            173           21.1 182 
 BRR  HN ES        620 45.99                             152    0.6910 69.3 301 
 BRR  HN I         620 51.15         6.3 0.24            152           69.3 301 
 PAM  SZ EP        620 30.73                             149    0.1310 80.9  40 
 PAM  SN ES        620 47.70                             149   -0.0910 80.9  40 
 PAM  SZ I         620 49.75         5.2 0.48            152           80.9  40 
 RUS  HN ES        620 50.55                             143    0.5710 99.0 174 
 RUS  HN I         620 52.10         8.2 0.32            148           99.0 174 
 PTB  HZ EP        620 34.98                             132    0.07 9  144 259 
 PTB  HN ES        620 55.04                             132   -0.41 9  144 259 
 PTB  HZ I         620 57.87         2.7 0.30            134            144 259 
                                                                                
