 2015  322 0239 53.0 L   6.871 -73.353119.1  RSN 11 0.5 1.8LRSN                1
 GAP= 94        1.30       3.3     4.1  6.9 -0.2336E+01  0.1052E+02 -0.2019E+01E
 Epicentro: SAN VICENTE DE CHUCURI - SANTANDER                                 3
 ACTION:UPD 15-04-30 16:28 OP:nd   STATUS:               ID:20150322023953 L   I
 OLDACT:REG 15-03-22 12:39 OP:stll STATUS:               ID:20150322023749     3
 2015-03-22-0237-49M.COL___269                                                 6
 STAT SP IPHASW D HRMM SECON CODA AMPLIT PERI AZIMU VELO AIN AR TRES W  DIS CAZ7
 BAR2 EZ EP     C  240 10.02                             162    0.2310 36.1 149 
 BAR2 EZ ES        240 23.04                             162    0.1310 36.1 149 
 BRR  HZ EP     D  240 10.36                             157    0.4310 47.5 303 
 BRR  HN ES        240 23.55                             157    0.3910 47.5 303 
 BRR  HZ I         240 26.09        18.7 0.14            156           47.5 303 
 PAM  SZ EP        240 12.82                             141   -0.4310 88.8  54 
 PAM  SZ I         240 14.28        11.4 0.18            146           88.8  54 
 PAM  SN ES        240 29.22                             141    0.1410 88.8  54 
 RUS  HZ EP        240 15.07                             134   -0.1110  112 165 
 RUS  HE ES        240 32.43                             134   -0.0910  112 165 
 RUS  HZ I         240 35.31         4.5 0.20            137            112 165 
 PTB  HZ EP        240 15.35                             130   -0.5710  127 253 
 PTB  HN ES        240 33.30                             130   -0.5310  127 253 
 PTB  HZ I         240 37.39        12.4 0.32            130            127 253 
 OCA  HZ EP     C  240 18.10                             125   -0.34 9  151   1 
 OCA  HN ES        240 37.93                             125   -0.38 9  151   1 
 OCA  HZ I         240 39.27        31.8 0.18            127            151   1 
 SPBC HZ EP        240 18.69                             123   -0.19 9  157 211 
 SPBC HN ES        240 39.14                             123    0.05 9  157 211 
 SPBC HZ I         240 44.71         8.6 0.16            125            157 211 
 ZAR  HZ EP        240 21.92                             119    0.71 9  180 293 
 ZAR  HN ES        240 43.58                             119    0.34 9  180 293 
 ZAR  HZ I         240 48.95         7.2 0.38            121            180 293 
 SML  HZ EP        240 25.88                             113   -0.55 8  228 340 
 SML  HE ES        240 52.59                             113    0.05 8  228 340 
 HEL  HZ EP        240 31.33                             111    1.66 8  252 253 
 HEL  HN ES        240 57.29                             111   -1.02 8  252 253 
 HEL  HZ I         241  5.11         2.9 0.22            112            252 253 
 GUY2CHZ EP        240 34.71                             108    0.81 7  288 231 
 GUY2CHE ES        241  5.34                             108   -0.50 7  288 231 
 GUY2CHZ I         241 13.81         2.8 0.38                           288 231 
                                                                                
