 2013  322 0634 39.6 L   6.749 -73.134147.5  RSN  5 0.2 1.9LRSN                1
 GAP=140        0.63       3.4     3.6  4.9 -0.8723E+00  0.2277E+01  0.1178E+01E
 Epicentro: LOS SANTOS - SANTANDER                                             3
 ACTION:UPD 13-04-09 14:04 OP:ep   STATUS:               ID:20130322063439 L   I
 2013-03-22-0630-00M.COL___245                                                 6
 STAT SP IPHASW D HRMM SECON CODA AMPLIT PERI AZIMU VELO AIN AR TRES W  DIS CAZ7
 BAR2 SZ EP     D  634 59.34                             173    0.0410 18.1 197 
 BAR2 SZ ES   1    635 14.93                             173    0.23 7 18.1 197 
 BRR  HZ EP        635  1.24                             151    0.1210 75.2 302 
 BRR  HN ES        635 18.04                             151    0.1010 75.2 302 
 BRR  HN I         635 21.97        13.8 0.16            150           75.2 302 
 PAM  SZ EP        635  2.41                             150    0.2310 81.1  36 
 PAM  SN ES        635 19.51                             150   -0.3110 81.1  36 
 PAM  SN I         635 20.06        13.8 0.48            151           81.1  36 
 RUS  HZ EP        635  3.30                             146    0.2310 94.8 177 
 RUS  HN ES     C  635 21.24                             146   -0.1810 94.8 177 
 PTB  HZ EP        635  6.21                             132   -0.48 9  148 261 
 PTB  HN ES   1    635 27.95                             132    0.10 7  148 261 
 PTB  HN I         635 29.21        12.7 0.22            133            148 261 
                                                                                
