 2012  422 0927 25.0 L   6.757 -73.109148.0  RSN  8 0.4 1.9LRSN                1
 GAP=143        0.87       5.0     5.9  7.9 -0.4955E+01  0.1932E+02 -0.5922E+01E
 Epicentro: LOS SANTOS - SANTANDER                                             3
 ACTION:UPD 12-07-05 11:55 OP:tino STATUS:               ID:20120422092725 L   I
 2012-04-22-0920-00M.COL___186                                                 6
 STAT SP IPHASW D HRMM SECON CODA AMPLIT PERI AZIMU VELO AIN AR TRES W  DIS CAZ7
 BAR2 SZ EP   1    927 44.54                             172    -0.3 7   20 204 
 BAR2 SZ ES   1    928  0.70                             172     0.4 7   20 204 
 BAR2 SZ I         928  2.05        18.0 0.28                            20 204 
 BRR  HZ EP   1    927 47.11                             151     0.4 7   77 300 
 BRR  HZ I         927 47.39        44.5 0.15                            77 300 
 BRR  HN ES   1    928  3.96                             151     0.3 7   77 300 
 PAM  SN ES   1    928  4.81                             151    -0.3 7   79  35 
 PAM  SZ I         928  6.55         3.8 0.23                            79  35 
 RUS  HN ES        928  6.95                             146    -0.110   96 178 
 PTB  HZ EP   1    927 51.94                             132    -0.5 7  151 261 
 PTB  HN ES   1    928 13.12                             132    -0.7 7  151 261 
 PTB  HZ I         928 16.12         6.5 0.08                           151 261 
 OCA  SZ EP   1    927 53.81                             129    -0.1 7  165 352 
 ZAR  HN ES   2    928 24.24                             122     0.2 4  210 293 
 ZAR  HZ I         928 31.52         8.2 0.30                           210 293 
 NOR  SZ EP   1    928  1.57                             119     0.7 6  235 236 
 NOR  SN ES   1    928 29.00                             119     0.1 6  235 236 
                                                                                
