 2012  722 0604  3.6 L   6.777 -73.135142.7  RSN 10 0.5 1.8LRSN                1
 GAP=139        1.10       4.8     5.3  8.2 -0.5513E+01  0.1275E+02 -0.3993E+01E
 Epicentro: LOS SANTOS - SANTANDER                                             3
 ACTION:UPD 12-08-14 11:46 OP:ep   STATUS:               ID:20120722060403 L   I
 2012-07-22-0600-00M.COL___215                                                 6
 STAT SP IPHASW D HRMM SECON CODA AMPLIT PERI AZIMU VELO AIN AR TRES W  DIS CAZ7
 BAR2 SZ EP        6 4 22.88                             171     0.110   21 194 
 BAR2 SZ ES   1    6 4 37.40                             171    -0.4 7   21 194 
 BAR2 SZ I         6 4 39.03        15.7 0.40            169             21 194 
 BRR  HZ EP        6 4 24.68                             151     0.110   74 300 
 BRR  HZ I         6 4 25.13        21.2 0.16            149             74 300 
 BRR  HN ES   1    6 4 41.77                             151     0.9 7   74 300 
 PAM  SZ EP        6 4 25.82                             150     0.310   79  38 
 PAM  SN ES   1    6 4 42.59                             150    -0.1 7   79  38 
 RUS  HZ EP   1    6 4 26.73                             144    -0.1 7   98 177 
 RUS  HN ES   1    6 4 45.21                             144     0.2 7   98 177 
 RUS  HZ I         6 4 46.50         9.1 0.30            145             98 177 
 PTB  HZ EP        6 4 29.49                             131    -0.9 9  148 260 
 PTB  HN ES   1    6 4 50.58                             131    -0.7 7  148 260 
 PTB  HZ I         6 4 54.05         5.2 0.17            130            148 260 
 OCA  HZ EP        6 4 31.77                             129    -0.2 9  163 353 
 OCA  HN ES   1    6 4 54.05                             129     0.0 7  163 353 
 ZAR  HZ EP   1    6 4 36.52                             121     0.5 6  206 293 
 ZAR  HN ES   1    6 5  0.91                             121    -0.5 6  206 293 
 ZAR  HZ I         6 5  6.80         9.2 0.23            121            206 293 
 NOR  SN ES   1    6 5  7.55                             118     0.8 6  234 235 
 CHI  HN ES   2    6 5  9.64                             117    -0.3 4  246 196 
 HEL  HZ EP   1    6 4 44.17                             114     0.4 6  273 256 
 HEL  HN ES   1    6 5 15.59                             114     0.6 6  273 256 
 HEL  HZ I         6 5 21.44         3.5 0.35            114            273 256 
