 2013  522 0952  1.7 L   6.773 -73.111145.1  RSN  5 0.4 1.5LRSN                1
 GAP=193        0.75       6.1     8.3  9.1  0.1185E+02  0.2534E+02  0.2084E+02E
 Epicentro: LOS SANTOS - SANTANDER                                             3
 ACTION:UPD 13-06-20 09:52 OP:ep   STATUS:               ID:20130522095201 L   I
 2013-05-22-0950-00M.COL___259                                                 6
 STAT SP IPHASW D HRMM SECON CODA AMPLIT PERI AZIMU VELO AIN AR TRES W  DIS CAZ7
 BAR2 SZ ES   1    952 35.76                             171   -0.65 7 21.4 202 
 GIR2 SZ ES   1    952 36.69                             166   -0.05 7 35.1 345 
 BRR  HZ EP   1    952 22.96                             151   -0.07 7 76.0 299 
 BRR  HE ES   1    952 40.16                             151    0.47 7 76.0 299 
 BRR  HZ I         952 40.83         7.3 0.52            152           76.0 299 
 RUS  HZ EP   1    952 25.10                             145   -0.03 7 97.4 178 
 RUS  HN ES   1    952 43.92                             145    0.50 7 97.4 178 
 RUS  HZ I         952 45.51         4.2 0.28            145           97.4 178 
 NOR  HN ES   1    953  5.19                             118   -0.28 6  236 236 
                                                                                
