 2017  622 0649 50.9 L   6.805 -73.171155.9  RSN 11 0.3 1.8LRSN                1
 GAP=211        0.77       3.8     4.3  6.2  0.8527E+01 -0.7031E+01  0.1455E+01E
 Epicentro: LOS SANTOS - SANTANDER                                             3
 ACTION:UPD 17-09-14 16:54 OP:jn   STATUS:               ID:20170622064950 L   I
 OLDACT:DUP 17-06-22 16:17 OP:lv   STATUS:               ID:20170622064731d    3
 2017-06-22-0648-00M.COL___348                                                 6
 STAT SP IPHASW D HRMM SECON CODA AMPLIT PERI AZIMU VELO AIN AR TRES W  DIS CAZ7
 BRR  HZ IP     D  650 13.12                             155    0.1310 68.6 299 
 BRR  HN ES        650 30.33                             155    0.0910 68.6 299 
 BRR  HZ I         650 32.86         5.8 0.19            152           68.6 299 
 PTB  HZ EP        650 18.30                             135   -0.16 9  145 258 
 PTB  HE ES        650 39.98                             135    0.00 9  145 258 
 PTB  HZ I         650 41.71         4.2 0.12            131            145 258 
 SPBC HZ EP        650 20.30                             131    0.25 9  162 218 
 SPBC HE ES        650 42.78                             131   -0.02 9  162 218 
 SPBC HZ I         650 46.15         7.7 0.10            128            162 218 
 YPLC HZ EP        650 21.70                             128    0.11 9  179 151 
 YPLC HN ES        650 45.49                             128   -0.06 9  179 151 
 YPLC HZ I         650 48.46         8.3 0.07            128            179 151 
 ZAR  HZ EP        650 24.15                             125    0.43 9  201 292 
 ZAR  HE ES        650 48.75                             125   -0.60 9  201 292 
 CHI  HZ EP        650 29.54                             119    0.41 8  248 195 
 CHI  HN ES        650 58.95                             119   -0.02 8  248 195 
 CHI  HZ I         651  2.60         5.8 0.10            117            248 195 
 ROSC BZ EP   4    650 31.99                             119    2.53 0  252 210 
 ROSC BN ES   4    651  3.68                             119    4.12 0  252 210 
 ROSC BZ I         651  6.17         9.4 0.20            117            252 210 
 HEL  HZ EP   4    650 33.74                             117    2.40 0  270 256 
 HEL  HN ES   4    651  6.87                             117    3.96 0  270 256 
 HEL  HZ I         651 11.82         2.9 0.32            115            270 256 
 GUY2CHZ EP   4    650 36.51                             114    1.76 0  299 234 
 GUY2CHN ES   4    651 10.65                             114    1.67 0  299 234 
 GUY2CHZ I         651 17.69         3.8 0.27                           299 234 
 PTGC HZ EP        650 34.48                             113   -0.89 7  310 158 
 PTGC HN ES   4    651  8.06                             113   -2.01 0  310 158 
 PTGC HZ I         651 11.34         3.1 0.51            113            310 158 
 CBOC HN ES   4    651 17.69                             112    3.03 0  331 252 
 SJC  HZ EP   4    650 45.50                             107   -1.06 0  407 327 
 SJC  HN ES   4    651 28.85                             107   -1.15 0  407 327 
 SJC  HZ I         651 36.34         1.2 0.33            107            407 327 
                                                                                
