 2013  322 0341 29.2 L   6.744 -73.167143.1  RSN  6 0.4 1.9LRSN                1
 GAP=136        0.96       5.4     5.2  7.8 -0.3183E-01  0.2484E+01 -0.2253E+00E
 Epicentro: VILLANUEVA - SANTANDER                                             3
 ACTION:UPD 13-04-09 14:04 OP:ep   STATUS:               ID:20130322034129 L   I
 2013-03-22-0340-00M.COL___245                                                 6
 STAT SP IPHASW D HRMM SECON CODA AMPLIT PERI AZIMU VELO AIN AR TRES W  DIS CAZ7
 BAR2 SZ ES   1    342  3.20                             173   -0.21 7 16.8 186 
 BRR  HZ EP        341 50.39                             152    0.2110 72.4 304 
 BRR  HN ES        342  7.15                             152    0.6510 72.4 304 
 BRR  HN I         342 10.86        21.4 0.18            151           72.4 304 
 PAM  SZ EP     C  341 51.23                             148   -0.3410 83.7  38 
 PAM  SN ES   1    342  8.67                             148   -0.32 7 83.7  38 
 RUS  HZ EP        341 52.59                             145    0.2810 94.6 174 
 RUS  HN ES        342 10.34                             145    0.0510 94.6 174 
 RUS  HN I         342 11.20         5.4 0.40            149           94.6 174 
 PTB  HZ EP        341 55.73                             132    0.04 9  144 261 
 PTB  HN ES        342 15.63                             132   -0.68 9  144 261 
 PTB  HN I         342 18.97         6.9 0.18            133            144 261 
 OCA  HN I         342 22.47        21.8 0.30            129            166 354 
                                                                                
