 2017  122 0917  3.7 L   6.790 -73.167144.5  RSN  8 0.4 1.6LRSN                1
 GAP=134        0.91       3.6     3.9  5.6  0.1823E+01  0.5621E+01  0.3456E+01E
 Epicentro: LOS SANTOS - SANTANDER                                             3
 ACTION:UPD 17-05-22 16:02 OP:jn   STATUS:               ID:20170122091703 L   I
 OLDACT:UP  17-01-22 18:17 OP:dani STATUS:               ID:20170122090745d    3
 OLDACT:UP  17-01-22 18:16 OP:dani STATUS:               ID:20170122090745d    3
 OLDACT:DUP 17-01-22 18:14 OP:dani STATUS:               ID:20170122090745d    3
 OLDACT:UP  17-01-22 18:13 OP:dani STATUS:               ID:20170122090744     3
 OLDACT:REG 17-01-22 13:24 OP:dani STATUS:               ID:20170122090744     3
 2017-01-22-0908-00M.COL___331                                                 6
 STAT SP IPHASW D HRMM SECON CODA AMPLIT PERI AZIMU VELO AIN AR TRES W  DIS CAZ7
 BAR2 EZ EP     D  917 23.11                             171   -0.0810 22.0 184 
 BAR2 EZ ES        917 38.44                             171    0.0810 22.0 184 
 BAR2 EZ I         917 40.37         8.0 0.22            168           22.0 184 
 BRR  HZ EP        917 24.82                             153    0.1610 69.7 300 
 BRR  HN ES        917 41.53                             153    0.5510 69.7 300 
 BRR  HZ I         917 43.57         9.6 0.28            153           69.7 300 
 PAM  EZ EP     D  917 25.94                             150   -0.0210 79.7  40 
 PAM  EN ES        917 42.89                             150   -0.4010 79.7  40 
 PAM  EZ I         917 45.18         7.1 0.55            154           79.7  40 
 RUS  HZ EP        917 27.50                             144    0.2010 99.7 175 
 RUS  HE ES        917 45.35                             144   -0.3310 99.7 175 
 RUS  HZ I         917 47.65         5.8 0.18            143           99.7 175 
 PTB  HZ EP        917 29.62                             132   -0.75 9  145 259 
 PTB  HN ES        917 50.96                             132   -0.18 9  145 259 
 PTB  HZ I         917 53.09         5.3 0.15            132            145 259 
 ZAR  HZ EP        917 36.19                             122    0.28 9  202 293 
 ZAR  HN ES        918  1.06                             122    0.05 9  202 293 
 ZAR  HZ I         918  6.86         4.8 0.13            123            202 293 
 CHI  HZ EP        917 41.78                             117    0.59 8  247 195 
 CHI  HE ES        918 10.58                             117    0.18 8  247 195 
 CHI  HZ I         918 19.83         1.3 0.32            117            247 195 
 URE  HE ES   3    918 14.08                             113   -2.29 2  282 292 
                                                                                
