 2014  922 0514 53.8 L   6.763 -73.126142.9  RSN  5 0.5 1.1LRSN                1
 GAP=237        1.38       8.1     8.8 10.1  0.1658E+02  0.1185E+02  0.7497E+01E
 Epicentro: LOS SANTOS - SANTANDER                                             3
 ACTION:UPD 14-10-03 23:07 OP:nd   STATUS:               ID:20140922051453 L   I
 OLDACT:UP  14-09-22 14:07 OP:cam  STATUS:               ID:20140922051000     3
 OLDACT:REG 14-09-22 12:46 OP:cam  STATUS:               ID:20140922051000     3
 2014-09-22-0510-00M.COL___252                                                 6
 STAT SP IPHASW D HRMM SECON CODA AMPLIT PERI AZIMU VELO AIN AR TRES W  DIS CAZ7
 BAR2 SZ EP        515 13.39                             172    0.3710 19.9 198 
 BAR2 SZ ES        515 27.08                             172   -0.9310 19.9 198 
 BAR2 SZ I         515 29.30         4.5 0.26            169           19.9 198 
 BRR  HZ EP        515 15.14                             151    0.2810 75.1 300 
 BRR  HN ES        515 31.99                             151    0.6910 75.1 300 
 BRR  HZ I         515 40.66         2.3 0.48            150           75.1 300 
 RUS  HZ EP        515 16.72                             144   -0.2410 96.4 177 
 RUS  HN ES        515 35.37                             144    0.3310 96.4 177 
 RUS  HZ I         515 39.08         1.3 0.40            148           96.4 177 
 PTB  HZ EP        515 19.80                             131   -0.86 9  149 261 
 PTB  HN ES        515 41.24                             131   -0.38 9  149 261 
 PTB  HZ I         515 44.96         1.8 0.16            133            149 261 
 SPBC HZ EP        515 22.17                             129    0.26 9  161 221 
 SPBC HN ES        515 44.26                             129    0.42 9  161 221 
 SPBC HZ I         515 49.55         2.2 0.20            131            161 221 
                                                                                
