 2016  622 0803 20.5 L   6.782 -73.127156.0  RSN  6 0.4 1.3LRSN                1
 GAP=257        1.11       6.9     7.1  8.0  0.3840E+01  0.4101E+01 -0.2624E+01E
 Epicentro: LOS SANTOS - SANTANDER                                             3
 ACTION:UPD 16-07-21 22:21 OP:rebc STATUS:               ID:20160622080320 L   I
 OLDACT:REG 16-06-22 14:02 OP:ak   STATUS:               ID:20160622075742     3
 2016-06-22-0757-42M.COL___316                                                 6
 STAT SP IPHASW D HRMM SECON CODA AMPLIT PERI AZIMU VELO AIN AR TRES W  DIS CAZ7
 BAR2 EZ EP        8 3 41.05                             171   -0.3310 21.9 196 
 BAR2 EZ ES        8 3 57.32                             171   -0.3110 21.9 196 
 BAR2 EZ I         8 3 58.98         3.1 0.36                          21.9 196 
 BRR  HZ EP        8 3 43.26                             153    0.3110 73.9 299 
 BRR  HE ES        8 4  1.02                             153    0.5910 73.9 299 
 BRR  HZ I         8 4  4.97         2.2 0.07                          73.9 299 
 PTB  HZ EP        8 3 48.27                             134   -0.24 9  149 260 
 PTB  HN ES        8 4  9.54                             134   -0.78 9  149 260 
 PTB  HZ I         8 4 11.39         2.7 0.26                           149 260 
 SPBC HZ EP        8 3 50.25                             131    0.42 9  163 220 
 SPBC HN ES        8 4 13.11                             131    0.44 9  163 220 
 SPBC HZ I         8 4 18.73         3.5 0.08                           163 220 
 ZAR  HZ EP        8 3 53.85                             124   -0.09 8  207 292 
 ZAR  HN ES        8 4 19.95                             124   -0.04 8  207 292 
 ZAR  HZ I         8 4 26.20         1.8 0.34                           207 292 
 GUY2CHZ EP   9    8 4  6.46                             114    1.76 0  302 235 
 GUY2CHN ES        8 4 41.74                                    0.84 7  302 235 
 GUY2CHZ I         8 4 51.34         1.5 0.68                           302 235 
                                                                                
