 2016 1222 0758 33.4 L   6.680 -73.140154.7  RSN  5 0.3 1.1LRSN                1
 GAP=142        0.71       4.8     4.5  5.5  0.4803E+01 -0.2083E+01 -0.4743E+01E
 Epicentro: VILLANUEVA - SANTANDER                                             3
 ACTION:UPD 17-01-11 20:17 OP:rebc STATUS:               ID:20161222075833 L   I
 OLDACT:REG 16-12-22 13:14 OP:cog  STATUS:               ID:20161222075745     3
 2016-12-22-0758-00M.COL___356                                                 6
 STAT SP IPHASW D HRMM SECON CODA AMPLIT PERI AZIMU VELO AIN AR TRES W  DIS CAZ7
 BAR2 EZ EP        758 54.08                             176    0.1810 10.7 206 
 BAR2 EZ ES        759  9.45                             176   -0.4610 10.7 206 
 BAR2 EZ I         759 10.15         3.0 0.68            172           10.7 206 
 BRR  HZ EP        758 56.03                             152    0.1110 78.9 307 
 BRR  HN ES        759 13.82                             152    0.3110 78.9 307 
 BRR  HZ I         759 15.86         2.3 0.46            149           78.9 307 
 RUS  HZ EP        758 57.31                             149    0.1810 87.2 176 
 RUS  HN ES        759 15.81                             149    0.1410 87.2 176 
 PAM  EZ EP        758 57.07                             149   -0.0910 87.7  34 
 PTB  HZ EP        759  0.50                             134   -0.46 9  146 264 
 PTB  HN ES        759 22.52                             134    0.04 9  146 264 
 PTB  HZ I         759 27.58         1.3 0.38            132            146 264 
                                                                                
