 2012  122 0851 12.5 L   6.768 -73.106147.4  RSN  6 0.2 1.4LRSN                1
 GAP=143        0.56       3.8     3.9  5.8 -0.4695E+00  0.2400E+01  0.5181E+00E
 Epicentro: LOS SANTOS - SANTANDER                                             3
 ACTION:UP  12-02-03 08:19 OP:REBC STATUS:               ID:20120122085112 L   I
 2012-01-22-0850-00M.COL___186                                                 6
 STAT SP IPHASW D HRMM SECON CODA AMPLIT PERI AZIMU VELO SNR AR TRES W  DIS CAZ7
 BAR2 SZ EP   1    851 32.27                             171    -0.1 7   21 203 
 BAR2 SZ ES   2    851 47.82                             171     0.1 5   21 203 
 BAR2 SZ I         851 49.64         4.6 0.29                            21 203 
 BRR  HZ EP   1    851 34.23                             151     0.0 7   77 299 
 BRR  HN ES   1    851 51.30                             151     0.2 7   77 299 
 BRR  HZ I         851 52.17         6.2 0.18                            77 299 
 PAM  SZ EP        851 35.01                             151     0.110   78  35 
 PAM  SN ES   1    851 52.21                             151    -0.2 7   78  35 
 RUS  HZ EP   1    851 36.64                             145     0.4 7   97 178 
 RUS  HN ES   1    851 54.44                             145    -0.2 7   97 178 
 RUS  HZ I         851 55.67         2.2 0.28                            97 178 
 PTB  HZ EP   1    851 39.50                             132    -0.5 7  151 260 
 PTB  HN ES   2    852  1.46                             132     0.1 5  151 260 
 ZAR  HN ES   2    852 11.42                             122     0.0 4  209 293 
 ZAR  HZ I         852 16.93         5.0 0.29                           209 293 
                                                                                
