 2017  722 0509  9.0 L   6.939 -73.075144.2  RSN  4 0.2 1.1LRSN                1
 GAP=256        0.46       6.8     4.5  4.8  0.1643E+02  0.2973E+01 -0.7028E+01E
 Epicentro: PIEDECUESTA - SANTANDER                                            3
 ACTION:UPD 17-08-30 15:35 OP:rebc STATUS:               ID:20170722050909 L   I
 OLDACT:REG 17-07-22 13:13 OP:dnl  STATUS:               ID:20170722050737     3
 2017-07-22-0508-00M.COL___380                                                 6
 STAT SP IPHASW D HRMM SECON CODA AMPLIT PERI AZIMU VELO AIN AR TRES W  DIS CAZ7
 BAR2 EZ EP   2    5 9 29.44                             164    0.55 5 40.1 197 
 BAR2 EZ ES        5 9 44.34                             164   -0.0810 40.1 197 
 BAR2 EZ I         5 9 47.23         1.8 0.76            177           40.1 197 
 BRR  HZ EP   9    5 9 32.14                             152    2.08 0 72.8 285 
 BRR  HN ES   2    5 9 48.45                                   -0.13 5 72.8 285 
 BRR  HZ I         5 9 56.26         3.9 0.24            150           72.8 285 
 RUS  HZ EP   2    5 9 33.87                             139    0.14 5  116 180 
 RUS  HN ES        5 9 53.01                             139   -0.0310  116 180 
 RUS  HZ I         5 9 53.91         1.7 0.36            155            116 180 
 PTB  HZ EP        5 9 36.64                             129   -0.23 9  159 254 
 PTB  HE ES        5 9 58.76                             129    0.15 9  159 254 
 PTB  HZ I         510  0.60         1.5 0.16            136            159 254 
                                                                                
