 2013  222 0400 21.7 L   6.797 -73.141148.3  RSN 13 0.4 2.6LRSN                1
 GAP= 71        0.81       3.1     2.9  5.1 -0.5727E+00  0.1756E+01  0.2583E+01E
 Epicentro: LOS SANTOS - SANTANDER                                             3
 ACTION:UPD 13-03-12 09:34 OP:ep   STATUS:               ID:20130222040021 L   I
 2013-02-22-0400-00M.COL___238                                                 6
 STAT SP IPHASW D HRMM SECON CODA AMPLIT PERI AZIMU VELO AIN AR TRES W  DIS CAZ7
 BAR2 SZ EP        4 0 41.61                             171   -0.0110 23.1 191 
 BAR2 SZ ES   1    4 0 56.99                             171   -0.18 7 23.1 191 
 BAR2 SZ I         4 0 58.42       112.7 0.48            170           23.1 191 
 BRR  HZ EP        4 0 43.55                             153    0.4110 71.8 299 
 BRR  HN ES   1    4 1  0.70                             153    0.82 7 71.8 299 
 BRR  HZ I         4 1  3.45        62.9 0.12            151           71.8 299 
 PAM  SZ EP        4 0 44.42                             151    0.2510 77.3  39 
 PAM  SN ES   1    4 1  1.24                             151   -0.47 7 77.3  39 
 PAM  SZ I         4 1  3.81        40.7 0.56            154           77.3  39 
 RUS  HZ EP   1    4 0 45.52                             144   -0.14 7  100 176 
 RUS  HN ES   1    4 1  4.16                             144   -0.21 7  100 176 
 RUS  HZ I         4 1  6.87        42.0 0.46            146            100 176 
 PTB  HZ EP   1    4 0 48.12                             132   -0.78 7  148 259 
 PTB  HN ES   1    4 1  9.64                             132   -0.49 7  148 259 
 PTB  HZ I         4 1 11.68        67.9 0.14            132            148 259 
 TAM  HZ IP     C  4 0 49.74                             131    0.22 9  155 105 
 TAM  HN ES   1    4 1 11.26                             131    0.04 7  155 105 
 OCA  HZ EP   1    4 0 50.08                             130   -0.15 7  161 353 
 OCA  HE ES   1    4 1 12.49                             130   -0.01 7  161 353 
 OCA  HZ I         4 1 18.00        33.2 0.28            131            161 353 
 ZAR  HZ EP   1    4 0 53.92                             123   -0.44 6  205 292 
 ZAR  HE ES   1    4 1 19.86                             123    0.02 6  205 292 
 ZAR  HZ I         4 1 25.85        37.4 0.11            123            205 292 
 CHI  HZ EP        4 0 59.60                             118    0.09 8  248 195 
 CHI  HN ES   1    4 1 28.75                             118   -0.26 6  248 195 
 CHI  HZ I         4 1 34.91        17.6 0.26            119            248 195 
 ROSC BZ EP   1    4 1  0.64                             117    0.70 6  253 211 
 HEL  HZ EP   1    4 1  2.71                             115    0.64 6  272 256 
 HEL  HE ES   1    4 1 32.97                             115   -0.60 6  272 256 
 HEL  HZ I         4 1 39.93        21.5 0.30            116            272 256 
 URE  HN ES   4    4 1 32.22                             114   -2.91 0  284 292 
 RREF HZ EP   1    4 1  7.78                             111   -0.18 5  322 229 
 RREF HN ES   1    4 1 44.61                             111    0.56 5  322 229 
 RREF HZ I         4 1 51.41        20.6 0.54            112            322 229 
 SDV  BZ EP   1    4 1 10.89                             109   -0.92 5  360  50 
                                                                                
