 2016  922 0522 52.1 L   6.842 -73.126146.5  RSN 25 0.5 2.4LRSN                1
 GAP= 71        1.17       2.5     2.8  4.7 -0.1244E+01  0.2579E+01  0.7441E+00E
 Epicentro: LOS SANTOS - SANTANDER                                             3
 ACTION:UPD 17-08-17 21:15 OP:lp   STATUS:               ID:20160922052252 L   I
 OLDACT:UP  16-09-23 00:47 OP:ar   STATUS:               ID:20160922051726     3
 OLDACT:UP  16-09-23 00:46 OP:ar   STATUS:               ID:20160922051726     3
 OLDACT:UP  16-09-23 00:41 OP:ar   STATUS:               ID:20160922051726     3
 OLDACT:REG 16-09-22 11:43 OP:and  STATUS:               ID:20160922051726     3
 2016-09-22-0518-00M.COL___363                                                 6
 STAT SP IPHASW D HRMM SECON CODA AMPLIT PERI AZIMU VELO AIN AR TRES W  DIS CAZ7
 BAR2 EZ IP     C  523 11.78                             169   -0.1410 28.3 193 
 BAR2 HN IP     D  523 11.78                             169   -0.1410 28.3 193 
 BAR2 EZ ES        523 27.14                             169   -0.2510 28.3 193 
 BAR2 EZ I         523 30.46        84.3 0.78            168           28.3 193 
 BRR  HZ EP        523 13.64                             153    0.3310 71.1 294 
 BRR  HN ES        523 30.66                             153    0.7910 71.1 294 
 BRR  HZ I         523 35.44        28.3 0.22            150           71.1 294 
 PAM  EZ IP     D  523 14.57                             152    0.4710 72.5  41 
 PAM  EE ES        523 31.83                             152    0.5610 72.5  41 
 PAM  EZ I         523 33.98        36.7 0.46            155           72.5  41 
 RUS  HZ EP        523 15.64                             143   -0.6010  105 177 
 RUS  HN ES        523 34.53                             143   -0.5510  105 177 
 RUS  HZ I         523 37.04        21.7 0.44            145            105 177 
 PTB  HZ EP        523 18.44                             132   -0.95 9  151 257 
 PTB  HE ES        523 40.16                             132   -0.54 9  151 257 
 PTB  HZ I         523 47.24        40.1 0.46            131            151 257 
 TAM  HE IP     C  523 19.93                             131    0.18 9  154 107 
 TAM  HZ IP     D  523 19.94                             131    0.19 9  154 107 
 TAM  HE ES        523 41.33                             131    0.00 9  154 107 
 TAM  HZ I         523 43.04        25.5 0.42            135            154 107 
 OCA  HZ EP        523 19.92                             131   -0.13 9  156 352 
 OCA  HE ES        523 41.56                             131   -0.31 9  156 352 
 OCA  HZ I         523 47.75        57.3 0.22            131            156 352 
 SPBC HZ EP        523 20.60                             128   -0.51 9  168 219 
 SPBC HN ES        523 43.14                             128   -0.62 9  168 219 
 ZAR  HZ EP        523 24.86                             122    0.25 9  204 291 
 ZAR  HN ES        523 50.16                             122    0.17 9  204 291 
 ZAR  HZ I         523 56.13        25.9 0.30            122            204 291 
 NOR  HZ EP        523 28.16                             118   -0.18 8  239 234 
 NOR  HE ES        523 56.38                             118   -0.23 8  239 234 
 NOR  HZ I         523 59.51        33.1 0.20            119            239 234 
 CHI  HZ EP        523 29.93                             117   -0.44 8  254 195 
 CHI  HE ES        524  0.55                             117    0.31 8  254 195 
 CHI  HZ I         524  7.38        14.7 0.42            118            254 195 
 ROSC BZ EP        523 31.51                             116    0.71 8  258 211 
 ROSC BN ES   4    524  3.94                             116    2.94 0  258 211 
 ROSC BZ I         524  7.76        37.5 0.45            117            258 211 
 HEL  HZ EP        523 33.45                             115    0.75 7  275 255 
 HEL  HN ES        524  4.73                             115    0.36 7  275 255 
 HEL  HZ I         524 10.04        13.5 0.40            115            275 255 
 URE  HZ EP        523 32.32                             114   -0.91 7  284 291 
 URE  HN ES   4    524  3.82                             114   -1.50 0  284 291 
 URE  HZ I         524 16.18        15.0 0.36            114            284 291 
 SOCV BZ EP        523 34.22                             113   -0.46 7  297  57 
 SOCV BN ES   4    524  5.79                             113   -2.11 0  297  57 
 GUY2CHZ EP        523 36.70                             112    0.47 7  306 234 
 GUY2CHN ES        524 11.53                             112    0.87 7  306 234 
 GUY2CHZ I         524 16.65        23.4 0.36                           306 234 
 VIL  EZ EP        523 36.51                             112    0.41 7  308 192 
 VIL  EE ES        524 11.55                             112    1.12 7  308 192 
 VIL  EZ I         524 18.84        15.6 0.34            113            308 192 
 PTGC HZ EP   4    523 34.57                             111   -1.81 0  312 159 
 PTGC HN ES   4    524  7.76                             111   -3.16 0  312 159 
 PTGC HZ I         524 11.25        11.3 0.24            113            312 159 
 LL6C HZ EP        523 36.85                             111   -0.45 7  320 357 
 LL6C HE ES        524 12.93                             111    0.36 7  320 357 
 LL6C HZ I         524 24.87         7.3 0.38            112            320 357 
 ELA  HZ EP   4    523 41.54                             110    2.04 0  334 229 
 ELA  HN ES   4    524 19.52                             110    3.04 0  334 229 
 ELA  HZ I         524 31.80        15.2 0.62            111            334 229 
 CBOC HZ EP        523 40.24                             110    0.81 7  337 251 
 CBOC HN ES        524 15.77                             110   -0.59 7  337 251 
 CBOC HZ I         524 23.03         5.6 0.50            110            337 251 
 ARGC HZ EP   4    523 43.30                             109    1.95 0  356 340 
 ARGC HN ES        524 19.72                             109   -0.06 6  356 340 
 ARGC HZ I         524 28.58         5.4 0.40            109            356 340 
 ANIL HZ EP        523 42.70                             108    0.22 6  362 224 
 ANIL HN ES        524 22.47                             108    0.69 6  362 224 
 SJC  HZ EP   4    523 45.95                             106   -1.41 0  407 326 
 SJC  HN ES   4    524 27.10                             106   -3.37 0  407 326 
 SJC  HZ I         524 32.59         5.3 0.32            107            407 326 
 PAL  HZ EP        523 47.40                             106   -0.37 6  410 239 
 PAL  HN ES        524 30.52                             106   -0.68 6  410 239 
 PAL  HZ I         524 42.23         6.9 0.62            106            410 239 
 CRJC HZ EP   4    523 52.06                             104   -1.98 0  463   3 
 CRJC HN ES   4    524 37.50                             104   -4.87 0  463   3 
                                                                                
