 2013  522 0536 26.8 L   6.805 -73.161146.9  RSN 14 0.4 2.0LRSN                1
 GAP= 70        0.87       3.0     3.2  5.0 -0.1037E+01  0.4181E+01  0.2429E+01E
 Epicentro: LOS SANTOS - SANTANDER                                             3
 ACTION:UPD 13-06-20 09:52 OP:ep   STATUS:               ID:20130522053626 L   I
 2013-05-22-0530-00M.COL___259                                                 6
 STAT SP IPHASW D HRMM SECON CODA AMPLIT PERI AZIMU VELO AIN AR TRES W  DIS CAZ7
 BAR2 SZ EP        536 46.49                             170   -0.0610 23.6 186 
 BAR2 SZ ES        537  2.17                             170    0.2010 23.6 186 
 BAR2 SZ I         537  2.91        21.2 0.20            165           23.6 186 
 GIR2 SZ EP        536 46.55                             168   -0.0110 30.5 353 
 GIR2 SZ ES   1    537  2.02                             168    0.02 7 30.5 353 
 GIR2 SZ I         537  3.38        10.1 0.12            168           30.5 353 
 BRR  HZ EP        536 48.27                             153    0.3210 69.4 299 
 BRR  HN ES        537  5.08                             153    0.6110 69.4 299 
 BRR  HZ I         537  5.99        17.5 0.14            149           69.4 299 
 PAM  SZ EP        536 49.42                             151    0.2610 78.1  41 
 PAM  SN ES        537  6.19                             151   -0.4210 78.1  41 
 PAM  SZ I         537  9.03        14.6 0.55            149           78.1  41 
 RUS  HZ EP        536 50.49                             144   -0.2010  101 175 
 RUS  HE ES        537  9.34                             144    0.0110  101 175 
 RUS  HZ I         537 10.92         9.5 0.24            136            101 175 
 PTB  HZ EP        536 53.13                             133   -0.56 9  146 259 
 PTB  HN ES        537 13.97                             133   -0.72 9  146 259 
 PTB  HZ I         537 17.06        14.6 0.14            126            146 259 
 TAM  HE ES   1    537 16.63                             131    0.13 7  157 105 
 TAM  HZ I         537 17.12        11.4 0.30            125            157 105 
 OCA  HN ES        537 16.89                             130   -0.32 9  160 354 
 OCA  HZ I         537 20.95        11.7 0.36            125            160 354 
 NOR  HZ EP   1    537  2.37                             119   -0.08 6  234 234 
 NOR  HE ES        537 30.68                             119    0.40 8  234 234 
 NOR  HZ I         537 36.57         9.5 0.16            113            234 234 
 SML  HE ES   1    537 32.20                             118    0.34 6  243 336 
 CHI  HZ EP   1    537  4.14                             117   -0.40 6  249 195 
 HEL  HZ EP   1    537  7.37                             115    0.50 6  271 256 
 HEL  HN ES   1    537 38.32                             115    0.17 6  271 256 
 HEL  HZ I         537 46.91         5.8 0.62            110            271 256 
 PRA  HZ EP   1    537 21.17                             107    0.88 4  392 209 
 PRA  HZ I         538  9.16         4.9 0.56            102            392 209 
 SJC  HZ EP   4    537 20.35                             106   -1.86 0  408 327 
 SJC  HE ES   4    538  0.92                             106   -4.54 0  408 327 
 SJC  HZ I         538  5.24         1.7 0.32            102            408 327 
                                                                                
