 2016  122 0647  3.0 L   6.790 -73.178141.0  RSN 12 0.5 1.5LRSN                1
 GAP=133        0.99       2.6     4.3  6.1 -0.3586E+01  0.1014E+02 -0.1072E+01E
 Epicentro: LOS SANTOS - SANTANDER                                             3
 ACTION:UPD 16-03-09 23:27 OP:cam  STATUS:               ID:20160122064703 L   I
 OLDACT:REG 16-01-22 14:19 OP:ar   STATUS:               ID:20160122063747     3
 2016-01-22-0637-47M.COL___313                                                 6
 STAT SP IPHASW D HRMM SECON CODA AMPLIT PERI AZIMU VELO AIN AR TRES W  DIS CAZ7
 BAR2 EZ IP        647 22.19                             171    0.1910 21.9 181 
 BAR2 EZ ES        647 36.48                             171   -0.3610 21.9 181 
 BAR2 EZ I         647 38.89        10.9 0.30            172           21.9 181 
 PAM  EZ IP        647 25.08                             149    0.2010 80.5  41 
 PAM  EN ES        647 42.62                             149    0.6610 80.5  41 
 PAM  EZ I         647 45.73         2.8 0.42            151           80.5  41 
 RUS  HZ EP        647 26.53                             143    0.3310 99.8 174 
 RUS  HN ES        647 43.47                             143   -0.8510 99.8 174 
 RUS  HZ I         647 45.72         4.0 0.46            146           99.8 174 
 PTB  HZ EP        647 29.08                             132   -0.13 9  144 259 
 PTB  HN ES        647 49.60                             132   -0.08 9  144 259 
 PTB  HZ I         647 53.31         3.1 0.15            132            144 259 
 SPBC HZ IP        647 30.77                             128   -0.04 9  160 218 
 SPBC HN ES        647 52.97                             128    0.44 9  160 218 
 SPBC HZ I         647 54.78         7.2 0.16            130            160 218 
 OCA  HZ EP   1    647 30.18                             128   -0.80 7  161 354 
 OCA  HE ES        647 53.16                             128    0.33 9  161 354 
 OCA  HZ I         647 59.54        10.8 0.26            129            161 354 
 ZAR  HN ES   2    648  0.36                             122    0.72 4  201 293 
 NOR  HZ EP   2    647 38.02                             118   -0.03 4  231 234 
 NOR  HN ES        648  5.69                             118    0.29 8  231 234 
 NOR  HZ I         648 11.51         2.4 0.38            119            231 234 
 SML  HZ EP        647 38.85                             116   -0.43 8  243 336 
 SML  HN ES        648  6.99                             116   -0.61 8  243 336 
 SML  HZ I         648 14.50         6.1 0.08            117            243 336 
 CHI  HZ EP   2    647 40.45                             116    0.25 4  247 194 
 CHI  HN ES        648  8.94                             116   -0.29 8  247 194 
 CHI  HZ I         648 12.29         1.1 0.42            118            247 194 
 GUY2CHZ EP   1    647 46.92                             112    0.96 5  298 235 
 GUY2CHE ES        648 19.20                             112   -0.29 7  298 235 
 GUY2CHZ I         648 29.91         0.9 0.37                           298 235 
 PRA  HZ EP   1    647 56.05                             106    0.03 4  389 209 
 PRA  HN ES        648 37.81                             106    0.42 6  389 209 
 PRA  HZ I         648 43.31         1.6 0.26            107            389 209 
 SJC  HZ EP   4    647 56.84                             105   -1.42 0  408 327 
 SJC  HN ES   4    648 38.82                             105   -2.56 0  408 327 
                                                                                
