 2012  222 0521 39.8 L   6.778 -73.029141.9  RSN  4 0.3 1.3LRSN                1
 GAP=212        0.50       5.0     9.9  5.9  0.3071E+02 -0.1341E+02 -0.1336E+01E
 ACTION:UP  12-03-07 16:32 OP:epov STATUS:               ID:20120222052139 L   I
 2012-02-22-0520-00M.COL___191                                                 6
 STAT SP IPHASW D HRMM SECON CODA AMPLIT PERI AZIMU VELO AIN AR TRES W  DIS CAZ7
 BAR2 SZ EP   1    521 59.09                             169    0.04 7 26.6 220 
 BAR2 SZ ES   2    522 13.31                             169   -0.75 5 26.6 220 
 BAR2 SZ I         522 15.77         4.7 0.28                          26.6 220 
 GIR2 SZ EP   1    521 59.37                             164    0.14 7 37.9 331 
 GIR2 SZ ES   1    522 14.47                             164    0.10 7 37.9 331 
 BRR  HZ EP   1    522  1.26                             148   -0.06 7 83.8 296 
 BRR  HZ I         522  2.24         4.7 0.14                          83.8 296 
 BRR  HE ES   1    522 18.14                             148    0.04 7 83.8 296 
 RUS  HZ EP   1    522  2.80                             144   -0.20 7 98.1 183 
 RUS  HE ES   1    522 21.36                             144    0.27 7 98.1 183 
 RUS  HZ I         522 22.82         3.0 0.35                          98.1 183 
                                                                                
