 2012  222 0858 18.9 L   6.782 -73.104152.5  RSN  6 0.1 1.5LRSN                1
 GAP=143        0.36       2.7     5.1  3.3  0.3322E+01 -0.3244E+01  0.9703E+00E
 ACTION:UP  12-03-07 16:33 OP:epov STATUS:               ID:20120222085818 L   I
 2012-02-22-0856-59S.COL___194                                                 6
 STAT SP IPHASW D HRMM SECON CODA AMPLIT PERI AZIMU VELO AIN AR TRES W  DIS CAZ7
 BAR2 SZ EP   1    858 39.26                             171   -0.12 7 22.7 202 
 BAR2 SZ I         858 39.37         7.3 0.13                          22.7 202 
 BAR2 SZ ES   1    858 55.21                             171   -0.11 7 22.7 202 
 GIR2 SZ EP   1    858 39.36                             167   -0.14 7 34.2 343 
 GIR2 SZ ES   1    858 55.41                             167   -0.13 7 34.2 343 
 PAM  SZ EP   1    858 42.06                             152    0.25 7 76.1  36 
 PAM  SZ I         858 42.39         7.9 0.18                          76.1  36 
 BRR  HZ EP   1    858 41.16                             152    0.05 7 76.2 298 
 BRR  HZ I         858 41.58        11.0 0.12                          76.2 298 
 BRR  HN ES   1    858 58.52                             152    0.13 7 76.2 298 
 RUS  HZ EP   1    858 43.09                             146   -0.13 7 98.4 179 
 RUS  HZ I         858 43.76         2.2 0.21                          98.4 179 
 RUS  HN ES   1    859  2.35                             146    0.20 7 98.4 179 
 CHI  HZ EP   1    858 56.93                             119   -0.03 6  248 196 
 CHI  HZ I         859 35.43         1.6 0.57                           248 196 
                                                                                
