 2015  522 0504 34.5 L   6.819 -73.094139.4  RSN  6 0.5 1.6LRSN                1
 GAP=205        1.24       6.1     7.8  8.9  0.2040E+02  0.8810E+01 -0.1556E+02E
 Epicentro: LOS SANTOS - SANTANDER                                             3
 ACTION:UPD 15-09-10 22:06 OP:cam  STATUS:               ID:20150522050434 L   I
 OLDACT:REG 15-05-22 13:58 OP:ar   STATUS:               ID:20150522045748     3
 2015-05-22-0457-48M.COL___291                                                 6
 STAT SP IPHASW D HRMM SECON CODA AMPLIT PERI AZIMU VELO AIN AR TRES W  DIS CAZ7
 BAR2 EZ EP        5 4 53.44                             168   -0.0310 27.0 201 
 BAR2 EZ ES        5 5  7.50                             168   -0.7510 27.0 201 
 BAR2 EZ I         5 5 12.43         5.4 0.25            167           27.0 201 
 BRR  HZ EP        5 4 55.31                             150    0.0710 75.4 295 
 BRR  HN ES        5 5 12.27                             150    0.8810 75.4 295 
 BRR  HZ I         5 5 18.90         9.3 0.46            149           75.4 295 
 RUS  HZ EP        5 4 58.16                             142    0.3610  103 179 
 RUS  HN ES        5 5 15.97                             142    0.0210  103 179 
 RUS  HZ I         5 5 18.06         2.3 0.40            146            103 179 
 ZAR  HZ EP        5 5  6.47                             120   -0.57 8  209 291 
 ZAR  HE ES        5 5 32.59                             120    0.18 8  209 291 
 ZAR  HZ I         5 5 36.68         6.2 0.30            123            209 291 
 SML  HZ EP        5 5 11.47                             116    0.61 8  244 334 
 SML  HN ES        5 5 38.49                             116   -0.71 8  244 334 
 SML  HZ I         5 5 42.81         9.7 0.28            119            244 334 
 HEL  HZ EP   4    5 5 17.09                             113    1.98 0  278 256 
 HEL  HN ES        5 5 46.42                             113   -0.34 7  278 256 
 HEL  HZ I         5 5 52.77         2.7 0.46            116            278 256 
                                                                                
