 2017  622 0352 46.4 L   6.779 -73.163145.1  RSN  7 0.4 1.7LRSN                1
 GAP=217        0.96       5.0     9.0  7.7  0.3229E+01 -0.2380E+02 -0.3868E+00E
 Epicentro: LOS SANTOS - SANTANDER                                             3
 ACTION:UPD 17-09-14 16:54 OP:jn   STATUS:               ID:20170622035246 L   I
 OLDACT:DUP 17-06-22 15:06 OP:lv   STATUS:               ID:20170622033719d    3
 2017-06-22-0348-00M.COL___349                                                 6
 STAT SP IPHASW D HRMM SECON CODA AMPLIT PERI AZIMU VELO AIN AR TRES W  DIS CAZ7
 BRR  HZ EP        353  7.17                             153   -0.2310 70.7 301 
 BRR  HN ES        353 24.33                             153    0.5210 70.7 301 
 BRR  HZ I         353 25.20         3.1 0.25            146           70.7 301 
 PTB  HZ EP   9    353 12.38                             133   -0.68 0  145 260 
 PTB  HN ES        353 32.74                                   -0.47 9  145 260 
 PTB  HZ I         353 34.82         2.7 0.09            126            145 260 
 SPBC HZ EP        353 14.32                             130   -0.20 9  160 219 
 SPBC HN ES        353 36.47                             130   -0.02 9  160 219 
 SPBC HZ I         353 39.58        10.2 0.08            124            160 219 
 ZAR  HZ EP        353 18.40                             123   -0.27 9  203 293 
 ZAR  HN ES        353 43.55                             123   -0.32 9  203 293 
 ZAR  HZ I         353 49.03         6.4 0.37            119            203 293 
 ROSC BZ EP   9    353 26.01                             117    1.89 0  250 211 
 ROSC BE ES        353 54.84                                   -0.62 8  250 211 
 ROSC BZ I         354  1.51         7.5 0.33            114            250 211 
 GUY2CHZ EP        353 30.23                             113    0.62 7  298 235 
 GUY2CHN ES   4    354  4.43                             113    1.08 0  298 235 
 GUY2CHZ I         354 11.75         5.0 0.24                           298 235 
 PTGC HZ EP   9    353 28.11                             111   -1.91 0  307 158 
 PTGC HN ES        354  1.60                                   -0.57 7  307 158 
                                                                                
