 2013 1222 0550 52.5 L   6.837 -73.151137.6  RSN  4 0.3 1.2LRSN                1
 GAP=145        0.80       5.1     4.8  7.1 -0.5813E+01  0.8957E+01 -0.5877E+01E
 Epicentro: LOS SANTOS - SANTANDER                                             3
 ACTION:UPD 14-01-13 10:20 OP:ep   STATUS:               ID:20131222055052 L   I
 OLDACT:REG 13-12-22 09:21 OP:jn   STATUS:               ID:20131222055000     3
 2013-12-22-0550-00M.COL___285                                                 6
 STAT SP IPHASW D HRMM SECON CODA AMPLIT PERI AZIMU VELO AIN AR TRES W  DIS CAZ7
 BAR2 SZ ES        551 26.17                             168    0.3110 27.3 187 
 PAM  SZ EP        551 13.93                             150    0.2410 74.7  42 
 PAM  SE ES   1    551 29.80                             150   -0.42 7 74.7  42 
 PAM  SZ I         551 33.09         3.9 0.56            152           74.7  42 
 RUS  HZ EP        551 16.06                             141    0.2910  105 176 
 RUS  HN ES        551 33.56                             141   -0.3610  105 176 
 RUS  HZ I         551 35.90         2.2 0.40            144            105 176 
 PTB  HZ EP        551 18.44                             130   -0.40 9  148 257 
 PTB  HN ES        551 39.49                             130    0.11 9  148 257 
 PTB  HZ I         551 43.01         2.6 0.10            132            148 257 
                                                                                
