 2016  522 0527 26.3 L   6.804 -73.106142.2  RSN 11 0.5 1.6LRSN                1
 GAP=187        1.07       3.4     5.4  6.3  0.1698E+01  0.8856E+01  0.2095E+01E
 Epicentro: LOS SANTOS - SANTANDER                                             3
 ACTION:UPD 16-08-18 17:48 OP:cam  STATUS:               ID:20160522052727dL   I
 OLDACT:UP  16-05-22 15:07 OP:dnl  STATUS:               ID:20160522051742d    3
 OLDACT:DUP 16-05-22 15:03 OP:dnl  STATUS:               ID:20160522051742d    3
 OLDACT:REG 16-05-22 13:10 OP:mh   STATUS:               ID:20160522051741     3
 2016-05-22-0517-41M.COL___290                                                 6
 STAT SP IPHASW D HRMM SECON CODA AMPLIT PERI AZIMU VELO AIN AR TRES W  DIS CAZ7
 BAR2 EZ EP   2    527 45.33                             170   -0.22 5 24.9 200 
 BAR2 EZ ES        528  0.21                             170   -0.3410 24.9 200 
 BAR2 EZ I         528  1.80         6.1 0.18            168           24.9 200 
 BRR  HZ EP        527 47.74                             151    0.4410 74.9 297 
 BRR  HE ES        528  4.77                             151    1.1110 74.9 297 
 BRR  HZ I         528  6.84         7.0 0.12            148           74.9 297 
 RUS  HZ EP        527 49.86                             143    0.1310  101 179 
 RUS  HE ES        528  8.21                             143    0.2210  101 179 
 RUS  HZ I         528  9.25         4.3 0.26            143            101 179 
 PTB  HZ EP        527 52.75                             130   -0.65 9  152 259 
 PTB  HE ES        528 13.78                             130   -0.75 9  152 259 
 PTB  HZ I         528 17.41         3.1 0.14            129            152 259 
 OCA  HZ EP   2    527 54.25                             129   -0.12 5  160 352 
 OCA  HN ES        528 15.63                             129   -0.62 9  160 352 
 OCA  HZ I         528 20.61         8.4 0.52            129            160 352 
 SPBC HZ EP        527 54.96                             128    0.12 9  166 220 
 SPBC HN ES        528 17.31                             128    0.22 9  166 220 
 SPBC HZ I         528 19.01         7.7 0.08            127            166 220 
 ZAR  HZ EP        527 59.15                             121    0.21 8  208 292 
 ZAR  HE ES        528 24.30                             121   -0.09 8  208 292 
 ZAR  HZ I         528 30.55         8.1 0.28            121            208 292 
 NOR  HZ EP        528  2.25                             117   -0.00 8  239 235 
 NOR  HE ES        528 29.90                             117   -0.39 8  239 235 
 NOR  HZ I         528 36.10         4.1 0.18            117            239 235 
 CHI  HZ EP   3    528  3.93                             116   -0.06 2  250 196 
 CHI  HN ES        528 32.98                             116   -0.39 8  250 196 
 CHI  HZ I         528 39.12         2.2 0.23            117            250 196 
 CBOC HZ EP        528 14.30                             109    0.72 7  338 252 
 CBOC HN ES   3    528 50.97                             109    0.52 2  338 252 
 CBOC HZ I         528 52.92         0.6 0.18            109            338 252 
 PRA  HZ EP   2    528 19.96                             106   -0.05 3  395 210 
 PRA  HE ES   2    529  2.48                             106    0.59 3  395 210 
 PRA  HZ I         529  9.06         2.7 0.28            106            395 210 
                                                                                
