 2016 1122 0838 14.1 L   6.803 -73.301123.2  RSN  5 0.2 1.2LRSN                1
 GAP=107        0.50       3.6     2.0  3.6 -0.1419E+01  0.2410E+01 -0.1703E+01E
 Epicentro: ZAPATOCA - SANTANDER                                               3
 ACTION:UPD 17-10-26 21:10 OP:lp   STATUS:               ID:20161122083814 L   I
 OLDACT:UP  16-11-22 17:16 OP:edw  STATUS:               ID:20161122083743     3
 OLDACT:UP  16-11-22 17:15 OP:edw  STATUS:               ID:20161122083743     3
 OLDACT:REG 16-11-22 13:19 OP:edw  STATUS:               ID:20161122083743     3
 2016-11-22-0838-00M.COL___349                                                 6
 STAT SP IPHASW D HRMM SECON CODA AMPLIT PERI AZIMU VELO AIN AR TRES W  DIS CAZ7
 BAR2 EZ EP        838 31.23                             167    0.1610 26.7 151 
 BAR2 EZ ES        838 44.43                             167    0.0910 26.7 151 
 BAR2 EZ I         838 45.47        10.5 0.17            171           26.7 151 
 BRR  HZ EP        838 31.65                             154   -0.2910 56.5 307 
 BRR  HN ES        838 45.69                             154   -0.2010 56.5 307 
 BRR  HZ I         838 46.31         3.7 0.18            153           56.5 307 
 PAM  EZ EP        838 34.68                             142   -0.0810 89.1  48 
 PAM  EN ES        838 51.02                             142    0.1110 89.1  48 
 PAM  EZ I         838 54.68         3.1 0.44            142           89.1  48 
 PTB  HZ EP        838 37.50                             130   -0.1810  131 257 
 PTB  HN ES        838 56.14                             130    0.0410  131 257 
 PTB  HZ I         838 58.80         1.8 0.42            131            131 257 
 ZAR  HZ EP        838 43.63                             119    0.21 9  188 294 
 ZAR  HN ES        839  6.56                             119    0.23 9  188 294 
 ZAR  HZ I         839  9.76         2.1 0.22            120            188 294 
                                                                                
