 2014  522 0819 39.2 L   7.509 -73.151 97.6  RSN  4 0.5 1.1LRSN                1
 GAP=269        1.20       5.7    11.2 13.1 -0.8511E+01 -0.1958E+02 -0.2235E+02E
 Epicentro: EL PLAYON - SANTANDER                                              3
 ACTION:UPD 15-03-16 16:59 OP:nd   STATUS:               ID:20140522081939 L   I
 OLDACT:REG 14-05-22 13:35 OP:spq  STATUS:               ID:20140522081808     3
 2014-05-22-0818-08M.COL___249                                                 6
 STAT SP IPHASW D HRMM SECON CODA AMPLIT PERI AZIMU VELO AIN AR TRES W  DIS CAZ7
 BRR  HZ EP        819 56.41                             139    0.6510 76.2 234 
 BRR  HN ES        820  8.51                             139   -0.2010 76.2 234 
 BRR  HZ I         820 14.92         3.5 0.44            146           76.2 234 
 SML  HZ EP        820  5.48                             115   -0.22 9  175 325 
 SML  HN ES        820 26.23                             115   -0.17 9  175 325 
 SML  HZ I         820 28.67         2.1 0.10            121            175 325 
 PTB  HZ EP        820  6.53                             114    0.30 9  180 233 
 PTB  HN ES        820 26.62                             114   -0.73 9  180 233 
 PTB  HZ I         820 28.89         0.9 0.40            120            180 233 
 ZAR  HZ EP        820  6.68                             113   -0.52 9  188 270 
 ZAR  HE ES        820 29.85                             113    0.77 9  188 270 
 ZAR  HZ I         820 31.49         1.5 0.24            119            188 270 
                                                                                
