 2014  822 0016 33.0 L   6.771 -73.174141.9  RSN 10 0.4 1.7LRSN                1
 GAP=134        0.97       4.2     4.2  7.7 -0.3794E+01  0.8360E+01  0.1266E+01E
 Epicentro: LOS SANTOS - SANTANDER                                             3
 ACTION:UPD 14-09-15 21:52 OP:nd   STATUS:               ID:20140822001633 L   I
 OLDACT:REG 14-08-22 11:56 OP:mh   STATUS:               ID:20140822000805     3
 2014-08-22-0008-05M.COL___256                                                 6
 STAT SP IPHASW D HRMM SECON CODA AMPLIT PERI AZIMU VELO AIN AR TRES W  DIS CAZ7
 BAR2 SZ EP        016 52.40                             172    0.2610 19.8 183 
 BAR2 SZ I         017  8.93        19.9 0.40            176           19.8 183 
 BRR  HZ EP   1    016 54.08                             152    0.37 7 70.1 302 
 BRR  HN ES   1    017  9.63                             152   -0.20 7 70.1 302 
 BRR  HZ I         017 26.00        11.8 0.36            145           70.1 302 
 PAM  SZ EP        016 55.14                             149    0.0210 81.8  40 
 PAM  SN ES        017 12.29                             149   -0.0510 81.8  40 
 PAM  SZ I         017 13.82         5.0 0.22            144           81.8  40 
 RUS  HZ EP        016 56.40                             144    0.2010 97.7 174 
 RUS  HN ES        017 13.91                             144   -0.3610 97.7 174 
 RUS  HZ I         017 16.37         6.8 0.46            149           97.7 174 
 PTB  HZ EP        016 58.45                             132   -0.91 9  144 260 
 PTB  HN ES        017 19.74                             132   -0.15 9  144 260 
 PTB  HZ I         017 23.00         4.9 0.10            129            144 260 
 SPBC HZ EP   1    017  1.28                             129    0.46 7  159 219 
 SPBC HN ES        017 23.09                             129    0.60 9  159 219 
 SPBC HZ I         017 26.88         8.9 0.20            129            159 219 
 ZAR  HN ES   1    017 30.87                             122    0.83 6  202 293 
 ZAR  HZ I         017 36.77         8.4 0.17            118            202 293 
 NOR  HZ EP   1    017  7.95                             118   -0.12 6  230 235 
 NOR  HN ES   1    017 34.95                             118   -0.45 6  230 235 
 NOR  HZ I         017 39.09         4.5 0.18            117            230 235 
 URE  HZ EP   1    017 13.43                             113   -0.30 6  282 293 
 URE  HN ES   4    017 44.15                             113   -1.33 0  282 293 
 GUY2CHZ EP   4    017 27.59                             112   11.61 0  297 235 
 GUY2CHN ES   4    017 50.77                             112    1.31 0  297 235 
 SJC  HZ EP   4    017 26.33                             105   -2.26 0  410 328 
 SJC  HZ I         017 58.70         1.7 0.47            103            410 328 
 SJC  HN ES   4    018  7.62                             105   -4.30 0  410 328 
                                                                                
