 2015  722 0748 47.7 L   6.816 -73.161141.7  RSN 10 0.5 2.0LRSN                1
 GAP=134        1.08       3.2     4.2  6.6 -0.3559E+01  0.1285E+02 -0.3179E+01E
 Epicentro: LOS SANTOS - SANTANDER                                             3
 ACTION:UPD 15-09-08 21:50 OP:cam  STATUS:               ID:20150722074847 L   I
 OLDACT:REG 15-07-22 12:58 OP:stll STATUS:               ID:20150722073750     3
 2015-07-22-0737-50M.COL___334                                                 6
 STAT SP IPHASW D HRMM SECON CODA AMPLIT PERI AZIMU VELO AIN AR TRES W  DIS CAZ7
 BAR2 EZ EP        749  6.83                             170   -0.0210 24.8 185 
 BAR2 EZ ES        749 22.38                             170    0.5710 24.8 185 
 BAR2 EZ I         749 24.96        11.1 0.20            171           24.8 185 
 PAM  EZ EP        749  9.51                             150    0.0610 77.1  41 
 PAM  EZ I         749  9.95        14.3 0.22            153           77.1  41 
 PAM  EN ES        749 26.65                             150    0.2210 77.1  41 
 RUS  HZ EP        749 10.86                             142   -0.3110  102 175 
 RUS  HN ES        749 29.10                             142   -0.4010  102 175 
 RUS  HZ I         749 30.64         7.4 0.40            147            102 175 
 CPBEREZ EP        749 14.09                             131   -0.11 9  146 258 
 CPBEREN ES        749 34.31                             131   -0.58 9  146 258 
 OCA  HZ EP        749 15.53                             129    0.04 9  158 354 
 OCA  HN ES        749 37.23                             129    0.05 9  158 354 
 OCA  HZ I         749 42.83        24.6 0.18            131            158 354 
 ZAR  HZ EP        749 19.60                             122   -0.03 9  202 292 
 ZAR  HN ES        749 44.89                             122    0.34 9  202 292 
 ZAR  HZ I         749 50.43        15.9 0.38            123            202 292 
 NOR  HZ EP        749 22.83                             118   -0.30 8  234 234 
 NOR  HN ES        749 50.19                             118   -0.60 8  234 234 
 NOR  HZ I         749 54.66         6.9 0.28            120            234 234 
 SML  HZ EP        749 23.25                             117   -0.57 8  241 335 
 SML  HN ES        749 51.59                             117   -0.43 8  241 335 
 SML  HZ I         749 56.67        16.6 0.10            119            241 335 
 HEL  HZ EP        749 28.75                             114    1.20 8  271 255 
 HEL  HN ES        749 58.49                             114   -0.16 8  271 255 
 HEL  HZ I         750  5.69         3.2 0.30            116            271 255 
 GUY2CHZ EP        749 31.78                             112    0.72 7  301 234 
 GUY2CHE ES        750  5.71                             112    0.82 7  301 234 
 GUY2CHZ I         750 13.53         4.7 0.34                           301 234 
                                                                                
