 2015  622 0825 40.6 L   6.815 -73.096150.1  RSN 17 0.5 2.5LRSN                1
 GAP=169        1.06       2.7     4.6  5.4  0.2963E+01  0.4688E+01  0.3095E+01E
 Epicentro: LOS SANTOS - SANTANDER                                             3
 ACTION:UPD 15-09-10 22:14 OP:cam  STATUS:               ID:20150622082540 L   I
 OLDACT:UP  15-06-22 17:51 OP:mh   STATUS:               ID:20150622081750     3
 OLDACT:UP  15-06-22 17:51 OP:mh   STATUS:               ID:20150622081750     3
 OLDACT:UP  15-06-22 17:51 OP:mh   STATUS:               ID:20150622081750     3
 OLDACT:UP  15-06-22 17:38 OP:mh   STATUS:               ID:20150622081750     3
 OLDACT:REG 15-06-22 13:09 OP:mh   STATUS:               ID:20150622081750     3
 2015-06-22-0817-50M.COL___310                                                 6
 STAT SP IPHASW D HRMM SECON CODA AMPLIT PERI AZIMU VELO AIN AR TRES W  DIS CAZ7
 BAR2 EZ EP        826  1.20                             170    0.3610 26.4 201 
 BAR2 EZ ES        826 15.98                             170   -0.6210 26.4 201 
 BAR2 EZ I         826 17.23        59.0 0.22            168           26.4 201 
 BRR  HZ IP     D  826  3.14                             152    0.6610 75.3 295 
 BRR  HN ES        826 20.27                             152    0.7510 75.3 295 
 BRR  HZ I         826 23.08        35.9 0.30            149           75.3 295 
 RUS  HZ IP     C  826  5.30                             144    0.4010  102 179 
 RUS  HN ES        826 24.03                             144    0.1910  102 179 
 RUS  HZ I         826 25.15        25.2 0.44            145            102 179 
 OCA  HZ EP   1    826  9.18                             131   -0.02 7  159 351 
 OCA  HN ES        826 31.30                             131   -0.18 9  159 351 
 OCA  HZ I         826 39.81        66.0 0.17            131            159 351 
 ZAR  HZ EP   1    826 14.73                             123    0.92 6  209 291 
 ZAR  HN ES        826 38.75                             123   -0.95 8  209 291 
 ZAR  HZ I         826 43.88        28.2 0.38            122            209 291 
 NOR  HZ EP   1    826 16.98                             119   -0.20 6  240 235 
 NOR  HN ES        826 45.30                             119   -0.40 8  240 235 
 NOR  HZ I         826 50.23        17.9 0.20            118            240 235 
 SML  HZ EP        826 17.35                             118   -0.24 8  245 334 
 SML  HN ES        826 45.72                             118   -0.70 8  245 334 
 SML  HZ I         826 54.67        29.5 0.10            118            245 334 
 CHI  HN ES        826 48.86                             118    0.12 8  252 196 
 ROSC BZ EP   4    826 18.12                             117   -1.32 0  257 212 
 ROSC BN ES   4    826 51.57                             117    1.85 0  257 212 
 ROSC BZ I         826 55.53        46.4 0.40            117            257 212 
 HEL  HZ EP   1    826 21.71                             115    0.02 6  278 256 
 HEL  HN ES        826 53.63                             115   -0.09 7  278 256 
 HEL  HZ I         826 58.90        14.3 0.28            114            278 256 
 VIL  SZ EP   1    826 24.03                             113   -0.52 5  306 193 
 VIL  SN ES        826 58.64                             113   -0.17 7  306 193 
 VIL  SZ I         827  9.29        25.0 0.54            113            306 193 
 GUY2CHZ EP        826 25.37                             113    0.33 7  307 235 
 GUY2CHN ES   4    827  3.11                             113    3.42 0  307 235 
 GUY2CHZ I         827  7.49        14.2 0.54                           307 235 
 PTGC HZ EP        826 24.48                             112   -0.15 7  308 160 
 PTGC HN ES        826 58.09                             112   -0.86 7  308 160 
 PTGC HZ I         826 59.38        11.1 0.26            113            308 160 
 CBOC HZ EP        826 28.78                             110    0.41 7  339 252 
 CBOC HN ES   4    827  4.19                             110   -1.42 0  339 252 
 CBOC HZ I         827 11.03         4.0 0.26            110            339 252 
 MON  HZ EP   4    826 28.11                             109   -2.07 0  357 308 
 MON  HN ES   4    827  6.17                             109   -2.66 0  357 308 
 MON  HZ I         827  9.00         7.7 0.34            109            357 308 
 PRA  HZ EP        826 34.98                             107    0.20 6  396 210 
 PRA  HN ES        827 17.04                             107    0.02 6  396 210 
 PRA  HZ I         827 23.53        15.7 0.24            107            396 210 
 ORTC HZ EP        826 35.05                             107   -0.18 6  400 217 
 ORTC HN ES   4    827 19.26                             107    1.45 0  400 217 
 ORTC HZ I         827 22.42         8.4 0.22            107            400 217 
                                                                                
