 2012  522 0714  2.4 L   6.751 -73.194153.7  RSN  4 0.2 1.4LRSN                1
 GAP=228        0.53       5.7     5.3  5.6  0.1478E+02  0.2483E+01  0.5337E+00E
 Epicentro: VILLANUEVA - SANTANDER                                             3
 ACTION:UP  12-07-05 12:07 OP:pat  STATUS:               ID:20120522071402 L   I
 2012-05-22-0710-00M.COL___200                                                 6
 STAT SP IPHASW D HRMM SECON CODA AMPLIT PERI AZIMU VELO SNR AR TRES W  DIS CAZ7
 BAR2 SZ EP   1    714 22.58                             173    -0.3 7   18 176 
 BAR2 SZ I         714 23.62         6.8 0.33                            18 176 
 BAR2 SZ ES   1    714 38.63                             173    -0.2 7   18 176 
 BRR  HZ EP   1    714 24.49                             154     0.2 7   70 305 
 BRR  HZ I         714 24.65         5.3 0.15                            70 305 
 BRR  HE ES   1    714 41.65                             154     0.2 7   70 305 
 RUS  HZ EP   1    714 26.71                             147     0.1 7   96 173 
 RUS  HZ I         714 27.62         2.0 0.12                            96 173 
 RUS  HN ES   1    714 45.69                             147     0.2 7   96 173 
 PTB  HZ EP   1    714 29.46                             135     0.0 7  142 261 
 PTB  HN ES   1    714 50.47                             135    -0.1 7  142 261 
 PTB  HZ I         714 56.45         3.4 0.46                           142 261 
                                                                                
