 2010  522 0741 16.8 L   6.786 -73.126137.3  RSN  9 0.3 2.2LRSN                1
 GAP=176        0.54       3.3     6.6  6.4 -0.1420E+02  0.1188E+02  0.5584E+00E
 Epicentro: LOS SANTOS - SANTANDER                                             3
 ACTION:UP  10-08-24 10:06 OP:vdl  STATUS:               ID:20100522074116 L   I
 2010-05-22-0739-51S.COL___111                                                 6
 STAT SP IPHASW D HRMM SECON CODA AMPLIT PERI AZIMU VELO SNR AR TRES W  DIS CAZ7
 BAR2 SZ IP        741 35.46                             170     0.110   22 197 
 BAR2 SZ ES   2    741 49.59                             170    -0.3 5   22 197 
 BRI  SZ EP        741 40.04                             139     0.110  109  19 
 BRI  SZ ES   2    741 57.15                             139    -0.8 5  109  19 
 GUE  SZ EP   2    741 40.87                             137     0.1 5  118  11 
 GRA  SZ EP   1    741 41.22                             135    -0.1 7  127  16 
 GRA  SZ ES   1    742  0.73                             135     0.2 7  127  16 
 OCA  SZ EP   1    741 44.46                             127    -0.1 7  162 352 
 OCA  SZ ES   2    742  6.41                             127     0.1 5  162 352 
 OCA  SZ I         742  9.88        21.1 0.17                           162 352 
 CHI  HZ EP   2    741 53.49                             116    -0.4 4  248 196 
 CHI  HN ES   2    742 23.34                             116     0.5 4  248 196 
 CHI  HZ I         742 28.83         5.9 0.50                           248 196 
 ROSC BZ EP   2    741 53.88                             115    -0.5 4  253 212 
 ROSC BN ES   2    742 24.01                             115     0.2 4  253 212 
 ROSC BZ I         742 32.13         7.6 0.47                           253 212 
 HEL  HZ EP   2    741 57.27                             113     0.5 4  274 256 
 HEL  HN ES   2    742 27.66                             113    -0.3 4  274 256 
 HEL  HZ I         742 33.95         8.5 0.39                           274 256 
 PRA  HZ EP   2    742  9.24                             105    -0.7 3  392 210 
 PRA  HE ES   2    742 51.46                             105     0.0 3  392 210 
 PRA  HZ I         742 59.60         9.0 0.42                           392 210 
                                                                                
