 2013  622 0901  1.4 L   6.545 -73.521111.1  RSN 17 0.5 2.7LRSN 3.0WRSN        1
 SPEC AVERAGE  MO 13.6 ST  4.0 OM  2.0 f0 3.98 R0.4239 AL 1.59 WI  9.2 MW  3.0 3
 SPEC SD       MO  0.3 ST  3.8 OM  0.4 f0 1.19 R0.1142 AL      WI      MW  0.2 3
 GAP= 81        0.94       2.3     3.0  5.6 -0.5281E+00  0.5191E+01  0.5584E+00E
 Epicentro: EL CARMEN DE CHUCURI - SANTANDER                                   3
 SPEC TAM HH N MO 13.6 ST  1.4 OM  1.9 f0 3.02 R0.5146 AL 1.20 WI  6.2 MW  3.0 3
 SPEC TAM HH N T 9 152 K 0.000 GD  221 VS 4.20 DE 3.20 Q0300.0 QA 0.60 VS 4.20 3
 SPEC YOP SH N MO 13.9 ST  2.7 OM  2.2 f0 3.02 R0.5146 AL 2.21 WI  7.8 MW  3.2 3
 SPEC YOP SH N T 9 150 K 0.000 GD  210 VS 4.20 DE 3.20 Q0300.0 QA 0.60 VS 4.20 3
 SPEC PRA HH N MO 13.3 ST0.320 OM  1.3 f0 2.47 R0.6291 AL 0.82 WI 14.4 MW  2.8 3
 SPEC PRA HH N T 9 223 K 0.000 GD  365 VS 4.20 DE 3.20 Q0300.0 QA 0.60 VS 4.20 3
 SPEC RUS HH N MO 13.3 ST0.665 OM  1.8 f0 2.95 R0.5268 AL 0.97 WI  6.6 MW  2.8 3
 SPEC RUS HH N T 9 135 K 0.000 GD  141 VS 4.20 DE 3.20 Q0300.0 QA 0.60 VS 4.20 3
 SPECGUY2CHH N MO 13.6 ST0.729 OM 1.78 f0 2.47 R0.6303 AL 1.85 WI 19.9 MW  3.0 3
 SPECGUY2CHH N T 9 2 5 K 0.000 GD  274 VS 4.20 DE 3.20 Q0300.0 QA 0.60 VS 4.20 3
 SPEC HEL HH N MO 13.3 ST  2.8 OM  1.5 f0 4.94 R0.3146 AL 2.04 WI  9.3 MW  2.8 3
 SPEC HEL HH N T 9 2 0 K 0.000 GD  251 VS 4.20 DE 3.20 Q0300.0 QA 0.60 VS 4.20 3
 SPEC OCA HH E MO 14.1 ST  9.4 OM  2.4 f0 3.88 R0.4005 AL 1.38 WI  8.3 MW  3.4 3
 SPEC OCA HH E T 9 152 K 0.000 GD  219 VS 4.20 DE 3.20 Q0300.0 QA 0.60 VS 4.20 3
 SPEC NOR HH N MO 13.5 ST 11.2 OM  1.8 f0 6.58 R0.2362 AL 1.66 WI  8.2 MW  3.0 3
 SPEC NOR HH N T 9 150 K 0.000 GD  214 VS 4.20 DE 3.20 Q0300.0 QA 0.60 VS 4.20 3
 SPEC COD HH N MO 13.6 ST  1.4 OM  1.6 f0 3.17 R0.4902 AL 1.68 WI 13.2 MW  3.0 3
 SPEC COD HH N T 9 230 K 0.000 GD  391 VS 4.20 DE 3.20 Q0300.0 QA 0.60 VS 4.20 3
 SPEC CHI HH N MO 13.2 ST  1.2 OM  1.4 f0 4.12 R0.3772 AL 2.06 WI  8.7 MW  2.7 3
 SPEC CHI HH N T 9 158 K 0.000 GD  240 VS 4.20 DE 3.20 Q0300.0 QA 0.60 VS 4.20 3
 SPEC BRR HH N MO 13.7 ST  9.5 OM  2.2 f0 5.43 R0.2862 AL 1.65 WI 13.9 MW  3.1 3
 SPEC BRR HH N T 9 131 K 0.000 GD  129 VS 4.20 DE 3.20 Q0300.0 QA 0.60 VS 4.20 3
 SPEC BAR2SH Z MO 13.6 ST  3.1 OM  2.1 f0 4.17 R0.3727 AL 1.79 WI  5.1 MW  3.0 3
 SPEC BAR2SH Z T 9 129 K 0.000 GD  117 VS 4.20 DE 3.20 Q0300.0 QA 0.60 VS 4.20 3
 ACTION:UPD 14-01-08 09:56 OP:ep   STATUS:               ID:20130622090101 L   I
 OLDACT:UP  13-06-22 12:36 OP:carl STATUS:               ID:20130622085959     3
 OLDACT:REG 13-06-22 09:04 OP:carl STATUS:               ID:20130622085959     3
 2013-06-22-0859-59M.COL___267                                                 6
 STAT SP IPHASW D HRMM SECON CODA AMPLIT PERI AZIMU VELO AIN AR TRES W  DIS CAZ7
 BAR2 SZ IP     D  9 1 17.55                             160    0.1710 37.9  82 
 BAR2 SZ ES   1    9 1 29.89                             160    0.04 7 37.9  82 
 BAR2 SZ I         9 1 31.40       526.4 0.26            156           37.9  82 
 BRR  HZ IP     C  9 1 18.36                             147   -0.2010 65.6 341 
 BRR  HN ES   1    9 1 32.15                             147    0.22 7 65.6 341 
 BRR  HN I         9 1 41.48       180.8 0.16            140           65.6 341 
 GIR2 SZ IP        9 1 19.12                             146    0.1210 69.3  32 
 RUS  HZ IP     C  9 1 20.46                             140   -0.3410 86.9 146 
 RUS  HE ES   1    9 1 35.64                             140   -0.29 7 86.9 146 
 RUS  HZ I         9 1 36.48        61.9 0.28            139           86.9 146 
 PTB  HZ IP   4 C  9 1 20.34                             134   -1.19 0  103 270 
 PTB  HN ES   4    9 1 35.33                             134   -1.90 0  103 270 
 PTB  HZ I         9 1 36.45       171.9 0.28            130            103 270 
 YOP  SZ EP        9 1 29.53                             117    0.26 9  179 137 
 YOP  SN ES   1    9 1 51.60                             117    0.59 7  179 137 
 YOP  SZ I         9 1 53.07       123.4 0.36            115            179 137 
 NOR  HZ EP        9 1 29.05                             116   -0.70 9  184 234 
 NOR  HN ES   1    9 1 50.64                             116   -1.22 7  184 234 
 NOR  HZ I         9 1 55.76        40.4 0.56            115            184 234 
 OCA  HZ EP   1    9 1 29.98                             116   -0.36 7  189   7 
 OCA  HN ES   1    9 1 52.76                             116   -0.15 7  189   7 
 OCA  HZ I         9 1 58.74        69.0 0.24            112            189   7 
 TAM  HZ EP        9 1 30.28                             115   -0.26 9  192  94 
 TAM  HN ES   1    9 1 53.46                             115    0.20 7  192  94 
 TAM  HZ I         9 1 58.80        41.3 0.52            113            192  94 
 CHI  HZ EP   1    9 1 33.46                             113    0.07 6  213 186 
 CHI  HN ES   1    9 1 58.86                             113    0.53 6  213 186 
 CHI  HZ I         9 2  6.30        11.8 0.40            112            213 186 
 HEL  HZ EP   1    9 1 34.55                             111   -0.19 6  226 260 
 HEL  HN ES   1    9 2  1.63                             111    0.89 6  226 260 
 HEL  HZ I         9 2  5.58        17.3 0.22            110            226 260 
 GUY2CHZ EP        9 1 38.14                             109    0.35 8  251 235 
 GUY2CHN ES   1    9 2  7.11                             109    0.93 6  251 235 
 GUY2CHZ I         9 2 10.02        26.0 0.28                           251 235 
 SML  HZ EP        9 1 37.00                             108   -0.86 8  257 346 
 SML  HE ES   1    9 2  7.22                             108    0.92 6  257 346 
 SML  HZ I         9 2  9.55       120.3 0.28            106            257 346 
 RREF HZ EP   4    9 1 41.74                             107    1.32 0  272 228 
 RREF HN ES   4    9 2 12.37                             107    1.51 0  272 228 
 PRA  HZ EP        9 1 48.21                             102   -0.44 6  348 206 
 PRA  HN ES   1    9 2 25.77                             102    0.28 5  348 206 
 PRA  HZ I         9 2 29.88        10.2 0.34            102            348 206 
 ORTC HZ EP   1    9 1 48.97                             102    0.22 5  349 213 
 ORTC HE ES   1    9 2 26.03                             102    0.36 5  349 213 
 ARGC HZ EP   1    9 1 52.40                             100    0.54 5  375 348 
 ARGC HE ES   1    9 2 32.02                             100    0.80 5  375 348 
 COD  HZ EP   1    9 1 52.43                             100    0.57 5  375   1 
 COD  HN ES   1    9 2 30.99                             100   -0.22 5  375   1 
 COD  HZ I         9 2 42.99         7.4 0.42            101            375   1 
                                                                                
