 2014 1122 0635  0.3 L   6.802 -73.161142.1  RSN 10 0.4 1.5LRSN                1
 GAP=134        1.14       3.5     4.4  6.7 -0.7096E+00  0.8751E+01  0.2843E+01E
 Epicentro: LOS SANTOS - SANTANDER                                             3
 ACTION:UPD 14-12-19 15:45 OP:nd   STATUS:               ID:20141122063500 L   I
 OLDACT:REG 14-11-22 13:49 OP:fm   STATUS:               ID:20141122062745     3
 2014-11-22-0627-45M.COL___306                                                 6
 STAT SP IPHASW D HRMM SECON CODA AMPLIT PERI AZIMU VELO AIN AR TRES W  DIS CAZ7
 BAR2 SZ EP        635 19.53                             170    0.0510 23.3 186 
 BAR2 SZ ES        635 34.26                             170   -0.1810 23.3 186 
 BAR2 SZ I         635 35.90         6.1 0.38            171           23.3 186 
 BRR  HZ EP        635 21.43                             152    0.4810 69.6 299 
 BRR  HE ES        635 38.06                             152    0.9910 69.6 299 
 BRR  HZ I         635 41.32         5.8 0.18            151           69.6 299 
 PAM  SZ EP        635 22.35                             150    0.1710 78.3  41 
 PAM  SN ES        635 38.99                             150   -0.2510 78.3  41 
 PAM  SZ I         635 41.37         9.3 0.46            152           78.3  41 
 RUS  HZ EP        635 23.57                             143   -0.1410  101 175 
 RUS  HN ES        635 42.22                             143    0.2510  101 175 
 RUS  HZ I         635 43.98         6.1 0.26            146            101 175 
 PTB  HZ EP        635 26.54                             131   -0.28 9  146 259 
 PTB  HN ES        635 46.60                             131   -0.90 9  146 259 
 PTB  HZ I         635 50.00         4.4 0.20            132            146 259 
 OCA  HN ES        635 49.31                             129   -0.80 9  160 354 
 OCA  HZ I         635 55.89         2.6 0.54            130            160 354 
 SPBC HN ES        635 50.17                             128   -0.20 9  162 218 
 SPBC HZ I         635 51.39         6.9 0.10            130            162 218 
 ZAR  HZ EP        635 32.83                             122    0.50 9  202 292 
 ZAR  HN ES        635 57.56                             122    0.24 9  202 292 
 ZAR  HZ I         636  3.47         4.7 0.54            122            202 292 
 CHI  HZ EP        635 38.06                             116    0.29 8  248 195 
 CHI  HN ES        636  6.83                             116   -0.16 8  248 195 
 CHI  HZ I         636 10.89         1.6 0.70            118            248 195 
 HEL  HZ EP        635 39.82                             114   -0.33 8  270 256 
 HEL  HN ES        636 11.33                             114    0.10 8  270 256 
 HEL  HZ I         636 17.55         2.0 0.66            115            270 256 
                                                                                
