 2017 1122 0907 58.4 L   6.766 -73.168150.5  RSN  4 0.1 0.9LRSN                1
 GAP=241        0.39       4.1     3.0  3.7  0.8025E+01  0.1061E+01 -0.2459E+01E
 Epicentro: LOS SANTOS - SANTANDER                                             3
 ACTION:UPD 17-12-12 19:58 OP:rebc STATUS:               ID:20171122090758 L   I
 OLDACT:REG 17-11-22 13:28 OP:osc  STATUS:               ID:20171122090739     3
 2017-11-22-0908-00M.COL___474                                                 6
 STAT SP IPHASW D HRMM SECON CODA AMPLIT PERI AZIMU VELO AIN AR TRES W  DIS CAZ7
 BAR2 EZ EP        9 8 18.43                             172   -0.0610 19.3 185 
 BAR2 EZ ES        9 8 34.23                             172    0.0410 19.3 185 
 RUS  HZ EP        9 8 22.53                             146    0.1910 97.1 174 
 RUS  HN ES        9 8 40.91                             146   -0.1310 97.1 174 
 RUS  HZ I         9 8 42.44         1.2 0.32            144           97.1 174 
 PTB  HZ EP        9 8 25.31                             134   -0.13 9  145 260 
 PTB  HN ES        9 8 46.66                             134    0.09 9  145 260 
 PTB  HZ I         9 8 49.25         1.1 0.26            132            145 260 
 ZAR  HN ES        9 8 56.50                             123   -0.02 9  203 293 
                                                                                
