 2010  622 0756 37.1 L   6.813 -72.974143.4  RSN  6 0.3 1.6LRSN                1
 GAP=184        0.69       6.0    10.5 10.2  0.2164E+02 -0.5333E+02 -0.2144E+02E
 Epicentro: CEPITA - SANTANDER                                                 3
 ACTION:UP  10-08-24 10:12 OP:vdl  STATUS:               ID:20100622075637 L   I
 2010-06-22-0754-21S.COL___118                                                 6
 STAT SP IPHASW D HRMM SECON CODA AMPLIT PERI AZIMU VELO SNR AR TRES W  DIS CAZ7
 BAR2 SZ EP        756 56.92                             165     0.210   34 223 
 BAR2 SZ ES   2    757 12.16                             165     0.2 5   34 223 
 BRR  HZ EP        756 59.07                             146     0.010   88 292 
 BRR  HN ES   1    757 16.07                             146    -0.1 7   88 292 
 BRR  HZ I         757 18.14         6.9 0.14                            88 292 
 RUS  HZ EP   1    757  0.88                             142     0.1 7  103 187 
 RUS  HN ES   2    757 19.06                             142    -0.1 5  103 187 
 RUS  HZ I         757 21.39         4.0 0.16                           103 187 
 GUE  SZ EP   1    757  0.55                             140    -0.7 7  113   3 
 OCA  SZ EP   2    757  5.94                             129     0.5 5  162 346 
 OCA  SZ I         757 31.81         4.2 0.28                           162 346 
 RREF HZ EP   3    757 24.57                             109    -0.3 2  337 231 
 RREF HN ES   3    758  1.72                             109    -0.5 2  337 231 
 RREF HZ I         758  7.96         2.3 0.27                           337 231 
                                                                                
