 2014  522 0309 10.4 L   6.841 -74.240 64.5  RSN 18 0.4 2.1LRSN                1
 GAP= 62        0.98       1.7     1.8  5.3 -0.3888E+00  0.4419E+00 -0.2272E+00E
 Epicentro: PUERTO PARRA - SANTANDER                                           3
 ACTION:UPD 15-03-16 16:59 OP:nd   STATUS:               ID:20140522030910 L   I
 OLDACT:UP  14-05-22 20:50 OP:nlst STATUS:               ID:20140522030910 L   3
 OLDACT:UP  14-05-22 17:18 OP:spq  STATUS:               ID:20140522030814     3
 OLDACT:REG 14-05-22 12:38 OP:spq  STATUS:               ID:20140522030814     3
 2014-05-22-0308-14M.COL___243                                                 6
 STAT SP IPHASW D HRMM SECON CODA AMPLIT PERI AZIMU VELO AIN AR TRES W  DIS CAZ7
 PTB  HZ IPg    D  3 9 20.72                             144   -0.3710 41.0 216 
 PTB  HN ESg       3 9 29.56                             144    0.1010 41.0 216 
 PTB  HZ I         3 9 30.42        79.6 0.11            137           41.0 216 
 BRR  HZ IPg    D  3 9 23.18                             129    0.0410 65.3  63 
 BRR  HE ESg       3 9 33.17                             129    0.0610 65.3  63 
 BRR  HZ I         3 9 35.49        43.5 0.12            129           65.3  63 
 ZAR  HZ EP        3 9 26.23                             116   -0.4810 99.3 317 
 ZAR  HE ES        3 9 39.82                             116    0.3610 99.3 317 
 ZAR  HZ I         3 9 41.97        96.7 0.14            112           99.3 317 
 BAR2 SZ EP        3 9 29.53                             111    0.1810  120 103 
 BAR2 SZ ES        3 9 43.97                             111   -0.1810  120 103 
 BAR2 SZ I    1    3 9 47.65        77.4 0.62            109            120 103 
 SPBC HZ IP     D  3 9 30.55                             109   -0.0810  133 172 
 SPBC HE ES        3 9 45.96                             109   -0.4810  133 172 
 SPBC HZ I         3 9 47.45        30.0 0.11            105            133 172 
 NOR  HZ EP        3 9 33.66                             105    0.15 9  157 206 
 NOR  HE ES        3 9 51.49                             105   -0.08 9  157 206 
 NOR  HZ I         3 9 54.20        21.7 0.14            102            157 206 
 HEL  HZ EP   1    3 9 34.05                             105   -0.12 7  160 243 
 HEL  HE ES        3 9 53.47                             105    0.74 9  160 243 
 HEL  HZ I         3 9 58.12        16.9 0.30            102            160 243 
 RUS  HZ EP        3 9 34.93                             104   -0.07 9  165 129 
 RUS  HN ES        3 9 53.96                             104   -0.26 9  165 129 
 RUS  HZ I         3 9 56.08        17.8 0.13            102            165 129 
 URE  HZ EP        3 9 35.00                             103   -0.53 9  175 305 
 URE  HN ES        3 9 54.89                             103   -0.28 9  175 305 
 URE  HZ I         310  0.19        38.7 0.16            101            175 305 
 PAM  SZ EP        3 9 36.74                             103    0.13 9  179  72 
 PAM  SE ES        3 9 57.53                             103    0.45 9  179  72 
 OCA  HZ EP        3 9 37.22                             102    0.28 9  185  33 
 OCA  HN ES        3 9 57.37                             102   -0.30 9  185  33 
 SML  HZ EP        3 9 40.22                             100   -0.47 8  218   5 
 SML  HN ES        310  5.25                             100    0.90 8  218   5 
 SML  HZ I         310  7.97        25.1 0.10             98            218   5 
 GUY2CHZ EP        3 9 42.27                             100    0.95 8  218 215 
 GUY2CHN ES   1    310  5.08                             100   -0.39 6  218 215 
 GUY2CHZ I         310 12.44         6.7 0.40                           218 215 
 CBOC HZ EP   1    3 9 41.78                             100    0.10 6  224 241 
 CBOC HE ES   1    310  5.76                             100   -0.34 6  224 241 
 CBOC HZ I         310 18.54         6.0 0.60             97            224 241 
 RREF HZ EP   4    3 9 46.38                              98    1.31 0  247 210 
 RREF HE ES   1    310 12.22                              98    0.07 6  247 210 
 RREF HZ I         310 17.66        13.1 0.24             97            247 210 
 CHI  HZ EP   1    3 9 45.97                              98    0.70 6  251 167 
 CHI  HN ES   1    310 12.57                              98    0.08 6  251 167 
 CHI  HZ I         310 17.69         5.2 0.48             97            251 167 
 ORTC HN ES   1    310 32.29                              95    0.55 5  343 199 
 ORTC HZ I         310 44.61         4.3 0.32             94            343 199 
 SJC  HZ EP        3 9 56.24                              95   -1.18 6  353 343 
 SJC  HN ES   4    310 31.59                              95   -2.53 0  353 343 
 SJC  HZ I         310 35.78         6.2 0.50             94            353 343 
 PRA  HZ EP   4    310  0.94                              95    3.59 0  353 192 
 PRA  HN ES   4    310 37.84                              95    3.84 0  353 192 
                                                                                
