 2017 1222 0308  8.1 L   6.182 -73.685109.0  RSN  6 0.3 1.6LRSN                1
 GAP= 95        0.70       2.6     2.5  5.5  0.1497E+01 -0.3343E+01 -0.3675E+01E
 Epicentro: LA PAZ - SANTANDER                                                 3
 ACTION:UPD 18-01-04 13:22 OP:rebc STATUS:               ID:20171222030808 L   I
 OLDACT:UP  17-12-22 14:55 OP:dani STATUS:               ID:20171222030315     3
 OLDACT:REG 17-12-22 12:49 OP:dani STATUS:               ID:20171222030315     3
 2017-12-22-0308-00M.COL___469                                                 6
 STAT SP IPHASW D HRMM SECON CODA AMPLIT PERI AZIMU VELO AIN AR TRES W  DIS CAZ7
 BAR2 EZ EP        3 8 25.47                             144   -0.3710 71.8  51 
 BAR2 EZ ES        3 8 39.84                             144    0.1910 71.8  51 
 BAR2 EZ I         3 8 40.66         8.4 0.46            145           71.8  51 
 SPBC HZ EP        3 8 25.63                             144   -0.0610 72.6 216 
 SPBC HN ES        3 8 39.67                             144    0.3010 72.6 216 
 SPBC HZ I         3 8 41.64        12.7 0.16            146           72.6 216 
 PTB  HZ EP        3 8 27.53                             136    0.2610 94.0 295 
 PTB  HN ES        3 8 41.70                             136   -0.4910 94.0 295 
 PTB  HZ I         3 8 44.60         2.2 0.06            137           94.0 295 
 YPLC HZ EP        3 8 34.48                             118   -0.20 9  169 121 
 YPLC HN ES        3 8 55.38                             118    0.01 9  169 121 
 YPLC HZ I         3 8 56.93         8.0 0.32            120            169 121 
 ZAR  HE ES        3 9  0.42                             114    0.17 9  194 318 
 OCA  HZ EP        3 8 42.06                             110    0.32 8  231  10 
 OCA  HN ES        3 9  7.93                             110   -0.02 8  231  10 
 OCA  HZ I         3 9 13.07         7.5 0.32            111            231  10 
                                                                                
