 2015  922 0407 47.3 L   6.822 -73.151146.9  RSN 14 0.4 2.0LRSN                1
 GAP=135        1.11       2.8     4.1  5.6 -0.1616E+01  0.6029E+01  0.3347E+00E
 Epicentro: LOS SANTOS - SANTANDER                                             3
 ACTION:UPD 15-10-28 16:27 OP:cam  STATUS:               ID:20150922040747 L   I
 OLDACT:UP  15-09-22 16:53 OP:mh   STATUS:               ID:20150922035748     3
 OLDACT:UP  15-09-22 16:52 OP:mh   STATUS:               ID:20150922035748     3
 OLDACT:REG 15-09-22 14:07 OP:mh   STATUS:               ID:20150922035748     3
 2015-09-22-0357-48M.COL___358                                                 6
 STAT SP IPHASW D HRMM SECON CODA AMPLIT PERI AZIMU VELO AIN AR TRES W  DIS CAZ7
 BAR2 EZ EP        4 8  7.06                             170   -0.0610 25.6 188 
 BAR2 EZ ES        4 8 22.44                             170   -0.1410 25.6 188 
 BAR2 EZ I         4 8 24.59        22.7 0.24            170           25.6 188 
 BRR  HZ EP        4 8  9.02                             153    0.5310 69.5 297 
 BRR  HN ES        4 8 25.55                             153    0.5410 69.5 297 
 BRR  HZ I         4 8 26.41        14.9 0.28            150           69.5 297 
 PAM  EZ EP        4 8 10.13                             151    0.5710 76.0  41 
 PAM  EN ES        4 8 27.15                             151    0.2310 76.0  41 
 PAM  EZ I         4 8 29.36         9.4 0.32            153           76.0  41 
 RUS  HZ EP        4 8 11.16                             143   -0.1910  103 176 
 RUS  HN ES        4 8 29.43                             143   -0.6610  103 176 
 RUS  HZ I         4 8 30.93         7.4 0.32            146            103 176 
 PTB  HZ EP        4 8 13.87                             132   -0.49 9  148 258 
 PTB  HN ES        4 8 34.73                             132   -0.73 9  148 258 
 PTB  HZ I         4 8 37.16         8.0 0.10            131            148 258 
 OCA  HZ EP        4 8 15.02                             130   -0.46 9  158 353 
 OCA  HN ES        4 8 37.50                             130    0.05 9  158 353 
 OCA  HZ I         4 8 45.33        22.4 0.22            130            158 353 
 SPBC HZ EP        4 8 15.92                             129   -0.12 9  165 218 
 SPBC HE ES        4 8 39.20                             129    0.76 9  165 218 
 SPBC HZ I         4 8 42.20        14.8 0.12            129            165 218 
 ZAR  HZ EP        4 8 20.42                             123    0.74 9  203 292 
 ZAR  HN ES        4 8 44.70                             123   -0.23 9  203 292 
 ZAR  HZ I         4 8 50.12        11.6 0.38            122            203 292 
 NOR  HZ EP        4 8 23.06                             119   -0.14 8  236 234 
 NOR  HN ES        4 8 51.72                             119    0.52 8  236 234 
 NOR  HZ I         4 8 58.23         5.1 0.24            119            236 234 
 SML  HZ EP        4 8 23.37                             118   -0.37 8  241 335 
 SML  HN ES        4 8 51.66                             118   -0.49 8  241 335 
 SML  HZ I         4 9  1.73        14.2 0.10            118            241 335 
 CHI  HZ EP        4 8 25.49                             117    0.18 8  251 195 
 CHI  HN ES        4 8 54.51                             117   -0.43 8  251 195 
 CHI  HZ I         4 8 57.76         5.9 0.64            118            251 195 
 ROSC BZ EP   4    4 8 27.72                             117    2.04 0  254 211 
 ROSC BN ES   4    4 8 57.16                             117    1.55 0  254 211 
 ROSC BZ I         4 9  1.68        16.4 0.07            117            254 211 
 HEL  HE ES        4 8 58.82                             115   -0.17 8  272 255 
 HEL  HZ I         4 9  5.56         3.8 0.24            115            272 255 
 GUY2CHZ EP        4 8 31.53                             112    0.46 7  302 234 
 GUY2CHN ES   4    4 9  7.92                             112    2.72 0  302 234 
 GUY2CHZ I         4 9 13.13         5.0 0.58                           302 234 
                                                                                
