 2013  422 0001 27.5 L   6.807 -73.158143.3  RSN 11 0.4 2.2LRSN                1
 GAP=135        1.05       3.2     4.3  6.2 -0.1738E+01  0.6434E+01  0.1397E+01E
 Epicentro: LOS SANTOS - SANTANDER                                             3
 ACTION:UPD 13-05-22 14:40 OP:EP   STATUS:               ID:20130422000127 L   I
 2013-04-22-0000-00M.COL___250                                                 6
 STAT SP IPHASW D HRMM SECON CODA AMPLIT PERI AZIMU VELO AIN AR TRES W  DIS CAZ7
 BAR2 SZ EP        0 1 46.96                             170    0.0810 23.9 187 
 BAR2 SZ ES   1    0 2  1.31                             170   -0.66 7 23.9 187 
 BAR2 SZ I         0 2  3.23        15.6 0.44            166           23.9 187 
 BRR  HZ EP        0 1 48.71                             153    0.3810 69.7 298 
 BRR  HN ES        0 2  5.32                             153    0.7710 69.7 298 
 BRR  HN I         0 2  5.96        52.0 0.32            144           69.7 298 
 PAM  SZ EP        0 1 49.88                             150    0.3710 77.7  41 
 PAM  SN ES        0 2  6.86                             150    0.2210 77.7  41 
 PAM  SN I         0 2  8.33        30.9 0.52            147           77.7  41 
 RUS  HZ EP        0 1 51.00                             143   -0.1110  101 175 
 RUS  HN ES        0 2  9.33                             143   -0.1710  101 175 
 PTB  HZ EP        0 1 53.50                             132   -0.70 9  147 258 
 PTB  HN ES        0 2 14.56                             132   -0.44 9  147 258 
 PTB  HZ I         0 2 17.20        12.2 0.48            123            147 258 
 OCA  HZ EP   1    0 1 55.54                             129   -0.03 7  159 354 
 OCA  HN ES        0 2 16.64                             129   -0.80 9  159 354 
 OCA  HN I         0 2 19.87        50.2 0.24            122            159 354 
 ZAR  HN ES        0 2 24.85                             122    0.13 9  203 292 
 ZAR  HN I         0 2 30.95        20.9 0.46            114            203 292 
 NOR  HZ EP        0 2  3.56                             118    0.50 8  234 234 
 NOR  HN ES        0 2 31.19                             118    0.43 8  234 234 
 NOR  HN I         0 2 38.65        17.0 0.16            111            234 234 
 SML  HZ EP        0 2  3.89                             117    0.00 8  242 336 
 SML  HE ES   1    0 2 32.02                             117   -0.22 6  242 336 
 HEL  HZ EP   4    0 2  8.73                             114    1.23 0  271 256 
 HEL  HN I         0 2 45.84         5.6 0.36            108            271 256 
 PRA  HZ EP        0 2 21.23                             106    0.26 6  392 209 
 PRA  HN ES        0 3  2.08                             106   -0.58 6  392 209 
 PRA  HN I         0 3  7.42         4.0 0.46            101            392 209 
                                                                                
