 2017  422 0456 46.5 L   6.819 -73.194142.0  RSN  6 0.3 1.3LRSN                1
 GAP=134        0.72       4.8     3.3  5.7 -0.5319E+01  0.4710E+01  0.1699E+01E
 Epicentro: ZAPATOCA - SANTANDER                                               3
 ACTION:UPD 17-05-30 21:14 OP:jn   STATUS:               ID:20170422045646 L   I
 OLDACT:REG 17-04-22 11:54 OP:dnl  STATUS:               ID:20170422044003     3
 2017-04-22-0448-00M.COL___368                                                 6
 STAT SP IPHASW D HRMM SECON CODA AMPLIT PERI AZIMU VELO AIN AR TRES W  DIS CAZ7
 BAR2 EZ EP        457  5.46                             170   -0.2910 25.1 177 
 BAR2 EZ ES        457 20.78                             170    0.0410 25.1 177 
 BAR2 EZ I         457 23.15         7.7 0.28            170           25.1 177 
 BRR  HZ EP        457  7.18                             154    0.2210 65.5 299 
 BRR  HE ES        457 23.34                             154    0.4410 65.5 299 
 BRR  HZ I         457 26.73         3.7 0.14            151           65.5 299 
 PAM  EZ IP     C  457  8.30                             150   -0.1810 79.4  43 
 PAM  EE ES        457 25.64                             150    0.0510 79.4  43 
 PAM  EZ I         457 27.17         3.1 0.70            154           79.4  43 
 PTB  HZ EP   2    457 12.36                             132   -0.40 5  143 258 
 PTB  HN ES        457 32.76                             132   -0.45 9  143 258 
 PTB  HZ I         457 40.35         2.1 0.48            133            143 258 
 ZAR  HZ EP   2    457 18.72                             123    0.57 4  198 292 
 ZAR  HN ES        457 42.52                             123   -0.28 9  198 292 
 ZAR  HZ I         457 48.53         2.6 0.26            123            198 292 
 NOR  HZ EP   2    457 22.08                             118    0.37 4  232 233 
 NOR  HE ES        457 49.53                             118    0.38 8  232 233 
 NOR  HZ I         457 52.22         1.5 0.22            120            232 233 
                                                                                
