 2016  322 0518 56.0 L   6.291 -73.556114.7  RSN 11 0.4 1.5LRSN                1
 GAP= 56        1.04       3.2     2.8  6.5 -0.1595E+01  0.6359E+01 -0.4034E+01E
 Epicentro: EL GUACAMAYO - SANTANDER                                           3
 ACTION:UPD 16-05-13 21:26 OP:cam  STATUS:               ID:20160322051856 L   I
 OLDACT:REG 16-03-22 13:00 OP:ak   STATUS:               ID:20160322051742     3
 2016-03-22-0517-42M.COL___304                                                 6
 STAT SP IPHASW D HRMM SECON CODA AMPLIT PERI AZIMU VELO AIN AR TRES W  DIS CAZ7
 BAR2 EZ EP        519 13.66                             154    0.5210 53.0  51 
 BAR2 EZ ES        519 27.00                             154    0.5110 53.0  51 
 BAR2 EZ I         519 28.70         9.9 0.34            150           53.0  51 
 RUS  HZ EP        519 14.40                             147   -0.0310 68.4 130 
 RUS  HN ES        519 28.70                             147   -0.0910 68.4 130 
 RUS  HZ I         519 30.94         2.5 0.20            149           68.4 130 
 SPBC HZ EP        519 15.70                             139    0.1810 90.9 219 
 SPBC HN ES        519 30.68                             139   -0.0410 90.9 219 
 SPBC HZ I         519 35.18        13.8 0.10            138           90.9 219 
 PTB  HZ EP        519 15.57                             135   -0.8810  103 285 
 PTB  HN ES   4    519 30.53                             135   -1.86 0  103 285 
 PTB  HZ I         519 32.91        11.3 0.12            130            103 285 
 NOR  HZ EP        519 22.92                             120    0.30 9  166 241 
 NOR  HN ES        519 43.07                             120   -0.29 9  166 241 
 NOR  HZ I         519 45.61         5.7 0.18            118            166 241 
 CHI  HZ EP   2    519 25.39                             118    0.32 4  185 186 
 CHI  HE ES        519 47.17                             118   -0.55 9  185 186 
 ZAR  HZ EP        519 25.54                             116   -0.21 9  196 313 
 ZAR  HN ES        519 48.62                             116   -0.32 9  196 313 
 ZAR  HZ I         519 53.70         3.9 0.32            112            196 313 
 TAM  HZ EP        519 26.18                             116    0.38 9  196  85 
 TAM  HN ES        519 48.40                             116   -0.62 9  196  85 
 OCA  HZ EP   4    519 30.04                             113    1.76 0  217   7 
 OCA  HE ES        519 53.27                             113   -0.17 8  217   7 
 HEL  HZ EP        519 28.93                             113    0.18 8  219 267 
 HEL  HN ES        519 54.74                             113    0.47 8  219 267 
 GUY2CHZ EP        519 31.11                             112    0.65 8  233 240 
 GUY2CHE ES   4    519 58.87                             112    1.56 0  233 240 
 GUY2CHZ I         520  6.06         2.5 0.54                           233 240 
                                                                                
