 2014 1122 0157 20.4 L   6.589 -73.075172.0  RSN  7 0.5 1.6LRSN                1
 GAP=231        1.34       7.8     8.5  9.1  0.2291E+02  0.8816E+01 -0.6107E+01E
 Epicentro: CURITI - SANTANDER                                                 3
 ACTION:UPD 14-12-19 15:45 OP:nd   STATUS:               ID:20141122015720 L   I
 OLDACT:REG 14-11-22 13:05 OP:fm   STATUS:               ID:20141122014748     3
 2014-11-22-0147-48M.COL___300                                                 6
 STAT SP IPHASW D HRMM SECON CODA AMPLIT PERI AZIMU VELO AIN AR TRES W  DIS CAZ7
 BAR2 SZ EP        157 42.34                             176   -0.7410 11.8 272 
 BAR2 SZ ES        158  0.23                             176   -0.5110 11.8 272 
 BAR2 SZ I         158  2.07         8.6 0.42            170           11.8 272 
 RUS  HZ EP        157 46.13                             155    0.6510 77.0 181 
 RUS  HN ES        158  5.07                             155    0.0510 77.0 181 
 RUS  HZ I         158  7.33        10.0 0.74            158           77.0 181 
 BRR  HZ EP        157 45.92                             151    0.3910 90.7 309 
 BRR  HN ES        158  5.73                             151    0.6310 90.7 309 
 BRR  HZ I         158 11.26         5.0 0.22            148           90.7 309 
 SPBC HZ EP        157 50.79                             137    0.74 9  151 227 
 SPBC HN ES        158 12.95                             137   -0.21 9  151 227 
 SPBC HZ I         158 17.24         5.1 0.12            137            151 227 
 PTB  HZ EP        157 49.43                             136   -0.64 9  153 268 
 PTB  HN ES        158 13.01                             136   -0.18 9  153 268 
 PTB  HZ I         158 15.29         5.3 0.12            136            153 268 
 ZAR  HZ EP        157 55.73                             125   -0.63 8  221 297 
 ZAR  HN ES        158 24.69                             125    0.31 8  221 297 
 ZAR  HZ I         158 34.40         2.5 0.28            125            221 297 
 MON  HZ EP   4    158 10.89                             112   -2.03 0  374 310 
 MON  HN ES   4    158 52.78                             112   -1.07 0  374 310 
 MON  HZ I         158 57.57         0.5 0.22            112            374 310 
                                                                                
