 2017  122 0837 46.7 L   6.786 -73.170147.8  RSN  5 0.3 1.0LRSN                1
 GAP=234        0.85       7.7     6.1  8.1  0.2742E+02  0.2371E+01 -0.1695E+02E
 Epicentro: LOS SANTOS - SANTANDER                                             3
 ACTION:UPD 17-05-22 16:02 OP:jn   STATUS:               ID:20170122083746 L   I
 OLDACT:UP  17-01-22 17:42 OP:dani STATUS:               ID:20170122082743d    3
 OLDACT:DUP 17-01-22 17:39 OP:dani STATUS:               ID:20170122082743d    3
 OLDACT:UP  17-01-22 17:39 OP:dani STATUS:               ID:20170122082742     3
 OLDACT:UP  17-01-22 17:39 OP:dani STATUS:               ID:20170122082742     3
 OLDACT:REG 17-01-22 13:21 OP:dani STATUS:               ID:20170122082742     3
 2017-01-22-0828-00M.COL___331                                                 6
 STAT SP IPHASW D HRMM SECON CODA AMPLIT PERI AZIMU VELO AIN AR TRES W  DIS CAZ7
 BAR2 EZ EP        838  6.27                             171   -0.3010 21.5 184 
 BAR2 EZ ES        838 21.88                             171   -0.1710 21.5 184 
 BAR2 EZ I         838 22.98         2.4 0.28            169           21.5 184 
 BRR  HZ EP        838  8.04                             153    0.0310 69.6 301 
 RUS  HZ EP        838 10.83                             144    0.2410 99.3 174 
 RUS  HN ES        838 29.56                             144    0.3610 99.3 174 
 RUS  HZ I         838 30.85         0.9 0.27            144           99.3 174 
 PTB  HZ EP        838 13.31                             133   -0.29 9  145 259 
 PTB  HN ES        838 34.16                             133   -0.40 9  145 259 
 PTB  HZ I         838 36.64         1.5 0.08            133            145 259 
 ZAR  HN ES        838 44.99                             123    0.61 9  202 293 
                                                                                
