 2017 1022 0957 53.4 L   6.979 -73.155147.7  RSN  7 0.4 1.7LRSN                1
 GAP=125        1.06       4.9     4.3  6.6  0.7432E+01  0.3872E+01  0.3871E+01E
 Epicentro: GIRON - SANTANDER                                                  3
 ACTION:UPD 17-11-07 19:35 OP:rebc STATUS:               ID:20171022095753 L   I
 OLDACT:REG 17-10-22 14:15 OP:dani STATUS:               ID:20171022094742     3
 2017-10-22-0948-00M.COL___381                                                 6
 STAT SP IPHASW D HRMM SECON CODA AMPLIT PERI AZIMU VELO AIN AR TRES W  DIS CAZ7
 BAR2 EZ EP        958 13.69                             163   -0.1610 42.9 184 
 BAR2 EZ ES        958 28.69                             163   -1.0810 42.9 184 
 BAR2 EZ I         958 30.50         9.6 0.40            164           42.9 184 
 BRR  HZ EP        958 14.66                             156    0.2910 63.1 283 
 BRR  HE ES        958 31.19                             156    0.4910 63.1 283 
 BRR  HN ES        958 31.98                             156           63.1 283 
 BRR  HZ I         958 34.85        12.2 0.12            155           63.1 283 
 PAM  EZ EP        958 15.06                             155   -0.0810 64.2  52 
 PAM  EN ES        958 32.25                             155    0.1910 64.2  52 
 PAM  EZ I         958 33.90         4.2 0.20            158           64.2  52 
 RUS  HZ EP        958 19.07                             139    0.1810  120 176 
 RUS  HN ES        958 39.00                             139    0.2610  120 176 
 RUS  HZ I         958 40.08         6.6 0.34            141            120 176 
 PTB  HZ EP        958 20.61                             132   -0.33 9  152 251 
 PTB  HN ES        958 42.39                             132    0.01 9  152 251 
 PTB  HZ I         958 44.66         5.6 0.12            132            152 251 
 YPLC HZ EP        958 25.01                             124   -0.16 9  195 154 
 YPLC HN ES        958 50.45                             124    0.53 9  195 154 
 YPLC HZ I         958 51.44         4.6 0.30            126            195 154 
 ZAR  HZ EP        958 24.87                             124   -0.37 9  196 287 
 ZAR  HN ES        958 50.32                             124    0.28 9  196 287 
 ZAR  HZ I         958 56.18         8.9 0.26            125            196 287 
                                                                                
