 2010  722 0742 40.9 L   6.876 -73.090143.0  RSN 10 0.4 1.8LRSN                1
 GAP=164        0.75       4.2     6.4  7.9 -0.7780E+01 -0.6042E+01  0.5055E+01E
 Epicentro: LOS SANTOS - SANTANDER                                             3
 ACTION:UPD 10-12-01 15:19 OP:pat  STATUS:               ID:20100722074240 L   I
 2010-07-22-0741-23S.COL___123                                                 6
 STAT SP IPHASW D HRMM SECON CODA AMPLIT PERI AZIMU VELO AIN AR TRES W  DIS CAZ7
 BAR2 SZ EP        743  0.26                             166    -0.210   33 198 
 BAR2 SZ I         743 17.18        10.0 0.15                            33 198 
 BRR  HZ EP        743  1.69                             151    -0.210   73 290 
 BRR  HE ES   1    743 18.33                             151     0.1 7   73 290 
 BRR  HZ I         743 20.85        13.5 0.28                            73 290 
 GUE  SZ EP        743  4.60                             141     0.010  107  10 
 RUS  HZ EP   1    743  4.81                             141    -0.2 7  109 180 
 RUS  HN ES   2    743 23.85                             141     0.1 5  109 180 
 RUS  HZ I         743 24.87         6.3 0.35                           109 180 
 GRA  SZ IP        743  5.34                             139     0.210  116  16 
 GRA  SZ I         743 25.79        10.4 0.28                           116  16 
 OCA  SZ EP   2    743  8.15                             130    -0.1 5  153 350 
 OCA  SZ I         743 34.01         6.6 0.45                           153 350 
 CHI  HZ EP   1    743 19.20                             115    -0.3 6  258 196 
 CHI  HN ES   2    743 50.48                             115     0.9 4  258 196 
 CHI  HZ I         743 55.37         3.2 0.23                           258 196 
 HEL  HZ EP   1    743 22.55                             113     0.7 6  280 254 
 HEL  HE ES   2    743 53.01                             113    -0.8 4  280 254 
 HEL  HZ I         743 59.22         6.2 0.34                           280 254 
 RREF HZ EP   1    743 28.58                             109     0.5 5  332 229 
 RREF HZ I         744 11.72         4.5 0.16                           332 229 
 PRA  HZ EP   2    743 34.92                             105    -0.6 3  402 210 
 PRA  HZ I         744 24.09         3.1 0.34                           402 210 
                                                                                
