 2011  922 0002 27.5 L   6.707 -73.148150.4  RSN  8 0.4 1.8LRSN                1
 GAP=182        0.68       3.1     5.9  5.4 -0.1060E+01  0.3281E+01  0.2691E+01E
 Epicentro: VILLANUEVA - SANTANDER                                             3
 ACTION:UPD 12-07-13 15:59 OP:ep   STATUS:               ID:20110922000227 L   I
 2011-09-22-0000-26S.COL___150                                                 6
 STAT SP IPHASW D HRMM SECON CODA AMPLIT PERI AZIMU VELO AIN AR TRES W  DIS CAZ7
 BAR2 SZ EP        0 2 47.37                             175   -0.1810 13.2 197 
 BAR2 SZ ES   1    0 3  2.56                             175   -0.61 7 13.2 197 
 BAR2 SZ I         0 3  5.37        14.4 0.32                          13.2 197 
 BRR  HZ EP        0 2 49.37                             152   -0.0910 76.5 305 
 BRR  HE ES        0 3  6.58                             152    0.0010 76.5 305 
 BRR  HZ I         0 3  8.58        13.9 0.09                          76.5 305 
 RUS  HZ EP   1    0 2 51.19                             148    0.16 7 90.3 175 
 RUS  HN ES   1    0 3  9.99                             148    0.62 7 90.3 175 
 RUS  HZ I         0 3 11.56         6.7 0.29                          90.3 175 
 OCA  SZ EP   1    0 2 56.95                             129   -0.19 7  170 354 
 OCA  SZ ES   1    0 3 20.91                             129    0.65 7  170 354 
 OCA  SZ I         0 3 25.78         8.9 0.20                           170 354 
 NOR  SN ES   1    0 3 30.43                             120   -0.03 6  229 237 
 CHI  HZ EP   2    0 3  4.23                             119   -0.17 4  239 196 
 CHI  HE ES   2    0 3 32.76                             119   -0.42 4  239 196 
 CHI  HZ I         0 3 40.62         3.9 0.33                           239 196 
 HEL  HZ EP   2    0 3  7.68                             116    0.00 4  269 258 
 HEL  HZ I         0 3 45.82         5.0 0.45                           269 258 
 PRA  HZ EP   1    0 3 19.84                             108   -0.30 4  383 210 
 PRA  HE ES   1    0 4  1.86                             108    0.66 4  383 210 
                                                                                
