 2016  622 0130 37.0 L   6.702 -73.051143.5  RSN 10 0.5 1.7LRSN                1
 GAP=153        1.04       4.2     4.7  6.5 -0.4303E+01  0.1128E+02  0.2690E+01E
 Epicentro: ARATOCA - SANTANDER                                                3
 ACTION:UPD 16-07-21 22:21 OP:rebc STATUS:               ID:20160622013037 L   I
 OLDACT:REG 16-06-22 13:17 OP:ak   STATUS:               ID:20160622012744     3
 2016-06-22-0127-44M.COL___325                                                 6
 STAT SP IPHASW D HRMM SECON CODA AMPLIT PERI AZIMU VELO AIN AR TRES W  DIS CAZ7
 BAR2 EZ EP        130 56.68                             172    0.3910 18.9 230 
 BAR2 EZ ES        131 11.96                             172    0.6310 18.9 230 
 PAM  EZ EP        130 59.75                             149    0.5610 80.5  29 
 PAM  EN ES        131 16.03                             149   -0.4410 80.5  29 
 PAM  EZ I         131 19.90         3.8 0.42                          80.5  29 
 BRR  HZ EP        130 58.77                             147   -0.0510 85.7 302 
 BRR  HE ES        131 15.89                             147    0.0710 85.7 302 
 BRR  HZ I         131 16.59        13.4 0.44                          85.7 302 
 RUS  HZ EP        130 59.80                             147    0.0310 89.5 182 
 RUS  HN ES        131 16.89                             147   -0.6310 89.5 182 
 PTB  HZ EP        131  3.58                             130   -1.03 9  156 263 
 PTB  HN ES   4    131 24.22                             130   -1.91 0  156 263 
 PTB  HZ I         131 26.89         5.5 0.09                           156 263 
 SPBC HZ EP        131  5.24                             129    0.01 9  162 224 
 SPBC HN ES        131 27.25                             129    0.01 9  162 224 
 ZAR  HZ EP   2    131 10.26                             120   -0.51 4  218 294 
 ZAR  HN ES        131 36.84                             120   -0.26 8  218 294 
 ZAR  HZ I         131 42.04         5.3 0.12                           218 294 
 NOR  HZ EP   2    131 13.01                             118    0.10 4  237 238 
 NOR  HN ES        131 41.29                             118    0.39 8  237 238 
 NOR  HZ I         131 46.42         4.1 0.20                           237 238 
 HEL  HZ EP   2    131 18.65                             114    0.66 4  280 258 
 HEL  HN ES   2    131 50.48                             114    0.54 4  280 258 
 GUY2CHZ EP        131 21.22                             112    0.40 7  304 238 
 GUY2CHN ES        131 54.85                             112   -0.14 7  304 238 
 GUY2CHZ I         132  3.99         2.5 0.30                           304 238 
                                                                                
