 2017 1022 0316  6.2 L   6.842 -73.145151.9  RSN  4 0.4 1.1LRSN                1
 GAP=241        0.98       6.3     7.5  8.9  0.1459E+02 -0.6535E+01  0.1601E+01E
 Epicentro: LOS SANTOS - SANTANDER                                             3
 ACTION:UPD 17-11-07 19:35 OP:rebc STATUS:               ID:20171022031606 L   I
 OLDACT:UP  17-10-22 16:07 OP:dani STATUS:               ID:20171022030114     3
 OLDACT:REG 17-10-22 13:36 OP:dani STATUS:               ID:20171022030114     3
 2017-10-22-0308-00M.COL___408                                                 6
 STAT SP IPHASW D HRMM SECON CODA AMPLIT PERI AZIMU VELO AIN AR TRES W  DIS CAZ7
 BRR  HZ EP        316 28.19                             154    0.2710 69.1 295 
 BRR  HN ES        316 45.04                             154    0.1910 69.1 295 
 BRR  HZ I         316 49.95         4.5 0.45            156           69.1 295 
 RUS  HZ EP        316 30.64                             144   -0.2610  105 176 
 RUS  HN ES        316 49.97                             144   -0.1910  105 176 
 RUS  HZ I         316 51.20         1.4 0.24            147            105 176 
 PTB  HZ EP        316 33.84                             133    0.06 9  149 257 
 PTB  HE ES        316 54.56                             133   -0.72 9  149 257 
 PTB  HZ I         316 55.13         0.9 0.20            136            149 257 
 SPBC HZ EP        316 35.50                             130   -0.03 9  167 218 
 SPBC HE ES        316 59.11                             130    0.71 9  167 218 
 SPBC HZ I         317  3.53         1.6 0.27            133            167 218 
                                                                                
