 2012 1122 0648 13.2 L   6.781 -73.175139.7  RSN  7 0.3 1.9LRSN                1
 GAP=134        0.65       3.0     3.5  5.4 -0.1126E+01  0.7155E+01 -0.4549E+00E
 Epicentro: LOS SANTOS - SANTANDER                                             3
 ACTION:UPD 12-12-05 15:35 OP:}ep  STATUS:               ID:20121122064813 L   I
 2012-11-22-0640-00M.COL___234                                                 6
 STAT SP IPHASW D HRMM SECON CODA AMPLIT PERI AZIMU VELO AIN AR TRES W  DIS CAZ7
 BAR2 SZ EP        648 32.02                             171    0.0010 20.9 182 
 BAR2 SZ ES   1    648 46.78                             171    0.05 7 20.9 182 
 BAR2 SZ I         648 48.17        32.1 0.29                          20.9 182 
 PAM  SZ EP        648 34.98                             148    0.0110 81.1  40 
 PAM  SN ES        648 51.96                             148   -0.0210 81.1  40 
 PAM  SZ I         648 54.35        20.6 0.69                          81.1  40 
 RUS  HZ EP        648 36.03                             143   -0.1610 98.8 174 
 RUS  HE ES   1    648 54.52                             143    0.36 7 98.8 174 
 RUS  HE I         648 55.68         8.9 0.23                          98.8 174 
 PTB  HZ EP        648 38.89                             131   -0.43 9  144 259 
 PTB  HN ES   1    648 59.30                             131   -0.41 7  144 259 
 PTB  HZ I         649  1.86        11.1 0.21                           144 259 
 OCA  HZ EP   1    648 41.33                             128    0.15 7  162 354 
 OCA  HN ES   1    649  2.86                             128   -0.17 7  162 354 
 ZAR  HZ EP   1    648 45.29                             121    0.30 6  202 293 
 ZAR  HE ES   1    649 10.50                             121    0.68 6  202 293 
 PRA  HZ EP   1    649  6.78                             106    0.70 4  389 209 
                                                                                
