 2013  122 0802 29.7 L   6.802 -73.158148.8  RSN  5 0.2 1.5LRSN                1
 GAP=135        0.53       5.7     3.2  6.4 -0.8154E+01 -0.5810E+01  0.2382E+02E
 Epicentro: LOS SANTOS - SANTANDER                                             3
 ACTION:UPD 13-02-15 09:15 OP:ep   STATUS:               ID:20130122080229 L   I
 2013-01-22-0758-50M.COL___183                                                 6
 STAT SP IPHASW D HRMM SECON CODA AMPLIT PERI AZIMU VELO AIN AR TRES W  DIS CAZ7
 BAR2 SZ EP        8 2 49.60                             171   -0.0610 23.4 186 
 BRR  HZ EP        8 2 51.25                             153    0.1810 69.8 299 
 BRR  HN ES        8 3  8.00                             153    0.2310 69.8 299 
 PAM  SZ EP        8 2 52.35                             151    0.1010 78.1  40 
 PAM  SZ I         8 2 52.63         3.6 0.44            154           78.1  40 
 PAM  SN ES        8 3  9.62                             151   -0.2410 78.1  40 
 RUS  HZ EP        8 2 53.89                             144    0.1510  101 175 
 PTB  HZ EP        8 2 56.49                             133   -0.27 9  146 259 
 PTB  HE ES        8 3 17.76                             133   -0.14 9  146 259 
 PTB  HN I         8 3 22.51         6.4 0.36            132            146 259 
                                                                                
