 2015  222 0927 12.9 L   6.376 -73.278  9.6  RSN  7 0.4 1.3LRSN                1
 GAP=134        1.04       2.1     2.9  6.3  0.7543E+00  0.9852E+01  0.4697E+01E
 Epicentro: PALMAS DEL SOCORRO - SANTANDER                                     3
 ACTION:UPD 15-04-30 21:28 OP:nd   STATUS:               ID:20150222092712 L   I
 OLDACT:REG 15-02-22 12:50 OP:mh   STATUS:               ID:20150222091739     3
 2015-02-22-0917-39M.COL___272                                                 6
 STAT SP IPHASW D HRMM SECON CODA AMPLIT PERI AZIMU VELO AIN AR TRES W  DIS CAZ7
 BAR2 EZ IP     D  927 18.08                             105    0.2410 26.2  24 
 BAR2 EZ ES        927 21.53                             105   -0.1510 26.2  24 
 BAR2 EZ I         927 22.29        63.5 0.24            140           26.2  24 
 RUS  HZ EP        927 22.49                              96   -0.3110 57.6 158 
 RUS  HE ES        927 30.27                              96   -0.2410 57.6 158 
 RUS  HZ I         927 33.52         7.7 0.30            111           57.6 158 
 BRR  HZ EP        927 28.36                              93    0.5710 94.0 329 
 BRR  HN ES        927 38.99                              93   -0.4010 94.0 329 
 BRR  HZ I         927 45.66         6.9 0.10             71           94.0 329 
 SPBC HZ EP        927 32.12                              93    0.4810  119 228 
 SPBC HN ES        927 46.42                              93    0.1810  119 228 
 SPBC HZ I         927 53.82         9.5 0.20             56            119 228 
 PTB  HZ EP        927 33.97                              92    0.4810  132 278 
 PTB  HE ES        927 48.83                              92   -0.7010  132 278 
 NOR  HE ES        928  5.94                              56    0.40 9  198 243 
 NOR  HZ I         928 10.30         1.9 0.28             56            198 243 
 GUY2CHZ EP        927 50.91                              56   -0.35 8  264 241 
 GUY2CHE ES        928 20.75                              56   -0.41 8  264 241 
 GUY2CHZ I         928 30.51         2.4 0.48                           264 241 
                                                                                
