 2011  722 0536 31.5 L   6.804 -73.138142.0  RSN 11 0.5 1.9LRSN                1
 GAP=126        0.84       3.8     5.7  7.4 -0.6561E+01 -0.7393E+00  0.3665E+01E
 Epicentro: LOS SANTOS - SANTANDER                                             3
 ACTION:UPD 12-07-25 14:02 OP:epov STATUS:               ID:20110722053631 L   I
 2011-07-22-0534-28S.COL___142                                                 6
 STAT SP IPHASW D HRMM SECON CODA AMPLIT PERI AZIMU VELO AIN AR TRES W  DIS CAZ7
 BAR2 SZ EP   1    536 50.63                             170   -0.02 7 23.9 192 
 BAR2 SZ I         537  6.49        26.1 0.28                          23.9 192 
 BRR  HZ EP   1    536 52.63                             152    0.40 7 71.8 298 
 BRR  HN ES   1    537  8.97                             152    0.53 7 71.8 298 
 RUS  HZ EP   1    536 54.83                             143   -0.04 7  101 177 
 RUS  HN ES   1    537 12.76                             143   -0.37 7  101 177 
 RUS  HZ I         537 14.96        17.3 0.27                           101 177 
 BRI  SZ EP   1    536 55.19                             141    0.25 7  108  20 
 BRI  SZ I         537 15.57        11.2 0.34                           108  20 
 GRA  SZ EP   1    536 56.50                             136    0.19 7  125  17 
 GRA  SZ ES   1    537 15.75                             136    0.05 7  125  17 
 GRA  SZ I         537 17.33        13.1 0.34                           125  17 
 OCA  SZ EP   1    536 59.33                             129   -0.12 7  160 353 
 OCA  SZ ES   1    537 20.71                             129   -0.57 7  160 353 
 OCA  SZ I         537 25.81        12.3 0.34                           160 353 
 NOR  SZ EP   1    537  7.09                             118    0.01 6  236 235 
 CHI  HZ EP   2    537  9.59                             116    0.57 4  249 195 
 CHI  HZ I         537 41.93         3.9 0.38                           249 195 
 HEL  HZ EP   2    537 12.84                             114    1.25 4  273 256 
 HEL  HN ES   1    537 41.71                             114   -1.18 6  273 256 
 SDV  BZ EP   1    537 20.31                             108   -0.94 5  359  50 
 PRA  HZ EP   1    537 25.40                             106    0.46 4  393 210 
                                                                                
