 2013  422 0034 19.2 L   6.786 -73.160146.0  RSN  6 0.3 1.8LRSN                1
 GAP=135        0.66       3.5     4.8  6.7  0.3188E+01  0.2359E+01 -0.5865E+00E
 Epicentro: LOS SANTOS - SANTANDER                                             3
 ACTION:UPD 13-05-22 14:40 OP:EP   STATUS:               ID:20130422003419 L   I
 2013-04-22-0030-00M.COL___250                                                 6
 STAT SP IPHASW D HRMM SECON CODA AMPLIT PERI AZIMU VELO AIN AR TRES W  DIS CAZ7
 BAR2 SZ EP   1    034 38.40                             171   -0.43 7 21.5 187 
 BRR  HZ EP   1    034 40.72                             153    0.37 7 70.6 300 
 BRR  HN ES        034 57.11                             153    0.2710 70.6 300 
 BRR  HN I         034 58.18        22.5 0.22            152           70.6 300 
 PAM  SZ EP   1    034 41.92                             150    0.34 7 79.6  40 
 PAM  SN ES   1    034 58.66                             150   -0.37 7 79.6  40 
 PAM  SN I         034 59.03         4.8 0.44            152           79.6  40 
 RUS  HZ EP   1    034 43.09                             144    0.21 7 99.1 175 
 RUS  HN ES   1    035  1.36                             144    0.02 7 99.1 175 
 RUS  HN I         035  4.24         5.0 0.78            144           99.1 175 
 PTB  HZ EP   1    034 45.70                             132   -0.33 7  146 259 
 PTB  HN ES   2    035  6.38                             132   -0.57 5  146 259 
 PTB  HN I         035  9.31         7.4 0.20            132            146 259 
 SML  HN ES        035 24.47                             117   -0.11 8  244 336 
 SML  HN I         035 28.40         9.1 0.10            118            244 336 
                                                                                
