 2012  622 0841 54.4 L   6.713 -73.173153.8  RSN  4 0.1 1.5LRSN                1
 GAP=227        0.33       3.6     3.4  4.3  0.4317E+01 -0.1435E+00 -0.3053E+01E
 Epicentro: VILLANUEVA - SANTANDER                                             3
 ACTION:UPD 12-08-06 17:51 OP:ep   STATUS:               ID:20120622084154 L   I
 2012-06-22-0840-00M.COL___193                                                 6
 STAT SP IPHASW D HRMM SECON CODA AMPLIT PERI AZIMU VELO AIN AR TRES W  DIS CAZ7
 BAR2 SZ EP        842 14.68                             175   -0.1210 13.4 184 
 BAR2 SZ I         842 14.77         4.5 0.18                          13.4 184 
 BRR  HZ EP        842 16.58                             153    0.0610 73.8 306 
 BRR  HZ I         842 16.97         7.4 0.32                          73.8 306 
 BRR  HN ES   1    842 33.82                             153    0.02 7 73.8 306 
 RUS  HN ES   1    842 37.01                             148    0.07 7 91.3 174 
 PTB  HZ EP        842 21.64                             135    0.05 9  143 262 
 PTB  HN ES   1    842 42.74                             135   -0.08 7  143 262 
                                                                                
