 2011 1022 0923 44.1 L   6.738 -73.152151.0  RSN 14 0.3 2.2LRSN                1
 GAP=115        0.43       2.0     2.5  3.4 -0.2746E+00  0.1537E+01  0.1579E+01E
 Epicentro: JORDAN - SANTANDER                                                 3
 ACTION:UPD 12-07-13 16:05 OP:ep   STATUS:               ID:20111022092344 L   I
 2011-10-22-0922-11S.COL___171                                                 6
 STAT SP IPHASW D HRMM SECON CODA AMPLIT PERI AZIMU VELO AIN AR TRES W  DIS CAZ7
 BAR2 SZ IP        924  4.25                             173    0.0610 16.5 192 
 BAR2 SZ ES   1    924 19.57                             173   -0.33 7 16.5 192 
 BAR2 SZ I         924 21.02        72.0 0.34                          16.5 192 
 GIR2 SZ EP   1    924  4.36                             165   -0.17 7 37.9 353 
 GIR2 SZ ES   2    924 20.63                             165    0.12 5 37.9 353 
 BRR  HZ IP     C  924  6.14                             152    0.2210 74.1 303 
 BRR  HZ I         924  6.42        36.0 0.20                          74.1 303 
 BRR  HE ES   1    924 23.37                             152    0.39 7 74.1 303 
 PAM  SZ EP        924  7.05                             150   -0.1210 83.2  37 
 PAM  SN ES   2    924 24.63                             150   -0.57 5 83.2  37 
 RUS  HZ IP     D  924  8.13                             147    0.2810 93.8 175 
 RUS  HN ES   2    924 26.11                             147   -0.31 5 93.8 175 
 RUS  HZ I         924 28.14        14.8 0.30                          93.8 175 
 OCA  SZ EP   2    924 13.08                             129   -0.31 5  167 354 
 OCA  SZ ES   2    924 36.37                             129    0.09 5  167 354 
 OCA  SZ I         924 41.54        16.7 0.42                           167 354 
 YOP  SZ EP   2    924 13.94                             128    0.02 4  173 152 
 YOP  SZ I         924 15.43         7.1 0.46                           173 152 
 YOP  SE ES   2    924 37.21                             128   -0.01 4  173 152 
 ZAR  HZ EP   2    924 17.13                             123    0.09 4  206 294 
 ZAR  HE ES   2    924 42.61                             123   -0.17 4  206 294 
 ZAR  HZ I         924 48.79        10.9 0.55                           206 294 
 NOR  SZ EP   2    924 19.63                             120    0.02 4  230 236 
 NOR  SN ES   2    924 47.19                             120   -0.15 4  230 236 
 ROSC BN ES   2    924 51.43                             118    0.21 4  247 212 
 ROSC BZ I         925  0.18        19.0 0.74                           247 212 
 HEL  HZ EP   2    924 23.65                             116   -0.63 4  270 257 
 HEL  HN ES   2    924 55.08                             116   -0.57 4  270 257 
 HEL  HZ I         925  2.57         5.6 0.98                           270 257 
 VIL  SE ES   2    925  0.71                             113    0.31 4  297 192 
 VIL  SZ I         925  6.83         6.2 0.37                           297 192 
 RREF HZ EP   2    924 30.03                             112    0.17 3  317 230 
 RREF HN ES   2    925  5.56                             112   -0.03 3  317 230 
 RREF HZ I         925 16.79        11.3 0.37                           317 230 
 PRA  HZ EP   2    924 37.00                             108   -0.02 3  386 210 
 PRA  HN ES   2    925 18.14                             108   -0.20 3  386 210 
                                                                                
