 2017  222 0517 40.2 L   6.769 -73.472113.4  RSN  4 0.3 0.8LRSN                1
 GAP=157        0.77       5.2     4.3  6.6  0.1046E+02  0.7092E+01  0.9672E+01E
 Epicentro: EL CARMEN - SANTANDER                                              3
 ACTION:UPD 17-05-24 15:39 OP:jn   STATUS:               ID:20170222051740 L   I
 OLDACT:UP  17-02-22 14:17 OP:cog  STATUS:               ID:20170222050620     3
 OLDACT:REG 17-02-22 12:58 OP:cog  STATUS:               ID:20170222050620     3
 2017-02-22-0508-00M.COL___379                                                 6
 STAT SP IPHASW D HRMM SECON CODA AMPLIT PERI AZIMU VELO AIN AR TRES W  DIS CAZ7
 BAR2 EZ EP        517 56.54                             161    0.1210 37.5 121 
 BAR2 EZ ES        518  8.73                             161   -0.3510 37.5 121 
 BAR2 EZ I         518  9.85         4.3 0.26            164           37.5 121 
 BRR  HZ EP        517 56.12                             156   -0.3210 45.8 325 
 BRR  HZ I         518  4.81         1.9 0.34            152           45.8 325 
 BRR  HN ES        518  9.50                             156    0.3810 45.8 325 
 RUS  HZ EP        518  1.81                             134    0.4210  106 156 
 RUS  HN ES        518 17.89                             134   -0.0310  106 156 
 RUS  HZ I         518 21.08         0.6 0.32            134            106 156 
 PTB  HZ EP        518  0.96                             132   -0.2910  112 257 
 PTB  HE ES        518 17.74                             132    0.0710  112 257 
 PTB  HZ I         518 24.60         1.1 0.12            128            112 257 
                                                                                
