 2016 1022 0935 14.3 L   6.812 -73.180140.3  RSN  4 0.2 1.1LRSN                1
 GAP=276        0.56       4.8     3.6  4.8  0.1876E+01  0.4132E+01 -0.2582E+01E
 Epicentro: ZAPATOCA - SANTANDER                                               3
 ACTION:UPD 16-11-09 19:21 OP:rebc STATUS:               ID:20161022093514 L   I
 OLDACT:REG 16-10-22 13:26 OP:and  STATUS:               ID:20161022092738     3
 2016-10-22-0928-00M.COL___337                                                 6
 STAT SP IPHASW D HRMM SECON CODA AMPLIT PERI AZIMU VELO AIN AR TRES W  DIS CAZ7
 BAR2 EZ EP        935 32.93                             170   -0.3310 24.3 181 
 BAR2 EZ ES        935 48.33                             170    0.2610 24.3 181 
 RUS  HZ EP        935 37.58                             142   -0.0210  102 174 
 RUS  HN ES        935 55.71                             142   -0.1010  102 174 
 RUS  HZ I         935 57.11         2.2 0.36            143            102 174 
 PTB  HZ EP        935 40.57                             131    0.10 9  144 258 
 PTB  HN ES        936  0.76                             131   -0.15 9  144 258 
 PTB  HZ I         936  6.71         1.1 0.18            130            144 258 
 SPBC HZ EP        935 42.55                             128    0.33 9  162 218 
 SPBC HN ES        936  3.97                             128   -0.05 9  162 218 
 SPBC HZ I         936  6.69         3.0 0.30            128            162 218 
                                                                                
