 2017  622 0330 36.7 L   6.722 -73.169149.9  RSN  5 0.3 1.6LRSN                1
 GAP=275        0.84       5.0     7.8  7.7 -0.9271E+01 -0.1222E+02  0.3744E+01E
 Epicentro: VILLANUEVA - SANTANDER                                             3
 ACTION:UPD 17-09-14 16:54 OP:jn   STATUS:               ID:20170622033036 L   I
 OLDACT:UP  17-06-22 14:59 OP:lv   STATUS:               ID:20170622032738     3
 OLDACT:REG 17-06-22 13:02 OP:lv   STATUS:               ID:20170622032738     3
 2017-06-22-0328-00M.COL___346                                                 6
 STAT SP IPHASW D HRMM SECON CODA AMPLIT PERI AZIMU VELO AIN AR TRES W  DIS CAZ7
 BRR  HZ EP        330 58.10                             152   -0.3310 73.6 305 
 BRR  HE ES        331 15.34                             152   -0.0310 73.6 305 
 BRR  HZ I         331 21.28         6.3 0.34            159           73.6 305 
 PTB  HZ EP   9    331  3.07                             134   -0.58 0  144 262 
 PTB  HN ES        331 23.52                                   -0.57 9  144 262 
 SPBC HN ES        331 26.91                             131    0.29 9  155 220 
 SPBC HZ I         331 29.92         5.2 0.14            137            155 220 
 ZAR  HZ EP        331  9.80                             123    0.28 9  205 295 
 ZAR  HN ES        331 35.35                             123    0.23 9  205 295 
 GUY2CHN ES        331 52.77                             113   -0.48 7  294 236 
                                                                                
