 2013  922 0849 14.6 L   6.795 -73.169149.2  RSN 10 0.5 2.0LRSN                1
 GAP=134        1.08       3.9     4.8  7.0 -0.2722E+01  0.6096E+01 -0.4621E+01E
 Epicentro: LOS SANTOS - SANTANDER                                             3
 ACTION:UPD 13-10-22 09:24 OP:ep   STATUS:               ID:20130922084914 L   I
 OLDACT:REG 13-09-22 12:18 OP:jn   STATUS:               ID:20130922084142     3
 2013-09-22-0841-42M.COL___237                                                 6
 STAT SP IPHASW D HRMM SECON CODA AMPLIT PERI AZIMU VELO AIN AR TRES W  DIS CAZ7
 BAR2 SZ EP        849 34.68                             171    0.0910 22.5 184 
 BAR2 SZ ES        849 50.20                             171   -0.0110 22.5 184 
 BAR2 SZ I         849 51.01        45.8 0.18            173           22.5 184 
 BRR  HZ EP        849 36.53                             154    0.5510 69.2 300 
 BRR  HN ES        849 53.48                             154    0.8010 69.2 300 
 BRR  HZ I         849 54.64        15.8 0.14            150           69.2 300 
 PAM  SZ EP        849 37.59                             151    0.3210 79.4  41 
 PAM  SN ES        849 54.53                             151   -0.4410 79.4  41 
 PAM  SZ I         849 56.98        10.7 0.60            152           79.4  41 
 RUS  HZ EP        849 38.65                             145    0.0210  100 175 
 RUS  HN ES   1    849 56.96                             145   -0.44 7  100 175 
 RUS  HZ I         849 58.46        10.8 0.34            148            100 175 
 PTB  HZ EP        849 41.22                             133   -0.36 9  145 259 
 PTB  HN ES        850  2.14                             133   -0.52 9  145 259 
 PTB  HZ I         850  6.57        13.7 0.14            133            145 259 
 SPBC HN ES   1    850  5.28                             130   -0.15 7  161 218 
 OCA  HZ EP   1    849 44.02                             130    0.85 7  161 354 
 OCA  HN ES   1    850  5.23                             130   -0.24 7  161 354 
 OCA  HZ I         850  7.83        16.3 0.24            130            161 354 
 ZAR  HN ES   1    850 12.76                             123    0.43 6  202 293 
 ZAR  HZ I         850 19.21         9.4 0.38            123            202 293 
 NOR  HE ES   1    850 18.20                             120    0.13 6  232 234 
 SML  HZ EP        849 50.91                             118   -0.41 8  243 336 
 SML  HN ES        850 19.22                             118   -0.78 8  243 336 
 SML  HZ I         850 28.18        12.5 0.24            118            243 336 
                                                                                
