 2017  322 0759  1.3 L   6.764 -73.116149.9  RSN  7 0.4 1.7LRSN                1
 GAP=123        1.10       5.1     4.9  7.2  0.5151E+01  0.5890E+01  0.1377E+02E
 Epicentro: LOS SANTOS - SANTANDER                                             3
 ACTION:UPD 17-05-25 18:43 OP:jn   STATUS:               ID:20170322075901 L   I
 OLDACT:UP  17-03-22 16:33 OP:dani STATUS:               ID:20170322075741     3
 OLDACT:REG 17-03-22 12:52 OP:dani STATUS:               ID:20170322075741     3
 2017-03-22-0758-00M.COL___352                                                 6
 STAT SP IPHASW D HRMM SECON CODA AMPLIT PERI AZIMU VELO AIN AR TRES W  DIS CAZ7
 BAR2 EZ EP     D  759 21.67                             172    0.2510 20.3 201 
 BAR2 EZ ES        759 36.84                             172   -0.2410 20.3 201 
 BAR2 EZ I         759 38.40         9.9 0.46            166           20.3 201 
 BRR  HZ EP        759 23.67                             152    0.4610 76.0 300 
 BRR  HE ES        759 40.71                             152    0.4410 76.0 300 
 BRR  HZ I         759 45.74         5.9 0.20            151           76.0 300 
 PAM  EE ES        759 41.59                             151   -0.2110 78.5  36 
 PTB  HZ EP        759 28.50                             132   -0.37 9  150 261 
 PTB  HN ES        759 49.57                             132   -0.78 9  150 261 
 PTB  HZ I         759 56.97         6.4 0.42            132            150 261 
 SPBC HZ EP        759 30.73                             130    0.66 9  162 221 
 SPBC HN ES        759 53.05                             130    0.57 9  162 221 
 SPBC HZ I         8 0  0.36         5.8 0.10            129            162 221 
 ZAR  HZ EP        759 34.47                             123   -0.05 8  209 293 
 ZAR  HE ES        759 59.99                             123   -0.42 8  209 293 
 ZAR  HZ I         8 0  5.54         4.3 0.48            124            209 293 
 PTGC HZ EP        759 44.60                             113   -0.23 7  304 159 
 PTGC HE ES        8 0 18.19                             113   -0.56 7  304 159 
 PTGC HZ I         8 0 24.32         2.2 0.46            114            304 159 
 SJC  HZ EP   4    759 55.46                             106   -2.18 0  414 327 
 SJC  HN ES   4    8 0 37.18                             106   -4.38 0  414 327 
                                                                                
