 2016  622 0110 30.7 L   6.120 -73.735103.3  RSN  6 0.2 1.4LRSN                1
 GAP=107        0.56       2.7     2.0  5.2 -0.1173E+01  0.2060E+01 -0.3497E+01E
 Epicentro: EL PENON - SANTANDER                                               3
 ACTION:UPD 16-07-21 22:21 OP:rebc STATUS:               ID:20160622011030 L   I
 OLDACT:UP  16-06-24 16:36 OP:nlst STATUS:               ID:20160622011030 L   3
 OLDACT:REG 16-06-22 14:47 OP:ak   STATUS:               ID:20160622010643     3
 2016-06-22-0106-43M.COL___325                                                 6
 STAT SP IPHASW D HRMM SECON CODA AMPLIT PERI AZIMU VELO AIN AR TRES W  DIS CAZ7
 SPBC HZ EP        110 46.83                             146   -0.2410 63.8 216 
 SPBC HN ES        110 59.92                             146    0.0910 63.8 216 
 RUS  HZ EP        110 48.85                             141    0.3010 76.4 109 
 RUS  HE ES        111  2.31                             141   -0.1610 76.4 109 
 BAR2 EZ EP   2    110 48.85                             139    0.34 5 80.4  49 
 BAR2 EZ ES        111  2.43                             139    0.0310 80.4  49 
 BAR2 EZ I         111  4.56        10.3 0.18                          80.4  49 
 PTB  HZ EP        110 49.44                             135    0.2410 92.3 300 
 PTB  HN ES        111  3.66                             135    0.0410 92.3 300 
 PTB  HZ I         111  6.47         3.2 0.10                          92.3 300 
 BRR  HZ EP        110 50.37                             129   -0.3310  109   1 
 BRR  HZ I         111  9.75         5.5 0.14                           109   1 
 NOR  HN ES        111 11.79                             122   -0.07 9  140 244 
                                                                                
