 2016  522 0419 35.5 L   6.753 -73.127141.4  RSN  7 0.3 1.5LRSN                1
 GAP=236        0.66       3.1     3.5  4.3  0.2835E+01  0.3883E+01  0.7216E+00E
 Epicentro: LOS SANTOS - SANTANDER                                             3
 ACTION:UPD 16-08-18 17:48 OP:cam  STATUS:               ID:20160522041935 L   I
 OLDACT:REG 16-05-22 13:08 OP:mh   STATUS:               ID:20160522041744     3
 2016-05-22-0417-44M.COL___292                                                 6
 STAT SP IPHASW D HRMM SECON CODA AMPLIT PERI AZIMU VELO AIN AR TRES W  DIS CAZ7
 BAR2 EZ EP        419 54.44                             172   -0.1110 18.8 199 
 BAR2 EZ ES        420  9.45                             172    0.0710 18.8 199 
 BAR2 EZ I         420 10.72         5.7 0.14            167           18.8 199 
 BRR  HZ EP        419 56.37                             150   -0.1010 75.6 301 
 BRR  HN ES        420 12.81                             150    0.0110 75.6 301 
 BRR  HZ I         420 14.26         7.2 0.40            148           75.6 301 
 RUS  HZ EP        419 58.08                             144   -0.3810 95.2 177 
 RUS  HN ES        420 16.66                             144    0.3110 95.2 177 
 RUS  HZ I         420 19.73         1.7 0.36            145           95.2 177 
 PTB  HZ EP   1    420  2.15                             131   -0.10 7  149 261 
 PTB  HN ES        420 22.81                             131   -0.28 9  149 261 
 PTB  HZ I         420 33.87         6.0 0.34            130            149 261 
 SPBC HZ EP        420  3.45                             128    0.01 9  161 221 
 SPBC HE ES        420 25.16                             128   -0.05 9  161 221 
 SPBC HZ I         420 28.08         4.5 0.20            128            161 221 
 ZAR  HZ EP        420  8.85                             121    0.74 8  208 293 
 ZAR  HN ES        420 33.38                             121   -0.14 8  208 293 
 ZAR  HZ I         420 38.48         4.5 0.40            122            208 293 
 NOR  HZ EP        420 10.79                             118   -0.08 8  233 236 
 NOR  HN ES        420 38.65                             118    0.21 8  233 236 
 NOR  HZ I         420 41.06         3.0 0.16            118            233 236 
                                                                                
