 2015  722 0057 55.2 L   6.781 -73.316143.2  RSN  4 0.2 1.5LRSN                1
 GAP=174        0.55       4.3    11.2  5.5  0.3500E+02  0.6197E+01 -0.6888E+01E
 Epicentro: ZAPATOCA - SANTANDER                                               3
 ACTION:UPD 15-09-08 21:50 OP:cam  STATUS:               ID:20150722005755 L   I
 OLDACT:DUP 15-07-22 14:55 OP:stll STATUS:               ID:20150722004749d    3
 OLDACT:REG 15-07-22 12:42 OP:stll STATUS:               ID:20150722004747     3
 2015-07-22-0047-47M.COL___334                                                 6
 STAT SP IPHASW D HRMM SECON CODA AMPLIT PERI AZIMU VELO AIN AR TRES W  DIS CAZ7
 BAR2 EZ IP     C  058 14.96                             169    0.4210 25.5 145 
 BAR2 EZ ES        058 29.70                             169    0.0510 25.5 145 
 BAR2 EZ I         058 31.02         9.0 0.24            161           25.5 145 
 PAM  EZ EP   1    058 17.91                             146   -0.15 7 92.0  48 
 RUS  HZ EP        058 18.65                             143   -0.0910  102 165 
 RUS  HN ES        058 36.91                             143   -0.2110  102 165 
 RUS  HZ I         058 39.25         3.6 0.20            144            102 165 
 SML  HZ EP        058 31.08                             117   -0.01 8  238 340 
 SML  HE ES        058 58.98                             117   -0.12 8  238 340 
 SML  HZ I         059 14.56         3.2 0.28            115            238 340 
                                                                                
