 2011 1222 0855 28.9 L   6.615 -73.218131.5  RSN  4 0.3 1.5LRSN                1
 GAP=144        0.70       9.7     5.7  7.4 -0.5250E+01  0.5202E+01  0.5792E+01E
 Epicentro: BARICHARA - SANTANDER                                              3
 ACTION:UPD 12-07-13 16:17 OP:ep   STATUS:               ID:20111222085528 L   I
 2011-12-22-0850-00M.COL___191                                                 6
 STAT SP IPHASW D HRMM SECON CODA AMPLIT PERI AZIMU VELO AIN AR TRES W  DIS CAZ7
 BAR2 SZ EP        855 47.01                             178    0.4110 4.72 122 
 BAR2 SZ ES   1    856  0.24                             178   -0.14 7 4.72 122 
 BAR2 SZ I         856  3.55         5.7 0.27                          4.72 122 
 GIR2 SZ EP        855 47.23                             158   -0.4610 51.4   3 
 BRR  HZ EP        855 49.08                             148    0.1510 77.1 315 
 BRR  HN ES   1    856  4.76                             148    0.23 7 77.1 315 
 BRR  HN I         856 13.23         7.8 0.12                          77.1 315 
 PTB  HZ EP        855 53.69                             131   -0.10 9  137 267 
 PTB  HE ES   1    856 13.06                             131   -0.11 7  137 267 
                                                                                
