 2016  822 0116 35.0 L   6.794 -73.132143.6  RSN 15 0.5 2.0LRSN                1
 GAP=139        1.02       3.5     3.8  5.6  0.1809E+00  0.7733E+01  0.5848E+01E
 Epicentro: LOS SANTOS - SANTANDER                                             3
 ACTION:UPD 16-10-29 15:37 OP:rebc STATUS:               ID:20160822011635 L   I
 OLDACT:REG 16-08-22 13:26 OP:ak   STATUS:               ID:20160822010732     3
 2016-08-22-0108-00M.COL___368                                                 6
 STAT SP IPHASW D HRMM SECON CODA AMPLIT PERI AZIMU VELO AIN AR TRES W  DIS CAZ7
 BAR2 EZ EP        116 54.39                             170    0.0510 23.0 194 
 BAR2 EZ ES        117  9.24                             170   -0.2010 23.0 194 
 BAR2 EZ I         117 10.58        34.8 0.12                          23.0 194 
 BRR  HZ IP     C  116 56.18                             152    0.2010 72.8 298 
 BRR  HN ES        117 13.25                             152    0.8810 72.8 298 
 BRR  HZ I         117 18.56        18.9 0.12                          72.8 298 
 PAM  EZ EP   2    116 57.32                             151    0.38 5 77.0  38 
 PAM  EN ES        117 13.66                             151   -0.4010 77.0  38 
 RUS  HZ EP        116 58.46                             143   -0.0010 99.8 177 
 RUS  HN ES        117 16.93                             143    0.1610 99.8 177 
 RUS  HZ I         117 17.87        13.0 0.20                          99.8 177 
 PTB  HZ EP   2    117  1.02                             131   -0.87 5  149 259 
 PTB  HN ES        117 22.05                             131   -0.83 9  149 259 
 PTB  HZ I         117 23.95        11.2 0.22                           149 259 
 SPBC HZ EP        117  3.26                             128   -0.09 9  164 220 
 SPBC HN ES        117 25.27                             128   -0.21 9  164 220 
 SPBC HZ I         117 29.41        21.3 0.21                           164 220 
 ZAR  HZ EP        117  7.91                             122    0.46 8  206 292 
 ZAR  HN ES        117 32.49                             122   -0.29 8  206 292 
 ZAR  HZ I         117 39.41        10.3 0.69                           206 292 
 NOR  HZ EP        117 10.36                             118   -0.31 8  236 235 
 NOR  HN ES        117 39.10                             118    0.59 8  236 235 
 NOR  HZ I         117 44.44         8.7 0.22                           236 235 
 CHI  HZ EP        117 12.40                             117   -0.13 8  248 196 
 CHI  HN ES        117 42.00                             117    0.18 8  248 196 
 CHI  HZ I         117 48.89         3.3 0.28                           248 196 
 HEL  HZ EP   2    117 15.69                             114    0.47 4  273 256 
 HEL  HN ES        117 46.47                             114   -0.14 8  273 256 
 HEL  HZ I         117 50.94         3.6 0.36                           273 256 
 URE  HZ EP   4    117 18.86                             113    2.73 0  285 292 
 URE  HE ES   4    117 45.97                             113   -2.25 0  285 292 
 URE  HZ I         117 55.06         7.8 0.27                           285 292 
 GUY2CHZ EP   4    117 20.43                             112    1.85 0  302 235 
 GUY2CHN ES        117 53.44                             112    0.85 7  302 235 
 GUY2CHZ I         117 58.48         7.2 0.20                           302 235 
 CBOC HZ EP        117 22.33                             109    0.39 7  335 252 
 CBOC HN ES        117 57.86                             109   -0.71 7  335 252 
 CBOC HZ I         118  9.70         1.9 0.60                           335 252 
 PRA  HZ EP        117 27.78                             106   -0.66 6  392 210 
 PRA  HN ES        118 10.12                             106   -0.02 6  392 210 
 PRA  HZ I         118 16.66         4.4 0.28                           392 210 
 SJC  HZ EP   9    117 28.77                             105   -1.86 0  411 327 
 SJC  HE ES        118 11.25                                   -0.93 6  411 327 
 SJC  HZ I         118 16.96         1.6 0.17                           411 327 
                                                                                
