 2014 1122 0929 20.2 L   7.394 -73.204136.0  RSN  6 0.3 1.3LRSN                1
 GAP=183        0.80       4.6     3.4  5.7  0.2266E+01  0.4839E+01 -0.1074E+01E
 Epicentro: EL PLAYON - SANTANDER                                              3
 ACTION:UPD 14-12-19 15:45 OP:nd   STATUS:               ID:20141122092920 L   I
 OLDACT:REG 14-11-22 13:55 OP:fm   STATUS:               ID:20141122092740     3
 2014-11-22-0927-40M.COL___306                                                 6
 STAT SP IPHASW D HRMM SECON CODA AMPLIT PERI AZIMU VELO AIN AR TRES W  DIS CAZ7
 PAM  SZ EP        929 40.57                             157    0.3810 56.0  96 
 PAM  SN ES        929 55.30                             157   -0.4810 56.0  96 
 PAM  SZ I         929 57.86         4.1 0.38            159           56.0  96 
 BRR  HZ EP        929 40.23                             153    0.3210 64.4 241 
 BRR  HN ES        929 55.43                             153    0.1410 64.4 241 
 BRR  HZ I         929 56.13         7.2 0.30            153           64.4 241 
 BAR2 SZ EP        929 42.14                             145    0.3610 88.7 178 
 BAR2 SZ ES        929 58.71                             145    0.1010 88.7 178 
 BAR2 SZ I         929 59.77         6.3 0.10            146           88.7 178 
 RUS  HZ EP        929 48.88                             126    0.05 9  167 175 
 RUS  HN ES        930 10.87                             126   -0.29 9  167 175 
 RUS  HZ I         930 12.28         0.9 0.28            128            167 175 
 PTB  HZ EP        929 47.88                             126   -0.42 9  168 236 
 PTB  HN ES        930 10.27                             126    0.05 9  168 236 
 PTB  HZ I         930 14.54         2.1 0.24            127            168 236 
 ZAR  HZ EP        929 49.39                             123   -0.44 9  183 274 
 ZAR  HN ES        930 12.97                             123    0.03 9  183 274 
 ZAR  HZ I         930 15.09         2.8 0.36            124            183 274 
                                                                                
