 2016 1122 0328 17.7 L   6.820 -73.128151.7  RSN 10 0.4 1.7LRSN                1
 GAP=154        0.84       3.6     3.7  4.8 -0.2277E+01  0.3427E+01  0.6433E+01E
 Epicentro: LOS SANTOS - SANTANDER                                             3
 ACTION:UPD 17-10-26 21:10 OP:lp   STATUS:               ID:20161122032817 L   I
 OLDACT:UP  16-11-22 14:55 OP:edw  STATUS:               ID:20161122032741     3
 OLDACT:UP  16-11-22 14:55 OP:edw  STATUS:               ID:20161122032741     3
 OLDACT:UP  16-11-22 14:54 OP:edw  STATUS:               ID:20161122032741     3
 OLDACT:REG 16-11-22 12:43 OP:edw  STATUS:               ID:20161122032741     3
 2016-11-22-0328-00M.COL___347                                                 6
 STAT SP IPHASW D HRMM SECON CODA AMPLIT PERI AZIMU VELO AIN AR TRES W  DIS CAZ7
 BAR2 EZ EP        328 37.80                             170   -0.3210 25.9 193 
 BAR2 EZ ES        328 53.91                             170   -0.1110 25.9 193 
 BAR2 EZ I         328 54.53        10.2 0.32            168           25.9 193 
 BRR  HZ EP        328 39.78                             153    0.2310 71.9 296 
 BRR  HN ES        328 56.85                             153    0.2710 71.9 296 
 PAM  EZ EP        328 40.58                             153    0.1710 74.5  39 
 PAM  EN ES        328 58.05                             153   -0.0510 74.5  39 
 PAM  EZ I         329  1.13         7.2 0.38            156           74.5  39 
 PTB  HZ EP   9    328 44.90                             133   -0.49 0  150 258 
 PTB  HN ES        329  6.06                             133   -0.41 9  150 258 
 PTB  HZ I         329 11.70         7.1 0.24            131            150 258 
 ZAR  HZ EP        328 50.04                             123   -0.62 9  205 291 
 ZAR  HN ES        329 16.42                             123    0.07 9  205 291 
 ZAR  HZ I         329 22.40         6.7 0.48            123            205 291 
 NOR  HZ EP        328 54.16                             119    0.06 8  238 234 
 NOR  HN ES        329 22.21                             119   -0.27 8  238 234 
 NOR  HZ I         329 25.54         4.9 0.18            119            238 234 
 CHI  HZ EP        328 55.20                             118   -0.84 8  251 195 
 CHI  HE ES        329 26.36                             118    0.44 8  251 195 
 CHI  HZ I         329 28.01         1.7 0.28            119            251 195 
 CBOC HZ EP        329  5.63                             111    0.45 7  336 252 
 CBOC HN ES        329 42.28                             111    0.09 7  336 252 
 CBOC HZ I         329 53.34         1.1 0.58            111            336 252 
 PRA  HZ EP        329 12.27                             107    0.48 6  395 210 
 PRA  HN ES        329 53.75                             107   -0.20 6  395 210 
 PRA  HZ I         329 58.47         2.0 0.44            108            395 210 
 ORTC HZ EP        329 12.94                             107    0.75 6  398 216 
 ORTC HN ES   4    329 55.73                             107    1.06 0  398 216 
 ORTC HZ I         329 58.45         1.0 0.18            107            398 216 
 SJC  HZ EP   4    329 12.11                             107   -1.29 0  408 327 
 SJC  HN ES   4    329 54.34                             107   -2.48 0  408 327 
                                                                                
