 2012  222 0816 44.2 L   6.775 -73.139137.1  RSN  5 0.4 1.1LRSN                1
 GAP=186        0.81       6.7     7.7  8.8  0.9132E+01  0.2432E+02  0.2111E+01E
 ACTION:UP  12-03-07 16:33 OP:epov STATUS:               ID:20120222081644 L   I
 2012-02-22-0810-00M.COL___191                                                 6
 STAT SP IPHASW D HRMM SECON CODA AMPLIT PERI AZIMU VELO AIN AR TRES W  DIS CAZ7
 BAR2 SZ ES   1    817 16.55                             171   -0.66 7 20.8 193 
 GIR2 SZ EP   1    817  2.58                             165   -0.36 7 34.1 350 
 GIR2 SZ ES   1    817 17.61                             165    0.06 7 34.1 350 
 BRR  HZ EP   1    817  4.89                             150    0.34 7 73.1 300 
 BRR  HZ I         817  6.86         4.3 0.11                          73.1 300 
 BRR  HN ES   1    817 20.92                             150    0.51 7 73.1 300 
 RUS  HN ES   1    817 25.10                             143    0.48 7 97.8 176 
 RUS  HZ I         817 26.24         1.3 0.27                          97.8 176 
 PTB  HZ EP   1    817 10.39                             130   -0.12 7  148 260 
 PTB  HN ES   1    817 30.71                             130   -0.30 7  148 260 
                                                                                
