 2015  122 0144 50.6 L   6.820 -73.138144.3  RSN 18 0.5 2.4LRSN                1
 GAP=126        1.18       2.9     3.8  5.3 -0.2741E+01  0.5178E+01  0.1096E+01E
 Epicentro: LOS SANTOS - SANTANDER                                             3
 ACTION:UPD 15-03-02 15:41 OP:nd   STATUS:               ID:20150122014450 L   I
 OLDACT:REG 15-01-22 12:25 OP:carl STATUS:               ID:20150122013744     3
 2015-01-22-0137-44M.COL___265                                                 6
 STAT SP IPHASW D HRMM SECON CODA AMPLIT PERI AZIMU VELO AIN AR TRES W  DIS CAZ7
 BAR2 EZ EP        145 10.19                             169    0.0910 25.6 191 
 BAR2 EZ ES        145 25.08                             169   -0.2310 25.6 191 
 BAR2 EZ I         145 27.26        34.3 0.30            168           25.6 191 
 BRR  HZ EP        145 11.99                             152    0.4210 70.9 297 
 BRR  HN ES        145 29.03                             152    1.1010 70.9 297 
 BRR  HZ I         145 33.07        34.9 0.30            149           70.9 297 
 PAM  SZ IP     C  145 13.19                             151    0.6710 75.1  40 
 PAM  SN ES        145 29.87                             151    0.2510 75.1  40 
 PAM  SZ I         145 32.32        66.1 0.48            155           75.1  40 
 RUS  HZ EP        145 14.27                             143   -0.0910  103 177 
 RUS  HE ES        145 32.78                             143   -0.1110  103 177 
 RUS  HZ I         145 34.04        32.8 0.32            145            103 177 
 PTB  HZ EP        145 16.83                             131   -0.73 9  149 258 
 PTB  HN ES        145 37.60                             131   -0.99 9  149 258 
 PTB  HZ I         145 45.26        21.9 0.36            130            149 258 
 OCA  HZ EP        145 18.47                             130   -0.13 9  158 353 
 OCA  HN ES        145 40.05                             130   -0.38 9  158 353 
 OCA  HZ I         145 44.96        28.1 0.54            131            158 353 
 SPBC HZ EP        145 19.11                             128   -0.09 9  165 219 
 SPBC HN ES        145 41.02                             128   -0.48 9  165 219 
 SPBC HZ I         145 43.76        49.8 0.38            129            165 219 
 ZAR  HZ EP        145 22.91                             122   -0.03 9  204 291 
 ZAR  HN ES        145 47.89                             122   -0.28 9  204 291 
 ZAR  HZ I         145 55.43        17.9 0.50            122            204 291 
 NOR  HZ EP        145 25.83                             118   -0.62 8  237 234 
 NOR  HN ES        145 54.23                             118   -0.19 8  237 234 
 NOR  HZ I         146  1.85        20.4 0.58            118            237 234 
 SML  HZ EP        145 26.55                             117   -0.41 8  242 335 
 SML  HN ES        145 55.10                             117   -0.23 8  242 335 
 SML  HZ I         145 59.69        37.3 0.10            118            242 335 
 CHI  HZ EP        145 28.40                             117   -0.07 8  251 195 
 CHI  HN ES        145 57.77                             117   -0.24 8  251 195 
 CHI  HZ I         146  1.22        15.0 0.40            118            251 195 
 HEL  HZ EP        145 31.55                             114    0.66 8  273 255 
 HEL  HE ES        146  2.46                             114    0.15 8  273 255 
 HEL  HZ I         146  8.25        11.4 0.26            115            273 255 
 URE  HZ EP   4    145 29.69                             113   -1.90 0  284 291 
 URE  HN ES   4    146  2.51                             113   -1.06 0  284 291 
 GUY2CHZ EP        145 35.26                             112    0.90 7  303 235 
 GUY2CHN ES        146  9.35                             112    0.86 7  303 235 
 GUY2CHZ I         146 16.30        10.4 0.26                           303 235 
 RREF HZ EP   4    145 38.74                             110    1.83 0  324 229 
 RREF HN ES   4    146 16.02                             110    2.98 0  324 229 
 RREF HZ I         146 22.35        13.2 0.44            111            324 229 
 CBOC HZ EP        145 38.38                             110    0.76 7  335 252 
 CBOC HE ES        146 13.85                             110   -0.45 7  335 252 
 CBOC HZ I         146 30.88         3.6 0.74            110            335 252 
 TOL  SZ EP        145 39.65                             109    0.61 6  346 224 
 TOL  SN ES        146 17.45                             109    0.62 6  346 224 
 TOL  SZ I         146 23.74        26.2 0.50            110            346 224 
 SDV  BZ EP        145 39.62                             108   -0.72 6  358  50 
 SDV  BN ES   4    146 16.80                             108   -2.34 0  358  50 
 SDV  BZ I         146 20.39         4.9 0.30            110            358  50 
 ORTC HZ EP        145 44.63                             106   -0.10 6  398 216 
 ORTC HN ES        146 26.80                             106   -0.16 6  398 216 
 ORTC HZ I         146 31.55         8.0 0.30            107            398 216 
                                                                                
