 2017  222 0614  8.8 L   6.958 -73.241132.3  RSN  7 0.4 1.5LRSN                1
 GAP=243        0.91       5.0     4.7  6.5  0.6037E+01  0.1096E+02  0.9150E+01E
 Epicentro: BETULIA - SANTANDER                                                3
 ACTION:UPD 17-05-24 15:39 OP:jn   STATUS:               ID:20170222061408 L   I
 OLDACT:REG 17-02-22 13:03 OP:cog  STATUS:               ID:20170222060739     3
 2017-02-22-0608-00M.COL___379                                                 6
 STAT SP IPHASW D HRMM SECON CODA AMPLIT PERI AZIMU VELO AIN AR TRES W  DIS CAZ7
 BAR2 EZ EP        614 27.36                             162   -0.0210 40.9 171 
 BAR2 EZ ES        614 41.10                             162   -0.7510 40.9 171 
 BAR2 EZ I         614 43.34        20.7 0.26            155           40.9 171 
 BRR  HZ EP        614 27.69                             156    0.0610 54.6 288 
 BRR  HE ES        614 42.67                             156    0.3810 54.6 288 
 BRR  HZ I         614 43.78         6.2 0.14            150           54.6 288 
 RUS  HZ EP        614 32.91                             136    0.1210  119 172 
 RUS  HN ES        614 52.07                             136    0.5910  119 172 
 RUS  HZ I         614 53.07         1.7 0.20            132            119 172 
 PTB  HZ EP        614 33.72                             130   -0.49 9  142 251 
 PTB  HN ES        614 54.16                             130    0.15 9  142 251 
 PTB  HZ I         614 56.46         7.9 0.42            125            142 251 
 NOR  HZ EP   3    614 43.14                             115   -0.96 2  237 230 
 NOR  HN ES        615 11.57                             115   -0.03 8  237 230 
 NOR  HZ I         615 20.98         3.2 0.38            113            237 230 
 CHI  HZ EP   4    614 49.75                             113    2.30 0  263 192 
 CHI  HE ES        615 17.41                             113   -0.16 8  263 192 
 CHI  HZ I         615 23.57         1.5 0.50            111            263 192 
 CBOC HZ EP        614 55.22                             107    0.46 7  330 249 
 CBOC HE ES        615 30.39                             107   -0.19 7  330 249 
 CBOC HZ I         615 43.07         1.3 0.60            106            330 249 
                                                                                
