 2016  122 0126 33.0 L   6.819 -73.133146.5  RSN 10 0.4 1.9LRSN                1
 GAP=137        1.07       2.8     4.5  6.3 -0.2085E+01  0.9095E+01 -0.6361E+00E
 Epicentro: LOS SANTOS - SANTANDER                                             3
 ACTION:UPD 16-03-09 23:27 OP:cam  STATUS:               ID:20160122012633 L   I
 OLDACT:UP  16-02-23 20:54 OP:AR   STATUS:               ID:20160122012633 L   3
 OLDACT:REG 16-01-22 13:56 OP:ar   STATUS:               ID:20160122011738     3
 2016-01-22-0117-38M.COL___327                                                 6
 STAT SP IPHASW D HRMM SECON CODA AMPLIT PERI AZIMU VELO AIN AR TRES W  DIS CAZ7
 BAR2 EZ EP        126 52.59                             170   -0.1910 25.7 192 
 BAR2 EZ ES        127  8.30                             170    0.1010 25.7 192 
 BAR2 EZ I         127 10.38        17.1 0.28            168           25.7 192 
 PAM  EZ EP        126 55.44                             152    0.2810 74.8  40 
 PAM  EN ES        127 13.05                             152    0.6210 74.8  40 
 PAM  EZ I         127 13.39         8.1 0.36            159           74.8  40 
 RUS  HZ EP        126 56.60                             143   -0.3810  103 177 
 RUS  HN ES        127 15.33                             143   -0.3410  103 177 
 RUS  HZ I         127 34.00         6.7 0.21            147            103 177 
 PTB  HZ EP        127  0.28                             132    0.07 9  150 258 
 PTB  HN ES        127 20.48                             132   -0.94 9  150 258 
 PTB  HZ I         127 26.57         8.1 0.18            135            150 258 
 OCA  HZ EP        127  0.67                             130   -0.53 9  158 353 
 OCA  HN ES        127 23.02                             130   -0.17 9  158 353 
 OCA  HZ I         127 27.95        15.7 0.54            136            158 353 
 SPBC HZ EP        127  1.68                             129   -0.13 9  166 219 
 SPBC HN ES        127 24.22                             129   -0.05 9  166 219 
 SPBC HZ I         127 28.88        11.0 0.10            132            166 219 
 ZAR  HN ES        127 31.27                             122    0.32 9  205 291 
 ZAR  HZ I         127 41.62         7.8 0.36            126            205 291 
 SML  HZ EP        127  9.60                             118    0.06 8  242 335 
 SML  HN ES        127 38.22                             118    0.19 8  242 335 
 SML  HZ I         127 45.50        11.7 0.30            123            242 335 
 CHI  HZ E      D  121  7.59                                            251 195 
 CHI  HZ EP        127 10.65                             117   -0.36 8  251 195 
 CHI  HN ES        127 41.41                             117    0.76 8  251 195 
 CHI  HZ I         127 47.16         4.9 0.40            121            251 195 
 SOCV BZ EP   4    127 14.23                             112   -1.60 0  299  57 
 GUY2CHZ EP        127 17.45                             112    0.53 7  304 235 
 GUY2CHN ES        127 52.10                             112    0.93 7  304 235 
 GUY2CHZ I         127 53.10         1.2 0.28                           304 235 
                                                                                
