 2015 1022 0334 18.1 L   6.869 -73.128146.5  RSN 11 0.4 1.8LRSN                1
 GAP=135        1.00       2.8     5.0  5.7  0.2326E+00  0.7064E+01  0.5659E+00E
 Epicentro: LOS SANTOS - SANTANDER                                             3
 ACTION:UPD 15-12-22 20:42 OP:cam  STATUS:               ID:20151022033418 L   I
 OLDACT:REG 15-10-22 12:13 OP:mh   STATUS:               ID:20151022032747     3
 2015-10-22-0327-47M.COL___319                                                 6
 STAT SP IPHASW D HRMM SECON CODA AMPLIT PERI AZIMU VELO AIN AR TRES W  DIS CAZ7
 BAR2 EZ EP   1    334 38.04                             167    0.03 7 31.2 191 
 BAR2 EZ ES        334 53.19                             167   -0.3410 31.2 191 
 BAR2 EZ I         334 56.29         5.0 0.15            167           31.2 191 
 BRR  HZ EP        334 39.60                             153    0.3510 69.7 292 
 BRR  HN ES        334 56.44                             153    0.7010 69.7 292 
 BRR  HZ I         335  0.86         7.9 0.27            150           69.7 292 
 PAM  EZ EP   1    334 40.59                             153    0.59 7 70.3  42 
 PAM  EN ES        334 57.24                             153    0.1710 70.3  42 
 PAM  EZ I         334 59.45        12.4 0.48            157           70.3  42 
 RUS  HZ EP        334 42.24                             142   -0.2410  108 177 
 RUS  HN ES   1    335  1.32                             142   -0.17 7  108 177 
 OCA  HZ EP        334 46.07                             131    0.27 9  153 352 
 OCA  HN ES        335  6.80                             131   -0.59 9  153 352 
 OCA  HZ I         335 15.82        13.0 0.48            133            153 352 
 SPBC HZ EP        334 47.40                             128    0.05 9  170 218 
 SPBC HN ES        335  9.39                             128   -0.76 9  170 218 
 SPBC HZ I         335 14.21        13.8 0.90            130            170 218 
 ZAR  HZ EP        334 50.49                             123   -0.02 9  203 290 
 ZAR  HE ES        335 16.15                             123    0.38 9  203 290 
 ZAR  HZ I         335 21.31         9.3 0.48            123            203 290 
 SML  HZ EP        334 53.63                             118   -0.49 8  238 334 
 SML  HN ES        335 21.67                             118   -0.54 8  238 334 
 SML  HZ I         335 27.12         8.0 0.10            120            238 334 
 CHI  HZ EP        334 57.06                             116    0.35 8  257 195 
 CHI  HN ES        335 27.04                             116    0.23 8  257 195 
 CHI  HZ I         335 31.66         1.7 0.34            119            257 195 
 URE  HZ EP   4    334 58.44                             114   -0.67 0  283 290 
 URE  HN ES   4    335 29.85                             114   -1.24 0  283 290 
 URE  HZ I         335 40.31         4.8 0.30            115            283 290 
 MON  HZ EP   4    335  3.54                             109   -3.24 0  351 307 
 MON  HN ES   4    335 42.32                             109   -2.41 0  351 307 
 MON  HZ I         335 43.20         1.6 0.18            110            351 307 
                                                                                
