 2010  722 0924 55.2 L   6.815 -73.082144.2  RSN  4 0.1 1.3LRSN                1
 GAP=171        0.37       4.6     9.1 10.3  0.2075E+02 -0.5942E+02 -0.2678E+02E
 Epicentro: LOS SANTOS - SANTANDER                                             3
 ACTION:UPD 10-12-01 15:19 OP:pat  STATUS:               ID:20100722092455 L   I
 2010-07-22-0923-30S.COL___123                                                 6
 STAT SP IPHASW D HRMM SECON CODA AMPLIT PERI AZIMU VELO AIN AR TRES W  DIS CAZ7
 BAR2 SZ EP   1    925 14.71                             169    -0.1 7   27 205 
 BAR2 SZ I         925 15.42         4.6 0.34                            27 205 
 BRR  HZ EP   1    925 16.44                             151    -0.1 7   77 295 
 BRR  HZ I         925 16.66         7.9 0.12                            77 295 
 BRR  HE ES   2    925 33.32                             151     0.1 5   77 295 
 RUS  HZ EP   2    925 19.20                             143     0.3 5  102 180 
 RUS  HN ES   2    925 37.34                             143    -0.1 5  102 180 
 RUS  HZ I         925 38.94         1.4 0.05                           102 180 
 GUE  SZ EP   1    925 19.62                             140     0.0 7  114   9 
                                                                                
