 2016  422 0457 48.9 L   6.846 -73.251134.0  RSN  5 0.3 1.2LRSN                1
 GAP=152        0.71       4.0     4.2  6.3 -0.8515E+01  0.1167E+02 -0.4773E+01E
 Epicentro: ZAPATOCA - SANTANDER                                               3
 ACTION:UPD 16-05-05 14:23 OP:rebc STATUS:               ID:20160422045748 L   I
 OLDACT:DUP 16-04-22 17:44 OP:cara STATUS:               ID:20160422044747d    3
 2016-04-22-0447-46M.COL___312                                                 6
 STAT SP IPHASW D HRMM SECON CODA AMPLIT PERI AZIMU VELO AIN AR TRES W  DIS CAZ7
 BAR2 EZ ES        458 21.28                             167   -0.3510 29.1 165 
 BAR2 EZ I         458 24.57         3.7 0.28            167           29.1 165 
 PAM  EZ IP        458 10.11                             147   -0.1010 81.8  48 
 PAM  EE ES        458 27.16                             147    0.3610 81.8  48 
 PAM  EZ I         458 29.13         2.7 0.54            153           81.8  48 
 RUS  HN ES        458 29.99                             139   -0.1110  107 170 
 RUS  HZ I         458 31.84         2.3 0.32            142            107 170 
 PTB  HZ EP        458 13.73                             131   -0.29 9  137 256 
 PTB  HN ES        458 33.59                             131    0.01 9  137 256 
 PTB  HZ I         458 37.42         2.3 0.48            133            137 256 
 SPBC HZ EP        458 16.34                             127    0.06 9  160 215 
 SPBC HE ES        458 38.07                             127    0.47 9  160 215 
 SPBC HZ I         458 45.45         3.1 0.46            129            160 215 
                                                                                
