 2014  522 0504  5.7 L   6.802 -73.144148.9  RSN  9 0.4 1.5LRSN                1
 GAP=137        0.91       3.7     4.5  7.0  0.1465E+01  0.6208E+01 -0.3019E+01E
 Epicentro: LOS SANTOS - SANTANDER                                             3
 ACTION:UPD 15-03-16 16:59 OP:nd   STATUS:               ID:20140522050405 L   I
 OLDACT:DUP 14-05-22 17:20 OP:mh   STATUS:               ID:20140522045810d    3
 OLDACT:UP  14-05-22 17:19 OP:mh   STATUS:               ID:20140522045809     3
 OLDACT:REG 14-05-22 13:08 OP:spq  STATUS:               ID:20140522045809     3
 2014-05-22-0458-09M.COL___249                                                 6
 STAT SP IPHASW D HRMM SECON CODA AMPLIT PERI AZIMU VELO AIN AR TRES W  DIS CAZ7
 BRR  HZ EP     C  5 4 27.85                             153    0.7010 71.2 298 
 BRR  HN ES   1    5 4 44.27                             153    0.36 7 71.2 298 
 BRR  HZ I         5 4 48.90         4.9 0.44            151           71.2 298 
 PAM  SN ES   1    5 4 45.65                             151   -0.11 7 77.1  40 
 RUS  HZ EP        5 4 29.90                             144    0.1710  101 176 
 RUS  HN ES        5 4 48.27                             144   -0.2410  101 176 
 RUS  HZ I         5 4 50.66         2.3 0.22            147            101 176 
 PTB  HZ EP   1    5 4 32.54                             133   -0.36 7  148 259 
 PTB  HN ES        5 4 53.55                             133   -0.60 9  148 259 
 PTB  HZ I         5 4 56.98         4.5 0.12            132            148 259 
 SPBC HZ EP        5 4 34.36                             130   -0.06 9  163 219 
 SPBC HN ES        5 4 56.74                             130   -0.12 9  163 219 
 SPBC HZ I         5 5  4.91         5.8 0.33            131            163 219 
 ZAR  HZ EP        5 4 37.80                             123   -0.51 9  204 292 
 ZAR  HN ES        5 5  4.10                             123    0.31 9  204 292 
 ZAR  HZ I         5 5 11.01         3.7 0.30            124            204 292 
 SML  HZ EP        5 4 42.23                             118   -0.21 8  244 335 
 CHI  HN ES   1    5 5 13.61                             118    0.49 6  249 195 
 HEL  HZ EP   4    5 4 47.89                             115    1.84 0  272 256 
 HEL  HN ES   1    5 5 18.15                             115    0.58 6  272 256 
 HEL  HZ I         5 5 24.89         2.0 0.43            117            272 256 
 GUY2CHN ES   4    5 5 25.50                             113    1.90 0  301 235 
 RREF HN ES   4    5 5 30.31                             111    2.22 0  322 229 
                                                                                
