 2012 1122 0924 16.8 L   6.793 -73.171146.0  RSN  5 0.3 1.4LRSN                1
 GAP=134        0.53       4.4     3.6  5.0  0.3461E+01  0.6035E+01 -0.3907E+01E
 Epicentro: LOS SANTOS - SANTANDER                                             3
 ACTION:UPD 12-12-05 15:35 OP:}ep  STATUS:               ID:20121122092416 L   I
 2012-11-22-0920-00M.COL___233                                                 6
 STAT SP IPHASW D HRMM SECON CODA AMPLIT PERI AZIMU VELO AIN AR TRES W  DIS CAZ7
 BAR2 SZ EP        924 36.46                             171    0.0010 22.3 183 
 BAR2 SZ ES        924 51.85                             171    0.0710 22.3 183 
 BAR2 SZ I         924 52.76         9.1 0.22                          22.3 183 
 PAM  SZ EP   2    924 39.44                             150    0.24 5 79.7  41 
 PAM  SN ES   2    924 56.19                             150   -0.47 5 79.7  41 
 PAM  SZ I         924 58.98         3.5 0.45                          79.7  41 
 RUS  HZ EP   1    924 40.60                             144    0.04 7  100 174 
 RUS  HE ES   1    924 59.19                             144    0.12 7  100 174 
 RUS  HE I         925  1.73         2.9 0.34                           100 174 
 PTB  HZ EP        924 43.17                             133   -0.38 9  145 259 
 PTB  HN ES   1    925  4.32                             133   -0.08 7  145 259 
 PTB  HZ I         925  7.29         3.4 0.18                           145 259 
 ZAR  HZ EP   1    924 49.55                             123    0.50 6  202 293 
 ZAR  HE ES   1    925 14.33                             123    0.15 6  202 293 
 ZAR  HZ I         925 20.03         2.1 0.30                           202 293 
                                                                                
