 2014  422 0915 46.9 L   6.801 -73.223159.1  RSN  5 0.4 1.6LRSN                1
 GAP=220        0.87       4.2    12.5 15.4 -0.6224E+01 -0.1179E+03 -0.1215E+02E
 Epicentro: ZAPATOCA - SANTANDER                                               3
 OLDACT:REG 14-04-22 13:15 OP:fm   STATUS:               ID:20140422090819     3
 ACTION:UPD 14-05-13 23:10 OP:nd   STATUS:               ID:20140422091546 L   I
 OLDACT:UP  14-04-22 17:01 OP:fm   STATUS:               ID:20140422090819     3
 2014-04-22-0908-19M.COL___233                                                 6
 STAT SP IPHASW D HRMM SECON CODA AMPLIT PERI AZIMU VELO AIN AR TRES W  DIS CAZ7
 PTB  HZ EP        916 14.12                             137   -0.1110  139 258 
 PTB  HE ES        916 34.91                             137   -0.6710  139 258 
 PTB  HZ I         916 36.23         4.0 0.52             61            139 258 
 SPBC HZ EP   1    916 16.01                             133    0.07 7  158 217 
 SPBC HN ES        916 39.07                             133    0.4410  158 217 
 SPBC HZ I         916 42.17         4.7 0.56             61            158 217 
 OCA  HN ES   2    916 38.97                             133   -0.03 5  159 356 
 ZAR  HE ES   1    916 45.54                             127    0.72 7  196 293 
 SML  HZ EP        916 23.69                             121   -0.20 8  240 337 
 SML  HZ I         916 52.95         3.3 1.34             61            240 337 
 SML  HN ES        916 52.97                             121    0.19 8  240 337 
                                                                                
