 2010  722 0919 53.5 L   6.843 -73.007143.7  RSN  5 0.4 1.5LRSN                1
 GAP=174        0.97       8.4    15.2 20.9  0.4922E+02 -0.2113E+03 -0.1062E+03E
 Epicentro: CEPITA - SANTANDER                                                 3
 ACTION:UPD 10-12-01 15:19 OP:pat  STATUS:               ID:20100722091953 L   I
 2010-07-22-0917-52S.COL___123                                                 6
 STAT SP IPHASW D HRMM SECON CODA AMPLIT PERI AZIMU VELO AIN AR TRES W  DIS CAZ7
 BAR2 SZ EP   1    920 13.22                             166     0.1 7   34 215 
 BAR2 SZ I         920 30.05         7.8 0.19                            34 215 
 BRR  HZ EP        920 15.11                             148     0.010   83 291 
 BRR  HZ I         920 15.37        17.1 0.17                            83 291 
 BRR  HE ES   1    920 32.06                             148     0.0 7   83 291 
 RUS  HZ EP   2    920 17.54                             142     0.1 5  105 185 
 RUS  HN ES   1    920 36.00                             142    -0.1 7  105 185 
 RUS  HZ I         920 36.87         2.7 0.35                           105 185 
 GUE  SZ EP   1    920 18.28                             141     0.8 7  110   5 
 GRA  SZ EP        920 17.37                             139    -0.510  117  11 
 GRA  SZ I         920 37.94         4.1 0.40                           117  11 
                                                                                
