 2014  622 0155 51.6 L   6.813 -73.111142.7  RSN 14 0.5 2.2LRSN                1
 GAP=140        1.14       3.1     4.2  5.8 -0.3138E+01  0.8526E+01 -0.4634E+00E
 Epicentro: LOS SANTOS - SANTANDER                                             3
 ACTION:UPD 14-07-01 22:55 OP:nd   STATUS:               ID:20140622015551 L   I
 OLDACT:REG 14-06-22 14:13 OP:carl STATUS:               ID:20140622014815     3
 2014-06-22-0148-15M.COL___262                                                 6
 STAT SP IPHASW D HRMM SECON CODA AMPLIT PERI AZIMU VELO AIN AR TRES W  DIS CAZ7
 BAR2 SZ IP     D  156 11.22                             169    0.2710 25.6 198 
 BAR2 SZ ES        156 25.73                             169   -0.2910 25.6 198 
 BAR2 SZ I         156 27.32        35.4 0.18            169           25.6 198 
 BRR  HZ IP     C  156 13.01                             151    0.3910 73.9 296 
 BRR  HN ES        156 29.76                             151    0.7810 73.9 296 
 BRR  HZ I         156 33.90        38.7 0.14            149           73.9 296 
 PAM  SZ IP     D  156 14.12                             151    0.8010 73.9  38 
 PAM  SE ES        156 30.47                             151    0.2310 73.9  38 
 PAM  SZ I         156 33.39        24.7 0.66            155           73.9  38 
 RUS  HZ EP        156 15.09                             143   -0.0910  102 178 
 RUS  HN ES        156 33.19                             143   -0.3610  102 178 
 RUS  HZ I         156 35.03        11.1 0.28            146            102 178 
 PTB  HZ EP        156 18.05                             130   -0.68 9  152 259 
 PTB  HE ES        156 39.35                             130   -0.51 9  152 259 
 PTB  HZ I         156 41.69        20.7 0.18            131            152 259 
 OCA  HZ EP        156 19.44                             129   -0.19 9  159 352 
 OCA  HN ES        156 40.82                             129   -0.64 9  159 352 
 OCA  HZ I         156 42.64        14.7 0.48            131            159 352 
 SPBC HZ EP        156 20.30                             128    0.06 9  167 220 
 SPBC HN ES        156 42.02                             128   -0.53 9  167 220 
 SPBC HZ I         156 49.09        17.4 0.22            129            167 220 
 ZAR  HZ EP        156 24.29                             121    0.09 8  207 291 
 ZAR  HN ES        156 50.24                             121    0.65 8  207 291 
 ZAR  HZ I         156 55.16        25.1 0.16            122            207 291 
 NOR  HZ EP        156 27.31                             117   -0.30 8  239 235 
 NOR  HE ES        156 55.53                             117   -0.14 8  239 235 
 NOR  HZ I         156 58.96         9.5 0.22            119            239 235 
 SML  HZ EP        156 27.57                             117   -0.56 8  244 334 
 SML  HN ES        156 55.88                             117   -0.71 8  244 334 
 SML  HZ I         157  4.29        27.7 0.28            118            244 334 
 HEL  HZ EP        156 32.73                             114    0.59 7  276 256 
 HEL  HN ES        157  3.94                             114    0.20 7  276 256 
 HEL  HZ I         157 10.28         7.4 0.22            115            276 256 
 GUY2CHZ EP        156 35.71                             111    0.16 7  305 235 
 GUY2CHN ES        157 10.37                             111    0.57 7  305 235 
 GUY2CHZ I         157 21.29         4.4 0.42                           305 235 
 CBOC HZ EP   4    156 39.52                             109    0.63 0  338 252 
 CBOC HE ES   4    157 13.05                             109   -2.70 0  338 252 
 PRA  HN ES        157 27.67                             106    0.30 6  395 210 
 PRA  HZ I         157 32.24         5.2 0.34            108            395 210 
 SJC  HZ EP   4    156 45.41                             105   -1.79 0  410 326 
 SJC  HN ES   4    157 26.65                             105   -3.90 0  410 326 
 SJC  HZ I         157 30.52         5.1 0.48            107            410 326 
                                                                                
