 2014  322 0142 39.4 L   6.781 -73.160146.8  RSN  9 0.3 1.6LRSN                1
 GAP=136        0.80       2.6     3.7  5.0 -0.1680E+01  0.4643E+01 -0.2005E+00E
 Epicentro: LOS SANTOS - SANTANDER                                             3
 OLDACT:REG 14-03-22 07:37 OP:mh   STATUS:               ID:20140322013819     3
 ACTION:UPD 14-04-09 23:19 OP:nd   STATUS:               ID:20140322014239 L   I
 OLDACT:UP  14-03-22 11:53 OP:mh   STATUS:               ID:20140322013820d    3
 OLDACT:UP  14-03-22 11:53 OP:mh   STATUS:               ID:20140322013820d    3
 OLDACT:UP  14-03-22 11:52 OP:mh   STATUS:               ID:20140322013820d    3
 OLDACT:DUP 14-03-22 11:37 OP:mh   STATUS:               ID:20140322013820d    3
 OLDACT:UP  14-03-22 11:36 OP:mh   STATUS:               ID:20140322013819     3
 OLDACT:UP  14-03-22 11:36 OP:mh   STATUS:               ID:20140322013819     3
 2014-03-22-0138-19M.COL___246                                                 6
 OLDACT:UP  14-03-22 11:36 OP:mh   STATUS:               ID:20140322013819     3
 STAT SP IPHASW D HRMM SECON CODA AMPLIT PERI AZIMU VELO AIN AR TRES W  DIS CAZ7
 BAR2 SZ EP        142 59.21                             171    0.0910 21.1 187 
 BAR2 SZ ES        143 14.45                             171   -0.0510 21.1 187 
 BAR2 SZ I         143 16.92        11.0 0.27            171           21.1 187 
 BRR  HZ EP        143  1.13                             153    0.4810 70.9 301 
 BRR  HN ES        143 17.44                             153    0.2210 70.9 301 
 BRR  HZ I         143 20.42         8.9 0.05            152           70.9 301 
 PAM  SZ EP        143  2.21                             150    0.3210 80.0  39 
 PAM  SN ES        143 19.16                             150   -0.2710 80.0  39 
 PAM  SZ I         143 21.45         3.8 0.22            153           80.0  39 
 RUS  HZ EP        143  3.16                             145    0.0410 98.6 175 
 RUS  HN ES        143 21.72                             145    0.0910 98.6 175 
 RUS  HZ I         143 23.87         3.5 0.19            146           98.6 175 
 PTB  HZ EP        143  6.30                             133    0.01 9  146 260 
 PTB  HN ES        143 27.08                             133   -0.18 9  146 260 
 PTB  HZ I         143 30.94         4.6 0.15            133            146 260 
 OCA  HN ES   1    143 29.91                             129   -0.35 7  162 354 
 OCA  HZ I         143 34.03         4.4 0.12            131            162 354 
 NOR  HZ EP   1    143 15.65                             119    0.72 6  232 235 
 NOR  HN ES        143 42.55                             119   -0.10 8  232 235 
 NOR  HZ I         143 45.69         4.6 0.15            120            232 235 
 SML  HZ EP        143 15.51                             117   -0.72 8  245 336 
 SML  HN ES   1    143 45.07                             117    0.13 6  245 336 
 SML  HZ I         143 47.72         5.2 0.09            119            245 336 
 CHI  HN ES        143 45.51                             118   -0.64 8  246 195 
 CHI  HZ I         143 51.63         1.7 0.15            119            246 195 
 GUY2CHN ES   4    144  0.22                             113    3.60 0  299 235 
                                                                                
