 2015  622 0629 46.9 L   6.794 -73.098149.3  RSN  6 0.4 1.6LRSN                1
 GAP=242        0.88       6.0     7.5  7.4  0.2169E+02  0.2592E+02  0.2868E+01E
 Epicentro: LOS SANTOS - SANTANDER                                             3
 ACTION:UPD 15-09-10 22:14 OP:cam  STATUS:               ID:20150622062946 L   I
 OLDACT:UP  15-06-22 16:25 OP:mh   STATUS:               ID:20150622062737     3
 OLDACT:UP  15-06-22 16:24 OP:mh   STATUS:               ID:20150622062737     3
 OLDACT:REG 15-06-22 13:07 OP:mh   STATUS:               ID:20150622062737     3
 2015-06-22-0627-37M.COL___316                                                 6
 STAT SP IPHASW D HRMM SECON CODA AMPLIT PERI AZIMU VELO AIN AR TRES W  DIS CAZ7
 BAR2 EZ EP   1    630  7.26                             171    0.26 7 24.1 203 
 BAR2 EZ ES        630 22.20                             171   -0.4610 24.1 203 
 BRR  HZ EP     C  630  9.07                             152    0.3210 76.1 297 
 BRR  HN ES        630 26.19                             152    0.4310 76.1 297 
 BRR  HZ I         630 29.37         7.8 0.28            147           76.1 297 
 RUS  HN ES        630 29.78                             145    0.0710 99.6 179 
 RUS  HZ I         630 30.74         8.7 0.30            144           99.6 179 
 ZAR  HZ EP        630 19.97                             122   -0.16 8  209 292 
 ZAR  HN ES        630 45.45                             122   -0.58 8  209 292 
 ZAR  HZ I         630 51.19         4.5 0.36            122            209 292 
 HEL  HN ES   2    631  0.90                             115    1.10 4  277 256 
 HEL  HZ I         631  6.45         1.7 0.33            115            277 256 
 GUY2CHZ EP   1    630 30.63                             113   -0.51 5  305 235 
 GUY2CHN ES   1    631  5.69                             113    0.07 5  305 235 
 GUY2CHZ I         631 14.68         2.0 0.64                           305 235 
 SJC  HZ EP   4    630 40.75                             106   -2.27 0  413 326 
 SJC  HN ES   4    631 22.86                             106   -3.90 0  413 326 
                                                                                
