 2011 1122 0519 20.4 L   6.841 -73.312143.3  RSN  4 0.1 1.3LRSN                1
 GAP=137        0.32       3.4     6.3  6.5  0.1061E+02 -0.1983E+02 -0.9394E+01E
 Epicentro: ZAPATOCA - SANTANDER                                               3
 ACTION:UPD 12-07-13 16:11 OP:ep   STATUS:               ID:20111122051920 L   I
 2011-11-22-0515-40S.COL___178                                                 6
 STAT SP IPHASW D HRMM SECON CODA AMPLIT PERI AZIMU VELO AIN AR TRES W  DIS CAZ7
 BAR2 SZ EP   2    519 40.14                             167    0.26 5 31.0 153 
 BAR2 SZ I         519 50.56         6.1 0.85                          31.0 153 
 BRR  HZ EP   1    519 40.31                             158   -0.02 7 53.1 304 
 BRR  HN ES   2    519 55.87                             158   -0.02 5 53.1 304 
 PAM  SZ EP   1    519 42.91                             147   -0.03 7 87.2  51 
 RUS  HZ EP   1    519 44.38                             141   -0.04 7  108 166 
 RUS  HE ES   1    520  3.17                             141   -0.01 7  108 166 
 RUS  HZ I         520  4.68         2.5 0.36                           108 166 
                                                                                
