 2011  722 0405 48.3 L   6.559 -73.527109.3  RSN 18 0.5 3.1LRSN                1
 GAP= 62        0.88       2.8     3.4  5.8 -0.3712E+01  0.6120E+01  0.1493E+01E
 Epicentro: EL CARMEN DE CHUCURI - SANTANDER                                   3
 ACTION:UPD 12-07-25 14:02 OP:epov STATUS:               ID:20110722040548 L   I
 2011-07-22-0403-31S.COL___143                                                 6
 STAT SP IPHASW D HRMM SECON CODA AMPLIT PERI AZIMU VELO AIN AR TRES W  DIS CAZ7
 BAR2 SZ IP     D  4 6  4.46                             159    0.3910 38.3  84 
 BAR2 SZ ES   1    4 6 16.35                             159   -0.04 7 38.3  84 
 BAR2 SZ I         4 6 18.50      1831.2 0.35                          38.3  84 
 BRR  HZ EP        4 6  5.26                             147    0.1210 64.0 341 
 BRR  HE ES   1    4 6 18.57                             147    0.28 7 64.0 341 
 BRR  HZ I         4 6 25.04       291.4 0.15                          64.0 341 
 GIR2 SZ IP        4 6  5.93                             145    0.3010 68.3  33 
 RUS  HZ IP     C  4 6  7.49                             138   -0.1510 88.5 146 
 RUS  HN ES   1    4 6 22.71                             138   -0.03 7 88.5 146 
 RUS  HZ I         4 6 26.25       112.8 0.19                          88.5 146 
 PAM  SN ES   2    4 6 28.33                             127   -0.35 5  126  47 
 BRI  SZ EP   1    4 6 13.37                             121    0.23 7  151  32 
 GRA  SZ EP   1    4 6 14.73                             119   -0.03 7  167  29 
 GRA  SZ ES   1    4 6 34.88                             119   -0.54 7  167  29 
 GRA  SZ I         4 6 39.77       223.8 0.33                           167  29 
 NOR  SZ EP   1    4 6 16.09                             116   -0.49 7  185 234 
 NOR  SN ES        4 6 37.72                             116   -0.93 9  185 234 
 OCA  SZ EP   1    4 6 16.80                             115   -0.16 7  187   7 
 OCA  SZ I         4 6 45.32       174.3 0.26                           187   7 
 ROSC BZ EP   1    4 6 20.57                             113    0.84 6  209 205 
 ROSC BN ES   1    4 6 45.21                             113    0.95 6  209 205 
 ROSC BZ I         4 6 51.40       189.1 0.38                           209 205 
 CHI  HZ EP   1    4 6 20.04                             112   -0.30 6  215 186 
 CHI  HN ES   1    4 6 45.03                             112   -0.32 6  215 186 
 CHI  HZ I         4 6 50.82        53.5 0.32                           215 186 
 HEL  HZ EP   1    4 6 21.64                             111    0.14 6  225 260 
 HEL  HE ES        4 6 47.14                             111   -0.26 8  225 260 
 VIL  SZ EP   1    4 6 26.57                             106    0.05 6  271 184 
 VIL  SZ I         4 7  5.87        61.5 0.36                           271 184 
 RREF HZ EP   2    4 6 27.97                             106    0.67 4  273 228 
 RREF HN ES   1    4 6 58.35                             106    0.61 6  273 228 
 RREF HZ I         4 7  2.83        72.8 0.36                           273 228 
 TOL  SZ EP   1    4 6 30.07                             105    0.48 5  295 222 
 DBB  SZ EP   1    4 6 30.44                             104    0.48 5  301 280 
 PRA  HZ EP   1    4 6 35.21                             101   -0.40 5  349 206 
 PRA  HN ES   1    4 7 11.42                             101   -1.10 5  349 206 
 SDV  BZ EP   1    4 6 42.36                              98   -0.79 4  410  51 
 SDV  BZ I         4 7 27.37        60.1 0.51                           410  51 
                                                                                
