 2014 1122 0152 37.7 L   6.892 -73.093156.0  RSN  4 0.3 1.3LRSN                1
 GAP=250        0.65       4.7     5.1  5.7  0.1087E+02  0.5538E+01 -0.5464E+01E
 Epicentro: PIEDECUESTA - SANTANDER                                            3
 ACTION:UPD 14-12-19 15:45 OP:nd   STATUS:               ID:20141122015237 L   I
 OLDACT:UP  14-11-22 15:25 OP:fm   STATUS:               ID:20141122014748     3
 OLDACT:REG 14-11-22 13:05 OP:fm   STATUS:               ID:20141122014748     3
 2014-11-22-0147-48M.COL___300                                                 6
 STAT SP IPHASW D HRMM SECON CODA AMPLIT PERI AZIMU VELO AIN AR TRES W  DIS CAZ7
 BAR2 SZ EP        152 58.87                             167    0.0210 34.6 197 
 BAR2 SZ ES        153 15.60                             167    0.2810 34.6 197 
 BAR2 SZ I         153 16.77         2.6 0.20            163           34.6 197 
 RUS  HZ EP        153  2.98                             143   -0.2210  111 179 
 RUS  HN ES        153 22.82                             143   -0.2510  111 179 
 RUS  HZ I         153 24.35         1.4 0.32            144            111 179 
 SPBC HZ EP        153  8.12                             129    0.02 9  175 218 
 SPBC HN ES        153 32.03                             129    0.23 9  175 218 
 SPBC HZ I         153 36.10         3.9 0.40            129            175 218 
 ZAR  HZ EP        153 11.39                             124    0.34 8  206 289 
 ZAR  HN ES        153 36.64                             124   -0.39 8  206 289 
 ZAR  HZ I         153 43.32         3.0 0.36            124            206 289 
                                                                                
