 2010 1122 0914 10.7 L   6.818 -73.073144.5  RSN  5 0.3 1.3LRSN                1
 GAP=167        0.77       6.7    15.9 15.3  0.6539E+02 -0.1776E+03 -0.6328E+02E
 Epicentro: LOS SANTOS - SANTANDER                                             3
 ACTION:UP  10-12-17 16:54 OP:REBC STATUS:               ID:20101122091410 L   I
 2010-11-22-0911-33S.COL___129                                                 6
 STAT SP IPHASW D HRMM SECON CODA AMPLIT PERI AZIMU VELO SNR AR TRES W  DIS CAZ7
 BAR2 SZ EP   1    914 29.94                             168    -0.4 8   28 206 
 BAR2 SZ I         914 47.45         5.4 0.15                            28 206 
 BRR  HZ EP   1    914 31.82                             150    -0.3 8   78 294 
 BRR  HN ES   1    914 49.08                             150     0.3 8   78 294 
 RUS  HZ EP        914 34.83                             143     0.310  102 181 
 RUS  HE ES   1    914 52.78                             143    -0.2 7  102 181 
 RUS  HZ I         914 53.37         1.8 0.25                           102 181 
 GRA  SZ EP   1    914 35.71                             138     0.2 7  122  14 
 GRA  SZ I         914 58.18         4.1 0.29                           122  14 
 OCA  SZ EP   1    914 38.66                             129    -0.2 7  159 350 
 OCA  SZ I         915  5.08         3.2 0.12                           159 350 
                                                                                
