 2017 1222 0100 48.8 L   6.841 -73.131144.8  RSN  9 0.5 2.0LRSN                1
 GAP= 66        1.14       4.2     4.1  7.0 -0.3744E+01  0.3464E+01  0.4538E+01E
 Epicentro: LOS SANTOS - SANTANDER                                             3
 ACTION:UPD 18-01-04 13:22 OP:rebc STATUS:               ID:20171222010048 L   I
 OLDACT:UP  17-12-22 14:04 OP:dani STATUS:               ID:20171222004536     3
 OLDACT:UP  17-12-22 14:01 OP:dani STATUS:               ID:20171222004536     3
 OLDACT:REG 17-12-22 12:39 OP:dani STATUS:               ID:20171222004536     3
 2017-12-22-0058-00M.COL___460                                                 6
 STAT SP IPHASW D HRMM SECON CODA AMPLIT PERI AZIMU VELO AIN AR TRES W  DIS CAZ7
 BAR2 EZ EP        1 1  8.14                             168   -0.3110 28.1 192 
 BAR2 EZ ES        1 1 23.97                             168    0.2210 28.1 192 
 BAR2 EZ I         1 1 24.95        12.9 0.25            169           28.1 192 
 PAM  EZ EP     D  1 1 10.98                             152    0.3110 72.8  41 
 PAM  EN ES        1 1 27.96                             152    0.2510 72.8  41 
 PAM  EZ I         1 1 30.06        21.2 0.50            153           72.8  41 
 PTB  HZ EP        1 1 15.17                             131   -0.78 9  150 257 
 PTB  HN ES        1 1 36.93                             131   -0.17 9  150 257 
 PTB  HZ I         1 1 38.80         7.7 0.16            133            150 257 
 TAM  HZ EP        1 1 16.55                             130    0.15 9  155 107 
 OCA  HZ EP        1 1 16.41                             130   -0.24 9  156 352 
 OCA  HE ES        1 1 38.45                             130    0.09 9  156 352 
 OCA  HZ I         1 1 41.31        16.1 0.42            132            156 352 
 SPBC HZ EP        1 1 17.37                             128   -0.32 9  168 218 
 SPBC HN ES        1 1 39.60                             128   -0.60 9  168 218 
 SPBC HZ I         1 1 42.96        16.1 0.08            130            168 218 
 YPLC HZ EP        1 1 18.76                             126   -0.11 9  180 152 
 ZAR  HZ EP        1 1 21.14                             122   -0.05 9  204 291 
 ZAR  HN ES        1 1 46.45                             122    0.01 9  204 291 
 GUY2CHZ EP        1 1 34.10                             112    1.26 7  305 234 
 GUY2CHN ES        1 2  8.34                             112    1.17 7  305 234 
 GUY2CHZ I         1 2 14.98         3.4 0.19                           305 234 
                                                                                
