 2014  522 0705  4.8 L   5.940 -73.705115.0  RSN  9 0.5 1.3LRSN                1
 GAP= 87        1.13       3.2     4.6  8.5  0.1509E+01  0.6426E+01 -0.4568E+01E
 Epicentro: GUAVATA - SANTANDER                                                3
 ACTION:UPD 15-03-16 16:59 OP:nd   STATUS:               ID:20140522070504 L   I
 OLDACT:DUP 14-05-22 20:32 OP:spq  STATUS:               ID:20140522065819d    3
 2014-05-22-0658-18M.COL___252                                                 6
 STAT SP IPHASW D HRMM SECON CODA AMPLIT PERI AZIMU VELO AIN AR TRES W  DIS CAZ7
 RUS  HZ EP        7 5 23.55                             147    0.3110 69.0  94 
 RUS  HE ES        7 5 37.56                             147   -0.0910 69.0  94 
 RUS  HZ I         7 5 42.49         3.5 0.30            150           69.0  94 
 PTB  HZ EP        7 5 24.98                             134   -0.5010  106 309 
 PTB  HE ES        7 5 41.64                             134    0.0010  106 309 
 PTB  HZ I         7 5 44.28         4.2 0.64            139            106 309 
 BRR  HZ EP        7 5 27.86                             128    0.3110  129 360 
 BRR  HN ES        7 5 46.12                             128    0.8010  129 360 
 BRR  HZ I         7 5 49.20         3.6 0.14            132            129 360 
 CHI  HZ EP        7 5 30.25                             125    0.59 9  145 181 
 CHI  HE ES        7 5 48.48                             125   -0.60 9  145 181 
 CHI  HZ I         7 5 53.08         2.4 0.50            129            145 181 
 PAM  SZ EP        7 5 34.60                             117    0.06 9  191  36 
 PAM  SE ES        7 5 57.42                             117   -0.35 9  191  36 
 PAM  SZ I         7 6  0.20         2.2 0.30            121            191  36 
 HEL  HN ES   4    7 5 58.18                             115   -1.91 0  204 278 
 ZAR  HN ES        7 6  0.74                             113   -0.52 8  214 323 
 CBOC HZ EP   1    7 5 42.15                             109    0.69 6  256 268 
 OCA  HE ES   1    7 6  9.72                             109   -0.76 6  258   9 
 SML  HZ EP        7 5 47.91                             104   -0.73 7  319 353 
 SML  HN ES        7 6 23.26                             104    0.40 7  319 353 
 SML  HZ I         7 6 27.65         2.6 0.10            108            319 353 
                                                                                
