 2016 1022 0205  8.7 L   6.364 -73.511116.1  RSN  5 0.4 1.1LRSN                1
 GAP= 83        0.69       3.0     4.3  6.1 -0.5078E+00  0.8462E+01  0.9737E+00E
 Epicentro: CONTRATACION - SANTANDER                                           3
 ACTION:UPD 16-11-09 19:21 OP:rebc STATUS:               ID:20161022020508 L   I
 OLDACT:UP  16-10-22 15:36 OP:and  STATUS:               ID:20161022015745     3
 OLDACT:REG 16-10-22 13:01 OP:and  STATUS:               ID:20161022015745     3
 2016-10-22-0158-00M.COL___358                                                 6
 STAT SP IPHASW D HRMM SECON CODA AMPLIT PERI AZIMU VELO AIN AR TRES W  DIS CAZ7
 BAR2 EZ EP        2 5 25.61                             159    0.1010 44.3  55 
 BAR2 EZ ES        2 5 38.66                             159    0.0310 44.3  55 
 RUS  HZ EP        2 5 27.30                             148   -0.0610 70.4 138 
 RUS  HE ES        2 5 41.57                             148   -0.3610 70.4 138 
 RUS  HZ I         2 5 43.92         1.4 0.18            147           70.4 138 
 BRR  HZ EP        2 5 27.57                             141   -0.1510 85.2 345 
 BRR  HN ES        2 5 42.76                             141    0.1910 85.2 345 
 SPBC HZ EP        2 5 29.23                             136    0.1710  100 218 
 SPBC HN ES        2 5 45.32                             136    0.3610  100 218 
 SPBC HZ I         2 5 46.73         5.2 0.10            137            100 218 
 PTB  HZ EP   2    2 5 28.71                             134   -0.77 5  106 281 
 PTB  HN ES   3    2 5 44.33                             134   -1.39 2  106 281 
 PTB  HZ I         2 5 45.80         2.7 0.14            136            106 281 
                                                                                
