 2013  622 0024  3.7 L   6.807 -73.129155.3  RSN  6 0.4 1.6LRSN                1
 GAP=202        0.78       4.0     5.9  8.0  0.2086E+01  0.1000E+02 -0.3913E+01E
 Epicentro: LOS SANTOS - SANTANDER                                             3
 ACTION:UPD 14-01-08 09:56 OP:ep   STATUS:               ID:20130622002403 L   I
 OLDACT:REG 13-06-22 08:39 OP:carl STATUS:               ID:20130622001959     3
 2013-06-22-0019-59M.COL___267                                                 6
 STAT SP IPHASW D HRMM SECON CODA AMPLIT PERI AZIMU VELO AIN AR TRES W  DIS CAZ7
 BAR2 SZ EP   1    024 24.45                             171   -0.06 9 24.4 194 
 BAR2 SZ ES   1    024 40.44                             171   -0.30 9 24.4 194 
 BAR2 SZ I         024 42.04         9.9 0.24            169           24.4 194 
 BRR  HZ EP   1    024 26.16                             154    0.19 9 72.5 297 
 BRR  HE ES   1    024 44.15                             154    0.82 9 72.5 297 
 RUS  HZ EP   1    024 28.90                             145    0.44 9  101 177 
 RUS  HN ES   1    024 47.39                             145   -0.37 9  101 177 
 RUS  HZ I         024 48.05         3.9 0.28            147            101 177 
 PTB  HZ EP   1    024 31.52                             134   -0.13 9  150 259 
 PTB  HE ES   1    024 53.05                             134   -0.39 9  150 259 
 PTB  HZ I         024 58.13         6.3 0.40            133            150 259 
 NOR  HN ES        025  8.80                             120    0.1110  237 235 
 SML  HE ES        025  9.56                             119   -0.3510  244 335 
                                                                                
