 2013 1222 0237 55.5 L   6.878 -73.352113.8  RSN  8 0.5 1.8LRSN                1
 GAP=148        1.16       3.6     5.5  8.8 -0.5694E+00  0.2208E+02 -0.5962E+01E
 Epicentro: SAN VICENTE DE CHUCURI - SANTANDER                                 3
 ACTION:UPD 14-01-13 10:20 OP:ep   STATUS:               ID:20131222023755 L   I
 OLDACT:REG 13-12-22 08:57 OP:jn   STATUS:               ID:20131222023000     3
 2013-12-22-0230-00M.COL___285                                                 6
 STAT SP IPHASW D HRMM SECON CODA AMPLIT PERI AZIMU VELO AIN AR TRES W  DIS CAZ7
 BAR2 SZ EP     C  238 12.33                             161    0.5910 36.7 149 
 BAR2 SZ ES        238 24.34                             161   -0.0710 36.7 149 
 BAR2 SZ I         238 26.48        71.2 0.30            166           36.7 149 
 RUS  HZ EP        238 17.28                             132   -0.0710  113 165 
 RUS  HN ES        238 34.12                             132   -0.2710  113 165 
 RUS  HZ I         238 35.99         3.1 0.18            138            113 165 
 PTB  HZ EP     D  238 17.15                             128   -0.9310  128 253 
 PTB  HE ES   2    238 35.24                             128   -0.46 5  128 253 
 PTB  HZ I         238 39.50        11.5 0.32            131            128 253 
 OCA  HZ EP        238 20.17                             123   -0.37 9  151   1 
 OCA  HE ES        238 40.56                             123    0.49 9  151   1 
 OCA  HZ I         238 46.47         9.0 0.42            127            151   1 
 ZAR  HN ES        238 45.34                             118    0.15 9  180 292 
 NOR  HZ EP        238 28.85                             112    0.69 8  222 229 
 NOR  HE ES        238 53.81                             112    0.17 8  222 229 
 NOR  HZ I         238 57.94         7.0 0.16            116            222 229 
 SML  HZ EP        238 27.96                             112   -0.69 8  227 340 
 SML  HE ES   2    238 54.91                             112    0.41 4  227 340 
 GUY2CHZ EP        238 36.99                             106    0.67 7  288 231 
                                                                                
