 2012  922 0917 34.4 L   6.785 -73.141140.4  RSN 18 0.4 3.1LRSN 3.3WRSN        1
 SPEC AVERAGE  MO 14.0 ST 29.6 OM  2.6 f0 5.14 R0.2933 AL 2.71 WI  6.7 MW  3.3 3
 SPEC SD       MO  0.3 ST 29.2 OM  0.4 f00.840 R0.0456 AL      WI      MW  0.2 3
 GAP= 66        0.75       2.6     2.4  4.3 -0.3427E-01  0.1841E+01  0.4245E+01E
 Epicentro: LOS SANTOS - SANTANDER                                             3
 SPEC YOP SH N MO 14.1 ST 11.5 OM  2.4 f0 3.98 R0.3693 AL 3.32 WI  3.8 MW  3.4 3
 SPEC YOP SH N T 91827 K 0.000 GD  225 VS 4.20 DE 3.00 Q0230.0 QA 0.60 VS 4.20 3
 SPEC PRA HH N MO 14.0 ST 18.0 OM  2.0 f0 5.12 R0.2871 AL 2.62 WI  6.7 MW  3.3 3
 SPEC PRA HH N T 919 7 K 0.000 GD  415 VS 4.20 DE 3.00 Q0230.0 QA 0.60 VS 4.20 3
 SPEC RREFHH N MO 14.7 ST 95.7 OM  2.8 f0 5.12 R0.2871 AL 3.24 WI  8.2 MW  3.8 3
 SPEC RREFHH N T 91855 K 0.000 GD  350 VS 4.20 DE 3.00 Q0230.0 QA 0.60 VS 4.20 3
 SPEC PTB HH N MO 13.9 ST 26.7 OM  2.2 f0 6.35 R0.2315 AL 2.31 WI  8.0 MW  3.2 3
 SPEC PTB HH N T 91819 K 0.000 GD  204 VS 4.20 DE 3.00 Q0230.0 QA 0.60 VS 4.20 3
 SPEC PAM SH N MO 13.7 ST  7.8 OM  2.1 f0 4.92 R0.2988 AL 3.07 WI  2.9 MW  3.1 3
 SPEC PAM SH N T 91812 K 0.000 GD  160 VS 4.20 DE 3.00 Q0230.0 QA 0.60 VS 4.20 3
 SPEC HEL HH N MO 13.9 ST  8.3 OM  2.0 f0 4.38 R0.3356 AL 1.92 WI  7.9 MW  3.2 3
 SPEC HEL HH N T 91844 K 0.000 GD  306 VS 4.20 DE 3.00 Q0230.0 QA 0.60 VS 4.20 3
 SPEC CHI HH N MO 13.9 ST 12.0 OM  2.1 f0 4.70 R0.3128 AL 2.60 WI 11.7 MW  3.2 3
 SPEC CHI HH N T 91839 K 0.000 GD  284 VS 4.20 DE 3.00 Q0230.0 QA 0.60 VS 4.20 3
 SPEC BRR HH N MO 14.2 ST 57.2 OM  2.6 f0 6.56 R0.2241 AL 2.63 WI  4.3 MW  3.4 3
 SPEC BRR HH N T 91811 K 0.000 GD  157 VS 4.20 DE 3.00 Q0230.0 QA 0.60 VS 4.20 3
 ACTION:UPD 12-10-22 14:20 OP:ep   STATUS:               ID:20120922091734 L   I
 2012-09-22-0910-00M.COL___221                                                 6
 STAT SP IPHASW D HRMM SECON CODA AMPLIT PERI AZIMU VELO AIN AR TRES W  DIS CAZ7
 BAR2 SZ IP        917 53.25                             171   -0.1010 21.8 192 
 BAR2 SZ ES   1    918  7.66                             171   -0.47 7 21.8 192 
 GIR2 SZ EP        917 53.29                             166   -0.1910 33.0 350 
 GIR2 SZ ES   1    918  8.40                             166    0.04 7 33.0 350 
 BRR  HZ IP     C  917 55.09                             151    0.0510 72.4 300 
 BRR  HN ES   1    918 11.86                             151    0.72 7 72.4 300 
 PAM  SZ EP        917 56.10                             150    0.0010 78.4  38 
 PAM  SZ I         917 56.45       232.4 0.20                          78.4  38 
 PAM  SN ES   1    918 12.96                             150   -0.07 7 78.4  38 
 RUS  HZ EP        917 57.16                             143   -0.3410 98.9 176 
 RUS  HN ES   1    918 15.48                             143   -0.03 7 98.9 176 
 RUS  HZ I         918 17.49       128.6 0.34                          98.9 176 
 PTB  HE ES   1    918 21.91                             131    0.26 7  148 260 
 PTB  HE I         918 26.42       149.1 0.12                           148 260 
 TAM  HZ IP     D  918  1.69                             130    0.12 9  154 104 
 TAM  HZ I         918  1.84       183.0 0.20                           154 104 
 TAM  HE ES   1    918 23.05                             130    0.29 7  154 104 
 YOP  SZ EP        918  4.07                             125    0.18 9  177 153 
 YOP  SN ES   1    918 27.58                             125    0.69 7  177 153 
 YOP  SZ I         918 31.15       155.0 0.42                           177 153 
 ZAR  HZ EP        918  5.93                             121   -0.68 9  205 293 
 ZAR  HN ES   1    918 31.71                             121   -0.02 6  205 293 
 ZAR  HN I         918 40.90       224.5 0.18                           205 293 
 NOR  SN ES   1    918 37.39                             117    0.05 6  234 235 
 CHI  HZ EP   1    918 11.70                             116    0.06 6  247 195 
 CHI  HN ES   1    918 39.99                             116   -0.70 6  247 195 
 CHI  HN I         918 48.24        95.4 0.51                           247 195 
 ROSC BZ EP   2    918 12.06                             116   -0.04 4  252 211 
 ROSC BN ES   1    918 41.77                             116    0.27 6  252 211 
 ROSC BZ I         918 48.63        81.2 0.45                           252 211 
 HEL  HZ EP   1    918 15.15                             114    0.80 6  272 256 
 HEL  HN ES   2    918 45.26                             114   -0.25 4  272 256 
 HEL  HN I         918 51.00        52.4 0.36                           272 256 
 VIL  SZ EP   1    918 16.92                             111   -0.48 5  302 192 
 VIL  SN ES   1    918 50.61                             111   -0.33 5  302 192 
 RREF HZ EP   1    918 20.53                             110    0.30 5  321 230 
 RREF HN ES   1    918 56.40                             110    0.42 5  321 230 
 RREF HZ I         919  2.40        56.0 0.30                           321 230 
 ANIL HZ EP   1    918 24.32                             108    0.42 5  356 225 
 ANIL HN ES   1    919  3.17                             108    0.66 5  356 225 
 PRA  HZ EP   1    918 26.99                             106   -0.60 4  391 210 
 PRA  HN ES   1    919  8.02                             106   -1.07 4  391 210 
 PRA  HN I         919 13.68        47.0 0.46                           391 210 
 SJA  SZ EP   1    918 29.48                             105    0.88 4  399 193 
                                                                                
