 2017  122 0556 46.0 L   6.774 -73.147144.0  RSN  7 0.3 1.6LRSN                1
 GAP=138        0.70       3.2     3.1  4.6  0.1070E+01  0.3575E+01  0.4294E+00E
 Epicentro: LOS SANTOS - SANTANDER                                             3
 ACTION:UPD 17-05-22 16:02 OP:jn   STATUS:               ID:20170122055646 L   I
 OLDACT:REG 17-01-22 13:05 OP:dani STATUS:               ID:20170122054745     3
 2017-01-22-0548-00M.COL___331                                                 6
 STAT SP IPHASW D HRMM SECON CODA AMPLIT PERI AZIMU VELO AIN AR TRES W  DIS CAZ7
 BAR2 EZ EP        557  5.26                             172   -0.0810 20.5 191 
 BAR2 EZ ES        557 20.36                             172   -0.0810 20.5 191 
 BAR2 EZ I         557 21.00        11.5 0.36            170           20.5 191 
 BRR  HZ EP        557  7.02                             152    0.0210 72.5 301 
 BRR  HN ES        557 24.02                             152    0.6110 72.5 301 
 BRR  HZ I         557 24.55         6.9 0.14            152           72.5 301 
 PAM  EZ EP        557  8.08                             150   -0.0610 79.7  38 
 PAM  EE ES        557 25.27                             150   -0.1610 79.7  38 
 PAM  EZ I         557 27.02         6.6 0.48            152           79.7  38 
 RUS  HZ EP        557  9.55                             144    0.2010 97.8 176 
 RUS  HN ES        557 27.56                             144   -0.0210 97.8 176 
 RUS  HZ I         557 29.73         5.5 0.15            144           97.8 176 
 PTB  HZ EP        557 12.22                             132   -0.52 9  147 260 
 PTB  HN ES        557 33.41                             132   -0.20 9  147 260 
 PTB  HZ I         557 35.69         5.1 0.11            132            147 260 
 ZAR  HZ EP        557 18.64                             122    0.24 9  205 293 
 ZAR  HN ES        557 43.53                             122   -0.16 9  205 293 
 ZAR  HZ I         557 46.08         4.3 0.14            122            205 293 
 CHI  HZ EP   2    557 23.97                             117    0.70 4  246 195 
 CHI  HN ES   2    557 52.60                             117    0.24 4  246 195 
 CHI  HZ I         557 56.41         1.6 0.27            117            246 195 
                                                                                
