 2015 1022 0535 47.6 L   6.334 -73.580115.8  RSN 11 0.4 2.0LRSN                1
 GAP= 84        0.94       2.9     3.1  6.0 -0.3210E+01  0.8641E+01 -0.4930E+01E
 Epicentro: SANTA HELENA DEL OPON - SANTANDER                                  3
 ACTION:UPD 15-12-22 20:42 OP:cam  STATUS:               ID:20151022053547 L   I
 OLDACT:UP  15-10-22 17:09 OP:mh   STATUS:               ID:20151022052748     3
 OLDACT:UP  15-10-22 17:09 OP:mh   STATUS:               ID:20151022052748     3
 OLDACT:REG 15-10-22 12:17 OP:mh   STATUS:               ID:20151022052748     3
 2015-10-22-0527-48M.COL___319                                                 6
 STAT SP IPHASW D HRMM SECON CODA AMPLIT PERI AZIMU VELO AIN AR TRES W  DIS CAZ7
 BAR2 EZ IP        536  4.99                             154    0.2210 52.4  57 
 BAR2 EZ ES        536 18.41                             154    0.2210 52.4  57 
 BAR2 EZ I         536 19.46        58.5 0.30            156           52.4  57 
 RUS  HZ EP        536  6.27                             146   -0.1610 73.5 132 
 RUS  HN ES        536 20.60                             146   -0.5410 73.5 132 
 BRR  HZ EP        536  6.35                             140   -0.3510 86.7 350 
 BRR  HN ES        536 21.56                             140   -0.0710 86.7 350 
 BRR  HZ I         536 28.80        10.3 0.18            139           86.7 350 
 SPBC HZ EP   1    536  7.27                             138   -0.06 7 93.1 216 
 SPBC HN ES        536 22.78                             138    0.0310 93.1 216 
 SPBC HZ I         536 24.19        25.8 0.26            144           93.1 216 
 PAM  EZ EP   1    536 12.43                             124   -0.47 7  148  41 
 PAM  EN ES        536 33.43                             124    0.77 9  148  41 
 PAM  EZ I         536 37.11         9.6 0.46            127            148  41 
 NOR  HZ EP   1    536 14.49                             121    0.26 7  166 239 
 NOR  HN ES        536 35.51                             121    0.48 9  166 239 
 NOR  HZ I         536 36.32        17.1 0.14            124            166 239 
 ZAR  HZ IP     D  536 16.76                             117   -0.03 9  191 312 
 ZAR  HN ES        536 39.39                             117   -0.19 9  191 312 
 ZAR  HZ I         536 46.07        12.0 0.28            118            191 312 
 OCA  HZ EP   1    536 18.44                             114   -0.95 6  213   8 
 OCA  HN ES        536 44.34                             114    0.13 8  213   8 
 OCA  HZ I         536 49.06        18.7 0.46            116            213   8 
 HEL  HZ EP        536 20.54                             114    0.47 8  216 266 
 HEL  HN ES        536 44.89                             114   -0.54 8  216 266 
 HEL  HZ I         536 47.94         5.1 0.32            116            216 266 
 GUY2CHZ EP   1    536 22.75                             112    0.69 6  233 238 
 GUY2CHN ES   4    536 50.90                             112    1.93 0  233 238 
 GUY2CHZ I         536 56.81         5.6 0.48                           233 238 
 SML  HZ EP   1    536 26.62                             107   -0.06 6  278 349 
 SML  HN ES   4    536 55.07                             107   -2.12 0  278 349 
 SML  HZ I         537  2.36         9.2 0.10            110            278 349 
                                                                                
