 2010 1022 0710 55.3 L   6.319 -73.583109.2  RSN  6 0.3 1.4LRSN                1
 GAP=101        0.66       5.6     4.5  9.6 -0.9168E+01  0.1892E+02  0.1464E+02E
 Epicentro: SANTA HELENA DEL OPON - SANTANDER                                  3
 ACTION:UP  11-02-18 11:11 OP:tino STATUS:               ID:20101022071055 L   I
 2010-10-22-0709-49S.COL___125                                                 6
 STAT SP IPHASW D HRMM SECON CODA AMPLIT PERI AZIMU VELO SNR AR TRES W  DIS CAZ7
 BAR2 SZ EP        711 12.09                             152     0.210   54  56 
 BAR2 SZ ES   1    711 24.90                             152     0.1 7   54  56 
 BAR2 SZ I         711 26.68        23.5 0.11                            54  56 
 RUS  HZ EP   1    711 13.46                             144     0.0 7   73 130 
 RUS  HZ I         711 29.26         3.0 0.20                            73 130 
 BRR  HZ EP   1    711 13.67                             138    -0.3 7   88 351 
 BRR  HZ I         711 13.95         8.1 0.10                            88 351 
 BRR  HN ES   2    711 28.44                             138    -0.1 5   88 351 
 NOR  SZ EP   1    711 21.44                             119    -0.1 7  165 240 
 NOR  SN ES   1    711 41.43                             119    -0.5 7  165 240 
 NOR  SZ I         711 46.54         0.9 0.23                           165 240 
 HEL  HZ EP   1    711 27.61                             112     0.1 6  216 266 
 HEL  HE ES   2    711 53.36                             112     0.8 4  216 266 
 HEL  HZ I         711 59.11         2.8 0.18                           216 266 
 RREF HN ES   2    712  0.44                             108     0.2 4  251 231 
 RREF HZ I         712  6.27         2.9 0.12                           251 231 
                                                                                
