 2016  622 0126 18.0 L   6.633 -73.228142.4  RSN  4 0.4 1.3LRSN                1
 GAP=178        0.88       7.2     6.5  7.5  0.2388E+02  0.1102E+02  0.1001E+02E
 Epicentro: BARICHARA - SANTANDER                                              3
 ACTION:UPD 16-07-21 22:21 OP:rebc STATUS:               ID:20160622012618 L   I
 OLDACT:DUP 16-06-22 14:57 OP:ak   STATUS:               ID:20160622011748d    3
 OLDACT:REG 16-06-22 13:16 OP:ak   STATUS:               ID:20160622011747     3
 2016-06-22-0117-47M.COL___325                                                 6
 STAT SP IPHASW D HRMM SECON CODA AMPLIT PERI AZIMU VELO AIN AR TRES W  DIS CAZ7
 BAR2 EZ EP        126 36.60                             177   -0.3610 6.81 132 
 BAR2 EZ ES        126 51.44                             177   -0.3410 6.81 132 
 BAR2 EZ I         126 52.51         4.9 0.14                          6.81 132 
 BRR  HZ EP   2    126 40.04                             151    1.08 5 74.9 314 
 BRR  HN ES        126 55.66                             151    0.3210 74.9 314 
 RUS  HZ EP        126 40.24                             148    0.0410 83.5 169 
 RUS  HN ES        126 57.91                             148    0.3610 83.5 169 
 RUS  HZ I         126 59.64         3.3 0.22                          83.5 169 
 PTB  HZ EP        126 43.34                             134   -0.27 9  136 266 
 PTB  HN ES        127  3.57                             134   -0.05 9  136 266 
 PTB  HZ I         127  7.21         2.4 0.39                           136 266 
                                                                                
