 2012  122 0857 46.6 L   6.815 -73.119144.3  RSN 11 0.4 1.8LRSN                1
 GAP=139        0.77       4.6     4.2  6.2 -0.3344E+01  0.3826E+01  0.1045E+02E
 Epicentro: LOS SANTOS - SANTANDER                                             3
 ACTION:UP  12-02-03 08:19 OP:REBC STATUS:               ID:20120122085746 L   I
 2012-01-22-0850-00M.COL___186                                                 6
 STAT SP IPHASW D HRMM SECON CODA AMPLIT PERI AZIMU VELO SNR AR TRES W  DIS CAZ7
 BAR2 SZ EP   1    858  5.98                             169    -0.1 7   26 196 
 BAR2 SZ ES   1    858 21.15                             169    -0.2 7   26 196 
 BAR2 SZ I         858 23.35        11.5 0.41                            26 196 
 BRR  HZ EP   1    858  7.76                             152     0.1 7   73 296 
 BRR  HE ES   1    858 24.30                             152     0.1 7   73 296 
 BRR  HZ I         858 30.05        12.7 0.16                            73 296 
 PAM  SZ EP        858  8.69                             151     0.210   74  39 
 PAM  SN ES   1    858 25.63                             151     0.1 7   74  39 
 RUS  HZ EP        858  9.99                             143    -0.310  102 178 
 RUS  HE ES   2    858 29.25                             143     0.4 5  102 178 
 RUS  HZ I         858 30.71         5.7 0.32                           102 178 
 PTB  HZ EP   1    858 12.77                             131    -1.0 7  151 258 
 PTB  HE ES   1    858 34.53                             131    -0.4 7  151 258 
 ZAR  HE ES   2    858 44.87                             122     0.3 4  206 291 
 ZAR  HZ I         858 50.01         7.6 0.19                           206 291 
 NOR  SE ES   2    858 51.42                             118     0.7 4  238 235 
 CHI  HZ EP   1    858 24.56                             116     0.1 6  251 196 
 CHI  HZ I         858 26.98         3.3 0.24                           251 196 
 CHI  HN ES   2    858 54.54                             116     0.5 4  251 196 
 HEL  HZ EP   1    858 27.88                             114     0.8 6  275 256 
 HEL  HE ES   2    858 58.80                             114     0.1 4  275 256 
 HEL  HZ I         859  4.71         4.8 0.62                           275 256 
 RREF HZ EP   2    858 33.47                             110     0.4 3  325 229 
 RREF HN ES   2    859  9.74                             110     0.4 3  325 229 
 RREF HZ I         859 18.45         4.3 0.44                           325 229 
 PRA  HZ EP   1    858 40.44                             106     0.0 4  395 210 
 PRA  HN ES   2    859 22.41                             106     0.0 3  395 210 
                                                                                
