 2011 1222 0451 18.3 L   6.770 -73.093146.8  RSN  8 0.3 1.8LRSN                1
 GAP=145        0.57       2.5     4.3  3.8 -0.7081E+00  0.7432E+00  0.4349E+00E
 Epicentro: LOS SANTOS - SANTANDER                                             3
 ACTION:UPD 12-07-13 16:17 OP:ep   STATUS:               ID:20111222045118 L   I
 2011-12-22-0450-00M.COL___191                                                 6
 STAT SP IPHASW D HRMM SECON CODA AMPLIT PERI AZIMU VELO AIN AR TRES W  DIS CAZ7
 BAR2 SZ EP        451 37.89                             171   -0.1610 22.0 207 
 BAR2 SZ ES        451 53.23                             171   -0.2010 22.0 207 
 BAR2 SZ I         451 54.95        19.2 0.33                          22.0 207 
 GIR2 SZ EP        451 38.22                             165   -0.0310 35.9 342 
 PAM  SZ EP   1    451 40.77                             151    0.18 7 76.5  35 
 PAM  SN ES   1    451 57.43                             151   -0.54 7 76.5  35 
 BRR  HZ EP        451 39.99                             150    0.0210 77.9 299 
 BRR  HZ I         451 40.29        32.8 0.18                          77.9 299 
 BRR  HE ES        451 57.19                             150    0.3310 77.9 299 
 RUS  HZ EP        451 42.16                             145    0.2410 97.0 179 
 RUS  HE ES   1    452  0.57                             145    0.24 7 97.0 179 
 RUS  HZ I         452  1.96         5.0 0.24                          97.0 179 
 OCA  SZ EP        451 47.21                             129    0.12 9  164 351 
 OCA  SZ ES   1    452  9.41                             129   -0.13 7  164 351 
 OCA  SZ I         452 16.24         7.8 0.32                           164 351 
 NOR  SZ EP   1    451 54.11                             118   -0.30 6  238 236 
 NOR  SN ES   2    452 22.03                             118   -0.54 4  238 236 
 CHI  HZ EP   1    451 55.94                             117    0.04 6  247 197 
 CHI  HZ I         452 34.99         3.0 0.51                           247 197 
                                                                                
