 2012 1022 0339 50.4 L   6.853 -73.222120.7  RSN  6 0.3 1.7LRSN                1
 GAP=164        0.57       3.9     4.9  7.4  0.1198E+02  0.1479E+01 -0.5271E+01E
 Epicentro: ZAPATOCA - SANTANDER                                               3
 ACTION:UPD 12-11-22 17:05 OP:ep   STATUS:               ID:20121022033950 L   I
 2012-10-22-0337-47M.COL___189                                                 6
 STAT SP IPHASW D HRMM SECON CODA AMPLIT PERI AZIMU VELO AIN AR TRES W  DIS CAZ7
 GIR2 SZ EP   1    340  7.19                             167    0.28 7 25.1   7 
 BAR2 SZ EP   1    340  7.58                             166    0.41 7 29.2 171 
 BAR2 SZ ES   2    340 20.64                             166    0.38 5 29.2 171 
 BAR2 SZ I         340 21.96        22.7 0.24                          29.2 171 
 BRR  HZ EP   1    340  8.09                             151   -0.16 7 61.0 297 
 BRR  HN ES        340 22.16                             151   -0.0310 61.0 297 
 BRR  HN I         340 22.75        26.3 0.21                          61.0 297 
 RUS  HE ES        340 29.15                             136   -0.3010  107 172 
 RUS  HN I         340 30.95         3.3 0.23                           107 172 
 OCA  HN ES   2    340 35.88                             124   -0.46 5  154 356 
 ZAR  HE ES        340 43.57                             118    0.04 9  194 291 
                                                                                
