 2016  522 0153 37.9 L   6.812 -73.181137.2  RSN  9 0.3 1.6LRSN                1
 GAP=132        0.88       3.1     3.9  5.7 -0.3682E+01  0.5004E+01  0.1980E+01E
 Epicentro: ZAPATOCA - SANTANDER                                               3
 ACTION:UPD 16-08-18 17:48 OP:cam  STATUS:               ID:20160522015337 L   I
 OLDACT:UP  16-05-22 15:14 OP:mh   STATUS:               ID:20160522014741     3
 OLDACT:UP  16-05-22 15:12 OP:mh   STATUS:               ID:20160522014741     3
 OLDACT:REG 16-05-22 13:00 OP:mh   STATUS:               ID:20160522014741     3
 2016-05-22-0147-41M.COL___298                                                 6
 STAT SP IPHASW D HRMM SECON CODA AMPLIT PERI AZIMU VELO AIN AR TRES W  DIS CAZ7
 BAR2 EZ EP        153 56.57                             169    0.0510 24.3 180 
 BAR2 EZ ES        154 11.08                             169    0.0410 24.3 180 
 BRR  HZ EP        153 58.60                             152    0.7110 67.1 299 
 BRR  HN ES        154 13.54                             152    0.0610 67.1 299 
 BRR  HZ I         154 16.69                             149           67.1 299 
 PAM  EZ EP        153 59.48                             149    0.1710 78.9  42 
 PAM  EN ES        154 16.10                             149    0.1010 78.9  42 
 PAM  EZ I         154 19.08         5.1 0.44            151           78.9  42 
 RUS  HZ EP        154  0.99                             141    0.0410  102 174 
 RUS  HE ES        154 18.75                             141   -0.1710  102 174 
 RUS  HZ I         154 19.24         2.5 0.26            143            102 174 
 PTB  HZ EP        154  3.27                             131   -0.58 9  144 258 
 PTB  HN ES        154 24.08                             131   -0.01 9  144 258 
 PTB  HZ I         154 26.50         5.0 0.10            130            144 258 
 OCA  HE ES        154 26.32                             128   -0.51 9  159 354 
 OCA  HZ I         154 31.04        11.7 0.32            128            159 354 
 SPBC HZ EP        154  5.25                             127   -0.37 9  162 218 
 SPBC HN ES        154 26.93                             127   -0.31 9  162 218 
 SPBC HZ I         154 32.21         5.8 0.28            127            162 218 
 NOR  HZ EP   1    154 13.30                             117    0.41 6  232 234 
 NOR  HN ES        154 40.72                             117    0.54 8  232 234 
 NOR  HZ I         154 50.17         2.7 0.12            117            232 234 
 PTGC HZ EP   4    154 18.90                             110   -2.80 0  311 158 
 PTGC HN ES   4    154 52.76                             110   -3.10 0  311 158 
 SJC  HZ EP   4    154 30.87                             104   -1.94 0  406 327 
 SJC  HZ I         154 34.53         1.5 0.58            105            406 327 
 SJC  HN ES   4    155 12.49                             104   -3.15 0  406 327 
                                                                                
