 2016 1022 0527 54.3 L   6.787 -73.157150.4  RSN  9 0.3 1.6LRSN                1
 GAP=136        0.73       3.6     4.2  5.3 -0.9254E-01  0.2530E+01  0.1483E+01E
 Epicentro: LOS SANTOS - SANTANDER                                             3
 ACTION:UPD 16-11-09 19:21 OP:rebc STATUS:               ID:20161022052754 L   I
 OLDACT:UP  16-10-22 21:09 OP:and  STATUS:               ID:20161022051746     3
 OLDACT:REG 16-10-22 13:12 OP:and  STATUS:               ID:20161022051746     3
 2016-10-22-0518-00M.COL___346                                                 6
 STAT SP IPHASW D HRMM SECON CODA AMPLIT PERI AZIMU VELO AIN AR TRES W  DIS CAZ7
 BAR2 EZ EP        528 14.33                             172   -0.1010 21.8 187 
 BAR2 EZ ES        528 30.13                             172   -0.0210 21.8 187 
 BAR2 EZ I         528 32.73         7.7 0.26            173           21.8 187 
 BRR  HZ IP     C  528 16.21                             154    0.3110 70.8 300 
 BRR  HN ES        528 33.25                             154    0.4810 70.8 300 
 BRR  HZ I         528 36.62         6.0 0.14            152           70.8 300 
 PAM  EZ EP   2    528 16.92                             151   -0.17 5 79.2  40 
 PAM  EN ES   2    528 34.65                             151   -0.24 5 79.2  40 
 PAM  EZ I         528 39.05         4.4 0.38            153           79.2  40 
 RUS  HZ EP        528 18.33                             145   -0.0610 99.3 175 
 RUS  HN ES        528 37.15                             145   -0.0510 99.3 175 
 RUS  HZ I         528 37.90         3.6 0.20            149           99.3 175 
 PTB  HZ EP        528 21.31                             133   -0.18 9  146 259 
 PTB  HN ES        528 42.08                             133   -0.64 9  146 259 
 PTB  HZ I         528 44.41         5.9 0.10            134            146 259 
 SPBC HZ EP        528 23.31                             130    0.36 9  161 219 
 SPBC HN ES        528 45.40                             130    0.07 9  161 219 
 SPBC HZ I         528 48.10         6.7 0.18            133            161 219 
 OCA  HZ EP   4    528 20.54                             130   -2.52 0  162 354 
 OCA  HN ES   2    528 45.04                             130   -0.48 5  162 354 
 OCA  HZ I         528 47.85         8.9 0.42            131            162 354 
 HEL  HZ EP   4    528 33.92                             116   -0.63 0  271 256 
 HEL  HN ES   4    529  8.12                             116    2.14 0  271 256 
 HEL  HZ I         529 12.63         2.6 0.62            117            271 256 
 GUY2CHZ EP   4    528 39.87                             113    1.98 0  299 235 
 GUY2CHN ES   4    529 14.49                             113    2.57 0  299 235 
 GUY2CHZ I         529 20.86         1.7 0.60                           299 235 
                                                                                
