 2011 1222 0156 27.1 L   7.441 -73.198126.5  RSN  4 0.2 1.7LRSN                1
 GAP=302        0.50       7.7     5.8  6.0  0.4506E+01  0.7574E+01 -0.1247E+02E
 Epicentro: EL PLAYON - SANTANDER                                              3
 ACTION:UPD 12-07-13 16:17 OP:ep   STATUS:               ID:20111222015627 L   I
 2011-12-22-0150-00M.COL___191                                                 6
 STAT SP IPHASW D HRMM SECON CODA AMPLIT PERI AZIMU VELO AIN AR TRES W  DIS CAZ7
 GIR2 SZ ES   2    156 58.55                             161   -0.06 5 40.0 179 
 BRR  HZ EP        156 46.23                             150    0.2310 67.7 237 
 BRR  HE ES        157  0.59                             150   -0.1310 67.7 237 
 BRR  HZ I         157  2.45         8.6 0.09                          67.7 237 
 BAR2 SZ ES   1    157  4.55                             141    0.00 7 93.9 179 
 BAR2 SZ I         157  5.70        12.0 0.13                          93.9 179 
 PTB  HZ EP   1    156 54.53                             123   -0.38 7  171 234 
 PTB  HN ES   1    157 16.79                             123    0.19 7  171 234 
                                                                                
