 2014 1122 0305  3.7 L   7.561 -73.069159.2  RSN 13 0.4 1.9LRSN                1
 GAP=141        0.98       3.3     3.9  5.2  0.1215E+01  0.7402E+01  0.2651E+01E
 Epicentro: EL PLAYON - SANTANDER                                              3
 ACTION:UPD 14-12-19 15:45 OP:nd   STATUS:               ID:20141122030503 L   I
 OLDACT:REG 14-11-22 13:10 OP:fm   STATUS:               ID:20141122025749     3
 2014-11-22-0257-49M.COL___309                                                 6
 STAT SP IPHASW D HRMM SECON CODA AMPLIT PERI AZIMU VELO AIN AR TRES W  DIS CAZ7
 PAM  SZ EP        3 5 26.30                             163    0.3510 47.6 121 
 PAM  SN ES        3 5 43.13                             163   -0.2010 47.6 121 
 PAM  SZ I         3 5 44.92        17.6 0.16            166           47.6 121 
 OCA  HZ EP        3 5 27.43                             152    0.4510 79.9 340 
 OCA  HE ES        3 5 45.23                             152    0.0610 79.9 340 
 OCA  HZ I         3 5 47.57        18.4 0.24            153           79.9 340 
 BRR  HZ EP        3 5 27.16                             150   -0.0110 86.9 235 
 BRR  HN ES        3 5 45.99                             150    0.4810 86.9 235 
 BRR  HZ I         3 5 49.11        19.8 0.14            145           86.9 235 
 BAR2 SZ EP        3 5 28.71                             144   -0.1910  108 187 
 BAR2 SZ ES        3 5 48.20                             144   -0.3910  108 187 
 BAR2 SZ I         3 5 50.18        17.2 0.18            142            108 187 
 RUS  HZ EP        3 5 35.77                             129    0.02 9  185 180 
 RUS  HE ES        3 6  0.25                             129   -0.53 9  185 180 
 RUS  HZ I         3 6  1.38         2.7 0.42            128            185 180 
 PTB  HZ EP        3 5 35.89                             127    0.21 9  190 234 
 PTB  HN ES        3 6  0.65                             127   -0.01 9  190 234 
 PTB  HZ I         3 6  5.20         9.0 0.30            126            190 234 
 ZAR  HZ EP        3 5 36.75                             126    0.37 9  198 268 
 ZAR  HN ES        3 6  2.10                             126    0.21 9  198 268 
 ZAR  HZ I         3 6  8.07        10.9 0.46            125            198 268 
 NOR  HZ EP        3 5 46.72                             115   -0.24 7  297 222 
 NOR  HN ES        3 6 20.75                             115    0.02 7  297 222 
 NOR  HZ I         3 6 30.30         6.5 0.22            115            297 222 
 HEL  HZ EP        3 5 48.24                             114   -0.66 7  311 241 
 HEL  HE ES        3 6 24.29                             114    0.10 7  311 241 
 HEL  HZ I         3 6 34.88         4.3 0.26            114            311 241 
 MON  HZ EP        3 5 47.91                             113   -1.06 7  316 295 
 MON  HN ES        3 6 23.27                             113   -1.05 7  316 295 
 MON  HZ I         3 6 25.74         1.5 0.12            114            316 295 
 CHI  HZ EP        3 5 52.26                             112    0.94 7  332 193 
 CHI  HN ES        3 6 28.28                             112   -0.22 7  332 193 
 CHI  HZ I         3 6 40.82         1.8 0.50            113            332 193 
 SJC  HZ EP   4    3 5 51.29                             111   -1.29 0  347 318 
 SJC  HN ES   4    3 6 28.37                             111   -2.36 0  347 318 
 SJC  HZ I         3 6 33.23         2.4 0.46            112            347 318 
 DBB  SZ EP   4    3 5 49.11                             111   -4.02 0  352 260 
 DBB  SZ ES   4    3 6 29.16                             111   -2.56 0  352 260 
 CBOC HZ EP        3 5 56.39                             110    0.44 6  376 240 
 CBOC HN ES        3 6 37.14                             110    0.41 6  376 240 
 CBOC HZ I         3 6 52.97         1.8 0.34            110            376 240 
                                                                                
