 2016 1022 0401  6.0 L   6.787 -73.106148.0  RSN  9 0.5 1.5LRSN                1
 GAP=142        1.02       4.8     5.1  6.8 -0.7057E+01  0.7927E+01  0.3234E+01E
 Epicentro: LOS SANTOS - SANTANDER                                             3
 ACTION:UPD 16-11-09 19:21 OP:rebc STATUS:               ID:20161022040106 L   I
 OLDACT:UP  16-10-22 20:15 OP:and  STATUS:               ID:20161022035747d    3
 OLDACT:UP  16-10-22 17:17 OP:and  STATUS:               ID:20161022035747d    3
 OLDACT:UP  16-10-22 17:15 OP:and  STATUS:               ID:20161022035747d    3
 OLDACT:DUP 16-10-22 17:13 OP:and  STATUS:               ID:20161022035747d    3
 OLDACT:UP  16-10-22 17:09 OP:and  STATUS:               ID:20161022035746     3
 OLDACT:REG 16-10-22 13:07 OP:and  STATUS:               ID:20161022035746     3
 2016-10-22-0358-00M.COL___355                                                 6
 STAT SP IPHASW D HRMM SECON CODA AMPLIT PERI AZIMU VELO AIN AR TRES W  DIS CAZ7
 BAR2 EZ EP        4 1 25.79                             171   -0.1310 23.2 201 
 BAR2 EZ ES        4 1 41.01                             171   -0.4310 23.2 201 
 BAR2 EZ I         4 1 42.44        11.1 0.18            168           23.2 201 
 PAM  EZ IP     D  4 1 28.65                             152    0.2610 75.8  36 
 PAM  EN ES        4 1 45.52                             152   -0.3110 75.8  36 
 PAM  EZ I         4 1 47.85         6.5 0.58            155           75.8  36 
 BRR  HZ EP        4 1 27.60                             151   -0.0810 75.8 298 
 BRR  HE ES        4 1 44.82                             151    0.2510 75.8 298 
 RUS  HZ EP   2    4 1 30.25                             145    0.37 5 98.9 179 
 RUS  HE ES        4 1 48.75                             145    0.2610 98.9 179 
 RUS  HZ I         4 1 49.51         1.8 0.30            145           98.9 179 
 PTB  HZ EP        4 1 34.07                             132    0.52 9  152 260 
 PTB  HE ES        4 1 54.40                             132   -0.61 9  152 260 
 PTB  HZ I         4 2  0.62         2.2 0.16            131            152 260 
 SPBC HZ EP        4 1 34.98                             129    0.12 9  165 221 
 SPBC HN ES        4 1 58.02                             129    0.67 9  165 221 
 SPBC HZ I         4 2  0.05         4.2 0.09            129            165 221 
 CHI  HZ EP   2    4 1 41.67                             118   -2.16 4  248 196 
 CHI  HN ES   2    4 2 12.53                             118   -0.79 4  248 196 
 CHI  HZ I         4 2 16.76         1.8 0.50            118            248 196 
 HEL  HZ EP   2    4 1 47.30                             115    0.51 4  276 256 
 HEL  HN ES   2    4 2 18.55                             115   -0.04 4  276 256 
 HEL  HZ I         4 2 23.79         2.4 0.30            115            276 256 
 GUY2CHZ EP   4    4 1 51.57                             112    1.51 0  304 235 
 GUY2CHE ES   2    4 2 23.76                             112   -0.64 4  304 235 
                                                                                
