 2017  422 0321 42.3 L   5.868 -73.909104.0  RSN  6 0.4 1.3LRSN                1
 GAP=172        0.78       4.5     3.7  7.8 -0.5466E+01  0.2793E+01 -0.1825E+02E
 Epicentro: LA BELLEZA - SANTANDER                                             3
 ACTION:UPD 17-05-30 21:14 OP:jn   STATUS:               ID:20170422032142 L   I
 OLDACT:REG 17-04-22 11:52 OP:dnl  STATUS:               ID:20170422031438     3
 2017-04-22-0318-00M.COL___368                                                 6
 STAT SP IPHASW D HRMM SECON CODA AMPLIT PERI AZIMU VELO AIN AR TRES W  DIS CAZ7
 SPBC HZ EP   2    321 56.78                             163   -0.19 5 29.9 217 
 SPBC HE ES        322  8.53                             163    0.1510 29.9 217 
 SPBC HZ I         322  9.20        10.8 0.12            149           29.9 217 
 PTB  HZ EP   2    322  0.48                             134   -0.72 5 95.8 321 
 PTB  HN ES        322 16.09                             134    0.1910 95.8 321 
 PTB  HZ I         322 18.25         1.2 0.58            119           95.8 321 
 NOR  HZ EP   2    322  2.39                             129   -0.30 5  112 252 
 NOR  HE ES        322 18.44                             129   -0.1210  112 252 
 NOR  HZ I         322 20.50         2.0 0.18            113            112 252 
 BAR2 EZ EP   2    322  3.27                             128    0.15 5  113  45 
 BAR2 EZ ES        322 18.96                             128   -0.3710  113  45 
 BAR2 EZ I         322 20.50         9.7 0.40            110            113  45 
 BRR  HZ EP        322  5.98                             122    0.66 9  139   9 
 BRR  HZ I         322 28.32         5.1 0.44            107            139   9 
 ZAR  HN ES        322 36.50                             111   -0.26 8  208 330 
 ZAR  HZ I         322 36.89         2.0 0.22            100            208 330 
                                                                                
