 2013  722 0109  9.0 L   6.786 -73.169144.6  RSN  6 0.4 1.5LRSN                1
 GAP=134        0.90       5.2     5.3  8.2 -0.3830E+01  0.7974E+01  0.7098E+01E
 Epicentro: LOS SANTOS - SANTANDER                                             3
 ACTION:UPD 13-08-12 10:39 OP:ep   STATUS:               ID:20130722010909 L   I
 OLDACT:UP  13-07-22 11:31 OP:cam  STATUS:               ID:20130722010850     3
 OLDACT:REG 13-07-22 11:27 OP:cam  STATUS:               ID:20130722010850     3
 2013-07-22-0108-50M.COL___228                                                 6
 STAT SP IPHASW D HRMM SECON CODA AMPLIT PERI AZIMU VELO AIN AR TRES W  DIS CAZ7
 GIR2 SZ EP        1 9 28.46                             167   -0.0610 32.5 355 
 GIR2 SZ ES   2    1 9 43.88                             167    0.10 5 32.5 355 
 BRR  HZ EP     C  1 9 30.25                             153    0.3610 69.7 301 
 BRR  HZ I         1 9 30.52        11.0 0.24            152           69.7 301 
 BRR  HN ES   1    1 9 47.14                             153    0.91 7 69.7 301 
 PAM  SZ EP        1 9 31.40                             150    0.1810 80.2  40 
 PAM  SN ES        1 9 48.20                             150   -0.3810 80.2  40 
 PAM  SZ I         1 9 48.66         5.8 0.40            151           80.2  40 
 RUS  HZ EP        1 9 32.48                             144   -0.0110 99.2 175 
 RUS  HE ES   1    1 9 50.76                             144   -0.09 7 99.2 175 
 RUS  HZ I         1 9 51.34         2.2 0.24            144           99.2 175 
 PTB  HZ EP        1 9 35.49                             132   -0.08 9  145 259 
 PTB  HN ES   1    1 9 55.60                             132   -0.73 7  145 259 
 PTB  HZ I         1 9 58.25         5.6 0.20            132            145 259 
 SML  HN ES   2    110 13.17                             117   -0.93 4  244 336 
                                                                                
