 2016  322 0944 43.1 L   6.826 -73.163148.9  RSN  8 0.4 1.5LRSN                1
 GAP=133        0.90       3.5     3.9  5.7 -0.1480E+01  0.7930E+01  0.1768E+01E
 Epicentro: LOS SANTOS - SANTANDER                                             3
 ACTION:UPD 16-05-13 21:26 OP:cam  STATUS:               ID:20160322094443 L   I
 OLDACT:REG 16-03-22 13:14 OP:ak   STATUS:               ID:20160322093749     3
 2016-03-22-0937-49M.COL___294                                                 6
 STAT SP IPHASW D HRMM SECON CODA AMPLIT PERI AZIMU VELO AIN AR TRES W  DIS CAZ7
 BAR2 EZ EP        945  2.70                             170   -0.4410 26.0 185 
 BAR2 EZ ES        945 19.16                             170    0.3710 26.0 185 
 BAR2 EZ I         945 19.71         5.3 0.24            167           26.0 185 
 PAM  EZ EP        945  5.93                             152    0.3610 76.4  42 
 PAM  EN ES        945 22.94                             152   -0.1810 76.4  42 
 PAM  EZ I         945 25.27         4.7 0.23            152           76.4  42 
 RUS  HZ EP        945  6.71                             144   -0.6510  104 175 
 RUS  HZ I         945 26.62         1.3 0.20            141            104 175 
 RUS  HN ES        945 26.65                             144    0.3510  104 175 
 PTB  HZ EP        945  9.88                             133   -0.31 9  146 258 
 PTB  HN ES        945 31.01                             133   -0.32 9  146 258 
 PTB  HZ I         945 38.56         4.0 0.38            131            146 258 
 SPBC HZ EP        945 12.04                             130    0.12 9  164 218 
 SPBC HN ES        945 34.21                             130   -0.21 9  164 218 
 SPBC HZ I         945 41.57         6.2 0.10            127            164 218 
 ZAR  HZ EP        945 15.48                             123    0.05 9  201 292 
 ZAR  HN ES        945 40.96                             123    0.29 9  201 292 
 ZAR  HZ I         945 47.57         4.2 0.38            122            201 292 
 CHI  HZ EP        945 21.39                             118    0.19 8  251 195 
 CHI  HN ES        945 50.96                             118    0.02 8  251 195 
 CHI  HZ I         945 56.16         1.6 0.38            116            251 195 
 GUY2CHZ EP        945 27.74                             113    0.90 7  301 234 
 GUY2CHN ES        946  0.96                             113   -0.02 7  301 234 
 GUY2CHZ I         946  9.97         2.4 0.74                           301 234 
                                                                                
