 2016  222 0014 36.2 L   7.338 -73.196130.4  RSN  6 0.2 1.4LRSN                1
 GAP=174        0.46       4.8     2.1  3.8 -0.2741E+01  0.2873E+01 -0.1285E+01E
 Epicentro: RIONEGRO - SANTANDER                                               3
 ACTION:UPD 16-03-04 21:28 OP:rebc STATUS:               ID:20160222001436 L   I
 OLDACT:UP  16-02-22 13:26 OP:mh   STATUS:               ID:20160222000749     3
 OLDACT:REG 16-02-22 12:27 OP:mh   STATUS:               ID:20160222000749     3
 2016-02-22-0007-49M.COL___330                                                 6
 STAT SP IPHASW D HRMM SECON CODA AMPLIT PERI AZIMU VELO AIN AR TRES W  DIS CAZ7
 PAM  EZ EP        014 55.38                             156   -0.1010 54.8  90 
 PAM  EN ES        015 10.68                             156    0.1410 54.8  90 
 PAM  EZ I         015 11.28         3.5 0.14            139           54.8  90 
 BRR  HZ EP        014 55.16                             153   -0.0110 62.4 246 
 BRR  HN ES        015  9.74                             153   -0.2410 62.4 246 
 BRR  HZ I         015 12.22         5.7 0.16            137           62.4 246 
 BAR2 EZ EP   1    014 56.95                             146    0.19 7 82.5 179 
 BAR2 EZ I         015 14.03         5.0 0.10            124           82.5 179 
 PTB  HZ EP        015  3.39                             125   -0.23 9  165 238 
 PTB  HE ES        015 25.21                             125    0.19 9  165 238 
 PTB  HZ I         015 29.41         2.4 0.39            113            165 238 
 ZAR  HZ EP        015  5.62                             122    0.04 9  184 275 
 ZAR  HN ES        015 28.66                             122    0.14 9  184 275 
 ZAR  HZ I         015 31.55         3.7 0.28            115            184 275 
 RAC02EE E         014 33.68                                            573 220 
                                                                                
