 2016  422 0733 44.0 L   6.759 -73.193132.7  RSN  5 0.3 1.1LRSN                1
 GAP=132        0.62       4.1     3.1  6.5  0.1206E+01  0.3950E+01 -0.1173E+02E
 Epicentro: VILLANUEVA - SANTANDER                                             3
 ACTION:UPD 16-05-05 14:23 OP:rebc STATUS:               ID:20160422073344 L   I
 OLDACT:DUP 16-04-22 15:15 OP:dnl  STATUS:               ID:20160422072747d    3
 OLDACT:ARG 16-04-22 12:58 OP:cara STATUS:               ID:20160422072746     3
 2016-04-22-0727-46M.COL___312                                                 6
 STAT SP IPHASW D HRMM SECON CODA AMPLIT PERI AZIMU VELO AIN AR TRES W  DIS CAZ7
 BAR2 EZ EP        734  2.31                             172    0.3010 18.5 176 
 BAR2 EZ ES        734 16.10                             172    0.0810 18.5 176 
 BAR2 EZ I         734 18.61         3.7 0.26            173           18.5 176 
 PAM  EZ EP        734  5.18                             146   -0.1610 84.2  40 
 PAM  EN ES   2    734 21.54                             146   -0.41 5 84.2  40 
 PAM  EZ I         734 23.21         1.4 0.22            149           84.2  40 
 RUS  HZ EP   2    734  6.15                             142   -0.08 5 96.6 173 
 RUS  HE ES        734 23.59                             142    0.0510 96.6 173 
 RUS  HZ I         734 26.40         2.2 0.12            146           96.6 173 
 PTB  HZ EP   2    734  9.23                             130   -0.18 5  142 260 
 PTB  HN ES        734 28.76                             130   -0.44 9  142 260 
 PTB  HZ I         734 32.43         1.5 0.14            131            142 260 
 ZAR  HZ EP   2    734 15.20                             120   -0.15 4  201 294 
 ZAR  HE ES        734 40.19                             120    0.43 9  201 294 
 ZAR  HZ I         734 46.51         1.7 0.20            121            201 294 
                                                                                
