 2017 1222 0904 56.1 L   5.891 -74.132  0.0  RSN  5 0.5 1.1LRSN                1
 GAP=112        1.12       2.4     3.0  7.2 -0.7177E+00  0.1813E+01  0.1848E-01E
 Epicentro: LA BELLEZA - SANTANDER                                             3
 ACTION:UPD 18-01-04 13:23 OP:rebc STATUS:               ID:20171222090456 L   I
 OLDACT:UP  17-12-22 17:33 OP:edw  STATUS:               ID:20171222085747d    3
 OLDACT:UP  17-12-22 17:32 OP:edw  STATUS:               ID:20171222085747d    3
 OLDACT:DUP 17-12-22 17:27 OP:edw  STATUS:               ID:20171222085747d    3
 OLDACT:UP  17-12-22 17:26 OP:edw  STATUS:               ID:20171222085746     3
 OLDACT:UP  17-12-22 17:26 OP:edw  STATUS:               ID:20171222085746     3
 OLDACT:REG 17-12-22 13:23 OP:dani STATUS:               ID:20171222085746     3
 2017-12-22-0858-00M.COL___445                                                 6
 STAT SP IPHASW D HRMM SECON CODA AMPLIT PERI AZIMU VELO AIN AR TRES W  DIS CAZ7
 SPBC HZ EP        9 5  1.22                              47   -0.2310 27.2 166 
 SPBC HN ES        9 5  5.28                              47   -0.3710 27.2 166 
 PTB  HZ EP        9 5  9.29                              47   -0.1310 80.2 333 
 PTB  HE ES        9 5 19.31                              47   -0.5110 80.2 333 
 PTB  HZ I         9 5 19.47         4.5 0.24             47           80.2 333 
 BAR2 EZ EP        9 5 16.93                              47   -0.3510  131  54 
 BAR2 EZ ES        9 5 34.48                              47    0.6610  131  54 
 BAR2 EZ I         9 5 39.77         3.3 0.38             47            131  54 
 GUY2CHZ EP   4    9 5 23.22                              47    1.97 0  155 242 
 GUY2CHN ES        9 5 41.65                              47    0.76 9  155 242 
 GUY2CHZ I         9 5 43.36         2.3 0.24                           155 242 
 ZAR  HN ES   4    9 5 47.37                              37   -2.54 0  194 336 
 PAM  EZ EP        9 5 31.16                              37    0.41 8  225  45 
 PAM  EE ES   1    9 5 57.89                              37    0.09 6  225  45 
 PAM  EZ I         9 6  0.49         2.8 0.40             37            225  45 
                                                                                
