 2017  622 0504  5.6 L   6.344 -73.595109.7  RSN 13 0.5 1.8LRSN                1
 GAP=137        1.15       3.5     3.6  7.4  0.1984E+01  0.1249E+01  0.5866E+01E
 Epicentro: SANTA HELENA DEL OPON - SANTANDER                                  3
 ACTION:UPD 17-09-14 16:54 OP:jn   STATUS:               ID:20170622050405 L   I
 OLDACT:DUP 17-06-22 15:23 OP:lv   STATUS:               ID:20170622045630d    3
 2017-06-22-0457-00M.COL___347                                                 6
 STAT SP IPHASW D HRMM SECON CODA AMPLIT PERI AZIMU VELO AIN AR TRES W  DIS CAZ7
 BRR  HZ IP     C  5 4 24.07                             139    0.0210 85.4 351 
 BRR  HE ES        5 4 39.07                             139    0.6310 85.4 351 
 BRR  HZ I         5 4 45.50         9.7 0.10            146           85.4 351 
 SPBC HZ EP        5 4 24.28                             136   -0.5210 93.0 215 
 SPBC HN ES        5 4 39.14                             136   -0.6410 93.0 215 
 SPBC HZ I         5 4 45.68        21.8 0.11            140           93.0 215 
 PTB  HZ EP        5 4 24.01                             135   -1.0910 97.7 283 
 PTB  HN ES        5 4 40.60                             135    0.2910 97.7 283 
 PTB  HZ I         5 4 41.36        18.3 0.18            140           97.7 283 
 YPLC HZ IP     D  5 4 32.63                             118    0.26 9  170 128 
 YPLC HN ES        5 4 53.42                             118    0.17 9  170 128 
 YPLC HZ I         5 4 55.83        17.3 0.20            122            170 128 
 ROSC BZ EP   4    5 4 35.64                             116    1.32 0  185 206 
 ROSC BN ES   4    5 5  0.78                             116    4.05 0  185 206 
 ROSC BZ I         5 5  3.79         6.9 0.27            120            185 206 
 ZAR  HZ EP        5 4 33.94                             115   -0.33 9  189 312 
 ZAR  HE ES        5 4 56.73                             115    0.09 9  189 312 
 ZAR  HZ I         5 4 59.20        14.1 0.09            120            189 312 
 HEL  HZ EP        5 4 37.98                             112    0.35 8  215 266 
 HEL  HN ES        5 5  2.98                             112    0.36 8  215 266 
 HEL  HZ I         5 5  5.29         6.8 0.26            116            215 266 
 GUY2CHZ EP        5 4 39.89                             110    0.17 8  232 238 
 GUY2CHN ES        5 5  6.31                             110   -0.04 8  232 238 
 GUY2CHZ I         5 5 12.68         5.7 0.62                           232 238 
 URE  HZ EP   9    5 4 41.51                             107   -1.43 0  265 306 
 URE  HN ES        5 5 10.54                                   -0.10 8  265 306 
 URE  HZ I         5 5 12.14         8.0 0.17            111            265 306 
 CBOC HZ EP        5 4 44.39                             106    0.31 8  273 259 
 CBOC HN ES   4    5 5 12.21                             106   -1.90 0  273 259 
 CBOC HZ I         5 5 17.87         1.7 0.19            110            273 259 
 PTGC HZ EP   4    5 4 43.43                             105   -2.13 0  287 146 
 PTGC HN ES   4    5 5 14.54                             105   -2.20 0  287 146 
 PTGC HZ I         5 5 23.19         5.2 0.12            109            287 146 
 ORTC HZ EP        5 4 50.77                             102    0.61 7  326 214 
 ORTC HN ES        5 5 25.63                             102    0.71 7  326 214 
 ORTC HZ I         5 5 31.13         1.2 0.21            106            326 214 
 SJC  HZ EP        5 5  1.90                              98   -0.81 5  430 336 
 SJC  HN ES   4    5 5 44.41                              98   -2.86 0  430 336 
 SJC  HZ I         5 5 48.97         1.6 0.35            102            430 336 
                                                                                
