 2014  822 0114 48.2 L   6.772 -73.172145.1  RSN  9 0.5 1.8LRSN                1
 GAP=135        1.03       4.6     5.2  7.8 -0.3251E+01  0.3198E+01  0.1426E+02E
 Epicentro: LOS SANTOS - SANTANDER                                             3
 ACTION:UPD 14-09-15 21:52 OP:nd   STATUS:               ID:20140822011448 L   I
 OLDACT:UP  14-08-22 14:41 OP:mh   STATUS:               ID:20140822010821d    3
 OLDACT:DUP 14-08-22 14:41 OP:mh   STATUS:               ID:20140822010821d    3
 2014-08-22-0108-20M.COL___262                                                 6
 STAT SP IPHASW D HRMM SECON CODA AMPLIT PERI AZIMU VELO AIN AR TRES W  DIS CAZ7
 BRR  HZ EP        115  9.36                             152    0.1310 70.3 302 
 BRR  HN ES        115 26.09                             152    0.4710 70.3 302 
 BRR  HZ I         115 29.79        15.0 0.38            150           70.3 302 
 PAM  SZ EP        115 11.13                             149    0.5210 81.7  40 
 PAM  SN ES        115 27.72                             149   -0.3610 81.7  40 
 PAM  SZ I         115 29.86        10.1 0.27            155           81.7  40 
 RUS  HZ EP        115 11.64                             144   -0.0410 97.7 174 
 RUS  HN ES        115 29.60                             144   -0.3910 97.7 174 
 PTB  HZ EP        115 14.60                             132   -0.20 9  144 260 
 PTB  HN ES        115 35.06                             132   -0.49 9  144 260 
 PTB  HZ I         115 41.20         6.4 0.22            131            144 260 
 SPBC HZ EP   4    115 16.19                             129   -0.05 0  159 219 
 SPBC HN ES   4    115 37.41                             129   -0.71 0  159 219 
 SPBC HZ I         115 41.68         5.2 0.05            129            159 219 
 ZAR  HZ EP   4    115 21.23                             122    0.78 0  203 293 
 ZAR  HN ES   4    115 45.75                             122    0.14 0  203 293 
 ZAR  HZ I         115 51.31                             122            203 293 
 CHI  HZ EP        115 25.35                             117   -0.10 8  245 195 
 CHI  HN ES   1    115 55.77                             117    1.26 6  245 195 
 CHI  HZ I         115 59.58         3.2 0.37            118            245 195 
 GUY2CHZ EP   4    115 32.47                             112    1.16 0  297 235 
 GUY2CHN ES   4    116  8.21                             112    3.28 0  297 235 
 GUY2CHZ I         116 17.14                                            297 235 
 PRA  HZ EP        115 40.72                             106   -0.49 6  388 209 
 PRA  HN ES   1    116 22.90                             106    0.34 4  388 209 
 PRA  HZ I         116 29.37         2.7 0.10            108            388 209 
                                                                                
