 2017  122 0835 33.0 L   6.770 -73.154142.5  RSN  9 0.5 1.6LRSN                1
 GAP=137        0.99       4.2     4.9  7.0  0.4543E+01  0.1312E+02  0.5144E+01E
 Epicentro: LOS SANTOS - SANTANDER                                             3
 ACTION:UPD 17-05-22 16:02 OP:jn   STATUS:               ID:20170122083533 L   I
 OLDACT:UP  17-01-22 17:39 OP:dani STATUS:               ID:20170122082742     3
 OLDACT:UP  17-01-22 17:39 OP:dani STATUS:               ID:20170122082742     3
 OLDACT:REG 17-01-22 13:21 OP:dani STATUS:               ID:20170122082742     3
 2017-01-22-0828-00M.COL___331                                                 6
 STAT SP IPHASW D HRMM SECON CODA AMPLIT PERI AZIMU VELO AIN AR TRES W  DIS CAZ7
 BAR2 EZ EP     C  835 52.14                             172   -0.0210 19.9 189 
 BAR2 EZ ES        836  6.73                             172   -0.3910 19.9 189 
 BAR2 EZ I         836  7.72        12.7 0.30            167           19.9 189 
 BRR  HZ EP        835 54.03                             152    0.2010 72.0 301 
 BRR  HE ES        836 10.80                             152    0.7110 72.0 301 
 BRR  HZ I         836 15.26         7.8 0.13            147           72.0 301 
 PAM  EE ES        836 11.97                             149   -0.2910 80.5  39 
 RUS  HZ EP        835 56.61                             144    0.4210 97.4 175 
 RUS  HN ES        836 14.39                             144    0.1110 97.4 175 
 RUS  HZ I         836 15.46         5.4 0.22            144           97.4 175 
 PTB  HZ EP        835 58.87                             131   -0.68 9  146 260 
 PTB  HN ES        836 19.69                             131   -0.58 9  146 260 
 PTB  HZ I         836 22.46         5.0 0.20            128            146 260 
 ZAR  HZ EP        836  5.34                             121    0.08 9  204 293 
 ZAR  HE ES        836 30.74                             121    0.30 9  204 293 
 ZAR  HZ I         836 38.56         3.8 0.32            120            204 293 
 CHI  HZ EP   3    836 11.52                             117    1.39 2  245 195 
 CHI  HE ES        836 39.23                             117    0.12 8  245 195 
 CHI  HZ I         836 46.59         1.3 0.31            116            245 195 
 URE  HZ EP   4    836 16.75                             113    2.81 0  284 293 
 URE  HN ES   4    836 42.04                             113   -3.85 0  284 293 
 URE  HZ I         836 55.60         2.4 0.20            112            284 293 
 SJC  HZ EP   3    836 27.13                             105   -1.58 1  411 327 
                                                                                
