 2014 1022 0154 38.1 L   6.758 -73.171136.5  RSN  8 0.4 1.4LRSN                1
 GAP=135        0.91       3.7     4.0  6.1  0.6408E+00  0.8357E+01 -0.1441E+01E
 Epicentro: LOS SANTOS - SANTANDER                                             3
 ACTION:UPD 14-11-29 23:54 OP:nd   STATUS:               ID:20141022015438 L   I
 OLDACT:DUP 14-10-24 05:21 OP:fm   STATUS:               ID:20141022014745d    3
 2014-10-22-0147-43M.COL___280                                                 6
 STAT SP IPHASW D HRMM SECON CODA AMPLIT PERI AZIMU VELO AIN AR TRES W  DIS CAZ7
 BAR2 SZ ES   1    155 11.00                             172    0.10 7 18.4 184 
 BAR2 SZ I         155 15.70         6.6 0.30            170           18.4 184 
 BRR  HZ EP        154 58.60                             151    0.3310 71.2 303 
 BRR  HN ES        155 14.58                             151    0.5910 71.2 303 
 BRR  HZ I         155 18.35         4.2 0.14            151           71.2 303 
 PAM  SZ EP        154 59.36                             147   -0.3310 82.7  39 
 PAM  SN ES        155 16.37                             147   -0.1610 82.7  39 
 PAM  SZ I         155 17.73         3.5 0.36            155           82.7  39 
 RUS  HZ EP   1    155  0.83                             143    0.20 7 96.2 174 
 RUS  HN ES        155 18.17                             143   -0.0410 96.2 174 
 RUS  HZ I         155 22.19         2.1 0.42            147           96.2 174 
 PTB  HZ EP        155  3.68                             131   -0.33 9  144 260 
 PTB  HN ES        155 23.50                             131   -0.71 9  144 260 
 PTB  HZ I         155 30.35         4.5 0.46            133            144 260 
 ZAR  HZ EP        155 10.35                             120    0.46 9  203 294 
 ZAR  HN ES        155 34.66                             120   -0.02 9  203 294 
 ZAR  HZ I         155 41.27         4.4 0.24            124            203 294 
 SML  HZ EP   4    155 12.22                             115   -2.36 0  247 336 
 SML  HN ES        155 42.76                             115   -0.26 8  247 336 
 GUY2CHZ EP        155 21.12                             111    0.38 7  296 235 
 GUY2CHN ES   4    155 58.40                             111    4.40 0  296 235 
 GUY2CHZ I         156  5.46         1.4 0.52                           296 235 
                                                                                
