 2017  422 0254 29.6 L   6.017 -73.747109.2  RSN  5 0.3 1.6LRSN                1
 GAP=262        0.73       6.5     3.1  7.9 -0.1781E+01  0.7623E+00  0.9653E+01E
 Epicentro: BOLIVAR - SANTANDER                                                3
 ACTION:UPD 17-05-30 21:14 OP:jn   STATUS:               ID:20170422025429 L   I
 OLDACT:DUP 17-04-22 12:46 OP:dnl  STATUS:               ID:20170422024743d    3
 OLDACT:REG 17-04-22 11:51 OP:dnl  STATUS:               ID:20170422024742     3
 2017-04-22-0248-00M.COL___362                                                 6
 STAT SP IPHASW D HRMM SECON CODA AMPLIT PERI AZIMU VELO AIN AR TRES W  DIS CAZ7
 BAR2 EZ EP        254 49.02                             138    0.3810 89.2  44 
 BAR2 EZ ES        255  3.41                             138   -0.0810 89.2  44 
 BAR2 EZ I         255  4.51        26.4 0.12            133           89.2  44 
 PTB  HZ EP        254 48.76                             135   -0.2710 97.5 306 
 PTB  HN ES        255  4.09                             135   -0.1110 97.5 306 
 PTB  HZ I         255  6.80         3.2 0.38            130           97.5 306 
 BRR  HZ EP        254 51.16                             128    0.0410  121   2 
 BRR  HN ES        255  8.35                             128    0.4310  121   2 
 BRR  HZ I         255 11.06         5.7 0.10            123            121   2 
 PAM  EZ EP   2    254 59.06                             116    0.45 4  187  38 
 PAM  EN ES        255 20.68                             116   -0.58 9  187  38 
 PAM  EZ I         255 25.58         2.7 0.20            113            187  38 
 ZAR  HZ EP   2    255  0.02                             113    0.05 4  204 323 
 ZAR  HE ES        255 23.65                             113   -0.02 9  204 323 
 ZAR  HZ I         255 28.95         5.2 0.60            110            204 323 
                                                                                
