 2014  622 0500 56.1 L   6.808 -73.115145.8  RSN 11 0.5 1.7LRSN                1
 GAP=186        1.19       3.4     5.6  7.0 -0.5625E+00  0.8186E+01  0.1202E+01E
 Epicentro: LOS SANTOS - SANTANDER                                             3
 ACTION:UPD 14-07-01 22:55 OP:nd   STATUS:               ID:20140622050056 L   I
 OLDACT:REG 14-06-22 14:18 OP:carl STATUS:               ID:20140622045812     3
 2014-06-22-0458-12M.COL___259                                                 6
 STAT SP IPHASW D HRMM SECON CODA AMPLIT PERI AZIMU VELO AIN AR TRES W  DIS CAZ7
 BAR2 SZ EP        5 1 15.79                             170    0.0710 25.0 197 
 BAR2 SZ ES        5 1 30.49                             170   -0.5710 25.0 197 
 BAR2 SZ I         5 1 32.11        12.0 0.14            169           25.0 197 
 BRR  HZ EP        5 1 17.63                             152    0.2810 73.8 297 
 BRR  HN ES        5 1 34.72                             152    0.7510 73.8 297 
 BRR  HZ I         5 1 38.56         6.4 0.52            152           73.8 297 
 RUS  HZ EP        5 1 19.95                             144    0.0910  101 178 
 RUS  HN ES        5 1 38.63                             144    0.2010  101 178 
 RUS  HZ I         5 1 39.34         5.6 0.24            144            101 178 
 PTB  HZ EP   4    5 1 22.39                             131   -0.96 0  151 259 
 PTB  HE ES        5 1 44.36                             131   -0.27 9  151 259 
 PTB  HZ I         5 1 45.63         7.7 0.14            132            151 259 
 OCA  HN ES        5 1 46.85                             130    0.48 9  160 352 
 SPBC HZ EP        5 1 24.73                             128   -0.10 9  166 220 
 SPBC HN ES        5 1 46.52                             128   -0.75 9  166 220 
 SPBC HZ I         5 1 49.51         8.2 0.16            129            166 220 
 ZAR  HN ES        5 1 54.23                             122   -0.10 8  207 292 
 NOR  HN ES        5 2  0.55                             118    0.26 8  238 235 
 NOR  HZ I         5 2  1.61         4.6 0.16            119            238 235 
 SML  HZ EP        5 1 32.22                             117   -0.53 8  244 334 
 SML  HN ES        5 2  0.41                             117   -0.96 8  244 334 
 GUY2CHZ EP        5 1 41.09                             112    1.05 7  305 235 
 GUY2CHE ES        5 2 14.91                             112    0.56 7  305 235 
 GUY2CHZ I         5 2 19.72         2.6 0.64                           305 235 
 PRA  HZ EP        5 1 49.69                             106   -0.18 6  394 210 
 PRA  HE ES        5 2 31.23                             106   -0.61 6  394 210 
 PRA  HZ I         5 2 40.10         1.9 0.36            107            394 210 
                                                                                
