 2010  322 0453 24.6 L   6.799 -73.000148.0  RSN  8 0.3 2.2LRSN                1
 GAP=198        0.62       2.9     6.8  5.1  0.2568E+01  0.2970E+01  0.1505E+01E
 Epicentro: CEPITA - SANTANDER                                                 3
 ACTION:UP  10-08-24 09:55 OP:vdl  STATUS:               ID:20100322045324 L   I
 2010-03-22-0449-37S.COL___098                                                 6
 STAT SP IPHASW D HRMM SECON CODA AMPLIT PERI AZIMU VELO SNR AR TRES W  DIS CAZ7
 BAR2 SZ EP        453 44.82                             168     0.110   31 222 
 BAR2 SZ ES   1    453 59.95                             168    -0.4 7   31 222 
 BRR  HZ IP        453 46.74                             148    -0.110   86 293 
 BRR  HE ES   1    454  4.15                             148    -0.1 7   86 293 
 BRR  HZ I         454  5.85        22.4 0.14                            86 293 
 RUS  HZ EP        453 48.77                             144     0.210  101 185 
 RUS  HN ES   1    454  7.68                             144     0.4 7  101 185 
 RUS  HZ I         454  8.62        20.2 0.32                           101 185 
 OCA  SZ EP   1    453 53.33                             130     0.0 7  163 348 
 OCA  SZ ES   1    454 15.82                             130     0.0 7  163 348 
 CHI  HZ EP   1    454  2.82                             117    -0.1 6  253 199 
 CHI  HE ES   2    454 32.10                             117    -0.7 4  253 199 
 CHI  HZ I         454 38.06         6.1 0.44                           253 199 
 HEL  HZ EP   1    454  6.86                             114     0.2 5  288 257 
 HEL  HZ I         454 42.79         8.0 0.31                           288 257 
 RREF BN ES   2    454 50.34                             110     0.9 3  334 231 
 RREF BZ I         454 55.98         9.1 0.24                           334 231 
 PRA  HZ EP   2    454 18.55                             106    -0.6 3  400 212 
 PRA  HN ES   2    455  1.35                             106    -0.4 3  400 212 
 PRA  HZ I         455  6.54         8.4 0.40                           400 212 
                                                                                
