 2014  222 0637 48.6 L   6.813 -73.151140.4  RSN  6 0.5 1.4LRSN                1
 GAP=135        1.28       5.5     6.0 10.0  0.5250E+00  0.1970E+02 -0.1950E+02E
 Epicentro: LOS SANTOS - SANTANDER                                             3
 ACTION:UPD 14-03-10 08:12 OP:ep   STATUS:               ID:20140222063748 L   I
 OLDACT:REG 14-02-22 10:07 OP:fm   STATUS:               ID:20140222062942     3
 2014-02-22-0629-42M.COL___229                                                 6
 STAT SP IPHASW D HRMM SECON CODA AMPLIT PERI AZIMU VELO AIN AR TRES W  DIS CAZ7
 BAR2 SZ ES        638 23.15                             170    0.6610 24.7 188 
 PAM  SZ EP        638 10.68                             150    0.4310 76.6  41 
 PAM  SE ES        638 26.67                             150   -0.4310 76.6  41 
 PAM  SZ I         638 29.82         3.6 0.68            151           76.6  41 
 RUS  HZ EP        638 11.85                             142   -0.1410  102 176 
 RUS  HE ES        638 30.01                             142   -0.1810  102 176 
 PTB  HN ES        638 34.95                             131   -0.88 9  147 258 
 PTB  HN I         638 37.83         4.6 0.22            132            147 258 
 ZAR  HZ EP        638 21.13                             121    0.50 9  203 292 
 ZAR  HN ES        638 46.33                             121    0.75 9  203 292 
 ZAR  HZ I         638 48.92         1.8 0.24            123            203 292 
 SML  HZ EP        638 24.37                             116   -0.43 8  242 335 
 SML  HN ES        638 52.67                             116   -0.33 8  242 335 
                                                                                
