 2014 1122 0611 18.4 L   6.834 -73.140150.4  RSN 18 0.5 2.0LRSN                1
 GAP=118        1.12       2.9     4.0  5.5 -0.2056E+01  0.6214E+01  0.1454E+01E
 Epicentro: LOS SANTOS - SANTANDER                                             3
 ACTION:UPD 14-12-19 15:45 OP:nd   STATUS:               ID:20141122061118 L   I
 OLDACT:REG 14-11-22 13:47 OP:fm   STATUS:               ID:20141122060737     3
 2014-11-22-0607-37M.COL___306                                                 6
 STAT SP IPHASW D HRMM SECON CODA AMPLIT PERI AZIMU VELO AIN AR TRES W  DIS CAZ7
 BAR2 SZ EP        611 39.02                             169    0.3910 27.1 190 
 BAR2 SZ ES        611 54.54                             169    0.1010 27.1 190 
 BAR2 SZ I         611 55.12        12.1 0.38            167           27.1 190 
 BRR  HZ EP     C  611 40.60                             154    0.6510 70.1 296 
 BRR  HN ES        611 57.30                             154    0.5110 70.1 296 
 BRR  HZ I         612  0.67        19.7 0.36            150           70.1 296 
 PAM  SZ EP     C  611 41.72                             152    0.8310 74.1  41 
 PAM  SN ES        611 58.37                             152   -0.0910 74.1  41 
 PAM  SZ I         612  0.57        23.9 0.50            157           74.1  41 
 RUS  HZ EP        611 43.34                             144    0.5110  104 177 
 RUS  HE ES        612  1.32                             144   -0.6010  104 177 
 RUS  HZ I         612  3.00         8.3 0.26            144            104 177 
 PTB  HZ EP        611 45.45                             133   -0.38 9  149 257 
 PTB  HE ES        612  6.75                             133   -0.52 9  149 257 
 PTB  HZ I         612 11.54         9.5 0.16            131            149 257 
 OCA  HZ EP        611 45.65                             131   -1.05 9  157 353 
 OCA  HE ES        612  8.53                             131   -0.28 9  157 353 
 OCA  HZ I         612 12.90         9.8 0.14            132            157 353 
 SPBC HZ EP        611 47.56                             129    0.03 9  166 218 
 SPBC HE ES        612  9.75                             129   -0.53 9  166 218 
 SPBC HZ I         612 17.39        12.1 0.24            129            166 218 
 ZAR  HZ EP        611 50.90                             123   -0.13 9  203 291 
 ZAR  HN ES        612 16.48                             123   -0.04 9  203 291 
 ZAR  HZ I         612 23.75         9.4 0.24            123            203 291 
 NOR  HZ EP        611 54.59                             119   -0.06 8  237 234 
 NOR  HE ES        612 22.70                             119   -0.25 8  237 234 
 NOR  HZ I         612 30.92         5.5 0.12            119            237 234 
 CHI  HZ EP        611 56.49                             118   -0.23 8  252 195 
 CHI  HN ES        612 26.47                             118   -0.18 8  252 195 
 CHI  HZ I         612 34.44         5.1 0.38            118            252 195 
 ROSC BE ES        612 27.41                             117    0.06 8  256 211 
 ROSC BZ I         612 32.35         9.4 0.45            117            256 211 
 HEL  HZ EP        611 59.02                             115    0.04 8  274 255 
 HEL  HE ES        612 30.81                             115    0.14 8  274 255 
 HEL  HZ I         612 37.55         2.9 0.50            115            274 255 
 URE  HZ EP        612  0.28                             114    0.71 7  283 291 
 URE  HE ES   4    612 29.33                             114   -2.39 0  283 291 
 URE  HZ I         612 42.86         7.1 0.20            114            283 291 
 PTGC HZ EP   1    612  2.17                             112   -0.62 5  312 159 
 PTGC HN ES   4    612 35.93                             112   -1.52 0  312 159 
 PTGC HZ I         612 41.27        10.3 0.38            114            312 159 
 TOL  SN ES        612 45.60                             110    0.38 6  347 224 
 TOL  SZ I         612 49.90         7.7 0.36            110            347 224 
 MON  HZ EP        612  6.83                             109   -0.51 6  352 308 
 MON  HN ES   4    612 43.60                             109   -1.94 0  352 308 
 MON  HZ I         612 52.29         2.1 0.44            110            352 308 
 ORTC HZ EP   4    612  7.88                             107   -4.95 0  399 216 
 ORTC HN ES        612 56.17                             107    0.85 6  399 216 
 ORTC HZ I         613  3.23         4.0 0.48            107            399 216 
 SJC  HZ EP   4    612 11.66                             106   -2.09 0  406 327 
 SJC  HN ES   4    612 53.14                             106   -3.82 0  406 327 
 SJC  HZ I         612 58.58         1.7 0.58            107            406 327 
                                                                                
