 2014  522 0652 49.0 L   6.826 -73.154145.4  RSN 14 0.4 1.7LRSN                1
 GAP=134        0.98       2.6     3.8  5.5 -0.1169E+01  0.5541E+01 -0.1330E+00E
 Epicentro: LOS SANTOS - SANTANDER                                             3
 ACTION:UPD 15-03-16 16:59 OP:nd   STATUS:               ID:20140522065249 L   I
 OLDACT:DUP 14-05-22 19:25 OP:mh   STATUS:               ID:20140522064809d    3
 2014-05-22-0648-07M.COL___252                                                 6
 STAT SP IPHASW D HRMM SECON CODA AMPLIT PERI AZIMU VELO AIN AR TRES W  DIS CAZ7
 BAR2 SZ EP        653  8.99                             169    0.3810 26.1 187 
 BAR2 SZ ES   1    653 23.60                             169   -0.33 7 26.1 187 
 BAR2 SZ I         653 24.83        22.2 0.32            169           26.1 187 
 BRR  HZ IP     C  653 10.70                             153    0.7410 69.0 297 
 BRR  HN ES        653 27.02                             153    0.7010 69.0 297 
 BRR  HZ I         653 32.20        10.4 0.32            148           69.0 297 
 PAM  SZ EP        653 11.36                             151    0.3110 75.8  41 
 PAM  SE ES        653 27.72                             151   -0.5510 75.8  41 
 PAM  SZ I         653 30.81         7.4 0.48            154           75.8  41 
 RUS  HZ EP        653 13.07                             143    0.1710  104 176 
 RUS  HE ES        653 31.48                             143   -0.0810  104 176 
 PTB  HZ EP        653 15.49                             132   -0.39 9  147 258 
 PTB  HN ES        653 36.47                             132   -0.39 9  147 258 
 PTB  HZ I         653 40.08         6.0 0.08            131            147 258 
 OCA  HZ EP   1    653 16.72                             130   -0.25 7  157 353 
 OCA  HN ES        653 38.40                             130   -0.41 9  157 353 
 OCA  HZ I         653 43.77         6.4 0.40            130            157 353 
 SPBC HZ EP   1    653 17.47                             129   -0.13 7  165 218 
 SPBC HN ES        653 40.14                             129    0.21 9  165 218 
 SPBC HZ I         653 43.86         5.5 0.25            130            165 218 
 ZAR  HZ EP        653 21.97                             122    0.78 9  202 291 
 ZAR  HN ES        653 46.14                             122   -0.18 9  202 291 
 ZAR  HZ I         653 57.08         5.3 0.28            122            202 291 
 SML  HZ EP        653 25.28                             118    0.03 8  241 335 
 SML  HN ES        653 53.19                             118   -0.35 8  241 335 
 SML  HZ I         654  2.92         5.5 0.08            118            241 335 
 CHI  HZ EP   1    653 26.53                             117   -0.40 6  251 195 
 CHI  HN ES        653 56.04                             117   -0.49 8  251 195 
 HEL  HN ES   1    654  0.28                             115   -0.20 6  272 255 
 HEL  HZ I         654  7.21         3.2 0.34            115            272 255 
 GUY2CHN ES   1    654  7.12                             112    0.37 5  302 234 
 GUY2CHZ I         654 13.34         1.8 0.24                           302 234 
 RREF HZ EP   1    653 35.29                             111    0.06 5  323 229 
 RREF HN ES   1    654 10.70                             111   -0.62 5  323 229 
 RREF HZ I         654 19.67         1.7 0.60            112            323 229 
 SJC  HZ EP   1    653 43.36                             106   -0.81 4  406 327 
 SJC  HN ES   4    654 23.40                             106   -3.83 0  406 327 
 SJC  HZ I         654 28.41         1.3 0.54            107            406 327 
                                                                                
