 2011  922 0312 32.5 L   6.781 -73.151143.7  RSN  8 0.4 1.7LRSN                1
 GAP=182        0.79       3.3     6.8  6.0 -0.4923E+00 -0.3542E+00  0.2177E+01E
 Epicentro: LOS SANTOS - SANTANDER                                             3
 ACTION:UPD 12-07-13 15:59 OP:ep   STATUS:               ID:20110922031232 L   I
 2011-09-22-0308-13S.COL___160                                                 6
 STAT SP IPHASW D HRMM SECON CODA AMPLIT PERI AZIMU VELO AIN AR TRES W  DIS CAZ7
 BAR2 SZ EP        312 51.76                             171   -0.1110 21.1 189 
 BAR2 SZ ES   1    313  7.07                             171    0.12 7 21.1 189 
 BAR2 SZ I         313  8.14        13.0 0.30                          21.1 189 
 BRR  HZ EP   1    312 53.33                             152   -0.16 7 71.7 300 
 BRR  HZ I         312 58.51        22.3 0.38                          71.7 300 
 BRR  HE ES        313  9.89                             152    0.0610 71.7 300 
 RUS  HZ EP   1    312 55.57                             144   -0.36 7 98.5 176 
 RUS  HE ES   1    313 14.20                             144    0.02 7 98.5 176 
 RUS  HZ I         313 16.01         5.3 0.15                          98.5 176 
 OCA  SZ EP        313  1.69                             129    0.82 9  162 353 
 OCA  SZ ES   1    313 22.13                             129   -0.85 7  162 353 
 NOR  SN ES   1    313 35.70                             118    0.11 6  233 235 
 CHI  HZ EP   1    313 10.05                             117    0.18 6  246 195 
 CHI  HE ES   1    313 39.05                             117    0.05 6  246 195 
 CHI  HZ I         313 47.49         3.0 0.31                           246 195 
 HEL  HZ EP   2    313 12.12                             114   -0.40 4  271 256 
 PRA  HZ EP   1    313 25.32                             106   -0.41 4  390 210 
                                                                                
