 2011  122 0636 20.0 L   6.764 -73.080141.0  RSN  5 0.3 1.3LRSN                1
 GAP=166        0.61       3.6    16.5  6.6 -0.3251E+02  0.9084E+01 -0.3199E+01E
 Epicentro: LOS SANTOS - SANTANDER                                             3
 ACTION:UP  11-02-08 08:42 OP:pat  STATUS:               ID:20110122063620 L   I
 2011-01-22-0632-13S.COL___138                                                 6
 STAT SP IPHASW D HRMM SECON CODA AMPLIT PERI AZIMU VELO SNR AR TRES W  DIS CAZ7
 BAR2 SZ EP   1    636 38.76                             171    -0.3 7   22 211 
 BAR2 SZ I         636 39.24         4.7 0.17                            22 211 
 BAR2 SZ ES   1    636 54.19                             171     0.3 7   22 211 
 RUS  HZ EP   1    636 42.89                             144    -0.1 7   96 180 
 RUS  HN ES   1    637  0.80                             144    -0.1 7   96 180 
 RUS  HZ I         637  2.87         2.8 0.34                            96 180 
 GRA  SZ EP   1    636 45.53                             135     0.5 7  128  14 
 GRA  SZ ES   1    637  4.31                             135    -0.2 7  128  14 
 GRA  SZ I         637  6.44         3.0 0.36                           128  14 
 OCA  SZ EP   2    636 48.07                             128    -0.4 5  165 351 
 OCA  SZ ES   2    637 10.56                             128    -0.1 5  165 351 
 OCA  SZ I         637 14.24         3.4 0.51                           165 351 
 CHI  HZ EP   2    636 57.35                             116     0.1 4  247 197 
 CHI  HN ES   2    637 26.57                             116     0.3 4  247 197 
 CHI  HZ I         637 33.27         1.2 0.51                           247 197 
                                                                                
