 2012  722 0657  3.3 L   6.123 -73.696110.7  RSN  4 0.4 1.2LRSN                1
 GAP=251        1.00      13.7     6.9 15.9  0.2512E+01  0.1846E+02  0.7017E+02E
 Epicentro: CHIPATA - SANTANDER                                                3
 ACTION:UPD 12-08-14 11:46 OP:ep   STATUS:               ID:20120722065703 L   I
 2012-07-22-0650-00M.COL___215                                                 6
 STAT SP IPHASW D HRMM SECON CODA AMPLIT PERI AZIMU VELO AIN AR TRES W  DIS CAZ7
 BAR2 SZ EP   1    657 20.75                             143    -0.8 7   77  48 
 BAR2 SZ ES   1    657 36.22                             143     0.5 7   77  48 
 BAR2 SZ I         657 37.23         9.0 0.60            149             77  48 
 PTB  HZ EP   1    657 23.03                             136     0.3 7   96 299 
 PTB  HN ES   1    657 37.71                             136    -0.2 7   96 299 
 PTB  HZ I         657 40.76         0.9 0.17            139             96 299 
 BRR  HZ EP   1    657 24.29                             132     0.5 7  109 359 
 BRR  HZ I         657 24.55         4.2 0.10            138            109 359 
 BRR  HE ES   1    657 39.56                             132    -0.3 7  109 359 
 ZAR  HN ES   2    657 56.51                             114     0.1 4  199 320 
