 2016  522 0129  3.4 L   6.766 -73.140137.1  RSN  7 0.4 1.7LRSN                1
 GAP=139        1.10       5.2     4.7  7.0  0.2017E+01  0.1086E+02 -0.1506E+00E
 Epicentro: LOS SANTOS - SANTANDER                                             3
 ACTION:UPD 16-08-18 17:48 OP:cam  STATUS:               ID:20160522012903 L   I
 OLDACT:REG 16-05-22 12:59 OP:mh   STATUS:               ID:20160522012741     3
 2016-05-22-0127-41M.COL___298                                                 6
 STAT SP IPHASW D HRMM SECON CODA AMPLIT PERI AZIMU VELO AIN AR TRES W  DIS CAZ7
 BAR2 EZ EP        129 21.72                             171   -0.1810 19.7 194 
 BAR2 EZ ES        129 36.52                             171    0.1710 19.7 194 
 BAR2 EZ I         129 44.93         5.9 0.56            171           19.7 194 
 BRR  HZ EP        129 23.66                             150   -0.0910 73.6 301 
 BRR  HE ES        129 40.37                             150    0.7410 73.6 301 
 BRR  HZ I         129 44.10        13.7 0.52            151           73.6 301 
 PAM  EZ EP        129 24.62                             148   -0.2310 80.0  37 
 PAM  EN ES        129 41.28                             148   -0.3110 80.0  37 
 PAM  EZ I         129 43.33         9.6 0.60            154           80.0  37 
 RUS  HZ EP        129 26.40                             143    0.3910 96.7 176 
 RUS  HN ES        129 43.64                             143   -0.0110 96.7 176 
 RUS  HZ I         129 44.84         6.1 0.24            148           96.7 176 
 PTB  HZ EP        129 29.14                             130   -0.51 9  148 260 
 PTB  HN ES        129 49.34                             130   -0.80 9  148 260 
 PTB  HZ I         129 54.46         6.6 0.36            133            148 260 
 ZAR  HZ EP        129 36.11                             120    0.62 8  206 293 
 ZAR  HN ES        130  0.42                             120   -0.12 8  206 293 
 ZAR  HZ I         130  5.53        10.9 0.30            124            206 293 
 HEL  HZ EP        129 43.65                             113    0.52 8  272 257 
 HEL  HN ES   4    130 18.44                             113    4.30 0  272 257 
                                                                                
