 2010  122 0413 11.4 L   6.837 -73.061141.9  RSN  8 0.3 1.8LRSN                1
 GAP=174        0.73       3.8     9.5  7.8 -0.1715E+02  0.5603E+01  0.7169E+01E
 Epicentro: LOS SANTOS - SANTANDER                                             3
 ACTION:UP  10-08-24 09:45 OP:vdl  STATUS:               ID:20100122041311 L   I
 2010-01-22-0359-50S.COL___095                                                 6
 STAT SP IPHASW D HRMM SECON CODA AMPLIT PERI AZIMU VELO SNR AR TRES W  DIS CAZ7
 GIR2 SZ EP        413 30.71                             167     0.110   30 331 
 BAR2 SZ EP        413 30.71                             167     0.010   30 207 
 BAR2 SZ ES   1    413 45.76                             167     0.0 7   30 207 
 RUS  HZ EP        413 35.02                             142     0.010  105 181 
 RUS  HZ I         413 54.73         7.0 0.42                           105 181 
 GUE  SZ EP        413 35.65                             140     0.410  111   8 
 OCA  SZ ES   1    414  0.24                             129    -0.5 7  158 350 
 CHI  HZ EP        413 49.03                             116    -0.6 8  255 197 
 CHI  HN ES   1    414 19.50                             116     0.1 6  255 197 
 CHI  HZ I         414 21.89         3.4 0.40                           255 197 
 RREF HN ES   1    414 35.65                             109     0.4 5  332 230 
 RREF HZ I         414 42.75         3.9 0.29                           332 230 
 PRA  HN ES   1    414 48.00                             105    -0.1 4  400 210 
                                                                                
