 2011  422 0224 45.2 L   6.770 -73.129151.6  RSN  5 0.4 1.5LRSN                1
 GAP=140        0.72       4.7    11.6 11.9  0.1448E+02 -0.6486E+02 -0.5420E+00E
 Epicentro: LOS SANTOS - SANTANDER                                             3
 ACTION:UP  11-06-22 15:32 OP:REBC STATUS:               ID:20110422022445 L   I
 2011-04-22-0221-56S.COL___139                                                 6
 STAT SP IPHASW D HRMM SECON CODA AMPLIT PERI AZIMU VELO SNR AR TRES W  DIS CAZ7
 BRR  HZ EP        225  7.24                             152     0.110   74 300 
 BRR  HZ I         225 13.92         7.0 0.14                            74 300 
 BRR  HN ES   1    225 23.88                             152    -0.4 7   74 300 
 PAM  SZ EP   2    225  7.99                             151    -0.1 5   79  37 
 PAM  SZ I         225 27.43         3.6 0.36                            79  37 
 RUS  HZ EP        225  9.39                             146     0.110   97 177 
 RUS  HN ES   2    225 27.86                             146    -0.2 5   97 177 
 OCA  SZ EP   2    225 13.32                             130    -0.9 5  164 353 
 OCA  SZ ES   1    225 37.38                             130     0.4 7  164 353 
 OCA  SZ I         225 39.95         5.6 0.28                           164 353 
 NOR  SN ES   3    225 49.77                             119     0.5 2  234 235 
                                                                                
