 2012  322 0638 37.8 L   6.800 -73.169149.1  RSN  7 0.4 1.9LRSN                1
 GAP=134        0.78       6.1     5.3  8.8 -0.2737E+01  0.7282E+01  0.2373E+01E
 ACTION:UP  12-03-31 23:21 OP:EP   STATUS:               ID:20120322063837 L   I
 2012-03-22-0630-00M.COL___202                                                 6
 STAT SP IPHASW D HRMM SECON CODA AMPLIT PERI AZIMU VELO SNR AR TRES W  DIS CAZ7
 BAR2 SZ EP   2    638 57.79                             171     0.0 5   23 184 
 BAR2 SZ ES   2    639 13.33                             171    -0.1 5   23 184 
 BAR2 SZ I         639 13.71        16.9 0.52                            23 184 
 BRR  HZ EP   2    638 59.43                             154     0.3 5   69 300 
 BRR  HZ I         639  1.42        28.5 0.12                            69 300 
 BRR  HN ES   2    639 16.34                             154     0.5 5   69 300 
 PAM  SZ EP        639  0.54                             151     0.110   79  41 
 PAM  SN ES   2    639 17.56                             151    -0.5 5   79  41 
 RUS  HZ EP        639  1.96                             144     0.110  101 175 
 RUS  HE ES   2    639 20.97                             144     0.3 5  101 175 
 RUS  HZ I         639 23.09         5.3 0.30                           101 175 
 PTB  HZ EP        639  4.15                             133    -0.6 9  145 259 
 PTB  HE ES   2    639 25.55                             133    -0.3 5  145 259 
 PTB  HZ I         639 27.96         9.8 0.15                           145 259 
 ZAR  HZ EP   2    639 11.13                             124     1.0 4  202 292 
 ZAR  HN ES   2    639 35.56                             124     0.1 4  202 292 
 ZAR  HZ I         639 42.66         8.0 0.15                           202 292 
 NOR  SN ES   2    639 41.57                             120     0.3 4  233 234 
                                                                                
