 2014  422 0451 26.3 L   6.785 -73.150145.4  RSN 12 0.5 1.8LRSN                1
 GAP=182        0.92       3.2     5.7  8.4  0.2120E+01  0.1746E+00 -0.5282E+00E
 Epicentro: LOS SANTOS - SANTANDER                                             3
 OLDACT:REG 14-04-22 13:40 OP:spq  STATUS:               ID:20140422044816     3
 ACTION:UPD 14-05-13 23:10 OP:nd   STATUS:               ID:20140422045126 L   I
 OLDACT:UP  14-04-22 17:42 OP:fm   STATUS:               ID:20140422044816     3
 2014-04-22-0448-16M.COL___236                                                 6
 STAT SP IPHASW D HRMM SECON CODA AMPLIT PERI AZIMU VELO AIN AR TRES W  DIS CAZ7
 RUS  HZ EP        451 49.53                             144   -0.3310 98.9 176 
 RUS  HN ES   1    452  8.86                             144    0.60 7 98.9 176 
 PTB  HZ EP   4    451 51.85                             132   -1.28 0  147 259 
 PTB  HN ES        452 13.56                             132   -0.53 9  147 259 
 PTB  HZ I         452 20.43         6.1 0.38            111            147 259 
 OCA  HN ES   1    452 17.15                             129    0.27 7  162 353 
 SPBC HZ EP   1    451 54.47                             129   -0.11 7  162 219 
 SPBC HE ES   1    452 17.35                             129    0.68 7  162 219 
 SPBC HZ I         452 22.66         5.5 0.22            110            162 219 
 ZAR  HZ EP   1    451 58.17                             122   -0.53 6  204 293 
 ZAR  HN ES   1    452 23.83                             122   -0.18 6  204 293 
 ZAR  HZ I         452 28.18         5.0 0.26            106            204 293 
 NOR  HN ES   1    452 30.09                             119    0.53 6  233 235 
 SML  HZ EP   1    452  2.57                             117   -0.44 6  245 336 
 SML  HE ES   1    452 32.29                             117    0.61 6  245 336 
 SML  HZ I         452 35.97         5.7 0.08            104            245 336 
 CHI  HZ EP   1    452  3.60                             117   -0.15 6  247 195 
 CHI  HN ES        452 32.24                             117   -0.75 8  247 195 
 CHI  HZ I         452 42.35         4.1 1.22            104            247 195 
 HEL  HZ EP   1    452  6.53                             115    0.17 6  271 256 
 HEL  HE ES   4    452 39.94                             115    2.30 0  271 256 
 HEL  HZ I         452 46.74         3.9 3.34            102            271 256 
 GUY2CHZ EP   1    452 10.46                             112    0.76 5  300 235 
 GUY2CHE ES   4    452 47.96                             112    4.38 0  300 235 
 GUY2CHZ I         452 50.97         2.6 0.62                           300 235 
 CBOC HZ EP   1    452 13.92                             110    0.87 5  333 252 
 CBOC HZ I         452 53.62         3.2 3.40             99            333 252 
 PRA  HZ EP   1    452 19.61                             107    0.04 4  390 210 
 PRA  HN ES   1    453  1.73                             107    0.58 4  390 210 
 SJC  HE ES   4    453  1.01                             106   -4.37 0  410 327 
                                                                                
