 2013  122 0756 46.7 L   6.784 -73.134148.7  RSN  6 0.5 1.9LRSN                1
 GAP=156        1.15       4.7     6.4  7.6 -0.9005E+01  0.1484E+01  0.7075E+01E
 Epicentro: LOS SANTOS - SANTANDER                                             3
 ACTION:UPD 13-02-15 09:15 OP:ep   STATUS:               ID:20130122075646 L   I
 2013-01-22-0748-40M.COL___183                                                 6
 STAT SP IPHASW D HRMM SECON CODA AMPLIT PERI AZIMU VELO AIN AR TRES W  DIS CAZ7
 BAR2 SZ EP        757  6.57                             171   -0.1110 21.8 194 
 BAR2 SZ ES        757 22.14                             171   -0.1010 21.8 194 
 BAR2 SZ I         757 24.10        10.5 0.16            169           21.8 194 
 BRR  HZ EP        757  8.53                             152    0.2310 73.2 299 
 BRR  HN ES        757 25.99                             152    0.8610 73.2 299 
 BRR  HN I         757 26.60        19.4 0.22            152           73.2 299 
 PAM  SZ EP        757  9.48                             151    0.1910 78.0  38 
 PAM  SN ES        757 26.73                             151   -0.1610 78.0  38 
 PAM  SN I         757 27.89        12.1 0.50            155           78.0  38 
 PTB  HZ EP        757 13.51                             132   -0.50 9  149 260 
 PTB  HN ES        757 35.03                             132   -0.26 9  149 260 
 PTB  HN I         757 40.30        16.0 0.30            132            149 260 
 OCA  HZ EP        757 15.80                             130    0.36 9  162 353 
 OCA  HN ES        757 37.06                             130   -0.78 9  162 353 
 OCA  HN I         757 40.20        19.1 0.32            132            162 353 
 CHI  HZ EP        757 25.07                             118    0.64 8  247 196 
 CHI  HN ES        757 53.35                             118   -0.50 8  247 196 
 CHI  HN I         758  0.93         2.3 0.52            118            247 196 
                                                                                
