 2016  822 0743 34.6 L   6.352 -73.630114.8  RSN  6 0.5 1.4LRSN                1
 GAP=151        1.17       4.6     5.2  9.4 -0.5759E+01  0.1331E+02  0.3296E+01E
 Epicentro: SANTA HELENA DEL OPON - SANTANDER                                  3
 ACTION:UPD 16-10-29 15:37 OP:rebc STATUS:               ID:20160822074334 L   I
 OLDACT:DUP 16-08-22 17:03 OP:ak   STATUS:               ID:20160822073734d    3
 2016-08-22-0738-00M.COL___374                                                 6
 STAT SP IPHASW D HRMM SECON CODA AMPLIT PERI AZIMU VELO AIN AR TRES W  DIS CAZ7
 BAR2 EZ EP        743 51.88                             152    0.0310 56.2  62 
 BAR2 EZ ES        744  5.46                             152    0.1210 56.2  62 
 BAR2 EZ I         744  6.49        17.8 0.30                          56.2  62 
 BRR  HZ EP        743 53.64                             141    0.2610 84.0 354 
 BRR  HN ES        744  7.96                             141   -0.1110 84.0 354 
 BRR  HZ I         744 14.10         2.4 0.17                          84.0 354 
 SPBC HZ EP        743 54.08                             139   -0.0310 91.6 212 
 SPBC HN ES        744  9.57                             139    0.2110 91.6 212 
 SPBC HZ I         744 11.33         5.7 0.11                          91.6 212 
 PTB  HZ EP        743 53.62                             138   -0.5610 93.7 283 
 PTB  HN ES        744  8.80                             138   -0.6810 93.7 283 
 PTB  HZ I         744 11.72         4.9 0.15                          93.7 283 
 NOR  HZ EP        744  0.09                             121   -0.68 9  163 238 
 NOR  HE ES        744 22.03                             121    0.81 9  163 238 
 NOR  HZ I         744 23.61         4.5 0.16                           163 238 
 ZAR  HZ EP   2    744  3.64                             117    0.51 4  185 313 
 ZAR  HN ES        744 26.12                             117    0.71 9  185 313 
 ZAR  HZ I         744 31.46         2.5 0.11                           185 313 
                                                                                
