 2010  622 0043 21.4 L   6.776 -73.096148.9  RSN 14 0.4 3.6LRSN                1
 GAP=130        0.91       4.3     6.7  6.5 -0.1305E+02  0.7054E+01  0.3776E+01E
 Epicentro: LOS SANTOS - SANTANDER                                             3
 ACTION:UP  10-08-24 10:12 OP:vdl  STATUS:               ID:20100622004321 L   I
 2010-06-22-0041-40S.COL___118                                                 6
 STAT SP IPHASW D HRMM SECON CODA AMPLIT PERI AZIMU VELO SNR AR TRES W  DIS CAZ7
 BAR2 SZ IP        043 41.43                             171     0.010   23 206 
 BAR2 SZ ES   1    043 56.19                             171    -0.8 7   23 206 
 BRR  HZ IP     C  043 43.36                             151     0.110   77 298 
 BRR  HE ES   2    044  0.81                             151     0.5 5   77 298 
 BRR  HZ I         044  3.99       889.3 0.33                            77 298 
 RUS  HZ IP     D  043 45.24                             145     0.010   98 179 
 RUS  HZ I         044  7.14       293.4 0.43                            98 179 
 BRI  SZ EP   1    043 46.00                             142     0.3 7  109  18 
 BRI  SZ ES   2    044  5.05                             142     0.5 5  109  18 
 GUE  SZ EP        043 46.39                             140    -0.210  118   9 
 GRA  SZ IP        043 47.27                             137     0.210  127  15 
 GRA  SZ ES   1    044  7.34                             137     0.3 7  127  15 
 OCA  SZ EP   1    043 49.77                             130    -0.5 7  164 351 
 OCA  SZ ES   2    044 12.91                             130     0.1 5  164 351 
 OCA  SZ I         044 16.69       630.6 0.42                           164 351 
 CHI  HZ EP   1    043 59.64                             118     0.5 6  248 197 
 CHI  HE ES   2    044 28.61                             118     0.0 4  248 197 
 CHI  HZ I         044 38.47       261.2 0.43                           248 197 
 CVER SZ EP   2    044  3.43                             115     1.5 4  272 204 
 HEL  HZ EP        044  2.12                             115    -0.2 7  277 257 
 HEL  HZ I         044 40.17       217.5 0.42                           277 257 
 RREF HZ EP   1    044  8.41                             111     0.4 5  324 230 
 RREF HZ I         044 54.05       413.5 0.32                           324 230 
 DBB  SZ EP        044  9.13                             110    -0.5 7  345 275 
 TOL  SZ EP        044 10.04                             110     0.0 6  346 226 
 SDV  BZ EP        044 10.62                             109    -0.7 6  358  49 
 SDV  BZ I         044 50.19        68.7 0.53                           358  49 
                                                                                
