 2015  922 0718 18.4 L   6.815 -73.138145.1  RSN  5 0.4 1.9LRSN                1
 GAP=151        1.10       5.1     8.0  7.8 -0.1896E+02  0.6103E+01 -0.2156E+00E
 Epicentro: LOS SANTOS - SANTANDER                                             3
 ACTION:UPD 15-10-28 16:27 OP:cam  STATUS:               ID:20150922071818 L   I
 OLDACT:UP  15-09-22 19:12 OP:mh   STATUS:               ID:20150922070749d    3
 OLDACT:DUP 15-09-22 19:09 OP:mh   STATUS:               ID:20150922070749d    3
 OLDACT:UP  15-09-22 18:55 OP:mh   STATUS:               ID:20150922070748     3
 OLDACT:UP  15-09-22 18:55 OP:mh   STATUS:               ID:20150922070748     3
 OLDACT:UP  15-09-22 18:46 OP:mh   STATUS:               ID:20150922070748     3
 OLDACT:UP  15-09-22 18:46 OP:mh   STATUS:               ID:20150922070748     3
 OLDACT:REG 15-09-22 14:15 OP:mh   STATUS:               ID:20150922070748     3
 2015-09-22-0707-48M.COL___358                                                 6
 STAT SP IPHASW D HRMM SECON CODA AMPLIT PERI AZIMU VELO AIN AR TRES W  DIS CAZ7
 BAR2 EZ EP        718 38.14                             170    0.1710 25.1 191 
 BAR2 EZ ES        718 52.90                             170   -0.3510 25.1 191 
 BAR2 EZ I         718 53.81        11.4 0.16            170           25.1 191 
 BRR  HZ EP        718 39.91                             152    0.4510 71.1 297 
 BRR  HE ES        718 56.52                             152    0.6210 71.1 297 
 BRR  HZ I         719  0.83         9.8 0.10            149           71.1 297 
 PAM  EZ EP        718 40.93                             151    0.5110 75.6  40 
 PAM  EN ES        718 57.56                             151   -0.0610 75.6  40 
 PAM  EZ I         719  0.15        19.4 0.64            153           75.6  40 
 OCA  HZ EP        718 46.23                             130   -0.27 9  159 353 
 OCA  HN ES        719  7.70                             130   -0.73 9  159 353 
 OCA  HZ I         719 13.35        17.8 0.24            130            159 353 
 SPBC HZ EP        718 46.74                             129   -0.26 9  165 219 
 SPBC HN ES        719  8.96                             129   -0.36 9  165 219 
 SPBC HZ I         719 12.85        10.8 0.20            130            165 219 
                                                                                
