 2017  622 0249  0.6 L   5.800 -73.927106.8  RSN 12 0.5 2.1LRSN                1
 GAP=133        1.15       3.6     2.9  6.4  0.3505E+01 -0.2086E+01  0.1383E+01E
 Epicentro: ALBANIA - SANTANDER                                                3
 ACTION:UPD 17-09-14 16:54 OP:jn   STATUS:               ID:20170622024900 L   I
 OLDACT:REG 17-06-22 12:59 OP:lv   STATUS:               ID:20170622024739     3
 2017-06-22-0248-00M.COL___348                                                 6
 STAT SP IPHASW D HRMM SECON CODA AMPLIT PERI AZIMU VELO AIN AR TRES W  DIS CAZ7
 SPBC HZ EP        249 15.53                             167    0.1610 22.9 225 
 SPBC HN ES        249 26.74                             167   -0.1310 22.9 225 
 SPBC HZ I         249 28.19        82.9 0.13            170           22.9 225 
 PTB  HZ EP        249 20.04                             133   -0.1110  101 324 
 PTB  HN ES        249 35.31                             133   -0.0710  101 324 
 PTB  HZ I         249 41.64        35.2 0.04            134            101 324 
 NOR  HZ EP        249 20.48                             131   -0.3610  108 256 
 NOR  HN ES        249 36.83                             131    0.2310  108 256 
 NOR  HZ I         249 38.31        36.4 0.06            134            108 256 
 BRR  HZ EP   4    249 25.91                             121    1.31 0  147   9 
 BRR  HE ES   4    249 45.57                             121    2.28 0  147   9 
 BRR  HZ I         249 48.99        10.4 0.21            122            147   9 
 GUY2CHZ EP        249 27.92                             117    0.04 9  172 248 
 GUY2CHN ES        249 49.81                             117    0.67 9  172 248 
 GUY2CHZ I         249 53.01         6.1 0.32                           172 248 
 YPLC HZ EP        249 29.15                             116    1.19 9  177 105 
 YPLC HN ES        249 49.23                             116   -0.05 9  177 105 
 YPLC HZ I         249 52.74        27.0 0.31            118            177 105 
 HEL  HZ EP        249 29.80                             115    0.86 9  183 284 
 HEL  HN ES        249 50.85                             115   -0.18 9  183 284 
 HEL  HZ I         249 56.39        13.1 0.04            117            183 284 
 VIL  EZ EP   1    249 28.45                             114   -0.84 7  188 172 
 VIL  EN ES   1    249 52.00                             114    0.36 7  188 172 
 VIL  EZ I         249 55.30        34.2 0.04            117            188 172 
 ZAR  HZ EP        249 31.67                             111   -0.30 8  214 331 
 ZAR  HN ES        249 56.09                             111   -0.32 8  214 331 
 ZAR  HZ I         250  0.46         7.8 0.33            112            214 331 
 CBOC HZ EP        249 34.66                             109    0.49 8  231 272 
 CBOC HN ES        249 59.62                             109   -0.71 8  231 272 
 ORTC HZ EP   1    249 36.68                             107   -0.12 6  255 215 
 ORTC HN ES   1    250  4.25                             107   -0.76 6  255 215 
 ORTC HZ I         250  9.15         4.4 0.09            109            255 215 
 PTGC HZ EP        249 37.60                             106   -0.44 8  266 132 
 PTGC HN ES        250  6.56                             106   -0.66 8  266 132 
 PTGC HZ I         250 11.07        13.5 0.07            108            266 132 
 SJC  HZ EP   4    250  2.12                              95   -0.89 0  474 343 
 SJC  HN ES   4    250 43.89                              95   -7.77 0  474 343 
                                                                                
