 2013  722 0422 13.1 L   6.752 -73.193149.1  RSN  4 0.2 1.2LRSN                1
 GAP=228        0.44       4.2     4.6  4.3  0.1054E+02  0.2996E+01  0.1590E+01E
 Epicentro: VILLANUEVA - SANTANDER                                             3
 ACTION:UPD 13-08-12 10:39 OP:ep   STATUS:               ID:20130722041959 L   I
 OLDACT:UP  13-07-22 10:27 OP:cam  STATUS:               ID:20130722041959 L   3
 OLDACT:UPD 13-07-22 08:35 OP:stll STATUS:               ID:20130722041959 L   3
 2013-07-22-0419-59M.COL___267                                                 6
 STAT SP IPHASW D HRMM SECON CODA AMPLIT PERI AZIMU VELO AIN AR TRES W  DIS CAZ7
 BAR2 SZ ES        422 48.47                             173   -0.1510 17.7 176 
 BRR  HZ EP        422 34.40                             154   -0.1610 69.5 304 
 BRR  HN ES        422 51.48                             154    0.2110 69.5 304 
 BRR  HZ I         422 51.89         4.4 0.32            148           69.5 304 
 RUS  HZ EP   1    422 37.10                             146    0.21 7 95.8 173 
 RUS  HN ES   1    422 55.48                             146    0.07 7 95.8 173 
 RUS  HZ I         422 56.14         1.2 0.28            142           95.8 173 
 PTB  HZ EP   2    422 39.78                             134   -0.06 5  142 261 
 PTB  HN ES   1    423  0.59                             134   -0.08 7  142 261 
 PTB  HZ I         423  6.02         2.3 0.54            129            142 261 
                                                                                
