 2011  222 0544 29.6 L   6.843 -73.141145.7  RSN  7 0.4 1.7LRSN                1
 GAP=159        0.94       4.0     6.9  8.0 -0.1305E+02  0.2515E+02 -0.3741E+01E
 Epicentro: LOS SANTOS - SANTANDER                                             3
 ACTION:UP  11-03-28 15:10 OP:jfem STATUS:               ID:20110222054429 L   I
 2011-02-22-0542-47S.COL___137                                                 6
 STAT SP IPHASW D HRMM SECON CODA AMPLIT PERI AZIMU VELO SNR AR TRES W  DIS CAZ7
 BAR2 SZ IP        544 49.33                             169     0.010   28 190 
 BAR2 SZ I         544 50.40         7.9 0.31                            28 190 
 BAR2 SZ ES   1    545  4.51                             169    -0.3 7   28 190 
 RUS  HZ EP        544 53.66                             142    -0.110  105 176 
 RUS  HE ES   1    545 12.71                             142     0.2 7  105 176 
 RUS  HZ I         545 13.93         3.1 0.26                           105 176 
 GRA  SZ EP        544 54.88                             138     0.410  121  18 
 GRA  SZ ES        545 14.04                             138     0.210  121  18 
 GRA  SZ I         545 16.87        12.4 0.31                           121  18 
 OCA  SZ EP        544 56.82                             130    -0.7 9  156 353 
 OCA  SZ I         545 23.69         6.9 0.34                           156 353 
 NOR  SZ EP        545  5.86                             118     0.1 8  238 234 
 NOR  SE ES   1    545 33.87                             118     0.0 6  238 234 
 CHI  HZ EP        545  8.29                             117     0.4 8  253 195 
 CHI  HN ES   1    545 36.97                             117    -0.7 6  253 195 
 CHI  HZ I         545 45.28         2.7 0.49                           253 195 
 HEL  HZ EP        545  9.78                             115    -0.2 8  274 255 
 HEL  HN ES   1    545 42.12                             115     0.6 6  274 255 
 HEL  HZ I         545 48.69         4.1 0.30                           274 255 
                                                                                
