 2017 1222 0900 57.4 L   6.753 -73.554119.4  RSN  8 0.4 1.7LRSN                1
 GAP= 92        1.02       4.7     4.3  9.3 -0.9852E+01  0.1712E+02 -0.2219E+02E
 Epicentro: EL CARMEN - SANTANDER                                              3
 ACTION:UPD 18-01-04 13:23 OP:rebc STATUS:               ID:20171222090057 L   I
 OLDACT:UP  17-12-22 17:26 OP:edw  STATUS:               ID:20171222085746     3
 OLDACT:UP  17-12-22 17:26 OP:edw  STATUS:               ID:20171222085746     3
 OLDACT:REG 17-12-22 13:23 OP:dani STATUS:               ID:20171222085746     3
 2017-12-22-0858-00M.COL___445                                                 6
 STAT SP IPHASW D HRMM SECON CODA AMPLIT PERI AZIMU VELO AIN AR TRES W  DIS CAZ7
 BAR2 EZ EP     D  9 1 14.55                             158   -0.1110 44.7 113 
 BAR2 EZ ES        9 1 28.18                             158    0.0810 44.7 113 
 BAR2 EZ I         9 1 29.13        15.8 0.24            165           44.7 113 
 PTB  HZ EP     C  9 1 17.80                             136   -0.4010  103 257 
 PTB  HE ES        9 1 34.12                             136   -0.2810  103 257 
 PTB  HZ I         9 1 35.67         5.9 0.10            138            103 257 
 PAM  EZ EP        9 1 19.56                             133   -0.3210  115  55 
 PAM  EN ES        9 1 37.42                             133    0.0210  115  55 
 PAM  EZ I         9 1 39.10         5.3 0.16            137            115  55 
 SPBC HN ES        9 1 40.07                             128    0.3410  135 205 
 OCA  HZ EP        9 1 24.17                             122   -0.30 9  166   9 
 OCA  HN ES        9 1 45.88                             122    0.32 9  166   9 
 OCA  HZ I         9 1 48.71        20.8 0.28            124            166   9 
 ZAR  HZ EP        9 1 25.23                             122    1.03 9  166 300 
 ZAR  HE ES   4    9 1 47.34                             122    2.26 0  166 300 
 ZAR  HZ I         9 1 51.22         8.9 0.42            123            166 300 
 URE  HN ES   1    9 2  0.00                             111   -0.53 6  245 297 
 GUY2CHZ EP   4    9 1 38.37                             110    2.92 0  262 230 
 GUY2CHN ES   4    9 2  7.41                             110    2.31 0  262 230 
 GUY2CHZ I         9 2 16.15         1.9 0.40                           262 230 
                                                                                
