 2014  922 0721 12.7 L   6.832 -73.183144.0  RSN  5 0.5 1.2LRSN                1
 GAP=204        1.12       5.7    10.1  9.3 -0.1505E+02  0.2529E+02 -0.1994E+02E
 Epicentro: ZAPATOCA - SANTANDER                                               3
 ACTION:UPD 14-10-03 23:07 OP:nd   STATUS:               ID:20140922072112 L   I
 OLDACT:UP  14-09-22 15:08 OP:cam  STATUS:               ID:20140922072001d    3
 OLDACT:DUP 14-09-22 15:06 OP:cam  STATUS:               ID:20140922072001d    3
 OLDACT:REG 14-09-22 12:54 OP:cam  STATUS:               ID:20140922072000     3
 2014-09-22-0720-00M.COL___252                                                 6
 STAT SP IPHASW D HRMM SECON CODA AMPLIT PERI AZIMU VELO AIN AR TRES W  DIS CAZ7
 BAR2 SZ ES        721 47.01                             169   -0.3810 26.5 180 
 BRR  HZ EP        721 34.15                             154    0.7910 65.8 298 
 BRR  HN ES        721 49.90                             154    0.4210 65.8 298 
 BRR  HZ I         721 55.65         2.6 0.14            148           65.8 298 
 PTB  HZ EP        721 39.50                             132    0.28 9  144 257 
 PTB  HN ES        721 59.73                             132   -0.18 9  144 257 
 PTB  HZ I         722  5.16         1.4 0.16            131            144 257 
 SPBC HN ES        722  2.85                             128   -0.38 9  163 217 
 SML  HZ EP        721 48.32                             117   -0.37 8  239 336 
 SML  HE ES        722 16.21                             117   -0.55 8  239 336 
 SML  HZ I         722 22.29         2.2 0.10            118            239 336 
                                                                                
