 2012 1122 0127 30.8 L   6.813 -73.201142.0  RSN  8 0.3 2.0LRSN                1
 GAP=129        0.66       2.9     3.7  4.8 -0.2914E+01  0.3712E+01  0.2677E+01E
 Epicentro: ZAPATOCA - SANTANDER                                               3
 ACTION:UPD 12-12-05 15:35 OP:}ep  STATUS:               ID:20121122012730 L   I
 2012-11-22-0120-00M.COL___234                                                 6
 STAT SP IPHASW D HRMM SECON CODA AMPLIT PERI AZIMU VELO AIN AR TRES W  DIS CAZ7
 BAR2 SZ EP        127 50.02                             170    0.0010 24.6 175 
 BAR2 SZ ES        128  5.01                             170    0.0110 24.6 175 
 BAR2 SZ I         128  6.33        27.7 0.24                          24.6 175 
 GIR2 SZ EP        127 49.97                             168   -0.0210 29.3   2 
 PAM  SZ EP        127 53.06                             149    0.2410 80.4  44 
 PAM  SE ES        128  9.79                             149   -0.1910 80.4  44 
 PAM  SZ I         128 13.04         8.7 0.58                          80.4  44 
 RUS  HZ EP        127 54.04                             142   -0.3210  103 173 
 RUS  HN ES   1    128 12.94                             142    0.22 7  103 173 
 RUS  HN I         128 14.36        20.7 0.36                           103 173 
 PTB  HZ EP        127 56.41                             132   -0.55 9  142 258 
 PTB  HE ES        128 17.51                             132    0.16 9  142 258 
 PTB  HZ I         128 19.96        17.1 0.15                           142 258 
 OCA  HE ES   1    128 20.81                             129    0.47 7  158 355 
 CHI  HZ EP        128  8.38                             116    0.08 8  249 194 
 CHI  HN ES   1    128 38.00                             116    0.46 6  249 194 
 CHI  HZ I         128 40.81         6.8 0.35                           249 194 
 PRA  HZ EP   1    128 24.41                             106    0.40 4  390 209 
                                                                                
