 2011  922 0850 26.9 L   6.774 -73.098139.2  RSN  9 0.3 1.9LRSN                1
 GAP=188        0.73       3.1     4.9  4.9  0.2937E+01  0.4375E+01 -0.1770E+01E
 Epicentro: LOS SANTOS - SANTANDER                                             3
 ACTION:UPD 12-07-13 15:59 OP:ep   STATUS:               ID:20110922085026 L   I
 2011-09-22-0840-00M.COL___167                                                 6
 STAT SP IPHASW D HRMM SECON CODA AMPLIT PERI AZIMU VELO AIN AR TRES W  DIS CAZ7
 BAR2 SZ EP        850 45.89                             170    0.1510 22.1 205 
 BAR2 SZ ES        851  0.56                             170    0.1510 22.1 205 
 BAR2 SZ I         851  2.25        23.0 0.27                          22.1 205 
 BTL  SZ EP        850 46.13                             169    0.3410 24.6 310 
 GIR2 SZ EP        850 45.98                             165    0.0410 35.3 343 
 BRR  HZ EP        850 47.56                             149   -0.1710 77.2 299 
 BRR  HZ I         850 48.15        22.1 0.09                          77.2 299 
 BRR  HE ES        851  4.23                             149    0.2810 77.2 299 
 RUS  HZ EP   1    850 50.16                             143    0.35 7 97.5 179 
 RUS  HE ES        851  7.06                             143   -0.5910 97.5 179 
 RUS  HZ I         851  9.56         7.2 0.41                          97.5 179 
 OCA  SZ EP        850 54.92                             127   -0.16 9  164 351 
 OCA  SZ ES   1    851 16.55                             127   -0.48 7  164 351 
 OCA  SZ I         851 21.42         9.6 0.32                           164 351 
 ZAR  HZ EP   1    850 59.04                             120   -0.54 6  210 292 
 ZAR  HN ES   1    851 25.23                             120    0.19 6  210 292 
 HEL  HZ EP   1    851  7.64                             113    0.33 6  276 257 
 HEL  HN ES   2    851 37.99                             113   -0.81 4  276 257 
 HEL  HZ I         851 45.03         3.5 0.33                           276 257 
 PRA  HZ EP   1    851 20.36                             105    0.12 4  392 210 
 PRA  HE ES   1    852  2.29                             105    0.46 4  392 210 
                                                                                
