 2015 1122 0755 23.8 L   6.825 -73.023155.5  RSN  8 0.4 1.6LRSN                1
 GAP=152        0.91       3.5     5.8  5.8 -0.9674E+00  0.1375E+02 -0.5803E-01E
 Epicentro: CEPITA - SANTANDER                                                 3
 ACTION:UPD 15-12-28 16:12 OP:cam  STATUS:               ID:20151122075523 L   I
 OLDACT:REG 15-11-22 16:12 OP:ak   STATUS:               ID:20151122075200     3
 2015-11-22-0751-59S.COL___153                                                 6
 STAT SP IPHASW D HRMM SECON CODA AMPLIT PERI AZIMU VELO AIN AR TRES W  DIS CAZ7
 BAR2 EZ EP        755 45.15                             168    0.3710 31.2 214 
 BAR2 EZ ES        756  0.60                             168   -0.5410 31.2 214 
 BAR2 EZ I         756  3.15         6.7 0.24            171           31.2 214 
 PAM  EZ EP   2    755 46.97                             156    0.44 5 67.2  32 
 PAM  EN ES        756  4.26                             156    0.0210 67.2  32 
 PAM  EZ I         756  7.40         4.8 0.58            145           67.2  32 
 BRR  HZ EP        755 47.31                             151    0.6610 82.3 292 
 BRR  HN ES        756  4.52                             151    0.0610 82.3 292 
 BRR  HZ I         756  7.45         4.7 0.28            142           82.3 292 
 RUS  HZ EP        755 48.06                             145   -0.6610  103 184 
 RUS  HE ES        756  8.50                             145    0.3610  103 184 
 RUS  HZ I         756  9.41         2.1 0.12            143            103 184 
 SPBC HZ EP        755 54.03                             129   -0.05 9  174 222 
 SPBC HN ES   2    756 17.35                             129   -0.35 4  174 222 
 SPBC HZ I         756 19.54         7.0 0.21            124            174 222 
 ZAR  HZ EP        755 58.04                             123   -0.05 8  216 290 
 ZAR  HN ES   4    756 23.88                             123   -0.95 0  216 290 
 ZAR  HZ I         756 28.81         5.3 0.30            115            216 290 
 NOR  HZ EP        756  1.31                             119   -0.15 8  247 236 
 NOR  HN ES        756 31.09                             119    0.26 8  247 236 
 NOR  HZ I         756 37.53         2.7 0.36            113            247 236 
 SML  HZ EP   1    756  0.92                             119   -0.46 6  247 332 
 SML  HN ES        756 30.45                             119   -0.23 8  247 332 
 SML  HZ I         756 36.85         7.6 0.24            111            247 332 
                                                                                
