 2012  722 0440 40.3 L   6.872 -73.209166.1  RSN  7 0.5 1.9LRSN                1
 GAP=177        1.13       6.4    10.6 11.0 -0.2728E+01  0.1589E+02  0.7761E+00E
 Epicentro: ZAPATOCA - SANTANDER                                               3
 ACTION:UPD 12-08-14 11:46 OP:ep   STATUS:               ID:20120722044040 L   I
 2012-07-22-0440-00M.COL___215                                                 6
 STAT SP IPHASW D HRMM SECON CODA AMPLIT PERI AZIMU VELO AIN AR TRES W  DIS CAZ7
 BAR2 SZ EP        441  1.91                             169    -0.710   31 175 
 BAR2 SZ ES   1    441 19.70                             169    -0.2 7   31 175 
 BAR2 SZ I         441 21.52        23.8 0.35            164             31 175 
 BRR  HZ EP        441  3.85                             159     0.610   61 295 
 BRR  HN ES   1    441 21.60                             159     0.5 7   61 295 
 RUS  HN ES   2    441 28.21                             145     0.9 5  109 173 
 RUS  HZ I         441 29.29        10.7 0.23            133            109 173 
 PTB  HZ EP        441  8.57                             137     0.0 9  143 255 
 PTB  HN ES   1    441 30.14                             137    -0.5 7  143 255 
 PTB  HZ I         441 35.07         7.2 0.15            120            143 255 
 OCA  HZ EP   2    441  9.61                             136     0.0 5  152 355 
 OCA  HE ES   1    441 32.16                             136    -0.2 7  152 355 
 ZAR  HZ EP   2    441 13.40                             128     0.1 4  195 291 
 ZAR  HZ I         441 46.88         8.8 0.30            112            195 291 
 CHI  HN ES   1    441 50.91                             121     0.2 6  255 193 
 CHI  HZ I         441 55.52         4.1 0.29            108            255 193 
