 2017  722 0108 33.7 L   6.771 -73.203144.5  RSN  4 0.2 1.3LRSN                1
 GAP=229        0.58       4.5     4.2  4.6  0.9462E+01  0.2090E+01  0.8619E+00E
 Epicentro: ZAPATOCA - SANTANDER                                               3
 ACTION:UPD 17-08-30 15:35 OP:rebc STATUS:               ID:20170722010833 L   I
 OLDACT:REG 17-07-22 13:07 OP:dnl  STATUS:               ID:20170722005738     3
 2017-07-22-0058-00M.COL___386                                                 6
 STAT SP IPHASW D HRMM SECON CODA AMPLIT PERI AZIMU VELO AIN AR TRES W  DIS CAZ7
 BAR2 EZ EP        1 8 52.89                             172   -0.2710 19.9 173 
 BAR2 EZ ES        1 9  8.07                             172   -0.2310 19.9 173 
 BAR2 EZ I         1 9  8.50         5.8 0.32            175           19.9 173 
 BRR  HZ EP        1 8 54.80                             154    0.2510 67.5 303 
 BRR  HN ES        1 9 10.94                             154    0.1610 67.5 303 
 BRR  HZ I         1 9 16.30         7.6 0.26            154           67.5 303 
 RUS  HZ EP        1 8 57.13                             144   -0.0610 98.0 172 
 RUS  HN ES        1 9 15.76                             144    0.2910 98.0 172 
 RUS  HZ I         1 9 16.97         3.5 0.30            149           98.0 172 
 PTB  HZ EP        1 8 60.00                             133    0.00 9  141 260 
 PTB  HN ES        1 9 20.32                             133   -0.16 9  141 260 
 PTB  HZ I         1 9 20.91         1.5 0.16            136            141 260 
                                                                                
