 2014  822 0705  3.0 L   6.812 -73.163148.1  RSN 10 0.4 1.7LRSN                1
 GAP=134        0.89       3.0     4.1  5.5 -0.1236E+01  0.4660E+01 -0.9764E+00E
 Epicentro: LOS SANTOS - SANTANDER                                             3
 ACTION:UPD 14-09-15 21:52 OP:nd   STATUS:               ID:20140822070503 L   I
 OLDACT:REG 14-08-22 13:49 OP:mh   STATUS:               ID:20140822065815     3
 2014-08-22-0658-15M.COL___221                                                 6
 STAT SP IPHASW D HRMM SECON CODA AMPLIT PERI AZIMU VELO AIN AR TRES W  DIS CAZ7
 BAR2 SZ EP   1    7 5 23.06                             170    0.17 7 24.4 185 
 BAR2 SZ ES        7 5 37.91                             170   -0.5210 24.4 185 
 BAR2 SZ I         7 5 40.73         9.0 0.10            170           24.4 185 
 BRR  HZ EP        7 5 24.73                             154    0.5010 68.8 298 
 BRR  HN ES        7 5 41.19                             154    0.3710 68.8 298 
 BRR  HZ I         7 5 46.53         8.5 0.22            151           68.8 298 
 PAM  SZ EP        7 5 25.85                             151    0.4210 77.6  41 
 PAM  SN ES   1    7 5 42.77                             151   -0.19 7 77.6  41 
 PAM  SZ I         7 5 45.24         8.9 0.46            156           77.6  41 
 RUS  HZ EP        7 5 27.07                             144    0.0210  102 175 
 RUS  HN ES        7 5 45.88                             144    0.0510  102 175 
 RUS  HZ I         7 5 47.05         3.7 0.40            148            102 175 
 PTB  HZ EP        7 5 29.66                             133   -0.31 9  146 258 
 PTB  HN ES        7 5 50.80                             133   -0.24 9  146 258 
 PTB  HZ I         7 5 58.60         7.9 0.27            133            146 258 
 OCA  HZ EP   4    7 5 26.55                             130   -4.75 0  159 354 
 OCA  HN ES        7 5 53.15                             130   -0.26 9  159 354 
 OCA  HZ I         7 5 59.58         5.4 0.39            133            159 354 
 SPBC HZ EP   1    7 5 31.93                             130    0.31 7  163 218 
 SPBC HN ES   1    7 5 54.59                             130    0.61 7  163 218 
 SPBC HZ I         7 6  0.08                             132            163 218 
 ZAR  HN ES   1    7 6  0.91                             123    0.35 6  202 292 
 NOR  HZ EP        7 5 37.84                             119   -0.90 8  234 234 
 NOR  HN ES   1    7 6  6.75                             119    0.10 6  234 234 
 NOR  HZ I         7 6 10.77         4.7 0.20            121            234 234 
 SML  HZ EP        7 5 39.41                             118   -0.08 8  242 336 
 SML  HN ES   1    7 6  7.74                             118   -0.25 6  242 336 
 SML  HZ I         7 6 11.67         9.8 0.32            120            242 336 
                                                                                
