 2016  822 0401  3.7 L   6.765 -73.191149.0  RSN  4 0.4 1.2LRSN                1
 GAP=234        0.88       6.5     6.8  7.8 -0.7142E+01  0.1809E+01  0.1242E+02E
 Epicentro: LOS SANTOS - SANTANDER                                             3
 ACTION:UPD 16-10-29 15:37 OP:rebc STATUS:               ID:20160822040103 L   I
 OLDACT:UP  16-08-22 15:23 OP:ak   STATUS:               ID:20160822035734     3
 OLDACT:REG 16-08-22 13:35 OP:ak   STATUS:               ID:20160822035734     3
 2016-08-22-0358-00M.COL___368                                                 6
 STAT SP IPHASW D HRMM SECON CODA AMPLIT PERI AZIMU VELO AIN AR TRES W  DIS CAZ7
 BAR2 EZ EP        4 1 23.30                             172   -0.3810 19.2 177 
 BAR2 EZ ES        4 1 39.16                             172   -0.0810 19.2 177 
 BAR2 EZ I         4 1 39.78         3.3 0.17                          19.2 177 
 BRR  HZ EP        4 1 25.02                             154   -0.0910 68.9 303 
 BRR  HN ES        4 1 42.24                             154    0.4510 68.9 303 
 PTB  HZ EP   2    4 1 30.20                             134   -0.27 5  142 260 
 PTB  HN ES        4 1 50.91                             134   -0.41 9  142 260 
 PTB  HZ I         4 1 54.77         1.7 0.09                           142 260 
 SPBC HZ EP        4 1 32.54                             131    0.62 9  157 218 
 SPBC HN ES        4 1 53.90                             131    0.00 9  157 218 
 SPBC HZ I         4 2  0.28         2.1 0.14                           157 218 
                                                                                
