 2017  622 0217 43.9 L   6.795 -73.151145.1  RSN 17 0.6 2.4LRSN                1
 GAP=212        1.19       4.3     5.1  7.6  0.4440E+01 -0.1831E+01  0.7985E+01E
 Epicentro: LOS SANTOS - SANTANDER                                             3
 ACTION:UPD 17-09-14 16:54 OP:jn   STATUS:               ID:20170622021743 L   I
 OLDACT:REG 17-06-22 12:57 OP:lv   STATUS:               ID:20170622020739     3
 2017-06-22-0208-00M.COL___346                                                 6
 STAT SP IPHASW D HRMM SECON CODA AMPLIT PERI AZIMU VELO AIN AR TRES W  DIS CAZ7
 BRR  HZ IP     C  218  5.06                             152    0.0610 71.0 299 
 BRR  HN ES        218 22.19                             152    0.7610 71.0 299 
 BRR  HZ I         218 26.26        37.0 0.27            153           71.0 299 
 PTB  HZ EP        218 10.35                             132   -0.44 9  147 259 
 PTB  HN ES        218 30.82                             132   -0.92 9  147 259 
 PTB  HZ I         218 37.70        15.2 0.10            134            147 259 
 SPBC HZ EP        218 12.19                             129   -0.12 9  162 219 
 SPBC HN ES        218 34.80                             129    0.36 9  162 219 
 SPBC HZ I         218 39.14        45.1 0.11            131            162 219 
 YPLC HZ IP     D  218 13.68                             126    0.02 9  177 151 
 YPLC HN ES   1    218 36.40                             126   -0.44 7  177 151 
 ZAR  HZ EP        218 15.86                             122   -0.45 9  204 292 
 ZAR  HN ES   1    218 41.21                             122   -0.35 6  204 292 
 ZAR  HZ I         218 46.64        26.8 0.19            125            204 292 
 TABC EZ EP   4    218 21.50                             119    1.94 0  229 211 
 TABC EZ ES   4    218 44.71                             119   -2.64 0  229 211 
 TABC EZ I         218 54.19        32.0 0.59            122            229 211 
 NOR  HZ EP        218 19.44                             118   -0.10 8  234 234 
 NOR  HN ES        218 46.54                             118   -0.78 8  234 234 
 NOR  HZ I         218 55.02        15.9 0.07            121            234 234 
 CHI  HZ EP        218 21.92                             117    0.40 8  248 195 
 CHI  HN ES        218 51.08                             117    0.24 8  248 195 
 CHI  HZ I         218 54.54        15.3 0.42            120            248 195 
 ROSC BZ EP        218 21.79                             117   -0.15 8  252 211 
 ROSC BN ES        218 51.61                             117    0.03 8  252 211 
 ROSC BZ I         218 57.95        50.5 0.46            119            252 211 
 GUY2CHZ EP        218 28.30                             112    0.87 7  300 235 
 GUY2CHN ES        219  0.41                             112   -0.94 7  300 235 
 GUY2CHZ I         219  9.72        13.8 0.32                           300 235 
 VIL  EZ EP        218 27.06                             112   -0.19 7  303 191 
 VIL  EN ES        219  1.46                             112    0.43 7  303 191 
 VIL  EZ I         219  6.51        23.8 0.38            115            303 191 
 PTGC HZ EP   9    218 26.39                             111   -1.33 0  308 159 
 PTGC HN ES        219  0.15                                   -0.40 7  308 159 
 PTGC HZ I         219  3.51         9.4 0.18            115            308 159 
 LL6C HZ EP   4    219 22.54                             110   52.87 0  325 358 
 LL6C HN ES   4    219 58.44                             110   53.10 0  325 358 
 CBOC HZ EP        218 31.56                             110    0.82 7  333 252 
 CBOC HN ES        219  8.44                             110    1.19 7  333 252 
 ORTC HZ EP        218 37.05                             106   -0.69 6  395 216 
 ORTC HN ES        219 19.31                             106   -0.40 6  395 216 
 ORTC HZ I         219 24.85         7.5 0.34            108            395 216 
 APAC HN ES   4    219 17.82                             106   -2.46 0  398 288 
 PAL  HZ EP        218 39.18                             106    0.20 6  405 239 
 PAL  HN ES        219 23.11                             106    1.19 6  405 239 
 PAL  HZ I         219 26.95         3.9 0.18            108            405 239 
 SJC  HZ EP   4    218 36.99                             105   -2.50 0  409 327 
 SJC  HN ES   4    219 18.68                             105   -4.15 0  409 327 
 SJC  HZ I         219 27.20         6.2 0.54            108            409 327 
 CRJC HZ EP   4    218 43.58                             103   -2.90 0  468   4 
 CRJC HN ES   4    219 32.27                             103   -3.00 0  468   4 
 CRJC HZ I         219 38.75         7.9 0.29            106            468   4 
                                                                                
