 2012  822 0400 23.3 L   6.792 -73.153148.0  RSN  9 0.3 1.8LRSN                1
 GAP=136        0.61       3.0     2.8  4.9  0.1446E+00  0.3144E+01 -0.1603E+01E
 Epicentro: LOS SANTOS - SANTANDER                                             3
 ACTION:UPD 12-09-10 11:57 OP:ep   STATUS:               ID:20120822040023 L   I
 2012-08-22-0400-00M.COL___218                                                 6
 STAT SP IPHASW D HRMM SECON CODA AMPLIT PERI AZIMU VELO AIN AR TRES W  DIS CAZ7
 BAR2 SZ EP   1    4 0 43.15                             171   -0.02 7 22.3 188 
 BAR2 SZ ES   1    4 0 58.31                             171   -0.37 7 22.3 188 
 BAR2 SZ I         4 1  0.57        15.0 0.23                          22.3 188 
 GIR2 SZ EP   1    4 0 43.17                             167   -0.08 7 32.0 352 
 BRR  HZ EP   1    4 0 44.87                             153    0.20 7 70.9 299 
 BRR  HN ES        4 1  1.77                             153    0.4310 70.9 299 
 BRR  HZ I         4 1  6.79        16.1 0.13                          70.9 299 
 PAM  SZ EP   1    4 0 46.04                             151    0.22 7 78.6  40 
 PAM  SN ES   1    4 1  2.89                             151   -0.50 7 78.6  40 
 PAM  SZ I         4 1  5.31         8.9 0.52                          78.6  40 
 RUS  HZ EP   1    4 0 47.30                             145    0.10 7 99.8 176 
 RUS  HN ES        4 1  6.07                             145    0.2110 99.8 176 
 RUS  HZ I         4 1  7.70         6.0 0.29                          99.8 176 
 PTB  HZ EP   1    4 0 49.80                             133   -0.56 7  147 259 
 PTB  HN ES   1    4 1 11.28                             133   -0.18 7  147 259 
 PTB  HZ I         4 1 14.73         7.4 0.13                           147 259 
 OCA  HZ EP   1    4 0 51.90                             130    0.05 7  161 353 
 OCA  HN ES   2    4 1 14.25                             130    0.12 5  161 353 
 OCA  HZ I         4 1 17.00        12.5 0.21                           161 353 
 ZAR  HN ES        4 1 21.23                             123    0.00 9  204 292 
 ZAR  HZ I         4 1 26.64        10.0 0.28                           204 292 
 HEL  HN ES        4 1 34.73                             115   -0.14 8  271 256 
 HEL  HZ I         4 1 43.07         3.5 0.28                           271 256 
                                                                                
