 2013  622 0910 22.6 L   6.691 -73.172149.8  RSN  4 0.2 1.5LRSN                1
 GAP=226        0.48       5.1     4.9  5.2  0.1213E+02  0.2836E+01  0.6661E+00E
 Epicentro: VILLANUEVA - SANTANDER                                             3
 ACTION:UPD 14-01-08 09:56 OP:ep   STATUS:               ID:20130622091022 L   I
 OLDACT:REG 13-06-22 09:04 OP:carl STATUS:               ID:20130622090959     3
 2013-06-22-0909-59M.COL___267                                                 6
 STAT SP IPHASW D HRMM SECON CODA AMPLIT PERI AZIMU VELO AIN AR TRES W  DIS CAZ7
 BAR2 SZ EP   1    910 42.38                             176   -0.14 7 11.0 186 
 BAR2 SZ ES   1    910 57.79                             176   -0.28 7 11.0 186 
 BAR2 SZ I         910 58.95        11.3 0.22            174           11.0 186 
 BRR  HZ EP   1    910 44.29                             152   -0.11 7 75.3 308 
 BRR  HN ES   1    911  1.76                             152    0.34 7 75.3 308 
 BRR  HZ I         911  5.46         5.1 0.36            152           75.3 308 
 RUS  HZ EP   1    910 46.26                             148    0.32 7 88.9 174 
 RUS  HN ES   1    911  4.20                             148    0.04 7 88.9 174 
 RUS  HZ I         911  6.13         2.7 0.34            151           88.9 174 
 PTB  HZ EP   1    910 49.29                             134   -0.16 7  143 263 
 PTB  HN ES   1    911 10.37                             134   -0.05 7  143 263 
 PTB  HZ I         911 13.28         4.1 0.12            135            143 263 
                                                                                
