 2010  522 0448 13.3 L   6.821 -73.152139.7  RSN 11 0.5 2.7LRSN                1
 GAP=166        1.09       5.3    10.0  8.1 -0.3806E+02  0.3910E+02 -0.8932E+01E
 Epicentro: LOS SANTOS - SANTANDER                                             3
 ACTION:UP  10-08-24 10:06 OP:vdl  STATUS:               ID:20100522044813 L   I
 2010-05-22-0447-02S.COL___111                                                 6
 STAT SP IPHASW D HRMM SECON CODA AMPLIT PERI AZIMU VELO SNR AR TRES W  DIS CAZ7
 BAR2 SZ IP        448 32.36                             169     0.110   26 188 
 BAR2 SZ ES        448 46.58                             169    -0.510   26 188 
 BRI  SZ IP        448 36.87                             141     0.410  106  22 
 BRI  SZ ES   1    448 55.50                             141     1.0 7  106  22 
 GUE  SZ EP        448 36.24                             139    -1.110  114  13 
 GRA  SZ IP        448 38.18                             136     0.310  124  18 
 GRA  SZ ES        448 57.05                             136     0.110  124  18 
 OCA  SZ EP        448 40.76                             129    -0.2 9  158 353 
 OCA  SZ ES   2    449  1.97                             129    -0.5 5  158 353 
 CHI  HZ EP   1    448 50.62                             115    -0.3 6  251 195 
 CHI  HE ES   2    449 20.39                             115     0.2 4  251 195 
 CHI  HZ I         449 26.97        23.2 0.52                           251 195 
 ROSC BZ EP   1    448 51.79                             115     0.5 6  254 211 
 ROSC BN ES   1    449 21.48                             115     0.6 6  254 211 
 ROSC BZ I         449 26.53        24.2 0.48                           254 211 
 HEL  HZ EP   2    448 53.20                             113     0.0 4  272 255 
 HEL  HN ES   2    449 24.97                             113     0.6 4  272 255 
 HEL  HZ I         449 31.66        22.1 0.33                           272 255 
 RREF BZ EP   1    448 59.46                             109     0.1 5  323 229 
 RREF BN ES   1    449 34.79                             109    -0.4 5  323 229 
 RREF BZ I         449 46.60        22.6 0.37                           323 229 
 DBB  SZ EP        449  0.48                             108     0.0 7  339 274 
 PRA  HZ EP   2    449  6.15                             105    -0.7 3  394 209 
 PRA  HE ES   2    449 49.22                             105     0.6 3  394 209 
 PRA  HZ I         449 55.25        27.4 0.12                           394 209 
                                                                                
