 2011 1222 0922  4.8 L   6.762 -73.109138.5  RSN  9 0.4 1.9LRSN                1
 GAP=143        0.73       3.2     4.8  5.6 -0.2774E+01  0.6624E+01  0.1924E+00E
 Epicentro: LOS SANTOS - SANTANDER                                             3
 ACTION:UPD 12-07-13 16:17 OP:ep   STATUS:               ID:20111222092204 L   I
 2011-12-22-0920-00M.COL___191                                                 6
 STAT SP IPHASW D HRMM SECON CODA AMPLIT PERI AZIMU VELO AIN AR TRES W  DIS CAZ7
 BAR2 SZ EP        922 23.52                             171    0.0410 20.4 203 
 BAR2 SZ ES   1    922 37.68                             171   -0.39 7 20.4 203 
 BAR2 SZ I         922 39.75        36.8 0.32                          20.4 203 
 BRR  HZ EP        922 25.44                             149   -0.0510 76.8 300 
 BRR  HZ I         922 25.83        33.2 0.12                          76.8 300 
 BRR  HE ES   1    922 42.18                             149    0.54 7 76.8 300 
 PAM  SZ EP   1    922 26.51                             149    0.22 7 78.3  35 
 PAM  SN ES   1    922 43.04                             149   -0.02 7 78.3  35 
 RUS  HZ EP        922 27.63                             143    0.1310 96.2 178 
 RUS  HE ES   1    922 45.30                             143    0.08 7 96.2 178 
 RUS  HZ I         922 47.46         8.9 0.32                          96.2 178 
 PTB  HZ EP   1    922 30.50                             130   -0.97 7  151 261 
 OCA  SZ EP        922 33.16                             127    0.16 9  165 352 
 OCA  SZ ES   1    922 54.60                             127   -0.40 7  165 352 
 OCA  SZ I         922 58.34        13.1 0.28                           165 352 
 NOR  SN ES   1    923  7.74                             117   -0.08 6  236 236 
 CHI  HZ EP   1    922 41.68                             116   -0.08 6  246 196 
 CHI  HZ I         922 44.15         2.5 0.23                           246 196 
 HEL  HZ EP   2    922 45.84                             113    0.88 4  275 257 
 HEL  HN ES   2    923 16.96                             113    0.66 4  275 257 
 HEL  HZ I         923 23.89         3.5 0.53                           275 257 
                                                                                
