 2010 1122 0326 59.8 L   6.819 -73.119142.2  RSN 13 0.4 2.8LRSN                1
 GAP=161        0.90       3.9     5.7  7.6 -0.7053E+01  0.7316E+01  0.9862E+00E
 Epicentro: LOS SANTOS - SANTANDER                                             3
 ACTION:UP  10-12-17 16:54 OP:REBC STATUS:               ID:20101122032659 L   I
 2010-11-22-0325-25S.COL___129                                                 6
 STAT SP IPHASW D HRMM SECON CODA AMPLIT PERI AZIMU VELO SNR AR TRES W  DIS CAZ7
 BAR2 SZ EP        327 19.08                             169     0.010   26 196 
 BAR2 SZ I         327 34.74       154.3 0.38                            26 196 
 BRR  HZ IP     C  327 20.92                             151     0.210   73 296 
 BRR  HE ES   1    327 37.27                             151     0.3 7   73 296 
 BRR  HZ I         327 38.79       187.2 0.22                            73 296 
 RUS  HZ EP   1    327 23.14                             143    -0.2 7  103 178 
 RUS  HE ES   1    327 41.83                             143     0.1 7  103 178 
 RUS  HZ I         327 43.27        61.2 0.20                           103 178 
 GUE  SZ EP   1    327 23.17                             139    -0.8 7  114  11 
 GRA  SZ IP        327 24.90                             137     0.410  123  16 
 GRA  SZ I         327 46.56        70.9 0.33                           123  16 
 OCA  SZ EP   1    327 27.47                             129    -0.2 7  159 352 
 OCA  SZ I         327 56.86        92.6 0.44                           159 352 
 NOR  SZ EP   1    327 35.59                             117    -0.2 6  238 235 
 NOR  SE ES   1    328  2.77                             117    -1.0 6  238 235 
 CHI  HZ EP   1    327 37.60                             116    -0.1 6  251 196 
 CHI  HE ES   1    328  7.21                             116     0.1 6  251 196 
 CHI  HZ I         328 10.13        20.5 0.11                           251 196 
 HEL  HZ EP   1    327 41.15                             114     0.9 6  275 256 
 HEL  HN ES   1    328 11.67                             114    -0.1 6  275 256 
 HEL  HZ I         328 19.51        38.7 0.26                           275 256 
 RREF HZ EP   1    327 46.23                             110     0.0 5  325 229 
 DBB  SZ EP   1    327 47.29                             109    -0.2 5  342 274 
 TOL  SZ EP   1    327 48.78                             108     0.4 5  347 225 
 PRA  HZ EP   1    327 53.85                             106     0.2 4  395 210 
 PRA  HE ES   1    328 36.01                             106     0.4 4  395 210 
 PRA  HZ I         328 38.87        75.5 0.16                           395 210 
                                                                                
