 2015 1222 0848 58.0 L   6.782 -73.136148.8  RSN  7 0.5 1.7LRSN                1
 GAP=184        1.15       4.3     6.4  8.6  0.6241E+00  0.2696E+01 -0.6266E+01E
 Epicentro: LOS SANTOS - SANTANDER                                             3
 ACTION:UPD 16-02-04 15:06 OP:cam  STATUS:               ID:20151222084858 L   I
 OLDACT:REG 15-12-22 13:05 OP:dnl  STATUS:               ID:20151222083750     3
 2015-12-22-0837-50M.COL___337                                                 6
 STAT SP IPHASW D HRMM SECON CODA AMPLIT PERI AZIMU VELO AIN AR TRES W  DIS CAZ7
 BAR2 EZ EP        849 18.05                             171    0.0510 21.6 194 
 BAR2 EZ ES   2    849 33.79                             171    0.22 5 21.6 194 
 BAR2 EZ I         849 36.49         5.2 0.20            171           21.6 194 
 BRR  HZ EP        849 19.86                             152    0.2410 73.1 299 
 BRR  HE ES        849 37.31                             152    0.8510 73.1 299 
 BRR  HZ I         849 41.29         6.2 0.17            151           73.1 299 
 RUS  HZ EP   2    849 21.96                             145    0.02 5 98.5 177 
 RUS  HE ES        849 40.40                             145   -0.1910 98.5 177 
 RUS  HZ I         849 41.93         5.2 0.24            150           98.5 177 
 PTB  HZ EP        849 24.66                             133   -0.65 9  148 260 
 PTB  HE ES        849 46.26                             133   -0.33 9  148 260 
 PTB  HZ I         849 53.00         3.8 0.22            134            148 260 
 SPBC HZ EP        849 27.21                             130    0.52 9  162 220 
 SPBC HE ES        849 48.65                             130   -0.39 9  162 220 
 SPBC HZ I         849 50.57         9.2 0.15            133            162 220 
 OCA  HZ EP        849 26.85                             130    0.07 9  162 353 
 OCA  HE ES        849 48.36                             130   -0.84 9  162 353 
 OCA  HZ I         849 52.80        12.3 0.23            133            162 353 
 ZAR  HZ EP        849 31.48                             123    0.62 8  206 293 
 ZAR  HN ES        849 56.36                             123   -0.10 8  206 293 
 ZAR  HZ I         850  2.11         7.1 0.34            125            206 293 
                                                                                
