 2016 1222 0200 38.4 L   6.845 -73.184140.6  RSN  4 0.2 1.1LRSN                1
 GAP=237        0.58       5.3     4.4  4.9  0.1280E+02  0.3426E+01  0.4800E+01E
 Epicentro: ZAPATOCA - SANTANDER                                               3
 ACTION:UPD 17-01-11 20:17 OP:rebc STATUS:               ID:20161222020038 L   I
 OLDACT:REG 16-12-22 12:36 OP:cog  STATUS:               ID:20161222015740     3
 2016-12-22-0158-00M.COL___375                                                 6
 STAT SP IPHASW D HRMM SECON CODA AMPLIT PERI AZIMU VELO AIN AR TRES W  DIS CAZ7
 BAR2 EZ EP        2 0 57.65                             168    0.1510 27.9 180 
 BAR2 EZ ES        2 1 12.62                             168    0.2210 27.9 180 
 BAR2 EZ I         2 1 14.05         5.0 0.22            167           27.9 180 
 BRR  HN ES        2 1 14.20                             154   -0.2310 65.1 297 
 RUS  HZ EP        2 1  2.13                             141    0.1010  106 174 
 RUS  HN ES        2 1 20.21                             141   -0.2610  106 174 
 RUS  HZ I         2 1 21.22         1.0 0.18            141            106 174 
 PTB  HZ EP        2 1  4.44                             131   -0.21 9  145 257 
 PTB  HN ES        2 1 25.36                             131    0.23 9  145 257 
 PTB  HZ I         2 1 27.42         2.0 0.40            131            145 257 
                                                                                
