 2012  622 0658 22.1 L   6.704 -73.178140.3  RSN  4 0.2 1.4LRSN                1
 GAP=226        0.44       5.1     4.7  4.8  0.5328E+01  0.7009E+01 -0.6699E+00E
 Epicentro: VILLANUEVA - SANTANDER                                             3
 ACTION:UPD 12-08-06 17:51 OP:ep   STATUS:               ID:20120622065822 L   I
 2012-06-22-0640-00M.COL___193                                                 6
 STAT SP IPHASW D HRMM SECON CODA AMPLIT PERI AZIMU VELO AIN AR TRES W  DIS CAZ7
 BAR2 SZ EP   2    658 40.85                             175   -0.05 5 12.4 182 
 BAR2 SZ ES   1    658 55.46                             175   -0.10 7 12.4 182 
 BAR2 SZ I         658 58.22         6.1 0.26                          12.4 182 
 BRR  HZ EP        658 42.66                             151   -0.1710 73.9 307 
 BRR  HN ES   1    658 59.23                             151    0.24 7 73.9 307 
 BRR  HZ I         659  7.69         5.8 0.64                          73.9 307 
 RUS  HN ES   2    659  2.28                             146    0.15 5 90.4 173 
 PTB  HZ EP        658 48.35                             132    0.19 9  143 263 
 PTB  HN ES   1    659  8.25                             132   -0.22 7  143 263 
                                                                                
