 2013 1222 0508 51.2 L   6.858 -73.213139.7  RSN  7 0.5 1.5LRSN                1
 GAP=126        1.27       4.2     6.5  9.8 -0.4616E+01  0.2283E+02 -0.1099E+02E
 Epicentro: ZAPATOCA - SANTANDER                                               3
 ACTION:UPD 14-01-13 10:20 OP:ep   STATUS:               ID:20131222050851 L   I
 OLDACT:DUP 13-12-22 12:13 OP:jn   STATUS:               ID:20131222050637d    3
 OLDACT:REG 13-12-22 09:51 OP:jn   STATUS:               ID:20131222050636     3
 2013-12-22-0506-36M.COL___235                                                 6
 STAT SP IPHASW D HRMM SECON CODA AMPLIT PERI AZIMU VELO AIN AR TRES W  DIS CAZ7
 BAR2 SZ EP        5 9 10.42                             167    0.1510 29.6 173 
 BAR2 SZ ES        5 9 25.26                             167    0.1310 29.6 173 
 BAR2 SZ I         5 9 28.06         9.1 0.30            167           29.6 173 
 PAM  SZ EP        5 9 13.50                             149    0.6810 77.8  47 
 PAM  SN ES        5 9 30.15                             149    0.4810 77.8  47 
 PAM  SZ I         5 9 32.69         7.1 0.30            157           77.8  47 
 RUS  HZ EP        5 9 14.68                             140   -0.2410  108 172 
 RUS  HN ES        5 9 32.46                             140   -0.9510  108 172 
 RUS  HZ I         5 9 34.25         2.6 0.16            144            108 172 
 PTB  HZ EP        5 9 17.24                             132    0.08 9  142 256 
 PTB  HN ES        5 9 37.91                             132    0.52 9  142 256 
 PTB  HZ I         5 9 45.89         3.9 0.44            132            142 256 
 OCA  HN ES        5 9 38.97                             129   -0.62 9  153 356 
 SPBC HN ES   1    5 9 41.32                             127    0.09 7  164 216 
 SPBC HZ I         5 9 47.92         6.1 0.28            129            164 216 
 SML  HZ EP        5 9 26.83                             117    0.29 8  235 336 
 SML  HN ES        5 9 53.33                             117   -0.76 8  235 336 
                                                                                
