 2017  322 0709 58.8 L   6.802 -73.461 19.7  RSN  4 0.7 0.9LRSN                1
 GAP=166        1.83       7.2     6.0  9.2  0.2225E+02  0.2235E+02 -0.3605E+00E
 Epicentro: SAN VICENTE DE CHUCURI - SANTANDER                                 3
 ACTION:UPD 17-05-25 18:43 OP:jn   STATUS:               ID:20170322070958 L   I
 OLDACT:REG 17-03-22 12:43 OP:dani STATUS:               ID:20170322070641     3
 2017-03-22-0707-00M.COL___358                                                 6
 STAT SP IPHASW D HRMM SECON CODA AMPLIT PERI AZIMU VELO AIN AR TRES W  DIS CAZ7
 BAR2 EZ EP     D  710  6.02                             115    0.0110 38.5 127 
 BAR2 EZ ES        710 11.24                             115   -0.4010 38.5 127 
 BAR2 EZ I         710 14.86         5.2 0.78            108           38.5 127 
 BRR  HZ EP     D  710  6.41                             111   -0.0510 43.7 321 
 BRR  HN ES        710 12.36                             111   -0.0810 43.7 321 
 BRR  HZ I         710 13.29         9.1 0.12            107           43.7 321 
 PTB  HZ EP        710 17.31                              98    0.5010  114 255 
 PTB  HN ES        710 30.63                              98   -0.2410  114 255 
 PTB  HZ I         710 33.32         3.6 0.14             96            114 255 
 ZAR  HZ EP        710 25.87                              56    1.63 9  172 296 
 ZAR  HN ES        710 42.79                              56   -1.30 9  172 296 
 ZAR  HZ I         710 48.35         1.8 0.33             56            172 296 
                                                                                
