 2016  722 0808 37.6 L   6.802 -73.133149.7  RSN  7 0.3 1.8LRSN                1
 GAP=138        0.91       4.0     4.7  6.6 -0.5925E+00  0.5446E+01  0.2709E+01E
 Epicentro: LOS SANTOS - SANTANDER                                             3
 ACTION:UPD 17-03-29 16:53 OP:lp   STATUS:               ID:20160722080837 L   I
 OLDACT:REG 16-07-22 14:50 OP:ar   STATUS:               ID:20160722075759     3
 2016-07-22-0757-59S.COL___327                                                 6
 STAT SP IPHASW D HRMM SECON CODA AMPLIT PERI AZIMU VELO AIN AR TRES W  DIS CAZ7
 BAR2 EZ EP        8 8 57.72                             171    0.0210 23.8 193 
 BAR2 EZ ES        8 9 12.86                             171   -0.5310 23.8 193 
 BRR  HZ EP        8 8 59.53                             153    0.3010 72.4 298 
 BRR  HN ES        8 9 16.79                             153    0.6810 72.4 298 
 BRR  HZ I         8 9 19.39         6.2 0.16            154           72.4 298 
 PAM  EZ EP        8 8 59.91                             152   -0.2510 76.3  39 
 PAM  EN ES        8 9 17.70                             152   -0.0710 76.3  39 
 PAM  EZ I         8 9 19.82        12.6 0.50            149           76.3  39 
 RUS  HZ EP        8 9  1.84                             145    0.1010  101 177 
 RUS  HN ES        8 9 20.85                             145    0.2710  101 177 
 RUS  HZ I         8 9 21.22         7.1 0.28            156            101 177 
 SPBC HZ EP        8 9  6.60                             130    0.11 9  164 219 
 SPBC HN ES        8 9 28.75                             130   -0.29 9  164 219 
 SPBC HZ I         8 9 30.40         9.8 0.18            140            164 219 
 ZAR  HZ EP   4    8 9  5.95                             123   -4.47 0  205 292 
 ZAR  HN ES        8 9 35.54                             123   -0.49 8  205 292 
 ZAR  HZ I         8 9 37.58         4.4 0.10            128            205 292 
 ROSC BZ EP   4    8 9  3.90                             117   -12.1 0  254 211 
 ROSC BN ES   4    8 9 18.13                             117   -27.9 0  254 211 
 ROSC BZ I         8 9 19.84         6.0 0.32            126            254 211 
                                                                                
