 2013  322 0806 53.7 L   6.714 -73.136150.8  RSN  3 0.1 1.2LRSN                1
 GAP=232        0.44       4.2     4.8  4.8  0.1165E+02 -0.1480E+01  0.1376E+01E
 Epicentro: JORDAN - SANTANDER                                                 3
 ACTION:UPD 13-04-09 14:04 OP:ep   STATUS:               ID:20130322080653 L   I
 2013-03-22-0800-00M.COL___245                                                 6
 STAT SP IPHASW D HRMM SECON CODA AMPLIT PERI AZIMU VELO AIN AR TRES W  DIS CAZ7
 BRR  HZ EP        8 7 15.69                             152   -0.0610 77.1 304 
 BRR  HN ES        8 7 32.96                             152    0.0310 77.1 304 
 BRR  HN I         8 7 35.45         4.7 0.34            152           77.1 304 
 RUS  HZ EP        8 7 17.53                             148    0.2110 91.0 176 
 RUS  HN ES   1    8 7 35.55                             148   -0.17 7 91.0 176 
 RUS  HN I         8 7 37.48         1.1 0.46            149           91.0 176 
 PTB  HZ EP        8 7 20.88                             133   -0.18 9  147 263 
 PTB  HE ES   1    8 7 42.52                             133    0.14 7  147 263 
 PTB  HE I         8 7 44.78         2.7 0.26            134            147 263 
                                                                                
