 2016 1022 0020  0.9 L   6.772 -73.093139.8  RSN  4 0.3 1.1LRSN                1
 GAP=145        0.53       2.8     2.8  5.2 -0.8792E+00  0.3111E+00  0.2012E+01E
 Epicentro: LOS SANTOS - SANTANDER                                             3
 ACTION:UPD 16-11-09 19:21 OP:rebc STATUS:               ID:20161022002000 L   I
 OLDACT:UP  16-10-22 14:21 OP:and  STATUS:               ID:20161022001742     3
 OLDACT:UP  16-10-22 13:58 OP:and  STATUS:               ID:20161022001742     3
 OLDACT:REG 16-10-22 12:46 OP:and  STATUS:               ID:20161022001742     3
 2016-10-22-0018-00M.COL___358                                                 6
 STAT SP IPHASW D HRMM SECON CODA AMPLIT PERI AZIMU VELO AIN AR TRES W  DIS CAZ7
 PAM  EZ EP     C  020 22.40                             150   -0.0110 76.3  35 
 PAM  EN ES        020 39.27                             150    0.0710 76.3  35 
 BRR  HZ EP        020 21.66                             149   -0.1410 77.8 298 
 BRR  HN ES        020 38.07                             149   -0.0310 77.8 298 
 RUS  HZ EP        020 23.66                             144   -0.1510 97.2 179 
 RUS  HE ES        020 41.79                             144    0.0910 97.2 179 
 RUS  HZ I         020 43.49         1.8 0.42            143           97.2 179 
 PTB  HZ EP   2    020 28.82                             130    0.96 5  153 260 
 PTB  HN ES        020 48.85                             130   -0.05 9  153 260 
 PTB  HZ I         020 50.42         2.3 0.16            130            153 260 
                                                                                
