 2015 1122 0512 17.8 L   6.806 -73.089144.0  RSN 11 0.4 1.8LRSN                1
 GAP=189        0.96       2.8     5.2  6.1  0.8560E+00  0.5990E+01 -0.1000E+01E
 Epicentro: LOS SANTOS - SANTANDER                                             3
 ACTION:UPD 15-12-28 16:12 OP:cam  STATUS:               ID:20151122051217 L   I
 OLDACT:UP  15-12-01 10:57 OP:ak   STATUS:               ID:20151122051217 L   3
 OLDACT:UP  15-11-22 17:49 OP:ak   STATUS:               ID:20151122045600     3
 OLDACT:REG 15-11-22 15:58 OP:ak   STATUS:               ID:20151122045600     3
 2015-11-22-0455-59S.COL___156                                                 6
 STAT SP IPHASW D HRMM SECON CODA AMPLIT PERI AZIMU VELO AIN AR TRES W  DIS CAZ7
 BAR2 EZ EP        512 37.68                             169    0.4510 25.8 203 
 BAR2 EZ ES        512 51.96                             169   -0.4510 25.8 203 
 BAR2 EZ I         512 53.61         9.9 0.32            169           25.8 203 
 BRR  HZ EP        512 39.76                             150    0.7410 76.4 296 
 BRR  HN ES        512 56.23                             150    0.6210 76.4 296 
 BRR  HZ I         513  0.32        15.0 0.14            149           76.4 296 
 RUS  HZ EP        512 41.60                             143    0.2310  101 180 
 RUS  HE ES        512 59.54                             143   -0.2410  101 180 
 RUS  HZ I         513  1.81         3.7 0.37            145            101 180 
 OCA  HZ EP   2    512 45.61                             129   -0.34 5  160 351 
 OCA  HE ES        513  7.39                             129   -0.55 9  160 351 
 OCA  HZ I         513 11.19        11.5 0.28            130            160 351 
 SPBC HN ES        513  8.66                             128   -0.35 9  168 221 
 ZAR  HZ EP   2    512 50.46                             121   -0.20 4  210 291 
 ZAR  HN ES        513 16.24                             121   -0.09 8  210 291 
 ZAR  HZ I         513 22.31         6.8 0.37            122            210 291 
 NOR  HZ EP   1    512 54.34                             117    0.37 6  240 235 
 NOR  HN ES        513 21.93                             117   -0.29 8  240 235 
 SML  HZ EP        512 53.88                             117   -0.63 8  246 334 
 SML  HN ES        513 23.24                             117    0.06 8  246 334 
 SML  HZ I         513 27.20         6.6 0.13            118            246 334 
 URE  HZ EP   4    513  3.19                             113    3.83 0  289 291 
 URE  HE ES   4    513 29.24                             113   -2.57 0  289 291 
 URE  HZ I         513 33.31         3.9 0.36            113            289 291 
 MON  HZ EP   9    513  5.42                             108   -1.79 0  358 308 
 MON  HE ES        513 43.90                             108   -0.09 6  358 308 
 MON  HZ I         513 44.74         1.1 0.16            109            358 308 
 PRA  HZ EP   1    513 11.51                             106   -0.14 4  396 210 
 PRA  HE ES        513 53.68                             106   -0.00 6  396 210 
 PRA  HZ I         513 59.92         2.6 0.56            107            396 210 
                                                                                
