 2016  422 0157 29.8 L   6.782 -73.164146.5  RSN  5 0.2 1.3LRSN                1
 GAP=275        0.48       3.9     2.8  4.0 -0.8597E+00  0.3787E+01 -0.1969E+01E
 Epicentro: LOS SANTOS - SANTANDER                                             3
 ACTION:UPD 16-05-05 14:23 OP:rebc STATUS:               ID:20160422015729 L   I
 OLDACT:ARG 16-04-22 12:58 OP:cara STATUS:               ID:20160422014746     3
 2016-04-22-0147-46M.COL___316                                                 6
 STAT SP IPHASW D HRMM SECON CODA AMPLIT PERI AZIMU VELO AIN AR TRES W  DIS CAZ7
 BAR2 EZ IP        157 49.50                             172    0.0710 21.0 186 
 BAR2 EZ EP        157 49.53                             172           21.0 186 
 BAR2 EZ ES        158  4.89                             172    0.1210 21.0 186 
 BAR2 EZ I         158  5.82         4.7 0.20            163           21.0 186 
 RUS  HZ EP        157 53.24                             145   -0.2010 98.7 175 
 RUS  HE ES        158 11.94                             145    0.0210 98.7 175 
 RUS  HZ I         158 12.85         2.0 0.22            141           98.7 175 
 PTB  HZ IP        157 56.62                             133    0.05 9  145 259 
 PTB  HN ES        158 17.26                             133   -0.22 9  145 259 
 PTB  HZ I         158 22.85         2.6 0.16            130            145 259 
 SPBC HN ES        158 19.91                             130   -0.19 9  160 219 
 SPBC HZ I         158 30.29         3.5 0.24            127            160 219 
 NOR  HZ EP        158  5.31                             119    0.09 8  232 235 
 NOR  HN ES        158 33.24                             119    0.35 8  232 235 
 NOR  HZ I         158 38.56         2.1 0.24            118            232 235 
                                                                                
