 2011  422 0050 17.9 L   6.774 -73.140144.0  RSN 10 0.3 1.8LRSN                1
 GAP=139        0.67       3.2     4.6  5.8 -0.6456E+01  0.1791E+01  0.3007E+01E
 Epicentro: LOS SANTOS - SANTANDER                                             3
 ACTION:UP  11-06-22 15:32 OP:REBC STATUS:               ID:20110422005017 L   I
 2011-04-22-0049-31S.COL___139                                                 6
 STAT SP IPHASW D HRMM SECON CODA AMPLIT PERI AZIMU VELO SNR AR TRES W  DIS CAZ7
 BAR2 SZ IP        050 37.31                             171     0.010   21 193 
 BAR2 SZ I         050 53.16        15.9 0.46                            21 193 
 GIR2 SZ EP   3    050 37.35                             166    -0.1 2   34 350 
 GIR2 SZ ES   3    050 51.39                             166    -1.3 2   34 350 
 BRR  HZ EP        050 39.16                             152     0.210   73 300 
 BRR  HN ES   1    050 56.03                             152     0.6 7   73 300 
 BRR  HZ I         050 57.17        12.4 0.02                            73 300 
 PAM  SZ EP        050 40.15                             150     0.110   79  38 
 PAM  SZ I         050 40.38         6.7 0.17                            79  38 
 PAM  SN ES   1    050 57.37                             150     0.1 7   79  38 
 RUS  HZ EP        050 41.38                             145     0.110   98 176 
 RUS  HN ES   2    050 59.25                             145    -0.2 5   98 176 
 RUS  HZ I         051  1.33         6.5 0.49                            98 176 
 BRI  SZ EP        050 41.89                             141     0.110  111  20 
 GRA  SZ EP        050 43.08                             136    -0.110  128  17 
 GRA  SZ ES   1    051  2.88                             136    -0.1 7  128  17 
 GRA  SZ I         051  5.21        10.1 0.34                           128  17 
 OCA  SZ EP        050 45.99                             129    -0.4 9  163 353 
 OCA  SZ ES   1    051  8.43                             129    -0.1 7  163 353 
 OCA  SZ I         051 13.78        10.4 0.12                           163 353 
 NOR  SZ EP        050 53.37                             119     0.0 8  234 235 
 NOR  SN ES   1    051 20.54                             119    -0.6 6  234 235 
 HEL  HZ EP   3    050 59.00                             115     1.0 2  272 256 
 HEL  HZ I         051 37.87         4.2 0.23                           272 256 
                                                                                
