 2015  322 0438 33.7 L   6.085 -74.016  4.0  RSN  7 0.7 1.4LRSN                1
 GAP=136        1.67       4.0     3.2 13.0 -0.2478E+01 -0.1361E+02 -0.9736E+01E
 Epicentro: EL PENON - SANTANDER                                               3
 ACTION:UPD 15-04-30 16:28 OP:nd   STATUS:               ID:20150322043833 L   I
 OLDACT:DUP 15-03-22 14:29 OP:stll STATUS:               ID:20150322042745d    3
 2015-03-22-0427-44M.COL___269                                                 6
 STAT SP IPHASW D HRMM SECON CODA AMPLIT PERI AZIMU VELO AIN AR TRES W  DIS CAZ7
 PTB  HZ IP     D  438 44.68                              90   -0.2210 70.0 316 
 PTB  HZ I         438 44.79        29.8 0.14             47           70.0 316 
 PTB  HN ES        438 53.23                              90   -0.4210 70.0 316 
 RUS  HZ EP     C  438 50.76                              90   -0.0110  105 102 
 RUS  HZ I         438 51.73         3.8 0.24             47            105 102 
 RUS  HE ES        439  2.94                              90   -1.1510  105 102 
 NOR  HZ EP        438 51.79                              90    0.6910  111 239 
 NOR  HN ES        439  4.44                              90   -0.2510  111 239 
 NOR  HZ I         439  6.20         9.9 0.20             47            111 239 
 BRR  HZ IP     C  438 52.51                              90    0.3610  118  17 
 BRR  HE ES        439  6.70                              90    0.1510  118  17 
 BRR  HZ I         439  9.71         6.9 0.50             47            118  17 
 HEL  HZ EP        438 59.91                              90   -0.18 9  168 274 
 HEL  HN ES        439 19.65                              90   -1.04 9  168 274 
 HEL  HZ I         439 22.98         4.9 0.24             47            168 274 
 GUY2CHZ EP        439  2.93                              90    1.32 9  177 238 
 GUY2CHE ES        439 23.35                              90   -0.04 9  177 238 
 GUY2CHZ I         439 26.30         1.8 0.22                           177 238 
 PAM  SZ EP        439  5.81                              56    1.14 9  201  46 
 PAM  SN ES        439 28.87                              56    0.03 9  201  46 
 PAM  SZ I         439 32.99         6.9 0.22             37            201  46 
                                                                                
