 2017 1022 0447 38.9 L   6.029 -74.215 85.7  RSN  4 0.2 1.0LRSN                1
 GAP=175        0.67       3.0     3.9  6.9  0.5741E+00 -0.7621E+01 -0.8744E+01E
 Epicentro: LA BELLEZA - SANTANDER                                             3
 ACTION:UPD 17-11-07 19:35 OP:rebc STATUS:               ID:20171022044738 L   I
 OLDACT:DUP 17-10-22 16:28 OP:dani STATUS:               ID:20171022043737d    3
 OLDACT:REG 17-10-22 13:46 OP:dani STATUS:               ID:20171022043736     3
 2017-10-22-0438-00M.COL___414                                                 6
 STAT SP IPHASW D HRMM SECON CODA AMPLIT PERI AZIMU VELO AIN AR TRES W  DIS CAZ7
 SPBC HZ EP        447 52.34                             150    0.1710 44.6 159 
 SPBC HN ES        448  2.59                             150    0.0610 44.6 159 
 SPBC HZ I         448  4.06         4.1 0.09            152           44.6 159 
 PTB  HZ EP        447 53.11                             141   -0.2010 62.4 335 
 PTB  HE ES        448  4.44                             141   -0.1210 62.4 335 
 PTB  HZ I         448  5.16         2.1 0.10            143           62.4 335 
 BAR2 EZ ES        448 16.32                             119   -0.3510  130  61 
 BRR  HZ EP        447 59.95                             118   -0.0210  132  25 
 BRR  HN ES        448 16.87                             118    0.4710  132  25 
 BRR  HZ I         448 18.31         2.5 0.60            120            132  25 
                                                                                
