 2012 1122 0713 25.7 L   6.821 -73.135145.0  RSN  5 0.2 1.4LRSN                1
 GAP=245        0.38       5.3     4.3  4.2  0.1660E+02  0.3729E+01  0.1864E+01E
 Epicentro: LOS SANTOS - SANTANDER                                             3
 ACTION:UPD 12-12-05 15:35 OP:}ep  STATUS:               ID:20121122071325 L   I
 2012-11-22-0710-00M.COL___234                                                 6
 STAT SP IPHASW D HRMM SECON CODA AMPLIT PERI AZIMU VELO AIN AR TRES W  DIS CAZ7
 BAR2 SZ EP   2    713 45.54                             169    0.28 5 25.8 192 
 BAR2 SZ ES   1    714  0.49                             169   -0.05 7 25.8 192 
 BAR2 SZ I         714  2.07         6.6 0.23                          25.8 192 
 RUS  HZ EP   1    713 49.41                             143   -0.09 7  103 177 
 RUS  HN ES   1    714  8.13                             143    0.03 7  103 177 
 RUS  HN I         714  9.30         2.6 0.23                           103 177 
 PTB  HZ EP   1    713 52.41                             131   -0.31 7  149 258 
 PTB  HN ES   1    714 13.82                             131    0.00 7  149 258 
 PTB  HZ I         714 18.37         2.0 0.16                           149 258 
 ZAR  HN ES   1    714 23.52                             122    0.15 6  204 291 
 ZAR  HN I         714 31.31         3.0 0.18                           204 291 
 CHI  HZ EP   1    714  3.81                             117    0.21 6  251 195 
                                                                                
