 2012  222 0036 35.7 L   6.761 -73.210147.4  RSN  4 0.3 1.3LRSN                1
 GAP=169        0.50       6.3     6.8  8.0  0.2322E+02 -0.1372E+01 -0.9521E+01E
 ACTION:UP  12-03-07 16:32 OP:epov STATUS:               ID:20120222003635 L   I
 2012-02-22-0030-00M.COL___191                                                 6
 STAT SP IPHASW D HRMM SECON CODA AMPLIT PERI AZIMU VELO AIN AR TRES W  DIS CAZ7
 GIR2 SZ EP   2    036 55.33                             166   -0.37 5 35.2   3 
 BRR  HZ EP   2    036 56.48                             154   -0.36 5 67.4 305 
 BRR  HN ES   2    037 13.75                             154    0.44 5 67.4 305 
 BRR  HZ I         037 15.77         7.0 0.43                          67.4 305 
 RUS  HZ EP   1    036 59.61                             145    0.23 7 97.0 172 
 RUS  HN ES   1    037 17.72                             145   -0.11 7 97.0 172 
 RUS  HZ I         037 19.30         1.9 0.30                          97.0 172 
 PTB  HZ EP   1    037  2.31                             134    0.18 7  140 260 
 PTB  HN ES   2    037 22.37                             134   -0.36 5  140 260 
                                                                                
