 2012  322 0546 35.1 L   6.694 -73.241155.8  RSN  5 0.3 1.4LRSN                1
 GAP=199        0.77      10.0     8.3 10.1  0.3830E+02  0.1403E+02 -0.3540E+01E
 ACTION:UP  12-03-31 23:21 OP:EP   STATUS:               ID:20120322054635 L   I
 2012-03-22-0540-00M.COL___202                                                 6
 STAT SP IPHASW D HRMM SECON CODA AMPLIT PERI AZIMU VELO SNR AR TRES W  DIS CAZ7
 BAR2 SZ EP        546 55.66                             175    -0.210   13 150 
 BAR2 SZ ES   2    547 11.50                             175    -0.4 5   13 150 
 BAR2 SZ I         547 11.89         7.8 0.28                            13 150 
 BRR  HZ EP        546 57.70                             155     0.410   69 311 
 BRR  HZ I         546 59.37         6.5 0.16                            69 311 
 BRR  HN ES   2    547 14.25                             155    -0.3 5   69 311 
 RUS  HZ EP   2    546 59.46                             149     0.3 5   90 169 
 RUS  HE ES   2    547 18.36                             149     0.4 5   90 169 
 RUS  HZ I         547 20.33         2.6 0.32                            90 169 
 PTB  HZ EP        547  1.50                             137    -0.4 9  136 263 
 PTB  HN ES   2    547 23.05                             137     0.3 5  136 263 
 PTB  HZ I         547 30.39         3.0 0.31                           136 263 
 ZAR  HN ES   2    547 33.30                             125     0.1 4  199 296 
                                                                                
