 2010 1122 0456 44.1 L   6.774 -73.063147.9  RSN  6 0.2 2.0LRSN                1
 GAP=168        0.62       3.4     7.5  5.7  0.5482E+01 -0.1870E+02 -0.4212E+01E
 Epicentro: LOS SANTOS - SANTANDER                                             3
 ACTION:UP  10-12-17 16:54 OP:REBC STATUS:               ID:20101122045644 L   I
 2010-11-22-0453-50S.COL___129                                                 6
 STAT SP IPHASW D HRMM SECON CODA AMPLIT PERI AZIMU VELO SNR AR TRES W  DIS CAZ7
 BAR2 SZ EP   1    457  3.96                             170     0.0 7   24 214 
 BAR2 SZ ES   1    457 19.60                             170     0.1 7   24 214 
 BAR2 SZ I         457 20.55        34.7 0.27                            24 214 
 BRR  HZ IP     D  457  5.81                             150    -0.210   81 297 
 BRR  HZ I         457  5.98        44.8 0.14                            81 297 
 BRR  HE ES        457 23.20                             150     0.110   81 297 
 RUS  HZ EP   1    457  8.06                             145     0.3 7   98 181 
 RUS  HE ES   1    457 25.97                             145    -0.4 7   98 181 
 RUS  HZ I         457 27.63        14.8 0.37                            98 181 
 GRA  SZ EP        457  9.74                             137     0.210  126  13 
 GRA  SZ I         457 30.58        10.6 0.34                           126  13 
 OCA  SZ EP   1    457 12.49                             129    -0.4 7  164 350 
 OCA  SZ I         457 39.69         9.8 0.25                           164 350 
 CHI  HZ EP   1    457 21.96                             118     0.1 6  248 197 
 CHI  HZ I         457 22.49         3.3 0.09                           248 197 
 CHI  HN ES   2    457 51.46                             118     0.1 4  248 197 
                                                                                
