 2011  122 0936 17.3 L   6.801 -73.103147.1  RSN 11 0.5 2.3LRSN                1
 GAP=129        0.95       4.0     6.8  7.4 -0.1200E+02  0.1490E+02 -0.1528E+00E
 Epicentro: LOS SANTOS - SANTANDER                                             3
 ACTION:UP  11-02-08 08:42 OP:pat  STATUS:               ID:20110122093617 L   I
 2011-01-22-0932-10S.COL___138                                                 6
 STAT SP IPHASW D HRMM SECON CODA AMPLIT PERI AZIMU VELO SNR AR TRES W  DIS CAZ7
 BAR2 SZ IP        936 37.19                             170     0.010   25 201 
 BAR2 SZ ES   1    936 52.46                             170    -0.1 7   25 201 
 BAR2 SZ I         936 53.99        65.4 0.36                            25 201 
 RUS  HZ IP     D  936 41.09                             144    -0.110  101 179 
 RUS  HN ES   1    936 59.85                             144     0.0 7  101 179 
 RUS  HZ I         937  1.16        17.8 0.32                           101 179 
 GRA  SZ EP   1    936 43.14                             138     0.6 7  124  15 
 GRA  SZ ES   1    937  1.90                             138    -0.3 7  124  15 
 GRA  SZ I         937  7.39        16.1 0.37                           124  15 
 OCA  SZ EP   1    936 45.75                             130     0.0 7  161 351 
 OCA  SZ ES   1    937  8.52                             130     0.5 7  161 351 
 OCA  SZ I         937 12.42        22.2 0.45                           161 351 
 NOR  SZ EP   1    936 52.98                             118    -0.6 6  239 235 
 NOR  SN ES   1    937 21.03                             118    -0.8 6  239 235 
 CHI  HZ EP   1    936 55.27                             117     0.0 6  250 196 
 CHI  HE ES   1    937 25.06                             117     0.2 6  250 196 
 CHI  HZ I         937 30.02         9.9 0.57                           250 196 
 ROSC BZ EP   1    936 56.45                             117     0.7 6  255 212 
 ROSC BZ I         937 32.10        26.6 0.48                           255 212 
 HEL  HZ EP   1    936 57.67                             115    -0.4 6  277 256 
 HEL  HE ES   2    937 29.52                             115    -0.4 4  277 256 
 HEL  HZ I         937 36.71        13.7 0.29                           277 256 
 RREF HZ EP   1    937  4.42                             111     0.5 5  325 230 
 RREF HE ES   1    937 41.08                             111     0.8 5  325 230 
 RREF HZ I         937 47.77        12.4 0.29                           325 230 
 SDV  BZ EP   1    937  5.92                             109    -1.1 5  357  50 
 SDV  BZ I         937  7.54         3.1 0.39                           357  50 
 SJA  SZ EP   2    937 12.58                             106     0.5 3  401 194 
 SJA  SZ I         938  1.35        16.3 0.58                           401 194 
                                                                                
