 2016  322 0204 19.8 L   6.807 -73.161141.1  RSN 11 0.4 1.7LRSN                1
 GAP=134        0.87       2.8     3.6  5.4 -0.3072E+01  0.7702E+01 -0.7303E+00E
 Epicentro: LOS SANTOS - SANTANDER                                             3
 ACTION:UPD 16-05-13 21:26 OP:cam  STATUS:               ID:20160322020419 L   I
 OLDACT:REG 16-03-22 12:47 OP:ak   STATUS:               ID:20160322015744     3
 2016-03-22-0157-44M.COL___308                                                 6
 STAT SP IPHASW D HRMM SECON CODA AMPLIT PERI AZIMU VELO AIN AR TRES W  DIS CAZ7
 BAR2 EZ EP        2 4 39.00                             170    0.1110 23.9 186 
 BAR2 EZ ES        2 4 53.91                             170    0.1310 23.9 186 
 BAR2 EZ I         2 4 54.98         9.1 0.18            169           23.9 186 
 PAM  EZ EP        2 4 41.93                             150    0.3710 77.9  41 
 PAM  EN ES        2 4 58.54                             150    0.0110 77.9  41 
 PAM  EZ I         2 5  0.93        12.4 0.48            146           77.9  41 
 RUS  HZ EP        2 4 42.82                             142   -0.3510  102 175 
 RUS  HN ES        2 5  1.42                             142    0.0210  102 175 
 RUS  HZ I         2 5  3.20         5.1 0.44            140            102 175 
 PTB  HZ EP        2 4 45.66                             131   -0.60 9  146 258 
 PTB  HN ES        2 5  6.10                             131   -0.80 9  146 258 
 PTB  HZ I         2 5 10.77         5.2 0.16            124            146 258 
 OCA  HZ EP        2 4 47.35                             129   -0.32 9  159 354 
 OCA  HN ES        2 5  9.29                             129   -0.10 9  159 354 
 OCA  HZ I         2 5 13.18        11.7 0.18            122            159 354 
 SPBC HZ EP        2 4 48.18                             128    0.27 9  163 218 
 SPBC HN ES        2 5  9.97                             128    0.14 9  163 218 
 SPBC HZ I         2 5 13.36         8.3 0.07            122            163 218 
 ZAR  HZ EP   2    2 4 52.13                             122    0.37 4  202 292 
 ZAR  HN ES        2 5 17.42                             122    0.74 9  202 292 
 ZAR  HZ I         2 5 25.39         4.5 0.18            115            202 292 
 NOR  HZ EP        2 4 55.07                             118   -0.10 8  234 234 
 NOR  HN ES        2 5 23.02                             118    0.26 8  234 234 
 NOR  HZ I         2 5 24.98         3.7 0.19            112            234 234 
 CHI  HN ES   2    2 5 26.52                             116   -0.01 4  249 195 
 HEL  HZ EP   2    2 4 59.35                             114   -0.28 4  271 256 
 HEL  HZ I         2 5 37.96         3.1 0.46            109            271 256 
 GUY2CHZ EP        2 5  3.65                             111    0.55 7  300 234 
 GUY2CHN ES        2 5 36.87                             111   -0.00 7  300 234 
 GUY2CHZ I         2 5 44.47         2.2 0.24                           300 234 
 SJC  HZ EP   4    2 5 13.77                             105   -1.26 0  408 327 
 SJC  HE ES   4    2 5 55.72                             105   -2.39 0  408 327 
                                                                                
