 2010  922 0642  0.9 L   6.799 -73.025135.8  RSN  8 0.4 1.8LRSN                1
 GAP=172        0.91       3.9     9.7  8.2 -0.8731E+01 -0.1550E+02 -0.3282E+01E
 Epicentro: CEPITA - SANTANDER                                                 3
 ACTION:UP  11-02-18 11:04 OP:tino STATUS:               ID:20100922064200 L   I
 2010-09-22-0639-19S.COL___122                                                 6
 STAT SP IPHASW D HRMM SECON CODA AMPLIT PERI AZIMU VELO SNR AR TRES W  DIS CAZ7
 BAR2 SZ EP        642 19.32                             168    -0.210   29 217 
 BAR2 SZ ES   1    642 33.94                             168     0.0 7   29 217 
 BAR2 SZ I         642 35.72        21.1 0.30                            29 217 
 BTL  SZ EP        642 19.68                             167     0.210   30 296 
 BRR  HZ IP     C  642 21.23                             147    -0.510   83 294 
 BRR  HZ I         642 21.59        21.3 0.11                            83 294 
 BRR  HN ES   1    642 38.33                             147     0.3 7   83 294 
 RUS  HZ EP   2    642 23.43                             142    -0.3 5  100 184 
 RUS  HN ES   1    642 41.26                             142    -0.2 7  100 184 
 RUS  HZ I         642 42.68         6.1 0.32                           100 184 
 GUE  SZ EP   1    642 25.21                             138     0.6 7  115   6 
 GRA  SZ EP        642 25.24                             135     0.210  123  11 
 GRA  SZ I         642 26.66        10.3 0.21                           123  11 
 GRA  SZ ES   1    642 43.78                             135     0.0 7  123  11 
 OCA  SZ EP   1    642 28.05                             127    -0.6 7  163 348 
 OCA  SZ ES   2    642 50.72                             127     0.4 5  163 348 
 OCA  SZ I         642 56.04        10.9 0.45                           163 348 
 CHI  HZ EP   2    642 39.01                             115     0.5 4  252 198 
 CHI  HN ES   1    643  8.39                             115     0.6 6  252 198 
 CHI  HZ I         643 13.72         2.5 0.22                           252 198 
                                                                                
