 2011 1222 0614 33.1 L   6.709 -73.197148.4  RSN  4 0.2 1.5LRSN                1
 GAP=224        0.46       6.9     5.6  5.2  0.1842E+02  0.4006E+01  0.9774E+01E
 Epicentro: VILLANUEVA - SANTANDER                                             3
 ACTION:UPD 12-07-13 16:17 OP:ep   STATUS:               ID:20111222061433 L   I
 2011-12-22-0610-00M.COL___191                                                 6
 STAT SP IPHASW D HRMM SECON CODA AMPLIT PERI AZIMU VELO AIN AR TRES W  DIS CAZ7
 BAR2 SZ EP        614 52.59                             174   -0.3010 13.0 173 
 BAR2 SZ ES   1    615  8.48                             174    0.16 7 13.0 173 
 BAR2 SZ I         615  9.26         5.7 0.16                          13.0 173 
 BRR  HZ EP        614 54.67                             153    0.0910 72.0 308 
 BRR  HE ES   1    615 11.30                             153   -0.03 7 72.0 308 
 BRR  HZ I         615 14.62         8.8 0.17                          72.0 308 
 RUS  HZ EP   1    614 56.64                             147    0.18 7 91.1 172 
 RUS  HZ I         615 17.11         3.1 0.26                          91.1 172 
 PTB  HZ EP   1    614 59.78                             134    0.14 7  140 262 
 PTB  HN ES   2    615 20.14                             134   -0.20 5  140 262 
                                                                                
