 2011  822 0827 59.8 L   6.793 -73.050143.4  RSN  6 0.2 1.6LRSN                1
 GAP=193        0.48       2.5     4.2  4.6 -0.6677E+00  0.4062E+01 -0.1297E+01E
 Epicentro: LOS SANTOS - SANTANDER                                             3
 ACTION:UPD 12-07-13 15:53 OP:ep   STATUS:               ID:20110822082759 L   I
 2011-08-22-0824-39S.COL___153                                                 6
 STAT SP IPHASW D HRMM SECON CODA AMPLIT PERI AZIMU VELO AIN AR TRES W  DIS CAZ7
 BAR2 SZ EP   1    828 19.09                             169   -0.13 7 26.6 213 
 BAR2 SZ ES   1    828 34.40                             169    0.04 7 26.6 213 
 BAR2 SZ I         828 35.68         9.2 0.17                          26.6 213 
 BRR  HZ EP   1    828 20.82                             149   -0.46 7 81.0 295 
 BRR  HN ES   1    828 37.77                             149   -0.26 7 81.0 295 
 BRR  HZ I         828 42.40         9.1 0.16                          81.0 295 
 RUS  HZ EP   1    828 23.26                             143    0.01 7 99.6 182 
 RUS  HN ES   1    828 41.73                             143    0.19 7 99.6 182 
 RUS  HZ I         828 42.49         4.9 0.35                          99.6 182 
 OCA  SZ EP   1    828 28.27                             129    0.12 7  163 349 
 OCA  SZ ES   1    828 50.64                             129    0.38 7  163 349 
 NOR  SN ES   1    829  4.80                             117    0.06 6  243 236 
 HEL  HZ EP   1    828 41.17                             113    0.15 6  282 256 
 HEL  HN ES   2    829 13.54                             113    0.37 4  282 256 
 HEL  HZ I         829 18.58         2.9 0.37                           282 256 
                                                                                
