 2017  922 0251 14.5 L   6.796 -73.111137.2  RSN  6 0.4 1.8LRSN                1
 GAP=115        1.06       4.7     5.3  6.9  0.1139E+02  0.4804E+01  0.3704E+01E
 Epicentro: LOS SANTOS - SANTANDER                                             3
 ACTION:UPD 17-10-05 19:15 OP:rebc STATUS:               ID:20170922025114 L   I
 OLDACT:UP  17-10-03 13:21 OP:nlst STATUS:               ID:20170922025114 L   3
 OLDACT:UP  17-09-22 17:44 OP:leo  STATUS:               ID:20170922024741     3
 OLDACT:REG 17-09-22 13:55 OP:y    STATUS:               ID:20170922024741     3
 2017-09-22-0248-00M.COL___444                                                 6
 STAT SP IPHASW D HRMM SECON CODA AMPLIT PERI AZIMU VELO AIN AR TRES W  DIS CAZ7
 BAR2 EZ EP        251 32.82                             170   -0.2810 23.9 199 
 BAR2 EZ ES        251 47.27                             170   -0.3510 23.9 199 
 BAR2 EZ I         251 49.91         8.7 0.28            169           23.9 199 
 BRR  HZ EP        251 34.57                             150   -0.3610 74.8 297 
 BRR  HN ES        251 51.46                             150    0.5810 74.8 297 
 BRR  HZ I         251 55.05         8.9 0.30            150           74.8 297 
 PAM  EZ EP        251 35.53                             150   -0.1410 75.4  37 
 PAM  EE ES        251 52.33                             150    0.1310 75.4  37 
 PAM  EZ I         251 54.41        16.1 0.48            153           75.4  37 
 RUS  HZ EP        251 37.06                             142   -0.3010 99.9 178 
 RUS  HN ES        251 54.91                             142   -0.2910 99.9 178 
 RUS  HZ I         251 56.85        12.8 0.24            144           99.9 178 
 TAM  HZ EP   4    251 41.11                             129   -0.03 0  151 105 
 TAM  HE ES   4    251 55.17                             129   -6.76 0  151 105 
 YPLC HZ EP        251 43.29                             125   -0.16 9  175 152 
 YPLC HN ES        252  7.05                             125    1.00 9  175 152 
 YPLC HZ I         252  9.81        10.2 0.28            127            175 152 
 ZAR  HZ EP        251 47.25                             120    0.47 8  208 292 
 ZAR  HN ES        252 11.95                             120   -0.02 8  208 292 
 ZAR  HZ I         252 16.13         6.0 0.10            122            208 292 
                                                                                
