 2012  222 0627  7.2 L   6.757 -73.168150.0  RSN  7 0.4 1.3LRSN                1
 GAP=179        0.69       5.2     5.5  6.1  0.4758E+01  0.5929E+01  0.9625E+01E
 ACTION:UP  12-03-07 16:33 OP:epov STATUS:               ID:20120222062707 L   I
 2012-02-22-0620-00M.COL___191                                                 6
 STAT SP IPHASW D HRMM SECON CODA AMPLIT PERI AZIMU VELO AIN AR TRES W  DIS CAZ7
 BAR2 SZ EP   1    627 26.79                             173   -0.45 7 18.3 185 
 BAR2 SZ ES   1    627 42.92                             173    0.03 7 18.3 185 
 BAR2 SZ I         627 44.61         4.5 0.24                          18.3 185 
 GIR2 SZ EP   1    627 28.19                             166    0.70 7 35.7 356 
 GIR2 SZ ES   1    627 43.02                             166   -0.31 7 35.7 356 
 BRR  HZ EP   1    627 28.66                             153   -0.16 7 71.5 303 
 BRR  HE ES   1    627 46.12                             153    0.44 7 71.5 303 
 BRR  HZ I         627 50.48         4.6 0.14                          71.5 303 
 RUS  HZ EP   1    627 31.12                             146    0.07 7 96.0 174 
 RUS  HN ES   1    627 49.60                             146   -0.05 7 96.0 174 
 RUS  HZ I         627 50.49         2.0 0.24                          96.0 174 
 PTB  HZ EP   1    627 33.90                             134   -0.31 7  144 260 
 PTB  HN ES   1    627 54.97                             134   -0.32 7  144 260 
 NOR  SE ES   2    628 10.94                             120    0.61 4  230 235 
 CHI  HZ EP   1    627 44.74                             119    0.18 6  243 195 
 CHI  HZ I         628 17.99         1.1 0.42                           243 195 
                                                                                
