 2013  622 0315  0.5 L   6.821 -73.146146.6  RSN 12 0.5 2.1LRSN                1
 GAP=183        1.00       3.4     5.5  6.0 -0.2836E+01  0.1008E+02  0.2340E+01E
 Epicentro: LOS SANTOS - SANTANDER                                             3
 ACTION:UPD 14-01-08 09:56 OP:ep   STATUS:               ID:20130622031500 L   I
 OLDACT:REG 13-06-22 08:43 OP:carl STATUS:               ID:20130622030959     3
 2013-06-22-0309-59M.COL___267                                                 6
 STAT SP IPHASW D HRMM SECON CODA AMPLIT PERI AZIMU VELO AIN AR TRES W  DIS CAZ7
 BAR2 SZ IP     C  315 20.21                             170   -0.0710 25.6 189 
 BAR2 SZ ES   1    315 35.15                             170   -0.56 7 25.6 189 
 BAR2 SZ I         315 36.37        37.6 0.22            169           25.6 189 
 GIR2 SZ IP     C  315 20.29                             168    0.0810 29.0 350 
 GIR2 SZ ES        315 36.05                             168    0.4610 29.0 350 
 GIR2 SZ I         315 36.60        12.0 0.22            163           29.0 350 
 BRR  HZ IP     C  315 21.95                             153    0.2710 70.1 297 
 BRR  HE ES   1    315 38.80                             153    0.61 7 70.1 297 
 BRR  HZ I         315 42.81        20.3 0.24            147           70.1 297 
 RUS  HZ EP        315 24.34                             144   -0.1610  103 176 
 RUS  HN ES   1    315 43.20                             144   -0.03 7  103 176 
 RUS  HZ I         315 43.91        17.7 0.26            147            103 176 
 PTB  HZ EP        315 26.81                             132   -0.77 9  148 258 
 PTB  HN ES   1    315 47.99                             132   -0.70 7  148 258 
 PTB  HZ I         315 49.76        21.5 0.60            130            148 258 
 OCA  HZ EP   2    315 28.78                             130    0.12 5  158 353 
 OCA  HE ES   1    315 51.13                             130    0.51 7  158 353 
 OCA  HZ I         315 58.63        11.1 0.22            129            158 353 
 NOR  HZ EP   1    315 36.05                             119   -0.37 6  236 234 
 NOR  HN ES   1    316  4.22                             119   -0.22 6  236 234 
 NOR  HZ I         316 13.30         7.7 0.36            118            236 234 
 SML  HZ EP        315 36.52                             118   -0.42 8  242 335 
 SML  HN ES   1    316  4.44                             118   -0.92 6  242 335 
 SML  HZ I         316 13.90        14.6 0.20            117            242 335 
 CHI  HZ EP   1    315 38.38                             117   -0.11 6  251 195 
 CHI  HN ES   1    316  7.52                             117   -0.60 6  251 195 
 CHI  HZ I         316 10.03         8.5 0.38            118            251 195 
 ROSC BZ EP   2    315 39.77                             117    0.89 4  255 211 
 ROSC BN ES        316  9.24                             117    0.42 8  255 211 
 HEL  HZ EP   1    315 41.85                             115    1.03 6  273 255 
 HEL  HN ES   1    316 12.27                             115    0.01 6  273 255 
 HEL  HZ I         316 19.72         4.7 0.20            114            273 255 
 GUY2CHZ EP   1    315 45.22                             113    0.92 5  303 234 
 GUY2CHN ES   1    316 19.24                             113    0.78 5  303 234 
 GUY2CHZ I         316 26.43         5.1 0.38                           303 234 
                                                                                
