 2016 1222 0640 23.5 L   6.643 -73.192135.5  RSN  4 0.1 1.1LRSN                1
 GAP=217        0.37       2.7     2.7  3.0  0.3634E+01  0.1556E+01  0.6161E+00E
 Epicentro: BARICHARA - SANTANDER                                              3
 ACTION:UPD 17-01-11 20:17 OP:rebc STATUS:               ID:20161222064023 L   I
 OLDACT:REG 16-12-22 13:05 OP:cog  STATUS:               ID:20161222063741     3
 2016-12-22-0638-00M.COL___362                                                 6
 STAT SP IPHASW D HRMM SECON CODA AMPLIT PERI AZIMU VELO AIN AR TRES W  DIS CAZ7
 BAR2 EZ EP        640 41.72                             177    0.0610 5.69 169 
 BAR2 EZ ES        640 55.63                             177   -0.1910 5.69 169 
 BAR2 EZ I         640 57.26         4.1 0.14            167           5.69 169 
 BRR  HZ EP        640 43.83                             149   -0.0910 77.1 312 
 BRR  HE ES        641  0.01                             149    0.1810 77.1 312 
 BRR  HZ I         641  1.03         3.9 0.16            147           77.1 312 
 RUS  HZ EP        640 45.10                             147    0.0410 83.8 172 
 RUS  HN ES        641  1.95                             147    0.0810 83.8 172 
 RUS  HZ I         641  4.77         1.6 0.36            143           83.8 172 
 PTB  HZ EP        640 48.91                             131   -0.05 9  140 265 
 PTB  HN ES        641  8.78                             131   -0.03 9  140 265 
 PTB  HZ I         641 16.79         1.5 0.46            128            140 265 
                                                                                
