 2016  822 0457  5.8 L   6.803 -73.130143.1  RSN 21 0.5 2.3LRSN                1
 GAP=101        0.98       3.0     2.4  4.4 -0.1067E+01  0.2465E+01  0.2103E+01E
 Epicentro: LOS SANTOS - SANTANDER                                             3
 ACTION:UPD 16-10-29 15:37 OP:rebc STATUS:               ID:20160822045705 L   I
 OLDACT:REG 16-08-22 13:37 OP:ak   STATUS:               ID:20160822044734     3
 2016-08-22-0448-00M.COL___368                                                 6
 STAT SP IPHASW D HRMM SECON CODA AMPLIT PERI AZIMU VELO AIN AR TRES W  DIS CAZ7
 BAR2 EZ IP     C  457 25.20                             170    0.0610 24.0 194 
 BAR2 EZ ES        457 40.70                             170    0.4910 24.0 194 
 BAR2 EZ I         457 42.30        26.8 0.33                          24.0 194 
 BRR  HZ IP     C  457 26.99                             152    0.2310 72.6 298 
 BRR  HN ES        457 43.60                             152    0.5110 72.6 298 
 BRR  HZ I         457 49.10        33.9 0.14                          72.6 298 
 PAM  EZ EP        457 28.19                             151    0.5210 76.1  39 
 PAM  EN ES        457 44.60                             151   -0.1210 76.1  39 
 PAM  EZ I         457 45.53        36.1 0.28                          76.1  39 
 RUS  HZ EP        457 29.14                             143   -0.1810  101 177 
 RUS  HE ES        457 47.43                             143   -0.2210  101 177 
 RUS  HZ I         457 49.08        18.3 0.30                           101 177 
 PTB  HZ EP   2    457 32.05                             131   -0.68 5  149 259 
 PTB  HN ES        457 52.79                             131   -0.93 9  149 259 
 PTB  HZ I         457 56.16        25.5 0.18                           149 259 
 TAM  HZ EP        457 33.62                             130    0.48 9  154 105 
 TAM  HN ES        457 54.14                             130   -0.31 9  154 105 
 TAM  HZ I         457 55.66        21.6 0.28                           154 105 
 SPBC HZ EP        457 34.14                             128   -0.10 9  164 219 
 SPBC HN ES        457 55.95                             128   -0.45 9  164 219 
 SPBC HZ I         458  2.73        31.6 0.06                           164 219 
 ZAR  HZ EP        457 37.68                             122   -0.56 8  206 292 
 ZAR  HN ES        458  3.43                             122   -0.11 8  206 292 
 ZAR  HZ I         458  8.85        39.6 0.36                           206 292 
 NOR  HZ EP        457 41.69                             118    0.13 8  236 235 
 NOR  HN ES        458  8.84                             118   -0.60 8  236 235 
 NOR  HZ I         458 12.13        21.9 0.22                           236 235 
 CHI  HZ EP        457 43.94                             116    0.49 8  249 196 
 CHI  HN ES        458 12.39                             116   -0.41 8  249 196 
 CHI  HZ I         458 17.08         5.8 0.35                           249 196 
 ROSC BZ EP        457 43.26                             116   -0.66 8  254 211 
 ROSC BN ES        458 14.50                             116    0.87 8  254 211 
 ROSC BZ I         458 20.04        11.6 0.25                           254 211 
 HEL  HZ EP   4    457 47.62                             114    1.53 0  274 256 
 HEL  HN ES        458 18.01                             114    0.51 8  274 256 
 HEL  HZ I         458 23.43        13.0 0.42                           274 256 
 URE  HZ EP   2    457 46.01                             113   -0.92 4  285 292 
 URE  HE ES   4    458 17.21                             113   -1.78 0  285 292 
 URE  HZ I         458 29.34        14.9 0.16                           285 292 
 SOCV BZ EP        457 47.91                             112   -0.66 7  300  57 
 SOCV BN ES   4    458 19.14                             112   -2.77 0  300  57 
 GUY2CHZ EP   2    457 50.02                             112    0.54 4  303 235 
 GUY2CHN ES        458 23.76                             112    0.22 7  303 235 
 GUY2CHZ I         458 32.96         7.3 0.24                           303 235 
 PTGC HZ EP   2    457 49.99                             111    0.47 4  308 159 
 PTGC HN ES   4    458 21.69                             111   -1.91 0  308 159 
 PTGC HZ I         458 24.45        10.2 0.34                           308 159 
 CBOC HZ EP        457 53.26                             109    0.44 7  335 252 
 CBOC HN ES        458 29.56                             109    0.08 7  335 252 
 CBOC HZ I         458 35.37         6.1 0.88                           335 252 
 DBB  EZ EP        457 53.19                             109   -0.19 7  341 274 
 DBB  EZ ES        458 30.78                             109    0.30 7  341 274 
 DBB  EZ I         458 37.57         3.3 0.23                           341 274 
 ANIL HZ EP   2    457 55.77                             108    0.09 3  359 225 
 ANIL HE ES        458 34.33                             108   -0.25 6  359 225 
 ANIL HZ I         458 44.71        11.4 0.48                           359 225 
 PRA  HZ EP        458  0.10                             106    0.72 6  393 210 
 PRA  HN ES   4    458 40.58                             106   -0.57 0  393 210 
 PRA  HZ I         458 45.01         7.2 0.24                           393 210 
 PAL  HZ EP        458  1.12                             105    0.04 6  407 239 
 PAL  HE ES        458 44.44                             105    0.26 6  407 239 
 PAL  HZ I         458 49.27         3.7 0.06                           407 239 
                                                                                
