 2014  122 0310  3.4 L   6.815 -73.152141.7  RSN 15 0.4 1.9LRSN                1
 GAP=135        0.89       2.5     3.9  4.7 -0.1971E+01  0.4015E+01 -0.4799E-02E
 Epicentro: LOS SANTOS - SANTANDER                                             3
 ACTION:UPD 14-03-13 09:57 OP:ep   STATUS:               ID:20140122031003 L   I
 OLDACT:REG 14-01-22 07:40 OP:nd   STATUS:               ID:20140122031000     3
 2014-01-22-0310-00M.COL___279                                                 6
 STAT SP IPHASW D HRMM SECON CODA AMPLIT PERI AZIMU VELO AIN AR TRES W  DIS CAZ7
 BAR2 SZ EP        310 22.68                             170    0.0710 24.9 188 
 BAR2 SZ ES        310 37.12                             170   -0.4510 24.9 188 
 BAR2 SZ I         310 39.51        21.2 0.16            168           24.9 188 
 BRR  HZ EP        310 24.64                             152    0.5710 69.8 298 
 BRR  HN ES        310 40.73                             152    0.5710 69.8 298 
 BRR  HZ I         310 45.06        11.3 0.32            150           69.8 298 
 PAM  SZ EP        310 25.55                             150    0.3810 76.6  41 
 PAM  SN ES        310 42.11                             150   -0.0210 76.6  41 
 PAM  SZ I         310 44.86        18.1 0.50            155           76.6  41 
 RUS  HZ EP        310 26.66                             142   -0.2610  102 176 
 RUS  HN ES        310 45.38                             142    0.1510  102 176 
 RUS  HZ I         310 48.38         7.9 0.36            144            102 176 
 PTB  HZ EP        310 29.65                             131   -0.39 9  147 258 
 PTB  HN ES        310 50.12                             131   -0.68 9  147 258 
 PTB  HZ I         310 53.21        11.0 0.18            131            147 258 
 OCA  HZ EP        310 31.20                             129   -0.07 9  159 353 
 OCA  HN ES        310 52.51                             129   -0.47 9  159 353 
 OCA  HZ I         310 58.49         6.9 0.18            131            159 353 
 SPBC HZ EP        310 31.88                             128    0.17 9  164 218 
 SPBC HN ES        310 54.06                             128    0.30 9  164 218 
 SPBC HZ I         310 56.43        10.3 0.28            128            164 218 
 NOR  HZ EP   1    310 38.76                             118   -0.21 6  235 234 
 NOR  HN ES   1    311  7.09                             118    0.39 6  235 234 
 NOR  HZ I         311 14.21         5.8 0.50            118            235 234 
 SML  HZ EP        310 39.20                             117   -0.44 8  242 335 
 SML  HN ES        311  8.16                             117    0.28 8  242 335 
 SML  HZ I         311 10.21        11.4 0.07            118            242 335 
 CHI  HZ EP        310 40.86                             116   -0.21 8  250 195 
 CHI  HN ES   2    311 10.44                             116    0.02 4  250 195 
 CHI  HZ I         311 16.67         2.6 0.70            117            250 195 
 HEL  HZ EP   2    310 44.87                             114    1.46 4  272 255 
 HEL  HN ES   2    311 14.58                             114   -0.02 4  272 255 
 HEL  HZ I         311 22.63         4.8 0.28            115            272 255 
 URE  HZ EP   4    310 43.13                             113   -1.04 0  283 292 
 URE  HN ES   4    311 13.43                             113   -2.51 0  283 292 
 URE  HZ I         311 17.78         5.4 0.14            114            283 292 
 GUY2CHZ EP   4    310 48.13                             111    1.23 0  302 234 
 GUY2CHN ES   4    311 24.71                             111    3.90 0  302 234 
 GUY2CHZ I         311 29.63         5.6 0.74                           302 234 
 PRA  HZ EP   1    310 56.78                             106   -0.17 4  393 209 
 PRA  HN ES   2    311 38.46                             106   -0.22 3  393 209 
 PRA  HZ I         311 44.74         3.4 0.38            107            393 209 
 SJC  HZ EP   4    310 56.92                             105   -1.74 0  407 327 
 SJC  HN ES   4    311 38.44                             105   -3.29 0  407 327 
 SJC  HZ I         311 43.74         1.6 0.32            106            407 327 
                                                                                
