 2017 1022 0125 47.1 L   6.780 -73.136146.4  RSN  6 0.4 1.3LRSN                1
 GAP=113        0.73       3.9     3.8  5.3 -0.1524E+01  0.2521E+01  0.1242E+01E
 Epicentro: LOS SANTOS - SANTANDER                                             3
 ACTION:UPD 17-11-07 19:35 OP:rebc STATUS:               ID:20171022012547 L   I
 OLDACT:UP  17-10-22 15:13 OP:dani STATUS:               ID:20171022011344     3
 OLDACT:UP  17-10-22 15:13 OP:dani STATUS:               ID:20171022011344     3
 OLDACT:REG 17-10-22 13:29 OP:dani STATUS:               ID:20171022011344     3
 2017-10-22-0118-00M.COL___423                                                 6
 STAT SP IPHASW D HRMM SECON CODA AMPLIT PERI AZIMU VELO AIN AR TRES W  DIS CAZ7
 BAR2 EZ ES        126 22.24                             171    0.0910 21.4 194 
 BRR  HZ EP        126  8.71                             152    0.2410 73.2 300 
 BRR  HZ I         126 26.93         7.2 0.56            143           73.2 300 
 BRR  HN ES   3    126 27.00                             152    1.89 2 73.2 300 
 PAM  EZ EP        126  9.60                             150    0.1110 78.4  38 
 PAM  EN ES        126 26.61                             150   -0.3010 78.4  38 
 PAM  EZ I         126 28.95         2.6 0.43            144           78.4  38 
 RUS  HZ EP        126 11.04                             144    0.2510 98.3 177 
 RUS  HN ES        126 29.05                             144   -0.1910 98.3 177 
 RUS  HZ I         126 30.23         2.4 0.37            145           98.3 177 
 PTB  HZ EP        126 14.07                             132   -0.15 9  148 260 
 PTB  HN ES        126 34.92                             132   -0.41 9  148 260 
 PTB  HZ I         126 36.52         1.7 0.14            126            148 260 
 YPLC HZ EP        126 16.96                             127    0.22 9  174 151 
                                                                                
