 2015  422 0854 17.2 L   6.786 -73.183104.0  RSN  4 0.4 1.4LRSN                1
 GAP=264        0.87       6.6     9.2 18.5 -0.4098E+02 -0.7034E+02  0.1369E+02E
 Epicentro: LOS SANTOS - SANTANDER                                             3
 ACTION:UPD 15-06-03 16:56 OP:cam  STATUS:               ID:20150422085418 L   I
 OLDACT:UP  15-04-28 09:50 OP:SPQ  STATUS:               ID:20150422085418 L   3
 OLDACT:REG 15-04-22 12:50 OP:ak   STATUS:               ID:20150422084748     3
 2015-04-22-0847-48M.COL___271                                                 6
 STAT SP IPHASW D HRMM SECON CODA AMPLIT PERI AZIMU VELO AIN AR TRES W  DIS CAZ7
 PTB  HZ EP   1    854 41.17                             122    0.46 7  143 259 
 PTB  HN ES        854 58.82                             122   -0.2110  143 259 
 PTB  HZ I         855  2.74         4.7 0.44            116            143 259 
 OCA  HZ EP        854 42.33                             119   -0.4810  161 355 
 OCA  HN ES        855  3.20                             119    0.4410  161 355 
 ZAR  HN ES   1    855 10.55                             113    0.35 7  201 293 
 ZAR  HZ I         855 13.92         1.8 0.16            108            201 293 
 SML  HZ EP   1    854 52.29                             108    0.41 6  243 336 
 SML  HN ES        855 18.43                             108   -0.47 8  243 336 
 SML  HZ I         855 25.27         2.7 0.10            105            243 336 
                                                                                
