 2014  922 0637 54.3 L   6.848 -73.360126.5  RSN  8 0.5 1.9LRSN                1
 GAP=111        1.30       4.0     4.7  8.4  0.1011E+01  0.9127E+01 -0.5553E+01E
 Epicentro: SAN VICENTE DE CHUCURI - SANTANDER                                 3
 ACTION:UPD 14-10-03 23:07 OP:nd   STATUS:               ID:20140922063754 L   I
 OLDACT:UP  14-09-22 14:53 OP:cam  STATUS:               ID:20140922063000     3
 OLDACT:REG 14-09-22 12:50 OP:cam  STATUS:               ID:20140922063000     3
 2014-09-22-0630-00M.COL___252                                                 6
 STAT SP IPHASW D HRMM SECON CODA AMPLIT PERI AZIMU VELO AIN AR TRES W  DIS CAZ7
 BRR  HZ IP     C  638 12.40                             157    0.2810 48.3 306 
 BRR  HN ES        638 26.55                             157    0.5210 48.3 306 
 BRR  HZ I         638 27.34        24.1 0.12            156           48.3 306 
 PAM  SZ EP        638 15.46                             142    0.0210 91.0  53 
 PAM  SN ES        638 31.81                             142   -0.1410 91.0  53 
 PAM  SZ I         638 33.78        18.7 0.24            145           91.0  53 
 RUS  HZ EP        638 17.49                             137    0.5310  110 164 
 RUS  HN ES        638 33.93                             137   -0.7210  110 164 
 RUS  HZ I         638 35.60         8.5 0.28            140            110 164 
 PTB  HZ EP     C  638 17.29                             132   -0.4110  126 254 
 PTB  HN ES        638 35.48                             132   -0.4910  126 254 
 PTB  HZ I         638 39.11        14.0 0.30            133            126 254 
 SPBC HZ EP        638 21.26                             126    0.80 9  154 211 
 SPBC HN ES        638 40.39                             126   -0.48 9  154 211 
 SPBC HZ I         638 43.64         6.5 0.12            128            154 211 
 ZAR  HZ EP        638 23.93                             121    0.92 9  180 293 
 ZAR  HE ES        638 45.94                             121    0.52 9  180 293 
 ZAR  HZ I         638 50.44        13.5 0.44            122            180 293 
 SML  HZ EP        638 27.99                             114   -0.36 8  230 340 
 SML  HN ES        638 54.40                             114   -0.52 8  230 340 
 SML  HZ I         639  0.67        16.6 0.10            116            230 340 
 GUY2CHZ EP   4    638 37.23                             109    1.97 0  285 231 
 MON  HZ EP        638 39.31                             106   -0.75 7  332 310 
 MON  HN ES        639 15.47                             106   -0.29 7  332 310 
 MON  HZ I         639 17.47         2.3 0.22            107            332 310 
                                                                                
