 2011  122 0616 33.1 L   6.802 -73.123135.6  RSN  8 0.5 1.7LRSN                1
 GAP=161        1.05       4.5     9.5  9.7 -0.1853E+02  0.3664E+02 -0.7035E+01E
 Epicentro: LOS SANTOS - SANTANDER                                             3
 ACTION:UP  11-02-08 08:41 OP:pat  STATUS:               ID:20110122061633 L   I
 2011-01-22-0612-26S.COL___137                                                 6
 STAT SP IPHASW D HRMM SECON CODA AMPLIT PERI AZIMU VELO SNR AR TRES W  DIS CAZ7
 BAR2 SZ IP        616 51.38                             169    -0.210   24 196 
 BAR2 SZ ES   1    617  6.25                             169     0.3 7   24 196 
 BAR2 SZ I         617  7.67        18.5 0.24                            24 196 
 RUS  HZ EP   1    616 55.48                             141    -0.4 7  101 178 
 RUS  HN ES   1    617 13.43                             141    -0.2 7  101 178 
 RUS  HZ I         617 15.04         5.0 0.32                           101 178 
 GRA  SZ IP        616 58.25                             134     0.810  125  16 
 GRA  SZ I         616 59.67        12.5 0.17                           125  16 
 GRA  SZ ES   1    617 16.46                             134     0.1 7  125  16 
 OCA  SZ EP   1    617  0.28                             127    -0.4 7  160 352 
 OCA  SZ ES   1    617 21.27                             127    -0.9 7  160 352 
 OCA  SZ I         617 26.68         7.2 0.24                           160 352 
 NOR  SZ EP   2    617  9.10                             116     0.5 4  237 235 
 NOR  SE ES   2    617 35.71                             116    -0.5 4  237 235 
 CHI  HZ EP   1    617 10.52                             114     0.1 6  250 196 
 CHI  HN ES   2    617 39.71                             114     0.3 4  250 196 
 CHI  HZ I         617 44.18         1.7 0.36                           250 196 
 HEL  HZ EP   2    617 12.54                             112    -0.6 4  275 256 
 HEL  HE ES   2    617 44.90                             112     0.6 4  275 256 
 HEL  HZ I         617 50.48         3.8 0.25                           275 256 
 RREF HZ EP   2    617 18.86                             108    -0.2 3  324 230 
 RREF HE ES   2    617 55.77                             108     0.8 3  324 230 
 RREF HZ I         618  3.43         2.7 0.45                           324 230 
                                                                                
