 2015 1122 0044 58.4 L   6.780 -73.124142.9  RSN  8 0.3 1.8LRSN                1
 GAP=140        0.86       2.8     3.9  5.1 -0.1008E+01  0.6974E+01 -0.1333E+01E
 Epicentro: LOS SANTOS - SANTANDER                                             3
 ACTION:UPD 15-12-28 16:12 OP:cam  STATUS:               ID:20151122004458 L   I
 OLDACT:REG 15-11-22 15:42 OP:ak   STATUS:               ID:20151122004000     3
 2015-11-22-0039-59S.COL___156                                                 6
 STAT SP IPHASW D HRMM SECON CODA AMPLIT PERI AZIMU VELO AIN AR TRES W  DIS CAZ7
 BAR2 EZ EP     C  045 17.87                             171    0.1810 21.8 197 
 BAR2 EZ ES        045 32.76                             171    0.0510 21.8 197 
 BAR2 EZ I         045 34.19         8.5 0.20            171           21.8 197 
 BRR  HZ IP     C  045 19.68                             151    0.2210 74.4 299 
 BRR  HE ES        045 36.25                             151    0.3910 74.4 299 
 BRR  HZ I         045 40.97        11.0 0.14            150           74.4 299 
 PAM  EZ EP        045 20.73                             150    0.3710 77.6  37 
 PAM  EN ES        045 37.54                             150    0.0810 77.6  37 
 PAM  EZ I         045 40.06        10.1 0.48            153           77.6  37 
 RUS  HZ EP        045 21.45                             144   -0.2910 98.3 177 
 RUS  HN ES        045 39.34                             144   -0.5810 98.3 177 
 RUS  HZ I         045 41.82         4.7 0.32            148           98.3 177 
 SPBC HZ EP        045 26.98                             128    0.28 9  163 220 
 SPBC HN ES        045 48.42                             128   -0.33 9  163 220 
 SPBC HZ I         045 51.48        10.8 0.24            131            163 220 
 ZAR  HZ EP        045 31.12                             121    0.10 8  207 292 
 ZAR  HN ES        045 56.36                             121   -0.07 8  207 292 
 ZAR  HZ I         046  1.55        13.3 0.34            123            207 292 
 NOR  HZ EP        045 34.36                             118    0.28 8  235 235 
 NOR  HN ES        046  2.14                             118    0.26 8  235 235 
 NOR  HZ I         046  3.89         4.8 0.20            120            235 235 
 SML  HZ EP        045 34.87                             116   -0.36 8  247 335 
 SML  HN ES        046  3.11                             116   -0.82 8  247 335 
 SML  HZ I         046  8.11         8.7 0.09            118            247 335 
                                                                                
