 2017 1122 0423 11.7 L   6.760 -73.143146.2  RSN  7 0.4 1.2LRSN                1
 GAP=139        0.96       3.5     5.3  7.7 -0.6186E+01  0.9724E+01  0.6005E-02E
 Epicentro: LOS SANTOS - SANTANDER                                             3
 ACTION:UPD 17-12-12 19:58 OP:rebc STATUS:               ID:20171122042311 L   I
 OLDACT:REG 17-11-22 13:07 OP:osc  STATUS:               ID:20171122041345     3
 2017-11-22-0418-00M.COL___480                                                 6
 STAT SP IPHASW D HRMM SECON CODA AMPLIT PERI AZIMU VELO AIN AR TRES W  DIS CAZ7
 BAR2 EZ EP        423 31.31                             172    0.0210 19.1 193 
 BAR2 EZ ES        423 46.48                             172   -0.1010 19.1 193 
 BAR2 EZ I         423 47.24         6.2 0.26            172           19.1 193 
 PAM  EZ EP        423 34.26                             150    0.1210 80.7  37 
 PAM  EE ES        423 51.27                             150   -0.4010 80.7  37 
 PAM  EZ I         423 53.24         4.6 0.38            153           80.7  37 
 RUS  HZ EP        423 35.63                             145    0.4710 96.2 176 
 RUS  HN ES        423 53.50                             145    0.0210 96.2 176 
 RUS  HZ I         423 55.76         1.1 0.26            147           96.2 176 
 PTB  HZ EP        423 37.83                             132   -0.81 9  147 261 
 PTB  HE ES        423 59.67                             132    0.01 9  147 261 
 PTB  HZ I         424  4.50         1.1 0.26            133            147 261 
 SPBC HE ES        424  2.39                             130    0.46 9  160 220 
 OCA  HN ES        424  3.33                             129    0.45 9  165 353 
 CHI  HE ES        424 17.72                             118   -0.30 8  244 195 
                                                                                
