 2012  722 0510 55.9 L   6.208 -73.746105.3  RSN  4 0.4 1.4LRSN                1
 GAP=239        1.07      11.3     6.0 12.3  0.1044E+02  0.2112E+02  0.2556E+02E
 Epicentro: LANDAZURI - SANTANDER                                              3
 ACTION:UPD 12-08-14 11:46 OP:ep   STATUS:               ID:20120722051055 L   I
 2012-07-22-0510-00M.COL___215                                                 6
 STAT SP IPHASW D HRMM SECON CODA AMPLIT PERI AZIMU VELO AIN AR TRES W  DIS CAZ7
 BAR2 SZ EP        511 13.91                             141     0.410   75  56 
 BAR2 SZ ES   1    511 27.17                             141    -0.1 7   75  56 
 BAR2 SZ I         511 28.89        15.5 0.54            141             75  56 
 PTB  HZ EP        511 14.00                             137    -0.110   87 295 
 PTB  HN ES   1    511 28.31                             137     0.0 7   87 295 
 PTB  HZ I         511 29.03         2.0 0.24            137             87 295 
 BRR  HZ EP        511 15.46                             133     0.210   99   2 
 BRR  HZ I         511 15.91         4.5 0.12            132             99   2 
 BRR  HN ES   1    511 29.76                             133    -0.5 7   99   2 
 ZAR  HZ EP        511 23.70                             114    -0.6 9  188 319 
 ZAR  HN ES   1    511 47.17                             114     0.8 7  188 319 
 ZAR  HZ I         511 48.93         3.7 0.44            114            188 319 
