 2013  322 0736  3.5 L   6.777 -73.145145.7  RSN  5 0.3 1.6LRSN                1
 GAP=138        0.76       4.2     4.8  6.5 -0.1344E+01  0.4253E+01  0.3650E+01E
 Epicentro: LOS SANTOS - SANTANDER                                             3
 ACTION:UPD 13-04-09 14:04 OP:ep   STATUS:               ID:20130322073603 L   I
 2013-03-22-0730-00M.COL___245                                                 6
 STAT SP IPHASW D HRMM SECON CODA AMPLIT PERI AZIMU VELO AIN AR TRES W  DIS CAZ7
 BAR2 SZ EP   2    736 23.08                             171   -0.04 5 20.8 192 
 BAR2 SZ ES   2    736 38.65                             171    0.27 5 20.8 192 
 BAR2 SZ I         736 39.86         8.3 0.36            170           20.8 192 
 BRR  HZ EP   1    736 25.03                             152    0.27 7 72.6 300 
 BRR  HN ES        736 41.69                             152    0.3810 72.6 300 
 BRR  HN I         736 41.76         8.7 0.22            152           72.6 300 
 PAM  SZ EP        736 26.00                             150    0.1310 79.3  38 
 PAM  SN ES        736 42.85                             150   -0.4310 79.3  38 
 PAM  SN I         736 43.67         9.0 0.50            153           79.3  38 
 RUS  HZ EP        736 27.41                             144    0.3110 98.0 176 
 RUS  HN ES        736 45.37                             144   -0.1110 98.0 176 
 RUS  HN I         736 46.85         3.5 0.28            145           98.0 176 
 PTB  HZ EP        736 30.10                             132   -0.37 9  147 260 
 PTB  HN ES   2    736 50.68                             132   -0.79 5  147 260 
 PTB  HN I         736 53.65         4.4 0.24            133            147 260 
                                                                                
