 2016 1022 0738  6.5 L   6.775 -72.991118.0  RSN  4 0.4 0.8LRSN                1
 GAP=251        0.95       5.4     8.1 10.0  0.1362E+02 -0.2802E+02 -0.2252E+01E
 Epicentro: CEPITA - SANTANDER                                                 3
 ACTION:UPD 16-11-09 19:21 OP:rebc STATUS:               ID:20161022073806 L   I
 OLDACT:UP  16-10-22 23:48 OP:and  STATUS:               ID:20161022072745d    3
 OLDACT:UP  16-10-22 23:46 OP:and  STATUS:               ID:20161022072745d    3
 OLDACT:DUP 16-10-22 23:43 OP:and  STATUS:               ID:20161022072745d    3
 OLDACT:UP  16-10-22 23:41 OP:and  STATUS:               ID:20161022072744     3
 OLDACT:REG 16-10-22 13:19 OP:and  STATUS:               ID:20161022072744     3
 2016-10-22-0728-00M.COL___346                                                 6
 STAT SP IPHASW D HRMM SECON CODA AMPLIT PERI AZIMU VELO AIN AR TRES W  DIS CAZ7
 BRR  HZ EP        738 25.68                             141   -0.2610 87.7 295 
 BRR  HE ES        738 41.16                             141    0.0810 87.7 295 
 RUS  HZ EP        738 28.19                             138    0.7310 98.1 186 
 RUS  HN ES        738 43.46                             138   -0.3210 98.1 186 
 RUS  HZ I         738 48.47         0.7 0.26            137           98.1 186 
 PTB  HZ EP   9    738 30.85                             122   -2.20 0  164 261 
 PTB  HN ES        738 51.97                             126    0.43 9  164 261 
 PTB  HZ I         738 53.48         0.8 0.10            124            164 261 
 SPBC HZ EP        738 33.83                             120   -0.19 9  172 224 
 SPBC HN ES        738 55.38                             120   -0.09 9  172 224 
 SPBC HZ I         738 59.80         1.6 0.18            122            172 224 
                                                                                
