 2011  722 0845  2.1 L   6.773 -73.068149.3  RSN 12 0.3 1.9LRSN                1
 GAP=165        0.58       2.3     4.4  3.4 -0.2954E+01  0.1074E+01  0.7204E+00E
 Epicentro: LOS SANTOS - SANTANDER                                             3
 ACTION:UPD 12-07-25 14:02 OP:epov STATUS:               ID:20110722084502 L   I
 2011-07-22-0843-50S.COL___142                                                 6
 STAT SP IPHASW D HRMM SECON CODA AMPLIT PERI AZIMU VELO AIN AR TRES W  DIS CAZ7
 BAR2 SZ IP        845 21.97                             171   -0.2210 23.7 212 
 BAR2 SZ ES        845 37.42                             171   -0.4210 23.7 212 
 BAR2 SZ I         845 38.75        36.8 0.25                          23.7 212 
 BTL  SZ EP        845 22.45                             169    0.1810 27.3 306 
 BTL  SZ ES   1    845 37.93                             169   -0.05 7 27.3 306 
 GIR2 SZ EP   1    845 22.32                             166   -0.05 7 36.6 338 
 GIR2 SZ ES   1    845 38.64                             166    0.48 7 36.6 338 
 BRR  HZ IP     C  845 23.86                             150   -0.3210 80.2 297 
 BRR  HZ I         845 24.13        34.8 0.13                          80.2 297 
 BRR  HN ES   1    845 41.47                             150    0.09 7 80.2 297 
 RUS  HZ IP     C  845 25.95                             145   -0.0510 97.4 181 
 RUS  HN ES   1    845 44.84                             145    0.22 7 97.4 181 
 RUS  HZ I         845 45.84         7.2 0.24                          97.4 181 
 BRI  SZ EP   2    845 26.62                             142    0.26 5  109  16 
 GRA  SZ IP     C  845 27.80                             138    0.0710  126  13 
 GRA  SZ ES   1    845 47.98                             138    0.27 7  126  13 
 GRA  SZ I         845 49.04         7.6 0.31                           126  13 
 OCA  SZ EP   1    845 30.77                             130   -0.33 7  164 350 
 OCA  SZ ES   2    845 53.90                             130    0.19 5  164 350 
 OCA  SZ I         845 58.98        10.3 0.56                           164 350 
 NOR  SZ EP   2    845 38.75                             119    0.11 4  240 236 
 NOR  SN ES   2    846  7.10                             119   -0.02 4  240 236 
 CHI  HZ EP   1    845 39.77                             118   -0.20 6  248 197 
 CHI  HN ES   1    846 10.01                             118    0.52 6  248 197 
 CHI  HZ I         846 17.58         3.8 0.41                           248 197 
 HEL  HZ EP   1    845 44.04                             115    0.67 6  280 257 
 HEL  HN ES   2    846 15.10                             115   -0.44 4  280 257 
 PRA  HZ EP   2    845 55.60                             107   -0.38 3  394 211 
 PRA  HN ES   2    846 38.52                             107    0.54 3  394 211 
                                                                                
