 2014  522 0500  3.9 L   6.891 -73.147118.8  RSN  5 0.4 1.1LRSN                1
 GAP=202        0.91       5.0     6.5 10.4  0.1466E+02 -0.1339E+02 -0.2447E+02E
 Epicentro: LOS SANTOS - SANTANDER                                             3
 ACTION:UPD 15-03-16 16:59 OP:nd   STATUS:               ID:20140522050003 L   I
 OLDACT:UP  14-05-22 17:32 OP:mh   STATUS:               ID:20140522045809     3
 OLDACT:UP  14-05-22 17:22 OP:mh   STATUS:               ID:20140522045809     3
 OLDACT:UP  14-05-22 17:19 OP:mh   STATUS:               ID:20140522045809     3
 OLDACT:UP  14-05-22 17:19 OP:mh   STATUS:               ID:20140522045809     3
 OLDACT:REG 14-05-22 13:08 OP:spq  STATUS:               ID:20140522045809     3
 2014-05-22-0458-09M.COL___249                                                 6
 STAT SP IPHASW D HRMM SECON CODA AMPLIT PERI AZIMU VELO AIN AR TRES W  DIS CAZ7
 BRR  HZ EP   1    5 0 22.70                             149    0.81 8 66.8 291 
 BRR  HN ES   1    5 0 35.36                             149   -0.59 8 66.8 291 
 BRR  HZ I         5 0 41.32         4.9 0.13            149           66.8 291 
 RUS  HZ EP   1    5 0 25.78                             134   -0.15 7  111 176 
 RUS  HN ES        5 0 43.35                             134    0.2110  111 176 
 RUS  HZ I         5 0 45.64         1.1 0.19            146            111 176 
 PTB  HZ EP        5 0 28.72                             125   -0.28 9  150 255 
 PTB  HN ES        5 0 48.43                             125   -0.17 9  150 255 
 PTB  HZ I         5 0 53.40         1.3 0.15            130            150 255 
 ZAR  HZ EP   4    5 0 32.27                             116   -2.04 0  200 289 
 ZAR  HN ES   1    5 0 58.80                             116    0.75 7  200 289 
 ZAR  HZ I         5 1  6.23         1.4 0.06            121            200 289 
 SML  HZ EP        5 0 37.77                             112   -0.33 8  235 334 
 SML  HN ES   1    5 1  4.91                             112    0.11 6  235 334 
 SML  HZ I         5 1 15.53         1.4 0.09            116            235 334 
                                                                                
