 2017 1122 0655 55.7 L   6.733 -73.135150.6  RSN  4 0.2 0.9LRSN                1
 GAP=243        0.54       5.7     4.3  5.1  0.1582E+02  0.2419E+01 -0.4706E+01E
 Epicentro: JORDAN - SANTANDER                                                 3
 ACTION:UPD 17-12-12 19:58 OP:rebc STATUS:               ID:20171122065555 L   I
 OLDACT:DUP 17-11-22 16:23 OP:dani STATUS:               ID:20171122064742d    3
 OLDACT:UP  17-11-22 16:21 OP:dani STATUS:               ID:20171122064741     3
 OLDACT:UP  17-11-22 16:21 OP:dani STATUS:               ID:20171122064741     3
 OLDACT:REG 17-11-22 13:18 OP:osc  STATUS:               ID:20171122064741     3
 2017-11-22-0648-00M.COL___480                                                 6
 STAT SP IPHASW D HRMM SECON CODA AMPLIT PERI AZIMU VELO AIN AR TRES W  DIS CAZ7
 BAR2 EZ EP        656 15.64                             173   -0.1410 16.4 199 
 BAR2 EZ I         656 31.31         3.2 0.42            169           16.4 199 
 BAR2 EZ ES        656 31.42                             173   -0.0310 16.4 199 
 RUS  HZ EP        656 19.73                             147    0.3310 93.1 176 
 RUS  HN ES        656 37.87                             147   -0.0210 93.1 176 
 RUS  HZ I         656 38.83         1.0 0.23            150           93.1 176 
 PTB  HZ EP        656 22.74                             133   -0.30 9  148 262 
 PTB  HN ES        656 44.37                             133   -0.01 9  148 262 
 PTB  HZ I         656 46.18         0.6 0.12            135            148 262 
 ZAR  HN ES        656 54.93                             123    0.20 8  208 294 
                                                                                
