 2013  622 0514 46.5 L   6.807 -73.123148.9  RSN 10 0.5 1.8LRSN                1
 GAP=185        0.89       3.3     5.8  6.6 -0.1409E+01  0.9433E+01  0.2925E+01E
 Epicentro: LOS SANTOS - SANTANDER                                             3
 ACTION:UPD 14-01-08 09:56 OP:ep   STATUS:               ID:20130622051446 L   I
 OLDACT:REG 13-06-22 08:56 OP:carl STATUS:               ID:20130622050959     3
 2013-06-22-0509-59M.COL___267                                                 6
 STAT SP IPHASW D HRMM SECON CODA AMPLIT PERI AZIMU VELO AIN AR TRES W  DIS CAZ7
 BAR2 SZ EP        515  6.57                             170    0.0810 24.7 195 
 BAR2 SZ ES   1    515 21.32                             170   -0.80 7 24.7 195 
 BAR2 SZ I         515 22.87        13.2 0.22            170           24.7 195 
 BRR  HZ IP     C  515  8.45                             152    0.4010 73.0 297 
 BRR  HN ES   1    515 25.77                             152    0.88 7 73.0 297 
 BRR  HZ I         515 30.44         8.2 0.18            149           73.0 297 
 RUS  HZ EP   1    515 10.63                             144    0.06 7  101 178 
 RUS  HN ES   1    515 29.56                             144    0.19 7  101 178 
 RUS  HZ I         515 30.40         6.5 0.26            147            101 178 
 PTB  HZ EP        515 13.30                             132   -0.62 9  150 259 
 PTB  HN ES   1    515 34.45                             132   -0.89 7  150 259 
 PTB  HZ I         515 36.23         8.0 0.60            131            150 259 
 OCA  HN ES   1    515 37.19                             130   -0.02 7  160 352 
 OCA  HZ I         515 45.07         4.9 0.26            130            160 352 
 OCA  HN I         515 45.51        22.0 0.26                           160 352 
 NOR  HZ EP   1    515 22.74                             119    0.10 6  237 235 
 NOR  HE ES   1    515 51.16                             119    0.30 6  237 235 
 NOR  HZ I         515 59.93         2.8 0.14            119            237 235 
 SML  HZ EP   1    515 23.25                             118   -0.04 6  244 335 
 SML  HN ES   1    515 52.05                             118    0.02 6  244 335 
 SML  HZ I         515 57.22         7.0 0.10            118            244 335 
 CHI  HZ EP   1    515 24.37                             118   -0.12 6  250 196 
 CHI  HN ES   1    515 54.38                             118    0.23 6  250 196 
 CHI  HZ I         515 56.53         3.8 0.48            119            250 196 
 GUY2CHZ EP   1    515 29.87                             113   -0.62 5  304 235 
 GUY2CHN ES        516  5.32                             113    0.48 7  304 235 
 GUY2CHZ I         516 12.92         1.8 0.32                           304 235 
 PRA  HZ EP   1    515 40.53                             107    0.22 4  394 210 
 PRA  HE ES   1    516 22.49                             107    0.17 4  394 210 
 PRA  HZ I         516 26.84         2.4 0.64            108            394 210 
                                                                                
