 2014  722 0026 25.8 L   6.875 -73.382121.9  RSN  6 0.4 1.7LRSN                1
 GAP=142        0.91       3.5     5.0  8.3  0.1245E+01 -0.9831E+00 -0.5022E+01E
 Epicentro: SAN VICENTE DE CHUCURI - SANTANDER                                 3
 ACTION:UPD 15-03-16 20:46 OP:nd   STATUS:               ID:20140722002625 L   I
 OLDACT:DUP 14-07-22 13:55 OP:mh   STATUS:               ID:20140722001808d    3
 2014-07-22-0018-05M.COL___269                                                 6
 STAT SP IPHASW D HRMM SECON CODA AMPLIT PERI AZIMU VELO AIN AR TRES W  DIS CAZ7
 BAR2 SZ EP   1    026 43.80                             162    0.79 8 38.3 145 
 BAR2 SZ I         026 58.64        36.3 0.29            169           38.3 145 
 BRR  HZ EP   1    026 43.05                             158    0.13 8 44.6 305 
 BRR  HN ES   1    026 56.32                             158    0.03 8 44.6 305 
 BRR  HZ I         027 14.09        19.9 0.41            162           44.6 305 
 RUS  HZ EP        026 47.68                             134   -0.6710  114 163 
 RUS  HN ES        027  6.08                             134    0.1110  114 163 
 RUS  HZ I         027  7.58         3.0 0.19            146            114 163 
 PTB  HZ EP        026 49.09                             131    0.4110  124 253 
 PTB  HN ES        027  6.23                             131   -0.3210  124 253 
 PTB  HZ I         027 11.47         5.8 0.06            141            124 253 
 OCA  HZ EP        026 51.26                             125   -0.15 9  151   3 
 OCA  HN ES        027 11.27                             125   -0.13 9  151   3 
 OCA  HZ I         027 13.30         9.2 0.19            135            151   3 
 ZAR  HZ EP        026 54.05                             121    0.20 9  177 293 
 ZAR  HN ES   4    027 18.76                             121    3.00 0  177 293 
 ZAR  HZ I         027 22.49         4.1 0.27            130            177 293 
                                                                                
