 2011  522 0156 21.2 L   6.762 -73.122136.5  RSN  6 0.2 1.3LRSN                1
 GAP=141        0.47       3.2     4.8  5.0 -0.9957E-01 -0.1256E+01 -0.6559E+00E
 Epicentro: LOS SANTOS - SANTANDER                                             3
 ACTION:UP  11-06-29 08:55 OP:tino STATUS:               ID:20110522015621 L   I
 2011-05-22-0154-04S.COL___141                                                 6
 STAT SP IPHASW D HRMM SECON CODA AMPLIT PERI AZIMU VELO SNR AR TRES W  DIS CAZ7
 BAR2 SZ ES   1    156 53.70                             171    -0.3 7   20 200 
 BAR2 SZ I         156 55.59         5.7 0.14                            20 200 
 BTL  SZ EP   1    156 39.80                             170     0.1 7   24 317 
 GIR2 SZ EP   1    156 39.78                             164    -0.1 7   36 347 
 BRR  HZ EP   1    156 41.43                             149    -0.2 7   76 300 
 BRR  HE ES   1    156 57.69                             149     0.2 7   76 300 
 BRR  HZ I         157  2.43         7.9 0.11                            76 300 
 PAM  SZ EP   1    156 42.31                             148    -0.2 7   79  36 
 PAM  SN ES   1    156 59.36                             148     0.2 7   79  36 
 RUS  HZ EP   1    156 43.90                             143     0.2 7   96 177 
 RUS  HE ES   1    157  1.31                             143     0.0 7   96 177 
 RUS  HZ I         157  3.35         1.9 0.28                            96 177 
                                                                                
