 2013  422 0222 40.2 L   6.532 -73.572110.3  RSN  8 0.4 1.8LRSN                1
 GAP= 91        1.13       4.1     3.6  7.8 -0.1729E+01  0.9118E+01  0.3390E+01E
 Epicentro: EL CARMEN DE CHUCURI - SANTANDER                                   3
 ACTION:UPD 13-05-22 14:40 OP:EP   STATUS:               ID:20130422022240 L   I
 2013-04-22-0220-00M.COL___250                                                 6
 STAT SP IPHASW D HRMM SECON CODA AMPLIT PERI AZIMU VELO AIN AR TRES W  DIS CAZ7
 BAR2 SZ I         222 56.68        29.6 0.36            159           43.6  81 
 BAR2 SZ IP     D  222 56.71                             157    0.3410 43.6  81 
 BAR2 SZ ES        223  9.16                             157    0.2010 43.6  81 
 BRR  HZ EP        222 57.53                             147    0.2610 65.4 346 
 BRR  HN ES        223 11.35                             147    0.7810 65.4 346 
 BRR  HN I         223 13.97        16.9 0.40            142           65.4 346 
 GIR2 SZ I         222 58.13         8.0 0.10            142           73.5  35 
 GIR2 SZ EP        222 58.15                             144    0.1110 73.5  35 
 GIR2 SZ ES        223 11.60                             144   -0.3310 73.5  35 
 RUS  HZ EP        222 59.79                             139    0.0710 89.1 143 
 RUS  HN ES        223 15.15                             139    0.2210 89.1 143 
 RUS  HN I         223 18.78         4.2 0.42            131           89.1 143 
 PTB  HZ EP        222 59.54                             135   -0.2510 97.8 271 
 PTB  HN ES        223 14.45                             135   -0.6010 97.8 271 
 PTB  HN I         223 22.20        12.5 0.24            124           97.8 271 
 PAM  SZ EP   1    223  3.63                             126    0.09 7  131  47 
 PAM  SE ES        223 20.75                             126   -0.9810  131  47 
 PAM  SE I         223 22.14         7.3 0.26            123            131  47 
 NOR  HZ EP   1    223  8.25                             117    0.31 7  179 233 
 NOR  HN ES        223 29.13                             117   -0.43 9  179 233 
 NOR  HN I         223 33.25        20.7 0.18            110            179 233 
 URE  HN ES        223 45.13                             108    0.38 8  255 302 
 URE  HN I         223 46.85         9.9 0.26            104            255 302 
                                                                                
