 2016 1022 0734  5.5 L   6.786 -73.182153.4  RSN  4 0.3 0.8LRSN                1
 GAP=232        0.71       4.5     5.3  7.1  0.7323E+01 -0.3745E+01 -0.1717E+01E
 Epicentro: LOS SANTOS - SANTANDER                                             3
 ACTION:UPD 16-11-09 19:21 OP:rebc STATUS:               ID:20161022073405 L   I
 OLDACT:UP  16-10-22 23:41 OP:and  STATUS:               ID:20161022072744     3
 OLDACT:REG 16-10-22 13:19 OP:and  STATUS:               ID:20161022072744     3
 2016-10-22-0728-00M.COL___346                                                 6
 STAT SP IPHASW D HRMM SECON CODA AMPLIT PERI AZIMU VELO AIN AR TRES W  DIS CAZ7
 BRR  HZ EP        734 27.45                             155    0.1610 68.4 301 
 BRR  HN ES        734 44.47                             155    0.1610 68.4 301 
 RUS  HZ EP        734 29.90                             146    0.0210 99.4 174 
 RUS  HN ES        734 48.69                             146   -0.2510 99.4 174 
 RUS  HZ I         734 49.36         0.8 0.36            144           99.4 174 
 PTB  HZ EP        734 32.51                             135   -0.17 9  143 259 
 PTB  HN ES        734 53.53                             135   -0.38 9  143 259 
 PTB  HZ I         734 54.52         0.7 0.18            133            143 259 
 SPBC HN ES        734 57.11                             131    0.48 9  159 218 
 SPBC HZ I         734 59.50         1.2 0.06            130            159 218 
                                                                                
