 2017  122 0739 28.2 L   7.347 -73.372119.7  RSN  4 0.2 1.1LRSN                1
 GAP=175        0.62       4.4     2.7  6.9 -0.1720E+01  0.9545E+01 -0.9082E+01E
 Epicentro: SABANA DE TORRES - SANTANDER                                       3
 ACTION:UPD 17-05-22 16:02 OP:jn   STATUS:               ID:20170122073928 L   I
 OLDACT:REG 17-01-22 13:15 OP:dani STATUS:               ID:20170122073741     3
 2017-01-22-0738-00M.COL___331                                                 6
 STAT SP IPHASW D HRMM SECON CODA AMPLIT PERI AZIMU VELO AIN AR TRES W  DIS CAZ7
 PAM  EZ EP        739 47.34                             146   -0.1310 74.2  91 
 PAM  EE ES        740  2.42                             146   -0.1110 74.2  91 
 PAM  EZ I         740  3.56         2.8 0.18            152           74.2  91 
 BAR2 EZ EP        739 48.17                             142    0.2110 86.1 166 
 BAR2 EZ ES        740  3.59                             142    0.1910 86.1 166 
 BAR2 EZ I         740  4.25         5.3 0.10            145           86.1 166 
 PTB  HZ EP        739 53.42                             125    0.10 9  149 233 
 PTB  HN ES        740 12.50                             125   -0.44 9  149 233 
 PTB  HZ I         740 17.68         1.4 0.21            127            149 233 
 ZAR  HZ EP        739 54.74                             122   -0.14 9  165 276 
 ZAR  HN ES        740 16.02                             122    0.31 9  165 276 
 ZAR  HZ I         740 18.43         1.7 0.30            124            165 276 
                                                                                
