 2013  322 0607 14.5 L   6.775 -73.152150.0  RSN  5 0.3 1.5LRSN                1
 GAP=137        0.75       4.1     3.8  7.0  0.2657E+01  0.7265E+01  0.5156E+01E
 Epicentro: LOS SANTOS - SANTANDER                                             3
 ACTION:UPD 13-04-09 14:04 OP:ep   STATUS:               ID:20130322060714 L   I
 2013-03-22-0600-00M.COL___245                                                 6
 STAT SP IPHASW D HRMM SECON CODA AMPLIT PERI AZIMU VELO AIN AR TRES W  DIS CAZ7
 BRR  HZ EP        6 7 36.39                             153    0.2510 71.9 301 
 BRR  HN ES        6 7 53.49                             153    0.4710 71.9 301 
 BRR  HN I         6 7 53.72        11.8 0.22            154           71.9 301 
 PAM  SZ EP   2    6 7 37.38                             151    0.08 5 79.9  39 
 PAM  SN ES        6 7 54.73                             151   -0.3710 79.9  39 
 PAM  SN I         6 7 55.34         7.8 0.74            156           79.9  39 
 RUS  HZ EP        6 7 38.70                             145    0.2310 97.9 176 
 RUS  HN ES        6 7 57.16                             145   -0.0210 97.9 176 
 RUS  HN I         6 8  0.55         1.9 0.26            145           97.9 176 
 PTB  HZ EP        6 7 41.41                             133   -0.29 9  147 260 
 PTB  HE ES        6 8  2.55                             133   -0.37 9  147 260 
 PTB  HE I         6 8  7.44         2.4 0.50            134            147 260 
 ZAR  HN ES        6 8 12.78                             123   -0.03 9  204 293 
                                                                                
