 2016  622 0032 42.3 L   6.791 -73.137145.3  RSN 21 0.5 2.3LRSN                1
 GAP=120        1.00       3.0     3.3  4.6 -0.3111E+00  0.3905E+01  0.4514E+01E
 Epicentro: LOS SANTOS - SANTANDER                                             3
 ACTION:UPD 16-07-21 22:21 OP:rebc STATUS:               ID:20160622003242 L   I
 OLDACT:REG 16-06-22 13:06 OP:ak   STATUS:               ID:20160622002745     3
 2016-06-22-0027-45M.COL___325                                                 6
 STAT SP IPHASW D HRMM SECON CODA AMPLIT PERI AZIMU VELO AIN AR TRES W  DIS CAZ7
 BAR2 EZ EP        033  1.98                             171    0.1510 22.5 193 
 BAR2 EZ ES        033 17.13                             171    0.0410 22.5 193 
 BAR2 EZ I         033 18.13        60.3 0.22                          22.5 193 
 BRR  HZ EP        033  3.70                             152    0.2510 72.5 299 
 BRR  HN ES        033 20.40                             152    0.4310 72.5 299 
 BRR  HZ I         033 23.92        29.0 0.28                          72.5 299 
 PAM  EZ EP        033  4.75                             151    0.3010 77.6  39 
 PAM  EN ES        033 21.78                             151    0.0310 77.6  39 
 PAM  EZ I         033 24.07        56.3 0.48                          77.6  39 
 RUS  HZ EP        033  5.90                             144   -0.0010 99.5 177 
 RUS  HN ES        033 24.47                             144    0.1410 99.5 177 
 RUS  HZ I         033 25.66        28.7 0.26                          99.5 177 
 PTB  HZ EP        033  8.54                             132   -0.73 9  149 259 
 PTB  HN ES        033 29.64                             132   -0.69 9  149 259 
 PTB  HZ I         033 32.64        18.5 0.11                           149 259 
 SPBC HZ EP        033 10.48                             129   -0.24 9  163 219 
 SPBC HE ES        033 32.75                             129   -0.16 9  163 219 
 SPBC HZ I         033 39.41        27.4 0.10                           163 219 
 ZAR  HZ EP        033 14.52                             122   -0.30 8  205 292 
 ZAR  HN ES        033 39.54                             122   -0.67 8  205 292 
 ZAR  HZ I         033 45.24        22.8 0.46                           205 292 
 NOR  HZ EP        033 18.03                             118    0.03 8  235 235 
 NOR  HN ES        033 46.37                             118    0.51 8  235 235 
 NOR  HZ I         033 48.43        13.0 0.18                           235 235 
 CHI  HZ EP        033 19.94                             117    0.07 8  248 195 
 CHI  HN ES        033 48.31                             117   -0.88 8  248 195 
 CHI  HZ I         033 51.55        15.0 0.22                           248 195 
 ROSC BZ EP        033 21.13                             117    0.80 8  252 211 
 ROSC BN ES        033 50.35                             117    0.34 8  252 211 
 ROSC BZ I         033 56.38        28.0 0.40                           252 211 
 HEL  HZ EP        033 23.20                             115    0.66 8  273 256 
 HEL  HN ES        033 53.36                             115   -0.59 8  273 256 
 HEL  HZ I         033 60.00        12.6 0.26                           273 256 
 URE  HZ EP   4    033 19.54                             113   -3.92 0  285 292 
 URE  HE ES   4    033 53.06                             113   -2.53 0  285 292 
 URE  HZ I         034  5.80        10.4 0.22                           285 292 
 GUY2CHZ EP        033 25.71                             112   -0.17 7  301 235 
 GUY2CHN ES   4    034  1.40                             112    1.50 0  301 235 
 GUY2CHZ I         034  8.18        13.0 0.34                           301 235 
 VIL  SZ EP        033 25.53                             112   -0.05 7  303 192 
 VIL  SN ES        033 59.41                             112    0.05 7  303 192 
 PTGC HZ EP        033 25.00                             111   -0.96 7  307 159 
 PTGC HZ I         033 58.24        15.3 0.48                           307 159 
 PTGC HN ES   4    033 58.42                             111   -1.62 0  307 159 
 CBOC HZ EP        033 30.03                             110    0.79 7  334 252 
 CBOC HN ES        034  6.33                             110    0.46 7  334 252 
 CBOC HZ I         034 10.32         2.5 0.36                           334 252 
 ANIL HZ EP   2    033 31.94                             108   -0.11 3  357 225 
 ANIL HN ES   4    034 12.89                             108    2.01 0  357 225 
 PRA  HZ EP        033 35.81                             106    0.08 6  392 210 
 PRA  HN ES        034 17.05                             106   -0.38 6  392 210 
 PRA  HZ I         034 24.03        11.5 0.17                           392 210 
 ORTC HZ EP        033 36.16                             106    0.01 6  395 216 
 ORTC HE ES        034 19.10                             106    0.93 6  395 216 
 ORTC HZ I         034 23.30         9.2 0.20                           395 216 
 PAL  HZ EP        033 37.45                             106   -0.00 6  406 239 
 PAL  HN ES        034 20.95                             106    0.45 6  406 239 
 PAL  HZ I         034 24.44         3.5 0.28                           406 239 
 SJC  HZ EP   4    033 35.51                             105   -2.47 0  411 327 
 SJC  HN ES   4    034 16.73                             105   -4.71 0  411 327 
 SJC  HZ I         034 29.33         3.4 0.36                           411 327 
                                                                                
