 2012 1222 0701 46.4 L   6.695 -73.166124.5  RSN  4 0.3 1.2LRSN                1
 GAP=227        0.59       7.1     5.8 10.3  0.1627E+02 -0.3830E+01  0.2518E+02E
 Epicentro: VILLANUEVA - SANTANDER                                             3
 ACTION:UPD 13-01-04 14:29 OP:ep   STATUS:               ID:20121222070146 L   I
 2012-12-22-0700-00M.COL___243                                                 6
 STAT SP IPHASW D HRMM SECON CODA AMPLIT PERI AZIMU VELO AIN AR TRES W  DIS CAZ7
 BRR  HZ EP        7 2  5.89                             146    0.2810 75.6 307 
 BRR  HN ES   1    7 2 20.31                             146   -0.26 7 75.6 307 
 BRR  HZ I         7 2 37.82         3.6 0.41                          75.6 307 
 RUS  HZ EP   1    7 2  7.22                             142   -0.05 7 89.2 174 
 RUS  HZ I         7 2 28.43         2.3 0.26                          89.2 174 
 PTB  HZ EP   1    7 2 10.92                             127   -0.44 7  144 263 
 PTB  HN ES   1    7 2 31.08                             127    0.28 7  144 263 
 PTB  HZ I         7 2 33.89         2.7 0.18                           144 263 
 ZAR  HE ES   1    7 2 42.32                             117   -0.07 6  207 295 
                                                                                
