 2014  522 0951 11.6 L   6.809 -73.126147.6  RSN 26 0.6 2.5LRSN 3.2WRSN        1
 SPEC AVERAGE  MO 13.9 ST0.099 OM  1.9 f0 1.25 R1.5854 AL 0.00 WI 30.0 MW  3.2 3
 SPEC SD       MO  0.2 ST  1.4 OM  0.3 f00.819 R0.4582 AL      WI      MW  0.1 3
 GAP= 72        1.25       3.2     4.1  5.4 -0.3316E+01  0.3756E+01  0.2987E+01E
 Epicentro: LOS SANTOS - SANTANDER                                             3
 SPEC ROSCBH Z MO 14.1 ST0.068 OM  1.9 f00.972 R1.9794 AL-0.00 WI 30.0 MW  3.3 3
 SPEC ROSCBH Z T 95220 K 0.000 GD  294 VS 5.20 DE 3.50 Q0750.0 QA 1.50 VS 5.20 3
 SPEC HEL HH Z MO 13.7 ST0.067 OM  1.5 f0 1.29 R1.4915 AL-0.00 WI 30.0 MW  3.1 3
 SPEC HEL HH Z T 95221 K 0.000 GD  311 VS 5.20 DE 3.50 Q0750.0 QA 1.50 VS 5.20 3
 SPEC URE HH Z MO 14.1 ST0.162 OM  1.9 f0 1.26 R1.5270 AL-0.00 WI 30.0 MW  3.4 3
 SPEC URE HH Z T 95221 K 0.000 GD  320 VS 5.20 DE 3.50 Q0750.0 QA 1.50 VS 5.20 3
 SPECGUY2CHH Z MO 14.0 ST  0.0 OM  1.8 f00.908 R  2.12 AL-0.00 WI 30.0 MW  3.3 3
 SPECGUY2CHH Z T 95229 K       GD337.9 VS 5.20 DE 3.50 Q0750.0 QA 1.50 VS 5.20 3
 SPEC VIL SH Z MO 13.7 ST0.162 OM  1.5 f0 1.68 R1.1452 AL-0.00 WI 30.0 MW  3.1 3
 SPEC VIL SH Z T 95226 K 0.000 GD  338 VS 5.20 DE 3.50 Q0750.0 QA 1.50 VS 5.20 3
 SPEC RREFHH Z MO 14.0 ST0.052 OM  1.7 f00.969 R1.9856 AL-0.00 WI 30.0 MW  3.3 3
 SPEC RREFHH Z T 95232 K 0.000 GD  356 VS 5.20 DE 3.50 Q0750.0 QA 1.50 VS 5.20 3
 SPEC CBOCHH Z MO 13.7 ST0.039 OM  1.4 f0 1.10 R1.7491 AL-0.00 WI 30.0 MW  3.1 3
 SPEC CBOCHH Z T 95232 K 0.000 GD  366 VS 5.20 DE 3.50 Q0750.0 QA 1.50 VS 5.20 3
 SPEC ANILHH Z MO 14.1 ST0.153 OM  1.8 f0 1.25 R1.5392 AL-0.00 WI 30.0 MW  3.3 3
 SPEC ANILHH Z T 95239 K 0.000 GD  389 VS 5.20 DE 3.50 Q0750.0 QA 1.50 VS 5.20 3
 SPEC PRA HH Z MO 13.9 ST0.097 OM  1.6 f0 1.22 R1.5770 AL-0.00 WI 30.0 MW  3.2 3
 SPEC PRA HH Z T 95246 K 0.000 GD  420 VS 5.20 DE 3.50 Q0750.0 QA 1.50 VS 5.20 3
 SPEC ORTCHH Z MO 13.6 ST0.093 OM  1.3 f0 1.51 R1.2742 AL-0.00 WI 30.0 MW  3.0 3
 SPEC ORTCHH Z T 95247 K 0.000 GD  424 VS 5.20 DE 3.50 Q0750.0 QA 1.50 VS 5.20 3
 OLDACT:REG 14-05-22 13:42 OP:spq  STATUS:               ID:20140522094813     3
 ACTION:UPD 15-03-16 16:59 OP:nd   STATUS:               ID:20140522095111 L   I
 OLDACT:UP  14-05-22 18:16 OP:fm   STATUS:               ID:20140522094813     3
 2014-05-22-0948-13M.COL___246                                                 6
 STAT SP IPHASW D HRMM SECON CODA AMPLIT PERI AZIMU VELO AIN AR TRES W  DIS CAZ7
 BAR2 SZ EP        951 31.41                             170   -0.0910 24.8 194 
 BAR2 SZ ES   1    951 46.79                             170   -0.22 7 24.8 194 
 BAR2 SZ I         951 49.00        90.2 0.24            167           24.8 194 
 BRR  HZ EP        951 33.56                             152    0.5110 72.6 297 
 BRR  HN ES        951 50.66                             152    0.9010 72.6 297 
 BRR  SZ I         951 52.96        30.8 0.36            153           72.6 297 
 PAM  SZ IP        951 34.28                             152    0.3710 75.2  39 
 PAM  SN ES        951 51.36                             152    0.0710 75.2  39 
 PAM  SZ I         951 53.66        36.5 0.50            147           75.2  39 
 RUS  HZ EP        951 35.26                             144   -0.3610  101 177 
 RUS  HN ES        951 53.62                             144   -0.7110  101 177 
 RUS  SZ I         951 54.52        20.8 0.36            138            101 177 
 PTB  HZ EP        951 38.09                             132   -0.85 9  150 259 
 PTB  HN ES        951 59.51                             132   -0.75 9  150 259 
 PTB  SZ I         952  3.08        27.1 0.18            129            150 259 
 TAM  HZ EP   1    951 39.16                             131   -0.12 7  153 106 
 TAM  SZ I         952  2.37        25.0 0.50            125            153 106 
 OCA  HZ EP        951 40.28                             130    0.28 9  160 352 
 OCA  HN ES        952  2.48                             130    0.34 9  160 352 
 OCA  SZ I         952  7.76        34.6 0.38            127            160 352 
 SPBC HZ EP        951 40.29                             129   -0.17 9  165 219 
 SPBC HE ES        952  2.83                             129   -0.13 9  165 219 
 SPBC SZ I         952  8.53        60.5 0.28            125            165 219 
 ZAR  HZ EP        951 43.95                             122   -0.40 8  206 292 
 ZAR  HE ES        952  9.89                             122    0.01 8  206 292 
 ZAR  SZ I         952 16.33        31.7 0.48            120            206 292 
 NOR  HZ EP        951 47.16                             119   -0.54 8  237 235 
 NOR  HE ES        952 15.44                             119   -0.41 8  237 235 
 NOR  SZ I         952 17.15        27.5 0.20            115            237 235 
 SML  HZ EP        951 47.73                             118   -0.62 8  244 335 
 SML  HN ES   4    952 17.87                             118    0.88 0  244 335 
 SML  SZ I         952 18.51        38.2 0.08            115            244 335 
 CHI  HZ EP        951 49.41                             117   -0.18 8  250 196 
 CHI  HE ES        952 20.34                             117    1.14 8  250 196 
 CHI  SZ I         952 24.87         9.1 0.18            113            250 196 
 ROSC BZ EP        951 50.98                             117    0.93 8  255 211 
 ROSC BN ES   4    952 21.58                             117    1.55 0  255 211 
 ROSC SZ I         952 29.03        35.7 0.40            113            255 211 
 HEL  HZ EP        951 52.81                             115    0.63 8  274 256 
 HEL  HN ES   1    952 22.64                             115   -1.18 6  274 256 
 HEL  SZ I         952 28.62        15.4 0.36            112            274 256 
 URE  HZ EP   4    951 51.48                             114   -1.48 0  285 292 
 URE  HN ES   4    952 23.18                             114   -2.02 0  285 292 
 URE  SZ I         952 29.16        18.7 0.16            111            285 292 
 GUY2CHZ EP        951 55.95                             112    0.37 7  304 235 
 GUY2CHN ES   4    952 31.22                             112    1.36 0  304 235 
 GUY2CSZ I         952 37.79        22.1 0.42                           304 235 
 VIL  SZ EP   2    951 54.28                             112   -1.00 4  305 192 
 VIL  SZ I         952 35.98        14.5 0.32            108            305 192 
 RREF HZ EP        951 59.07                             111    0.97 7  324 229 
 RREF HN ES        952 34.33                             111   -0.03 7  324 229 
 RREF SZ I         952 40.89        24.2 0.32            108            324 229 
 CBOC HZ EP        951 59.11                             110    0.23 7  336 252 
 CBOC HN ES   4    952 33.89                             110   -1.85 0  336 252 
 CBOC SZ I         952 41.84         7.1 0.60            107            336 252 
 DBB  SZ EP        951 59.05                             110   -0.36 7  342 274 
 DBB  SZ ES   4    952 34.70                             110   -1.98 0  342 274 
 TOL  SZ EP        952  1.01                             109    0.81 6  346 225 
 TOL  SZ ES   4    952 34.82                             109   -3.28 0  346 225 
 TOL  SZ I         952 46.07         6.2 2.50            106            346 225 
 SDV  BZ EP        952  0.71                             109   -0.75 6  358  50 
 SDV  BN ES   4    952 38.04                             109   -2.30 0  358  50 
 ARGC HN ES   4    952 36.90                             109   -3.18 0  359 340 
 ANIL HZ EP   1    952  2.63                             109    0.88 5  360 225 
 ANIL HN ES   1    952 40.85                             109   -0.00 5  360 225 
 PRA  HZ EP        952  4.86                             107   -0.57 6  394 210 
 PRA  HN ES        952 48.42                             107    1.02 6  394 210 
 PRA  SZ I         952 50.77         9.6 0.42            103            394 210 
 ORTC HZ EP        952  5.14                             106   -0.70 6  398 216 
 ORTC HN ES        952 48.61                             106    0.47 6  398 216 
 ORTC SZ I         952 52.26         9.7 0.56            103            398 216 
 SJC  HZ EP   4    952  5.61                             106   -1.67 0  410 327 
 SJC  HN ES   4    952 46.32                             106   -4.37 0  410 327 
 SJC  SZ I         953  0.63         6.0 1.40            103            410 327 
                                                                                
