 2016  622 0107 19.4 L   6.752 -73.174145.2  RSN  4 0.3 1.2LRSN                1
 GAP=240        0.60       7.1     5.4  6.5  0.2844E+02  0.8887E+00 -0.1033E+02E
 Epicentro: LOS SANTOS - SANTANDER                                             3
 ACTION:UPD 16-07-21 22:21 OP:rebc STATUS:               ID:20160622010719 L   I
 OLDACT:REG 16-06-22 13:08 OP:ak   STATUS:               ID:20160622005742     3
 2016-06-22-0057-42M.COL___325                                                 6
 STAT SP IPHASW D HRMM SECON CODA AMPLIT PERI AZIMU VELO AIN AR TRES W  DIS CAZ7
 BAR2 EZ EP   2    1 7 38.48                             173   -0.38 5 17.7 183 
 BAR2 EZ ES   1    1 7 54.00                             173   -0.03 7 17.7 183 
 BAR2 EZ I         1 7 55.42         4.0 0.19                          17.7 183 
 RUS  HZ EP        1 7 42.48                             145   -0.2610 95.5 174 
 RUS  HN ES        1 8  1.20                             145    0.2610 95.5 174 
 RUS  HZ I         1 8  2.91         1.7 0.36                          95.5 174 
 PTB  HZ EP        1 7 46.22                             133    0.27 9  144 261 
 PTB  HN ES        1 8  6.35                             133   -0.31 9  144 261 
 PTB  HZ I         1 8 12.82         2.1 0.26                           144 261 
 ZAR  HZ EP   3    1 7 52.14                             122    0.42 2  203 294 
 ZAR  HN ES        1 8 17.11                             122    0.18 9  203 294 
                                                                                
