 2010 1222 0714 37.0 L   6.763 -72.912149.2  RSN  6 0.4 1.5LRSN                1
 GAP=186        0.82       4.1    21.4  8.6 -0.2315E+02 -0.3961E+02 -0.2688E+01E
 Epicentro: CEPITA - SANTANDER                                                 3
 ACTION:UP  11-01-14 15:26 OP:pat  STATUS:               ID:20101222071437 L   I
 2010-12-22-0709-42S.COL___134                                                 6
 STAT SP IPHASW D HRMM SECON CODA AMPLIT PERI AZIMU VELO SNR AR TRES W  DIS CAZ7
 BAR2 SZ EP   1    714 56.94                             166    -0.4 7   36 238 
 BAR2 SZ ES   1    715 12.82                             166    -0.4 7   36 238 
 BAR2 SZ I         715 13.80        12.6 0.19                            36 238 
 BTL  SZ EP        714 57.45                             163    -0.210   43 294 
 RUS  HZ EP   1    715  0.99                             145     0.1 7   98 191 
 RUS  HN ES   1    715 19.96                             145     0.4 7   98 191 
 RUS  HZ I         715 21.58         3.7 0.34                            98 191 
 GRA  SZ EP   1    715  2.84                             138     0.4 7  125   5 
 OCA  SZ EP   1    715  6.28                             129    -0.2 7  169 345 
 OCA  SZ ES   1    715 29.86                             129     0.5 7  169 345 
 OCA  SZ I         715 30.77         3.5 0.67                           169 345 
 CHI  HZ EP   1    715 14.95                             117    -0.4 6  253 201 
 CHI  HZ I         715 15.53         1.7 0.18                           253 201 
 CHI  HE ES   1    715 45.85                             117     0.6 6  253 201 
                                                                                
