 2017  122 0204  5.6 L   6.859 -73.359124.7  RSN  9 0.5 1.5LRSN                1
 GAP=109        1.00       4.0     3.6  6.2  0.3594E+00  0.7024E+01  0.2538E+01E
 Epicentro: SAN VICENTE DE CHUCURI - SANTANDER                                 3
 ACTION:UPD 17-05-22 16:02 OP:jn   STATUS:               ID:20170122020405 L   I
 OLDACT:UP  17-01-22 14:03 OP:dani STATUS:               ID:20170122015739     3
 OLDACT:UP  17-01-22 14:02 OP:dani STATUS:               ID:20170122015739     3
 OLDACT:UP  17-01-22 14:02 OP:dani STATUS:               ID:20170122015739     3
 OLDACT:UP  17-01-22 14:02 OP:dani STATUS:               ID:20170122015739     3
 OLDACT:REG 17-01-22 12:35 OP:dani STATUS:               ID:20170122015739     3
 2017-01-22-0158-00M.COL___346                                                 6
 STAT SP IPHASW D HRMM SECON CODA AMPLIT PERI AZIMU VELO AIN AR TRES W  DIS CAZ7
 BAR2 EZ EP        2 4 23.22                             163    0.1210 35.4 147 
 BAR2 EZ ES        2 4 36.52                             163   -0.2010 35.4 147 
 BRR  HZ EP        2 4 23.59                             158    0.3410 47.7 305 
 BRR  HN ES        2 4 37.64                             158    0.6610 47.7 305 
 BRR  HZ I         2 4 38.79         9.2 0.22            157           47.7 305 
 PAM  EZ EP        2 4 26.65                             142    0.0810 90.1  54 
 PAM  EN ES        2 4 42.88                             142   -0.0110 90.1  54 
 PAM  EZ I         2 4 45.09         7.2 0.24            145           90.1  54 
 RUS  HZ EP        2 4 28.18                             136   -0.0810  111 164 
 RUS  HN ES        2 4 45.49                             136   -0.4110  111 164 
 RUS  HZ I         2 4 47.26         3.2 0.42            137            111 164 
 PTB  HZ EP        2 4 28.50                             131   -0.4610  126 254 
 PTB  HN ES        2 4 46.52                             131   -0.6210  126 254 
 PTB  HZ I         2 4 50.61         5.2 0.26            131            126 254 
 ZAR  HZ EP        2 4 33.91                             121   -0.31 9  180 293 
 ZAR  HE ES   3    2 4 58.34                             121    1.83 2  180 293 
 ZAR  HZ I         2 5  2.84         5.5 0.32            121            180 293 
 NOR  HN ES        2 5  4.92                             115    0.56 8  220 229 
 ROSC BZ EP   4    2 4 29.43                             112   -12.7 0  247 206 
 ROSC BN ES   4    2 4 54.03                             112   -16.5 0  247 206 
 CHI  HZ EP        2 4 43.09                             112    0.66 8  250 190 
 CHI  HN ES   3    2 5 12.19                             112    1.08 2  250 190 
 CHI  HZ I         2 5 16.99         1.4 0.26            113            250 190 
 URE  HN ES        2 5 11.83                             111   -0.30 8  260 292 
                                                                                
