 2014  922 0409 18.7 L   6.821 -73.136143.4  RSN  4 0.2 1.0LRSN                1
 GAP=202        0.57       2.9     4.2  7.2  0.3079E+01 -0.4144E+01 -0.1163E+02E
 Epicentro: LOS SANTOS - SANTANDER                                             3
 ACTION:UPD 14-10-03 23:07 OP:nd   STATUS:               ID:20140922040918 L   I
 OLDACT:UP  14-09-22 16:45 OP:cam  STATUS:               ID:20140922040745     3
 OLDACT:REG 14-09-22 15:56 OP:cam  STATUS:               ID:20140922040745     3
 2014-09-22-0407-45M.COL___281                                                 6
 STAT SP IPHASW D HRMM SECON CODA AMPLIT PERI AZIMU VELO AIN AR TRES W  DIS CAZ7
 RUS  HZ EP        4 9 42.62                             143    0.2310  103 177 
 RUS  HN ES        410  0.68                             143   -0.1810  103 177 
 RUS  HZ I         410  3.63         0.7 0.42            148            103 177 
 PTB  HZ EP        4 9 45.29                             131   -0.34 9  149 258 
 PTB  HN ES        410  6.59                             131   -0.03 9  149 258 
 PTB  HZ I         410 12.29         1.2 0.66            134            149 258 
 SPBC HZ EP        4 9 47.45                             128    0.18 9  166 219 
 SPBC HN ES        410  9.70                             128    0.16 9  166 219 
 SPBC HZ I         410 15.22         1.7 0.22            132            166 219 
 SML  HZ EP        4 9 54.77                             117   -0.26 8  242 335 
 SML  HN ES        410 23.61                             117    0.26 8  242 335 
 SML  HZ I         410 28.03         1.6 0.24            121            242 335 
                                                                                
