 2017  622 0530 26.3 L   6.720 -73.209153.5  RSN  4 0.3 1.3LRSN                1
 GAP=271        0.73       4.9     7.7  8.3 -0.1988E+01 -0.8030E+01  0.1029E+01E
 Epicentro: VILLANUEVA - SANTANDER                                             3
 ACTION:UPD 17-09-14 16:54 OP:jn   STATUS:               ID:20170622053026 L   I
 OLDACT:REG 17-06-22 13:13 OP:lv   STATUS:               ID:20170622052735     3
 2017-06-22-0528-00M.COL___342                                                 6
 STAT SP IPHASW D HRMM SECON CODA AMPLIT PERI AZIMU VELO AIN AR TRES W  DIS CAZ7
 BRR  HZ EP        530 48.10                             154   -0.1410 70.2 308 
 BRR  HN ES        531  5.44                             154    0.0910 70.2 308 
 BRR  HZ I         531  8.20         3.5 0.43            150           70.2 308 
 PTB  HZ EP        530 53.07                             135   -0.12 9  139 262 
 PTB  HN ES        531 13.63                             135   -0.52 9  139 262 
 PTB  HZ I         531 16.39         1.3 0.14            134            139 262 
 SPBC HN ES        531 16.61                             133    0.32 9  152 219 
 SPBC HZ I         531 18.59         3.8 0.29            133            152 219 
 ZAR  HZ EP   2    530 59.37                             124    0.39 4  201 295 
 ZAR  HE ES        531 24.82                             124    0.36 9  201 295 
 ZAR  HZ I         531 30.38         2.4 0.28            124            201 295 
                                                                                
