 2013 1122 0534 48.6 L   6.774 -73.336129.1  RSN  8 0.4 1.8LRSN                1
 GAP=115        0.97       8.4     4.7  8.0  0.5761E+00  0.3682E+01 -0.1408E+02E
 Epicentro: ZAPATOCA - SANTANDER                                               3
 ACTION:UPD 14-01-09 16:30 OP:ep   STATUS:               ID:20131122053448 L   I
 OLDACT:UP  13-11-22 13:19 OP:mh   STATUS:               ID:20131122053000     3
 OLDACT:REG 13-11-22 11:26 OP:mh   STATUS:               ID:20131122053000     3
 2013-11-22-0530-00M.COL___282                                                 6
 STAT SP IPHASW D HRMM SECON CODA AMPLIT PERI AZIMU VELO AIN AR TRES W  DIS CAZ7
 BAR2 SZ EP        535  6.81                             168    0.5610 26.4 140 
 BAR2 SZ ES   1    535 20.22                             168    0.16 7 26.4 140 
 BAR2 SZ I         535 21.22        56.5 0.33            172           26.4 140 
 BRR  HZ EP        535  7.21                             155    0.1810 55.5 312 
 BRR  HN ES   1    535 21.00                             155   -0.44 7 55.5 312 
 BRR  HZ I         535 25.57         5.6 0.11            154           55.5 312 
 PAM  SZ EP        535  9.77                             142   -0.4310 94.1  48 
 PTB  HZ EP        535 12.18                             132   -0.0510  127 258 
 PTB  HN ES        535 30.12                             132   -0.5910  127 258 
 PTB  HZ I         535 33.93        12.0 0.16            134            127 258 
 OCA  HZ EP   4    535 18.16                             125    2.37 0  162   1 
 OCA  HN ES   4    535 34.78                             125   -2.25 0  162   1 
 OCA  HZ I         535 36.55         9.7 0.20            128            162   1 
 ZAR  HZ EP   1    535 18.34                             121    0.30 7  186 295 
 ZAR  HN ES        535 41.68                             121    0.63 9  186 295 
 ZAR  HZ I         535 45.21         6.3 0.14            123            186 295 
 NOR  HN ES   4    535 48.76                             117    1.86 0  216 232 
 HEL  HZ EP   1    535 25.44                             113   -0.14 6  251 255 
 GUY2CHZ EP   4    535 31.32                             110    2.02 0  283 233 
 GUY2CHN ES   4    536  3.35                             110    2.27 0  283 233 
 SJC  HZ EP   1    535 41.85                             103   -0.73 4  401 330 
 SJC  HN ES   4    536 20.95                             103   -3.78 0  401 330 
                                                                                
