 2012  822 0141 50.3 L   6.907 -72.951  4.0  RSN  8 0.5 2.1LRSN                1
 GAP=157        1.04       2.5     3.0  5.7 -0.2722E+01  0.3803E+01 -0.1228E+01E
 Epicentro: GUACA - SANTANDER                                                  3
 ACTION:UPD 12-09-10 11:57 OP:ep   STATUS:               ID:20120822014150 L   I
 2012-08-22-0140-00M.COL___218                                                 6
 STAT SP IPHASW D HRMM SECON CODA AMPLIT PERI AZIMU VELO AIN AR TRES W  DIS CAZ7
 GIR2 SZ IP        141 55.26                              47   -0.7710 32.9 305 
 BAR2 SZ IP        141 57.53                              47   -0.1610 43.2 216 
 BAR2 SZ ES   1    142  2.65                              47   -0.80 7 43.2 216 
 BAR2 SZ I         142  3.83       149.1 0.32                          43.2 216 
 PAM  SZ IP     C  142  0.07                              47    0.2810 55.3  30 
 PAM  SN ES        142  6.93                              47   -0.2610 55.3  30 
 PAM  SZ I         142  7.68        82.0 0.09                          55.3  30 
 BRR  HZ IP     D  142  4.57                              47    0.4910 87.0 285 
 BRR  HZ I         142  8.35        59.7 0.08                          87.0 285 
 BRR  HN ES        142 14.84                              47    0.0210 87.0 285 
 RUS  HZ EP   1    142  9.26                              47    0.72 7  113 187 
 RUS  HN ES   1    142 22.56                              47   -0.21 7  113 187 
 RUS  HZ I         142 24.57        30.4 0.22                           113 187 
 OCA  HZ EP   1    142 14.49                              47    0.27 7  153 345 
 OCA  HN ES   2    142 32.33                              47   -0.54 5  153 345 
 OCA  HZ I         142 36.36        29.7 0.13                           153 345 
 PTB  HZ EP        142 17.41                              47    0.53 9  171 256 
 PTB  HZ I         142 17.96        15.7 0.31                           171 256 
 PTB  HN ES        142 37.61                              47    0.01 9  171 256 
 ZAR  HN ES   1    142 49.06                              37    0.34 6  220 287 
 ZAR  HZ I         142 50.26        16.2 0.20                           220 287 
                                                                                
