 2016  322 0802 41.8 L   6.152 -73.800 98.0  RSN  6 0.4 1.8LRSN                1
 GAP= 99        1.03       4.2     3.4  9.1 -0.1364E+01  0.7873E+01 -0.1333E+02E
 Epicentro: LANDAZURI - SANTANDER                                              3
 ACTION:UPD 16-05-13 21:26 OP:cam  STATUS:               ID:20160322080241 L   I
 OLDACT:UP  16-03-22 18:11 OP:ak   STATUS:               ID:20160322075745d    3
 OLDACT:DUP 16-03-22 18:08 OP:ak   STATUS:               ID:20160322075745d    3
 OLDACT:UP  16-03-22 17:59 OP:ak   STATUS:               ID:20160322075744     3
 OLDACT:REG 16-03-22 13:09 OP:ak   STATUS:               ID:20160322075744     3
 2016-03-22-0757-44M.COL___297                                                 6
 STAT SP IPHASW D HRMM SECON CODA AMPLIT PERI AZIMU VELO AIN AR TRES W  DIS CAZ7
 SPBC HZ EP        8 2 57.87                             145    0.2910 63.0 209 
 SPBC HN ES        8 3 10.64                             145    0.7610 63.0 209 
 SPBC HZ I         8 3 13.13        54.0 0.04            145           63.0 209 
 BAR2 EZ EP        8 2 59.64                             137    0.2210 83.9  55 
 BAR2 EZ ES        8 3 13.29                             137    0.1310 83.9  55 
 BAR2 EZ I         8 3 15.17        25.4 0.20            139           83.9  55 
 PTB  HZ EP   2    8 2 58.65                             136   -0.50 5 84.3 301 
 PTB  HN ES        8 3 12.25                             136   -0.4310 84.3 301 
 PTB  HZ I         8 3 12.89        11.9 0.06            137           84.3 301 
 RUS  HZ EP   2    8 2 59.45                             137   -0.37 5 84.4 110 
 RUS  HN ES        8 3 13.31                             137   -0.5510 84.4 110 
 RUS  HZ I         8 3 14.98         6.1 0.36            138           84.4 110 
 NOR  HZ EP   2    8 3  4.39                             122    0.29 5  135 241 
 NOR  HE ES        8 3 20.90                             122   -0.5810  135 241 
 NOR  HZ I         8 3 25.85        12.7 0.58            122            135 241 
 ZAR  HZ EP        8 3  9.89                             113   -0.04 9  189 322 
 ZAR  HN ES        8 3 32.24                             113    0.39 9  189 322 
 ZAR  HZ I         8 3 34.97         8.1 0.15            113            189 322 
                                                                                
