 2012 1022 0312 23.0 L   6.795 -73.112144.0  RSN  6 0.3 1.7LRSN                1
 GAP=141        0.76       3.6     5.1  8.4  0.4117E+01  0.3839E+01 -0.7853E+01E
 Epicentro: LOS SANTOS - SANTANDER                                             3
 ACTION:UPD 12-11-22 17:05 OP:ep   STATUS:               ID:20121022031224dL   I
 2012-10-22-0310-00M.COL___233                                                 6
 STAT SP IPHASW D HRMM SECON CODA AMPLIT PERI AZIMU VELO AIN AR TRES W  DIS CAZ7
 BAR2 SZ EP   1    312 42.24                             170   -0.20 7 23.7 199 
 BAR2 SZ ES   1    312 57.62                             170    0.03 7 23.7 199 
 BAR2 SZ I         312 58.25        12.8 0.16                          23.7 199 
 BRR  HZ EP   1    312 44.30                             151    0.12 7 74.8 298 
 BRR  HN ES   2    313  1.22                             151    0.53 5 74.8 298 
 BRR  HZ I         313  6.04         8.4 0.12                          74.8 298 
 PAM  SZ EP        312 45.44                             151    0.5110 75.5  37 
 PAM  SN ES   2    313  2.34                             151    0.32 5 75.5  37 
 PAM  SN I         313  3.42        15.3 0.47                          75.5  37 
 RUS  HZ EP   1    312 46.31                             143   -0.22 7 99.8 178 
 RUS  HN ES        313  4.68                             143   -0.2010 99.8 178 
 RUS  HN I         313  6.38         4.7 0.15                          99.8 178 
 OCA  HN ES        313 12.75                             129   -0.59 9  161 352 
 ZAR  HE ES        313 21.39                             121    0.15 8  208 292 
 ZAR  HN I         313 26.64         7.7 0.29                           208 292 
                                                                                
