 2010 1022 0248 25.9 L   6.807 -73.086143.4  RSN  6 0.2 1.6LRSN                1
 GAP=165        0.43       2.8     5.6  4.6 -0.5440E-01 -0.5640E+01  0.3001E+01E
 Epicentro: LOS SANTOS - SANTANDER                                             3
 ACTION:UP  11-02-18 11:11 OP:tino STATUS:               ID:20101022024825 L   I
 2010-10-22-0245-12S.COL___125                                                 6
 STAT SP IPHASW D HRMM SECON CODA AMPLIT PERI AZIMU VELO SNR AR TRES W  DIS CAZ7
 BAR2 SZ EP   1    248 45.07                             169    -0.2 7   26 204 
 BAR2 SZ ES   2    249  0.21                             169    -0.2 5   26 204 
 BAR2 SZ I         249  1.66         7.5 0.15                            26 204 
 BRR  HZ IP     D  248 46.97                             150    -0.110   77 296 
 BRR  HZ I         248 54.87        12.4 0.44                            77 296 
 BRR  HE ES   1    249  3.69                             150     0.1 7   77 296 
 RUS  HZ EP   1    248 49.50                             143     0.1 7  101 180 
 RUS  HE ES   2    249  8.10                             143     0.3 5  101 180 
 RUS  HZ I         249 10.02         2.9 0.25                           101 180 
 GRA  SZ EP   1    248 50.88                             137     0.2 7  123  15 
 GRA  SZ I         249 17.78         3.1 0.13                           123  15 
 CHI  HZ EP   1    249  3.52                             116    -0.2 6  251 197 
 CHI  HN ES   2    249 33.10                             116    -0.1 4  251 197 
 CHI  HZ I         249 35.70         1.9 0.28                           251 197 
 PRA  HZ EP   1    249 19.80                             106     0.0 4  396 210 
 PRA  HZ I         249 20.61         3.0 0.41                           396 210 
 PRA  HN ES   2    250  2.37                             106     0.6 3  396 210 
                                                                                
