 2017  522 0829 43.2 L   6.676 -73.198147.6  RSN  4 0.3 1.4LRSN                1
 GAP=222        0.75       6.1     6.5  6.7  0.2299E+02 -0.5980E+00 -0.6471E+01E
 Epicentro: VILLANUEVA - SANTANDER                                             3
 ACTION:UPD 17-06-16 13:37 OP:jn   STATUS:               ID:20170522082943 L   I
 OLDACT:DUP 17-05-22 16:24 OP:ar   STATUS:               ID:20170522082741d    3
 OLDACT:UP  17-05-22 16:24 OP:ar   STATUS:               ID:20170522082740     3
 OLDACT:REG 17-05-22 13:19 OP:ar   STATUS:               ID:20170522082740     3
 2017-05-22-0828-00M.COL___329                                                 6
 STAT SP IPHASW D HRMM SECON CODA AMPLIT PERI AZIMU VELO AIN AR TRES W  DIS CAZ7
 BRR  HZ EP        830  4.27                             152   -0.4410 74.2 310 
 BRR  HN ES        830 21.61                             152    0.1210 74.2 310 
 BRR  HZ I         830 23.06         5.3 0.14            149           74.2 310 
 RUS  HZ EP        830  6.25                             148    0.0110 87.5 172 
 RUS  HN ES        830 24.33                             148    0.1210 87.5 172 
 RUS  HZ I         830 25.63         2.1 0.30            146           87.5 172 
 PTB  HZ EP        830  9.45                             134   -0.17 9  140 264 
 PTB  HN ES        830 30.12                             134   -0.11 9  140 264 
 PTB  HZ I         830 36.78         1.9 0.38            131            140 264 
 ZAR  HZ EP        830 16.41                             123    0.61 9  204 296 
 ZAR  HN ES   4    830 39.86                             123   -1.37 0  204 296 
 ZAR  HZ I         830 44.30         5.7 0.10            122            204 296 
                                                                                
