 2010  422 0126 59.7 L   7.295 -73.303124.1  RSN  5 0.6 1.8LRSN                1
 GAP=114        0.98       7.8    13.0 12.8 -0.2738E+02 -0.3833E+01 -0.2498E+02E
 Epicentro: RIONEGRO - SANTANDER                                               3
 ACTION:UPD 10-08-24 10:00 OP:vdl  STATUS:               ID:20100422012659 L   I
 2010-04-22-0122-46S.COL___104                                                 6
 STAT SP IPHASW D HRMM SECON CODA AMPLIT PERI AZIMU VELO AIN AR TRES W  DIS CAZ7
 GIR2 SZ EP   2    127 16.70                             167     0.1 5   27 153 
 GIR2 SZ ES   2    127 29.22                             167    -0.7 5   27 153 
 BRR  HZ EP   1    127 17.82                             156     0.5 7   50 245 
 BRR  HZ I         127 18.06        14.9 0.14                            50 245 
 BRR  HN ES   1    127 31.33                             156     0.3 7   50 245 
 BAR2 SZ EP   2    127 19.33                             145     0.0 5   79 170 
 BAR2 SZ ES   2    127 34.19                             145    -0.5 5   79 170 
 GRA  SZ ES   2    127 36.48                             144     1.1 5   85  40 
 OCA  SZ EP   1    127 20.79                             137    -0.4 7  104 359 
 OCA  SZ ES   2    127 37.11                             137    -0.9 5  104 359 
 OCA  SZ I         127 39.32        15.3 0.23                           104 359 
                                                                                
