 2016 1022 0438 45.4 L   6.683 -73.227151.1  RSN  4 0.2 1.1LRSN                1
 GAP=218        0.56       4.0     4.4  5.1  0.7867E+01  0.7453E+00  0.2038E+01E
 Epicentro: BARICHARA - SANTANDER                                              3
 ACTION:UPD 16-11-09 19:21 OP:rebc STATUS:               ID:20161022043845 L   I
 OLDACT:REG 16-10-22 13:09 OP:and  STATUS:               ID:20161022042745     3
 2016-10-22-0428-00M.COL___346                                                 6
 STAT SP IPHASW D HRMM SECON CODA AMPLIT PERI AZIMU VELO AIN AR TRES W  DIS CAZ7
 BRR  HZ EP        439  7.18                             153    0.0510 71.2 311 
 BRR  HN ES        439 24.23                             153    0.1610 71.2 311 
 RUS  HZ EP        439  8.77                             148   -0.1110 88.8 170 
 RUS  HN ES        439 27.11                             148   -0.0910 88.8 170 
 RUS  HZ I         439 28.86         1.6 0.58            148           88.8 170 
 PTB  HZ EP        439 11.64                             136   -0.21 9  137 263 
 PTB  HN ES        439 32.23                             136   -0.26 9  137 263 
 PTB  HZ I         439 35.43         1.8 0.28            135            137 263 
 SPBC HZ EP        439 13.24                             133    0.36 9  147 219 
 SPBC HN ES   2    439 34.73                             133    0.42 5  147 219 
                                                                                
