 2017  722 0743 28.8 L   6.810 -73.138143.0  RSN 11 0.4 1.7LRSN                1
 GAP=112        0.87       3.2     3.0  5.0  0.1017E+01  0.2944E+01  0.3108E+01E
 Epicentro: LOS SANTOS - SANTANDER                                             3
 ACTION:UPD 17-08-30 15:35 OP:rebc STATUS:               ID:20170722074328 L   I
 OLDACT:UP  17-07-22 16:15 OP:dnl  STATUS:               ID:20170722073735     3
 OLDACT:REG 17-07-22 13:18 OP:dnl  STATUS:               ID:20170722073735     3
 2017-07-22-0738-00M.COL___380                                                 6
 STAT SP IPHASW D HRMM SECON CODA AMPLIT PERI AZIMU VELO AIN AR TRES W  DIS CAZ7
 BAR2 EZ IP     C  743 48.04                             170   -0.0910 24.6 191 
 BAR2 EZ ES        744  2.66                             170   -0.5510 24.6 191 
 BAR2 EZ I         744  4.28        12.3 0.18            169           24.6 191 
 BRR  HZ IP     C  743 49.85                             152    0.1810 71.4 297 
 BRR  HN ES        744  6.61                             152    0.6710 71.4 297 
 BRR  HZ I         744 10.81         9.5 0.12            151           71.4 297 
 PAM  EZ EP        743 50.96                             150    0.3110 76.0  40 
 PAM  EN ES        744  7.76                             150    0.0810 76.0  40 
 PAM  EZ I         744  8.44         7.5 0.18            155           76.0  40 
 RUS  HZ EP        743 52.15                             143   -0.2210  102 177 
 RUS  HN ES        744 10.61                             143   -0.1310  102 177 
 RUS  HZ I         744 11.95         2.2 0.24            145            102 177 
 PTB  HZ EP        743 55.13                             131   -0.52 9  149 258 
 PTB  HN ES        744 15.93                             131   -0.65 9  149 258 
 PTB  HZ I         744 21.65         3.8 0.38            131            149 258 
 SPBC HZ EP        743 57.15                             128   -0.08 9  165 219 
 SPBC HN ES        744 19.79                             128    0.39 9  165 219 
 SPBC HZ I         744 23.62         7.5 0.12            129            165 219 
 YPLC HZ EP        743 58.62                             126    0.16 9  177 152 
 YPLC HN ES        744 21.71                             126    0.12 9  177 152 
 YPLC HZ I         744 23.32         5.0 0.28            129            177 152 
 ZAR  HZ EP   2    744  1.21                             122    0.10 4  204 292 
 ZAR  HN ES        744 26.24                             122   -0.07 9  204 292 
 ZAR  HZ I         744 31.52         7.0 0.64            123            204 292 
 NOR  HZ EP        744  4.85                             118    0.33 8  236 234 
 NOR  HN ES        744 32.67                             118    0.30 8  236 234 
 NOR  HZ I         744 36.04         4.7 0.46            119            236 234 
 GUY2CHZ EP   2    744 12.58                             112    0.14 4  302 235 
 GUY2CHN ES   4    744 49.08                             112    2.61 0  302 235 
 GUY2CHZ I         744 53.42         2.3 0.42                           302 235 
 SJC  HZ EP   2    744 22.77                             105   -1.45 3  409 327 
 SJC  HE ES   4    745  4.42                             105   -3.03 0  409 327 
 SJC  HZ I         745  7.89         1.7 0.54            107            409 327 
                                                                                
