 2015 1222 0907 25.9 L   6.796 -73.138146.0  RSN 13 0.5 2.1LRSN                1
 GAP=138        1.17       3.0     4.5  6.0 -0.2200E+01  0.7538E+01  0.2275E+01E
 Epicentro: LOS SANTOS - SANTANDER                                             3
 ACTION:UPD 16-02-04 15:06 OP:cam  STATUS:               ID:20151222090725 L   I
 OLDACT:REG 15-12-22 13:07 OP:dnl  STATUS:               ID:20151222085749     3
 2015-12-22-0857-49M.COL___334                                                 6
 STAT SP IPHASW D HRMM SECON CODA AMPLIT PERI AZIMU VELO AIN AR TRES W  DIS CAZ7
 BAR2 EZ EP        9 7 45.57                             171   -0.0210 23.0 192 
 BAR2 EZ ES        9 8  0.23                             171   -0.6810 23.0 192 
 BAR2 EZ I         9 8  1.82        24.9 0.18            170           23.0 192 
 BRR  HZ EP        9 7 47.43                             152    0.2610 72.2 299 
 BRR  HN ES        9 8  4.56                             152    0.8410 72.2 299 
 BRR  HZ I         9 8  7.67        12.0 0.09            150           72.2 299 
 PAM  EZ EP        9 7 48.53                             151    0.3710 77.2  39 
 PAM  EE ES        9 8  5.87                             151    0.3710 77.2  39 
 PAM  EZ I         9 8  6.51        17.0 0.24            153           77.2  39 
 RUS  HZ EP        9 7 49.47                             144   -0.2010  100 177 
 RUS  HE ES        9 8  8.30                             144    0.1210  100 177 
 RUS  HZ I         9 8  9.35         8.1 0.23            146            100 177 
 PTB  HZ EP        9 7 52.30                             132   -0.69 9  149 259 
 PTB  HE ES        9 8 14.06                             132   -0.03 9  149 259 
 PTB  HZ I         9 8 15.33        13.4 0.14            131            149 259 
 OCA  HZ EP        9 7 54.69                             130    0.37 9  161 353 
 OCA  HN ES        9 8 15.63                             130   -0.83 9  161 353 
 OCA  HZ I         9 8 24.26        23.7 0.59            130            161 353 
 ZAR  HZ EP   2    9 7 58.52                             122    0.02 4  205 292 
 ZAR  HN ES        9 8 23.49                             122   -0.41 9  205 292 
 ZAR  HZ I         9 8 29.98        10.4 0.09            122            205 292 
 NOR  HZ EP        9 8  1.77                             118    0.05 8  235 235 
 NOR  HE ES        9 8 30.08                             118    0.44 8  235 235 
 NOR  HZ I         9 8 35.14         7.4 0.21            119            235 235 
 SML  HZ EP        9 8  2.06                             117   -0.60 8  245 335 
 SML  HE ES        9 8 31.57                             117    0.26 8  245 335 
 SML  HZ I         9 8 34.83        23.6 0.05            118            245 335 
 CHI  HZ EP        9 8  3.15                             117   -0.47 8  248 195 
 CHI  HE ES        9 8 32.77                             117   -0.24 8  248 195 
 CHI  HZ I         9 8 35.48         7.7 0.39            118            248 195 
 GUY2CHZ EP        9 8 10.76                             112    1.16 7  302 235 
 GUY2CHN ES        9 8 43.07                             112   -0.59 7  302 235 
 GUY2CHZ I         9 8 51.90         5.0 0.27                           302 235 
 ANIL HN ES        9 8 55.50                             108    0.84 6  358 225 
 ANIL HZ I         9 9  0.42        11.4 0.27            109            358 225 
 PRA  HZ EP        9 8 19.65                             107    0.19 6  392 210 
 PRA  HE ES        9 9  0.89                             107   -0.32 6  392 210 
 PRA  HZ I         9 9  6.06         6.5 0.32            107            392 210 
                                                                                
