 2010  822 0333 27.9 L   6.774 -73.044138.8  RSN 10 0.4 1.7LRSN                1
 GAP=170        1.13       4.8     7.7  9.1 -0.1505E+02 -0.1191E+02  0.1470E+02E
 Epicentro: LOS SANTOS - SANTANDER                                             3
 ACTION:UP  10-09-07 10:57 OP:vdl  STATUS:               ID:20100822033327 L   I
 2010-08-22-0329-27S.COL___120                                                 6
 STAT SP IPHASW D HRMM SECON CODA AMPLIT PERI AZIMU VELO SNR AR TRES W  DIS CAZ7
 BAR2 SZ EP        333 46.44                             169    -0.310   25 217 
 BAR2 SZ ES   1    334  1.47                             169     0.1 7   25 217 
 BAR2 SZ I         334  3.11        15.0 0.17                            25 217 
 GIR2 SZ EP   1    333 47.02                             165     0.1 7   38 334 
 BRR  HZ EP        333 48.31                             148    -0.710   83 297 
 BRR  HZ I         333 48.60        22.1 0.19                            83 297 
 BRR  HN ES        334  5.48                             148     0.110   83 297 
 RUS  HZ EP        333 50.81                             143     0.110   98 183 
 RUS  HZ I         333 51.42         4.8 0.79                            98 183 
 RUS  HN ES   3    334  9.10                             143     0.6 2   98 183 
 GUE  SZ EP        333 51.64                             138    -0.410  118   6 
 GUE  SZ I         334  9.26         2.6 0.21                           118   6 
 GRA  SZ EP        333 53.34                             136     0.910  126  12 
 GRA  SZ ES   1    334 11.73                             136     0.0 7  126  12 
 GRA  SZ I         334 14.26         4.7 0.28                           126  12 
 CHI  HZ EP   1    334  4.61                             116    -0.6 6  249 198 
 CHI  HN ES        334 34.45                             116     0.1 8  249 198 
 CHI  HZ I         334 38.49         3.9 0.46                           249 198 
 HEL  HN ES   1    334 41.04                             113     0.2 6  282 257 
 HEL  HZ I         334 44.93         4.1 0.33                           282 257 
 RREF HZ EP   1    334 15.24                             109     0.8 5  329 231 
 RREF HN ES   2    334 51.73                             109     0.9 3  329 231 
 RREF HZ I         334 56.10         3.9 0.35                           329 231 
 PRA  HN ES   1    335  3.06                             105    -0.3 4  395 211 
 PRA  HZ I         335  8.27         3.5 0.65                           395 211 
                                                                                
