 2017  222 0255 59.9 L   6.804 -73.149150.7  RSN  5 0.3 1.4LRSN                1
 GAP=238        0.75       5.0     4.5  6.0  0.4600E+01  0.4990E+01  0.2760E+01E
 Epicentro: LOS SANTOS - SANTANDER                                             3
 ACTION:UPD 17-05-24 15:39 OP:jn   STATUS:               ID:20170222025559 L   I
 OLDACT:DUP 17-02-22 13:51 OP:cog  STATUS:               ID:20170222024741d    3
 2017-02-22-0248-00M.COL___382                                                 6
 STAT SP IPHASW D HRMM SECON CODA AMPLIT PERI AZIMU VELO AIN AR TRES W  DIS CAZ7
 BAR2 EZ EP        256 20.05                             171   -0.0410 23.7 189 
 BAR2 EZ ES        256 35.67                             171   -0.2010 23.7 189 
 BAR2 EZ I         256 37.54        10.2 0.26            170           23.7 189 
 BRR  HZ EP        256 21.73                             153    0.2110 70.7 298 
 BRR  HE ES        256 38.75                             153    0.3410 70.7 298 
 BRR  HZ I         256 41.78         3.4 0.32            151           70.7 298 
 RUS  HZ EP        256 24.11                             145   -0.0210  101 176 
 RUS  HN ES        256 43.13                             145    0.0710  101 176 
 PTB  HZ EP        256 26.97                             133   -0.24 9  148 259 
 PTB  HN ES        256 48.00                             133   -0.54 9  148 259 
 PTB  HZ I         256 55.12         2.4 0.13            133            148 259 
 NOR  HN ES        257  4.46                             119    0.49 8  235 234 
                                                                                
