 2015  122 0337  8.0 L   6.814 -73.117145.1  RSN  6 0.5 1.2LRSN                1
 GAP=242        1.35       7.4     8.1  9.2  0.2573E+02  0.1110E+02 -0.3022E+01E
 Epicentro: LOS SANTOS - SANTANDER                                             3
 ACTION:UPD 15-03-02 15:41 OP:nd   STATUS:               ID:20150122033708 L   I
 OLDACT:REG 15-01-22 12:29 OP:carl STATUS:               ID:20150122032748     3
 2015-01-22-0327-48M.COL___265                                                 6
 STAT SP IPHASW D HRMM SECON CODA AMPLIT PERI AZIMU VELO AIN AR TRES W  DIS CAZ7
 BAR2 EZ EP        337 27.49                             170   -0.0810 25.5 196 
 BAR2 EZ ES        337 42.13                             170   -0.7210 25.5 196 
 BAR2 EZ I         337 44.15         3.8 0.34            170           25.5 196 
 BRR  HZ EP        337 28.79                             152   -0.3810 73.3 296 
 BRR  HN ES        337 46.47                             152    0.7710 73.3 296 
 BRR  HZ I         337 54.93         4.2 0.54            152           73.3 296 
 RUS  HZ EP        337 31.93                             143    0.1810  102 178 
 RUS  HE ES        337 50.79                             143    0.4910  102 178 
 RUS  HZ I         337 52.70         1.2 0.28            148            102 178 
 PTB  HZ EP        337 34.18                             131   -1.01 9  151 259 
 PTB  HE ES        337 55.93                             131   -0.50 9  151 259 
 PTB  HZ I         337 59.69         2.8 0.18            134            151 259 
 SPBC HZ EP        337 37.08                             128    0.36 9  166 220 
 SPBC HN ES        337 59.29                             128    0.15 9  166 220 
 SPBC HZ I         338  2.14         3.0 0.20            132            166 220 
 ZAR  HZ EP        337 41.22                             122    0.60 8  206 291 
 ZAR  HN ES        338  6.36                             122    0.27 8  206 291 
                                                                                
