 2010  922 0410 37.0 L   6.777 -73.114147.2  RSN  8 0.4 1.7LRSN                1
 GAP=162        0.77       3.7     7.7  6.5 -0.2792E+01  0.4547E+01  0.6864E+00E
 Epicentro: LOS SANTOS - SANTANDER                                             3
 ACTION:UP  11-02-18 11:04 OP:tino STATUS:               ID:20100922041037 L   I
 2010-09-22-0408-39S.COL___122                                                 6
 STAT SP IPHASW D HRMM SECON CODA AMPLIT PERI AZIMU VELO SNR AR TRES W  DIS CAZ7
 BAR2 SZ EP   1    410 56.58                             171    -0.2 7   22 201 
 BAR2 SZ ES   1    411 11.47                             171    -0.8 7   22 201 
 BAR2 SZ I         411 13.37        21.4 0.13                            22 201 
 BTL  SZ EP        410 56.96                             171     0.110   23 313 
 BRR  HZ IP     C  410 58.73                             151     0.110   76 299 
 BRR  HE ES   1    411 15.69                             151     0.3 7   76 299 
 BRR  HZ I         411 17.62         9.7 0.16                            76 299 
 RUS  HZ EP   1    411  0.56                             145    -0.2 7   98 178 
 RUS  HN ES   1    411 19.64                             145     0.4 7   98 178 
 RUS  HZ I         411 20.86         6.2 0.20                            98 178 
 GRA  SZ EP   2    411  2.42                             137    -0.1 5  127  16 
 GRA  SZ ES   2    411 22.86                             137     0.4 5  127  16 
 GRA  SZ I         411 23.53         5.7 0.23                           127  16 
 OCA  SZ EP   1    411  5.54                             129    -0.2 7  163 352 
 OCA  SZ ES   2    411 28.24                             129     0.1 5  163 352 
 OCA  SZ I         411 31.85         5.1 0.18                           163 352 
 NOR  SZ EP   1    411 12.85                             119    -0.2 6  236 236 
 NOR  SN ES   2    411 40.54                             119    -0.5 4  236 236 
 CHI  HZ EP   1    411 14.64                             117     0.0 6  247 196 
 CHI  HZ I         411 15.10         2.8 0.13                           247 196 
 CHI  HN ES   2    411 44.94                             117     1.0 4  247 196 
                                                                                
