 2017  822 0817 33.4 L   6.677 -73.520106.1  RSN  9 0.4 1.7LRSN                1
 GAP=122        0.96       3.3     3.0  5.7  0.2723E+01  0.3245E+01  0.4287E+01E
 Epicentro: EL CARMEN - SANTANDER                                              3
 ACTION:UPD 17-09-04 20:23 OP:rebc STATUS:               ID:20170822081733 L   I
 OLDACT:REG 17-08-22 13:08 OP:osc  STATUS:               ID:20170822080738     3
 2017-08-22-0808-00M.COL___411                                                 6
 STAT SP IPHASW D HRMM SECON CODA AMPLIT PERI AZIMU VELO AIN AR TRES W  DIS CAZ7
 BAR2 EZ EP     D  817 48.83                             159   -0.0310 38.5 104 
 BAR2 EZ ES        818  1.26                             159    0.3610 38.5 104 
 BAR2 EZ I         818  2.93        31.9 0.20            160           38.5 104 
 BRR  HZ EP        817 48.64                             152   -0.5610 52.0 336 
 BRR  HN ES        818  1.44                             152   -0.0710 52.0 336 
 BRR  HZ I         818  3.30        11.7 0.12            154           52.0 336 
 RUS  HZ EP        817 53.45                             134    0.0310 99.3 151 
 RUS  HN ES        818  9.27                             134    0.2610 99.3 151 
 RUS  HZ I         818 10.98        13.2 0.42            135           99.3 151 
 SPBC HZ EP        817 55.22                             125   -0.4310  129 208 
 SPBC HE ES        818 12.33                             125   -0.6610  129 208 
 SPBC HZ I         818 14.99         8.9 0.09            127            129 208 
 ZAR  HZ EP        818  0.18                             116   -0.02 9  173 301 
 ZAR  HN ES        818 21.45                             116    0.37 9  173 301 
 ZAR  HZ I         818 23.69         5.7 0.14            118            173 301 
 YPLC HZ EP        818  2.97                             114    0.86 9  190 138 
 YPLC HE ES        818 24.19                             114   -0.30 9  190 138 
 YPLC HZ I         818 28.04         5.3 0.46            116            190 138 
 TAM  HZ EP        818  2.34                             113   -0.11 9  193  98 
 TAM  HE ES   2    818 24.73                             113   -0.36 4  193  98 
 NOR  HZ EP        818  2.60                             113    0.09 9  194 231 
 NOR  HE ES        818 25.76                             113    0.55 9  194 231 
 NOR  HZ I         818 28.43         4.3 0.28            115            194 231 
 GUY2CHE ES   2    818 39.52                             106   -0.18 4  260 232 
                                                                                
