 2017 1222 0703 56.0 L   6.764 -73.171149.1  RSN  9 0.5 1.6LRSN                1
 GAP=119        1.21       4.6     4.9  7.6 -0.7682E+01  0.8713E+01  0.3545E+01E
 Epicentro: LOS SANTOS - SANTANDER                                             3
 ACTION:UPD 18-01-04 13:23 OP:rebc STATUS:               ID:20171222070356 L   I
 OLDACT:UP  17-12-22 15:32 OP:edw  STATUS:               ID:20171222065316d    3
 OLDACT:DUP 17-12-22 15:08 OP:edw  STATUS:               ID:20171222065316d    3
 OLDACT:UP  17-12-22 15:07 OP:edw  STATUS:               ID:20171222065315     3
 OLDACT:REG 17-12-22 13:14 OP:dani STATUS:               ID:20171222065315     3
 2017-12-22-0658-00M.COL___448                                                 6
 STAT SP IPHASW D HRMM SECON CODA AMPLIT PERI AZIMU VELO AIN AR TRES W  DIS CAZ7
 BAR2 EZ EP        7 4 16.14                             172    0.1910 19.1 184 
 BAR2 EZ ES        7 4 31.55                             172    0.0410 19.1 184 
 BAR2 EZ I         7 4 32.28        11.3 0.22            173           19.1 184 
 PAM  EZ EP        7 4 19.29                             150    0.4410 82.2  39 
 PAM  EN ES        7 4 36.73                             150    0.0510 82.2  39 
 PAM  EZ I         7 4 38.75         6.8 0.40            152           82.2  39 
 PTB  HZ EP        7 4 23.20                             133    0.28 9  144 260 
 PTB  HN ES        7 4 43.25                             133   -0.68 9  144 260 
 PTB  HZ I         7 4 45.21         3.1 0.58            133            144 260 
 SPBC HZ EP        7 4 24.60                             131    0.30 9  158 219 
 SPBC HN ES        7 4 46.19                             131   -0.19 9  158 219 
 SPBC HZ I         7 4 50.18         5.6 0.46            132            158 219 
 OCA  HZ EP        7 4 24.92                             130    0.02 9  164 354 
 OCA  HE ES        7 4 47.20                             130   -0.25 9  164 354 
 OCA  HZ I         7 4 48.46        10.5 0.38            131            164 354 
 ZAR  HZ EP        7 4 27.27                             123   -1.28 9  203 293 
 ZAR  HN ES        7 4 54.48                             123    0.54 9  203 293 
 ZAR  HZ I         7 5  0.87         4.6 0.36            123            203 293 
 GUY2CHZ EP        7 4 40.26                             113    1.02 7  297 235 
 GUY2CHN ES        7 5 13.15                             113    0.17 7  297 235 
 GUY2CHZ I         7 5 21.09         1.3 0.38                           297 235 
 PTGC HZ EP        7 4 38.84                             112   -0.87 7  306 158 
 PTGC HN ES   4    7 5 11.98                             112   -1.82 0  306 158 
 CBOC HZ EP   4    7 4 44.90                             111    2.30 0  330 253 
 CBOC HN ES        7 5 19.12                             111    0.16 7  330 253 
 CBOC HZ I         7 5 22.99         0.7 0.30            111            330 253 
                                                                                
