 2014  422 0821 54.3 L   6.850 -73.104138.5  RSN  4 0.4 1.4LRSN                1
 GAP=249        0.79      11.0     8.1 16.9  0.6337E+02 -0.3955E+02 -0.1113E+03E
 Epicentro: LOS SANTOS - SANTANDER                                             3
 ACTION:UPD 14-05-13 23:10 OP:nd   STATUS:               ID:20140422082154 L   I
 OLDACT:REG 14-04-22 13:11 OP:fm   STATUS:               ID:20140422081805     3
 2014-04-22-0818-05M.COL___236                                                 6
 STAT SP IPHASW D HRMM SECON CODA AMPLIT PERI AZIMU VELO AIN AR TRES W  DIS CAZ7
 RUS  HZ EP   1    822 18.16                             140    0.42 7  106 179 
 RUS  HN ES        822 35.92                             140   -0.1110  106 179 
 RUS  HZ I         822 38.16         2.1 0.30            149            106 179 
 PTB  HZ EP   1    822 20.56                             129   -0.65 7  153 257 
 PTB  HN ES        822 41.98                             129   -0.22 9  153 257 
 PTB  HZ I         822 43.79         3.5 0.12            133            153 257 
 SPBC HN ES   1    822 45.72                             126    0.42 7  170 219 
 SPBC HZ I         822 47.71         4.9 0.16            132            170 219 
 ZAR  HN ES   1    822 52.12                             120    0.47 6  206 290 
 ZAR  HZ I         822 59.33         1.8 0.36            123            206 290 
                                                                                
