 2017 1022 0131 33.4 L   6.775 -73.157147.2  RSN  8 0.4 1.4LRSN                1
 GAP=112        1.10       4.7     5.3  7.1 -0.1577E+01  0.1843E+01  0.9940E+01E
 Epicentro: LOS SANTOS - SANTANDER                                             3
 ACTION:UPD 17-11-07 19:35 OP:rebc STATUS:               ID:20171022013133 L   I
 OLDACT:UP  17-10-22 15:17 OP:dani STATUS:               ID:20171022012614     3
 OLDACT:REG 17-10-22 13:29 OP:dani STATUS:               ID:20171022012614     3
 2017-10-22-0128-00M.COL___423                                                 6
 STAT SP IPHASW D HRMM SECON CODA AMPLIT PERI AZIMU VELO AIN AR TRES W  DIS CAZ7
 BAR2 HN ES        132  8.60                             172    0.0410 20.4 188 
 BRR  HZ EP        131 54.80                             153    0.0810 71.5 301 
 BRR  HN ES        132 12.08                             153    0.7310 71.5 301 
 BRR  HZ I         132 16.26         5.0 0.14            151           71.5 301 
 PAM  EZ EP        131 55.65                             150   -0.3010 80.3  39 
 PAM  EN ES        132 13.02                             150   -0.5110 80.3  39 
 PAM  EZ I         132 14.92         7.4 0.09            153           80.3  39 
 RUS  HZ EP        131 57.66                             145    0.5510 97.9 175 
 RUS  HN ES        132 15.56                             145   -0.0410 97.9 175 
 RUS  HZ I         132 16.85         2.6 0.28            148           97.9 175 
 PTB  HZ EP        131 59.93                             133   -0.40 9  146 260 
 PTB  HN ES        132 20.92                             133   -0.41 9  146 260 
 PTB  HZ I         132 27.61         2.8 0.24            132            146 260 
 SPBC HZ EP        132  2.06                             130    0.32 9  160 219 
 YPLC HZ EP        132  3.52                             127    0.39 9  175 151 
 CHI  HZ ES        132 39.40                             118   -0.67 8  246 195 
                                                                                
