 2017  422 0632 54.8 L   6.778 -73.164142.0  RSN  9 0.6 1.7LRSN                1
 GAP=245        1.23       5.6     6.8  7.9  0.7591E+01  0.1235E+02  0.1693E+02E
 Epicentro: LOS SANTOS - SANTANDER                                             3
 ACTION:UPD 17-05-30 21:14 OP:jn   STATUS:               ID:20170422063254 L   I
 OLDACT:REG 17-04-22 11:57 OP:dnl  STATUS:               ID:20170422062042     3
 2017-04-22-0628-00M.COL___368                                                 6
 STAT SP IPHASW D HRMM SECON CODA AMPLIT PERI AZIMU VELO AIN AR TRES W  DIS CAZ7
 BAR2 EZ IP     D  633 13.45                             171   -0.4810 20.7 186 
 BAR2 EZ ES        633 29.22                             171    0.3810 20.7 186 
 BAR2 EZ I         633 29.87        18.0 0.20            162           20.7 186 
 BRR  HZ EP        633 15.34                             152   -0.1710 70.6 301 
 BRR  HE ES        633 32.60                             152    0.9310 70.6 301 
 BRR  HZ I         633 33.19         6.0 0.30            147           70.6 301 
 PTB  HZ EP        633 20.38                             132   -0.86 9  145 260 
 PTB  HN ES        633 41.15                             132   -0.71 9  145 260 
 PTB  HZ I         633 47.28         5.5 0.54            128            145 260 
 SPBC HZ EP        633 22.55                             129   -0.16 9  160 219 
 SPBC HN ES        633 44.26                             129   -0.22 9  160 219 
 SPBC HZ I         633 50.53        10.7 0.32            126            160 219 
 ZAR  HZ EP   2    633 27.59                             122    0.68 4  203 293 
 ZAR  HE ES        633 51.73                             122   -0.22 9  203 293 
 ZAR  HZ I         633 57.84         4.6 0.34            121            203 293 
 NOR  HZ EP   2    633 31.03                             118    1.04 4  232 235 
 NOR  HE ES   2    633 57.20                             118   -0.23 4  232 235 
 NOR  HZ I         634  3.23         4.2 0.16            117            232 235 
 CHI  HZ EP        633 31.72                             117   -0.26 8  246 195 
 CHI  HN ES        634  0.99                             117    0.01 8  246 195 
 CHI  HZ I         634  5.36         2.4 0.16            116            246 195 
 CBOC HZ EP        633 42.05                             110    0.79 7  331 252 
 CBOC HE ES        634 18.03                             110    0.54 7  331 252 
 CBOC HZ I         634 27.69         0.8 0.40            109            331 252 
 PRA  HZ EP        633 48.22                             106    0.39 6  389 209 
 PRA  HE ES        634 30.29                             106    1.09 6  389 209 
 PRA  HZ I         634 37.81         2.1 0.48            106            389 209 
                                                                                
