 2017  622 0628 37.9 L   6.361 -73.578114.5  RSN 24 0.5 2.3LRSN                1
 GAP= 79        1.23       3.0     3.1  6.5  0.6716E+00 -0.3566E-01 -0.7311E+00E
 Epicentro: SANTA HELENA DEL OPON - SANTANDER                                  3
 ACTION:UPD 17-09-14 16:54 OP:jn   STATUS:               ID:20170622062837 L   I
 OLDACT:REG 17-06-22 13:17 OP:lv   STATUS:               ID:20170622062728     3
 2017-06-22-0628-00M.COL___348                                                 6
 STAT SP IPHASW D HRMM SECON CODA AMPLIT PERI AZIMU VELO AIN AR TRES W  DIS CAZ7
 BRR  HZ EP        628 56.74                             141    0.0710 83.8 350 
 BRR  HN ES        629 11.95                             141    0.6310 83.8 350 
 SPBC HZ EP        628 57.30                             137   -0.4510 95.6 215 
 SPBC HN ES        629 12.72                             137   -0.5110 95.6 215 
 SPBC HZ I         629 17.03        62.5 0.11            134           95.6 215 
 PTB  HZ IP   9 C  628 56.95                             136   -0.99 0 99.1 282 
 PTB  HN ES        629 11.99                                   -0.5910 99.1 282 
 PTB  HZ I         629 14.53        71.6 0.05            132           99.1 282 
 TABC EZ EP        629  5.74                             121    0.90 9  165 205 
 TABC EZ I         629 30.83        26.0 0.44            117            165 205 
 NOR  HZ EP        629  3.89                             120   -0.77 9  168 238 
 NOR  HN ES        629 25.50                             120   -0.03 9  168 238 
 NOR  HZ I         629 26.92        44.2 0.07            116            168 238 
 YPLC HZ IP     D  629  5.05                             120    0.13 9  170 129 
 YPLC HN ES        629 25.31                             120   -0.70 9  170 129 
 YPLC HZ I         629 28.78        14.5 0.40            114            170 129 
 ROSC BZ EP   9    629  8.43                             117    1.27 0  187 206 
 ROSC BN ES        629 32.37                                    1.11 9  187 206 
 ROSC BZ I         629 39.52        20.6 0.16            113            187 206 
 ZAR  HZ EP        629  6.81                             117   -0.02 9  189 312 
 ZAR  HN ES        629 29.82                             117    0.41 9  189 312 
 ZAR  HZ I         629 33.82        53.2 0.20            112            189 312 
 CHI  HZ EP        629  8.15                             116    0.42 9  192 185 
 CHI  HN ES   4    629 30.06                             116   -0.95 0  192 185 
 CHI  HZ I         629 34.90        12.6 0.29            112            192 185 
 TAM  HZ EP        629  8.10                             115    0.23 9  198  88 
 TAM  HN ES   4    629 32.02                             115    0.77 0  198  88 
 TAM  HZ I         629 34.94         9.2 0.11            110            198  88 
 HEL  HZ EP        629 10.83                             113    0.45 8  217 265 
 HEL  HN ES        629 35.51                             113   -0.21 8  217 265 
 HEL  HZ I         629 40.74        21.9 0.42            110            217 265 
 GUY2CHZ EP        629 12.37                             111   -0.15 8  234 238 
 GUY2CHN ES        629 40.05                             111    0.51 8  234 238 
 GUY2CHZ I         629 46.37        14.4 0.18                           234 238 
 VIL  EZ EP   4    629  6.60                             110   -7.16 0  249 183 
 VIL  EN ES        629 41.70                             110   -0.04 8  249 183 
 VIL  EZ I         629 48.52        27.2 0.30            107            249 183 
 ELA  HZ EP   9    629 17.14                             109    1.47 0  261 231 
 ELA  HN ES        629 47.32                                    0.71 8  261 231 
 ELA  HZ I         629 51.81        14.2 0.29            106            261 231 
 URE  HZ EP   4    629 14.14                             108   -1.32 0  265 306 
 URE  HN ES   4    629 42.30                             108   -2.46 0  265 306 
 URE  HZ I         629 53.25        22.4 0.12            105            265 306 
 CBOC HZ EP        629 17.31                             107    0.50 8  275 259 
 CBOC HN ES        629 46.71                             107   -0.45 8  275 259 
 CBOC HZ I         629 51.63         7.7 0.12            105            275 259 
 PTGC HZ EP   4    629  9.60                             106   -8.49 0  288 146 
 PTGC HN ES   4    629 47.56                             106   -1.88 0  288 146 
 PTGC HZ I         630  4.20        10.5 0.41            104            288 146 
 DBB  EZ EP        629 20.35                             105    0.74 7  300 284 
 DBB  EN ES        629 51.31                             105   -0.84 7  300 284 
 ORTC HZ EP        629 23.13                             104    0.23 7  328 214 
 ORTC HN ES   4    629 59.59                             104    1.58 0  328 214 
 ORTC HZ I         630  3.73         8.9 0.24            102            328 214 
 PAL  HZ EP        629 24.65                             103    0.29 7  340 242 
 PAL  HN ES        630  0.07                             103   -0.53 7  340 242 
 PAL  HZ I         630  4.08         3.5 0.15            102            340 242 
 APAC HZ EP        629 28.21                             101    0.07 6  373 297 
 APAC HN ES   1    630  8.07                             101    0.73 5  373 297 
 APAC HZ I         630 15.55         5.7 0.22            100            373 297 
 LL6C HZ EP   4    630 24.23                             101   55.85 0  375   5 
 LL6C HN ES   4    631  4.32                             101   56.56 0  375   5 
 LL6C HZ I         631 13.46         5.3 0.57            100            375   5 
 SJC  HZ EP        629 34.11                              99   -0.87 5  429 336 
 SJC  HN ES        630 17.99                              99   -1.51 5  429 336 
 SJC  HZ I         630 25.27         2.1 0.28             99            429 336 
 GARC HN ES   4    630 34.50                              96   -2.47 0  508 205 
 CRJC HZ EP   2    629 45.35                              96   -0.78 2  521   8 
 CRJC HN ES        630 39.43                              96    0.07 4  521   8 
 CRJC HZ I         630 44.53         5.7 0.33             97            521   8 
                                                                                
