 2016  322 0915 57.7 L   6.836 -73.155142.9  RSN 23 0.5 2.4LRSN                1
 GAP= 56        1.07       2.6     2.7  5.0 -0.1455E+01  0.4863E+01  0.4228E+00E
 Epicentro: LOS SANTOS - SANTANDER                                             3
 ACTION:UPD 16-05-13 21:26 OP:cam  STATUS:               ID:20160322091557 L   I
 OLDACT:REG 16-03-22 13:13 OP:ak   STATUS:               ID:20160322090742     3
 2016-03-22-0907-42M.COL___297                                                 6
 STAT SP IPHASW D HRMM SECON CODA AMPLIT PERI AZIMU VELO AIN AR TRES W  DIS CAZ7
 BAR2 EZ EP        916 17.19                             169    0.1310 27.1 186 
 BAR2 EZ ES        916 32.18                             169    0.0110 27.1 186 
 BAR2 EZ I         916 33.79        50.1 0.14            169           27.1 186 
 PAM  EZ EP        916 19.92                             151    0.4510 75.1  42 
 PAM  EN ES        916 36.95                             151    0.5010 75.1  42 
 PAM  EZ I         916 39.37        72.4 0.50            153           75.1  42 
 RUS  HZ EP        916 21.26                             142   -0.2010  105 176 
 RUS  HN ES        916 39.57                             142   -0.4310  105 176 
 RUS  HZ I         916 41.12        38.2 0.32            145            105 176 
 PTB  HZ EP        916 24.05                             131   -0.36 9  148 257 
 PTB  HN ES        916 44.83                             131   -0.42 9  148 257 
 PTB  HZ I         916 47.58        17.7 0.23            130            148 257 
 OCA  HZ EP        916 24.88                             130   -0.52 9  156 353 
 OCA  HN ES        916 46.88                             130   -0.14 9  156 353 
 OCA  HZ I         916 52.66        44.7 0.30            130            156 353 
 TAM  HZ IP     D  916 25.57                             129    0.23 9  157 106 
 TAM  HN ES        916 47.14                             129    0.24 9  157 106 
 SPBC HZ EP        916 26.06                             128   -0.15 9  166 218 
 SPBC HN ES        916 47.79                             128   -0.66 9  166 218 
 SPBC HZ I         916 49.98        50.7 0.18            128            166 218 
 ZAR  HZ EP        916 29.88                             122    0.18 9  202 291 
 ZAR  HN ES        916 55.46                             122    0.79 9  202 291 
 ZAR  HZ I         917  0.96        21.7 0.14            122            202 291 
 NOR  HZ EP        916 33.46                             118    0.04 8  236 234 
 NOR  HN ES        917  0.67                             118   -0.61 8  236 234 
 NOR  HZ I         917  9.07        17.6 0.20            118            236 234 
 CHI  HZ EP        916 35.34                             116   -0.28 8  252 195 
 CHI  HN ES        917  4.96                             116   -0.24 8  252 195 
 CHI  HZ I         917  8.43        12.2 0.60            117            252 195 
 ROSC BZ EP        916 36.68                             116    0.71 8  256 210 
 ROSC BN ES        917  6.31                             116    0.48 8  256 210 
 ROSC BZ I         917 11.06        24.6 0.35            117            256 210 
 HEL  HZ EP        916 38.67                             114    0.91 8  272 255 
 HEL  HN ES        917  9.30                             114    0.29 8  272 255 
 HEL  HZ I         917 16.26         9.9 0.46            114            272 255 
 URE  HZ EP        916 38.03                             113   -0.32 7  281 291 
 URE  HN ES   4    917  8.82                             113   -1.25 0  281 291 
 URE  HZ I         917 20.30        17.6 0.22            113            281 291 
 SOCV BZ EP   4    916 38.89                             112   -1.58 0  300  58 
 SOCV BN ES   4    917 10.46                             112   -3.37 0  300  58 
 GUY2CHZ EP   2    916 42.17                             112    0.84 4  303 234 
 GUY2CHN ES        917 15.82                             112    0.45 7  303 234 
 GUY2CHZ I         917 23.38        12.2 0.34                           303 234 
 PTGC HZ EP   9    916 40.11                             111   -1.77 0  313 159 
 PTGC HN ES        917 13.91                                   -0.67 7  313 159 
 PTGC HZ I         917 18.61        16.4 0.38            112            313 159 
 ELA  HZ EP   4    916 46.22                             110    1.59 0  331 229 
 ELA  HN ES        917 21.27                             110    0.03 7  331 229 
 ELA  HZ I         917 30.31         7.9 0.30            110            331 229 
 CBOC HZ EP        916 44.81                             109    0.29 7  334 251 
 CBOC HE ES        917 21.00                             109   -0.04 7  334 251 
 CBOC HZ I         917 25.21         2.9 0.44            110            334 251 
 MON  HZ EP   4    916 43.82                             108   -2.39 0  350 308 
 MON  HN ES        917 23.10                             108   -0.95 6  350 308 
 MON  HZ I         917 37.79         5.1 0.54            109            350 308 
 SDV  BZ EP        916 46.48                             108   -0.95 6  359  51 
 SDV  BN ES   4    917 24.22                             108   -2.00 0  359  51 
 ANIL HZ EP        916 47.04                             108   -0.59 6  359 224 
 ANIL HN ES        917 27.51                             108    0.93 6  359 224 
 ANIL HZ I         917 33.44        23.7 0.28            108            359 224 
 ORTC HZ EP        916 50.94                             106   -0.88 6  398 216 
 ORTC HN ES        917 35.12                             106    1.09 6  398 216 
 ORTC HZ I         917 38.54         6.9 0.26            107            398 216 
 PAL  HZ EP        916 53.08                             105    0.19 6  407 239 
 PAL  HE ES        917 35.47                             105   -0.48 6  407 239 
 PAL  HZ I         917 39.66         4.4 0.22            106            407 239 
 CRJC HZ EP   4    916 57.50                             103   -2.15 0  464   4 
 CRJC HN ES   4    917 44.60                             103   -3.38 0  464   4 
 CRJC HZ I         917 48.82         6.1 0.48            104            464   4 
 MACC HZ EP   4    917  4.22                             101   -2.56 0  524 188 
 MACC HN ES   4    917 56.20                             101   -4.47 0  524 188 
                                                                                
