 2015  122 0609 59.7 L   6.753 -73.132138.9  RSN  7 0.3 1.5LRSN                1
 GAP=159        0.75       3.1     3.4  5.1 -0.1945E+01  0.4139E+01  0.2434E+01E
 Epicentro: LOS SANTOS - SANTANDER                                             3
 ACTION:UPD 15-03-02 15:41 OP:nd   STATUS:               ID:20150122060959 L   I
 OLDACT:DUP 15-01-22 15:58 OP:carl STATUS:               ID:20150122060747d    3
 2015-01-22-0607-46M.COL___262                                                 6
 STAT SP IPHASW D HRMM SECON CODA AMPLIT PERI AZIMU VELO AIN AR TRES W  DIS CAZ7
 BAR2 EZ EP        610 18.60                             172    0.1510 18.6 197 
 BAR2 EZ ES        610 33.24                             172    0.1910 18.6 197 
 BAR2 EZ I         610 34.92         5.2 0.20            172           18.6 197 
 BRR  HZ EP        610 20.57                             150    0.2010 75.1 301 
 BRR  HN ES        610 36.77                             150    0.2910 75.1 301 
 BRR  HZ I         610 41.12         5.2 0.12            149           75.1 301 
 PAM  SZ EP        610 21.69                             148    0.2710 80.5  36 
 PAM  SN ES        610 37.76                             148   -0.5810 80.5  36 
 PAM  SZ I         610 40.55         5.4 0.46            151           80.5  36 
 PTB  HZ EP        610 26.09                             130   -0.11 9  148 261 
 PTB  HN ES        610 46.55                             130   -0.29 9  148 261 
 PTB  HZ I         610 48.82         3.7 0.14            132            148 261 
 SPBC HZ EP        610 27.13                             128   -0.29 9  160 221 
 SPBC HN ES        610 49.25                             128    0.23 9  160 221 
 SPBC HZ I         610 52.22         3.4 0.28            130            160 221 
 ZAR  HZ EP        610 32.39                             120    0.30 8  207 293 
 ZAR  HN ES        610 57.04                             120   -0.29 8  207 293 
 ZAR  HZ I         611  2.23         3.8 0.72            122            207 293 
 CHI  HN ES        611  5.04                             116   -0.24 8  244 196 
                                                                                
