 2012 1022 0415 26.1 L   6.786 -73.121140.9  RSN  4 0.2 1.4LRSN                1
 GAP=140        0.47       4.4     6.3  8.1 -0.5963E+00 -0.3054E+01  0.5374E+01E
 Epicentro: LOS SANTOS - SANTANDER                                             3
 ACTION:UPD 12-11-22 17:05 OP:ep   STATUS:               ID:20121022041526 L   I
 2012-10-22-0410-00M.COL___233                                                 6
 STAT SP IPHASW D HRMM SECON CODA AMPLIT PERI AZIMU VELO AIN AR TRES W  DIS CAZ7
 BAR2 SZ EP   1    415 44.94                             170   -0.15 7 22.5 198 
 BRR  HZ EP   1    415 46.59                             151   -0.28 7 74.3 299 
 BRR  HZ I         415 47.01         7.0 0.17                          74.3 299 
 BRR  HN ES   2    416  3.44                             151    0.34 5 74.3 299 
 PAM  SZ EP   1    415 47.83                             150    0.10 7 76.9  37 
 PAM  SE ES   2    416  4.50                             150   -0.13 5 76.9  37 
 PAM  SN I         416  5.92         7.5 0.21                          76.9  37 
 RUS  HZ EP   1    415 49.52                             143    0.31 7 98.9 178 
 RUS  HN ES   2    416  7.08                             143   -0.19 5 98.9 178 
 RUS  HN I         416  8.75         1.8 0.16                          98.9 178 
                                                                                
