 2011  722 0859 43.0 L   6.791 -73.109144.3  RSN 12 0.3 2.0LRSN                1
 GAP=160        0.50       2.0     4.2  3.5 -0.2628E+01  0.1423E+01  0.6412E+00E
 Epicentro: LOS SANTOS - SANTANDER                                             3
 ACTION:UPD 12-07-25 14:02 OP:epov STATUS:               ID:20110722085943 L   I
 2011-07-22-0856-03S.COL___142                                                 6
 STAT SP IPHASW D HRMM SECON CODA AMPLIT PERI AZIMU VELO AIN AR TRES W  DIS CAZ7
 BTL  SZ EP   1    9 0  2.83                             171    0.37 7 22.5 309 
 BAR2 SZ IP        9 0  2.36                             170   -0.1210 23.4 200 
 BAR2 SZ ES   1    9 0 17.29                             170   -0.36 7 23.4 200 
 BAR2 SZ I         9 0 18.64        37.9 0.19                          23.4 200 
 GIR2 SZ EP   1    9 0  2.40                             166   -0.17 7 33.2 344 
 GIR2 SZ ES   2    9 0 17.58                             166   -0.24 5 33.2 344 
 BRR  HZ IP     C  9 0  4.27                             151    0.0210 75.3 298 
 BRR  HN ES   1    9 0 21.12                             151    0.31 7 75.3 298 
 BRR  HZ I         9 0 25.33        27.5 0.14                          75.3 298 
 RUS  HZ EP   1    9 0  6.81                             144    0.27 7 99.4 178 
 RUS  HE ES   1    9 0 25.27                             144    0.38 7 99.4 178 
 RUS  HZ I         9 0 26.58        12.1 0.47                          99.4 178 
 BRI  SZ EP   2    9 0  7.04                             141    0.30 5  108  19 
 GRA  SZ IP     D  9 0  8.19                             137    0.0710  126  16 
 GRA  SZ ES   1    9 0 27.69                             137   -0.01 7  126  16 
 GRA  SZ I         9 0 28.87         9.4 0.38                           126  16 
 OCA  SZ EP   1    9 0 11.18                             129   -0.19 7  162 352 
 OCA  SZ ES   1    9 0 33.26                             129   -0.21 7  162 352 
 OCA  SZ I         9 0 36.18         9.4 0.19                           162 352 
 NOR  SZ EP   1    9 0 18.88                             118   -0.08 6  237 235 
 NOR  SE ES   2    9 0 46.74                             118   -0.26 4  237 235 
 CHI  HZ EP   1    9 0 20.12                             117   -0.53 6  249 196 
 CHI  HE ES   2    9 0 49.56                             117   -0.44 4  249 196 
 CHI  HZ I         9 0 57.51         3.6 0.42                           249 196 
 HEL  HZ EP   2    9 0 24.04                             114    0.47 4  276 256 
 PRA  HZ EP   1    9 0 36.60                             106   -0.03 4  393 210 
 PRA  HE ES   2    9 1 18.78                             106    0.34 3  393 210 
                                                                                
