 2016 1122 0100 24.9 L   6.741 -73.155148.8  RSN  5 0.3 1.2LRSN                1
 GAP=153        0.68       6.6     3.9  5.9 -0.9953E+01  0.1630E+01  0.2815E+00E
 Epicentro: LOS SANTOS - SANTANDER                                             3
 ACTION:UPD 17-10-26 21:10 OP:lp   STATUS:               ID:20161122010024 L   I
 OLDACT:UP  16-11-22 13:50 OP:edw  STATUS:               ID:20161122005744     3
 OLDACT:REG 16-11-22 12:25 OP:edw  STATUS:               ID:20161122005744     3
 2016-11-22-0058-00M.COL___349                                                 6
 STAT SP IPHASW D HRMM SECON CODA AMPLIT PERI AZIMU VELO AIN AR TRES W  DIS CAZ7
 BAR2 EZ EP        1 0 44.73                             173   -0.0810 16.7 190 
 BAR2 EZ ES        1 1  0.31                             173    0.0010 16.7 190 
 BRR  HZ EP        1 0 46.81                             152    0.2710 73.7 303 
 BRR  HE ES        1 1  3.70                             152    0.3010 73.7 303 
 BRR  HZ I         1 1  8.68         6.3 0.50            148           73.7 303 
 PAM  EZ EP        1 0 48.05                             149    0.2410 83.1  37 
 PAM  EN ES        1 1  5.25                             149   -0.4110 83.1  37 
 PAM  EZ I         1 1  8.19         2.1 0.30            149           83.1  37 
 PTB  HZ EP   2    1 0 51.26                             133   -0.69 5  146 261 
 PTB  HN ES        1 1 12.89                             133   -0.14 9  146 261 
 PTB  HZ I         1 1 17.17         1.4 0.20            133            146 261 
 ZAR  HN ES   2    1 1 22.96                             123   -0.36 4  206 294 
                                                                                
