 2012  422 0517 25.6 L   6.763 -73.105150.5  RSN  5 0.4 1.6LRSN                1
 GAP=143        0.93       7.2     6.5 10.5 -0.6140E+01  0.3227E+01  0.6824E+01E
 Epicentro: LOS SANTOS - SANTANDER                                             3
 ACTION:UPD 12-07-05 11:55 OP:tino STATUS:               ID:20120422051725 L   I
 2012-04-22-0510-00M.COL___186                                                 6
 STAT SP IPHASW D HRMM SECON CODA AMPLIT PERI AZIMU VELO AIN AR TRES W  DIS CAZ7
 BAR2 SZ EP   1    517 45.77                             172     0.0 7   21 204 
 BAR2 SZ I         518  1.85        10.0 0.20                            21 204 
 BRR  HZ EP   1    517 47.82                             151     0.3 7   77 300 
 BRR  HZ I         517 49.77        13.9 0.10                            77 300 
 BRR  HN ES        518  5.01                             151     0.310   77 300 
 PAM  SZ EP   1    517 48.71                             151     0.4 7   78  35 
 PAM  SZ I         517 49.08         6.2 0.17                            78  35 
 PAM  SN ES   1    518  5.46                             151    -0.6 7   78  35 
 RUS  HN ES   1    518  8.24                             146     0.1 7   96 179 
 RUS  HZ I         518 10.02         3.6 0.39                            96 179 
 PTB  HZ EP   1    517 52.75                             132    -0.5 7  151 261 
 PTB  HN ES   1    518 14.54                             132    -0.3 7  151 261 
 PTB  HZ I         518 15.98         3.9 0.16                           151 261 
                                                                                
