 2016  622 0659 39.2 L   6.710 -73.188142.1  RSN  5 0.3 1.3LRSN                1
 GAP=230        0.80       4.8     5.2  6.3  0.3534E+01  0.7541E+01  0.4021E+01E
 Epicentro: VILLANUEVA - SANTANDER                                             3
 ACTION:UPD 16-07-21 22:21 OP:rebc STATUS:               ID:20160622065939 L   I
 OLDACT:REG 16-06-22 13:58 OP:ak   STATUS:               ID:20160622065741     3
 2016-06-22-0657-41M.COL___316                                                 6
 STAT SP IPHASW D HRMM SECON CODA AMPLIT PERI AZIMU VELO AIN AR TRES W  DIS CAZ7
 BAR2 EZ EP        659 57.94                             175   -0.3310 13.0 177 
 BAR2 EZ ES        7 0 12.99                             175   -0.1210 13.0 177 
 BAR2 EZ I         7 0 13.85         4.3 0.20                          13.0 177 
 BRR  HZ EP        7 0  0.22                             151    0.1310 72.7 307 
 BRR  HN ES        7 0 16.72                             151    0.3710 72.7 307 
 BRR  HZ I         7 0 20.29         4.1 0.28                          72.7 307 
 PTB  HZ EP        7 0  5.00                             132   -0.35 9  142 262 
 PTB  HN ES        7 0 25.75                             132    0.04 9  142 262 
 PTB  HZ I         7 0 29.14         2.4 0.28                           142 262 
 SPBC HZ EP        7 0  7.14                             130    0.68 9  152 220 
 SPBC HE ES        7 0 27.49                             130   -0.19 9  152 220 
 SPBC HZ I         7 0 36.22         3.1 0.18                           152 220 
 ZAR  HZ EP   2    7 0 11.39                             122   -0.04 4  204 295 
 ZAR  HN ES        7 0 36.28                             122   -0.25 9  204 295 
 ZAR  HZ I         7 0 43.58         1.8 0.10                           204 295 
                                                                                
