 2013 1122 0940  4.3 L   6.458 -73.447118.4  RSN  5 0.4 1.3LRSN                1
 GAP=127        0.97       5.9     5.5  7.9  0.1731E+02  0.1387E+02  0.2562E+01E
 Epicentro: SIMACOTA - SANTANDER                                               3
 ACTION:UPD 14-01-09 16:30 OP:ep   STATUS:               ID:20131122094004 L   I
 OLDACT:UP  13-11-22 14:42 OP:mh   STATUS:               ID:20131122094000     3
 OLDACT:REG 13-11-22 11:32 OP:mh   STATUS:               ID:20131122094000     3
 2013-11-22-0940-00M.COL___282                                                 6
 STAT SP IPHASW D HRMM SECON CODA AMPLIT PERI AZIMU VELO AIN AR TRES W  DIS CAZ7
 BAR2 SZ EP        940 20.55                             163   -0.3810 32.8  63 
 BAR2 SZ ES   1    940 33.43                             163   -0.46 7 32.8  63 
 BAR2 SZ I         940 34.97         9.2 0.22            172           32.8  63 
 RUS  HZ EP        940 23.89                             146    0.4210 74.3 147 
 RUS  HN ES        940 38.73                             146    0.3010 74.3 147 
 RUS  HZ I         940 41.52         2.5 0.18            149           74.3 147 
 BRR  HZ EP        940 22.70                             144   -0.3010 77.6 338 
 BRR  HE ES        940 37.91                             144    0.3310 77.6 338 
 PTB  HZ EP        940 25.63                             133   -0.1710  112 275 
 PTB  HN ES        940 42.15                             133   -0.4210  112 275 
 PTB  HZ I         940 47.13         3.5 0.14            133            112 275 
 ZAR  HZ EP        940 34.03                             117    0.07 9  193 306 
 ZAR  HN ES   1    940 58.03                             117    0.94 7  193 306 
 ZAR  HZ I         941  2.44         3.6 0.11            119            193 306 
                                                                                
