 2015 1022 0235 38.0 L   6.788 -73.124149.8  RSN 11 0.3 2.0LRSN                1
 GAP=140        0.80       2.5     4.1  4.8 -0.1638E+01  0.5806E+01  0.4124E+00E
 Epicentro: LOS SANTOS - SANTANDER                                             3
 ACTION:UPD 15-12-22 20:42 OP:cam  STATUS:               ID:20151022023538 L   I
 OLDACT:REG 15-10-22 12:12 OP:mh   STATUS:               ID:20151022022748     3
 2015-10-22-0227-48M.COL___319                                                 6
 STAT SP IPHASW D HRMM SECON CODA AMPLIT PERI AZIMU VELO AIN AR TRES W  DIS CAZ7
 BAR2 EZ EP        235 58.21                             171    0.1010 22.6 197 
 BAR2 EZ ES        236 13.48                             171   -0.3110 22.6 197 
 BAR2 EZ I         236 15.54        17.2 0.26            166           22.6 197 
 BRR  HZ EP   1    236  0.12                             152    0.37 7 74.0 299 
 BRR  HN ES        236 17.25                             152    0.5510 74.0 299 
 BRR  HZ I         236 23.15        11.9 0.28            146           74.0 299 
 PAM  EZ EP        236  0.89                             152    0.2710 76.9  38 
 PAM  EN ES        236 18.22                             152   -0.0510 76.9  38 
 PAM  EZ I         236 20.22        11.5 0.22            156           76.9  38 
 RUS  HZ EP   1    236  2.06                             145    0.00 7 99.1 177 
 RUS  HN ES        236 20.46                             145   -0.3510 99.1 177 
 RUS  HZ I         236 21.54         6.9 0.48            147           99.1 177 
 SPBC HZ EP   1    236  7.22                             130    0.35 7  164 220 
 SPBC HN ES        236 29.70                             130    0.32 9  164 220 
 SPBC HZ I         236 36.76        14.6 0.34            129            164 220 
 ZAR  HZ EP   1    236 10.77                             123   -0.23 6  207 292 
 ZAR  HN ES   2    236 36.77                             123    0.04 4  207 292 
 ZAR  HZ I         236 41.54        12.6 0.32            121            207 292 
 NOR  HZ EP   1    236 13.95                             119   -0.15 6  236 235 
 NOR  HN ES        236 42.05                             119   -0.21 8  236 235 
 NOR  HZ I         236 49.29         7.0 0.20            118            236 235 
 SML  HZ EP   1    236 15.03                             118   -0.07 6  246 335 
 SML  HN ES        236 43.25                             118   -0.78 8  246 335 
 SML  HZ I         236 46.37        15.3 0.10            118            246 335 
 CHI  HZ EP        236 16.25                             118    0.38 8  248 196 
 CHI  HN ES        236 44.92                             118   -0.48 8  248 196 
 CHI  HZ I         236 51.14         3.6 0.22            119            248 196 
 GUY2CHZ EP   4    236 23.12                             113    1.18 0  302 235 
 GUY2CHE ES   4    236 58.51                             113    2.30 0  302 235 
 GUY2CHZ I         237  4.74         6.4 0.74                           302 235 
 MON  HZ EP   4    236 24.10                             109   -3.38 0  356 308 
 MON  HN ES   4    237  4.01                             109   -2.06 0  356 308 
 MON  HZ I         237 20.55         2.5 0.36            109            356 308 
                                                                                
