 2012  122 0934 17.8 L   6.779 -73.106148.7  RSN  7 0.3 1.5LRSN                1
 GAP=143        0.57       4.0     4.6  5.7  0.1317E+01 -0.8582E+00  0.5967E+01E
 Epicentro: LOS SANTOS - SANTANDER                                             3
 ACTION:UP  12-02-03 08:19 OP:REBC STATUS:               ID:20120122093417 L   I
 2012-01-22-0930-00M.COL___186                                                 6
 STAT SP IPHASW D HRMM SECON CODA AMPLIT PERI AZIMU VELO SNR AR TRES W  DIS CAZ7
 BAR2 SZ EP   1    934 37.62                             171    -0.1 7   22 202 
 BAR2 SZ ES   1    934 52.97                             171    -0.4 7   22 202 
 BAR2 SZ I         934 55.18         9.4 0.28                            22 202 
 BRR  HZ EP   1    934 39.46                             151    -0.1 7   76 298 
 BRR  HE ES   1    934 56.93                             151     0.4 7   76 298 
 PAM  SZ EP   1    934 40.47                             152     0.2 7   77  36 
 PAM  SE ES   2    934 57.65                             152    -0.1 5   77  36 
 RUS  HZ EP   1    934 41.67                             145     0.0 7   98 179 
 RUS  HN ES   2    935  0.47                             145     0.2 5   98 179 
 RUS  HZ I         935  1.34         3.8 0.26                            98 179 
 PTB  HE ES   2    935  6.46                             132    -0.4 5  152 260 
 ZAR  HN ES   2    935 16.62                             122    -0.2 4  209 292 
 ZAR  HZ I         935 22.59         4.2 0.31                           209 292 
 CHI  HZ EP   1    934 55.32                             118    -0.2 6  248 196 
 CHI  HN ES   2    935 25.67                             118     0.7 4  248 196 
 CHI  HZ I         935 32.60         1.3 0.39                           248 196 
                                                                                
