 2016  922 0953 10.0 L   6.791 -73.146138.8  RSN  8 0.5 1.8LRSN                1
 GAP=137        1.18       3.9     4.9  7.1 -0.2306E+01  0.8065E+01 -0.2306E+01E
 Epicentro: LOS SANTOS - SANTANDER                                             3
 ACTION:UPD 17-08-17 21:15 OP:lp   STATUS:               ID:20160922095310 L   I
 OLDACT:UP  16-09-23 01:23 OP:ar   STATUS:               ID:20160922094734     3
 OLDACT:REG 16-09-22 12:03 OP:and  STATUS:               ID:20160922094734     3
 2016-09-22-0948-00M.COL___360                                                 6
 STAT SP IPHASW D HRMM SECON CODA AMPLIT PERI AZIMU VELO AIN AR TRES W  DIS CAZ7
 BAR2 EZ EP        953 28.71                             170   -0.0610 22.3 190 
 BAR2 EZ ES        953 42.90                             170   -0.5110 22.3 190 
 BAR2 EZ I         953 44.12        16.7 0.38            171           22.3 190 
 BRR  HZ EP        953 30.69                             151    0.2610 71.7 299 
 BRR  HN ES        953 47.32                             151    0.9610 71.7 299 
 BRR  HZ I         953 49.04        12.2 0.16            150           71.7 299 
 PAM  EZ EP        953 31.72                             149    0.2010 78.2  39 
 PAM  EE ES        953 48.22                             149   -0.1010 78.2  39 
 PAM  EZ I         953 50.80        11.6 0.58            152           78.2  39 
 RUS  HZ EP        953 33.22                             143    0.2310 99.5 176 
 RUS  HN ES        953 51.06                             143    0.1310 99.5 176 
 RUS  HZ I         953 52.83         4.7 0.26            145           99.5 176 
 PTB  HZ EP        953 35.73                             130   -0.66 9  148 259 
 PTB  HE ES        953 56.38                             130   -0.59 9  148 259 
 PTB  HZ I         953 59.13         6.9 0.14            131            148 259 
 OCA  HZ EP        953 38.36                             128    0.49 9  161 353 
 OCA  HE ES        953 58.81                             128   -0.81 9  161 353 
 OCA  HZ I         954  1.99        26.5 0.36            129            161 353 
 SPBC HZ EP        953 37.90                             128    0.01 9  162 219 
 SPBC HN ES        953 59.72                             128    0.07 9  162 219 
 SPBC HZ I         954  3.66         6.8 0.20            129            162 219 
 ZAR  HZ EP        953 41.80                             121   -0.24 9  204 292 
 ZAR  HN ES        954  7.50                             121    0.47 9  204 292 
 ZAR  HZ I         954 13.44         4.8 0.17            122            204 292 
                                                                                
