 2013 1122 0634 18.8 L   6.793 -73.099146.4  RSN  8 0.4 1.7LRSN                1
 GAP=188        0.94       3.2     5.6  8.1  0.1677E+01  0.1554E+01 -0.6556E+01E
 Epicentro: LOS SANTOS - SANTANDER                                             3
 ACTION:UPD 14-01-09 16:30 OP:ep   STATUS:               ID:20131122063418 L   I
 OLDACT:UP  13-11-22 13:59 OP:mh   STATUS:               ID:20131122063000     3
 OLDACT:REG 13-11-22 11:28 OP:mh   STATUS:               ID:20131122063000     3
 2013-11-22-0630-00M.COL___282                                                 6
 STAT SP IPHASW D HRMM SECON CODA AMPLIT PERI AZIMU VELO AIN AR TRES W  DIS CAZ7
 BAR2 SZ EP        634 38.90                             170    0.4310 24.0 203 
 BAR2 SZ I         634 55.04        12.6 0.23            174           24.0 203 
 BRR  HZ EP   1    634 40.95                             151    0.69 7 76.1 297 
 BRR  HN ES   1    634 57.60                             151    0.58 7 76.1 297 
 BRR  HZ I         635  1.69         5.8 0.08            154           76.1 297 
 RUS  HZ EP   1    634 42.93                             144    0.44 7 99.5 179 
 RUS  HE ES        635  0.66                             144   -0.3510 99.5 179 
 RUS  HZ I         635  2.28         4.3 0.25            148           99.5 179 
 PTB  HZ EP        634 45.82                             131   -0.40 9  153 260 
 PTB  HN ES   1    635  7.22                             131   -0.42 7  153 260 
 PTB  HZ I         635  9.02         5.3 0.17            135            153 260 
 OCA  HZ EP   1    634 46.53                             129   -0.73 7  162 351 
 OCA  HN ES        635  9.03                             129   -0.45 9  162 351 
 OCA  HZ I         635 12.40         6.0 0.26            130            162 351 
 SPBC HZ EP        634 47.73                             129    0.17 9  166 221 
 SPBC HN ES        635  9.79                             129   -0.23 9  166 221 
 ZAR  HZ EP   1    634 52.22                             122    0.45 6  209 292 
 ZAR  HN ES        635 17.58                             122    0.06 8  209 292 
 ZAR  HZ I         635 23.18         4.6 0.13            124            209 292 
 SML  HZ EP        634 55.48                             117   -0.26 8  247 334 
 SML  HN ES        635 24.90                             117    0.32 8  247 334 
 SML  HZ I         635 33.40         7.0 0.09            118            247 334 
                                                                                
