 2011  922 0407 45.0 L   6.750 -73.142132.0  RSN 10 0.4 2.0LRSN                1
 GAP=183        0.76       2.7     4.2  4.8  0.7189E+00  0.4920E+01  0.1857E+01E
 Epicentro: LOS SANTOS - SANTANDER                                             3
 ACTION:UPD 12-07-13 15:59 OP:ep   STATUS:               ID:20110922040745 L   I
 2011-09-22-0400-00M.COL___167                                                 6
 STAT SP IPHASW D HRMM SECON CODA AMPLIT PERI AZIMU VELO AIN AR TRES W  DIS CAZ7
 BAR2 SZ EP        4 8  2.74                             172   -0.1810 18.0 194 
 BAR2 SZ ES        4 8 16.64                             172   -0.2110 18.0 194 
 BAR2 SZ I         4 8 18.50        20.4 0.19                          18.0 194 
 BTL  SZ EP        4 8  2.94                             169   -0.0810 23.2 323 
 BRR  HZ EP        4 8  4.57                             149   -0.3510 74.3 302 
 BRR  HZ I         4 8  8.00        25.7 0.27                          74.3 302 
 BRR  HE ES        4 8 20.66                             149    0.2410 74.3 302 
 RUS  HZ EP        4 8  6.84                             142   -0.2110 95.1 176 
 RUS  HE ES   1    4 8 24.75                             142    0.54 7 95.1 176 
 RUS  HZ I         4 8 26.95        15.8 0.38                          95.1 176 
 OCA  SZ EP        4 8 13.70                             125    0.83 9  166 353 
 OCA  SZ ES   1    4 8 34.13                             125   -0.44 7  166 353 
 OCA  SZ I         4 8 37.59        13.4 0.59                           166 353 
 ZAR  HZ EP   2    4 8 16.96                             119    0.06 4  207 294 
 ZAR  HN ES   1    4 8 41.48                             119   -0.27 6  207 294 
 ZAR  HZ I         4 8 47.57         9.9 0.25                           207 294 
 NOR  SZ EP   1    4 8 19.46                             116   -0.25 6  232 236 
 NOR  SE ES   1    4 8 46.97                             116    0.23 6  232 236 
 CHI  HZ EP   1    4 8 21.76                             115    0.32 6  243 196 
 CHI  HN ES   1    4 8 49.92                             115    0.09 6  243 196 
 CHI  HZ I         4 8 53.91         4.4 0.24                           243 196 
 HEL  HZ EP   1    4 8 24.78                             112    0.29 6  271 257 
 HEL  HN ES   1    4 8 55.29                             112    0.03 6  271 257 
 HEL  HZ I         4 9  1.45         5.9 0.54                           271 257 
 PRA  HZ EP   1    4 8 36.74                             104   -0.84 4  387 210 
 PRA  HE ES   1    4 9 18.65                             104    0.09 4  387 210 
                                                                                
