 2013  422 0805  0.0 L   6.752 -73.223150.0  RSN  4 0.3 1.4LRSN                1
 GAP=193        0.77       5.3    10.0  9.7  0.3310E+02 -0.3745E+01 -0.1633E+02E
 Epicentro: VILLANUEVA - SANTANDER                                             3
 ACTION:UPD 13-05-22 14:40 OP:EP   STATUS:               ID:20130422080500 L   I
 2013-04-22-0800-00M.COL___249                                                 6
 STAT SP IPHASW D HRMM SECON CODA AMPLIT PERI AZIMU VELO AIN AR TRES W  DIS CAZ7
 BRR  HZ EP        8 5 21.69                             154    0.3010 66.7 306 
 BRR  HN ES   1    8 5 38.56                             154    0.50 7 66.7 306 
 BRR  HN I         8 5 39.83         5.2 0.20            149           66.7 306 
 RUS  HZ EP   1    8 5 24.15                             146    0.25 7 96.3 171 
 RUS  HN ES        8 5 42.12                             146   -0.4010 96.3 171 
 RUS  HN I         8 5 44.13         3.8 0.24            144           96.3 171 
 PTB  HZ EP   1    8 5 26.54                             135    0.03 7  138 260 
 PTB  HN ES   2    8 5 46.87                             135   -0.31 5  138 260 
 PTB  HN I         8 5 52.66         4.2 0.30            130            138 260 
 SML  HN ES        8 6  5.49                             118   -0.42 8  245 338 
                                                                                
