 2013  422 0953 29.8 L   6.774 -73.153142.9  RSN 10 0.4 2.2LRSN                1
 GAP=182        0.95       3.5     5.4  5.9  0.4586E+01  0.4737E+01 -0.1777E+01E
 Epicentro: LOS SANTOS - SANTANDER                                             3
 ACTION:UPD 13-05-22 14:40 OP:EP   STATUS:               ID:20130422095329 L   I
 2013-04-22-0950-00M.COL___250                                                 6
 STAT SP IPHASW D HRMM SECON CODA AMPLIT PERI AZIMU VELO AIN AR TRES W  DIS CAZ7
 BAR2 SZ EP        953 49.05                             172    0.0210 20.4 189 
 BAR2 SZ ES        954  3.69                             172   -0.3410 20.4 189 
 BAR2 SZ I         954  5.03        30.0 0.36            165           20.4 189 
 GIR2 SZ EP        953 49.32                             166    0.1110 34.0 352 
 GIR2 SZ ES   1    954  4.61                             166    0.26 7 34.0 352 
 GIR2 SZ I         954  6.51        10.8 0.28            160           34.0 352 
 BRR  HZ IP     D  953 51.04                             152    0.3610 71.9 301 
 BRR  HN ES        954  7.57                             152    0.6010 71.9 301 
 BRR  HZ I         954 11.25        11.3 0.38            143           71.9 301 
 RUS  HZ EP        953 53.35                             144    0.2810 97.8 175 
 RUS  HN ES        954 10.95                             144   -0.2710 97.8 175 
 RUS  HN I         954 12.53        22.0 0.26            144           97.8 175 
 PTB  HZ EP        953 55.79                             132   -0.63 9  146 260 
 PTB  HN ES   1    954 16.58                             132   -0.59 7  146 260 
 PTB  HN I         954 21.59        18.7 0.36            126            146 260 
 OCA  HZ EP   1    953 58.49                             128    0.34 7  163 354 
 OCA  HN ES        954 19.71                             128   -0.55 9  163 354 
 OCA  HN I         954 21.94        52.1 0.20            127            163 354 
 ZAR  HN ES        954 27.64                             122    0.35 9  204 293 
 ZAR  HN I         954 35.48        17.2 0.22            118            204 293 
 SML  HZ EP   1    954  5.76                             117   -0.76 6  246 336 
 SML  HN ES   1    954 35.45                             117    0.30 6  246 336 
 SML  HN I         954 43.84        25.8 0.10            115            246 336 
 URE  HN ES   4    954 40.25                             113   -2.48 0  284 293 
 URE  HN I         954 54.74        13.3 0.24            111            284 293 
 PRA  HZ EP   1    954 23.26                             106    0.37 4  389 210 
 PRA  HN ES   2    955  5.16                             106    0.87 3  389 210 
 PRA  HN I         955 11.78         2.0 0.22            105            389 210 
 SJC  HZ EP   4    954 23.50                             105   -2.00 0  411 327 
 SJC  HN ES   4    955  4.46                             105   -4.49 0  411 327 
                                                                                
