 2010  722 0945 25.3 L   6.734 -73.189153.8  RSN  4 0.2 1.6LRSN                1
 GAP=154        0.41       6.1    11.2  8.1  0.5424E+02 -0.5685E+02 -0.3145E+02E
 Epicentro: VILLANUEVA - SANTANDER                                             3
 ACTION:UPD 10-12-01 15:19 OP:pat  STATUS:               ID:20100722094525 L   I
 2010-07-22-0943-39S.COL___123                                                 6
 STAT SP IPHASW D HRMM SECON CODA AMPLIT PERI AZIMU VELO AIN AR TRES W  DIS CAZ7
 BAR2 SZ EP   2    945 45.34                             174    -0.4 5   16 178 
 BAR2 SZ I         946  1.74        11.3 0.16                            16 178 
 BRR  HZ IP     C  945 47.30                             154     0.010   71 306 
 BRR  HZ I         945 47.62        17.5 0.08                            71 306 
 BRR  HE ES   1    946  4.47                             154     0.0 7   71 306 
 RUS  HZ EP   2    945 49.50                             147     0.1 5   94 173 
 RUS  HE ES   1    946  8.17                             147     0.0 7   94 173 
 RUS  HZ I         946  9.06         3.5 0.35                            94 173 
 GRA  SZ EP   2    945 52.05                             137     0.1 5  134  18 
 GRA  SZ I         946 14.31         2.3 0.57                           134  18 
                                                                                
