 2012  822 0507 15.4 L   6.745 -73.180153.9  RSN  5 0.2 1.4LRSN                1
 GAP=135        0.41       3.9     3.2  5.3 -0.2525E-01 -0.6740E+01  0.3161E+01E
 Epicentro: VILLANUEVA - SANTANDER                                             3
 ACTION:UPD 12-09-10 11:57 OP:ep   STATUS:               ID:20120822050715 L   I
 2012-08-22-0500-00M.COL___218                                                 6
 STAT SP IPHASW D HRMM SECON CODA AMPLIT PERI AZIMU VELO AIN AR TRES W  DIS CAZ7
 BAR2 SZ EP   1    5 7 35.74                             173   -0.15 7 16.9 181 
 BAR2 SZ I         5 7 36.00         6.9 0.14                          16.9 181 
 BRR  HZ EP        5 7 37.62                             154    0.2010 71.1 304 
 BRR  HZ I         5 7 38.06         4.5 0.14                          71.1 304 
 BRR  HN ES        5 7 54.64                             154    0.0410 71.1 304 
 PAM  SZ EP   1    5 7 38.69                             150   -0.21 7 84.5  39 
 PAM  SZ I         5 7 38.90         4.7 0.24                          84.5  39 
 RUS  HZ EP   1    5 7 39.79                             147    0.23 7 94.9 174 
 RUS  HN ES   2    5 7 58.36                             147   -0.06 5 94.9 174 
 PTB  HZ EP   1    5 7 42.47                             135   -0.14 7  143 261 
 PTB  HN ES        5 8  3.76                             135   -0.09 9  143 261 
 PTB  HZ I         5 8  6.01         1.8 0.12                           143 261 
                                                                                
