 2017  622 0845 45.5 L   6.769 -73.041147.7  RSN  7 0.4 1.9LRSN                1
 GAP=224        1.00       5.3     5.8  8.4  0.5372E+01 -0.1286E+02  0.1021E+02E
 Epicentro: LOS SANTOS - SANTANDER                                             3
 ACTION:UPD 17-09-14 16:54 OP:jn   STATUS:               ID:20170622084545 L   I
 OLDACT:UP  17-06-22 17:05 OP:lv   STATUS:               ID:20170622083741     3
 OLDACT:REG 17-06-22 13:27 OP:lv   STATUS:               ID:20170622083741     3
 2017-06-22-0838-00M.COL___342                                                 6
 STAT SP IPHASW D HRMM SECON CODA AMPLIT PERI AZIMU VELO AIN AR TRES W  DIS CAZ7
 BRR  HZ EP        846  7.68                             149    0.1310 83.1 297 
 BRR  HN ES        846 25.10                             149    0.3410 83.1 297 
 BRR  HZ I         846 28.28        12.4 0.29            151           83.1 297 
 PTB  HZ EP   9    846 12.63                             130   -0.97 0  159 261 
 PTB  HN ES        846 33.84                                   -0.72 9  159 261 
 SPBC HZ EP        846 14.93                             129    0.32 9  168 223 
 SPBC HN ES        846 36.80                             129   -0.52 9  168 223 
 SPBC HZ I         846 39.60         6.6 0.09            131            168 223 
 ZAR  HZ EP        846 18.54                             121   -0.77 8  216 292 
 ZAR  HN ES   4    846 44.41                             121   -1.28 0  216 292 
 ZAR  HZ I         846 49.04         7.3 0.13            123            216 292 
 PTGC HZ EP        846 28.57                             112   -0.03 7  301 160 
 PTGC HN ES        847  2.09                             112   -0.14 7  301 160 
 PTGC HZ I         847  4.46         5.0 0.45            114            301 160 
 GUY2CHZ EP   4    846 31.10                             112    1.05 0  309 237 
 GUY2CHN ES        847  5.20                             112    0.40 7  309 237 
 GUY2CHZ I         847 13.60         3.9 0.44                           309 237 
 LL6C HZ EP   4    847 25.11                             110   53.36 0  329 356 
 LL6C HN ES   4    848  1.58                             110   53.75 0  329 356 
 CBOC HZ EP        846 34.16                             109    0.52 7  344 253 
 CBOC HN ES        847 10.93                             109   -0.26 7  344 253 
 SJC  HZ EP   4    846 40.29                             105   -1.92 0  419 326 
 SJC  HN ES   4    847 21.10                             105   -5.35 0  419 326 
                                                                                
