 2014  122 0834 38.7 L   6.885 -73.132133.4  RSN  6 0.3 1.6LRSN                1
 GAP=203        0.69       2.8     4.5  7.1  0.5477E+01 -0.3903E+01 -0.5128E+01E
 Epicentro: LOS SANTOS - SANTANDER                                             3
 ACTION:UPD 14-03-13 09:57 OP:ep   STATUS:               ID:20140122083438 L   I
 OLDACT:UP  14-01-22 12:39 OP:nd   STATUS:               ID:20140122083000     3
 OLDACT:REG 14-01-22 07:58 OP:nd   STATUS:               ID:20140122083000     3
 2014-01-22-0830-00M.COL___279                                                 6
 STAT SP IPHASW D HRMM SECON CODA AMPLIT PERI AZIMU VELO AIN AR TRES W  DIS CAZ7
 RUS  HZ EP        835  1.74                             139   -0.2010  110 177 
 RUS  HN ES        835 20.43                             139    0.3210  110 177 
 RUS  HZ I         835 22.48         2.7 0.32            141            110 177 
 PTB  HZ EP   4    835  3.97                             128   -1.02 0  151 255 
 PTB  HN ES        835 25.25                             128   -0.28 9  151 255 
 PTB  HZ I         835 27.37         4.6 0.14            129            151 255 
 ZAR  HZ EP   2    835 10.51                             120    0.38 4  202 290 
 ZAR  HN ES        835 34.75                             120    0.07 9  202 290 
 ZAR  HZ I         835 40.91         7.0 0.38            121            202 290 
 SML  HZ EP        835 14.13                             116    0.36 8  236 334 
 SML  HN ES        835 40.94                             116   -0.21 8  236 334 
 SML  HZ I         835 43.59         3.4 0.09            117            236 334 
 CHI  HZ EP     C  835 16.26                             114   -0.49 8  258 195 
 CHI  HN ES        835 46.27                             114   -0.20 8  258 195 
 CHI  HZ I         835 49.94         2.9 0.24            116            258 195 
 GUY2CHZ EP        835 23.02                             109    0.52 7  308 234 
 GUY2CHN ES   2    835 57.17                             109    0.47 4  308 234 
 GUY2CHZ I         836  5.52         1.6 0.72                           308 234 
                                                                                
