 2014  222 0410 31.4 L   6.800 -73.141149.9  RSN  4 0.2 1.4LRSN                1
 GAP=201        0.44       3.6     3.6  6.4  0.8201E+01 -0.6796E+01 -0.1360E+02E
 Epicentro: LOS SANTOS - SANTANDER                                             3
 ACTION:UPD 14-03-10 08:12 OP:ep   STATUS:               ID:20140222041031 L   I
 OLDACT:DUP 14-02-22 10:36 OP:fm   STATUS:               ID:20140222040951d    3
 2014-02-22-0409-50M.COL___226                                                 6
 STAT SP IPHASW D HRMM SECON CODA AMPLIT PERI AZIMU VELO AIN AR TRES W  DIS CAZ7
 RUS  HZ EP        410 55.44                             145   -0.0810  101 176 
 RUS  HN ES        411 14.35                             145   -0.0110  101 176 
 RUS  HZ I         411 15.79         1.7 0.34            154            101 176 
 PTB  HZ EP        410 58.81                             133    0.10 9  148 259 
 PTB  HN ES        411 20.22                             133    0.18 9  148 259 
 PTB  HZ I         411 22.60         3.1 0.40            138            148 259 
 ZAR  HZ EP   1    411  4.22                             123    0.10 6  204 292 
 ZAR  HN ES        411 29.32                             123   -0.36 9  204 292 
 ZAR  HZ I         411 34.57         2.4 0.32            127            204 292 
 SML  HZ EP   2    411  8.20                             118   -0.04 4  244 335 
 SML  HN ES   1    411 37.22                             118    0.21 6  244 335 
 SML  HZ I         411 42.92         2.7 0.10            121            244 335 
                                                                                
