 2015  422 0946 59.3 L   7.095 -73.333  8.2  RSN  5 0.3 1.5LRSN                1
 GAP=239        0.62       5.6     3.3  8.9  0.1137E+02 -0.8108E+01 -0.3848E+02E
 Epicentro: LEBRIJA - SANTANDER                                                3
 ACTION:UPD 15-06-03 16:56 OP:cam  STATUS:               ID:20150422094659 L   I
 OLDACT:UP  15-04-22 17:14 OP:cam  STATUS:               ID:20150422093747     3
 OLDACT:REG 15-04-22 12:55 OP:ak   STATUS:               ID:20150422093747     3
 2015-04-22-0937-47M.COL___271                                                 6
 STAT SP IPHASW D HRMM SECON CODA AMPLIT PERI AZIMU VELO AIN AR TRES W  DIS CAZ7
 BAR2 EZ EP   1    947  8.69                              94   -0.21 8 58.0 163 
 RUS  HZ EP   1    947 20.45                              92   -0.48 7  136 168 
 RUS  HN ES        947 38.09                              92    0.2410  136 168 
 RUS  HN I         947 50.66         3.8 0.46             47            136 168 
 PTB  HZ EP     D  947 21.04                              92    0.1810  139 244 
 PTB  HN ES        947 37.58                              92   -0.1310  139 244 
 PTB  HZ I         947 39.69        10.2 0.18             47            139 244 
 ZAR  HZ EP     D  947 26.19                              56    0.28 9  174 285 
 ZAR  HN ES   1    947 46.42                              56   -0.28 7  174 285 
 ZAR  HZ I         947 48.76         4.9 0.44             47            174 285 
 SPBC HN ES   4    947 51.75                              56    3.71 0  179 207 
 SPBC HZ I         947 52.41        11.4 0.26             37            179 207 
                                                                                
