 2010  922 0553 13.9 L   7.050 -73.637 17.3  RSN  6 0.2 1.4LRSN                1
 GAP=153        0.52       2.5     3.1  2.7  0.4222E+00 -0.5338E+01  0.1741E+01E
 Epicentro: SAN VICENTE DE CHUCURI - SANTANDER                                 3
 ACTION:UP  11-02-18 11:04 OP:tino STATUS:               ID:20100922055313 L   I
 2010-09-22-0551-30S.COL___122                                                 6
 STAT SP IPHASW D HRMM SECON CODA AMPLIT PERI AZIMU VELO SNR AR TRES W  DIS CAZ7
 BRR  HZ IP     D  553 16.99                             148    -0.310   10 307 
 BRR  HE ES   1    553 20.10                             148     0.2 7   10 307 
 BRR  HZ I         553 20.54       133.5 0.14                            10 307 
 BTL  SZ EP        553 21.73                             109     0.110   43 110 
 GIR2 SZ EP        553 22.41                             107     0.010   49  86 
 BAR2 SZ EP   1    553 25.56                             102    -0.2 7   71 135 
 BAR2 SZ I         553 38.87         6.0 0.35                            71 135 
 GRA  SZ ES   1    553 50.54                              56     0.0 7  130  45 
 GRA  SZ I         553 53.50        12.3 0.26                           130  45 
 RUS  HZ EP   1    553 36.63                              56     0.3 7  142 154 
 RUS  HE ES   1    553 53.78                              56    -0.1 7  142 154 
 RUS  HZ I         553 55.07         3.6 0.55                           142 154 
                                                                                
