 2011  122 0812 35.4 L   6.804 -73.203136.7  RSN 13 0.4 2.5LRSN                1
 GAP=131        0.88       2.9     5.0  7.0 -0.3585E+01  0.1491E+02 -0.6170E+00E
 Epicentro: ZAPATOCA - SANTANDER                                               3
 ACTION:UP  11-02-08 08:42 OP:pat  STATUS:               ID:20110122081235 L   I
 2011-01-22-0809-16S.COL___138                                                 6
 STAT SP IPHASW D HRMM SECON CODA AMPLIT PERI AZIMU VELO SNR AR TRES W  DIS CAZ7
 BAR2 SZ IP        812 54.02                             170     0.010   24 175 
 BAR2 SZ ES   1    813  8.75                             170     0.3 7   24 175 
 BAR2 SZ I         813 10.39       147.1 0.19                            24 175 
 RUS  HZ EP   1    812 57.99                             141    -0.4 7  102 173 
 RUS  HN ES   1    813 16.00                             141    -0.3 7  102 173 
 RUS  HZ I         813 17.24        41.3 0.32                           102 173 
 GRA  SZ IP        813  0.96                             134     0.910  127  20 
 GRA  SZ I         813  2.40        57.6 0.23                           127  20 
 GRA  SZ ES   1    813 19.04                             134    -0.2 7  127  20 
 OCA  SZ EP        813  2.54                             128    -0.4 9  159 355 
 OCA  SZ ES   1    813 23.90                             128    -0.5 7  159 355 
 OCA  SZ I         813 27.83        55.6 0.17                           159 355 
 YOP  SZ EP   1    813  4.69                             124    -0.5 7  182 152 
 YOP  SE ES   1    813 28.55                             124     0.2 7  182 152 
 YOP  SZ I         813 31.69        18.3 0.26                           182 152 
 NOR  SZ EP   1    813 10.08                             117    -0.1 6  230 234 
 NOR  SN ES   1    813 37.44                             117     0.2 6  230 234 
 CHI  HZ EP   1    813 12.21                             115    -0.3 6  247 194 
 CHI  HE ES   1    813 41.71                             115     0.3 6  247 194 
 CHI  HZ I         813 48.34        12.8 0.35                           247 194 
 ROSC BZ EP   2    813 13.07                             115     0.3 4  250 210 
 ROSC BZ I         813 51.67        19.4 0.55                           250 210 
 HEL  HZ EP   1    813 14.49                             113     0.0 6  266 255 
 HEL  HE ES   2    813 44.70                             113    -0.3 4  266 255 
 HEL  HZ I         813 53.13        14.3 0.76                           266 255 
 GUY  SZ EP   2    813 18.50                             111     0.4 4  296 234 
 GUY  SN ES   2    813 51.55                             111     0.2 4  296 234 
 GUY  SZ I         814  0.46        21.4 0.51                           296 234 
 RREF HZ EP   1    813 20.81                             109     0.1 5  317 229 
 RREF HE ES   1    813 55.62                             109    -0.4 5  317 229 
 RREF HZ I         814  4.68        13.0 0.30                           317 229 
 DBB  SZ EP   1    813 22.01                             108     0.2 5  333 274 
 SJA  SZ EP   2    813 29.71                             105     0.1 3  399 192 
 SJA  SZ I         814 13.63        18.3 0.50                           399 192 
                                                                                
