 2014 1022 0429 51.7 L   6.755 -73.102147.1  RSN  5 0.3 1.2LRSN                1
 GAP=144        0.80       5.1     4.4  6.6 -0.4800E+01  0.3133E+01  0.3594E+01E
 Epicentro: LOS SANTOS - SANTANDER                                             3
 ACTION:UPD 14-11-29 23:54 OP:nd   STATUS:               ID:20141022042951 L   I
 OLDACT:DUP 14-10-25 01:13 OP:spq  STATUS:               ID:20141022042749d    3
 OLDACT:UP  14-10-24 20:33 OP:mh   STATUS:               ID:20141022042744     3
 OLDACT:UP  14-10-24 20:30 OP:mh   STATUS:               ID:20141022042744     3
 OLDACT:UP  14-10-24 20:28 OP:mh   STATUS:               ID:20141022042744     3
 OLDACT:REG 14-10-23 19:36 OP:mh   STATUS:               ID:20141022042744     3
 2014-10-22-0427-44M.COL___277                                                 6
 STAT SP IPHASW D HRMM SECON CODA AMPLIT PERI AZIMU VELO AIN AR TRES W  DIS CAZ7
 BAR2 SZ EP   1    430 11.59                             172    0.16 7 20.1 206 
 BAR2 SZ ES   1    430 26.83                             172    0.01 7 20.1 206 
 BAR2 SZ I         430 27.94         3.7 0.18            171           20.1 206 
 BRR  HZ EP        430 13.55                             151    0.1810 77.8 300 
 BRR  HN ES        430 30.36                             151    0.0810 77.8 300 
 BRR  HZ I         430 32.37         4.5 0.36            151           77.8 300 
 PAM  SZ EP        430 14.59                             151    0.4710 78.5  35 
 PAM  SE ES        430 31.21                             151   -0.4010 78.5  35 
 PAM  SZ I         430 32.45         2.8 0.18            153           78.5  35 
 RUS  HZ EP   1    430 15.16                             146   -0.05 7 95.4 179 
 RUS  HE ES   1    430 33.59                             146    0.03 7 95.4 179 
 RUS  HZ I         430 34.91         1.5 0.26            147           95.4 179 
 PTB  HZ EP        430 18.45                             131   -0.67 9  152 261 
 PTB  HE ES        430 40.70                             131    0.19 9  152 261 
 PTB  HZ I         430 42.25         3.0 0.12            133            152 261 
                                                                                
