 2013  922 0505 40.9 L   6.607 -73.127153.5  RSN  5 0.4 1.2LRSN                1
 GAP=226        0.75       7.2     6.3  9.1  0.2418E+02 -0.6131E+01 -0.1374E+02E
 Epicentro: SAN GIL - SANTANDER                                                3
 ACTION:UPD 13-10-22 09:24 OP:ep   STATUS:               ID:20130922050540 L   I
 OLDACT:REG 13-09-22 07:43 OP:jn   STATUS:               ID:20130922045959     3
 2013-09-22-0459-59M.COL___269                                                 6
 STAT SP IPHASW D HRMM SECON CODA AMPLIT PERI AZIMU VELO AIN AR TRES W  DIS CAZ7
 BAR2 SZ EP   1    5 6  1.60                             178    0.34 7 6.33 255 
 RUS  HZ EP   1    5 6  3.57                             152   -0.48 7 79.2 176 
 RUS  HN ES   1    5 6 22.54                             152    0.43 7 79.2 176 
 BRR  HZ EP        5 6  3.66                             149   -0.0410 85.1 311 
 BRR  HN ES   1    5 6 21.11                             149   -0.37 7 85.1 311 
 BRR  HZ I         5 6 23.65         2.2 0.34            150           85.1 311 
 PTB  HZ EP        5 6  8.53                             134    0.07 9  147 267 
 PTB  HN ES        5 6 29.70                             134   -0.26 9  147 267 
 PTB  HZ I         5 6 31.77         1.9 0.16            135            147 267 
 ZAR  HN ES   1    5 6 42.16                             123    0.63 6  215 297 
                                                                                
