 2010  422 0955 21.4 L   6.790 -73.043142.7  RSN  7 0.3 2.1LRSN                1
 GAP=200        0.66       6.3     8.7  8.5 -0.3997E+01 -0.3892E+02 -0.1473E+02E
 Epicentro: LOS SANTOS - SANTANDER                                             3
 ACTION:UPD 10-08-24 10:00 OP:vdl  STATUS:               ID:20100422095521 L   I
 2010-04-22-0950-01S.COL___104                                                 6
 STAT SP IPHASW D HRMM SECON CODA AMPLIT PERI AZIMU VELO SNR AR TRES W  DIS CAZ7
 BAR2 SZ IP        955 40.66                             169    -0.110   27 215 
 BAR2 SZ ES   2    955 55.45                             169    -0.4 5   27 215 
 GIR2 SZ ES   2    955 56.38                             165     0.3 5   36 333 
 BRR  HZ IP     C  955 42.94                             149     0.010   82 295 
 BRR  HE ES   1    955 59.86                             149     0.2 7   82 295 
 BRR  HZ I         956  0.63        19.4 0.06                            82 295 
 BRI  SZ IP        955 45.18                             142     0.310  106  15 
 GUE  SZ EP   1    955 45.42                             139    -0.4 7  116   7 
 GRA  SZ IP        955 46.43                             137     0.210  124  12 
 OCA  SZ EP   1    955 49.44                             129    -0.3 7  163 349 
 OCA  SZ ES   2    956 11.26                             129    -0.6 5  163 349 
 OCA  SZ I         956 15.84        15.9 0.23                           163 349 
                                                                                
