 2017 1122 0610 40.6 L   6.823 -73.153137.1  RSN 15 0.6 2.1LRSN                1
 GAP= 70        1.30       3.3     4.2  6.7 -0.3490E+01  0.8594E+01 -0.7514E+00E
 Epicentro: LOS SANTOS - SANTANDER                                             3
 ACTION:UPD 17-12-12 19:58 OP:rebc STATUS:               ID:20171122061040 L   I
 OLDACT:UP  17-11-22 17:24 OP:dani STATUS:               ID:20171122060742d    3
 OLDACT:UP  17-11-22 17:24 OP:dani STATUS:               ID:20171122060742d    3
 OLDACT:UP  17-11-22 17:12 OP:dani STATUS:               ID:20171122060742d    3
 OLDACT:UP  17-11-22 17:12 OP:dani STATUS:               ID:20171122060742d    3
 OLDACT:UP  17-11-22 17:11 OP:dani STATUS:               ID:20171122060742d    3
 OLDACT:DUP 17-11-22 17:09 OP:dani STATUS:               ID:20171122060742d    3
 2017-11-22-0608-00M.COL___480                                                 6
 STAT SP IPHASW D HRMM SECON CODA AMPLIT PERI AZIMU VELO AIN AR TRES W  DIS CAZ7
 BAR2 EZ EP     C  610 59.31                             169    0.1010 25.7 187 
 BAR2 EZ ES        611 13.17                             169   -0.5810 25.7 187 
 BAR2 EZ I         611 16.65        30.0 0.16            165           25.7 187 
 PAM  EZ EP        611  2.28                             150    0.5010 76.0  41 
 PAM  EN ES        611 19.26                             150    0.9410 76.0  41 
 PAM  EZ I         611 19.85        18.6 0.22            150           76.0  41 
 RUS  HZ EP        611  3.33                             141   -0.3410  103 176 
 RUS  HN ES        611 21.21                             141   -0.4810  103 176 
 RUS  HZ I         611 22.91        15.1 0.24            137            103 176 
 PTB  HZ EP        611  5.87                             130   -0.95 9  147 258 
 PTB  HN ES        611 27.18                             130   -0.11 9  147 258 
 PTB  HZ I         611 30.39        11.8 0.16            125            147 258 
 TAM  HZ EP        611  7.67                             128   -0.04 9  157 106 
 OCA  HZ EP        611  7.65                             128   -0.32 9  158 353 
 OCA  HN ES        611 29.17                             128   -0.17 9  158 353 
 OCA  HZ I         611 30.45        24.1 0.38            125            158 353 
 SPBC HZ EP        611  8.32                             127   -0.24 9  165 218 
 SPBC HE ES        611 30.59                             127    0.20 9  165 218 
 SPBC HZ I         611 36.59        19.8 0.16            122            165 218 
 ZAR  HZ EP        611 12.16                             121   -0.12 9  202 292 
 ZAR  HN ES        611 37.80                             121    0.78 9  202 292 
 ZAR  HZ I         611 43.20        22.8 0.46            116            202 292 
 NOR  HZ EP        611 15.74                             116   -0.16 8  236 234 
 NOR  HE ES        611 43.50                             116    0.04 8  236 234 
 NOR  HZ I         611 48.43         9.8 0.22            112            236 234 
 CHI  HZ EP        611 17.71                             115   -0.34 8  251 195 
 CHI  HN ES        611 48.25                             115    0.97 8  251 195 
 CHI  HZ I         611 54.00         4.3 0.50            112            251 195 
 ROSC BZ EP   9    611 20.03                             115    1.61 0  255 211 
 ROSC BN ES        611 49.78                             114    0.22 8  255 211 
 ROSC BZ I         611 53.12        10.2 0.30            111            255 211 
 HEL  HZ EP     D  611 21.25                             113    0.91 8  272 255 
 HEL  HN ES        611 50.28                             113   -1.08 8  272 255 
 HEL  HZ I         611 58.46         6.5 0.56            109            272 255 
 DRL03HN ES        611 52.95                             112   -0.44 7  286 353 
 GUY2CHZ EP        611 24.11                             110    0.23 7  302 234 
 GUY2CHN ES        611 58.69                             110    1.02 7  302 234 
 GUY2CHZ I         612  8.34         5.3 0.50                           302 234 
 CBOC HZ EP        611 27.52                             108    0.38 7  334 252 
 CBOC HZ I         612 15.63         2.5 0.70            105            334 252 
                                                                                
