 2013  722 0251 48.1 L   6.792 -73.217150.6  RSN  4 0.3 1.2LRSN                1
 GAP=194        0.63       3.7     5.5  7.2  0.6350E+01 -0.8389E+01 -0.9562E+01E
 Epicentro: ZAPATOCA - SANTANDER                                               3
 ACTION:UPD 13-08-12 10:39 OP:ep   STATUS:               ID:20130722024959 L   I
 OLDACT:UP  13-07-22 09:56 OP:cam  STATUS:               ID:20130722024959 L   3
 OLDACT:UP  13-07-22 09:56 OP:cam  STATUS:               ID:20130722024959 L   3
 OLDACT:UP  13-07-22 09:55 OP:cam  STATUS:               ID:20130722024959 L   3
 OLDACT:UPD 13-07-22 08:35 OP:stll STATUS:               ID:20130722024959 L   3
 2013-07-22-0249-59M.COL___267                                                 6
 STAT SP IPHASW D HRMM SECON CODA AMPLIT PERI AZIMU VELO AIN AR TRES W  DIS CAZ7
 BRR  HZ EP        252  9.65                             155    0.1910 64.8 303 
 BRR  HN ES   1    252 26.42                             155    0.32 7 64.8 303 
 BRR  HZ I         252 28.70         3.1 0.34            153           64.8 303 
 RUS  HZ EP   1    252 12.27                             145   -0.08 7  101 172 
 RUS  HZ I         252 12.97         1.1 0.20            147            101 172 
 RUS  HN ES   1    252 31.03                             145   -0.22 7  101 172 
 PTB  HZ EP        252 14.71                             135   -0.08 9  140 259 
 PTB  HN ES        252 35.59                             135   -0.00 9  140 259 
 PTB  HZ I         252 40.98         2.0 0.28            134            140 259 
 SML  HZ EP   1    252 25.32                             119    0.56 6  241 337 
 SML  HN ES        252 52.84                             119   -0.50 8  241 337 
 SML  HZ I         252 57.35         1.9 0.32            119            241 337 
                                                                                
