 2014  422 0850 56.5 L   6.795 -73.174148.0  RSN  9 0.3 1.8LRSN                1
 GAP=180        0.60       2.4     3.5  6.3  0.1005E+01  0.1679E+01 -0.4970E+01E
 Epicentro: LOS SANTOS - SANTANDER                                             3
 OLDACT:REG 14-04-22 13:14 OP:fm   STATUS:               ID:20140422084812     3
 ACTION:UPD 14-05-13 23:10 OP:nd   STATUS:               ID:20140422085056 L   I
 OLDACT:UP  14-04-22 16:50 OP:fm   STATUS:               ID:20140422084812     3
 2014-04-22-0848-12M.COL___236                                                 6
 STAT SP IPHASW D HRMM SECON CODA AMPLIT PERI AZIMU VELO AIN AR TRES W  DIS CAZ7
 RUS  HZ EP        851 20.53                             145    0.0410  100 174 
 RUS  HN ES        851 39.24                             145    0.0710  100 174 
 PTB  HZ EP        851 23.06                             133   -0.34 9  145 259 
 PTB  HN ES        851 44.04                             133   -0.32 9  145 259 
 PTB  HZ I         851 47.89         6.3 0.40            123            145 259 
 OCA  HZ EP   2    851 25.23                             130    0.19 5  160 354 
 OCA  HZ I         851 45.87         5.4 1.14            118            160 354 
 OCA  HN ES   1    851 47.22                             130   -0.06 7  160 354 
 SPBC HZ EP   1    851 24.84                             130   -0.14 7  161 218 
 SPBC HN ES   1    851 47.30                             130    0.13 7  161 218 
 SPBC HZ I         851 51.49         5.3 0.22            120            161 218 
 ZAR  HZ EP   1    851 28.68                             123   -0.17 6  201 293 
 ZAR  HE ES   1    851 54.57                             123    0.51 6  201 293 
 ZAR  HZ I         851 59.69         6.2 0.54            113            201 293 
 SML  HZ EP   1    851 32.83                             118   -0.37 6  243 336 
 SML  HN ES        852  2.13                             118    0.33 8  243 336 
 SML  HZ I         852  7.34         4.9 0.08            108            243 336 
 HEL  HZ EP   4    851 38.21                             116    1.70 0  269 256 
 HEL  HN ES   1    852  8.02                             116    0.33 6  269 256 
 HEL  HZ I         852 14.26         4.4 1.58            106            269 256 
 URE  HE ES   4    852  7.96                             114   -1.34 0  281 292 
 GUY2CHZ EP   4    851 41.60                             113    1.68 0  298 235 
 GUY2CHN ES   4    852 17.13                             113    3.37 0  298 235 
 GUY2CHZ I         852 23.15         3.0 3.00                           298 235 
 RREF HZ EP   2    851 43.55                             112    1.09 3  319 229 
 RREF HN ES   4    852 22.78                             112    4.50 0  319 229 
 RREF HZ I         852 26.77         4.6 3.00            103            319 229 
 SJC  HZ EP   4    851 50.40                             106   -1.63 0  408 327 
 SJC  HN ES   4    852 32.50                             106   -2.81 0  408 327 
                                                                                
