 2017 1122 0831 35.2 L   6.824 -73.204139.0  RSN 11 0.6 1.4LRSN                1
 GAP=128        1.34       4.0     5.3  8.1 -0.3299E+01  0.1601E+02  0.4336E+01E
 Epicentro: ZAPATOCA - SANTANDER                                               3
 ACTION:UPD 17-12-12 19:58 OP:rebc STATUS:               ID:20171122083135 L   I
 OLDACT:REG 17-11-22 13:25 OP:osc  STATUS:               ID:20171122082737     3
 2017-11-22-0828-00M.COL___471                                                 6
 STAT SP IPHASW D HRMM SECON CODA AMPLIT PERI AZIMU VELO AIN AR TRES W  DIS CAZ7
 BAR2 EZ EP        831 53.87                             169   -0.1610 25.7 175 
 BAR2 EZ ES        832  9.01                             169    0.2610 25.7 175 
 BAR2 EZ I         832 10.06         6.8 0.26            169           25.7 175 
 PAM  EZ EP        831 56.85                             149    0.0410 79.8  44 
 PAM  EE ES        832 13.68                             149   -0.0210 79.8  44 
 PAM  EZ I         832 14.65         3.6 0.22            153           79.8  44 
 RUS  HZ EP        831 57.86                             141   -0.6410  104 173 
 RUS  HN ES        832 16.61                             141   -0.0910  104 173 
 RUS  HZ I         832 18.09         2.6 0.44            143            104 173 
 PTB  HZ EP        832  0.60                             132   -0.45 9  142 257 
 PTB  HN ES        832 20.11                             132   -1.14 9  142 257 
 PTB  HZ I         832 24.51         2.5 0.12            131            142 257 
 OCA  HN ES        832 24.48                             129    0.40 9  157 355 
 SPBC HN ES        832 25.26                             128    0.60 9  161 217 
 ZAR  HZ EP        832  6.11                             122   -0.34 9  197 292 
 ZAR  HN ES        832 31.58                             122    0.73 9  197 292 
 ZAR  HZ I         832 36.96         4.4 0.38            122            197 292 
 NOR  HZ EP        832 10.14                             117    0.03 8  231 233 
 NOR  HN ES        832 36.85                             117   -0.52 8  231 233 
 NOR  HZ I         832 45.06         2.0 0.54            118            231 233 
 CHI  HZ EP        832 12.19                             116   -0.41 8  250 194 
 CHI  HN ES        832 42.85                             116    1.05 8  250 194 
 CHI  HZ I         832 46.43         2.3 0.44            117            250 194 
 GUY2CHZ EP        832 19.23                             111    1.19 7  297 234 
 GUY2CHN ES   1    832 52.45                             111    0.96 5  297 234 
 GUY2CHZ I         832 57.85         1.2 0.28                           297 234 
 PRA  HZ EP        832 28.45                             105    0.09 6  391 209 
 PRA  HE ES   1    833  9.21                             105   -0.64 4  391 209 
                                                                                
