 2017  922 0929  1.5 L   6.881 -73.381 21.5  RSN  7 0.7 1.2LRSN                1
 GAP=112        1.74       4.0     4.6  6.9  0.4524E+01  0.1768E+02  0.4363E+01E
 Epicentro: SAN VICENTE DE CHUCURI - SANTANDER                                 3
 ACTION:UPD 17-10-05 19:15 OP:rebc STATUS:               ID:20170922092901 L   I
 OLDACT:UP  17-09-22 16:36 OP:osc  STATUS:               ID:20170922091743     3
 OLDACT:REG 17-09-22 14:47 OP:y    STATUS:               ID:20170922091743     3
 2017-09-22-0918-00M.COL___408                                                 6
 STAT SP IPHASW D HRMM SECON CODA AMPLIT PERI AZIMU VELO AIN AR TRES W  DIS CAZ7
 BAR2 EZ EP        929  9.70                             117    0.8610 38.7 145 
 BAR2 EZ ES        929 13.14                             117   -1.4410 38.7 145 
 BAR2 EZ I         929 13.51        12.6 0.08            103           38.7 145 
 BRR  HZ EP        929 10.03                             113    0.6910 44.3 304 
 BRR  HE ES        929 15.27                             113   -0.2010 44.3 304 
 BRR  HZ I         929 15.34        17.8 0.26            102           44.3 304 
 PAM  EZ EP        929 16.03                             102   -0.5710 90.8  56 
 PAM  EE ES        929 28.87                             102    0.4710 90.8  56 
 PAM  EZ I         929 33.99         6.2 0.16             95           90.8  56 
 RUS  HZ EP   4    929 17.35                              99   -2.74 0  114 163 
 RUS  HE ES        929 35.20                              99    0.5910  114 163 
 RUS  HZ I         929 36.39         3.4 0.24             94            114 163 
 ZAR  HZ EP        929 27.39                              56    0.07 9  177 293 
 ZAR  HN ES        929 46.71                              56   -0.77 9  177 293 
 NOR  HZ EP   4    929 29.51                              56   -3.27 0  220 229 
 NOR  HE ES        929 57.40                              56    0.20 8  220 229 
 NOR  HZ I         930  4.08         2.7 0.26             56            220 229 
 GUY2CHZ EP   4    929 37.54                              55   -3.99 0  286 230 
 GUY2CHE ES        930 12.87                              55    0.10 7  286 230 
 GUY2CHZ I         930 21.14         1.9 0.49                           286 230 
                                                                                
