 2012 1022 0045 13.8 L   6.824 -73.117145.0  RSN  6 0.3 1.8LRSN                1
 GAP=139        0.59       3.5     4.1  6.4  0.6235E+01 -0.7683E+00 -0.2960E+01E
 Epicentro: LOS SANTOS - SANTANDER                                             3
 ACTION:UPD 12-11-22 17:05 OP:ep   STATUS:               ID:20121022004513 L   I
 2012-10-22-0040-00M.COL___233                                                 6
 STAT SP IPHASW D HRMM SECON CODA AMPLIT PERI AZIMU VELO AIN AR TRES W  DIS CAZ7
 BAR2 SZ EP   1    045 33.11                             169   -0.28 7 26.6 196 
 BAR2 SZ ES   2    045 48.15                             169   -0.54 5 26.6 196 
 BAR2 SZ I         045 49.88         9.2 0.23                          26.6 196 
 BRR  HZ EP   1    045 35.21                             152    0.27 7 72.8 296 
 BRR  HE ES        045 51.72                             152    0.2710 72.8 296 
 BRR  HN I         045 58.21        15.8 0.17                          72.8 296 
 PAM  SZ EP   1    045 35.91                             152    0.22 7 73.4  39 
 PAM  SN ES   2    045 53.03                             152    0.26 5 73.4  39 
 PAM  SN I         045 54.45         8.0 0.17                          73.4  39 
 RUS  HZ EP   1    045 37.70                             143    0.06 7  103 178 
 RUS  HE ES        045 56.19                             143   -0.0510  103 178 
 RUS  HN I         045 57.72         5.5 0.32                           103 178 
 OCA  HN ES   2    046  2.96                             130   -0.75 5  158 352 
 OCA  HN I         046  7.93        18.9 0.25                           158 352 
 ZAR  HN ES        046 11.61                             122   -0.20 8  206 291 
                                                                                
