 2010 1122 0909 55.4 L   6.806 -72.967133.8  RSN  4 0.3 1.1LRSN                1
 GAP=179        0.80       7.6    14.3 17.4  0.6418E+02 -0.1683E+03 -0.7827E+02E
 Epicentro: CEPITA - SANTANDER                                                 3
 ACTION:UP  10-12-17 16:54 OP:REBC STATUS:               ID:20101122090955 L   I
 2010-11-22-0905-15S.COL___129                                                 6
 STAT SP IPHASW D HRMM SECON CODA AMPLIT PERI AZIMU VELO SNR AR TRES W  DIS CAZ7
 BAR2 SZ EP   1    910 13.33                             165    -0.6 7   34 225 
 BAR2 SZ I         910 32.38         5.0 0.53                            34 225 
 BRR  HZ EP        910 16.74                             144     0.310   89 292 
 BRR  HE ES   1    910 32.71                             144    -0.2 7   89 292 
 RUS  HZ EP   1    910 17.95                             140    -0.2 7  102 187 
 RUS  HN ES   1    910 36.14                             140     0.3 7  102 187 
 RUS  HZ I         910 37.45         1.2 0.25                           102 187 
 GRA  SZ EP   1    910 19.34                             135     0.1 7  121   9 
 GRA  SZ I         910 41.60         2.7 0.34                           121   9 
                                                                                
