 2013  922 0308 34.1 L   6.787 -73.115143.2  RSN  8 0.5 1.8LRSN                1
 GAP=186        1.31       4.8     7.6  9.6  0.7391E+01  0.1370E+02  0.4182E+01E
 Epicentro: LOS SANTOS - SANTANDER                                             3
 ACTION:UPD 13-10-22 09:24 OP:ep   STATUS:               ID:20130922030834 L   I
 OLDACT:REG 13-09-22 12:09 OP:jn   STATUS:               ID:20130922030649     3
 2013-09-22-0306-49M.COL___234                                                 6
 STAT SP IPHASW D HRMM SECON CODA AMPLIT PERI AZIMU VELO AIN AR TRES W  DIS CAZ7
 BAR2 SZ EP        3 8 53.67                             170    0.2810 22.8 199 
 BAR2 SZ ES        3 9  8.38                             170   -0.0710 22.8 199 
 BAR2 SZ I         3 9  9.85         9.6 0.48            168           22.8 199 
 BRR  HZ EP        3 8 55.59                             151    0.4310 74.9 298 
 BRR  HN ES        3 9 12.30                             151    0.6910 74.9 298 
 BRR  HZ I         3 9 14.01        12.8 0.16            149           74.9 298 
 RUS  HZ EP        3 8 57.75                             144    0.2910 99.0 178 
 RUS  HN ES        3 9 15.60                             144   -0.1010 99.0 178 
 RUS  HZ I         3 9 17.83         9.2 0.30            144           99.0 178 
 PTB  HZ EP        3 9  0.60                             131   -0.52 9  151 260 
 PTB  HN ES   1    3 9 21.17                             131   -1.04 7  151 260 
 PTB  HZ I         3 9 23.96        14.3 0.14            130            151 260 
 OCA  HN ES        3 9 23.40                             129   -1.03 9  162 352 
 OCA  HZ I         3 9 25.50         7.5 0.16            131            162 352 
 SPBC HZ EP        3 9  2.75                             128    0.27 9  164 220 
 SPBC HN ES        3 9 24.17                             128   -0.46 9  164 220 
 SPBC HZ I         3 9 30.77         8.9 0.30            128            164 220 
 ZAR  HE ES        3 9 32.92                             121    0.71 8  208 292 
 ZAR  HZ I         3 9 37.52         7.8 0.60            122            208 292 
 CHI  HN ES   1    3 9 40.62                             117   -0.21 6  248 196 
                                                                                
