 2014  622 0440 50.7 L   6.736 -73.112145.0  RSN 10 0.5 1.7LRSN                1
 GAP=186        1.14       4.1     5.2  7.3 -0.3203E+00  0.1267E+02  0.3157E+01E
 Epicentro: JORDAN - SANTANDER                                                 3
 ACTION:UPD 14-07-01 22:55 OP:nd   STATUS:               ID:20140622044050 L   I
 OLDACT:REG 14-06-22 14:17 OP:carl STATUS:               ID:20140622043805     3
 2014-06-22-0438-05M.COL___259                                                 6
 STAT SP IPHASW D HRMM SECON CODA AMPLIT PERI AZIMU VELO AIN AR TRES W  DIS CAZ7
 BAR2 SZ EP        441 10.42                             173    0.2310 17.7 206 
 BAR2 SZ ES        441 25.39                             173    0.0310 17.7 206 
 BAR2 SZ I         441 27.90         9.5 0.40            169           17.7 206 
 BRR  HZ EP        441 12.47                             150    0.2510 78.0 302 
 BRR  HN ES        441 29.71                             150    0.7510 78.0 302 
 BRR  HZ I         441 32.50         5.9 0.30            149           78.0 302 
 RUS  HZ EP        441 13.34                             146   -0.5810 93.3 178 
 RUS  HE ES        441 31.97                             146   -0.0210 93.3 178 
 RUS  HZ I         441 33.75         3.7 0.44            148           93.3 178 
 PTB  HZ EP        441 17.21                             131   -0.67 9  150 262 
 PTB  HN ES        441 38.01                             131   -1.03 9  150 262 
 PTB  HZ I         441 45.83         5.5 0.48            132            150 262 
 SPBC HZ EP        441 19.08                             129    0.17 9  160 222 
 SPBC HN ES        441 40.84                             129   -0.03 9  160 222 
 SPBC HZ I         441 48.48         8.0 0.26            130            160 222 
 OCA  HN ES        441 42.26                             128   -0.05 9  168 352 
 OCA  HZ I         441 46.31         6.1 0.18            131            168 352 
 ZAR  HN ES        441 49.15                             121   -0.40 8  210 294 
 ZAR  HZ I         441 51.16         4.9 0.34            123            210 294 
 NOR  HE ES        441 54.07                             118   -0.02 8  234 236 
 NOR  HZ I         442  1.43         3.8 0.22            120            234 236 
 HEL  HZ EP        441 31.45                             114    0.31 8  274 257 
 HEL  HE ES        442  2.99                             114    0.34 8  274 257 
 HEL  HZ I         442  9.75         2.8 0.28            116            274 257 
 GUY2CHZ EP        441 34.86                             112    0.64 7  300 236 
 GUY2CHN ES        442  8.75                             112    0.63 7  300 236 
 GUY2CHZ I         442 17.68         2.7 0.28                           300 236 
                                                                                
