 2016 1022 0116 34.5 L   6.804 -73.122147.6  RSN 25 0.5 2.5LRSN                1
 GAP= 67        1.16       3.1     3.5  5.3 -0.2170E+01  0.2583E+01  0.4289E+01E
 Epicentro: LOS SANTOS - SANTANDER                                             3
 ACTION:UPD 16-11-09 19:21 OP:rebc STATUS:               ID:20161022011634 L   I
 OLDACT:UP  16-10-22 15:27 OP:and  STATUS:               ID:20161022010742     3
 OLDACT:UP  16-10-22 15:18 OP:and  STATUS:               ID:20161022010742     3
 OLDACT:UP  16-10-22 15:15 OP:and  STATUS:               ID:20161022010742     3
 OLDACT:REG 16-10-22 12:52 OP:and  STATUS:               ID:20161022010742     3
 2016-10-22-0108-00M.COL___358                                                 6
 STAT SP IPHASW D HRMM SECON CODA AMPLIT PERI AZIMU VELO AIN AR TRES W  DIS CAZ7
 BAR2 EZ IP     D  116 54.32                             170   -0.0210 24.3 196 
 BAR2 EZ ES        117  9.57                             170   -0.2710 24.3 196 
 BAR2 EZ I         117 10.97       101.3 0.22            168           24.3 196 
 BRR  HZ IP     C  116 56.24                             152    0.3110 73.4 297 
 BRR  HE ES        117 13.35                             152    0.6710 73.4 297 
 BRR  HZ I         117 17.23        51.0 0.21            151           73.4 297 
 PAM  EZ IP     C  116 57.16                             152    0.4010 75.4  38 
 PAM  EN ES        117 14.21                             152    0.0610 75.4  38 
 PAM  EZ I         117 16.55        57.4 0.50            156           75.4  38 
 RUS  HZ EP        116 58.23                             144   -0.1810  101 178 
 RUS  HN ES        117 17.42                             144    0.3210  101 178 
 RUS  HZ I         117 18.62        25.5 0.34            145            101 178 
 PTB  HZ EP        117  1.14                             132   -0.69 9  150 259 
 PTB  HN ES        117 22.04                             132   -1.13 9  150 259 
 PTB  HZ I         117 28.56        30.5 0.18            131            150 259 
 TAM  HZ IP     D  117  2.75                             131    0.69 9  153 105 
 TAM  HE ES   4    117 22.57                             131   -1.02 0  153 105 
 TAM  HZ I         117 23.70        16.1 0.28            135            153 105 
 OCA  HZ EP        117  2.37                             130   -0.54 9  160 352 
 OCA  HN ES        117 24.38                             130   -0.72 9  160 352 
 OCA  HZ I         117 27.68        67.9 0.24            132            160 352 
 SPBC HZ EP        117  3.66                             129    0.37 9  165 220 
 SPBC HN ES        117 26.08                             129    0.30 9  165 220 
 SPBC HZ I         117 30.32        73.6 0.27            129            165 220 
 TABC EZ EP   4    117 12.45                             119    1.94 0  232 211 
 TABC EZ ES        117 39.12                             119    0.50 8  232 211 
 TABC EZ I         117 43.39        36.7 0.68            120            232 211 
 NOR  HZ EP        117 10.34                             119   -0.22 8  237 235 
 NOR  HE ES        117 38.79                             119    0.08 8  237 235 
 NOR  HZ I         117 44.34        20.0 0.24            119            237 235 
 CHI  HZ EP        117 13.00                             117    0.62 8  250 196 
 CHI  HN ES        117 41.78                             117   -0.18 8  250 196 
 CHI  HZ I         117 45.64        22.9 0.50            118            250 196 
 ROSC BZ EP   4    117 14.48                             117    1.61 0  254 211 
 ROSC BN ES   4    117 45.17                             117    2.34 0  254 211 
 ROSC BZ I         117 48.84        53.3 0.40            118            254 211 
 HEL  HZ EP        117 16.07                             115    1.00 8  275 256 
 HEL  HN IS        117 46.84                             115    0.10 8  275 256 
 HEL  HN ES        117 46.84                             115            275 256 
 GUY2CHZ EP        117 18.60                             112    0.17 7  304 235 
 GUY2CHN ES   3    117 51.74                             112   -0.98 2  304 235 
 GUY2CHZ I         118  0.60        20.9 0.34                           304 235 
 PTGC HZ EP        117 17.47                             112   -0.87 7  308 159 
 PTGC HN ES        117 51.27                             112   -1.29 7  308 159 
 PTGC HZ I         117 53.60        12.4 0.34            113            308 159 
 LL6C HZ EP   9    116 59.73                             111   -20.5 0  325 357 
 LL6C HN ES        117 36.14                                    0.73 7  325 357 
 ELA  HZ EP   4    117 24.08                             110    2.43 0  331 230 
 ELA  HN ES   4    117 59.73                             110    1.27 0  331 230 
 ELA  HZ I         118  7.07        14.6 0.52            111            331 230 
 CBOC HZ EP        117 22.27                             110    0.51 7  336 252 
 CBOC HE ES        117 58.26                             110   -0.39 7  336 252 
 ANIL HZ EP   4    117 26.18                             109    1.59 0  360 225 
 ANIL HN ES        118  3.88                             109    0.19 6  360 225 
 PRA  HZ EP   9    117 25.45                             107   -2.79 0  394 210 
 PRA  HN ES        118  6.96                                   -0.44 6  394 210 
 PRA  HZ I         118 13.44        17.9 0.25            108            394 210 
 ORTC HZ EP        117 28.74                             107    0.07 6  397 216 
 ORTC HN ES        118 10.79                             107   -0.16 6  397 216 
 ORTC HZ I         118 15.72        10.0 0.30            107            397 216 
 PAL  HZ EP        117 29.92                             106   -0.06 6  408 239 
 PAL  HE ES   3    118 12.33                             106   -0.95 1  408 239 
 PAL  HZ I         118 18.75         4.2 0.22            107            408 239 
 SJC  HZ IP   4 C  117 28.54                             106   -1.68 0  410 327 
 SJC  HN ES   4    118 10.11                             106   -3.59 0  410 327 
 SJC  HZ I         118 21.81         5.2 0.34            107            410 327 
 CRJC HZ EP   9    117 34.64                             104   -2.31 0  467   3 
 CRJC HE ES        118 23.24                                   -0.14 5  467   3 
 CRJC HZ I         118 24.31         9.0 0.18            105            467   3 
 URI  HZ EP   9    117 45.32                             101   -2.07 0  556  13 
 URI  HN ES        118 42.67                                    0.47 3  556  13 
                                                                                
