 2012  122 0740 38.5 L   6.519 -73.562  0.0  RSN  8 0.5 1.9LRSN                1
 GAP= 74        1.02       3.3     2.6  7.0 -0.4054E+00  0.2592E+01 -0.2283E+01E
 Epicentro: EL CARMEN DE CHUCURI - SANTANDER                                   3
 ACTION:UP  12-02-03 08:19 OP:REBC STATUS:               ID:20120122074038 L   I
 2012-01-22-0740-00M.COL___186                                                 6
 STAT SP IPHASW D HRMM SECON CODA AMPLIT PERI AZIMU VELO SNR AR TRES W  DIS CAZ7
 BAR2 SZ IP        740 46.78                              47     0.310   43  79 
 BAR2 SZ ES   1    740 52.73                              47     0.1 7   43  79 
 BAR2 SZ I         740 53.26        88.4 0.10                            43  79 
 BRR  HZ EP        740 49.84                              47     0.010   67 346 
 BRR  HN ES   1    740 59.62                              47     0.9 7   67 346 
 BRR  HZ I         741  0.63        67.2 0.08                            67 346 
 RUS  HZ EP        740 53.10                              47    -0.310   87 143 
 RUS  HZ I         740 53.28        52.6 0.14                            87 143 
 PTB  HZ IP        740 54.49                              47    -0.210   99 271 
 PTB  HN ES   1    741  7.01                              47    -0.3 7   99 271 
 PAM  SZ EP        740 59.95                              47    -0.210  132  46 
 PAM  SE ES   2    741 16.17                              47    -0.8 5  132  46 
 CHI  HZ EP   2    741 11.78                              37     0.6 4  210 185 
 CHI  HE ES   2    741 37.24                              37     0.6 4  210 185 
 CHI  HZ I         741 41.24         4.6 0.69                           210 185 
 GUY  SZ EP   2    741 15.49                              37    -0.6 4  248 235 
 GUY  SZ I         741 46.76        10.1 0.30                           248 235 
 RREF HZ I         741 50.29         7.0 0.22                           267 228 
 RREF HE ES   2    741 50.57                              37     0.8 4  267 228 
                                                                                
