 2011  922 0311 42.9 L   6.805 -73.352118.0  RSN  4 0.4 1.4LRSN                1
 GAP=147        0.71      12.0    17.3  8.9  0.1693E+03 -0.3114E+02 -0.1472E+02E
 Epicentro: ZAPATOCA - SANTANDER                                               3
 ACTION:UPD 12-07-13 15:59 OP:ep   STATUS:               ID:20110922031142 L   I
 2011-09-22-0308-13S.COL___160                                                 6
 STAT SP IPHASW D HRMM SECON CODA AMPLIT PERI AZIMU VELO AIN AR TRES W  DIS CAZ7
 BTL  SZ EP        311 58.93                             172   -0.1510 15.7  37 
 BAR2 SZ EP        311 59.38                             165   -0.0510 30.1 141 
 BAR2 SZ ES   1    312 12.64                             165    0.34 7 30.1 141 
 BAR2 SZ I         312 13.66        11.8 0.38                          30.1 141 
 BRR  HZ EP   1    311 59.76                             155   -0.25 7 51.9 310 
 BRR  HZ I         312  3.45        15.2 0.35                          51.9 310 
 BRR  HN ES   1    312 13.51                             155    0.19 7 51.9 310 
 RUS  HZ EP   2    312  5.35                             136    0.89 5  105 164 
 RUS  HE ES   2    312 20.53                             136   -0.72 5  105 164 
 RUS  HZ I         312 22.89         1.8 0.13                           105 164 
                                                                                
