 2013  422 0755 10.1 L   6.733 -73.141154.0  RSN  5 0.4 1.8LRSN                1
 GAP=183        0.78       4.9     7.1  7.7  0.8895E+01 -0.9093E-01 -0.6907E+00E
 Epicentro: JORDAN - SANTANDER                                                 3
 ACTION:UPD 13-05-22 14:40 OP:EP   STATUS:               ID:20130422075510 L   I
 2013-04-22-0750-00M.COL___250                                                 6
 STAT SP IPHASW D HRMM SECON CODA AMPLIT PERI AZIMU VELO AIN AR TRES W  DIS CAZ7
 BAR2 SZ EP   1    755 30.30                             174   -0.32 7 16.3 196 
 BAR2 SZ ES   1    755 46.46                             174   -0.15 7 16.3 196 
 BAR2 SZ I         755 47.39         4.8 0.24            171           16.3 196 
 BRR  HZ EP        755 32.61                             153    0.2210 75.4 303 
 BRR  HN ES        755 50.22                             153    0.4610 75.4 303 
 BRR  HN I         755 53.36        14.3 0.22            151           75.4 303 
 RUS  HZ EP   1    755 34.67                             148    0.49 7 93.2 176 
 RUS  HN ES   1    755 52.72                             148   -0.24 7 93.2 176 
 RUS  HN I         755 55.20         4.2 0.22            149           93.2 176 
 PTB  HZ EP   1    755 37.49                             134   -0.21 7  147 262 
 PTB  HN ES   1    755 58.77                             134   -0.45 7  147 262 
 PTB  HN I         756  3.80        12.4 0.34            133            147 262 
 OCA  HE ES   1    756  2.35                             130   -0.52 7  168 353 
 OCA  HE I         756  4.55        12.4 0.18            132            168 353 
                                                                                
