 2013  422 0447 57.0 L   6.961 -72.827128.9  RSN  4 0.4 1.6LRSN                1
 GAP=227        0.91      15.4    34.3 30.7  0.5038E+03 -0.9758E+03 -0.4369E+03E
 Epicentro: GUACA - SANTANDER                                                  3
 ACTION:UPD 13-05-22 14:40 OP:EP   STATUS:               ID:20130422044757 L   I
 2013-04-22-0440-00M.COL___250                                                 6
 STAT SP IPHASW D HRMM SECON CODA AMPLIT PERI AZIMU VELO AIN AR TRES W  DIS CAZ7
 BAR2 SZ EP        448 16.28                             156    0.3910 56.6 224 
 BAR2 SZ I         448 16.35         3.4 0.40            157           56.6 224 
 BRR  HZ EP   1    448 18.14                             141   -0.21 7 99.1 279 
 BRR  HN ES        448 35.24                             141    0.2510 99.1 279 
 BRR  HN I         448 39.87         6.9 0.18            141           99.1 279 
 RUS  HZ EP        448 20.72                             135   -0.1710  122 193 
 RUS  HN ES        448 39.27                             135   -0.2410  122 193 
 RUS  HN I         448 40.52         5.1 0.42            139            122 193 
 SML  HZ EP   1    448 33.74                             114    0.79 6  245 326 
 SML  HN ES        449  0.31                             114   -0.66 8  245 326 
 SML  HN I         449  4.58         7.9 0.10            116            245 326 
                                                                                
