 2011  922 0346 12.2 L   6.796 -73.162147.4  RSN  4 0.2 1.1LRSN                1
 GAP=216        0.43       6.6    11.5  5.4  0.6248E+02 -0.2639E+02 -0.1533E+02E
 Epicentro: LOS SANTOS - SANTANDER                                             3
 ACTION:UPD 12-07-13 15:59 OP:ep   STATUS:               ID:20110922034612 L   I
 2011-09-22-0344-50S.COL___152                                                 6
 STAT SP IPHASW D HRMM SECON CODA AMPLIT PERI AZIMU VELO AIN AR TRES W  DIS CAZ7
 BTL  SZ EP        346 31.81                             173   -0.1010 17.9 319 
 BAR2 SZ EP   1    346 31.77                             171   -0.22 7 22.6 186 
 BAR2 SZ ES   1    346 47.65                             171    0.21 7 22.6 186 
 BAR2 SZ I         346 48.75         5.3 0.20                          22.6 186 
 BRR  HZ EP        346 33.62                             153    0.1910 69.8 300 
 BRR  HE ES   1    346 49.84                             153   -0.16 7 69.8 300 
 BRR  HZ I         346 52.19         2.5 0.05                          69.8 300 
 RUS  HZ EP   1    346 36.15                             144    0.08 7  100 175 
 RUS  HZ I         346 37.08         1.2 0.20                           100 175 
 RUS  HE ES   1    346 54.64                             144   -0.06 7  100 175 
                                                                                
