 2011  922 0513 16.0 L   6.766 -73.136146.0  RSN  6 0.2 1.7LRSN                1
 GAP=184        0.45       2.3     3.7  3.7  0.1089E+01  0.2858E+01 -0.1091E+01E
 Epicentro: LOS SANTOS - SANTANDER                                             3
 ACTION:UPD 12-07-13 15:59 OP:ep   STATUS:               ID:20110922051316 L   I
 2011-09-22-0508-01S.COL___152                                                 6
 STAT SP IPHASW D HRMM SECON CODA AMPLIT PERI AZIMU VELO AIN AR TRES W  DIS CAZ7
 BAR2 SZ EP        513 35.42                             172   -0.1510 19.9 195 
 BAR2 SZ ES   1    513 50.65                             172   -0.20 7 19.9 195 
 BAR2 SZ I         513 52.55        13.5 0.58                          19.9 195 
 BRR  HZ EP        513 37.17                             152   -0.1410 73.9 301 
 BRR  HN ES   1    513 54.10                             152    0.16 7 73.9 301 
 RUS  HZ EP   1    513 39.37                             145   -0.11 7 96.8 177 
 RUS  HE ES        513 58.02                             145    0.2110 96.8 177 
 RUS  HZ I         513 59.83         5.5 0.50                          96.8 177 
 OCA  SZ EP        513 44.84                             129    0.17 9  164 353 
 OCA  SZ I         514 17.43         6.4 0.19                           164 353 
 CHI  HZ EP   1    513 53.10                             118   -0.22 6  245 196 
 CHI  HE ES   1    514 22.55                             118    0.09 6  245 196 
 CHI  HZ I         514 28.78         3.6 0.39                           245 196 
 HEL  HZ EP   1    513 56.63                             115    0.42 6  272 257 
 HEL  HN ES   1    514 27.37                             115   -0.22 6  272 257 
 HEL  HZ I         514 33.95         3.2 0.58                           272 257 
                                                                                
