 2015 1022 0259 32.2 L   6.790 -73.135152.0  RSN  8 0.3 1.8LRSN                1
 GAP=202        0.82       3.1     5.1  5.2  0.2223E+01  0.6389E+01 -0.2234E+01E
 Epicentro: LOS SANTOS - SANTANDER                                             3
 ACTION:UPD 15-12-22 20:42 OP:cam  STATUS:               ID:20151022025932 L   I
 OLDACT:REG 15-10-22 12:13 OP:mh   STATUS:               ID:20151022025738     3
 2015-10-22-0257-38M.COL___319                                                 6
 STAT SP IPHASW D HRMM SECON CODA AMPLIT PERI AZIMU VELO AIN AR TRES W  DIS CAZ7
 BAR2 EZ EP        259 52.61                             171    0.0410 22.5 193 
 BAR2 EZ ES        3 0  8.07                             171   -0.3810 22.5 193 
 BAR2 EZ I         3 0  8.91        15.7 0.14            166           22.5 193 
 BRR  HZ EP   1    259 54.34                             153    0.23 7 72.7 299 
 BRR  HN ES        3 0 11.85                             153    0.6510 72.7 299 
 BRR  HZ I         3 0 12.50         9.4 0.52            146           72.7 299 
 RUS  HZ EP        259 56.55                             145    0.0610 99.4 177 
 RUS  HN ES        3 0 15.42                             145   -0.0210 99.4 177 
 RUS  HZ I         3 0 16.71         6.2 0.44            145           99.4 177 
 SPBC HZ EP        3 0  1.45                             130    0.28 9  163 220 
 SPBC HN ES        3 0 23.50                             130   -0.27 9  163 220 
 SPBC HZ I         3 0 29.56        13.3 0.24            128            163 220 
 ZAR  HZ EP        3 0  5.02                             124   -0.19 8  206 292 
 ZAR  HN ES   1    3 0 31.00                             124    0.05 6  206 292 
 ZAR  HZ I         3 0 36.03         6.0 0.38            121            206 292 
 NOR  HZ EP        3 0  8.12                             120   -0.21 8  235 235 
 NOR  HN ES        3 0 36.50                             120   -0.01 8  235 235 
 NOR  HZ I         3 0 41.81         4.1 0.32            118            235 235 
 SML  HZ EP        3 0  9.73                             119    0.39 8  245 335 
 SML  HN ES        3 0 37.56                             119   -0.75 8  245 335 
 SML  HZ I         3 0 42.52         6.4 0.10            117            245 335 
 MON  HZ EP   4    3 0 17.40                             110   -4.23 0  355 308 
 MON  HN ES   4    3 0 56.48                             110   -3.70 0  355 308 
 MON  HZ I         3 1 13.06         1.4 0.58            109            355 308 
                                                                                
