 2017  622 0017  4.0 L   6.836 -73.193151.5  RSN  7 0.4 1.7LRSN                1
 GAP=256        0.96       4.8     7.9  8.4  0.4187E+01 -0.1795E+02  0.1423E+02E
 Epicentro: ZAPATOCA - SANTANDER                                               3
 ACTION:UPD 17-09-14 16:54 OP:jn   STATUS:               ID:20170622001704 L   I
 OLDACT:REG 17-06-22 12:18 OP:lv   STATUS:               ID:20170622000733     3
 2017-06-22-0008-00M.COL___352                                                 6
 STAT SP IPHASW D HRMM SECON CODA AMPLIT PERI AZIMU VELO AIN AR TRES W  DIS CAZ7
 BRR  HZ EP        017 25.37                             156   -0.0610 64.7 298 
 BRR  HN ES        017 42.40                             156    0.2610 64.7 298 
 BRR  HZ I         017 45.62        12.0 0.21            154           64.7 298 
 PTB  HZ EP        017 30.87                             134   -0.19 9  143 257 
 PTB  HN ES        017 51.29                             134   -0.87 9  143 257 
 PTB  HZ I         017 55.32         5.4 0.17            134            143 257 
 SPBC HZ EP        017 32.52                             130   -0.41 9  163 217 
 SPBC HN ES        017 55.52                             130    0.02 9  163 217 
 ZAR  HE ES        018  1.84                             124    0.56 9  198 292 
 ZAR  HZ I         018  6.63         5.8 0.27            125            198 292 
 NOR  HZ EP        017 39.91                             120    0.05 8  233 233 
 NOR  HN ES        018  8.07                             120    0.23 8  233 233 
 NOR  HZ I         018 10.50         2.4 0.18            121            233 233 
 CHI  HZ EP        017 42.09                             118   -0.20 8  251 194 
 CHI  HN ES        018 12.70                             118    0.55 8  251 194 
 CHI  HZ I         018 15.03         2.8 0.22            120            251 194 
 GUY2CHZ EP        017 48.12                             114    0.47 7  299 234 
 GUY2CHN ES   4    018 19.63                             114   -2.08 0  299 234 
 GUY2CHZ I         018 29.80         3.1 0.25                           299 234 
 PTGC HZ EP   4    017 46.72                             112   -2.02 0  314 158 
 PTGC HN ES   4    018 19.61                             112   -4.04 0  314 158 
 SJC  HZ EP   4    017 57.52                             107   -1.51 0  403 327 
 SJC  HN ES   4    018 39.12                             107   -2.84 0  403 327 
                                                                                
