 2012  822 0857  4.7 L   7.557 -73.141142.8  RSN  6 0.3 2.0LRSN                1
 GAP=131        0.57       3.1     3.1  4.7  0.1469E+00  0.5113E+01  0.1385E+01E
 Epicentro: EL PLAYON - SANTANDER                                              3
 ACTION:UPD 12-09-10 11:57 OP:ep   STATUS:               ID:20120822085704 L   I
 2012-08-22-0850-00M.COL___218                                                 6
 STAT SP IPHASW D HRMM SECON CODA AMPLIT PERI AZIMU VELO AIN AR TRES W  DIS CAZ7
 PAM  SZ EP   1    857 25.82                             158    0.40 7 54.3 116 
 PAM  SN ES        857 41.59                             158    0.0410 54.3 116 
 PAM  SZ I         857 43.14        11.4 0.28                          54.3 116 
 OCA  HZ EP   1    857 26.48                             150    0.28 7 77.9 345 
 OCA  HN ES        857 42.66                             150   -0.2710 77.9 345 
 OCA  HZ I         857 45.85        35.6 0.26                          77.9 345 
 BRR  HZ IP     D  857 26.22                             149    0.0910 80.4 232 
 BRR  HZ I         857 26.39        72.3 0.12                          80.4 232 
 BRR  HE ES        857 43.01                             149    0.2010 80.4 232 
 BAR2 SZ EP   1    857 28.20                             141   -0.12 7  107 182 
 BAR2 SZ ES   1    857 46.30                             141   -0.41 7  107 182 
 BAR2 SZ I         857 47.46        22.4 0.31                           107 182 
 PTB  HZ EP   1    857 34.50                             125   -0.45 7  184 232 
 PTB  HZ I         857 34.87         5.1 0.17                           184 232 
 PTB  HN ES   2    857 58.86                             125    0.36 4  184 232 
 ZAR  HZ EP   1    857 35.37                             124   -0.15 7  190 268 
 ZAR  HN ES        857 59.57                             124    0.04 9  190 268 
 ZAR  HZ I         858  2.97         4.9 0.14                           190 268 
                                                                                
