 2011  422 0822 27.1 L   6.697 -73.528102.8  RSN  7 0.5 1.4LRSN                1
 GAP=185        1.28       9.2    21.5 17.5  0.1005E+03  0.1691E+03 -0.2190E+01E
 Epicentro: EL CARMEN DE CHUCURI - SANTANDER                                   3
 ACTION:UP  11-06-22 15:32 OP:REBC STATUS:               ID:20110422082227 L   I
 2011-04-22-0820-00M.COL___140                                                 6
 STAT SP IPHASW D HRMM SECON CODA AMPLIT PERI AZIMU VELO SNR AR TRES W  DIS CAZ7
 BTL  SZ EP        822 43.10                             157     0.910   38  50 
 BAR2 SZ EP        822 42.16                             156    -0.110   40 107 
 BAR2 SZ ES   1    822 54.06                             156     0.0 7   40 107 
 BAR2 SZ I         822 55.04        15.3 0.18                            40 107 
 BRR  HZ EP        822 42.08                             152    -0.410   50 336 
 BRR  HZ I         822 48.34         7.6 0.11                            50 336 
 GIR2 SZ EP        822 42.63                             148    -0.410   56  41 
 RUS  HZ EP        822 46.81                             132    -0.310  102 151 
 RUS  HN ES   1    823  2.87                             132     0.2 7  102 151 
 RUS  HZ I         823  3.62         5.8 0.34                           102 151 
 PAM  SN ES   3    823  4.11                             127    -0.9 2  116  52 
 PAM  SZ I         823  6.14         1.9 0.24                           116  52 
 OCA  SZ EP   1    822 54.18                             115     0.4 7  172   8 
 OCA  SZ I         823 20.43         6.1 0.31                           172   8 
                                                                                
