 2013  322 0510  0.9 L   6.749 -73.128154.0  RSN  6 0.4 1.9LRSN                1
 GAP=184        0.85       5.5     5.7  6.9  0.1623E+02  0.2756E+01 -0.3470E+01E
 Epicentro: LOS SANTOS - SANTANDER                                             3
 ACTION:UPD 13-04-09 14:04 OP:ep   STATUS:               ID:20130322051000 L   I
 2013-03-22-0510-00M.COL___245                                                 6
 STAT SP IPHASW D HRMM SECON CODA AMPLIT PERI AZIMU VELO AIN AR TRES W  DIS CAZ7
 BAR2 SZ EP        510 21.64                             174    0.2510 18.3 199 
 BAR2 SZ ES   1    510 37.70                             174    0.30 7 18.3 199 
 BAR2 SZ I         510 40.48        11.4 0.34            171           18.3 199 
 BRR  HZ EP     C  510 23.28                             153    0.1310 75.7 302 
 BRR  HN ES        510 40.89                             153    0.3610 75.7 302 
 BRR  HN I         510 43.77        17.1 0.18            151           75.7 302 
 RUS  HZ EP        510 25.32                             148    0.2910 94.8 177 
 RUS  HN ES        510 43.54                             148   -0.3410 94.8 177 
 RUS  HN I         510 46.15         4.3 0.26            149           94.8 177 
 PTB  HZ EP        510 28.24                             134   -0.35 9  149 261 
 PTB  HN ES        510 49.66                             134   -0.56 9  149 261 
 PTB  HN I         510 54.65        18.8 0.50            134            149 261 
 OCA  HN ES   2    510 52.35                             130   -1.02 5  166 353 
 ZAR  HZ EP   1    510 34.36                             124    0.11 6  208 293 
 ZAR  HN ES        511  0.42                             124    0.12 8  208 293 
 ZAR  HN I         511  7.25         9.5 0.28            125            208 293 
 PRA  HZ EP   4    510 56.40                             108    2.19 0  388 210 
                                                                                
