 2017  222 0016 32.2 L   6.773 -73.133152.4  RSN  6 0.4 1.6LRSN                1
 GAP=139        0.96       4.9     4.4  6.5  0.2283E+01  0.6765E+01 -0.1457E+01E
 Epicentro: LOS SANTOS - SANTANDER                                             3
 ACTION:UPD 17-05-24 15:39 OP:jn   STATUS:               ID:20170222001632 L   I
 OLDACT:REG 17-02-22 12:40 OP:cog  STATUS:               ID:20170222000745     3
 2017-02-22-0008-00M.COL___382                                                 6
 STAT SP IPHASW D HRMM SECON CODA AMPLIT PERI AZIMU VELO AIN AR TRES W  DIS CAZ7
 BAR2 EZ EP        016 52.63                             172    0.0110 20.7 195 
 BAR2 EZ ES        017  8.75                             172    0.2410 20.7 195 
 BAR2 EZ I         017 10.36         8.0 0.34            173           20.7 195 
 BRR  HZ EP        016 54.58                             153    0.3210 73.9 300 
 BRR  HE ES        017 11.98                             153    0.5510 73.9 300 
 BRR  HZ I         017 16.41         9.7 0.34            153           73.9 300 
 PAM  EZ EP        016 55.37                             151    0.1210 78.8  37 
 PAM  EN ES        017 12.55                             151   -0.6410 78.8  37 
 PAM  EZ I         017 14.74         5.3 0.56            153           78.8  37 
 RUS  HZ EP        016 56.76                             146    0.3310 97.5 177 
 RUS  HN ES        017 15.17                             146   -0.1310 97.5 177 
 RUS  HZ I         017 16.15         4.1 0.24            149           97.5 177 
 PTB  HZ EP        016 59.53                             133   -0.30 9  149 260 
 PTB  HN ES        017 20.72                             133   -0.63 9  149 260 
 PTB  HZ I         017 22.61         6.4 0.16            135            149 260 
 ZAR  HZ EP        017  5.19                             123   -0.18 8  207 293 
 ZAR  HN ES        017 31.42                             123    0.20 8  207 293 
                                                                                
