 2010  722 0321 59.3 L   6.776 -73.092150.1  RSN  8 0.2 2.1LRSN                1
 GAP=165        0.47       2.2     5.1  3.9 -0.2166E+01 -0.1218E+01 -0.1994E+00E
 Epicentro: LOS SANTOS - SANTANDER                                             3
 ACTION:UPD 10-12-01 15:19 OP:pat  STATUS:               ID:20100722032159 L   I
 2010-07-22-0319-16S.COL___123                                                 6
 STAT SP IPHASW D HRMM SECON CODA AMPLIT PERI AZIMU VELO AIN AR TRES W  DIS CAZ7
 BAR2 SZ EP        322 19.43                             171     0.010   23 206 
 BAR2 SZ ES   1    322 34.79                             171    -0.3 7   23 206 
 BAR2 SZ I         322 35.99        52.9 0.16                            23 206 
 GIR2 SZ EP   2    322 19.50                             166    -0.1 5   35 342 
 BRR  HZ IP     D  322 21.22                             151     0.010   78 298 
 BRR  HZ I         322 21.38        76.1 0.19                            78 298 
 BRR  HN ES   1    322 38.52                             151     0.1 7   78 298 
 RUS  HZ EP   1    322 23.27                             145     0.0 7   98 179 
 RUS  HN ES   1    322 42.14                             145     0.2 7   98 179 
 RUS  HZ I         322 43.09        11.6 0.39                            98 179 
 GRA  SZ IP        322 25.13                             138     0.110  127  15 
 GRA  SZ ES   1    322 45.01                             138     0.0 7  127  15 
 GRA  SZ I         322 47.49        11.5 0.38                           127  15 
 OCA  SZ EP   1    322 27.87                             130    -0.4 7  164 351 
 OCA  SZ ES   2    322 51.33                             130     0.5 5  164 351 
 OCA  SZ I         322 55.99        13.5 0.32                           164 351 
 CHI  HZ EP   2    322 37.06                             118     0.0 4  248 197 
 CHI  HZ I         323 15.21         4.0 0.48                           248 197 
 PRA  HZ EP   1    322 52.95                             107    -0.1 4  393 211 
 PRA  HE ES   2    323 35.19                             107     0.3 3  393 211 
 PRA  HZ I         323 38.74         4.7 0.31                           393 211 
                                                                                
