 2015 1222 0330 18.6 L   6.771 -73.119132.9  RSN  7 0.5 1.7LRSN                1
 GAP=238        1.06       5.4     5.8  7.9  0.5446E+01  0.1066E+02  0.6217E+01E
 Epicentro: LOS SANTOS - SANTANDER                                             3
 ACTION:UPD 16-02-04 15:06 OP:cam  STATUS:               ID:20151222033018 L   I
 OLDACT:REG 15-12-22 12:48 OP:dnl  STATUS:               ID:20151222032749     3
 2015-12-22-0327-49M.COL___334                                                 6
 STAT SP IPHASW D HRMM SECON CODA AMPLIT PERI AZIMU VELO AIN AR TRES W  DIS CAZ7
 BAR2 EZ EP        330 36.84                             171    0.2310 21.0 199 
 BAR2 EZ ES        330 51.20                             171    0.5210 21.0 199 
 BAR2 EZ I         330 52.96        11.3 0.10            170           21.0 199 
 BRR  HZ EP        330 38.86                             148    0.2510 75.3 300 
 BRR  HE ES        330 53.90                             148   -0.3310 75.3 300 
 BRR  HZ I         331  0.20        11.1 0.08            145           75.3 300 
 RUS  HZ EP        330 40.99                             142    0.1610 97.2 178 
 RUS  HE ES        330 57.31                             142   -0.8810 97.2 178 
 RUS  HZ I         331  0.47         6.2 0.24            146           97.2 178 
 PTB  HZ EP   2    330 43.92                             128   -0.83 5  150 260 
 PTB  HN ES        331  4.86                             128   -0.30 9  150 260 
 PTB  HZ I         331  6.25         4.6 0.22            128            150 260 
 SPBC HZ EP        330 45.86                             126   -0.20 9  163 221 
 SPBC HN ES        331  7.98                             126    0.48 9  163 221 
 SPBC HZ I         331 10.23         7.0 0.11            128            163 221 
 ZAR  HZ EP   2    330 50.89                             119    0.25 4  208 293 
 ZAR  HE ES   2    331 15.04                             119   -0.61 4  208 293 
 ZAR  HZ I         331 25.65         5.6 0.17            119            208 293 
 NOR  HE ES        331 21.52                             115    0.50 8  235 236 
 NOR  HZ I         331 24.77         3.3 0.21            117            235 236 
                                                                                
