 2010  822 0408 30.4 L   6.789 -73.063142.5  RSN 10 0.6 2.1LRSN                1
 GAP=168        1.41       4.6     8.9  9.2 -0.1091E+02  0.3850E+01  0.1643E+01E
 Epicentro: LOS SANTOS - SANTANDER                                             3
 ACTION:UP  10-09-07 10:57 OP:vdl  STATUS:               ID:20100822040830 L   I
 2010-08-22-0405-49S.COL___120                                                 6
 STAT SP IPHASW D HRMM SECON CODA AMPLIT PERI AZIMU VELO SNR AR TRES W  DIS CAZ7
 BAR2 SZ EP        4 8 49.71                             169     0.010   26 211 
 BAR2 SZ I         4 8 49.97        32.3 0.44                            26 211 
 BAR2 SZ ES   1    4 9  4.34                             169    -0.4 7   26 211 
 GIR2 SZ EP   1    4 8 48.75                             166    -1.0 7   35 336 
 BRR  HZ EP        4 8 51.49                             149    -0.210   80 296 
 BRR  HN ES        4 9  8.46                             149     0.110   80 296 
 RUS  HZ EP        4 8 53.73                             143     0.010   99 181 
 RUS  HZ I         4 8 54.95        12.1 0.16                            99 181 
 RUS  HN ES        4 9 12.16                             143     0.310   99 181 
 GUE  SZ EP        4 8 54.65                             139    -0.110  116   8 
 GUE  SZ I         4 9 16.01         6.5 0.31                           116   8 
 GRA  SZ EP        4 8 56.47                                     1.210  125  13 
 GRA  SZ ES        4 9 14.72                             137     0.110  125  13 
 OCA  SZ EP        4 8 57.78                             129    -0.9 9  163 350 
 OCA  SZ ES   1    4 9 20.75                             129     0.0 7  163 350 
 OCA  SZ I         4 9 24.30        19.1 0.67                           163 350 
 CHI  HZ EP   1    4 9  7.92                             116    -0.1 6  250 197 
 CHI  HN ES   1    4 9 37.71                             116     0.3 6  250 197 
 CHI  HZ I         4 9 42.07         7.2 1.98                           250 197 
 HEL  HZ EP   1    4 9 12.31                             113     0.9 6  281 257 
 HEL  HN ES   1    4 9 43.84                             113     0.5 6  281 257 
 HEL  HZ I         4 9 48.04         8.3 0.17                           281 257 
 PRA  HZ EP   1    4 9 23.92                                    -0.3 4  396 211 
 PRA  HE ES   1    410  5.24                             106    -0.9 4  396 211 
 PRA  HZ I         410 10.34         6.5 1.40                           396 211 
                                                                                
