 2016  322 0958  0.6 L   6.790 -73.170145.0  RSN  9 0.4 1.7LRSN                1
 GAP=134        0.84       3.2     3.6  6.3 -0.1841E+01  0.9778E+01 -0.7952E+00E
 Epicentro: LOS SANTOS - SANTANDER                                             3
 ACTION:UPD 16-05-13 21:26 OP:cam  STATUS:               ID:20160322095800 L   I
 OLDACT:REG 16-03-22 13:15 OP:ak   STATUS:               ID:20160322094746     3
 2016-03-22-0947-46M.COL___294                                                 6
 STAT SP IPHASW D HRMM SECON CODA AMPLIT PERI AZIMU VELO AIN AR TRES W  DIS CAZ7
 BAR2 EZ EP        958 20.40                             171    0.3310 21.9 183 
 BAR2 EZ ES        958 35.46                             171    0.1810 21.9 183 
 BAR2 EZ I         958 36.19        19.6 0.24            172           21.9 183 
 PAM  EZ EP        958 23.28                             150    0.4310 80.0  41 
 PAM  EN ES        958 39.73                             150   -0.5110 80.0  41 
 PAM  EZ I         958 42.50         9.8 0.46            151           80.0  41 
 RUS  HZ EP        958 24.10                             144   -0.0710 99.7 174 
 RUS  HN ES        958 42.63                             144    0.0510 99.7 174 
 RUS  HZ I         958 43.40         9.2 0.20            146           99.7 174 
 PTB  HZ EP        958 26.70                             132   -0.51 9  145 259 
 PTB  HN ES        958 47.83                             132   -0.15 9  145 259 
 PTB  HZ I         958 50.12         5.4 0.11            132            145 259 
 OCA  HZ EP   2    958 29.00                             129    0.11 5  161 354 
 OCA  HN ES        958 50.91                             129   -0.08 9  161 354 
 OCA  HZ I         958 55.15        11.7 0.46            129            161 354 
 ZAR  HZ EP   2    958 33.24                             122    0.50 4  202 293 
 ZAR  HN ES        958 58.24                             122    0.40 9  202 293 
 ZAR  HZ I         959  3.28         4.7 0.17            122            202 293 
 CHI  HZ EP   4    958 38.41                             117    0.39 0  247 195 
 CHI  HN ES   4    959  7.21                             117   -0.03 0  247 195 
 CHI  HZ I         959 10.52         1.8 0.36            118            247 195 
 GUY2CHZ EP   1    958 43.24                             112   -0.57 5  298 235 
 GUY2CHN ES   1    959 18.33                             112    0.79 5  298 235 
 GUY2CHZ I         959 25.48         2.8 0.26                           298 235 
 SOCV BZ EP   4    958 42.10                             112   -1.81 0  304  57 
 SOCV BN ES   4    959 14.15                             112   -3.56 0  304  57 
 CBOC HZ EP   4    958 48.38                             110    1.27 0  331 252 
 CBOC HN ES        959 22.91                             110   -0.50 7  331 252 
 CBOC HZ I         959 28.29         1.1 0.20            110            331 252 
 SJC  HZ EP   4    958 52.09                             106   -3.95 0  409 327 
 SJC  HN ES   4    959 36.82                             106   -2.49 0  409 327 
                                                                                
