 2017  822 0021  7.6 L   6.515 -73.518109.0  RSN  9 0.4 1.4LRSN                1
 GAP= 95        1.06       3.5     3.1  6.7  0.2528E+01  0.4765E+01  0.4273E+01E
 Epicentro: EL CARMEN - SANTANDER                                              3
 ACTION:UPD 17-09-04 20:23 OP:rebc STATUS:               ID:20170822002107 L   I
 OLDACT:REG 17-08-22 12:27 OP:osc  STATUS:               ID:20170822000439     3
 2017-08-22-0018-00M.COL___414                                                 6
 STAT SP IPHASW D HRMM SECON CODA AMPLIT PERI AZIMU VELO AIN AR TRES W  DIS CAZ7
 BAR2 EZ IP     C  021 23.41                             159    0.0910 38.1  77 
 BAR2 EZ ES        021 35.60                             159   -0.0110 38.1  77 
 BAR2 EZ I         021 36.93        17.5 0.18            161           38.1  77 
 BRR  HZ EP     C  021 24.31                             145   -0.4210 68.9 342 
 BRR  HE ES        021 38.34                             145    0.2210 68.9 342 
 RUS  HZ EP        021 26.23                             140   -0.3110 84.0 145 
 RUS  HN ES        021 41.17                             140   -0.1710 84.0 145 
 RUS  HZ I         021 43.33         2.1 0.06            134           84.0 145 
 SPBC HZ EP        021 28.55                             130    0.0110  113 213 
 SPBC HE ES        021 44.44                             130   -0.4510  113 213 
 SPBC HZ I         021 46.92         9.8 0.11            122            113 213 
 YPLC HZ EP        021 35.21                             117    0.25 9  177 134 
 YPLC HE ES        021 57.40                             117    1.07 9  177 134 
 NOR  HZ EP        021 35.03                             116   -0.60 9  183 235 
 NOR  HE ES        021 57.98                             116    0.47 9  183 235 
 NOR  HZ I         022  2.24         3.4 0.12            110            183 235 
 ZAR  HZ EP        021 35.75                             116    0.13 9  183 306 
 ZAR  HE ES        021 57.91                             116    0.41 9  183 306 
 TAM  HE ES        021 58.66                             115   -0.47 9  191  93 
 GUY2CHZ EP   4    021 44.99                             108    1.30 0  249 235 
 GUY2CHE ES   4    022 14.48                             108    2.61 0  249 235 
 GUY2CHZ I         022 15.89         1.9 0.30                           249 235 
                                                                                
