 2017 1122 0734 19.1 L   6.536 -73.035162.8  RSN  5 1.9 1.0LRSN                1
 GAP=127        4.83      35.4    30.4 43.0  0.4103E+03 -0.7484E+02 -0.5240E+03E
 Epicentro: CURITI - SANTANDER                                                 3
 ACTION:UPD 17-12-12 19:58 OP:rebc STATUS:               ID:20171122073417 L   I
 OLDACT:REG 17-11-22 13:20 OP:osc  STATUS:               ID:20171122072745     3
 2017-11-22-0728-00M.COL___480                                                 6
 STAT SP IPHASW D HRMM SECON CODA AMPLIT PERI AZIMU VELO AIN AR TRES W  DIS CAZ7
 BAR2 EZ EP        734 41.10                             174    0.3810 17.4 291 
 BAR2 EZ ES        734 57.02                             174   -0.5410 17.4 291 
 BAR2 EZ I         734 59.66         4.0 0.54            172           17.4 291 
 RUS  HZ EP        734 45.25                             155    2.3710 71.3 184 
 RUS  HN ES        735  4.28                             155    2.8910 71.3 184 
 RUS  HZ I         735  5.81         1.2 0.30            155           71.3 184 
 PAM  EZ EP        734 44.01                             148   -0.3010 96.3  23 
 YPLC HN ES        735  5.98                             136   -3.50 9  145 150 
 PTB  HZ EP        734 48.14                             134   -0.22 9  157 270 
 PTB  HE ES        735  9.32                             134   -1.84 9  157 270 
 PTB  HZ I         735 14.01         0.9 0.42            135            157 270 
                                                                                
