 2013  922 0958 14.8 L   6.769 -73.159148.8  RSN  6 0.4 1.4LRSN                1
 GAP=234        0.99       5.7     6.0  7.3  0.1140E+02  0.6398E+01  0.2950E+01E
 Epicentro: LOS SANTOS - SANTANDER                                             3
 ACTION:UPD 13-10-22 09:24 OP:ep   STATUS:               ID:20130922095814 L   I
 OLDACT:REG 13-09-22 08:01 OP:jn   STATUS:               ID:20130922094959     3
 2013-09-22-0949-59M.COL___269                                                 6
 STAT SP IPHASW D HRMM SECON CODA AMPLIT PERI AZIMU VELO AIN AR TRES W  DIS CAZ7
 BAR2 SZ EP        958 34.57                             172   -0.1710 19.7 187 
 BAR2 SZ ES        958 49.97                             172   -0.3210 19.7 187 
 BAR2 SZ I         958 52.53         4.3 0.30            171           19.7 187 
 BRR  HZ EP        958 36.51                             153    0.2010 71.6 301 
 BRR  HN ES        958 53.71                             153    0.6210 71.6 301 
 BRR  HZ I         958 57.43         3.6 0.18            151           71.6 301 
 RUS  HZ EP        958 38.71                             145    0.0810 97.3 175 
 RUS  HN ES        958 57.05                             145   -0.1610 97.3 175 
 RUS  HZ I         958 58.90         2.5 0.38            148           97.3 175 
 PTB  HZ EP        958 41.39                             133   -0.45 9  146 260 
 PTB  HN ES        959  2.31                             133   -0.62 9  146 260 
 PTB  HZ I         959  4.65         3.9 0.16            133            146 260 
 SPBC HZ EP        958 43.54                             130    0.33 9  160 219 
 SPBC HN ES        959  5.93                             130    0.57 9  160 219 
 SPBC HZ I         959 10.56         4.5 0.24            131            160 219 
 ZAR  HN ES   1    959 12.78                             123   -0.13 6  204 293 
 ZAR  HZ I         959 19.61         3.7 0.34            124            204 293 
                                                                                
