 2011  422 0807 17.7 L   6.772 -73.118142.0  RSN  6 0.4 1.3LRSN                1
 GAP=141        0.94      10.1    14.3 19.7 -0.1750E+01 -0.1777E+03  0.5428E+02E
 Epicentro: LOS SANTOS - SANTANDER                                             3
 ACTION:UP  11-06-22 15:32 OP:REBC STATUS:               ID:20110422080717 L   I
 2011-04-22-0805-16S.COL___139                                                 6
 STAT SP IPHASW D HRMM SECON CODA AMPLIT PERI AZIMU VELO SNR AR TRES W  DIS CAZ7
 BAR2 SZ ES   3    8 7 51.19                             171    -0.6 2   21 200 
 BTL  SZ EP        8 7 37.62                             171     0.710   23 314 
 BRR  HZ EP        8 7 38.36                             151    -0.310   75 299 
 BRR  HN ES   1    8 7 55.04                             151     0.0 7   75 299 
 BRR  HZ I         8 7 56.18         4.3 0.12                            75 299 
 PAM  SZ EP        8 7 39.36                             150    -0.210   78  36 
 RUS  HZ EP        8 7 40.70                             144    -0.110   97 178 
 GRA  SZ EP   3    8 7 42.20                             136    -0.6 2  128  16 
                                                                                
