 2013  622 0748 30.9 L   6.808 -73.103143.1  RSN  8 0.5 2.0LRSN                1
 GAP=187        0.97       4.3     6.7  8.5  0.1390E+01  0.1240E+01 -0.8340E+01E
 Epicentro: LOS SANTOS - SANTANDER                                             3
 ACTION:UPD 14-01-08 09:56 OP:ep   STATUS:               ID:20130622074830 L   I
 OLDACT:REG 13-06-22 09:02 OP:carl STATUS:               ID:20130622073959     3
 2013-06-22-0739-59M.COL___267                                                 6
 STAT SP IPHASW D HRMM SECON CODA AMPLIT PERI AZIMU VELO AIN AR TRES W  DIS CAZ7
 BAR2 SZ IP     D  748 50.52                             170    0.2810 25.4 200 
 BAR2 SZ ES   1    749  4.94                             170   -0.39 7 25.4 200 
 BAR2 SZ I         749  6.62        23.1 0.22            171           25.4 200 
 GIR2 SZ EP        748 50.65                             167    0.4010 31.6 342 
 BRR  HZ IP     C  748 52.40                             151    0.4310 75.0 296 
 BRR  HN ES   1    749  9.09                             151    0.68 7 75.0 296 
 BRR  HZ I         749 14.28        13.4 0.12            150           75.0 296 
 RUS  HZ EP        748 54.44                             143    0.0210  101 179 
 RUS  HN ES   1    749 12.19                             143   -0.59 7  101 179 
 RUS  HZ I         749 13.70         8.6 0.24            148            101 179 
 PTB  HZ EP   1    748 57.16                             130   -0.92 7  153 259 
 PTB  HE ES   1    749 18.78                             130   -0.50 7  153 259 
 PTB  HZ I         749 20.46        20.2 0.18            132            153 259 
 OCA  HZ EP   1    748 58.95                             129   -0.02 7  160 351 
 OCA  HN ES   1    749 20.30                             129   -0.58 7  160 351 
 OCA  HZ I         749 22.67        12.5 0.22            131            160 351 
 NOR  HN ES   1    749 35.53                             117    0.49 6  239 235 
 NOR  HZ I         749 36.40         8.9 0.14            120            239 235 
 SML  HZ EP   1    749  7.19                             117   -0.31 6  245 334 
 SML  HE ES   1    749 35.86                             117   -0.19 6  245 334 
 SML  HZ I         749 40.25        11.2 0.28            119            245 334 
                                                                                
