 2014  922 0044 55.0 L   6.616 -73.080172.9  RSN  4 0.3 1.2LRSN                1
 GAP=232        0.91       6.3     9.6  9.1  0.1683E+02 -0.2917E+01 -0.9936E+01E
 Epicentro: CURITI - SANTANDER                                                 3
 ACTION:UPD 14-10-03 23:07 OP:nd   STATUS:               ID:20140922004455 L   I
 OLDACT:UP  14-09-22 13:04 OP:cam  STATUS:               ID:20140922004000     3
 OLDACT:REG 14-09-22 12:33 OP:cam  STATUS:               ID:20140922004000     3
 2014-09-22-0040-00M.COL___252                                                 6
 STAT SP IPHASW D HRMM SECON CODA AMPLIT PERI AZIMU VELO AIN AR TRES W  DIS CAZ7
 RUS  HZ EP        045 20.88                             154    0.5410 80.0 180 
 RUS  HE ES        045 39.76                             154   -0.3210 80.0 180 
 RUS  HZ I         045 41.34         1.4 0.28            157           80.0 180 
 BRR  HZ EP        045 19.62                             152   -0.4710 88.5 308 
 BRR  HZ I         045 39.90         4.7 0.56            143           88.5 308 
 BRR  HN ES        045 39.93                             152    0.2910 88.5 308 
 PTB  HZ EP        045 24.65                             137   -0.07 9  152 267 
 PTB  HN ES   4    045 45.34                             137   -2.54 0  152 267 
 PTB  HZ I         045 49.63         1.2 0.14            133            152 267 
 SPBC HE ES        045 48.20                             137    0.04 9  153 226 
                                                                                
