 2016 1222 0104 12.8 L   6.655 -73.279155.2  RSN  6 0.5 1.4LRSN                1
 GAP=167        1.16       6.2     7.2  9.2  0.2179E+02  0.1636E+02  0.1132E+02E
 Epicentro: GALAN - SANTANDER                                                  3
 ACTION:UPD 17-01-11 20:17 OP:rebc STATUS:               ID:20161222010412 L   I
 OLDACT:UP  16-12-22 14:04 OP:cog  STATUS:               ID:20161222005744     3
 OLDACT:REG 16-12-22 12:31 OP:cog  STATUS:               ID:20161222005744     3
 2016-12-22-0058-00M.COL___375                                                 6
 STAT SP IPHASW D HRMM SECON CODA AMPLIT PERI AZIMU VELO AIN AR TRES W  DIS CAZ7
 BAR2 EZ EP        1 4 32.87                             175   -0.5310 12.7 123 
 BAR2 EZ ES        1 4 49.36                             175   -0.1210 12.7 123 
 BAR2 EZ I         1 4 51.14         5.9 0.34            170           12.7 123 
 BRR  HZ EP        1 4 35.20                             155    0.3410 69.2 316 
 BRR  HE ES        1 4 51.73                             155   -0.3510 69.2 316 
 BRR  HZ I         1 4 57.06         6.2 0.46            155           69.2 316 
 RUS  HZ EP        1 4 36.82                             149    0.2210 87.1 166 
 RUS  HE ES        1 4 55.50                             149    0.3310 87.1 166 
 RUS  HZ I         1 4 56.80         3.1 0.30            146           87.1 166 
 PTB  HZ EP        1 4 39.83                             138    0.7310  131 264 
 PTB  HN ES        1 5  0.07                             138    0.4410  131 264 
 PTB  HZ I         1 5  3.27         4.8 0.16            135            131 264 
 ZAR  HZ EP   4    1 4 39.18                             125   -6.03 0  197 298 
 ZAR  HE ES        1 5  9.90                             125   -0.60 9  197 298 
 CHI  HZ EP   3    1 4 47.25                             121   -1.77 2  230 193 
 CHI  HN ES        1 5 16.59                             121   -0.68 8  230 193 
 CHI  HZ I         1 5 30.07         1.3 0.68            120            230 193 
 GUY2CHZ EP   4    1 4 57.40                             116    2.90 0  280 236 
 GUY2CHE ES   4    1 5 34.22                             116    7.18 0  280 236 
                                                                                
