 2014  322 0850  3.2 L   6.804 -73.158149.0  RSN  6 0.3 1.6LRSN                1
 GAP=243        0.72       6.9     5.5  5.5  0.2282E+02  0.7190E+01  0.5325E+01E
 Epicentro: LOS SANTOS - SANTANDER                                             3
 ACTION:UPD 14-04-09 23:19 OP:nd   STATUS:               ID:20140322085003 L   I
 OLDACT:UP  14-03-22 13:40 OP:mh   STATUS:               ID:20140322084813     3
 OLDACT:REG 14-03-22 09:15 OP:mh   STATUS:               ID:20140322084813     3
 2014-03-22-0848-13M.COL___231                                                 6
 STAT SP IPHASW D HRMM SECON CODA AMPLIT PERI AZIMU VELO AIN AR TRES W  DIS CAZ7
 BAR2 SZ EP        850 23.19                             171   -0.0110 23.6 186 
 BAR2 SZ ES        850 38.90                             171    0.0810 23.6 186 
 BAR2 SZ I         850 41.49        15.4 0.28            135           23.6 186 
 RUS  HZ EP        850 26.77                             144   -0.5110  101 175 
 RUS  HN ES        850 46.26                             144    0.1710  101 175 
 RUS  HZ I         850 47.46         4.3 0.21            117            101 175 
 PTB  HZ EP        850 30.57                             133    0.28 9  146 259 
 PTB  HN ES        850 51.12                             133   -0.32 9  146 259 
 PTB  HZ I         850 57.48         6.9 0.28            113            146 259 
 SPBC HZ EP        850 32.28                             130    0.41 9  163 219 
 ZAR  HN ES   1    851  1.10                             123    0.06 6  203 292 
 CHI  HZ EP        850 40.96                             118   -0.10 8  249 195 
 CHI  HZ I         851 13.59         1.4 0.25            103            249 195 
                                                                                
