 2016 1222 0850  3.6 L   6.798 -73.174144.4  RSN  4 0.2 1.1LRSN                1
 GAP=142        0.48       2.9     2.8  4.0 -0.2511E+01  0.3040E+01 -0.1106E+01E
 Epicentro: LOS SANTOS - SANTANDER                                             3
 ACTION:UPD 17-01-11 20:17 OP:rebc STATUS:               ID:20161222085003 L   I
 OLDACT:DUP 16-12-22 18:53 OP:COG  STATUS:               ID:20161222084747d    3
 2016-12-22-0848-00M.COL___353                                                 6
 STAT SP IPHASW D HRMM SECON CODA AMPLIT PERI AZIMU VELO AIN AR TRES W  DIS CAZ7
 BAR2 EZ EP        850 22.96                             171   -0.1410 22.7 182 
 BAR2 EZ ES        850 38.43                             171    0.1610 22.7 182 
 BAR2 EZ I         850 39.14         3.5 0.70            172           22.7 182 
 PAM  EZ EP        850 25.73                             150   -0.1210 79.6  41 
 PAM  EN ES        850 43.19                             150    0.0310 79.6  41 
 PAM  EZ I         850 45.11         2.0 0.56            152           79.6  41 
 RUS  HZ EP        850 27.27                             143    0.0110  101 174 
 RUS  HN ES        850 45.63                             143   -0.0510  101 174 
 PTB  HZ EP        850 30.54                             132    0.33 9  145 259 
 PTB  HE ES        850 50.73                             132   -0.21 9  145 259 
 PTB  HZ I         850 56.73         1.4 0.20            132            145 259 
                                                                                
