 2015  722 0856 31.0 L   6.837 -73.092143.2  RSN  5 0.5 1.4LRSN                1
 GAP=189        1.26       6.0    10.0 11.7  0.1360E+02  0.2774E+02 -0.3433E+02E
 Epicentro: LOS SANTOS - SANTANDER                                             3
 ACTION:UPD 15-09-08 21:50 OP:cam  STATUS:               ID:20150722085631 L   I
 OLDACT:REG 15-07-22 13:00 OP:stll STATUS:               ID:20150722084748     3
 2015-07-22-0847-48M.COL___334                                                 6
 STAT SP IPHASW D HRMM SECON CODA AMPLIT PERI AZIMU VELO AIN AR TRES W  DIS CAZ7
 BAR2 EZ EP        856 50.70                             168    0.3010 28.8 200 
 BAR2 EZ I         856 50.78         3.4 0.20            166           28.8 200 
 BAR2 EZ ES        857  5.50                             168   -0.0610 28.8 200 
 RUS  HN ES        857 12.89                             142   -0.3910  104 179 
 RUS  HZ I         857 14.22         2.4 0.26            144            104 179 
 OCA  HZ EP        856 58.80                             130    0.04 9  157 351 
 OCA  HN ES        857 21.21                             130    0.77 9  157 351 
 OCA  HZ I         857 22.60         5.3 0.56            131            157 351 
 ZAR  HZ EP        857  4.21                             121    0.56 8  208 290 
 ZAR  HN ES        857 29.30                             121    0.15 8  208 290 
 ZAR  HZ I         857 35.47         4.5 0.40            121            208 290 
 SML  HZ EP        857  6.88                             117   -0.43 8  243 334 
 SML  HE ES        857 34.45                             117   -1.22 8  243 334 
                                                                                
