 2011  922 0112 33.4 L   6.753 -73.117146.0  RSN  4 0.1 1.3LRSN                1
 GAP=185        0.35       5.3    10.9  7.6  0.4910E+02 -0.6315E+02 -0.3050E+02E
 Epicentro: LOS SANTOS - SANTANDER                                             3
 ACTION:UPD 12-07-13 15:59 OP:ep   STATUS:               ID:20110922011233 L   I
 2011-09-22-0100-00M.COL___167                                                 6
 STAT SP IPHASW D HRMM SECON CODA AMPLIT PERI AZIMU VELO AIN AR TRES W  DIS CAZ7
 BAR2 SZ EP   1    112 53.14                             172    0.11 7 19.2 202 
 BAR2 SZ I         112 54.82         4.8 0.55                          19.2 202 
 BRR  HZ EP        112 54.83                             151   -0.1010 76.5 301 
 BRR  HZ I         112 55.26         6.3 0.11                          76.5 301 
 BRR  HN ES   1    113 11.77                             151    0.09 7 76.5 301 
 RUS  HZ EP   1    112 56.95                             146    0.11 7 95.2 178 
 RUS  HE ES   1    113 14.98                             146   -0.11 7 95.2 178 
 RUS  HZ I         113 17.18         1.8 0.31                          95.2 178 
 OCA  SZ EP   1    113  2.25                             129   -0.05 7  166 352 
                                                                                
