 2012  222 0815 37.9 L   7.353 -74.104 20.2  RSN  5 0.3 1.1LRSN                1
 GAP=247        0.66       6.7     3.9  4.1 -0.1616E+02 -0.2200E+01 -0.3294E+01E
 ACTION:UP  12-03-07 16:33 OP:epov STATUS:               ID:20120222081537 L   I
 2012-02-22-0810-00M.COL___191                                                 6
 STAT SP IPHASW D HRMM SECON CODA AMPLIT PERI AZIMU VELO AIN AR TRES W  DIS CAZ7
 BRR  HZ EP   1    815 46.30                             109   -0.33 7 51.1 122 
 BRR  HE ES   1    815 53.59                             109    0.14 7 51.1 122 
 BRR  HZ I         815 54.06         8.5 0.14                          51.1 122 
 PTB  HZ EP   1    815 53.23                             100   -0.33 7 98.0 203 
 PTB  HE ES   1    816  5.93                             100    0.15 7 98.0 203 
 GIR2 SZ EP   1    815 54.80                              99    0.07 7  105 107 
 BAR2 SZ EP   1    815 59.24                              56    0.70 7  132 130 
 BAR2 SZ ES   1    816 14.34                              56   -0.32 7  132 130 
 PAM  SN ES   2    816 20.18                              56   -0.13 5  155  90 
 PAM  SZ I         816 30.68         3.2 0.23                           155  90 
                                                                                
