 2014 1122 0441 42.2 L   6.822 -73.158144.0  RSN 29 0.5 2.8LRSN                1
 GAP= 70        1.10       2.4     2.6  4.6 -0.4515E+00  0.3381E+01  0.1449E+01E
 Epicentro: LOS SANTOS - SANTANDER                                             3
 ACTION:UPD 14-12-19 15:45 OP:nd   STATUS:               ID:20141122044142 L   I
 OLDACT:UP  14-11-22 16:24 OP:fm   STATUS:               ID:20141122043747     3
 OLDACT:UP  14-11-22 16:19 OP:fm   STATUS:               ID:20141122043747     3
 OLDACT:REG 14-11-22 13:43 OP:fm   STATUS:               ID:20141122043747     3
 2014-11-22-0437-47M.COL___306                                                 6
 STAT SP IPHASW D HRMM SECON CODA AMPLIT PERI AZIMU VELO AIN AR TRES W  DIS CAZ7
 BAR2 SZ IP     C  442  1.77                             170    0.1410 25.5 186 
 BAR2 SZ ES        442 16.60                             170   -0.2110 25.5 186 
 BAR2 SZ I         442 17.81       193.3 0.20            169           25.5 186 
 BRR  HZ IP     C  442  3.70                             153    0.7010 68.9 297 
 BRR  HN ES        442 20.06                             153    0.8210 68.9 297 
 BRR  HZ I         442 23.75       162.8 0.28            152           68.9 297 
 PAM  SZ IP     D  442  4.62                             151    0.4810 76.4  41 
 PAM  SN ES        442 21.44                             151    0.1610 76.4  41 
 PAM  SZ I         442 24.03       238.4 0.68            154           76.4  41 
 RUS  HZ EP        442  5.71                             143   -0.2210  103 175 
 RUS  HN ES        442 23.95                             143   -0.5110  103 175 
 RUS  HZ I         442 25.36        72.0 0.34            144            103 175 
 PTB  HZ EP        442  8.38                             132   -0.54 9  147 258 
 PTB  HN ES        442 28.98                             132   -0.80 9  147 258 
 PTB  HZ I         442 31.38       127.1 0.44            132            147 258 
 TAM  HZ IP     D  442 10.13                             130    0.24 9  157 106 
 TAM  HN ES        442 31.10                             130   -0.41 9  157 106 
 TAM  HZ I         442 32.68        30.9 0.34            133            157 106 
 OCA  HZ EP        442 10.03                             130   -0.08 9  158 354 
 OCA  HE ES        442 31.97                             130    0.08 9  158 354 
 OCA  HZ I         442 35.38        85.8 0.46            131            158 354 
 SPBC HZ EP        442 10.76                             128    0.13 9  164 218 
 SPBC HN ES        442 33.27                             128    0.44 9  164 218 
 SPBC HZ I         442 36.25        61.6 0.16            129            164 218 
 ZAR  HZ EP        442 14.69                             122    0.41 9  202 292 
 ZAR  HN ES        442 39.83                             122    0.51 9  202 292 
 ZAR  HZ I         442 46.38       127.8 0.50            123            202 292 
 NOR  HZ EP        442 18.24                             118    0.41 8  235 234 
 NOR  HN ES        442 44.75                             118   -0.89 8  235 234 
 NOR  HZ I         442 51.00        51.5 0.16            119            235 234 
 CHI  HZ EP        442 20.02                             117    0.04 8  251 195 
 CHI  HN ES        442 49.31                             117   -0.17 8  251 195 
 ROSC BZ EP        442 20.49                             116    0.15 8  254 210 
 ROSC BN ES        442 50.30                             116    0.19 8  254 210 
 ROSC BZ I         442 56.07        43.0 0.30            117            254 210 
 HEL  HZ EP        442 22.84                             114    0.63 8  271 255 
 HEL  HE ES        442 52.56                             114   -0.89 8  271 255 
 HEL  HZ I         443  0.19        34.6 0.32            115            271 255 
 URE  HZ EP        442 22.33                             113   -0.59 7  282 292 
 URE  HE ES        442 53.85                             113   -0.84 7  282 292 
 URE  HZ I         443  3.47        44.4 0.30            114            282 292 
 VIL  SZ EP        442 25.29                             112   -0.45 7  305 191 
 VIL  SN ES        442 59.80                             112    0.07 7  305 191 
 VIL  SZ I         443  4.36        45.7 0.24            113            305 191 
 PTGC HZ EP   4 C  442 24.93                             111   -1.33 0  311 159 
 PTGC HN ES   4    442 58.27                             111   -2.37 0  311 159 
 PTGC HZ I         443  0.48        31.7 0.44            113            311 159 
 CBOC HZ EP        442 29.81                             110    0.86 7  333 252 
 CBOC HN ES        443  6.38                             110    0.94 7  333 252 
 DBB  SZ EP        442 29.24                             109   -0.16 7  338 274 
 DBB  SZ ES        443  5.68                             109   -0.56 7  338 274 
 TOL  SZ EP        442 30.61                             109    0.17 7  344 224 
 TOL  SN ES        443  8.35                             109    0.26 7  344 224 
 TOL  SZ I         443 14.79        63.1 0.64            110            344 224 
 MON  HN ES        443  7.97                             108   -0.78 6  351 308 
 MON  HZ I         443  8.75        24.5 0.18            109            351 308 
 ANIL HN ES        443 11.09                             108    0.23 6  358 224 
 SDV  BZ EP        442 31.19                             108   -0.90 6  360  51 
 SDV  BN ES   4    443  8.77                             108   -2.25 0  360  51 
 SDV  BZ I         443 12.97        13.0 0.60            110            360  51 
 ORTC HZ EP        442 36.23                             106    0.07 6  397 216 
 ORTC HN ES        443 18.62                             106    0.34 6  397 216 
 ORTC HZ I         443 24.85        17.0 0.38            107            397 216 
 PAL  HZ EP        442 37.59                             106    0.31 6  406 239 
 PAL  HN ES        443 19.93                             106   -0.34 6  406 239 
 PAL  HZ I         443 27.58        10.2 0.40            106            406 239 
 SJC  HZ EP   4    442 35.89                             105   -1.46 0  406 327 
 SJC  HN ES   4    443 17.73                             105   -2.66 0  406 327 
 SJC  HZ I         443 21.74        16.6 0.54            107            406 327 
 SMAR HZ EP        442 47.10                             102   -0.58 4  494 346 
 SMAR HN ES   4    443 35.12                             102   -3.66 0  494 346 
 SMAR HZ I         443 38.36         6.8 0.32            103            494 346 
 CAP2 HZ EP   4    442 49.55                             102    0.52 0  505 294 
 CAP2 HN ES   4    443 36.46                             102   -4.72 0  505 294 
 CAP2 HZ I         443 42.06        15.5 0.42            103            505 294 
 MACC HZ EP   4    442 48.61                             101   -2.49 0  523 188 
 MACC HN ES   4    443 40.39                             101   -4.47 0  523 188 
 MACC HZ I         443 46.82         4.4 0.30            102            523 188 
 GARC HZ EP   4    442 55.56                             100   -2.01 0  574 207 
 GARC HN ES   4    443 53.15                             100   -3.23 0  574 207 
 GARC HZ I         443 56.20         6.5 0.22            101            574 207 
 FLO2 HZ EP   4    443  3.93                              98   -1.52 0  642 206 
                                                                                
