 2011 1022 0354 41.7 L   6.794 -73.102143.4  RSN  8 0.3 1.9LRSN                1
 GAP=142        0.48       3.4     4.1  5.5 -0.1656E+01  0.1284E+01 -0.1369E+01E
 Epicentro: LOS SANTOS - SANTANDER                                             3
 ACTION:UPD 12-07-13 16:05 OP:ep   STATUS:               ID:20111022035441 L   I
 2011-10-22-0352-40S.COL___171                                                 6
 STAT SP IPHASW D HRMM SECON CODA AMPLIT PERI AZIMU VELO AIN AR TRES W  DIS CAZ7
 BAR2 SZ EP   1    355  0.96                             170   -0.13 7 24.0 202 
 BAR2 SZ ES   2    355 16.35                             170    0.16 5 24.0 202 
 BAR2 SZ I         355 18.39        13.8 0.35                          24.0 202 
 GIR2 SZ EP   1    355  1.11                             166   -0.06 7 33.1 342 
 GIR2 SZ ES   2    355 15.86                             166   -0.47 5 33.1 342 
 PAM  SZ EP        355  3.78                             151    0.2410 74.9  36 
 PAM  SN ES   2    355 20.71                             151    0.15 5 74.9  36 
 BRR  HZ EP   1    355  2.87                             151   -0.02 7 75.8 297 
 BRR  HN ES   2    355 19.95                             151    0.56 5 75.8 297 
 BRR  HZ I         355 23.97        19.7 0.20                          75.8 297 
 RUS  HZ EP   2    355  5.41                             143    0.23 5 99.7 179 
 RUS  HN ES   2    355 23.17                             143   -0.31 5 99.7 179 
 RUS  HZ I         355 24.79         7.8 0.43                          99.7 179 
 OCA  SZ EP   2    355  9.70                             129   -0.28 5  162 351 
 OCA  SZ ES   2    355 31.37                             129   -0.64 5  162 351 
 OCA  SZ I         355 35.63        11.3 0.53                           162 351 
 ZAR  HN ES   2    355 40.31                             121    0.23 4  209 292 
 ZAR  HZ I         355 45.66        12.0 0.47                           209 292 
 NOR  SN ES   2    355 45.47                             117   -0.30 4  238 235 
                                                                                
