 2012  722 0432  3.3 L   6.645 -73.210151.7  RSN  4 0.2 1.4LRSN                1
 GAP=200        0.58       8.5     6.1  6.6  0.1026E+02  0.1313E+02  0.4962E+01E
 Epicentro: BARICHARA - SANTANDER                                              3
 ACTION:UPD 12-08-14 11:46 OP:ep   STATUS:               ID:20120722043203 L   I
 2012-07-22-0430-00M.COL___215                                                 6
 STAT SP IPHASW D HRMM SECON CODA AMPLIT PERI AZIMU VELO AIN AR TRES W  DIS CAZ7
 BAR2 SZ ES   1    432 38.90                             177    -0.2 7    7 153 
 BAR2 SZ I         432 39.80         6.6 0.33            172              7 153 
 BRR  HZ EP        432 25.44                             152     0.110   75 313 
 BRR  HZ I         432 25.72         7.4 0.18            146             75 313 
 BRR  HN ES   1    432 42.75                             152     0.2 7   75 313 
 PTB  HZ EP        432 29.90                             135     0.0 9  138 265 
 PTB  HN ES   1    432 50.86                             135     0.1 7  138 265 
 PTB  HZ I         432 53.76         1.8 0.15            133            138 265 
 ZAR  HN ES   1    433  1.50                             123    -0.4 6  205 297 
 ZAR  HZ I         433  9.04         2.6 0.16            122            205 297 
