 2014 1222 0152 14.8 L   6.692 -73.129141.4  RSN  5 0.4 1.3LRSN                1
 GAP=174        0.95      10.9     4.9 11.0 -0.2154E+02 -0.3197E+01  0.5716E+02E
 Epicentro: VILLANUEVA - SANTANDER                                             3
 ACTION:UPD 15-02-10 17:06 OP:nd   STATUS:               ID:20141222015214 L   I
 OLDACT:UP  14-12-22 13:19 OP:mh   STATUS:               ID:20141222014741     3
 OLDACT:UP  14-12-22 13:19 OP:mh   STATUS:               ID:20141222014741     3
 OLDACT:UP  14-12-22 13:19 OP:mh   STATUS:               ID:20141222014741     3
 OLDACT:REG 14-12-22 12:29 OP:mh   STATUS:               ID:20141222014741     3
 2014-12-22-0147-41M.COL___290                                                 6
 STAT SP IPHASW D HRMM SECON CODA AMPLIT PERI AZIMU VELO AIN AR TRES W  DIS CAZ7
 BAR2 EZ EP   1    152 33.65                             175   -0.07 7 12.5 208 
 BRR  HZ EP        152 36.36                             149    0.4210 79.1 305 
 BRR  HE ES        152 53.01                             149    0.5810 79.1 305 
 PAM  SZ EP        152 37.28                             147    0.2010 85.9  34 
 PAM  SE ES        152 53.95                             147   -0.5110 85.9  34 
 PAM  SZ I         152 56.67         2.7 0.19            144           85.9  34 
 PTB  HZ EP        152 41.24                             131   -0.16 9  148 264 
 PTB  HN ES        153  1.84                             131   -0.31 9  148 264 
 PTB  HZ I         153  4.55         2.6 0.12            129            148 264 
 ZAR  HN ES        153 12.89                             120   -0.34 8  210 295 
 ZAR  HZ I         153 19.09         3.2 0.26            118            210 295 
                                                                                
