 2012  722 0717 43.5 L   6.621 -73.215149.6  RSN  4 0.2 1.3LRSN                1
 GAP=177        0.42       8.0     5.2  6.2  0.1540E+02  0.7240E+01  0.1722E+02E
 Epicentro: BARICHARA - SANTANDER                                              3
 ACTION:UPD 12-08-14 11:46 OP:ep   STATUS:               ID:20120722071743 L   I
 2012-07-22-0710-00M.COL___215                                                 6
 STAT SP IPHASW D HRMM SECON CODA AMPLIT PERI AZIMU VELO AIN AR TRES W  DIS CAZ7
 BAR2 SZ EP   1    718  3.41                             178     0.1 7    5 131 
 BAR2 SZ ES   2    718 18.53                             178    -0.3 5    5 131 
 BAR2 SZ I         718 19.95         5.1 0.15            167              5 131 
 BRR  HZ EP   1    718  5.40                             151     0.0 7   77 314 
 BRR  HN ES   1    718 22.56                             151     0.1 7   77 314 
 BRR  HZ I         718 24.65         3.6 0.17            150             77 314 
 PTB  HZ EP   1    718  9.81                             135    -0.1 7  138 266 
 PTB  HN ES   2    718 30.65                             135     0.2 5  138 266 
 PTB  HZ I         718 37.12         2.0 0.38            132            138 266 
 ZAR  HN ES   2    718 41.54                             123    -0.4 4  205 298 
