 2010  922 0341 57.8 L   6.768 -73.077147.3  RSN 11 0.4 2.2LRSN                1
 GAP=167        0.84       4.0     7.2  6.7 -0.7857E+01  0.2696E+00  0.1330E+01E
 Epicentro: LOS SANTOS - SANTANDER                                             3
 ACTION:UP  11-02-18 11:04 OP:tino STATUS:               ID:20100922034157 L   I
 2010-09-22-0340-07S.COL___122                                                 6
 STAT SP IPHASW D HRMM SECON CODA AMPLIT PERI AZIMU VELO SNR AR TRES W  DIS CAZ7
 BAR2 SZ EP        342 17.57                             171     0.010   23 211 
 BAR2 SZ ES   1    342 32.76                             171    -0.3 7   23 211 
 BAR2 SZ I         342 34.49        52.9 0.33                            23 211 
 BTL  SZ EP        342 18.11                             169     0.410   27 308 
 GIR2 SZ EP   1    342 17.86                             165     0.1 7   37 339 
 BRR  HZ IP     C  342 19.60                             150     0.010   80 298 
 BRR  HZ I         342 19.86        76.8 0.14                            80 298 
 BRR  HE ES   1    342 36.85                             150     0.3 7   80 298 
 RUS  HZ EP        342 21.39                             145     0.010   97 180 
 RUS  HN ES   2    342 39.91                             145     0.1 5   97 180 
 RUS  HZ I         342 41.61        23.9 0.31                            97 180 
 GUE  SZ EP   1    342 22.00                             139    -0.8 7  119   8 
 GUE  SZ I         342 22.77        12.0 0.10                           119   8 
 GRA  SZ EP        342 23.70                             137     0.410  127  14 
 GRA  SZ ES   2    342 43.03                             137    -0.1 5  127  14 
 GRA  SZ I         342 44.68        22.2 0.40                           127  14 
 OCA  SZ EP   1    342 26.21                             129    -0.4 7  165 351 
 OCA  SZ ES   2    342 48.75                             129    -0.4 5  165 351 
 OCA  SZ I         342 54.46        21.8 0.31                           165 351 
 NOR  SZ EP   1    342 33.81                             118    -0.3 6  239 236 
 NOR  SN ES   2    343  1.60                             118    -0.8 4  239 236 
 CHI  HZ EP   1    342 35.53                             117     0.1 6  247 197 
 CHI  HN ES   2    343  4.44                             117    -0.3 4  247 197 
 CHI  HZ I         343  8.15         5.2 0.73                           247 197 
 HEL  HZ EP   1    342 39.38                             114     0.6 6  279 257 
 HEL  HZ I         343 17.82        10.8 0.24                           279 257 
                                                                                
