 2016  822 0634  7.5 L   6.841 -73.149144.0  RSN 10 0.5 2.4LRSN                1
 GAP=252        1.16       6.1     6.2  7.6 -0.3425E+01  0.1602E+02  0.5026E+01E
 Epicentro: LOS SANTOS - SANTANDER                                             3
 ACTION:UPD 16-10-29 15:37 OP:rebc STATUS:               ID:20160822063407 L   I
 OLDACT:DUP 16-08-22 16:50 OP:ak   STATUS:               ID:20160822062736d    3
 OLDACT:REG 16-08-22 13:43 OP:ak   STATUS:               ID:20160822062735     3
 2016-08-22-0628-00M.COL___368                                                 6
 STAT SP IPHASW D HRMM SECON CODA AMPLIT PERI AZIMU VELO AIN AR TRES W  DIS CAZ7
 BAR2 EZ EP        634 27.06                             169    0.0410 27.8 188 
 BAR2 EZ ES        634 42.06                             169   -0.1910 27.8 188 
 BAR2 EZ I         634 44.26        42.6 0.24                          27.8 188 
 BRR  HZ IP     D  634 28.77                             153    0.4410 68.8 295 
 BRR  HN ES        634 45.23                             153    0.6510 68.8 295 
 BRR  HZ I         634 50.24        42.1 0.14                          68.8 295 
 PTB  HZ EP        634 33.44                             132   -0.95 9  148 257 
 PTB  HN ES        634 54.87                             132   -0.48 9  148 257 
 PTB  HZ I         634 57.16        44.1 0.12                           148 257 
 SPBC HZ EP        634 36.22                             128    0.03 9  167 218 
 SPBC HN ES        634 58.34                             128   -0.23 9  167 218 
 SPBC HZ I         635  0.74        30.4 0.24                           167 218 
 ZAR  HN ES        635  4.78                             122    0.09 9  202 291 
 ZAR  HZ I         635 10.18        26.5 0.20                           202 291 
 NOR  HN ES        635 11.60                             118    0.21 8  237 234 
 HEL  HZ EP   2    634 48.68                             115    0.96 4  273 255 
 HEL  HN ES        635 18.90                             115   -0.19 8  273 255 
 HEL  HZ I         635 25.86        17.2 0.58                           273 255 
 URE  HZ EP        634 47.18                             114   -1.09 7  282 291 
 URE  HE ES   4    635 17.67                             114   -2.39 0  282 291 
 URE  HZ I         635 31.07        16.2 0.22                           282 291 
 GUY2CHZ EP   2    634 52.16                             112    0.86 4  304 234 
 GUY2CHN ES        635 26.22                             112    0.76 7  304 234 
 GUY2CHZ I         635 35.35        10.9 0.58                           304 234 
 CBOC HZ EP        634 55.10                             110    0.62 7  335 251 
 CBOC HN ES        635 31.26                             110    0.15 7  335 251 
 CBOC HZ I         635 40.98         3.5 0.68                           335 251 
                                                                                
