 2013 1022 0340 42.8 L   7.311 -74.152 11.4  RSN  5 0.4 1.5LRSN                1
 GAP=113        1.02       2.6     4.2  7.3  0.1748E+01 -0.2228E+02 -0.6243E+01E
 Epicentro: PUERTO WILCHES - SANTANDER                                         3
 ACTION:UPD 13-11-25 09:23 OP:ep   STATUS:               ID:20131022034042 L   I
 OLDACT:REG 13-10-22 08:35 OP:carl STATUS:               ID:20131022033845     3
 2013-10-22-0338-45M.COL___215                                                 6
 STAT SP IPHASW D HRMM SECON CODA AMPLIT PERI AZIMU VELO AIN AR TRES W  DIS CAZ7
 ZAR  HZ EP        340 56.21                              96    0.5410 80.4 284 
 ZAR  HN ES        341  5.83                              96    0.1410 80.4 284 
 ZAR  HZ I         341  6.85        20.9 0.24             94           80.4 284 
 PTB  HZ EP        340 57.20                              95   -0.1710 91.7 202 
 PTB  HN ES        341  8.24                              95   -0.4810 91.7 202 
 PTB  HZ I         341  8.61         7.4 0.38             94           91.7 202 
 PAM  SN ES        341 28.26                              56    0.46 9  160  89 
 SML  HZ EP        341  7.98                              56   -0.09 9  165   3 
 SML  HN ES        341 27.10                              56   -0.66 9  165   3 
 SML  HZ I         341 29.67         6.1 0.10             56            165   3 
 NOR  HE ES        341 37.92                              56    0.28 8  209 202 
                                                                                
