 2016  722 0822 16.7 L   6.769 -73.089147.7  RSN  4 0.1 1.1LRSN                1
 GAP=241        0.44       2.7     4.0  3.5  0.2217E+01  0.6217E+00  0.1063E+01E
 Epicentro: LOS SANTOS - SANTANDER                                             3
 ACTION:UPD 17-03-29 16:53 OP:lp   STATUS:               ID:20160722082216 L   I
 OLDACT:REG 16-07-22 14:52 OP:ar   STATUS:               ID:20160722081759     3
 2016-07-22-0817-59S.COL___327                                                 6
 STAT SP IPHASW D HRMM SECON CODA AMPLIT PERI AZIMU VELO AIN AR TRES W  DIS CAZ7
 BAR2 EZ EP        822 36.54                             171    0.0510 22.1 208 
 BAR2 EZ ES        822 51.72                             171   -0.2410 22.1 208 
 BRR  HZ EP        822 38.32                             150   -0.1010 78.3 299 
 BRR  HN ES        822 55.58                             150    0.1810 78.3 299 
 BRR  HZ I         823  0.05         1.9 0.11            149           78.3 299 
 RUS  HZ EP        822 40.31                             145   -0.0310 96.9 180 
 RUS  HN ES        822 59.00                             145    0.1910 96.9 180 
 RUS  HZ I         822 59.54         1.3 0.60            148           96.9 180 
 SPBC HZ EP        822 45.48                             129    0.04 9  165 221 
 SPBC HN ES        823  7.77                             129   -0.11 9  165 221 
 SPBC HZ I         823  8.52         2.9 0.24            131            165 221 
                                                                                
