 2013  122 0722 44.5 L   6.805 -73.083137.5  RSN  4 0.2 1.4LRSN                1
 GAP=144        0.63       3.2     4.7  5.3 -0.5095E+00 -0.1710E+01  0.5929E+00E
 Epicentro: LOS SANTOS - SANTANDER                                             3
 ACTION:UPD 13-02-15 09:15 OP:ep   STATUS:               ID:20130122072244 L   I
 2013-01-22-0718-51M.COL___180                                                 6
 STAT SP IPHASW D HRMM SECON CODA AMPLIT PERI AZIMU VELO AIN AR TRES W  DIS CAZ7
 BAR2 SZ ES        723 17.93                             169    0.1910 26.0 205 
 BAR2 SZ I         723 19.36         7.6 0.18            167           26.0 205 
 PAM  SZ EP        723  5.85                             151    0.3210 72.7  36 
 PAM  SZ I         723  6.04         4.3 0.22            153           72.7  36 
 PAM  SN ES        723 21.72                             151   -0.2310 72.7  36 
 BRR  HZ EP        723  4.76                             149   -0.3310 77.1 296 
 BRR  HN ES        723 21.29                             149    0.1210 77.1 296 
 BRR  HN I         723 22.07         7.1 0.22            151           77.1 296 
 RUS  HZ EP        723  7.53                             142    0.0910  101 180 
 RUS  HN ES        723 25.20                             142   -0.1610  101 180 
 RUS  HN I         723 28.08         2.0 0.24            142            101 180 
                                                                                
