 2017  422 0248 29.2 L   6.725 -73.146145.7  RSN  5 0.4 1.7LRSN                1
 GAP=159        0.91       7.6     4.4  7.1 -0.7316E+01  0.7050E+01  0.5973E+00E
 Epicentro: JORDAN - SANTANDER                                                 3
 ACTION:UPD 17-05-30 21:14 OP:jn   STATUS:               ID:20170422024829 L   I
 OLDACT:REG 17-04-22 11:51 OP:dnl  STATUS:               ID:20170422024742     3
 2017-04-22-0248-00M.COL___362                                                 6
 STAT SP IPHASW D HRMM SECON CODA AMPLIT PERI AZIMU VELO AIN AR TRES W  DIS CAZ7
 BAR2 EZ EP        248 49.00                             174    0.3310 15.3 195 
 BAR2 EZ ES        249  3.95                             174    0.0710 15.3 195 
 BAR2 EZ I         249  4.85        13.4 0.30            174           15.3 195 
 BRR  HZ IP     C  248 50.74                             151    0.1710 75.4 304 
 BRR  HN ES        249  7.80                             151    0.5510 75.4 304 
 BRR  HZ I         249 10.09         8.8 0.18            146           75.4 304 
 PAM  EZ IP     C  248 51.90                             149    0.1010 84.0  36 
 PAM  EN ES        249  8.90                             149   -0.5410 84.0  36 
 PAM  EZ I         249 10.81         9.6 0.54            147           84.0  36 
 PTB  HZ EP        248 55.62                             132   -0.40 9  146 262 
 PTB  HN ES        249 16.57                             132   -0.38 9  146 262 
 PTB  HZ I         249 18.09         3.7 0.26            131            146 262 
 ZAR  HZ EP   2    249  2.71                             122    0.76 4  207 294 
 ZAR  HE ES        249 27.32                             122   -0.19 8  207 294 
 ZAR  HZ I         249 35.40         4.7 0.26            121            207 294 
                                                                                
