 2016  822 0459 52.3 L   6.757 -73.080150.5  RSN  5 0.4 1.1LRSN                1
 GAP=273        1.03       6.8     8.4  8.6  0.1043E+02  0.1852E+02  0.9118E+01E
 Epicentro: LOS SANTOS - SANTANDER                                             3
 ACTION:UPD 16-10-29 15:37 OP:rebc STATUS:               ID:20160822045952 L   I
 OLDACT:REG 16-08-22 13:37 OP:ak   STATUS:               ID:20160822045632     3
 2016-08-22-0457-00M.COL___368                                                 6
 STAT SP IPHASW D HRMM SECON CODA AMPLIT PERI AZIMU VELO AIN AR TRES W  DIS CAZ7
 BAR2 EZ ES        5 0 28.47                             172    0.2710 21.4 212 
 BRR  HZ EP        5 0 14.20                             151   -0.2710 79.9 299 
 BRR  HN ES        5 0 31.54                             151   -0.2210 79.9 299 
 BRR  HZ I         5 0 35.36         2.4 0.08                          79.9 299 
 PTB  HZ EP        5 0 19.87                             132   -0.37 9  154 261 
 PTB  HN ES        5 0 41.47                             132   -0.55 9  154 261 
 PTB  HZ I         5 0 44.10         1.2 0.21                           154 261 
 SPBC HZ EP        5 0 21.69                             130    0.41 9  164 222 
 SPBC HN ES        5 0 43.95                             130    0.08 9  164 222 
 SPBC HZ I         5 0 50.03         1.4 0.09                           164 222 
 ZAR  HN ES        5 0 53.01                             122    0.83 8  213 293 
                                                                                
