 2012 1122 0953 25.3 L   6.791 -73.176141.4  RSN  6 0.1 1.9LRSN                1
 GAP=133        0.35       2.3     2.4  4.0 -0.1542E+01  0.4426E+01 -0.2723E+00E
 Epicentro: LOS SANTOS - SANTANDER                                             3
 ACTION:UPD 12-12-05 15:35 OP:}ep  STATUS:               ID:20121122095325 L   I
 2012-11-22-0950-00M.COL___233                                                 6
 STAT SP IPHASW D HRMM SECON CODA AMPLIT PERI AZIMU VELO AIN AR TRES W  DIS CAZ7
 BAR2 SZ EP        953 44.42                             171    0.0810 22.0 182 
 BAR2 SZ I         953 44.81        18.9 0.08                          22.0 182 
 GIR2 SZ EP        953 44.48                             167    0.0510 31.8 357 
 PAM  SZ EP        953 47.29                             149    0.0910 80.3  41 
 PAM  SZ I         953 47.58        18.2 0.26                          80.3  41 
 PAM  SN ES        954  4.21                             149   -0.0910 80.3  41 
 RUS  HZ EP        953 48.49                             143   -0.0510 99.9 174 
 RUS  HE ES   1    954  6.74                             143    0.05 7 99.9 174 
 RUS  HE I         954  8.32        11.5 0.23                          99.9 174 
 PTB  HZ EP        953 51.34                             132   -0.22 9  144 259 
 PTB  HN ES   1    954 12.14                             132    0.07 7  144 259 
 PTB  HZ I         954 15.30         6.4 0.14                           144 259 
 ZAR  HZ EP   1    953 57.30                             122    0.16 6  201 293 
 ZAR  HZ I         954 28.49         6.5 0.60                           201 293 
                                                                                
