 2016 1222 0339  3.3 L   6.795 -73.136140.6  RSN 15 0.5 2.5LRSN                1
 GAP=100        0.99       3.7     3.2  5.1 -0.1492E+01  0.3243E+01  0.6572E+01E
 Epicentro: LOS SANTOS - SANTANDER                                             3
 ACTION:UPD 17-01-11 20:17 OP:rebc STATUS:               ID:20161222033903 L   I
 OLDACT:UP  16-12-22 15:08 OP:cog  STATUS:               ID:20161222033741     3
 OLDACT:REG 16-12-22 12:48 OP:cog  STATUS:               ID:20161222033741     3
 2016-12-22-0338-00M.COL___366                                                 6
 STAT SP IPHASW D HRMM SECON CODA AMPLIT PERI AZIMU VELO AIN AR TRES W  DIS CAZ7
 BAR2 EZ EP     C  339 22.22                             170   -0.0710 22.9 193 
 BAR2 EZ ES        339 36.78                             170   -0.3310 22.9 193 
 BAR2 EZ I         339 39.95        58.8 0.18            165           22.9 193 
 BRR  HZ EP        339 23.93                             151   -0.0210 72.4 299 
 BRR  HN ES        339 40.91                             151    0.8510 72.4 299 
 BRR  HZ I         339 45.39        52.3 0.16            151           72.4 299 
 PAM  EZ EP        339 24.82                             150   -0.1210 77.2  39 
 PAM  EN ES        339 41.89                             150    0.0510 77.2  39 
 PAM  EZ I         339 43.98       104.6 0.54            157           77.2  39 
 RUS  HZ EP        339 26.26                             143   -0.2210 99.9 177 
 RUS  HN ES     C  339 44.68                             143    0.1010 99.9 177 
 RUS  HZ I         339 46.69        47.6 0.28            142           99.9 177 
 PTB  HZ EP        339 28.85                             131   -1.07 9  149 259 
 PTB  HN ES        339 50.07                             131   -0.62 9  149 259 
 PTB  HZ I         339 52.76        43.9 0.18            130            149 259 
 TAM  HZ IP     D  339 30.57                             130    0.12 9  154 105 
 TAM  HE ES        339 51.71                             130    0.07 9  154 105 
 TAM  HZ I         339 52.73        20.3 0.30            133            154 105 
 CHI  HZ EP        339 40.66                             116   -0.00 8  248 195 
 CHI  HN ES        340  9.99                             116    0.17 8  248 195 
 CHI  HZ I         340 16.60        15.9 0.32            116            248 195 
 ROSC BZ EP   3    339 42.22                             116    1.10 2  253 211 
 ROSC BE ES   3    340 12.34                             116    1.70 2  253 211 
 GUY2CHZ EP        339 47.66                             111    0.95 7  302 235 
 GUY2CHE ES   4    340 23.71                             111    3.12 0  302 235 
 GUY2CHZ I         340 28.51        19.1 0.56                           302 235 
 VIL  EZ EP        339 46.57                             111    0.15 7  303 192 
 VIL  EE ES   3    340 18.68                             111   -1.39 2  303 192 
 VIL  EZ I         340 30.10        17.1 0.40            112            303 192 
 PTGC HZ EP   9    339 45.49                             111   -1.31 0  308 159 
 PTGC HN ES        340 18.81                             111   -0.63 7  308 159 
 PTGC HZ I         340 21.62        15.0 0.66            112            308 159 
 ELA  HZ EP   4    339 52.24                             109    2.28 0  330 230 
 ELA  HE ES        340 26.79                             109    0.42 7  330 230 
 ELA  HZ I         340 36.06        12.2 0.26            110            330 230 
 CBOC HZ EP        339 50.08                             109    0.00 7  334 252 
 CBOC HE ES   4    340 23.17                             109   -3.41 0  334 252 
 CBOC HZ I         340 36.12         5.7 0.58            110            334 252 
 ANIL HZ EP        339 53.37                             107    0.45 6  358 225 
 ANIL HE ES   3    340 31.64                             107   -0.01 2  358 225 
 ANIL HZ I         340 37.16        35.9 0.30            108            358 225 
 ORTC HZ EP        339 56.75                             105   -0.29 6  396 216 
 ORTC HN ES     D  340 39.13                             105    0.15 6  396 216 
 ORTC HZ I         340 48.77        10.7 0.48            106            396 216 
                                                                                
