 2011  622 0942 28.3 L   6.784 -73.110147.4  RSN  9 0.2 1.7LRSN                1
 GAP=160        0.49       3.0     5.1  4.7 -0.3540E+01 -0.4070E+01 -0.4341E+00E
 Epicentro: LOS SANTOS - SANTANDER                                             3
 ACTION:UP  11-07-14 19:07 OP:ep   STATUS:               ID:20110622094228 L   I
 2011-06-22-0938-27S.COL___140                                                 6
 STAT SP IPHASW D HRMM SECON CODA AMPLIT PERI AZIMU VELO SNR AR TRES W  DIS CAZ7
 BAR2 SZ EP   1    942 48.06                             171    -0.1 7   23 201 
 BTL  SZ EP   1    942 48.34                             171     0.2 7   23 311 
 BTL  SZ ES   2    943  3.51                             171    -0.1 5   23 311 
 BAR2 SZ I         942 48.48        12.3 0.09                            23 201 
 BAR2 SZ ES   1    943  3.68                             171     0.1 7   23 201 
 GIR2 SZ EP        942 48.10                             166    -0.210   34 344 
 BRR  HZ EP   1    942 49.62                             151    -0.3 7   75 298 
 BRR  HZ I         942 50.22        16.3 0.19                            75 298 
 BRR  HE ES   1    943  6.96                             151     0.2 7   75 298 
 RUS  HZ EP   1    942 52.31                             145     0.2 7   99 178 
 RUS  HZ I         942 52.86         6.4 0.32                            99 178 
 RUS  HN ES   2    943 10.23                             145    -0.4 5   99 178 
 BRI  SZ EP   2    942 52.26                             142    -0.1 5  109  19 
 BRI  SZ ES   2    943 11.58                             142     0.4 5  109  19 
 GRA  SZ EP   1    942 54.00                             137     0.2 7  126  16 
 GRA  SZ ES   2    943 13.35                             137    -0.3 5  126  16 
 GRA  SZ I         943 16.29         4.8 0.48                           126  16 
 OCA  SZ EP   2    942 57.16                             130     0.2 5  163 352 
 OCA  SZ ES   2    943 18.80                             130    -0.5 5  163 352 
 OCA  SZ I         943 23.45         6.3 0.08                           163 352 
 NOR  SN ES   2    943 32.52                             119     0.0 4  237 235 
                                                                                
