 2012  222 0900 23.4 L   6.458 -73.741 81.0  RSN  6 0.2 1.2LRSN                1
 GAP= 97        0.39       2.9     2.8  5.6  0.1276E+01  0.4154E+01  0.5058E+01E
 ACTION:UP  12-03-07 16:33 OP:epov STATUS:               ID:20120222090023 L   I
 2012-02-22-0900-00M.COL___191                                                 6
 STAT SP IPHASW D HRMM SECON CODA AMPLIT PERI AZIMU VELO AIN AR TRES W  DIS CAZ7
 BAR2 SZ EP   1    9 0 37.96                             139    0.18 7 63.6  76 
 BAR2 SZ ES   1    9 0 48.86                             139   -0.13 7 63.6  76 
 BAR2 SZ I         9 0 51.81         7.2 0.16                          63.6  76 
 BRR  HZ EP   1    9 0 38.16                             134    0.01 7 71.9   3 
 BRR  HZ I         9 0 52.56        13.4 0.26                          71.9   3 
 PTB  HE ES   2    9 0 50.91                             131   -0.03 5 79.6 277 
 GIR2 SZ EP   1    9 0 40.24                             127    0.06 7 91.5  41 
 RUS  HZ EP   1    9 0 40.80                             126   -0.29 7 96.0 131 
 RUS  HE ES   2    9 0 55.21                             126    0.33 5 96.0 131 
 RUS  HZ I         9 0 56.83         3.5 0.30                          96.0 131 
 CHI  HZ EP   1    9 0 52.92                             107    0.05 6  202 180 
 CHI  HZ I         9 1  5.03         0.9 0.37                           202 180 
                                                                                
