 2015  322 0325  9.6 L   6.814 -73.156145.2  RSN 14 0.5 1.8LRSN                1
 GAP=135        1.60       4.3     5.8  8.2 -0.5158E+01  0.1276E+02 -0.6915E-01E
 Epicentro: LOS SANTOS - SANTANDER                                             3
 ACTION:UPD 15-04-30 16:28 OP:nd   STATUS:               ID:20150322032509 L   I
 OLDACT:REG 15-03-22 12:40 OP:stll STATUS:               ID:20150322031748     3
 2015-03-22-0317-48M.COL___266                                                 6
 STAT SP IPHASW D HRMM SECON CODA AMPLIT PERI AZIMU VELO AIN AR TRES W  DIS CAZ7
 BAR2 EZ EP        325 29.04                             170   -0.1110 24.7 187 
 BAR2 EZ ES        325 44.67                             170    0.2310 24.7 187 
 BAR2 EZ I         325 47.29        10.5 0.22            170           24.7 187 
 BRR  HZ EP     D  325 31.07                             153    0.5210 69.5 298 
 BRR  HN ES        325 48.14                             153    1.2110 69.5 298 
 BRR  HZ I         325 51.03        10.3 0.16            153           69.5 298 
 PAM  SZ IP     D  325 31.96                             151    0.2710 76.9  41 
 PAM  SZ I         325 32.23        19.0 0.22            154           76.9  41 
 PAM  SN ES        325 48.78                             151   -0.1610 76.9  41 
 RUS  HZ EP        325 33.03                             143   -0.3510  102 175 
 RUS  HE ES        325 51.17                             143   -0.7910  102 175 
 RUS  HZ I         325 52.96         6.3 0.32            146            102 175 
 PTB  HZ EP        325 36.23                             132   -0.18 9  147 258 
 PTB  HN ES        325 56.95                             132   -0.41 9  147 258 
 PTB  HZ I         325 58.75         7.0 0.20            134            147 258 
 OCA  HZ EP        325 37.72                             130    0.05 9  159 353 
 OCA  HN ES        325 59.63                             130    0.04 9  159 353 
 OCA  HZ I         326  3.23        14.7 0.48            132            159 353 
 SPBC HZ EP        325 38.04                             129   -0.03 9  164 218 
 SPBC HN ES        326  0.20                             129   -0.11 9  164 218 
 SPBC HZ I         326  6.45        13.0 0.26            131            164 218 
 ZAR  HZ EP        325 42.00                             122    0.20 9  202 292 
 ZAR  HN ES        326  6.34                             122   -0.61 9  202 292 
 ZAR  HZ I         326 10.08         6.4 0.22            124            202 292 
 NOR  HE ES        326 12.70                             118   -0.41 8  235 234 
 SML  HZ EP        325 45.74                             117   -0.21 8  242 335 
 SML  HN ES        326 13.52                             117   -0.81 8  242 335 
 URE  HZ EP   9    325 49.64                             113   -0.78 0  282 292 
 URE  HN ES        326 21.04                                   -0.47 7  282 292 
 GUY2CHZ EP        325 53.79                             112    0.64 7  301 234 
 GUY2CHN ES        326 28.11                             112    0.97 7  301 234 
 GUY2CHZ I         326 33.96         3.5 0.36                           301 234 
 TOL  SZ EP        325 58.52                             109    0.68 7  344 224 
 TOL  SN ES        326 35.08                             109   -0.41 7  344 224 
 SJC  HZ EP   9    326  3.00                             106   -1.88 0  407 327 
 SJC  HE ES        326 42.67                                   -3.48 6  407 327 
 SJC  HZ I         326 48.96         1.7 0.44            107            407 327 
                                                                                
