 2016 1122 0549  1.2 L   6.772 -73.166151.5  RSN  5 0.4 0.9LRSN                1
 GAP=146        1.04       8.7     5.0  7.6 -0.8439E+01  0.1017E+02 -0.3109E+01E
 Epicentro: LOS SANTOS - SANTANDER                                             3
 ACTION:UPD 17-10-26 21:10 OP:lp   STATUS:               ID:20161122054901 L   I
 OLDACT:UP  16-11-22 16:11 OP:edw  STATUS:               ID:20161122054741d    3
 OLDACT:DUP 16-11-22 16:08 OP:edw  STATUS:               ID:20161122054741d    3
 2016-11-22-0548-00M.COL___349                                                 6
 STAT SP IPHASW D HRMM SECON CODA AMPLIT PERI AZIMU VELO AIN AR TRES W  DIS CAZ7
 BAR2 EZ EP        549 21.69                             172    0.2110 19.9 185 
 BAR2 EZ ES        549 37.14                             172   -0.1410 19.9 185 
 BRR  HZ EP        549 23.46                             154    0.4910 70.8 302 
 BRR  HN ES        549 39.88                             154   -0.0510 70.8 302 
 PAM  EZ EP        549 24.56                             151    0.2910 81.2  39 
 PAM  EN ES        549 41.98                             151   -0.2710 81.2  39 
 PAM  EZ I         549 44.12         1.1 0.44            151           81.2  39 
 PTB  HZ EP        549 28.40                             134   -0.01 9  145 260 
 PTB  HN ES        549 49.51                             134   -0.11 9  145 260 
 PTB  HZ I         549 51.25         1.2 0.13            135            145 260 
 ZAR  HZ EP        549 32.87                             124   -1.08 9  203 293 
 ZAR  HN ES        549 59.96                             124    0.48 9  203 293 
                                                                                
