 2010  622 0101 55.3 L   6.779 -73.107139.3  RSN  9 0.3 2.0LRSN                1
 GAP=160        0.56       2.6     4.2  4.9 -0.3414E+01  0.2647E+00 -0.7754E+00E
 Epicentro: LOS SANTOS - SANTANDER                                             3
 ACTION:UP  10-08-24 10:12 OP:vdl  STATUS:               ID:20100622010155 L   I
 2010-06-22-0100-07S.COL___118                                                 6
 STAT SP IPHASW D HRMM SECON CODA AMPLIT PERI AZIMU VELO SNR AR TRES W  DIS CAZ7
 BAR2 SZ EP        1 2 14.15                             170     0.010   22 202 
 BAR2 SZ ES   2    1 2 28.71                             170    -0.2 5   22 202 
 BRR  HZ EP        1 2 16.22                             150     0.110   76 299 
 BRR  HN ES   1    1 2 32.34                             150     0.1 7   76 299 
 BRR  HZ I         1 2 36.39        26.0 0.13                            76 299 
 RUS  HZ EP        1 2 18.17                             143    -0.110   98 178 
 RUS  HZ I         1 2 19.35        10.0 0.02                            98 178 
 RUS  HN ES   1    1 2 36.24                             143     0.1 7   98 178 
 BRI  SZ EP        1 2 18.63                             140     0.010  109  18 
 BRI  SZ ES   2    1 2 37.44                             140     0.6 5  109  18 
 GUE  SZ EP        1 2 19.32                             138    -0.310  118  10 
 GRA  SZ EP        1 2 20.18                             135     0.110  127  15 
 GRA  SZ ES   2    1 2 39.21                             135    -0.2 5  127  15 
 OCA  SZ ES   2    1 2 45.36                             128     0.0 5  163 352 
 HEL  HZ EP   2    1 2 35.86                             113     0.2 4  276 256 
 HEL  HN ES   2    1 3  6.06                             113    -1.0 4  276 256 
 HEL  HZ I         1 3 15.34         5.8 0.31                           276 256 
 RREF HZ EP   1    1 2 42.17                             109     0.8 5  324 230 
 RREF HE ES   2    1 3 17.18                             109    -0.2 3  324 230 
 RREF HZ I         1 3 26.23         7.8 0.40                           324 230 
                                                                                
