 2011 1222 0127 56.7 L   6.570 -73.426149.7  RSN  4 0.2 1.4LRSN                1
 GAP=181        0.42       4.5     5.4  5.8  0.1091E+02  0.2442E+01  0.8589E+01E
 Epicentro: HATO - SANTANDER                                                   3
 ACTION:UPD 12-07-13 16:17 OP:ep   STATUS:               ID:20111222012756 L   I
 2011-12-22-0120-00M.COL___191                                                 6
 STAT SP IPHASW D HRMM SECON CODA AMPLIT PERI AZIMU VELO AIN AR TRES W  DIS CAZ7
 BRR  HZ EP        128 17.94                             155   -0.1310 67.3 332 
 BRR  HE ES   1    128 34.85                             155    0.12 7 67.3 332 
 BRR  HZ I         128 40.65         6.0 0.11                          67.3 332 
 RUS  HZ EP   1    128 20.00                             149    0.26 7 84.0 153 
 RUS  HE ES   2    128 37.39                             149   -0.32 5 84.0 153 
 RUS  HZ I         128 39.84         2.5 0.25                          84.0 153 
 PTB  HZ EP   1    128 21.04                             141   -0.13 7  114 268 
 PTB  HE ES   2    128 40.42                             141    0.17 5  114 268 
 CHI  HZ EP   2    128 31.45                             122    0.15 4  217 189 
 CHI  HZ I         129  9.33         2.4 0.42                           217 189 
                                                                                
