 2016  322 0747 41.1 L   6.787 -73.126144.7  RSN 18 0.5 2.0LRSN                1
 GAP=109        1.07       3.1     3.6  5.5 -0.3023E+01  0.6272E+01  0.1177E+01E
 Epicentro: LOS SANTOS - SANTANDER                                             3
 ACTION:UPD 16-05-13 21:26 OP:cam  STATUS:               ID:20160322074741 L   I
 OLDACT:REG 16-03-22 13:08 OP:ak   STATUS:               ID:20160322073745     3
 2016-03-22-0737-45M.COL___303                                                 6
 STAT SP IPHASW D HRMM SECON CODA AMPLIT PERI AZIMU VELO AIN AR TRES W  DIS CAZ7
 BAR2 EZ EP     C  748  0.96                             171    0.3510 22.4 196 
 BAR2 EZ ES        748 15.43                             171   -0.3810 22.4 196 
 BAR2 EZ I         748 16.99        31.6 0.24            169           22.4 196 
 PAM  EZ EP        748  3.93                             151    0.7210 77.2  38 
 PAM  EN ES        748 20.93                             151    0.4910 77.2  38 
 PAM  EZ I         748 23.27        17.6 0.56            148           77.2  38 
 RUS  HZ EP        748  4.89                             144    0.2410 99.0 177 
 RUS  HN ES        748 23.13                             144    0.1210 99.0 177 
 RUS  HZ I         748 24.32        13.4 0.24            143           99.0 177 
 PTB  HZ EP        748  7.55                             131   -0.62 9  150 260 
 PTB  HN ES        748 28.67                             131   -0.61 9  150 260 
 PTB  HZ I         748 30.64        15.9 0.15            126            150 260 
 OCA  HZ EP   2    748  9.46                             129   -0.05 5  162 352 
 OCA  HN ES        748 30.87                             129   -0.79 9  162 352 
 OCA  HZ I         748 34.50        23.8 0.24            124            162 352 
 SPBC HZ EP        748  9.78                             129    0.22 9  163 220 
 SPBC HN ES        748 32.20                             129    0.45 9  163 220 
 SPBC HZ I         748 37.31        16.8 0.15            125            163 220 
 ZAR  HZ EP        748 13.87                             122    0.11 8  207 292 
 ZAR  HN ES        748 39.83                             122    0.60 8  207 292 
 ZAR  HZ I         748 45.45        20.7 0.22            117            207 292 
 NOR  HZ EP        748 16.89                             118    0.00 8  236 235 
 NOR  HN ES        748 44.74                             118   -0.05 8  236 235 
 NOR  HZ I         748 49.25        13.3 0.16            114            236 235 
 CHI  HZ EP        748 18.36                             117   -0.31 8  248 196 
 CHI  HN ES        748 47.04                             117   -0.92 8  248 196 
 CHI  HZ I         748 55.43         3.5 0.20            114            248 196 
 HEL  HZ EP   2    748 21.95                             114    0.48 4  274 256 
 HEL  HN ES        748 52.46                             114   -0.49 8  274 256 
 HEL  HZ I         749  2.60         6.6 0.28            111            274 256 
 URE  HZ EP   4    748 20.70                             113   -1.73 0  286 292 
 URE  HZ I         749  5.06         6.5 0.28            109            286 292 
 SOCV BZ EP   4    748 22.34                             112   -1.66 0  300  56 
 SOCV BN ES   4    748 54.01                             112   -3.44 0  300  56 
 GUY2CHZ EP   4    748 26.25                             112    1.46 0  302 235 
 GUY2CHN ES        748 59.60                             112    0.75 7  302 235 
 GUY2CHZ I         749  7.59        10.9 0.36                           302 235 
 PTGC HZ EP   2    748 24.09                             111   -0.59 4  307 159 
 PTGC HN ES   4    748 55.39                             111   -3.27 0  307 159 
 CBOC HZ EP        748 28.42                             110    0.24 7  335 252 
 CBOC HE ES        749  4.11                             110   -0.77 7  335 252 
 CBOC HZ I         749 17.72         3.1 0.60            106            335 252 
 MON  HZ EP   2    748 30.88                             108    0.50 3  356 308 
 MON  HN ES   4    749  6.94                             108   -1.87 0  356 308 
 MON  HZ I         749  8.11         2.2 0.22            105            356 308 
 ANIL HN ES   4    749 13.23                             108    3.43 0  358 225 
 SDV  BZ EP        748 30.25                             108   -0.78 6  360  50 
 SDV  BN ES   4    749  7.25                             108   -2.72 0  360  50 
 SDV  BZ I         749  9.98         1.5 0.55            106            360  50 
 ORTC HZ EP        748 35.01                             106   -0.01 6  396 217 
 ORTC HN ES        749 17.19                             106    0.13 6  396 217 
 PAL  HZ EP        748 36.66                             106    0.28 6  407 239 
 PAL  HN ES        749 20.10                             106    0.62 6  407 239 
 PAL  HZ I         749 25.46         2.4 0.50            103            407 239 
                                                                                
