 2013  322 0127 29.0 L   6.814 -73.099149.6  RSN 12 0.5 2.6LRSN                1
 GAP= 73        1.18       3.2     4.2  6.0  0.7720E+00  0.5367E+01  0.1016E+01E
 Epicentro: LOS SANTOS - SANTANDER                                             3
 ACTION:UPD 13-04-09 14:04 OP:ep   STATUS:               ID:20130322012729 L   I
 2013-03-22-0120-00M.COL___245                                                 6
 STAT SP IPHASW D HRMM SECON CODA AMPLIT PERI AZIMU VELO AIN AR TRES W  DIS CAZ7
 BAR2 SZ EP        127 48.88                             170   -0.3010 26.2 200 
 BAR2 SZ ES        128  4.29                             170   -0.6010 26.2 200 
 BAR2 SZ I         128  6.56        95.5 0.28            168           26.2 200 
 PAM  SZ IP     C  127 51.65                             153    0.2510 73.0  37 
 PAM  SN ES        128  9.19                             153    0.3410 73.0  37 
 BRR  HZ EP        127 50.75                             152   -0.0610 75.0 296 
 BRR  HN ES        128  8.24                             152    0.4410 75.0 296 
 BRR  HN I         128  8.86        96.5 0.20            150           75.0 296 
 RUS  HZ EP        127 52.75                             144   -0.5010  102 179 
 RUS  HN ES        128 11.41                             144   -0.7410  102 179 
 RUS  HN I         128 13.34        45.6 0.24            144            102 179 
 TAM  HZ IP     C  127 57.05                             132    0.45 9  151 106 
 TAM  HE ES        128 18.74                             132    0.63 9  151 106 
 TAM  HE I         128 19.08        20.2 0.20            134            151 106 
 PTB  HZ EP   4    127 55.69                             132   -1.10 0  153 259 
 PTB  HN ES   4    128 16.55                             132   -1.89 0  153 259 
 PTB  HN I         128 22.49        95.6 0.34            130            153 259 
 OCA  HZ EP        127 56.86                             130   -0.70 9  159 351 
 OCA  HN ES        128 19.86                             130    0.05 9  159 351 
 ZAR  HZ EP        128  2.97                             122    0.82 8  208 291 
 ZAR  HN ES        128 28.08                             122    0.09 8  208 291 
 ZAR  HN I         128 32.89        42.1 0.28            122            208 291 
 CHI  HZ EP     C  128  7.20                             117   -0.05 8  252 196 
 CHI  HN ES        128 37.62                             117    0.55 8  252 196 
 CHI  HN I         128 38.76        26.5 0.28            117            252 196 
 HEL  HZ EP        128 10.68                             115    0.65 7  277 256 
 HEL  HN ES   2    128 42.39                             115    0.38 4  277 256 
 HEL  HN I         128 48.18        12.7 0.52            114            277 256 
 COD  HZ EP        128 16.62                             109   -0.82 6  347 354 
 COD  HN ES        128 54.82                             109   -0.38 6  347 354 
 COD  HN I         128 59.87        10.6 0.54            110            347 354 
 PRA  HZ EP        128 22.37                             107   -0.77 6  396 210 
 PRA  HE ES        129  5.85                             107    0.51 6  396 210 
 PRA  HE I         129  9.94        10.3 0.30            107            396 210 
                                                                                
