 2012  822 0626 51.6 L   6.788 -73.153151.3  RSN  4 0.4 1.1LRSN                1
 GAP=136        0.92       5.9     5.7 11.0 -0.8389E+01  0.1872E+02 -0.5582E+01E
 Epicentro: LOS SANTOS - SANTANDER                                             3
 ACTION:UPD 12-09-10 11:57 OP:ep   STATUS:               ID:20120822062651 L   I
 2012-08-22-0620-00M.COL___218                                                 6
 STAT SP IPHASW D HRMM SECON CODA AMPLIT PERI AZIMU VELO AIN AR TRES W  DIS CAZ7
 BRR  HZ EP   1    627 13.85                             154    0.49 7 71.1 300 
 BRR  HZ I         627 15.28         3.0 0.08                          71.1 300 
 BRR  HN ES   1    627 31.06                             154    0.74 7 71.1 300 
 PAM  SZ EP   1    627 14.53                             151    0.02 7 78.9  39 
 PAM  SZ I         627 15.50         2.4 0.25                          78.9  39 
 PAM  SN ES        627 32.03                             151   -0.3410 78.9  39 
 RUS  HN ES        627 34.86                             145    0.1510 99.3 176 
 PTB  HZ EP   1    627 18.82                             133   -0.12 7  147 259 
 PTB  HN ES        627 39.73                             133   -0.53 9  147 259 
 PTB  HZ I         627 41.89         1.5 0.13                           147 259 
                                                                                
