 2015 1022 0554 37.5 L   6.788 -73.144140.7  RSN 10 0.4 1.9LRSN                1
 GAP=137        0.91       2.6     3.8  5.1 -0.1959E+01  0.7790E+01 -0.1874E+01E
 Epicentro: LOS SANTOS - SANTANDER                                             3
 ACTION:UPD 15-12-22 20:42 OP:cam  STATUS:               ID:20151022055437 L   I
 OLDACT:REG 15-10-22 12:18 OP:mh   STATUS:               ID:20151022054742     3
 2015-10-22-0547-42M.COL___319                                                 6
 STAT SP IPHASW D HRMM SECON CODA AMPLIT PERI AZIMU VELO AIN AR TRES W  DIS CAZ7
 BAR2 EZ EP        554 56.64                             171    0.1210 22.0 191 
 BAR2 EZ ES        555 11.09                             171   -0.2410 22.0 191 
 BAR2 EZ I         555 12.69        22.6 0.32            168           22.0 191 
 BRR  HZ IP     C  554 58.52                             151    0.3410 72.0 299 
 BRR  HN ES        555 15.06                             151    0.7810 72.0 299 
 BRR  HZ I         555 16.90        12.9 0.14            149           72.0 299 
 PAM  EZ EP        554 59.61                             150    0.3510 78.3  39 
 PAM  EN ES        555 16.29                             150    0.0810 78.3  39 
 PAM  EZ I         555 18.29        15.3 0.54            147           78.3  39 
 RUS  HZ EP   1    555  1.07                             143    0.39 7 99.2 176 
 RUS  HN ES        555 18.61                             143   -0.1310 99.2 176 
 RUS  HZ I         555 20.16         7.5 0.26            138           99.2 176 
 SPBC HZ EP        555  5.37                             128   -0.18 9  162 219 
 SPBC HN ES        555 26.71                             128   -0.70 9  162 219 
 SPBC HZ I         555 31.38         9.5 0.48            124            162 219 
 OCA  HZ EP        555  5.17                             128   -0.41 9  162 353 
 OCA  HN ES        555 26.79                             128   -0.67 9  162 353 
 OCA  HZ I         555 34.47        22.2 0.28            125            162 353 
 ZAR  HZ EP        555  9.79                             121    0.07 9  205 292 
 ZAR  HN ES        555 34.85                             121    0.02 9  205 292 
 ZAR  HZ I         555 37.46         7.0 0.14            118            205 292 
 NOR  HZ EP        555 12.83                             117   -0.07 8  234 235 
 NOR  HN ES   1    555 40.52                             117    0.04 6  234 235 
 NOR  HZ I         555 41.85         5.8 0.14            114            234 235 
 SML  HZ EP        555 14.02                             116    0.00 8  245 335 
 SML  HN ES        555 42.17                             116   -0.31 8  245 335 
 SML  HZ I         555 46.88        10.8 0.22            113            245 335 
 HEL  HZ EP        555 17.97                             114    0.50 8  272 256 
 HEL  HN ES        555 48.59                             114   -0.03 8  272 256 
 HEL  HZ I         555 55.04         3.3 0.28            110            272 256 
                                                                                
