 2014  322 0031 25.2 L   6.804 -73.146144.0  RSN 18 0.4 2.4LRSN                1
 GAP= 71        0.91       2.5     2.9  4.5 -0.1412E+01  0.2266E+01 -0.9526E-01E
 Epicentro: LOS SANTOS - SANTANDER                                             3
 OLDACT:REG 14-03-22 07:33 OP:mh   STATUS:               ID:20140322002808     3
 ACTION:UPD 14-04-09 23:19 OP:nd   STATUS:               ID:20140322003125 L   I
 OLDACT:UP  14-03-22 09:51 OP:mh   STATUS:               ID:20140322002808     3
 2014-03-22-0028-08M.COL___243                                                 6
 STAT SP IPHASW D HRMM SECON CODA AMPLIT PERI AZIMU VELO AIN AR TRES W  DIS CAZ7
 BAR2 SZ EP        031 44.70                             170    0.0610 23.8 190 
 BAR2 SZ ES        031 59.72                             170   -0.0710 23.8 190 
 BAR2 SZ I         032  0.55        64.1 0.36            167           23.8 190 
 BRR  HZ EP        031 46.69                             152    0.5410 71.0 298 
 BRR  HN ES   1    032  2.87                             152    0.38 7 71.0 298 
 BRR  SZ I         032  7.57        30.4 0.14            146           71.0 298 
 PAM  SZ EP     C  031 47.68                             150    0.4710 77.0  40 
 PAM  SN ES        032  4.45                             150    0.0710 77.0  40 
 PAM  SZ I         032  6.28        37.2 0.46            153           77.0  40 
 RUS  HZ EP        031 48.67                             143   -0.1510  101 176 
 RUS  HN ES        032  7.20                             143   -0.0410  101 176 
 RUS  SZ I         032  8.15        32.7 0.82            145            101 176 
 PTB  HZ EP        031 51.73                             131   -0.31 9  148 259 
 PTB  HN ES        032 12.40                             131   -0.57 9  148 259 
 PTB  SZ I         032 17.57        29.8 0.42            128            148 259 
 TAM  HZ IP     C  031 52.93                             130    0.17 9  155 105 
 OCA  HZ EP   1    031 53.45                             129    0.12 7  160 353 
 OCA  HN ES        032 14.55                             129   -0.72 9  160 353 
 OCA  SZ I         032 19.38        25.7 0.24            128            160 353 
 OCA  HZ I         032 19.51        24.1 0.17                           160 353 
 SPBC HZ EP        031 53.56                             128   -0.05 9  164 219 
 SPBC HN ES        032 15.24                             128   -0.52 9  164 219 
 SPBC SZ I         032 19.61        34.6 0.20            127            164 219 
 ZAR  HZ EP   1    031 57.63                             122    0.11 6  204 292 
 ZAR  HE ES        032 23.26                             122    0.54 9  204 292 
 ZAR  SZ I         032 28.96        21.0 0.24            120            204 292 
 NOR  HZ EP        032  1.00                             118    0.13 8  235 234 
 NOR  HN ES        032 29.08                             118    0.40 8  235 234 
 NOR  SZ I         032 32.36        19.5 0.18            117            235 234 
 SML  HZ EP   1    032  1.33                             117   -0.36 6  243 335 
 SML  HN ES        032 30.07                             117   -0.07 8  243 335 
 SML  SZ I         032 37.41        33.8 0.08            116            243 335 
 ROSC BZ EP   4    032  4.90                             116    1.62 0  253 211 
 ROSC BN ES   4    032 35.06                             116    2.09 0  253 211 
 ROSC SZ I         032 42.51        20.6 0.40            116            253 211 
 HEL  HZ EP        032  6.21                             114    0.87 8  272 256 
 HEL  HN ES   1    032 36.06                             114   -0.59 6  272 256 
 HEL  SZ I         032 43.30        16.4 0.30            113            272 256 
 URE  HZ EP   4    032  4.32                             113   -1.85 0  284 292 
 URE  HN ES   4    032 36.38                             113   -1.74 0  284 292 
 URE  SZ I         032 51.26        14.6 0.14            112            284 292 
 RREF HZ EP   1    032 11.15                             110   -0.16 5  322 229 
 RREF HN ES   4    032 48.40                             110    1.13 0  322 229 
 RREF SZ I         032 57.09        13.3 0.30            110            322 229 
 SDV  BZ EP        032 14.30                             108   -0.84 6  360  50 
 SDV  BN ES   4    032 50.92                             108   -3.17 0  360  50 
 ORTC HZ EP   1    032 19.21                             106    0.10 4  396 216 
 ORTC HN ES   1    033  1.07                             106   -0.09 4  396 216 
 ORTC SZ I         033  7.36         5.7 0.48            106            396 216 
 SJC  HZ EP   4    032 18.42                             105   -2.24 0  409 327 
 SJC  HN ES   4    032 58.86                             105   -5.06 0  409 327 
 SJC  SZ I         033 12.45        19.1 0.94            105            409 327 
                                                                                
