 2014 1122 0138 48.6 L   6.829 -73.116151.7  RSN  6 0.4 1.2LRSN                1
 GAP=139        0.94       4.9     4.3  6.3  0.2219E+01  0.6609E+01 -0.1160E+01E
 Epicentro: LOS SANTOS - SANTANDER                                             3
 ACTION:UPD 14-12-19 15:45 OP:nd   STATUS:               ID:20141122013848 L   I
 OLDACT:REG 14-11-22 13:03 OP:fm   STATUS:               ID:20141122013746     3
 2014-11-22-0137-46M.COL___300                                                 6
 STAT SP IPHASW D HRMM SECON CODA AMPLIT PERI AZIMU VELO AIN AR TRES W  DIS CAZ7
 BAR2 SZ EP        139  9.19                             169    0.1710 27.2 196 
 BAR2 SZ ES        139 25.41                             169    0.4610 27.2 196 
 BAR2 SZ I         139 25.86         6.2 0.32            169           27.2 196 
 BRR  HZ EP        139  9.93                             153   -0.5410 72.7 295 
 BRR  HN ES        139 27.92                             153    0.3910 72.7 295 
 BRR  HZ I         139 31.95         5.0 0.38            151           72.7 295 
 PAM  SZ EP        139 11.18                             153   -0.0110 72.8  39 
 PAM  SN ES        139 28.46                             153   -0.3410 72.8  39 
 PAM  SZ I         139 31.57         1.7 0.34            156           72.8  39 
 RUS  HZ EP        139 13.35                             144    0.2010  104 178 
 RUS  HN ES        139 32.04                             144   -0.2610  104 178 
 RUS  HZ I         139 33.53         1.1 0.38            148            104 178 
 PTB  HZ EP        139 16.32                             132   -0.08 9  152 258 
 PTB  HN ES        139 37.65                             132   -0.44 9  152 258 
 PTB  HZ I         139 44.33         1.8 0.14            133            152 258 
 ZAR  HZ EP        139 22.31                             123    0.68 8  206 291 
 ZAR  HN ES        139 47.25                             123   -0.14 8  206 291 
 ZAR  HZ I         139 52.56         1.8 0.26            124            206 291 
                                                                                
