 2012  822 0028 17.6 L   6.762 -73.112146.3  RSN  8 0.4 2.1LRSN                1
 GAP=143        0.85       4.1     4.4  6.7  0.1170E+01  0.4844E+01 -0.3646E+01E
 Epicentro: LOS SANTOS - SANTANDER                                             3
 ACTION:UPD 12-09-10 11:57 OP:ep   STATUS:               ID:20120822002817 L   I
 2012-08-22-0020-00M.COL___218                                                 6
 STAT SP IPHASW D HRMM SECON CODA AMPLIT PERI AZIMU VELO AIN AR TRES W  DIS CAZ7
 BAR2 SZ EP   1    028 36.80                             172   -0.43 7 20.3 202 
 BAR2 SZ ES   1    028 52.23                             172   -0.31 7 20.3 202 
 BAR2 SZ I         028 53.21        43.7 0.18                          20.3 202 
 GIR2 SZ EP   1    028 37.60                             165    0.13 7 36.1 346 
 BRR  HZ EP        028 39.43                             151    0.3310 76.5 300 
 BRR  HE ES        028 56.35                             151    0.4710 76.5 300 
 BRR  HZ I         029  1.15        45.3 0.15                          76.5 300 
 PAM  SZ IP     D  028 40.39                             151    0.4610 78.5  36 
 PAM  SZ I         028 40.62        32.3 0.17                          78.5  36 
 PAM  SN ES        028 57.07                             151   -0.2810 78.5  36 
 RUS  HZ EP   1    028 41.30                             145    0.22 7 96.2 178 
 RUS  HN ES        028 59.41                             145    0.0010 96.2 178 
 RUS  HZ I         029  0.36         9.7 0.48                          96.2 178 
 PTB  HZ EP   1    028 44.25                             131   -0.61 7  151 261 
 PTB  HN ES   2    029  5.28                             131   -0.85 5  151 261 
 PTB  HZ I         029  7.52         5.2 0.11                           151 261 
 OCA  HZ EP   1    028 45.96                             129   -0.42 7  165 352 
 OCA  HN ES   2    029  8.10                             129   -0.73 5  165 352 
 OCA  HZ I         029 12.73        26.9 0.21                           165 352 
 ZAR  HN ES        029 16.40                             122    0.08 8  209 293 
 ZAR  HZ I         029 22.49        10.0 0.22                           209 293 
                                                                                
