 2013 1122 0006 35.6 L   6.794 -73.169150.6  RSN  8 0.4 1.7LRSN                1
 GAP=143        1.04       5.5     6.1  7.6 -0.1887E+02  0.4537E+01  0.3416E+01E
 Epicentro: LOS SANTOS - SANTANDER                                             3
 ACTION:UPD 14-01-09 16:30 OP:ep   STATUS:               ID:20131122000635 L   I
 OLDACT:UP  13-11-22 11:40 OP:mh   STATUS:               ID:20131122000000     3
 OLDACT:REG 13-11-22 07:54 OP:mh   STATUS:               ID:20131122000000     3
 2013-11-22-0000-00M.COL___282                                                 6
 STAT SP IPHASW D HRMM SECON CODA AMPLIT PERI AZIMU VELO AIN AR TRES W  DIS CAZ7
 BAR2 SZ EP   1    0 6 55.60                             171   -0.21 7 22.3 184 
 BAR2 SZ I         0 7 12.47        11.9 0.19            168           22.3 184 
 BRR  HZ EP        0 6 57.73                             154    0.5410 69.3 300 
 BRR  HN ES        0 7 14.78                             154    0.7710 69.3 300 
 BRR  HZ I         0 7 16.83         7.4 0.32            157           69.3 300 
 PAM  SZ EP        0 6 58.63                             151    0.1510 79.5  41 
 PAM  SN ES        0 7 15.98                             151   -0.3210 79.5  41 
 PAM  SZ I         0 7 17.95         5.2 0.23            151           79.5  41 
 PTB  HZ EP        0 7  2.54                             134   -0.21 9  145 259 
 PTB  HN ES        0 7 23.40                             134   -0.52 9  145 259 
 PTB  HZ I         0 7 29.43         3.4 0.08            134            145 259 
 SPBC HN ES        0 7 26.11                             131   -0.55 9  161 218 
 NOR  HZ EP        0 7 11.43                             120    0.06 8  232 234 
 NOR  HE ES        0 7 39.52                             120    0.26 8  232 234 
 NOR  HZ I         0 7 45.72         3.7 0.24            120            232 234 
 SML  HZ EP        0 7 12.35                             118   -0.13 8  243 336 
 SML  HN ES   1    0 7 40.56                             118   -0.67 6  243 336 
 SML  HZ I         0 7 46.16         9.5 0.07            119            243 336 
 GUY2CHZ EP   1    0 7 19.87                             113    0.69 5  299 235 
 SJC  HZ EP   4    0 7 29.79                             106   -1.46 0  408 327 
 SJC  HN ES   4    0 8 11.79                             106   -2.86 0  408 327 
                                                                                
