 2015  922 0220  5.0 L   6.801 -73.172146.8  RSN  7 0.2 1.7LRSN                1
 GAP=199        0.49       2.0     3.1  4.1  0.3403E+00  0.4955E+01 -0.2789E+01E
 Epicentro: LOS SANTOS - SANTANDER                                             3
 ACTION:UPD 15-10-28 16:27 OP:cam  STATUS:               ID:20150922022005 L   I
 OLDACT:UP  15-09-22 16:31 OP:mh   STATUS:               ID:20150922021748     3
 OLDACT:REG 15-09-22 14:04 OP:mh   STATUS:               ID:20150922021748     3
 2015-09-22-0217-48M.COL___358                                                 6
 STAT SP IPHASW D HRMM SECON CODA AMPLIT PERI AZIMU VELO AIN AR TRES W  DIS CAZ7
 BAR2 EZ ES        220 40.33                             171    0.2010 23.2 183 
 BAR2 EZ I         220 41.04         8.7 0.10            171           23.2 183 
 RUS  HN ES        220 47.33                             144   -0.1510  101 174 
 RUS  HZ I         220 48.29         4.5 0.28            146            101 174 
 PTB  HZ EP        220 31.76                             133   -0.01 9  145 259 
 PTB  HN ES        220 52.50                             133   -0.18 9  145 259 
 PTB  HZ I         220 54.41         4.0 0.18            132            145 259 
 SPBC HZ EP        220 33.60                             130    0.21 9  162 218 
 SPBC HN ES        220 55.44                             130   -0.12 9  162 218 
 SPBC HZ I         220 57.99         9.6 0.28            130            162 218 
 ZAR  HZ EP        220 37.13                             123   -0.08 9  201 292 
 ZAR  HN ES        221  2.69                             123    0.34 9  201 292 
 ZAR  HZ I         221  7.73         2.8 0.42            123            201 292 
 NOR  HN ES        221  8.27                             119    0.02 8  232 234 
 NOR  HZ I         221 11.56         3.9 0.16            120            232 234 
 SML  HZ EP   1    220 41.65                             118    0.14 6  242 336 
 SML  HN ES        221  9.70                             118   -0.31 8  242 336 
 SML  HZ I         221 13.39         5.2 0.24            119            242 336 
                                                                                
