 2013  522 0825 43.8 L   6.786 -73.185155.8  RSN  7 0.5 1.3LRSN                1
 GAP=175        0.91       5.9     6.9  8.2  0.1786E+02  0.7897E+01  0.2552E+01E
 Epicentro: LOS SANTOS - SANTANDER                                             3
 ACTION:UPD 13-06-20 09:52 OP:ep   STATUS:               ID:20130522082543 L   I
 2013-05-22-0820-00M.COL___259                                                 6
 STAT SP IPHASW D HRMM SECON CODA AMPLIT PERI AZIMU VELO AIN AR TRES W  DIS CAZ7
 BAR2 SZ EP   1    826  4.81                             172    0.16 7 21.4 179 
 BAR2 SZ ES   1    826 20.40                             172   -0.48 7 21.4 179 
 BAR2 SZ I         826 22.44         4.7 0.28            169           21.4 179 
 GIR2 SZ EP   1    826  4.81                             168    0.07 7 32.4 358 
 GIR2 SZ ES   1    826 21.05                             168    0.01 7 32.4 358 
 BRR  HN ES   1    826 23.86                             155    0.70 7 68.2 301 
 BRR  HZ I         826 40.11         8.5 0.10            150           68.2 301 
 RUS  HZ EP        826  8.84                             146    0.3210 99.5 173 
 RUS  HN ES   1    826 27.57                             146   -0.19 7 99.5 173 
 RUS  HZ I         826 28.57         1.2 0.40            153           99.5 173 
 PTB  HZ EP   1    826 10.77                             135   -0.48 7  143 259 
 PTB  HN ES   1    826 32.04                             135   -0.59 7  143 259 
 PTB  HZ I         826 40.13         2.5 0.50            135            143 259 
 ZAR  HE ES   1    826 42.91                             125    0.73 6  201 293 
 SML  HN ES   1    826 49.31                             119   -0.69 6  243 336 
                                                                                
