 2016 1022 0008 52.0 L   6.753 -73.109154.4  RSN  5 0.2 1.5LRSN                1
 GAP=238        0.57       3.4     3.7  5.3  0.1676E+01  0.7261E+00  0.2757E+01E
 Epicentro: LOS SANTOS - SANTANDER                                             3
 ACTION:UPD 16-11-09 19:21 OP:rebc STATUS:               ID:20161022000852 L   I
 OLDACT:UP  16-10-22 13:48 OP:and  STATUS:               ID:20161022000002d    3
 OLDACT:DUP 16-10-22 13:43 OP:and  STATUS:               ID:20161022000002d    3
 OLDACT:REG 16-10-22 12:43 OP:y    STATUS:               ID:20161022000000     3
 2016-10-22-0000-15M.COL___358                                                 6
 STAT SP IPHASW D HRMM SECON CODA AMPLIT PERI AZIMU VELO AIN AR TRES W  DIS CAZ7
 BRR  HZ EP        0 9 14.22                             152   -0.2510 77.3 300 
 BRR  HN ES        0 9 32.20                             152    0.2410 77.3 300 
 RUS  HZ EP        0 9 16.31                             147    0.0210 95.2 178 
 RUS  HE ES        0 9 35.04                             147   -0.1610 95.2 178 
 RUS  HZ I         0 9 36.13         2.0 0.24            145           95.2 178 
 PTB  HZ EP   2    0 9 20.31                             133    0.31 5  151 261 
 PTB  HN ES        0 9 41.56                             133   -0.25 9  151 261 
 PTB  HZ I         0 9 42.09         4.0 0.22            133            151 261 
 SPBC HZ EP        0 9 21.32                             131    0.22 9  162 221 
 SPBC HE ES        0 9 44.03                             131    0.28 9  162 221 
 SPBC HZ I         0 9 48.27         7.1 0.10            130            162 221 
 GUY2CHZ EP   4    0 9 37.78                             114    1.67 0  302 236 
 GUY2CHE ES        010 10.26                             114   -0.22 7  302 236 
 GUY2CHZ I         010 18.78         2.3 0.34                           302 236 
                                                                                
