 2013  122 0241 10.5 L   6.787 -73.164144.4  RSN  6 0.2 1.6LRSN                1
 GAP=135        0.48       2.1     2.4  3.2 -0.4852E+00  0.9530E+00  0.1770E+01E
 Epicentro: LOS SANTOS - SANTANDER                                             3
 ACTION:UPD 13-02-15 09:15 OP:ep   STATUS:               ID:20130122024110 L   I
 2013-01-22-0238-48M.COL___181                                                 6
 STAT SP IPHASW D HRMM SECON CODA AMPLIT PERI AZIMU VELO AIN AR TRES W  DIS CAZ7
 BAR2 SZ ES        241 45.38                             171    0.2810 21.6 185 
 BAR2 SZ I         241 46.73         9.3 0.38            169           21.6 185 
 BRR  HZ EP        241 31.53                             153    0.0710 70.1 300 
 BRR  HN ES        241 47.86                             153    0.0710 70.1 300 
 BRR  HN I         241 49.67        12.2 0.28            152           70.1 300 
 PAM  SZ EP        241 32.82                             150    0.0910 79.8  40 
 PAM  SZ I         241 33.10         6.2 0.44            154           79.8  40 
 PAM  SN ES        241 49.93                             150   -0.1310 79.8  40 
 RUS  HZ EP        241 33.97                             144   -0.0710 99.3 175 
 RUS  HN ES        241 52.10                             144   -0.2910 99.3 175 
 RUS  HN I         241 54.47         2.6 0.28            144           99.3 175 
 PTB  HZ EP        241 37.02                             132   -0.14 9  145 259 
 PTB  HN ES        241 57.81                             132   -0.14 9  145 259 
 PTB  HN I         242  3.58        10.3 0.28            132            145 259 
 CHI  HZ EP        241 48.04                             117    0.11 8  247 195 
 CHI  HN ES        242 17.36                             117    0.25 8  247 195 
 CHI  HN I         242 19.89         3.5 0.28            118            247 195 
                                                                                
