 2010 1222 0637  9.4 L   7.291 -73.462101.9  RSN  7 0.4 1.9LRSN                1
 GAP=149        0.89       3.6    13.0 13.2 -0.6383E+01  0.1003E+03  0.2701E+01E
 Epicentro: SABANA DE TORRES - SANTANDER                                       3
 ACTION:UP  11-01-14 15:26 OP:pat  STATUS:               ID:20101222063709 L   I
 2010-12-22-0633-03S.COL___134                                                 6
 STAT SP IPHASW D HRMM SECON CODA AMPLIT PERI AZIMU VELO SNR AR TRES W  DIS CAZ7
 BTL  SZ EP        637 24.77                             153     0.010   46 152 
 BAR2 SZ IP        637 27.38                             137     0.010   83 158 
 BAR2 SZ ES   1    637 41.51                             137     0.2 7   83 158 
 BAR2 SZ I         637 42.96        35.2 0.43                            83 158 
 GRA  SZ EP   1    637 28.97                             132     0.5 7   98  48 
 GRA  SZ ES   1    637 43.49                             132     0.1 7   98  48 
 GRA  SZ I         637 45.31        13.1 0.19                            98  48 
 OCA  SZ EP        637 29.14                             130    -0.110  106   9 
 OCA  SZ ES   1    637 44.36                             130    -0.3 7  106   9 
 OCA  SZ I         637 46.94        33.8 0.27                           106   9 
 RUS  HZ EP   1    637 34.37                             117    -0.8 7  160 165 
 RUS  HZ I         637 36.25         9.0 0.11                           160 165 
 RUS  HE ES   2    637 54.88                             117    -0.4 5  160 165 
 NOR  SZ EP   2    637 45.08                             106     0.7 4  246 219 
 CHI  HZ EP   2    637 51.83                             102     1.1 4  296 186 
 CHI  HZ I         637 53.73         1.9 0.12                           296 186 
                                                                                
