 2014  322 0326 34.4 L   6.358 -73.501 56.0  RSN  4 0.3 1.3LRSN                1
 GAP=253        0.56       6.4    15.0 41.8 -0.8134E+02 -0.5462E+03  0.1708E+03E
 Epicentro: CONTRATACION - SANTANDER                                           3
 ACTION:UPD 14-04-09 23:19 OP:nd   STATUS:               ID:20140322032634 L   I
 OLDACT:REG 14-03-22 08:58 OP:mh   STATUS:               ID:20140322031819     3
 2014-03-22-0318-19M.COL___240                                                 6
 STAT SP IPHASW D HRMM SECON CODA AMPLIT PERI AZIMU VELO AIN AR TRES W  DIS CAZ7
 PTB  HZ EP        326 51.07                             105   -0.2510  108 281 
 PTB  HN ES   1 C  327  4.70                             105    0.20 7  108 281 
 PTB  HZ I         327  5.91         4.3 0.08             47            108 281 
 NOR  HN ES        327 19.01                              97   -0.02 9  175 240 
 NOR  HZ I         327 23.03         2.9 0.12             37            175 240 
 ZAR  HZ EP        327  2.04                              96    0.13 9  196 310 
 SML  HZ EP        327 12.28                              93    0.34 8  277 347 
 SML  HN ES   1    327 40.75                              93   -0.46 6  277 347 
 SML  HZ I         327 50.83         1.7 0.08             36            277 347 
                                                                                
