 2016  522 0206 22.3 L   6.776 -73.142146.3  RSN  7 0.4 1.6LRSN                1
 GAP=138        0.95       4.1     4.1  6.5 -0.9308E+00  0.5325E+01  0.2182E+01E
 Epicentro: LOS SANTOS - SANTANDER                                             3
 ACTION:UPD 16-08-18 17:48 OP:cam  STATUS:               ID:20160522020622 L   I
 OLDACT:UP  16-05-22 15:19 OP:mh   STATUS:               ID:20160522015743     3
 OLDACT:REG 16-05-22 13:01 OP:mh   STATUS:               ID:20160522015743     3
 2016-05-22-0157-43M.COL___298                                                 6
 STAT SP IPHASW D HRMM SECON CODA AMPLIT PERI AZIMU VELO AIN AR TRES W  DIS CAZ7
 BAR2 EZ EP        2 6 41.78                             172   -0.1310 20.8 192 
 BAR2 EZ ES        2 6 56.66                             172   -0.5710 20.8 192 
 BAR2 EZ I         2 6 58.74        10.9 0.29            171           20.8 192 
 BRR  HZ EP        2 6 43.55                             152   -0.0110 72.8 300 
 BRR  HN ES        2 7  0.90                             152    0.7310 72.8 300 
 PAM  EZ EP        2 6 44.80                             150    0.1610 79.2  38 
 PAM  EN ES        2 7  2.08                             150   -0.0210 79.2  38 
 PAM  EZ I         2 7  5.35         4.6 0.22            153           79.2  38 
 RUS  HZ EP        2 6 46.09                             145    0.2210 97.9 176 
 RUS  HE ES        2 7  4.24                             145   -0.0510 97.9 176 
 RUS  HZ I         2 7  6.18         3.4 0.12            147           97.9 176 
 PTB  HZ EP        2 6 48.84                             132   -0.42 9  148 260 
 PTB  HN ES        2 7  9.85                             132   -0.47 9  148 260 
 PTB  HZ I         2 7 12.59         4.3 0.26            132            148 260 
 SPBC HZ EP        2 6 50.65                             129    0.02 9  161 220 
 SPBC HN ES        2 7 13.35                             129    0.60 9  161 220 
 SPBC HZ I         2 7 17.70         7.3 0.29            131            161 220 
 ZAR  HN ES        2 7 20.22                             122   -0.10 8  205 293 
 ZAR  HZ I         2 7 27.18                             123            205 293 
                                                                                
