 2016  122 0653  3.5 L   6.680 -72.631  0.0  RSN 11 0.6 1.8LRSN                1
 GAP=161        1.33       3.7     4.7  5.5 -0.9543E+01  0.9807E+01 -0.5020E+01E
 Epicentro: CARCASI - SANTANDER                                                3
 ACTION:UPD 16-03-09 23:27 OP:cam  STATUS:               ID:20160122065303 L   I
 OLDACT:UP  16-01-22 19:59 OP:ar   STATUS:               ID:20160122064744     3
 OLDACT:REG 16-01-22 14:19 OP:ar   STATUS:               ID:20160122064744     3
 2016-01-22-0647-44M.COL___316                                                 6
 STAT SP IPHASW D HRMM SECON CODA AMPLIT PERI AZIMU VELO AIN AR TRES W  DIS CAZ7
 BAR2 EZ EP        653 14.22                              47   -0.0210 61.7 261 
 BAR2 EZ ES        653 22.89                              47    0.2710 61.7 261 
 BAR2 EZ I         653 23.88        17.5 0.41             47           61.7 261 
 PAM  EZ EP     C  653 16.09                              47   -0.1710 73.3 354 
 PAM  EE ES        653 25.95                              47   -0.2710 73.3 354 
 PAM  EZ I         653 27.02        26.3 0.14             47           73.3 354 
 RUS  HZ EP        653 19.23                              47   -1.1310  100 210 
 RUS  HN ES   4    653 31.34                              47   -2.19 0  100 210 
 RUS  HZ I         653 32.72        15.1 0.22             47            100 210 
 OCA  HZ EP   9    653 35.67                              37    2.54 0  188 336 
 OCA  HN ES        653 59.31                                    0.51 9  188 336 
 OCA  HZ I         654  5.15        27.7 0.46             37            188 336 
 SPBC HZ EP        653 34.78                              37    0.79 9  196 235 
 SPBC HN ES        653 57.75                              37   -0.03 9  196 235 
 SPBC HZ I         654  1.26        12.6 0.22             37            196 235 
 PTB  HZ EP   9    653 36.51                              37    1.79 0  202 266 
 PTB  HN ES        654  1.44                                    0.57 9  202 266 
 PTB  HZ I         654  3.55        16.1 0.40             37            202 266 
 CHI  HZ EP        653 42.70                              37    0.62 8  257 208 
 CHI  HN ES        654 12.13                              37   -0.05 8  257 208 
 CHI  HZ I         654 22.91         3.7 0.32             37            257 208 
 SOCV BZ EP        653 41.98                              37   -0.49 8  264  48 
 SOCV BE ES        654 13.97                              37    1.09 8  264  48 
 NOR  HN ES   4    654 19.21                              37    3.50 0  277 244 
 NOR  HZ I         654 21.94         6.7 0.24             37            277 244 
 HEL  HZ EP   2    653 51.27                              36    0.84 3  325 261 
 HEL  HN ES        654 26.40                              36   -0.65 7  325 261 
 HEL  HZ I         654 34.90         1.8 0.37             36            325 261 
 GUY2CHZ EP   4    653 55.82                              36    3.07 0  343 242 
 GUY2CHN ES        654 31.78                              36    0.60 7  343 242 
 GUY2CHZ I         654 41.78         2.7 0.46                           343 242 
                                                                                
