 2014  422 0310 22.5 L   6.647 -73.708 21.3  RSN  6 0.6 1.3LRSN                1
 GAP=127        1.45       6.0     3.7  8.6  0.4227E+01 -0.1003E+01 -0.3832E+02E
 Epicentro: EL CARMEN DE CHUCURI - SANTANDER                                   3
 ACTION:UPD 14-05-13 23:10 OP:nd   STATUS:               ID:20140422031022 L   I
 OLDACT:REG 14-04-22 13:24 OP:spq  STATUS:               ID:20140422030814     3
 2014-04-22-0308-14M.COL___236                                                 6
 STAT SP IPHASW D HRMM SECON CODA AMPLIT PERI AZIMU VELO AIN AR TRES W  DIS CAZ7
 PTB  HZ EP        310 35.24                             102   -0.8110 83.6 262 
 PTB  HE ES        310 47.28                             102    0.6510 83.6 262 
 PTB  HZ I         310 49.64         7.7 0.14            102           83.6 262 
 RUS  HZ EP        310 40.78                             100    0.5710  108 140 
 RUS  HE ES        310 53.77                             100   -0.2810  108 140 
 ZAR  HE ES        311  3.66                              56   -0.66 9  158 306 
 OCA  HN ES        311  9.90                              56    0.06 9  181  14 
 HEL  HZ EP        310 51.96                              56   -0.69 8  208 256 
 HEL  HE ES        311 16.84                              56    0.65 8  208 256 
 HEL  HZ I         311 18.58         2.5 0.20             56            208 256 
 SML  HE ES        311 23.58                              56    0.64 8  242 350 
                                                                                
