 2015  322 0001  6.3 L   6.810 -73.173146.9  RSN  9 0.6 1.9LRSN                1
 GAP= 69        1.40       4.8     5.2  7.9  0.1257E+01  0.4163E+01 -0.4746E+01E
 Epicentro: LOS SANTOS - SANTANDER                                             3
 ACTION:UPD 15-04-30 16:28 OP:nd   STATUS:               ID:20150322000106 L   I
 OLDACT:REG 15-03-22 12:34 OP:stll STATUS:               ID:20150322000004     3
 2015-03-22-0000-04M.COL___275                                                 6
 STAT SP IPHASW D HRMM SECON CODA AMPLIT PERI AZIMU VELO AIN AR TRES W  DIS CAZ7
 BAR2 EZ EP        0 1 26.30                             170    0.1710 24.1 183 
 BAR2 EZ ES        0 1 41.20                             170   -0.3510 24.1 183 
 BAR2 EZ I         0 1 42.70        22.2 0.20            172           24.1 183 
 BRR  HZ EP        0 1 28.06                             154    0.6210 68.1 299 
 BRR  HN ES        0 1 44.75                             154    0.8510 68.1 299 
 BRR  HZ I         0 1 49.03        13.0 0.64            150           68.1 299 
 PAM  SZ EP        0 1 29.17                             151    0.4210 78.5  42 
 PAM  SZ I         0 1 29.42        14.0 0.22            152           78.5  42 
 PAM  SN ES        0 1 46.17                             151   -0.0510 78.5  42 
 RUS  HZ EP        0 1 30.37                             144    0.0710  102 174 
 RUS  HN ES        0 1 48.25                             144   -0.7410  102 174 
 RUS  HZ I         0 1 50.03         7.7 0.32            147            102 174 
 PTB  HZ EP        0 1 32.95                             133   -0.21 9  145 258 
 PTB  HN ES        0 1 53.75                             133   -0.33 9  145 258 
 PTB  HZ I         0 1 58.48         6.7 0.36            132            145 258 
 TAM  HZ EP        0 1 34.63                             130    0.22 9  158 105 
 TAM  HZ I         0 1 34.85        14.8 0.36            134            158 105 
 SPBC HZ EP        0 1 35.18                             129    0.34 9  162 218 
 SPBC HN ES        0 1 56.93                             129   -0.13 9  162 218 
 SPBC HZ I         0 1 59.96        16.3 0.12            131            162 218 
 ZAR  HZ EP        0 1 38.07                             123   -0.47 9  201 292 
 ZAR  HN ES        0 2  4.41                             123    0.76 9  201 292 
 ZAR  HZ I         0 2 11.14         4.9 0.44            123            201 292 
 SML  HZ EP        0 1 42.66                             118   -0.13 8  241 336 
 SML  HN ES        0 2  9.61                             118   -1.61 8  241 336 
 SML  HZ I         0 2 20.08         7.4 0.10            118            241 336 
                                                                                
