 2017 1222 0336 57.2 L   6.754 -73.153140.7  RSN  4 0.2 1.1LRSN                1
 GAP=152        0.64       5.7     3.4  6.1 -0.6715E+01  0.7976E+01 -0.5498E+01E
 Epicentro: LOS SANTOS - SANTANDER                                             3
 ACTION:UPD 18-01-04 13:22 OP:rebc STATUS:               ID:20171222033657 L   I
 OLDACT:UP  17-12-22 15:16 OP:dani STATUS:               ID:20171222032333     3
 OLDACT:UP  17-12-22 15:12 OP:dani STATUS:               ID:20171222032333     3
 OLDACT:REG 17-12-22 12:52 OP:dani STATUS:               ID:20171222032333     3
 2017-12-22-0328-00M.COL___469                                                 6
 STAT SP IPHASW D HRMM SECON CODA AMPLIT PERI AZIMU VELO AIN AR TRES W  DIS CAZ7
 BAR2 EZ EP        337 16.52                             172    0.4310 18.1 190 
 BAR2 EZ ES        337 30.89                             172    0.0410 18.1 190 
 BAR2 EZ I         337 32.68         3.3 0.08            173           18.1 190 
 PAM  EZ EP        337 19.01                             148   -0.1210 81.9  38 
 PAM  EN ES        337 36.13                             148   -0.1310 81.9  38 
 PAM  EZ I         337 38.87         2.6 0.50            152           81.9  38 
 PTB  HZ EP        337 23.30                             131   -0.26 9  146 261 
 PTB  HN ES        337 43.94                             131   -0.21 9  146 261 
 PTB  HZ I         337 49.89         1.0 0.26            133            146 261 
 ZAR  HN ES        337 54.83                             121    0.27 8  205 294 
                                                                                
