 2017  722 0736 25.1 L   6.758 -73.203146.0  RSN  6 0.3 1.3LRSN                1
 GAP=228        0.66       5.0     4.6  5.0  0.1401E+02  0.3863E+01  0.8115E+00E
 Epicentro: ZAPATOCA - SANTANDER                                               3
 ACTION:UPD 17-08-30 15:35 OP:rebc STATUS:               ID:20170722073625 L   I
 OLDACT:UP  17-07-22 16:04 OP:dnl  STATUS:               ID:20170722072743     3
 OLDACT:REG 17-07-22 13:17 OP:dnl  STATUS:               ID:20170722072743     3
 2017-07-22-0728-00M.COL___380                                                 6
 STAT SP IPHASW D HRMM SECON CODA AMPLIT PERI AZIMU VELO AIN AR TRES W  DIS CAZ7
 BAR2 EZ EP        736 44.29                             173   -0.3710 18.5 173 
 BAR2 EZ ES        736 59.90                             173   -0.0310 18.5 173 
 BAR2 EZ I         737  0.99         4.3 0.40            168           18.5 173 
 BRR  HZ EP        736 46.06                             154   -0.0410 68.2 304 
 BRR  HE ES        737  2.88                             154    0.3910 68.2 304 
 BRR  HZ I         737  4.17         2.8 0.22            151           68.2 304 
 RUS  HZ EP        736 48.67                             145    0.0910 96.6 172 
 RUS  HN ES        737  7.03                             145    0.1210 96.6 172 
 RUS  HZ I         737  8.87         2.3 0.28            145           96.6 172 
 PTB  HZ EP        736 51.10                             134   -0.35 9  141 260 
 PTB  HN ES        737 11.93                             134   -0.07 9  141 260 
 PTB  HZ I         737 15.68         1.5 0.14            131            141 260 
 SPBC HZ EP   2    736 53.69                             131    0.79 5  156 218 
 SPBC HN ES   4    737 16.84                             131    2.25 0  156 218 
 SPBC HZ I         737 17.84         3.3 0.48            129            156 218 
 ZAR  HZ EP   2    736 57.66                             123    0.52 4  200 294 
 ZAR  HN ES        737 22.06                             123   -0.08 9  200 294 
 ZAR  HZ I         737 28.77         2.6 0.24            123            200 294 
                                                                                
