 2015  822 0354 37.1 L   6.787 -73.112144.0  RSN  6 0.2 1.4LRSN                1
 GAP=141        0.45       2.0     2.9  3.6 -0.1479E+01  0.1285E+01  0.6984E+00E
 Epicentro: LOS SANTOS - SANTANDER                                             3
 ACTION:UPD 15-09-15 23:04 OP:cam  STATUS:               ID:20150822035437 L   I
 OLDACT:DUP 15-08-22 16:33 OP:spq  STATUS:               ID:20150822034750d    3
 2015-08-22-0347-49M.COL___351                                                 6
 STAT SP IPHASW D HRMM SECON CODA AMPLIT PERI AZIMU VELO AIN AR TRES W  DIS CAZ7
 BAR2 EZ EP        354 56.31                             171   -0.1510 22.9 200 
 BAR2 EZ ES   1    355 11.29                             171   -0.31 7 22.9 200 
 BAR2 EZ I         355 12.65         3.6 0.20            171           22.9 200 
 BRR  HZ EP     C  354 58.10                             151   -0.1410 75.2 298 
 BRR  HN ES        355 14.95                             151    0.1810 75.2 298 
 BRR  HZ I         355 18.71         5.3 0.38            149           75.2 298 
 PAM  EZ EP        354 59.05                             151    0.0410 76.2  37 
 PAM  EN ES        355 16.14                             151    0.0110 76.2  37 
 PAM  EZ I         355 18.11         4.0 0.48            153           76.2  37 
 RUS  HZ EP   1    355  0.85                             144    0.34 7 99.0 178 
 RUS  HN ES   1    355 19.03                             144    0.22 7 99.0 178 
 RUS  HZ I         355 20.31         2.7 0.26            147           99.0 178 
 SPBC HZ EP        355  5.39                             128   -0.15 9  164 220 
 SPBC HE ES        355 27.77                             128    0.01 9  164 220 
 SPBC HZ I         355 29.51         4.4 0.10            130            164 220 
 SML  HE ES   1    355 42.72                             117    0.09 6  247 335 
 SML  HZ I         355 46.67         5.0 0.10            118            247 335 
                                                                                
