 2010  922 0331 43.9 L   6.854 -73.080144.3  RSN  5 0.2 1.6LRSN                1
 GAP=165        0.44       2.9     5.3  6.7 -0.5530E+01 -0.4931E+01  0.2026E+01E
 Epicentro: LOS SANTOS - SANTANDER                                             3
 ACTION:UP  11-02-18 11:04 OP:tino STATUS:               ID:20100922033143 L   I
 2010-09-22-0328-24S.COL___122                                                 6
 STAT SP IPHASW D HRMM SECON CODA AMPLIT PERI AZIMU VELO SNR AR TRES W  DIS CAZ7
 BRR  HZ EP   2    332  5.06                             151     0.0 5   75 292 
 BRR  HE ES   2    332 21.70                             151     0.1 5   75 292 
 BRR  HZ I         332 25.33         8.3 0.20                            75 292 
 RUS  HZ EP   1    332  7.59                             142    -0.3 8  106 180 
 RUS  HN ES   2    332 26.94                             142     0.3 5  106 180 
 RUS  HZ I         332 27.96         2.9 0.37                           106 180 
 GRA  SZ IP        332  8.48                             138     0.110  118  15 
 GRA  SZ ES   2    332 27.25                             138    -0.2 5  118  15 
 GRA  SZ I         332 28.78         8.9 0.39                           118  15 
 OCA  SZ EP   2    332 11.91                             130     0.3 5  155 350 
 OCA  SZ ES   2    332 32.91                             130    -0.3 5  155 350 
 OCA  SZ I         332 34.66         4.7 0.22                           155 350 
 NOR  SZ EP   2    332 20.53                             117     0.0 4  244 234 
 NOR  SN ES   2    332 49.22                             117     0.1 4  244 234 
                                                                                
