 2012 1222 0050 11.5 L   6.772 -73.156146.5  RSN  7 0.3 1.8LRSN                1
 GAP= 72        0.69       4.1     3.0  5.1  0.5792E-01 -0.8744E+00  0.4268E+01E
 Epicentro: LOS SANTOS - SANTANDER                                             3
 ACTION:UPD 13-01-04 14:29 OP:ep   STATUS:               ID:20121222005011 L   I
 2012-12-22-0050-00M.COL___243                                                 6
 STAT SP IPHASW D HRMM SECON CODA AMPLIT PERI AZIMU VELO AIN AR TRES W  DIS CAZ7
 BAR2 SZ EP        050 31.24                             172    0.0310 20.1 188 
 BAR2 SZ ES   1    050 46.34                             172   -0.21 7 20.1 188 
 BAR2 SZ I         050 49.52        19.0 0.19                          20.1 188 
 GIR2 SZ EP   1    050 31.21                             166   -0.18 7 34.2 353 
 BRR  HZ EP     C  050 33.27                             152    0.4610 71.8 301 
 BRR  HN ES        050 49.79                             152    0.3910 71.8 301 
 BRR  HZ I         050 55.94         9.1 0.27                          71.8 301 
 PAM  SZ EP        050 34.07                             150    0.0410 80.5  39 
 PAM  SZ I         050 34.26        12.3 0.20                          80.5  39 
 PAM  SN ES        050 51.22                             150   -0.3510 80.5  39 
 RUS  HZ EP        050 35.17                             145    0.0110 97.6 175 
 RUS  HN ES   1    050 53.80                             145    0.22 7 97.6 175 
 RUS  HN I         050 55.74        16.5 0.29                          97.6 175 
 PTB  HZ EP        050 38.05                             132   -0.38 9  146 260 
 PTB  HE ES   1    050 58.92                             132   -0.48 7  146 260 
 PTB  HZ I         051  5.13         8.6 0.26                           146 260 
 TAM  HZ EP        050 39.37                             131    0.06 9  155 104 
 TAM  HZ I         050 40.01         5.5 0.40                           155 104 
 TAM  HN ES   1    051  1.02                             131    0.05 7  155 104 
 MON  HZ EP   4    050 58.11                             109   -2.59 0  355 309 
                                                                                
