 2013  122 0834  5.2 L   6.760 -73.160139.7  RSN  4 0.5 1.4LRSN                1
 GAP=149        1.24      20.7     9.4 16.8 -0.1424E+03 -0.7073E+02  0.2346E+03E
 Epicentro: LOS SANTOS - SANTANDER                                             3
 ACTION:UPD 13-02-15 09:15 OP:ep   STATUS:               ID:20130122083405 L   I
 2013-01-22-0828-49M.COL___183                                                 6
 STAT SP IPHASW D HRMM SECON CODA AMPLIT PERI AZIMU VELO AIN AR TRES W  DIS CAZ7
 BAR2 SZ EP        834 24.50                             172    0.5310 18.7 187 
 BRR  HZ EP        834 25.96                             151    0.2510 72.0 302 
 BRR  HN ES        834 42.34                             151    0.6110 72.0 302 
 BRR  HN I         834 43.58         5.1 0.24            150           72.0 302 
 PAM  SZ EP        834 27.14                             148    0.1310 81.8  38 
 PAM  SN ES        834 43.38                             148   -0.6810 81.8  38 
 PTB  HZ EP        834 31.00                             131   -0.42 9  145 260 
 PTB  HN ES        834 51.36                             131   -0.54 9  145 260 
                                                                                
