 2010  222 0052 13.1 L   6.430 -73.456  1.1  RSN  4 0.2 1.4LRSN                1
 GAP=194        0.47       1.6     2.9  3.8  0.3186E+01  0.1493E+01 -0.1897E+00E
 Epicentro: CHIMA - SANTANDER                                                  3
 ACTION:UP  10-08-24 09:50 OP:vdl  STATUS:               ID:20100222005213 L   I
 2010-02-22-0051-39S.COL___094                                                 6
 STAT SP IPHASW D HRMM SECON CODA AMPLIT PERI AZIMU VELO SNR AR TRES W  DIS CAZ7
 BAR2 SZ IP        052 19.57                              47    -0.110   35  59 
 BAR2 SZ ES   2    052 24.71                              47     0.0 5   35  59 
 RUS  BZ IP        052 25.65                              47     0.110   72 145 
 RUS  BN ES        052 35.31                              47     0.010   72 145 
 RUS  BZ I         052 35.79         9.2 0.19                            72 145 
 BRR  HZ EP   2    052 26.34                              47     0.1 5   80 339 
 BRR  HE ES        052 36.26                              47    -0.210   80 339 
 BRR  HZ I         052 37.98        12.9 0.11                            80 339 
 OCA  SZ I         053  8.66         7.7 0.15                           201   4 
 OCA  SZ ES   2    053  8.78                              37     0.5 4  201   4 
                                                                                
