 2013  622 0204 11.5 L   6.807 -73.135144.3  RSN 11 0.5 1.9LRSN                1
 GAP=184        0.96       3.6     5.5  6.8 -0.1426E+01  0.7489E+01  0.5023E+01E
 Epicentro: LOS SANTOS - SANTANDER                                             3
 ACTION:UPD 14-01-08 09:56 OP:ep   STATUS:               ID:20130622020411 L   I
 OLDACT:REG 13-06-22 08:41 OP:carl STATUS:               ID:20130622015959     3
 2013-06-22-0159-59M.COL___267                                                 6
 STAT SP IPHASW D HRMM SECON CODA AMPLIT PERI AZIMU VELO AIN AR TRES W  DIS CAZ7
 BAR2 SZ IP     D  2 4 31.11                             170    0.1210 24.4 192 
 BAR2 SZ ES   1    2 4 46.03                             170   -0.15 7 24.4 192 
 BAR2 SZ I         2 4 47.47        16.5 0.14            167           24.4 192 
 GIR2 SZ EP        2 4 31.01                             167    0.0110 30.7 348 
 BRR  HZ IP     C  2 4 32.77                             152    0.2310 71.9 298 
 BRR  HN ES   1    2 4 49.49                             152    0.55 7 71.9 298 
 BRR  HZ I         2 4 52.82        16.0 0.30            148           71.9 298 
 RUS  HZ EP        2 4 35.15                             143   -0.0310  101 177 
 RUS  HE ES   1    2 4 53.37                             143   -0.26 7  101 177 
 RUS  HZ I         2 4 54.82         4.4 0.46            145            101 177 
 PTB  HZ EP        2 4 37.89                             131   -0.59 9  149 259 
 PTB  HN ES   1    2 4 58.69                             131   -0.83 7  149 259 
 PTB  HZ I         2 5  6.28         8.5 0.40            130            149 259 
 OCA  HZ EP   1    2 4 39.12                             129   -0.53 7  160 353 
 OCA  HE ES   1    2 5  2.26                             129    0.67 7  160 353 
 OCA  HZ I         2 5  3.95        12.5 0.22            131            160 353 
 NOR  HZ EP        2 4 47.49                             118    0.18 8  236 234 
 NOR  HE ES   1    2 5 14.74                             118   -0.50 6  236 234 
 NOR  HZ I         2 5 17.11         6.6 0.22            118            236 234 
 SML  HN ES   2    2 5 15.28                             117   -1.23 4  243 335 
 SML  HZ I         2 5 21.78        10.6 0.26            118            243 335 
 CHI  HZ EP        2 4 48.86                             117   -0.39 8  250 195 
 CHI  HN ES   1    2 5 19.40                             117    0.71 6  250 195 
 CHI  HZ I         2 5 22.53         4.2 0.36            118            250 195 
 HEL  HZ EP   1    2 4 52.92                             114    1.12 6  273 256 
 HEL  HE ES   1    2 5 23.72                             114    0.50 6  273 256 
 HEL  HZ I         2 5 29.65         3.9 0.52            115            273 256 
 PRA  HZ EP   1    2 5  5.28                             106    0.14 4  393 210 
 PRA  HE ES        2 5 47.40                             106    0.44 6  393 210 
 PRA  HZ I         2 5 52.01         5.4 0.70            107            393 210 
                                                                                
