 2017  622 0316 33.6 L   6.804 -73.153150.6  RSN 17 0.6 2.1LRSN                1
 GAP=101        1.20       4.5     3.3  7.4  0.2510E+01  0.3168E+01  0.6227E+01E
 Epicentro: LOS SANTOS - SANTANDER                                             3
 ACTION:UPD 17-09-14 16:54 OP:jn   STATUS:               ID:20170622031633 L   I
 OLDACT:REG 17-06-22 13:00 OP:lv   STATUS:               ID:20170622030737     3
 2017-06-22-0308-00M.COL___348                                                 6
 STAT SP IPHASW D HRMM SECON CODA AMPLIT PERI AZIMU VELO AIN AR TRES W  DIS CAZ7
 BRR  HZ IP     D  316 55.13                             154   -0.0610 70.2 299 
 BRR  HN ES        317 12.58                             154    0.5310 70.2 299 
 BRR  HZ I         317 15.55        24.1 0.15            153           70.2 299 
 PTB  HZ EP   9    317  0.00                             133   -0.87 0  147 259 
 PTB  HN ES        317 20.91                                   -0.38 9  147 259 
 PTB  HZ I         317 28.73         8.0 0.22            134            147 259 
 TAM  HZ EP        317  1.45                             131   -0.27 9  156 105 
 TAM  HN ES        317 23.45                             131   -0.23 9  156 105 
 SPBC HZ EP        317  2.15                             130   -0.27 9  163 219 
 SPBC HN ES        317 24.55                             130   -0.38 9  163 219 
 SPBC HZ I         317 26.98        49.2 0.06            131            163 219 
 YPLC HZ EP        317  3.42                             127   -0.38 9  178 151 
 YPLC HN ES        317 27.92                             127    0.55 9  178 151 
 ZAR  HZ EP        317  5.96                             123   -0.28 9  203 292 
 ZAR  HN ES        317 31.73                             123    0.02 9  203 292 
 ZAR  HZ I         317 37.26        14.4 0.18            125            203 292 
 TABC EZ EP   4    317 11.24                             120    1.64 0  230 210 
 TABC EZ ES   4    317 34.50                             120   -3.21 0  230 210 
 TABC EZ I         317 42.55        15.2 0.49            122            230 210 
 NOR  HZ EP        317  9.31                             119   -0.23 8  234 234 
 NOR  HN ES        317 37.70                             119    0.11 8  234 234 
 NOR  HZ I         317 43.63         8.1 0.13            121            234 234 
 CHI  HZ EP        317 11.68                             118    0.12 8  249 195 
 CHI  HN ES        317 40.49                             118   -0.70 8  249 195 
 CHI  HZ I         317 45.69         5.1 0.18            120            249 195 
 ROSC BZ EP   4    317 10.54                             118   -1.41 0  253 211 
 ROSC BN ES   4    317 44.18                             118    2.30 0  253 211 
 HEL  HZ EP   4    317 15.31                             116    1.36 0  271 256 
 HEL  HN ES        317 46.07                             116    0.62 8  271 256 
 HEL  HZ I         317 51.28         7.7 0.23            117            271 256 
 GUY2CHZ EP   4    317 18.38                             113    1.02 0  301 235 
 GUY2CHZ EPg       317 19.22                             113    1.87 7  301 235 
 GUY2CHN ES        317 51.44                             113   -0.07 7  301 235 
 GUY2CHZ I         318  0.44         5.9 0.18                           301 235 
 PTGC HZ EP   4    317 16.06                             112   -1.67 0  309 159 
 PTGC HN ES   4    317 49.78                             112   -2.39 0  309 159 
 CBOC HZ EP        317 21.45                             111    0.84 7  333 252 
 CBOC HN ES        317 56.23                             111   -1.07 7  333 252 
 ORTC HZ EP        317 27.91                             107    0.27 6  395 216 
 ORTC HN ES        318 10.11                             107    0.30 6  395 216 
 ORTC HZ I         318 14.52         3.0 0.28            109            395 216 
 APAC HN ES        318  9.18                             107   -0.95 6  397 288 
 PAL  HZ EP        317 28.64                             107   -0.19 6  405 239 
 PAL  HN ES   4    318  7.37                             107   -4.57 0  405 239 
 SJC  HZ EP   4    317 27.36                             106   -1.84 0  408 327 
 SJC  HN ES   4    318  9.45                             106   -3.13 0  408 327 
 SJC  HZ I         318 15.62         2.3 0.30            108            408 327 
 CRJC HZ EP   9    317 33.64                             104   -2.52 0  467   4 
 CRJC HN ES        318 21.76                                   -0.70 5  467   4 
 CRJC HZ I         318 25.87         5.1 0.13            106            467   4 
                                                                                
