 2010  922 0539 24.4 L   6.825 -73.147142.0  RSN 13 0.5 2.6LRSN                1
 GAP=158        1.03       4.3     7.1  7.5 -0.1252E+02  0.1129E+02 -0.2794E-01E
 Epicentro: LOS SANTOS - SANTANDER                                             3
 ACTION:UP  11-02-18 11:04 OP:tino STATUS:               ID:20100922053924 L   I
 2010-09-22-0537-51S.COL___122                                                 6
 STAT SP IPHASW D HRMM SECON CODA AMPLIT PERI AZIMU VELO SNR AR TRES W  DIS CAZ7
 BTL  SZ EP        539 43.58                             173     0.210   17 308 
 BAR2 SZ IP        539 43.36                             169    -0.210   26 189 
 BAR2 SZ ES   1    539 58.19                             169    -0.4 7   26 189 
 GIR2 SZ EP   2    539 43.29                             168    -0.2 5   28 350 
 BRR  HZ EP        539 44.94                             152    -0.110   70 297 
 BRR  HN ES   1    540  1.84                             152     0.7 7   70 297 
 BRR  HZ I         540  4.95        82.4 0.14                            70 297 
 RUS  HZ EP   1    539 47.66                             142    -0.3 7  103 176 
 RUS  HZ I         539 48.39        23.8 0.32                           103 176 
 RUS  HN ES   1    540  6.52                             142     0.2 7  103 176 
 GUE  SZ EP   2    539 48.81                             139     0.3 5  114  12 
 GRA  SZ IP        539 49.77                             137     0.710  123  18 
 GRA  SZ ES   1    540  8.52                             137     0.2 7  123  18 
 GRA  SZ I         540 11.78        95.4 0.33                           123  18 
 OCA  SZ EP        539 51.20                             129    -0.9 9  157 353 
 OCA  SZ ES   2    540 13.54                             129    -0.2 5  157 353 
 OCA  SZ I         540 18.05        84.2 0.23                           157 353 
 NOR  SZ EP   1    539 59.89                             118    -0.2 6  236 234 
 NOR  SN ES   1    540 27.09                             118    -0.8 6  236 234 
 CHI  HZ EP   1    540  2.04                             116    -0.1 6  251 195 
 CHI  HE ES   2    540 31.91                             116     0.3 4  251 195 
 CHI  HZ I         540 37.75        19.3 0.52                           251 195 
 HEL  HZ EP   2    540  5.15                             114     0.7 4  273 255 
 HEL  HN ES   2    540 35.57                             114    -0.1 4  273 255 
 HEL  HZ I         540 43.03        17.5 1.15                           273 255 
 RREF HZ EP   1    540 11.10                             110     0.6 5  323 229 
 RREF HN ES   2    540 47.48                             110     0.9 3  323 229 
 RREF HZ I         540 54.45        21.7 0.40                           323 229 
 TOL  SZ EP   1    540 13.21                             109     0.5 5  345 224 
                                                                                
