 2014 1022 0933 23.5 L   6.807 -73.163146.2  RSN 13 0.4 2.0LRSN                1
 GAP=134        1.10       2.8     4.3  5.9 -0.1987E+01  0.6892E+01 -0.1721E+00E
 Epicentro: LOS SANTOS - SANTANDER                                             3
 ACTION:UPD 14-11-29 23:54 OP:nd   STATUS:               ID:20141022093323 L   I
 OLDACT:UP  14-10-24 21:23 OP:cam  STATUS:               ID:20141022092744     3
 OLDACT:REG 14-10-23 19:46 OP:mh   STATUS:               ID:20141022092744     3
 2014-10-22-0927-44M.COL___274                                                 6
 STAT SP IPHASW D HRMM SECON CODA AMPLIT PERI AZIMU VELO AIN AR TRES W  DIS CAZ7
 BAR2 SZ EP        933 43.19                             170   -0.0010 23.8 185 
 BAR2 SZ ES        933 58.14                             170   -0.4110 23.8 185 
 BAR2 SZ I         934  0.27        15.3 0.30            169           23.8 185 
 BRR  HZ EP        933 44.93                             153    0.3510 69.2 299 
 BRR  HN ES        934  1.81                             153    0.7810 69.2 299 
 BRR  HZ I         934  5.99        13.4 0.26            150           69.2 299 
 PAM  SZ EP        933 46.14                             151    0.3410 78.0  41 
 PAM  SN ES        934  3.65                             151    0.4610 78.0  41 
 PAM  SZ I         934  5.42        19.9 0.44            155           78.0  41 
 RUS  HZ EP   1    933 47.00                             144   -0.36 7  101 175 
 RUS  HN ES        934  5.76                             144   -0.2110  101 175 
 RUS  HZ I         934  7.10        11.6 0.34            146            101 175 
 PTB  HZ EP        933 49.98                             132   -0.37 9  146 258 
 PTB  HN ES        934 10.76                             132   -0.53 9  146 258 
 PTB  HZ I         934 13.52         7.4 0.12            131            146 258 
 OCA  HZ EP        933 52.37                             130    0.62 9  159 354 
 OCA  HN ES        934 12.83                             130   -0.96 9  159 354 
 OCA  HZ I         934 18.52         9.2 0.30            131            159 354 
 SPBC HZ EP        933 52.29                             129    0.31 9  163 218 
 SPBC HN ES        934 14.03                             129   -0.16 9  163 218 
 SPBC HZ I         934 21.09        15.2 0.26            129            163 218 
 ZAR  HZ EP        933 55.79                             123    0.03 9  202 292 
 ZAR  HN ES        934 21.19                             123    0.26 9  202 292 
 ZAR  HZ I         934 27.55         6.2 0.22            123            202 292 
 SML  HZ EP        933 59.58                             118   -0.41 8  242 336 
 SML  HN ES        934 28.17                             118   -0.28 8  242 336 
 SML  HZ I         934 31.47        16.1 0.10            119            242 336 
 CHI  HZ EP        934  0.71                             117   -0.54 8  249 195 
 CHI  HE ES        934 30.86                             117    0.17 8  249 195 
 CHI  HZ I         934 37.04         4.8 0.32            119            249 195 
 URE  HZ I         934 45.35         4.9 0.20            114            282 292 
 GUY2CHZ EP   4    934  5.60                             112   -1.40 0  300 234 
 GUY2CHN ES        934 40.90                             112   -0.03 7  300 234 
 GUY2CHZ I         934 49.28         4.8 0.34                           300 234 
 TOL  SZ EP   4    934 13.30                             109    1.62 0  343 224 
 TOL  SN ES        934 50.00                             109    0.74 7  343 224 
 TOL  SZ I         934 57.74         9.4 0.48            110            343 224 
                                                                                
