 2010  522 0104 12.2 L   6.914 -73.194123.7  RSN  6 0.3 1.7LRSN                1
 GAP=152        0.50       5.6     7.4  9.5 -0.2400E+02  0.3518E+02 -0.2660E+02E
 Epicentro: BETULIA - SANTANDER                                                3
 ACTION:UP  10-08-24 10:06 OP:vdl  STATUS:               ID:20100522010412 L   I
 2010-05-22-0103-44S.COL___111                                                 6
 STAT SP IPHASW D HRMM SECON CODA AMPLIT PERI AZIMU VELO SNR AR TRES W  DIS CAZ7
 BAR2 SZ EP   2    1 4 28.84                             163    -0.7 5   36 178 
 BAR2 SZ ES   2    1 4 43.27                             163     0.2 5   36 178 
 BRI  SZ EP   2    1 4 33.52                             139     0.3 5   99  26 
 GUE  SZ EP   1    1 4 33.92                             137    -0.1 7  106  16 
 GRA  SZ EP   1    1 4 34.79                             134     0.2 7  116  22 
 GRA  SZ ES   2    1 4 52.02                             134    -0.1 5  116  22 
 RREF BE ES   2    1 5 33.98                             106     0.3 3  326 227 
 RREF BZ I         1 5 37.08         2.6 0.36                           326 227 
 MON  HE ES   2    1 5 35.31                             105    -0.1 3  341 307 
 MON  HZ I         1 5 50.15         1.5 0.37                           341 307 
                                                                                
