 2011 1022 0602 36.6 L   6.744 -73.145139.6  RSN 10 0.3 2.1LRSN                1
 GAP=139        0.50       3.0     3.4  4.4 -0.2173E+01  0.4702E+01  0.7908E-01E
 Epicentro: JORDAN - SANTANDER                                                 3
 ACTION:UPD 12-07-13 16:05 OP:ep   STATUS:               ID:20111022060236 L   I
 2011-10-22-0559-19S.COL___170                                                 6
 STAT SP IPHASW D HRMM SECON CODA AMPLIT PERI AZIMU VELO AIN AR TRES W  DIS CAZ7
 BAR2 SZ EP        6 2 55.44                             173    0.1110 17.2 194 
 BAR2 SZ ES   1    6 3  9.46                             173   -0.52 7 17.2 194 
 BAR2 SZ I         6 3 13.73        31.2 0.57                          17.2 194 
 GIR2 SZ EP   2    6 2 55.58                             164   -0.11 5 37.5 352 
 GIR2 SZ ES   2    6 3 11.14                             164    0.53 5 37.5 352 
 BRR  HZ IP     C  6 2 57.37                             150    0.1310 74.5 303 
 BRR  HE ES   2    6 3 13.82                             150    0.45 5 74.5 303 
 BRR  HZ I         6 3 15.59        39.7 0.16                          74.5 303 
 PAM  SZ IP        6 2 58.29                             148   -0.1410 82.2  37 
 PAM  SE ES   2    6 3 15.08                             148   -0.40 5 82.2  37 
 RUS  HZ EP   1    6 2 59.29                             144    0.04 7 94.3 176 
 RUS  HN ES   2    6 3 17.42                             144    0.46 5 94.3 176 
 RUS  HZ I         6 3 19.59         9.6 0.44                          94.3 176 
 OCA  SZ EP   2    6 3  4.73                             127   -0.27 5  166 353 
 OCA  SZ ES   2    6 3 27.08                             127   -0.10 5  166 353 
 OCA  SZ I         6 3 28.82        15.9 0.11                           166 353 
 ZAR  HZ EP   2    6 3  9.37                             120    0.50 4  207 294 
 ZAR  HN ES   2    6 3 34.16                             120    0.08 4  207 294 
 ZAR  HZ I         6 3 36.65        11.8 0.36                           207 294 
 NOR  SZ EP   2    6 3 11.73                             117    0.17 4  231 236 
 NOR  SN ES   2    6 3 38.91                             117    0.05 4  231 236 
 HEL  HZ EP   2    6 3 16.58                             113    0.27 4  271 257 
 HEL  HN ES   2    6 3 46.56                             113   -0.76 4  271 257 
 HEL  HZ I         6 3 55.83         5.5 0.29                           271 257 
 RREF HZ EP   2    6 3 22.01                             110    0.02 3  318 230 
 RREF HE ES   2    6 3 56.91                             110   -0.51 3  318 230 
 RREF HZ I         6 4  8.47         4.9 0.29                           318 230 
                                                                                
