 2014  922 0220 50.2 L   6.714 -73.488113.1  RSN  6 0.5 1.4LRSN                1
 GAP= 81        1.40       5.4     5.3  9.8 -0.6353E+01  0.4336E+01  0.7283E+01E
 Epicentro: EL CARMEN - SANTANDER                                              3
 ACTION:UPD 14-10-03 23:07 OP:nd   STATUS:               ID:20140922022050 L   I
 OLDACT:UP  14-09-22 13:33 OP:cam  STATUS:               ID:20140922022000     3
 OLDACT:REG 14-09-22 12:39 OP:cam  STATUS:               ID:20140922022000     3
 2014-09-22-0220-00M.COL___252                                                 6
 STAT SP IPHASW D HRMM SECON CODA AMPLIT PERI AZIMU VELO AIN AR TRES W  DIS CAZ7
 BAR2 SZ EP        221  6.78                             161    0.4110 36.4 112 
 BAR2 SZ ES        221 18.25                             161   -0.7110 36.4 112 
 BAR2 SZ I         221 20.05        15.1 0.20            161           36.4 112 
 BRR  HZ EP     D  221  7.13                             154    0.4810 50.0 330 
 BRR  HN ES        221 20.44                             154    0.9810 50.0 330 
 BRR  HZ I         221 21.15         8.5 0.30            158           50.0 330 
 RUS  HZ EP        221 11.21                             135    0.2310  101 154 
 RUS  HN ES        221 27.72                             135    0.5510  101 154 
 RUS  HZ I         221 29.59         2.1 0.26            136            101 154 
 PTB  HZ EP        221 10.90                             133   -0.0910  109 260 
 PTB  HN ES        221 26.45                             133   -0.7410  109 260 
 PTB  HZ I         221 27.24         5.2 0.12            135            109 260 
 PAM  SZ EP        221 11.64                             132   -0.2110  111  52 
 PAM  SN ES        221 28.06                             132   -0.6610  111  52 
 PAM  SZ I         221 28.97         3.8 0.20            135            111  52 
 SPBC HZ EP        221 13.28                             126   -0.1910  134 209 
 SPBC HN ES        221 31.48                             126   -0.1210  134 209 
 SPBC HZ I         221 34.64         3.3 0.34            128            134 209 
                                                                                
