 2014 1122 0223 26.9 L   6.822 -73.145148.0  RSN  6 0.5 1.3LRSN                1
 GAP=239        1.35       7.4     8.9  8.9  0.3691E+02  0.1471E+02  0.9298E+01E
 Epicentro: LOS SANTOS - SANTANDER                                             3
 ACTION:UPD 14-12-19 15:45 OP:nd   STATUS:               ID:20141122022326 L   I
 OLDACT:DUP 14-11-22 15:38 OP:fm   STATUS:               ID:20141122021741d    3
 2014-11-22-0217-40M.COL___300                                                 6
 STAT SP IPHASW D HRMM SECON CODA AMPLIT PERI AZIMU VELO AIN AR TRES W  DIS CAZ7
 BAR2 SZ EP        223 46.14                             170   -0.7310 25.7 189 
 BAR2 SZ ES        224  1.94                             170   -0.4910 25.7 189 
 BAR2 SZ I         224  3.02         6.6 0.76            164           25.7 189 
 BRR  HZ EP        223 47.64                             153   -0.6210 70.2 297 
 BRR  HN ES        224  5.64                             153    0.7410 70.2 297 
 BRR  HZ I         224  7.86         4.0 0.60            150           70.2 297 
 RUS  HZ EP        223 51.65                             144    0.5810  103 176 
 RUS  HN ES        224 10.48                             144    0.5910  103 176 
 RUS  HZ I         224 11.85         1.0 0.18            142            103 176 
 PTB  HZ EP        223 53.96                             132   -0.17 9  148 258 
 PTB  HN ES        224 14.79                             132   -0.55 9  148 258 
 PTB  HZ I         224 18.64         2.3 0.20            130            148 258 
 ZAR  HZ EP        224  0.12                             123    0.68 9  203 292 
 ZAR  HE ES        224 25.00                             123    0.21 9  203 292 
 ZAR  HZ I         224 30.92         2.0 0.26            122            203 292 
 CHI  HZ EP        224  4.97                             117   -0.03 8  251 195 
 CHI  HN ES        224 34.58                             117   -0.12 8  251 195 
 CHI  HZ I         224 40.41         1.3 0.42            117            251 195 
                                                                                
