 2014 1022 0206 10.2 L   6.793 -73.163143.7  RSN  8 0.4 1.6LRSN                1
 GAP=135        0.82       2.7     4.6  7.0 -0.1212E+01  0.1197E+02  0.8462E+00E
 Epicentro: LOS SANTOS - SANTANDER                                             3
 ACTION:UPD 14-11-29 23:54 OP:nd   STATUS:               ID:20141022020610 L   I
 OLDACT:DUP 14-10-24 11:51 OP:fm   STATUS:               ID:20141022015747d    3
 2014-10-22-0157-46M.COL___280                                                 6
 STAT SP IPHASW D HRMM SECON CODA AMPLIT PERI AZIMU VELO AIN AR TRES W  DIS CAZ7
 PAM  SZ EP        2 6 32.46                             150    0.1710 79.2  40 
 PAM  SN ES        2 6 49.72                             150    0.1910 79.2  40 
 PAM  SZ I         2 6 52.41         6.8 0.66            152           79.2  40 
 RUS  HZ EP   1    2 6 34.08                             144    0.39 7100.0 175 
 RUS  HN ES        2 6 51.73                             144   -0.2910100.0 175 
 RUS  HZ I         2 6 53.50         4.4 0.32            144          100.0 175 
 PTB  HZ EP        2 6 36.67                             132   -0.13 9  146 259 
 PTB  HN ES        2 6 57.84                             132    0.29 9  146 259 
 PTB  HZ I         2 6 59.82         4.6 0.24            133            146 259 
 OCA  HN ES   1    2 7  0.37                             129   -0.01 7  161 354 
 OCA  HZ I         2 7  4.66         5.9 0.22            130            161 354 
 SML  HZ EP   1    2 6 46.53                             117   -0.16 6  244 336 
 SML  HN ES        2 7 14.59                             117   -0.56 8  244 336 
 SML  HZ I         2 7 16.74         6.1 0.10            118            244 336 
 CHI  HZ EP        2 6 47.36                             117   -0.27 8  247 195 
 CHI  HN ES        2 7 16.53                             117   -0.31 8  247 195 
 CHI  HZ I         2 7 25.33         2.7 0.40            118            247 195 
 GUY2CHZ EP   1    2 6 54.71                             112    1.24 5  299 235 
 GUY2CHN ES   4    2 7 29.62                             112    2.39 0  299 235 
 GUY2CHZ I         2 7 34.66         2.6 0.34                           299 235 
 MON  HZ EP   4    2 7  3.18                             108    4.19 0  353 309 
 MON  HN ES   4    2 7 34.54                             108   -2.51 0  353 309 
 MON  HZ I         2 7 39.43         0.8 0.20            109            353 309 
 SJC  HZ EP   4    2 7  3.85                             105   -1.78 0  409 327 
 SJC  HN ES   4    2 7 46.81                             105   -2.07 0  409 327 
                                                                                
