 2017 1122 1206 11.9 L   6.679 -73.181158.2  RSN  4 0.4 1.5LRSN                1
 GAP=269        1.02       9.8     6.3  8.5  0.2771E+01  0.1817E+02 -0.1863E+01E
 Epicentro: VILLANUEVA - SANTANDER                                             3
 ACTION:UPD 17-12-12 19:58 OP:rebc STATUS:               ID:20171122120611 L   I
 OLDACT:REG 17-11-22 21:22 OP:dhb  STATUS:               ID:20171122115744     3
 2017-11-22-1158-00M.COL___489                                                 6
 STAT SP IPHASW D HRMM SECON CODA AMPLIT PERI AZIMU VELO AIN AR TRES W  DIS CAZ7
 BAR2 EZ EP       12 6 32.65                             176   -0.1810 9.59 181 
 BAR2 EZ ES       12 6 48.64                             176   -0.5210 9.59 181 
 BAR2 EZ I        12 6 48.87         7.8 0.28            165           9.59 181 
 RUS  HZ EP       12 6 36.52                             150    0.4910 87.6 173 
 RUS  HN ES       12 6 55.06                             150    0.1910 87.6 173 
 RUS  HZ I        12 6 58.59         3.3 0.30            144           87.6 173 
 PTB  HZ EP       12 6 39.56                             136    0.17 9  142 264 
 PTB  HE ES       12 7  1.40                             136    0.56 9  142 264 
 PTB  HZ I        12 7  6.34         2.8 0.30            132            142 264 
 NOR  HZ EP       12 6 46.72                             122   -0.53 8  224 237 
 NOR  HN ES       12 7 14.43                             122   -0.40 8  224 237 
 NOR  HZ I        12 7 24.41         4.2 0.10            120            224 237 
                                                                                
