 2012 1022 1637 51.5 L   6.782 -73.127148.8  RSN  5 0.1 1.6LRSN                1
 GAP=140        0.37       2.8     3.2  4.7  0.1108E+01  0.1615E+01  0.3940E+00E
 Epicentro: LOS SANTOS - SANTANDER                                             3
 ACTION:UPD 12-11-22 17:05 OP:ep   STATUS:               ID:20121022163751 L   I
 2012-10-22-1630-00M.COL___231                                                 6
 STAT SP IPHASW D HRMM SECON CODA AMPLIT PERI AZIMU VELO AIN AR TRES W  DIS CAZ7
 BAR2 SZ EP       1638 11.26                             171   -0.1710 21.8 196 
 BAR2 SZ I        1638 28.21         9.5 0.20                          21.8 196 
 BRR  HZ EP       1638 13.27                             152    0.1710 74.0 299 
 BRR  HE ES   1   1638 30.04                             152    0.06 7 74.0 299 
 BRR  HZ I        1638 36.37        15.7 0.37                          74.0 299 
 PAM  SZ EP   1   1638 14.04                             151    0.02 7 77.7  37 
 PAM  SN ES   1   1638 31.59                             151   -0.03 7 77.7  37 
 PAM  SZ I        1638 33.47         4.7 0.58                          77.7  37 
 RUS  HZ EP   2   1638 15.46                             145    0.10 5 98.4 177 
 RUS  HE ES   1   1638 34.03                             145    0.02 7 98.4 177 
 RUS  HE I        1638 35.17         4.7 0.20                          98.4 177 
 ZAR  HE ES   2   1638 49.69                             123   -0.37 4  207 292 
 ZAR  HZ I        1638 55.39         4.8 0.24                           207 292 
                                                                                
