 2013  522 1523 50.6 L   6.789 -73.144151.1  RSN  6 0.5 1.8LRSN                1
 GAP=137        1.27       6.8     6.7  8.5 -0.4565E+01  0.7159E+01  0.8611E+01E
 Epicentro: LOS SANTOS - SANTANDER                                             3
 ACTION:UPD 13-06-20 09:52 OP:ep   STATUS:               ID:20130522152350 L   I
 2013-05-22-1518-50M.COL___215                                                 6
 STAT SP IPHASW D HRMM SECON CODA AMPLIT PERI AZIMU VELO AIN AR TRES W  DIS CAZ7
 BAR2 SZ EP       1524 10.78                             171   -0.0310 22.1 191 
 BAR2 SZ ES       1524 26.52                             171   -0.0910 22.1 191 
 BAR2 SZ I        1524 28.46         8.3 0.26            171           22.1 191 
 GIR2 SZ ES       1524 27.08                             167    0.3110 32.5 350 
 BRR  HZ EP       1524 12.82                             153    0.4910 71.9 299 
 BRR  HN ES       1524 30.00                             153    0.6910 71.9 299 
 BRR  HN I        1524 30.54        17.3 0.26            154           71.9 299 
 PAM  SZ EP       1524 13.72                             151    0.3210 78.3  39 
 PAM  SN ES       1524 30.27                             151   -0.9410 78.3  39 
 PAM  SN I        1524 31.80        10.6 0.20            153           78.3  39 
 RUS  HZ EP       1524 14.74                             145   -0.0110 99.3 176 
 RUS  HN ES       1524 33.85                             145    0.2310 99.3 176 
 RUS  HN I        1524 34.12         6.4 0.30            146           99.3 176 
 PTB  HZ EP       1524 17.65                             133   -0.31 9  148 259 
 PTB  HN ES       1524 38.55                             133   -0.79 9  148 259 
 PTB  HN I        1524 40.18         7.8 0.22            134            148 259 
                                                                                
