 2013  222 1545 20.2 L   6.745 -73.145153.1  RSN  5 0.2 1.9LRSN                1
 GAP=233        0.46       5.3     6.7  4.6  0.2886E+02  0.4532E+00 -0.6990E+00E
 Epicentro: JORDAN - SANTANDER                                                 3
 ACTION:UPD 13-03-12 09:35 OP:ep   STATUS:               ID:20130222154520 L   I
 2013-02-22-1540-00M.COL___226                                                 6
 STAT SP IPHASW D HRMM SECON CODA AMPLIT PERI AZIMU VELO AIN AR TRES W  DIS CAZ7
 BAR2 SZ EP   1   1545 40.43                             173   -0.14 7 17.4 194 
 BAR2 SZ ES   2   1545 56.28                             173   -0.22 5 17.4 194 
 BAR2 SZ I        1546  3.99        13.0 0.60            169           17.4 194 
 BRR  HZ EP       1545 42.26                             153   -0.0210 74.3 303 
 BRR  HN ES       1545 59.58                             153    0.0510 74.3 303 
 BRR  HN I        1546 17.66        15.0 0.34            151           74.3 303 
 RUS  HZ EP       1545 44.48                             147    0.2510 94.5 176 
 RUS  HN ES       1546  2.96                             147   -0.0410 94.5 176 
 RUS  HZ E        1546 20.07                                           94.5 176 
 PTB  HZ EP   1   1545 47.26                             134   -0.38 7  147 261 
 ZAR  HN ES   1   1546 19.40                             124    0.19 6  206 294 
 ZAR  HN I        1546 24.70         8.7 0.32            130            206 294 
                                                                                
