 2010  222 1906 40.1 L   6.791 -73.043148.9  RSN  8 0.3 2.4LRSN                1
 GAP=193        0.53       3.0     7.2  5.5 -0.1782E+01  0.8492E+01  0.3490E+01E
 Epicentro: LOS SANTOS - SANTANDER                                             3
 ACTION:UP  10-08-24 09:50 OP:vdl  STATUS:               ID:20100222190640 L   I
 2010-02-22-1903-10S.COL___094                                                 6
 STAT SP IPHASW D HRMM SECON CODA AMPLIT PERI AZIMU VELO SNR AR TRES W  DIS CAZ7
 BAR2 SZ EP   1   19 7  0.36                             169     0.1 7   27 215 
 BAR2 SZ ES   2   19 7 15.33                             169    -0.6 5   27 215 
 BRR  HZ IP       19 7  2.27                             150     0.010   82 295 
 BRR  HZ I        19 7  2.55        96.5 0.16                            82 295 
 BRR  HE ES   2   19 7 19.84                             150     0.3 5   82 295 
 RUS  BZ EP   1   19 7  4.25                             145     0.1 7   99 183 
 RUS  BE ES   2   19 7 23.01                             145     0.2 5   99 183 
 RUS  BZ I        19 7 24.72        20.1 0.41                            99 183 
 OCA  SZ EP   1   19 7  8.54                             130    -0.4 7  163 349 
 OCA  SZ ES   2   19 7 31.77                             130     0.3 5  163 349 
 CHI  HZ EP   1   19 7 18.42                             118     0.2 6  251 198 
 CHI  HE ES   2   19 7 47.93                             118    -0.1 4  251 198 
 CHI  HZ I        19 7 53.59         9.0 0.34                           251 198 
 RREF BZ EP   1   19 7 27.18                             111    -0.2 5  330 231 
 RREF BN ES   2   19 8  3.94                             111    -0.2 3  330 231 
 RREF BZ I        19 8  9.79        12.2 0.60                           330 231 
 TOL  SZ EP   1   19 7 29.93                             109     0.6 5  351 226 
 PRA  HZ EP   1   19 7 34.00                             107    -0.3 4  397 211 
 PRA  HN ES   2   19 8 15.98                             107    -0.6 3  397 211 
 PRA  HZ I        19 8 20.12         7.7 0.38                           397 211 
                                                                                
