 2016  522 1005 24.3 L   6.444 -73.954 30.3  RSN  7 0.3 1.6LRSN                1
 GAP= 72        0.93       2.2     2.1  4.5  0.2106E+00 -0.4797E+01  0.5166E+00E
 Epicentro: CIMITARRA - SANTANDER                                              3
 ACTION:UPD 16-08-18 17:48 OP:cam  STATUS:               ID:20160522100524 L   I
 OLDACT:REG 16-05-22 19:39 OP:drio STATUS:               ID:20160522095748     3
 2016-05-22-0957-48M.COL___286                                                 6
 STAT SP IPHASW D HRMM SECON CODA AMPLIT PERI AZIMU VELO AIN AR TRES W  DIS CAZ7
 PTB  HZ EP       10 5 34.05                             111   -0.2310 56.5 281 
 PTB  HE ES       10 5 42.16                             111    0.0810 56.5 281 
 PTB  HZ I        10 5 42.87        72.9 0.22            110           56.5 281 
 BRR  HZ EP       10 5 37.25                              61    0.1410 78.0  20 
 BRR  HE ES       10 5 47.94                              61    0.8110 78.0  20 
 BRR  HZ I        10 5 49.90        14.7 0.26             61           78.0  20 
 BAR2 EZ EP       10 5 38.39                              61   -0.1210 86.9  79 
 BAR2 EZ ES       10 5 48.93                              61   -0.6910 86.9  79 
 BAR2 EZ I        10 5 50.75         8.3 0.16             61           86.9  79 
 SPBC HZ EP       10 5 38.78                              61    0.2410 88.5 189 
 SPBC HN ES       10 5 49.74                              61    0.0710 88.5 189 
 SPBC HZ I        10 5 50.30        16.1 0.16             61           88.5 189 
 RUS  HZ EP       10 5 42.50                              61    0.2910  114 122 
 RUS  HE ES       10 5 56.18                              61   -0.0310  114 122 
 RUS  HZ I        10 5 57.15        15.1 0.26             61            114 122 
 ZAR  HZ EP       10 5 46.28                              61   -0.22 9  153 319 
 ZAR  HE ES       10 6  3.34                              61   -0.49 9  153 319 
 HEL  HZ EP       10 5 49.93                              61    0.06 9  176 261 
 HEL  HE ES       10 6  9.84                              61    0.01 9  176 261 
 HEL  HZ I        10 6 10.13         5.8 0.22             61            176 261 
                                                                                
