 2012  422 1524 20.3 L   6.768 -73.158142.9  RSN  5 0.1 1.7LRSN                1
 GAP=136        0.38       3.3     3.4  4.4  0.5475E+01 -0.3767E+01 -0.5381E+01E
 Epicentro: LOS SANTOS - SANTANDER                                             3
 ACTION:UPD 12-07-05 11:55 OP:tino STATUS:               ID:20120422152420 L   I
 2012-04-22-1520-00M.COL___186                                                 6
 STAT SP IPHASW D HRMM SECON CODA AMPLIT PERI AZIMU VELO AIN AR TRES W  DIS CAZ7
 BAR2 SZ EP   1   1524 39.62                             172     0.1 7   20 188 
 BAR2 SZ ES   1   1524 54.32                             172    -0.2 7   20 188 
 BAR2 SZ I        1525  2.36        13.2 0.65                            20 188 
 BRR  HZ EP       1524 41.08                             152    -0.110   72 301 
 BRR  HZ I        1524 41.56        19.3 0.13                            72 301 
 BRR  HN ES   1   1524 57.64                             152     0.2 7   72 301 
 PAM  SZ EP       1524 42.37                             149     0.010   81  39 
 RUS  HZ EP   1   1524 43.58                             144     0.1 7   97 175 
 RUS  HN ES   1   1525  1.57                             144     0.0 7   97 175 
 RUS  HZ I        1525  3.05         3.8 0.26                            97 175 
 ZAR  HN ES   1   1525 17.60                             122    -0.1 6  204 293 
 ZAR  HZ I        1525 22.73         6.4 0.58                           204 293 
                                                                                
