 2017  622 1114 47.0 L   6.788 -73.196140.8  RSN  5 0.4 1.7LRSN                1
 GAP=276        1.00       5.4     8.9  9.0 -0.4953E+01 -0.1680E+02  0.1126E+02E
 Epicentro: ZAPATOCA - SANTANDER                                               3
 ACTION:UPD 17-09-14 16:54 OP:jn   STATUS:               ID:20170622111447 L   I
 OLDACT:DUP 17-06-22 18:24 OP:dhb  STATUS:               ID:20170622110730d    3
 2017-06-22-1108-00M.COL___345                                                 6
 STAT SP IPHASW D HRMM SECON CODA AMPLIT PERI AZIMU VELO AIN AR TRES W  DIS CAZ7
 BRR  HZ EP       1115  7.05                             153   -0.3610 67.1 302 
 BRR  HN ES       1115 23.65                             153    0.3510 67.1 302 
 BRR  HZ I        1115 25.43         8.7 0.17            151           67.1 302 
 PTB  HZ EP       1115 13.01                             132   -0.06 9  142 259 
 PTB  HN ES       1115 32.73                             132   -0.65 9  142 259 
 PTB  HZ I        1115 35.38         7.4 0.14            131            142 259 
 SPBC HZ EP       1115 14.81                             129    0.09 9  159 218 
 SPBC HN ES       1115 36.34                             129    0.03 9  159 218 
 SPBC HZ I        1115 43.01         7.4 0.10            129            159 218 
 ZAR  HZ EP       1115 18.20                             122   -0.48 9  199 293 
 ZAR  HN ES       1115 43.89                             122    0.53 9  199 293 
 ZAR  HZ I        1115 49.60         6.5 0.14            123            199 293 
 NOR  HZ EP       1115 22.65                             118    0.75 8  229 234 
 NOR  HE ES       1115 49.10                             118    0.00 8  229 234 
 NOR  HZ I        1115 51.16         2.7 0.14            119            229 234 
                                                                                
