 2013 1222 1846 50.2 L   6.825 -73.193133.9  RSN 14 0.5 2.1LRSN                1
 GAP=129        1.20       3.4     4.4  8.7 -0.2908E+01  0.1350E+02  0.1667E+01E
 Epicentro: ZAPATOCA - SANTANDER                                               3
 ACTION:UPD 14-01-13 10:20 OP:ep   STATUS:               ID:20131222184650 L   I
 OLDACT:REG 13-12-22 18:42 OP:nd   STATUS:               ID:20131222184000     3
 2013-12-22-1840-00M.COL___285                                                 6
 STAT SP IPHASW D HRMM SECON CODA AMPLIT PERI AZIMU VELO AIN AR TRES W  DIS CAZ7
 BAR2 SZ EP       1847  8.56                             169    0.0810 25.8 177 
 BAR2 SZ I        1847 27.56        33.5 0.20            169           25.8 177 
 PAM  SZ EP       1847 11.54                             148    0.2610 78.8  44 
 PAM  SN ES       1847 27.71                             148    0.0010 78.8  44 
 PAM  SZ I        1847 31.74        13.8 0.24            153           78.8  44 
 RUS  HZ EP       1847 12.77                             140   -0.3110  104 173 
 RUS  HN ES       1847 30.72                             140   -0.1810  104 173 
 RUS  HZ I        1847 33.81        15.5 0.30            143            104 173 
 PTB  HZ EP       1847 15.60                             130   -0.22 9  143 257 
 PTB  HN ES       1847 35.80                             130    0.02 9  143 257 
 PTB  HZ I        1847 38.88        28.6 0.14            132            143 257 
 OCA  HZ EP       1847 16.83                             127   -0.49 9  157 355 
 OCA  HN ES       1847 38.51                             127    0.06 9  157 355 
 OCA  HZ I        1847 43.50        17.4 0.28            131            157 355 
 SPBC HZ EP       1847 17.55                             126   -0.18 9  162 217 
 SPBC HN ES       1847 39.49                             126    0.30 9  162 217 
 SPBC HZ I        1847 46.87        18.7 0.20            129            162 217 
 ZAR  HZ EP       1847 21.14                             120   -0.16 9  198 292 
 ZAR  HN ES       1847 46.19                             120    0.65 9  198 292 
 ZAR  HZ I        1847 53.94        12.4 0.18            123            198 292 
 NOR  HZ EP       1847 25.14                             116    0.13 8  232 233 
 NOR  HN ES       1847 52.21                             116    0.08 8  232 233 
 NOR  HZ I        1848  0.84         8.7 0.24            119            232 233 
 SML  HZ EP   4   1847 24.79                             115   -0.91 0  239 336 
 SML  HN ES   4   1847 51.99                             115   -1.37 0  239 336 
 SML  HZ I        1847 59.60        15.5 0.26            119            239 336 
 CHI  HZ EP       1847 27.31                             114   -0.13 8  250 194 
 CHI  HN ES       1847 56.97                             114    0.50 8  250 194 
 CHI  HZ I        1848  4.30         4.9 0.28            117            250 194 
 HEL  HZ EP       1847 30.73                             113    1.37 8  268 255 
 HEL  HN ES       1847 58.28                             113   -1.61 8  268 255 
 HEL  HZ I        1848  7.48         9.5 0.32            115            268 255 
 GUY2CHZ EP   4   1847 33.02                             110    0.01 0  299 234 
 GUY2CHN ES   4   1848  9.61                             110    3.24 0  299 234 
 GUY2CHZ I        1848 16.91         6.4 0.60                           299 234 
 RREF HZ EP   4   1847 36.60                             109    0.97 0  320 228 
 RREF HN ES   4   1848 12.85                             109    1.81 0  320 228 
 RREF HZ I        1848 18.97         6.8 0.32            111            320 228 
 SJC  HZ EP   4   1847 42.88                             104   -1.93 0  404 327 
 SJC  HN ES   4   1848 24.49                             104   -2.89 0  404 327 
 SJC  HZ I        1848 27.23         3.2 0.46            106            404 327 
                                                                                
