 2014  522 1956 25.3 L   6.779 -73.152147.9  RSN 10 0.4 2.2LRSN                1
 GAP= 71        0.93       3.4     4.0  5.8 -0.4068E+01  0.2136E+01  0.2761E+01E
 Epicentro: LOS SANTOS - SANTANDER                                             3
 ACTION:UPD 15-03-16 16:59 OP:nd   STATUS:               ID:20140522195625 L   I
 OLDACT:UP  14-05-23 00:24 OP:cam  STATUS:               ID:20140522194809     3
 OLDACT:REG 14-05-22 22:48 OP:cam  STATUS:               ID:20140522194809     3
 2014-05-22-1948-09M.COL___255                                                 6
 STAT SP IPHASW D HRMM SECON CODA AMPLIT PERI AZIMU VELO AIN AR TRES W  DIS CAZ7
 BAR2 SZ EP     C 1956 45.01                             172   -0.0810 21.0 189 
 BAR2 SZ ES       1957  0.46                             172   -0.1110 21.0 189 
 BAR2 SZ I        1957  0.96        66.3 0.28            172           21.0 189 
 BRR  HZ EP     D 1956 47.00                             153    0.3410 71.8 300 
 BRR  HN ES       1957  4.22                             153    0.8610 71.8 300 
 BRR  HZ I        1957  7.19        22.1 0.52            150           71.8 300 
 PAM  SZ EP     C 1956 48.18                             150    0.3610 79.5  39 
 PAM  SN ES       1957  5.34                             150   -0.0810 79.5  39 
 PAM  SZ I        1957  7.55        18.6 0.54            151           79.5  39 
 RUS  HZ EP       1956 48.89                             145   -0.1610 98.4 176 
 RUS  HE ES       1957  7.39                             145   -0.2310 98.4 176 
 RUS  HZ I        1957  8.14        17.4 0.24            147           98.4 176 
 PTB  HZ EP       1956 52.17                             133   -0.13 9  147 260 
 PTB  HN ES       1957 12.91                             133   -0.48 9  147 260 
 PTB  HZ I        1957 15.06        22.6 0.14            132            147 260 
 TAM  HZ EP   1   1956 53.26                             131    0.16 7  155 104 
 SPBC HZ EP       1956 53.81                             130    0.10 9  161 219 
 SPBC HN ES       1957 16.04                             130    0.13 9  161 219 
 SPBC HZ I        1957 19.10        14.0 0.26            130            161 219 
 OCA  HN ES       1957 15.55                             130   -0.75 9  162 353 
 NOR  HZ EP   1   1957  1.11                             119    0.20 6  233 235 
 NOR  HE ES       1957 28.58                             119   -0.14 8  233 235 
 NOR  HZ I        1957 33.76         9.7 0.32            119            233 235 
 SML  HZ EP   4   1957  2.04                             118   -0.15 0  246 336 
 SML  HN ES   4   1957 29.84                             118   -1.16 0  246 336 
 SML  HZ I        1957 36.69        17.3 0.28            117            246 336 
 HEL  HZ EP   4   1957  7.18                             115    1.74 0  271 256 
 URE  HZ EP   4   1957  9.63                             114    3.18 0  284 292 
 GUY2CHZ EP   4   1957 11.08                             113    2.33 0  299 235 
                                                                                
