 2014  922 1233 25.0 L   6.790 -73.122148.0  RSN 13 0.4 1.9LRSN                1
 GAP=140        0.91       2.9     4.1  5.5 -0.9454E+00  0.9296E+00  0.3970E+00E
 Epicentro: LOS SANTOS - SANTANDER                                             3
 ACTION:UPD 14-10-03 23:07 OP:nd   STATUS:               ID:20140922123325 L   I
 OLDACT:REG 14-09-22 20:19 OP:spq  STATUS:               ID:20140922122818     3
 2014-09-22-1228-18M.COL___281                                                 6
 STAT SP IPHASW D HRMM SECON CODA AMPLIT PERI AZIMU VELO AIN AR TRES W  DIS CAZ7
 BAR2 SZ IP     C 1233 44.83                             171   -0.0810 22.9 197 
 BAR2 SZ ES   1   1234  0.09                             171   -0.34 7 22.9 197 
 BAR2 SZ I        1234  1.48        13.1 0.24            170           22.9 197 
 BRR  HZ IP     D 1233 46.69                             152    0.1110 74.1 298 
 BRR  HN ES       1234  4.23                             152    0.8410 74.1 298 
 BRR  HZ I        1234  9.10        14.2 0.18            150           74.1 298 
 PAM  SZ EP       1233 47.62                             152    0.1910 76.6  37 
 PAM  SN ES   1   1234  4.85                             152   -0.06 7 76.6  37 
 PAM  SZ I        1234  7.83         7.4 0.38            154           76.6  37 
 RUS  HZ EP       1233 49.19                             145    0.2910 99.3 178 
 RUS  HN ES   1   1234  7.33                             145   -0.20 7 99.3 178 
 RUS  HZ I        1234  8.21         6.6 0.40            146           99.3 178 
 PTB  HZ EP       1233 51.56                             132   -0.83 9  150 259 
 PTB  HE ES       1234 13.72                             132   -0.02 9  150 259 
 PTB  HZ I        1234 14.90         7.8 0.32            132            150 259 
 OCA  HZ EP       1233 53.41                             130   -0.23 9  162 352 
 OCA  HE ES   1   1234 15.94                             130   -0.03 7  162 352 
 OCA  HZ I        1234 19.31         9.3 0.22            131            162 352 
 SPBC HZ EP       1233 53.84                             130    0.07 9  164 220 
 SPBC HE ES       1234 15.85                             130   -0.34 9  164 220 
 SPBC HZ I        1234 20.39        10.1 0.20            130            164 220 
 ZAR  HN ES       1234 23.70                             123    0.14 8  207 292 
 ZAR  HZ I        1234 28.92        14.1 0.36            123            207 292 
 SML  HZ EP       1234  1.75                             118   -0.25 8  246 335 
 SML  HN ES   1   1234 30.20                             118   -0.65 6  246 335 
 SML  HZ I        1234 36.95         9.5 0.24            119            246 335 
 CHI  HZ EP   1   1234  3.13                             118    0.32 6  248 196 
 CHI  HN ES   1   1234 32.04                             118   -0.24 6  248 196 
 CHI  HZ I        1234 39.84         2.3 0.34            119            248 196 
 GUY2CHZ EP   1   1234  9.77                             113    0.86 5  303 235 
 GUY2CHE ES   4   1234 45.35                             113    2.21 0  303 235 
 GUY2CHZ I        1234 53.60         3.9 0.54                           303 235 
 TOL  SN ES   4   1234 53.50                             110    2.20 0  345 225 
 TOL  SZ I        1234 56.06         7.4 0.36            110            345 225 
 PRA  HZ EP   1   1234 19.48                             107    0.82 4  392 210 
 PRA  HN ES   4   1235  1.10                             107    0.60 0  392 210 
 PRA  HZ I        1235  4.24         2.6 0.30            108            392 210 
                                                                                
