 2017  122 1417 37.2 L   6.791 -73.176145.8  RSN 14 0.5 2.3LRSN                1
 GAP= 63        1.17       4.1     3.5  5.8  0.2309E+01  0.5004E+01  0.2039E+01E
 Epicentro: LOS SANTOS - SANTANDER                                             3
 ACTION:UPD 17-05-22 16:02 OP:jn   STATUS:               ID:20170122141737 L   I
 OLDACT:UP  17-01-22 22:53 OP:cog  STATUS:               ID:20170122140743     3
 OLDACT:REG 17-01-22 20:59 OP:cog  STATUS:               ID:20170122140743     3
 2017-01-22-1408-00M.COL___343                                                 6
 STAT SP IPHASW D HRMM SECON CODA AMPLIT PERI AZIMU VELO AIN AR TRES W  DIS CAZ7
 BAR2 EZ EP       1417 56.80                             171   -0.0410 21.9 182 
 BAR2 EZ ES       1418 11.77                             171   -0.3610 21.9 182 
 BAR2 EZ I        1418 14.61        63.1 0.36            170           21.9 182 
 BRR  HZ EP       1417 58.57                             153    0.3210 68.8 301 
 BRR  HN ES       1418 15.76                             153    1.1210 68.8 301 
 BRR  HZ I        1418 19.88        30.1 0.23            154           68.8 301 
 PAM  EZ EP       1417 59.60                             150   -0.0310 80.3  41 
 PAM  EN ES       1418 16.96                             150   -0.1410 80.3  41 
 PAM  EZ I        1418 19.88        30.4 0.36            154           80.3  41 
 RUS  HZ EP       1418  0.78                             144   -0.1510 99.8 174 
 RUS  HN ES       1418 19.08                             144   -0.3310 99.8 174 
 RUS  HZ I        1418 20.89        21.3 0.28            145           99.8 174 
 PTB  HZ EP       1418  3.44                             133   -0.45 9  144 259 
 PTB  HN ES       1418 24.29                             133   -0.39 9  144 259 
 PTB  HZ I        1418 27.15        24.3 0.16            134            144 259 
 TAM  HZ EP       1418  5.23                             130    0.04 9  158 104 
 TAM  HN ES       1418 27.09                             130    0.10 9  158 104 
 TAM  HZ I        1418 28.55        13.2 0.38            133            158 104 
 ZAR  HZ EP       1418  9.69                             123    0.29 9  201 293 
 ZAR  HN ES       1418 34.44                             123   -0.05 9  201 293 
 ZAR  HZ I        1418 39.96        29.4 0.38            124            201 293 
 CHI  HZ EP       1418 15.14                             117    0.41 8  247 194 
 CHI  HN ES       1418 44.37                             117    0.39 8  247 194 
 CHI  HZ I        1418 49.63        13.4 0.32            119            247 194 
 ROSC BZ EP   9   1418 16.15                             117    1.08 0  250 210 
 ROSC BN ES       1418 46.32                             117    0.66 8  250 210 
 URE  HZ EP       1418 16.76                             114   -1.24 7  281 292 
 URE  HN ES   4   1418 46.01                             114   -3.79 0  281 292 
 PTGC HZ EP   9   1418 19.92                             112   -1.20 0  309 158 
 PTGC HE ES       1418 53.44                             112   -0.71 7  309 158 
 LL6C HZ EP   9   1418  3.65                             110   -19.4 0  326 358 
 LL6C HN ES       1418 38.50                                   -0.88 7  326 358 
 ELA  HZ EP   4   1418 21.53                             111   -2.19 0  326 229 
 ELA  HN ES   4   1419  2.57                             111    2.60 0  326 229 
 DBB  EZ EP       1418 24.94                             110    0.60 7  336 274 
 DBB  EN ES       1419  0.77                             110   -0.30 7  336 274 
 ORTC HZ EP       1418 31.11                             106    0.29 6  393 216 
 ORTC HE ES   4   1419 14.53                             106    1.91 0  393 216 
 ORTC HZ I        1419 20.59         6.7 0.52            108            393 216 
                                                                                
