 2014  122 1610 38.2 L   6.769 -73.160137.8  RSN  8 0.4 2.1LRSN                1
 GAP=136        1.00       4.0     4.3  6.8 -0.4839E+01  0.4421E+01  0.8606E+01E
 Epicentro: LOS SANTOS - SANTANDER                                             3
 ACTION:UPD 14-03-13 09:57 OP:ep   STATUS:               ID:20140122161038 L   I
 OLDACT:REG 14-01-22 15:58 OP:stll STATUS:               ID:20140122160809     3
 2014-01-22-1608-09M.COL___244                                                 6
 STAT SP IPHASW D HRMM SECON CODA AMPLIT PERI AZIMU VELO AIN AR TRES W  DIS CAZ7
 BRR  HZ IP     D 1610 58.65                             151    0.1810 71.5 302 
 BRR  HZ I        1610 58.91        32.2 0.24            153           71.5 302 
 BRR  HN ES       1611 15.23                             151    0.9210 71.5 302 
 PAM  SZ EP       1610 59.43                             148   -0.3310 81.0  39 
 PAM  SN ES       1611 16.31                             148   -0.3010 81.0  39 
 RUS  HZ EP       1611  0.88                             143   -0.0110 97.3 175 
 RUS  HN ES       1611 18.69                             143    0.0710 97.3 175 
 RUS  HZ I        1611 21.19        17.1 0.34            142           97.3 175 
 PTB  HZ EP       1611  3.73                             131   -0.55 9  146 260 
 PTB  HN ES       1611 24.04                             131   -0.62 9  146 260 
 SPBC HZ EP       1611  5.96                             128    0.25 9  160 219 
 SPBC HN ES       1611 26.82                             128   -0.37 9  160 219 
 SPBC HZ I        1611 30.37        28.5 0.18            128            160 219 
 NOR  HZ EP       1611 13.41                             117    0.33 8  231 235 
 NOR  HN ES       1611 40.11                             117   -0.21 8  231 235 
 NOR  HZ I        1611 44.85        11.5 0.32            118            231 235 
 CHI  HZ EP       1611 15.37                             116    0.35 8  245 195 
 CHI  HN ES       1611 43.90                             116    0.13 8  245 195 
 CHI  HZ I        1611 49.70         4.0 0.34            116            245 195 
 GUY2CHZ EP       1611 21.49                             111    0.45 7  298 235 
 GUY2CHN ES       1611 54.47                             111   -0.02 7  298 235 
 GUY2CHZ I        1612  3.18         6.1 0.28                           298 235 
                                                                                
