 2011  522 1546 37.8 L   6.788 -73.072141.0  RSN  8 0.3 1.7LRSN                1
 GAP=147        0.60       3.5     6.8  8.1 -0.3150E+01 -0.1142E+02 -0.6895E+01E
 Epicentro: LOS SANTOS - SANTANDER                                             3
 ACTION:UP  11-06-29 08:55 OP:tino STATUS:               ID:20110522154637 L   I
 2011-05-22-1544-07S.COL___141                                                 6
 STAT SP IPHASW D HRMM SECON CODA AMPLIT PERI AZIMU VELO SNR AR TRES W  DIS CAZ7
 BAR2 SZ EP       1546 56.73                             170    -0.210   25 210 
 BAR2 SZ ES   3   1547 11.53                             170    -0.3 2   25 210 
 BAR2 SZ I        1547 14.44         9.9 0.21                            25 210 
 BTL  SZ EP       1546 57.24                             170     0.310   26 304 
 PAM  SZ EP       1546 59.60                             151     0.310   74  34 
 PAM  SN ES   3   1547 16.12                             151     0.1 2   74  34 
 BRR  HZ EP       1546 58.69                             150    -0.210   79 297 
 BRR  HZ I        1546 58.91        23.1 0.17                            79 297 
 BRR  HN ES   2   1547 15.60                             150     0.2 5   79 297 
 RUS  HZ EP       1547  0.83                             144    -0.110   99 181 
 RUS  HN ES   2   1547 19.12                             144     0.1 5   99 181 
 RUS  HZ I        1547 20.56         3.4 0.15                            99 181 
 BRI  SZ EP       1547  1.25                             141     0.110  107  16 
 GRA  SZ EP       1547  2.50                             136    -0.110  125  14 
 GRA  SZ ES   2   1547 21.35                             136    -0.5 5  125  14 
 GRA  SZ I        1547 24.48         4.9 0.31                           125  14 
 OCA  SZ EP       1547  5.83                             128    -0.2 9  163 350 
 OCA  SZ ES   3   1547 28.96                             128     1.0 2  163 350 
 OCA  SZ I        1547 33.15         7.7 0.40                           163 350 
                                                                                
