 2014  722 1147 17.1 L   6.789 -73.084143.5  RSN 12 0.4 2.0LRSN                1
 GAP=189        0.93       2.9     4.9  6.0 -0.1798E+01  0.3857E+01 -0.5288E+00E
 Epicentro: LOS SANTOS - SANTANDER                                             3
 ACTION:UPD 15-03-16 20:46 OP:nd   STATUS:               ID:20140722114717 L   I
 OLDACT:REG 14-07-22 20:17 OP:y    STATUS:               ID:20140722113818     3
 2014-07-22-1138-18M.COL___266                                                 6
 STAT SP IPHASW D HRMM SECON CODA AMPLIT PERI AZIMU VELO AIN AR TRES W  DIS CAZ7
 BAR2 SZ EP       1147 36.95                             170    0.4410 24.3 206 
 BAR2 SZ ES   1   1147 51.72                             170    0.09 7 24.3 206 
 BAR2 SZ I        1147 52.73        25.1 0.36            169           24.3 206 
 BRR  HZ EP       1147 38.88                             150    0.4510 77.8 297 
 BRR  HN ES       1147 55.76                             150    0.7310 77.8 297 
 BRR  HZ I        1148  0.48        15.4 0.12            149           77.8 297 
 RUS  HZ EP   1   1147 40.46                             144   -0.10 7 99.1 180 
 RUS  HN ES   1   1147 58.06                             144   -0.77 7 99.1 180 
 RUS  HZ I        1148  1.06         9.6 0.38            145           99.1 180 
 PTB  HZ EP       1147 44.06                             130   -0.45 9  154 260 
 PTB  HN ES       1148  5.67                             130   -0.20 9  154 260 
 PTB  HZ I        1148  7.84        12.1 0.18            130            154 260 
 OCA  HZ EP   1   1147 45.46                             129   -0.02 7  162 351 
 OCA  HN ES       1148  7.31                             129   -0.27 9  162 351 
 OCA  HZ I        1148 11.16        12.3 0.40            130            162 351 
 SPBC HN ES   1   1148  7.58                             128   -0.56 7  167 221 
 ZAR  HZ EP       1147 50.24                             121    0.10 8  211 292 
 ZAR  HN ES       1148 15.94                             121    0.06 8  211 292 
 ZAR  HZ I        1148 17.84        10.4 0.12            121            211 292 
 NOR  HZ EP   1   1147 53.49                             118    0.23 6  240 236 
 NOR  HE ES       1148 21.09                             118   -0.34 8  240 236 
 NOR  HZ I        1148 26.03         5.0 0.16            118            240 236 
 SML  HZ EP       1147 53.47                             117   -0.60 8  248 334 
 SML  HN ES       1148 22.61                             117   -0.27 8  248 334 
 SML  HZ I        1148 30.62        10.0 0.10            117            248 334 
 TOL  SN ES   1   1148 44.23                             109    0.55 5  347 226 
 TOL  SZ I        1148 51.19         7.0 0.46            109            347 226 
 PRA  HZ EP   1   1148 11.52                             106    0.67 4  394 211 
 PRA  HN ES       1148 53.27                             106    0.52 6  394 211 
 PRA  HZ I        1148 58.85         3.4 0.40            107            394 211 
 SJC  HZ EP   4   1148 11.90                             105   -1.29 0  414 326 
 SJC  HN ES   4   1148 52.71                             105   -4.19 0  414 326 
 SJC  HZ I        1148 56.92         4.0 0.68            106            414 326 
                                                                                
