 2013  222 1534 15.2 L   6.798 -73.163141.5  RSN  5 0.4 1.6LRSN                1
 GAP=134        0.90       6.4     5.2  7.7 -0.4112E+01  0.6721E+01  0.2619E+01E
 Epicentro: LOS SANTOS - SANTANDER                                             3
 ACTION:UPD 13-03-12 09:35 OP:ep   STATUS:               ID:20130222153415 L   I
 2013-02-22-1530-00M.COL___226                                                 6
 STAT SP IPHASW D HRMM SECON CODA AMPLIT PERI AZIMU VELO AIN AR TRES W  DIS CAZ7
 BAR2 SZ EP       1534 34.47                             170    0.1610 22.8 185 
 BAR2 SZ ES       1534 48.69                             170   -0.5310 22.8 185 
 BRR  HE ES   1   1534 52.73                             152    0.86 7 69.6 299 
 PAM  SZ EP   1   1534 36.98                             149   -0.07 7 78.8  41 
 PAM  SN ES   1   1534 53.97                             149   -0.13 7 78.8  41 
 PAM  SN I        1534 56.09         9.2 0.38            151           78.8  41 
 RUS  HZ EP   1   1534 38.93                             143    0.40 7  100 175 
 RUS  HN ES   1   1534 57.05                             143    0.32 7  100 175 
 RUS  HN I        1534 57.61         5.7 0.20            145            100 175 
 PTB  HZ EP       1534 41.32                             131   -0.32 9  146 259 
 PTB  HN ES       1535  2.12                             131   -0.15 9  146 259 
 PTB  HN I        1535  5.17         6.6 0.22            132            146 259 
                                                                                
