 2010  622 1122 18.2 L   6.796 -73.114148.7  RSN 11 0.3 2.7LRSN                1
 GAP=128        0.55       2.8     4.3  4.9 -0.4015E+01  0.4257E+01  0.7042E+00E
 Epicentro: LOS SANTOS - SANTANDER                                             3
 ACTION:UP  10-08-24 10:12 OP:vdl  STATUS:               ID:20100622112218 L   I
 2010-06-22-1118-20S.COL___119                                                 6
 STAT SP IPHASW D HRMM SECON CODA AMPLIT PERI AZIMU VELO SNR AR TRES W  DIS CAZ7
 BAR2 SZ IP       1122 38.20                             170     0.010   24 199 
 BAR2 SZ ES   2   1122 53.70                             170    -0.1 5   24 199 
 BRR  HZ EP   1   1122 40.12                             152     0.2 7   75 298 
 BRR  HZ I        1122 40.39       129.3 0.14                            75 298 
 BRR  HE ES   2   1122 56.89                             152     0.1 5   75 298 
 RUS  HZ EP   1   1122 42.04                             145    -0.2 7  100 178 
 RUS  HZ I        1122 43.77        42.8 0.42                           100 178 
 RUS  HN ES   2   1123  0.94                             145     0.0 5  100 178 
 BRI  SZ EP   1   1122 42.74                             142     0.4 7  108  19 
 BRI  SZ ES   2   1123  1.00                             142    -0.1 5  108  19 
 GRA  SZ EP   1   1122 43.92                             138     0.2 7  125  16 
 GRA  SZ ES   2   1123  3.32                             138    -0.2 5  125  16 
 OCA  SZ EP   1   1122 46.58                             130    -0.3 7  161 352 
 OCA  SZ ES   2   1123  9.21                             130     0.0 5  161 352 
 OCA  SZ I        1123 14.44        60.8 0.27                           161 352 
 CHI  HZ EP   1   1122 56.24                             118     0.1 6  249 196 
 CHI  HE ES   2   1123 25.29                             118    -0.4 4  249 196 
 CHI  HZ I        1123 34.38        25.9 0.53                           249 196 
 HEL  HZ EP   1   1122 58.77                             115    -0.2 6  275 256 
 HEL  HZ I        1123 37.42        29.8 0.31                           275 256 
 RREF HZ EP   1   1123  5.52                             111     0.7 5  324 230 
 RREF HE ES   2   1123 41.30                             111     0.2 3  324 230 
 RREF HZ I        1123 49.77        40.1 0.47                           324 230 
 DBB  SZ EP   1   1123  6.06                             110    -0.2 5  343 274 
 DBB  SZ ES   2   1123 42.82                             110    -0.9 3  343 274 
 SDV  BZ EP   1   1123  7.52                             109    -0.6 5  358  50 
                                                                                
