 2017 1122 1217  5.2 L   6.877 -73.151140.4  RSN  4 0.4 1.2LRSN                1
 GAP=280        0.88       8.6     5.5  7.5  0.5097E+01  0.1429E+02 -0.6228E+01E
 Epicentro: LOS SANTOS - SANTANDER                                             3
 ACTION:UPD 17-12-12 19:58 OP:rebc STATUS:               ID:20171122121705 L   I
 OLDACT:DUP 17-11-22 23:22 OP:dhb  STATUS:               ID:20171122120747d    3
 OLDACT:DUP 17-11-22 23:18 OP:dhb  STATUS:               ID:20171122120745d    3
 OLDACT:REG 17-11-22 21:26 OP:dhb  STATUS:               ID:20171122120744     3
 2017-11-22-1208-00M.COL___489                                                 6
 STAT SP IPHASW D HRMM SECON CODA AMPLIT PERI AZIMU VELO AIN AR TRES W  DIS CAZ7
 BAR2 EZ EP       1217 24.77                             167    0.4210 31.7 186 
 BAR2 EZ ES       1217 39.53                             167    0.2110 31.7 186 
 BAR2 EZ I        1217 40.76         5.0 0.18            163           31.7 186 
 RUS  HZ EP       1217 28.68                             140   -0.3610  109 176 
 RUS  HN ES       1217 47.44                             140   -0.2210  109 176 
 RUS  HZ I        1217 48.84         1.9 0.26            141            109 176 
 PTB  HZ EP       1217 31.75                             131   -0.06 9  149 256 
 PTB  HN ES       1217 52.10                             131   -0.50 9  149 256 
 PTB  HZ I        1218  0.18         1.3 0.46            129            149 256 
 NOR  HZ EP       1217 41.12                             117    0.04 8  239 233 
 NOR  HN ES       1218  9.71                             117    0.62 8  239 233 
 NOR  HZ I        1218 15.01         1.3 0.18            117            239 233 
                                                                                
