 2012 1122 1021 36.5 L   6.821 -73.209140.3  RSN  5 0.4 1.3LRSN                1
 GAP=128        0.76       5.5     5.7  7.3 -0.8711E+01  0.9119E+01  0.1823E+01E
 Epicentro: ZAPATOCA - SANTANDER                                               3
 ACTION:UPD 12-12-05 15:35 OP:}ep  STATUS:               ID:20121122102136 L   I
 2012-11-22-1020-00M.COL___233                                                 6
 STAT SP IPHASW D HRMM SECON CODA AMPLIT PERI AZIMU VELO AIN AR TRES W  DIS CAZ7
 BAR2 SZ EP   1   1021 55.52                             169    0.02 7 25.5 173 
 BAR2 SZ ES   1   1022 11.02                             169    0.68 7 25.5 173 
 BAR2 SZ I        1022 11.62        11.4 0.18                          25.5 173 
 GIR2 SZ EP   1   1021 55.59                             168    0.16 7 28.5   3 
 GIR2 SZ ES   1   1022  9.43                             168   -0.78 7 28.5   3 
 PAM  SZ EP   1   1021 58.58                             149    0.28 7 80.3  44 
 PAM  SN ES   1   1022 15.38                             149    0.07 7 80.3  44 
 PAM  SZ I        1022 16.88         2.6 0.30                          80.3  44 
 RUS  HZ EP   1   1021 59.61                             142   -0.32 7  104 172 
 RUS  HE ES   1   1022 18.06                             142   -0.15 7  104 172 
 RUS  HZ I        1022 20.25         1.9 0.40                           104 172 
 PTB  HZ EP   1   1022  2.31                             132   -0.12 7  141 257 
 PTB  HN ES   1   1022 22.83                             132    0.16 7  141 257 
 PTB  HZ I        1022 25.69         2.6 0.17                           141 257 
                                                                                
