 2011  522 1518 16.9 L   6.786 -73.127148.0  RSN 21 0.5 3.2LRSN                1
 GAP=140        0.88       3.4     5.6  4.6 -0.7815E+01  0.9168E+01  0.2038E+01E
 Epicentro: LOS SANTOS - SANTANDER                                             3
 ACTION:UP  11-06-29 08:55 OP:tino STATUS:               ID:20110522151816 L   I
 2011-05-22-1516-43S.COL___141                                                 6
 STAT SP IPHASW D HRMM SECON CODA AMPLIT PERI AZIMU VELO SNR AR TRES W  DIS CAZ7
 BTL  SZ EP       1518 36.87                             172     0.210   21 313 
 BTL  SZ ES   1   1518 52.27                             172     0.1 7   21 313 
 BAR2 SZ IP       1518 36.63                             171    -0.110   22 196 
 BAR2 SZ ES   1   1518 51.63                             171    -0.6 7   22 196 
 BAR2 SZ I        1518 53.22       496.2 0.18                            22 196 
 GIR2 SZ EP       1518 36.70                             167    -0.110   33 347 
 GIR2 SZ ES   1   1518 52.52                             167     0.1 7   33 347 
 BRR  HZ IP       1518 38.50                             152     0.110   74 299 
 BRR  HN ES   1   1518 55.15                             152     0.0 7   74 299 
 BRR  HZ I        1518 58.17       251.9 0.18                            74 299 
 PAM  SZ EP       1518 39.57                             151     0.310   77  38 
 PAM  SN ES   1   1518 56.82                             151     0.0 7   77  38 
 RUS  HZ IP     C 1518 40.48                             144    -0.210   99 177 
 RUS  HN ES   1   1518 59.10                             144    -0.2 7   99 177 
 RUS  HZ I        1519  0.45       182.9 0.24                            99 177 
 BRI  SZ IP       1518 41.22                             141     0.210  109  19 
 BRI  SZ ES   1   1518 59.97                             141     0.1 7  109  19 
 GRA  SZ IP       1518 42.45                             137     0.110  127  16 
 GRA  SZ ES   1   1519  2.08                             137    -0.2 7  127  16 
 GRA  SZ I        1519  6.64       130.5 0.30                           127  16 
 OCA  SZ EP       1518 45.22                             129    -0.3 9  162 352 
 OCA  SZ I        1519 11.78       149.2 0.26                           162 352 
 NOR  SZ EP       1518 52.58                             119    -0.2 8  236 235 
 ROSC BZ EP       1518 56.31                             117     1.2 8  253 212 
 ROSC BZ I        1519 31.41       163.8 0.39                           253 212 
 HEL  HZ EP       1518 56.96                             115    -0.4 8  274 256 
 HEL  HZ I        1519 37.08       113.6 0.40                           274 256 
 VIL  SZ EP   2   1518 59.88                             112    -0.4 4  302 192 
 VIL  SN ES   1   1519 33.94                             112    -0.2 5  302 192 
 GUY  SZ EP       1519  1.48                             112     0.6 7  304 236 
 GUY  SZ I        1519 44.54       209.3 0.43                           304 236 
 DBB  SZ EP       1519  4.53                             109    -0.1 7  342 274 
 TOL  SZ EP       1519  5.56                             109     0.3 7  344 225 
 MON  HZ EP   3   1519  3.79                             109    -2.5 2  356 308 
 MON  HZ I        1519 44.59        27.2 0.48                           356 308 
 PRA  HZ EP       1519  9.81                             107    -0.6 6  392 210 
 SJA  SZ EP   3   1519 10.35                             106    -1.0 1  399 193 
 SJC  HZ EP   4   1519 10.51                             106    -2.3 0  412 327 
 URI  HZ EP   3   1519 27.24                             101    -2.8 1  558  13 
 SOTA HZ EP   2   1519 42.82                              99     1.9 1  643 217 
                                                                                
