 2014  822 1901  9.9 L   6.831 -73.114146.0  RSN  5 0.4 1.8LRSN                1
 GAP=204        0.90       5.9    12.2  6.8  0.5034E+02  0.9357E+01 -0.4851E+00E
 Epicentro: LOS SANTOS - SANTANDER                                             3
 ACTION:UPD 14-09-15 21:52 OP:nd   STATUS:               ID:20140822190109 L   I
 OLDACT:UP  14-08-22 21:52 OP:cam  STATUS:               ID:20140822190000     3
 OLDACT:REG 14-08-22 20:32 OP:cam  STATUS:               ID:20140822190000     3
 2014-08-22-1900-00M.COL___285                                                 6
 STAT SP IPHASW D HRMM SECON CODA AMPLIT PERI AZIMU VELO AIN AR TRES W  DIS CAZ7
 BAR2 SZ EP     D 19 1 29.84                             169    0.2210 27.5 196 
 BAR2 SZ ES       19 1 44.84                             169   -0.1810 27.5 196 
 BAR2 SZ I        19 1 46.29        16.7 0.20            168           27.5 196 
 BRR  HZ EP       19 1 31.71                             152    0.5810 72.8 295 
 BRR  HN ES       19 1 47.94                             152    0.2210 72.8 295 
 BRR  HN I        19 1 49.41        21.2 0.40            152           72.8 295 
 RUS  HZ EP       19 1 33.94                             143    0.0610  104 178 
 RUS  HE ES       19 1 52.27                             143   -0.3310  104 178 
 RUS  HZ I        19 1 54.14         4.4 0.24            144            104 178 
 SML  HN ES       19 2 14.15                             118   -0.63 8  242 334 
 GUY2CHZ EP       19 1 53.67                             112   -0.36 7  306 235 
                                                                                
