 2014 1022 1700 30.0 L   6.852 -73.147145.3  RSN  4 0.4 1.4LRSN                1
 GAP=201        0.85       6.1     6.6 10.1  0.1576E+02 -0.9383E+00 -0.2147E+02E
 Epicentro: LOS SANTOS - SANTANDER                                             3
 ACTION:UPD 14-11-29 23:54 OP:nd   STATUS:               ID:20141022170030 L   I
 OLDACT:REG 14-10-25 03:37 OP:fm   STATUS:               ID:20141022165745     3
 2014-10-22-1657-45M.COL___274                                                 6
 STAT SP IPHASW D HRMM SECON CODA AMPLIT PERI AZIMU VELO AIN AR TRES W  DIS CAZ7
 BAR2 SZ EP       17 0 50.21                             168    0.4710 29.0 188 
 BAR2 SZ ES   1   17 1  5.43                             168    0.33 7 29.0 188 
 BAR2 SZ I        17 1  7.98         4.5 0.28            170           29.0 188 
 RUS  HZ EP       17 0 54.24                             142    0.0710  106 176 
 RUS  HE ES       17 1 12.43                             142   -0.5510  106 176 
 RUS  HZ I        17 1 15.78         1.6 0.44            148            106 176 
 PTB  HZ EP   1   17 0 56.82                             132   -0.24 7  149 257 
 PTB  HN ES       17 1 18.26                             132    0.12 9  149 257 
 PTB  HZ I        17 1 24.20         4.4 0.40            133            149 257 
 SML  HN ES   1   17 1 33.69                             118   -0.48 6  238 335 
 SML  HZ I        17 1 39.45         5.0 0.26            120            238 335 
                                                                                
