 2017  522 1126  5.0 L   6.721 -73.146145.8  RSN  4 0.3 1.4LRSN                1
 GAP=140        0.66       3.8     3.7  7.4 -0.2554E+01  0.4089E+00  0.9893E-01E
 Epicentro: JORDAN - SANTANDER                                                 3
 ACTION:UPD 17-06-16 13:38 OP:jn   STATUS:               ID:20170522112605 L   I
 OLDACT:REG 17-05-22 20:47 OP:dnl  STATUS:               ID:20170522111735     3
 2017-05-22-1118-00M.COL___344                                                 6
 STAT SP IPHASW D HRMM SECON CODA AMPLIT PERI AZIMU VELO AIN AR TRES W  DIS CAZ7
 BRR  HZ EP   2   1126 26.77                             151    0.32 5 75.8 304 
 BRR  HE ES       1126 43.56                             151    0.4110 75.8 304 
 BRR  HZ I        1126 44.77         7.5 0.46            151           75.8 304 
 PAM  EZ EP       1126 27.75                             149    0.0710 84.3  36 
 PAM  EN ES       1126 45.04                             149   -0.3010 84.3  36 
 PAM  EZ I        1126 46.85         7.3 0.52            153           84.3  36 
 RUS  HZ EP   2   1126 28.27                             146    0.09 5 91.8 176 
 RUS  HN ES       1126 46.30                             146    0.0810 91.8 176 
 RUS  HZ I        1126 50.19         1.2 0.36            146           91.8 176 
 PTB  HZ EP   2   1126 31.92                             132    0.04 5  146 262 
 PTB  HN ES       1126 52.39                             132   -0.42 9  146 262 
 PTB  HZ I        1126 59.59         2.8 0.42            132            146 262 
                                                                                
