 2011  922 1550  9.0 L   6.772 -73.162143.3  RSN  7 0.3 1.7LRSN                1
 GAP=136        0.60       4.3     5.9  7.6  0.6021E+01 -0.1312E+02  0.1187E+00E
 Epicentro: LOS SANTOS - SANTANDER                                             3
 ACTION:UPD 12-07-13 15:59 OP:ep   STATUS:               ID:20110922155009 L   I
 2011-09-22-1546-19S.COL___165                                                 6
 STAT SP IPHASW D HRMM SECON CODA AMPLIT PERI AZIMU VELO AIN AR TRES W  DIS CAZ7
 BTL  SZ EP       1550 28.48                             172    0.1810 20.0 324 
 BAR2 SZ EP       1550 28.15                             172   -0.1510 20.0 186 
 BAR2 SZ ES   2   1550 42.70                             172   -0.63 5 20.0 186 
 BAR2 SZ I        1550 46.88         9.5 0.40                          20.0 186 
 BRR  HZ EP       1550 29.91                             152    0.0010 71.2 301 
 BRR  HN ES   1   1550 46.69                             152    0.49 7 71.2 301 
 BRR  HZ I        1550 50.41        13.5 0.30                          71.2 301 
 PAM  SZ EP       1550 31.11                             149   -0.1010 81.0  39 
 RUS  HZ EP       1550 32.50                             144    0.1710 97.6 175 
 RUS  HN ES   2   1550 50.27                             144   -0.23 5 97.6 175 
 ZAR  HN ES   2   1551  5.48                             122   -0.93 4  204 293 
 CHI  HZ EP   3   1550 46.35                             117    0.13 2  245 195 
 CHI  HN ES   2   1551 15.29                             117    0.07 4  245 195 
 CHI  HZ I        1551 18.96         3.9 0.40                           245 195 
                                                                                
