 2011  622 1151 24.3 L   6.796 -73.130141.1  RSN  7 0.4 1.7LRSN                1
 GAP=157        0.81       4.6     8.4  7.6 -0.1297E+02 -0.2176E+02  0.1477E+01E
 Epicentro: LOS SANTOS - SANTANDER                                             3
 ACTION:UP  11-07-14 19:07 OP:ep   STATUS:               ID:20110622115124 L   I
 2011-06-22-1140-00M.COL___126                                                 6
 STAT SP IPHASW D HRMM SECON CODA AMPLIT PERI AZIMU VELO SNR AR TRES W  DIS CAZ7
 BTL  SZ EP       1151 43.77                             171     0.510   20 312 
 BTL  SZ ES   2   1151 58.05                             171    -0.1 5   20 312 
 BAR2 SZ EP       1151 43.44                             170     0.110   23 194 
 BAR2 SZ ES   1   1151 58.36                             170     0.1 7   23 194 
 BAR2 SZ I        1152  0.08        12.5 0.31                            23 194 
 BRR  HZ EP   2   1151 45.29                             150     0.3 5   73 298 
 BRR  HZ I        1151 47.03        20.4 0.37                            73 298 
 BRR  HN ES   1   1152  1.50                             150     0.3 7   73 298 
 RUS  HZ EP       1151 47.47                             143    -0.110  100 177 
 RUS  HZ I        1151 48.64         3.2 0.19                           100 177 
 RUS  HN ES   2   1152  5.06                             143    -0.6 5  100 177 
 BRI  SZ EP       1151 47.70                             141     0.010  108  20 
 GRA  SZ IP       1151 48.95                             136    -0.210  126  17 
 GRA  SZ I        1151 50.23         9.5 0.31                           126  17 
 GRA  SZ ES   1   1152  7.81                             136    -0.7 7  126  17 
 NOR  SN ES   2   1152 26.77                             117    -0.8 4  236 235 
                                                                                
