 2010 1022 1614 30.1 L   6.811 -73.104142.7  RSN 10 0.5 2.3LRSN                1
 GAP=163        1.12       6.3     9.3 10.6 -0.2587E+02  0.2043E+02  0.7843E+01E
 Epicentro: LOS SANTOS - SANTANDER                                             3
 ACTION:UP  11-02-18 11:11 OP:tino STATUS:               ID:20101022161430 L   I
 2010-10-22-1612-17S.COL___125                                                 6
 STAT SP IPHASW D HRMM SECON CODA AMPLIT PERI AZIMU VELO SNR AR TRES W  DIS CAZ7
 BAR2 SZ IP     C 1614 49.35                             169     0.010   26 200 
 BAR2 SZ ES   2   1615  4.30                             169    -0.2 5   26 200 
 BAR2 SZ I        1615  7.18        64.8 0.30                            26 200 
 BRR  HZ EP   1   1614 51.19                             151     0.1 7   75 296 
 BRR  HE ES   2   1615  8.22                             151     0.7 5   75 296 
 BRR  HZ I        1615 12.79        37.7 0.15                            75 296 
 RUS  HZ EP   1   1614 53.32                             143    -0.3 7  102 179 
 RUS  HZ I        1614 54.16        14.7 0.34                           102 179 
 RUS  HN ES   2   1615 12.01                             143     0.1 5  102 179 
 GUE  SZ EP   1   1614 55.34                             139     1.0 7  114  10 
 GRA  SZ IP     C 1614 54.15                             137    -0.710  123  16 
 GRA  SZ ES   2   1615 13.93                             137    -0.2 5  123  16 
 GRA  SZ I        1615 14.72        23.0 0.41                           123  16 
 NOR  SZ EP   1   1615  5.50                             117    -0.6 6  239 235 
 NOR  SN ES   2   1615 33.81                             117    -0.4 4  239 235 
 CHI  HZ EP   1   1615  7.66                             116    -0.2 6  251 196 
 CHI  HE ES   2   1615 37.02                             116    -0.3 4  251 196 
 CHI  HZ I        1615 40.57        15.8 0.55                           251 196 
 ROSC BZ EP       1615  9.40                             116     1.0 8  256 212 
 HEL  HZ EP   1   1615 10.42                             114    -0.2 6  277 256 
 HEL  HN ES   2   1615 41.81                             114    -0.5 4  277 256 
 HEL  HZ I        1615 47.85        13.5 0.41                           277 256 
 RREF HZ EP   1   1615 17.22                             110     0.6 5  326 230 
 RREF HN ES   2   1615 52.31                             110    -0.5 3  326 230 
 RREF HZ I        1616  1.05        14.3 0.45                           326 230 
                                                                                
