 2017 1122 1246  6.8 L   6.823 -73.141135.2  RSN 17 0.6 2.2LRSN                1
 GAP= 65        1.35       3.3     3.4  6.6  0.9770E-01  0.8127E+01  0.1398E+01E
 Epicentro: LOS SANTOS - SANTANDER                                             3
 ACTION:UPD 17-12-12 19:58 OP:rebc STATUS:               ID:20171122124606 L   I
 OLDACT:UP  17-11-22 23:35 OP:dhb  STATUS:               ID:20171122123745     3
 OLDACT:REG 17-11-22 21:28 OP:dhb  STATUS:               ID:20171122123745     3
 2017-11-22-1238-00M.COL___489                                                 6
 STAT SP IPHASW D HRMM SECON CODA AMPLIT PERI AZIMU VELO AIN AR TRES W  DIS CAZ7
 BAR2 EZ IP     C 1246 25.19                             169   -0.0110 26.0 190 
 BAR2 EZ ES       1246 39.67                             169    0.1110 26.0 190 
 BAR2 EZ I        1246 40.81        75.7 0.20            169           26.0 190 
 PAM  EZ IP     C 1246 28.05                             149    0.3210 75.1  41 
 PAM  EN ES       1246 44.68                             149    0.6010 75.1  41 
 PAM  EZ I        1246 47.86        37.5 0.62            151           75.1  41 
 RUS  HZ EP       1246 29.04                             141   -0.6610  103 176 
 RUS  HN ES       1246 47.33                             141   -0.2510  103 176 
 RUS  HZ I        1246 48.38        16.6 0.24            142            103 176 
 PTB  HZ EP       1246 32.02                             129   -0.98 9  149 258 
 PTB  HN ES       1246 52.38                             129   -1.07 9  149 258 
 PTB  HZ I        1246 55.09        16.9 0.30            131            149 258 
 TAM  HZ IP     D 1246 33.48                             128   -0.18 9  155 106 
 TAM  HN ES       1246 54.78                             128    0.16 9  155 106 
 TAM  HZ I        1247  2.29        14.9 0.40            130            155 106 
 YPLC HZ IP     D 1246 35.55                             124   -0.48 9  179 152 
 YPLC HN ES       1246 58.93                             124    0.08 9  179 152 
 YPLC HZ I        1247  1.98        21.5 0.26            125            179 152 
 ZAR  HZ EP       1246 39.29                             120    0.79 9  204 291 
 ZAR  HN ES       1247  3.67                             120    0.42 9  204 291 
 ZAR  HZ I        1247 11.92        21.7 0.50            121            204 291 
 TABC EZ EP       1246 42.84                             117    0.65 8  232 210 
 TABC EZ ES       1247  9.70                             117   -0.11 8  232 210 
 TABC EZ I        1247 14.36        11.9 0.44            118            232 210 
 NOR  HZ EP       1246 41.57                             116   -0.55 8  237 234 
 NOR  HE ES       1247  9.98                             116    0.29 8  237 234 
 NOR  HZ I        1247 13.54        18.3 0.90            117            237 234 
 CHI  HZ EP       1246 44.28                             115    0.08 8  251 195 
 CHI  HE ES       1247 13.40                             115    0.01 8  251 195 
 CHI  HZ I        1247 15.78         6.1 0.30            116            251 195 
 URE  HZ EP       1246 47.08                             111   -0.21 7  283 291 
 URE  HN ES       1247 18.19                             111   -0.71 7  283 291 
 URE  HZ I        1247 19.22        14.0 0.38            113            283 291 
 DRL03HZ EP       1246 46.82                             111   -0.79 7  286 353 
 DRL03HE ES       1247 19.89                             111    0.42 7  286 353 
 GUY2CHZ EP       1246 51.03                             110    0.90 7  303 234 
 GUY2CHN ES       1247 25.89                             110    1.94 7  303 234 
 GUY2CHZ I        1247 30.14         4.8 0.28                           303 234 
 CBOC HZ EP       1246 53.49                             108    0.07 7  335 252 
 CBOC HE ES       1247 29.71                             108   -0.09 7  335 252 
 CBOC HZ I        1247 32.27         2.6 0.10            109            335 252 
 PRA  HZ EP       1246 59.81                             105   -0.43 6  395 209 
 PRA  HE ES       1247 41.32                             105   -0.63 6  395 209 
 PRA  HZ I        1247 49.62         7.1 0.38            106            395 209 
 ORTC HZ EP       1247  1.37                             104    0.74 6  398 216 
 ORTC HE ES       1247 43.43                             104    0.79 6  398 216 
 ORTC HZ I        1247 47.17         4.1 0.34            105            398 216 
 SJC  HZ EP   9   1247  0.07                             104   -1.71 0  407 327 
 SJC  HE ES       1247 42.32                             104   -0.66 6  407 327 
 SJC  HZ I        1247 45.42         9.3 0.56            105            407 327 
                                                                                
