 2017  922 1425 22.1 L   6.772 -73.143142.3  RSN 10 0.4 1.8LRSN                1
 GAP=113        0.91       3.3     3.5  5.3  0.2075E+01  0.5586E+01  0.5334E+01E
 Epicentro: LOS SANTOS - SANTANDER                                             3
 ACTION:UPD 17-10-05 19:15 OP:rebc STATUS:               ID:20170922142522 L   I
 OLDACT:REG 17-09-22 19:50 OP:lv   STATUS:               ID:20170922141738     3
 2017-09-22-1418-00M.COL___435                                                 6
 STAT SP IPHASW D HRMM SECON CODA AMPLIT PERI AZIMU VELO AIN AR TRES W  DIS CAZ7
 BAR2 EZ EP       1425 41.13                             171   -0.1510 20.3 192 
 BAR2 EZ ES       1425 56.04                             171   -0.1810 20.3 192 
 BAR2 EZ I        1425 59.02        15.7 0.22            170           20.3 192 
 BRR  HZ EP       1425 42.87                             151   -0.1410 73.0 301 
 BRR  HN ES       1426  0.10                             151    0.8110 73.0 301 
 PAM  EZ EP       1425 44.19                             149    0.0810 79.6  38 
 PAM  EN ES       1426  1.23                             149   -0.0310 79.6  38 
 PAM  EZ I        1426  4.22         9.0 0.30            153           79.6  38 
 RUS  HZ EP       1425 45.65                             144    0.3410 97.4 176 
 RUS  HN ES       1426  3.04                             144   -0.3510 97.4 176 
 RUS  HZ I        1426  5.07         6.3 0.36            145           97.4 176 
 YPLC HZ EP       1425 51.68                             126    0.29 9  174 151 
 YPLC HN ES       1426 13.79                             126   -0.42 9  174 151 
 YPLC HZ I        1426 16.56        12.7 0.26            128            174 151 
 ZAR  HZ EP       1425 54.08                             121   -0.42 8  206 293 
 ZAR  HE ES       1426 19.16                             121   -0.59 8  206 293 
 ZAR  HZ I        1426 24.80         5.8 0.17            123            206 293 
 NOR  HZ EP       1425 57.69                             118    0.20 8  233 235 
 NOR  HN ES       1426 25.40                             118    0.33 8  233 235 
 NOR  HZ I        1426 30.36         5.5 0.34            119            233 235 
 CHI  HZ EP       1425 59.51                             117    0.19 8  246 195 
 CHI  HN ES   2   1426 29.38                             117    1.06 4  246 195 
 CHI  HZ I        1426 31.92         2.7 0.48            118            246 195 
 HEL  HN ES   4   1426 34.82                             114    1.52 0  272 256 
 GUY2CHZ EP   4   1426  6.65                             112    1.25 0  300 235 
 GUY2CHN ES       1426 38.69                             112   -0.46 7  300 235 
 GUY2CHZ I        1426 46.40         3.7 0.54                           300 235 
 PRA  HZ EP       1426 15.37                             106    0.14 6  389 210 
                                                                                
