 2017  222 1034 51.2 L   6.717 -73.059125.6  RSN  7 0.3 1.3LRSN                1
 GAP=152        0.95       4.5     5.5  6.8  0.5618E+01 -0.4329E+01  0.6288E+01E
 Epicentro: JORDAN - SANTANDER                                                 3
 ACTION:UPD 17-05-24 15:39 OP:jn   STATUS:               ID:20170222103451 L   I
 OLDACT:UP  17-02-22 21:28 OP:edw  STATUS:               ID:20170222102743d    3
 OLDACT:DUP 17-02-22 21:23 OP:edw  STATUS:               ID:20170222102743d    3
 OLDACT:UP  17-02-22 21:23 OP:edw  STATUS:               ID:20170222102742     3
 OLDACT:UP  17-02-22 21:21 OP:edw  STATUS:               ID:20170222102742     3
 OLDACT:REG 17-02-22 19:34 OP:edw  STATUS:               ID:20170222102742     3
 2017-02-22-1028-00M.COL___370                                                 6
 STAT SP IPHASW D HRMM SECON CODA AMPLIT PERI AZIMU VELO AIN AR TRES W  DIS CAZ7
 BAR2 HZ EP       1035  8.63                             171    0.2610 19.4 225 
 BAR2 HZ ES       1035 21.40                             171   -0.3210 19.4 225 
 BAR2 HZ I        1035 27.28         6.6 0.56            166           19.4 225 
 PAM  HZ IP     C 1035 11.37                             146   -0.1310 79.5  30 
 BRR  HZ EP       1035 10.53                             144   -0.5910 84.1 301 
 BRR  HN ES       1035 26.95                             144    0.3210 84.1 301 
 RUS  HZ EP       1035 12.74                             142    0.4010 91.2 182 
 RUS  HN ES   4   1035 31.31                             142    2.52 0 91.2 182 
 RUS  HZ I        1035 32.32         3.2 0.34            143           91.2 182 
 PTB  HZ EP   9   1035 16.10                             125   -1.33 0  156 263 
 PTB  HN ES       1035 35.88                             124   -0.65 9  156 263 
 PTB  HZ I        1035 42.24         3.4 0.34            126            156 263 
 ZAR  HZ EP   2   1035 23.75                             116   -0.06 4  216 293 
 ZAR  HN ES       1035 49.50                             116    0.29 8  216 293 
 ZAR  HZ I        1035 56.60         1.8 0.26            118            216 293 
 CHI  HZ EP       1035 26.80                             113   -0.42 8  243 198 
 CHI  HN ES       1035 55.48                             113    0.19 8  243 198 
                                                                                
