 2012  422 1841 38.4 L   5.905 -73.763111.2  RSN  5 0.2 2.1LRSN                1
 GAP=162        0.54       3.8     2.5  6.2 -0.1978E+01  0.3992E+01 -0.1415E+00E
 Epicentro: JESUS MARIA - SANTANDER                                            3
 ACTION:UPD 12-07-05 11:55 OP:tino STATUS:               ID:20120422184138 L   I
 2012-04-22-1840-00M.COL___186                                                 6
 STAT SP IPHASW D HRMM SECON CODA AMPLIT PERI AZIMU VELO AIN AR TRES W  DIS CAZ7
 RUS  HZ EP       1841 56.76                             144    -0.210   75  91 
 RUS  HN ES   1   1842 11.33                             144    -0.1 7   75  91 
 BAR2 SZ EP   1   1841 58.65                             135     0.1 7  100  40 
 BAR2 SZ ES   1   1842 14.51                             135     0.3 7  100  40 
 BAR2 SZ I        1842 16.80        37.9 0.37                           100  40 
 PTB  HZ EP       1841 58.41                             134    -0.210  104 312 
 PTB  HN ES   1   1842 14.10                             134    -0.3 7  104 312 
 NOR  SZ EP       1842  0.99                             127     0.110  128 253 
 NOR  SN ES   1   1842 18.77                             127     0.3 7  128 253 
 BRR  HZ EP       1842  1.48                             126     0.210  133   2 
 BRR  HZ I        1842  9.00        15.5 0.31                           133   2 
                                                                                
