 2013  922 1908 43.6 L   6.810 -73.161141.3  RSN 11 0.5 2.2LRSN                1
 GAP=134        1.17       3.2     5.2  7.3 -0.1668E+01  0.8597E+01 -0.1667E+01E
 Epicentro: LOS SANTOS - SANTANDER                                             3
 ACTION:UPD 13-10-22 09:24 OP:ep   STATUS:               ID:20130922190843 L   I
 OLDACT:REG 13-09-22 17:23 OP:carl STATUS:               ID:20130922190735     3
 2013-09-22-1907-35M.COL___241                                                 6
 STAT SP IPHASW D HRMM SECON CODA AMPLIT PERI AZIMU VELO AIN AR TRES W  DIS CAZ7
 BAR2 SZ ES   1   19 9 17.39                             170   -0.20 7 24.2 186 
 BAR2 SZ I        19 9 19.60        44.3 0.22            170           24.2 186 
 BRR  HZ EP       19 9  4.45                             152    0.3310 69.2 298 
 BRR  HN ES   1   19 9 21.14                             152    0.98 7 69.2 298 
 BRR  HZ I        19 9 22.03        30.8 0.50            150           69.2 298 
 PAM  SZ IP     C 19 9  5.57                             150    0.2510 77.6  41 
 PAM  SN ES   1   19 9 22.40                             150    0.11 7 77.6  41 
 PAM  SZ I        19 9 24.62        25.8 0.64            154           77.6  41 
 RUS  HZ EP       19 9  6.73                             143   -0.2410  102 175 
 RUS  HN ES       19 9 25.32                             143    0.0910  102 175 
 RUS  HZ I        19 9 26.88        23.2 0.36            145            102 175 
 PTB  HZ EP       19 9  9.24                             131   -0.80 9  146 258 
 PTB  HN ES   1   19 9 29.94                             131   -0.76 7  146 258 
 PTB  HZ I        19 9 35.58        16.3 0.16            131            146 258 
 OCA  HZ EP       19 9 11.70                             129    0.29 9  159 354 
 OCA  HN ES       19 9 32.53                             129   -0.60 9  159 354 
 OCA  HZ I        19 9 36.89        12.0 0.30            130            159 354 
 SPBC HZ EP       19 9 11.73                             128    0.02 9  163 218 
 SPBC HN ES       19 9 33.44                             128   -0.22 9  163 218 
 SPBC HZ I        19 9 39.89        23.8 0.34            129            163 218 
 ZAR  HZ EP   1   19 9 15.96                             122    0.44 6  202 292 
 ZAR  HE ES       19 9 41.32                             122    0.87 9  202 292 
 ZAR  HZ I        19 9 46.52        15.2 0.24            122            202 292 
 NOR  HZ EP       19 9 19.19                             118    0.23 8  234 234 
 NOR  HN ES   1   19 9 46.63                             118    0.06 6  234 234 
 NOR  HZ I        19 9 49.38        13.8 0.22            119            234 234 
 SML  HZ EP       19 9 20.29                             117    0.53 8  242 336 
 SML  HE ES       19 9 46.83                             117   -1.16 8  242 336 
 SML  HZ I        19 9 58.29        14.2 0.10            118            242 336 
 CHI  HZ EP   1   19 9 21.32                             116    0.23 6  249 195 
 CHI  HN ES   1   19 9 50.03                             116   -0.32 6  249 195 
 CHI  HZ I        19 9 56.23         3.9 0.22            118            249 195 
                                                                                
