 2012  122 1235  9.0 L   7.596 -73.246 18.4  RSN  7 0.5 2.0LRSN                1
 GAP=122        1.17       4.5     4.2  6.5  0.8042E+00  0.1217E+02  0.1743E+01E
 Epicentro: EL PLAYON - SANTANDER                                              3
 ACTION:UP  12-02-03 08:19 OP:REBC STATUS:               ID:20120122123509 L   I
 2012-01-22-1230-00M.COL___186                                                 6
 STAT SP IPHASW D HRMM SECON CODA AMPLIT PERI AZIMU VELO SNR AR TRES W  DIS CAZ7
 PAM  SZ EP   1   1235 20.67                             104     0.2 7   67 115 
 PAM  SN ES   1   1235 28.95                             104    -0.4 7   67 115 
 OCA  SZ EP   1   1235 21.02                             102     0.2 7   72 353 
 OCA  SZ I        1235 33.05        44.1 0.24                            72 353 
 BRR  HZ EP   1   1235 21.55                             102     0.4 7   75 224 
 BRR  HN ES   1   1235 31.08                             102     0.5 7   75 224 
 BRR  HZ I        1235 35.75        64.3 0.12                            75 224 
 BAR2 SZ EP   1   1235 26.60                              98    -0.2 7  111 176 
 BAR2 SZ ES   1   1235 39.94                              98    -0.8 7  111 176 
 BAR2 SZ I        1235 43.98        39.4 0.21                           111 176 
 PTB  HZ EP   1   1235 34.58                              56    -0.7 7  178 229 
 PTB  HE ES   1   1235 55.62                              56    -0.1 7  178 229 
 ZAR  HE ES   1   1235 55.16                              56    -0.7 7  178 266 
 RUS  HZ EP   1   1235 38.05                              56     0.8 7  189 175 
 RUS  HN ES   1   1236  0.06                              56     0.7 7  189 175 
 RUS  HZ I        1236  2.17        15.6 0.27                           189 175 
                                                                                
