 2013  822 1422  0.0 L   6.771 -73.145144.5  RSN  6 0.4 1.7LRSN                1
 GAP=235        1.14       6.3     6.7  8.3  0.1715E+02  0.9835E+01  0.3693E+01E
 Epicentro: LOS SANTOS - SANTANDER                                             3
 ACTION:UPD 14-01-14 09:05 OP:ep   STATUS:               ID:20130822142200 L   I
 OLDACT:REG 13-08-22 16:01 OP:stll STATUS:               ID:20130822141844     3
 2013-08-22-1418-44M.COL___211                                                 6
 STAT SP IPHASW D HRMM SECON CODA AMPLIT PERI AZIMU VELO AIN AR TRES W  DIS CAZ7
 BAR2 SZ EP       1422 19.52                             172    0.0710 20.2 192 
 BAR2 SZ ES       1422 33.82                             172   -0.7710 20.2 192 
 BAR2 SZ I        1422 36.18        10.2 0.28            172           20.2 192 
 BRR  HZ EP       1422 21.37                             152    0.2310 72.9 301 
 BRR  HN ES       1422 38.37                             152    0.7710 72.9 301 
 BRR  HN I        1422 41.90        17.3 0.16            152           72.9 301 
 RUS  HZ EP       1422 23.44                             144    0.0110 97.3 176 
 RUS  HN ES       1422 41.83                             144    0.1610 97.3 176 
 RUS  HZ I        1422 43.12         4.9 0.34            147           97.3 176 
 PTB  HZ EP       1422 26.36                             132   -0.49 9  147 260 
 PTB  HN ES       1422 47.22                             132   -0.55 9  147 260 
 PTB  HZ I        1422 51.32         5.0 0.12            133            147 260 
 SPBC HZ EP       1422 28.26                             129    0.06 9  161 220 
 SPBC HZ I        1422 28.46         8.1 0.16            131            161 220 
 SPBC HN ES       1422 50.69                             129    0.52 9  161 220 
 ZAR  HN ES       1422 57.80                             122   -0.08 8  205 293 
                                                                                
