 2010  822 1658 54.8 L   6.820 -73.036138.0  RSN  4 0.2 1.4LRSN                1
 GAP=250        0.53       8.5    13.2  6.4  0.8153E+02 -0.2621E+02 -0.1339E+02E
 Epicentro: CEPITA - SANTANDER                                                 3
 ACTION:UP  10-09-07 10:57 OP:vdl  STATUS:               ID:20100822165854 L   I
 2010-08-22-1655-31S.COL___120                                                 6
 STAT SP IPHASW D HRMM SECON CODA AMPLIT PERI AZIMU VELO SNR AR TRES W  DIS CAZ7
 BTL  SZ EP       1659 13.74                             168     0.210   28 293 
 BTL  SZ ES   1   1659 28.23                             168     0.0 7   28 293 
 BAR2 SZ ES   2   1659 28.08                             168    -0.2 5   30 213 
 BAR2 SZ I        1659 29.14         7.6 0.32                            30 213 
 BRR  HZ EP       1659 15.41                             148    -0.310   81 293 
 BRR  HZ I        1659 15.75         8.1 0.10                            81 293 
 BRR  HN ES   1   1659 32.25                             148     0.2 7   81 293 
 RUS  HZ EP   2   1659 17.91                             142     0.0 5  103 183 
 RUS  HN ES   2   1659 36.06                             142     0.1 5  103 183 
 RUS  HZ I        1659 37.46         1.9 0.31                           103 183 
                                                                                
