 2011  422 1545 29.6 L   6.783 -73.095144.6  RSN 16 0.4 2.3LRSN                1
 GAP=119        0.90       3.6     6.0  6.0 -0.8916E+01  0.6933E+01  0.4630E+01E
 Epicentro: LOS SANTOS - SANTANDER                                             3
 ACTION:UP  11-06-22 15:32 OP:REBC STATUS:               ID:20110422154529 L   I
 2011-04-22-1541-47S.COL___139                                                 6
 STAT SP IPHASW D HRMM SECON CODA AMPLIT PERI AZIMU VELO SNR AR TRES W  DIS CAZ7
 BAR2 SZ EP       1545 48.94                             170    -0.110   23 205 
 BAR2 SZ ES   1   1546  3.67                             170    -0.6 7   23 205 
 BAR2 SZ I        1546  5.34        81.8 0.18                            23 205 
 BTL  SZ EP   1   1545 49.28                             170     0.2 7   24 308 
 GIR2 SZ EP   1   1545 50.14                             166     1.0 7   35 342 
 PAM  SZ EP   1   1545 51.64                             151     0.1 7   75  35 
 PAM  SN ES   1   1546  8.92                             151     0.2 7   75  35 
 BRR  HZ EP   1   1545 50.81                             150    -0.1 7   77 298 
 BRR  HN ES   1   1546  8.03                             150     0.4 7   77 298 
 BRR  HZ I        1546  9.01        32.5 0.14                            77 298 
 RUS  HZ EP   1   1545 52.85                             144    -0.2 7   98 179 
 RUS  HN ES   1   1546 11.16                             144    -0.2 7   98 179 
 RUS  HZ I        1546 12.97        17.3 0.26                            98 179 
 BRI  SZ EP   1   1545 53.48                             141     0.1 7  108  18 
 BRI  SZ ES   1   1546 12.02                             141     0.1 7  108  18 
 BRI  SZ I        1546 13.86        19.5 0.28                           108  18 
 GRA  SZ EP   1   1545 54.62                             137    -0.1 7  126  15 
 GRA  SZ ES   1   1546 13.95                             137    -0.4 7  126  15 
 GRA  SZ I        1546 15.43        16.5 0.36                           126  15 
 OCA  SZ EP   1   1545 57.32                             129    -0.7 7  163 351 
 YOP  SZ EP   1   1545 59.11                             127     0.0 7  175 155 
 NOR  SZ EP   1   1546  4.94                             118    -0.7 6  238 236 
 NOR  SN ES   1   1546 33.38                             118    -0.3 6  238 236 
 CHI  HZ EP   1   1546  7.02                             117    -0.1 6  248 197 
 CHI  HN ES   1   1546 36.93                             117     0.4 6  248 197 
 CHI  HZ I        1546 43.65        11.6 0.50                           248 197 
 ROSC BZ EP   1   1546  8.68                             116     0.9 6  254 212 
 ROSC BZ I        1546 42.75        16.9 0.59                           254 212 
 HEL  HZ EP   1   1546 10.47                             114     0.2 6  277 256 
 HEL  HZ I        1546 48.69         8.4 0.55                           277 256 
 GUY  SZ EP   1   1546 13.74                             112     0.0 5  307 236 
 GUY  SZ I        1546 57.78        15.9 0.35                           307 236 
 PRA  HZ EP   1   1546 22.96                             106    -0.2 4  393 210 
                                                                                
