 2011  522 1806 35.6 L   6.788 -73.111139.4  RSN  6 0.1 1.8LRSN                1
 GAP=141        0.29       1.6     3.2  3.0 -0.1847E+00 -0.2724E+01 -0.7439E+00E
 Epicentro: LOS SANTOS - SANTANDER                                             3
 ACTION:UP  11-06-29 08:55 OP:tino STATUS:               ID:20110522180635 L   I
 2011-05-22-1804-36S.COL___139                                                 6
 STAT SP IPHASW D HRMM SECON CODA AMPLIT PERI AZIMU VELO SNR AR TRES W  DIS CAZ7
 BAR2 SZ ES   1   18 7  9.18                             170     0.0 7   23 200 
 BAR2 SZ I        18 7 10.74        22.1 0.10                            23 200 
 BRR  HZ EP       18 6 56.25                             150    -0.110   75 298 
 BRR  HZ I        18 6 56.67        11.8 0.32                            75 298 
 BRR  HN ES   1   18 7 12.54                             150     0.1 7   75 298 
 PAM  SZ EP   2   18 6 57.30                             150     0.2 5   76  37 
 RUS  HZ EP       18 6 58.66                             143     0.010   99 178 
 RUS  HN ES   1   18 7 16.53                             143    -0.1 7   99 178 
 RUS  HZ I        18 7 18.02         9.8 0.32                            99 178 
 BRI  SZ EP   3   18 6 58.97                             140     0.1 2  108  19 
 GRA  SZ EP       18 7  0.31                             135     0.010  126  16 
 GRA  SZ ES   1   18 7 19.52                             135    -0.1 7  126  16 
 GRA  SZ I        18 7 21.21         8.1 0.29                           126  16 
                                                                                
