 2017  122 1732 54.5 L   6.772 -73.156141.3  RSN  8 0.5 1.7LRSN                1
 GAP=136        1.19       5.0     4.8  7.5 -0.2571E+01  0.1287E+02  0.3421E+01E
 Epicentro: LOS SANTOS - SANTANDER                                             3
 ACTION:UPD 17-05-22 16:02 OP:jn   STATUS:               ID:20170122173254 L   I
 OLDACT:REG 17-01-22 21:29 OP:cog  STATUS:               ID:20170122172745     3
 2017-01-22-1728-00M.COL___349                                                 6
 STAT SP IPHASW D HRMM SECON CODA AMPLIT PERI AZIMU VELO AIN AR TRES W  DIS CAZ7
 BAR2 EZ EP       1733 13.27                             172   -0.2310 20.1 188 
 BAR2 EZ ES       1733 28.01                             172   -0.3310 20.1 188 
 BAR2 EZ I        1733 30.55        14.3 0.24            170           20.1 188 
 BRR  HZ EP       1733 15.02                             152   -0.1610 71.7 301 
 BRR  HE ES       1733 31.94                             152    0.6210 71.7 301 
 BRR  HZ I        1733 32.73        10.5 0.16            150           71.7 301 
 PAM  EZ EP       1733 16.19                             149   -0.2210 80.5  39 
 PAM  EN ES       1733 33.80                             149    0.2810 80.5  39 
 PAM  EZ I        1733 34.68         5.7 0.36            153           80.5  39 
 RUS  HZ EP       1733 17.41                             144   -0.1610 97.5 175 
 RUS  HN ES       1733 35.92                             144    0.3410 97.5 175 
 RUS  HZ I        1733 37.76         6.0 0.16            145           97.5 175 
 PTB  HZ EP       1733 20.09                             131   -0.84 9  146 260 
 PTB  HN ES       1733 40.81                             131   -0.74 9  146 260 
 PTB  HZ I        1733 45.74         7.2 0.14            131            146 260 
 ZAR  HZ EP       1733 27.57                             121    0.92 9  204 293 
 ZAR  HN ES       1733 51.56                             121   -0.18 9  204 293 
 ZAR  HZ I        1733 58.37         6.0 0.25            122            204 293 
 NOR  HZ EP       1733 29.91                             118    0.26 8  232 235 
 NOR  HN ES       1733 57.53                             118    0.44 8  232 235 
 NOR  HZ I        1734  4.45         4.0 0.14            119            232 235 
 ELA  HN ES       1734 17.48                             110    0.54 7  326 230 
                                                                                
