 2017 1122 1153  5.6 L   6.078 -73.737112.8  RSN 18 0.6 2.0LRSN                1
 GAP= 78        1.38       3.0     2.6  6.5 -0.1342E+01  0.3144E+01 -0.3099E+00E
 Epicentro: EL PENON - SANTANDER                                               3
 ACTION:UPD 17-12-12 19:58 OP:rebc STATUS:               ID:20171122115305 L   I
 OLDACT:REG 17-11-22 21:21 OP:dhb  STATUS:               ID:20171122114748     3
 2017-11-22-1148-00M.COL___489                                                 6
 STAT SP IPHASW D HRMM SECON CODA AMPLIT PERI AZIMU VELO AIN AR TRES W  DIS CAZ7
 SPBC HZ IP     D 1153 22.59                             150   -0.0910 60.0 218 
 SPBC HN ES       1153 35.66                             150   -0.3510 60.0 218 
 SPBC HZ I        1153 38.98        44.0 0.16            149           60.0 218 
 RUS  HZ IP     D 1153 24.09                             144   -0.1710 75.2 106 
 RUS  HN ES       1153 38.75                             144   -0.0810 75.2 106 
 RUS  HZ I        1153 42.62        19.0 0.38            141           75.2 106 
 BAR2 EZ IP     D 1153 24.98                             141    0.4510 83.6  47 
 BAR2 EZ ES       1153 39.95                             141    0.6410 83.6  47 
 BAR2 EZ I        1153 41.03        80.6 0.22            139           83.6  47 
 PTB  HZ EP       1153 24.29                             137   -0.8110 94.6 303 
 PTB  HN ES       1153 39.45                             137   -0.8710 94.6 303 
 PTB  HZ I        1153 43.34         9.3 0.16            136           94.6 303 
 NOR  HZ EP       1153 29.05                             125   -0.08 9  138 246 
 NOR  HN ES       1153 47.56                             125    0.07 9  138 246 
 ROSC BZ EP   2   1153 32.61                             123    1.66 5  151 205 
 ROSC BE ES       1153 51.56                             123    0.82 9  151 205 
 ROSC BZ I        1153 54.56        20.7 0.35            121            151 205 
 CHI  HZ EP       1153 31.08                             121   -0.81 9  160 180 
 CHI  HE ES       1153 51.15                             121   -1.26 9  160 180 
 CHI  HZ I        1153 55.35         8.9 0.54            119            160 180 
 YPLC HZ IP     C 1153 32.49                             119    0.20 9  168 117 
 YPLC HE ES       1153 53.68                             119    0.57 9  168 117 
 YPLC HZ I        1153 54.78        25.7 0.30            117            168 117 
 PAM  EZ EP       1153 34.48                             118    0.32 9  181  39 
 PAM  EN ES       1153 56.70                             118    0.25 9  181  39 
 PAM  EZ I        1153 58.38         8.0 0.30            116            181  39 
 HEL  HZ EP       1153 36.76                             115    0.77 9  199 274 
 HEL  HE ES   2   1154  1.58                             115    1.87 4  199 274 
 HEL  HZ I        1154  4.48        10.1 0.22            113            199 274 
 ZAR  HZ EP       1153 35.14                             114   -0.48 9  200 322 
 ZAR  HN ES       1153 59.35                             114    0.30 9  200 322 
 ZAR  HZ I        1154  2.25        14.6 0.46            113            200 322 
 GUY2CHZ IP     C 1153 37.14                             114    0.48 9  204 242 
 GUY2CHE ES       1154  1.89                             114    0.99 9  204 242 
 GUY2CHZ I        1154  8.13        13.6 0.48                           204 242 
 TAM  HZ EP       1153 37.94                             112    0.11 8  219  79 
 TAM  HZ I        1154  1.93        23.3 0.52            110            219  79 
 TAM  HN ES       1154  2.69                             112   -0.29 8  219  79 
 ELA  HZ EP   3   1153 41.50                             111    1.99 2  228 234 
 ELA  HE ES       1154  6.49                             111    0.53 8  228 234 
 ELA  HZ I        1154 10.52         5.1 0.40            110            228 234 
 CBOC HZ EP       1153 41.49                             109   -0.40 8  253 265 
 CBOC HE ES       1154 10.14                             109   -0.08 8  253 265 
 CBOC HZ I        1154 14.22         2.9 0.32            107            253 265 
 URE  HZ EP       1153 43.42                             107   -0.41 8  271 313 
 URE  HE ES       1154 13.23                             107   -0.42 8  271 313 
 URE  HZ I        1154 13.91         9.0 0.14            106            271 313 
 PRA  HZ EP       1153 45.72                             106   -0.41 7  291 206 
 PRA  HE ES       1154 17.13                             106   -0.63 7  291 206 
 PRA  HZ I        1154 23.77         6.5 0.20            104            291 206 
 ORTC HZ EP       1153 45.92                             105   -0.40 7  292 215 
 ORTC HE ES       1154 18.58                             105    0.48 7  292 215 
 ORTC HZ I        1154 23.15         8.3 0.56            104            292 215 
                                                                                
