 2016  122 1342 32.5 L   6.817 -73.167151.4  RSN 10 0.4 2.1LRSN                1
 GAP=133        0.87       3.2     4.0  6.6 -0.2657E+01  0.1098E+02 -0.3557E+00E
 Epicentro: LOS SANTOS - SANTANDER                                             3
 ACTION:UPD 16-03-09 23:27 OP:cam  STATUS:               ID:20160122134232 L   I
 OLDACT:UP  16-01-23 00:19 OP:mh   STATUS:               ID:20160122133750     3
 OLDACT:UP  16-01-23 00:19 OP:mh   STATUS:               ID:20160122133750     3
 OLDACT:REG 16-01-22 21:51 OP:mh   STATUS:               ID:20160122133750     3
 2016-01-22-1337-50M.COL___324                                                 6
 STAT SP IPHASW D HRMM SECON CODA AMPLIT PERI AZIMU VELO AIN AR TRES W  DIS CAZ7
 BAR2 EZ IP     D 1342 53.17                             170    0.3310 25.0 184 
 BAR2 EZ ES       1343  8.33                             170   -0.3810 25.0 184 
 BAR2 EZ I        1343  9.80        29.6 0.29            170           25.0 184 
 PAM  EZ EP   1   1342 55.91                             152    0.59 7 77.5  42 
 PAM  EN ES       1343 13.18                             152    0.0610 77.5  42 
 PAM  EZ I        1343 15.32        24.9 0.52            154           77.5  42 
 RUS  HZ EP   1   1342 56.59                             144   -0.36 7  103 175 
 RUS  HN ES       1343 15.76                             144   -0.2710  103 175 
 RUS  HZ I        1343 18.00         8.2 0.48            146            103 175 
 PTB  HZ EP   1   1342 59.49                             133   -0.26 7  146 258 
 PTB  HN ES       1343 21.09                             133    0.07 9  146 258 
 PTB  HZ I        1343 23.34         9.2 0.20            131            146 258 
 OCA  HN ES       1343 23.31                             131   -0.01 9  158 354 
 OCA  HZ I        1343 27.80        32.4 0.50            130            158 354 
 SPBC HZ EP       1343  1.91                             130    0.48 9  163 218 
 SPBC HN ES       1343 24.08                             130    0.07 9  163 218 
 SPBC HZ I        1343 26.73        25.6 0.20            130            163 218 
 ZAR  HZ EP   1   1343  4.17                             124   -0.84 6  201 292 
 ZAR  HN ES       1343 30.47                             124    0.09 9  201 292 
 ZAR  HZ I        1343 41.65         9.3 0.42            122            201 292 
 NOR  HZ EP   1   1343  7.69                             120   -0.78 6  234 234 
 NOR  HN ES       1343 37.01                             120    0.48 8  234 234 
 NOR  HZ I        1343 42.63         7.3 0.16            119            234 234 
 GUY2CHZ EP   4   1343 18.30                             113    2.03 0  300 234 
 GUY2CHN ES   4   1343 54.54                             113    4.12 0  300 234 
 GUY2CHZ I        1344  0.68         5.5 0.42                           300 234 
 ORTC HZ EP   4   1343 27.92                             107    1.29 0  396 216 
 ORTC HN ES   4   1344 11.32                             107    2.47 0  396 216 
 ORTC HZ I        1344 17.99         2.7 0.40            107            396 216 
                                                                                
