 2017 1122 1913 20.8 L   6.788 -73.139143.9  RSN 19 0.5 2.3LRSN                1
 GAP=106        1.04       3.6     2.9  5.2 -0.5432E+00  0.5065E+01  0.2936E+01E
 Epicentro: LOS SANTOS - SANTANDER                                             3
 ACTION:UPD 17-12-12 19:58 OP:rebc STATUS:               ID:20171122191320 L   I
 OLDACT:UP  17-11-23 00:04 OP:edw  STATUS:               ID:20171122190741     3
 OLDACT:UP  17-11-23 00:02 OP:edw  STATUS:               ID:20171122190741     3
 OLDACT:UP  17-11-23 00:01 OP:edw  STATUS:               ID:20171122190741     3
 OLDACT:REG 17-11-22 22:23 OP:edw  STATUS:               ID:20171122190741     3
 2017-11-22-1908-00M.COL___471                                                 6
 STAT SP IPHASW D HRMM SECON CODA AMPLIT PERI AZIMU VELO AIN AR TRES W  DIS CAZ7
 BAR2 EZ EP       1913 40.02                             171   -0.1810 22.2 192 
 BAR2 EZ ES       1913 55.63                             171    0.3210 22.2 192 
 BAR2 EZ I        1913 56.30        43.2 0.14            167           22.2 192 
 PAM  EZ EP       1913 43.15                             150    0.2810 78.0  39 
 PAM  EN ES       1914  0.37                             150    0.3010 78.0  39 
 PAM  EZ I        1914  3.33        60.4 0.98            156           78.0  39 
 RUS  HZ EP     D 1913 43.82                             144   -0.4610 99.2 176 
 RUS  HN ES       1914  2.68                             144    0.0910 99.2 176 
 RUS  HZ I        1914  3.58        39.2 0.36            144           99.2 176 
 PTB  HZ EP       1913 46.93                             131   -0.74 9  148 259 
 PTB  HN ES       1914  7.92                             131   -0.70 9  148 259 
 PTB  HZ I        1914 11.95        15.7 0.16            131            148 259 
 TAM  HZ IP     D 1913 48.32                             130    0.07 9  154 105 
 TAM  HN ES       1914  9.63                             130   -0.02 9  154 105 
 SPBC HZ EP       1913 48.90                             129   -0.22 9  163 219 
 SPBC HN ES       1914 10.77                             129   -0.42 9  163 219 
 SPBC HZ I        1914 15.21        39.6 0.26            128            163 219 
 YPLC HZ EP       1913 50.18                             126   -0.15 9  175 151 
 ZAR  HZ EP   1   1913 53.85                             122    0.59 6  205 292 
 ZAR  HE ES       1914 18.43                             122   -0.14 8  205 292 
 ZAR  HZ I        1914 24.90        20.1 0.38            122            205 292 
 TABC EZ EP   4   1913 57.68                             119    1.31 0  229 211 
 TABC EZ ES   4   1914 27.06                             119    2.96 0  229 211 
 TABC EZ I        1914 30.56        22.4 0.40            119            229 211 
 NOR  HZ EP       1913 56.29                             118   -0.13 8  234 235 
 NOR  HE ES   4   1914 20.84                             118   -3.34 0  234 235 
 NOR  HZ I        1914 27.78        12.8 0.14            118            234 235 
 CHI  HZ EP       1913 58.01                             117   -0.28 8  248 195 
 CHI  HE ES       1914 27.69                             117    0.17 8  248 195 
 CHI  HZ I        1914 32.57         6.3 0.26            118            248 195 
 ROSC BZ EP   4   1914  0.11                             116    1.36 0  252 211 
 ROSC BN ES   4   1914 30.51                             116    2.17 0  252 211 
 ROSC BZ I        1914 37.45        19.5 0.35            117            252 211 
 HEL  HZ EP       1914  1.88                             114    0.90 8  272 256 
 HEL  HN ES       1914 32.84                             114    0.54 8  272 256 
 HEL  HZ I        1914 40.71         6.9 0.46            115            272 256 
 URE  HZ EP       1914  1.13                             113   -0.80 7  285 292 
 URE  HN ES   4   1914 31.16                             113   -2.83 0  285 292 
 URE  HZ I        1914 40.27        11.2 0.28            114            285 292 
 GUY2CHZ EP       1914  5.17                             112    0.85 7  301 235 
 GUY2CHN ES   4   1914 41.25                             112    3.00 0  301 235 
 GUY2CHZ I        1914 46.38         8.8 0.42                           301 235 
 PTGC HZ EP   4   1914  2.89                             111   -1.53 0  307 159 
 CBOC HZ EP   1   1914  8.68                             109    0.99 5  334 252 
 CBOC HN ES       1914 44.70                             109    0.46 7  334 252 
 CBOC HZ I        1914 50.41         3.3 0.26            110            334 252 
 PRA  HZ EP       1914 13.75                             106   -0.43 6  391 210 
 PRA  HN ES       1914 56.77                             106    0.97 6  391 210 
 PRA  HZ I        1915  4.01         8.3 0.56            107            391 210 
 ORTC HZ EP       1914 14.55                             106   -0.05 6  395 216 
 ORTC HN ES   4   1914 58.85                             106    2.31 0  395 216 
 ORTC HZ I        1915  3.79         5.1 0.68            107            395 216 
 PAL  HZ EP       1914 15.50                             105   -0.41 6  406 239 
 PAL  HN ES       1914 59.51                             105    0.64 6  406 239 
 PAL  HZ I        1915  2.26         3.9 0.20            106            406 239 
 SJC  HZ EP   4   1914 14.27                             105   -2.23 0  411 327 
                                                                                
