 2017  722 1507 54.4 L   6.766 -73.106138.6  RSN  5 0.1 1.2LRSN                1
 GAP=143        0.36       2.0     3.0  4.9 -0.9816E-01 -0.4677E+01 -0.2329E+01E
 Epicentro: LOS SANTOS - SANTANDER                                             3
 ACTION:UPD 17-08-30 15:35 OP:rebc STATUS:               ID:20170722150754 L   I
 OLDACT:REG 17-07-22 19:31 OP:lv   STATUS:               ID:20170722145739     3
 2017-07-22-1458-00M.COL___386                                                 6
 STAT SP IPHASW D HRMM SECON CODA AMPLIT PERI AZIMU VELO AIN AR TRES W  DIS CAZ7
 BAR2 EZ EP       15 8 13.09                             171   -0.0210 21.0 204 
 BRR  HZ EP       15 8 14.98                             149   -0.1310 76.9 299 
 BRR  HN ES       15 8 31.30                             149    0.0310 76.9 299 
 PAM  EZ EP       15 8 15.98                             149    0.1110 77.7  35 
 PAM  EZ I        15 8 43.54         2.8 0.16             47           77.7  35 
 RUS  HZ EP   4   15 8 15.16                             143   -1.99 0 96.6 179 
 RUS  HN ES       15 8 34.85                             143   -0.0510 96.6 179 
 SPBC HN ES       15 8 44.24                             127    0.09 9  163 221 
 GUY2CHZ EP   4   15 8 27.90                             111   -10.0 0  303 236 
                                                                                
