 2012 1222 1131 57.0 L   6.820 -73.199144.6  RSN  4 0.1 1.5LRSN                1
 GAP=234        0.39       4.4     5.4  4.1  0.1515E+02 -0.8476E+00 -0.1779E+01E
 Epicentro: ZAPATOCA - SANTANDER                                               3
 ACTION:UPD 13-01-04 14:29 OP:ep   STATUS:               ID:20121222113157 L   I
 2012-12-22-1130-00M.COL___238                                                 6
 STAT SP IPHASW D HRMM SECON CODA AMPLIT PERI AZIMU VELO AIN AR TRES W  DIS CAZ7
 BAR2 SZ EP   1   1132 16.25                             170   -0.25 7 25.3 176 
 BAR2 SZ ES       1132 31.72                             170   -0.0110 25.3 176 
 BAR2 SZ I        1132 32.59         5.7 0.28                          25.3 176 
 BRR  HZ EP       1132 17.83                             154    0.1810 65.0 299 
 BRR  HZ I        1132 32.08         7.5 0.26                          65.0 299 
 BRR  HN ES   1   1132 33.70                             154   -0.08 7 65.0 299 
 RUS  HZ EP   1   1132 20.73                             143   -0.08 7  103 173 
 RUS  HE ES   1   1132 39.54                             143    0.14 7  103 173 
 RUS  HE I        1132 41.78         6.4 0.27                           103 173 
 PTB  HN ES   2   1132 43.84                             133   -0.11 5  142 257 
 PTB  HZ I        1132 45.77         3.2 0.08                           142 257 
                                                                                
