 2013  422 1156 24.8 L   6.835 -73.131150.1  RSN  6 0.4 1.8LRSN                1
 GAP=137        0.69       3.6     8.9  6.0 -0.5144E+01  0.2617E+02 -0.2517E+01E
 Epicentro: LOS SANTOS - SANTANDER                                             3
 ACTION:UPD 13-05-22 14:40 OP:EP   STATUS:               ID:20130422115624 L   I
 2013-04-22-1150-00M.COL___250                                                 6
 STAT SP IPHASW D HRMM SECON CODA AMPLIT PERI AZIMU VELO AIN AR TRES W  DIS CAZ7
 BAR2 SZ EP     C 1156 45.04                             169   -0.0310 27.4 192 
 BAR2 SZ ES   1   1157  1.17                             169    0.31 7 27.4 192 
 BAR2 SZ I        1157  1.80         7.7 0.38            169           27.4 192 
 GIR2 SZ EP   1   1156 45.40                             169    0.46 7 27.9 346 
 GIR2 SZ ES   2   1157  0.31                             169   -0.31 5 27.9 346 
 GIR2 SZ I        1157  2.26        14.5 0.54            164           27.9 346 
 PAM  SZ EP       1156 47.25                             153   -0.0410 73.4  40 
 PAM  SN ES   1   1157  4.80                             153    0.00 7 73.4  40 
 PAM  SZ I        1157  6.88        14.6 0.54            155           73.4  40 
 RUS  HZ EP     C 1156 48.82                             144   -0.4610  104 177 
 RUS  HN ES   1   1157  8.38                             144    0.03 7  104 177 
 RUS  HZ I        1157  9.23         2.2 0.20            147            104 177 
 SML  HZ EP       1157  1.30                             119   -0.11 8  241 335 
 SML  HN ES   2   1157 29.92                             119   -0.01 4  241 335 
 SML  HZ I        1157 35.70         8.7 0.10            119            241 335 
 PRA  HZ EP       1157 19.84                             107    0.85 6  396 209 
 PRA  HN ES   2   1158  0.33                             107   -0.89 3  396 209 
 PRA  HZ I        1158  2.59         4.0 0.38            108            396 209 
                                                                                
