 2013  822 1257 23.1 L   6.791 -73.164139.7  RSN 20 0.4 2.5LRSN 2.7WRSN        1
 SPEC AVERAGE  MO 13.2 ST 13.5 OM  1.6 f0 7.65 R0.2411 AL 0.00 WI 20.0 MW  2.7 3
 SPEC SD       MO  0.3 ST 21.7 OM  0.3 f0 3.39 R0.0928 AL      WI      MW  0.2 3
 GAP= 70        1.06       2.4     2.6  4.8 -0.1551E+01  0.1792E+01  0.1151E+01E
 Epicentro: LOS SANTOS - SANTANDER                                             3
 SPEC BAR2SH Z MO 13.3 ST  2.1 OM  1.8 f0 4.35 R0.3572 AL-0.00 WI 20.0 MW  2.8 3
 SPEC BAR2SH Z T125755 K 0.000 GD  141 VS 4.20 DE 3.20 Q0300.0 QA 0.60 VS 4.20 3
 SPEC BRR HH Z MO 13.5 ST  3.0 OM  1.9 f0 4.37 R0.3556 AL-0.00 WI 20.0 MW  2.9 3
 SPEC BRR HH Z T125758 K 0.000 GD  156 VS 4.20 DE 3.20 Q0300.0 QA 0.60 VS 4.20 3
 SPEC PAM SH Z MO 13.4 ST  1.9 OM  1.8 f0 4.03 R0.3856 AL-0.00 WI 20.0 MW  2.9 3
 SPEC PAM SH Z T125760 K 0.000 GD  160 VS 4.20 DE 3.20 Q0300.0 QA 0.60 VS 4.20 3
 SPEC RUS HH Z MO 12.5 ST  1.0 OM  0.9 f0 6.41 R0.2424 AL-0.00 WI 20.0 MW  2.3 3
 SPEC RUS HH Z T1258 2 K 0.000 GD  171 VS 4.20 DE 3.20 Q0300.0 QA 0.60 VS 4.20 3
 SPEC PTB HH Z MO 13.1 ST 21.9 OM  1.4 f0 11.4 R0.1363 AL-0.00 WI 20.0 MW  2.7 3
 SPEC PTB HH Z T1258 7 K 0.000 GD  202 VS 4.20 DE 3.20 Q0300.0 QA 0.60 VS 4.20 3
 SPEC OCA HH Z MO 13.3 ST  3.1 OM  1.6 f0 5.01 R0.3102 AL-0.00 WI 20.0 MW  2.8 3
 SPEC OCA HH Z T125810 K 0.000 GD  213 VS 4.20 DE 3.20 Q0300.0 QA 0.60 VS 4.20 3
 SPEC SPBCHH Z MO 13.1 ST  8.5 OM  1.4 f0 8.18 R0.1900 AL-0.00 WI 20.0 MW  2.7 3
 SPEC SPBCHH Z T125811 K 0.000 GD  213 VS 4.20 DE 3.20 Q0300.0 QA 0.60 VS 4.20 3
 SPEC ZAR HH Z MO 13.4 ST 10.7 OM  1.6 f0 7.22 R0.2152 AL-0.00 WI 20.0 MW  2.9 3
 SPEC ZAR HH Z T125818 K 0.000 GD  246 VS 4.20 DE 3.20 Q0300.0 QA 0.60 VS 4.20 3
 SPEC NOR HH Z MO 12.9 ST  4.8 OM  1.1 f0 7.85 R0.1980 AL-0.00 WI 20.0 MW  2.6 3
 SPEC NOR HH Z T125823 K 0.000 GD  270 VS 4.20 DE 3.20 Q0300.0 QA 0.60 VS 4.20 3
 SPEC SML HH Z MO 13.2 ST 79.6 OM  1.4 f0 15.7 R0.0990 AL-0.00 WI 20.0 MW  2.8 3
 SPEC SML HH Z T125825 K 0.000 GD  281 VS 4.20 DE 3.20 Q0300.0 QA 0.60 VS 4.20 3
 SPEC CHI HH Z MO 13.0 ST 11.5 OM  1.2 f0 9.58 R0.1622 AL-0.00 WI 20.0 MW  2.6 3
 SPEC CHI HH Z T125827 K 0.000 GD  283 VS 4.20 DE 3.20 Q0300.0 QA 0.60 VS 4.20 3
 SPECGUY2CHH Z MO 13.3 ST  0.7 OM  1.4 f0 3.21 R 0.484 AL-0.00 WI 20.0 MW  2.8 3
 SPECGUY2CHH Z T125837 K       GD329.8 VS 4.20 DE 3.20 Q0300.0 QA 0.60 VS 4.20 3
 OLDACT:DUP 13-08-22 18:58 OP:stll STATUS:               ID:20130822124845d    3
 ACTION:UPD 14-01-14 09:05 OP:ep   STATUS:               ID:20130822125723 L   I
 OLDACT:UP  13-08-22 19:51 OP:stll STATUS:               ID:20130822124845d    3
 OLDACT:UP  13-08-22 19:43 OP:stll STATUS:               ID:20130822124845d    3
 2013-08-22-1248-44M.COL___211                                                 6
 STAT SP IPHASW D HRMM SECON CODA AMPLIT PERI AZIMU VELO AIN AR TRES W  DIS CAZ7
 BAR2 SZ EP       1257 42.33                             171    0.3610 22.0 185 
 BAR2 SZ ES       1257 56.55                             171   -0.1410 22.0 185 
 BAR2 SZ I        1257 58.25        85.0 0.26            175           22.0 185 
 BRR  HZ IP     C 1257 44.25                             152    0.7310 70.0 300 
 BRR  HN ES       1258  0.08                             152    0.6310 70.0 300 
 BRR  SZ I        1258  2.12        61.4 0.14            148           70.0 300 
 PAM  SZ EP       1257 45.14                             149    0.3410 79.5  40 
 PAM  SN ES       1258  1.92                             149    0.2010 79.5  40 
 PAM  SZ I        1258  3.99        79.3 0.42            146           79.5  40 
 RUS  HZ EP       1257 46.35                             143    0.1610 99.7 175 
 RUS  HN ES       1258  4.06                             143   -0.1410 99.7 175 
 RUS  SZ I        1258  6.74         7.4 0.22            145           99.7 175 
 GRA  SZ EP       1257 48.11                             135    0.1710  127  18 
 GRA  SZ ES       1258  7.50                             135    0.1810  127  18 
 GRA  SZ I        1258 39.33      2082.3 2.46            132            127  18 
 PTB  HZ EP       1257 49.04                             131   -0.33 9  146 259 
 PTB  HN ES       1258  9.39                             131   -0.48 9  146 259 
 PTB  SZ I        1258 15.26        40.8 0.40            130            146 259 
 CAPV BZ EP       1257 50.42                             130    0.23 9  151  38 
 TAM  HZ IP     D 1257 50.74                             129    0.28 9  157 104 
 TAM  HZ I        1257 50.95        27.4 0.38            129            157 104 
 TAM  HN ES       1258 10.94                             129   -0.86 9  157 104 
 TAM  SZ I        1258 21.97        13.5 0.66            129            157 104 
 OCA  HZ EP       1257 50.64                             128   -0.38 9  161 354 
 OCA  HN ES       1258 12.43                             128   -0.37 9  161 354 
 OCA  SZ I        1258 16.40        37.4 0.16            125            161 354 
 SPBC HZ EP       1257 51.22                             128    0.29 9  161 219 
 SPBC HN ES       1258 12.79                             128    0.14 9  161 219 
 SPBC SZ I        1258 19.90        21.1 0.24            128            161 219 
 ZAR  HZ EP       1257 55.29                             121    0.29 9  203 293 
 ZAR  HN ES       1258 19.90                             121    0.02 9  203 293 
 ZAR  SZ I        1258 26.49        34.7 0.34            119            203 293 
 NOR  HZ EP       1257 58.79                             117    0.55 8  232 234 
 NOR  HN ES       1258 24.92                             117   -0.73 8  232 234 
 NOR  HZ I        1258 31.96        16.4 0.16            117            232 234 
 NOR  SZ I        1258 32.00        17.4 0.16                           232 234 
 SML  HZ EP   4   1257 57.69                             116   -1.71 0  244 336 
 SML  HN ES       1258 26.87                             116   -0.85 8  244 336 
 SML  SZ I        1258 37.39        46.8 0.08            114            244 336 
 CHI  HZ EP       1258  0.04                             116   -0.26 8  247 195 
 CHI  HN ES       1258 28.92                             116   -0.39 8  247 195 
 CHI  SZ I        1258 33.79        12.0 0.34            116            247 195 
 HEL  HN ES       1258 33.23                             114   -0.47 8  270 256 
 GUY2CHZ EP   4   1258  7.85                             111    1.68 0  299 235 
 GUY2CHN ES       1258 39.36                             111   -0.41 7  299 235 
 GUY2CSZ I        1258 49.52        11.4 0.56                           299 235 
 SOCV BZ EP       1258  5.20                             111   -0.93 7  304  57 
 DBB  SZ EP       1258 10.16                             108    0.05 7  338 274 
 DBB  SZ I        1258 53.96        18.0 0.62            107            338 274 
 PRA  HZ EP       1258 16.71                             106    0.52 6  390 209 
 PRA  HN ES       1258 57.96                             106    0.36 6  390 209 
 PRA  SZ I        1259  2.83        12.2 0.24            105            390 209 
 ORTC HZ EP   4   1258 18.44                             105    1.87 0  393 216 
 ORTC HN ES       1258 59.02                             105    0.73 6  393 216 
 ORTC SZ I        1259  5.08        10.7 0.60            105            393 216 
                                                                                
