 2010  722 1221  6.0 L   6.846 -73.065148.0  RSN  4 0.3 1.6LRSN                1
 GAP=249        0.52       7.7    12.3  8.3  0.5796E+02  0.1785E+02  0.2624E+02E
 Epicentro: LOS SANTOS - SANTANDER                                             3
 ACTION:UPD 10-12-01 15:19 OP:pat  STATUS:               ID:20100722122106 L   I
 2010-07-22-1218-09S.COL___123                                                 6
 STAT SP IPHASW D HRMM SECON CODA AMPLIT PERI AZIMU VELO AIN AR TRES W  DIS CAZ7
 BAR2 SZ ES   2   1221 41.27                             168    -0.5 5   31 205 
 BAR2 SZ I        1221 44.45         8.9 0.44                            31 205 
 BRR  HZ EP   2   1221 27.97                             151     0.2 5   77 292 
 BRR  HZ I        1221 42.63         8.4 0.41                            77 292 
 BRR  HE ES   1   1221 44.74                             151     0.0 7   77 292 
 RUS  HZ EP   2   1221 30.50                             143     0.2 5  105 181 
 RUS  HE ES   2   1221 49.58                             143     0.3 5  105 181 
 RUS  HZ I        1221 50.19         4.3 0.29                           105 181 
 PRA  HZ EP   2   1221 59.94                             106    -0.7 3  401 210 
 PRA  HN ES   2   1222 43.39                             106     0.1 3  401 210 
 PRA  HZ I        1222 48.76         1.7 0.37                           401 210 
                                                                                
