 2012  522 1849 15.0 L   6.813 -73.179142.6  RSN  7 0.3 2.1LRSN                1
 GAP=132        0.81       3.5     4.4  7.0 -0.1910E+01  0.1271E+02 -0.3695E+01E
 Epicentro: LOS SANTOS - SANTANDER                                             3
 ACTION:UP  12-07-05 12:07 OP:pat  STATUS:               ID:20120522184915 L   I
 2012-05-22-1844-43M.COL___185                                                 6
 STAT SP IPHASW D HRMM SECON CODA AMPLIT PERI AZIMU VELO SNR AR TRES W  DIS CAZ7
 BAR2 SZ EP   1   1849 34.33                             170     0.0 8   24 181 
 BAR2 SZ ES   1   1849 49.65                             170     0.3 8   24 181 
 BAR2 SZ I        1849 51.37        22.9 0.37                            24 181 
 PAM  SZ EP   1   1849 37.24                             150     0.3 8   79  42 
 PAM  SE ES   1   1849 54.55                             150     0.5 8   79  42 
 RUS  HZ EP       1849 38.73                             143     0.110  102 174 
 RUS  HE ES       1849 56.44                             143    -0.510  102 174 
 RUS  HZ I        1849 59.02        10.4 0.45                           102 174 
 PTB  HZ EP       1849 41.25                             132    -0.2 9  144 258 
 PTB  HN ES   1   1850  2.23                             132     0.2 7  144 258 
 OCA  HZ EP   1   1849 42.72                             129    -0.2 7  158 354 
 OCA  HN ES   1   1850  3.89                             129    -0.8 7  158 354 
 OCA  HZ I        1850 10.62        25.7 0.41                           158 354 
 ZAR  HZ EP   1   1849 47.14                             122     0.3 6  200 292 
 ZAR  HE ES   1   1850 11.77                             122     0.1 6  200 292 
 ZAR  HZ I        1850 19.47        13.7 0.27                           200 292 
 NOR  SZ EP   1   1849 50.62                             118     0.3 6  233 234 
 NOR  SE ES   1   1850 17.96                             118     0.1 6  233 234 
                                                                                
