 2017 1222 1356 15.3 L   6.768 -73.171137.4  RSN  5 0.4 1.7LRSN                1
 GAP=144        0.92       5.3     4.6  7.4 -0.8621E+01  0.1406E+02 -0.1156E+02E
 Epicentro: LOS SANTOS - SANTANDER                                             3
 ACTION:UPD 18-01-04 13:23 OP:rebc STATUS:               ID:20171222135615 L   I
 OLDACT:REG 17-12-22 21:06 OP:dhb  STATUS:               ID:20171222134740     3
 2017-12-22-1348-00M.COL___460                                                 6
 STAT SP IPHASW D HRMM SECON CODA AMPLIT PERI AZIMU VELO AIN AR TRES W  DIS CAZ7
 BAR2 EZ EP       1356 33.84                             172    0.0310 19.5 184 
 BAR2 EZ ES       1356 48.53                             172    0.2510 19.5 184 
 BAR2 EZ I        1356 49.67        14.1 0.16            173           19.5 184 
 PAM  EZ EP       1356 36.85                             148   -0.0310 81.9  39 
 PAM  EN ES       1356 53.79                             148    0.0410 81.9  39 
 PAM  EZ I        1356 55.80         9.1 0.46            151           81.9  39 
 PTB  HZ EP       1356 40.98                             131   -0.26 9  144 260 
 PTB  HN ES       1357  1.02                             131   -0.49 9  144 260 
 PTB  HZ I        1357  5.04         5.1 0.26            131            144 260 
 OCA  HZ EP       1356 43.66                             127    0.41 9  163 354 
 OCA  HN ES       1357  4.48                             127   -0.60 9  163 354 
 ZAR  HZ EP       1356 47.04                             121   -0.01 9  203 293 
 ZAR  HN ES       1357 12.58                             121    0.74 9  203 293 
 ZAR  HZ I        1357 18.42         7.0 0.18            122            203 293 
                                                                                
