 2017  622 1758 53.3 L   5.959 -73.769115.0  RSN  6 0.4 1.4LRSN                1
 GAP=222        0.96       4.3     6.5  7.8 -0.7425E+01 -0.2932E+01 -0.5233E+01E
 Epicentro: BOLIVAR - SANTANDER                                                3
 ACTION:UPD 17-09-14 16:54 OP:jn   STATUS:               ID:20170622175853 L   I
 OLDACT:UP  17-06-23 00:57 OP:ar   STATUS:               ID:20170622175730     3
 OLDACT:REG 17-06-22 18:52 OP:ar   STATUS:               ID:20170622175730     3
 2017-06-22-1758-00M.COL___352                                                 6
 STAT SP IPHASW D HRMM SECON CODA AMPLIT PERI AZIMU VELO AIN AR TRES W  DIS CAZ7
 SPBC HZ EP       1759  9.54                             156   -0.4110 47.7 225 
 SPBC HN ES       1759 23.30                             156    0.3610 47.7 225 
 SPBC HZ I        1759 23.89         8.6 0.54            156           47.7 225 
 PTB  HZ EP       1759 12.97                             136   -0.4510 99.5 310 
 PTB  HN ES       1759 28.81                             136   -0.3010 99.5 310 
 PTB  HZ I        1759 29.28         2.7 0.16            137           99.5 310 
 BRR  HZ EP       1759 16.14                             128    0.2510  127   3 
 BRR  HN ES   4   1759 35.98                             128    2.47 0  127   3 
 NOR  HZ EP       1759 16.01                             128   -0.1810  129 250 
 NOR  HN ES       1759 34.31                             128    0.2610  129 250 
 NOR  HZ I        1759 35.02        13.5 0.56            129            129 250 
 GUY2CHZ EP       1759 24.14                             116    0.64 9  195 245 
 GUY2CHN ES       1759 46.68                             116   -0.38 9  195 245 
 GUY2CHZ I        1759 54.26         2.0 0.46                           195 245 
 ZAR  HN ES       1759 49.02                             114    0.41 8  208 325 
                                                                                
