 2015  922 1456 55.7 L   6.794 -73.144142.5  RSN  8 0.4 1.9LRSN                1
 GAP=215        0.80       3.1     5.0  5.8  0.2736E+01  0.3089E+01 -0.9254E+00E
 Epicentro: LOS SANTOS - SANTANDER                                             3
 ACTION:UPD 15-10-28 16:27 OP:cam  STATUS:               ID:20150922145655 L   I
 OLDACT:REG 15-09-22 21:35 OP:ar   STATUS:               ID:20150922144747     3
 2015-09-22-1447-47M.COL___358                                                 6
 STAT SP IPHASW D HRMM SECON CODA AMPLIT PERI AZIMU VELO AIN AR TRES W  DIS CAZ7
 BAR2 EZ EP       1457 14.49                             170   -0.4310 22.7 191 
 BAR2 EZ ES       1457 30.15                             170    0.2410 22.7 191 
 BAR2 EZ I        1457 31.90        10.8 0.32            165           22.7 191 
 BRR  HZ EP       1457 16.36                             152   -0.1510 71.6 299 
 BRR  HN ES   2   1457 33.39                             152    0.64 5 71.6 299 
 BRR  HZ I        1457 34.30        16.5 0.38            149           71.6 299 
 PTB  HZ EP       1457 22.49                             131    0.09 9  148 259 
 PTB  HN ES       1457 42.70                             131   -0.52 9  148 259 
 PTB  HZ I        1457 49.54         9.6 0.62            129            148 259 
 SPBC HN ES   2   1457 45.53                             128   -0.38 5  163 219 
 SPBC HZ I        1457 48.33        12.4 0.26            126            163 219 
 ZAR  HZ EP   2   1457 28.50                             122    0.53 4  204 292 
 ZAR  HN ES       1457 53.22                             122    0.08 9  204 292 
 ZAR  HZ I        1457 58.89         9.7 0.38            121            204 292 
 SML  HZ EP       1457 31.65                             117   -0.56 8  244 335 
 SML  HN ES       1458  1.26                             117    0.57 8  244 335 
 SML  HZ I        1458  2.44        12.0 0.24            118            244 335 
 CHI  HZ EP       1457 33.45                             116    0.30 8  248 195 
 CHI  HN ES       1458  2.67                             116    0.31 8  248 195 
 CHI  HZ I        1458 11.62         2.2 0.28            116            248 195 
 GUY2CHZ EP   2   1457 39.34                             112    0.21 4  301 235 
 GUY2CHN ES   2   1458 13.46                             112    0.46 4  301 235 
 GUY2CHZ I        1458 21.33         6.3 0.86                           301 235 
 SJC  HZ EP   4   1457 49.25                             105   -1.97 0  410 327 
 SJC  HN ES   4   1458 30.36                             105   -4.17 0  410 327 
                                                                                
