 2012  822 1800 53.5 L   6.766 -73.127150.1  RSN  6 0.4 1.7LRSN                1
 GAP=140        0.85       6.0     5.7  8.8  0.5365E+00  0.1260E+01  0.5434E+00E
 Epicentro: LOS SANTOS - SANTANDER                                             3
 ACTION:UPD 12-09-10 11:57 OP:ep   STATUS:               ID:20120822180053 L   I
 2012-08-22-1800-00M.COL___217                                                 6
 STAT SP IPHASW D HRMM SECON CODA AMPLIT PERI AZIMU VELO AIN AR TRES W  DIS CAZ7
 BAR2 SZ EP       18 1 13.54                             172   -0.0210 20.2 198 
 BAR2 SZ I        18 1 13.71        14.7 0.13                          20.2 198 
 BAR2 SZ ES   1   18 1 29.54                             172    0.30 7 20.2 198 
 BRR  HZ EP   1   18 1 15.48                             152    0.19 7 74.9 300 
 BRR  HN ES   1   18 1 33.04                             152    0.72 7 74.9 300 
 PAM  SZ EP   1   18 1 16.30                             151    0.06 7 79.0  37 
 PAM  SZ I        18 1 16.52        14.8 0.19                          79.0  37 
 PAM  SN ES   1   18 1 33.37                             151   -0.64 7 79.0  37 
 RUS  HZ EP   1   18 1 17.63                             146    0.25 7 96.7 177 
 RUS  HN ES   1   18 1 35.90                             146   -0.13 7 96.7 177 
 RUS  HZ I        18 1 36.97         4.9 0.31                          96.7 177 
 PTB  HN ES   1   18 1 41.51                             133   -0.82 7  149 260 
 ZAR  HN ES   2   18 1 52.30                             123   -0.04 4  207 293 
                                                                                
