 2013  322 1857 20.8 L   6.772 -73.172146.0  RSN  7 0.4 2.3LRSN                1
 GAP=134        1.03       4.3     4.6  7.0  0.1610E+01  0.5639E+01  0.8490E+01E
 Epicentro: LOS SANTOS - SANTANDER                                             3
 ACTION:UPD 13-04-09 14:04 OP:ep   STATUS:               ID:20130322185720 L   I
 2013-03-22-1850-00M.COL___241                                                 6
 STAT SP IPHASW D HRMM SECON CODA AMPLIT PERI AZIMU VELO AIN AR TRES W  DIS CAZ7
 BAR2 SZ EP       1857 40.51                             172    0.1210 19.9 183 
 BAR2 SZ ES       1857 55.68                             172    0.0110 19.9 183 
 BAR2 SZ I        1857 58.32        31.8 0.38            170           19.9 183 
 BRR  HN ES       1857 59.14                             153    0.7510 70.2 302 
 BRR  HN I        1858  0.08        53.1 0.30            150           70.2 302 
 PAM  SZ EP       1857 43.21                             150   -0.0810 81.7  40 
 PAM  SN ES       1858  0.45                             150   -0.3910 81.7  40 
 PAM  SN I        1858  1.64        28.2 0.52            153           81.7  40 
 RUS  HZ EP       1857 44.26                             145   -0.1010 97.7 174 
 RUS  HN ES       1858  2.91                             145    0.1710 97.7 174 
 RUS  HN I        1858  4.67        27.6 0.40            146           97.7 174 
 PTB  HZ EP       1857 47.25                             133   -0.22 9  144 260 
 PTB  HN ES       1858  7.35                             133   -0.92 9  144 260 
 PTB  HN I        1858 14.00        35.7 0.30            131            144 260 
 ZAR  HE ES       1858 18.64                             123    0.35 9  203 293 
 ZAR  HE I        1858 26.87        29.6 0.18            122            203 293 
 CHI  HZ EP       1857 58.47                             118    0.38 8  245 195 
 CHI  HN ES       1858 27.23                             118    0.04 8  245 195 
 CHI  HN I        1858 30.27        10.6 0.30            118            245 195 
                                                                                
