 2017 1122 1405 40.0 L   6.804 -73.222139.5  RSN  4 0.1 1.1LRSN                1
 GAP=146        0.38       2.3     2.2  3.2 -0.1518E+01  0.1953E+01 -0.7799E+00E
 Epicentro: ZAPATOCA - SANTANDER                                               3
 ACTION:UPD 17-12-12 19:58 OP:rebc STATUS:               ID:20171122140540 L   I
 OLDACT:REG 17-11-22 21:44 OP:edw  STATUS:               ID:20171122135746     3
 2017-11-22-1358-00M.COL___492                                                 6
 STAT SP IPHASW D HRMM SECON CODA AMPLIT PERI AZIMU VELO AIN AR TRES W  DIS CAZ7
 BAR2 EZ EP       14 5 58.86                             170   -0.0210 23.8 170 
 BAR2 EZ ES       14 6 13.41                             170   -0.2010 23.8 170 
 BAR2 EZ I        14 6 20.91         4.9 0.44            174           23.8 170 
 PAM  EZ IP     D 14 6  1.88                             148   -0.0010 82.6  44 
 PAM  EN ES       14 6 19.05                             148    0.1010 82.6  44 
 PAM  EZ I        14 6 25.69         2.0 0.48            152           82.6  44 
 RUS  HZ EP       14 6  3.13                             142   -0.1110  102 171 
 RUS  HN ES       14 6 21.54                             142    0.1710  102 171 
 RUS  HZ I        14 6 24.43         1.7 0.46            150            102 171 
 PTB  HZ EP       14 6  5.73                             132    0.01 9  140 258 
 PTB  HE ES       14 6 25.83                             132    0.06 9  140 258 
 PTB  HZ I        14 6 28.89         1.7 0.16            139            140 258 
                                                                                
