 2010 1122 1926 15.3 L   6.775 -73.128145.7  RSN 17 0.4 3.1LRSN                1
 GAP=127        0.89       3.0     5.1  5.0 -0.5767E+01  0.2193E+01  0.2832E+01E
 Epicentro: LOS SANTOS - SANTANDER                                             3
 ACTION:UP  10-12-17 16:54 OP:REBC STATUS:               ID:20101122192615 L   I
 2010-11-22-1923-16S.COL___132                                                 6
 STAT SP IPHASW D HRMM SECON CODA AMPLIT PERI AZIMU VELO SNR AR TRES W  DIS CAZ7
 BAR2 SZ IP       1926 34.83                             171     0.010   21 197 
 BAR2 SZ ES   1   1926 50.07                             171    -0.1 7   21 197 
 BAR2 SZ I        1926 52.27       408.0 0.39                            21 197 
 BTL  SZ EP       1926 34.95                             171     0.110   22 316 
 GIR2 SZ IP       1926 34.95                             166    -0.110   34 348 
 GIR2 SZ ES   1   1926 49.99                             166    -0.4 7   34 348 
 BRR  HZ IP     D 1926 36.75                             151     0.210   74 300 
 BRR  HE ES       1926 53.74                             151     0.510   74 300 
 BRR  HZ I        1926 54.90       367.4 0.16                            74 300 
 RUS  HZ IP       1926 38.81                             145     0.010   98 177 
 RUS  HN ES   1   1926 57.00                             145    -0.2 7   98 177 
 RUS  HZ I        1926 58.35       173.5 0.30                            98 177 
 GUE  SZ EP       1926 41.04                             139     0.910  119  11 
 GRA  SZ IP       1926 40.78                             136     0.110  128  16 
 GRA  SZ ES   1   1927  0.18                             136    -0.3 7  128  16 
 GRA  SZ I        1927  1.74       155.6 0.35                           128  16 
 OCA  SZ IP       1926 43.46                             129    -0.4 9  163 353 
 OCA  SZ ES   1   1927  5.37                             129    -0.8 7  163 353 
 OCA  SZ I        1927 11.38       124.4 0.14                           163 353 
 NOR  SZ EP   1   1926 50.91                             118    -0.1 6  235 235 
 NOR  SN ES   1   1927 18.37                             118    -0.5 6  235 235 
 CHI  HZ EP   1   1926 52.50                             117    -0.2 6  247 196 
 CHI  HE ES   1   1927 22.06                             117     0.1 6  247 196 
 CHI  HZ I        1927 30.32        56.6 0.55                           247 196 
 HEL  HZ EP   1   1926 55.46                             115    -0.2 6  273 256 
 HEL  HE ES   2   1927 26.29                             115    -0.8 4  273 256 
 HEL  HZ I        1927 34.08        73.5 0.27                           273 256 
 RREF HZ EP   1   1927  1.65                             111     0.3 5  322 230 
 RREF HE ES   1   1927 37.47                             111     0.1 5  322 230 
 RREF HZ I        1927 43.83        53.9 0.30                           322 230 
 DBB  SZ EP   1   1927  2.99                             109     0.0 5  342 275 
 DBB  SZ I        1927 43.35        15.0 0.56                           342 275 
 TOL  SZ EP   2   1927  3.91                             109     0.5 3  343 225 
 SDV  BZ EP   2   1927  4.78                             108    -0.6 3  361  50 
 SDV  BZ I        1927 44.57        31.9 0.64                           361  50 
 PRA  HZ EP   1   1927  8.90                             106     0.3 4  391 210 
 PRA  HN ES   1   1927 50.79                             106     0.6 4  391 210 
 PRA  HZ I        1927 57.81       170.0 0.18                           391 210 
 SJA  SZ EP   1   1927  8.87                             106    -0.7 4  398 193 
 SJA  SZ ES   1   1927 51.60                             106    -0.3 4  398 193 
 SJA  SZ I        1927 57.56        68.4 0.21                           398 193 
                                                                                
