 2011  922 1233 55.6 L   6.675 -73.190136.0  RSN  4 0.4 1.6LRSN                1
 GAP=190        0.74      15.1    24.7 15.3  0.3196E+03 -0.2229E+03 -0.1135E+03E
 Epicentro: VILLANUEVA - SANTANDER                                             3
 ACTION:UPD 12-07-13 15:59 OP:ep   STATUS:               ID:20110922123355 L   I
 2011-09-22-1230-17S.COL___165                                                 6
 STAT SP IPHASW D HRMM SECON CODA AMPLIT PERI AZIMU VELO AIN AR TRES W  DIS CAZ7
 BAR2 SZ EP       1234 13.82                             176   -0.0610 9.18 175 
 BAR2 SZ I        1234 30.96         5.7 0.42                          9.18 175 
 BTL  SZ EP       1234 14.32                             168    0.1110 28.3 342 
 BRR  HZ EP       1234 15.60                             151   -0.3610 74.9 310 
 BRR  HZ I        1234 16.04        14.2 0.38                          74.9 310 
 BRR  HE ES   1   1234 32.17                             151    0.35 7 74.9 310 
 RUS  HZ EP   2   1234 18.35                             147    0.87 5 87.3 172 
 RUS  HN ES   2   1234 34.12                             147   -0.40 5 87.3 172 
                                                                                
