 2014  522 1001 45.3 L   6.741 -73.161132.5  RSN  4 0.4 1.4LRSN                1
 GAP=224        0.93      11.5     5.0 10.0 -0.2928E+02 -0.2366E+01  0.4903E+02E
 Epicentro: VILLANUEVA - SANTANDER                                             3
 ACTION:UPD 15-03-16 16:59 OP:nd   STATUS:               ID:20140522100145 L   I
 OLDACT:REG 14-05-23 00:29 OP:cam  STATUS:               ID:20140522095948     3
 2014-05-22-0959-48M.COL___255                                                 6
 STAT SP IPHASW D HRMM SECON CODA AMPLIT PERI AZIMU VELO AIN AR TRES W  DIS CAZ7
 BRR  HZ EP       10 2  5.51                             149    0.3210 73.2 304 
 BRR  HN ES       10 2 20.08                             149   -0.5910 73.2 304 
 BRR  HZ I        10 2 24.39         5.9 0.26            144           73.2 304 
 PAM  SZ EP     C 10 2  6.44                             146   -0.1310 83.6  38 
 PAM  SN ES       10 2 23.42                             146    0.2910 83.6  38 
 PAM  SZ I        10 2 25.57         2.9 0.40            145           83.6  38 
 PTB  HZ EP       10 2 10.53                             129   -0.47 9  145 261 
 PTB  HE ES       10 2 31.47                             129    0.46 9  145 261 
 PTB  HZ I        10 2 33.94         3.6 0.16            129            145 261 
 ZAR  HZ EP   2   10 2 17.07                             119   -0.00 4  205 294 
 ZAR  HN ES       10 2 41.99                             119    0.17 9  205 294 
 ZAR  HZ I        10 2 47.99         2.3 0.18            119            205 294 
                                                                                
