 2010  922 1110 56.0 L   6.727 -73.199147.2  RSN  4 0.3 1.5LRSN                1
 GAP=225        0.75       9.3    18.2  7.2  0.1324E+03  0.3097E+02  0.2310E+02E
 Epicentro: VILLANUEVA - SANTANDER                                             3
 ACTION:UP  11-02-18 11:04 OP:tino STATUS:               ID:20100922111056 L   I
 2010-09-22-1109-06S.COL___122                                                 6
 STAT SP IPHASW D HRMM SECON CODA AMPLIT PERI AZIMU VELO SNR AR TRES W  DIS CAZ7
 BAR2 SZ ES   1   1111 30.74                             173    -0.3 7   15 173 
 BAR2 SZ I        1111 31.91         6.8 0.23                            15 173 
 BRR  HZ EP       1111 17.00                             152    -0.310   71 307 
 BRR  HZ I        1111 17.31         7.8 0.19                            71 307 
 BRR  HN ES   1   1111 34.24                             152     0.3 7   71 307 
 RUS  HZ EP       1111 19.48                             146     0.110   93 172 
 RUS  HN ES   1   1111 37.64                             146     0.0 7   93 172 
 RUS  HZ I        1111 39.11         4.1 0.44                            93 172 
 CHI  HZ EP       1111 33.13                             118     0.3 8  239 194 
 CHI  HE ES   3   1112  0.35                             118    -1.1 2  239 194 
 CHI  HZ I        1112  8.06         1.9 0.39                           239 194 
                                                                                
