 2017 1122 1333 22.3 L   5.818 -73.923107.8  RSN  5 0.3 1.2LRSN                1
 GAP=137        0.70       3.9     2.4  5.5 -0.2599E+01 -0.1071E+00 -0.3441E+01E
 Epicentro: FLORIAN - SANTANDER                                                3
 ACTION:UPD 17-12-12 19:58 OP:rebc STATUS:               ID:20171122133322 L   I
 OLDACT:REG 17-11-22 21:42 OP:edw  STATUS:               ID:20171122132742     3
 2017-11-22-1328-00M.COL___492                                                 6
 STAT SP IPHASW D HRMM SECON CODA AMPLIT PERI AZIMU VELO AIN AR TRES W  DIS CAZ7
 SPBC HZ EP       1333 37.09                             166   -0.0710 24.7 222 
 SPBC HN ES       1333 48.58                             166   -0.2110 24.7 222 
 SPBC HZ I        1333 50.12        12.9 0.24            170           24.7 222 
 RUS  HZ EP       1333 42.04                             136    0.1610 93.3  85 
 RUS  HN ES     C 1333 57.10                             136   -0.0910 93.3  85 
 RUS  HZ I        1334  4.58         1.2 0.44            139           93.3  85 
 PTB  HZ EP       1333 41.47                             134   -0.2610 99.2 324 
 PTB  HE ES       1333 56.89                             134   -0.0410 99.2 324 
 PTB  HZ I        1334  0.02         1.4 0.58            139           99.2 324 
 NOR  HZ EP       1333 42.88                             131    0.2610  109 255 
 NOR  HE ES       1333 58.71                             131    0.2010  109 255 
 NOR  HZ I        1334  0.63         4.3 0.12            137            109 255 
 BAR2 EZ EP       1333 43.39                             129   -0.4110  118  44 
 BAR2 EZ ES       1334  1.08                             129    0.4710  118  44 
 BAR2 EZ I        1334  3.08         7.5 0.52            132            118  44 
                                                                                
