 2013 1222 1015 42.6 L   6.778 -73.217151.5  RSN  4 0.4 1.1LRSN                1
 GAP=192        0.98       5.5     7.0  8.8  0.1208E+02  0.4554E+01 -0.2147E+02E
 Epicentro: ZAPATOCA - SANTANDER                                               3
 ACTION:UPD 14-01-13 10:20 OP:ep   STATUS:               ID:20131222101542 L   I
 OLDACT:REG 13-12-22 18:26 OP:nd   STATUS:               ID:20131222101000     3
 2013-12-22-1010-00M.COL___285                                                 6
 STAT SP IPHASW D HRMM SECON CODA AMPLIT PERI AZIMU VELO AIN AR TRES W  DIS CAZ7
 BAR2 SZ EP       1016  2.91                             172    0.0410 20.9 169 
 BAR2 SZ ES       1016 18.65                             172   -0.0310 20.9 169 
 BAR2 SZ I        1016 20.46         3.2 0.26            172           20.9 169 
 RUS  HZ EP       1016  7.20                             145    0.4010 99.0 171 
 RUS  HN ES       1016 25.46                             145   -0.2310 99.0 171 
 RUS  HZ I        1016 26.92         0.7 0.24            149           99.0 171 
 PTB  HZ EP       1016  9.60                             135    0.29 9  140 259 
 PTB  HN ES       1016 29.99                             135   -0.17 9  140 259 
 PTB  HZ I        1016 36.86         2.2 0.62            134            140 259 
 SML  HZ EP       1016 18.47                             119   -0.97 8  243 337 
 SML  HN ES       1016 48.71                             119    0.52 8  243 337 
 SML  HZ I        1016 53.28         2.0 0.22            120            243 337 
                                                                                
