 2011  122 1051 54.9 L   6.790 -73.164133.7  RSN  7 0.3 1.5LRSN                1
 GAP=157        0.53       2.8     7.5  5.8 -0.7769E+01  0.9526E+01 -0.2779E+01E
 Epicentro: LOS SANTOS - SANTANDER                                             3
 ACTION:UP  11-02-08 08:42 OP:pat  STATUS:               ID:20110122105154 L   I
 2011-01-22-1049-51S.COL___137                                                 6
 STAT SP IPHASW D HRMM SECON CODA AMPLIT PERI AZIMU VELO SNR AR TRES W  DIS CAZ7
 BAR2 SZ EP   1   1052 12.97                             170    -0.1 7   22 186 
 BAR2 SZ ES   1   1052 27.29                             170     0.1 7   22 186 
 BAR2 SZ I        1052 29.47         8.4 0.24                            22 186 
 GIR2 SZ EP   2   1052 13.40                             166     0.2 5   32 354 
 RUS  HZ EP   1   1052 17.50                             141     0.1 7  100 175 
 RUS  HE ES   2   1052 34.47                             141    -0.5 5  100 175 
 RUS  HZ I        1052 37.39         2.9 0.24                           100 175 
 GRA  SZ EP   1   1052 19.25                             134     0.0 7  127  18 
 GRA  SZ ES   1   1052 38.52                             134     0.3 7  127  18 
 GRA  SZ I        1052 39.86         6.5 0.25                           127  18 
 OCA  SZ EP   1   1052 22.25                             127    -0.1 7  161 354 
 OCA  SZ ES   1   1052 43.38                             127    -0.4 7  161 354 
 OCA  SZ I        1052 48.50         6.2 0.24                           161 354 
 NOR  SN ES   2   1052 57.23                             116     0.4 4  233 234 
 CHI  HZ EP   2   1052 31.85                             115     0.1 4  247 195 
 CHI  HZ I        1053  5.07         1.6 0.30                           247 195 
                                                                                
