 2016 1122 1201 51.7 L   6.793 -73.152148.6  RSN  5 0.4 1.6LRSN                1
 GAP=149        0.87       7.7     4.5  7.4 -0.1059E+02  0.1427E+02 -0.1269E+02E
 Epicentro: LOS SANTOS - SANTANDER                                             3
 ACTION:UPD 17-10-26 21:10 OP:lp   STATUS:               ID:20161122120151 L   I
 OLDACT:UP  16-11-22 21:57 OP:dani STATUS:               ID:20161122115750d    3
 OLDACT:UP  16-11-22 21:56 OP:dani STATUS:               ID:20161122115750d    3
 OLDACT:DUP 16-11-22 21:52 OP:dani STATUS:               ID:20161122115750d    3
 OLDACT:UP  16-11-22 21:51 OP:dani STATUS:               ID:20161122115749     3
 OLDACT:UP  16-11-22 21:51 OP:dani STATUS:               ID:20161122115749     3
 OLDACT:UP  16-11-22 21:51 OP:dani STATUS:               ID:20161122115749     3
 OLDACT:UP  16-11-22 21:51 OP:dani STATUS:               ID:20161122115749     3
 OLDACT:UP  16-11-22 21:50 OP:dani STATUS:               ID:20161122115749     3
 OLDACT:REG 16-11-22 20:20 OP:dani STATUS:               ID:20161122115749     3
 2016-11-22-1158-00M.COL___355                                                 6
 STAT SP IPHASW D HRMM SECON CODA AMPLIT PERI AZIMU VELO AIN AR TRES W  DIS CAZ7
 BAR2 EZ EP       12 2 11.59                             171   -0.0210 22.5 189 
 BAR2 EZ ES       12 2 27.58                             171    0.4110 22.5 189 
 BAR2 EZ I        12 2 30.05         7.1 0.19            171           22.5 189 
 BRR  HZ EP       12 2 12.86                             153   -0.2410 71.0 299 
 BRR  HN ES   3   12 2 30.84                             153    1.02 2 71.0 299 
 BRR  HZ I        12 2 36.41         8.1 0.48            150           71.0 299 
 PAM  EZ EP       12 2 14.29                             151    0.0610 78.4  40 
 PAM  EN ES       12 2 31.57                             151   -0.2710 78.4  40 
 PAM  EZ I        12 2 33.71        11.1 0.52            155           78.4  40 
 PTB  HZ EP       12 2 18.53                             133   -0.25 9  147 259 
 PTB  HN ES       12 2 39.60                             133   -0.34 9  147 259 
 PTB  HZ I        12 2 46.33         3.5 0.25            135            147 259 
 ZAR  HZ EP       12 2 25.08                             123    0.83 9  204 292 
 ZAR  HE ES       12 2 49.55                             123   -0.13 9  204 292 
 ZAR  HZ I        12 2 55.69         5.4 0.21            125            204 292 
                                                                                
