 2011  522 1433 49.8 L   6.766 -73.112138.3  RSN 11 0.5 2.0LRSN                1
 GAP=142        0.74       3.2     6.4  5.1 -0.5187E+01 -0.4867E+00  0.1318E+01E
 Epicentro: LOS SANTOS - SANTANDER                                             3
 ACTION:UP  11-06-29 08:55 OP:tino STATUS:               ID:20110522143349 L   I
 2011-05-22-1432-16S.COL___141                                                 6
 STAT SP IPHASW D HRMM SECON CODA AMPLIT PERI AZIMU VELO SNR AR TRES W  DIS CAZ7
 BAR2 SZ EP       1434  8.36                             171    -0.110   21 202 
 BAR2 SZ ES   1   1434 23.07                             171     0.0 7   21 202 
 BAR2 SZ I        1434 24.62        16.9 0.11                            21 202 
 BTL  SZ EP       1434  8.62                             170     0.110   24 314 
 BTL  SZ ES   1   1434 23.31                             170     0.1 7   24 314 
 BRR  HZ EP       1434 10.46                             149     0.010   76 300 
 BRR  HZ I        1434 13.71        25.3 0.12                            76 300 
 BRR  HN ES   1   1434 26.50                             149    -0.1 7   76 300 
 PAM  SN ES   3   1434 27.56                             149    -0.4 2   78  36 
 RUS  HZ EP       1434 12.32                             143    -0.210   97 178 
 RUS  HN ES   2   1434 30.50                             143     0.3 5   97 178 
 RUS  HZ I        1434 31.80         6.3 0.52                            97 178 
 BRI  SZ EP       1434 13.76                             139     0.610  111  18 
 BRI  SZ ES   3   1434 29.84                             139    -1.5 2  111  18 
 GRA  SZ EP   2   1434 13.90                             135    -0.7 5  128  15 
 GRA  SZ ES   1   1434 33.51                             135    -0.4 7  128  15 
 GRA  SZ I        1434 34.81         8.3 0.32                           128  15 
 OCA  SZ EP       1434 17.79                             127    -0.1 9  164 352 
 OCA  SZ ES   1   1434 40.10                             127     0.2 7  164 352 
 OCA  SZ I        1434 42.76        12.5 0.26                           164 352 
 HEL  HZ EP   2   1434 30.21                             113     0.3 4  275 257 
 HEL  HN ES   3   1435  1.06                             113    -0.2 2  275 257 
 HEL  HZ I        1435  8.57         5.0 0.22                           275 257 
 GUY  SN ES   3   1435  5.12                             111    -2.4 2  305 236 
 PRA  HZ EP       1434 42.85                             105     0.0 6  391 210 
 PRA  HN ES   2   1435 24.80                             105     0.5 3  391 210 
 PRA  HZ I        1435 28.90        20.7 0.26                           391 210 
                                                                                
