 2015 1122 1120  3.6 L   6.793 -73.157151.1  RSN  6 0.4 1.7LRSN                1
 GAP=147        0.94       5.2     5.4  7.3 -0.3424E+01  0.9271E+01  0.1537E+02E
 Epicentro: LOS SANTOS - SANTANDER                                             3
 ACTION:UPD 15-12-28 16:12 OP:cam  STATUS:               ID:20151122112003 L   I
 OLDACT:UP  15-11-23 01:07 OP:mh   STATUS:               ID:20151122110401d    3
 OLDACT:UP  15-11-23 01:06 OP:mh   STATUS:               ID:20151122110401d    3
 OLDACT:DUP 15-11-23 00:58 OP:mh   STATUS:               ID:20151122110401d    3
 2015-11-22-1103-59S.COL___153                                                 6
 STAT SP IPHASW D HRMM SECON CODA AMPLIT PERI AZIMU VELO AIN AR TRES W  DIS CAZ7
 BAR2 EZ EP       1120 23.96                             171    0.0810 22.4 187 
 BAR2 EZ ES       1120 39.18                             171   -0.4910 22.4 187 
 BRR  HZ EP       1120 24.99                             154   -0.3310 70.5 300 
 BRR  HN ES       1120 42.94                             154    0.7110 70.5 300 
 PAM  EZ EP   1   1120 26.61                             151    0.11 7 78.8  40 
 PAM  EN ES       1120 44.43                             151    0.1010 78.8  40 
 PAM  EZ I        1120 46.37         5.0 0.25            155           78.8  40 
 SPBC HZ EP       1120 32.56                             130    0.15 9  162 219 
 SPBC HN ES   1   1120 54.53                             130   -0.33 7  162 219 
 SPBC HZ I        1121  0.58         6.5 0.56            130            162 219 
 ZAR  HN IS       1121  1.46                             124   -0.39 9  203 292 
 ZAR  HN ES       1121  1.46                                            203 292 
 ZAR  HZ I        1121  8.71         3.6 0.29            123            203 292 
 PRA  HZ EP       1120 56.90                             107   -0.29 6  391 209 
 PRA  HN ES       1121 39.80                             107    0.84 6  391 209 
 PRA  HZ I        1121 44.09         1.6 0.40            108            391 209 
                                                                                
