 2011  322 1253 34.0 L   6.803 -73.104146.9  RSN  5 0.3 1.7LRSN                1
 GAP=181        0.52       5.1     7.7  6.9 -0.2798E+02  0.5086E+01  0.6723E+01E
 Epicentro: LOS SANTOS - SANTANDER                                             3
 ACTION:UP  11-06-16 14:35 OP:jfem STATUS:               ID:20110322125334 L   I
 2011-03-22-1251-01S.COL___137                                                 6
 STAT SP IPHASW D HRMM SECON CODA AMPLIT PERI AZIMU VELO SNR AR TRES W  DIS CAZ7
 BAR2 SZ EP   1   1253 53.80                             170     0.0 7   25 201 
 BAR2 SZ ES   2   1254  9.15                             170    -0.1 5   25 201 
 BAR2 SZ I        1254 17.69        12.8 0.50                            25 201 
 GRA  SZ EP   1   1253 59.37                             138     0.2 7  124  15 
 GRA  SZ ES   2   1254 18.86                             138     0.0 5  124  15 
 GRA  SZ I        1254 21.98         8.6 0.37                           124  15 
 NOR  SZ EP   1   1254 10.01                             118    -0.2 6  239 235 
 NOR  SN ES   1   1254 38.41                             118    -0.1 6  239 235 
 CHI  HZ EP   1   1254 11.36                             117    -0.5 6  250 196 
 CHI  HN ES   2   1254 41.88                             117     0.4 4  250 196 
 CHI  HZ I        1254 49.06         3.2 0.29                           250 196 
 PRA  HZ EP   1   1254 28.34                             107     0.5 4  395 210 
 PRA  HN ES   2   1255 10.42                             107     0.6 3  395 210 
                                                                                
