 2013  222 1503 56.2 L   6.769 -73.171149.5  RSN  6 0.3 1.8LRSN                1
 GAP=135        0.78       3.7     4.1  5.3 -0.1673E+01  0.2892E+01  0.4071E+01E
 Epicentro: LOS SANTOS - SANTANDER                                             3
 ACTION:UPD 13-03-12 09:35 OP:ep   STATUS:               ID:20130222150356 L   I
 2013-02-22-1500-00M.COL___232                                                 6
 STAT SP IPHASW D HRMM SECON CODA AMPLIT PERI AZIMU VELO AIN AR TRES W  DIS CAZ7
 BAR2 SZ EP   2   15 4 16.03                             172   -0.15 5 19.6 184 
 BAR2 SZ ES       15 4 31.75                             172   -0.0410 19.6 184 
 BAR2 SZ I        15 4 32.81        14.6 0.18            174           19.6 184 
 BRR  HZ EP       15 4 18.09                             153    0.4010 70.5 302 
 BRR  HE ES       15 4 34.96                             153    0.4910 70.5 302 
 BRR  HE I        15 4 38.69        15.0 0.24            153           70.5 302 
 PAM  SZ EP       15 4 19.11                             150    0.0610 81.8  40 
 PAM  SN ES       15 4 36.55                             150   -0.3510 81.8  40 
 PAM  SN I        15 4 39.62         5.7 0.58            151           81.8  40 
 RUS  HZ EP   1   15 4 19.88                             145   -0.19 7 97.4 174 
 RUS  HN ES       15 4 38.78                             145    0.0710 97.4 174 
 RUS  HN I        15 4 39.69         8.3 0.38            149           97.4 174 
 PTB  HZ EP       15 4 22.68                             134   -0.46 9  144 260 
 PTB  HN ES       15 4 43.79                             134   -0.39 9  144 260 
 PTB  HN I        15 4 45.93         8.6 0.26            135            144 260 
 CHI  HZ EP       15 4 34.01                             118    0.37 8  245 195 
 CHI  HN ES   1   15 5  2.89                             118    0.02 6  245 195 
                                                                                
