 2014  922 1401 12.9 L   6.997 -73.383118.0  RSN  5 0.3 1.3LRSN                1
 GAP=225        0.73       5.4     4.4  5.8  0.1391E+02  0.3622E+01  0.3297E+00E
 Epicentro: SAN VICENTE DE CHUCURI - SANTANDER                                 3
 ACTION:UPD 14-10-03 23:07 OP:nd   STATUS:               ID:20140922140112 L   I
 OLDACT:REG 14-09-22 20:28 OP:spq  STATUS:               ID:20140922135818     3
 2014-09-22-1358-18M.COL___284                                                 6
 STAT SP IPHASW D HRMM SECON CODA AMPLIT PERI AZIMU VELO AIN AR TRES W  DIS CAZ7
 BRR  HZ EP       14 1 28.97                             161   -0.3310 38.3 289 
 BRR  HE ES       14 1 42.36                             161    0.2510 38.3 289 
 BRR  HZ I        14 1 43.82         6.6 0.28            156           38.3 289 
 BAR2 SZ EP     C 14 1 30.14                             156   -0.0410 50.0 154 
 BAR2 SZ ES   1   14 1 43.65                             156   -0.03 7 50.0 154 
 BAR2 SZ I        14 1 45.11        24.8 0.44            154           50.0 154 
 RUS  HZ EP   1   14 1 36.81                             130    0.51 7  127 165 
 RUS  HN ES   1   14 1 54.39                             130   -0.19 7  127 165 
 RUS  HZ I        14 1 56.40         1.3 0.52            130            127 165 
 PTB  HZ EP       14 1 35.47                             129   -0.4110  129 247 
 PTB  HE ES       14 1 54.02                             129    0.1810  129 247 
 PTB  HZ I        14 1 59.64         2.5 0.32            127            129 247 
 ZAR  HZ EP       14 1 40.62                             120    0.43 9  172 289 
 ZAR  HN ES       14 2  1.28                             120   -0.22 9  172 289 
 ZAR  HZ I        14 2  4.48         2.8 0.15            121            172 289 
                                                                                
