 2015  122 1836 25.7 L   6.798 -73.100152.7  RSN 11 0.3 1.9LRSN                1
 GAP=142        0.75       3.1     3.9  4.8 -0.3962E+01  0.3815E+01  0.1854E+01E
 Epicentro: LOS SANTOS - SANTANDER                                             3
 ACTION:UPD 15-03-02 15:41 OP:nd   STATUS:               ID:20150122183625 L   I
 OLDACT:REG 15-01-22 21:13 OP:spq  STATUS:               ID:20150122182747     3
 2015-01-22-1827-47M.COL___265                                                 6
 STAT SP IPHASW D HRMM SECON CODA AMPLIT PERI AZIMU VELO AIN AR TRES W  DIS CAZ7
 BAR2 EZ ES   1   1837  2.14                             171   -0.02 7 24.5 202 
 BAR2 EZ I        1837  3.83        11.9 0.34            168           24.5 202 
 PAM  SZ EP       1836 48.98                             153    0.5010 74.4  36 
 PAM  SN ES       1837  6.12                             153   -0.1410 74.4  36 
 PAM  SZ I        1837  8.40        16.3 0.36            158           74.4  36 
 BRR  HZ EP       1836 48.14                             152    0.2910 75.7 297 
 BRR  HN ES       1837  5.41                             152    0.2810 75.7 297 
 BRR  HZ I        1837  7.34         9.7 0.25            152           75.7 297 
 RUS  HZ EP       1836 49.89                             145   -0.2110  100 179 
 RUS  HN ES       1837  8.96                             145   -0.1810  100 179 
 RUS  HZ I        1837 11.58         6.0 0.46            146            100 179 
 PTB  HZ EP       1836 53.16                             133   -0.51 9  153 259 
 PTB  HE ES   1   1837 14.91                             133   -0.58 7  153 259 
 PTB  HZ I        1837 21.30        15.4 0.40            133            153 259 
 SPBC HZ EP       1836 55.09                             130    0.07 9  166 220 
 SPBC HE ES       1837 17.91                             130    0.02 9  166 220 
 SPBC HZ I        1837 21.68        12.5 0.16            130            166 220 
 NOR  HZ EP   1   1837  2.67                             119    0.41 6  239 235 
 NOR  HE ES       1837 31.07                             119    0.29 8  239 235 
 NOR  HZ I        1837 35.66         7.6 0.36            120            239 235 
 SML  HZ EP   1   1837  2.23                             119   -0.74 6  246 334 
 CHI  HZ EP   1   1837  4.11                             118    0.20 6  250 196 
 CHI  HN ES   1   1837 33.57                             118   -0.15 6  250 196 
 CHI  HZ I        1837 38.64         2.2 0.42            120            250 196 
 GUY2CHZ EP   4   1837 11.30                             113    1.22 0  305 235 
 GUY2CHE ES   4   1837 46.54                             113    1.84 0  305 235 
 GUY2CHZ I        1837 54.89         4.0 0.56                           305 235 
 TOL  SZ EP   4   1837 16.05                             110    1.42 0  347 225 
 TOL  SN ES   1   1837 52.92                             110    0.12 5  347 225 
 TOL  SZ I        1837 57.30         3.9 0.42            111            347 225 
                                                                                
