 2010  722 1544 21.3 L   6.797 -73.094139.1  RSN  9 0.4 1.9LRSN                1
 GAP=170        0.88       5.7    10.4  7.4  0.9065E+01  0.3828E+01  0.3895E+01E
 Epicentro: LOS SANTOS - SANTANDER                                             3
 ACTION:UPD 10-12-01 15:19 OP:pat  STATUS:               ID:20100722154421 L   I
 2010-07-22-1541-50S.COL___123                                                 6
 STAT SP IPHASW D HRMM SECON CODA AMPLIT PERI AZIMU VELO AIN AR TRES W  DIS CAZ7
 BAR2 SZ EP   1   1544 39.85                             169    -0.3 7   25 204 
 BAR2 SZ ES   1   1544 54.29                             169    -0.5 7   25 204 
 BAR2 SZ I        1544 56.05        25.7 0.32                            25 204 
 GIR2 SZ EP   2   1544 39.98                             166    -0.2 5   33 341 
 GIR2 SZ ES   2   1544 55.58                             166     0.6 5   33 341 
 BRR  HZ EP   1   1544 41.64                             149    -0.4 7   76 297 
 BRR  HN ES   1   1544 58.28                             149     0.1 7   76 297 
 BRR  HZ I        1544 59.54        22.3 0.13                            76 297 
 RUS  HZ EP   1   1544 44.01                             142    -0.3 7  100 179 
 RUS  HE ES   1   1545  2.90                             142     0.6 7  100 179 
 RUS  HZ I        1545  4.47        14.3 0.25                           100 179 
 GUE  SZ EP   1   1544 45.82                             138     0.5 7  116   9 
 GUE  SZ I        1544 48.49         3.1 0.11                           116   9 
 CHI  HZ EP   2   1544 58.27                             115    -0.5 4  250 196 
 CHI  HZ I        1545 31.49         3.8 0.33                           250 196 
 HEL  HZ EP   2   1545  2.18                             113     0.4 4  278 256 
 HEL  HZ I        1545 38.35         5.9 0.41                           278 256 
 RREF HZ EP   2   1545  8.15                             109     0.5 3  326 230 
 RREF HZ I        1545 49.78         4.1 0.29                           326 230 
 PRA  HZ EP   2   1545 14.72                             105    -0.1 3  395 210 
 PRA  HE ES   2   1545 57.34                             105     0.7 3  395 210 
 PRA  HZ I        1546  2.38         5.0 0.29                           395 210 
                                                                                
