 2017 1122 1902 42.4 L   6.812 -73.130144.7  RSN 20 0.6 2.4LRSN                1
 GAP= 67        1.33       3.3     3.5  6.3 -0.5520E+00  0.6307E+01  0.2532E+01E
 Epicentro: LOS SANTOS - SANTANDER                                             3
 ACTION:UPD 17-12-12 19:58 OP:rebc STATUS:               ID:20171122190242 L   I
 OLDACT:UP  17-11-22 23:51 OP:edw  STATUS:               ID:20171122185741     3
 OLDACT:UP  17-11-22 23:48 OP:edw  STATUS:               ID:20171122185741     3
 OLDACT:REG 17-11-22 22:21 OP:edw  STATUS:               ID:20171122185741     3
 2017-11-22-1858-00M.COL___480                                                 6
 STAT SP IPHASW D HRMM SECON CODA AMPLIT PERI AZIMU VELO AIN AR TRES W  DIS CAZ7
 BAR2 EZ IP     C 19 3  2.00                             170    0.0310 25.0 194 
 BAR2 EZ ES       19 3 17.18                             170   -0.0310 25.0 194 
 BAR2 EZ I        19 3 18.28        66.5 0.28            168           25.0 194 
 PAM  EZ EP       19 3  4.86                             151    0.4510 75.2  39 
 PAM  EN ES       19 3 22.10                             151    0.5510 75.2  39 
 PAM  EZ I        19 3 24.18        41.3 0.50            156           75.2  39 
 RUS  HZ EP       19 3  6.01                             143   -0.1610  102 177 
 RUS  HE ES       19 3 25.01                             143    0.3310  102 177 
 RUS  HZ I        19 3 25.83        20.3 0.26            145            102 177 
 PTB  HZ EP       19 3  8.75                             131   -0.75 9  150 258 
 PTB  HE ES       19 3 30.61                             131   -0.00 9  150 258 
 PTB  HZ I        19 3 34.40        15.1 0.38            132            150 258 
 TAM  HZ EP     C 19 3 10.47                             131    0.57 9  154 106 
 TAM  HN ES       19 3 29.71                             131   -1.61 9  154 106 
 OCA  HZ EP       19 3 10.28                             130   -0.28 9  159 352 
 OCA  HE ES       19 3 32.68                             130    0.18 9  159 352 
 OCA  HZ I        19 3 38.45        64.8 0.30            132            159 352 
 SPBC HZ EP       19 3 10.97                             128   -0.09 9  165 219 
 SPBC HN ES       19 3 32.57                             128   -0.81 9  165 219 
 SPBC HZ I        19 3 40.01        29.1 0.38            129            165 219 
 YPLC HZ EP     C 19 3 12.51                             126    0.33 9  177 152 
 YPLC HE ES       19 3 36.04                             126    0.66 9  177 152 
 YPLC HZ I        19 3 39.20        11.3 0.30            129            177 152 
 ZAR  HZ EP       19 3 15.10                             122    0.16 8  205 292 
 ZAR  HN ES       19 3 39.99                             122   -0.29 8  205 292 
 ZAR  HZ I        19 3 45.19        25.5 0.36            123            205 292 
 TABC EZ EP       19 3 19.81                             119    1.47 8  232 211 
 TABC EZ ES       19 3 46.29                             119   -0.05 8  232 211 
 TABC EZ I        19 3 53.40        22.6 0.40            120            232 211 
 NOR  HZ EP       19 3 18.20                             118   -0.14 8  237 234 
 NOR  HN ES       19 3 46.25                             118   -0.10 8  237 234 
 NOR  HZ I        19 3 54.08        12.5 0.36            119            237 234 
 CHI  HZ EP       19 3 20.35                             117    0.08 8  250 195 
 CHI  HN ES       19 3 49.74                             117   -0.03 8  250 195 
 CHI  HZ I        19 3 53.10        16.6 0.64            118            250 195 
 ROSC BZ EP   4   19 3 14.96                             116   -5.76 0  255 211 
 ROSC BN ES       19 3 50.99                             116    0.41 8  255 211 
 ROSC BZ I        19 3 56.58        36.2 0.40            118            255 211 
 HEL  HZ EP       19 3 23.37                             114    0.55 8  274 256 
 HEL  HN ES   4   19 3 52.56                             114   -1.77 0  274 256 
 HEL  HZ I        19 4  0.14        11.1 0.28            116            274 256 
 URE  HZ EP       19 3 22.68                             113   -0.91 7  285 292 
 URE  HE ES   4   19 3 52.81                             113   -2.87 0  285 292 
 URE  HZ I        19 3 57.88        12.7 0.12            115            285 292 
 GUY2CHZ EP   4   19 3 27.04                             112    0.79 0  303 235 
 GUY2CHE ES   4   19 4  2.25                             112    1.83 0  303 235 
 GUY2CHZ I        19 4  8.48        10.3 0.56                           303 235 
 PTGC HZ EP       19 3 25.33                             111   -0.98 7  309 159 
 PTGC HN ES   4   19 3 56.70                             111   -3.83 0  309 159 
 CBOC HZ EP       19 3 29.89                             109    0.34 7  336 252 
 CBOC HE ES       19 4  6.66                             109    0.36 7  336 252 
 PRA  HZ EP       19 3 36.20                             106    0.04 6  394 210 
 PRA  HE ES       19 4 17.38                             106   -0.68 6  394 210 
 PRA  HZ I        19 4 22.37        10.9 0.42            108            394 210 
 ORTC HZ EP       19 3 36.71                             106    0.14 6  398 216 
 ORTC HN ES   4   19 4 19.57                             106    0.78 0  398 216 
 ORTC HZ I        19 4 23.48         7.8 0.30            107            398 216 
                                                                                
