 2014  422 1501 43.4 L   6.815 -73.116143.3  RSN 12 0.5 2.4LRSN                1
 GAP=140        1.16       3.0     4.7  7.7 -0.3384E+01  0.1449E+02  0.2311E+00E
 Epicentro: LOS SANTOS - SANTANDER                                             3
 ACTION:UPD 14-05-13 23:10 OP:nd   STATUS:               ID:20140422150143 L   I
 OLDACT:REG 14-04-22 20:25 OP:nd   STATUS:               ID:20140422150043     3
 2014-04-22-1500-43M.COL___239                                                 6
 STAT SP IPHASW D HRMM SECON CODA AMPLIT PERI AZIMU VELO AIN AR TRES W  DIS CAZ7
 PAM  SZ EP       15 2  5.91                             151    0.8010 74.0  38 
 PAM  SN ES       15 2 22.63                             151    0.5510 74.0  38 
 PAM  SZ I        15 2 25.16        77.0 0.60            155           74.0  38 
 RUS  HZ EP       15 2  7.03                             143    0.0610  102 178 
 RUS  HN ES       15 2 25.00                             143   -0.3910  102 178 
 RUS  HZ I        15 2 26.72        34.5 0.24            146            102 178 
 PTB  HZ EP       15 2  9.93                             131   -0.52 9  151 258 
 PTB  HN ES   1   15 2 30.74                             131   -0.84 7  151 258 
 PTB  HZ I        15 2 34.13        30.0 0.20            132            151 258 
 OCA  HZ EP       15 2 11.31                             129   -0.05 9  159 352 
 OCA  HN ES       15 2 32.89                             129   -0.32 9  159 352 
 OCA  HZ I        15 2 36.75        35.5 0.34            132            159 352 
 SPBC HZ EP       15 2 12.02                             128    0.03 9  167 220 
 SPBC HN ES       15 2 34.25                             128   -0.07 9  167 220 
 SPBC HZ I        15 2 37.88        25.0 0.22            130            167 220 
 ZAR  HZ EP       15 2 16.06                             121    0.17 8  207 291 
 ZAR  HN ES       15 2 41.91                             121    0.63 8  207 291 
 ZAR  HZ I        15 2 47.16        33.4 0.32            123            207 291 
 NOR  HZ EP       15 2 19.11                             117   -0.22 8  238 235 
 NOR  HN ES       15 2 46.87                             117   -0.53 8  238 235 
 NOR  HZ I        15 2 49.02        20.7 0.14            120            238 235 
 SML  HZ EP       15 2 19.44                             117   -0.39 8  244 334 
 SML  HN ES       15 2 47.50                             117   -0.79 8  244 334 
 SML  HZ I        15 2 51.28        27.2 0.30            119            244 334 
 CHI  HZ EP       15 2 21.27                             116    0.09 8  251 196 
 CHI  HN ES       15 2 50.19                             116   -0.50 8  251 196 
 CHI  HZ I        15 2 57.48         6.0 0.56            119            251 196 
 GUY2CHZ EP   1   15 2 27.58                             111    0.32 5  305 235 
 GUY2CHN ES       15 3  2.31                             111    0.80 7  305 235 
 GUY2CHZ I        15 3  9.64         8.2 0.46                           305 235 
 RREF HZ EP       15 2 29.05                             110   -0.75 7  325 230 
 RREF HN ES       15 3  7.02                             110    1.00 7  325 230 
 RREF HZ I        15 3 15.90         8.4 0.54            112            325 230 
 CBOC HZ EP       15 2 31.03                             109    0.45 7  337 252 
 CBOC HN ES       15 3  8.05                             109    0.62 7  337 252 
 CBOC HZ I        15 3  9.74         4.3 0.20            111            337 252 
                                                                                
