 2011  922 1315 45.7 L   6.756 -73.157148.6  RSN  8 0.3 2.1LRSN                1
 GAP=137        0.62       3.7     4.7  5.5  0.1442E+01 -0.3484E+00 -0.5550E+01E
 Epicentro: LOS SANTOS - SANTANDER                                             3
 ACTION:UPD 12-07-13 15:59 OP:ep   STATUS:               ID:20110922131545 L   I
 2011-09-22-1313-37S.COL___165                                                 6
 STAT SP IPHASW D HRMM SECON CODA AMPLIT PERI AZIMU VELO AIN AR TRES W  DIS CAZ7
 BAR2 SZ EP       1316  5.42                             173   -0.1610 18.3 189 
 BAR2 SZ ES   1   1316 21.29                             173    0.20 7 18.3 189 
 BAR2 SZ I        1316 21.76        16.8 0.38                          18.3 189 
 BTL  SZ EP       1316  5.82                             171    0.1810 21.7 326 
 BRR  HZ IP       1316  7.40                             153    0.1710 72.5 302 
 BRR  HZ I        1316  7.60        47.8 0.14                          72.5 302 
 BRR  HN ES   1   1316 24.41                             153    0.38 7 72.5 302 
 PAM  SZ EP       1316  8.53                             150    0.0410 82.0  38 
 PAM  SN ES   2   1316 25.20                             150   -1.07 5 82.0  38 
 RUS  HZ EP       1316  9.43                             146    0.0310 95.9 175 
 RUS  HN ES   1   1316 27.88                             146   -0.01 7 95.9 175 
 OCA  SZ EP       1316 14.59                             130   -0.08 9  165 354 
 OCA  SZ I        1316 40.77        18.0 0.30                           165 354 
 ZAR  HZ EP   2   1316 18.11                             123   -0.29 4  205 294 
 ZAR  HN ES   2   1316 43.68                             123   -0.23 4  205 294 
 ZAR  HZ I        1316 49.10         9.9 0.30                           205 294 
 NOR  SN ES   2   1316 48.01                             120   -0.86 4  231 235 
                                                                                
