 2014  722 1745  2.2 L   6.824 -73.156145.4  RSN 25 0.5 2.9LRSN                1
 GAP= 70        1.03       2.5     2.9  4.7 -0.4432E+00  0.3658E+01  0.1939E+01E
 Epicentro: LOS SANTOS - SANTANDER                                             3
 ACTION:UPD 15-03-16 20:46 OP:nd   STATUS:               ID:20140722174502 L   I
 OLDACT:REG 14-07-22 20:30 OP:y    STATUS:               ID:20140722173819     3
 2014-07-22-1738-19M.COL___272                                                 6
 STAT SP IPHASW D HRMM SECON CODA AMPLIT PERI AZIMU VELO AIN AR TRES W  DIS CAZ7
 BAR2 SZ EP       1745 21.61                             169   -0.1710 25.8 186 
 BAR2 SZ ES   1   1745 36.87                             169   -0.23 7 25.8 186 
 BAR2 SZ I        1745 39.45       240.9 0.32            167           25.8 186 
 BRR  HZ EP       1745 23.44                             153    0.3110 68.9 297 
 BRR  HN ES       1745 40.17                             153    0.6810 68.9 297 
 BRR  HZ I        1745 44.44        99.3 0.26            151           68.9 297 
 PAM  SZ EP       1745 24.45                             151    0.2010 76.2  41 
 PAM  SN ES       1745 41.60                             151    0.1110 76.2  41 
 PAM  SZ I        1745 44.67        94.4 0.36            156           76.2  41 
 RUS  HZ EP       1745 25.56                             143   -0.5010  103 175 
 RUS  HN ES       1745 44.13                             143   -0.5810  103 175 
 RUS  HZ I        1745 45.47        72.1 0.36            144            103 175 
 PTB  HZ EP       1745 28.34                             132   -0.69 9  147 258 
 PTB  HN ES       1745 49.97                             132   -0.02 9  147 258 
 PTB  HZ I        1745 51.98        66.2 0.12            131            147 258 
 TAM  HZ EP       1745 30.05                             130    0.08 9  157 106 
 TAM  HN ES       1745 51.87                             130    0.20 9  157 106 
 TAM  HZ I        1745 52.48        25.1 0.34            134            157 106 
 OCA  HZ EP       1745 29.83                             130   -0.34 9  158 353 
 OCA  HN ES       1745 52.15                             130    0.12 9  158 353 
 OCA  HZ I        1746  0.05        56.7 0.28            132            158 353 
 SPBC HZ EP       1745 30.55                             129   -0.19 9  164 218 
 SPBC HN ES       1745 52.54                             129   -0.50 9  164 218 
 SPBC HZ I        1745 58.86       103.8 0.24            128            164 218 
 ZAR  HZ EP       1745 34.12                             123   -0.24 9  202 292 
 ZAR  HN ES       1745 59.73                             123    0.26 9  202 292 
 ZAR  HZ I        1746  5.39        58.1 0.28            123            202 292 
 NOR  HZ EP       1745 37.79                             118   -0.13 8  235 234 
 NOR  HN ES       1746  5.97                             118    0.15 8  235 234 
 NOR  HZ I        1746 13.49        49.4 0.20            118            235 234 
 SML  HZ EP       1745 38.16                             118   -0.28 8  241 335 
 SML  HE ES       1746  6.40                             118   -0.35 8  241 335 
 SML  HZ I        1746  9.85        83.3 0.24            119            241 335 
 CHI  HZ EP       1745 39.95                             117   -0.12 8  251 195 
 CHI  HN ES       1746 10.68                             117    1.03 8  251 195 
 CHI  HZ I        1746 15.40        34.3 0.34            118            251 195 
 ROSC BZ EP       1745 41.45                             116    1.02 8  254 210 
 ROSC BN ES   4   1746 12.48                             116    2.20 0  254 210 
 ROSC BZ I        1746 16.36        66.7 0.40            117            254 210 
 HEL  HZ EP       1745 43.15                             115    0.86 8  272 255 
 HEL  HN ES   4   1746 15.91                             115    2.32 0  272 255 
 HEL  HZ I        1746 20.39        31.7 0.46            115            272 255 
 URE  HZ EP   4   1745 41.23                             114   -1.74 0  282 292 
 GUY2CHZ EP       1745 46.63                             112    0.83 7  302 234 
 GUY2CHN ES       1746 19.09                             112   -0.76 7  302 234 
 GUY2CHZ I        1746 27.80        33.7 0.30                           302 234 
 VIL  SZ EP   4   1745 44.65                             112   -1.17 0  306 191 
 VIL  SN ES   4   1746 19.86                             112   -0.01 0  306 191 
 VIL  SZ I        1746 28.86        32.5 0.48            113            306 191 
 PTGC HZ EP   4   1745 44.83                             111   -1.49 0  312 159 
 PTGC HN ES   4   1746 18.16                             111   -2.61 0  312 159 
 PTGC HZ I        1746 23.28        35.2 0.48            113            312 159 
 RREF HZ EP   4   1745 50.42                             111    2.05 0  323 229 
 RREF HN ES   4   1746 26.69                             111    2.27 0  323 229 
 RREF HZ I        1746 28.96        33.3 0.24            111            323 229 
 CBOC HZ EP   1   1745 48.89                             110   -0.12 5  333 252 
 CBOC HN ES   4   1746 23.97                             110   -1.59 0  333 252 
 CBOC HZ I        1746 42.74         9.5 0.56            110            333 252 
 DBB  SZ EP       1745 49.15                             109   -0.30 7  338 274 
 DBB  SZ ES   1   1746 26.21                             109   -0.14 5  338 274 
 DBB  SZ I        1746 27.85        68.3 0.48            110            338 274 
 TOL  SZ EP       1745 50.96                             109    0.45 7  345 224 
 TOL  SE ES   4   1746 30.80                             109    2.57 0  345 224 
 TOL  SZ I        1746 38.02        69.4 0.40            110            345 224 
 ANIL HZ EP   1   1745 52.54                             108    0.48 5  358 224 
 ANIL HN ES   4   1746 32.57                             108    1.58 0  358 224 
 ANIL HZ I        1746 37.88        76.6 0.32            109            358 224 
 PRA  HZ EP       1745 55.24                             106   -0.62 6  394 209 
 PRA  HN ES       1746 38.02                             106    0.27 6  394 209 
 PRA  HZ I        1746 43.94        33.0 0.38            107            394 209 
 ORTC HZ EP       1745 55.90                             106   -0.32 6  397 216 
 ORTC HE ES   4   1746 40.23                             106    1.83 0  397 216 
 ORTC HZ I        1746 45.51        16.9 0.38            107            397 216 
 SJC  HZ EP   4   1745 55.80                             106   -1.57 0  406 327 
 SJC  HN ES   4   1746 36.73                             106   -3.70 0  406 327 
 SJC  HZ I        1746 52.40        13.5 0.44            107            406 327 
 MACC HZ EP   4   1746  8.69                             101   -2.45 0  523 188 
 MACC HN ES   4   1747  0.92                             101   -4.03 0  523 188 
                                                                                
