 2015 1022 1236 18.3 L   6.770 -73.139149.8  RSN  6 0.4 1.8LRSN                1
 GAP=218        0.87       3.3     6.0  5.7  0.3394E+01  0.6830E+01  0.1675E+01E
 Epicentro: LOS SANTOS - SANTANDER                                             3
 ACTION:UPD 15-12-22 20:42 OP:cam  STATUS:               ID:20151022123618 L   I
 OLDACT:REG 15-10-22 21:02 OP:dnl  STATUS:               ID:20151022122749     3
 2015-10-22-1227-49M.COL___316                                                 6
 STAT SP IPHASW D HRMM SECON CODA AMPLIT PERI AZIMU VELO AIN AR TRES W  DIS CAZ7
 BAR2 EZ EP       1236 38.24                             172   -0.1110 20.2 194 
 BAR2 EZ ES       1236 53.58                             172   -0.4210 20.2 194 
 BAR2 EZ I        1236 55.03         6.4 0.22            167           20.2 194 
 BRR  HZ EP       1236 40.39                             152    0.3810 73.5 301 
 BRR  HN ES       1236 57.52                             152    0.5710 73.5 301 
 ZAR  HZ EP       1236 51.17                             123   -0.03 8  206 293 
 ZAR  HE ES       1237 16.86                             123   -0.01 8  206 293 
 ZAR  HZ I        1237 22.95         8.0 0.44            121            206 293 
 NOR  HZ EP       1236 54.54                             119    0.42 8  233 235 
 NOR  HN ES       1237 21.42                             119   -0.65 8  233 235 
 NOR  HZ I        1237 29.63         4.1 0.28            118            233 235 
 CHI  HZ EP       1236 55.92                             118    0.03 8  246 196 
 CHI  HE ES       1237 25.44                             118    0.21 8  246 196 
 SML  HZ EP       1236 55.23                             118   -0.27 8  247 335 
 SML  HN ES       1237 24.18                             118   -0.35 8  247 335 
 SML  HZ I        1237 28.10         7.3 0.10            118            247 335 
                                                                                
