 2010  822 1040  0.3 L   6.912 -73.350122.8  RSN  4 0.1 1.2LRSN                1
 GAP=146        0.40       4.5     6.1  6.6 -0.1553E+02 -0.2319E+02  0.1165E+02E
 Epicentro: BETULIA - SANTANDER                                                3
 ACTION:UP  10-09-07 10:57 OP:vdl  STATUS:               ID:20100822104000 L   I
 2010-08-22-1038-40S.COL___120                                                 6
 STAT SP IPHASW D HRMM SECON CODA AMPLIT PERI AZIMU VELO SNR AR TRES W  DIS CAZ7
 BTL  SZ EP       1040 17.06                             175     0.210    9  86 
 BAR2 SZ EP   1   1040 17.49                             161    -0.2 7   40 153 
 BAR2 SZ I        1040 26.38         4.0 0.55                            40 153 
 BRR  HZ EP       1040 17.54                             158     0.010   45 298 
 BRR  HZ I        1040 17.86         8.5 0.11                            45 298 
 BRR  HN ES   1   1040 30.98                             158     0.0 7   45 298 
 GUE  SZ EP       1040 22.49                             135     0.010  112  25 
 GUE  SZ ES   1   1040 39.88                             135     0.0 7  112  25 
 GUE  SZ I        1040 40.89         2.0 0.19                           112  25 
                                                                                
