 2015 1122 1818 11.5 L   6.802 -73.161142.7  RSN 13 0.4 2.4LRSN                1
 GAP=134        1.03       2.7     4.1  5.3 -0.2019E+01  0.8123E+01  0.3081E+00E
 Epicentro: LOS SANTOS - SANTANDER                                             3
 ACTION:UPD 15-12-28 16:12 OP:cam  STATUS:               ID:20151122181811 L   I
 OLDACT:UP  15-11-23 01:44 OP:mh   STATUS:               ID:20151122181443     3
 OLDACT:REG 15-11-23 01:18 OP:mh   STATUS:               ID:20151122181443     3
 2015-11-22-1814-43M.COL___211                                                 6
 STAT SP IPHASW D HRMM SECON CODA AMPLIT PERI AZIMU VELO AIN AR TRES W  DIS CAZ7
 BAR2 EZ EP       1818 30.78                             170    0.0710 23.3 186 
 BAR2 EZ ES       1818 45.51                             170   -0.2310 23.3 186 
 BAR2 EZ I        1818 46.76        47.6 0.32            170           23.3 186 
 BRR  HZ IP     C 1818 32.59                             153    0.4110 69.5 299 
 BRR  HE ES       1818 49.02                             153    0.6810 69.5 299 
 BRR  HN I        1818 49.78       189.4 0.20            148           69.5 299 
 PAM  EZ EP       1818 33.60                             150    0.2010 78.3  41 
 PAM  EN ES       1818 50.91                             150    0.3910 78.3  41 
 PAM  EZ I        1818 53.81        19.3 0.64            152           78.3  41 
 RUS  HZ EP       1818 34.61                             143   -0.3210  101 175 
 RUS  HN ES       1818 53.04                             143   -0.2010  101 175 
 RUS  HZ I        1818 53.79        29.5 0.26            145            101 175 
 OCA  HZ EP       1818 39.42                             129   -0.07 9  160 354 
 OCA  HN ES       1819  0.62                             129   -0.73 9  160 354 
 OCA  HZ I        1819  4.20        52.4 0.20            128            160 354 
 SPBC HZ EP       1818 39.76                             128    0.13 9  162 218 
 SPBC HN ES       1819  1.18                             128   -0.43 9  162 218 
 SPBC HZ I        1819  3.45        36.4 0.12            128            162 218 
 ZAR  HZ EP       1818 43.71                             122    0.19 9  202 292 
 ZAR  HN ES       1819  8.71                             122    0.17 9  202 292 
 ZAR  HZ I        1819 13.73        24.2 0.24            120            202 292 
 NOR  HZ EP       1818 47.50                             118    0.63 8  233 234 
 NOR  HN ES       1819 13.70                             118   -0.79 8  233 234 
 NOR  HZ I        1819 21.93         8.3 0.24            117            233 234 
 SML  HZ EP       1818 47.13                             117   -0.68 8  243 336 
 SML  HN ES       1819 15.80                             117   -0.36 8  243 336 
 SML  HZ I        1819 23.04        27.9 0.22            116            243 336 
 HEL  HZ EP       1818 52.15                             114    0.82 8  270 256 
 HEL  HN ES       1819 22.18                             114   -0.25 8  270 256 
 HEL  HZ I        1819 29.93         7.3 0.28            114            270 256 
 URE  HZ EP   4   1818 50.39                             113   -1.79 0  282 292 
 URE  HN ES   4   1819 24.83                             113    0.88 0  282 292 
 PRA  HZ EP       1819  4.52                             106   -0.27 6  391 209 
 PRA  HN ES       1819 46.80                             106    0.40 6  391 209 
 PRA  HZ I        1819 52.60        10.5 0.34            106            391 209 
 ORTC HZ EP       1819  4.91                             106   -0.26 6  395 216 
 ORTC HN ES   1   1819 47.82                             106    0.75 4  395 216 
 ORTC HZ I        1819 52.97         4.1 0.34            106            395 216 
 SJC  HZ EP   4   1819  4.41                             105   -2.37 0  408 327 
 SJC  HN ES   4   1819 45.92                             105   -4.01 0  408 327 
 SJC  HZ I        1819 59.82         4.5 0.70            105            408 327 
                                                                                
