 2014  222 1006 31.8 L   6.821 -73.138143.9  RSN  6 0.2 1.5LRSN                1
 GAP=202        0.52       2.2     3.2  4.2  0.3224E+01  0.1122E+01 -0.1671E+01E
 Epicentro: LOS SANTOS - SANTANDER                                             3
 ACTION:UPD 14-03-10 08:12 OP:ep   STATUS:               ID:20140222100631 L   I
 OLDACT:UP  14-02-22 14:57 OP:cam  STATUS:               ID:20140222100000     3
 OLDACT:UP  14-02-22 14:57 OP:cam  STATUS:               ID:20140222100000     3
 OLDACT:REG 14-02-22 14:35 OP:cam  STATUS:               ID:20140222100000     3
 2014-02-22-1000-00M.COL___215                                                 6
 STAT SP IPHASW D HRMM SECON CODA AMPLIT PERI AZIMU VELO AIN AR TRES W  DIS CAZ7
 BAR2 SZ EP       10 6 50.91                             169   -0.3410 25.7 191 
 BAR2 SZ ES   1   10 7  6.27                             169   -0.15 7 25.7 191 
 BAR2 SZ I        10 7  8.30         8.2 0.40            165           25.7 191 
 RUS  HZ EP       10 6 55.50                             143   -0.0210  103 177 
 RUS  HN ES       10 7 14.33                             143    0.3010  103 177 
 RUS  HZ I        10 7 16.70         2.6 0.54            142            103 177 
 PTB  HZ EP       10 6 58.47                             131   -0.26 9  149 258 
 PTB  HN ES       10 7 19.65                             131   -0.09 9  149 258 
 PTB  HZ I        10 7 21.49         4.7 0.10            130            149 258 
 ZAR  HZ EP       10 7  4.20                             122    0.09 9  204 291 
 ZAR  HN ES       10 7 29.36                             122    0.04 9  204 291 
 ZAR  HZ I        10 7 35.55         3.8 0.30            122            204 291 
 SML  HZ EP   1   10 7  8.15                             117    0.02 6  242 335 
 SML  HE ES       10 7 36.81                             117    0.34 8  242 335 
 CHI  HZ EP       10 7  9.70                             116    0.05 8  251 195 
 CHI  HE ES       10 7 39.36                             116    0.18 8  251 195 
 CHI  HZ I        10 7 46.86         1.4 0.34            116            251 195 
                                                                                
