 2011  422 1332 46.8 L   6.766 -73.120147.0  RSN 14 0.5 2.7LRSN                1
 GAP=141        1.09       4.5     5.7  6.5 -0.1217E+02  0.3599E+01  0.6401E+01E
 Epicentro: LOS SANTOS - SANTANDER                                             3
 ACTION:UP  11-06-22 15:32 OP:REBC STATUS:               ID:20110422133246 L   I
 2011-04-22-1320-00M.COL___140                                                 6
 STAT SP IPHASW D HRMM SECON CODA AMPLIT PERI AZIMU VELO SNR AR TRES W  DIS CAZ7
 BAR2 SZ IP       1333  6.33                             172    -0.110   20 200 
 BAR2 SZ ES   1   1333 21.56                             172    -0.3 7   20 200 
 BAR2 SZ I        1333 23.08       322.6 0.21                            20 200 
 BTL  SZ EP   1   1333  7.63                             170     1.1 7   24 316 
 GIR2 SZ EP       1333  7.45                             166     0.810   36 347 
 GIR2 SZ ES   1   1333 23.12                             166     0.9 7   36 347 
 BRR  HZ IP       1333  8.18                             151    -0.110   76 300 
 BRR  HZ I        1333  8.46       266.2 0.15                            76 300 
 BRR  HN ES       1333 24.78                             151    -0.310   76 300 
 PAM  SZ IP       1333  9.07                             151    -0.110   79  36 
 PAM  SN ES   1   1333 26.44                             151    -0.2 7   79  36 
 RUS  HZ IP       1333 10.15                             145    -0.210   97 178 
 RUS  HN ES   1   1333 28.58                             145    -0.2 7   97 178 
 RUS  HZ I        1333 30.21       100.1 0.37                            97 178 
 BRI  SZ EP       1333 10.78                             141    -0.210  111  19 
 BRI  SZ ES   1   1333 29.44                             141    -0.4 7  111  19 
 BRI  SZ I        1333 34.37        49.4 0.42                           111  19 
 GRA  SZ IP       1333 12.10                             137    -0.210  129  16 
 GRA  SZ I        1333 13.26        84.3 0.29                           129  16 
 NOR  SZ EP   1   1333 22.36                             119    -0.2 6  235 236 
 NOR  SN ES   1   1333 50.52                             119     0.0 6  235 236 
 NOR  SZ I        1333 58.00         8.6 0.23                           235 236 
 CHI  HZ EP   1   1333 24.23                             118     0.0 6  246 196 
 CHI  HN ES   1   1333 53.99                             118     0.6 6  246 196 
 CHI  HZ I        1334  1.85        24.9 0.40                           246 196 
 ROSC BN ES   1   1333 53.98                             117    -0.4 6  251 212 
 HEL  HZ EP   1   1333 27.99                             115     0.8 6  274 257 
 HEL  HN ES   1   1333 58.19                             115    -0.6 6  274 257 
 HEL  HZ I        1334  5.16        25.6 0.23                           274 257 
 GUY  SZ EP   1   1333 30.98                             112     0.3 5  304 236 
 GUY  SN ES   1   1334  5.17                             112     0.2 5  304 236 
 GUY  SZ I        1334 11.83        45.0 0.43                           304 236 
 PRA  HZ EP   1   1333 39.30                             107    -0.8 4  390 210 
                                                                                
