 2015  422 1252 36.2 L   5.978 -73.353164.0  RSN 10 0.4 1.8LRSN                1
 GAP= 92        0.97       4.9     4.6  7.2  0.6134E+00  0.3751E+01  0.7174E+01E
 Epicentro: GAMBITA - SANTANDER                                                3
 ACTION:UPD 15-06-03 16:56 OP:cam  STATUS:               ID:20150422125236 L   I
 OLDACT:REG 15-04-22 20:59 OP:spq  STATUS:               ID:20150422124748     3
 2015-04-22-1247-48M.COL___277                                                 6
 STAT SP IPHASW D HRMM SECON CODA AMPLIT PERI AZIMU VELO AIN AR TRES W  DIS CAZ7
 RUS  HZ EP       1252 58.74                             169    0.1410 31.4 108 
 RUS  HN ES   1   1253 16.21                             169    0.16 7 31.4 108 
 RUS  HZ I        1253 16.78         5.4 0.46            176           31.4 108 
 BAR2 EZ EP       1252 59.74                             156    0.0510 70.4  16 
 BAR2 EZ ES   1   1253 17.46                             156   -0.52 7 70.4  16 
 BAR2 EZ I        1253 20.15        10.3 0.56            156           70.4  16 
 SPBC HZ EP   1   1253  0.57                             151    0.16 7 87.4 246 
 SPBC HN ES       1253 19.21                             151   -0.0610 87.4 246 
 SPBC HZ I        1253 22.19        17.2 0.20            148           87.4 246 
 BRR  HN ES   1   1253 25.42                             139    0.94 7  131 342 
 BRR  HZ I        1253 29.46         9.0 0.53            139            131 342 
 PTB  HZ EP       1253  3.40                             138   -0.44 9  137 297 
 PTB  HN ES       1253 25.54                             138    0.17 9  137 297 
 PTB  HZ I        1253 27.66         7.4 0.18            136            137 297 
 CHI  HZ EP       1253  5.39                             135   -0.51 9  155 196 
 CHI  HN ES   4   1253 27.91                             135   -1.14 0  155 196 
 CHI  HZ I        1253 31.36         3.1 0.36            136            155 196 
 NOR  HZ EP       1253  7.63                             131    0.51 9  174 255 
 NOR  HE ES       1253 31.05                             131   -0.17 9  174 255 
 NOR  HZ I        1253 37.47        10.2 0.34            130            174 255 
 ZAR  HN ES       1253 41.24                             122   -0.72 8  236 315 
 ZAR  HZ I        1253 49.70         5.4 0.18            122            236 315 
 GUY2CHZ EP   1   1253 14.78                             122    0.81 6  238 250 
 GUY2CHE ES   4   1253 46.24                             122    2.83 0  238 250 
 GUY2CHZ I        1253 50.28         3.8 0.66                           238 250 
 HEL  HZ EP   4   1253 14.65                             121    0.40 0  242 276 
 HEL  HE ES   1   1253 44.14                             121    0.24 6  242 276 
 HEL  HZ I        1253 53.56         5.0 0.67            121            242 276 
                                                                                
