 2013  522 1019 36.7 L   6.314 -73.640105.5  RSN  7 0.4 1.6LRSN                1
 GAP=158        1.15       4.8     3.8  8.1  0.2666E+01  0.7199E+01 -0.2332E+01E
 Epicentro: SANTA HELENA DEL OPON - SANTANDER                                  3
 ACTION:UPD 13-06-20 09:52 OP:ep   STATUS:               ID:20130522101936 L   I
 2013-05-22-1018-51M.COL___211                                                 6
 STAT SP IPHASW D HRMM SECON CODA AMPLIT PERI AZIMU VELO AIN AR TRES W  DIS CAZ7
 BAR2 SZ EP       1019 53.39                             148    0.1810 59.2  59 
 BAR2 SZ ES       1020  6.45                             148    0.3710 59.2  59 
 BAR2 SZ I        1020  7.78         8.5 0.16            152           59.2  59 
 RUS  HZ EP       1019 54.69                             141   -0.1410 77.3 127 
 RUS  HN ES       1020  9.08                             141    0.1110 77.3 127 
 RUS  HN I        1020 10.76         5.4 0.28            144           77.3 127 
 BRR  HZ EP       1019 55.07                             137    0.0610 88.1 355 
 BRR  HE ES       1020  8.18                             137   -1.1110 88.1 355 
 PTB  HZ EP       1019 55.22                             135   -0.2910 93.7 285 
 PTB  HN ES       1020 10.07                             135   -0.1110 93.7 285 
 PTB  HN I        1020 12.37         9.5 0.52            136           93.7 285 
 GIR2 SZ EP       1019 56.13                             134    0.0810 97.9  30 
 GIR2 SZ ES       1020 11.56                             134    0.4210 97.9  30 
 PAM  SZ EP       1020  1.53                             120   -0.47 9  154  42 
 PAM  SN ES       1020 21.77                             120    0.04 9  154  42 
 ZAR  HZ EP       1020  5.14                             114    0.12 9  187 314 
 ZAR  HE ES       1020 28.02                             114    0.91 9  187 314 
 ZAR  HN I        1020 29.56        10.2 0.12            116            187 314 
                                                                                
