 2012  722 1351 24.3 L   6.668 -73.148151.7  RSN  4 0.1 1.8LRSN                1
 GAP=256        0.37       6.5     4.3  4.3  0.1449E+02  0.4715E+01  0.2771E+01E
 Epicentro: VILLANUEVA - SANTANDER                                             3
 ACTION:UPD 12-08-14 11:46 OP:ep   STATUS:               ID:20120722135124 L   I
 2012-07-22-1350-00M.COL___215                                                 6
 STAT SP IPHASW D HRMM SECON CODA AMPLIT PERI AZIMU VELO AIN AR TRES W  DIS CAZ7
 BAR2 SZ EP   1   1351 44.52                             176     0.0 7    9 204 
 BAR2 SZ ES   1   1352  0.07                             176    -0.1 7    9 204 
 BAR2 SZ I        1352  1.82        15.6 0.46            171              9 204 
 BRR  HZ EP       1351 46.62                             151     0.010   79 308 
 BRR  HZ I        1351 46.91        16.4 0.14            153             79 308 
 BRR  HN ES   1   1352  4.05                             151     0.1 7   79 308 
 PTB  HZ EP   1   1351 51.57                             134     0.0 7  145 264 
 PTB  HN ES   2   1352 13.00                             134     0.2 5  145 264 
 PTB  HZ I        1352 15.00         4.7 0.16            133            145 264 
 ZAR  HN ES   1   1352 23.61                             123    -0.2 6  210 296 
