 2016  422 1852  3.8 L   6.558 -73.659105.8  RSN  4 0.3 1.7LRSN                1
 GAP=138        0.87       4.0     4.5  9.2  0.4681E+01  0.2116E+02 -0.3381E+01E
 Epicentro: EL CARMEN - SANTANDER                                              3
 ACTION:UPD 16-05-05 14:23 OP:rebc STATUS:               ID:20160422185203 L   I
 OLDACT:ARG 16-04-22 20:27 OP:ar   STATUS:               ID:20160422184747     3
 2016-04-22-1847-47M.COL___319                                                 6
 STAT SP IPHASW D HRMM SECON CODA AMPLIT PERI AZIMU VELO AIN AR TRES W  DIS CAZ7
 BAR2 EZ EP       1852 19.75                             151   -0.2410 52.8  86 
 BAR2 EZ ES       1852 32.40                             151   -0.1810 52.8  86 
 BAR2 EZ I        1852 33.92        24.2 0.42            154           52.8  86 
 RUS  HZ EP       1852 23.92                             134    0.2810 97.3 139 
 RUS  HN ES       1852 39.39                             134    0.3110 97.3 139 
 RUS  HZ I        1852 40.30         8.0 0.28            137           97.3 139 
 SPBC HZ EP       1852 24.40                             130    0.1510  110 205 
 SPBC HE ES       1852 39.86                             130   -0.3110  110 205 
 SPBC HZ I        1852 41.02        10.0 0.18            132            110 205 
 ZAR  HZ EP       1852 29.52                             117   -0.54 9  168 308 
 ZAR  HE ES       1852 51.03                             117    0.53 9  168 308 
 ZAR  HZ I        1852 51.67         6.0 0.34            119            168 308 
                                                                                
