 2010  722 1311 14.9 L   6.764 -73.148135.3  RSN  5 0.3 1.7LRSN                1
 GAP=159        0.77       5.6     9.7  8.6  0.1019E+02 -0.2453E+02 -0.8957E+01E
 Epicentro: LOS SANTOS - SANTANDER                                             3
 ACTION:UPD 10-12-01 15:19 OP:pat  STATUS:               ID:20100722131114 L   I
 2010-07-22-1307-08S.COL___122                                                 6
 STAT SP IPHASW D HRMM SECON CODA AMPLIT PERI AZIMU VELO AIN AR TRES W  DIS CAZ7
 BAR2 SZ IP       1311 32.95                             172    -0.210   19 192 
 BAR2 SZ ES   1   1311 47.39                             172    -0.1 7   19 192 
 BAR2 SZ I        1311 48.78        16.9 0.26                            19 192 
 GIR2 SZ EP   2   1311 32.95                             165    -0.5 5   35 352 
 BRR  HZ IP     C 1311 34.78                             150    -0.310   73 301 
 BRR  HZ I        1311 35.03        19.3 0.26                            73 301 
 BRR  HE ES   1   1311 51.08                             150     0.3 7   73 301 
 RUS  HZ EP   1   1311 37.59                             143     0.3 7   97 176 
 RUS  HE ES   2   1311 55.12                             143     0.3 5   97 176 
 RUS  HZ I        1311 57.89         4.1 0.26                            97 176 
 GRA  SZ EP   1   1311 40.14                             134     0.6 7  130  17 
 GRA  SZ ES   2   1311 58.60                             134    -0.2 5  130  17 
 GRA  SZ I        1312  0.23         7.7 0.40                           130  17 
                                                                                
