 2017 1122 1955 31.7 L   6.704 -73.568102.7  RSN  5 0.4 1.3LRSN                1
 GAP=165        0.96       5.0     3.9  8.1  0.6996E+01  0.1395E+02  0.2121E+01E
 Epicentro: EL CARMEN - SANTANDER                                              3
 ACTION:UPD 17-12-12 19:58 OP:rebc STATUS:               ID:20171122195531 L   I
 OLDACT:UP  17-11-23 00:21 OP:edw  STATUS:               ID:20171122194744     3
 OLDACT:REG 17-11-22 22:25 OP:edw  STATUS:               ID:20171122194744     3
 2017-11-22-1948-00M.COL___471                                                 6
 STAT SP IPHASW D HRMM SECON CODA AMPLIT PERI AZIMU VELO AIN AR TRES W  DIS CAZ7
 BAR2 EZ EP       1955 47.06                             155    0.0410 44.4 106 
 BAR2 EZ ES       1955 59.16                             155    0.1810 44.4 106 
 BAR2 EZ I        1956  0.87        14.7 0.30            158           44.4 106 
 PTB  HZ EP       1955 50.01                             132   -0.7910 99.9 260 
 PTB  HE ES       1956  5.34                             132   -0.3810 99.9 260 
 PTB  HZ I        1956  6.37         3.7 0.36            132           99.9 260 
 RUS  HZ EP       1955 51.67                             131   -0.2010  105 149 
 RUS  HN ES       1956  7.71                             131    0.1010  105 149 
 RUS  HZ I        1956  9.05         2.5 0.46            132            105 149 
 ZAR  HZ EP       1955 57.69                             116    0.07 9  167 302 
 ZAR  HN ES       1956 18.32                             116    0.48 9  167 302 
 ZAR  HZ I        1956 20.77         4.5 0.34            118            167 302 
 NOR  HZ EP       1956  0.73                             113    0.35 9  191 229 
 NOR  HE ES       1956 23.20                             113    0.44 9  191 229 
 NOR  HZ I        1956 29.29         1.5 0.50            113            191 229 
                                                                                
