 2010  822 1315 47.9 L   6.798 -73.064152.0  RSN  5 0.2 1.3LRSN                1
 GAP=168        0.46       3.5     6.1  5.3  0.7905E+01 -0.1025E+02 -0.4238E+01E
 Epicentro: LOS SANTOS - SANTANDER                                             3
 ACTION:UP  10-09-07 10:57 OP:vdl  STATUS:               ID:20100822131547 L   I
 2010-08-22-1313-53S.COL___120                                                 6
 STAT SP IPHASW D HRMM SECON CODA AMPLIT PERI AZIMU VELO SNR AR TRES W  DIS CAZ7
 BAR2 SZ EP       1316  8.15                             170    -0.210   26 210 
 BAR2 SZ I        1316  8.41         5.0 0.23                            26 210 
 BAR2 SZ ES   1   1316 24.35                             170     0.1 7   26 210 
 BRR  HZ EP       1316 10.16                             151     0.010   79 296 
 BRR  HN ES       1316 27.58                             151     0.010   79 296 
 BRR  HZ I        1316 29.60        10.9 0.19                            79 296 
 RUS  HZ EP   2   1316 12.30                             145     0.1 5  100 181 
 RUS  HN ES   1   1316 31.27                             145     0.1 7  100 181 
 RUS  HZ I        1316 31.75         2.1 0.24                           100 181 
 GUE  SZ EP   2   1316 13.57                             141     0.5 5  115   8 
 GUE  SZ I        1316 15.52         1.4 0.13                           115   8 
 GRA  SZ ES   2   1316 33.32                             139    -0.2 5  124  13 
 GRA  SZ I        1316 35.61         3.7 0.26                           124  13 
                                                                                
