 2016 1022 1526 46.4 L   6.761 -73.103142.0  RSN  6 0.5 1.6LRSN                1
 GAP=144        1.14       5.8     5.6  8.6 -0.7973E+01  0.1034E+02  0.1224E+02E
 Epicentro: LOS SANTOS - SANTANDER                                             3
 ACTION:UPD 16-11-09 19:21 OP:rebc STATUS:               ID:20161022152646 L   I
 OLDACT:UP  16-10-23 00:27 OP:ar   STATUS:               ID:20161022151428     3
 OLDACT:REG 16-10-23 00:00 OP:ar   STATUS:               ID:20161022151428     3
 2016-10-22-1519-10M.COL___351                                                 6
 STAT SP IPHASW D HRMM SECON CODA AMPLIT PERI AZIMU VELO AIN AR TRES W  DIS CAZ7
 BRR  HZ EP       1527  7.82                             150    0.3510 77.4 300 
 BRR  HE ES       1527 24.50                             150    0.5610 77.4 300 
 BRR  HZ I        1527 26.40         8.0 0.30            151           77.4 300 
 PAM  EZ EP       1527  7.56                             150   -0.6410 77.9  35 
 PAM  EN ES       1527 25.29                             150    0.0510 77.9  35 
 PAM  EZ I        1527 26.68         6.4 0.30            153           77.9  35 
 RUS  HZ EP       1527  9.76                             144    0.3510 96.1 179 
 RUS  HE ES       1527 27.29                             144   -0.1110 96.1 179 
 RUS  HZ I        1527 29.43         2.4 0.34            146           96.1 179 
 PTB  HZ EP       1527 12.70                             130   -0.68 9  152 261 
 PTB  HN ES       1527 33.95                             130   -0.51 9  152 261 
 PTB  HZ I        1527 37.26         6.1 0.14            132            152 261 
 NOR  HZ EP       1527 22.44                             118    0.41 8  236 236 
 NOR  HE ES       1527 49.63                             118   -0.22 8  236 236 
 NOR  HZ I        1527 51.68         3.5 0.16            119            236 236 
 GUY2CHZ EP       1527 30.63                             111    0.67 7  303 236 
 GUY2CHN ES   4   1528  7.86                             111    3.89 0  303 236 
 GUY2CHZ I        1528 13.01         2.4 0.46                           303 236 
                                                                                
