 2016  422 1925 27.7 L   6.217 -73.456129.6  RSN  4 0.1 1.7LRSN                1
 GAP=206        0.30       2.1     1.7  2.9 -0.4959E+00  0.2019E+01  0.1583E+01E
 Epicentro: GUADALUPE - SANTANDER                                              3
 ACTION:UPD 16-05-05 14:23 OP:rebc STATUS:               ID:20160422192527 L   I
 OLDACT:ARG 16-04-22 20:27 OP:ar   STATUS:               ID:20160422191750     3
 2016-04-22-1917-50M.COL___317                                                 6
 STAT SP IPHASW D HRMM SECON CODA AMPLIT PERI AZIMU VELO AIN AR TRES W  DIS CAZ7
 BAR2 EZ EP       1925 46.34                             157   -0.0510 51.3  36 
 BAR2 EZ ES       1926  1.01                             157    0.0510 51.3  36 
 BAR2 EZ I        1926  2.52        19.5 0.18            159           51.3  36 
 PTB  HZ EP   4   1925 49.36                             135   -1.17 0  116 288 
 PTB  HN ES       1926  8.24                             135   -0.0910  116 288 
 PTB  HZ I        1926 11.50         6.2 0.42            137            116 288 
 ZAR  HZ EP       1925 59.70                             118   -0.03 8  209 312 
 ZAR  HE ES       1926 24.79                             118    0.08 8  209 312 
 ZAR  HZ I        1926 26.12         8.0 0.30            120            209 312 
 GUY2CHZ EP       1926  3.51                             115    0.03 8  238 243 
 GUY2CHE ES       1926 31.42                             115    0.04 8  238 243 
 GUY2CHZ I        1926 36.35         2.7 0.38                           238 243 
                                                                                
