 2012  622 1615 47.7 L   6.752 -73.182152.3  RSN  5 0.4 1.7LRSN                1
 GAP=230        0.73       7.7     7.0  7.8  0.3325E+02  0.6641E+01 -0.2756E+00E
 Epicentro: VILLANUEVA - SANTANDER                                             3
 ACTION:UPD 12-08-06 17:51 OP:ep   STATUS:               ID:20120622161547 L   I
 2012-06-22-1610-00M.COL___199                                                 6
 STAT SP IPHASW D HRMM SECON CODA AMPLIT PERI AZIMU VELO AIN AR TRES W  DIS CAZ7
 BAR2 SZ EP   1   1616  7.83                             173   -0.21 7 17.7 180 
 BAR2 SZ ES   1   1616 23.39                             173   -0.50 7 17.7 180 
 BAR2 SZ I        1616 24.15         9.7 0.34                          17.7 180 
 BRR  HZ EP   1   1616  9.66                             154    0.11 7 70.5 304 
 BRR  HZ I        1616 10.08        17.5 0.20                          70.5 304 
 BRR  HE ES   1   1616 27.24                             154    0.68 7 70.5 304 
 RUS  HZ EP   1   1616 11.84                             146    0.05 7 95.7 173 
 RUS  HE ES   1   1616 30.67                             146    0.11 7 95.7 173 
 RUS  HZ I        1616 31.77         5.5 0.31                          95.7 173 
 PTB  HZ EP   1   1616 15.05                             134    0.24 7  143 261 
 PTB  HN ES   1   1616 35.94                             134    0.01 7  143 261 
 PTB  HZ I        1616 37.89         3.5 0.19                           143 261 
 ZAR  HN ES   1   1616 45.32                             124   -0.64 6  202 294 
 ZAR  HZ I        1616 52.98         6.6 0.37                           202 294 
                                                                                
