 2017 1222 1910 23.3 L   6.852 -73.314120.4  RSN  4 0.2 1.6LRSN                1
 GAP=119        0.63       4.9     2.9  6.0 -0.4962E+01  0.8944E+01 -0.1108E+02E
 Epicentro: BETULIA - SANTANDER                                                3
 ACTION:UPD 18-01-04 13:23 OP:rebc STATUS:               ID:20171222191023 L   I
 OLDACT:REG 17-12-22 21:43 OP:dhb  STATUS:               ID:20171222190741     3
 2017-12-22-1908-00M.COL___473                                                 6
 STAT SP IPHASW D HRMM SECON CODA AMPLIT PERI AZIMU VELO AIN AR TRES W  DIS CAZ7
 BAR2 EZ IP     C 1910 40.08                             164   -0.0610 32.2 153 
 BAR2 EZ ES       1910 53.25                             164   -0.0310 32.2 153 
 BAR2 EZ I        1910 54.20        15.2 0.26            173           32.2 153 
 PAM  EZ EP       1910 43.46                             142   -0.0910 86.7  51 
 PAM  EN ES       1910 59.44                             142    0.0910 86.7  51 
 PAM  EZ I        1911  1.86         8.0 0.38            144           86.7  51 
 PTB  HZ EP       1910 46.41                             129   -0.2810  131 255 
 PTB  HN ES       1911  5.18                             129    0.2410  131 255 
 PTB  HZ I        1911  7.02         4.6 0.36            132            131 255 
 ZAR  HZ EP       1910 52.61                             119    0.48 9  185 293 
 ZAR  HE ES       1911 14.31                             119   -0.31 9  185 293 
 ZAR  HZ I        1911 19.97         5.6 0.50            120            185 293 
                                                                                
