 2012  522 1105  3.8 L   6.760 -73.198146.7  RSN  5 0.3 1.8LRSN                1
 GAP=228        0.78       7.5     6.7  7.7  0.2869E+02  0.6502E+01 -0.1818E+01E
 Epicentro: VILLANUEVA - SANTANDER                                             3
 ACTION:UP  12-07-05 12:07 OP:pat  STATUS:               ID:20120522110503 L   I
 2012-05-22-1100-00M.COL___200                                                 6
 STAT SP IPHASW D HRMM SECON CODA AMPLIT PERI AZIMU VELO SNR AR TRES W  DIS CAZ7
 BAR2 SZ EP       11 5 23.28                             172    -0.210   19 175 
 BAR2 SZ ES   1   11 5 38.20                             172    -0.6 7   19 175 
 BAR2 SZ I        11 5 39.48        14.4 0.27                            19 175 
 BRR  HZ EP       11 5 25.10                             154     0.210   69 304 
 BRR  HE ES   1   11 5 41.74                             154     0.4 7   69 304 
 BRR  HZ I        11 5 46.11        28.3 0.39                            69 304 
 RUS  HZ EP   1   11 5 27.58                             145     0.2 7   97 172 
 RUS  HN ES   1   11 5 46.08                             145     0.4 7   97 172 
 RUS  HZ I        11 5 47.72         5.5 0.34                            97 172 
 PTB  HZ EP       11 5 29.95                             134    -0.3 9  141 260 
 PTB  HN ES   1   11 5 50.87                             134     0.0 7  141 260 
 ZAR  HE ES   1   11 6  0.97                             123     0.0 6  201 294 
 ZAR  HZ I        11 6  6.94         4.3 0.16                           201 294 
                                                                                
