 2010 1022 1916 36.4 L   6.810 -73.076150.4  RSN  7 0.4 2.2LRSN                1
 GAP=166        0.76       4.7     7.8  7.9 -0.1563E+02  0.7420E+01  0.4693E+01E
 Epicentro: LOS SANTOS - SANTANDER                                             3
 ACTION:UP  11-02-18 11:11 OP:tino STATUS:               ID:20101022191636 L   I
 2010-10-22-1913-22S.COL___125                                                 6
 STAT SP IPHASW D HRMM SECON CODA AMPLIT PERI AZIMU VELO SNR AR TRES W  DIS CAZ7
 BAR2 SZ EP   1   1916 56.82                             169     0.2 7   27 206 
 BAR2 SZ I        1916 57.40        42.0 0.38                            27 206 
 BAR2 SZ ES   2   1917 12.07                             169    -0.4 5   27 206 
 BRR  HZ IP     C 1916 58.71                             151     0.310   78 295 
 BRR  HZ I        1916 58.98        73.0 0.15                            78 295 
 BRR  HN ES   2   1917 16.30                             151     0.7 5   78 295 
 RUS  HZ EP   1   1917  0.67                             145     0.0 7  101 180 
 RUS  HN ES   2   1917 19.57                             145     0.0 5  101 180 
 RUS  HZ I        1917 20.64        12.5 0.32                           101 180 
 GRA  SZ IP     C 1917  1.63                             139    -0.210  123  14 
 GRA  SZ ES   2   1917 21.04                             139    -0.6 5  123  14 
 GRA  SZ I        1917 22.31        23.5 0.19                           123  14 
 NOR  SZ EP   1   1917 12.70                             119    -0.4 6  242 235 
 NOR  SE ES   2   1917 41.11                             119    -0.7 4  242 235 
 CHI  HZ EP   1   1917 14.77                             118     0.1 6  252 197 
 CHI  HE ES   2   1917 44.97                             118     0.4 4  252 197 
 CHI  HZ I        1917 52.56         4.0 0.53                           252 197 
 RREF HZ EP   1   1917 23.87                             111     0.4 5  328 230 
 RREF HN ES   2   1917 59.09                             111    -1.1 3  328 230 
 RREF HZ I        1918  8.47         8.1 0.47                           328 230 
                                                                                
