 2016  522 1308 29.8 L   6.661 -73.186144.0  RSN  4 0.3 1.4LRSN                1
 GAP=227        0.80       8.8     5.8  6.4  0.1801E+02  0.9858E+01 -0.7759E+00E
 Epicentro: VILLANUEVA - SANTANDER                                             3
 ACTION:UPD 16-08-18 17:48 OP:cam  STATUS:               ID:20160522130829 L   I
 OLDACT:DUP 16-05-22 22:13 OP:drio STATUS:               ID:20160522125750d    3
 OLDACT:REG 16-05-22 20:13 OP:drio STATUS:               ID:20160522125748     3
 2016-05-22-1257-48M.COL___293                                                 6
 STAT SP IPHASW D HRMM SECON CODA AMPLIT PERI AZIMU VELO AIN AR TRES W  DIS CAZ7
 BAR2 EZ EP       13 8 48.99                             177   -0.0210 7.64 177 
 BAR2 EZ ES       13 9  4.00                             177    0.0110 7.64 177 
 BAR2 EZ I        13 9  5.22         4.5 0.24            175           7.64 177 
 BRR  HZ EP       13 8 50.74                             150   -0.3210 76.3 310 
 BRR  HN ES       13 9  7.84                             150    0.2010 76.3 310 
 BRR  HZ I        13 9 15.21         5.5 0.48            149           76.3 310 
 PTB  HZ EP       13 8 55.83                             133   -0.21 9  141 265 
 PTB  HN ES       13 9 16.62                             133    0.12 9  141 265 
 PTB  HZ I        13 9 20.66         2.5 0.30            135            141 265 
 ZAR  HZ EP       13 9  3.10                             122    0.72 8  206 297 
 ZAR  HE ES       13 9 27.36                             122   -0.42 8  206 297 
 ZAR  HZ I        13 9 30.09         2.7 0.38            124            206 297 
                                                                                
