 2010  322 1637 32.0 L   6.784 -72.983143.1  RSN  4 0.4 2.0LRSN                1
 GAP=212        0.63       4.5    15.5  9.0 -0.4121E+01 -0.4784E+02  0.6013E+01E
 Epicentro: CEPITA - SANTANDER                                                 3
 ACTION:UP  10-08-24 09:55 OP:vdl  STATUS:               ID:20100322163732 L   I
 2010-03-22-1633-37S.COL___098                                                 6
 STAT SP IPHASW D HRMM SECON CODA AMPLIT PERI AZIMU VELO SNR AR TRES W  DIS CAZ7
 BAR2 SZ EP   1   1637 51.56                             168     0.1 7   31 226 
 BAR2 SZ ES   2   1638  6.43                             168    -0.2 5   31 226 
 BRR  HZ EP   1   1637 53.69                             147    -0.2 7   88 294 
 BRR  HE ES   2   1638 10.86                             147    -0.1 5   88 294 
 BRR  HZ I        1638 13.48        16.9 0.19                            88 294 
 OCA  SZ EP   1   1638  0.54                             128     0.0 7  165 347 
 OCA  SZ ES   2   1638 23.55                             128     0.7 5  165 347 
 OCA  SZ I        1638 30.09        23.9 0.37                           165 347 
 CHI  HZ EP   1   1638  9.67                             116    -0.3 6  252 199 
 CHI  HE ES   2   1638 40.40                             116     0.9 4  252 199 
 CHI  HZ I        1638 44.89         3.7 1.01                           252 199 
                                                                                
