 2014  722 1813 37.8 L   6.699 -73.165149.2  RSN  4 0.2 1.6LRSN                1
 GAP=243        0.58       7.0     5.6  6.4  0.9685E+01  0.1353E+02  0.6262E+01E
 Epicentro: VILLANUEVA - SANTANDER                                             3
 ACTION:UPD 15-03-16 20:46 OP:nd   STATUS:               ID:20140722181337 L   I
 OLDACT:DUP 14-07-22 22:22 OP:fm   STATUS:               ID:20140722180819d    3
 2014-07-22-1808-18M.COL___272                                                 6
 STAT SP IPHASW D HRMM SECON CODA AMPLIT PERI AZIMU VELO AIN AR TRES W  DIS CAZ7
 BAR2 SZ ES   1   1814 13.46                             175    0.30 7 11.9 189 
 BAR2 SZ I        1814 16.28         9.8 0.22            168           11.9 189 
 BRR  HZ EP   1   1813 59.63                             152    0.08 7 75.5 307 
 BRR  HN ES       1814 16.22                             152   -0.3010 75.5 307 
 BRR  HZ I        1814 17.63        15.8 0.32            150           75.5 307 
 PTB  HZ EP       1814  4.56                             133   -0.13 9  144 263 
 PTB  HN ES       1814 25.65                             133   -0.03 9  144 263 
 PTB  HZ I        1814 31.59         2.7 0.24            132            144 263 
 ZAR  HN ES       1814 36.74                             123    0.33 8  207 295 
 ZAR  HZ I        1814 43.26         3.8 0.24            123            207 295 
                                                                                
