 2014  222 1900  2.3 L   6.813 -73.150146.0  RSN  7 0.3 1.8LRSN                1
 GAP=135        0.69       3.3     3.1  5.1 -0.3937E+00  0.5712E+01  0.1783E+01E
 Epicentro: LOS SANTOS - SANTANDER                                             3
 ACTION:UPD 14-03-10 08:12 OP:ep   STATUS:               ID:20140222190002 L   I
 OLDACT:UP  14-02-22 16:53 OP:cam  STATUS:               ID:20140222190000     3
 OLDACT:REG 14-02-22 14:52 OP:cam  STATUS:               ID:20140222190000     3
 2014-02-22-1900-00M.COL___215                                                 6
 STAT SP IPHASW D HRMM SECON CODA AMPLIT PERI AZIMU VELO AIN AR TRES W  DIS CAZ7
 BAR2 SZ EP   1   19 0 22.03                             170    0.00 7 24.7 188 
 BAR2 SZ ES       19 0 37.21                             170   -0.1710 24.7 188 
 BAR2 SZ I        19 0 37.88        25.3 0.22            169           24.7 188 
 BRR  HZ EP       19 0 23.46                             153    0.0110 70.1 298 
 BRR  HN ES       19 0 40.46                             153    0.5410 70.1 298 
 BRR  HZ I        19 0 43.82        10.2 0.14            152           70.1 298 
 PAM  SZ EP   1   19 0 24.71                             151    0.18 7 76.6  41 
 PAM  SN ES       19 0 41.59                             151   -0.2510 76.6  41 
 PAM  SZ I        19 0 43.36        17.7 0.44            154           76.6  41 
 RUS  HZ EP   1   19 0 26.54                             143    0.32 7  102 176 
 RUS  HN ES       19 0 44.94                             143    0.0910  102 176 
 RUS  HZ I        19 0 46.27         4.0 0.30            145            102 176 
 PTB  HZ EP       19 0 28.81                             132   -0.50 9  148 258 
 PTB  HN ES       19 0 50.05                             132   -0.30 9  148 258 
 PTB  HZ I        19 0 52.30         7.4 0.20            132            148 258 
 ZAR  HZ EP   4   19 0 36.18                             123    1.48 0  203 292 
 ZAR  HN ES       19 0 59.99                             123    0.05 9  203 292 
 ZAR  HZ I        19 1  2.15         8.5 0.78            123            203 292 
 NOR  HZ EP   1   19 0 38.47                             119    0.34 6  235 234 
 NOR  HN ES       19 1  6.09                             119    0.04 8  235 234 
 NOR  HZ I        19 1 12.09         3.3 0.14            119            235 234 
                                                                                
