 2012 1022 1435 50.8 L   6.779 -73.117138.4  RSN  5 0.2 1.7LRSN                1
 GAP=141        0.46       3.0     3.2  4.4  0.2647E+01  0.7778E+00  0.2881E+00E
 Epicentro: LOS SANTOS - SANTANDER                                             3
 ACTION:UPD 12-11-22 17:05 OP:ep   STATUS:               ID:20121022143550 L   I
 2012-10-22-1430-00M.COL___231                                                 6
 STAT SP IPHASW D HRMM SECON CODA AMPLIT PERI AZIMU VELO AIN AR TRES W  DIS CAZ7
 BAR2 SZ EP       1436  9.34                             171   -0.2110 21.8 199 
 BAR2 SZ ES   1   1436 24.06                             171   -0.08 7 21.8 199 
 BAR2 SZ I        1436 25.18        15.2 0.21                          21.8 199 
 BRR  HZ EP       1436 11.28                             150   -0.1510 75.2 299 
 BRR  HZ I        1436 11.73        20.3 0.22                          75.2 299 
 BRR  HE ES       1436 27.65                             150    0.1610 75.2 299 
 PAM  SZ EP   1   1436 12.27                             150    0.00 7 77.3  37 
 PAM  SN ES   1   1436 29.06                             150    0.08 7 77.3  37 
 PAM  SZ I        1436 31.52         6.6 0.63                          77.3  37 
 RUS  HZ EP   1   1436 14.11                             143    0.43 7 98.0 178 
 RUS  HE ES   1   1436 31.45                             143   -0.05 7 98.0 178 
 RUS  HE I        1436 33.10         4.7 0.27                          98.0 178 
 ZAR  HN ES   1   1436 48.46                             120   -0.02 6  208 292 
 ZAR  HZ I        1436 53.10         3.5 0.36                           208 292 
                                                                                
