 2017  122 1533 48.3 L   6.813 -73.150139.5  RSN  4 0.2 1.1LRSN                1
 GAP=142        0.66       4.0     4.2  6.1 -0.5717E+01  0.2387E+01 -0.3505E+00E
 Epicentro: LOS SANTOS - SANTANDER                                             3
 ACTION:UPD 17-05-22 16:02 OP:jn   STATUS:               ID:20170122153348 L   I
 OLDACT:UP  17-01-22 22:42 OP:cog  STATUS:               ID:20170122152744     3
 OLDACT:REG 17-01-22 21:06 OP:cog  STATUS:               ID:20170122152744     3
 2017-01-22-1528-00M.COL___343                                                 6
 STAT SP IPHASW D HRMM SECON CODA AMPLIT PERI AZIMU VELO AIN AR TRES W  DIS CAZ7
 BAR2 EZ EP       1534  6.94                             169   -0.2510 24.7 188 
 BAR2 EZ ES       1534 21.54                             169   -0.3910 24.7 188 
 BAR2 EZ I        1534 22.57         3.8 0.36            170           24.7 188 
 PAM  EZ EP       1534  9.77                             150   -0.0210 76.6  40 
 PAM  EN ES       1534 26.81                             150    0.2510 76.6  40 
 PAM  EZ I        1534 28.64         3.9 0.38            150           76.6  40 
 RUS  HZ EP       1534 11.49                             142   -0.0410  102 176 
 RUS  HE ES       1534 29.96                             142    0.3010  102 176 
 RUS  HZ I        1534 31.13         1.0 0.28            143            102 176 
 PTB  HE ES       1534 35.52                             131    0.16 9  148 258 
                                                                                
