 2013 1022 1824 11.7 L   6.767 -73.104149.5  RSN  5 0.1 1.7LRSN                1
 GAP=143        0.41       2.1     2.9  3.6 -0.2183E+01 -0.4515E+00  0.5334E+00E
 Epicentro: LOS SANTOS - SANTANDER                                             3
 ACTION:UPD 13-11-25 09:23 OP:ep   STATUS:               ID:20131022182411 L   I
 OLDACT:UP  13-10-22 17:35 OP:cam  STATUS:               ID:20131022181849d    3
 OLDACT:DUP 13-10-22 17:32 OP:cam  STATUS:               ID:20131022181849d    3
 OLDACT:UP  13-10-22 17:32 OP:cam  STATUS:               ID:20131022181848     3
 OLDACT:REG 13-10-22 16:02 OP:cam  STATUS:               ID:20131022181848     3
 2013-10-22-1818-48M.COL___230                                                 6
 STAT SP IPHASW D HRMM SECON CODA AMPLIT PERI AZIMU VELO AIN AR TRES W  DIS CAZ7
 BAR2 SZ EP       1824 31.60                             172   -0.1710 21.2 204 
 BAR2 SZ ES       1824 47.59                             172    0.2010 21.2 204 
 BAR2 SZ I        1824 47.81        13.5 0.14            171           21.2 204 
 BRR  HZ EP   1   1824 33.57                             151   -0.04 7 77.0 299 
 BRR  HN ES       1824 50.64                             151   -0.0410 77.0 299 
 PAM  SZ EP       1824 34.57                             151    0.2210 77.5  35 
 PAM  SZ I        1824 34.77        12.8 0.24            152           77.5  35 
 PAM  SN ES       1824 51.85                             151   -0.1410 77.5  35 
 RUS  HZ EP   1   1824 35.57                             146   -0.01 7 96.7 179 
 RUS  HN ES       1824 54.10                             146   -0.0710 96.7 179 
 RUS  HZ I        1824 55.63         3.4 0.40            145           96.7 179 
 SPBC HE ES       1825  3.02                             130    0.03 9  163 221 
                                                                                
