 2014  622 1618 33.0 L   6.756 -73.144149.1  RSN  8 0.5 1.9LRSN                1
 GAP=234        1.15       6.0     6.3  8.1  0.1155E+02  0.1122E+02  0.5516E+01E
 Epicentro: LOS SANTOS - SANTANDER                                             3
 ACTION:UPD 14-07-01 22:55 OP:nd   STATUS:               ID:20140622161833 L   I
 OLDACT:REG 14-06-23 01:41 OP:mh   STATUS:               ID:20140622161747     3
 2014-06-22-1617-47M.COL___265                                                 6
 STAT SP IPHASW D HRMM SECON CODA AMPLIT PERI AZIMU VELO AIN AR TRES W  DIS CAZ7
 BAR2 SZ EP       1618 53.01                             173    0.0710 18.5 193 
 BAR2 SZ ES       1619  8.59                             173    0.1010 18.5 193 
 BAR2 SZ I        1619  9.76        12.9 0.25            170           18.5 193 
 BRR  HZ EP       1618 54.02                             152   -0.6310 73.8 302 
 BRR  HN ES       1619 12.29                             152    0.7510 73.8 302 
 BRR  HZ I        1619 22.65        11.5 0.20            151           73.8 302 
 RUS  HZ EP       1618 57.13                             146    0.4010 95.7 176 
 RUS  HN ES       1619 14.73                             146   -0.5110 95.7 176 
 RUS  HZ I        1619 16.47         6.5 0.24            150           95.7 176 
 PTB  HZ EP       1618 59.79                             133   -0.38 9  147 261 
 PTB  HN ES       1619 20.74                             133   -0.63 9  147 261 
 PTB  HZ I        1619 26.53        10.7 0.54            134            147 261 
 SPBC HZ EP       1619  1.95                             131    0.55 9  159 220 
 SPBC HN ES       1619 23.48                             131   -0.08 9  159 220 
 SPBC HZ I        1619 31.15        14.4 0.15            133            159 220 
 ZAR  HN ES       1619 31.41                             123   -0.09 8  206 293 
 NOR  HZ EP   1   1619  8.83                             120    0.20 6  232 235 
 NOR  HN ES   1   1619 37.20                             120    0.77 6  232 235 
 NOR  HZ I        1619 39.64         6.2 0.50            122            232 235 
 GUY2CHZ EP   4   1619 18.18                             113    1.73 0  299 236 
 GUY2CHN ES   4   1619 55.77                             113    5.42 0  299 236 
 GUY2CHZ I        1619 59.83         4.5 0.42                           299 236 
                                                                                
