 2011  222 1247 29.6 L   6.760 -72.913143.3  RSN  4 0.2 1.4LRSN                1
 GAP=186        0.47       4.2    14.6  7.4 -0.3933E+02 -0.6638E+02  0.1108E+02E
 Epicentro: CEPITA - SANTANDER                                                 3
 ACTION:UP  11-03-28 15:10 OP:jfem STATUS:               ID:20110222124729 L   I
 2011-02-22-1245-58S.COL___137                                                 6
 STAT SP IPHASW D HRMM SECON CODA AMPLIT PERI AZIMU VELO SNR AR TRES W  DIS CAZ7
 BAR2 SZ EP       1247 49.10                             165    -0.110   35 238 
 BAR2 SZ I        1248  5.24         4.3 0.30                            35 238 
 BTL  SZ EP       1247 49.43                             162    -0.110   43 294 
 BTL  SZ ES   1   1248  5.14                             162     0.1 7   43 294 
 RUS  HZ EP   2   1247 52.86                             144     0.0 5   98 191 
 RUS  HN ES   2   1248 11.21                             144     0.1 5   98 191 
 RUS  HZ I        1248 13.28         2.9 0.32                            98 191 
 GRA  SZ EP       1247 54.78                             137     0.210  125   6 
 GRA  SZ ES   1   1248 13.80                             137    -0.2 7  125   6 
 GRA  SZ I        1248 15.53         5.4 0.40                           125   6 
                                                                                
