 2012 1022 1054 15.6 L   6.753 -73.124144.4  RSN  7 0.3 1.8LRSN                1
 GAP=141        0.55       2.6     3.5  4.4  0.2261E+00  0.4697E+01  0.2597E+01E
 Epicentro: LOS SANTOS - SANTANDER                                             3
 ACTION:UPD 12-11-22 17:05 OP:ep   STATUS:               ID:20121022105415 L   I
 2012-10-22-1050-00M.COL___231                                                 6
 STAT SP IPHASW D HRMM SECON CODA AMPLIT PERI AZIMU VELO AIN AR TRES W  DIS CAZ7
 BAR2 SZ EP       1054 34.94                             172   -0.0710 18.9 200 
 BAR2 SZ ES   1   1054 50.32                             172    0.19 7 18.9 200 
 BAR2 SZ I        1054 52.83        22.2 0.21                          18.9 200 
 BRR  HZ EP       1054 37.09                             151    0.1910 75.9 301 
 BRR  HZ I        1054 40.65        13.3 0.11                          75.9 301 
 BRR  HE ES   1   1054 53.84                             151    0.35 7 75.9 301 
 PAM  SZ EP       1054 38.05                             150    0.1910 80.0  36 
 PAM  SZ I        1054 38.23        15.5 0.20                          80.0  36 
 PAM  SE ES       1054 54.88                             150   -0.3210 80.0  36 
 RUS  HZ EP   1   1054 38.88                             145    0.02 7 95.2 177 
 RUS  HE ES   1   1054 56.95                             145   -0.04 7 95.2 177 
 RUS  HE I        1054 58.86        10.3 0.52                          95.2 177 
 ZAR  HZ EP   1   1054 48.12                             121   -0.30 6  208 293 
 ZAR  HN ES   1   1055 13.65                             121   -0.35 6  208 293 
 ZAR  HZ I        1055 24.02         6.4 0.32                           208 293 
 CHI  HZ EP   1   1054 53.03                             117    0.25 6  244 196 
 CHI  HN ES   1   1055 21.28                             117   -0.47 6  244 196 
 CHI  HZ I        1055 26.65         2.7 0.34                           244 196 
 PRA  HZ EP   1   1055  9.03                             106    0.32 4  389 210 
                                                                                
