 2013  622 1522 47.0 L   6.758 -73.137154.0  RSN  5 0.5 1.6LRSN                1
 GAP=235        1.12       8.5     8.4 12.3  0.3127E+02  0.2545E+02  0.1063E+02E
 Epicentro: LOS SANTOS - SANTANDER                                             3
 ACTION:UPD 14-01-08 09:56 OP:ep   STATUS:               ID:20130622152247 L   I
 OLDACT:REG 13-06-22 15:35 OP:y    STATUS:               ID:20130622151959     3
 2013-06-22-1519-59M.COL___267                                                 6
 STAT SP IPHASW D HRMM SECON CODA AMPLIT PERI AZIMU VELO AIN AR TRES W  DIS CAZ7
 BRR  HZ EP   2   1523  9.49                             153    0.24 5 74.4 301 
 BRR  HN ES   1   1523 27.36                             153    0.78 7 74.4 301 
 RUS  HZ EP   1   1523 11.65                             147    0.37 7 95.8 176 
 RUS  HN ES       1523 29.83                             147   -0.3610 95.8 176 
 RUS  HZ I        1523 32.68         5.0 0.50            142           95.8 176 
 PTB  HZ EP   1   1523 14.44                             134   -0.25 7  148 261 
 PTB  HN ES       1523 35.62                             134   -0.65 9  148 261 
 PTB  HZ I        1523 42.86         7.0 0.46            130            148 261 
 ZAR  HE ES   1   1523 45.85                             124   -0.40 6  207 293 
 NOR  HZ EP   1   1523 22.81                             120   -0.24 6  233 236 
 NOR  HN ES       1523 52.05                             120    0.90 8  233 236 
 NOR  HZ I        1523 59.95         2.5 0.20            118            233 236 
                                                                                
