 2010  622 1633 19.7 L   6.778 -73.099143.6  RSN  5 0.2 1.4LRSN                1
 GAP=161        0.36       2.5     5.4  4.8 -0.3449E+01 -0.5307E+01 -0.5248E+00E
 Epicentro: LOS SANTOS - SANTANDER                                             3
 ACTION:UP  10-08-24 10:12 OP:vdl  STATUS:               ID:20100622163319 L   I
 2010-06-22-1628-34S.COL___118                                                 6
 STAT SP IPHASW D HRMM SECON CODA AMPLIT PERI AZIMU VELO SNR AR TRES W  DIS CAZ7
 BAR2 SZ EP   1   1633 38.92                             171    -0.1 7   23 204 
 BAR2 SZ ES   2   1633 53.86                             171    -0.2 5   23 204 
 BRR  HZ EP   1   1633 40.66                             150    -0.2 7   77 298 
 BRR  HE ES   2   1633 57.81                             150     0.3 5   77 298 
 RUS  HZ EP   1   1633 43.14                             144     0.1 7   98 179 
 RUS  HE ES   2   1634  1.32                             144     0.1 5   98 179 
 RUS  HZ I        1634  3.41         4.2 0.45                            98 179 
 BRI  SZ EP   1   1633 43.49                             141     0.1 7  109  18 
 BRI  SZ ES   2   1634  1.86                             141     0.0 5  109  18 
 GRA  SZ EP   1   1633 44.82                             136     0.0 7  127  15 
 GRA  SZ ES   2   1634  4.35                             136     0.0 5  127  15 
                                                                                
