 2017  922 1029 44.5 L   6.658 -73.194137.5  RSN  5 0.4 1.4LRSN                1
 GAP=219        1.02       5.8     6.6  8.3  0.1615E+02  0.2410E+02  0.1228E+02E
 Epicentro: VILLANUEVA - SANTANDER                                             3
 ACTION:UPD 17-10-05 19:15 OP:rebc STATUS:               ID:20170922102944 L   I
 OLDACT:REG 17-09-22 19:32 OP:lv   STATUS:               ID:20170922102739     3
 2017-09-22-1028-00M.COL___423                                                 6
 STAT SP IPHASW D HRMM SECON CODA AMPLIT PERI AZIMU VELO AIN AR TRES W  DIS CAZ7
 BAR2 EZ EP       1030  2.49                             177   -0.3810 7.44 170 
 BAR2 EZ ES       1030 17.07                             177   -0.1610 7.44 170 
 BAR2 EZ I        1030 18.98         8.4 0.22            172           7.44 170 
 BRR  HZ EP       1030  4.55                             149   -0.4410 75.7 311 
 BRR  HE ES       1030 21.64                             149    0.6310 75.7 311 
 RUS  HZ EP       1030  6.70                             147    0.3710 85.6 172 
 RUS  HN ES       1030 23.33                             147   -0.0710 85.6 172 
 RUS  HZ I        1030 25.48         4.3 0.22            146           85.6 172 
 ZAR  HN ES       1030 41.32                             120   -0.25 8  206 297 
 ZAR  HZ I        1030 43.78         2.9 0.15            121            206 297 
 NOR  HZ EP       1030 18.94                             118    0.66 8  221 237 
 NOR  HN ES       1030 44.35                             118   -0.32 8  221 237 
 NOR  HZ I        1030 49.66         1.7 0.28            118            221 237 
                                                                                
