 2014  722 1027 18.0 L   6.834 -73.180136.0  RSN 20 0.5 2.4LRSN                1
 GAP=131        1.00       2.9     3.7  5.7 -0.1249E+01  0.8147E+01  0.1448E+01E
 Epicentro: ZAPATOCA - SANTANDER                                               3
 ACTION:UPD 15-03-16 20:46 OP:nd   STATUS:               ID:20140722102718 L   I
 OLDACT:REG 14-07-22 20:12 OP:y    STATUS:               ID:20140722101812     3
 2014-07-22-1018-12M.COL___263                                                 6
 STAT SP IPHASW D HRMM SECON CODA AMPLIT PERI AZIMU VELO AIN AR TRES W  DIS CAZ7
 BAR2 SZ EP     C 1027 36.52                             168    0.0210 26.7 180 
 BAR2 SZ ES   1   1027 51.20                             168    0.24 7 26.7 180 
 BAR2 SZ I        1027 52.27        86.9 0.34            166           26.7 180 
 PAM  SZ EP       1027 39.37                             149    0.2410 77.1  43 
 PAM  SN ES       1027 55.97                             149    0.3210 77.1  43 
 PAM  SZ I        1027 58.36        65.3 0.48            155           77.1  43 
 RUS  HZ EP       1027 40.64                             140   -0.4410  105 174 
 RUS  HN ES   1   1027 59.09                             140   -0.01 7  105 174 
 RUS  HZ I        1028  0.88        24.1 0.28            141            105 174 
 PTB  HZ EP       1027 43.38                             130   -0.49 9  145 257 
 PTB  HN ES       1028  3.54                             130   -0.54 9  145 257 
 PTB  HZ I        1028  7.50        28.8 0.16            130            145 257 
 SPBC HZ EP       1027 45.50                             127   -0.28 9  164 217 
 SPBC HN ES       1028  7.34                             127   -0.15 9  164 217 
 SPBC HZ I        1028 12.05        17.1 0.14            127            164 217 
 ZAR  HZ EP       1027 49.39                             121    0.12 9  199 292 
 ZAR  HN ES       1028 14.03                             121    0.34 9  199 292 
 ZAR  HZ I        1028 21.42        25.4 0.22            122            199 292 
 NOR  HZ EP       1027 52.66                             116   -0.38 8  234 233 
 NOR  HN ES       1028 20.80                             116    0.39 8  234 233 
 NOR  HZ I        1028 22.31        19.1 0.18            117            234 233 
 SML  HZ EP       1027 53.18                             116   -0.33 8  239 336 
 SML  HN ES       1028 20.74                             116   -0.50 8  239 336 
 SML  HZ I        1028 25.49        27.8 0.24            118            239 336 
 CHI  HZ EP   1   1027 55.00                             115   -0.43 6  251 194 
 CHI  HN ES   1   1028 24.37                             115   -0.28 6  251 194 
 CHI  HZ I        1028 35.42         8.0 0.56            116            251 194 
 HEL  HZ EP       1027 58.58                             113    1.20 8  269 255 
 HEL  HN ES       1028 28.47                             113    0.34 8  269 255 
 HEL  HZ I        1028 35.65        10.5 0.44            114            269 255 
 URE  HZ EP   4   1027 55.74                             112   -2.27 0  279 291 
 URE  HN ES   2   1028 27.95                             112   -1.31 4  279 291 
 GUY2CHZ EP       1028  1.79                             110    0.76 7  300 234 
 GUY2CHN ES   4   1028 36.74                             110    2.12 0  300 234 
 GUY2CHZ I        1028 41.81         9.9 0.28                           300 234 
 PTGC HZ EP   4   1027 59.91                             109   -2.05 0  314 158 
 PTGC HN ES   4   1028 32.90                             109   -3.37 0  314 158 
 PTGC HZ I        1028 37.92        27.9 0.46            111            314 158 
 RREF HZ EP       1028  4.59                             109    0.94 7  321 228 
 RREF HN ES   4   1028 42.12                             109    2.84 0  321 228 
 RREF HZ I        1028 45.44         8.5 0.26            110            321 228 
 CBOC HZ EP   1   1028  3.89                             108   -0.31 5  331 251 
 DBB  SZ EP   1   1028  4.74                             108    0.16 5  335 274 
 DBB  SZ ES   4   1028 38.99                             108   -1.96 0  335 274 
 DBB  SZ I        1028 44.77        33.2 0.40            109            335 274 
 TOL  SZ EP       1028  6.48                             107    0.64 7  343 224 
 TOL  SN ES   4   1028 45.28                             107    2.09 0  343 224 
 TOL  SZ I        1028 50.91        13.1 0.26            108            343 224 
 PRA  HZ EP       1028 10.70                             105   -0.62 6  393 209 
 PRA  HN ES       1028 52.33                             105   -0.61 6  393 209 
 PRA  HZ I        1028 59.77         5.7 0.36            106            393 209 
 ORTC HZ EP   1   1028 11.46                             105   -0.19 4  396 215 
 ORTC HN ES   1   1028 54.14                             105    0.61 4  396 215 
 ORTC HZ I        1029  4.96         4.2 0.58            106            396 215 
 SJC  HZ EP   4   1028 10.64                             104   -1.96 0  404 327 
 SJC  HN ES   4   1028 52.63                             104   -2.59 0  404 327 
 SJC  HZ I        1028 56.34         6.1 0.40            106            404 327 
                                                                                
