 2017 1122 1732 39.9 L   6.799 -73.182141.3  RSN  5 0.2 1.3LRSN                1
 GAP=143        0.58       3.2     3.3  4.5 -0.4691E+01  0.4355E+01 -0.8459E+00E
 Epicentro: ZAPATOCA - SANTANDER                                               3
 ACTION:UPD 17-12-12 19:58 OP:rebc STATUS:               ID:20171122173239 L   I
 OLDACT:REG 17-11-22 22:04 OP:edw  STATUS:               ID:20171122172741     3
 2017-11-22-1728-00M.COL___477                                                 6
 STAT SP IPHASW D HRMM SECON CODA AMPLIT PERI AZIMU VELO AIN AR TRES W  DIS CAZ7
 BAR2 EZ EP       1732 58.82                             170   -0.2110 22.9 180 
 BAR2 EZ ES       1733 13.66                             170   -0.2610 22.9 180 
 BAR2 EZ I        1733 16.69         6.4 0.30            168           22.9 180 
 PAM  EZ EP       1733  1.86                             149    0.0110 80.0  42 
 PAM  EN ES       1733 19.24                             149    0.3010 80.0  42 
 PAM  EZ I        1733 20.67         2.3 0.58            154           80.0  42 
 RUS  HZ EP       1733  3.14                             143   -0.1410  101 174 
 RUS  HN ES       1733 21.49                             143    0.0110  101 174 
 RUS  HZ I        1733 23.60         2.7 0.36            143            101 174 
 PTB  HZ EP       1733  6.23                             132    0.04 9  144 259 
 PTB  HN ES       1733 26.50                             132   -0.16 9  144 259 
 PTB  HZ I        1733 27.72         1.6 0.16            134            144 259 
 SPBC HZ EP       1733  7.87                             128    0.01 9  161 218 
 SPBC HN ES       1733 30.09                             128    0.46 9  161 218 
 SPBC HZ I        1733 36.96         4.9 0.24            130            161 218 
                                                                                
