 2016 1222 1341  6.1 L   6.801 -73.112142.3  RSN 14 0.5 2.2LRSN                1
 GAP=141        1.02       3.7     4.3  5.5  0.8201E+00  0.7796E+01  0.4301E+01E
 Epicentro: LOS SANTOS - SANTANDER                                             3
 ACTION:UPD 17-01-11 20:17 OP:rebc STATUS:               ID:20161222134106 L   I
 OLDACT:UP  16-12-23 02:09 OP:edw  STATUS:               ID:20161222133748     3
 OLDACT:REG 16-12-22 20:36 OP:edw  STATUS:               ID:20161222133748     3
 2016-12-22-1338-00M.COL___374                                                 6
 STAT SP IPHASW D HRMM SECON CODA AMPLIT PERI AZIMU VELO AIN AR TRES W  DIS CAZ7
 BAR2 EZ IP     C 1341 25.19                             170   -0.1810 24.4 199 
 BAR2 EZ ES       1341 39.88                             170   -0.4910 24.4 199 
 BAR2 EZ I        1341 42.55        61.5 0.40            167           24.4 199 
 BRR  HZ EP       1341 27.17                             151    0.0710 74.5 297 
 BRR  HN ES       1341 43.92                             151    0.4710 74.5 297 
 BRR  HZ I        1341 45.00        26.5 0.20            151           74.5 297 
 PAM  EZ IP     C 1341 28.05                             151    0.2210 74.9  37 
 PAM  EN ES       1341 44.82                             151    0.0710 74.9  37 
 PAM  EZ I        1341 47.35        35.8 0.64            155           74.9  37 
 RUS  HZ EP       1341 29.38                             143   -0.1610  101 178 
 RUS  HN ES       1341 47.66                             143   -0.1410  101 178 
 RUS  HZ I        1341 49.79        39.3 0.34            142            101 178 
 PTB  HZ EP   9   1341 32.33                             130   -0.83 0  151 259 
 PTB  HN ES       1341 52.77                             130   -0.64 9  151 259 
 PTB  HZ I        1341 55.96        14.7 0.14            130            151 259 
 ZAR  HZ EP       1341 38.72                             121    0.01 8  207 292 
 ZAR  HN ES       1342  4.17                             121    0.05 8  207 292 
 ZAR  HZ I        1342  8.96        10.6 0.16            122            207 292 
 CHI  HZ EP       1341 43.83                             116    0.06 8  250 196 
 CHI  HE ES       1342 12.96                             116   -0.16 8  250 196 
 CHI  HZ I        1342 22.26         6.7 0.44            116            250 196 
 ROSC BZ EP   4   1341 42.41                             116   -1.88 0  255 212 
 ROSC BN ES   4   1342 17.30                             116    3.24 0  255 212 
 ROSC BZ I        1342 19.04        10.5 0.40            116            255 212 
 URE  HZ EP   4   1341 49.67                             113    2.25 0  287 292 
 URE  HN ES   2   1342 18.73                             113   -0.90 4  287 292 
 URE  HZ I        1342 20.33         9.5 0.22            113            287 292 
 GUY2CHZ EP       1341 50.77                             111    0.83 7  304 235 
 GUY2CHN ES   4   1342 25.92                             111    1.81 0  304 235 
 GUY2CHZ I        1342 30.50         5.4 0.26                           304 235 
 CBOC HZ EP       1341 53.37                             109    0.05 7  337 252 
 CBOC HE ES       1342 29.03                             109   -1.10 7  337 252 
 CBOC HZ I        1342 31.98         3.2 0.18            109            337 252 
 DBB  EZ EP   4   1341 52.35                             109   -1.55 0  343 274 
 DBB  EN ES   4   1342 29.27                             109   -1.89 0  343 274 
 DBB  EZ I        1342 31.95         5.1 0.16            109            343 274 
 ORTC HZ EP   4   1342  1.62                             106    1.41 0  398 217 
 ORTC HE ES       1342 43.66                             106    1.27 6  398 217 
 ORTC HZ I        1342 47.14         4.1 0.58            106            398 217 
 SJC  HZ EP   2   1342  0.44                             105   -1.37 3  411 327 
 SJC  HN ES   4   1342 41.72                             105   -3.52 0  411 327 
                                                                                
