 2012  822 1544 30.3 L   6.797 -73.179139.6  RSN  6 0.4 2.0LRSN                1
 GAP=132        0.92       4.8     5.8  8.5 -0.3020E+01  0.4024E+01 -0.1230E+01E
 Epicentro: LOS SANTOS - SANTANDER                                             3
 ACTION:UPD 12-09-10 11:57 OP:ep   STATUS:               ID:20120822154430 L   I
 2012-08-22-1540-00M.COL___217                                                 6
 STAT SP IPHASW D HRMM SECON CODA AMPLIT PERI AZIMU VELO AIN AR TRES W  DIS CAZ7
 BAR2 SZ EP       1544 49.20                             170    0.0510 22.6 181 
 BAR2 SZ ES   1   1545  3.06                             170   -0.81 7 22.6 181 
 BAR2 SZ I        1545  5.29        29.9 0.30                          22.6 181 
 BRR  HZ EP       1544 50.96                             152    0.3810 68.1 300 
 BRR  HZ I        1544 51.39        42.1 0.17                          68.1 300 
 BRR  HE ES   1   1545  7.27                             152    0.85 7 68.1 300 
 PAM  SZ EP       1544 51.95                             149   -0.0510 80.1  41 
 PAM  SN ES   1   1545  8.98                             149    0.03 7 80.1  41 
 PAM  SZ I        1545 10.55        17.6 0.35                          80.1  41 
 RUS  HZ EP   1   1544 53.47                             142    0.05 7  101 174 
 RUS  HN ES   1   1545 11.78                             142    0.30 7  101 174 
 RUS  HZ I        1545 13.37         7.0 0.34                           101 174 
 PTB  HZ EP   1   1544 56.04                             131   -0.36 7  144 259 
 PTB  HN ES   1   1545 16.29                             131   -0.49 7  144 259 
 PTB  HZ I        1545 19.26         7.9 0.12                           144 259 
 OCA  HN ES   1   1545 19.37                             128   -0.44 7  160 354 
                                                                                
