 2011 1222 1850 23.9 L   6.802 -73.169131.6  RSN  6 0.4 1.5LRSN                1
 GAP=180        0.62       6.5     5.1  7.7  0.4708E+01  0.1084E+02 -0.9677E+01E
 Epicentro: LOS SANTOS - SANTANDER                                             3
 ACTION:UPD 12-07-13 16:17 OP:ep   STATUS:               ID:20111222185023 L   I
 2011-12-22-1850-00M.COL___189                                                 6
 STAT SP IPHASW D HRMM SECON CODA AMPLIT PERI AZIMU VELO AIN AR TRES W  DIS CAZ7
 BAR2 SZ EP   1   1850 42.01                             170    0.22 7 23.2 184 
 BAR2 SZ ES   1   1850 55.78                             170    0.01 7 23.2 184 
 BAR2 SZ I        1850 57.83        12.4 0.28                          23.2 184 
 GIR2 SZ EP   2   1850 42.43                             166    0.59 5 30.8 355 
 BRR  HZ EP   2   1850 42.99                             151   -0.37 5 68.9 299 
 RUS  HZ EP   1   1850 46.46                             141    0.18 7  101 175 
 RUS  HN ES   1   1851  3.45                             141   -0.31 7  101 175 
 RUS  HZ I        1851  6.95         3.4 0.20                           101 175 
 PTB  HZ EP   1   1850 48.96                             129   -0.52 7  145 259 
 PTB  HN ES   1   1851  9.54                             129    0.08 7  145 259 
 NOR  SN ES   2   1851 26.33                             116    0.64 4  233 234 
                                                                                
