 2011 1222 1510 59.0 L   6.744 -73.178151.2  RSN  5 0.4 1.5LRSN                1
 GAP=176        0.79       7.4     7.5  8.8  0.1133E+02  0.1461E+02 -0.6085E+01E
 Epicentro: VILLANUEVA - SANTANDER                                             3
 ACTION:UPD 12-07-13 16:17 OP:ep   STATUS:               ID:20111222151059 L   I
 2011-12-22-1510-00M.COL___187                                                 6
 STAT SP IPHASW D HRMM SECON CODA AMPLIT PERI AZIMU VELO AIN AR TRES W  DIS CAZ7
 BAR2 SZ EP   2   1511 18.92                             173   -0.25 5 16.7 182 
 BAR2 SZ ES   1   1511 34.33                             173   -0.58 7 16.7 182 
 GIR2 SZ EP   1   1511 19.17                             166   -0.31 7 37.1 357 
 GIR2 SZ ES   2   1511 35.32                             166   -0.14 5 37.1 357 
 BRR  HZ EP   1   1511 21.10                             153    0.35 7 71.4 304 
 BRR  HZ I        1511 21.38        12.4 0.12                          71.4 304 
 BRR  HE ES   1   1511 38.33                             153    0.62 7 71.4 304 
 RUS  HN ES   1   1511 41.99                             147    0.48 7 94.7 174 
 RUS  HZ I        1511 43.09         2.4 0.26                          94.7 174 
 PTB  HZ EP   1   1511 25.98                             134   -0.03 7  143 261 
 PTB  HN ES   1   1511 46.66                             134   -0.42 7  143 261 
                                                                                
