 2013  122 1047 19.9 L   6.778 -73.208143.8  RSN  5 0.1 1.2LRSN                1
 GAP=229        0.34       4.3     4.0  4.2  0.1256E+02  0.6540E+01  0.5216E+01E
 Epicentro: ZAPATOCA - SANTANDER                                               3
 ACTION:UPD 13-02-15 09:16 OP:ep   STATUS:               ID:20130122104719 L   I
 2013-01-22-1044-42M.COL___177                                                 6
 STAT SP IPHASW D HRMM SECON CODA AMPLIT PERI AZIMU VELO AIN AR TRES W  DIS CAZ7
 BAR2 SZ ES   1   1047 54.30                             171   -0.06 7 20.7 172 
 BRR  HN ES   1   1047 56.74                             154    0.01 7 66.5 303 
 RUS  HZ EP   1   1047 43.52                             144    0.17 7 98.9 172 
 RUS  HN ES   1   1048  1.61                             144   -0.02 7 98.9 172 
 RUS  HZ I        1048  3.45         2.5 0.34            145           98.9 172 
 PTB  HZ EP   1   1047 45.84                             133   -0.23 7  140 259 
 PTB  HN ES   1   1048  6.53                             133    0.06 7  140 259 
 PTB  HZ I        1048  8.11         2.2 0.32            130            140 259 
 ZAR  HE ES   1   1048 16.52                             123    0.07 6  199 294 
 ZAR  HZ I        1048 24.73         1.5 0.34            120            199 294 
                                                                                
