 2010  722 1338  7.3 L   6.846 -73.011149.5  RSN  4 0.3 1.5LRSN                1
 GAP=254        0.58       6.3    11.7  6.7  0.4167E+02 -0.1575E+02 -0.1493E+01E
 Epicentro: CEPITA - SANTANDER                                                 3
 ACTION:UPD 10-12-01 15:19 OP:pat  STATUS:               ID:20100722133807 L   I
 2010-07-22-1333-30S.COL___123                                                 6
 STAT SP IPHASW D HRMM SECON CODA AMPLIT PERI AZIMU VELO AIN AR TRES W  DIS CAZ7
 BAR2 SZ IP       1338 27.61                             166     0.010   34 214 
 BAR2 SZ ES   1   1338 43.09                             166    -0.4 7   34 214 
 BAR2 SZ I        1338 44.91         8.2 0.25                            34 214 
 BRR  HZ IP     D 1338 29.58                             149     0.110   83 291 
 BRR  HZ I        1338 29.78        12.3 0.17                            83 291 
 BRR  HN ES   1   1338 46.84                             149     0.0 7   83 291 
 RUS  HZ EP   2   1338 31.46                             143    -0.3 5  106 184 
 RUS  HZ I        1338 32.36         2.1 0.42                           106 184 
 RUS  HN ES   2   1338 51.48                             143     0.6 5  106 184 
 CHI  HZ EP   2   1338 46.27                             117     0.1 4  258 198 
 CHI  HN ES   2   1339 16.20                             117    -0.3 4  258 198 
 CHI  HZ I        1339 18.52         2.2 0.56                           258 198 
                                                                                
