 2011  522 1222 40.8 L   6.777 -73.125142.9  RSN 12 0.4 2.3LRSN                1
 GAP=140        0.82       3.5     5.1  4.6 -0.8342E+01  0.4976E+01 -0.1407E+00E
 Epicentro: LOS SANTOS - SANTANDER                                             3
 ACTION:UP  11-06-29 08:55 OP:tino STATUS:               ID:20110522122240 L   I
 2011-05-22-1219-07S.COL___141                                                 6
 STAT SP IPHASW D HRMM SECON CODA AMPLIT PERI AZIMU VELO SNR AR TRES W  DIS CAZ7
 BAR2 SZ IP       1223  0.08                             171     0.010   21 197 
 BAR2 SZ ES   1   1223 14.77                             171    -0.3 7   21 197 
 BAR2 SZ I        1223 16.38        51.3 0.15                            21 197 
 BTL  SZ IP       1223  0.30                             171     0.210   22 315 
 BTL  SZ ES   1   1223 15.54                             171     0.4 7   22 315 
 GIR2 SZ IP       1223  0.29                             166     0.110   34 347 
 GIR2 SZ ES   1   1223 15.32                             166    -0.1 7   34 347 
 BRR  HZ IP     D 1223  1.96                             151     0.110   75 299 
 BRR  HZ I        1223  3.84        61.6 0.13                            75 299 
 BRR  HN ES   1   1223 18.76                             151     0.5 7   75 299 
 PAM  SZ IP       1223  3.04                             150     0.310   78  37 
 PAM  SN ES   1   1223 19.88                             150     0.0 7   78  37 
 RUS  HZ EP       1223  4.08                             144     0.010   98 177 
 RUS  HN ES   1   1223 22.04                             144    -0.2 7   98 177 
 RUS  HZ I        1223 23.73        22.4 0.23                            98 177 
 BRI  SZ EP       1223  4.65                             140     0.110  110  19 
 BRI  SZ ES   1   1223 22.27                             140    -0.8 7  110  19 
 GRA  SZ IP     D 1223  5.94                             136     0.010  128  16 
 GRA  SZ I        1223  7.24        28.9 0.24                           128  16 
 GRA  SZ ES   1   1223 25.26                             136    -0.3 7  128  16 
 OCA  SZ EP       1223  8.98                             128    -0.2 9  163 352 
 OCA  SZ ES   2   1223 30.95                             128    -0.4 5  163 352 
 OCA  SZ I        1223 33.87        23.5 0.17                           163 352 
 NOR  SZ EP       1223 16.56                             118     0.1 8  235 235 
 NOR  SN ES   1   1223 43.24                             118    -1.0 6  235 235 
 HEL  HZ EP       1223 21.52                             114     0.5 8  274 256 
 HEL  HN ES   3   1223 52.18                             114    -0.3 2  274 256 
 HEL  HZ I        1223 58.29        13.0 0.36                           274 256 
 SJC  HZ EP   3   1223 34.11                             105    -2.6 1  413 327 
 SJC  HZ I        1224 19.16         4.5 0.45                           413 327 
                                                                                
