 2014  622 1932 27.1 L   6.852 -73.163143.9  RSN  6 0.5 1.6LRSN                1
 GAP=182        0.96       4.2     7.6  7.9  0.7193E+01 -0.4199E+00 -0.2854E+01E
 Epicentro: LOS SANTOS - SANTANDER                                             3
 ACTION:UPD 14-07-01 22:55 OP:nd   STATUS:               ID:20140622193227 L   I
 OLDACT:UP  14-06-23 00:22 OP:mh   STATUS:               ID:20140622192818d    3
 OLDACT:DUP 14-06-23 00:15 OP:mh   STATUS:               ID:20140622192818d    3
 2014-06-22-1928-17M.COL___262                                                 6
 STAT SP IPHASW D HRMM SECON CODA AMPLIT PERI AZIMU VELO AIN AR TRES W  DIS CAZ7
 BAR2 SZ EP   1   1932 46.78                             168    0.14 7 28.8 184 
 BAR2 SZ ES   1   1933  2.03                             168    0.15 7 28.8 184 
 BAR2 SZ I        1933  4.84         5.7 0.29            173           28.8 184 
 BRR  HZ EP   1   1932 48.82                             154    1.00 7 66.9 295 
 BRR  HN ES       1933  4.42                             154    0.4410 66.9 295 
 BRR  HZ I        1933  6.61         7.3 0.13            154           66.9 295 
 RUS  HZ EP       1932 51.12                             142    0.0010  106 175 
 RUS  HN ES   1   1933  9.28                             142   -0.56 7  106 175 
 RUS  HZ I        1933 12.06         2.1 0.21            147            106 175 
 PTB  HZ EP       1932 53.72                             132   -0.15 9  147 256 
 PTB  HN ES   1   1933 14.18                             132   -0.55 7  147 256 
 PTB  HZ I        1933 17.26         9.2 0.05            135            147 256 
 OCA  HN ES       1933 15.80                             130   -0.46 9  154 354 
 OCA  HZ I        1933 21.95         5.0 0.39            131            154 354 
 SML  HZ EP   1   1933  3.22                             118    0.24 6  238 335 
 SML  HN ES   1   1933 30.53                             118   -0.43 6  238 335 
 SML  HZ I        1933 37.83         4.3 0.27            119            238 335 
                                                                                
