 2010  322 1805 14.4 L   6.816 -72.982141.3  RSN  7 0.4 1.7LRSN                1
 GAP=200        0.62       4.2     8.6  6.9 -0.3413E+01  0.8055E+01  0.1424E+01E
 Epicentro: CEPITA - SANTANDER                                                 3
 ACTION:UP  10-08-24 09:55 OP:vdl  STATUS:               ID:20100322180514 L   I
 2010-03-22-1801-20S.COL___098                                                 6
 STAT SP IPHASW D HRMM SECON CODA AMPLIT PERI AZIMU VELO SNR AR TRES W  DIS CAZ7
 BAR2 SZ EP   1   18 5 33.75                             166     0.0 7   33 222 
 BAR2 SZ ES   2   18 5 48.28                             166    -0.5 5   33 222 
 BRR  HZ EP   1   18 5 35.64                             147    -0.4 7   87 292 
 BRR  HZ I        18 5 35.91        16.7 0.17                            87 292 
 BRR  HE ES   2   18 5 53.15                             147     0.2 5   87 292 
 RUS  HZ EP   1   18 5 37.86                             142     0.0 7  103 186 
 RUS  HN ES   2   18 5 56.38                             142     0.2 5  103 186 
 RUS  HZ I        18 5 57.52         3.4 0.43                           103 186 
 OCA  SZ EP   1   18 5 42.84                             128     0.4 7  162 347 
 CHI  HN ES   2   18 6 22.97                             115     0.6 4  256 199 
 CHI  HZ I        18 6 30.85         2.2 0.54                           256 199 
 RREF BZ EP   1   18 6  1.87                             109    -0.2 5  337 231 
 RREF BN ES   2   18 6 39.91                             109     0.7 3  337 231 
 RREF BZ I        18 6 41.95         3.2 0.38                           337 231 
 PRA  HZ EP   1   18 6  8.53                             105    -0.5 4  403 212 
 PRA  HN ES   2   18 6 51.17                             105    -0.4 3  403 212 
 PRA  HZ I        18 6 55.39         2.6 0.67                           403 212 
                                                                                
