 2010  922 1813 59.9 L   6.786 -73.014148.0  RSN  8 0.5 2.0LRSN                1
 GAP=174        1.22       7.5    16.6 15.7  0.2424E+02 -0.1367E+03 -0.4284E+02E
 Epicentro: CEPITA - SANTANDER                                                 3
 ACTION:UP  11-02-18 11:04 OP:tino STATUS:               ID:20100922181359 L   I
 2010-09-22-1811-56S.COL___122                                                 6
 STAT SP IPHASW D HRMM SECON CODA AMPLIT PERI AZIMU VELO SNR AR TRES W  DIS CAZ7
 BAR2 SZ EP       1814 19.55                             169    -0.410   29 221 
 BAR2 SZ ES   2   1814 35.12                             169    -0.4 5   29 221 
 BAR2 SZ I        1814 36.97        17.5 0.41                            29 221 
 BTL  SZ EP       1814 19.64                             167    -0.410   32 298 
 GIR2 SZ EP   1   1814 21.30                             165     1.2 7   38 328 
 BRR  HZ EP       1814 22.00                             149    -0.110   85 295 
 BRR  HN ES   1   1814 39.63                             149     0.2 7   85 295 
 BRR  HZ I        1814 41.64        29.5 0.18                            85 295 
 RUS  HZ EP       1814 23.95                             145     0.210   99 184 
 RUS  HN ES   1   1814 42.57                             145     0.2 7   99 184 
 RUS  HZ I        1814 44.94         6.7 0.23                            99 184 
 GUE  SZ EP       1814 25.16                             140     0.410  116   5 
 GRA  SZ EP       1814 24.79                             138    -0.410  124  11 
 GRA  SZ I        1814 26.08        17.5 0.31                           124  11 
 CHI  HZ EP   2   1814 38.01                             117     0.0 4  251 198 
 CHI  HZ I        1815 15.31         5.9 0.33                           251 198 
                                                                                
