 2010  122 1313 15.2 L   6.790 -73.142145.8  RSN 12 0.4 3.9LRSN                1
 GAP=183        0.82       2.7     5.6  5.8 -0.2711E+01  0.1770E+02 -0.5063E+00E
 Epicentro: LOS SANTOS - SANTANDER                                             3
 ACTION:UP  10-08-24 09:45 OP:vdl  STATUS:               ID:20100122131315 L   I
 2010-01-22-1309-38S.COL___094                                                 6
 STAT SP IPHASW D HRMM SECON CODA AMPLIT PERI AZIMU VELO SNR AR TRES W  DIS CAZ7
 BAR2 SZ IP       1313 34.93                             171     0.110   22 192 
 BAR2 SZ ES       1313 49.76                             171    -0.410   22 192 
 RUS  BZ IP       1313 38.80                             144    -0.110   99 176 
 RUS  BN ES       1313 57.59                             144     0.210   99 176 
 RUS  BZ I        1313 59.31       656.5 0.40                            99 176 
 OCA  SZ IP       1313 43.30                             129    -0.4 9  161 353 
 OCA  SZ ES       1314  6.27                             129     0.4 9  161 353 
 OCA  SZ I        1314 11.14      3220.2 0.33                           161 353 
 CHI  HZ IP       1313 52.77                             117    -0.1 8  248 195 
 CHI  HE ES       1314 22.29                             117     0.1 8  248 195 
 CHI  HZ I        1314 32.21       183.3 0.63                           248 195 
 ROSC BE ES   1   1314 23.10                             117     0.1 6  252 211 
 ROSC BZ I        1314 30.71       407.9 0.57                           252 211 
 HEL  HZ IP       1313 56.20                             115     0.7 8  272 256 
 HEL  HN ES   1   1314 26.58                             115    -0.3 6  272 256 
 HEL  HZ I        1314 34.56       441.5 0.25                           272 256 
 GUY  HZ EP   2   1313 58.98                             112     0.1 4  301 235 
 RREF BZ EP   1   1314  1.06                             111    -0.3 5  321 230 
 RREF BN ES   1   1314 37.54                             111     0.2 5  321 230 
 RREF BZ I        1314 44.37       470.5 0.38                           321 230 
 DBB  SZ IP       1314  2.59                             109    -0.2 7  340 274 
 DBB  SZ ES   2   1314 38.99                             109    -0.9 3  340 274 
 TOL  SZ EP   1   1314  3.57                             109     0.1 5  343 225 
 ANIL BN ES   1   1314 44.52                             108     0.7 5  357 225 
 ANIL BZ I        1314 54.79       745.3 0.39                           357 225 
 PRA  HZ IP       1314  8.30                             106    -0.4 6  391 210 
 PRA  HE ES   1   1314 49.61                             106    -0.7 4  391 210 
 PRA  HZ I        1314 56.48       189.7 0.70                           391 210 
                                                                                
