 2014  822 1848 14.7 L   6.806 -73.147148.8  RSN  8 0.3 2.1LRSN                1
 GAP=136        0.78       3.2     3.4  4.7 -0.5596E+00  0.3799E+01 -0.1668E+01E
 Epicentro: LOS SANTOS - SANTANDER                                             3
 ACTION:UPD 14-09-15 21:52 OP:nd   STATUS:               ID:20140822184814 L   I
 OLDACT:UP  14-08-22 21:48 OP:cam  STATUS:               ID:20140822184001d    3
 OLDACT:DUP 14-08-22 21:43 OP:cam  STATUS:               ID:20140822184001d    3
 OLDACT:UP  14-08-22 21:43 OP:cam  STATUS:               ID:20140822184000     3
 OLDACT:REG 14-08-22 20:30 OP:cam  STATUS:               ID:20140822184000     3
 2014-08-22-1840-00M.COL___285                                                 6
 STAT SP IPHASW D HRMM SECON CODA AMPLIT PERI AZIMU VELO AIN AR TRES W  DIS CAZ7
 BAR2 SZ EP     C 1848 34.75                             170    0.0510 24.0 189 
 BAR2 SZ ES       1848 50.21                             170   -0.1010 24.0 189 
 BAR2 SZ I        1848 50.69        13.9 0.26            169           24.0 189 
 BRR  HZ EP       1848 36.60                             153    0.4510 70.7 298 
 BRR  HN ES       1848 53.22                             153    0.3410 70.7 298 
 BRR  HZ I        1848 57.01        26.5 0.42            152           70.7 298 
 PAM  SZ EP       1848 37.41                             151    0.2010 76.9  40 
 PAM  SE ES       1848 54.49                             151   -0.2810 76.9  40 
 PAM  SZ I        1848 56.47        36.2 0.52            155           76.9  40 
 RUS  HZ EP     D 1848 38.88                             144    0.0810  101 176 
 RUS  HN ES       1848 57.52                             144   -0.0710  101 176 
 RUS  HZ I        1848 59.30         8.1 0.30            146            101 176 
 PTB  HZ EP       1848 41.46                             133   -0.45 9  148 259 
 PTB  HN ES       1849  2.83                             133   -0.30 9  148 259 
 PTB  HZ I        1849  5.11        12.5 0.44            133            148 259 
 SPBC HZ EP       1848 43.70                             130    0.23 9  164 219 
 SPBC HN ES       1849  5.79                             130   -0.12 9  164 219 
 SPBC HZ I        1849 13.69         8.4 0.66            130            164 219 
 ZAR  HZ EP       1848 47.67                             123    0.37 9  204 292 
 ZAR  HN ES       1849 12.82                             123    0.09 9  204 292 
 ZAR  HZ I        1849 18.40        12.9 0.48            124            204 292 
 SML  HZ EP       1848 50.70                             118   -0.72 8  243 335 
 SML  HN ES   4   1849 18.01                             118   -2.05 0  243 335 
 SML  HN I        1849 21.44        25.6 0.10            120            243 335 
 GUY2CHZ EP   4   1848 59.88                             113    1.40 0  301 235 
                                                                                
