 2012  522 1152 29.2 L   6.703 -73.177149.1  RSN  5 0.2 1.9LRSN                1
 GAP=226        0.56       5.2     4.9  4.9  0.1401E+02  0.5956E+01  0.1398E+01E
 Epicentro: VILLANUEVA - SANTANDER                                             3
 ACTION:UP  12-07-05 12:07 OP:pat  STATUS:               ID:20120522115229 L   I
 2012-05-22-1150-00M.COL___200                                                 6
 STAT SP IPHASW D HRMM SECON CODA AMPLIT PERI AZIMU VELO SNR AR TRES W  DIS CAZ7
 BAR2 SZ EP       1152 49.07                             175     0.010   12 183 
 BAR2 SZ ES       1153  4.24                             175    -0.310   12 183 
 BAR2 SZ I        1153  5.84        17.3 0.32                            12 183 
 BRR  HZ EP       1152 50.91                             152     0.110   74 307 
 BRR  HZ I        1152 51.20        29.4 0.12                            74 307 
 BRR  HN ES       1153  8.07                             152     0.310   74 307 
 RUS  HZ EP   2   1152 52.60                             148     0.0 5   90 173 
 RUS  HE ES   1   1153 10.85                             148     0.1 7   90 173 
 RUS  HZ I        1153 12.95         6.6 0.40                            90 173 
 PTB  HZ EP       1152 55.98                             134     0.0 9  143 263 
 PTB  HE ES   1   1153 16.88                             134     0.0 7  143 263 
 ZAR  HN ES   1   1153 27.20                             123    -0.3 6  205 295 
 ZAR  HZ I        1153 34.09         5.8 0.26                           205 295 
                                                                                
