 2015  422 1653 55.7 L   6.749 -73.124146.1  RSN  6 0.4 1.6LRSN                1
 GAP=165        0.91       7.9     5.2  8.7 -0.1397E+02  0.2176E+01  0.1334E+02E
 Epicentro: LOS SANTOS - SANTANDER                                             3
 ACTION:UPD 15-06-03 16:56 OP:cam  STATUS:               ID:20150422165355 L   I
 OLDACT:REG 15-04-22 21:48 OP:spq  STATUS:               ID:20150422164748     3
 2015-04-22-1647-48M.COL___280                                                 6
 STAT SP IPHASW D HRMM SECON CODA AMPLIT PERI AZIMU VELO AIN AR TRES W  DIS CAZ7
 BAR2 EZ EP       1654 15.33                             172    0.0910 18.5 200 
 BAR2 EZ ES   1   1654 30.19                             172   -0.32 7 18.5 200 
 BAR2 EZ I        1654 31.30         6.8 0.18            172           18.5 200 
 BRR  HZ EP   1   1654 17.39                             151    0.27 7 76.1 301 
 BRR  HE ES       1654 34.44                             151    0.5710 76.1 301 
 BRR  HZ I        1654 34.95        17.2 0.38            145           76.1 301 
 PAM  SZ EP       1654 18.25                             150    0.1610 80.4  36 
 PAM  SN ES   1   1654 35.12                             150   -0.47 7 80.4  36 
 PAM  SZ I        1654 36.95         5.1 0.60            148           80.4  36 
 PTB  HZ EP   1   1654 22.26                             132   -0.52 7  149 261 
 PTB  HE ES   1   1654 43.25                             132   -0.68 7  149 261 
 PTB  HZ I        1654 44.86         4.2 0.28            129            149 261 
 ZAR  HE ES   1   1654 53.84                             122   -0.41 6  208 293 
 ZAR  HZ I        1655  2.16         3.9 0.26            119            208 293 
 NOR  HN ES   1   1654 59.63                             119    0.58 6  233 236 
 NOR  HZ I        1655  1.35         3.0 0.20            118            233 236 
                                                                                
