 2012 1222 1732  8.3 L   6.638 -73.621102.6  RSN  4 0.2 1.4LRSN                1
 GAP=119        0.45       3.3     2.6  5.0  0.3507E+01  0.3137E+01  0.5475E+01E
 Epicentro: EL CARMEN DE CHUCURI - SANTANDER                                   3
 ACTION:UPD 13-01-04 14:29 OP:ep   STATUS:               ID:20121222173208 L   I
 2012-12-22-1730-00M.COL___238                                                 6
 STAT SP IPHASW D HRMM SECON CODA AMPLIT PERI AZIMU VELO AIN AR TRES W  DIS CAZ7
 BAR2 SZ EP       1732 23.92                             153    0.0210 48.8  96 
 BAR2 SZ ES   1   1732 36.00                             153   -0.04 7 48.8  96 
 BAR2 SZ I        1732 37.29        17.7 0.17                          48.8  96 
 BRR  HZ EP       1732 23.52                             150   -0.2710 52.9 349 
 BRR  HZ I        1732 33.31         7.4 0.29                          52.9 349 
 BRR  HE ES   1   1732 36.08                             150    0.24 7 52.9 349 
 PTB  HZ EP       1732 26.90                             134    0.0810 93.0 263 
 PTB  HZ I        1732 27.01         3.2 0.19                          93.0 263 
 PTB  HN ES   1   1732 41.18                             134   -0.07 7 93.0 263 
 RUS  HZ EP       1732 28.44                             132    0.2010  102 144 
 RUS  HN ES   1   1732 43.60                             132   -0.18 7  102 144 
 RUS  HN I        1732 46.40         6.8 0.21                           102 144 
                                                                                
