 2013  122 1652 44.8 L   6.785 -73.155145.5  RSN  9 0.4 2.2LRSN                1
 GAP=136        0.77       3.3     4.1  6.3 -0.3133E+00  0.6444E+01  0.3048E+01E
 Epicentro: LOS SANTOS - SANTANDER                                             3
 ACTION:UPD 13-02-15 09:16 OP:ep   STATUS:               ID:20130122165244 L   I
 2013-01-22-1650-00M.COL___241                                                 6
 STAT SP IPHASW D HRMM SECON CODA AMPLIT PERI AZIMU VELO AIN AR TRES W  DIS CAZ7
 BAR2 SZ EP       1653  4.46                             171    0.0610 21.5 188 
 BAR2 SZ ES   1   1653 19.36                             171   -0.29 7 21.5 188 
 BAR2 SZ I        1653 20.65        86.3 0.18            168           21.5 188 
 BRR  HZ EP       1653  6.36                             152    0.4110 71.1 300 
 BRR  HN ES   1   1653 23.25                             152    0.83 7 71.1 300 
 BRR  HZ I        1653 24.73        28.8 0.25            150           71.1 300 
 PAM  SZ EP   1   1653  7.30                             150    0.16 7 79.3  39 
 PAM  SN ES   1   1653 24.50                             150   -0.03 7 79.3  39 
 PAM  SZ I        1653 26.40        14.4 0.54            155           79.3  39 
 RUS  HZ EP   1   1653  8.38                             144   -0.06 7 99.0 175 
 RUS  HN ES   1   1653 26.67                             144   -0.19 7 99.0 175 
 RUS  HZ I        1653 28.20        20.8 0.28            144           99.0 175 
 PTB  HZ EP   1   1653 11.09                             132   -0.57 7  146 259 
 PTB  HN ES   1   1653 32.00                             132   -0.58 7  146 259 
 PTB  HN E        1653 32.28                                            146 259 
 PTB  HZ I        1653 36.21        19.5 0.13            131            146 259 
 OCA  HN ES   1   1653 34.74                             129   -0.71 7  162 354 
 ZAR  HZ EP   1   1653 17.23                             122    0.00 6  204 293 
 ZAR  HN ES   1   1653 42.64                             122    0.14 6  204 293 
 ZAR  HZ I        1653 49.30        24.4 0.30            122            204 293 
 NOR  HN ES   1   1653 48.07                             119    0.01 6  233 235 
 NOR  HZ I        1653 52.69        11.0 0.20            118            233 235 
 CHI  HZ EP   1   1653 22.44                             117    0.13 6  247 195 
 CHI  HE ES   1   1653 51.75                             117    0.21 6  247 195 
 CHI  HZ I        1653 58.51         4.1 0.46            118            247 195 
                                                                                
