 2013 1022 1456 53.2 L   5.851 -73.791102.7  RSN  5 0.5 1.6LRSN                1
 GAP=168        1.10       6.4     4.1 14.4 -0.8039E+01  0.1339E-01  0.2739E+02E
 Epicentro: JESUS MARIA - SANTANDER                                            3
 ACTION:UPD 13-11-25 09:23 OP:ep   STATUS:               ID:20131022145653 L   I
 OLDACT:UP  13-10-22 16:45 OP:cam  STATUS:               ID:20131022144848     3
 OLDACT:REG 13-10-22 14:52 OP:cam  STATUS:               ID:20131022144848     3
 2013-10-22-1448-48M.COL___221                                                 6
 STAT SP IPHASW D HRMM SECON CODA AMPLIT PERI AZIMU VELO AIN AR TRES W  DIS CAZ7
 RUS  HZ EP       1457 11.23                             140    0.0310 78.5  87 
 RUS  HN ES   1   1457 25.00                             140   -0.20 7 78.5  87 
 PTB  HE ES       1457 27.59                             130   -0.6510  106 316 
 PTB  HZ I        1457 29.84         5.1 0.38            133            106 316 
 BAR2 SZ EP       1457 12.89                             131   -0.3410  106  39 
 BAR2 SZ ES       1457 28.95                             131    0.1410  106  39 
 BAR2 SZ I        1457 30.75        14.1 0.18            134            106  39 
 NOR  HZ EP       1457 14.54                             126   -0.1310  124 255 
 NOR  HN ES       1457 31.96                             126    0.5910  124 255 
 NOR  HZ I        1457 33.02         9.5 0.80            129            124 255 
 BRR  HN ES   1   1457 35.05                             122    0.98 7  139   4 
                                                                                
