 2017 1122 1057 41.5 L   6.836 -73.175140.8  RSN 18 0.6 2.2LRSN                1
 GAP=108        1.31       2.7     4.1  6.2 -0.1302E+01  0.8068E+01  0.9598E-01E
 Epicentro: ZAPATOCA - SANTANDER                                               3
 ACTION:UPD 17-12-12 19:58 OP:rebc STATUS:               ID:20171122105741 L   I
 OLDACT:DUP 17-11-22 21:54 OP:dhb  STATUS:               ID:20171122104742d    3
 OLDACT:DUP 17-11-22 21:40 OP:dhb  STATUS:               ID:20171122104741d    3
 OLDACT:REG 17-11-22 21:15 OP:dhb  STATUS:               ID:20171122104740     3
 2017-11-22-1048-00M.COL___474                                                 6
 STAT SP IPHASW D HRMM SECON CODA AMPLIT PERI AZIMU VELO AIN AR TRES W  DIS CAZ7
 BAR2 EZ IP     C 1058  0.53                             169   -0.1210 26.9 182 
 BAR2 EZ ES       1058 15.73                             169    0.1710 26.9 182 
 PAM  HZ IP     C 1058  3.57                             150    0.3910 76.6  43 
 PAM  EN ES       1058 20.44                             150    0.3810 76.6  43 
 RUS  HZ EP       1058  4.52                             142   -0.6010  105 174 
 RUS  HE ES       1058 23.42                             142   -0.0910  105 174 
 RUS  HZ I        1058 24.63        12.4 0.38            144            105 174 
 PTB  HZ EP       1058  7.01                             131   -0.88 9  145 257 
 PTB  HN ES       1058 28.31                             131   -0.13 9  145 257 
 PTB  HZ I        1058 35.56        10.5 0.36            130            145 257 
 OCA  HZ EP       1058  8.81                             129   -0.25 9  156 354 
 OCA  HE ES       1058 30.23                             129   -0.30 9  156 354 
 OCA  HZ I        1058 36.96        40.8 0.30            131            156 354 
 SPBC HN ES       1058 31.80                             128    0.02 9  164 217 
 SPBC HZ I        1058 38.52        26.6 0.34            128            164 217 
 YPLC HZ IP     C 1058 11.03                             125   -0.45 9  182 151 
 YPLC HN ES       1058 35.13                             125    0.30 9  182 151 
 YPLC HZ I        1058 35.96        12.2 0.24            129            182 151 
 ZAR  HZ EP       1058 12.71                             122   -0.49 9  200 291 
 ZAR  HN ES       1058 38.06                             122    0.17 9  200 291 
 ZAR  HZ I        1058 44.74        15.0 0.22            122            200 291 
 TABC EZ EP       1058 17.30                             118    0.11 8  232 210 
 TABC EZ ES       1058 44.65                             118   -0.34 8  232 210 
 TABC EZ I        1058 52.09        18.6 0.42            119            232 210 
 NOR  HZ EP       1058 16.68                             117   -0.27 8  234 233 
 NOR  HN ES       1058 44.10                             117   -0.47 8  234 233 
 NOR  HZ I        1058 53.13         8.1 0.28            118            234 233 
 CHI  HZ EP       1058 18.91                             116   -0.38 8  252 194 
 CHI  HE ES       1058 48.38                             116   -0.36 8  252 194 
 CHI  HZ I        1058 51.66         9.6 0.58            118            252 194 
 ROSC BZ EP       1058 21.10                             115    1.52 8  254 210 
 ROSC BE ES       1058 49.09                             115   -0.17 8  254 210 
 ROSC BZ I        1058 54.45        17.1 0.40            117            254 210 
 HEL  HZ EP       1058 22.84                             114    1.58 8  270 255 
 HEL  HE ES       1058 52.87                             114    0.63 8  270 255 
 HEL  HZ I        1058 59.00         7.7 0.36            115            270 255 
 DRL03HZ EP       1058 22.78                             112    0.35 7  285 353 
 DRL03HE ES       1058 55.14                             112    0.82 7  285 353 
 GUY2CHZ EP       1058 25.79                             111    0.91 7  301 234 
 GUY2CHN ES   4   1059  1.47                             111    2.78 0  301 234 
 GUY2CHZ I        1059  8.21         8.1 0.72                           301 234 
 PRA  HZ EP       1058 34.79                             106   -0.32 6  394 209 
 PRA  HE ES       1059 17.62                             106    0.73 6  394 209 
 PRA  HZ I        1059 20.74         7.6 0.26            107            394 209 
 ORTC HZ EP       1058 35.90                             105    0.46 6  397 215 
 ORTC HE ES       1059 17.39                             105   -0.10 6  397 215 
 ORTC HZ I        1059 25.40         4.1 0.36            107            397 215 
 SJC  HZ EP       1058 34.73                             105   -1.61 6  404 327 
 SJC  HE ES       1059 18.25                             105   -0.84 6  404 327 
 SJC  HZ I        1059 35.25         2.7 0.62            106            404 327 
                                                                                
