 2016  922 1443 39.0 L   6.681 -73.210159.8  RSN  5 0.2 1.3LRSN                1
 GAP=213        0.55       4.4     3.9  4.3  0.1057E+02  0.2286E+01 -0.2739E+00E
 Epicentro: VILLANUEVA - SANTANDER                                             3
 ACTION:UPD 17-08-17 21:15 OP:lp   STATUS:               ID:20160922144339 L   I
 OLDACT:UP  16-09-23 01:53 OP:edw  STATUS:               ID:20160922143737d    3
 OLDACT:DUP 16-09-23 01:49 OP:edw  STATUS:               ID:20160922143737d    3
 2016-09-22-1438-00M.COL___366                                                 6
 STAT SP IPHASW D HRMM SECON CODA AMPLIT PERI AZIMU VELO AIN AR TRES W  DIS CAZ7
 BAR2 EZ EP       1443 59.82                             176   -0.3310 10.2 163 
 BAR2 EZ ES       1444 16.62                             176   -0.0210 10.2 163 
 BRR  HZ EP       1444  1.95                             154    0.1810 72.8 310 
 BRR  HN ES       1444 19.72                             154    0.1910 72.8 310 
 RUS  HZ EP       1444  3.41                             150    0.0410 88.3 171 
 RUS  HN ES       1444 22.31                             150   -0.0610 88.3 171 
 RUS  HZ I        1444 23.26         2.3 0.30            146           88.3 171 
 PTB  HZ EP       1444  6.73                             137    0.35 9  139 264 
 PTB  HN ES       1444 27.64                             137   -0.10 9  139 264 
 PTB  HZ I        1444 35.19         3.2 0.42            132            139 264 
 ZAR  HZ EP   2   1444 11.90                             125   -0.40 4  203 296 
 ZAR  HE ES       1444 38.04                             125   -0.23 9  203 296 
                                                                                
