 2017  522 1720 23.5 L   6.813 -73.168152.0  RSN  5 0.3 1.6LRSN                1
 GAP=236        0.71       4.5     4.5  6.8  0.8583E+01  0.3034E+01  0.2712E+01E
 Epicentro: LOS SANTOS - SANTANDER                                             3
 ACTION:UPD 17-06-16 13:38 OP:jn   STATUS:               ID:20170522172023 L   I
 OLDACT:REG 17-05-22 20:56 OP:dnl  STATUS:               ID:20170522171621     3
 2017-05-22-1718-00M.COL___344                                                 6
 STAT SP IPHASW D HRMM SECON CODA AMPLIT PERI AZIMU VELO AIN AR TRES W  DIS CAZ7
 BRR  HZ EP       1720 45.50                             155    0.3010 68.3 298 
 BRR  HN ES       1721  2.37                             155    0.2710 68.3 298 
 BRR  HZ I        1721 13.40         9.9 0.30            153           68.3 298 
 RUS  HZ EP       1720 47.80                             145   -0.2110  102 175 
 RUS  HN ES       1721  7.07                             145   -0.0410  102 175 
 RUS  HZ I        1721  8.30         2.4 0.28            150            102 175 
 PTB  HZ EP       1720 50.42                             134   -0.40 9  146 258 
 PTB  HN ES       1721 12.05                             134   -0.06 9  146 258 
 PTB  HZ I        1721 18.62         4.4 0.40            136            146 258 
 ZAR  HE ES       1721 21.16                             124   -0.34 9  201 292 
 ZAR  HZ I        1721 26.51         3.2 0.24            127            201 292 
 NOR  HZ EP   2   1721  0.26                             120    0.76 4  234 234 
 NOR  HE ES       1721 27.87                             120    0.31 8  234 234 
 NOR  HZ I        1721 37.13         4.9 0.16            124            234 234 
                                                                                
