 2012 1022 1516 15.9 L   6.791 -73.092143.9  RSN  4 0.2 1.7LRSN                1
 GAP=144        0.39       2.9     4.3  4.6  0.4278E+00  0.2524E+00  0.1326E+01E
 Epicentro: LOS SANTOS - SANTANDER                                             3
 ACTION:UPD 12-11-22 17:05 OP:ep   STATUS:               ID:20121022151615 L   I
 2012-10-22-1510-00M.COL___231                                                 6
 STAT SP IPHASW D HRMM SECON CODA AMPLIT PERI AZIMU VELO AIN AR TRES W  DIS CAZ7
 BAR2 SZ EP   2   1516 34.90                             170   -0.47 5 24.2 204 
 BAR2 SZ ES   1   1516 50.52                             170    0.01 7 24.2 204 
 PAM  SZ EP   2   1516 38.17                             151    0.38 5 74.5  36 
 PAM  SN ES   1   1516 54.75                             151   -0.08 7 74.5  36 
 PAM  SN I        1516 56.30         4.8 0.38                          74.5  36 
 BRR  HZ EP   1   1516 37.13                             150   -0.10 7 76.9 297 
 BRR  HN ES   1   1516 53.92                             150    0.09 7 76.9 297 
 BRR  HN I        1516 59.18        20.6 0.18                          76.9 297 
 RUS  HZ EP   1   1516 39.49                             144    0.06 7 99.4 179 
 RUS  HN ES   1   1516 57.79                             144    0.05 7 99.4 179 
 RUS  HN I        1516 59.46         8.6 0.31                          99.4 179 
                                                                                
