 2017  122 1334 36.6 L   6.813 -73.097155.2  RSN  4 0.4 1.0LRSN                1
 GAP=142        1.09       7.0     7.0  9.3 -0.1550E+02  0.1778E+02 -0.5138E+01E
 Epicentro: LOS SANTOS - SANTANDER                                             3
 ACTION:UPD 17-05-22 16:02 OP:jn   STATUS:               ID:20170122133436 L   I
 OLDACT:DUP 17-01-22 23:51 OP:cog  STATUS:               ID:20170122132745d    3
 OLDACT:DUP 17-01-22 23:02 OP:cog  STATUS:               ID:20170122132744d    3
 2017-01-22-1328-00M.COL___343                                                 6
 STAT SP IPHASW D HRMM SECON CODA AMPLIT PERI AZIMU VELO AIN AR TRES W  DIS CAZ7
 BAR2 EZ ES       1335 13.79                             170    0.1710 26.2 201 
 PAM  EZ EP       1334 59.03                             154   -0.5010 72.9  37 
 PAM  EN ES       1335 17.66                             154    0.2010 72.9  37 
 RUS  HZ EP       1335  2.09                             145    0.7610  102 179 
 RUS  HN ES       1335 20.13                             145   -0.5210  102 179 
 RUS  HZ I        1335 23.41         1.1 0.32            144            102 179 
 PTB  HZ EP       1335  4.60                             133   -0.20 9  153 259 
 PTB  HN ES       1335 26.90                             133    0.06 9  153 259 
 PTB  HZ I        1335 28.15         1.3 0.10            133            153 259 
                                                                                
