 2014  422 1403 20.9 L   6.817 -73.140140.7  RSN  5 0.5 1.8LRSN                1
 GAP=136        1.10       4.6     5.2 10.0 -0.2525E+00  0.1972E+02 -0.1133E+02E
 Epicentro: LOS SANTOS - SANTANDER                                             3
 ACTION:UPD 14-05-13 23:10 OP:nd   STATUS:               ID:20140422140320 L   I
 OLDACT:REG 14-04-22 20:22 OP:nd   STATUS:               ID:20140422140044     3
 2014-04-22-1400-44M.COL___239                                                 6
 STAT SP IPHASW D HRMM SECON CODA AMPLIT PERI AZIMU VELO AIN AR TRES W  DIS CAZ7
 PAM  SZ EP       14 3 43.08                             150    0.6610 75.5  40 
 PAM  SN ES       14 3 59.06                             150   -0.1810 75.5  40 
 PAM  SZ I        14 4  2.49         7.3 0.34            155           75.5  40 
 RUS  HZ EP       14 3 44.20                             142   -0.0510  102 176 
 RUS  HN ES       14 4  2.38                             142   -0.1210  102 176 
 RUS  HZ I        14 4  4.20         8.9 0.38            148            102 176 
 PTB  HZ EP       14 3 47.77                             131    0.26 9  149 258 
 PTB  HN ES       14 4  7.94                             131   -0.36 9  149 258 
 PTB  HZ I        14 4 13.66         6.8 0.30            133            149 258 
 ZAR  HZ EP       14 3 52.28                             121   -0.68 9  204 292 
 ZAR  HN ES       14 4 18.88                             121    0.87 9  204 292 
 ZAR  HZ I        14 4 24.99         7.1 0.30            124            204 292 
 SML  HZ EP       14 3 56.88                             116   -0.16 8  242 335 
 SML  HN ES       14 4 24.85                             116   -0.42 8  242 335 
 SML  HZ I        14 4 30.14        10.4 0.10            120            242 335 
                                                                                
