 2017 1022 1933 51.2 L   6.789 -73.152142.5  RSN  4 0.2 1.2LRSN                1
 GAP=236        0.46       3.6     3.5  3.7  0.6349E+01  0.1108E+01  0.2156E+00E
 Epicentro: LOS SANTOS - SANTANDER                                             3
 ACTION:UPD 17-11-07 19:35 OP:rebc STATUS:               ID:20171022193351 L   I
 OLDACT:REG 17-10-22 21:44 OP:edw  STATUS:               ID:20171022192744     3
 2017-10-22-1928-00M.COL___402                                                 6
 STAT SP IPHASW D HRMM SECON CODA AMPLIT PERI AZIMU VELO AIN AR TRES W  DIS CAZ7
 BAR2 EZ EP       1934 10.24                             171   -0.1410 22.0 189 
 BAR2 EZ ES       1934 25.49                             171    0.1310 22.0 189 
 BAR2 EZ I        1934 26.79         7.8 0.09            169           22.0 189 
 BRR  HZ EP       1934 12.21                             152    0.2510 71.2 300 
 BRR  HN ES       1934 28.00                             152   -0.1810 71.2 300 
 RUS  HZ EP       1934 14.58                             143    0.0610 99.4 176 
 RUS  HN ES       1934 32.65                             143   -0.0710 99.4 176 
 RUS  HZ I        1934 34.46         1.8 0.26            143           99.4 176 
 PTB  HZ EP       1934 17.62                             131   -0.17 9  147 259 
 PTB  HN ES       1934 38.67                             131    0.12 9  147 259 
 PTB  HZ I        1934 39.97         1.4 0.21            132            147 259 
                                                                                
