 2014  822 1844 56.4 L   6.818 -73.159146.5  RSN 10 0.4 2.2LRSN                1
 GAP=134        0.99       3.3     4.2  5.4  0.3824E+00  0.5528E+01 -0.1327E+00E
 Epicentro: LOS SANTOS - SANTANDER                                             3
 ACTION:UPD 14-09-15 21:52 OP:nd   STATUS:               ID:20140822184456 L   I
 OLDACT:UP  14-08-22 21:43 OP:cam  STATUS:               ID:20140822184000     3
 OLDACT:REG 14-08-22 20:30 OP:cam  STATUS:               ID:20140822184000     3
 2014-08-22-1840-00M.COL___285                                                 6
 STAT SP IPHASW D HRMM SECON CODA AMPLIT PERI AZIMU VELO AIN AR TRES W  DIS CAZ7
 BAR2 SZ EP     D 1845 16.21                             170    0.0310 25.1 186 
 BAR2 SZ ES       1845 31.09                             170   -0.4910 25.1 186 
 BAR2 SZ I        1845 32.51        36.0 0.20            170           25.1 186 
 BRR  HZ EP       1845 17.96                             153    0.4410 68.9 298 
 BRR  HN ES       1845 34.86                             153    0.8810 68.9 298 
 BRR  HZ I        1845 38.67        31.5 0.12            152           68.9 298 
 PAM  SZ EP     C 1845 19.08                             151    0.4010 76.8  41 
 PAM  SE ES       1845 35.96                             151   -0.0810 76.8  41 
 PAM  SZ I        1845 38.54        19.7 0.54            155           76.8  41 
 RUS  HZ EP     C 1845 20.20                             143   -0.2010  103 175 
 RUS  HN ES       1845 38.88                             143   -0.2210  103 175 
 RUS  HZ I        1845 40.18        13.9 0.24            146            103 175 
 PTB  HZ EP       1845 23.47                             132    0.12 9  147 258 
 PTB  HN ES       1845 44.04                             132   -0.32 9  147 258 
 PTB  HZ I        1845 46.41        17.2 0.18            133            147 258 
 SPBC HZ EP       1845 24.70                             129   -0.34 9  164 218 
 SPBC HN ES       1845 47.55                             129    0.19 9  164 218 
 SPBC HZ I        1845 54.68        17.4 0.30            131            164 218 
 ZAR  HZ EP       1845 28.12                             123   -0.58 9  202 292 
 ZAR  HN ES       1845 53.79                             123   -0.08 9  202 292 
 ZAR  HZ I        1846  0.05        20.7 0.48            124            202 292 
 SML  HZ EP       1845 32.79                             118   -0.03 8  241 335 
 SML  HN ES       1846  0.59                             118   -0.62 8  241 335 
 SML  HZ I        1846  4.37        18.2 0.10            120            241 335 
 CHI  HZ EP       1845 34.59                             117    0.26 8  250 195 
 GUY2CHZ EP       1845 40.58                             112    0.52 7  301 234 
 GUY2CHN ES   4   1846 15.48                             112    1.38 0  301 234 
 GUY2CHZ I        1846 25.41         5.9 0.52                           301 234 
                                                                                
