 2017  722 1646 14.3 L   6.806 -73.130143.3  RSN  6 0.2 1.4LRSN                1
 GAP=138        0.90       4.4     4.3  7.0 -0.3385E+01  0.6177E+01 -0.1037E+01E
 Epicentro: LOS SANTOS - SANTANDER                                             3
 ACTION:UPD 17-08-30 15:35 OP:rebc STATUS:               ID:20170722164615 L   I
 OLDACT:UP  17-08-16 15:32 OP:nlst STATUS:               ID:20170722164615 L   3
 OLDACT:REG 17-07-22 19:40 OP:lv   STATUS:               ID:20170722163711     3
 2017-07-22-1638-00M.COL___395                                                 6
 STAT SP IPHASW D HRMM SECON CODA AMPLIT PERI AZIMU VELO AIN AR TRES W  DIS CAZ7
 BAR2 EZ EP       1646 33.61                             170   -0.0410 24.3 194 
 BAR2 EZ ES       1646 48.94                             170    0.1910 24.3 194 
 BAR2 EZ I        1646 49.65         5.7 0.10            170           24.3 194 
 PAM  EZ EP       1646 36.01                             150   -0.1510 75.8  39 
 PAM  EE ES       1646 53.26                             150    0.0610 75.8  39 
 RUS  HZ EP       1646 38.07                             142    0.2210  101 177 
 RUS  HN ES       1646 55.80                             142   -0.4110  101 177 
 PTB  HZ EP   9   1646 40.32                             130   -0.91 0  150 259 
 PTB  HN ES       1647  0.49                                   -0.84 9  150 259 
 PTB  HZ I        1647  4.71         3.1 0.05            130            150 259 
 ZAR  HN ES       1647 11.86                             121   -0.15 8  205 292 
 NOR  HE ES       1647 18.36                             117    0.38 8  236 235 
                                                                                
