 2011  522 1118 51.5 L   6.796 -73.118139.2  RSN  9 0.4 1.8LRSN                1
 GAP=140        0.99       5.7     8.4  7.9 -0.1574E+02 -0.1946E+01 -0.1305E+01E
 Epicentro: LOS SANTOS - SANTANDER                                             3
 ACTION:UP  11-06-29 08:55 OP:tino STATUS:               ID:20110522111851 L   I
 2011-05-22-1116-50S.COL___141                                                 6
 STAT SP IPHASW D HRMM SECON CODA AMPLIT PERI AZIMU VELO SNR AR TRES W  DIS CAZ7
 BTL  SZ IP       1119 10.51                             171     0.210   21 309 
 BAR2 SZ IP       1119 10.14                             170    -0.210   24 197 
 BAR2 SZ I        1119 10.26        10.7 0.11                            24 197 
 BAR2 SZ ES   1   1119 24.26                             170    -0.8 7   24 197 
 GIR2 SZ EP       1119 10.26                             166    -0.110   32 345 
 BRR  HZ IP     D 1119 12.08                             150     0.010   74 298 
 BRR  HZ I        1119 12.49        27.0 0.10                            74 298 
 BRR  HN ES   1   1119 29.05                             150     0.9 7   74 298 
 PAM  SZ EP       1119 13.19                             150     0.310   76  38 
 PAM  SN ES   1   1119 29.90                             150     0.3 7   76  38 
 RUS  HZ EP   2   1119 14.39                             143    -0.2 5  100 178 
 BRI  SZ EP       1119 14.93                             140     0.210  108  19 
 BRI  SZ ES   1   1119 32.78                             140     0.0 7  108  19 
 GRA  SZ EP       1119 16.23                             136     0.110  125  16 
 GRA  SZ ES   1   1119 35.32                             136     0.0 7  125  16 
 GRA  SZ I        1119 36.97         8.3 0.31                           125  16 
 OCA  SZ EP       1119 19.00                             128    -0.4 9  161 352 
 OCA  SZ ES   1   1119 40.21                             128    -0.9 7  161 352 
 OCA  SZ I        1119 42.59         7.6 0.32                           161 352 
                                                                                
