 2017  322 1401 40.0 L   6.704 -73.163157.6  RSN  4 0.2 1.7LRSN                1
 GAP=243        0.47       5.6     3.5  4.2  0.7548E+01  0.3135E+01  0.1489E+01E
 Epicentro: VILLANUEVA - SANTANDER                                             3
 ACTION:UPD 17-05-25 18:43 OP:jn   STATUS:               ID:20170322140140 L   I
 OLDACT:REG 17-03-22 20:43 OP:cog  STATUS:               ID:20170322135744     3
 2017-03-22-1358-00M.COL___385                                                 6
 STAT SP IPHASW D HRMM SECON CODA AMPLIT PERI AZIMU VELO AIN AR TRES W  DIS CAZ7
 BAR2 EZ EP       14 2  0.73                             175   -0.1410 12.5 190 
 BAR2 EZ ES       14 2 17.07                             175   -0.1010 12.5 190 
 BAR2 EZ I        14 2 17.64         8.4 0.42            170           12.5 190 
 BRR  HZ EP       14 2  2.87                             153    0.2410 75.2 306 
 BRR  HN ES       14 2 20.40                             153    0.1010 75.2 306 
 BRR  HZ I        14 2 22.50        11.7 0.46            152           75.2 306 
 PTB  HZ EP       14 2  7.59                             135   -0.02 9  144 263 
 PTB  HN ES       14 2 29.28                             135    0.11 9  144 263 
 PTB  HZ I        14 2 34.34         4.8 0.46            134            144 263 
 ZAR  HN ES       14 2 39.32                             124   -0.26 8  207 295 
                                                                                
