 2013  722 1956 54.4 L   6.366 -73.368124.0  RSN  4 0.1 1.6LRSN                1
 GAP=240        0.33       4.6     2.8  7.1 -0.7929E-01 -0.4543E+01  0.1894E+01E
 Epicentro: CHIMA - SANTANDER                                                  3
 ACTION:UPD 13-08-12 10:39 OP:ep   STATUS:               ID:20130722195654 L   I
 OLDACT:UP  13-07-22 19:19 OP:mh   STATUS:               ID:20130722194959     3
 OLDACT:UP  13-07-22 19:16 OP:mh   STATUS:               ID:20130722194959     3
 OLDACT:REG 13-07-22 15:30 OP:mh   STATUS:               ID:20130722194959     3
 2013-07-22-1949-59M.COL___267                                                 6
 STAT SP IPHASW D HRMM SECON CODA AMPLIT PERI AZIMU VELO AIN AR TRES W  DIS CAZ7
 BAR2 SZ EP   1   1957 11.60                             165   -0.08 8 32.4  39 
 BAR2 SZ I        1957 28.09         5.3 0.28            152           32.4  39 
 BRR  HZ EP   1   1957 14.70                             141    0.10 8 90.3 335 
 BRR  HN ES   1   1957 30.35                             141    0.01 8 90.3 335 
 BRR  HN I        1957 31.26        25.7 0.32            154           90.3 335 
 PTB  HN ES       1957 35.09                             132    0.0210  122 279 
 PTB  HN I        1957 47.14         6.1 0.24            124            122 279 
 ZAR  HE ES   1   1957 50.19                             117   -0.08 7  206 307 
 ZAR  HZ I        1957 55.28         2.8 0.46            113            206 307 
                                                                                
