 2014  222 1837 31.9 L   6.788 -73.205150.6  RSN  6 0.5 1.7LRSN                1
 GAP=195        1.04       5.5     7.4  7.6  0.1840E+02  0.1417E+01 -0.1180E+02E
 Epicentro: ZAPATOCA - SANTANDER                                               3
 ACTION:UPD 14-03-10 08:12 OP:ep   STATUS:               ID:20140222183731 L   I
 OLDACT:UP  14-02-22 16:43 OP:cam  STATUS:               ID:20140222183000     3
 OLDACT:REG 14-02-22 14:52 OP:cam  STATUS:               ID:20140222183000     3
 2014-02-22-1830-00M.COL___215                                                 6
 STAT SP IPHASW D HRMM SECON CODA AMPLIT PERI AZIMU VELO AIN AR TRES W  DIS CAZ7
 BAR2 SZ EP       1837 52.18                             171    0.1310 21.8 173 
 BAR2 SZ ES       1838  7.74                             171   -0.0510 21.8 173 
 BAR2 SZ I        1838  8.21        11.5 0.20            172           21.8 173 
 BRR  HZ EP   1   1837 54.39                             155    1.12 7 66.2 302 
 BRR  HN ES       1838 10.32                             155    0.3510 66.2 302 
 BRR  HZ I        1838 13.99        13.4 0.36            151           66.2 302 
 RUS  HZ EP       1837 56.25                             145    0.1910100.0 172 
 RUS  HN ES       1838 14.39                             145   -0.5310100.0 172 
 RUS  HZ I        1838 16.74         2.8 0.38            148          100.0 172 
 PTB  HZ EP   1   1837 58.68                             135    0.04 7  141 259 
 PTB  HN ES       1838 19.54                             135    0.01 9  141 259 
 PTB  HZ I        1838 23.10         5.8 0.48            133            141 259 
 ZAR  HZ EP       1838  3.54                             124   -0.53 9  198 293 
 ZAR  HN ES   4   1838 31.12                             124    1.94 0  198 293 
 ZAR  HZ I        1838 36.45         4.9 0.36            123            198 293 
 SML  HZ EP   1   1838  8.75                             119    0.14 6  242 337 
 SML  HN ES       1838 36.63                             119   -0.63 8  242 337 
 SML  HZ I        1838 42.26         4.1 0.10            119            242 337 
                                                                                
