 2010  722 1447  5.1 L   6.770 -73.083140.5  RSN  8 0.3 2.3LRSN                1
 GAP=200        0.59       4.3     5.5  5.3  0.6068E+01  0.9257E+01  0.3896E+01E
 Epicentro: LOS SANTOS - SANTANDER                                             3
 ACTION:UPD 10-12-01 15:19 OP:pat  STATUS:               ID:20100722144705 L   I
 2010-07-22-1442-53S.COL___123                                                 6
 STAT SP IPHASW D HRMM SECON CODA AMPLIT PERI AZIMU VELO AIN AR TRES W  DIS CAZ7
 BAR2 SZ IP       1447 24.19                             170     0.110   23 209 
 BAR2 SZ ES   1   1447 38.59                             170    -0.3 7   23 209 
 BAR2 SZ I        1447 39.94        95.1 0.23                            23 209 
 GIR2 SZ EP   1   1447 24.25                             165    -0.1 7   36 340 
 BRR  HZ IP     D 1447 26.12                             149    -0.110   79 298 
 BRR  HZ I        1447 26.52        64.4 0.12                            79 298 
 BRR  HN ES   1   1447 42.84                             149     0.2 7   79 298 
 RUS  HZ EP       1447 28.12                             144     0.010   97 180 
 RUS  HE ES   1   1447 46.25                             144     0.2 7   97 180 
 RUS  HZ I        1447 47.39        23.0 0.26                            97 180 
 HEL  HZ EP   1   1447 46.24                             113     0.5 6  278 257 
 HEL  HN ES   2   1448 17.45                             113     0.0 4  278 257 
 HEL  HZ I        1448 24.15         8.3 0.77                           278 257 
 RREF HZ EP   2   1447 51.89                             110     0.5 3  325 231 
 RREF HE ES   2   1448 26.78                             110    -0.7 3  325 231 
 RREF HZ I        1448 37.21         8.7 0.26                           325 231 
 DBB  SZ EP   2   1447 52.36                             108    -0.9 3  347 275 
 DBB  SZ I        1448 33.15         2.5 0.44                           347 275 
 PRA  HZ EP   2   1447 57.99                             106    -0.6 3  393 211 
 PRA  HE ES   2   1448 40.38                             106     0.2 3  393 211 
 PRA  HZ I        1448 46.07         6.1 0.43                           393 211 
                                                                                
