 2017 1022 1704 56.9 L   6.858 -73.326116.0  RSN  7 0.5 1.7LRSN                1
 GAP=209        1.26       6.0     7.5  9.1  0.2431E+02  0.3382E+02  0.2085E+02E
 Epicentro: BETULIA - SANTANDER                                                3
 ACTION:UPD 17-11-07 19:35 OP:rebc STATUS:               ID:20171022170456 L   I
 OLDACT:UP  17-10-23 01:00 OP:edw  STATUS:               ID:20171022165741     3
 OLDACT:UP  17-10-23 00:59 OP:edw  STATUS:               ID:20171022165741     3
 OLDACT:REG 17-10-22 21:32 OP:edw  STATUS:               ID:20171022165741     3
 2017-10-22-1658-00M.COL___411                                                 6
 STAT SP IPHASW D HRMM SECON CODA AMPLIT PERI AZIMU VELO AIN AR TRES W  DIS CAZ7
 BAR2 EZ EP       17 5 12.97                             163   -0.3010 33.4 152 
 BAR2 EZ ES       17 5 25.93                             163   -0.1110 33.4 152 
 BRR  HZ EP       17 5 13.37                             155   -0.3110 50.8 303 
 BRR  HE ES       17 5 27.35                             155    0.5710 50.8 303 
 BRR  HZ I        17 5 29.00        22.7 0.58            153           50.8 303 
 RUS  HZ EP       17 5 17.99                             134   -0.6810  110 166 
 RUS  HN ES       17 5 36.10                             134    0.4410  110 166 
 ZAR  HZ EP       17 5 25.95                             118    0.64 9  183 293 
 ZAR  HN ES       17 5 46.85                             118   -0.63 9  183 293 
 ZAR  HZ I        17 5 51.14         7.0 0.44            118            183 293 
 NOR  HZ EP       17 5 30.61                             113    0.86 8  223 230 
 NOR  HN ES       17 5 54.88                             113   -0.50 8  223 230 
 NOR  HZ I        17 5 56.35         3.8 0.30            113            223 230 
 CHI  HZ EP   2   17 5 34.41                             110    1.06 4  251 190 
 CHI  HN ES       17 6  1.75                             110   -0.04 8  251 190 
 CHI  HZ I        17 6  4.70         3.0 0.42            111            251 190 
 GUY2CHZ EP   4   17 5 39.84                             107    1.94 0  289 231 
 GUY2CHN ES   4   17 6  8.23                             107   -1.65 0  289 231 
 GUY2CHZ I        17 6 16.60         3.0 0.46                           289 231 
 SJC  HZ EP   4   17 5 47.09                             101   -2.62 0  393 329 
 SJC  HN ES   4   17 6 27.49                             101   -3.42 0  393 329 
                                                                                
