 2010  722 1904 43.5 L   7.375 -73.182129.5  RSN  6 0.2 2.0LRSN                1
 GAP=153        0.53       3.2     5.1  5.6 -0.5771E+01 -0.1131E+00  0.1264E+01E
 Epicentro: EL PLAYON - SANTANDER                                              3
 ACTION:UPD 10-12-01 15:19 OP:pat  STATUS:               ID:20100722190443 L   I
 2010-07-22-1900-49S.COL___123                                                 6
 STAT SP IPHASW D HRMM SECON CODA AMPLIT PERI AZIMU VELO AIN AR TRES W  DIS CAZ7
 GIR2 SZ EP   2   19 5  1.33                             165     0.0 5   33 182 
 BRR  HZ IP     D 19 5  2.44                             151    -0.210   66 243 
 BRR  HZ I        19 5  2.81        25.6 0.26                            66 243 
 BRR  HN ES   1   19 5 17.65                             151     0.2 7   66 243 
 GRA  SZ IP       19 5  3.08                             150     0.010   70  37 
 GRA  SZ ES   1   19 5 18.51                             150     0.1 7   70  37 
 GRA  SZ I        19 5 19.46        34.5 0.23                            70  37 
 BAR2 SZ ES   1   19 5 20.21                             144    -0.3 7   87 180 
 BAR2 SZ I        19 5 21.89        43.9 0.15                            87 180 
 RUS  HZ EP   1   19 5 11.45                             125     0.0 7  164 176 
 RUS  HE ES   1   19 5 33.60                             125     0.3 7  164 176 
 RUS  HZ I        19 5 35.31         3.4 0.31                           164 176 
 HEL  HZ EP   2   19 5 25.56                             110     0.5 4  291 243 
 HEL  HZ I        19 5 30.46         3.3 0.53                           291 243 
                                                                                
