 2013  422 1752 23.9 L   6.738 -73.205144.6  RSN  5 0.4 1.4LRSN                1
 GAP=169        0.92       7.2     7.2  8.2  0.1535E+02  0.6358E+01  0.3240E+01E
 Epicentro: VILLANUEVA - SANTANDER                                             3
 ACTION:UPD 13-05-22 14:40 OP:EP   STATUS:               ID:20130422175223 L   I
 2013-04-22-1750-00M.COL___250                                                 6
 STAT SP IPHASW D HRMM SECON CODA AMPLIT PERI AZIMU VELO AIN AR TRES W  DIS CAZ7
 BAR2 SZ EP       1752 42.74                             173   -0.4810 16.3 171 
 BAR2 SZ ES   1   1752 58.00                             173   -0.33 7 16.3 171 
 BAR2 SZ I        1752 59.32         6.8 0.24            168           16.3 171 
 GIR2 SZ EP       1752 44.28                             164    0.7010 37.7   2 
 GIR2 SZ ES   2   1752 58.52                             164   -0.45 5 37.7   2 
 GIR2 SZ I        1753  0.50         5.1 0.54            167           37.7   2 
 BRR  HZ EP       1752 44.86                             153    0.0910 69.3 306 
 BRR  HN ES   1   1753  1.16                             153    0.07 7 69.3 306 
 RUS  HZ EP       1752 47.06                             145    0.0110 94.4 172 
 RUS  HN ES   1   1753  5.58                             145    0.43 7 94.4 172 
 RUS  HZ I        1753  7.34         2.4 0.42            145           94.4 172 
 PTB  HZ EP       1752 49.57                             134   -0.47 9  140 261 
 PTB  HN ES   1   1753 10.70                             134    0.24 7  140 261 
 PTB  HZ I        1753 17.76         5.2 0.34            131            140 261 
                                                                                
