 2011  822 1351  0.7 L   6.732 -73.140151.3  RSN  6 0.4 2.4LRSN                1
 GAP=157        0.81       5.4     7.3  7.3 -0.3361E+01  0.1233E+02  0.6485E+01E
 Epicentro: JORDAN - SANTANDER                                                 3
 ACTION:UPD 12-07-13 15:53 OP:ep   STATUS:               ID:20110822135100 L   I
 2011-08-22-1350-02S.COL___157                                                 6
 STAT SP IPHASW D HRMM SECON CODA AMPLIT PERI AZIMU VELO AIN AR TRES W  DIS CAZ7
 BAR2 SZ IP     D 1351 20.95                             174    0.0410 16.2 197 
 BAR2 SZ ES   1   1351 36.02                             174   -0.63 7 16.2 197 
 BAR2 SZ I        1351 37.73        45.1 0.26                          16.2 197 
 BRR  HZ IP     C 1351 22.84                             152    0.1110 75.6 303 
 BRR  HZ I        1351 23.13        96.7 0.15                          75.6 303 
 BRR  HN ES   1   1351 40.37                             152    0.48 7 75.6 303 
 RUS  HZ EP   1   1351 24.97                             147    0.45 7 93.1 176 
 RUS  HN ES   1   1351 43.18                             147    0.11 7 93.1 176 
 RUS  HZ I        1351 44.82        22.4 0.41                          93.1 176 
 BRI  SZ EP   2   1351 25.25                             141   -0.42 5  115  19 
 NOR  SZ EP   1   1351 35.39                             120   -1.00 6  231 236 
 NOR  SN ES   1   1352  4.09                             120   -0.12 6  231 236 
 PRA  HZ EP   1   1351 54.01                             108    0.28 4  386 210 
 PRA  HN ES   1   1352 35.46                             108    0.39 4  386 210 
                                                                                
