 2011  722 1816 44.7 L   6.774 -73.109144.0  RSN  6 0.3 1.8LRSN                1
 GAP=142        0.50       3.5     4.3  5.5 -0.2248E+01  0.4457E+01  0.6009E+01E
 Epicentro: LOS SANTOS - SANTANDER                                             3
 ACTION:UPD 12-07-25 14:02 OP:epov STATUS:               ID:20110722181644 L   I
 2011-07-22-1814-01S.COL___140                                                 6
 STAT SP IPHASW D HRMM SECON CODA AMPLIT PERI AZIMU VELO AIN AR TRES W  DIS CAZ7
 BAR2 SZ EP   1   1817  3.98                             171   -0.15 7 21.7 202 
 BAR2 SZ I        1817  4.29        14.9 0.10                          21.7 202 
 BAR2 SZ ES   2   1817 18.47                             171   -0.78 5 21.7 202 
 GIR2 SZ EP   1   1817  4.33                             166    0.02 7 34.9 345 
 GIR2 SZ ES   1   1817 19.75                             166    0.18 7 34.9 345 
 BRR  HZ EP   1   1817  5.79                             151   -0.20 7 76.1 299 
 BRR  HE ES   1   1817 22.67                             151    0.11 7 76.1 299 
 BRR  HZ I        1817 23.76        17.4 0.13                          76.1 299 
 PAM  SN ES   1   1817 24.08                             151    0.15 7 77.2  36 
 RUS  HZ EP   1   1817  7.98                             144   -0.12 7 97.5 178 
 RUS  HZ I        1817  8.88         5.9 0.10                          97.5 178 
 RUS  HN ES   1   1817 26.61                             144    0.29 7 97.5 178 
 NOR  SE ES   1   1817 48.60                             118    0.12 6  236 236 
                                                                                
