 2011 1222 1224 27.8 L   6.802 -73.203136.0  RSN  4 0.3 1.5LRSN                1
 GAP=231        0.50       6.7     6.0  6.5  0.1492E+02  0.8949E+01 -0.9137E+01E
 Epicentro: ZAPATOCA - SANTANDER                                               3
 ACTION:UPD 12-07-13 16:17 OP:ep   STATUS:               ID:20111222122427 L   I
 2011-12-22-1220-00M.COL___191                                                 6
 STAT SP IPHASW D HRMM SECON CODA AMPLIT PERI AZIMU VELO AIN AR TRES W  DIS CAZ7
 BAR2 SZ EP       1224 46.14                             170   -0.0710 23.3 174 
 BAR2 SZ ES   1   1225  0.44                             170   -0.16 7 23.3 174 
 BAR2 SZ I        1225  2.44         8.1 0.22                          23.3 174 
 BRR  HZ EP   2   1224 48.21                             153    0.68 5 65.5 301 
 RUS  HZ EP   1   1224 50.46                             141   -0.17 7  101 172 
 RUS  HN ES   1   1225  8.71                             141    0.25 7  101 172 
 RUS  HZ I        1225 10.37         6.7 0.46                           101 172 
 PTB  HZ EP   1   1224 53.32                             131   -0.05 7  142 258 
 PTB  HN ES   2   1225 13.20                             131   -0.14 5  142 258 
                                                                                
