 2016  122 1009 16.5 L   6.808 -73.155146.2  RSN 14 0.4 2.1LRSN                1
 GAP=135        0.91       2.3     4.0  5.3 -0.1337E+01  0.8999E+01  0.7679E+00E
 Epicentro: LOS SANTOS - SANTANDER                                             3
 ACTION:UPD 16-03-09 23:27 OP:cam  STATUS:               ID:20160122100916 L   I
 OLDACT:UP  16-01-22 23:13 OP:mh   STATUS:               ID:20160122100749     3
 OLDACT:REG 16-01-22 21:44 OP:mh   STATUS:               ID:20160122100749     3
 2016-01-22-1007-49M.COL___319                                                 6
 STAT SP IPHASW D HRMM SECON CODA AMPLIT PERI AZIMU VELO AIN AR TRES W  DIS CAZ7
 BAR2 EZ EP       10 9 36.23                             170    0.0710 24.1 187 
 BAR2 EZ ES       10 9 51.24                             170   -0.2810 24.1 187 
 BAR2 EZ I        10 9 53.08        16.3 0.37            170           24.1 187 
 PAM  EZ EP   1   10 9 39.08                             151    0.36 7 77.4  41 
 PAM  EN ES       10 9 56.29                             151    0.2010 77.4  41 
 PAM  EZ I        10 9 60.00         7.2 0.56            154           77.4  41 
 RUS  HZ EP       10 9 40.11                             144   -0.2110  102 175 
 RUS  HN ES       10 9 58.84                             144   -0.1010  102 175 
 RUS  HZ I        10 9 59.82         8.4 0.28            146            102 175 
 PTB  HZ EP   1   10 9 42.84                             132   -0.54 7  147 258 
 PTB  HN ES   1   1010  4.39                             132    0.00 7  147 258 
 PTB  HZ I        1010  7.68        10.8 0.14            132            147 258 
 OCA  HZ EP   1   10 9 44.36                             130   -0.35 7  159 353 
 OCA  HN ES       1010  7.06                             130    0.32 9  159 353 
 OCA  HZ I        1010 10.82        32.0 0.20            131            159 353 
 SPBC HZ EP   1   10 9 45.17                             129    0.18 7  163 218 
 SPBC HN ES       1010  7.68                             129    0.43 9  163 218 
 SPBC HZ I        1010 13.90        25.8 0.22            130            163 218 
 ZAR  HZ EP       10 9 48.85                             123    0.05 9  203 292 
 ZAR  HN ES       1010 14.22                             123    0.20 9  203 292 
 ZAR  HZ I        1010 19.69        14.6 0.54            123            203 292 
 NOR  HZ EP       10 9 51.58                             119   -0.60 8  234 234 
 NOR  HN ES       1010 19.53                             119   -0.51 8  234 234 
 NOR  HZ I        1010 22.99         9.1 0.16            119            234 234 
 SML  HZ EP   1   10 9 52.69                             118   -0.28 6  242 335 
 SML  HN ES       1010 21.07                             118   -0.38 8  242 335 
 SML  HZ I        1010 32.48        20.0 0.22            118            242 335 
 CHI  HZ EP       10 9 54.13                             117   -0.12 8  249 195 
 CHI  HN ES       1010 23.80                             117    0.08 8  249 195 
 CHI  HZ I        1010 32.81         4.1 0.40            119            249 195 
 URE  HZ EP   4   10 9 56.89                             114   -0.51 0  283 292 
 URE  HE ES   4   1010 27.48                             114   -1.86 0  283 292 
 GUY2CHZ EP       1010  1.30                             112    1.25 7  301 235 
 GUY2CHN ES   4   1010 33.82                             112   -0.23 0  301 235 
 GUY2CHZ I        1010 42.82         5.6 0.26                           301 235 
 SOCV BZ EP   4   10 9 57.74                             112   -1.83 0  302  57 
 SOCV BN ES   4   1010 29.04                             112   -4.16 0  302  57 
 DBB  SZ EP   4   1010  1.04                             110   -2.78 0  338 274 
 PRA  HZ EP   4   1010  9.31                             107   -0.71 0  392 209 
 PRA  HN ES       1010 51.20                             107   -0.61 6  392 209 
 PRA  HZ I        1010 59.08         5.0 0.24            108            392 209 
 ORTC HZ EP       1010 10.24                             106   -0.16 6  396 216 
 ORTC HN ES       1010 53.57                             106    1.09 6  396 216 
 ORTC HZ I        1010 56.71         3.0 0.24            107            396 216 
 SJC  HZ EP   4   1010  9.33                             106   -2.55 0  408 327 
 SJC  HN ES   4   1010 51.12                             106   -3.98 0  408 327 
 CPAS1EE E        10 9 31.24                                            775 217 
                                                                                
