 2011 1122 1340 16.6 L   6.769 -73.125140.7  RSN  5 0.1 1.5LRSN                1
 GAP=141        0.32       2.4     2.6  3.3  0.2345E+01  0.5211E+00 -0.1103E+01E
 Epicentro: LOS SANTOS - SANTANDER                                             3
 ACTION:UPD 12-07-13 16:11 OP:ep   STATUS:               ID:20111122134016 L   I
 2011-11-22-1337-40S.COL___178                                                 6
 STAT SP IPHASW D HRMM SECON CODA AMPLIT PERI AZIMU VELO AIN AR TRES W  DIS CAZ7
 BAR2 SZ EP   1   1340 35.34                             171   -0.19 7 20.6 198 
 BAR2 SZ ES   1   1340 50.25                             171   -0.08 7 20.6 198 
 BAR2 SZ I        1340 52.61         6.9 0.30                          20.6 198 
 BRR  HZ EP   1   1340 37.46                             150    0.08 7 74.9 300 
 BRR  HZ I        1340 37.82         8.9 0.12                          74.9 300 
 BRR  HE ES   1   1340 53.79                             150    0.16 7 74.9 300 
 PAM  SZ EP   1   1340 38.28                             149   -0.04 7 78.6  37 
 PAM  SZ I        1340 38.51         5.4 0.18                          78.6  37 
 PAM  SN ES   2   1340 55.32                             149    0.03 5 78.6  37 
 RUS  HZ EP   1   1340 39.76                             144    0.20 7 97.1 177 
 RUS  HN ES   1   1340 57.45                             144   -0.06 7 97.1 177 
 RUS  HZ I        1340 59.48         2.6 0.44                          97.1 177 
 ZAR  HZ EP   2   1340 48.97                             121   -0.07 4  207 293 
 ZAR  HN ES   1   1341 14.29                             121   -0.09 6  207 293 
 ZAR  HZ I        1341 18.99         3.9 0.12                           207 293 
                                                                                
