 2016  622 1752 25.3 L   6.808 -73.163138.0  RSN 12 0.5 2.5LRSN                1
 GAP=134        1.03       4.3     3.9  6.0 -0.1058E+01  0.8729E+01  0.5048E+01E
 Epicentro: LOS SANTOS - SANTANDER                                             3
 ACTION:UPD 16-07-21 22:21 OP:rebc STATUS:               ID:20160622175225 L   I
 OLDACT:REG 16-06-22 20:55 OP:edw  STATUS:               ID:20160622174747     3
 2016-06-22-1747-47M.COL___337                                                 6
 STAT SP IPHASW D HRMM SECON CODA AMPLIT PERI AZIMU VELO AIN AR TRES W  DIS CAZ7
 BAR2 EZ EP       1752 43.81                             170   -0.1610 23.9 185 
 BAR2 EZ ES       1752 58.49                             170   -0.0710 23.9 185 
 BAR2 EZ I        1753  0.44        83.0 0.33                          23.9 185 
 BRR  HZ EP     C 1752 45.57                             152    0.1110 69.2 299 
 BRR  HN ES       1753  2.07                             152    0.8610 69.2 299 
 BRR  HZ I        1753  5.37        61.8 0.30                          69.2 299 
 PAM  EZ EP       1752 46.57                             150   -0.1210 78.0  41 
 PAM  EN ES       1753  3.43                             150    0.0210 78.0  41 
 PAM  EZ I        1753  5.69       102.1 0.48                          78.0  41 
 RUS  HZ EP       1752 47.99                             142   -0.3410  102 175 
 RUS  HN ES       1753  6.69                             142    0.3710  102 175 
 PTB  HZ EP       1752 50.49                             131   -0.96 9  146 258 
 PTB  HN ES       1753 11.47                             131   -0.41 9  146 258 
 PTB  HZ I        1753 18.63        40.6 0.30                           146 258 
 SPBC HZ EP   1   1752 52.96                             128   -0.16 7  163 218 
 ZAR  HZ EP   1   1752 57.17                             121    0.17 6  202 292 
 ZAR  HN ES       1753 21.61                             121   -0.14 9  202 292 
 ZAR  HZ I        1753 28.42        35.4 0.28                           202 292 
 NOR  HZ EP       1753  0.11                             117   -0.33 8  234 234 
 NOR  HN ES       1753 27.90                             117    0.02 8  234 234 
 NOR  HZ I        1753 35.68        20.8 0.18                           234 234 
 ROSC BZ EP   4   1753  3.63                             115    0.69 0  253 211 
 ROSC BN ES   4   1753 34.84                             115    2.51 0  253 211 
 ROSC BZ I        1753 40.98        21.7 0.55                           253 211 
 HEL  HZ EP       1753  5.64                             114    0.73 8  270 256 
 HEL  HN ES       1753 35.74                             114   -0.09 8  270 256 
 HEL  HZ I        1753 42.76        15.1 0.28                           270 256 
 URE  HZ EP   4   1753  8.02                             113    2.29 0  282 292 
 URE  HN ES   4   1753 35.76                             113   -1.54 0  282 292 
 GUY2CHZ EP   1   1753  8.87                             111    0.47 5  300 234 
 GUY2CHN ES   4   1753 43.76                             111    1.71 0  300 234 
 GUY2CHZ I        1753 53.54        11.4 0.52                           300 234 
 ORTC HZ EP   1   1753 19.38                             105    0.51 4  395 216 
 ORTC HN ES   1   1754  1.89                             105    1.20 4  395 216 
 ORTC HZ I        1754  6.26        15.0 0.42                           395 216 
                                                                                
