 2011 1222 1047 59.1 L   6.770 -73.149141.7  RSN  8 0.4 2.0LRSN                1
 GAP=137        0.83       4.0     5.3  6.3 -0.4484E+01  0.6613E+01  0.3098E+00E
 Epicentro: LOS SANTOS - SANTANDER                                             3
 ACTION:UPD 12-07-13 16:17 OP:ep   STATUS:               ID:20111222104759 L   I
 2011-12-22-1040-00M.COL___191                                                 6
 STAT SP IPHASW D HRMM SECON CODA AMPLIT PERI AZIMU VELO AIN AR TRES W  DIS CAZ7
 BAR2 SZ EP       1048 18.25                             172    0.0810 20.0 191 
 BAR2 SZ ES   1   1048 32.39                             172   -0.66 7 20.0 191 
 BAR2 SZ I        1048 33.90        36.0 0.25                          20.0 191 
 GIR2 SZ EP       1048 18.39                             166    0.0210 34.5 352 
 GIR2 SZ ES   1   1048 33.78                             166    0.37 7 34.5 352 
 BRR  HZ EP       1048 20.14                             151    0.2610 72.5 301 
 BRR  HZ I        1048 20.50        35.6 0.10                          72.5 301 
 BRR  HE ES   1   1048 36.89                             151    0.80 7 72.5 301 
 PAM  SZ EP   2   1048 20.87                             149   -0.18 5 80.2  38 
 PAM  SZ I        1048 21.49        13.9 0.16                          80.2  38 
 PAM  SN ES   2   1048 37.65                             149   -0.52 5 80.2  38 
 RUS  HZ EP   1   1048 22.39                             144    0.18 7 97.3 176 
 RUS  HN ES   1   1048 40.37                             144    0.13 7 97.3 176 
 RUS  HZ I        1048 42.87         8.6 0.31                          97.3 176 
 PTB  HZ EP   1   1048 25.07                             131   -0.57 7  147 260 
 PTB  HN ES   1   1048 45.68                             131   -0.67 7  147 260 
 OCA  SZ EP   1   1048 27.68                             128    0.28 7  163 353 
 OCA  SZ ES   1   1048 48.99                             128   -0.48 7  163 353 
 NOR  SZ EP   1   1048 34.19                             118   -0.16 6  233 235 
 NOR  SN ES   1   1049  2.18                             118    0.32 6  233 235 
                                                                                
