 2017  322 1121 45.8 L   6.663 -73.146141.0  RSN  5 0.5 1.5LRSN                1
 GAP=174        0.95       9.4     5.1  8.1  0.2914E+01  0.3524E+01 -0.5590E+01E
 Epicentro: VILLANUEVA - SANTANDER                                             3
 ACTION:UPD 17-05-25 18:43 OP:jn   STATUS:               ID:20170322112145 L   I
 OLDACT:UP  17-03-22 21:59 OP:cog  STATUS:               ID:20170322111742d    3
 OLDACT:UP  17-03-22 21:59 OP:cog  STATUS:               ID:20170322111742d    3
 OLDACT:UP  17-03-22 21:58 OP:cog  STATUS:               ID:20170322111742d    3
 OLDACT:DUP 17-03-22 21:46 OP:cog  STATUS:               ID:20170322111742d    3
 2017-03-22-1118-00M.COL___382                                                 6
 STAT SP IPHASW D HRMM SECON CODA AMPLIT PERI AZIMU VELO AIN AR TRES W  DIS CAZ7
 BAR2 EZ EP       1122  5.18                             176    0.5510 8.80 208 
 BAR2 EZ ES       1122 19.03                             176   -0.3010 8.80 208 
 BAR2 EZ I        1122 20.96         8.3 0.42            176           8.80 208 
 BRR  HE ES       1122 24.00                             149    0.5810 79.6 308 
 PAM  EZ EP       1122  8.04                             146   -0.2410 89.6  33 
 PAM  EN ES   3   1122 24.59                             146   -1.25 2 89.6  33 
 PAM  EZ I        1122 27.09         8.2 0.70            148           89.6  33 
 PTB  HZ EP       1122 12.04                             132   -0.13 9  146 265 
 PTB  HN ES       1122 32.54                             132   -0.21 9  146 265 
 PTB  HZ I        1122 34.64         3.3 0.18            133            146 265 
 ZAR  HZ EP   3   1122 19.98                             121    1.41 2  210 296 
 ZAR  HN ES       1122 43.76                             121   -0.39 8  210 296 
                                                                                
