 2015  422 1426 41.4 L   6.835 -73.126148.9  RSN  5 0.3 1.6LRSN                1
 GAP=137        0.72       6.9     5.1  7.4  0.4195E+01  0.2371E+01  0.6472E+01E
 Epicentro: LOS SANTOS - SANTANDER                                             3
 ACTION:UPD 15-06-03 16:56 OP:cam  STATUS:               ID:20150422142641 L   I
 OLDACT:DUP 15-04-22 23:50 OP:spq  STATUS:               ID:20150422141749d    3
 2015-04-22-1417-48M.COL___277                                                 6
 STAT SP IPHASW D HRMM SECON CODA AMPLIT PERI AZIMU VELO AIN AR TRES W  DIS CAZ7
 BAR2 EZ EP   1   1427  1.29                             169   -0.24 7 27.6 193 
 BAR2 EZ ES   1   1427 17.01                             169   -0.20 7 27.6 193 
 BAR2 EZ I        1427 24.84         5.4 0.50            166           27.6 193 
 BRR  HZ EP       1427  2.89                             153   -0.0410 71.4 295 
 BRR  HE ES   1   1427 20.36                             153    0.66 7 71.4 295 
 PAM  SZ EP       1427  4.00                             153    0.2710 73.0  40 
 PAM  SN ES   1   1427 20.75                             153   -0.37 7 73.0  40 
 PAM  SZ I        1427 23.58         4.6 0.54            162           73.0  40 
 RUS  HZ EP   1   1427  5.86                             143    0.09 7  104 177 
 ZAR  HN ES   1   1427 39.20                             123   -0.46 6  205 291 
 ZAR  HZ I        1427 45.59         7.7 0.38            127            205 291 
                                                                                
