 2016  822 1004 27.1 L   5.989 -73.773106.3  RSN  4 0.3 1.4LRSN                1
 GAP=264        0.78       7.6     3.9  8.5  0.4519E+01  0.8555E+01  0.1993E+02E
 Epicentro: BOLIVAR - SANTANDER                                                3
 ACTION:UPD 16-10-29 15:38 OP:rebc STATUS:               ID:20160822100427 L   I
 OLDACT:DUP 16-08-22 21:38 OP:ar   STATUS:               ID:20160822095934d    3
 OLDACT:REG 16-08-22 21:33 OP:ar   STATUS:               ID:20160822095933     3
 2016-08-22-1000-00M.COL___368                                                 6
 STAT SP IPHASW D HRMM SECON CODA AMPLIT PERI AZIMU VELO AIN AR TRES W  DIS CAZ7
 BAR2 EZ EP       10 4 46.39                             136    0.1410 93.4  44 
 BAR2 EZ ES       10 5  0.91                             136   -0.2810 93.4  44 
 BAR2 EZ I        10 5  2.88         9.7 0.40                          93.4  44 
 PTB  HZ EP       10 4 45.91                             134   -0.3610 97.1 309 
 PTB  HE EP       10 4 45.94                             134           97.1 309 
 PTB  HN ES       10 5  1.49                             134    0.2710 97.1 309 
 PTB  HZ I        10 5  2.58         2.0 0.08                          97.1 309 
 BRR  HZ EP       10 4 49.31                             126    0.5710  124   3 
 BRR  HN ES       10 5  5.59                             126   -0.0210  124   3 
 BRR  HZ I        10 5 13.63         6.3 0.34                           124   3 
 ZAR  HZ EP       10 4 57.20                             112   -0.24 9  205 324 
 ZAR  HN ES       10 5 20.95                             112   -0.15 9  205 324 
 ZAR  HZ I        10 5 26.60         2.4 0.32                           205 324 
                                                                                
