 2016 1122 1509 27.7 L   6.720 -73.206 18.0  RSN  5 0.3 1.8LRSN                1
 GAP=130        0.83       2.4     2.7  3.8 -0.1647E+01  0.4626E+01 -0.2914E+01E
 Epicentro: VILLANUEVA - SANTANDER                                             3
 ACTION:UPD 17-10-26 21:10 OP:lp   STATUS:               ID:20161122150927 L   I
 OLDACT:UP  16-11-22 22:36 OP:dani STATUS:               ID:20161122150746     3
 OLDACT:UP  16-11-22 22:36 OP:dani STATUS:               ID:20161122150746     3
 OLDACT:REG 16-11-22 20:54 OP:dani STATUS:               ID:20161122150746     3
 2016-11-22-1508-00M.COL___349                                                 6
 STAT SP IPHASW D HRMM SECON CODA AMPLIT PERI AZIMU VELO AIN AR TRES W  DIS CAZ7
 BAR2 EZ EP     C 15 9 31.56                             141   -0.2610 14.3 170 
 BAR2 EZ ES       15 9 35.27                             141    0.2510 14.3 170 
 BAR2 EZ I        15 9 36.66       150.0 0.36            148           14.3 170 
 BRR  HZ EP       15 9 38.70                             102   -0.5010 70.4 307 
 BRR  HN ES       15 9 48.44                             102    0.2810 70.4 307 
 BRR  HZ I        15 9 50.79        20.4 0.26            104           70.4 307 
 PAM  EZ EP       15 9 42.12                             100   -0.2710 88.5  39 
 PAM  EN ES       15 9 54.22                             100    0.3710 88.5  39 
 PAM  EZ I        15 9 54.95        20.8 0.22            102           88.5  39 
 PTB  HZ EP   9   15 9 46.98                              56   -2.26 0  140 262 
 PTB  HN ES       1510  4.03                              56    0.25 9  140 262 
 PTB  HZ I        1510  4.75        41.9 0.16             56            140 262 
 NOR  HZ EP   4   1510  2.11                              56    2.27 0  224 235 
 NOR  HE ES       1510 25.09                              56    0.18 8  224 235 
 NOR  HZ I        1510 26.85         3.7 0.41             56            224 235 
                                                                                
