 2013  222 1732 48.3 L   6.773 -73.157148.1  RSN  6 0.5 2.1LRSN                1
 GAP=136        1.12       5.9     5.6  8.2 -0.1348E+01  0.6866E+01  0.1233E+01E
 Epicentro: LOS SANTOS - SANTANDER                                             3
 ACTION:UPD 13-03-12 09:35 OP:ep   STATUS:               ID:20130222173248 L   I
 2013-02-22-1730-00M.COL___225                                                 6
 STAT SP IPHASW D HRMM SECON CODA AMPLIT PERI AZIMU VELO AIN AR TRES W  DIS CAZ7
 BAR2 SZ EP   1   1733  8.22                             172    0.08 7 20.2 188 
 BAR2 SZ ES       1733 23.05                             172   -0.5710 20.2 188 
 BAR2 SZ I        1733 24.19        36.5 0.18            170           20.2 188 
 BRR  HZ EP       1733 10.08                             153    0.3710 71.7 301 
 BRR  HN ES       1733 27.07                             153    0.6510 71.7 301 
 BRR  HN I        1733 27.16        49.9 0.26            151           71.7 301 
 PAM  SZ IP     C 1733 11.04                             150    0.1010 80.5  39 
 PAM  SN ES       1733 28.23                             150   -0.3710 80.5  39 
 RUS  HZ EP       1733 12.07                             145    0.0110 97.7 175 
 RUS  HE ES       1733 31.16                             145    0.5610 97.7 175 
 RUS  HE I        1733 31.63         9.7 0.18            145           97.7 175 
 PTB  HZ EP       1733 14.72                             133   -0.57 9  146 260 
 PTB  HN ES       1733 35.87                             133   -0.48 9  146 260 
 PTB  HN I        1733 41.53         8.7 0.26            132            146 260 
 ZAR  HE ES   2   1733 47.00                             123    0.68 4  204 293 
                                                                                
