 2011  522 1312 42.5 L   6.752 -73.072142.6  RSN  8 0.2 1.7LRSN                1
 GAP=148        0.65       3.3     5.8  4.9 -0.4831E+01 -0.5721E+01 -0.9090E+00E
 Epicentro: LOS SANTOS - SANTANDER                                             3
 ACTION:UP  11-06-29 08:55 OP:tino STATUS:               ID:20110522131242 L   I
 2011-05-22-1300-00M.COL___142                                                 6
 STAT SP IPHASW D HRMM SECON CODA AMPLIT PERI AZIMU VELO SNR AR TRES W  DIS CAZ7
 BAR2 SZ IP       1313  1.66                             171     0.010   21 215 
 BAR2 SZ ES   1   1313 16.09                             171    -0.6 7   21 215 
 BAR2 SZ I        1313 17.60        16.2 0.52                            21 215 
 BTL  SZ EP       1313  2.23                             168     0.410   28 310 
 BTL  SZ ES   1   1313 17.09                             168     0.2 7   28 310 
 GIR2 SZ EP       1313  1.90                             164    -0.110   39 340 
 PAM  SZ EP       1313  4.54                             150     0.210   77  32 
 PAM  SN ES   1   1313 21.58                             150     0.2 7   77  32 
 BRR  HZ IP     C 1313  3.65                             149    -0.210   81 299 
 BRR  HN ES   1   1313 20.75                             149     0.2 7   81 299 
 BRR  HZ I        1313 21.90        15.4 0.13                            81 299 
 RUS  HZ EP       1313  5.55                             145     0.010   95 181 
 RUS  HN ES   1   1313 23.47                             145     0.0 7   95 181 
 RUS  HZ I        1313 25.78         4.3 0.33                            95 181 
 BRI  SZ EP       1313  6.14                             140    -0.110  111  16 
 GRA  SZ EP       1313  7.48                             136    -0.210  129  13 
 GRA  SZ ES   1   1313 27.15                             136    -0.2 7  129  13 
 GRA  SZ I        1313 30.25         5.5 0.36                           129  13 
                                                                                
