 2017 1122 1847 14.6 L   6.583 -73.548104.0  RSN 13 0.5 2.0LRSN                1
 GAP=103        1.26       3.4     3.1  7.0  0.1880E+00  0.6540E+01  0.3970E+01E
 Epicentro: EL CARMEN - SANTANDER                                              3
 ACTION:UPD 17-12-12 19:58 OP:rebc STATUS:               ID:20171122184714 L   I
 OLDACT:UP  17-11-22 23:40 OP:edw  STATUS:               ID:20171122183740     3
 OLDACT:UP  17-11-22 23:38 OP:edw  STATUS:               ID:20171122183740     3
 OLDACT:UP  17-11-22 23:36 OP:edw  STATUS:               ID:20171122183740     3
 OLDACT:REG 17-11-22 22:19 OP:edw  STATUS:               ID:20171122183740     3
 2017-11-22-1838-00M.COL___477                                                 6
 STAT SP IPHASW D HRMM SECON CODA AMPLIT PERI AZIMU VELO AIN AR TRES W  DIS CAZ7
 BAR2 EZ IP     D 1847 30.03                             157    0.1610 40.4  88 
 BAR2 EZ ES       1847 42.59                             157    0.8010 40.4  88 
 RUS  HZ EP       1847 33.29                             136   -0.4710 92.0 146 
 RUS  HE ES       1847 48.76                             136    0.0410 92.0 146 
 RUS  HZ I        1847 49.99        14.1 0.18            136           92.0 146 
 PTB  HZ IP     C 1847 33.07                             132   -0.8010  101 267 
 PTB  HE ES       1847 48.11                             132   -0.8010  101 267 
 PTB  HZ I        1847 49.41        16.3 0.24            132            101 267 
 SPBC HZ EP       1847 35.43                             127   -0.1810  118 209 
 SPBC HN ES       1847 52.29                             127    0.2710  118 209 
 SPBC HZ I        1847 57.65        34.8 0.10            127            118 209 
 PAM  EZ EP       1847 36.52                             126   -0.3610  126  48 
 PAM  EN ES       1847 54.06                             126   -0.2110  126  48 
 PAM  EZ I        1847 58.22        23.1 0.28            128            126  48 
 ZAR  HZ EP       1847 42.06                             115    0.47 9  176 305 
 ZAR  HN ES       1848  3.17                             115    0.51 9  176 305 
 ZAR  HZ I        1848  8.72        23.6 0.20            116            176 305 
 YPLC HZ EP       1847 41.79                             114   -0.76 9  184 135 
 YPLC HN ES       1848  4.74                             114    0.38 9  184 135 
 YPLC HZ I        1848  6.55        25.8 0.36            115            184 135 
 NOR  HZ EP       1847 42.10                             114   -0.48 9  185 232 
 NOR  HN ES       1848  4.40                             114   -0.01 9  185 232 
 NOR  HZ I        1848  6.52        13.8 0.26            114            185 232 
 CHI  HZ EP       1847 47.50                             110    0.82 8  217 185 
 CHI  HN ES       1848 11.28                             110   -0.44 8  217 185 
 CHI  HZ I        1848 19.89         5.7 0.40            111            217 185 
 HEL  HZ EP       1847 48.07                             109    0.70 8  223 259 
 HEL  HE ES       1848 13.00                             109    0.05 8  223 259 
 HEL  HZ I        1848 19.63        10.3 0.22            110            223 259 
 GUY2CHZ EP       1847 51.50                             107    0.78 8  251 233 
 GUY2CHN ES   4   1848 20.22                             107    1.32 0  251 233 
 GUY2CHZ I        1848 25.34         9.2 0.36                           251 233 
 PRA  HZ EP       1848  2.08                             100    0.12 6  350 205 
 PRA  HN ES       1848 38.79                             100   -0.12 6  350 205 
 PRA  HZ I        1848 46.00         3.4 0.30            100            350 205 
 ORTC HE ES   2   1848 40.35                             100    1.38 3  350 213 
                                                                                
