 2011 1122 1713 53.5 L   6.778 -73.142140.9  RSN  5 0.3 2.0LRSN                1
 GAP=138        0.61       4.2     4.5  6.2  0.4145E+01  0.5073E+01 -0.7732E+00E
 Epicentro: LOS SANTOS - SANTANDER                                             3
 ACTION:UPD 12-07-13 16:11 OP:ep   STATUS:               ID:20111122171353 L   I
 2011-11-22-1710-06S.COL___178                                                 6
 STAT SP IPHASW D HRMM SECON CODA AMPLIT PERI AZIMU VELO AIN AR TRES W  DIS CAZ7
 BAR2 SZ EP   1   1714 12.44                             171   -0.05 7 21.0 192 
 BAR2 SZ ES   1   1714 26.94                             171   -0.37 7 21.0 192 
 BAR2 SZ I        1714 28.49        22.9 0.36                          21.0 192 
 BRR  HZ EP   1   1714 14.17                             151   -0.04 7 72.8 300 
 BRR  HN ES   1   1714 30.97                             151    0.60 7 72.8 300 
 BRR  HZ I        1714 32.99        25.5 0.23                          72.8 300 
 PAM  SZ EP   1   1714 15.26                             149   -0.03 7 79.0  38 
 PAM  SZ I        1714 15.39        21.4 0.15                          79.0  38 
 PAM  SN ES   1   1714 32.25                             149   -0.04 7 79.0  38 
 RUS  HZ EP   1   1714 16.56                             144   -0.02 7 98.1 176 
 RUS  HN ES   1   1714 34.74                             144    0.15 7 98.1 176 
 RUS  HZ I        1714 37.03        13.9 0.31                          98.1 176 
 ZAR  HZ EP   2   1714 26.31                             121    0.55 4  205 293 
 ZAR  HN ES   1   1714 50.39                             121   -0.55 6  205 293 
 ZAR  HZ I        1714 56.22        12.8 0.19                           205 293 
                                                                                
