 2014 1022 1423 39.3 L   6.777 -73.117146.1  RSN 13 0.5 2.2LRSN                1
 GAP=141        1.13       3.7     5.2  6.9 -0.5580E+01  0.9241E+01  0.9921E+00E
 Epicentro: LOS SANTOS - SANTANDER                                             3
 ACTION:UPD 14-11-29 23:54 OP:nd   STATUS:               ID:20141022142339 L   I
 OLDACT:REG 14-10-25 02:04 OP:spq  STATUS:               ID:20141022141744     3
 2014-10-22-1417-44M.COL___286                                                 6
 STAT SP IPHASW D HRMM SECON CODA AMPLIT PERI AZIMU VELO AIN AR TRES W  DIS CAZ7
 BAR2 SZ EP       1423 59.15                             171    0.1810 21.7 199 
 BAR2 SZ ES   1   1424 14.20                             171   -0.09 7 21.7 199 
 BAR2 SZ I        1424 15.42        52.4 0.14            174           21.7 199 
 BRR  HZ EP     D 1424  1.16                             151    0.4110 75.2 299 
 BRR  HN ES       1424 18.15                             151    0.7010 75.2 299 
 BRR  HZ I        1424 18.78        22.9 0.10            143           75.2 299 
 PAM  SZ EP       1424  2.01                             151    0.4210 77.4  37 
 PAM  SN ES       1424 18.38                             151   -0.5610 77.4  37 
 PAM  SZ I        1424 22.97        11.7 0.26            139           77.4  37 
 RUS  HZ EP       1424  3.10                             145    0.1710 97.9 178 
 RUS  HE ES       1424 21.42                             145    0.0910 97.9 178 
 RUS  HZ I        1424 22.50        16.8 0.46            139           97.9 178 
 PTB  HZ EP       1424  6.11                             131   -0.46 9  150 260 
 PTB  HN ES       1424 26.83                             131   -0.98 9  150 260 
 PTB  HZ I        1424 28.28        17.0 0.30            124            150 260 
 SPBC HZ EP   4   1424  1.25                             129   -6.62 0  163 220 
 SPBC HN ES       1424 30.37                             129    0.25 9  163 220 
 SPBC HZ I        1424 31.43        30.4 0.20            122            163 220 
 OCA  HN ES   1   1424 29.93                             129   -0.33 7  163 352 
 OCA  HZ I        1424 33.60        22.1 0.16            118            163 352 
 ZAR  HZ EP   1   1424 12.63                             122    0.43 6  208 292 
 SML  HZ EP       1424 15.99                             117   -0.39 8  247 335 
 SML  HN ES   4   1424 43.06                             117   -2.20 0  247 335 
 SML  HZ I        1424 48.30        26.0 0.10            108            247 335 
 CHI  HZ EP   4   1424 15.05                             117   -1.83 0  247 196 
 CHI  HN ES       1424 45.46                             117   -0.71 8  247 196 
 CHI  HZ I        1424 52.17         6.0 0.32            110            247 196 
 GUY2CHZ EP   4   1424 24.32                             112    1.23 0  302 236 
 GUY2CHE ES       1424 57.90                             112    0.69 7  302 236 
 GUY2CHZ I        1425  5.60         5.8 0.28                           302 236 
 TOL  SZ EP   1   1424 28.19                             109    0.53 5  344 225 
 TOL  SN ES   1   1425  5.37                             109    0.03 5  344 225 
 TOL  SZ I        1425 11.19        15.3 0.36            103            344 225 
 PRA  HZ EP   1   1424 32.06                             107   -0.74 4  391 210 
 PRA  HN ES   4   1425 15.84                             107    1.35 0  391 210 
 PRA  HZ I        1425 19.78         7.9 0.62            100            391 210 
                                                                                
