 2013 1222 1102  2.6 L   6.806 -73.173138.0  RSN  7 0.5 1.6LRSN                1
 GAP=133        1.18       4.1     5.3  8.5 -0.4863E+00  0.1671E+02 -0.9271E+01E
 Epicentro: LOS SANTOS - SANTANDER                                             3
 ACTION:UPD 14-01-13 10:20 OP:ep   STATUS:               ID:20131222110202 L   I
 OLDACT:REG 13-12-22 18:27 OP:nd   STATUS:               ID:20131222110000     3
 2013-12-22-1100-00M.COL___285                                                 6
 STAT SP IPHASW D HRMM SECON CODA AMPLIT PERI AZIMU VELO AIN AR TRES W  DIS CAZ7
 BAR2 SZ EP       11 2 21.45                             170    0.1710 23.6 182 
 BAR2 SZ ES       11 2 36.14                             170    0.2710 23.6 182 
 BAR2 SZ I        11 2 37.40        12.9 0.28            172           23.6 182 
 PAM  SZ EP       11 2 24.20                             149    0.1410 78.9  42 
 PAM  SN ES       11 2 40.66                             149   -0.1610 78.9  42 
 PAM  SZ I        11 2 43.32         9.0 0.48            152           78.9  42 
 RUS  HZ EP       11 2 25.56                             142   -0.0810  101 174 
 RUS  HN ES       11 2 43.54                             142   -0.0810  101 174 
 RUS  HZ I        11 2 46.08         2.8 0.28            146            101 174 
 PTB  HZ EP       11 2 28.19                             131   -0.46 9  145 258 
 PTB  HN ES       11 2 48.52                             131   -0.48 9  145 258 
 PTB  HZ I        11 2 51.50         3.8 0.22            132            145 258 
 OCA  HZ EP   2   11 2 31.45                             128    1.25 5  159 354 
 OCA  HN ES       11 2 51.68                             128   -0.07 9  159 354 
 OCA  HZ I        11 2 56.13         4.5 0.38            130            159 354 
 ZAR  HZ EP       11 2 35.33                             121    1.12 9  201 292 
 ZAR  HN ES       11 2 59.29                             121    0.41 9  201 292 
 ZAR  HZ I        11 3  5.27         5.2 0.32            123            201 292 
 SML  HZ EP       11 2 37.53                             116   -1.05 8  242 336 
 SML  HN ES       11 3  6.49                             116   -0.17 8  242 336 
 SML  HZ I        11 3  8.62         5.5 0.24            118            242 336 
                                                                                
