 2013  522 1936 44.0 L   6.802 -73.164145.0  RSN  6 0.5 1.7LRSN                1
 GAP=134        1.28       6.7     6.5  9.2 -0.5035E+01  0.6357E+01  0.9633E+00E
 Epicentro: LOS SANTOS - SANTANDER                                             3
 ACTION:UPD 13-06-20 09:52 OP:ep   STATUS:               ID:20130522193644 L   I
 2013-05-22-1928-50M.COL___215                                                 6
 STAT SP IPHASW D HRMM SECON CODA AMPLIT PERI AZIMU VELO AIN AR TRES W  DIS CAZ7
 BAR2 SZ EP       1937  3.71                             170    0.2110 23.3 185 
 BAR2 SZ ES       1937 18.50                             170   -0.2410 23.3 185 
 BAR2 SZ I        1937 19.62         4.7 0.10            168           23.3 185 
 GIR2 SZ EP       1937  3.31                             167   -0.2210 30.8 354 
 BRR  HZ EP       1937  5.81                             153    0.8810 69.3 299 
 BRR  HN ES       1937 21.93                             153    0.6510 69.3 299 
 BRR  HN I        1937 22.97        20.8 0.24            151           69.3 299 
 PAM  SZ EP       1937  6.18                             150    0.0210 78.5  41 
 PAM  SN ES       1937 22.93                             150   -0.5510 78.5  41 
 RUS  HZ EP       1937  7.91                             144    0.2510  101 175 
 RUS  HN ES       1937 26.28                             144    0.1310  101 175 
 RUS  HN I        1937 27.81         8.0 0.30            144            101 175 
 PTB  HZ EP       1937  9.86                             132   -0.83 9  146 259 
 PTB  HN ES       1937 31.10                             132   -0.44 9  146 259 
 PTB  HN I        1937 36.98         5.0 0.40            131            146 259 
                                                                                
