 2013  222 1918 23.0 L   6.830 -73.197147.9  RSN  7 0.4 1.7LRSN                1
 GAP=129        0.99       4.1     4.5  6.6  0.1735E+01  0.7897E+01  0.4533E+01E
 Epicentro: ZAPATOCA - SANTANDER                                               3
 ACTION:UPD 13-03-12 09:35 OP:ep   STATUS:               ID:20130222191823 L   I
 2013-02-22-1910-00M.COL___225                                                 6
 STAT SP IPHASW D HRMM SECON CODA AMPLIT PERI AZIMU VELO AIN AR TRES W  DIS CAZ7
 BAR2 SZ ES       1918 58.98                             169    0.5010 26.3 177 
 BRR  HZ EP       1918 44.30                             155    0.3010 64.7 298 
 BRR  HN ES   1   1919  1.13                             155    0.73 7 64.7 298 
 BRR  HZ I        1919  2.20        10.4 0.12            153           64.7 298 
 PAM  SZ EP       1918 45.53                             151    0.0410 78.7  44 
 PAM  SN ES       1919  2.61                             151   -0.4510 78.7  44 
 PAM  SZ I        1919  4.37         8.2 0.52            154           78.7  44 
 RUS  HZ EP       1918 47.22                             143    0.0110  104 173 
 RUS  HN ES       1919  5.68                             143   -0.4310  104 173 
 PTB  HZ EP       1918 49.38                             133   -0.30 9  143 257 
 PTB  HN ES       1919  9.78                             133   -0.73 9  143 257 
 PTB  HZ I        1919 12.94         4.5 0.17            132            143 257 
 ZAR  HZ EP   1   1918 55.02                             124    0.12 6  198 292 
 ZAR  HN ES       1919 19.93                             124    0.13 9  198 292 
 ZAR  HZ I        1919 26.78         6.9 0.36            123            198 292 
 CHI  HZ EP       1919  1.14                             117    0.16 8  250 194 
 CHI  HN ES       1919 31.06                             117    0.44 8  250 194 
 CHI  HZ I        1919 38.12         2.4 0.32            117            250 194 
                                                                                
