 2011  522 1850 46.6 L   6.802 -73.130143.4  RSN  9 0.4 2.4LRSN                1
 GAP=138        1.00       4.6     8.0  6.9 -0.1419E+02  0.1040E+02 -0.1266E+01E
 Epicentro: LOS SANTOS - SANTANDER                                             3
 ACTION:UP  11-06-29 08:55 OP:tino STATUS:               ID:20110522185046 L   I
 2011-05-22-1846-26S.COL___139                                                 6
 STAT SP IPHASW D HRMM SECON CODA AMPLIT PERI AZIMU VELO SNR AR TRES W  DIS CAZ7
 BAR2 SZ IP       1851  5.89                             170     0.010   24 194 
 BAR2 SZ ES   1   1851 20.20                             170    -0.8 7   24 194 
 BAR2 SZ I        1851 21.77        29.5 0.33                            24 194 
 BRR  HZ IP     C 1851  7.63                             152     0.110   73 298 
 BRR  HN ES   1   1851 24.55                             152     0.7 7   73 298 
 BRR  HZ I        1851 26.22        54.6 0.13                            73 298 
 PAM  SZ IP       1851  8.75                             151     0.310   76  39 
 PAM  SN ES   1   1851 25.49                             151     0.0 7   76  39 
 RUS  HZ EP       1851 10.12                             143     0.010  101 177 
 RUS  HN ES   1   1851 28.75                             143     0.3 7  101 177 
 RUS  HZ I        1851 30.39        17.9 0.26                           101 177 
 BRI  SZ EP       1851 10.29                             141     0.110  108  20 
 BRI  SZ I        1851 33.65        28.5 0.27                           108  20 
 GRA  SZ IP       1851 11.52                             137     0.010  125  17 
 GRA  SZ ES   1   1851 31.01                             137     0.0 7  125  17 
 GRA  SZ I        1851 32.31        36.7 0.24                           125  17 
 OCA  SZ EP       1851 14.21                             129    -0.5 9  160 353 
 OCA  SZ I        1851 40.44        30.0 0.20                           160 353 
 NOR  SZ EP       1851 21.77                             118    -0.5 8  236 235 
 PRA  HZ EP       1851 40.64                             106     0.5 6  393 210 
 PRA  HZ I        1852 25.29        26.4 0.20                           393 210 
                                                                                
