 2014 1022 1448 40.5 L   6.736 -73.087147.7  RSN  5 0.5 1.2LRSN                1
 GAP=147        0.91       6.3     6.2  8.6 -0.7858E+00  0.2400E+01  0.5772E+01E
 Epicentro: JORDAN - SANTANDER                                                 3
 ACTION:UPD 14-11-29 23:54 OP:nd   STATUS:               ID:20141022144840 L   I
 OLDACT:DUP 14-10-25 09:42 OP:fm   STATUS:               ID:20141022143749d    3
 2014-10-22-1437-48M.COL___292                                                 6
 STAT SP IPHASW D HRMM SECON CODA AMPLIT PERI AZIMU VELO AIN AR TRES W  DIS CAZ7
 BAR2 SZ EP   1   1449  0.28                             172   -0.04 7 19.1 214 
 BAR2 SZ ES   1   1449 16.18                             172    0.43 7 19.1 214 
 BAR2 SZ I        1449 18.69         3.5 0.38            170           19.1 214 
 PAM  SZ EP   1   1449  2.49                             151   -0.58 7 79.3  33 
 PAM  SN ES   1   1449 20.36                             151   -0.28 7 79.3  33 
 PAM  SZ I        1449 22.23         3.7 0.32            156           79.3  33 
 BRR  HZ EP   1   1449  3.19                             150    0.77 7 80.3 301 
 BRR  HN ES       1449 19.67                             150    0.1710 80.3 301 
 BRR  HZ I        1449 23.08         6.2 0.30            153           80.3 301 
 RUS  HZ EP   1   1449  4.00                             146    0.04 7 93.3 180 
 RUS  HN ES   1   1449 22.13                             146   -0.11 7 93.3 180 
 RUS  HZ I        1449 26.35         1.1 0.44            148           93.3 180 
 PTB  HZ EP   1   1449  8.40                             131    0.27 7  153 262 
 PTB  HN ES   1   1449 28.75                             131   -0.90 7  153 262 
 PTB  HZ I        1449 32.21         2.3 0.12            134            153 262 
                                                                                
