 2013  322 1850 48.9 L   6.762 -73.121147.2  RSN  6 0.5 1.7LRSN                1
 GAP=141        1.16       5.2     8.1 10.3 -0.4386E+01  0.1624E+02  0.1229E+02E
 Epicentro: LOS SANTOS - SANTANDER                                             3
 ACTION:UPD 13-04-09 14:04 OP:ep   STATUS:               ID:20130322185048 L   I
 2013-03-22-1850-00M.COL___241                                                 6
 STAT SP IPHASW D HRMM SECON CODA AMPLIT PERI AZIMU VELO AIN AR TRES W  DIS CAZ7
 BAR2 SZ EP       1851  8.88                             172    0.2610 20.0 200 
 BAR2 SZ I        1851 25.73        11.7 0.48            159           20.0 200 
 BRR  HZ EP       1851 10.78                             151    0.3410 75.6 300 
 BRR  HN ES       1851 27.48                             151    0.2310 75.6 300 
 BRR  HN I        1851 31.24        15.9 0.22            133           75.6 300 
 PAM  SZ EP       1851 11.63                             151    0.2910 79.0  36 
 PAM  SE ES       1851 28.08                             151   -0.7910 79.0  36 
 PAM  SE I        1851 30.31         8.6 0.68            144           79.0  36 
 RUS  HZ EP       1851 12.71                             145    0.2410 96.3 178 
 RUS  HN ES       1851 31.24                             145    0.3710 96.3 178 
 RUS  HN I        1851 33.30         6.2 0.20            132           96.3 178 
 PTB  HZ EP       1851 15.54                             132   -0.60 9  150 261 
 PTB  HN I        1851 42.01         7.7 0.38            116            150 261 
 CHI  HN ES       1851 54.83                             118   -0.66 8  245 196 
 CHI  HN I        1852  9.87         3.1 0.66            107            245 196 
                                                                                
