 2016 1022 1316 48.8 L   6.801 -73.161147.9  RSN 10 0.5 2.2LRSN                1
 GAP=118        1.28       5.0     5.6  7.1 -0.3819E+01  0.4991E+01  0.8448E+01E
 Epicentro: LOS SANTOS - SANTANDER                                             3
 ACTION:UPD 16-11-09 19:21 OP:rebc STATUS:               ID:20161022131648 L   I
 OLDACT:UP  16-10-22 23:22 OP:ar   STATUS:               ID:20161022130643     3
 OLDACT:REG 16-10-22 23:18 OP:ar   STATUS:               ID:20161022130643     3
 2016-10-22-1307-00M.COL___340                                                 6
 STAT SP IPHASW D HRMM SECON CODA AMPLIT PERI AZIMU VELO AIN AR TRES W  DIS CAZ7
 BAR2 EZ EP     D 1317  8.73                             171    0.0510 23.2 186 
 BAR2 EZ ES       1317 23.46                             171   -0.7410 23.2 186 
 BAR2 EZ I        1317 24.76        45.4 0.38            164           23.2 186 
 BRR  HZ IP     C 1317 10.50                             153    0.4010 69.7 299 
 BRR  HN ES       1317 27.44                             153    0.7310 69.7 299 
 BRR  HZ I        1317 31.55        33.4 0.42            158           69.7 299 
 PAM  EZ EP       1317 11.72                             150    0.4210 78.3  41 
 PAM  EN ES       1317 28.95                             150    0.1010 78.3  41 
 PAM  EZ I        1317 31.19        32.1 0.68            152           78.3  41 
 RUS  HZ EP       1317 12.89                             144    0.1110  101 175 
 RUS  HN ES       1317 31.27                             144   -0.2110  101 175 
 PTB  HZ EP       1317 15.51                             133   -0.29 9  146 259 
 PTB  HN ES       1317 36.15                             133   -0.71 9  146 259 
 PTB  HZ I        1317 43.63        22.3 0.46            133            146 259 
 NOR  HZ EP       1317 25.12                             119    0.60 8  233 234 
 NOR  HN ES       1317 52.05                             119   -0.33 8  233 234 
 NOR  HZ I        1317 59.63         6.8 0.14            118            233 234 
 CHI  HZ EP       1317 27.03                             117    0.45 8  248 195 
 CHI  HN ES       1317 56.67                             117    0.62 8  248 195 
 CHI  HZ I        1318  1.07         5.4 0.20            115            248 195 
 PTGC HZ EP       1317 31.92                             112   -0.91 7  309 158 
 PTGC HE ES   4   1318  5.68                             112   -1.49 0  309 158 
 PTGC HZ I        1318 40.84        12.6 0.40            110            309 158 
 PRA  HZ EP   4   1317 39.17                             107   -3.14 0  391 209 
 PRA  HN ES   4   1318 22.44                             107   -1.61 0  391 209 
 PRA  HZ I        1318 25.28         6.6 0.26            106            391 209 
 SJC  HZ EP       1317 43.08                             106   -1.23 6  408 327 
 SJC  HN ES   4   1318 24.15                             106   -3.47 0  408 327 
 SJC  HZ I        1318 31.66         3.8 0.34            106            408 327 
                                                                                
