 2012  122 1438 34.7 L   6.785 -73.176141.5  RSN 14 0.4 2.4LRSN                1
 GAP=133        0.82       3.7     4.1  6.7 -0.1119E+01  0.1167E+02  0.4431E+01E
 Epicentro: LOS SANTOS - SANTANDER                                             3
 ACTION:UP  12-02-03 08:19 OP:REBC STATUS:               ID:20120122143834 L   I
 2012-01-22-1436-38S.COL___159                                                 6
 STAT SP IPHASW D HRMM SECON CODA AMPLIT PERI AZIMU VELO SNR AR TRES W  DIS CAZ7
 BAR2 SZ EP   1   1438 54.00                             171     0.2 7   21 182 
 BAR2 SZ ES   1   1439  8.52                             171    -0.2 7   21 182 
 BAR2 SZ I        1439 10.55        70.8 0.16                            21 182 
 BRR  HZ EP   1   1438 55.79                             152     0.5 7   69 301 
 BRR  HZ I        1439 13.79        64.8 0.12                            69 301 
 PAM  SZ EP   1   1438 56.90                             149     0.2 7   81  41 
 PAM  SN ES   1   1439 13.67                             149    -0.2 7   81  41 
 RUS  HZ EP   1   1438 58.06                             143     0.1 7   99 174 
 RUS  HN ES   1   1439 16.17                             143     0.1 7   99 174 
 RUS  HZ I        1439 18.54        29.8 0.28                            99 174 
 PTB  HZ EP   1   1439  0.75                             132    -0.3 7  144 259 
 PTB  HN ES   1   1439 21.37                             132    -0.1 7  144 259 
 PTB  HZ I        1439 24.49        24.4 0.12                           144 259 
 ZAR  HZ EP   1   1439  6.25                             122    -0.4 6  202 293 
 ZAR  HN ES   1   1439 31.12                             122    -0.4 6  202 293 
 ZAR  HZ I        1439 37.55        21.5 0.11                           202 293 
 NOR  SZ EP   1   1439 10.45                             118     0.6 6  231 234 
 NOR  SN ES   1   1439 37.77                             118     0.6 6  231 234 
 CHI  HZ EP   1   1439 12.25                             116     0.3 6  246 195 
 CHI  HN ES   1   1439 39.95                             116    -1.0 6  246 195 
 CHI  HZ I        1439 45.61        12.3 0.47                           246 195 
 ROSC BE ES   3   1439 42.31                             116     0.8 2  250 211 
 ROSC BZ I        1439 47.97        29.0 0.50                           250 211 
 HEL  HZ EP   1   1439 13.54                             114    -0.8 6  268 256 
 HEL  HN ES   1   1439 45.46                             114     0.3 6  268 256 
 HEL  HZ I        1439 53.13        19.4 0.50                           268 256 
 GUY  SN ES   2   1439 52.42                             111     0.7 4  300 235 
 GUY  SZ I        1439 59.68        17.2 0.36                           300 235 
 VIL  SN ES   2   1439 50.45                             111    -0.7 4  301 191 
 VIL  SZ I        1440  2.65        15.5 0.42                           301 191 
 RREF HZ EP   3   1439 20.23                             110     0.0 2  318 229 
 RREF HE ES   2   1439 55.81                             110     0.0 3  318 229 
 RREF HZ I        1440  5.84        11.0 0.42                           318 229 
 PRA  HZ EP   1   1439 27.52                             106    -0.2 4  389 209 
 PRA  HE ES   1   1440  9.12                             106     0.0 4  389 209 
                                                                                
