 2016  722 1433 55.2 L   6.767 -73.243137.6  RSN  6 0.4 1.6LRSN                1
 GAP=227        1.09       5.7     6.0  9.6  0.3012E+01  0.2818E+02 -0.5260E+01E
 Epicentro: ZAPATOCA - SANTANDER                                               3
 ACTION:UPD 17-03-29 16:53 OP:lp   STATUS:               ID:20160722143355 L   I
 OLDACT:REG 16-07-22 20:51 OP:lv   STATUS:               ID:20160722142759     3
 2016-07-22-1427-59S.COL___340                                                 6
 STAT SP IPHASW D HRMM SECON CODA AMPLIT PERI AZIMU VELO AIN AR TRES W  DIS CAZ7
 BAR2 EZ EP       1434 13.16                             171   -0.6010 20.4 161 
 BAR2 EZ ES       1434 28.26                             171    0.0010 20.4 161 
 RUS  HZ EP       1434 17.63                             143   -0.3310 98.3 170 
 RUS  HE ES       1434 36.45                             143    0.7210 98.3 170 
 RUS  HZ I        1434 37.42         5.1 0.27            144           98.3 170 
 SPBC HZ EP       1434 22.23                             129    0.08 9  154 217 
 SPBC HN ES       1434 42.76                             129   -0.42 9  154 217 
 SPBC HZ I        1434 50.61         6.9 0.15            128            154 217 
 ZAR  HZ EP       1434 27.01                             122    0.79 9  196 294 
 ZAR  HE ES       1434 50.30                             122   -0.13 9  196 294 
 ZAR  HZ I        1434 56.49         3.2 0.14            122            196 294 
 NOR  HE ES       1434 55.76                             118   -0.10 8  224 234 
 NOR  HZ I        1435  4.09         4.9 0.20            118            224 234 
 GUY2CHZ EP   4   1434 39.56                             112    2.38 0  290 234 
 GUY2CHE ES       1435 10.09                             112    0.15 7  290 234 
 GUY2CHZ I        1435 18.03         2.2 0.13                           290 234 
                                                                                
