 2012 1122 1644 59.3 L   6.813 -73.192143.1  RSN  7 0.2 1.5LRSN                1
 GAP=130        0.49       3.1     3.0  4.3  0.1271E+00  0.3420E+01  0.2533E+01E
 Epicentro: ZAPATOCA - SANTANDER                                               3
 ACTION:UPD 12-12-05 15:35 OP:}ep  STATUS:               ID:20121122164459 L   I
 2012-11-22-1640-00M.COL___233                                                 6
 STAT SP IPHASW D HRMM SECON CODA AMPLIT PERI AZIMU VELO AIN AR TRES W  DIS CAZ7
 BAR2 SZ EP   1   1645 18.70                             170    0.08 7 24.4 177 
 BAR2 SZ ES   1   1645 33.48                             170   -0.22 7 24.4 177 
 BAR2 SZ I        1645 34.91        16.7 0.18                          24.4 177 
 GIR2 SZ EP   1   1645 18.73                             168    0.13 7 29.4 360 
 GIR2 SZ ES   1   1645 33.51                             168   -0.14 7 29.4 360 
 GIR2 SZ I        1645 35.42        12.7 0.28                          29.4 360 
 PAM  SZ EP   1   1645 21.65                             150    0.28 7 79.7  43 
 PAM  SN ES   1   1645 38.58                             150    0.00 7 79.7  43 
 PAM  SZ I        1645 40.33         3.0 0.26                          79.7  43 
 RUS  HZ EP   1   1645 22.64                             143   -0.28 7  102 173 
 RUS  HN ES   1   1645 41.55                             143    0.20 7  102 173 
 RUS  HZ I        1645 42.32         3.7 0.22                           102 173 
 PTB  HZ EP   1   1645 25.16                             132   -0.45 7  143 258 
 PTB  HN ES   1   1645 46.50                             132    0.36 7  143 258 
 ZAR  HN ES   1   1645 55.72                             122   -0.04 6  199 292 
 CHI  HZ EP   1   1645 36.93                             116    0.08 6  249 194 
 CHI  HZ I        1646  9.60         2.0 0.36                           249 194 
                                                                                
