 2012 1122 1814 10.1 L   6.788 -73.176141.0  RSN  7 0.3 1.8LRSN                1
 GAP=133        0.55       3.0     3.3  5.2  0.4697E+00  0.5614E+01 -0.1298E+01E
 Epicentro: LOS SANTOS - SANTANDER                                             3
 ACTION:UPD 12-12-05 15:35 OP:}ep  STATUS:               ID:20121122181410 L   I
 2012-11-22-1810-00M.COL___233                                                 6
 STAT SP IPHASW D HRMM SECON CODA AMPLIT PERI AZIMU VELO AIN AR TRES W  DIS CAZ7
 BAR2 SZ EP   1   1814 29.28                             171    0.19 7 21.7 182 
 BAR2 SZ ES   1   1814 43.59                             171   -0.33 7 21.7 182 
 BAR2 SZ I        1814 45.20        31.8 0.30                          21.7 182 
 GIR2 SZ EP   1   1814 29.13                             166   -0.06 7 32.2 357 
 GIR2 SZ ES   1   1814 44.21                             166    0.10 7 32.2 357 
 GIR2 SZ I        1814 46.73         7.5 0.12                          32.2 357 
 PAM  SZ EP   1   1814 32.19                             149    0.22 7 80.5  41 
 PAM  SN ES   1   1814 49.20                             149    0.15 7 80.5  41 
 PAM  SZ I        1814 51.56        10.4 0.50                          80.5  41 
 RUS  HZ EP   1   1814 33.31                             143    0.04 7 99.6 174 
 RUS  HN ES   1   1814 51.32                             143   -0.05 7 99.6 174 
 RUS  HZ I        1814 53.93         5.3 0.26                          99.6 174 
 PTB  HZ EP   1   1814 36.05                             132   -0.27 7  144 259 
 PTB  HN ES   1   1814 56.76                             132   -0.04 7  144 259 
 PTB  HZ I        1814 59.85         9.3 0.12                           144 259 
 ZAR  HN ES   1   1815  7.37                             122    0.58 6  201 293 
 ZAR  HZ I        1815 13.00         5.9 0.12                           201 293 
 SML  HE ES   1   1815 14.13                             116   -0.62 6  244 336 
                                                                                
