 2014  222 1846 52.3 L   7.175 -73.401111.1  RSN 11 0.5 2.2LRSN                1
 GAP= 83        1.24       3.8     4.6  7.8  0.3098E+00  0.1200E+02 -0.1124E+00E
 Epicentro: LEBRIJA - SANTANDER                                                3
 ACTION:UPD 14-03-10 08:12 OP:ep   STATUS:               ID:20140222184652 L   I
 OLDACT:UP  14-02-22 16:49 OP:cam  STATUS:               ID:20140222184000     3
 OLDACT:UP  14-02-22 16:49 OP:cam  STATUS:               ID:20140222184000     3
 OLDACT:REG 14-02-22 14:52 OP:cam  STATUS:               ID:20140222184000     3
 2014-02-22-1840-00M.COL___215                                                 6
 STAT SP IPHASW D HRMM SECON CODA AMPLIT PERI AZIMU VELO AIN AR TRES W  DIS CAZ7
 BRR  HZ EP       1847  7.51                             161   -0.3510 35.1 258 
 BRR  HN ES       1847 19.52                             161   -0.4410 35.1 258 
 BRR  HZ I        1847 20.61        21.4 0.28            158           35.1 258 
 BAR2 SZ EP       1847 10.51                             146    0.4610 68.9 159 
 BAR2 SZ ES       1847 24.24                             146    0.3810 68.9 159 
 BAR2 SZ I        1847 25.35       166.2 0.30            145           68.9 159 
 PAM  SZ EP       1847 11.61                             142    0.4410 79.6  77 
 PAM  SZ I        1847 12.88        47.7 0.20            143           79.6  77 
 PAM  SN ES       1847 26.18                             142    0.3210 79.6  77 
 OCA  HZ EP   1   1847 13.93                             130   -0.05 7  118   4 
 OCA  HN ES       1847 30.33                             130   -0.5310  118   4 
 PTB  HZ EP   4   1847 14.41                             125   -1.15 0  136 239 
 PTB  HN ES   4   1847 32.48                             125   -1.19 0  136 239 
 PTB  HZ I        1847 36.43        13.6 0.20            123            136 239 
 RUS  HZ EP   1   1847 17.00                             123   -0.20 7  146 166 
 RUS  HN ES       1847 36.10                             123   -0.48 9  146 166 
 RUS  HZ I        1847 40.29         7.8 0.38            122            146 166 
 ZAR  HZ EP       1847 18.83                             119    0.34 9  165 282 
 ZAR  HN ES       1847 39.89                             119    1.01 9  165 282 
 ZAR  HZ I        1847 41.46        18.8 0.32            118            165 282 
 SPBC HZ EP   1   1847 20.33                             116   -0.36 7  184 204 
 SPBC HN ES   4   1847 45.20                             116    2.40 0  184 204 
 SPBC HZ I        1847 48.12        23.3 0.18            115            184 204 
 SML  HZ EP       1847 20.99                             115   -0.71 9  194 338 
 SML  HE ES   4   1847 43.32                             115   -1.28 0  194 338 
 SML  HZ I        1847 51.95        27.8 0.28            114            194 338 
 NOR  HZ EP   4   1847 25.88                             109   -1.18 0  241 222 
 NOR  HE ES       1847 53.45                             109   -0.69 8  241 222 
 NOR  HZ I        1847 57.28        14.3 0.34            108            241 222 
 CHI  HZ EP   4   1847 34.20                             106    1.72 0  284 187 
 GUY2CHZ EP   1   1847 36.06                             104    0.87 5  306 225 
 GUY2CHZ I        1848 15.66         9.3 0.34                           306 225 
                                                                                
