 2011  422 1408 39.3 L   6.759 -73.071143.3  RSN 14 0.5 2.4LRSN                1
 GAP=148        1.07       4.5     6.7  7.3 -0.1416E+02  0.1084E+02  0.2598E+01E
 Epicentro: LOS SANTOS - SANTANDER                                             3
 ACTION:UP  11-06-22 15:32 OP:REBC STATUS:               ID:20110422140839 L   I
 2011-04-22-1406-39S.COL___139                                                 6
 STAT SP IPHASW D HRMM SECON CODA AMPLIT PERI AZIMU VELO SNR AR TRES W  DIS CAZ7
 BAR2 SZ IP       14 8 58.36                             171    -0.210   22 214 
 BAR2 SZ ES   1   14 9 13.49                             171    -0.2 7   22 214 
 BAR2 SZ I        14 9 14.69        64.4 0.28                            22 214 
 BTL  SZ EP   1   14 8 59.57                             168     0.9 7   28 309 
 GIR2 SZ EP   1   14 8 59.72                             164     0.9 7   38 339 
 PAM  SZ EP   1   14 9  1.34                             151     0.2 7   76  33 
 PAM  SN ES   1   14 9 18.63                             151     0.4 7   76  33 
 BRR  HZ EP   1   14 9  0.38                             149    -0.3 7   81 299 
 BRR  HN ES   1   14 9 17.35                             149    -0.1 7   81 299 
 BRR  HZ I        14 9 17.99        57.7 0.14                            81 299 
 RUS  HZ EP   1   14 9  2.19                             145    -0.2 7   96 181 
 RUS  HN ES   1   14 9 20.52                             145     0.0 7   96 181 
 RUS  HZ I        14 9 22.25        22.2 0.39                            96 181 
 BRI  SZ EP   1   14 9  3.17                             140     0.1 7  110  16 
 BRI  SZ ES   1   14 9 21.05                             140    -0.6 7  110  16 
 BRI  SZ I        14 9 23.71        51.6 0.34                           110  16 
 GRA  SZ IP       14 9  4.49                             136     0.010  128  13 
 GRA  SZ I        14 9  5.91        46.3 0.21                           128  13 
 GRA  SZ ES   1   14 9 24.19                             136     0.0 7  128  13 
 OCA  SZ EP   1   14 9  6.88                             128    -1.1 7  166 351 
 NOR  SN ES   1   14 9 42.70                             117    -0.7 6  239 237 
 NOR  SZ I        14 9 47.79         3.0 0.18                           239 237 
 CHI  HZ EP   1   14 9 16.82                             117     0.2 6  247 197 
 CHI  HN ES   1   14 9 45.44                             117    -0.3 6  247 197 
 CHI  HZ I        14 9 52.29         8.0 0.41                           247 197 
 HEL  HZ EP   1   14 9 20.53                             114     0.4 6  279 257 
 HEL  HN ES   1   14 9 52.78                             114     0.8 6  279 257 
 HEL  HZ I        14 9 57.09         7.2 0.37                           279 257 
 GUY  SZ EP   1   14 9 23.54                             111     0.0 5  308 237 
 GUY  SZ I        1410  6.15        19.4 0.26                           308 237 
 PRA  HZ EP   1   14 9 32.70                             106     0.0 4  392 211 
 PRA  HZ I        14 9 35.13        34.9 0.16                           392 211 
                                                                                
