 2012  522 1341 25.4 L   6.790 -73.172135.1  RSN 10 0.3 2.3LRSN                1
 GAP=134        0.76       2.9     3.9  5.2 -0.1986E+01  0.8355E+01 -0.1834E+01E
 Epicentro: LOS SANTOS - SANTANDER                                             3
 ACTION:UP  12-07-05 12:07 OP:pat  STATUS:               ID:20120522134125 L   I
 2012-05-22-1340-00M.COL___200                                                 6
 STAT SP IPHASW D HRMM SECON CODA AMPLIT PERI AZIMU VELO SNR AR TRES W  DIS CAZ7
 BAR2 SZ EP       1341 43.97                             170     0.210   22 183 
 BAR2 SZ ES       1341 58.32                             170     0.310   22 183 
 BAR2 SZ I        1342  0.08        42.5 0.20                            22 183 
 BRR  HZ EP       1341 45.85                             151     0.510   69 300 
 PAM  SZ EP       1341 46.93                             148     0.210   80  41 
 PAM  SN ES   1   1342  3.32                             148     0.0 7   80  41 
 RUS  HZ EP       1341 47.94                             142    -0.210  100 174 
 RUS  HE ES       1342  5.33                             142    -0.410  100 174 
 RUS  HZ I        1342  7.48        19.3 0.38                           100 174 
 PTB  HZ EP   1   1341 51.16                             130    -0.1 7  145 259 
 PTB  HE ES   1   1342 11.15                             130    -0.3 7  145 259 
 OCA  HZ EP       1341 52.71                             127    -0.3 9  161 354 
 OCA  HE ES   1   1342 13.96                             127    -0.6 7  161 354 
 OCA  HZ I        1342 17.55        59.4 0.44                           161 354 
 ZAR  HZ EP   1   1341 56.72                             120    -0.2 6  202 293 
 ZAR  HN ES   1   1342 21.45                             120    -0.1 6  202 293 
 ZAR  HZ I        1342 28.89        20.2 0.30                           202 293 
 NOR  SZ EP   1   1342  0.47                             116     0.2 6  232 234 
 NOR  SN ES   1   1342 27.67                             116     0.3 6  232 234 
 HEL  HZ EP   1   1342  5.12                             113     0.3 6  269 256 
 HEL  HZ I        1342 43.24        10.7 0.37                           269 256 
 PRA  HZ EP       1342 18.25                             105    -0.1 6  390 209 
 PRA  HN ES   1   1342 59.26                             105    -0.3 4  390 209 
                                                                                
