 2012  422 1947 21.0 L   6.537 -73.205 26.7  RSN  4 0.3 0.9LRSN                1
 GAP=137        0.76       2.3     2.9  2.7 -0.1476E+01  0.2324E+01 -0.1993E+01E
 Epicentro: PINCHOTE - SANTANDER                                               3
 ACTION:UPD 12-07-05 11:55 OP:tino STATUS:               ID:20120422194721 L   I
 2012-04-22-1940-00M.COL___186                                                 6
 STAT SP IPHASW D HRMM SECON CODA AMPLIT PERI AZIMU VELO AIN AR TRES W  DIS CAZ7
 BAR2 SZ EP       1947 25.79                             165     0.010    7  22 
 BAR2 SZ ES   1   1947 29.35                             165    -0.1 7    7  22 
 BAR2 SZ I        1947 30.10        16.3 0.17                             7  22 
 RUS  HZ EP       1947 34.06                              99     0.410   73 169 
 RUS  HN ES       1947 43.10                              99    -0.410   73 169 
 RUS  HZ I        1947 44.10         4.3 0.20                            73 169 
 PAM  SZ EP       1947 38.17                              61     0.110  105  32 
 PAM  SE ES       1947 51.14                              61    -0.210  105  32 
 PTB  HZ EP       1947 41.92                              61     0.3 9  138 270 
 PTB  HN ES       1947 57.53                              61    -0.2 9  138 270 
                                                                                
