 2012  722 1000 27.8 L   6.334 -73.651105.5  RSN  7 0.5 1.8LRSN                1
 GAP=137        1.04       6.4     4.5 10.3 -0.1557E+01  0.1020E+02  0.1698E+02E
 Epicentro: SANTA HELENA DEL OPON - SANTANDER                                  3
 ACTION:UPD 12-08-14 11:46 OP:ep   STATUS:               ID:20120722100027 L   I
 2012-07-22-1000-00M.COL___215                                                 6
 STAT SP IPHASW D HRMM SECON CODA AMPLIT PERI AZIMU VELO AIN AR TRES W  DIS CAZ7
 BAR2 SZ EP   1   10 0 44.36                             149     0.0 9   59  61 
 BAR2 SZ ES   1   10 0 57.21                             149     0.0 9   59  61 
 BAR2 SZ I        10 0 58.35        45.1 0.23            101             59  61 
 BRR  HZ EP   1   10 0 45.42                             138    -0.5 9   86 355 
 BRR  HZ I        10 0 50.83        15.4 0.37             99             86 355 
 BRR  HE ES   1   10 1  0.09                             138     0.0 9   86 355 
 PTB  HZ I        10 0 45.15         5.1 0.15            101             92 284 
 PTB  HN ES   1   10 1  0.65                             135    -0.4 9   92 284 
 YOP  SZ EP   1   10 0 55.24                             116     0.4 8  174 128 
 ZAR  HZ EP   1   10 0 55.19                             114    -0.7 8  185 314 
 ZAR  HE ES   1   10 1 18.18                             114     0.4 8  185 314 
 ZAR  HZ I        10 1 20.67         7.7 0.29             56            185 314 
 HEL  HZ EP   1   10 0 58.39                             111    -0.6 7  208 266 
 HEL  HN ES       10 1 23.89                             111     0.610  208 266 
 HEL  HZ I        10 1 25.75         6.9 0.32             56            208 266 
 OCA  HN ES   1   10 1 24.39                             111     0.5 7  214  10 
