 2012  822 1321 18.0 L   6.733 -73.146143.3  RSN  7 0.5 1.6LRSN                1
 GAP=139        0.90       5.7     5.2  8.9  0.2394E+00  0.1040E+02  0.2478E+01E
 Epicentro: JORDAN - SANTANDER                                                 3
 ACTION:UPD 12-09-10 11:57 OP:ep   STATUS:               ID:20120822132118 L   I
 2012-08-22-1320-00M.COL___217                                                 6
 STAT SP IPHASW D HRMM SECON CODA AMPLIT PERI AZIMU VELO AIN AR TRES W  DIS CAZ7
 BAR2 SZ EP   1   1321 37.32                             173    0.16 7 16.0 194 
 BAR2 SZ ES   1   1321 51.36                             173   -0.79 7 16.0 194 
 BAR2 SZ I        1321 55.35        14.8 0.27                          16.0 194 
 BRR  HZ EP   2   1321 39.42                             151    0.36 5 75.0 304 
 BRR  HN ES   1   1321 56.51                             151    0.98 7 75.0 304 
 PAM  SZ EP   1   1321 40.10                             149   -0.18 7 83.3  36 
 PAM  SZ I        1321 40.55         7.5 0.20                          83.3  36 
 PAM  SN ES   1   1321 57.38                             149   -0.31 7 83.3  36 
 RUS  HZ EP   1   1321 41.22                             145    0.28 7 93.1 176 
 RUS  HN ES   1   1321 59.30                             145    0.44 7 93.1 176 
 RUS  HZ I        1322  1.51         2.7 0.29                          93.1 176 
 PTB  HZ EP   1   1321 44.25                             132   -0.35 7  146 262 
 PTB  HN ES   1   1322  5.04                             132   -0.35 7  146 262 
 PTB  HZ I        1322  8.66         3.7 0.12                           146 262 
 ZAR  HN ES   1   1322 15.92                             121   -0.04 6  207 294 
 ZAR  HZ I        1322 21.75         6.5 0.29                           207 294 
 NOR  SN ES   2   1322 20.17                             118   -0.31 4  230 236 
                                                                                
