 2017  122 1554 58.2 L   6.426 -73.671102.0  RSN  7 0.4 1.7LRSN                1
 GAP= 96        1.03       3.4     3.8  7.7  0.1766E+01  0.7730E+01  0.7789E+01E
 Epicentro: SANTA HELENA DEL OPON - SANTANDER                                  3
 ACTION:UPD 17-05-22 16:02 OP:jn   STATUS:               ID:20170122155458 L   I
 OLDACT:REG 17-01-22 21:20 OP:cog  STATUS:               ID:20170122154741     3
 2017-01-22-1548-00M.COL___343                                                 6
 STAT SP IPHASW D HRMM SECON CODA AMPLIT PERI AZIMU VELO AIN AR TRES W  DIS CAZ7
 BAR2 EZ EP       1555 14.26                             148    0.0710 57.1  71 
 BAR2 EZ ES       1555 26.57                             148   -0.1010 57.1  71 
 BAR2 EZ I        1555 28.51        30.0 0.37            154           57.1  71 
 BRR  HZ EP       1555 15.12                             140   -0.0410 75.5 357 
 BRR  HE ES       1555 28.98                             140    0.6010 75.5 357 
 PTB  HZ EP       1555 15.53                             136   -0.6510 87.7 278 
 PTB  HN ES       1555 29.97                             136   -0.2410 87.7 278 
 PTB  HZ I        1555 33.85         7.4 0.10            137           87.7 278 
 RUS  HZ EP       1555 16.46                             136   -0.3910 87.8 132 
 RUS  HN ES       1555 31.68                             136    0.2910 87.8 132 
 RUS  HZ I        1555 32.56         6.5 0.34            141           87.8 132 
 PAM  EN ES       1555 41.24                             120   -0.39 9  147  47 
 ZAR  HZ EP       1555 25.47                             115    0.36 9  176 312 
 ZAR  HN ES   3   1555 46.76                             115    0.66 2  176 312 
 ZAR  HZ I        1555 49.77        11.7 0.36            117            176 312 
 CHI  HZ EP       1555 28.98                             112    0.84 9  199 182 
 CHI  HN ES       1555 51.30                             112   -0.20 9  199 182 
                                                                                
