 2016 1022 1025 53.9 L   6.562 -73.554109.5  RSN 15 0.6 2.1LRSN                1
 GAP= 75        1.45       3.8     3.8  7.4 -0.4916E+01  0.7540E+01  0.8075E+00E
 Epicentro: EL CARMEN - SANTANDER                                              3
 ACTION:UPD 16-11-09 19:21 OP:rebc STATUS:               ID:20161022102553 L   I
 OLDACT:UP  16-10-22 22:54 OP:ar   STATUS:               ID:20161022101749     3
 OLDACT:UP  16-10-22 22:53 OP:ar   STATUS:               ID:20161022101749     3
 OLDACT:REG 16-10-22 20:10 OP:ar   STATUS:               ID:20161022101749     3
 2016-10-22-1018-00M.COL___337                                                 6
 STAT SP IPHASW D HRMM SECON CODA AMPLIT PERI AZIMU VELO AIN AR TRES W  DIS CAZ7
 BAR2 EZ IP     D 1026  9.96                             158    0.1410 41.3  85 
 BAR2 EZ ES       1026 22.76                             158    0.5010 41.3  85 
 BAR2 EZ I        1026 23.85       106.2 0.50            160           41.3  85 
 BRR  HZ EP       1026 10.77                             148    0.1010 62.7 344 
 BRR  HE ES       1026 24.73                             148    0.9610 62.7 344 
 BRR  HZ I        1026 25.65        25.3 0.12            148           62.7 344 
 RUS  HZ EP       1026 13.05                             138   -0.3710 90.6 145 
 RUS  HN ES       1026 28.86                             138    0.2010 90.6 145 
 RUS  HZ I        1026 29.85        13.3 0.42            137           90.6 145 
 PTB  HZ IP       1026 12.81                             134   -0.7410 99.8 269 
 PTB  HN ES       1026 27.58                             134   -1.3110 99.8 269 
 PTB  HZ I        1026 29.12        56.8 0.18            132           99.8 269 
 SPBC HZ EP       1026 15.53                             130    0.4310  116 210 
 SPBC HN ES       1026 31.46                             130   -0.2010  116 210 
 SPBC HZ I        1026 37.99        53.0 0.10            127            116 210 
 PAM  EZ EP       1026 16.64                             127   -0.1410  128  48 
 PAM  EN ES       1026 34.22                             127   -0.4210  128  48 
 PAM  EZ I        1026 35.41        21.6 0.40            127            128  48 
 NOR  HZ EP       1026 21.75                             116   -0.19 9  183 233 
 NOR  HE ES       1026 43.35                             116   -0.48 9  183 233 
 NOR  HZ I        1026 47.06        28.0 0.16            114            183 233 
 OCA  HZ EP       1026 22.27                             115   -0.30 9  187   8 
 OCA  HN ES       1026 44.97                             115    0.02 9  187   8 
 OCA  HZ I        1026 51.89        34.0 0.24            115            187   8 
 TAM  HZ EP       1026 22.93                             114   -0.41 9  196  94 
 TAM  HN ES   4   1026 44.58                             114   -1.75 0  196  94 
 TAM  HZ I        1026 48.45        12.4 0.30            114            196  94 
 CHI  HZ EP   4   1026 27.20                             112    1.25 0  215 185 
 CHI  HN ES       1026 51.36                             112    0.39 8  215 185 
 CHI  HZ I        1026 58.18         3.5 0.34            111            215 185 
 HEL  HZ EP       1026 27.20                             111    0.43 8  222 259 
 HEL  HE ES       1026 53.25                             111    0.83 8  222 259 
 HEL  HZ I        1026 59.62        10.8 0.24            110            222 259 
 GUY2CHZ EP   4   1026 31.56                             108    1.57 0  249 234 
 GUY2CHN ES   4   1027  0.86                             108    2.70 0  249 234 
 GUY2CHZ I        1027  5.50        10.3 0.58                           249 234 
 ELA  HZ EP   4   1026 35.94                             106    2.54 0  278 227 
 ELA  HN ES       1027  3.84                             106   -0.39 7  278 227 
 ELA  HZ I        1027 17.71         5.7 0.52            105            278 227 
 CBOC HZ EP       1026 35.10                             106    1.57 7  283 254 
 CBOC HE ES       1027  4.22                             106   -0.24 7  283 254 
 CBOC HZ I        1027 10.23         3.5 0.18            104            283 254 
 PAL  HZ EP       1026 42.29                             101    0.50 6  353 239 
 PAL  HE ES   4   1027 21.05                             101    1.88 0  353 239 
 PAL  HZ I        1027 23.81         3.0 0.24            100            353 239 
                                                                                
