 2010 1022 1332 20.6 L   6.790 -73.052145.0  RSN  5 0.2 1.5LRSN                1
 GAP=169        0.59       5.2    11.0 10.3  0.1025E+02 -0.5921E+02 -0.2499E+02E
 Epicentro: LOS SANTOS - SANTANDER                                             3
 ACTION:UP  11-02-18 11:11 OP:tino STATUS:               ID:20101022133220 L   I
 2010-10-22-1327-52S.COL___125                                                 6
 STAT SP IPHASW D HRMM SECON CODA AMPLIT PERI AZIMU VELO SNR AR TRES W  DIS CAZ7
 BAR2 SZ EP   1   1332 40.22                             169     0.0 8   26 214 
 BAR2 SZ ES   2   1332 55.45                             169     0.0 5   26 214 
 BAR2 SZ I        1332 57.63         6.3 0.28                            26 214 
 BRR  HZ EP   1   1332 42.16                             149    -0.1 8   81 296 
 BRR  HZ I        1332 56.74        12.8 0.46                            81 296 
 BRR  HE ES   2   1332 59.08                             149     0.0 5   81 296 
 RUS  HZ EP   1   1332 44.19                             144     0.0 8   99 182 
 RUS  HE ES   2   1333  2.51                             144    -0.1 5   99 182 
 RUS  HZ I        1333  4.07         2.7 0.50                            99 182 
 GUE  SZ EP       1332 45.54                             139     0.310  116   7 
 GRA  SZ EP   1   1332 45.14                             137    -0.5 7  124  13 
                                                                                
