 2016  222 1116  5.4 L   6.773 -73.157143.9  RSN  6 0.4 1.8LRSN                1
 GAP=136        1.03       5.1     4.6  7.0  0.2414E+01  0.8102E+01 -0.1615E+01E
 Epicentro: LOS SANTOS - SANTANDER                                             3
 ACTION:UPD 16-03-04 21:28 OP:rebc STATUS:               ID:20160222111605 L   I
 OLDACT:REG 16-02-22 19:59 OP:drio STATUS:               ID:20160222110748     3
 2016-02-22-1107-48M.COL___294                                                 6
 STAT SP IPHASW D HRMM SECON CODA AMPLIT PERI AZIMU VELO AIN AR TRES W  DIS CAZ7
 BAR2 EZ EP       1116 24.63                             172   -0.0910 20.2 188 
 BAR2 EZ ES       1116 39.32                             172   -0.4910 20.2 188 
 BAR2 EZ I        1116 40.38        15.0 0.34            171           20.2 188 
 BRR  HZ EP       1116 26.45                             152    0.1110 71.6 301 
 BRR  HE ES       1116 43.49                             152    0.7910 71.6 301 
 BRR  HZ I        1116 46.28        15.4 0.40            150           71.6 301 
 PAM  EZ EP       1116 27.53                             149   -0.0610 80.5  39 
 PAM  EE ES       1116 44.64                             149   -0.2710 80.5  39 
 PAM  EZ I        1116 46.45        15.3 0.50            153           80.5  39 
 RUS  HZ EP       1116 28.81                             144    0.0710 97.7 175 
 RUS  HE ES       1116 47.45                             144    0.4910 97.7 175 
 RUS  HZ I        1116 48.89         5.5 0.26            147           97.7 175 
 PTB  HZ EP       1116 31.63                             132   -0.39 9  146 260 
 PTB  HE ES       1116 52.28                             132   -0.53 9  146 260 
 PTB  HZ I        1116 58.85         7.0 0.20            132            146 260 
 ZAR  HZ EP       1116 38.15                             122    0.46 9  204 293 
 ZAR  HN ES       1117  2.81                             122   -0.09 9  204 293 
 ZAR  HZ I        1117  8.47        11.3 0.30            123            204 293 
                                                                                
