 2013  122 1525 57.5 L   6.774 -73.151145.3  RSN 12 0.4 2.3LRSN                1
 GAP= 72        0.85       3.3     3.4  6.1  0.3996E+00  0.3306E+01  0.2443E+01E
 Epicentro: LOS SANTOS - SANTANDER                                             3
 ACTION:UPD 13-02-15 09:16 OP:ep   STATUS:               ID:20130122152557 L   I
 2013-01-22-1520-00M.COL___241                                                 6
 STAT SP IPHASW D HRMM SECON CODA AMPLIT PERI AZIMU VELO AIN AR TRES W  DIS CAZ7
 BAR2 SZ EP       1526 17.04                             172    0.0010 20.4 190 
 BAR2 SZ ES   1   1526 32.09                             172   -0.18 7 20.4 190 
 BAR2 SZ I        1526 34.79        53.1 0.30            165           20.4 190 
 BRR  HZ EP     C 1526 18.92                             152    0.2510 72.1 301 
 BRR  HE ES   1   1526 36.25                             152    1.07 7 72.1 301 
 BRR  HZ I        1526 39.98        26.7 0.40            144           72.1 301 
 PAM  SZ EP   1   1526 19.82                             150   -0.03 7 80.0  39 
 PAM  SE ES   1   1526 36.97                             150   -0.29 7 80.0  39 
 PAM  SZ I        1526 39.28        29.8 0.56            149           80.0  39 
 RUS  HZ EP   1   1526 20.49                             145   -0.53 7 97.7 176 
 RUS  HN ES   1   1526 39.21                             145   -0.15 7 97.7 176 
 RUS  HZ I        1526 40.91        21.5 0.26            136           97.7 176 
 PTB  HZ EP   1   1526 23.62                             132   -0.73 7  147 260 
 PTB  HN ES   1   1526 44.36                             132   -0.92 7  147 260 
 PTB  HZ I        1526 50.76        19.7 0.42            123            147 260 
 TAM  HZ EP   1   1526 25.21                             130    0.06 7  155 104 
 TAM  HN ES   1   1526 46.99                             130    0.29 7  155 104 
 OCA  HZ EP   1   1526 26.07                             129    0.01 7  163 353 
 OCA  HN ES   1   1526 48.01                             129   -0.32 7  163 353 
 OCA  HZ I        1526 52.81        34.3 0.38            124            163 353 
 ZAR  HZ EP   1   1526 29.86                             122   -0.14 6  205 293 
 ZAR  HN ES   1   1526 55.66                             122    0.33 6  205 293 
 ZAR  HZ I        1527  2.13        28.0 0.26            115            205 293 
 NOR  HE ES   1   1527  0.77                             119    0.11 6  233 235 
 NOR  HZ I        1527  6.28        18.5 0.20            111            233 235 
 CHI  HZ EP   1   1526 35.28                             117    0.41 6  246 195 
 CHI  HN ES   1   1527  4.25                             117    0.25 6  246 195 
 CHI  HZ I        1527  9.96         7.2 0.34            111            246 195 
 ROSC BZ EP   1   1526 35.88                             117    0.57 6  250 211 
 ROSC BZ I        1527 12.06        17.9 0.50            110            250 211 
 URE  HN ES   2   1527 11.03                             113    0.33 4  284 292 
                                                                                
