 2014  322 1535 43.3 L   6.813 -73.114143.4  RSN 15 0.5 2.3LRSN                1
 GAP=140        0.97       3.0     4.0  6.2 -0.2791E+01  0.7208E+01 -0.5043E-02E
 Epicentro: LOS SANTOS - SANTANDER                                             3
 OLDACT:REG 14-03-22 15:38 OP:fm   STATUS:               ID:20140322152816     3
 ACTION:UPD 14-04-09 23:19 OP:nd   STATUS:               ID:20140322153543 L   I
 OLDACT:UP  14-03-22 18:48 OP:fm   STATUS:               ID:20140322152816     3
 2014-03-22-1528-16M.COL___246                                                 6
 STAT SP IPHASW D HRMM SECON CODA AMPLIT PERI AZIMU VELO AIN AR TRES W  DIS CAZ7
 BAR2 SZ EP       1536  2.59                             169   -0.0510 25.5 197 
 BAR2 SZ ES   2   1536 17.19                             169   -0.58 5 25.5 197 
 BAR2 SZ I        1536 18.04        93.4 0.28            169           25.5 197 
 BRR  HZ EP       1536  4.47                             151    0.1810 73.7 296 
 BRR  HN ES   1   1536 21.25                             151    0.56 7 73.7 296 
 BRR  SZ I        1536 25.65        30.1 0.12            149           73.7 296 
 PAM  SZ EP     C 1536  5.54                             151    0.5210 74.1  38 
 PAM  SN ES       1536 22.42                             151    0.4210 74.1  38 
 PAM  SZ I        1536 24.32        59.1 0.48            154           74.1  38 
 RUS  HZ EP       1536  7.10                             143    0.2410  102 178 
 RUS  HE ES       1536 24.93                             143   -0.3410  102 178 
 RUS  SZ I        1536 25.90        19.2 0.74            145            102 178 
 PTB  HZ EP   2   1536  9.77                             131   -0.60 5  151 259 
 PTB  HN ES       1536 30.88                             131   -0.64 9  151 259 
 PTB  SZ I        1536 32.56        34.6 0.14            130            151 259 
 OCA  HZ EP       1536 10.89                             129   -0.40 9  159 352 
 OCA  HN ES       1536 32.63                             129   -0.53 9  159 352 
 OCA  SZ I        1536 38.38        25.0 0.30            130            159 352 
 SPBC HN ES   2   1536 34.01                             128   -0.21 5  166 220 
 ZAR  HN ES   1   1536 41.42                             121    0.19 6  207 291 
 NOR  HZ EP       1536 18.95                             118   -0.29 8  238 235 
 NOR  HN ES       1536 47.75                             118    0.44 8  238 235 
 NOR  SZ I        1536 48.46         8.5 0.18            118            238 235 
 SML  HZ EP       1536 19.14                             117   -0.63 8  244 334 
 SML  HN ES   1   1536 48.59                             117    0.34 6  244 334 
 SML  SZ I        1536 50.98        28.2 0.10            118            244 334 
 CHI  HZ EP   1   1536 21.04                             116   -0.03 6  251 196 
 CHI  HN ES   2   1536 50.09                             116   -0.48 4  251 196 
 HEL  HZ EP   1   1536 24.48                             114    0.72 6  276 256 
 HEL  HN ES   1   1536 56.09                             114    0.73 6  276 256 
 HEL  SZ I        1537  2.34         7.6 0.26            115            276 256 
 URE  HN ES   4   1536 54.99                             113   -1.71 0  287 291 
 GUY2CHZ EP   1   1536 28.16                             112    0.99 5  305 235 
 GUY2CHN ES   1   1537  0.73                             112   -0.69 5  305 235 
 GUY2CSZ I        1537  7.81         8.3 2.98                           305 235 
 RREF HZ EP   4   1536 32.44                             110    2.74 0  325 230 
 RREF HN ES   4   1537 10.00                             110    4.07 0  325 230 
 RREF SZ I        1537 16.69         5.4 0.24            111            325 230 
 SDV  BN ES   4   1537  9.50                             108   -1.92 0  357  50 
 SJC  HZ EP   4   1536 36.90                             105   -1.92 0  410 326 
 SJC  HE ES   4   1537 18.91                             105   -3.26 0  410 326 
 SJC  SZ I        1537 22.22        11.7 0.60            106            410 326 
                                                                                
