 2013  222 1049 43.2 L   6.783 -73.136148.2  RSN 13 0.5 2.9LRSN                1
 GAP= 72        1.11       3.2     3.4  5.8  0.4628E+00  0.3278E+01  0.4014E-01E
 Epicentro: LOS SANTOS - SANTANDER                                             3
 ACTION:UPD 13-03-12 09:34 OP:ep   STATUS:               ID:20130222104943 L   I
 2013-02-22-1048-46M.COL___185                                                 6
 STAT SP IPHASW D HRMM SECON CODA AMPLIT PERI AZIMU VELO AIN AR TRES W  DIS CAZ7
 BAR2 SZ IP     D 1050  2.98                             171   -0.0910 21.7 194 
 BAR2 SZ ES       1050 17.97                             171   -0.6110 21.7 194 
 BRR  HZ EP       1050  4.85                             152    0.1610 73.1 299 
 BRR  HE ES       1050 22.28                             152    0.8110 73.1 299 
 BRR  HE I        1050 23.15       214.9 0.24            148           73.1 299 
 PAM  SZ EP       1050  5.74                             151    0.0510 78.1  38 
 PAM  SN ES       1050 22.96                             151   -0.2910 78.1  38 
 PAM  SN I        1050 24.42        79.8 0.46            153           78.1  38 
 RUS  HZ IP     C 1050  6.79                             145   -0.2410 98.7 177 
 RUS  HN ES       1050 25.60                             145   -0.0310 98.7 177 
 PTB  HZ EP       1050  9.53                             132   -0.88 9  149 260 
 PTB  HN ES       1050 31.24                             132   -0.41 9  149 260 
 PTB  HN I        1050 36.33       213.8 0.52            130            149 260 
 TAM  HZ IP     C 1050 11.14                             131    0.23 9  154 104 
 TAM  HN ES       1050 33.12                             131    0.59 9  154 104 
 OCA  HZ EP       1050 11.68                             130   -0.18 9  162 353 
 OCA  HN ES       1050 34.13                             130   -0.10 9  162 353 
 OCA  HN I        1050 36.74       223.6 0.20            129            162 353 
 ZAR  HZ EP       1050 15.68                             123   -0.28 8  206 293 
 ZAR  HN ES       1050 42.50                             123    0.97 8  206 293 
 ZAR  HN I        1050 47.35        95.3 0.60            121            206 293 
 CHI  HZ EP       1050 21.15                             118    0.30 8  247 196 
 CHI  HN ES       1050 50.38                             118    0.15 8  247 196 
 CHI  HN I        1050 52.85        33.4 0.28            118            247 196 
 HEL  HZ EP       1050 24.29                             115    0.70 8  273 256 
 HEL  HN ES   1   1050 54.85                             115   -0.25 6  273 256 
 HEL  HN I        1051  4.77        17.8 0.62            114            273 256 
 URE  HZ EP   4   1050 22.32                             114   -2.24 0  286 292 
 URE  HN ES   4   1050 54.66                             114   -2.18 0  286 292 
 URE  HN I        1051  7.09        53.6 0.24            113            286 292 
 RREF HZ EP   4   1050 30.56                             111    1.17 0  321 230 
 RREF HN ES   4   1051 10.05                             111    4.62 0  321 230 
 COD  HZ EP   2   1050 31.01                             109   -0.87 3  350 354 
 COD  HN ES       1051  9.65                             109   -0.21 6  350 354 
 CPAS2EN E        1050 51.93                                            766 217 
                                                                                
