 2010  122 1537 42.6 L   6.762 -72.796150.9  RSN  5 0.3 1.9LRSN                1
 GAP=312        0.59       6.9    14.8  5.9 -0.4010E+02  0.2841E+02  0.3299E+01E
 Epicentro: SAN ANDRES - SANTANDER                                             3
 ACTION:UP  10-08-24 09:45 OP:vdl  STATUS:               ID:20100122153742 L   I
 2010-01-22-1534-06S.COL___094                                                 6
 STAT SP IPHASW D HRMM SECON CODA AMPLIT PERI AZIMU VELO SNR AR TRES W  DIS CAZ7
 BAR2 SZ EP       1538  3.39                             162    -0.110   47 246 
 BAR2 SZ ES   1   1538 19.70                             162    -0.1 7   47 246 
 RUS  BZ EP   2   1538  7.19                             145     0.3 5  101 198 
 RUS  BN ES   1   1538 26.07                             145     0.2 7  101 198 
 RUS  BZ I        1538 27.73         5.3 0.20                           101 198 
 CHI  HZ EP   2   1538 21.55                             117     0.0 4  258 204 
 CHI  HZ I        1538 32.32         4.5 0.62                           258 204 
 CHI  HE ES   2   1538 51.43                             117    -0.5 4  258 204 
 RREF BZ IP       1538 32.64                             110     0.5 6  350 234 
 RREF BZ I        1539 12.79         2.9 0.26                           350 234 
 PRA  HZ IP       1538 37.89                             106    -0.4 6  409 215 
 PRA  HE ES   1   1539 21.54                             106    -0.2 4  409 215 
 PRA  HZ I        1539 23.09         3.3 0.50                           409 215 
                                                                                
