 2010  922 1533 34.5 L   6.641 -73.410 30.0  RSN  5 0.4 1.8LRSN                1
 GAP=171        1.05       4.0     8.7  8.8  0.3588E+01 -0.4723E+02  0.1260E+02E
 Epicentro: EL CARMEN DE CHUCURI - SANTANDER                                   3
 ACTION:UP  11-02-18 11:04 OP:tino STATUS:               ID:20100922153334 L   I
 2010-09-22-1532-02S.COL___122                                                 6
 STAT SP IPHASW D HRMM SECON CODA AMPLIT PERI AZIMU VELO SNR AR TRES W  DIS CAZ7
 BTL  SZ ES   2   1533 47.93                             127     0.1 5   34  27 
 BRR  HZ EP       1533 44.91                             108    -0.210   61 327 
 BRR  HZ I        1533 45.12        69.9 0.10                            61 327 
 BRR  HE ES   1   1533 53.86                             108     0.5 7   61 327 
 RUS  HZ EP       1533 49.49                              61     0.010   90 156 
 RUS  HN ES   1   1534  1.45                              61     0.3 7   90 156 
 RUS  HZ I        1534  2.44        23.3 0.27                            90 156 
 GUE  SZ EP       1533 55.06                              61    -0.7 9  142  22 
 GRA  SZ ES   1   1534 15.01                              61     0.6 7  153  26 
 GRA  SZ I        1534 17.70         6.3 0.31                           153  26 
                                                                                
