 2013  122 1512 44.0 L   5.789 -73.884106.2  RSN  6 0.4 1.5LRSN                1
 GAP= 90        0.75       3.2     3.3  9.8  0.3947E+00  0.4679E+01  0.7621E+00E
 Epicentro: ALBANIA - SANTANDER                                                3
 ACTION:UPD 13-02-15 09:16 OP:ep   STATUS:               ID:20130122151244 L   I
 2013-01-22-1510-00M.COL___241                                                 6
 STAT SP IPHASW D HRMM SECON CODA AMPLIT PERI AZIMU VELO AIN AR TRES W  DIS CAZ7
 RUS  HZ EP   1   1513  3.04                             137   -0.16 7 89.5  83 
 RUS  HN ES   1   1513 18.03                             137   -0.11 7 89.5  83 
 RUS  HZ I        1513 21.70         3.4 0.38            144           89.5  83 
 PTB  HZ EP   1   1513  3.35                             132   -0.50 7  104 323 
 PTB  HN ES   1   1513 18.87                             132   -0.43 7  104 323 
 PTB  HZ I        1513 23.19         8.9 0.18            137            104 323 
 NOR  HZ EP   1   1513  5.13                             130    0.54 7  112 257 
 NOR  HE ES   1   1513 21.09                             130    0.47 7  112 257 
 BAR2 SZ EP   1   1513  5.78                             128    0.36 7  118  41 
 BAR2 SZ ES   1   1513 22.59                             128    0.49 7  118  41 
 CHI  HZ EP   1   1513  6.60                             125   -0.16 7  129 172 
 CHI  HN ES   1   1513 24.15                             125   -0.32 7  129 172 
 CHI  HZ I        1513 28.91         5.4 0.20            132            129 172 
 ZAR  HN ES   1   1513 40.23                             110   -0.22 6  217 330 
 ZAR  HZ I        1513 45.82         7.5 0.16            116            217 330 
                                                                                
