 2014  122 1148 51.3 L   6.816 -73.179141.6  RSN 17 0.6 2.5LRSN 3.1WRSN        1
 SPEC AVERAGE  MO 13.8 ST254.5 OM  2.1 f0 14.4 R1.0389 AL 0.00 WI 20.0 MW  3.1 3
 SPEC SD       MO  0.6 ST420.7 OM  0.7 f0 15.2 R1.7417 AL      WI      MW  0.4 3
 GAP= 69        1.23       2.9     3.4  5.9 -0.2651E+01  0.4758E+01 -0.6382E+00E
 Epicentro: LOS SANTOS - SANTANDER                                             3
 SPEC BAR2SH Z MO 14.0 ST 20.7 OM  2.2 f0 6.78 R0.2838 AL-0.00 WI 20.0 MW  3.3 3
 SPEC BAR2SH Z T114923 K 0.050 GD  143 VS 5.20 DE 3.20 Q0750.0 QA 1.50 VS 5.20 3
 SPEC PAM SH Z MO 13.5 ST  2.3 OM  1.6 f0 4.99 R0.3856 AL-0.00 WI 20.0 MW  2.9 3
 SPEC PAM SH Z T114929 K 0.050 GD  161 VS 5.20 DE 3.20 Q0750.0 QA 1.50 VS 5.20 3
 SPEC RUS HH Z MO 13.2 ST  4.7 OM  1.3 f0 7.74 R0.2486 AL-0.00 WI 20.0 MW  2.8 3
 SPEC RUS HH Z T114931 K 0.050 GD  175 VS 5.20 DE 3.20 Q0750.0 QA 1.50 VS 5.20 3
 SPEC PTB HH Z MO 13.4 ST948.4 OM  1.4 f0 40.0 R0.0481 AL-0.00 WI 20.0 MW  2.9 3
 SPEC PTB HH Z T114936 K 0.050 GD  202 VS 5.20 DE 3.20 Q0750.0 QA 1.50 VS 5.20 3
 SPEC OCA HH Z MO 13.6 ST 10.5 OM  1.6 f0 7.52 R0.2559 AL-0.00 WI 20.0 MW  3.0 3
 SPEC OCA HH Z T114939 K 0.050 GD  212 VS 5.20 DE 3.20 Q0750.0 QA 1.50 VS 5.20 3
 SPEC TAM HH Z MO 14.9 ST0.035 OM  2.9 f00.414 R4.6473 AL-0.00 WI 20.0 MW  3.9 3
 SPEC TAM HH Z T114938 K 0.050 GD  212 VS 5.20 DE 3.20 Q0750.0 QA 1.50 VS 5.20 3
 SPEC NOR HH Z MO 13.2 ST 66.4 OM  1.1 f0 18.8 R0.1023 AL-0.00 WI 20.0 MW  2.8 3
 SPEC NOR HH Z T114952 K 0.050 GD  272 VS 5.20 DE 3.20 Q0750.0 QA 1.50 VS 5.20 3
 SPEC SML HH Z MO 13.6 ST999.9 OM  1.5 f0 40.0 R0.0481 AL-0.00 WI 20.0 MW  3.0 3
 SPEC SML HH Z T114953 K 0.050 GD  279 VS 5.20 DE 3.20 Q0750.0 QA 1.50 VS 5.20 3
 SPEC CHI HH Z MO 13.6 ST0.712 OM  1.5 f0 3.00 R0.6413 AL-0.00 WI 20.0 MW  3.0 3
 SPEC CHI HH Z T114956 K 0.050 GD  286 VS 5.20 DE 3.20 Q0750.0 QA 1.50 VS 5.20 3
 SPEC HEL HH Z MO 15.0 ST0.030 OM  2.8 f00.377 R5.1034 AL-0.00 WI 20.0 MW  3.9 3
 SPEC HEL HH Z T114958 K 0.050 GD  303 VS 5.20 DE 3.20 Q0750.0 QA 1.50 VS 5.20 3
 SPEC URE HH Z MO 13.5 ST999.9 OM  1.3 f0 40.0 R0.0481 AL-0.00 WI 20.0 MW  2.9 3
 SPEC URE HH Z T1150 1 K 0.050 GD  313 VS 5.20 DE 3.20 Q0750.0 QA 1.50 VS 5.20 3
 SPECGUY2CHH Z MO 13.4 ST  0.6 OM  1.2 f0 3.39 R 0.567 AL-0.00 WI 20.0 MW  2.9 3
 SPECGUY2CHH Z T1150 6 K 0.050 GD330.8 VS 5.20 DE 3.20 Q0750.0 QA 1.50 VS 5.20 3
 SPEC PRA HH Z MO 13.8 ST0.975 OM  1.5 f0 2.94 R0.6544 AL-0.00 WI 20.0 MW  3.1 3
 SPEC PRA HH Z T115024 K 0.050 GD  416 VS 5.20 DE 3.20 Q0750.0 QA 1.50 VS 5.20 3
 OLDACT:REG 14-01-22 15:32 OP:stll STATUS:               ID:20140122114816     3
 ACTION:UPD 14-03-13 09:57 OP:ep   STATUS:               ID:20140122114851 L   I
 OLDACT:UP  14-01-22 19:46 OP:stll STATUS:               ID:20140122114816     3
 2014-01-22-1148-16M.COL___234                                                 6
 STAT SP IPHASW D HRMM SECON CODA AMPLIT PERI AZIMU VELO AIN AR TRES W  DIS CAZ7
 BAR2 SZ IP     C 1149 10.88                             170    0.4010 24.8 181 
 BAR2 SZ ES       1149 25.28                             170   -0.1410 24.8 181 
 BAR2 SZ I        1149 27.32       200.8 0.34            170           24.8 181 
 PAM  SZ IP     D 1149 13.65                             150    0.5010 78.4  42 
 PAM  SN ES       1149 30.55                             150    0.3710 78.4  42 
 PAM  SZ I        1149 32.80        62.0 0.52            149           78.4  42 
 RUS  HZ IP     C 1149 14.84                             142    0.0210  103 174 
 RUS  HN ES       1149 33.05                             142   -0.0910  103 174 
 RUS  SZ I        1149 34.66        33.1 0.46            143            103 174 
 PTB  HZ EP       1149 17.59                             132   -0.06 9  145 258 
 PTB  HN ES       1149 38.00                             132   -0.19 9  145 258 
 PTB  SZ I        1149 43.90        45.8 0.40            128            145 258 
 OCA  HZ EP       1149 18.81                             129   -0.29 9  158 354 
 OCA  HN ES       1149 41.36                             129    0.59 9  158 354 
 OCA  SZ I        1149 46.38        36.6 0.68            126            158 354 
 TAM  HZ IP     C 1149 19.27                             129    0.23 9  159 105 
 TAM  HN ES       1149 40.36                             129   -0.31 9  159 105 
 TAM  SZ I        1149 45.32        20.7 0.96            130            159 105 
 SPBC HZ EP       1149 19.77                             128    0.35 9  162 218 
 SPBC HN ES       1149 40.87                             128   -0.46 9  162 218 
 SPBC SZ I        1149 46.37        36.4 0.20            127            162 218 
 NOR  HZ EP       1149 27.15                             118    0.55 8  233 234 
 NOR  HN ES       1149 54.13                             118    0.01 8  233 234 
 NOR  HZ I        1150  0.38        20.1 0.18            116            233 234 
 NOR  SZ I        1150  0.60        20.9 0.28                           233 234 
 SML  HZ EP       1149 27.06                             117   -0.31 8  241 336 
 SML  HE ES       1149 55.27                             117   -0.22 8  241 336 
 SML  SZ I        1150  2.21        50.0 0.08            115            241 336 
 CHI  HZ EP       1149 28.84                             116   -0.04 8  249 194 
 CHI  HN ES       1149 58.10                             116   -0.07 8  249 194 
 CHI  SZ I        1150  4.53        13.7 0.30            115            249 194 
 HEL  HZ EP       1149 32.03                             114    1.05 8  269 255 
 HEL  HN ES       1150  0.24                             114   -1.67 8  269 255 
 HEL  SZ I        1150  9.84        16.0 0.30            112            269 255 
 URE  HZ EP       1149 31.48                             113   -0.25 7  280 292 
 URE  SZ I        1150  8.48        24.3 0.18            111            280 292 
 GUY2CHZ EP       1149 35.85                             112    1.33 7  299 234 
 GUY2CHN ES       1150  8.30                             112    0.09 7  299 234 
 GUY2CSZ I        1150 15.18        10.1 0.32                           299 234 
 SOCV BZ EP       1149 33.24                             111   -1.17 7  303  58 
 VIL  SN ES       1150  8.15                             111   -0.33 7  304 191 
 SDV  BZ EP       1149 40.43                             107   -0.97 6  362  51 
 PRA  HZ EP       1149 44.69                             106    0.02 6  392 209 
 PRA  HN ES       1150 26.28                             106   -0.01 6  392 209 
 PRA  SZ I        1150 33.48        11.7 0.58            105            392 209 
                                                                                
