 2014  122 1505  5.3 L   6.687 -73.178145.7  RSN  4 0.5 1.4LRSN                1
 GAP=137        1.29       8.3     8.2 12.9  0.1735E+02 -0.2265E+02 -0.2156E+02E
 Epicentro: VILLANUEVA - SANTANDER                                             3
 ACTION:UPD 14-03-13 09:57 OP:ep   STATUS:               ID:20140122150505 L   I
 OLDACT:DUP 14-01-22 20:25 OP:stll STATUS:               ID:20140122145812d    3
 2014-01-22-1458-09M.COL___253                                                 6
 STAT SP IPHASW D HRMM SECON CODA AMPLIT PERI AZIMU VELO AIN AR TRES W  DIS CAZ7
 BRR  HZ EP       15 5 27.62                             151    1.0010 75.1 308 
 BRR  HN ES       15 5 43.35                             151    0.0710 75.1 308 
 RUS  HZ EP       15 5 28.11                             147   -0.0510 88.5 173 
 RUS  HZ I        15 5 29.06         2.4 0.42            119           88.5 173 
 RUS  HN ES       15 5 46.16                             147    0.1310 88.5 173 
 PAM  SZ I        15 5 27.49         6.4 0.18            146           89.4  36 
 PAM  SZ EP       15 5 27.54                             147   -0.6810 89.4  36 
 PTB  HZ EP       15 5 31.71                             133   -0.02 9  142 263 
 PTB  HN ES       15 5 51.86                             133   -0.51 9  142 263 
 PTB  HZ I        15 5 54.24         3.2 0.26            108            142 263 
                                                                                
