 2014  922 1551 59.5 L   6.800 -73.126147.5  RSN 18 0.4 2.2LRSN                1
 GAP= 72        0.92       2.5     2.8  4.8 -0.3560E+00  0.2231E+01  0.2473E+01E
 Epicentro: LOS SANTOS - SANTANDER                                             3
 ACTION:UPD 14-10-03 23:07 OP:nd   STATUS:               ID:20140922155159 L   I
 OLDACT:REG 14-09-22 20:48 OP:spq  STATUS:               ID:20140922154818     3
 2014-09-22-1548-18M.COL___284                                                 6
 STAT SP IPHASW D HRMM SECON CODA AMPLIT PERI AZIMU VELO AIN AR TRES W  DIS CAZ7
 BAR2 SZ IP     C 1552 19.16                             170   -0.1410 23.8 195 
 BAR2 SZ ES   1   1552 34.22                             170   -0.55 7 23.8 195 
 BAR2 SZ I        1552 36.87        49.8 0.30            167           23.8 195 
 BRR  HZ EP       1552 21.07                             152    0.1710 73.1 298 
 BRR  HE ES       1552 38.47                             152    0.8510 73.1 298 
 BRR  HZ I        1552 41.29        17.1 0.32            150           73.1 298 
 PAM  SZ EP     C 1552 21.92                             152    0.1410 76.1  38 
 PAM  SN ES   1   1552 39.14                             152   -0.04 7 76.1  38 
 PAM  SZ I        1552 41.31        28.5 0.48            156           76.1  38 
 RUS  HZ EP       1552 23.04                             144   -0.3210  100 177 
 RUS  HN ES   1   1552 41.54                             144   -0.47 7  100 177 
 RUS  HZ I        1552 43.21         9.0 0.38            145            100 177 
 PTB  HZ EP       1552 26.18                             132   -0.57 9  150 259 
 PTB  HN ES       1552 47.35                             132   -0.69 9  150 259 
 PTB  HZ I        1552 53.10        22.8 0.15            131            150 259 
 TAM  HZ EP       1552 27.30                             131    0.22 9  153 105 
 TAM  HE ES       1552 48.97                             131    0.35 9  153 105 
 TAM  HZ I        1552 52.25        14.1 0.38            135            153 105 
 OCA  HZ EP       1552 28.02                             130    0.09 9  161 352 
 OCA  HN ES       1552 49.90                             130   -0.23 9  161 352 
 OCA  HZ I        1552 54.55        15.3 0.52            132            161 352 
 SPBC HZ EP       1552 27.97                             129   -0.24 9  164 220 
 SPBC HE ES       1552 51.00                             129    0.36 9  164 220 
 SPBC HZ I        1552 55.24        25.5 0.24            129            164 220 
 ZAR  HZ EP   1   1552 31.67                             122   -0.55 6  206 292 
 ZAR  HN ES       1552 58.12                             122    0.35 8  206 292 
 ZAR  HZ I        1553  8.09        17.0 0.36            123            206 292 
 SML  HZ EP   1   1552 35.82                             118   -0.46 6  245 335 
 SML  HN ES   1   1553  4.71                             118   -0.29 6  245 335 
 SML  HZ I        1553  8.63        17.7 0.10            119            245 335 
 CHI  HZ EP       1552 37.18                             117   -0.13 8  249 196 
 CHI  HE ES       1553  6.73                             117   -0.10 8  249 196 
 CHI  HZ I        1553 15.19         6.0 0.70            118            249 196 
 ROSC BZ EP   4   1552 39.63                             117    1.84 0  254 211 
 ROSC BN ES   4   1553 10.02                             117    2.34 0  254 211 
 ROSC BZ I        1553 16.92        21.2 0.50            117            254 211 
 GUY2CHZ EP       1552 43.91                             112    0.57 7  303 235 
 GUY2CHE ES   4   1553 20.05                             112    2.49 0  303 235 
 GUY2CHZ I        1553 26.05        13.2 0.74                           303 235 
 CBOC HZ EP       1552 47.48                             110    0.81 7  336 252 
 CBOC HE ES   1   1553 23.58                             110    0.08 5  336 252 
 CBOC HZ I        1553 37.37         2.7 0.40            111            336 252 
 TOL  SZ EP   1   1552 47.78                             109   -0.17 5  345 225 
 TOL  SN ES   1   1553 26.49                             109    0.72 5  345 225 
 TOL  SZ I        1553 31.60        17.8 0.39            110            345 225 
 MON  HN ES   4   1553 25.31                             109   -1.83 0  355 308 
 MON  HZ I        1553 29.36         2.7 0.28            110            355 308 
 PRA  HZ EP       1552 53.47                             107    0.31 6  393 210 
 PRA  HN ES   4   1553 36.42                             107    1.38 0  393 210 
 PRA  HZ I        1553 41.93         7.4 0.23            108            393 210 
 ORTC HZ EP       1552 53.07                             107   -0.51 6  397 216 
 ORTC HE ES       1553 36.25                             107    0.46 6  397 216 
 ORTC HZ I        1553 42.38         5.6 0.41            107            397 216 
                                                                                
