 2016  122 1438 14.6 L   6.810 -73.157142.7  RSN  9 0.4 2.0LRSN                1
 GAP=135        0.95       4.3     4.2  6.7 -0.4720E+01  0.1131E+02  0.1675E+00E
 Epicentro: LOS SANTOS - SANTANDER                                             3
 ACTION:UPD 16-03-09 23:27 OP:cam  STATUS:               ID:20160122143814 L   I
 OLDACT:REG 16-01-22 22:16 OP:mh   STATUS:               ID:20160122142746     3
 2016-01-22-1427-46M.COL___324                                                 6
 STAT SP IPHASW D HRMM SECON CODA AMPLIT PERI AZIMU VELO AIN AR TRES W  DIS CAZ7
 BAR2 EZ EP       1438 33.76                             170   -0.1610 24.2 187 
 BAR2 EZ ES       1438 48.79                             170   -0.1710 24.2 187 
 BAR2 EZ I        1438 51.89        20.9 0.31            170           24.2 187 
 PAM  EZ EP       1438 36.64                             150    0.1110 77.4  41 
 PAM  EN ES       1438 53.79                             150    0.1910 77.4  41 
 PAM  EZ I        1438 55.85        11.8 0.52            155           77.4  41 
 RUS  HZ EP   1   1438 37.29                             143   -0.89 7  102 175 
 RUS  HN ES       1438 56.94                             143    0.4010  102 175 
 RUS  HZ I        1438 57.77         9.5 0.36            148            102 175 
 PTB  HZ EP   1   1438 40.42                             131   -0.84 7  147 258 
 PTB  HN ES       1439  1.61                             131   -0.42 9  147 258 
 PTB  HZ I        1439  8.81        14.7 0.46            132            147 258 
 SPBC HZ EP   1   1438 42.63                             128   -0.28 7  163 218 
 SPBC HN ES       1439  5.04                             128    0.08 9  163 218 
 SPBC HZ I        1439  8.83        17.3 0.14            131            163 218 
 ZAR  HE ES       1439 12.08                             122    0.34 9  202 292 
 ZAR  HZ I        1439 18.55        11.5 0.52            123            202 292 
 NOR  HZ EP       1438 50.65                             118    0.50 8  234 234 
 NOR  HN ES       1439 17.96                             118    0.12 8  234 234 
 NOR  HZ I        1439 21.33         8.8 0.30            120            234 234 
 GUY2CHZ EP       1438 58.67                             112    0.61 7  301 234 
 GUY2CHN ES   4   1439 35.55                             112    3.62 0  301 234 
 GUY2CHZ I        1439 40.29         7.4 0.74                           301 234 
 SOCV BZ EP   4   1438 55.20                             111   -2.40 0  302  57 
 SOCV BE ES   4   1439 26.62                             111   -4.50 0  302  57 
 SJC  HZ EP   4   1439  7.09                             105   -2.82 0  408 327 
 SJC  HN ES   4   1439 49.11                             105   -3.91 0  408 327 
 SJC  HZ I        1439 55.37         1.9 0.42            107            408 327 
                                                                                
