 2017  222 1348 47.1 L   6.786 -73.135145.3  RSN  8 0.5 1.9LRSN                1
 GAP=139        1.13       4.2     4.9  6.7  0.1746E+01  0.8924E+01  0.7415E+01E
 Epicentro: LOS SANTOS - SANTANDER                                             3
 ACTION:UPD 17-05-24 15:39 OP:jn   STATUS:               ID:20170222134847 L   I
 OLDACT:REG 17-02-22 19:57 OP:edw  STATUS:               ID:20170222134747     3
 2017-02-22-1348-00M.COL___376                                                 6
 STAT SP IPHASW D HRMM SECON CODA AMPLIT PERI AZIMU VELO AIN AR TRES W  DIS CAZ7
 BAR2 EZ EP       1349  6.62                             171    0.0110 22.1 194 
 BAR2 EZ ES       1349 21.47                             171   -0.3910 22.1 194 
 BAR2 EZ I        1349 22.77        24.7 0.16            169           22.1 194 
 BRR  HZ EP       1349  8.48                             152    0.2210 73.0 299 
 BRR  HN ES       1349 25.57                             152    0.7810 73.0 299 
 PAM  EZ EP     D 1349  9.37                             151    0.1210 77.8  38 
 PAM  EN ES       1349 26.34                             151   -0.2210 77.8  38 
 PAM  EZ I        1349 29.06         9.2 0.58            153           77.8  38 
 RUS  HZ EP       1349 10.45                             144   -0.2010 99.0 177 
 RUS  HN ES       1349 29.40                             144    0.3510 99.0 177 
 RUS  HZ I        1349 30.11        17.0 0.26            144           99.0 177 
 PTB  HZ EP       1349 13.43                             132   -0.64 9  149 259 
 PTB  HN ES       1349 34.29                             132   -0.85 9  149 259 
 PTB  HZ I        1349 36.55        10.2 0.16            131            149 259 
 ZAR  HZ EP       1349 19.25                             122   -0.40 8  206 292 
 ZAR  HN ES       1349 45.63                             122    0.57 8  206 292 
 ZAR  HZ I        1349 51.52        10.3 0.42            122            206 292 
 CHI  HZ EP       1349 24.66                             117    0.05 8  247 196 
 CHI  HN ES       1349 53.81                             117   -0.08 8  247 196 
 CHI  HZ I        1349 59.35         3.1 0.24            117            247 196 
 PRA  HZ EP       1349 41.30                             106    0.82 6  391 210 
 PRA  HN ES       1350 22.82                             106    0.68 6  391 210 
 PRA  HZ I        1350 29.27         2.6 0.22            106            391 210 
                                                                                
