 2014  722 1448 45.8 L   6.801 -73.131152.8  RSN  6 0.5 1.7LRSN                1
 GAP=219        1.10       6.1     9.8  9.5  0.1480E+01 -0.1423E+02 -0.1912E+01E
 Epicentro: LOS SANTOS - SANTANDER                                             3
 ACTION:UPD 15-03-16 20:46 OP:nd   STATUS:               ID:20140722144845 L   I
 OLDACT:REG 14-07-22 20:24 OP:y    STATUS:               ID:20140722143818     3
 2014-07-22-1438-18M.COL___272                                                 6
 STAT SP IPHASW D HRMM SECON CODA AMPLIT PERI AZIMU VELO AIN AR TRES W  DIS CAZ7
 BAR2 SZ ES   2   1449 21.37                             171   -0.93 5 23.8 194 
 BAR2 SZ I        1449 24.31        13.2 0.24            169           23.8 194 
 BRR  HZ EP       1449  8.32                             154    0.5010 72.6 298 
 BRR  HN ES       1449 25.55                             154    0.5710 72.6 298 
 BRR  HZ I        1449 27.81         9.7 0.30            152           72.6 298 
 PTB  HZ EP       1449 12.99                             134   -0.54 9  149 259 
 PTB  HE ES       1449 34.67                             134   -0.46 9  149 259 
 PTB  HZ I        1449 36.83         3.7 0.12            133            149 259 
 SPBC HZ EP       1449 15.16                             131    0.17 9  164 219 
 SPBC HN ES   1   1449 37.84                             131    0.11 7  164 219 
 SPBC HZ I        1449 43.75         5.8 0.22            131            164 219 
 ZAR  HZ EP   1   1449 19.71                             124    0.81 6  206 292 
 ZAR  HN ES       1449 44.65                             124   -0.04 8  206 292 
 ZAR  HZ I        1449 50.29         4.3 0.26            125            206 292 
 SML  HZ EP   1   1449 22.41                             119   -0.51 6  244 335 
 SML  HN ES   1   1449 51.05                             119   -0.81 6  244 335 
 SML  HZ I        1449 53.65         6.3 0.30            121            244 335 
                                                                                
