 2011  522 1148 11.9 L   6.772 -73.105148.0  RSN  4 0.2 1.5LRSN                1
 GAP=143        0.61       6.0     6.8 10.2 -0.2911E+01 -0.2270E+02  0.2616E+02E
 Epicentro: LOS SANTOS - SANTANDER                                             3
 ACTION:UP  11-06-29 08:55 OP:tino STATUS:               ID:20110522114811 L   I
 2011-05-22-1146-00S.COL___135                                                 6
 STAT SP IPHASW D HRMM SECON CODA AMPLIT PERI AZIMU VELO SNR AR TRES W  DIS CAZ7
 BAR2 SZ EP       1148 31.36                             171    -0.410   22 203 
 BAR2 SZ I        1148 48.12         7.0 0.30                            22 203 
 BRR  HZ EP       1148 33.64                             151     0.110   77 299 
 BRR  HZ I        1148 46.04        16.3 0.27                            77 299 
 BRR  HN ES   1   1148 50.55                             151     0.0 7   77 299 
 PAM  SZ EP       1148 34.48                             151     0.210   77  35 
 PAM  SN ES   2   1148 51.62                             151    -0.2 5   77  35 
 RUS  HZ EP       1148 35.74                             145     0.110   97 179 
 RUS  HN ES   3   1148 54.68                             145     0.6 2   97 179 
 RUS  HZ I        1148 55.39         2.1 0.19                            97 179 
                                                                                
