 2017  122 1136 27.9 L   6.788 -73.159151.0  RSN  5 0.4 1.4LRSN                1
 GAP=135        0.98       5.6     5.2  7.5 -0.3565E+01  0.2768E+01  0.4440E+01E
 Epicentro: LOS SANTOS - SANTANDER                                             3
 ACTION:UPD 17-05-22 16:02 OP:jn   STATUS:               ID:20170122113627 L   I
 OLDACT:REG 17-01-22 20:36 OP:cog  STATUS:               ID:20170122112741     3
 2017-01-22-1128-00M.COL___335                                                 6
 STAT SP IPHASW D HRMM SECON CODA AMPLIT PERI AZIMU VELO AIN AR TRES W  DIS CAZ7
 BAR2 EZ EP       1136 48.11                             171   -0.0210 21.8 187 
 BAR2 EZ ES       1137  3.40                             171   -0.5210 21.8 187 
 BAR2 EZ I        1137  4.32        11.9 0.16            172           21.8 187 
 BRR  HN ES       1137  7.23                             154    0.7310 70.5 300 
 PAM  EZ EP       1136 50.95                             151    0.1610 79.4  40 
 PAM  EE ES       1137  8.37                             151   -0.2810 79.4  40 
 PAM  EZ I        1137 10.53         3.4 0.58            152           79.4  40 
 RUS  HZ EP       1136 52.23                             145    0.1510 99.4 175 
 RUS  HN ES       1137 11.27                             145    0.3210 99.4 175 
 RUS  HZ I        1137 12.27         2.2 0.30            146           99.4 175 
 PTB  HZ EP       1136 54.87                             134   -0.27 9  146 259 
 PTB  HN ES       1137 16.05                             134   -0.35 9  146 259 
 PTB  HZ I        1137 18.46         3.2 0.28            134            146 259 
                                                                                
