 2016  322 1648 29.2 L   6.822 -73.203144.9  RSN  7 0.2 1.6LRSN                1
 GAP=129        0.41       2.7     2.8  4.8  0.2889E+01  0.3303E+01  0.3108E+00E
 Epicentro: ZAPATOCA - SANTANDER                                               3
 ACTION:UPD 16-05-13 21:26 OP:cam  STATUS:               ID:20160322164829 L   I
 OLDACT:REG 16-03-22 21:31 OP:dnl  STATUS:               ID:20160322163744     3
 2016-03-22-1637-44M.COL___308                                                 6
 STAT SP IPHASW D HRMM SECON CODA AMPLIT PERI AZIMU VELO AIN AR TRES W  DIS CAZ7
 BAR2 EZ EP       1648 48.73                             170   -0.0710 25.5 175 
 BAR2 EZ ES   2   1649  3.39                             170   -0.67 5 25.5 175 
 BAR2 EZ I        1649  6.42         9.8 0.20            172           25.5 175 
 PAM  EZ EP   2   1648 51.66                             150    0.17 5 79.7  44 
 PAM  EE ES   2   1649  8.95                             150    0.09 5 79.7  44 
 PAM  EZ I        1649 11.32         7.4 0.20            152           79.7  44 
 RUS  HZ EP       1648 53.05                             143   -0.0710  104 173 
 RUS  HN ES       1649 11.99                             143    0.2410  104 173 
 RUS  HZ I        1649 12.60         6.4 0.24            147            104 173 
 PTB  HZ EP   2   1648 55.26                             133   -0.36 5  142 257 
 PTB  HN ES   2   1649 16.27                             133    0.07 5  142 257 
 PTB  HZ I        1649 17.63         4.8 0.18            133            142 257 
 SPBC HZ EP   2   1648 57.22                             129   -0.26 5  161 217 
 SPBC HE ES   3   1649 19.43                             129   -0.08 2  161 217 
 SPBC HZ I        1649 21.56        10.8 0.07            131            161 217 
 ZAR  HZ EP   3   1649  1.13                             123    0.21 2  197 292 
 ZAR  HN ES       1649 25.80                             123    0.16 9  197 292 
 ZAR  HZ I        1649 35.76         4.4 0.18            123            197 292 
 CHI  HZ EP   2   1649  6.85                             117   -0.12 4  249 194 
 CHI  HE ES   2   1649 36.53                             117    0.12 4  249 194 
 CHI  HZ I        1649 38.86         1.0 0.12            119            249 194 
                                                                                
