 2015  722 1829 50.6 L   6.861 -73.107127.8  RSN  5 0.3 2.0LRSN                1
 GAP=205        0.62       2.8     4.5  7.8  0.3345E+01  0.1028E+02 -0.6889E+01E
 Epicentro: LOS SANTOS - SANTANDER                                             3
 ACTION:UPD 15-09-08 21:50 OP:cam  STATUS:               ID:20150722182950 L   I
 OLDACT:UP  15-08-03 15:38 OP:cam  STATUS:               ID:20150722182950 L   3
 OLDACT:UP  15-07-30 07:13 OP:AK   STATUS:               ID:20150722182950 L   3
 OLDACT:UP  15-07-23 01:46 OP:ak   STATUS:               ID:20150722182848     3
 OLDACT:UP  15-07-23 01:44 OP:ak   STATUS:               ID:20150722182848     3
 OLDACT:REG 15-07-23 01:41 OP:ak   STATUS:               ID:20150722182848     3
 2015-07-22-1828-48M.COL___313                                                 6
 STAT SP IPHASW D HRMM SECON CODA AMPLIT PERI AZIMU VELO AIN AR TRES W  DIS CAZ7
 RUS  HZ EP       1830 13.07                             138   -0.1110  107 179 
 RUS  HN ES       1830 30.82                             138    0.0510  107 179 
 RUS  HZ I        1830 34.31         7.8 0.24            148            107 179 
 ZAR  HZ EP       1830 22.11                             118   -0.02 9  206 290 
 ZAR  HN ES       1830 46.51                             118   -0.20 9  206 290 
 ZAR  HZ I        1830 52.98        11.7 0.34            124            206 290 
 SML  HZ EP       1830 25.43                             114   -0.40 8  239 334 
 SML  HN ES       1830 53.71                             114    0.41 8  239 334 
 SML  HZ I        1831  1.19        11.9 0.32            120            239 334 
 GUY2CHZ EP       1830 34.81                             108    0.50 7  309 234 
 GUY2CHE ES       1831  8.32                             108   -0.07 7  309 234 
 SJC  HZ EP   4   1830 43.26                             103   -2.00 0  406 326 
 SJC  HN ES   4   1831 24.87                             103   -3.01 0  406 326 
 SJC  HZ I        1831 27.76         2.4 0.48            108            406 326 
                                                                                
