 2012  622 1658 46.4 L   6.691 -73.170155.6  RSN  4 0.2 1.5LRSN                1
 GAP=226        0.41       5.5     4.6  5.4  0.6492E+01  0.1707E+01 -0.2187E+00E
 Epicentro: VILLANUEVA - SANTANDER                                             3
 ACTION:UPD 12-08-06 17:51 OP:ep   STATUS:               ID:20120622165846 L   I
 2012-06-22-1650-00M.COL___199                                                 6
 STAT SP IPHASW D HRMM SECON CODA AMPLIT PERI AZIMU VELO AIN AR TRES W  DIS CAZ7
 BAR2 SZ EP   1   1659  6.85                             176   -0.19 7 11.0 187 
 BAR2 SZ ES   2   1659 22.96                             176   -0.17 5 11.0 187 
 BAR2 SZ I        1659 23.93         7.4 0.27                          11.0 187 
 BRR  HZ EP   1   1659  9.15                             153    0.30 7 75.5 308 
 BRR  HZ I        1659  9.53         9.6 0.11                          75.5 308 
 BRR  HE ES   1   1659 26.34                             153   -0.02 7 75.5 308 
 RUS  HN ES   2   1659 29.29                             149    0.25 5 88.8 174 
 PTB  HZ EP   1   1659 13.64                             135   -0.15 7  143 263 
 PTB  HE ES   1   1659 35.16                             135    0.01 7  143 263 
 PTB  HZ I        1659 36.90         2.2 0.22                           143 263 
                                                                                
