 2010  222 1058 42.9 L   6.797 -73.116128.0  RSN  4 0.3 1.3LRSN                1
 GAP=193        0.69       9.2    15.5 14.7  0.9011E+02 -0.5994E+02  0.9131E+01E
 Epicentro: LOS SANTOS - SANTANDER                                             3
 ACTION:UP  10-08-24 09:50 OP:vdl  STATUS:               ID:20100222105842 L   I
 2010-02-22-1055-17S.COL___094                                                 6
 STAT SP IPHASW D HRMM SECON CODA AMPLIT PERI AZIMU VELO SNR AR TRES W  DIS CAZ7
 BAR2 SZ EP       1059  0.08                             169    -0.410   24 198 
 BAR2 SZ ES   3   1059 14.05                             169    -0.1 2   24 198 
 GIR2 SZ EP       1059  0.81                             165     0.310   32 345 
 BRR  HZ EP       1059  2.22                             148    -0.210   74 298 
 BRR  HE ES   2   1059 17.84                             148     0.3 5   74 298 
 BRR  HZ I        1059 19.94        11.4 0.17                            74 298 
 RUS  BZ EP       1059  5.22                             140     0.310  100 178 
 RUS  BN ES   3   1059 21.89                             140    -0.2 2  100 178 
 RUS  BZ I        1059 23.30         1.6 0.43                           100 178 
                                                                                
