 2013  522 1954 13.6 L   6.830 -73.124143.3  RSN 21 0.7 3.1LRSN 3.4WRSN        1
 SPEC AVERAGE  MO 14.1 ST  9.3 OM  2.3 f0 3.69 R0.5793 AL 1.40 WI 24.5 MW  3.4 3
 SPEC SD       MO  0.3 ST 12.3 OM  0.4 f0 1.19 R0.1980 AL      WI      MW  0.2 3
 GAP= 49        1.52       3.4     3.6  5.9 -0.2079E+01  0.3484E+01  0.2726E+01E
 Epicentro: LOS SANTOS - SANTANDER                                             3
 SPEC PRA HH N MO 13.8 ST0.985 OM  1.5 f0 2.94 R0.6544 AL 1.84 WI 32.6 MW  3.1 3
 SPEC PRA HH N T195543 K 0.050 GD  421 VS 5.20 DE 3.20 Q0750.0 QA 1.50 VS 5.20 3
 SPECGUY2CHH N MO 14.2 ST0.983 OM  2.0 f0 2.14 R0.9001 AL 1.82 WI 29.9 MW  3.4 3
 SPECGUY2CHH N T195532 K 0.050 GD  336 VS 5.20 DE 3.20 Q0750.0 QA 1.50 VS 5.20 3
 SPEC HEL HH N MO 13.9 ST0.488 OM  1.7 f0 2.21 R0.8706 AL 1.14 WI 35.2 MW  3.2 3
 SPEC HEL HH N T195523 K 0.050 GD  310 VS 5.20 DE 3.20 Q0750.0 QA 1.50 VS 5.20 3
 SPEC CHI HH N MO 14.1 ST0.696 OM  2.0 f0 2.02 R0.9525 AL 1.05 WI 15.9 MW  3.4 3
 SPEC CHI HH N T195521 K 0.050 GD  289 VS 5.20 DE 3.20 Q0750.0 QA 1.50 VS 5.20 3
 SPEC NOR HH N MO 14.4 ST 42.2 OM  2.3 f0 6.39 R0.3011 AL 2.64 WI 26.5 MW  3.6 3
 SPEC NOR HH N T195516 K 0.050 GD  278 VS 5.20 DE 3.20 Q0750.0 QA 1.50 VS 5.20 3
 SPEC ZAR HH N MO 14.4 ST  8.3 OM  2.3 f0 3.85 R0.4997 AL 0.60 WI 29.0 MW  3.5 3
 SPEC ZAR HH N T195510 K 0.050 GD  250 VS 5.20 DE 3.20 Q0750.0 QA 1.50 VS 5.20 3
 SPEC OCA HH N MO 14.7 ST 15.3 OM  2.7 f0 3.67 R0.5243 AL 1.41 WI 25.7 MW  3.7 3
 SPEC OCA HH N T1955 3 K 0.050 GD  212 VS 5.20 DE 3.20 Q0750.0 QA 1.50 VS 5.20 3
 SPEC PTB HH N MO 14.2 ST  3.2 OM  2.2 f0 3.23 R0.5957 AL 0.52 WI 23.9 MW  3.4 3
 SPEC PTB HH N T1955 0 K 0.050 GD  208 VS 5.20 DE 3.20 Q0750.0 QA 1.50 VS 5.20 3
 SPEC RUS HH N MO 13.7 ST  2.7 OM  1.8 f0 4.36 R0.4413 AL 1.36 WI 12.0 MW  3.1 3
 SPEC RUS HH N T195455 K 0.050 GD  177 VS 5.20 DE 3.20 Q0750.0 QA 1.50 VS 5.20 3
 SPEC PAM SH N MO 13.7 ST  1.4 OM  1.8 f0 3.61 R0.5330 AL 1.38 WI 12.8 MW  3.1 3
 SPEC PAM SH N T195452 K 0.050 GD  160 VS 5.20 DE 3.20 Q0750.0 QA 1.50 VS 5.20 3
 SPEC BRR HH N MO 14.5 ST 17.8 OM  2.6 f0 4.58 R0.4201 AL 2.04 WI 31.9 MW  3.6 3
 SPEC BRR HH N T195450 K 0.050 GD  160 VS 5.20 DE 3.20 Q0750.0 QA 1.50 VS 5.20 3
 ACTION:UPD 13-06-20 09:52 OP:ep   STATUS:               ID:20130522195413 L   I
 2013-05-22-1948-50M.COL___215                                                 6
 STAT SP IPHASW D HRMM SECON CODA AMPLIT PERI AZIMU VELO AIN AR TRES W  DIS CAZ7
 BAR2 SZ IP       1954 33.05                             169    0.0310 27.1 194 
 BAR2 SZ ES       1954 47.95                             169   -0.2210 27.1 194 
 BAR2 SZ I        1954 49.36       109.1 0.24            169           27.1 194 
 GIR2 SZ IP     C 1954 32.96                             168    0.0510 28.5 344 
 GIR2 SZ ES       1954 47.74                             168   -0.2310 28.5 344 
 BRR  HZ IP     C 1954 34.75                             152    0.2310 71.8 295 
 BRR  HN ES       1954 51.56                             152    0.7210 71.8 295 
 BRR  HN I        1954 52.12       852.0 0.30            151           71.8 295 
 PAM  SZ EP       1954 35.71                             152    0.4010 73.3  40 
 PAM  SZ I        1954 36.09       291.1 0.20            153           73.3  40 
 PAM  SN ES       1954 52.67                             152    0.4210 73.3  40 
 RUS  HZ EP       1954 37.06                             142   -0.2910  104 178 
 RUS  HE ES       1954 56.23                             142    0.3610  104 178 
 RUS  HN I        1954 57.37       109.5 0.32            144            104 178 
 CCUC3EZ EP       1954 40.07                             134    0.9010  134  31 
 CCUC3EZ I        1954 40.19       154.0 0.13                           134  31 
 CCUC3EN ES       1954 59.25                             134    0.1410  134  31 
 PTB  HZ EP       1954 39.72                             131   -0.93 9  151 258 
 PTB  HN ES       1955  0.42                             131   -1.32 9  151 258 
 PTB  HN I        1955  6.15       188.2 0.26            131            151 258 
 TAM  HZ IP     C 1954 41.44                             130    0.49 9  154 106 
 TAM  HN ES       1955  2.25                             130   -0.04 9  154 106 
 OCA  HZ EP       1954 41.03                             130   -0.41 9  157 352 
 OCA  HN ES       1955  3.09                             130   -0.06 9  157 352 
 OCA  HN I        1955  7.73       355.1 0.36            130            157 352 
 YOP  SZ EP       1954 43.84                             125    0.18 9  181 154 
 YOP  SN ES       1955  6.11                             125   -1.00 9  181 154 
 YOP  SN I        1955  9.88        75.6 0.36            127            181 154 
 ZAR  HZ EP       1954 46.77                             122    0.78 9  205 291 
 ZAR  HE ES       1955 11.29                             122    0.03 9  205 291 
 ZAR  HN I        1955 17.22       232.9 0.18            122            205 291 
 NOR  HZ EP       1954 49.09                             118   -0.52 8  239 234 
 NOR  HE ES       1955 17.20                             118   -0.50 8  239 234 
 NOR  HN I        1955 17.95       107.0 0.14            118            239 234 
 SML  HZ EP       1954 49.06                             117   -0.81 8  242 334 
 CHI  HZ EP       1954 51.50                             116   -0.09 8  252 195 
 CHI  HN ES       1955 21.20                             116   -0.01 8  252 195 
 CHI  HN I        1955 23.28        83.6 0.58            117            252 195 
 HEL  HZ EP       1954 55.30                             114    1.26 8  275 255 
 HEL  HN ES       1955 25.09                             114   -0.50 8  275 255 
 HEL  HN I        1955 30.51        33.3 0.28            115            275 255 
 SOCV BZ EP       1954 55.26                             112   -0.84 7  297  57 
 GUY2CHZ EP       1954 58.56                             112    1.02 7  305 235 
 GUY2CHN ES       1955 32.15                             112    0.34 7  305 235 
 GUY2CHN I        1955 40.76        41.9 0.60                           305 235 
 RREF HZ EP       1955  1.24                             110    1.14 7  326 229 
 RREF HN ES       1955 38.02                             110    1.66 7  326 229 
 SDV  BZ EP       1955  2.70                             108   -0.39 6  356  50 
 PRA  HZ EP       1955  6.82                             106   -0.70 6  396 210 
 PRA  HN ES       1955 48.74                             106   -0.83 6  396 210 
 SJC  HZ EP       1955  7.35                             105   -1.56 6  408 326 
                                                                                
