 2014  522 1759 33.9 L   7.154 -73.096154.5  RSN  7 0.4 2.0LRSN                1
 GAP=115        1.03       4.2     5.6  6.7  0.1659E+01  0.7881E+01 -0.3407E+01E
 Epicentro: BUCARAMANGA - SANTANDER                                            3
 ACTION:UPD 15-03-16 16:59 OP:nd   STATUS:               ID:20140522175933 L   I
 OLDACT:UP  14-05-23 00:15 OP:cam  STATUS:               ID:20140522175813     3
 OLDACT:REG 14-05-22 22:43 OP:cam  STATUS:               ID:20140522175813     3
 2014-05-22-1758-13M.COL___255                                                 6
 STAT SP IPHASW D HRMM SECON CODA AMPLIT PERI AZIMU VELO AIN AR TRES W  DIS CAZ7
 PAM  SZ EP     D 1759 55.68                             162    0.0310 48.4  65 
 PAM  SE ES       18 0 12.85                             162    0.2210 48.4  65 
 PAM  SZ I        18 0 13.33        19.4 0.20            161           48.4  65 
 BAR2 SZ EP     D 1759 55.92                             157    0.0110 62.8 189 
 BAR2 SZ ES       18 0 12.96                             157   -0.1210 62.8 189 
 BAR2 SZ I        18 0 14.34        64.3 0.16            146           62.8 189 
 BRR  HZ EP     D 1759 56.36                             155    0.5410 68.2 266 
 BRR  HN ES       18 0 13.46                             155    0.5310 68.2 266 
 BRR  HZ I        18 0 15.42        10.4 0.16            144           68.2 266 
 RUS  HZ EP       18 0  1.47                             136   -0.04 9  139 179 
 RUS  HN ES       18 0 22.41                             136   -0.65 9  139 179 
 RUS  HZ I        18 0 24.50         5.8 0.40            125            139 179 
 PTB  HZ EP       18 0  2.86                             131   -0.27 9  165 246 
 PTB  HN ES       18 0 25.80                             131   -0.14 9  165 246 
 PTB  HZ I        18 0 28.51        14.3 0.18            119            165 246 
 SML  HZ EP       18 0  7.81                             123    0.16 8  212 330 
 SML  HN ES       18 0 33.10                             123   -0.89 8  212 330 
 SML  HZ I        18 0 38.48        11.9 0.10            114            212 330 
 NOR  HZ EP   1   18 0 14.04                             117    0.83 6  263 228 
 NOR  HZ I        18 0 52.27         4.8 0.18            108            263 228 
                                                                                
