 2017 1122 1952 48.8 L   6.816 -73.149148.6  RSN  5 0.4 1.3LRSN                1
 GAP=244        1.03       7.4     6.0  9.0  0.1617E+02  0.1281E+02 -0.1513E+02E
 Epicentro: LOS SANTOS - SANTANDER                                             3
 ACTION:UPD 17-12-12 19:58 OP:rebc STATUS:               ID:20171122195248 L   I
 OLDACT:DUP 17-11-23 00:23 OP:edw  STATUS:               ID:20171122194745d    3
 OLDACT:UP  17-11-23 00:21 OP:edw  STATUS:               ID:20171122194744     3
 OLDACT:REG 17-11-22 22:25 OP:edw  STATUS:               ID:20171122194744     3
 2017-11-22-1948-00M.COL___471                                                 6
 STAT SP IPHASW D HRMM SECON CODA AMPLIT PERI AZIMU VELO AIN AR TRES W  DIS CAZ7
 BAR2 EZ EP       1953  8.54                             170   -0.2710 25.0 189 
 BAR2 EZ ES       1953 24.48                             170    0.0710 25.0 189 
 BAR2 EZ I        1953 25.00         4.3 0.08            170           25.0 189 
 RUS  HZ EP       1953 12.66                             144   -0.3110  102 176 
 RUS  HN ES       1953 32.22                             144    0.4110  102 176 
 RUS  HZ I        1953 32.78         1.6 0.06            147            102 176 
 PTB  HZ EP       1953 15.56                             133   -0.45 9  148 258 
 PTB  HN ES       1953 36.77                             133   -0.45 9  148 258 
 PTB  HZ I        1953 42.47         3.4 0.16            132            148 258 
 ZAR  HZ EP       1953 22.23                             123    0.89 9  203 292 
 ZAR  HN ES       1953 46.78                             123    0.07 9  203 292 
 ZAR  HZ I        1953 53.07         3.7 0.44            123            203 292 
 NOR  HN ES       1953 53.12                             119    0.28 8  235 234 
                                                                                
