 2012  322 1007 42.3 L   6.798 -73.165142.7  RSN  5 0.4 1.8LRSN                1
 GAP=134        0.96       6.6     7.1 10.2  0.1036E+02  0.8624E+01 -0.2621E+00E
 ACTION:UP  12-03-31 23:21 OP:EP   STATUS:               ID:20120322100742 L   I
 2012-03-22-1000-00M.COL___202                                                 6
 STAT SP IPHASW D HRMM SECON CODA AMPLIT PERI AZIMU VELO SNR AR TRES W  DIS CAZ7
 BAR2 SZ EP   1   10 8  1.36                             170    -0.2 7   23 185 
 BAR2 SZ ES   1   10 8 16.08                             170    -0.5 7   23 185 
 BAR2 SZ I        10 8 17.65        13.5 0.31                            23 185 
 BRR  HZ EP   1   10 8  3.48                             153     0.5 7   69 300 
 BRR  HE ES   1   10 8 19.90                             153     0.7 7   69 300 
 BRR  HZ I        10 8 24.16        11.8 0.23                            69 300 
 PAM  SZ EP   1   10 8  4.46                             150     0.2 7   79  41 
 PAM  SN ES   1   10 8 21.20                             150    -0.2 7   79  41 
 RUS  HZ EP   1   10 8  5.62                             143    -0.1 7  101 175 
 RUS  HN ES   1   10 8 24.25                             143     0.2 7  101 175 
 ZAR  HE ES   1   10 8 38.62                             122    -0.7 6  202 292 
 ZAR  HZ I        10 8 44.99         5.1 0.41                           202 292 
                                                                                
