 2013  422 1833  8.4 L   6.237 -73.769 97.2  RSN  6 0.3 1.7LRSN                1
 GAP=110        0.65       3.4     2.8  6.7 -0.4004E+01 -0.5580E+00  0.3919E+01E
 Epicentro: LANDAZURI - SANTANDER                                              3
 ACTION:UPD 13-05-22 14:40 OP:EP   STATUS:               ID:20130422183308 L   I
 2013-04-22-1830-00M.COL___250                                                 6
 STAT SP IPHASW D HRMM SECON CODA AMPLIT PERI AZIMU VELO AIN AR TRES W  DIS CAZ7
 BAR2 SZ IP     C 1833 25.60                             139    0.3110 75.8  59 
 BAR2 SZ I        1833 40.32        11.2 0.13            137           75.8  59 
 PTB  HZ EP       1833 25.17                             136   -0.4110 83.1 294 
 PTB  HN ES   1   1833 38.88                             136   -0.09 7 83.1 294 
 PTB  HZ I        1833 42.92        12.1 0.10            136           83.1 294 
 RUS  HE ES   1   1833 40.15                             136   -0.26 7 84.9 117 
 RUS  HZ I        1833 41.40         7.7 0.32            136           84.9 117 
 NOR  HZ EP       1833 31.52                             120    0.06 9  143 239 
 NOR  HN ES   1   1833 50.02                             120    0.59 7  143 239 
 NOR  HZ I        1833 53.88        16.6 0.20            121            143 239 
 PAM  SZ EP       1833 34.89                             116   -0.07 9  170  44 
 PAM  SE ES   1   1833 55.86                             116    0.19 7  170  44 
 PAM  SZ I        1834  0.95         4.5 0.32            115            170  44 
 PRA  HZ EP       1833 50.24                             104    0.02 7  305 204 
 PRA  HE ES   1   1834 22.50                             104   -0.34 5  305 204 
 PRA  HZ I        1834 27.11         3.6 0.24            104            305 204 
                                                                                
