 2015  422 1820 19.8 L   6.800 -73.137150.0  RSN 13 0.4 2.2LRSN                1
 GAP=138        0.79       2.4     3.3  4.6 -0.9121E+00  0.3424E+01  0.8850E+00E
 Epicentro: LOS SANTOS - SANTANDER                                             3
 ACTION:UPD 15-06-03 16:56 OP:cam  STATUS:               ID:20150422182019 L   I
 OLDACT:REG 15-04-22 21:53 OP:spq  STATUS:               ID:20150422181748     3
 2015-04-22-1817-48M.COL___278                                                 6
 STAT SP IPHASW D HRMM SECON CODA AMPLIT PERI AZIMU VELO AIN AR TRES W  DIS CAZ7
 BAR2 EZ EP       1820 39.84                             171   -0.0710 23.5 192 
 BAR2 EZ ES   1   1820 55.35                             171   -0.27 7 23.5 192 
 BAR2 EZ I        1820 57.44        39.4 0.26            169           23.5 192 
 BRR  HZ EP   1   1820 41.79                             153    0.37 7 72.0 298 
 BRR  HN ES       1820 58.98                             153    0.6710 72.0 298 
 BRR  HZ I        1821  1.65        25.5 0.38            151           72.0 298 
 PAM  SZ EP     D 1820 42.61                             152    0.2110 76.8  39 
 PAM  SN ES       1820 59.91                             152   -0.1410 76.8  39 
 PAM  SZ I        1821  1.88        23.6 0.56            155           76.8  39 
 RUS  HZ EP       1820 43.77                             145   -0.1610  101 177 
 RUS  HN ES       1821  2.70                             145   -0.0810  101 177 
 RUS  HZ I        1821  3.59        18.4 0.34            146            101 177 
 PTB  HZ EP       1820 46.94                             133   -0.22 9  149 259 
 PTB  HN ES   1   1821  7.69                             133   -0.84 7  149 259 
 PTB  HZ I        1821 10.75        19.4 0.50            132            149 259 
 OCA  HZ EP   1   1820 48.18                             131   -0.24 7  160 353 
 OCA  HN ES   1   1821 10.73                             131   -0.04 7  160 353 
 OCA  HZ I        1821 15.55        28.1 0.24            131            160 353 
 SPBC HZ EP   1   1820 48.95                             130    0.30 7  164 219 
 SPBC HE ES       1821 11.14                             130   -0.03 9  164 219 
 SPBC HZ I        1821 13.46        27.9 0.26            130            164 219 
 ZAR  HZ EP   1   1820 52.51                             123   -0.07 6  205 292 
 ZAR  HE ES       1821 18.64                             123    0.47 9  205 292 
 ZAR  HZ I        1821 26.30        14.7 0.46            123            205 292 
 NOR  HZ EP       1820 55.74                             119   -0.08 8  235 235 
 NOR  HE ES       1821 23.51                             119   -0.44 8  235 235 
 NOR  HZ I        1821 29.23        14.7 0.48            120            235 235 
 SML  HZ EP   1   1820 56.23                             118   -0.45 6  244 335 
 SML  HE ES   1   1821 24.91                             118   -0.56 6  244 335 
 CHI  HZ EP       1820 58.05                             118    0.32 8  249 195 
 CHI  HN ES   1   1821 27.75                             118    0.42 6  249 195 
 CHI  HZ I        1821 32.99         6.1 0.32            119            249 195 
 GUY2CHZ EP   4   1821  5.32                             113    1.66 0  302 235 
 GUY2CHE ES   4   1821 41.08                             113    3.19 0  302 235 
 GUY2CHZ I        1821 46.39        12.3 0.36                           302 235 
 MON  HZ EP   4   1821  7.00                             109   -2.02 0  354 308 
 MON  HN ES   4   1821 45.92                             109   -1.52 0  354 308 
 ORTC HZ EP   1   1821 14.82                             107    0.93 4  396 216 
 ORTC HE ES   4   1821 57.87                             107    1.76 0  396 216 
 ORTC HZ I        1822  2.99         4.0 0.23            108            396 216 
                                                                                
