 2016 1222 1408 49.3 L   6.785 -73.167145.9  RSN  6 0.2 1.3LRSN                1
 GAP=135        0.64       3.3     3.1  4.6 -0.2477E+00  0.2323E+01 -0.1005E+00E
 Epicentro: LOS SANTOS - SANTANDER                                             3
 ACTION:UPD 17-01-11 20:17 OP:rebc STATUS:               ID:20161222140849 L   I
 OLDACT:UP  16-12-23 02:23 OP:edw  STATUS:               ID:20161222140744     3
 OLDACT:REG 16-12-22 20:42 OP:edw  STATUS:               ID:20161222140744     3
 2016-12-22-1408-00M.COL___374                                                 6
 STAT SP IPHASW D HRMM SECON CODA AMPLIT PERI AZIMU VELO AIN AR TRES W  DIS CAZ7
 BAR2 EZ EP       14 9  8.86                             171   -0.0810 21.4 185 
 BAR2 EZ ES       14 9 24.37                             171    0.1410 21.4 185 
 BAR2 EZ I        14 9 24.90         9.6 0.28            171           21.4 185 
 BRR  HZ EP       14 9 10.58                             153    0.1510 70.0 301 
 BRR  HZ IP     D 14 9 10.61                             153    0.1810 70.0 301 
 BRR  HE ES       14 9 27.23                             153    0.3510 70.0 301 
 PAM  EZ EP       14 9 11.72                             150   -0.0110 80.2  40 
 PAM  EN ES       14 9 28.83                             150   -0.3710 80.2  40 
 PAM  EZ I        14 9 30.98         3.3 0.56            153           80.2  40 
 RUS  HZ EP       14 9 13.26                             144    0.2710 99.1 175 
 RUS  HN ES       14 9 31.36                             144   -0.0810 99.1 175 
 RUS  HZ I        14 9 32.44         3.4 0.28            146           99.1 175 
 PTB  HZ EP       14 9 15.78                             133   -0.29 9  145 259 
 PTB  HN ES       14 9 36.55                             133   -0.38 9  145 259 
 PTB  HZ I        14 9 43.80         1.9 0.14            132            145 259 
 ZAR  HN ES   2   14 9 46.96                             123    0.14 4  203 293 
                                                                                
