 2011  522 1943 23.1 L   6.766 -73.078146.7  RSN  7 0.3 1.9LRSN                1
 GAP=147        0.72       3.7     6.5  5.5 -0.7833E+01 -0.1484E+01 -0.4314E+00E
 Epicentro: LOS SANTOS - SANTANDER                                             3
 ACTION:UP  11-06-29 08:55 OP:tino STATUS:               ID:20110522194323 L   I
 2011-05-22-1940-26S.COL___139                                                 6
 STAT SP IPHASW D HRMM SECON CODA AMPLIT PERI AZIMU VELO SNR AR TRES W  DIS CAZ7
 BAR2 SZ EP       1943 42.82                             171     0.010   22 211 
 BAR2 SZ ES   1   1943 58.21                             171     0.0 7   22 211 
 BAR2 SZ I        1943 59.52        24.6 0.18                            22 211 
 PAM  SZ EP       1943 45.65                             151     0.410   76  33 
 PAM  SN ES   1   1944  2.56                             151    -0.1 7   76  33 
 BRR  HZ EP       1943 44.62                             150    -0.210   80 298 
 BRR  HZ I        1943 44.90        28.2 0.15                            80 298 
 BRR  HN ES   1   1944  2.10                             150     0.3 7   80 298 
 RUS  HZ EP       1943 46.65                             145     0.010   97 180 
 RUS  HZ I        1943 47.46         4.7 0.28                            97 180 
 RUS  HN ES   2   1944  4.61                             145    -0.4 5   97 180 
 BRI  SZ EP       1943 47.33                             141     0.210  110  16 
 BRI  SZ ES   1   1944  5.31                             141    -0.6 7  110  16 
 GRA  SZ EP       1943 48.57                             137     0.010  127  14 
 GRA  SZ ES   1   1944  8.56                             137     0.2 7  127  14 
 GRA  SZ I        1944  9.84         7.6 0.29                           127  14 
 OCA  SZ EP       1943 51.53                             129    -0.4 9  165 351 
 OCA  SZ I        1944 19.62         9.5 0.22                           165 351 
                                                                                
