 2014  922 1440  1.4 L   6.124 -73.751 99.1  RSN  4 0.2 1.1LRSN                1
 GAP=110        0.53       3.3     2.5  6.5  0.1129E+00 -0.3628E+01  0.5243E+00E
 Epicentro: EL PENON - SANTANDER                                               3
 ACTION:UPD 14-10-03 23:07 OP:nd   STATUS:               ID:20140922144001 L   I
 OLDACT:UP  14-09-22 22:48 OP:spq  STATUS:               ID:20140922143817     3
 OLDACT:REG 14-09-22 20:33 OP:spq  STATUS:               ID:20140922143817     3
 2014-09-22-1438-17M.COL___284                                                 6
 STAT SP IPHASW D HRMM SECON CODA AMPLIT PERI AZIMU VELO AIN AR TRES W  DIS CAZ7
 SPBC HZ EP       1440 17.48                             145    0.1710 63.2 214 
 SPBC HN ES   1   1440 29.49                             145   -0.22 7 63.2 214 
 SPBC HZ I        1440 32.13         3.9 0.21            148           63.2 214 
 RUS  HZ EP       1440 19.18                             139    0.1710 78.2 109 
 RUS  HN ES   1   1440 32.66                             139   -0.08 7 78.2 109 
 RUS  HZ I        1440 34.29         1.1 0.32            144           78.2 109 
 BAR2 SZ EP       1440 18.59                             138   -0.3310 81.5  51 
 BAR2 SZ ES   1   1440 32.78                             138    0.20 7 81.5  51 
 BAR2 SZ I        1440 33.54        10.8 0.46            143           81.5  51 
 PTB  HZ EP   4   1440 17.86                             134   -1.54 0 90.6 301 
 PTB  HE ES       1440 33.48                             134    0.0610 90.6 301 
 PTB  HZ I        1440 35.56         2.6 0.11            138           90.6 301 
                                                                                
