 2010 1222 1040 17.3 L   6.795 -73.133149.5  RSN  7 0.2 1.6LRSN                1
 GAP=160        0.44       2.9     7.4  5.5 -0.1200E+02  0.1580E+02 -0.4928E+01E
 Epicentro: LOS SANTOS - SANTANDER                                             3
 ACTION:UP  11-01-14 15:26 OP:pat  STATUS:               ID:20101222104017 L   I
 2010-12-22-1038-35S.COL___135                                                 6
 STAT SP IPHASW D HRMM SECON CODA AMPLIT PERI AZIMU VELO SNR AR TRES W  DIS CAZ7
 BTL  SZ EP   2   1040 37.37                             172     0.0 5   20 312 
 BAR2 SZ EP   1   1040 37.38                             171     0.0 7   23 194 
 BAR2 SZ ES   2   1040 53.40                             171     0.4 5   23 194 
 BAR2 SZ I        1040 54.58         7.5 0.26                            23 194 
 RUS  HZ EP   2   1040 41.22                             145    -0.2 5  100 177 
 RUS  HE ES   1   1040 59.97                             145    -0.2 7  100 177 
 RUS  HZ I        1041  2.61         4.9 0.48                           100 177 
 GRA  SZ EP   1   1040 43.15                             138     0.2 7  126  17 
 GRA  SZ ES   1   1041  2.77                             138    -0.1 7  126  17 
 GRA  SZ I        1041  3.86         6.9 0.42                           126  17 
 OCA  SZ EP   1   1040 45.78                             130    -0.2 7  161 353 
 OCA  SZ I        1041 12.41         6.7 0.16                           161 353 
 NOR  SN ES   2   1041 21.45                             119     0.0 4  236 235 
 CHI  HZ EP   1   1040 55.43                             118     0.2 6  248 196 
 CHI  HZ I        1040 56.22         1.6 0.07                           248 196 
                                                                                
