 2013 1122 1147 22.1 L   6.785 -73.129143.4  RSN 15 0.5 2.3LRSN                1
 GAP=139        1.24       3.2     4.6  6.3 -0.2123E+01  0.8064E+01 -0.9661E-01E
 Epicentro: LOS SANTOS - SANTANDER                                             3
 ACTION:UPD 14-01-09 16:30 OP:ep   STATUS:               ID:20131122114722 L   I
 OLDACT:REG 13-11-22 15:50 OP:nd   STATUS:               ID:20131122114000     3
 2013-11-22-1140-00M.COL___282                                                 6
 STAT SP IPHASW D HRMM SECON CODA AMPLIT PERI AZIMU VELO AIN AR TRES W  DIS CAZ7
 BAR2 SZ IP     D 1147 41.65                             171    0.2310 22.1 196 
 BAR2 SZ ES       1147 56.49                             171   -0.0010 22.1 196 
 BAR2 SZ I        1147 57.76       126.2 0.28            169           22.1 196 
 BRR  HZ IP     D 1147 43.52                             151    0.3810 73.7 299 
 BRR  HN ES       1147 59.74                             151    0.2010 73.7 299 
 BRR  HZ I        1148  3.89        42.8 0.34            149           73.7 299 
 PAM  SZ EP       1147 44.43                             150    0.3610 77.5  38 
 PAM  SN ES       1148  1.29                             150    0.0810 77.5  38 
 PAM  SZ I        1148  3.73        47.8 0.54            154           77.5  38 
 RUS  HZ IP     C 1147 45.57                             144    0.0810 98.8 177 
 RUS  HN ES       1148  3.77                             144    0.0410 98.8 177 
 RUS  HZ I        1148  5.13        15.8 0.22            145           98.8 177 
 PTB  HZ EP       1147 48.45                             131   -0.57 9  149 260 
 PTB  HN ES       1148  9.00                             131   -1.01 9  149 260 
 PTB  HZ I        1148 11.79        23.5 0.36            130            149 260 
 OCA  HZ EP       1147 49.82                             129   -0.59 9  162 353 
 OCA  HN ES       1148 12.28                             129   -0.21 9  162 353 
 OCA  HZ I        1148 15.13        20.0 0.22            130            162 353 
 SPBC HZ EP       1147 50.54                             128    0.13 9  163 220 
 SPBC HN ES       1148 12.09                             128   -0.40 9  163 220 
 SPBC HZ I        1148 14.98        24.2 0.16            128            163 220 
 ZAR  HZ EP       1147 54.72                             121    0.08 8  206 292 
 ZAR  HN ES       1148 20.07                             121    0.05 8  206 292 
 ZAR  HZ I        1148 26.08        24.3 0.18            121            206 292 
 NOR  HZ EP       1147 56.96                             118   -0.79 8  235 235 
 NOR  HN ES       1148 25.26                             118   -0.30 8  235 235 
 NOR  HZ I        1148 30.88        13.3 0.28            118            235 235 
 SML  HZ EP       1147 57.99                             117   -0.86 8  246 335 
 SML  HN ES       1148 28.17                             117    0.66 8  246 335 
 SML  HZ I        1148 34.21        20.5 0.10            117            246 335 
 CHI  HZ EP       1147 59.83                             117    0.28 8  248 196 
 CHI  HN ES       1148 28.98                             117    0.23 8  248 196 
 CHI  HZ I        1148 37.09         5.7 0.62            118            248 196 
 HEL  HZ EP       1148  3.24                             114    0.89 8  273 256 
 HEL  HN ES       1148 35.19                             114    1.44 8  273 256 
 HEL  HZ I        1148 39.44         9.8 0.26            114            273 256 
 GUY2CHZ EP   4   1148  7.52                             112    1.85 0  302 235 
 GUY2CHN ES   4   1148 40.73                             112    1.09 0  302 235 
 GUY2CHZ I        1148 49.37         7.8 0.54                           302 235 
 RREF HZ EP   4   1148 10.19                             110    2.01 0  322 230 
 RREF HN ES   4   1148 46.45                             110    2.33 0  322 230 
 RREF HZ I        1148 53.36         9.1 0.26            111            322 230 
 COD  HZ EP   4   1148  7.14                             108   -3.46 0  350 354 
 COD  HN ES   4   1148 45.58                             108   -2.85 0  350 354 
 SJC  HZ EP   4   1148 15.75                             105   -2.12 0  412 327 
 SJC  HN ES   4   1148 56.43                             105   -4.95 0  412 327 
 SJC  HZ I        1149  1.89         5.9 0.58            106            412 327 
                                                                                
