 2013 1022 1022  2.6 L   6.794 -73.138147.4  RSN  9 0.4 2.0LRSN                1
 GAP=138        1.03       3.5     4.7  6.7 -0.1077E+01  0.7659E+01 -0.1470E+01E
 Epicentro: LOS SANTOS - SANTANDER                                             3
 ACTION:UPD 13-11-25 09:23 OP:ep   STATUS:               ID:20131022102202 L   I
 OLDACT:UP  13-10-22 16:12 OP:cam  STATUS:               ID:20131022101848     3
 OLDACT:REG 13-10-22 14:34 OP:cam  STATUS:               ID:20131022101848     3
 2013-10-22-1018-48M.COL___218                                                 6
 STAT SP IPHASW D HRMM SECON CODA AMPLIT PERI AZIMU VELO AIN AR TRES W  DIS CAZ7
 BAR2 SZ EP       1022 22.45                             171    0.0810 22.9 192 
 BAR2 SZ ES       1022 37.42                             171   -0.4010 22.9 192 
 BAR2 SZ I        1022 38.41        38.2 0.26            171           22.9 192 
 BRR  HZ EP       1022 24.34                             152    0.4010 72.2 299 
 BRR  HN ES       1022 41.33                             152    0.7210 72.2 299 
 BRR  HZ I        1022 44.46        15.8 0.32            149           72.2 299 
 PAM  SZ EP       1022 25.46                             151    0.5210 77.3  39 
 PAM  SN ES       1022 42.37                             151   -0.0310 77.3  39 
 PAM  SZ I        1022 44.65        17.6 0.46            152           77.3  39 
 RUS  HZ EP       1022 26.38                             144   -0.0410 99.9 177 
 RUS  HN ES       1022 45.08                             144    0.0510 99.9 177 
 RUS  HZ I        1022 45.89         5.3 0.22            147           99.9 177 
 PTB  HZ EP       1022 29.15                             132   -0.57 9  148 259 
 PTB  HN ES   1   1022 50.09                             132   -0.81 7  148 259 
 PTB  HZ I        1022 52.13        11.3 0.16            131            148 259 
 OCA  HZ EP   2   1022 30.81                             130   -0.25 5  161 353 
 OCA  HN ES       1022 52.54                             130   -0.75 9  161 353 
 OCA  HZ I        1022 55.91         8.9 0.22            130            161 353 
 SPBC HZ EP   1   1022 31.33                             129    0.15 7  163 219 
 SPBC HE ES       1022 53.37                             129   -0.14 9  163 219 
 SPBC HZ I        1022 58.98         6.6 0.34            130            163 219 
 ZAR  HZ EP   1   1022 35.35                             123    0.14 6  205 292 
 ZAR  HE ES       1023  1.24                             123    0.56 9  205 292 
 ZAR  HZ I        1023  7.00        10.1 0.30            122            205 292 
 SML  HZ EP   2   1022 39.10                             118   -0.27 4  245 335 
 SML  HN ES   2   1023  7.35                             118   -0.73 4  245 335 
 SML  HZ I        1023 16.53        11.8 0.24            118            245 335 
                                                                                
