 2017  522 1703 28.2 L   6.823 -73.126148.4  RSN 17 0.5 2.5LRSN                1
 GAP=113        0.99       3.3     3.3  5.6  0.1086E+01  0.4231E+01  0.4756E+01E
 Epicentro: LOS SANTOS - SANTANDER                                             3
 ACTION:UPD 17-06-16 13:38 OP:jn   STATUS:               ID:20170522170328 L   I
 OLDACT:UP  17-05-22 22:19 OP:dnl  STATUS:               ID:20170522165744     3
 OLDACT:UP  17-05-22 22:18 OP:dnl  STATUS:               ID:20170522165744     3
 OLDACT:REG 17-05-22 20:55 OP:dnl  STATUS:               ID:20170522165744     3
 2017-05-22-1658-00M.COL___347                                                 6
 STAT SP IPHASW D HRMM SECON CODA AMPLIT PERI AZIMU VELO AIN AR TRES W  DIS CAZ7
 BRR  HZ EP       17 3 49.70                             153    0.0110 72.0 296 
 BRR  HN ES       17 4  7.11                             153    0.6610 72.0 296 
 BRR  HZ I        17 4  8.28        44.4 0.38            151           72.0 296 
 PAM  EZ EP     C 17 3 50.63                             152    0.1110 74.0  39 
 PAM  EN ES       17 4  7.98                             152    0.0710 74.0  39 
 PAM  EZ I        17 4 12.57        43.3 0.32            159           74.0  39 
 RUS  HZ EP       17 3 51.87                             144   -0.5310  103 177 
 RUS  HE ES       17 4 10.86                             144   -0.4110  103 177 
 RUS  HZ I        17 4 13.37        43.4 0.42            144            103 177 
 PTB  HZ EP   9   17 3 54.36                             132   -1.28 0  150 258 
 PTB  HN ES       17 4 15.58                             131   -0.17 9  150 258 
 PTB  HZ I        17 4 23.10        68.8 0.34            131            150 258 
 SPBC HZ EP   2   17 3 57.06                             129   -0.18 5  167 219 
 SPBC HN ES       17 4 19.57                             129   -0.31 9  167 219 
 SPBC HZ I        17 4 21.65        71.2 0.24            129            167 219 
 YPLC HZ IP     D 17 3 58.12                             127   -0.20 9  178 152 
 YPLC HN ES       17 4 21.78                             127   -0.03 9  178 152 
 YPLC HZ I        17 4 22.84        39.1 0.32            130            178 152 
 ZAR  HZ EP       17 4  0.78                             123   -0.17 9  205 291 
 ZAR  HE ES       17 4 26.39                             123   -0.09 9  205 291 
 ZAR  HZ I        17 4 32.98        42.9 0.30            124            205 291 
 NOR  HZ EP       17 4  3.80                             119   -0.65 8  238 234 
 NOR  HE ES       17 4 32.27                             119   -0.45 8  238 234 
 NOR  HZ I        17 4 35.79        27.5 0.38            119            238 234 
 CHI  HZ EP   2   17 4  6.08                             117   -0.32 4  252 196 
 CHI  HE ES       17 4 37.03                             117    0.85 8  252 196 
 CHI  HZ I        17 4 45.02        22.1 0.26            118            252 196 
 ROSC BZ EP       17 4  7.64                             117    0.79 8  256 211 
 ROSC BN ES   4   17 4 38.94                             117    1.96 0  256 211 
 ROSC BZ I        17 4 43.99        37.3 0.45            118            256 211 
 HEL  HZ EP   4   17 4 10.16                             115    1.29 0  275 255 
 HEL  HE ES       17 4 40.81                             115    0.22 8  275 255 
 HEL  HZ I        17 4 49.09        14.3 0.22            116            275 255 
 ELA  HZ EP   4   17 4 16.82                             110    1.25 0  332 229 
 ELA  HN ES   4   17 4 56.30                             110    3.80 0  332 229 
 ELA  HZ I        17 5  2.02        14.3 0.34            112            332 229 
 DBB  EE ES       17 4 52.59                             110   -0.74 7  342 274 
 DBB  EZ I        17 4 55.86        11.3 0.21            111            342 274 
 ANIL HZ EP       17 4 19.27                             109    0.75 6  361 224 
 ANIL HN ES   4   17 5  0.37                             109    2.62 0  361 224 
 ORTC HZ EP       17 4 23.43                             107    0.80 6  399 216 
 ORTC HN ES       17 5  5.55                             107    0.49 6  399 216 
 ORTC HZ I        17 5 11.55        11.2 0.48            108            399 216 
 SJC  HZ EP   4   17 4 22.16                             106   -1.60 0  408 326 
 SJC  HN ES   4   17 5  3.28                             106   -3.79 0  408 326 
 SJC  HZ I        17 5  7.76         4.5 0.36            108            408 326 
 PAL  HZ EP   2   17 4 23.40                             106   -0.44 3  409 239 
 PAL  HN ES   4   17 5  6.01                             106   -1.22 0  409 239 
 PAL  HZ I        17 5 16.43         6.6 0.28            107            409 239 
                                                                                
