 2010  722 1502 51.5 L   6.802 -73.039149.5  RSN  9 0.2 2.4LRSN                1
 GAP=194        0.48       3.0     5.4  3.8  0.2598E+01  0.2331E+01  0.1427E+01E
 Epicentro: CEPITA - SANTANDER                                                 3
 ACTION:UPD 10-12-01 15:19 OP:pat  STATUS:               ID:20100722150251 L   I
 2010-07-22-1458-51S.COL___123                                                 6
 STAT SP IPHASW D HRMM SECON CODA AMPLIT PERI AZIMU VELO AIN AR TRES W  DIS CAZ7
 BAR2 SZ IP       15 3 11.74                             169     0.110   28 215 
 BAR2 SZ ES   1   15 3 27.14                             169    -0.2 7   28 215 
 BAR2 SZ I        15 3 28.33        89.4 0.11                            28 215 
 GIR2 SZ EP   2   15 3 11.78                             166     0.1 5   35 331 
 BRR  HZ IP     D 15 3 13.59                             150     0.010   82 294 
 BRR  HZ I        15 3 13.77       112.7 0.11                            82 294 
 BRR  HE ES   1   15 3 30.97                             150     0.1 7   82 294 
 RUS  HZ IP     C 15 3 15.54                             145     0.010  101 183 
 RUS  HZ I        15 3 16.31        14.2 0.15                           101 183 
 RUS  HE ES   1   15 3 34.61                             145     0.2 7  101 183 
 OCA  SZ EP   1   15 3 20.27                             130     0.1 7  162 349 
 OCA  SZ I        15 3 46.65        28.4 0.62                           162 349 
 CHI  HZ EP   1   15 3 29.75                             118     0.0 6  252 198 
 CHI  HZ I        15 4  8.88        10.9 0.41                           252 198 
 HEL  HZ EP   2   15 3 32.63                             114    -0.5 4  284 256 
 HEL  HZ I        15 4 10.42        14.2 0.36                           284 256 
 RREF HZ EP   2   15 3 39.52                             111     0.7 3  331 231 
 RREF HE ES   2   15 4 16.21                             111     0.5 3  331 231 
 RREF HZ I        15 4 23.61        11.7 0.33                           331 231 
 PRA  HZ IP     C 15 3 45.49                             107    -0.3 6  398 211 
 PRA  HN ES   2   15 4 27.85                             107    -0.4 3  398 211 
 PRA  HZ I        15 4 31.42        10.8 0.46                           398 211 
                                                                                
