 2013  822 1003 59.0 L   6.847 -73.089135.5  RSN  6 0.2 1.6LRSN                1
 GAP=206        0.55       2.4     3.7  5.7  0.1692E+01  0.8622E+01 -0.2097E+01E
 Epicentro: LOS SANTOS - SANTANDER                                             3
 ACTION:UPD 14-01-14 09:05 OP:ep   STATUS:               ID:20130822100359 L   I
 OLDACT:UP  13-08-22 16:31 OP:stll STATUS:               ID:20130822095846     3
 OLDACT:REG 13-08-22 15:47 OP:stll STATUS:               ID:20130822095846     3
 2013-08-22-0958-46M.COL___209                                                 6
 STAT SP IPHASW D HRMM SECON CODA AMPLIT PERI AZIMU VELO AIN AR TRES W  DIS CAZ7
 BAR2 SZ EP       10 4 17.58                             167   -0.0210 30.0 200 
 BAR2 SZ I        10 4 17.75         4.1 0.18            163           30.0 200 
 BAR2 SZ ES       10 4 32.18                             167    0.1110 30.0 200 
 RUS  HZ EP       10 4 22.02                             140   -0.1510  106 180 
 RUS  HN ES       10 4 40.32                             140    0.1010  106 180 
 SPBC HE ES       10 4 49.53                             125   -0.27 9  171 220 
 SPBC HN I        10 4 55.14         8.0 0.10            124            171 220 
 ZAR  HN ES       10 4 56.13                             120   -0.25 8  208 290 
 ZAR  HE I        10 5  2.26         7.0 0.22            118            208 290 
 SML  HN ES       10 5  3.05                             115    0.19 8  242 333 
 GUY2CHE ES       10 5 17.98                             110    0.48 7  309 235 
 GUY2CHN I        10 5 27.38         1.5 0.48                           309 235 
                                                                                
