 2011 1222 1000 51.4 L   6.739 -73.220143.1  RSN  5 0.4 1.2LRSN                1
 GAP=161        0.86       7.0     7.4  8.5  0.1426E+02  0.1531E+02  0.1065E+02E
 Epicentro: VILLANUEVA - SANTANDER                                             3
 ACTION:UPD 12-07-13 16:17 OP:ep   STATUS:               ID:20111222100051 L   I
 2011-12-22-1000-00M.COL___191                                                 6
 STAT SP IPHASW D HRMM SECON CODA AMPLIT PERI AZIMU VELO AIN AR TRES W  DIS CAZ7
 BAR2 SZ ES   1   10 1 25.03                             173   -0.54 7 16.7 166 
 BAR2 SZ I        10 1 25.99         5.3 0.27                          16.7 166 
 GIR2 SZ EP   1   10 1 10.58                             164   -0.38 7 37.7   4 
 GIR2 SZ ES   1   10 1 25.98                             164   -0.22 7 37.7   4 
 BRR  HZ EP   1   10 1 12.42                             153    0.34 7 67.9 307 
 BRR  HE ES   1   10 1 29.00                             153    0.79 7 67.9 307 
 RUS  HZ EP   1   10 1 14.81                             145    0.33 7 94.8 171 
 RUS  HN ES   1   10 1 32.77                             145    0.29 7 94.8 171 
 RUS  HZ I        10 1 34.46         1.8 0.24                          94.8 171 
 PTB  HZ EP   1   10 1 16.94                             133   -0.38 7  138 261 
 PTB  HN ES   1   10 1 37.23                             133   -0.30 7  138 261 
                                                                                
