 2014 1122 1627 41.2 L   6.744 -73.163140.8  RSN  5 0.4 1.4LRSN                1
 GAP=137        1.08       5.6     5.4  7.9 -0.2692E+01  0.5535E+01  0.1514E+01E
 Epicentro: LOS SANTOS - SANTANDER                                             3
 ACTION:UPD 14-12-19 15:46 OP:nd   STATUS:               ID:20141122162741 L   I
 OLDACT:ARG 14-11-22 21:32 OP:stll STATUS:               ID:20141122161746     3
 2014-11-22-1617-46M.COL___294                                                 6
 STAT SP IPHASW D HRMM SECON CODA AMPLIT PERI AZIMU VELO AIN AR TRES W  DIS CAZ7
 BAR2 SZ EP       1627 59.84                             173   -0.3110 16.9 187 
 BAR2 SZ I        1628  0.20         5.4 0.46            156           16.9 187 
 BAR2 SZ ES       1628 14.36                             173   -0.5510 16.9 187 
 BRR  HZ EP       1628  2.39                             151    0.4610 72.7 304 
 BRR  HN ES       1628 18.76                             151    0.6810 72.7 304 
 PAM  SZ I        1628  3.35         8.3 0.26            156           83.4  38 
 PAM  SZ EP       1628  3.35                             148    0.0510 83.4  38 
 PAM  SN ES       1628 20.27                             148   -0.2510 83.4  38 
 RUS  HZ EP       1628  4.26                             144    0.1910 94.6 175 
 RUS  HN ES       1628 22.30                             144    0.4210 94.6 175 
 RUS  HZ I        1628 23.21         3.9 0.30            132           94.6 175 
 PTB  HZ EP       1628  7.09                             131   -0.43 9  145 261 
 PTB  HN ES       1628 27.67                             131   -0.36 9  145 261 
 PTB  HZ I        1628 32.68         2.6 0.16            120            145 261 
                                                                                
