 2014  922 1810 52.6 L   6.746 -73.087158.6  RSN 10 0.4 1.7LRSN                1
 GAP=147        0.80       3.5     4.9  5.7  0.3768E+01 -0.7746E+00 -0.1054E+01E
 Epicentro: JORDAN - SANTANDER                                                 3
 ACTION:UPD 14-10-03 23:07 OP:nd   STATUS:               ID:20140922181052 L   I
 OLDACT:REG 14-09-22 20:59 OP:spq  STATUS:               ID:20140922180820     3
 2014-09-22-1808-20M.COL___284                                                 6
 STAT SP IPHASW D HRMM SECON CODA AMPLIT PERI AZIMU VELO AIN AR TRES W  DIS CAZ7
 BAR2 SZ EP     D 1811 13.69                             172   -0.0410 20.0 212 
 BAR2 SZ ES   1   1811 30.11                             172   -0.08 7 20.0 212 
 BAR2 SZ I        1811 32.29         8.8 0.48            167           20.0 212 
 PAM  SZ EP       1811 16.15                             153   -0.1110 78.4  33 
 PAM  SN ES   4   1811 33.76                             153   -0.95 0 78.4  33 
 PAM  SZ I        1811 35.86         6.6 0.48            160           78.4  33 
 BRR  HZ EP       1811 15.62                             152   -0.0110 79.8 300 
 BRR  HE ES       1811 33.94                             152    0.3610 79.8 300 
 BRR  HZ I        1811 34.98        20.4 0.15            153           79.8 300 
 RUS  HZ EP       1811 17.44                             148    0.2110 94.3 180 
 RUS  HE ES   1   1811 36.28                             148   -0.15 7 94.3 180 
 RUS  HZ I        1811 45.01         2.3 0.22            146           94.3 180 
 PTB  HZ EP   1   1811 20.60                             134   -0.52 7  153 262 
 PTB  HE ES   1   1811 42.67                             134   -0.68 7  153 262 
 PTB  HZ I        1811 47.64         6.4 0.38            134            153 262 
 SPBC HZ EP       1811 22.32                             132    0.23 9  163 222 
 SPBC HN ES   2   1811 45.24                             132    0.16 5  163 222 
 SPBC HZ I        1811 51.83         7.4 0.22            131            163 222 
 ZAR  HZ EP       1811 27.58                             124    0.83 8  212 293 
 ZAR  HE ES   1   1811 53.30                             124   -0.08 6  212 293 
 ZAR  HZ I        1811 58.23         5.5 0.48            126            212 293 
 CHI  HZ EP   1   1811 29.90                             120   -0.73 6  245 197 
 CHI  HN ES   1   1812  0.44                             120    0.16 6  245 197 
 CHI  HZ I        1812  8.01         1.9 0.28            121            245 197 
 SML  HZ EP   1   1811 30.67                             119   -0.19 6  252 335 
 SML  HE ES   1   1812  0.08                             119   -0.60 6  252 335 
 SML  HZ I        1812  2.24         6.4 0.24            123            252 335 
 GUY2CHZ EP   4   1811 39.69                             114    2.63 0  303 236 
 GUY2CHE ES   4   1812 16.47                             114    4.75 0  303 236 
 GUY2CHZ I        1812 20.53         3.6 0.76                           303 236 
                                                                                
