 2014  922 1254 19.2 L   6.788 -73.142145.3  RSN 12 0.4 1.9LRSN                1
 GAP=183        0.90       3.0     5.0  5.6  0.2929E+01  0.1926E+01  0.2393E+01E
 Epicentro: LOS SANTOS - SANTANDER                                             3
 ACTION:UPD 14-10-03 23:07 OP:nd   STATUS:               ID:20140922125419 L   I
 OLDACT:REG 14-09-22 20:21 OP:spq  STATUS:               ID:20140922124819     3
 2014-09-22-1248-19M.COL___278                                                 6
 STAT SP IPHASW D HRMM SECON CODA AMPLIT PERI AZIMU VELO AIN AR TRES W  DIS CAZ7
 BAR2 SZ IP     D 1254 38.73                             171   -0.0510 22.1 192 
 BAR2 SZ ES   1   1254 53.66                             171   -0.36 7 22.1 192 
 BAR2 SZ I        1254 54.64        20.1 0.26            171           22.1 192 
 BRR  HZ EP       1254 40.45                             152    0.0710 72.2 299 
 BRR  HN ES       1254 57.30                             152    0.4210 72.2 299 
 BRR  HZ I        1255  0.66        16.0 0.34            145           72.2 299 
 RUS  HZ EP       1254 42.74                             144   -0.1010 99.2 176 
 RUS  HE ES   1   1255  1.08                             144   -0.17 7 99.2 176 
 RUS  HZ I        1255  3.41         4.9 0.42            136           99.2 176 
 PTB  HZ EP       1254 45.44                             132   -0.73 9  148 259 
 PTB  HE ES       1255  6.58                             132   -0.61 9  148 259 
 PTB  HZ I        1255  7.88         9.0 0.14            123            148 259 
 SPBC HZ EP       1254 47.75                             129    0.13 9  162 219 
 SPBC HN ES   1   1255  9.94                             129    0.18 7  162 219 
 SPBC HZ I        1255 11.83        10.2 0.24            121            162 219 
 OCA  HN ES       1255 10.17                             129    0.39 9  162 353 
 OCA  HZ I        1255 13.37         8.4 0.36            117            162 353 
 ZAR  HZ EP       1254 51.66                             122   -0.08 9  205 292 
 ZAR  HE ES       1255 17.68                             122    0.59 9  205 292 
 ZAR  HZ I        1255 25.25         7.0 0.30            113            205 292 
 SML  HZ EP   1   1254 55.39                             117   -0.59 6  245 335 
 SML  HE ES   1   1255 24.02                             117   -0.62 6  245 335 
 SML  HZ I        1255 32.00        13.4 0.28            107            245 335 
 CHI  HZ EP       1254 57.17                             117    0.39 8  247 195 
 CHI  HN ES   1   1255 26.37                             117    0.31 6  247 195 
 CHI  HZ I        1255 29.73         2.8 0.37            108            247 195 
 GUY2CHZ EP   1   1255  3.44                             112    0.67 5  301 235 
 GUY2CHN ES   4   1255 41.99                             112    5.26 0  301 235 
 GUY2CHZ I        1255 46.60         4.3 0.64                           301 235 
 TOL  SE ES   4   1255 49.34                             109    4.38 0  343 225 
 TOL  SZ I        1255 52.32         9.7 0.48            101            343 225 
 PRA  HZ EP       1255 12.97                             106    0.35 6  391 210 
 PRA  HN ES   4   1255 56.40                             106    2.13 0  391 210 
 PRA  HZ I        1256  1.29         2.4 0.42             99            391 210 
                                                                                
