 2013  922 1735 15.8 L   7.424 -73.192135.1  RSN  6 0.2 1.7LRSN                1
 GAP=109        0.60       2.9     2.7  4.5 -0.3001E+00  0.4466E+01  0.9371E+00E
 Epicentro: EL PLAYON - SANTANDER                                              3
 ACTION:UPD 13-10-22 09:24 OP:ep   STATUS:               ID:20130922173515 L   I
 OLDACT:REG 13-09-22 17:08 OP:carl STATUS:               ID:20130922172959     3
 2013-09-22-1729-59M.COL___269                                                 6
 STAT SP IPHASW D HRMM SECON CODA AMPLIT PERI AZIMU VELO AIN AR TRES W  DIS CAZ7
 PAM  SZ EP       1735 35.99                             157    0.3210 55.2 100 
 PAM  SN ES       1735 51.01                             157   -0.1310 55.2 100 
 PAM  SZ I        1735 52.05         7.1 0.48            163           55.2 100 
 BRR  HZ IP     D 1735 35.63                             152    0.0410 67.2 239 
 BRR  HN ES       1735 51.15                             152    0.1410 67.2 239 
 BRR  HZ I        1735 55.45        11.2 0.42            151           67.2 239 
 OCA  HN ES       1735 54.02                             144   -0.1610 91.2 351 
 BAR2 SZ EP       1735 37.52                             144   -0.0210 92.0 179 
 BAR2 SZ ES       1735 54.48                             144   -0.0010 92.0 179 
 BAR2 SZ I        1735 55.21         7.8 0.14            146           92.0 179 
 PTB  HZ EP       1735 44.22                             125    0.07 9  171 235 
 PTB  HN ES       1736  5.91                             125   -0.33 9  171 235 
 PTB  HZ I        1736 10.19         7.7 0.72            126            171 235 
 ZAR  HZ EP       1735 45.14                             123   -0.37 9  184 272 
 ZAR  HN ES       1736  9.06                             123    0.40 9  184 272 
 ZAR  HZ I        1736 13.67         7.7 0.26            124            184 272 
                                                                                
