 2013 1222 1201 52.2 L   6.430 -73.933 79.7  RSN 12 0.4 1.8LRSN                1
 GAP= 94        1.05       3.1     2.3  7.0 -0.9228E+00  0.3225E+01 -0.1757E+01E
 Epicentro: CIMITARRA - SANTANDER                                              3
 ACTION:UPD 14-01-13 10:20 OP:ep   STATUS:               ID:20131222120152 L   I
 OLDACT:REG 13-12-22 18:28 OP:nd   STATUS:               ID:20131222120000     3
 2013-12-22-1200-00M.COL___285                                                 6
 STAT SP IPHASW D HRMM SECON CODA AMPLIT PERI AZIMU VELO AIN AR TRES W  DIS CAZ7
 PTB  HZ EP       12 2  5.38                             140   -0.4510 59.1 282 
 PTB  HN ES       12 2 16.26                             140   -0.1610 59.1 282 
 PTB  HZ I        12 2 16.95        30.4 0.12            108           59.1 282 
 BAR2 SZ EP       12 2  8.52                             129    0.1110 84.9  78 
 BAR2 SZ ES       12 2 21.35                             129    0.3310 84.9  78 
 BAR2 SZ I        12 2 23.01        37.0 0.44             61           84.9  78 
 SPBC HZ EP       12 2  8.33                             128   -0.1210 87.4 190 
 SPBC HN ES       12 2 21.25                             128    0.1610 87.4 190 
 SPBC HZ I        12 2 22.40        29.3 0.20             61           87.4 190 
 RUS  HZ EP       12 2 10.99                             121   -0.4210  111 122 
 RUS  HN ES       12 2 26.44                             121    0.0810  111 122 
 RUS  HZ I        12 2 29.03         3.1 0.20             61            111 122 
 NOR  HZ EP       12 2 13.46                             114   -0.66 9  141 227 
 NOR  HZ I        12 2 33.24        26.4 0.18             61            141 227 
 ZAR  HZ EP       12 2 15.89                             112    0.17 9  156 319 
 ZAR  HN ES       12 2 34.23                             112    0.20 9  156 319 
 ZAR  HZ I        12 2 35.84        12.1 0.44             61            156 319 
 PAM  SZ EP       12 2 18.13                             110    0.23 9  169  54 
 PAM  SE ES       12 2 37.77                             110   -0.15 9  169  54 
 PAM  SZ I        12 2 39.56         7.6 0.32             61            169  54 
 HEL  HZ EP       12 2 18.19                             109   -0.63 9  179 262 
 HEL  HN ES       12 2 39.56                             109    0.01 9  179 262 
 HEL  HZ I        12 2 41.96         7.3 0.20             61            179 262 
 CHI  HZ EP   4   12 2 20.97                             106   -0.48 0  200 174 
 CHI  HN ES   4   12 2 44.69                             106    0.47 0  200 174 
 CHI  HZ I        12 2 51.99         2.2 0.42             61            200 174 
 GUY2CHZ EP       12 2 22.13                             106   -0.20 8  207 230 
 GUY2CHN ES       12 2 46.63                             106    0.83 8  207 230 
 GUY2CHZ I        12 2 49.39         7.7 0.30                           207 230 
 CBOC HZ EP       12 2 26.79                             103    1.09 8  238 255 
 CBOC HN ES   4   12 2 51.92                             103    0.13 0  238 255 
 CBOC HZ I        12 2 59.19         2.5 0.22             61            238 255 
 SML  HZ EP   4   12 2 27.51                             102   -0.88 0  263 357 
 SML  HN ES   4   12 2 57.12                             102    0.54 0  263 357 
 SML  HZ I        12 3 10.79         7.1 0.10             60            263 357 
                                                                                
