 2017 1222 1820 14.6 L   6.729 -73.113136.7  RSN  4 0.2 1.6LRSN                1
 GAP=173        0.56       4.9     3.0  4.8 -0.5511E+01  0.6780E+01 -0.5574E+01E
 Epicentro: JORDAN - SANTANDER                                                 3
 ACTION:UPD 18-01-04 13:23 OP:rebc STATUS:               ID:20171222182014 L   I
 OLDACT:REG 17-12-22 21:35 OP:dhb  STATUS:               ID:20171222181236     3
 2017-12-22-1818-00M.COL___470                                                 6
 STAT SP IPHASW D HRMM SECON CODA AMPLIT PERI AZIMU VELO AIN AR TRES W  DIS CAZ7
 BAR2 EZ EP       1820 32.65                             173   -0.3610 17.0 207 
 BAR2 EZ ES       1820 47.41                             173    0.0310 17.0 207 
 BAR2 EZ I        1820 49.25         7.7 0.20            172           17.0 207 
 PAM  EZ EP       1820 36.09                             148   -0.0210 81.5  34 
 PAM  EE ES       1820 53.03                             148    0.1310 81.5  34 
 PAM  EZ I        1820 54.92         7.4 0.66            148           81.5  34 
 PTB  HZ EP       1820 41.23                             129    0.19 9  150 262 
 PTB  HE ES       1821  1.82                             129    0.14 9  150 262 
 PTB  HZ I        1821  4.59         2.3 0.20            130            150 262 
 ZAR  HN EP       1820 47.35                             119    0.22 8  210 294 
 ZAR  HE ES       1821 12.20                             119   -0.32 8  210 294 
 ZAR  HN I        1821 18.69         8.8 0.24            120            210 294 
                                                                                
