 2011 1222 1905 38.4 L   6.090 -73.620116.2  RSN  5 0.3 1.4LRSN                1
 GAP=137        0.52       3.8     3.4  7.2 -0.2281E+01  0.1182E+02  0.1653E+01E
 Epicentro: CHIPATA - SANTANDER                                                3
 ACTION:UPD 12-07-13 16:17 OP:ep   STATUS:               ID:20111222190538 L   I
 2011-12-22-1900-00M.COL___189                                                 6
 STAT SP IPHASW D HRMM SECON CODA AMPLIT PERI AZIMU VELO AIN AR TRES W  DIS CAZ7
 RUS  HZ EP   1   19 5 56.26                             150   -0.33 7 63.3 110 
 RUS  HZ I        19 5 56.85         2.4 0.11                          63.3 110 
 RUS  HN ES   1   19 6 10.84                             150    0.02 7 63.3 110 
 BAR2 SZ ES   1   19 6 11.52                             146    0.15 7 73.6  41 
 BAR2 SZ I        19 6 12.67        13.8 0.20                          73.6  41 
 PTB  HN ES   2   19 6 14.52                             135   -0.69 5  105 298 
 BRR  HZ EP   1   19 5 59.82                             133    0.09 7  113 355 
 BRR  HN ES   2   19 6 16.61                             133    0.21 5  113 355 
 NOR  SZ EP   1   19 6  3.44                             124    0.06 7  150 247 
 NOR  SN ES   1   19 6 23.18                             124    0.28 7  150 247 
                                                                                
