 2012  522 1242 37.5 L   6.751 -73.207146.0  RSN  5 0.1 1.5LRSN                1
 GAP=226        0.35       5.2     3.7  5.1  0.1266E+02 -0.1534E+00 -0.5003E+01E
 Epicentro: VILLANUEVA - SANTANDER                                             3
 ACTION:UP  12-07-05 12:07 OP:pat  STATUS:               ID:20120522124237 L   I
 2012-05-22-1240-00M.COL___200                                                 6
 STAT SP IPHASW D HRMM SECON CODA AMPLIT PERI AZIMU VELO SNR AR TRES W  DIS CAZ7
 BAR2 SZ EP   2   1242 56.95                             173    -0.1 5   18 171 
 BAR2 SZ ES   2   1243 12.33                             173     0.1 5   18 171 
 BAR2 SZ I        1243 13.53        10.7 0.20                            18 171 
 BRR  HZ EP   2   1242 58.49                             154     0.0 5   68 305 
 RUS  HZ EP   1   1243  1.08                             145     0.2 8   96 172 
 RUS  HN ES   2   1243 19.01                             145    -0.2 5   96 172 
 RUS  HZ I        1243 20.77         4.0 0.40                            96 172 
 PTB  HZ EP       1243  3.64                             134    -0.110  140 260 
 PTB  HN ES   1   1243 24.39                             134     0.1 7  140 260 
 ZAR  HN ES   1   1243 34.52                             123     0.0 7  200 294 
 ZAR  HZ I        1243 41.03         3.5 0.25                           200 294 
                                                                                
