 2012  922 1911 13.5 L   6.775 -73.109145.7  RSN  6 0.2 1.8LRSN                1
 GAP=142        0.40       2.3     2.9  4.0 -0.7969E+00  0.5539E-01  0.2690E+01E
 Epicentro: LOS SANTOS - SANTANDER                                             3
 ACTION:UPD 12-10-22 14:20 OP:ep   STATUS:               ID:20120922191113 L   I
 2012-09-22-1910-00M.COL___221                                                 6
 STAT SP IPHASW D HRMM SECON CODA AMPLIT PERI AZIMU VELO AIN AR TRES W  DIS CAZ7
 BAR2 SZ EP   1   1911 32.75                             171   -0.33 7 21.7 202 
 BAR2 SZ ES   2   1911 48.36                             171    0.00 5 21.7 202 
 BAR2 SZ I        1911 49.93        19.7 0.17                          21.7 202 
 BRR  HZ EP       1911 35.10                             151    0.1810 76.1 299 
 BRR  HE ES   1   1911 51.72                             151    0.09 7 76.1 299 
 BRR  HZ I        1911 55.61        12.2 0.16                          76.1 299 
 PAM  SZ EP   1   1911 35.49                             151   -0.19 7 77.1  36 
 PAM  SE ES   1   1911 53.04                             151    0.05 7 77.1  36 
 PAM  SZ I        1911 55.68         7.9 0.45                          77.1  36 
 RUS  HZ EP   1   1911 37.06                             145    0.04 7 97.6 178 
 RUS  HN ES   1   1911 55.46                             145    0.09 7 97.6 178 
 RUS  HZ I        1911 58.63         8.6 0.41                          97.6 178 
 PTB  HE ES   1   1912  1.85                             131   -0.20 7  151 260 
 CHI  HZ EP   1   1911 51.27                             117    0.26 6  247 196 
 CHI  HN ES   1   1912 20.18                             117   -0.10 6  247 196 
 CHI  HZ I        1912 28.64         3.1 0.30                           247 196 
                                                                                
