 2017 1022 1231 23.3 L   6.551 -73.183140.7  RSN  4 0.3 1.1LRSN                1
 GAP=171        0.88       6.8     6.7  7.9  0.1663E+02  0.1576E+02 -0.3330E+01E
 Epicentro: PINCHOTE - SANTANDER                                               3
 ACTION:UPD 17-11-07 19:35 OP:rebc STATUS:               ID:20171022123123 L   I
 OLDACT:DUP 17-10-23 00:18 OP:edw  STATUS:               ID:20171022122738d    3
 OLDACT:UP  17-10-23 00:17 OP:edw  STATUS:               ID:20171022122737     3
 OLDACT:REG 17-10-22 19:54 OP:edw  STATUS:               ID:20171022122737     3
 2017-10-22-1228-00M.COL___396                                                 6
 STAT SP IPHASW D HRMM SECON CODA AMPLIT PERI AZIMU VELO AIN AR TRES W  DIS CAZ7
 BAR2 EZ EP       1231 42.42                             178    0.3510 4.55   0 
 BAR2 EZ ES       1231 57.18                             178    0.4510 4.55   0 
 BAR2 EZ I        1231 58.72         4.0 0.18            177           4.55   0 
 RUS  HN ES       1232  1.09                             151   -0.4010 73.6 171 
 RUS  HZ I        1232  1.61         2.9 0.18            153           73.6 171 
 BRR  HZ EP       1231 44.39                             147   -0.3510 84.9 316 
 BRR  HN ES       1232  1.15                             147   -0.3310 84.9 316 
 PTB  HZ EP       1231 49.38                             132    0.16 9  141 270 
 PTB  HN ES       1232  9.61                             132    0.16 9  141 270 
 PTB  HZ I        1232 12.05         1.4 0.34            133            141 270 
                                                                                
