 2011  222 1848 50.7 L   6.726 -73.031135.1  RSN  4 0.3 1.3LRSN                1
 GAP=208        0.71      11.5    72.3 11.5  0.7193E+03 -0.6183E+03 -0.7059E+02E
 Epicentro: ARATOCA - SANTANDER                                                3
 ACTION:UP  11-03-28 15:10 OP:jfem STATUS:               ID:20110222184850 L   I
 2011-02-22-1848-08S.COL___137                                                 6
 STAT SP IPHASW D HRMM SECON CODA AMPLIT PERI AZIMU VELO SNR AR TRES W  DIS CAZ7
 BAR2 SZ EP       1849  8.91                             170    -0.110   22 229 
 BAR2 SZ ES   2   1849 23.65                             170     0.3 5   22 229 
 BAR2 SZ I        1849 25.16        10.0 0.10                            22 229 
 BTL  SZ EP       1849  9.12                             165    -0.210   34 309 
 BTL  SZ ES   1   1849 24.05                             165     0.2 7   34 309 
 GIR2 SZ ES   1   1849 24.16                             161     0.0 7   43 335 
 RUS  HZ EP       1849 13.22                             144     0.410   92 184 
 RUS  HN ES   1   1849 29.66                             144    -0.4 7   92 184 
 RUS  HZ I        1849 32.87         2.1 0.36                            92 184 
                                                                                
