 2010  422 1308  9.1 L   6.748 -72.946141.4  RSN  5 0.2 2.0LRSN                1
 GAP=206        0.34       7.3    21.1  4.5 -0.1460E+03 -0.1242E+02  0.7468E+01E
 Epicentro: CEPITA - SANTANDER                                                 3
 ACTION:UPD 10-08-24 10:00 OP:vdl  STATUS:               ID:20100422130818 L   I
 2010-04-22-1304-15S.COL___104                                                 6
 STAT SP IPHASW D HRMM SECON CODA AMPLIT PERI AZIMU VELO AIN AR TRES W  DIS CAZ7
 BAR2 SZ EP       13 8 28.37                             164    -0.110   32 237 
 BAR2 SZ ES   2   13 8 43.55                             164     0.0 5   32 237 
 GIR2 SZ EP   3   13 8 28.47                             157    -0.3 2   46 323 
 GUE  SZ EP       13 8 33.67                             136     0.010  120   1 
 GUE  SZ ES   2   13 8 52.98                             136     0.1 5  120   1 
 GRA  SZ EP   2   13 8 33.99                             134    -0.1 5  127   7 
 GRA  SZ ES   2   13 8 53.72                             134     0.2 5  127   7 
 PRA  HZ EP       13 9  3.57                             105     0.3 6  399 213 
 PRA  HN ES   2   13 9 45.15                             105    -0.4 3  399 213 
 PRA  HZ I        13 9 51.24         2.9 0.36                           399 213 
                                                                                
