 2016 1222 1043 40.2 L   6.791 -73.117137.3  RSN  8 0.3 1.4LRSN                1
 GAP=141        0.80       3.8     4.2  5.4  0.2775E+01  0.6364E+01  0.2786E+01E
 Epicentro: LOS SANTOS - SANTANDER                                             3
 ACTION:UPD 17-01-11 20:17 OP:rebc STATUS:               ID:20161222104340 L   I
 OLDACT:UP  16-12-22 22:29 OP:edw  STATUS:               ID:20161222103746     3
 OLDACT:REG 16-12-22 22:03 OP:edw  STATUS:               ID:20161222103746     3
 2016-12-22-1038-00M.COL___356                                                 6
 STAT SP IPHASW D HRMM SECON CODA AMPLIT PERI AZIMU VELO AIN AR TRES W  DIS CAZ7
 BAR2 EZ EP       1043 58.52                             170   -0.3210 23.2 198 
 BAR2 EZ ES       1044 12.95                             170   -0.4110 23.2 198 
 BAR2 EZ I        1044 14.32         3.4 0.44            170           23.2 198 
 BRR  HZ EP       1044  0.43                             150   -0.2310 74.4 298 
 BRR  HN ES       1044 17.19                             150    0.5810 74.4 298 
 PAM  EZ IP     C 1044  1.45                             150   -0.0310 76.2  37 
 PAM  EN ES       1044 18.22                             150    0.1710 76.2  37 
 PAM  EZ I        1044 20.21         6.2 0.46            151           76.2  37 
 RUS  HZ EP       1044  3.05                             142   -0.0210 99.5 178 
 RUS  HN ES       1044 21.13                             142    0.2410 99.5 178 
 RUS  HZ I        1044 22.71         4.1 0.28            144           99.5 178 
 PTB  HN ES   4   1044 27.06                             129   -0.45 0  151 259 
 ZAR  HZ EP   4   1044 13.66                             120    1.18 0  207 292 
 ZAR  HE ES       1044 37.25                             120   -0.39 8  207 292 
 ZAR  HZ I        1044 42.23         3.0 0.32            120            207 292 
 CHI  HZ EP   2   1044 17.45                             115   -0.01 4  249 196 
 CHI  HN ES   4   1044 45.34                             115   -1.17 0  249 196 
 URE  HZ EP   2   1044 21.68                             112    0.41 4  287 292 
 URE  HN ES   4   1044 50.02                             112   -3.26 0  287 292 
 GUY2CHZ EP       1044 24.18                             110    0.49 7  303 235 
 GUY2CHE ES   4   1045  0.67                             110    3.08 0  303 235 
 GUY2CHZ I        1045  6.12         1.0 0.27                           303 235 
 SJC  HZ EP   4   1044 33.11                             104   -2.71 0  412 327 
                                                                                
