 2011  322 1420 42.4 L   6.802 -73.153149.0  RSN 11 0.3 2.5LRSN                1
 GAP=135        0.54       1.8     2.7  4.4 -0.9870E+00  0.3900E+01  0.1826E+01E
 Epicentro: LOS SANTOS - SANTANDER                                             3
 ACTION:UP  11-06-16 14:35 OP:jfem STATUS:               ID:20110322142042 L   I
 2011-03-22-1416-19S.COL___135                                                 6
 STAT SP IPHASW D HRMM SECON CODA AMPLIT PERI AZIMU VELO SNR AR TRES W  DIS CAZ7
 BAR2 SZ IP       1421  2.17                             171    -0.210   23 188 
 BAR2 SZ ES   1   1421 18.13                             171     0.1 7   23 188 
 BAR2 SZ I        1421 20.23        46.2 0.27                            23 188 
 GRA  SZ EP       1421  7.96                             138     0.010  126  18 
 GRA  SZ ES   1   1421 27.86                             138     0.0 7  126  18 
 GRA  SZ I        1421 30.57        50.5 0.28                           126  18 
 OCA  SZ EP       1421 11.09                             130     0.2 9  160 353 
 OCA  SZ ES       1421 33.18                             130     0.0 9  160 353 
 OCA  SZ I        1421 37.73        78.2 0.35                           160 353 
 YOP  SZ EP       1421 12.45                             127    -0.3 9  180 153 
 YOP  SE ES   1   1421 36.69                             127     0.3 7  180 153 
 YOP  SZ I        1421 39.46        15.5 0.28                           180 153 
 NOR  SZ EP       1421 18.23                             119     0.0 8  234 234 
 NOR  SN ES   1   1421 46.49                             119     0.3 6  234 234 
 CHI  HZ EP   1   1421 20.06                             118    -0.2 6  249 195 
 CHI  HN ES   2   1421 49.18                             118    -0.6 4  249 195 
 CHI  HZ I        1421 57.91        12.7 0.40                           249 195 
 HEL  HZ EP   1   1421 22.96                             115     0.3 6  271 256 
 HEL  HN ES   2   1421 54.18                             115     0.1 4  271 256 
 HEL  HZ I        1422  1.91        23.8 0.35                           271 256 
 GUY  SN ES   1   1422  0.18                             113     0.0 5  301 235 
 GUY  SZ I        1422 12.13        35.9 0.38                           301 235 
 RREF HZ EP   1   1421 29.05                             111     0.4 5  321 229 
 RREF HN ES   1   1422  4.53                             111    -0.1 5  321 229 
 RREF HZ I        1422 14.43        22.0 0.28                           321 229 
 DBB  SZ EP   1   1421 29.90                             110     0.0 5  339 274 
 DBB  SZ ES   1   1422  6.34                             110    -0.6 5  339 274 
 DBB  SZ I        1422 31.61         2.7 0.49                           339 274 
 PRA  HZ EP   1   1421 36.41                             107     0.4 4  392 209 
 PRA  HN ES       1422 18.06                             107     0.3 6  392 209 
                                                                                
