 2013  122 1048 49.4 L   6.749 -73.145140.0  RSN  8 0.4 1.7LRSN                1
 GAP=139        0.82       4.8     4.3  6.8  0.1621E+01  0.8765E+01  0.3802E+01E
 Epicentro: LOS SANTOS - SANTANDER                                             3
 ACTION:UPD 13-02-15 09:16 OP:ep   STATUS:               ID:20130122104849 L   I
 2013-01-22-1044-42M.COL___177                                                 6
 STAT SP IPHASW D HRMM SECON CODA AMPLIT PERI AZIMU VELO AIN AR TRES W  DIS CAZ7
 BAR2 SZ EP   1   1049  8.34                             172    0.13 7 17.8 193 
 BAR2 SZ ES   1   1049 22.73                             172   -0.18 7 17.8 193 
 BAR2 SZ I        1049 25.69        27.7 0.44            160           17.8 193 
 BRR  HZ EP   1   1049 10.28                             150    0.20 7 74.1 302 
 BRR  HN ES   1   1049 26.94                             150    0.72 7 74.1 302 
 BRR  HZ I        1049 31.22        12.6 0.12            146           74.1 302 
 PAM  SZ EP   1   1049 11.26                             148    0.00 7 81.8  37 
 PAM  SN ES   1   1049 28.04                             148   -0.29 7 81.8  37 
 PAM  SZ I        1049 30.18        11.7 0.48            143           81.8  37 
 RUS  HZ EP   1   1049 12.21                             144    0.05 7 94.9 176 
 RUS  HN ES   1   1049 30.05                             144    0.13 7 94.9 176 
 RUS  HZ I        1049 32.28         6.7 0.36            129           94.9 176 
 PTB  HZ EP   1   1049 14.98                             131   -0.81 7  147 261 
 PTB  HN ES   1   1049 35.56                             131   -0.84 7  147 261 
 PTB  HZ I        1049 40.18         4.7 0.16            120            147 261 
 ZAR  HZ EP   1   1049 21.77                             121    0.08 6  206 294 
 ZAR  HN ES   1   1049 46.96                             121    0.07 6  206 294 
 ZAR  HZ I        1049 53.09         5.3 0.16            112            206 294 
 CHI  HZ EP   1   1049 26.52                             116    0.35 6  243 196 
 CHI  HZ I        1050  1.50         2.2 0.38            106            243 196 
 HEL  HN ES   1   1050  0.79                             114    0.60 6  271 257 
                                                                                
