 2015  422 1419 45.6 L   6.793 -73.121151.1  RSN  7 0.4 1.9LRSN                1
 GAP=140        0.84       4.3     4.6  8.1 -0.2018E-01  0.7284E+01 -0.5573E+01E
 Epicentro: LOS SANTOS - SANTANDER                                             3
 ACTION:UPD 15-06-03 16:56 OP:cam  STATUS:               ID:20150422141945 L   I
 OLDACT:REG 15-04-22 21:04 OP:spq  STATUS:               ID:20150422141748     3
 2015-04-22-1417-48M.COL___277                                                 6
 STAT SP IPHASW D HRMM SECON CODA AMPLIT PERI AZIMU VELO AIN AR TRES W  DIS CAZ7
 BAR2 EZ EP       1420  5.73                             171   -0.1710 23.2 197 
 BAR2 EZ ES   1   1420 20.96                             171   -0.75 7 23.2 197 
 BAR2 EZ I        1420 23.34        13.9 0.26            170           23.2 197 
 BRR  HZ EP   1   1420  7.65                             152    0.13 7 74.0 298 
 BRR  HE ES       1420 25.06                             152    0.4810 74.0 298 
 BRR  HZ I        1420 28.50        15.6 0.30            153           74.0 298 
 PAM  SZ EP       1420  8.66                             152    0.3110 76.3  38 
 PAM  SN ES       1420 26.16                             152    0.0810 76.3  38 
 PAM  SZ I        1420 27.76         9.0 0.50            156           76.3  38 
 RUS  HN ES   1   1420 28.65                             145   -0.08 7 99.6 178 
 RUS  HZ I        1420 29.56         7.7 0.32            148           99.6 178 
 SPBC HN ES   1   1420 37.41                             130    0.13 7  164 220 
 SPBC HZ I        1420 39.42        14.2 0.18            132            164 220 
 ZAR  HE ES       1420 44.44                             123   -0.09 8  207 292 
 ZAR  HZ I        1420 47.59         4.3 0.18            125            207 292 
 SML  HZ I        1420 50.09         6.5 0.26            121            246 335 
 SML  HE ES   1   1420 50.88                             118   -0.85 6  246 335 
                                                                                
