 2017  422 1307 28.9 L   7.141 -73.343113.6  RSN  7 0.6 1.9LRSN                1
 GAP=150        1.48       6.8     4.7  9.0  0.3820E+01  0.9653E+01  0.1528E+02E
 Epicentro: LEBRIJA - SANTANDER                                                3
 ACTION:UPD 17-05-30 21:15 OP:jn   STATUS:               ID:20170422130728 L   I
 OLDACT:UP  17-04-22 20:47 OP:dani STATUS:               ID:20170422125236     3
 OLDACT:REG 17-04-22 19:36 OP:dani STATUS:               ID:20170422125236     3
 2017-04-22-1258-00M.COL___374                                                 6
 STAT SP IPHASW D HRMM SECON CODA AMPLIT PERI AZIMU VELO AIN AR TRES W  DIS CAZ7
 BRR  HZ EP     D 13 7 44.80                             159   -0.1310 41.0 265 
 BRR  HN ES       13 7 57.96                             159    0.5110 41.0 265 
 BRR  HZ I        13 7 59.68        35.1 0.16            157           41.0 265 
 BAR2 EZ EP     D 13 7 46.40                             149   -0.0810 63.2 164 
 BAR2 EZ ES       13 7 59.97                             149   -0.2310 63.2 164 
 PAM  EZ EP       13 7 47.24                             145   -0.3410 74.3  73 
 PAM  EN ES       13 8  2.33                             145    0.1710 74.3  73 
 PAM  EZ I        13 8  4.77        15.3 0.26            149           74.3  73 
 PTB  HZ EP       13 7 52.00                             125   -0.65 9  140 242 
 PTB  HN ES       13 8  9.77                             125   -1.42 9  140 242 
 PTB  HZ I        13 8 14.98         9.4 0.24            126            140 242 
 ZAR  HZ EP       13 7 56.14                             119    0.20 9  172 283 
 ZAR  HN ES       13 8 17.78                             119    0.73 9  172 283 
 ZAR  HZ I        13 8 21.15        20.0 0.34            120            172 283 
 YPLC HZ EP       13 8  1.06                             112   -0.31 8  220 151 
 YPLC HE ES       13 8 27.43                             112    0.72 8  220 151 
 NOR  HZ EP       13 8  4.50                             110    0.60 8  243 224 
 NOR  HN ES       13 8 32.04                             110    0.83 8  243 224 
 NOR  HZ I        13 8 36.62         5.7 0.22            111            243 224 
                                                                                
