 2015 1122 1834 31.6 L   6.871 -73.255131.1  RSN  8 0.5 1.7LRSN                1
 GAP=121        1.25       5.2     6.3  8.8  0.1011E+02  0.7357E+01 -0.1002E+02E
 Epicentro: BETULIA - SANTANDER                                                3
 ACTION:UPD 15-12-28 16:12 OP:cam  STATUS:               ID:20151122183431 L   I
 OLDACT:UP  15-11-23 00:13 OP:mh   STATUS:               ID:20151122181951d    3
 OLDACT:UP  15-11-23 00:13 OP:mh   STATUS:               ID:20151122181951d    3
 OLDACT:UP  15-11-23 00:10 OP:mh   STATUS:               ID:20151122181951d    3
 OLDACT:DUP 15-11-23 00:01 OP:mh   STATUS:               ID:20151122181951d    3
 2015-11-22-1819-49M.COL___211                                                 6
 STAT SP IPHASW D HRMM SECON CODA AMPLIT PERI AZIMU VELO AIN AR TRES W  DIS CAZ7
 BAR2 EZ EP       1834 50.29                             166    0.5610 31.8 165 
 BAR2 EZ ES       1835  3.70                             166   -0.1410 31.8 165 
 BAR2 EZ I        1835  4.59        18.2 0.46             61           31.8 165 
 BRR  HZ EP       1834 50.51                             155    0.1110 56.9 297 
 BRR  HN ES       1835  4.80                             155   -0.2410 56.9 297 
 BRR  HZ I        1835  8.81        11.2 0.20             61           56.9 297 
 PAM  EZ EP       1834 51.73                             147   -0.7710 80.3  50 
 PAM  EZ I        1834 53.68         3.2 0.42            124           80.3  50 
 PAM  EN ES       1835  9.35                             147    0.5810 80.3  50 
 RUS  HZ EP       1834 55.38                             138    0.6710  110 170 
 RUS  HN ES       1835 12.09                             138   -0.6110  110 170 
 RUS  HZ I        1835 24.15         3.7 0.44             61            110 170 
 SPBC HZ EP   4   1834 55.41                             126   -3.55 0  162 214 
 SPBC HZ I        1835 42.30        35.4 0.22             61            162 214 
 ZAR  HZ EP   4   1835  4.86                             121    3.18 0  190 291 
 ZAR  HN ES       1835 25.42                             121    0.31 9  190 291 
 ZAR  HZ I        1835 36.72         4.1 0.52             61            190 291 
 NOR  HZ EP   4   1834 57.20                             116   -8.82 0  230 231 
 NOR  HZ I        1835 48.90         4.3 0.58             60            230 231 
 SML  HZ EP       1835  5.60                             115   -0.55 8  232 337 
 SML  HE ES       1835 33.02                             115   -0.05 8  232 337 
 SML  HZ I        1835 38.93         5.6 0.26             61            232 337 
 MON  HZ EP   4   1835 19.41                             107    0.98 0  339 309 
 MON  HN ES   4   1835 53.79                             107   -1.14 0  339 309 
                                                                                
