 2014  122 1219 22.0 L   6.833 -73.128147.0  RSN  6 0.7 1.8LRSN                1
 GAP=143        1.53       7.5     8.4 12.5 -0.1910E+02  0.3407E+02  0.2391E+02E
 Epicentro: LOS SANTOS - SANTANDER                                             3
 ACTION:UPD 14-03-13 09:57 OP:ep   STATUS:               ID:20140122121922 L   I
 OLDACT:REG 14-01-22 15:34 OP:stll STATUS:               ID:20140122121809     3
 2014-01-22-1218-09M.COL___241                                                 6
 STAT SP IPHASW D HRMM SECON CODA AMPLIT PERI AZIMU VELO AIN AR TRES W  DIS CAZ7
 PAM  SZ EP       1219 44.48                             152    0.3710 73.3  40 
 PAM  SZ I        1219 44.67         9.6 0.20            155           73.3  40 
 PAM  SE ES       1220  1.71                             152    0.3510 73.3  40 
 RUS  HZ EP       1219 45.75                             143   -0.3810  104 177 
 RUS  HN ES       1220  5.06                             143    0.1010  104 177 
 RUS  HZ I        1220  5.56         5.4 0.28            143            104 177 
 PTB  HZ EP       1219 48.70                             132   -0.61 9  150 258 
 PTB  HN ES       1220  9.73                             132   -0.88 9  150 258 
 PTB  HZ I        1220 14.42         5.9 0.18            131            150 258 
 CHI  HZ EP       1219 59.91                             117   -0.30 8  253 195 
 CHI  HN ES       1220 29.77                             117   -0.24 8  253 195 
 CHI  HZ I        1220 35.27         3.6 0.34            117            253 195 
 GUY2CHZ EP       1220  6.94                             112    0.85 7  305 234 
 GUY2CHN ES       1220 42.45                             112    1.98 7  305 234 
 GUY2CHZ I        1220 47.92         3.9 0.70                           305 234 
 PRA  HZ EP       1220 15.54                             106   -0.51 6  396 210 
 PRA  HN ES       1220 57.98                             106   -0.23 6  396 210 
 PRA  HZ I        1221  4.04         2.9 0.30            107            396 210 
                                                                                
