 2017  522 1059  3.2 L   6.778 -73.115147.2  RSN  5 0.1 1.4LRSN                1
 GAP=141        0.39       2.1     2.2  3.3  0.9854E+00  0.2064E+01  0.4015E+00E
 Epicentro: LOS SANTOS - SANTANDER                                             3
 ACTION:UPD 17-06-16 13:38 OP:jn   STATUS:               ID:20170522105903 L   I
 OLDACT:UP  17-05-22 21:18 OP:dnl  STATUS:               ID:20170522105733     3
 OLDACT:REG 17-05-22 20:45 OP:dnl  STATUS:               ID:20170522105733     3
 2017-05-22-1058-00M.COL___344                                                 6
 STAT SP IPHASW D HRMM SECON CODA AMPLIT PERI AZIMU VELO AIN AR TRES W  DIS CAZ7
 BRR  HZ EP       1059 24.66                             151   -0.0910 75.3 299 
 BRR  HE ES       1059 41.56                             151    0.0110 75.3 299 
 BRR  HZ I        1059 45.93         7.7 0.12            150           75.3 299 
 PAM  EZ EP       1059 25.68                             151    0.1110 77.3  36 
 PAM  EE ES       1059 42.90                             151   -0.1110 77.3  36 
 PAM  EZ I        1059 44.82         6.6 0.28            155           77.3  36 
 RUS  HZ EP       1059 27.08                             145    0.1710 97.9 178 
 RUS  HE ES       1059 45.33                             145   -0.0710 97.9 178 
 RUS  HZ I        1059 45.91         2.6 0.24            148           97.9 178 
 PTB  HZ EP   2   1059 30.23                             132   -0.32 5  151 260 
 PTB  HN ES   4   1059 49.93                             132   -1.95 0  151 260 
 PTB  HZ I        1059 55.97         2.0 0.26            132            151 260 
 ZAR  HZ EP       1059 36.03                             122   -0.13 8  208 292 
 ZAR  HN ES       11 0  2.04                             122    0.17 8  208 292 
 ZAR  HZ I        11 0  7.27         3.1 0.38            123            208 292 
                                                                                
