 2014  922 1246 19.6 L   6.781 -73.123147.8  RSN  5 0.4 1.6LRSN                1
 GAP=238        0.95       6.0     6.7  9.4  0.5512E+01 -0.1184E+02  0.6842E+01E
 Epicentro: LOS SANTOS - SANTANDER                                             3
 ACTION:UPD 14-10-03 23:07 OP:nd   STATUS:               ID:20140922124619 L   I
 OLDACT:UP  14-09-22 22:10 OP:spq  STATUS:               ID:20140922123820d    3
 OLDACT:DUP 14-09-22 22:07 OP:spq  STATUS:               ID:20140922123820d    3
 OLDACT:REG 14-09-22 20:20 OP:spq  STATUS:               ID:20140922123819     3
 2014-09-22-1238-19M.COL___281                                                 6
 STAT SP IPHASW D HRMM SECON CODA AMPLIT PERI AZIMU VELO AIN AR TRES W  DIS CAZ7
 BAR2 SZ EP       1246 39.41                             171   -0.0910 21.9 197 
 BAR2 SZ I        1246 55.85        16.0 0.21            176           21.9 197 
 BRR  HZ EP       1246 41.39                             152    0.1910 74.3 299 
 BRR  HN ES       1246 58.30                             152    0.2910 74.3 299 
 BRR  HZ I        1247  5.67        13.0 0.38            155           74.3 299 
 RUS  HZ EP       1246 43.41                             145   -0.0410 98.4 177 
 RUS  HN ES   1   1247  1.52                             145   -0.49 7 98.4 177 
 RUS  HZ I        1247  2.94         2.2 0.30            150           98.4 177 
 PTB  HZ EP       1246 46.40                             132   -0.57 9  150 260 
 PTB  HE ES       1247  7.82                             132   -0.46 9  150 260 
 PTB  HZ I        1247 10.19         3.2 0.12            138            150 260 
 SPBC HZ EP       1246 48.84                             130    0.54 9  163 220 
 SPBC HN ES       1247 11.09                             130    0.44 9  163 220 
 SPBC HZ I        1247 15.83         6.9 0.16            136            163 220 
                                                                                
