 2014  922 1529  1.7 L   6.780 -73.164148.0  RSN  6 0.4 1.5LRSN                1
 GAP=135        0.93       5.4     5.2  7.3 -0.3692E+01 -0.2304E+01  0.5343E+01E
 Epicentro: LOS SANTOS - SANTANDER                                             3
 ACTION:UPD 14-10-03 23:07 OP:nd   STATUS:               ID:20140922152901 L   I
 OLDACT:REG 14-09-22 20:45 OP:spq  STATUS:               ID:20140922152819     3
 2014-09-22-1528-19M.COL___284                                                 6
 STAT SP IPHASW D HRMM SECON CODA AMPLIT PERI AZIMU VELO AIN AR TRES W  DIS CAZ7
 BAR2 SZ EP       1529 21.23                             172   -0.2810 20.9 185 
 BAR2 SZ ES   1   1529 36.73                             172   -0.26 7 20.9 185 
 BAR2 SZ I        1529 39.65         7.5 0.16            170           20.9 185 
 BRR  HZ EP       1529 22.99                             153   -0.0210 70.5 301 
 BRR  HN ES       1529 40.36                             153    0.7010 70.5 301 
 BRR  HZ I        1529 41.39        11.0 0.38            153           70.5 301 
 PAM  SZ EP       1529 24.27                             150   -0.0210 80.4  40 
 PAM  SE ES   2   1529 41.26                             150   -0.68 5 80.4  40 
 PAM  SZ I        1529 43.37         5.5 0.48            156           80.4  40 
 RUS  HZ EP       1529 25.74                             145    0.2610 98.6 175 
 RUS  HN ES   1   1529 44.19                             145    0.12 7 98.6 175 
 RUS  HZ I        1529 45.01         3.3 0.26            146           98.6 175 
 PTB  HZ EP       1529 28.02                             133   -0.57 9  145 260 
 PTB  HE ES       1529 49.31                             133   -0.28 9  145 260 
 PTB  HZ I        1529 55.81         2.9 0.44            134            145 260 
 SPBC HZ EP       1529 30.58                             130    0.54 9  160 219 
 SPBC HN ES   1   1529 51.95                             130   -0.24 7  160 219 
 SPBC HZ I        1529 56.92         4.3 0.18            131            160 219 
                                                                                
