 2016  822 1847  2.7 L   6.792 -73.156149.0  RSN 14 0.4 2.4LRSN                1
 GAP= 65        1.01       2.9     3.4  5.0 -0.7997E+00  0.1476E+01  0.1755E+01E
 Epicentro: LOS SANTOS - SANTANDER                                             3
 ACTION:UPD 16-10-29 15:38 OP:rebc STATUS:               ID:20160822184702 L   I
 OLDACT:UP  16-08-23 00:59 OP:ar   STATUS:               ID:20160822183747     3
 OLDACT:REG 16-08-22 21:15 OP:ar   STATUS:               ID:20160822183747     3
 2016-08-22-1837-47M.COL___343                                                 6
 STAT SP IPHASW D HRMM SECON CODA AMPLIT PERI AZIMU VELO AIN AR TRES W  DIS CAZ7
 BAR2 EZ EP       1847 22.53                             171   -0.1810 22.3 188 
 BAR2 EZ ES       1847 38.12                             171   -0.1910 22.3 188 
 BAR2 EZ I        1847 38.76        61.7 0.18                          22.3 188 
 BRR  HZ EP       1847 24.55                             153    0.3710 70.6 300 
 BRR  HN ES       1847 41.50                             153    0.5810 70.6 300 
 BRR  HZ I        1847 45.87        27.0 0.16                          70.6 300 
 PAM  EZ EP       1847 25.49                             151    0.1410 78.8  40 
 PAM  EN ES       1847 42.78                             151   -0.2310 78.8  40 
 PAM  EZ I        1847 44.71        33.2 0.56                          78.8  40 
 RUS  HZ EP       1847 26.79                             145    0.0710 99.8 175 
 RUS  HN ES       1847 45.80                             145    0.3510 99.8 175 
 RUS  HZ I        1847 46.11        27.8 0.28                          99.8 175 
 PTB  HZ EP       1847 29.41                             133   -0.42 9  146 259 
 PTB  HN ES       1847 50.32                             133   -0.66 9  146 259 
 PTB  HZ I        1847 52.62        29.5 0.15                           146 259 
 TAM  HZ EP       1847 30.71                             131   -0.02 9  156 105 
 OCA  HZ EP       1847 32.02                             130    0.67 9  161 354 
 OCA  HN ES       1847 53.14                             130   -0.54 9  161 354 
 OCA  HZ I        1847 57.49        55.8 0.36                           161 354 
 SPBC HZ EP       1847 31.50                             130    0.17 9  162 219 
 SPBC HN ES       1847 53.13                             130   -0.52 9  162 219 
 SPBC HZ I        1847 59.13        36.6 0.16                           162 219 
 ZAR  HZ EP       1847 35.27                             123   -0.03 9  203 292 
 ZAR  HN ES       1848  1.13                             123    0.42 9  203 292 
 ZAR  HZ I        1848  7.49        25.6 0.40                           203 292 
 NOR  HZ EP       1847 38.91                             119    0.43 8  233 234 
 NOR  HN ES       1848  6.56                             119    0.19 8  233 234 
 NOR  HZ I        1848 10.91        16.5 0.17                           233 234 
 CHI  HZ EP       1847 40.71                             118    0.24 8  247 195 
 CHI  HN ES       1848 10.22                             118    0.31 8  247 195 
 CHI  HZ I        1848 15.49         7.7 0.40                           247 195 
 HEL  HN ES   4   1848 16.18                             115    1.85 0  271 256 
 URE  HZ EP       1847 43.18                             114   -0.68 7  283 292 
 URE  HN ES   4   1848 14.38                             114   -1.58 0  283 292 
 URE  HZ I        1848 24.29        14.5 0.24                           283 292 
 GUY2CHZ EP   4   1847 48.27                             113    1.96 0  300 235 
 GUY2CHN ES   4   1848 21.75                             113    1.43 0  300 235 
 GUY2CHZ I        1848 28.80        12.3 0.24                           300 235 
 PTGC HZ EP       1847 45.82                             112   -0.85 7  308 158 
 PTGC HN ES   4   1848 18.74                             112   -2.21 0  308 158 
 PTGC HZ I        1848 53.67        25.1 0.32                           308 158 
                                                                                
