 2014  222 1029 30.7 L   6.314 -73.105175.8  RSN  9 0.5 2.2LRSN                1
 GAP=155        1.14       4.3     7.0  7.0 -0.1511E+01  0.1316E+02 -0.6405E+01E
 Epicentro: CHARALA - SANTANDER                                                3
 ACTION:UPD 14-03-10 08:12 OP:ep   STATUS:               ID:20140222102930 L   I
 OLDACT:REG 14-02-22 16:58 OP:cam  STATUS:               ID:20140222102751     3
 2014-02-22-1027-51M.COL___208                                                 6
 STAT SP IPHASW D HRMM SECON CODA AMPLIT PERI AZIMU VELO AIN AR TRES W  DIS CAZ7
 BAR2 SZ EP     C 1029 54.25                             169    0.1110 31.9 345 
 BAR2 SZ ES       1030 11.83                             169   -0.5810 31.9 345 
 BAR2 SZ I        1030 13.86        77.0 0.38            164           31.9 345 
 RUS  HZ EP       1029 54.93                             165    0.0010 46.7 177 
 RUS  HN ES       1030 14.20                             165    0.3910 46.7 177 
 RUS  HZ I        1030 15.65        19.4 0.30            165           46.7 177 
 PAM  SZ EP       1029 59.67                             144    0.7110  122  22 
 PAM  SZ I        1030 24.50         5.8 0.52            138            122  22 
 SPBC HZ EP       1029 59.06                             142    0.0910  130 236 
 SPBC HN ES       1030 21.44                             142    0.4310  130 236 
 SPBC HZ I        1030 25.85        25.7 0.24            146            130 236 
 CHI  HZ EP     D 1030  4.92                             129   -0.42 9  199 200 
 CHI  HN ES       1030 31.58                             129   -0.76 9  199 200 
 CHI  HZ I        1030 33.83         7.5 0.30            130            199 200 
 ZAR  HZ EP       1030  7.54                             124   -0.63 8  233 304 
 ZAR  HN ES       1030 37.37                             124   -0.02 8  233 304 
 ZAR  HZ I        1030 44.69         6.7 0.10            124            233 304 
 HEL  HZ EP       1030 12.53                             121    0.27 8  269 267 
 GUY2CHZ EP       1030 14.15                             120    0.78 7  278 244 
 SML  HZ EP       1030 13.86                             118   -0.72 7  295 339 
 SML  HN ES       1030 48.83                             118    0.04 7  295 339 
 SML  HZ I        1030 51.50        11.5 0.22            116            295 339 
                                                                                
