 2017  122 1549  2.4 L   6.814 -73.193142.4  RSN  4 0.3 1.3LRSN                1
 GAP=145        0.73       4.4     4.2  6.2 -0.5847E+01  0.7276E+01 -0.2654E+01E
 Epicentro: ZAPATOCA - SANTANDER                                               3
 ACTION:UPD 17-05-22 16:02 OP:jn   STATUS:               ID:20170122154902 L   I
 OLDACT:DUP 17-01-22 22:34 OP:cog  STATUS:               ID:20170122154742d    3
 OLDACT:REG 17-01-22 21:20 OP:cog  STATUS:               ID:20170122154741     3
 2017-01-22-1548-00M.COL___343                                                 6
 STAT SP IPHASW D HRMM SECON CODA AMPLIT PERI AZIMU VELO AIN AR TRES W  DIS CAZ7
 BAR2 EZ EP       1549 21.55                             170   -0.1110 24.5 177 
 BAR2 EZ ES       1549 36.20                             170   -0.4810 24.5 177 
 BAR2 EZ I        1549 37.76         9.4 0.18            171           24.5 177 
 PAM  EZ EP       1549 24.42                             149    0.0110 79.7  43 
 PAM  EN ES       1549 41.81                             149    0.2410 79.7  43 
 PAM  EZ I        1549 43.31         5.1 0.48            152           79.7  43 
 RUS  HZ EP       1549 25.71                             143   -0.2710  103 173 
 RUS  HE ES       1549 44.79                             143    0.4310  103 173 
 RUS  HZ I        1549 46.16         1.0 0.42            145            103 173 
 PTB  HZ EP       1549 28.74                             132    0.08 9  143 258 
 PTB  HN ES       1549 49.26                             132    0.12 9  143 258 
 PTB  HZ I        1549 52.59         2.5 0.10            133            143 258 
                                                                                
