 2012  422 1610 30.5 L   6.763 -73.121144.0  RSN 13 0.3 2.7LRSN                1
 GAP=141        0.70       2.3     3.1  3.8 -0.1569E+01  0.4298E+01  0.1413E+01E
 Epicentro: LOS SANTOS - SANTANDER                                             3
 ACTION:UPD 12-07-05 11:55 OP:tino STATUS:               ID:20120422161030 L   I
 2012-04-22-1610-00M.COL___186                                                 6
 STAT SP IPHASW D HRMM SECON CODA AMPLIT PERI AZIMU VELO AIN AR TRES W  DIS CAZ7
 BAR2 SZ IP       1610 49.86                             172     0.010   20 200 
 BAR2 SZ I        1610 50.24        71.5 0.12                            20 200 
 BAR2 SZ ES       1611  5.06                             172     0.110   20 200 
 BRR  HZ IP     D 1610 51.87                             151     0.110   76 300 
 BRR  HN ES       1611  8.84                             151     0.510   76 300 
 BRR  HZ I        1611 10.00        96.3 0.13                            76 300 
 PAM  SZ EP       1610 52.84                             150     0.210   79  36 
 PAM  SE ES       1611  9.65                             150    -0.310   79  36 
 RUS  HZ EP       1610 53.72                             145    -0.110   96 177 
 RUS  HE ES       1611 12.03                             145     0.110   96 177 
 RUS  HZ I        1611 13.80        57.6 0.29                            96 177 
 OCA  SZ EP       1610 59.09                             128     0.0 9  165 352 
 OCA  SZ ES   1   1611 20.96                             128    -0.5 7  165 352 
 ZAR  HZ EP   1   1611  3.54                             121     0.2 6  208 293 
 ZAR  HN ES   1   1611 28.20                             121    -0.6 6  208 293 
 ZAR  HZ I        1611 34.02        40.4 0.28                           208 293 
 NOR  SZ EP       1611  5.87                             118    -0.3 8  235 236 
 NOR  SE ES       1611 33.79                             118    -0.1 8  235 236 
 CHI  HZ EP   1   1611  8.08                             117     0.3 6  245 196 
 CHI  HN ES   1   1611 36.61                             117    -0.2 6  245 196 
 CHI  HZ I        1611 45.02        16.9 0.49                           245 196 
 HEL  HZ EP   1   1611 11.20                             114     0.4 6  274 257 
 HEL  HE ES   1   1611 42.32                             114     0.0 6  274 257 
 HEL  HZ I        1611 48.11        22.0 0.57                           274 257 
 GUY  SZ EP   1   1611 14.96                             112     0.6 5  303 236 
 GUY  SN ES   1   1611 48.48                             112     0.0 5  303 236 
 GUY  SZ I        1611 56.01        52.5 0.51                           303 236 
 RREF HZ EP   1   1611 16.31                             111    -0.2 5  321 230 
 RREF HN ES   1   1611 52.08                             111    -0.3 5  321 230 
 RREF HZ I        1612  1.06        33.2 0.39                           321 230 
 TOL  SZ EP       1611 18.74                             109     0.1 7  342 225 
 PRA  HZ EP       1611 23.98                             106     0.2 6  390 210 
 PRA  HN ES   1   1612  4.43                             106    -0.8 4  390 210 
                                                                                
