 2017  422 1749  3.9 L   6.780 -73.140141.4  RSN 13 0.6 2.4LRSN                1
 GAP=120        1.12       4.4     4.6  6.4 -0.5624E+01  0.8642E+01  0.4124E+01E
 Epicentro: LOS SANTOS - SANTANDER                                             3
 ACTION:UPD 17-05-30 21:15 OP:jn   STATUS:               ID:20170422174903 L   I
 OLDACT:UP  17-04-22 21:40 OP:dani STATUS:               ID:20170422174745     3
 OLDACT:UP  17-04-22 21:40 OP:dani STATUS:               ID:20170422174745     3
 OLDACT:UP  17-04-22 21:39 OP:dani STATUS:               ID:20170422174745     3
 OLDACT:REG 17-04-22 19:51 OP:dani STATUS:               ID:20170422174745     3
 2017-04-22-1748-00M.COL___374                                                 6
 STAT SP IPHASW D HRMM SECON CODA AMPLIT PERI AZIMU VELO AIN AR TRES W  DIS CAZ7
 BAR2 EZ EP   4   1749 20.74                             171   -2.20 0 21.3 193 
 BAR2 EZ ES       1749 37.69                             171   -0.1310 21.3 193 
 BAR2 EZ I        1749 38.60        80.2 0.26            167           21.3 193 
 BRR  HZ EP       1749 24.86                             151    0.2110 72.9 300 
 BRR  HN ES       1749 41.63                             151    0.7710 72.9 300 
 BRR  HZ I        1749 46.14        49.3 0.50            151           72.9 300 
 PAM  EZ EP       1749 25.75                             150    0.0410 78.7  38 
 PAM  EN ES       1749 42.53                             150   -0.2110 78.7  38 
 PTB  HZ EP       1749 29.99                             131   -0.53 9  148 260 
 PTB  HN ES       1749 50.43                             131   -0.86 9  148 260 
 PTB  HZ I        1749 53.87        37.8 0.27            131            148 260 
 SPBC HZ EP       1749 32.21                             128    0.29 9  162 220 
 SPBC HN ES       1749 54.29                             128    0.49 9  162 220 
 ZAR  HZ EP       1749 35.29                             121   -0.90 8  206 293 
 ZAR  HN ES       1750  1.55                             121    0.15 8  206 293 
 TABC EZ EP   3   1749 40.89                             119    1.69 2  228 211 
 TABC EZ ES   4   1750  9.65                             119    2.89 0  228 211 
 NOR  HZ EP       1749 39.21                             118   -0.07 8  234 235 
 NOR  HN ES       1750  6.82                             118   -0.07 8  234 235 
 NOR  HZ I        1750 12.86        19.9 0.24            118            234 235 
 CHI  HZ EP   3   1749 42.35                             116    1.23 2  247 195 
 CHI  HN ES       1750  9.80                             116   -0.37 8  247 195 
 CHI  HZ I        1750 13.83        12.6 0.56            117            247 195 
 ROSC BZ EP   9   1749 43.74                             116    2.15 0  251 211 
 ROSC BN ES       1750 13.48                             115    0.32 8  251 211 
 ROSC BZ I        1750 19.79        27.7 0.45            116            251 211 
 HEL  HZ EP       1749 44.62                             114    0.74 8  272 256 
 HEL  HN ES       1750 14.60                             114   -0.49 8  272 256 
 HEL  HZ I        1750 22.25        13.3 0.24            115            272 256 
 PTGC HZ EP   3   1749 46.05                             111   -1.23 2  306 159 
 PTGC HE ES   3   1750 19.28                             111   -1.85 2  306 159 
 PTGC HZ I        1750 22.17        14.5 0.51            112            306 159 
 CBOC HZ EP       1749 51.54                             109    0.93 7  334 252 
 CBOC HN ES       1750 27.46                             109    0.40 7  334 252 
 CBOC HZ I        1750 30.84         7.1 0.58            110            334 252 
                                                                                
