 2016  522 1624 52.4 L   6.809 -73.103148.7  RSN 14 0.4 2.3LRSN                1
 GAP=142        1.05       2.8     4.4  5.6 -0.3434E+01  0.6473E+01 -0.2080E+00E
 Epicentro: LOS SANTOS - SANTANDER                                             3
 ACTION:UPD 16-08-18 17:48 OP:cam  STATUS:               ID:20160522162452 L   I
 OLDACT:UP  16-05-22 23:41 OP:drio STATUS:               ID:20160522161744     3
 OLDACT:UP  16-05-22 23:41 OP:drio STATUS:               ID:20160522161744     3
 OLDACT:REG 16-05-22 20:21 OP:drio STATUS:               ID:20160522161744     3
 2016-05-22-1617-44M.COL___304                                                 6
 STAT SP IPHASW D HRMM SECON CODA AMPLIT PERI AZIMU VELO AIN AR TRES W  DIS CAZ7
 BAR2 EZ EP       1625 12.66                             170    0.2610 25.6 200 
 BAR2 EZ ES       1625 27.50                             170   -0.5210 25.6 200 
 BAR2 EZ I        1625 28.35        32.6 0.30            167           25.6 200 
 PAM  EZ EP       1625 14.38                             153   -0.3010 73.6  37 
 PAM  EE ES       1625 32.43                             153    0.3510 73.6  37 
 PAM  EZ I        1625 34.53        39.0 0.50            156           73.6  37 
 BRR  HZ EP       1625 14.77                             152    0.7210 75.0 296 
 BRR  HE ES       1625 31.56                             152    0.6010 75.0 296 
 BRR  HZ I        1625 35.33        24.6 0.44            149           75.0 296 
 RUS  HZ EP       1625 16.74                             144    0.2710  101 179 
 RUS  HN ES       1625 35.34                             144    0.0710  101 179 
 RUS  HZ I        1625 36.81        21.1 0.42            145            101 179 
 PTB  HZ EP       1625 19.74                             132   -0.28 9  153 259 
 PTB  HN ES   4   1625 39.90                             132   -1.69 0  153 259 
 PTB  HZ I        1625 43.49        21.9 0.16            130            153 259 
 OCA  HZ EP       1625 20.37                             130   -0.51 9  160 351 
 OCA  HE ES       1625 42.72                             130   -0.39 9  160 351 
 OCA  HZ I        1625 46.88        50.4 0.40            131            160 351 
 SPBC HZ EP       1625 21.59                             129    0.13 9  167 220 
 SPBC HN ES       1625 43.48                             129   -0.67 9  167 220 
 SPBC HZ I        1625 47.61        26.3 0.28            129            167 220 
 ZAR  HZ EP   4   1625 27.24                             122    1.82 0  208 291 
 ZAR  HN ES       1625 51.59                             122    0.39 8  208 291 
 ZAR  HZ I        1625 57.49        22.9 0.36            122            208 291 
 NOR  HZ EP       1625 29.30                             119    0.55 8  239 235 
 NOR  HE ES       1625 56.36                             119   -0.77 8  239 235 
 NOR  HZ I        1626  4.01        14.4 0.22            118            239 235 
 CHI  HZ EP   4   1625 32.09                             117    1.61 0  251 196 
 CHI  HN ES       1626  0.05                             117   -0.16 8  251 196 
 CHI  HZ I        1626  3.39         7.1 0.26            118            251 196 
 HEL  HZ EP   4   1625 34.93                             115    1.66 0  277 256 
 HEL  HE ES       1626  5.04                             115   -0.14 7  277 256 
 HEL  HZ I        1626 12.03         9.1 0.34            115            277 256 
 LL6C HZ EP       1625 37.75                             111   -0.36 7  324 357 
 LL6C HE ES       1626 13.58                             111   -0.20 7  324 357 
 PRA  HZ EP       1625 46.56                             107    0.18 6  395 210 
 PRA  HN ES       1626 29.17                             107    0.67 6  395 210 
 PRA  HZ I        1626 34.51         7.9 0.44            107            395 210 
 ORTC HZ EP   4   1625 48.04                             107    1.22 0  399 217 
 ORTC HE ES   4   1626 30.59                             107    1.30 0  399 217 
 ORTC HZ I        1626 35.69         4.6 0.48            107            399 217 
                                                                                
