 2011  422 1317 11.9 L   6.770 -73.009150.0  RSN  5 0.5 1.5LRSN                1
 GAP=156        1.18      10.5    10.5 16.9 -0.3747E+02 -0.3872E+01  0.7295E+02E
 Epicentro: CEPITA - SANTANDER                                                 3
 *RUS-BTL-BRR                                                                  3
 ACTION:UP  11-06-22 15:32 OP:REBC STATUS:               ID:20110422131711 L   I
 2011-04-22-1300-00M.COL___140                                                 6
 STAT SP IPHASW D HRMM SECON CODA AMPLIT PERI AZIMU VELO SNR AR TRES W  DIS CAZ7
 BAR2 SZ EP   1   1317 31.85                             169    -0.2 7   27 224 
 PAM  SZ EP   1   1317 34.59                             153     0.4 7   72  28 
 PAM  SZ I        1317 35.06         5.6 0.21                            72  28 
 PAM  SN ES   1   1317 51.07                             153    -0.5 7   72  28 
 BRR  HZ EP   1   1317 33.74                             149    -0.6 7   86 296 
 BRR  HZ I        1317 35.23         8.7 0.12                            86 296 
 BRR  HN ES   1   1317 52.63                             149     0.7 7   86 296 
 RUS  HZ EP   1   1317 36.47                             146     0.7 7   97 185 
 RUS  HN ES   2   1317 54.30                             146    -0.2 5   97 185 
 RUS  HZ I        1317 56.56         3.1 0.26                            97 185 
 NOR  SN ES   1   1318 17.36                             118    -0.6 6  245 237 
                                                                                
