 2010  222 1903 10.3 L   6.763 -73.036140.0  RSN  5 0.2 1.8LRSN                1
 GAP=246        0.51       3.9     9.0  5.3  0.1291E+02  0.1184E+02  0.2956E+01E
 Epicentro: CEPITA - SANTANDER                                                 3
 ACTION:UP  10-08-24 09:50 OP:vdl  STATUS:               ID:20100222190311dL   I
 2010-02-22-1900-51S.COL___094                                                 6
 STAT SP IPHASW D HRMM SECON CODA AMPLIT PERI AZIMU VELO SNR AR TRES W  DIS CAZ7
 BAR2 SZ EP       19 3 29.34                             169     0.110   25 221 
 BAR2 SZ ES   2   19 3 43.89                             169    -0.2 5   25 221 
 BRR  HZ EP   1   19 3 31.26                             147    -0.3 7   84 297 
 BRR  HE ES   2   19 3 48.65                             147     0.4 5   84 297 
 BRR  HZ I        19 3 52.95        21.5 0.46                            84 297 
 RUS  BZ EP   1   19 3 33.48                             144     0.3 7   96 183 
 RUS  BN ES       19 3 50.93                             144    -0.110   96 183 
 RUS  BZ I        19 3 55.40         5.1 0.44                            96 183 
 CHI  HZ EP   1   19 3 47.41                             116    -0.2 6  248 198 
 CHI  HE ES   2   19 4 16.74                             116     0.0 4  248 198 
 CHI  HZ I        19 4 24.34         2.6 0.71                           248 198 
 PRA  HZ EP   1   19 4  4.17                             105     0.3 4  395 211 
 PRA  HN ES   2   19 4 45.72                             105     0.0 3  395 211 
 PRA  HZ I        19 4 49.68         3.7 0.46                           395 211 
                                                                                
