 2015  122 1317 54.9 L   6.809 -73.117147.5  RSN 19 0.4 2.5LRSN                1
 GAP= 72        0.83       2.4     3.1  4.5 -0.5237E+00  0.3435E+01  0.2018E+01E
 Epicentro: LOS SANTOS - SANTANDER                                             3
 ACTION:UPD 15-03-02 15:41 OP:nd   STATUS:               ID:20150122131754 L   I
 OLDACT:REG 15-01-22 20:33 OP:spq  STATUS:               ID:20150122130749     3
 2015-01-22-1307-49M.COL___255                                                 6
 STAT SP IPHASW D HRMM SECON CODA AMPLIT PERI AZIMU VELO AIN AR TRES W  DIS CAZ7
 BAR2 EZ EP       1318 14.65                             170   -0.1510 25.0 197 
 BAR2 EZ ES   1   1318 30.71                             170    0.41 7 25.0 197 
 BAR2 EZ I        1318 33.08        57.0 0.30            166           25.0 197 
 BRR  HZ EP     D 1318 16.55                             152    0.1610 73.6 297 
 BRR  HE ES       1318 33.77                             152    0.6310 73.6 297 
 BRR  HZ I        1318 35.05        53.1 0.16            147           73.6 297 
 PAM  SZ EP     C 1318 17.36                             152    0.2010 74.6  38 
 PAM  SN ES       1318 34.44                             152   -0.0710 74.6  38 
 PAM  SZ I        1318 36.73        30.4 0.20            153           74.6  38 
 RUS  HZ EP       1318 18.80                             144   -0.1010  101 178 
 RUS  HE ES       1318 37.20                             144   -0.4110  101 178 
 RUS  HZ I        1318 38.41        19.4 0.44            141            101 178 
 PTB  HZ EP   4   1318 21.23                             132   -1.10 0  151 259 
 PTB  HN ES   4   1318 42.62                             132   -1.09 0  151 259 
 PTB  HZ I        1318 48.34        38.6 0.16            127            151 259 
 TAM  HZ EP       1318 22.83                             131    0.35 9  152 106 
 OCA  HZ EP   1   1318 22.83                             130   -0.48 7  160 352 
 OCA  HN ES       1318 45.21                             130   -0.25 9  160 352 
 OCA  HZ I        1318 49.65        62.2 0.46            128            160 352 
 SPBC HZ EP       1318 23.52                             129   -0.30 9  166 220 
 SPBC HE ES       1318 45.91                             129   -0.44 9  166 220 
 SPBC HZ I        1318 48.66        60.3 0.13            125            166 220 
 ZAR  HZ EP       1318 27.38                             122   -0.37 8  207 292 
 ZAR  HE ES       1318 53.14                             122   -0.21 8  207 292 
 ZAR  HZ I        1318 58.78        38.4 0.71            119            207 292 
 NOR  HZ EP       1318 30.91                             118   -0.18 8  238 235 
 NOR  HZ I        1319  4.09        27.9 0.29            115            238 235 
 SML  HZ EP   4   1318 28.91                             118   -2.78 0  244 335 
 SML  HE ES   1   1319  0.03                             118   -0.35 6  244 335 
 SML  HZ I        1319  2.33        65.0 0.19            115            244 335 
 CHI  HZ EP       1318 32.70                             117   -0.21 8  250 196 
 CHI  HE ES       1319  2.73                             117    0.19 8  250 196 
 CHI  HZ I        1319  4.62         9.4 0.33            114            250 196 
 ROSC BZ EP   4   1318 34.61                             117    1.20 0  255 212 
 ROSC BN ES   4   1319  4.90                             117    1.47 0  255 212 
 ROSC BZ I        1319  8.89        29.6 0.35            114            255 212 
 HEL  HZ EP       1318 36.07                             115    0.48 7  275 256 
 HEL  HE ES   1   1319  7.58                             115    0.27 6  275 256 
 HEL  HZ I        1319 14.02        24.9 0.30            112            275 256 
 GUY2CHZ EP       1318 39.80                             112    0.83 7  304 235 
 GUY2CHE ES       1319 13.22                             112   -0.10 7  304 235 
 GUY2CHZ I        1319 23.47        18.0 0.44                           304 235 
 PTGC HZ EP   4   1318 37.63                             112   -1.20 0  308 159 
 PTGC HE ES   4   1319 11.43                             112   -1.65 0  308 159 
 PTGC HZ I        1319 17.33        22.2 0.54            110            308 159 
 RREF HZ EP   4   1318 42.90                             111    1.41 0  325 230 
 RREF HE ES   4   1319 19.21                             111    1.40 0  325 230 
 RREF HZ I        1319 24.26        24.3 0.26            108            325 230 
 TOL  SZ EP   1   1318 44.40                             109    0.82 5  346 225 
 TOL  SE ES   4   1319 22.96                             109    1.42 0  346 225 
 TOL  SZ I        1319 26.65        15.0 0.30            107            346 225 
 MON  HN ES   4   1319 20.59                             109   -2.07 0  356 308 
 MON  HZ I        1319 22.15         7.8 0.22            106            356 308 
                                                                                
