 2011 1222 1442  2.8 L   6.575 -73.596110.3  RSN  5 0.3 1.4LRSN                1
 GAP=125        0.62       4.6     3.8  7.3  0.5612E+01  0.6801E+01  0.1045E+02E
 Epicentro: EL CARMEN DE CHUCURI - SANTANDER                                   3
 ACTION:UPD 12-07-13 16:17 OP:ep   STATUS:               ID:20111222144202 L   I
 2011-12-22-1440-00M.COL___192                                                 6
 STAT SP IPHASW D HRMM SECON CODA AMPLIT PERI AZIMU VELO AIN AR TRES W  DIS CAZ7
 BAR2 SZ IP       1442 19.10                             156    0.1010 45.7  88 
 BAR2 SZ I        1442 19.21         9.9 0.12                          45.7  88 
 BAR2 SZ ES   1   1442 31.40                             156   -0.28 7 45.7  88 
 BRR  HZ EP   1   1442 19.29                             149   -0.19 7 60.3 348 
 BRR  HE ES   1   1442 33.08                             149    0.56 7 60.3 348 
 GIR2 SZ ES   2   1442 33.65                             144   -0.54 5 71.3  39 
 RUS  HZ EP   1   1442 22.59                             137   -0.09 7 94.4 143 
 RUS  HE ES   1   1442 38.44                             137    0.21 7 94.4 143 
 RUS  HZ I        1442 39.28         3.8 0.23                          94.4 143 
 PTB  HZ EP   1   1442 22.28                             136    0.17 7 95.3 268 
 PTB  HN ES   1   1442 36.88                             136   -0.32 7 95.3 268 
                                                                                
