 2013  122 1112 43.4 L   6.686 -73.214147.9  RSN  4 0.3 1.1LRSN                1
 GAP=225        0.67       8.7     6.2  8.3  0.3274E+02  0.5207E+01 -0.1250E+02E
 Epicentro: VILLANUEVA - SANTANDER                                             3
 ACTION:UPD 13-02-15 09:16 OP:ep   STATUS:               ID:20130122111243 L   I
 2013-01-22-1110-00M.COL___241                                                 6
 STAT SP IPHASW D HRMM SECON CODA AMPLIT PERI AZIMU VELO AIN AR TRES W  DIS CAZ7
 BAR2 SZ EP       1113  2.77                             176   -0.3510 10.9 161 
 BAR2 SZ ES   1   1113 18.56                             176    0.08 7 10.9 161 
 RUS  HZ EP   1   1113  6.73                             148    0.15 7 88.9 171 
 RUS  HN ES   1   1113 24.93                             148    0.29 7 88.9 171 
 RUS  HN I        1113 26.09         1.4 0.20            149           88.9 171 
 PTB  HZ EP   1   1113  9.82                             134    0.10 7  138 263 
 PTB  HN ES   1   1113 29.81                             134   -0.43 7  138 263 
 PTB  HZ I        1113 34.73         2.0 0.12            132            138 263 
 ZAR  HN ES   1   1113 41.65                             123    0.55 6  202 296 
 ZAR  HZ I        1113 46.73         1.6 0.30            123            202 296 
                                                                                
