 2017 1122 1751 37.3 L   6.894 -73.156138.5  RSN  4 0.3 1.3LRSN                1
 GAP=281        0.76       7.5     4.7  6.6  0.3996E+01  0.1076E+02 -0.5082E+01E
 Epicentro: BETULIA - SANTANDER                                                3
 ACTION:UPD 17-12-12 19:58 OP:rebc STATUS:               ID:20171122175137 L   I
 OLDACT:UP  17-11-22 23:15 OP:edw  STATUS:               ID:20171122174739d    3
 OLDACT:DUP 17-11-22 23:11 OP:edw  STATUS:               ID:20171122174739d    3
 2017-11-22-1748-00M.COL___477                                                 6
 STAT SP IPHASW D HRMM SECON CODA AMPLIT PERI AZIMU VELO AIN AR TRES W  DIS CAZ7
 BAR2 EZ EP       1751 56.51                             166    0.1610 33.5 185 
 BAR2 EZ ES       1752 11.39                             166    0.2110 33.5 185 
 BAR2 EZ I        1752 13.36         7.1 0.48            161           33.5 185 
 RUS  HZ EP       1752  0.70                             139   -0.4810  111 176 
 RUS  HN ES       1752 19.76                             139   -0.0210  111 176 
 RUS  HZ I        1752 20.34         3.0 0.20            138            111 176 
 PTB  HZ EP       1752  4.01                             130    0.18 9  149 255 
 PTB  HN ES       1752 24.02                             130   -0.48 9  149 255 
 PTB  HZ I        1752 26.33         2.0 0.14            129            149 255 
 NOR  HZ EP       1752 13.48                             116    0.26 8  240 232 
 NOR  HE ES       1752 41.53                             116    0.32 8  240 232 
 NOR  HZ I        1752 48.43         1.9 0.18            116            240 232 
                                                                                
