 2014 1222 1545 36.3 L   6.725 -73.200145.5  RSN  4 0.4 1.6LRSN                1
 GAP=226        0.99      12.0     7.2 10.6  0.3392E+02  0.1226E+02 -0.1791E+02E
 Epicentro: VILLANUEVA - SANTANDER                                             3
 ACTION:UPD 15-02-10 17:06 OP:nd   STATUS:               ID:20141222154536 L   I
 OLDACT:DUP 14-12-22 23:25 OP:carl STATUS:               ID:20141222153748d    3
 2014-12-22-1537-47M.COL___296                                                 6
 STAT SP IPHASW D HRMM SECON CODA AMPLIT PERI AZIMU VELO AIN AR TRES W  DIS CAZ7
 BAR2 EZ EP       1545 55.75                             174   -0.0010 14.8 172 
 BAR2 EZ ES       1546 10.50                             174   -0.4310 14.8 172 
 BAR2 EZ I        1546 11.64        12.0 0.34            171           14.8 172 
 BRR  HZ EP       1545 57.63                             153    0.2510 70.6 307 
 BRR  HN ES       1546 14.30                             153    0.4710 70.6 307 
 PTB  HZ EP   4   1545 59.04                             133   -3.54 0  140 262 
 PTB  HN ES       1546 23.33                             133    0.24 9  140 262 
 PTB  HZ I        1546 24.58         3.9 0.20            133            140 262 
 ZAR  HN ES       1546 32.92                             123   -0.69 9  202 295 
                                                                                
