 2011  622 1007 38.1 L   6.776 -73.084143.1  RSN  7 0.5 1.5LRSN                1
 GAP=166        0.98       5.6     8.9  9.8 -0.1237E+02 -0.8167E+01  0.1087E+02E
 Epicentro: LOS SANTOS - SANTANDER                                             3
 ACTION:UP  11-07-14 19:07 OP:ep   STATUS:               ID:20110622100738 L   I
 2011-06-22-1000-00M.COL___126                                                 6
 STAT SP IPHASW D HRMM SECON CODA AMPLIT PERI AZIMU VELO SNR AR TRES W  DIS CAZ7
 BAR2 SZ EP       10 7 57.10                             170    -0.310   23 208 
 BAR2 SZ I        10 8 14.04         6.8 0.27                            23 208 
 BTL  SZ EP       10 7 57.57                             170     0.110   26 308 
 BTL  SZ ES   2   10 8 11.76                             170    -0.8 5   26 308 
 BRR  HZ EP       10 7 59.36                             150    -0.110   78 298 
 BRR  HZ I        10 8  0.83        13.0 0.44                            78 298 
 BRR  HN ES   1   10 8 16.47                             150     0.4 7   78 298 
 RUS  HZ EP       10 8  1.75                             144     0.310   98 180 
 RUS  HZ I        10 8  2.39         2.4 0.08                            98 180 
 RUS  HN ES   2   10 8 20.28                             144     0.7 5   98 180 
 GRA  SZ EP       10 8  2.88                             137    -0.310  126  14 
 GRA  SZ ES   2   10 8 22.79                             137     0.0 5  126  14 
 GRA  SZ I        10 8 25.31         3.7 0.33                           126  14 
 OCA  SZ EP   2   10 8  7.97                             129     1.4 5  164 351 
 OCA  SZ ES   2   10 8 28.84                             129     0.1 5  164 351 
 NOR  SZ EP       10 8 13.66                             118    -0.5 8  239 236 
 NOR  SN ES   2   10 8 42.25                             118     0.0 4  239 236 
                                                                                
