 2013  522 1510 27.8 L   6.829 -73.142147.4  RSN 20 0.7 3.0LRSN 3.3WRSN        1
 SPEC AVERAGE  MO 14.0 ST  2.9 OM  2.2 f0 3.41 R0.6333 AL 1.29 WI 24.1 MW  3.3 3
 SPEC SD       MO  0.2 ST  4.7 OM  0.4 f00.717 R0.1765 AL      WI      MW  0.1 3
 GAP= 49        1.56       3.5     3.5  6.3 -0.1949E+01  0.2911E+01  0.3238E+01E
 Epicentro: LOS SANTOS - SANTANDER                                             3
 SPEC PRA HH E MO 13.6 ST0.810 OM  1.3 f0 3.21 R0.5994 AL 1.44 WI 22.5 MW  3.0 3
 SPEC PRA HH E T1512 3 K 0.050 GD  421 VS 5.20 DE 3.20 Q0750.0 QA 1.50 VS 5.20 3
 SPECGUY2CHH N MO 13.8 ST  1.0 OM  1.6 f0 2.94 R0.6543 AL 2.05 WI 49.3 MW  3.2 3
 SPECGUY2CHH N T151146 K 0.050 GD  336 VS 5.20 DE 3.20 Q0750.0 QA 1.50 VS 5.20 3
 SPEC HEL HH N MO 13.9 ST  2.9 OM  1.7 f0 3.99 R0.4822 AL 2.62 WI 37.5 MW  3.2 3
 SPEC HEL HH N T151139 K 0.050 GD  310 VS 5.20 DE 3.20 Q0750.0 QA 1.50 VS 5.20 3
 SPEC CHI HH N MO 13.9 ST  2.0 OM  1.8 f0 3.33 R0.5778 AL 1.26 WI 30.5 MW  3.2 3
 SPEC CHI HH N T151135 K 0.050 GD  291 VS 5.20 DE 3.20 Q0750.0 QA 1.50 VS 5.20 3
 SPEC NOR HH E MO 13.9 ST  3.4 OM  1.8 f0 4.03 R0.4774 AL 0.91 WI 31.2 MW  3.2 3
 SPEC NOR HH E T151127 K 0.050 GD  279 VS 5.20 DE 3.20 Q0750.0 QA 1.50 VS 5.20 3
 SPEC YOP SH Z MO 14.3 ST  1.0 OM  1.6 f0 3.37 R0.9442 AL 0.87 WI 20.7 MW  3.5 3
 SPEC YOP SH Z T151058 K 0.050 GD  234 VP 8.60 DE 3.20 Q0750.0 QA 1.50 VS 5.20 3
 SPEC TAM HH E MO 13.9 ST0.721 OM  1.9 f0 2.44 R0.7885 AL 1.02 WI 22.0 MW  3.2 3
 SPEC TAM HH E T151116 K 0.050 GD  214 VS 5.20 DE 3.20 Q0750.0 QA 1.50 VS 5.20 3
 SPEC PTB HH N MO 14.0 ST  6.6 OM  2.0 f0 4.77 R0.4034 AL 0.75 WI 28.3 MW  3.3 3
 SPEC PTB HH N T151114 K 0.050 GD  209 VS 5.20 DE 3.20 Q0750.0 QA 1.50 VS 5.20 3
 SPEC RUS HH N MO 13.9 ST  1.3 OM  2.0 f0 2.88 R0.6681 AL 1.67 WI 15.2 MW  3.2 3
 SPEC RUS HH N T1511 9 K 0.050 GD  180 VS 5.20 DE 3.20 Q0750.0 QA 1.50 VS 5.20 3
 SPEC PAM SH N MO 13.8 ST  1.4 OM  1.9 f0 3.33 R0.5778 AL 1.53 WI 12.1 MW  3.1 3
 SPEC PAM SH N T1511 7 K 0.050 GD  165 VS 5.20 DE 3.20 Q0750.0 QA 1.50 VS 5.20 3
 SPEC BRR HH N MO 14.4 ST 11.3 OM  2.5 f0 4.22 R0.4559 AL 1.47 WI 19.0 MW  3.5 3
 SPEC BRR HH N T1511 6 K 0.050 GD  163 VS 5.20 DE 3.20 Q0750.0 QA 1.50 VS 5.20 3
 SPEC BAR2SH Z MO 14.0 ST0.505 OM  2.2 f0 1.94 R0.9918 AL 0.65 WI 26.5 MW  3.3 3
 SPEC BAR2SH Z T1511 1 K 0.050 GD  149 VS 5.20 DE 3.20 Q0750.0 QA 1.50 VS 5.20 3
 ACTION:UPD 13-06-20 09:52 OP:ep   STATUS:               ID:20130522151027 L   I
 2013-05-22-1508-50M.COL___215                                                 6
 STAT SP IPHASW D HRMM SECON CODA AMPLIT PERI AZIMU VELO AIN AR TRES W  DIS CAZ7
 BAR2 SZ EP       1510 47.73                             169   -0.0110 26.6 190 
 BAR2 SZ ES       1511  2.58                             169   -0.6810 26.6 190 
 BAR2 SZ I        1511  3.74       171.9 0.26            166           26.6 190 
 GIR2 SZ EP       1510 47.89                             169    0.2510 28.2 348 
 GIR2 SZ ES       1511  3.04                             169   -0.0310 28.2 348 
 BRR  HZ IP     C 1510 49.53                             153    0.4210 70.1 296 
 BRR  HN ES       1511  6.69                             153    0.9910 70.1 296 
 BRR  HE I        1511  7.15       699.6 0.26            154           70.1 296 
 PAM  SZ EP       1510 50.71                             152    0.6310 74.6  41 
 PAM  SN ES       1511  7.63                             152    0.2110 74.6  41 
 PAM  SN I        1511  9.03       171.7 0.48            154           74.6  41 
 RUS  HZ IP     D 1510 51.74                             143   -0.2510  104 176 
 RUS  HN I        1511 12.04       117.2 0.38            141            104 176 
 CAPV BZ EP       1510 55.59                             133    0.47 9  146  39 
 CAPV BZ ES       1511 15.99                             133   -0.41 9  146  39 
 PTB  HZ EP       1510 54.16                             132   -0.89 9  149 258 
 PTB  HN ES       1511 14.96                             132   -1.30 9  149 258 
 PTB  HN I        1511 20.70       192.0 0.42            131            149 258 
 TAM  HZ IP     D 1510 56.23                             131    0.53 9  156 106 
 TAM  HZ I        1510 56.41        76.3 0.38            131            156 106 
 TAM  HE ES       1511 17.63                             131    0.21 9  156 106 
 OCA  HZ EP       1510 55.86                             131   -0.13 9  157 353 
 OCA  HN ES       1511 18.40                             131    0.46 9  157 353 
 YOP  SZ EP       1510 58.57                             126    0.29 9  182 154 
 YOP  SN ES       1511 22.23                             126    0.22 9  182 154 
 ZAR  HZ EP       1511  0.47                             123    0.15 9  203 291 
 ZAR  HN ES       1511 25.87                             123    0.23 9  203 291 
 ZAR  HN I        1511 28.51       172.6 0.56            123            203 291 
 NOR  HZ EP       1511  3.66                             119   -0.25 8  237 234 
 NOR  HN ES       1511 31.44                             119   -0.60 8  237 234 
 NOR  HE I        1511 36.42        92.9 0.16            118            237 234 
 SML  HZ EP       1511  4.32                             118    0.05 8  241 335 
 SML  HN ES       1511 32.01                             118   -0.67 8  241 335 
 CHI  HZ EP       1511  6.11                             117    0.12 8  252 195 
 CHI  HN ES       1511 35.57                             117   -0.17 8  252 195 
 CHI  HN I        1511 37.95       110.5 0.36            116            252 195 
 HEL  HZ EP       1511  9.51                             115    1.23 8  273 255 
 HEL  HN ES       1511 39.77                             115   -0.04 8  273 255 
 HEL  HN I        1511 45.27        36.0 0.30            115            273 255 
 URE  HZ EP       1511  7.80                             114   -1.11 7  283 291 
 SOCV BZ EP       1511 10.38                             113   -0.35 7  299  57 
 SOCV BZ ES       1511 42.20                             113   -1.98 7  299  57 
 GUY2CHZ EP       1511 12.46                             112    0.68 7  303 234 
 GUY2CHN ES       1511 47.75                             112    1.70 7  303 234 
 GUY2CHN I        1511 56.34        37.3 0.52                           303 234 
 COD  HZ EP       1511 16.35                             109    0.43 7  345 354 
 PRA  HZ EP       1511 21.39                             107   -0.39 6  395 209 
 PRA  HN ES       1512  2.57                             107   -1.27 6  395 209 
 PRA  HE I        1512  9.22        23.8 0.42            106            395 209 
                                                                                
