 2010 1222 1245  6.4 L   6.169 -73.755 97.0  RSN 10 0.4 2.0LRSN                1
 GAP=100        0.87       4.4     3.5  9.1 -0.4544E+01  0.1415E+02 -0.1798E+01E
 Epicentro: LANDAZURI - SANTANDER                                              3
 ACTION:UP  11-01-14 15:26 OP:pat  STATUS:               ID:20101222124506 L   I
 2010-12-22-1239-32S.COL___135                                                 6
 STAT SP IPHASW D HRMM SECON CODA AMPLIT PERI AZIMU VELO SNR AR TRES W  DIS CAZ7
 BAR2 SZ EP   1   1245 23.56                             138     0.0 7   79  53 
 BAR2 SZ ES   1   1245 36.93                             138     0.1 7   79  53 
 RUS  HZ EP   1   1245 23.98                             138     0.0 7   80 112 
 RUS  HN ES   1   1245 37.96                             138     0.2 7   80 112 
 RUS  HZ I        1245 39.97        14.5 0.25                            80 112 
 NOR  SZ EP   1   1245 28.38                             121    -0.8 7  141 242 
 NOR  SN ES   1   1245 46.30                             121    -0.7 7  141 242 
 CHI  HZ EP   2   1245 32.84                             116    -0.1 4  170 179 
 CHI  HN ES   1   1245 53.56                             116     0.0 7  170 179 
 CHI  HZ I        1245 59.78         9.6 0.43                           170 179 
 YOP  SZ EP   1   1245 33.02                             115     0.2 7  173 121 
 YOP  SZ I        1245 56.54        14.4 0.21                           173 121 
 HEL  HZ EP   2   1245 35.76                             112    -0.1 4  196 271 
 HEL  HN ES   1   1245 59.44                             112     0.7 6  196 271 
 HEL  HZ I        1246  3.25        12.0 0.40                           196 271 
 GRA  SZ EP   1   1245 37.46                             110    -0.5 6  217  29 
 RREF HZ EP   1   1245 39.69                             109     0.2 6  225 232 
 RREF HN ES   1   1246  5.81                             109     0.5 6  225 232 
 RREF HZ I        1246  9.20        10.0 0.26                           225 232 
 DBB  SZ EP   1   1245 46.52                             105     0.4 5  287 289 
 PRA  HZ EP   2   1245 48.07                             104     0.6 4  299 205 
 PRA  HZ I        1246  8.30        10.3 0.20                           299 205 
                                                                                
