 2013  222 1434 33.1 L   6.804 -73.157148.0  RSN  5 0.5 1.8LRSN                1
 GAP=237        1.07       6.4     8.1  8.1  0.2252E+02  0.1259E+02  0.1410E+02E
 Epicentro: LOS SANTOS - SANTANDER                                             3
 ACTION:UPD 13-03-12 09:35 OP:ep   STATUS:               ID:20130222143433 L   I
 2013-02-22-1430-00M.COL___238                                                 6
 STAT SP IPHASW D HRMM SECON CODA AMPLIT PERI AZIMU VELO AIN AR TRES W  DIS CAZ7
 BAR2 SZ EP   2   1434 52.41                             171   -0.64 5 23.6 187 
 BAR2 SZ ES       1435  8.62                             171    0.0410 23.6 187 
 BAR2 SZ I        1435  9.12        14.7 0.44            167           23.6 187 
 BRR  HZ EP       1434 54.90                             153    0.4410 69.8 299 
 BRR  HN ES       1435 11.60                             153    0.5110 69.8 299 
 BRR  HN I        1435 14.71        22.0 0.56            152           69.8 299 
 RUS  HZ EP       1434 56.89                             144   -0.2610  101 175 
 RUS  HN ES       1435 15.49                             144   -0.3910  101 175 
 RUS  HN I        1435 17.93         4.6 0.16            143            101 175 
 PTB  HZ EP       1434 59.87                             133   -0.32 9  147 259 
 PTB  HN ES       1435 20.71                             133   -0.57 9  147 259 
 PTB  HN I        1435 23.48         9.1 0.22            132            147 259 
 CHI  HZ EP   1   1435 11.28                             118    0.30 6  249 195 
 CHI  HN ES       1435 41.28                             118    0.79 8  249 195 
 CHI  HN I        1435 46.43         5.1 0.46            118            249 195 
                                                                                
