 2013 1022 1301 20.8 L   6.741 -73.164152.9  RSN  7 0.3 2.0LRSN                1
 GAP=231        0.72       4.9     4.5  6.3  0.7258E+00  0.7013E+01  0.3357E+01E
 Epicentro: VILLANUEVA - SANTANDER                                             3
 ACTION:UPD 13-11-25 09:23 OP:ep   STATUS:               ID:20131022130120 L   I
 OLDACT:UP  13-10-22 16:35 OP:cam  STATUS:               ID:20131022125849     3
 OLDACT:REG 13-10-22 14:48 OP:cam  STATUS:               ID:20131022125849     3
 2013-10-22-1258-49M.COL___218                                                 6
 STAT SP IPHASW D HRMM SECON CODA AMPLIT PERI AZIMU VELO AIN AR TRES W  DIS CAZ7
 BAR2 SZ EP       13 1 41.28                             174    0.0910 16.5 187 
 BAR2 SZ ES       13 1 56.71                             174   -0.3810 16.5 187 
 BAR2 SZ I        13 1 57.95        53.9 0.32            170           16.5 187 
 BRR  HZ EP       13 1 43.01                             153    0.1810 72.8 304 
 BRR  HN ES       13 2  0.43                             153    0.4310 72.8 304 
 RUS  HZ EP   2   13 1 45.20                             147    0.36 5 94.2 175 
 RUS  HN ES   2   13 2  3.54                             147   -0.04 5 94.2 175 
 RUS  HZ I        13 2  4.83         7.4 0.26            147           94.2 175 
 PTB  HZ EP       13 1 47.79                             134   -0.31 9  145 261 
 PTB  HN ES       13 2  9.17                             134   -0.20 9  145 261 
 PTB  HZ I        13 2 16.12         9.8 0.30            134            145 261 
 SPBC HN ES   2   13 2 12.46                             132    0.97 5  157 220 
 ZAR  HE ES   1   13 2 19.25                             124   -0.28 6  205 294 
 NOR  HN ES       13 2 24.08                             121   -0.06 8  229 235 
                                                                                
