 2014  822 1050  5.4 L   7.435 -73.169132.6  RSN  5 0.2 1.3LRSN                1
 GAP=214        0.64       3.2     4.7  6.5  0.2383E+01  0.2423E+01 -0.9059E+01E
 Epicentro: EL PLAYON - SANTANDER                                              3
 ACTION:UPD 14-09-15 21:52 OP:nd   STATUS:               ID:20140822105005 L   I
 OLDACT:REG 14-08-22 20:06 OP:cam  STATUS:               ID:20140822105000     3
 2014-08-22-1050-00M.COL___285                                                 6
 STAT SP IPHASW D HRMM SECON CODA AMPLIT PERI AZIMU VELO AIN AR TRES W  DIS CAZ7
 BRR  HZ EP       1050 25.23                             150    0.1810 70.0 239 
 BRR  HE ES       1050 40.53                             150    0.1410 70.0 239 
 BRR  HE I        1050 42.02         7.9 0.52            151           70.0 239 
 BAR2 SZ ES       1050 43.72                             143   -0.0510 93.2 181 
 BAR2 SZ I        1050 44.60         3.3 0.80            144           93.2 181 
 PTB  HZ EP       1050 33.81                             124   -0.01 9  173 235 
 PTB  HN ES       1050 55.54                             124   -0.46 9  173 235 
 PTB  HZ I        1050 57.62         1.2 0.28            125            173 235 
 SML  HZ EP       1050 34.65                             123    0.08 9  181 327 
 SML  HN ES       1050 57.02                             123   -0.31 9  181 327 
 SML  HZ I        1050 58.35         1.7 0.10            124            181 327 
 ZAR  HN ES       1050 58.78                             122    0.38 9  187 272 
 ZAR  HN I        1050 59.32         5.0 0.14            123            187 272 
                                                                                
