 2016 1222 1224 19.6 L   6.774 -73.071146.8  RSN  7 0.4 1.5LRSN                1
 GAP=243        1.01       5.5     8.4  6.5  0.1720E+02  0.2547E+00  0.7455E+01E
 Epicentro: LOS SANTOS - SANTANDER                                             3
 ACTION:UPD 17-01-11 20:17 OP:rebc STATUS:               ID:20161222122419 L   I
 OLDACT:UP  16-12-23 00:44 OP:edw  STATUS:               ID:20161222121743     3
 OLDACT:REG 16-12-22 20:29 OP:edw  STATUS:               ID:20161222121743     3
 2016-12-22-1218-00M.COL___357                                                 6
 STAT SP IPHASW D HRMM SECON CODA AMPLIT PERI AZIMU VELO AIN AR TRES W  DIS CAZ7
 BAR2 EZ EP       1224 39.31                             170   -0.0110 23.5 211 
 BAR2 EZ ES       1224 54.51                             170   -0.2310 23.5 211 
 BAR2 EZ I        1224 55.26         7.5 0.16            172           23.5 211 
 BRR  HZ EP       1224 41.55                             150    0.2210 79.8 298 
 BRR  HE ES       1224 58.76                             150    0.4510 79.8 298 
 RUS  HZ EP       1224 43.15                             145   -0.0510 97.4 181 
 RUS  HN ES       1225  1.11                             145   -0.5210 97.4 181 
 RUS  HZ I        1225  2.65         7.2 0.30            145           97.4 181 
 PTB  HZ EP   9   1224 46.27                             131   -1.04 0  155 260 
 PTB  HN ES       1225  7.15                             131   -0.76 9  155 260 
 PTB  HZ I        1225  7.68         3.1 0.27            132            155 260 
 ZAR  HE ES   2   1225 18.26                             121   -0.78 4  213 292 
 CHI  HZ EP       1224 57.23                             117   -0.04 8  248 197 
 CHI  HE ES       1225 27.39                             117    0.72 8  248 197 
 GUY2CHZ EP       1225  3.51                             112   -0.29 7  306 236 
 GUY2CHN ES   4   1225 39.83                             112    1.53 0  306 236 
 GUY2CHZ I        1225 44.69         1.1 0.28                           306 236 
                                                                                
