 2013  622 1017 50.1 L   7.256 -73.063 18.1  RSN  7 0.5 2.1LRSN                1
 GAP=195        0.97       2.8     4.3  3.8  0.1145E+01 -0.1971E+01  0.1588E+01E
 Epicentro: MATANZA - SANTANDER                                                3
 ACTION:UPD 14-01-08 09:56 OP:ep   STATUS:               ID:20130622101750 L   I
 OLDACT:DUP 13-06-22 16:14 OP:cma  STATUS:               ID:20130622100960d    3
 OLDACT:REG 13-06-22 14:48 OP:y    STATUS:               ID:20130622100959     3
 2013-06-22-1009-59M.COL___267                                                 6
 STAT SP IPHASW D HRMM SECON CODA AMPLIT PERI AZIMU VELO AIN AR TRES W  DIS CAZ7
 GIR2 SZ EP       1017 54.78                             124   -0.3810 24.3 216 
 BRR  HZ IP     C 1018  2.14                             101    0.1310 73.5 257 
 BRR  HN ES       1018 11.43                             101    0.1010 73.5 257 
 BRR  HZ I        1018 12.00       126.0 0.16             98           73.5 257 
 OCA  HZ EP   2   1018  7.80                              97   -0.17 5  112 345 
 OCA  HN ES   1   1018 21.78                              97   -0.17 7  112 345 
 OCA  HZ I        1018 26.11        29.1 0.18             95            112 345 
 RUS  HZ EP   1   1018 14.28                              56    0.73 7  151 181 
 RUS  HZ I        1018 23.52         4.4 0.16             94            151 181 
 RUS  HN ES       1018 31.68                              56   -0.19 9  151 181 
 PTB  HZ EP       1018 15.66                              56   -0.11 9  173 243 
 PTB  HN ES       1018 35.31                              56   -0.52 9  173 243 
 PTB  HZ I        1018 37.52        66.0 0.34             56            173 243 
 ZAR  HZ EP     C 1018 19.88                              56    0.77 9  200 278 
 ZAR  HE ES   1   1018 42.29                              56    0.53 6  200 278 
 ZAR  HZ I        1018 45.02        27.1 0.72             56            200 278 
 SML  HZ EP   2   1018 20.35                              56    0.76 4  204 327 
 SML  HN ES   1   1018 41.79                              56   -0.83 6  204 327 
 SML  HZ I        1018 47.11        27.6 0.28             56            204 327 
                                                                                
