 2017 1022 1002 18.6 L   6.820 -73.203129.2  RSN  5 0.4 1.0LRSN                1
 GAP=233        1.00       7.2     6.9  8.0  0.2749E+02  0.1462E+02 -0.6787E+01E
 Epicentro: ZAPATOCA - SANTANDER                                               3
 ACTION:UPD 17-11-07 19:35 OP:rebc STATUS:               ID:20171022100218 L   I
 OLDACT:REG 17-10-22 19:39 OP:edw  STATUS:               ID:20171022095741     3
 2017-10-22-0958-00M.COL___399                                                 6
 STAT SP IPHASW D HRMM SECON CODA AMPLIT PERI AZIMU VELO AIN AR TRES W  DIS CAZ7
 BAR2 EZ EP       10 2 35.61                             168   -0.6410 25.3 175 
 BAR2 EZ ES       10 2 50.44                             168    0.3910 25.3 175 
 BAR2 EZ I        10 2 51.52         4.4 0.22            166           25.3 175 
 BRR  HZ EP       10 2 37.68                             152    0.1410 64.5 300 
 BRR  HN ES       10 2 52.03                             152   -0.3210 64.5 300 
 BRR  HZ I        10 2 54.28         5.5 0.28            149           64.5 300 
 RUS  HN ES       10 2 58.62                             139    0.2210  103 173 
 RUS  HZ I        10 3  0.13         1.0 0.34            140            103 173 
 PTB  HZ EP       10 2 43.30                             129   -0.37 9  142 257 
 PTB  HN ES       10 3  3.10                             129   -0.17 9  142 257 
 PTB  HZ I        10 3  7.38         0.7 0.42            128            142 257 
 ZAR  HZ EP       10 2 49.93                             119    0.67 9  197 292 
 ZAR  HN ES       10 3 13.45                             119    0.24 9  197 292 
 ZAR  HZ I        10 3 19.58         1.3 0.38            120            197 292 
                                                                                
