 2013  722 1706 53.9 L   6.764 -73.156156.0  RSN  7 0.5 2.4LRSN                1
 GAP=199        0.88       4.9     5.6  7.3  0.5371E+01  0.4306E+01 -0.7024E+01E
 Epicentro: LOS SANTOS - SANTANDER                                             3
 ACTION:UPD 13-08-12 10:39 OP:ep   STATUS:               ID:20130722170653 L   I
 OLDACT:REG 13-07-22 15:10 OP:mh   STATUS:               ID:20130722165959     3
 2013-07-22-1659-59M.COL___265                                                 6
 STAT SP IPHASW D HRMM SECON CODA AMPLIT PERI AZIMU VELO AIN AR TRES W  DIS CAZ7
 BAR2 SZ EP       17 7 14.75                             173    0.0910 19.2 189 
 BAR2 SZ ES   1   17 7 30.73                             173   -0.15 7 19.2 189 
 BAR2 SZ I        17 7 32.20        11.2 0.36            167           19.2 189 
 BRR  HZ EP   1   17 7 16.54                             154    0.35 7 72.2 302 
 BRR  HN ES   1   17 7 34.04                             154    0.44 7 72.2 302 
 BRR  HN I        17 7 37.04        35.4 0.16            148           72.2 302 
 RUS  HZ EP   1   17 7 18.90                             147    0.52 7 96.7 175 
 RUS  HN ES   1   17 7 37.11                             147   -0.38 7 96.7 175 
 RUS  HN I        17 7 39.04        26.3 0.32            148           96.7 175 
 PTB  HZ EP   1   17 7 21.61                             135    0.08 7  146 260 
 PTB  HN ES       17 7 42.51                             135   -0.60 9  146 260 
 PTB  HN I        17 7 50.15        18.5 0.26            131            146 260 
 ZAR  HZ EP   1   17 7 27.09                             124    0.04 6  205 293 
 ZAR  HE ES   1   17 7 53.62                             124    0.68 6  205 293 
 ZAR  HE I        17 7 59.68        44.4 0.26            123            205 293 
 NOR  HZ EP   1   17 7 29.09                             121   -0.79 6  232 235 
 NOR  HN ES   1   17 7 58.60                             121    0.63 6  232 235 
 NOR  HN I        17 8  7.22        25.7 0.16            120            232 235 
 SML  HZ EP   1   17 7 31.18                             119   -0.25 6  247 336 
 SML  HN ES   1   17 8  0.19                             119   -0.53 6  247 336 
 SML  HN I        17 8  5.96        36.9 0.10            120            247 336 
                                                                                
