 2015  222 1143 15.2 L   6.819 -73.181142.1  RSN 19 0.5 2.5LRSN                1
 GAP= 69        1.03       2.4     3.3  4.6 -0.2003E+01  0.2970E+01  0.1564E+01E
 Epicentro: ZAPATOCA - SANTANDER                                               3
 ACTION:UPD 15-04-30 21:28 OP:nd   STATUS:               ID:20150222114315 L   I
 OLDACT:REG 15-02-22 20:42 OP:fm   STATUS:               ID:20150222113748     3
 2015-02-22-1137-48M.COL___272                                                 6
 STAT SP IPHASW D HRMM SECON CODA AMPLIT PERI AZIMU VELO AIN AR TRES W  DIS CAZ7
 BAR2 EZ EP     D 1143 34.77                             169    0.3010 25.1 180 
 BAR2 EZ ES       1143 49.53                             169    0.0710 25.1 180 
 BAR2 EZ I        1143 51.83        59.8 0.30            170           25.1 180 
 BRR  HZ EP     C 1143 36.63                             153    0.8810 66.8 299 
 BRR  HE ES       1143 52.08                             153    0.3510 66.8 299 
 BRR  HZ I        1143 57.71        46.4 0.14            150           66.8 299 
 PAM  SZ IP     C 1143 37.77                             150    0.6410 78.4  43 
 PAM  SE ES       1143 54.13                             150   -0.0710 78.4  43 
 PAM  SZ I        1143 56.88       100.9 0.46            153           78.4  43 
 RUS  HZ EP   1   1143 38.51                             142   -0.30 7  103 174 
 RUS  HN ES       1143 56.67                             142   -0.5310  103 174 
 RUS  HZ I        1143 58.63        54.4 0.32            145            103 174 
 PTB  HZ EP       1143 40.67                             132   -0.93 9  144 258 
 PTB  HE ES       1144  1.98                             132   -0.18 9  144 258 
 PTB  HZ I        1144  6.21        28.7 0.48            131            144 258 
 OCA  HZ EP       1143 42.98                             129   -0.05 9  158 354 
 OCA  HE ES       1144  4.24                             129   -0.47 9  158 354 
 OCA  HZ I        1144  9.50        40.6 0.52            130            158 354 
 TAM  HZ IP     D 1143 43.19                             129    0.15 9  159 105 
 SPBC HZ EP       1143 43.62                             128    0.23 9  162 217 
 SPBC HE ES       1144  5.12                             128   -0.22 9  162 217 
 SPBC HZ I        1144  8.35        72.3 0.38            129            162 217 
 NOR  HZ EP       1143 50.83                             118    0.28 8  233 233 
 NOR  HE ES       1144 18.11                             118    0.02 8  233 233 
 NOR  HZ I        1144 26.38        30.2 0.56            118            233 233 
 SML  HZ EP       1143 51.10                             117   -0.18 8  240 336 
 SML  HE ES       1144 18.91                             117   -0.48 8  240 336 
 SML  HZ I        1144 23.09        58.5 0.28            118            240 336 
 CHI  HZ EP       1143 52.74                             116   -0.11 8  250 194 
 CHI  HN ES       1144 21.30                             116   -0.89 8  250 194 
 CHI  HZ I        1144 25.77        20.1 0.40            118            250 194 
 ROSC BZ EP       1143 53.64                             116    0.49 8  253 210 
 ROSC BN ES       1144 22.98                             116    0.28 8  253 210 
 ROSC BZ I        1144 28.31        34.7 0.35            117            253 210 
 URE  HN ES       1144 27.01                             113   -0.14 7  279 292 
 GUY2CHZ EP       1143 58.54                             112    0.08 7  299 234 
 GUY2CHE ES       1144 33.11                             112    0.94 7  299 234 
 GUY2CHZ I        1144 40.77        17.3 0.30                           299 234 
 MON  HZ EP   4   1144  1.82                             108   -1.78 0  349 309 
 MON  HN ES   4   1144 39.70                             108   -1.62 0  349 309 
 MON  HZ I        1144 54.37         6.9 0.52            109            349 309 
 SDV  BZ EP   1   1144  4.85                             107   -0.50 5  362  51 
 SDV  BN ES   4   1144 40.84                             107   -3.58 0  362  51 
 SDV  BZ I        1144 44.92         7.5 0.35            109            362  51 
 PRA  HZ EP       1144  8.66                             106    0.03 6  392 209 
 PRA  HE ES       1144 50.14                             106   -0.13 6  392 209 
 PRA  HZ I        1144 56.61        13.3 0.22            107            392 209 
 ORTC HZ EP       1144  8.18                             106   -0.79 6  395 216 
 ORTC HN ES       1144 51.29                             106    0.42 6  395 216 
 ORTC HZ I        1144 56.09        10.5 0.30            107            395 216 
 PAL  HZ EP       1144 10.32                             105    0.30 6  403 239 
 PAL  HE ES       1144 52.45                             105   -0.29 6  403 239 
 PAL  HZ I        1145  2.75         4.8 0.36            106            403 239 
                                                                                
