 2015  322 1455 39.8 L   6.764 -73.172144.5  RSN  4 0.2 1.5LRSN                1
 GAP=144        0.64       6.4     3.9  5.2 -0.1241E+02  0.1863E+01  0.2625E+01E
 Epicentro: LOS SANTOS - SANTANDER                                             3
 ACTION:UPD 15-04-30 16:28 OP:nd   STATUS:               ID:20150322145539 L   I
 OLDACT:REG 15-03-22 20:33 OP:cam  STATUS:               ID:20150322144750     3
 2015-03-22-1447-50M.COL___287                                                 6
 STAT SP IPHASW D HRMM SECON CODA AMPLIT PERI AZIMU VELO AIN AR TRES W  DIS CAZ7
 BAR2 EZ EP       1455 59.33                             172    0.1910 19.0 184 
 BAR2 EZ ES       1456 14.30                             172    0.0310 19.0 184 
 BAR2 EZ I        1456 16.32         4.4 0.44            172           19.0 184 
 BRR  HZ EP       1456  1.15                             152    0.4210 70.8 302 
 BRR  HN ES       1456 17.23                             152    0.1310 70.8 302 
 BRR  HN I        1456 18.83        17.6 0.18            152           70.8 302 
 PAM  SZ EP       1456  2.05                             149   -0.0810 82.3  39 
 PAM  SN ES       1456 19.33                             149   -0.2510 82.3  39 
 PAM  SZ I        1456 21.35         5.9 0.48            152           82.3  39 
 PTB  HZ EP       1456  5.97                             132   -0.32 9  144 260 
 PTB  HN ES       1456 26.81                             132   -0.18 9  144 260 
 PTB  HZ I        1456 31.94         2.9 0.44            133            144 260 
                                                                                
