 2017 1022 1152 16.3 L   6.878 -73.375121.0  RSN  7 0.5 1.5LRSN                1
 GAP=202        1.23       5.7     5.6  8.9  0.1061E+02  0.1586E+02  0.1408E+02E
 Epicentro: SAN VICENTE DE CHUCURI - SANTANDER                                 3
 ACTION:UPD 17-11-07 19:35 OP:rebc STATUS:               ID:20171022115216 L   I
 OLDACT:UP  17-10-22 22:51 OP:edw  STATUS:               ID:20171022114408     3
 OLDACT:REG 17-10-22 19:49 OP:edw  STATUS:               ID:20171022114408     3
 2017-10-22-1148-00M.COL___384                                                 6
 STAT SP IPHASW D HRMM SECON CODA AMPLIT PERI AZIMU VELO AIN AR TRES W  DIS CAZ7
 BAR2 EZ IP     D 1152 33.55                             161    0.1510 38.1 146 
 BAR2 EZ ES       1152 46.60                             161   -0.1610 38.1 146 
 BAR2 EZ I        1152 47.82         7.3 0.26            162           38.1 146 
 BRR  HZ IP     D 1152 33.67                             158    0.3310 45.1 304 
 BRR  HN ES       1152 46.91                             158    0.2610 45.1 304 
 BRR  HZ I        1152 47.74        11.7 0.12            156           45.1 304 
 RUS  HZ EP       1152 38.71                             134   -0.0710  114 164 
 RUS  HN ES       1152 55.84                             134   -0.5010  114 164 
 RUS  HZ I        1152 56.58         1.9 0.36            135            114 164 
 PTB  HZ EP       1152 38.15                             131   -1.0410  125 253 
 PTB  HN ES       1152 56.77                             131   -0.2910  125 253 
 PTB  HZ I        1152 59.76         5.5 0.28            129            125 253 
 SPBC HZ EP       1152 43.12                             124    0.86 9  156 210 
 SPBC HN ES       1153  3.29                             124    0.75 9  156 210 
 SPBC HZ I        1153  7.17         7.2 0.18            124            156 210 
 ZAR  HE ES       1153  6.33                             120    0.05 9  177 293 
 ZAR  HZ I        1153 10.01         6.4 0.26            121            177 293 
 NOR  HZ EP   2   1152 48.67                             114   -0.40 4  220 229 
 NOR  HN ES       1153 14.46                             114   -0.19 8  220 229 
 NOR  HZ I        1153 18.40         3.8 0.46            114            220 229 
 GUY2CHN ES   4   1153 27.75                             108   -1.25 0  286 230 
                                                                                
