 2015  722 1130  6.8 L   6.844 -72.992144.4  RSN  4 0.4 1.8LRSN                1
 GAP=230        0.89       5.9     8.7  9.8  0.5774E+01  0.3370E+02 -0.1681E+02E
 Epicentro: CEPITA - SANTANDER                                                 3
 ACTION:UPD 15-09-08 21:50 OP:cam  STATUS:               ID:20150722113006 L   I
 OLDACT:REG 15-07-22 20:58 OP:ak   STATUS:               ID:20150722112748     3
 2015-07-22-1127-48M.COL___337                                                 6
 STAT SP IPHASW D HRMM SECON CODA AMPLIT PERI AZIMU VELO AIN AR TRES W  DIS CAZ7
 BAR2 EZ EP       1130 27.08                             166    0.5110 34.9 217 
 BAR2 EZ ES       1130 41.67                             166   -0.3110 34.9 217 
 BAR2 EZ I        1130 43.05         9.4 0.18            167           34.9 217 
 OCA  HN ES       1130 56.76                             130    0.04 9  158 347 
 OCA  HZ I        1131  1.17         9.2 0.18            130            158 347 
 ZAR  HZ EP       1130 40.00                             120   -0.65 8  218 289 
 ZAR  HN ES       1131  7.44                             120    0.39 8  218 289 
 ZAR  HZ I        1131 11.30         4.8 0.30            121            218 289 
 SML  HZ EP   2   1130 43.75                             117    0.03 4  247 331 
 SML  HE ES   2   1131 12.11                             117   -0.41 4  247 331 
                                                                                
