 2017 1122 1050 12.2 L   6.814 -73.163137.6  RSN  7 0.5 1.4LRSN                1
 GAP=134        1.14       4.8     4.9  7.9 -0.4809E+01  0.1634E+02 -0.2541E+01E
 Epicentro: LOS SANTOS - SANTANDER                                             3
 ACTION:UPD 17-12-12 19:58 OP:rebc STATUS:               ID:20171122105012 L   I
 OLDACT:REG 17-11-22 21:15 OP:dhb  STATUS:               ID:20171122104740     3
 2017-11-22-1048-00M.COL___474                                                 6
 STAT SP IPHASW D HRMM SECON CODA AMPLIT PERI AZIMU VELO AIN AR TRES W  DIS CAZ7
 BAR2 EZ EP       1050 31.70                             169    0.8610 24.6 185 
 BAR2 EZ ES       1050 45.40                             169   -0.0010 24.6 185 
 BAR2 EZ I        1050 47.06         5.3 0.22            168           24.6 185 
 PAM  EZ EP       1050 33.00                             149   -0.5210 77.5  41 
 PAM  EZ ES       1050 49.91                             149   -0.2610 77.5  41 
 PAM  EZ I        1050 51.95         4.1 0.50            154           77.5  41 
 RUS  HZ EP       1050 35.22                             142   -0.0310  102 175 
 RUS  HN ES       1050 53.44                             142    0.1910  102 175 
 RUS  HZ I        1050 58.47         2.4 0.32            143            102 175 
 PTB  HZ EP       1050 38.34                             130    0.01 9  146 258 
 PTB  HN ES       1050 58.39                             130   -0.35 9  146 258 
 PTB  HZ I        1051  1.00         3.6 0.10            131            146 258 
 SPBC HZ EP       1050 39.66                             127   -0.39 9  163 218 
 SPBC HN ES       1051  2.18                             127    0.38 9  163 218 
 SPBC HZ I        1051  5.55         2.5 0.13            129            163 218 
 ZAR  HZ EP       1050 44.78                             121    0.94 9  202 292 
 ZAR  HE ES       1051  8.64                             121    0.09 9  202 292 
 ZAR  HZ I        1051 14.74         4.6 0.56            123            202 292 
 NOR  HZ EP       1050 46.88                             117   -0.48 8  234 234 
 NOR  HN ES       1051 14.24                             117   -0.57 8  234 234 
 NOR  HZ I        1051 21.71         1.6 0.20            118            234 234 
                                                                                
