 2013  222 1356 54.8 L   6.664 -73.194153.4  RSN  4 0.1 1.5LRSN                1
 GAP=220        0.39       3.4     3.0  3.3  0.3968E+01  0.1416E+01  0.8285E+00E
 Epicentro: VILLANUEVA - SANTANDER                                             3
 ACTION:UPD 13-03-12 09:34 OP:ep   STATUS:               ID:20130222135654 L   I
 2013-02-22-1350-00M.COL___238                                                 6
 STAT SP IPHASW D HRMM SECON CODA AMPLIT PERI AZIMU VELO AIN AR TRES W  DIS CAZ7
 BAR2 SZ EP       1357 14.99                             177   -0.1510 8.02 170 
 BAR2 SZ ES       1357 30.95                             177   -0.0610 8.02 170 
 BRR  HZ EP       1357 17.21                             152    0.2210 75.3 311 
 BRR  HN ES       1357 34.31                             152    0.0010 75.3 311 
 BRR  HN I        1357 37.06         6.8 0.38            154           75.3 311 
 RUS  HZ EP   1   1357 18.25                             149   -0.10 7 86.2 172 
 RUS  HN ES   1   1357 36.91                             149    0.19 7 86.2 172 
 RUS  HN I        1357 38.58         3.7 0.28            151           86.2 172 
 PTB  HZ EP       1357 21.70                             135   -0.03 9  140 264 
 PTB  HN ES       1357 42.70                             135   -0.04 9  140 264 
 PTB  HN I        1357 42.96         4.3 0.32            137            140 264 
                                                                                
