 2016  922 1659 11.2 L   6.797 -73.151147.5  RSN 10 0.4 2.4LRSN                1
 GAP=136        0.93       3.5     3.8  5.6 -0.1152E+01  0.4269E+01  0.4856E+01E
 Epicentro: LOS SANTOS - SANTANDER                                             3
 ACTION:UPD 17-08-17 21:15 OP:lp   STATUS:               ID:20160922165911 L   I
 OLDACT:REG 16-09-22 22:48 OP:edw  STATUS:               ID:20160922165743     3
 2016-09-22-1658-00M.COL___366                                                 6
 STAT SP IPHASW D HRMM SECON CODA AMPLIT PERI AZIMU VELO AIN AR TRES W  DIS CAZ7
 BAR2 EZ EP       1659 30.99                             171   -0.0710 22.9 189 
 BAR2 EZ ES       1659 46.13                             171   -0.4010 22.9 189 
 BAR2 EZ I        1659 47.49       120.9 0.30            170           22.9 189 
 BRR  HZ EP       1659 32.84                             153    0.3010 70.8 299 
 BRR  HE ES       1659 50.07                             153    0.9010 70.8 299 
 BRR  HZ I        1659 54.00        33.6 0.34            152           70.8 299 
 PAM  EZ EP     C 1659 33.82                             151    0.1610 78.0  40 
 PAM  EE ES       1659 51.00                             151   -0.1610 78.0  40 
 PAM  EZ I        1659 53.33        27.8 0.32            154           78.0  40 
 RUS  HZ EP     D 1659 34.94                             144   -0.1910  100 176 
 RUS  HN ES       1659 53.67                             144   -0.1010  100 176 
 RUS  HZ I        1659 54.91        23.2 0.20            146            100 176 
 PTB  HZ EP       1659 37.78                             133   -0.49 9  147 259 
 PTB  HN ES       1659 58.96                             133   -0.42 9  147 259 
 PTB  HZ I        17 0  0.70        23.3 0.24            133            147 259 
 SPBC HZ EP       1659 40.02                             130    0.22 9  163 219 
 SPBC HE ES       17 0  2.42                             130    0.33 9  163 219 
 SPBC HZ I        17 0  6.60        55.7 0.40            130            163 219 
 ZAR  HZ EP   4   1659 45.67                             123    1.93 0  204 292 
 ZAR  HE ES       17 0  8.53                             123   -0.57 9  204 292 
 ZAR  HZ I        17 0 14.93        17.9 0.26            123            204 292 
 NOR  HZ EP       1659 47.13                             119    0.15 8  234 234 
 NOR  HE ES       17 0 15.04                             119    0.17 8  234 234 
 NOR  HZ I        17 0 19.56        17.9 0.18            120            234 234 
 CHI  HZ EP       1659 49.16                             117    0.19 8  248 195 
 CHI  HN ES       17 0 18.37                             117   -0.04 8  248 195 
 CHI  HZ I        17 0 21.87        14.3 0.52            119            248 195 
 GUY2CHZ EP   4   1659 56.00                             113    1.16 0  301 235 
 GUY2CHN ES   4   17 0 30.16                             113    1.31 0  301 235 
 GUY2CHZ I        17 0 34.09        10.3 0.28                           301 235 
                                                                                
