 2016  222 1603 26.8 L   6.527 -73.792 92.0  RSN  7 0.4 1.5LRSN                1
 GAP=142        1.01       4.2     3.1  7.4 -0.5716E+01  0.3333E+01 -0.1817E+01E
 Epicentro: SANTA HELENA DEL OPON - SANTANDER                                  3
 ACTION:UPD 16-03-04 21:28 OP:rebc STATUS:               ID:20160222160326 L   I
 OLDACT:REG 16-02-22 20:35 OP:drio STATUS:               ID:20160222155750     3
 2016-02-22-1557-50M.COL___328                                                 6
 STAT SP IPHASW D HRMM SECON CODA AMPLIT PERI AZIMU VELO AIN AR TRES W  DIS CAZ7
 BAR2 EZ EP       16 3 42.82                             141    0.2510 67.8  84 
 BAR2 EZ ES       16 3 55.35                             141    0.5010 67.8  84 
 BAR2 EZ I        16 3 56.33         7.7 0.30            149           67.8  84 
 PTB  HZ EP       16 3 42.42                             138   -0.2910 73.5 271 
 PTB  HN ES       16 3 54.96                             138   -0.1510 73.5 271 
 PTB  HZ I        16 4  1.95         7.8 0.20            140           73.5 271 
 SPBC HZ EP       16 3 44.69                             129   -0.6510  102 198 
 SPBC HE ES       16 3 59.86                             129    0.0810  102 198 
 SPBC HZ I        16 4  0.90        10.8 0.22            134            102 198 
 RUS  HZ EP       16 3 45.60                             128   -0.6310  105 132 
 RUS  HN ES       16 4  1.40                             128    0.0410  105 132 
 RUS  HZ I        16 4  2.32         4.4 0.26            136            105 132 
 PAM  EZ EP       16 3 51.09                             117    0.14 9  151  53 
 PAM  EN ES       16 4  9.52                             117   -0.25 9  151  53 
 PAM  EZ I        16 4 11.15         6.8 0.16            122            151  53 
 NOR  HZ EP       16 3 51.90                             116    0.47 9  160 228 
 NOR  HN ES       16 4 10.73                             116    0.10 9  160 228 
 NOR  HZ I        16 4 16.99         6.6 0.14            119            160 228 
 GUY2CHZ EP       16 4  0.25                             108    0.68 8  226 230 
 GUY2CHN ES   4   16 4 28.39                             108    3.27 0  226 230 
 GUY2CHZ I        16 4 32.59         2.8 0.50                           226 230 
                                                                                
