 2015  722 1135 17.5 L   6.876 -73.101138.0  RSN  4 0.5 1.6LRSN                1
 GAP=155        1.08       9.0     6.9 10.8 -0.3789E+01  0.3706E+02 -0.2723E+02E
 Epicentro: LOS SANTOS - SANTANDER                                             3
 ACTION:UPD 15-09-08 21:50 OP:cam  STATUS:               ID:20150722113517 L   I
 OLDACT:UP  15-07-22 22:08 OP:ak   STATUS:               ID:20150722112748     3
 OLDACT:REG 15-07-22 20:58 OP:ak   STATUS:               ID:20150722112748     3
 2015-07-22-1127-48M.COL___337                                                 6
 STAT SP IPHASW D HRMM SECON CODA AMPLIT PERI AZIMU VELO AIN AR TRES W  DIS CAZ7
 BAR2 EZ EP       1135 35.98                             166   -0.4610 32.6 196 
 BAR2 EZ ES       1135 51.37                             166    0.1610 32.6 196 
 BAR2 EZ I        1135 51.85         8.8 0.26            166           32.6 196 
 PAM  EZ EP       1135 38.03                             153   -0.3010 67.8  41 
 PAM  EN ES       1135 54.92                             153    0.3410 67.8  41 
 RUS  HE ES   4   1136  6.04                             140    6.48 0  109 179 
 ZAR  HZ EP       1135 50.49                             120    0.86 8  206 289 
 ZAR  HN ES       1136 14.42                             120   -0.27 8  206 289 
 ZAR  HZ I        1136 16.22         3.6 0.20            121            206 289 
 SML  HN ES   2   1136 19.91                             116   -0.98 4  238 333 
                                                                                
