 2011  722 1645  8.4 L   6.899 -72.851188.6  RSN  4 0.3 1.8LRSN                1
 GAP=269        0.58       7.3     8.8  8.3  0.2871E+01  0.7711E+01  0.3999E+01E
 Epicentro: GUACA - SANTANDER                                                  3
 ACTION:UPD 12-07-25 14:02 OP:epov STATUS:               ID:20110722164508 L   I
 2011-07-22-1644-07S.COL___143                                                 6
 STAT SP IPHASW D HRMM SECON CODA AMPLIT PERI AZIMU VELO AIN AR TRES W  DIS CAZ7
 BAR2 SZ ES   1   1645 53.21                             165   -0.42 7 49.9 227 
 BAR2 SZ I        1645 56.20         8.2 0.27                          49.9 227 
 BRR  HZ EP   1   1645 35.66                             151    0.02 7 97.9 284 
 BRR  HZ I        1645 36.17        22.8 0.15                          97.9 284 
 BRR  HE ES   1   1645 57.15                             151    0.22 7 97.9 284 
 RUS  HZ EP   2   1645 37.29                             148   -0.07 5  114 193 
 RUS  HN ES   2   1646  0.66                             148    0.68 5  114 193 
 RUS  HZ I        1646  3.12         3.3 0.27                           114 193 
 NOR  SN ES   1   1646 22.73                             123   -0.13 6  268 237 
                                                                                
