 2011  722 1819 14.6 L   6.753 -73.155143.5  RSN  5 0.3 1.7LRSN                1
 GAP=210        0.58       5.1     6.1  6.8  0.2109E+01  0.1563E+02  0.6879E+01E
 Epicentro: LOS SANTOS - SANTANDER                                             3
 ACTION:UPD 12-07-25 14:02 OP:epov STATUS:               ID:20110722181914 L   I
 2011-07-22-1815-58S.COL___140                                                 6
 STAT SP IPHASW D HRMM SECON CODA AMPLIT PERI AZIMU VELO AIN AR TRES W  DIS CAZ7
 BAR2 SZ EP   1   1819 33.52                             172   -0.31 7 18.1 190 
 BAR2 SZ ES   1   1819 48.55                             172   -0.30 7 18.1 190 
 BAR2 SZ I        1819 51.40         7.6 0.27                          18.1 190 
 BTL  SZ EP   1   1819 33.95                             171    0.05 7 22.1 326 
 BRR  HZ I        1819 37.62        28.6 0.15                          73.0 302 
 BRR  HN ES   1   1819 52.22                             151    0.26 7 73.0 302 
 RUS  HZ I        1819 38.24         4.9 0.30                          95.5 175 
 RUS  HN ES   1   1819 56.13                             145    0.33 7 95.5 175 
 NOR  SZ EP   1   1819 50.06                             118    0.30 6  231 235 
 NOR  SE ES   1   1820 16.88                             118   -0.33 6  231 235 
                                                                                
