 2011  822 1832 58.3 L   6.765 -73.111146.0  RSN  5 0.2 2.0LRSN                1
 GAP=186        0.54       3.8     5.4  5.6  0.1718E+01  0.1132E+01 -0.4580E+01E
 Epicentro: LOS SANTOS - SANTANDER                                             3
 ACTION:UPD 12-07-13 15:53 OP:ep   STATUS:               ID:20110822183258 L   I
 2011-08-22-1831-43S.COL___158                                                 6
 STAT SP IPHASW D HRMM SECON CODA AMPLIT PERI AZIMU VELO AIN AR TRES W  DIS CAZ7
 BAR2 SZ EP   1   1833 17.97                             172    0.03 7 20.6 202 
 BAR2 SZ ES   1   1833 32.82                             172   -0.42 7 20.6 202 
 BAR2 SZ I        1833 34.46        31.9 0.21                          20.6 202 
 BRR  HZ IP     C 1833 19.90                             151    0.0910 76.4 300 
 BRR  HZ I        1833 20.17        26.3 0.18                          76.4 300 
 BRR  HN ES   1   1833 36.89                             151    0.33 7 76.4 300 
 RUS  HZ EP   1   1833 22.03                             145    0.21 7 96.5 178 
 RUS  HN ES   1   1833 40.26                             145    0.12 7 96.5 178 
 RUS  HZ I        1833 41.64         8.7 0.20                          96.5 178 
 OCA  SZ EP   1   1833 26.77                             129   -0.31 7  165 352 
 NOR  SN ES   1   1834  1.85                             118   -0.27 6  236 236 
                                                                                
