 2017  222 1146 55.3 L   6.761 -73.196149.5  RSN  4 0.3 1.0LRSN                1
 GAP=229        0.84       8.3     6.3  8.0  0.1925E+02  0.5123E+01 -0.1976E+02E
 Epicentro: ZAPATOCA - SANTANDER                                               3
 ACTION:UPD 17-05-24 15:39 OP:jn   STATUS:               ID:20170222114655 L   I
 OLDACT:UP  17-02-22 22:16 OP:edw  STATUS:               ID:20170222113742d    3
 OLDACT:DUP 17-02-22 22:14 OP:edw  STATUS:               ID:20170222113742d    3
 OLDACT:UP  17-02-22 22:12 OP:edw  STATUS:               ID:20170222113741     3
 OLDACT:REG 17-02-22 19:42 OP:edw  STATUS:               ID:20170222113741     3
 2017-02-22-1138-00M.COL___370                                                 6
 STAT SP IPHASW D HRMM SECON CODA AMPLIT PERI AZIMU VELO AIN AR TRES W  DIS CAZ7
 BAR2 EZ EP       1147 14.84                             173   -0.4710 18.7 175 
 BAR2 EZ ES       1147 30.92                             173    0.0110 18.7 175 
 BAR2 EZ I        1147 31.16         2.3 0.20            171           18.7 175 
 BRR  HZ EP       1147 17.09                             154    0.3610 68.7 304 
 RUS  HZ EP       1147 18.93                             146   -0.2410 96.8 173 
 RUS  HN ES       1147 38.08                             146    0.3010 96.8 173 
 PTB  HZ EP       1147 22.38                             134    0.35 9  141 260 
 PTB  HN ES       1147 42.58                             134   -0.30 9  141 260 
 PTB  HZ I        1147 45.74         1.3 0.56            133            141 260 
                                                                                
