 2017 1022 1511 32.0 L   6.792 -73.178151.2  RSN  4 0.2 1.4LRSN                1
 GAP=233        0.66       5.4     5.1  5.3  0.1347E+02  0.1803E+01  0.1776E+00E
 Epicentro: LOS SANTOS - SANTANDER                                             3
 ACTION:UPD 17-11-07 19:35 OP:rebc STATUS:               ID:20171022151132 L   I
 OLDACT:REG 17-10-22 21:20 OP:edw  STATUS:               ID:20171022150103     3
 2017-10-22-1508-00M.COL___435                                                 6
 STAT SP IPHASW D HRMM SECON CODA AMPLIT PERI AZIMU VELO AIN AR TRES W  DIS CAZ7
 BAR2 EZ EP       1511 52.03                             171   -0.2110 22.1 181 
 BAR2 EZ ES       1512  7.66                             171   -0.3910 22.1 181 
 BRR  HZ EP       1511 53.76                             154    0.1810 68.6 301 
 BRR  HN ES       1512 10.72                             154    0.2910 68.6 301 
 BRR  HZ I        1512 14.97         6.9 0.60            154           68.6 301 
 RUS  HZ EP       1511 56.40                             145    0.1710  100 174 
 RUS  HE ES       1512 15.38                             145    0.2310  100 174 
 RUS  HZ I        1512 16.65         2.9 0.30            148            100 174 
 PTB  HZ EP       1511 58.83                             134   -0.25 9  144 259 
 PTB  HE ES       1512 20.15                             134   -0.06 9  144 259 
 PTB  HZ I        1512 22.44         2.5 0.44            135            144 259 
                                                                                
