 2011 1022 1858 58.1 L   6.780 -73.111141.5  RSN  4 0.1 1.5LRSN                1
 GAP=142        0.32       6.4     3.6  6.1 -0.9439E+01 -0.8082E+01  0.2476E+02E
 Epicentro: LOS SANTOS - SANTANDER                                             3
 *BRR-PAM-RUS                                                                  3
 ACTION:UPD 12-07-13 16:05 OP:ep   STATUS:               ID:20111022185858 L   I
 2011-10-22-1856-44S.COL___171                                                 6
 STAT SP IPHASW D HRMM SECON CODA AMPLIT PERI AZIMU VELO AIN AR TRES W  DIS CAZ7
 GIR2 SZ EP   2   1859 17.16                             166   -0.23 5 34.3 345 
 BRR  HZ EP   1   1859 19.19                             150    0.10 7 75.6 299 
 BRR  HZ I        1859 23.70        18.0 0.33                          75.6 299 
 BRR  HN ES   1   1859 35.40                             150   -0.03 7 75.6 299 
 PAM  SZ EP       1859 19.85                             150   -0.0110 76.7  36 
 PAM  SN ES   1   1859 36.84                             150    0.04 7 76.7  36 
 RUS  HZ EP   2   1859 21.32                             144    0.02 5 98.2 178 
 RUS  HZ I        1859 40.88         1.8 0.19                          98.2 178 
                                                                                
