 2016  922 1237  1.5 L   6.750 -73.211150.0  RSN  5 0.1 1.3LRSN                1
 GAP=224        0.51       4.9     3.8  3.4  0.1292E+02 -0.1807E+00 -0.3231E+01E
 Epicentro: VILLANUEVA - SANTANDER                                             3
 ACTION:UPD 17-08-17 21:15 OP:lp   STATUS:               ID:20160922123701 L   I
 OLDACT:UP  16-09-23 01:00 OP:edw  STATUS:               ID:20160922122731     3
 OLDACT:REG 16-09-22 22:07 OP:edw  STATUS:               ID:20160922122731     3
 2016-09-22-1228-00M.COL___369                                                 6
 STAT SP IPHASW D HRMM SECON CODA AMPLIT PERI AZIMU VELO AIN AR TRES W  DIS CAZ7
 BAR2 EZ EP       1237 21.43                             173   -0.1110 17.7 170 
 BAR2 EZ ES       1237 37.36                             173    0.1810 17.7 170 
 BAR2 EZ I        1237 37.68         5.3 0.10            166           17.7 170 
 BRR  HZ EP   9   1237 23.42                             155    0.48 0 68.0 306 
 BRR  HN ES       1237 40.57                             155    0.4310 68.0 306 
 RUS  HZ EP       1237 25.38                             147    0.0410 95.8 172 
 RUS  HZ I        1237 40.82         0.9 0.18            138           95.8 172 
 RUS  HN ES       1237 43.89                             147   -0.0510 95.8 172 
 PTB  HZ EP       1237 28.21                             135    0.10 9  140 260 
 PTB  HE ES       1237 48.84                             135   -0.02 9  140 260 
 PTB  HZ I        1237 50.60         2.3 0.22            130            140 260 
 ZAR  HZ EP       1237 33.71                             124   -0.07 9  200 294 
 ZAR  HN ES       1237 58.82                             124   -0.13 9  200 294 
 ZAR  HZ I        1238  2.40         3.6 0.10            120            200 294 
                                                                                
