 2010 1022 1426 50.7 L   6.784 -73.069143.8  RSN  6 0.5 1.8LRSN                1
 GAP=167        0.97       6.2    14.8 12.1 -0.7263E+01 -0.4512E+02 -0.3892E+01E
 Epicentro: LOS SANTOS - SANTANDER                                             3
 ACTION:UP  11-02-18 11:11 OP:tino STATUS:               ID:20101022142650 L   I
 2010-10-22-1424-36S.COL___125                                                 6
 STAT SP IPHASW D HRMM SECON CODA AMPLIT PERI AZIMU VELO SNR AR TRES W  DIS CAZ7
 BAR2 SZ EP   1   1427  9.96                             170    -0.1 7   25 211 
 BAR2 SZ ES   2   1427 24.95                             170    -0.3 5   25 211 
 BAR2 SZ I        1427 26.45        17.1 0.23                            25 211 
 BRR  HZ IP     D 1427 11.81                             150    -0.310   80 297 
 BRR  HN ES   2   1427 29.10                             150     0.3 5   80 297 
 BRR  HZ I        1427 32.63        13.5 0.21                            80 297 
 RUS  HZ EP   1   1427 13.91                             144    -0.2 7   99 181 
 RUS  HN ES   2   1427 32.66                             144     0.3 5   99 181 
 RUS  HZ I        1427 34.29         7.3 0.45                            99 181 
 GUE  SZ EP   1   1427 16.23                             139     1.0 7  117   8 
 GRA  SZ EP   1   1427 15.32                             137    -0.4 7  125  13 
 CHI  HZ EP   1   1427 28.14                             117    -0.2 6  249 197 
 CHI  HZ I        1427 28.87         4.9 0.37                           249 197 
 CHI  HN ES   2   1427 58.58                             117     0.9 4  249 197 
                                                                                
