 2012  222 1113 56.6 L   6.794 -73.103143.2  RSN 11 0.4 1.9LRSN                1
 GAP=187        0.56       3.9     5.0  5.6 -0.3435E+01  0.6194E+01  0.5358E+01E
 ACTION:UP  12-03-07 16:33 OP:epov STATUS:               ID:20120222111356 L   I
 2012-02-22-1110-00M.COL___191                                                 6
 STAT SP IPHASW D HRMM SECON CODA AMPLIT PERI AZIMU VELO AIN AR TRES W  DIS CAZ7
 BAR2 SZ EP   1   1114 15.92                             170    0.02 7 23.9 201 
 BAR2 SZ ES   2   1114 30.76                             170   -0.22 5 23.9 201 
 BAR2 SZ I        1114 32.07        14.5 0.25                          23.9 201 
 GIR2 SZ EP   1   1114 15.92                             166   -0.06 7 33.1 342 
 GIR2 SZ ES   2   1114 31.55                             166    0.42 5 33.1 342 
 BRR  HZ EP   1   1114 17.58                             151   -0.12 7 75.7 297 
 BRR  HE ES   2   1114 34.71                             151    0.52 5 75.7 297 
 BRR  HZ I        1114 38.30        19.7 0.17                          75.7 297 
 RUS  HN ES   2   1114 38.41                             144    0.13 5 99.7 179 
 PTB  HZ EP   2   1114 22.51                             131   -1.23 5  152 259 
 PTB  HE ES   2   1114 44.22                             131   -0.71 5  152 259 
 OCA  SZ EP   2   1114 24.92                             129    0.12 5  162 352 
 NOR  SZ EP   2   1114 33.00                             118    0.48 4  238 235 
 NOR  SE ES   2   1115  0.90                             118    0.34 4  238 235 
 CHI  HZ EP   1   1114 34.32                             117    0.13 6  249 196 
 CHI  HN ES   2   1115  2.95                             117   -0.58 4  249 196 
 CHI  HZ I        1115 10.16         3.7 0.36                           249 196 
 HEL  HZ EP   2   1114 37.51                             114    0.37 4  276 256 
 HEL  HN ES   2   1115  9.04                             114    0.26 4  276 256 
 HEL  HZ I        1115 16.30         5.2 0.53                           276 256 
 RREF HN ES   2   1115 19.45                             110    0.31 3  325 230 
 PRA  HZ EP   2   1114 50.60                             106    0.40 3  394 210 
 PRA  HN ES   2   1115 32.27                             106    0.23 3  394 210 
                                                                                
