 2012  222 1218  1.0 L   6.642 -73.130149.9  RSN  4 0.3 1.6LRSN                1
 GAP=234        0.48      10.7     6.6  7.8 -0.4786E+01  0.3491E+01  0.2802E+02E
 ACTION:UP  12-03-07 16:33 OP:epov STATUS:               ID:20120222121801 L   I
 2012-02-22-1210-00M.COL___191                                                 6
 STAT SP IPHASW D HRMM SECON CODA AMPLIT PERI AZIMU VELO AIN AR TRES W  DIS CAZ7
 BAR2 SZ EP   1   1218 20.98                             177    0.10 7 8.02 226 
 BAR2 SZ ES   2   1218 36.59                             177    0.17 5 8.02 226 
 BAR2 SZ I        1218 37.46         5.6 0.25                          8.02 226 
 GIR2 SZ EP   2   1218 21.44                             161   -0.26 5 48.7 352 
 GIR2 SZ ES   2   1218 37.37                             161   -0.50 5 48.7 352 
 BRR  HZ EP   2   1218 23.34                             150    0.14 5 82.3 309 
 BRR  HZ I        1218 26.65        11.3 0.20                          82.3 309 
 BRR  HN ES   2   1218 41.10                             150    0.55 5 82.3 309 
 PTB  HZ EP   2   1218 28.24                             133    0.03 5  147 266 
 PTB  HN ES   2   1218 49.08                             133   -0.38 5  147 266 
                                                                                
