 2017 1022 1400 31.3 L   6.792 -73.161149.5  RSN 11 0.4 1.9LRSN                1
 GAP=211        0.88       3.9     3.7  5.1  0.5779E+01  0.2799E+01  0.5329E+01E
 Epicentro: LOS SANTOS - SANTANDER                                             3
 ACTION:UPD 17-11-07 19:35 OP:rebc STATUS:               ID:20171022140031 L   I
 OLDACT:UP  17-10-23 00:29 OP:edw  STATUS:               ID:20171022135744     3
 OLDACT:UP  17-10-23 00:29 OP:edw  STATUS:               ID:20171022135744     3
 OLDACT:REG 17-10-22 20:05 OP:edw  STATUS:               ID:20171022135744     3
 2017-10-22-1358-00M.COL___418                                                 6
 STAT SP IPHASW D HRMM SECON CODA AMPLIT PERI AZIMU VELO AIN AR TRES W  DIS CAZ7
 BAR2 EZ IP     C 14 0 51.05                             171   -0.3310 22.2 186 
 BAR2 EZ ES       14 1  6.91                             171   -0.1210 22.2 186 
 BAR2 EZ I        14 1  8.68        16.8 0.18            165           22.2 186 
 BRR  HZ EP       14 0 52.92                             154    0.1010 70.1 300 
 BRR  HN ES       14 1 10.28                             154    0.6910 70.1 300 
 BRR  HZ I        14 1 12.54        13.1 0.24            152           70.1 300 
 RUS  HZ EP       14 0 55.48                             145    0.0910 99.8 175 
 RUS  HN ES       14 1 13.80                             145   -0.3710 99.8 175 
 RUS  HZ I        14 1 15.27         7.1 0.44            143           99.8 175 
 PTB  HZ EP       14 0 57.96                             133   -0.47 9  146 259 
 PTB  HN ES       14 1 19.15                             133   -0.43 9  146 259 
 PTB  HZ I        14 1 24.94         9.8 0.20            132            146 259 
 SPBC HZ EP       14 1  0.01                             130    0.06 9  161 219 
 SPBC HN ES       14 1 22.32                             130    0.05 9  161 219 
 SPBC HZ I        14 1 29.18        19.4 0.40            129            161 219 
 YPLC HZ EP       14 1  1.20                             127   -0.20 9  177 151 
 YPLC HE ES       14 1 25.39                             127    0.53 9  177 151 
 YPLC HZ I        14 1 32.60         5.3 0.26            128            177 151 
 ZAR  HZ EP   4   14 1  6.18                             123    2.29 0  203 293 
 ZAR  HN ES       14 1 29.08                             123   -0.21 9  203 293 
 ZAR  HZ I        14 1 35.64        10.4 0.40            124            203 293 
 NOR  HZ EP       14 1  7.14                             120    0.07 8  233 234 
 NOR  HN ES       14 1 35.55                             120    0.60 8  233 234 
 NOR  HZ I        14 1 42.19         6.6 0.26            119            233 234 
 CHI  HZ EP       14 1  9.11                             118    0.02 8  247 195 
 CHI  HE ES   1   14 1 38.04                             118   -0.51 6  247 195 
 CHI  HZ I        14 1 42.29         3.8 0.30            118            247 195 
 GUY2CHZ EP   4   14 1 17.64                             113    2.75 0  299 235 
 GUY2CHN ES   4   14 1 54.11                             113    5.24 0  299 235 
 GUY2CHZ I        14 1 57.50         6.0 0.30                           299 235 
 PRA  HZ EP       14 1 25.55                             107    0.76 6  390 209 
 PRA  HE ES   1   14 2  6.34                             107   -0.15 4  390 209 
 PRA  HZ I        14 2 15.48         3.9 0.52            108            390 209 
 SJC  HZ EP   4   14 1 25.28                             106   -1.71 0  409 327 
 SJC  HN ES   4   14 2  7.63                             106   -2.77 0  409 327 
                                                                                
