 2013  422 1004 23.0 L   6.816 -73.183148.2  RSN 14 0.4 2.2LRSN                1
 GAP=107        0.82       3.2     4.3  4.9 -0.4584E+00  0.1093E+01  0.8194E+00E
 Epicentro: ZAPATOCA - SANTANDER                                               3
 ACTION:UPD 13-05-22 14:40 OP:EP   STATUS:               ID:20130422100423 L   I
 2013-04-22-1000-00M.COL___250                                                 6
 STAT SP IPHASW D HRMM SECON CODA AMPLIT PERI AZIMU VELO AIN AR TRES W  DIS CAZ7
 BAR2 SZ IP     D 10 4 43.00                             170    0.0810 24.7 180 
 BAR2 SZ ES   1   10 4 58.06                             170   -0.43 7 24.7 180 
 BAR2 SZ I        10 4 58.93        33.6 0.28            164           24.7 180 
 GIR2 SZ EP       10 4 42.94                             168    0.0610 29.1 358 
 GIR2 SZ ES   1   10 4 58.75                             168    0.34 7 29.1 358 
 GIR2 SZ I        10 4 59.81        40.2 0.30            164           29.1 358 
 BRR  HZ IP     D 10 4 44.82                             154    0.6810 66.7 299 
 BRR  HN ES   1   10 5  1.29                             154    0.63 7 66.7 299 
 BRR  HZ I        10 5  4.83        38.6 0.26            147           66.7 299 
 RUS  HZ EP     C 10 4 47.04                             144   -0.0710  103 174 
 RUS  HN ES   1   10 5  5.36                             144   -0.59 7  103 174 
 RUS  HZ I        10 5  7.40         5.2 0.30            143            103 174 
 PTB  HZ EP     C 10 4 49.50                             133   -0.31 9  144 258 
 PTB  HN ES   1   10 5 10.44                             133   -0.31 7  144 258 
 PTB  HZ I        10 5 16.17        17.9 0.22            128            144 258 
 OCA  HZ EP       10 4 51.05                             131   -0.22 9  158 355 
 OCA  HN ES   1   10 5 13.21                             131   -0.13 7  158 355 
 OCA  HZ I        10 5 17.64        20.3 0.20            131            158 355 
 TAM  HZ IP     C 10 4 51.45                             130    0.20 9  160 105 
 NOR  HZ EP       10 4 58.41                             119   -0.19 8  232 234 
 NOR  HE ES   2   10 5 27.06                             119    0.68 4  232 234 
 NOR  HZ I        10 5 35.09         7.6 0.16            117            232 234 
 SML  HZ EP       10 4 59.23                             118   -0.15 8  240 336 
 SML  HN ES   2   10 5 26.58                             118   -1.20 4  240 336 
 SML  HZ I        10 5 31.16        18.3 0.26            118            240 336 
 ROSC BZ EP   4   10 5  3.73                             117    2.57 0  252 210 
 ROSC BN ES   4   10 5 33.02                             117    2.07 0  252 210 
 ROSC BZ I        10 5 38.33        16.2 0.35            116            252 210 
 HEL  HZ EP   4   10 5  4.79                             116    1.87 0  269 255 
 HEL  HN ES   4   10 5 37.58                             116    3.51 0  269 255 
 HEL  HZ I        10 5 43.16         6.9 0.34            113            269 255 
 URE  HZ EP   4   10 5  1.44                             114   -2.22 0  279 292 
 URE  HN ES   4   10 5 33.77                             114   -1.63 0  279 292 
 URE  HZ I        10 5 43.16        12.4 0.26            113            279 292 
 PRA  HZ EP       10 5 16.86                             107    0.34 6  392 209 
 PRA  HN ES   1   10 5 58.11                             107   -0.18 4  392 209 
 PRA  HZ I        10 6  4.46         6.4 0.28            106            392 209 
 SJC  HZ EP   4   10 5 16.86                             106   -1.32 0  406 327 
 SJC  HN ES   4   10 5 55.07                             106   -6.17 0  406 327 
 SJC  HZ I        10 6  2.51         3.1 0.44            106            406 327 
                                                                                
