 2016  522 1857 30.7 L   6.793 -73.143150.6  RSN  9 0.4 2.2LRSN                1
 GAP=137        0.96       3.2     4.0  5.5 -0.2630E+01  0.5523E+01 -0.4214E+00E
 Epicentro: LOS SANTOS - SANTANDER                                             3
 ACTION:UPD 16-08-18 17:48 OP:cam  STATUS:               ID:20160522185730 L   I
 OLDACT:DUP 16-05-23 00:06 OP:drio STATUS:               ID:20160522184747d    3
 2016-05-22-1847-46M.COL___303                                                 6
 STAT SP IPHASW D HRMM SECON CODA AMPLIT PERI AZIMU VELO AIN AR TRES W  DIS CAZ7
 BAR2 EZ EP       1857 50.87                             171    0.0210 22.6 191 
 BAR2 EZ ES       1858  6.55                             171   -0.0510 22.6 191 
 BAR2 EZ I        1858  8.55        25.0 0.26            172           22.6 191 
 BRR  HZ EP       1857 52.71                             153    0.3410 71.9 299 
 BRR  HE ES       1858 10.07                             153    0.7710 71.9 299 
 BRR  HZ I        1858 16.47        21.2 0.48            152           71.9 299 
 PAM  EZ EP       1857 53.51                             152    0.1010 77.8  39 
 PAM  EE ES       1858 10.95                             152   -0.2110 77.8  39 
 PAM  EZ I        1858 14.86        14.0 0.26            155           77.8  39 
 RUS  HZ EP       1857 54.91                             145    0.0810 99.7 176 
 RUS  HE ES       1858 13.52                             145   -0.1610 99.7 176 
 RUS  HZ I        1858 15.94        11.3 0.56            150           99.7 176 
 PTB  HZ EP       1857 57.37                             133   -0.67 9  148 259 
 PTB  HE ES       1858 18.69                             133   -0.70 9  148 259 
 PTB  HZ I        1858 24.67        21.5 0.44            135            148 259 
 OCA  HZ EP       1857 59.24                             131   -0.19 9  161 353 
 OCA  HN ES       1858 21.47                             131   -0.39 9  161 353 
 OCA  HZ I        1858 26.09        27.5 0.28            133            161 353 
 SPBC HZ EP       1857 59.73                             130    0.24 9  163 219 
 SPBC HE ES       1858 22.32                             130    0.34 9  163 219 
 SPBC HZ I        1858 23.91        25.4 0.14            134            163 219 
 ZAR  HZ EP       1858  4.00                             123    0.52 9  205 292 
 ZAR  HE ES       1858 29.21                             123    0.12 9  205 292 
 ZAR  HZ I        1858 35.37        18.8 0.28            125            205 292 
 NOR  HZ EP       1858  6.77                             119    0.12 8  234 235 
 NOR  HE ES       1858 34.35                             119   -0.37 8  234 235 
 NOR  HZ I        1858 38.07        11.0 0.18            122            234 235 
                                                                                
