 2016 1022 1347 59.8 L   6.796 -73.177145.0  RSN  6 0.5 1.6LRSN                1
 GAP=142        1.16       6.5     6.2  8.9 -0.2016E+02  0.1770E+02 -0.3253E+01E
 Epicentro: LOS SANTOS - SANTANDER                                             3
 ACTION:UPD 16-11-09 19:21 OP:rebc STATUS:               ID:20161022134759 L   I
 OLDACT:REG 16-10-22 21:05 OP:ar   STATUS:               ID:20161022134621     3
 2016-10-22-1346-20S.COL___298                                                 6
 STAT SP IPHASW D HRMM SECON CODA AMPLIT PERI AZIMU VELO AIN AR TRES W  DIS CAZ7
 BAR2 EZ EP       1348 19.53                             171    0.2610 22.5 181 
 BAR2 EZ ES       1348 34.05                             171   -0.4410 22.5 181 
 BAR2 EZ I        1348 36.77        10.4 0.40            171           22.5 181 
 PAM  EZ EP       1348 22.40                             150    0.3610 80.0  41 
 PAM  EN ES       1348 39.53                             150    0.1010 80.0  41 
 PAM  EZ I        1348 41.58         7.6 0.54            154           80.0  41 
 RUS  HZ EP       1348 23.36                             144   -0.0510  100 174 
 RUS  HE ES       1348 42.06                             144    0.1910  100 174 
 RUS  HZ I        1348 43.11         4.8 0.26            146            100 174 
 PTB  HZ EP       1348 26.32                             132   -0.02 9  144 259 
 PTB  HN ES       1348 46.77                             132   -0.30 9  144 259 
 PTB  HZ I        1348 49.59         4.1 0.16            134            144 259 
 SPBC HZ EP       1348 26.89                             129   -1.06 9  161 218 
 SPBC HN ES       1348 50.09                             129    0.15 9  161 218 
 SPBC HZ I        1348 56.01         5.6 0.22            131            161 218 
 NOR  HE ES       1349  3.61                             119    0.94 8  232 234 
                                                                                
