 2017 1122 1716  5.7 L   6.824 -73.159145.8  RSN 11 0.5 1.9LRSN                1
 GAP=134        1.13       4.3     4.7  6.8 -0.3077E+01  0.9217E+01  0.7892E+01E
 Epicentro: LOS SANTOS - SANTANDER                                             3
 ACTION:UPD 17-12-12 19:58 OP:rebc STATUS:               ID:20171122171605 L   I
 OLDACT:UP  17-11-22 22:45 OP:edw  STATUS:               ID:20171122170739d    3
 OLDACT:DUP 17-11-22 22:37 OP:edw  STATUS:               ID:20171122170739d    3
 2017-11-22-1708-00M.COL___477                                                 6
 STAT SP IPHASW D HRMM SECON CODA AMPLIT PERI AZIMU VELO AIN AR TRES W  DIS CAZ7
 BAR2 EZ EP     C 1716 25.43                             169    0.0110 25.8 186 
 BAR2 EZ ES       1716 40.66                             169   -0.1210 25.8 186 
 BAR2 EZ I        1716 41.55        21.1 0.26            170           25.8 186 
 PAM  EZ EP       1716 28.31                             151    0.4210 76.3  42 
 PAM  EE ES       1716 45.59                             151    0.4210 76.3  42 
 PAM  EZ I        1716 47.53        15.9 0.50            153           76.3  42 
 RUS  HZ EP       1716 29.36                             143   -0.3310  103 175 
 RUS  HN ES       1716 48.24                             143   -0.1410  103 175 
 RUS  HZ I        1716 49.24         6.9 0.42            145            103 175 
 PTB  HZ EP       1716 31.73                             132   -0.89 9  147 258 
 PTB  HN ES       1716 53.16                             132   -0.44 9  147 258 
 PTB  HZ I        1717  0.79         7.4 0.44            132            147 258 
 SPBC HZ EP       1716 34.45                             129    0.10 9  164 218 
 SPBC HN ES       1716 56.71                             129    0.04 9  164 218 
 ZAR  HN ES       1717  3.27                             123    0.21 9  202 292 
 NOR  HZ EP       1716 41.57                             118    0.07 8  235 234 
 NOR  HN ES       1717 10.11                             118    0.70 8  235 234 
 NOR  HZ I        1717 13.29         4.6 0.54            119            235 234 
 CHI  HZ EP       1716 42.87                             117   -0.80 8  251 195 
 CHI  HN ES       1717 12.95                             117   -0.32 8  251 195 
 PRA  HZ EP       1717  0.23                             106    0.79 6  394 209 
 PRA  HN ES       1717 41.87                             106    0.53 6  394 209 
 PRA  HZ I        1717 47.90         3.4 0.26            107            394 209 
 ORTC HZ EP       1716 59.91                             106    0.10 6  397 216 
 ORTC HN ES       1717 42.93                             106    0.95 6  397 216 
 SJC  HZ EP   9   1716 59.72                             106   -1.22 0  406 327 
 SJC  HE ES       1717 41.36                             106   -1.42 6  406 327 
 SJC  HZ I        1717 48.89         1.8 0.42            106            406 327 
                                                                                
