 2017 1122 1514 17.3 L   6.802 -73.113138.9  RSN  9 0.5 1.7LRSN                1
 GAP=141        1.26       4.6     5.2  7.7 -0.4013E+01  0.1562E+02  0.3197E+01E
 Epicentro: LOS SANTOS - SANTANDER                                             3
 ACTION:UPD 17-12-12 19:58 OP:rebc STATUS:               ID:20171122151417 L   I
 OLDACT:REG 17-11-22 21:49 OP:edw  STATUS:               ID:20171122150745     3
 2017-11-22-1508-00M.COL___492                                                 6
 STAT SP IPHASW D HRMM SECON CODA AMPLIT PERI AZIMU VELO AIN AR TRES W  DIS CAZ7
 BAR2 EZ IP     C 1514 36.08                             170   -0.0710 24.5 198 
 BAR2 EZ ES       1514 50.52                             170   -0.3110 24.5 198 
 BAR2 EZ I        1514 53.07        17.0 0.20            169           24.5 198 
 PAM  EZ IP     C 1514 39.00                             150    0.3410 74.9  38 
 PAM  EN ES       1514 55.67                             150    0.3710 74.9  38 
 PAM  EZ I        1514 58.07        11.0 0.44            154           74.9  38 
 RUS  HZ EP       1514 40.10                             142   -0.3110  101 178 
 RUS  HN ES       1514 58.06                             142   -0.3510  101 178 
 RUS  HZ I        1515  0.29         5.3 0.42            145            101 178 
 PTB  HZ EP       1514 42.97                             130   -1.10 9  151 259 
 PTB  HE ES       1515  5.34                             130    0.41 9  151 259 
 PTB  HZ I        1515  6.81         4.8 0.14            131            151 259 
 SPBC HZ EP       1514 45.26                             127   -0.28 9  166 220 
 SPBC HN ES       1515  7.99                             127    0.44 9  166 220 
 SPBC HZ I        1515 13.44         9.6 0.44            129            166 220 
 ZAR  HZ EP       1514 49.91                             120    0.24 8  207 292 
 ZAR  HE ES       1515 14.95                             120    0.05 8  207 292 
 ZAR  HZ I        1515 22.10         7.7 0.52            122            207 292 
 NOR  HZ EP       1514 52.05                             117   -0.95 8  238 235 
 NOR  HN ES       1515 20.31                             117   -0.51 8  238 235 
 NOR  HZ I        1515 23.06         5.2 0.36            118            238 235 
 CHI  HZ EP       1514 55.27                             115    0.49 8  250 196 
 CHI  HE ES       1515 24.80                             115    0.80 8  250 196 
 CHI  HZ I        1515 29.69         1.6 0.20            118            250 196 
 GUY2CHZ EP       1515  1.74                             111    0.77 7  304 235 
 GUY2CHE ES       1515 35.71                             111    0.69 7  304 235 
 GUY2CHZ I        1515 42.60         3.2 0.44                           304 235 
                                                                                
