 2017  822 1202 55.3 L   6.674 -73.082141.8  RSN  7 0.3 1.8LRSN                1
 GAP=150        0.72       3.0     3.6  5.0 -0.2814E+01  0.6243E+01  0.5391E+00E
 Epicentro: JORDAN - SANTANDER                                                 3
 ACTION:UPD 17-09-04 20:23 OP:rebc STATUS:               ID:20170822120255 L   I
 OLDACT:UP  17-08-22 21:51 OP:edw  STATUS:               ID:20170822115741     3
 OLDACT:REG 17-08-22 20:05 OP:edw  STATUS:               ID:20170822115741     3
 2017-08-22-1158-00M.COL___411                                                 6
 STAT SP IPHASW D HRMM SECON CODA AMPLIT PERI AZIMU VELO AIN AR TRES W  DIS CAZ7
 BAR2 EZ EP       12 3 14.54                             174    0.2610 14.3 231 
 BAR2 EZ ES       12 3 29.23                             174    0.1310 14.3 231 
 BAR2 EZ I        12 3 32.55        13.8 0.24            169           14.3 231 
 BRR  HZ EP       12 3 16.72                             147   -0.1010 84.5 305 
 BRR  HN ES       12 3 33.67                             147    0.0510 84.5 305 
 BRR  HZ I        12 3 37.52        12.3 0.34            146           84.5 305 
 PAM  EZ EP       12 3 17.48                             148   -0.0610 84.9  30 
 PAM  EE ES       12 3 34.54                             148   -0.3710 84.9  30 
 PAM  EZ I        12 3 36.91         7.4 0.52            152           84.9  30 
 RUS  HN ES       12 3 35.23                             147    0.1310 86.4 180 
 SPBC HZ EP       12 3 23.23                             129    0.30 9  157 224 
 SPBC HE ES       12 3 44.43                             129   -0.06 9  157 224 
 SPBC HZ I        12 3 51.98        21.3 0.22            130            157 224 
 ZAR  HZ EP   4   12 3 30.98                             120    2.25 0  216 295 
 ZAR  HN ES       12 3 55.20                             120    0.38 8  216 295 
 ZAR  HZ I        12 4  1.64         6.3 0.28            121            216 295 
 NOR  HZ EP       12 3 30.56                             118   -0.02 8  233 238 
 NOR  HE ES       12 3 57.36                             118   -0.75 8  233 238 
 NOR  HZ I        12 4  2.23         2.3 0.50            119            233 238 
                                                                                
