 2013  722 1213 24.1 L   6.746 -73.137152.4  RSN  7 0.4 2.0LRSN                1
 GAP=201        1.06       5.0     6.2  9.7  0.8065E+01  0.1170E+02 -0.6235E+01E
 Epicentro: JORDAN - SANTANDER                                                 3
 ACTION:UPD 13-08-12 10:39 OP:ep   STATUS:               ID:20130722121324 L   I
 OLDACT:UP  13-07-22 16:13 OP:mh   STATUS:               ID:20130722120959     3
 OLDACT:UP  13-07-22 16:04 OP:mh   STATUS:               ID:20130722120959     3
 OLDACT:REG 13-07-22 15:01 OP:mh   STATUS:               ID:20130722120959     3
 2013-07-22-1209-59M.COL___267                                                 6
 STAT SP IPHASW D HRMM SECON CODA AMPLIT PERI AZIMU VELO AIN AR TRES W  DIS CAZ7
 BAR2 SZ EP       1213 44.51                             173    0.0710 17.7 196 
 BAR2 SZ ES   1   1214  0.11                             173   -0.20 7 17.7 196 
 BAR2 SZ I        1214  1.12         8.5 0.50            170           17.7 196 
 BRR  HZ EP   1   1213 46.53                             152    0.34 7 75.0 302 
 BRR  HN ES       1214  4.22                             152    0.8010 75.0 302 
 BRR  HN I        1214  7.09        30.8 0.20            149           75.0 302 
 RUS  HZ EP   1   1213 48.41                             147    0.30 7 94.6 176 
 RUS  HN ES       1214  6.34                             147   -0.4910 94.6 176 
 RUS  HN I        1214  8.78         6.6 0.16            148           94.6 176 
 PTB  HZ EP   1   1213 51.48                             134   -0.14 7  148 261 
 PTB  HN ES       1214 12.66                             134   -0.41 9  148 261 
 PTB  HZ I        1214 18.14         6.5 0.42            132            148 261 
 ZAR  HE ES       1214 22.65                             123   -0.57 8  207 294 
 ZAR  HE I        1214 28.91        22.4 0.28            122            207 294 
 NOR  HE ES       1214 28.51                             120    0.60 8  232 236 
 NOR  HE I        1214 33.60         9.4 0.20            120            232 236 
 SML  HN ES       1214 30.79                             118   -0.30 8  250 336 
 SML  HN I        1214 35.36        15.6 0.32            118            250 336 
                                                                                
