 2012 1022 1034 48.2 L   6.795 -73.139145.2  RSN  4 0.3 1.4LRSN                1
 GAP=138        0.66       5.9     5.6  8.9  0.1489E+02 -0.9458E+01 -0.4610E+01E
 Epicentro: LOS SANTOS - SANTANDER                                             3
 ACTION:UPD 12-11-22 17:05 OP:ep   STATUS:               ID:20121022103448 L   I
 2012-10-22-1030-00M.COL___231                                                 6
 STAT SP IPHASW D HRMM SECON CODA AMPLIT PERI AZIMU VELO AIN AR TRES W  DIS CAZ7
 BRR  HZ EP   1   1035  9.34                             152    0.02 7 72.1 299 
 BRR  HZ I        1035 10.75         7.7 0.38                          72.1 299 
 BRR  HN ES   1   1035 26.02                             152    0.20 7 72.1 299 
 PAM  SZ EP       1035 10.31                             151   -0.0310 77.3  39 
 PAM  SZ I        1035 10.69         6.7 0.18                          77.3  39 
 RUS  HZ EP       1035 11.59                             144   -0.2410100.0 176 
 RUS  HN ES   2   1035 30.46                             144    0.18 5100.0 176 
 RUS  HN I        1035 31.75         3.5 0.19                         100.0 176 
 ZAR  HZ EP   1   1035 21.40                             122    0.72 6  205 292 
 ZAR  HE ES   1   1035 45.57                             122   -0.47 6  205 292 
 ZAR  HZ I        1035 53.62         1.7 0.25                           205 292 
                                                                                
