 2012  222 1930 19.9 L   6.800 -73.084148.0  RSN  6 0.4 1.7LRSN                1
 GAP=144        0.52       4.5     7.8  8.5 -0.9955E+01 -0.5197E+01  0.1149E+02E
 ACTION:UP  12-03-07 16:33 OP:epov STATUS:               ID:20120222193019 L   I
 2012-02-22-1930-00M.COL___191                                                 6
 STAT SP IPHASW D HRMM SECON CODA AMPLIT PERI AZIMU VELO AIN AR TRES W  DIS CAZ7
 BAR2 SZ EP   1   1930 39.70                             170   -0.19 7 25.4 205 
 BAR2 SZ I        1930 40.40        10.4 0.21                          25.4 205 
 GIR2 SZ EP   2   1930 39.76                             167   -0.17 5 33.1 339 
 PAM  SZ EP   1   1930 42.39                             153    0.23 7 73.2  35 
 PAM  SE ES   2   1930 59.17                             153   -0.32 5 73.2  35 
 BRR  HZ EP   2   1930 41.32                             151   -0.36 5 77.2 296 
 BRR  HE ES   2   1930 59.00                             151    0.36 5 77.2 296 
 BRR  HZ I        1931  0.61        19.1 0.35                          77.2 296 
 RUS  HZ EP   2   1930 44.10                             144    0.20 5  100 180 
 RUS  HN ES   2   1931  2.89                             144    0.30 5  100 180 
 CHI  HZ EP   2   1930 58.56                             117    0.59 4  251 197 
 CHI  HN ES   2   1931 26.91                             117   -0.72 4  251 197 
 CHI  HZ I        1931 29.54         2.2 0.75                           251 197 
                                                                                
