 2014  422 1602 44.9 L   6.796 -73.162142.1  RSN  5 0.4 1.9LRSN                1
 GAP=135        0.91       4.1     4.4  8.9  0.1261E+01  0.9251E+01 -0.1300E+02E
 Epicentro: LOS SANTOS - SANTANDER                                             3
 ACTION:UPD 14-05-13 23:10 OP:nd   STATUS:               ID:20140422160244 L   I
 OLDACT:REG 14-04-22 20:30 OP:nd   STATUS:               ID:20140422160048     3
 2014-04-22-1600-48M.COL___242                                                 6
 STAT SP IPHASW D HRMM SECON CODA AMPLIT PERI AZIMU VELO AIN AR TRES W  DIS CAZ7
 PAM  SZ EP       16 3  6.90                             150    0.1210 78.8  40 
 PAM  SN ES   1   16 3 23.97                             150    0.10 7 78.8  40 
 PAM  SZ I        16 3 26.25         9.7 0.20            156           78.8  40 
 RUS  HZ EP       16 3  8.51                             143    0.2810  100 175 
 RUS  HN ES       16 3 26.28                             143   -0.1910  100 175 
 RUS  HZ I        16 3 28.02         6.5 0.30            150            100 175 
 PTB  HZ EP       16 3 11.00                             131   -0.37 9  146 259 
 PTB  HN ES       16 3 31.93                             131   -0.11 9  146 259 
 PTB  HZ I        16 3 39.56        15.1 0.48            133            146 259 
 ZAR  HZ EP       16 3 16.62                             122   -0.30 9  203 292 
 ZAR  HN ES       16 3 42.67                             122    0.75 9  203 292 
 ZAR  HZ I        16 3 52.83         7.4 0.20            124            203 292 
 SML  HZ EP       16 3 21.64                             117    0.40 8  243 336 
 SML  HN ES       16 3 48.95                             117   -0.67 8  243 336 
 SML  HZ I        16 3 53.80        15.6 0.28            120            243 336 
                                                                                
