 2013  822 1021 28.7 L   6.783 -73.153144.5  RSN  6 0.3 1.3LRSN                1
 GAP=235        0.82       4.6     4.8  6.0  0.9079E+01  0.5071E+01  0.2023E+01E
 Epicentro: LOS SANTOS - SANTANDER                                             3
 ACTION:UPD 14-01-14 09:05 OP:ep   STATUS:               ID:20130822102128 L   I
 OLDACT:REG 13-08-22 15:48 OP:stll STATUS:               ID:20130822101848     3
 2013-08-22-1018-48M.COL___207                                                 6
 STAT SP IPHASW D HRMM SECON CODA AMPLIT PERI AZIMU VELO AIN AR TRES W  DIS CAZ7
 BAR2 SZ EP       1021 48.25                             171    0.1010 21.3 189 
 BAR2 SZ ES       1022  3.11                             171   -0.2010 21.3 189 
 BAR2 SZ I        1022  5.73         3.3 0.18            167           21.3 189 
 BRR  HZ EP       1021 50.14                             152    0.4010 71.4 300 
 BRR  HN ES       1022  6.33                             152    0.1910 71.4 300 
 RUS  HZ EP       1021 52.25                             144    0.0410 98.7 175 
 RUS  HN ES       1022 10.33                             144   -0.2010 98.7 175 
 RUS  HZ I        1022 11.70         2.1 0.28            143           98.7 175 
 PTB  HZ EP       1021 55.11                             132   -0.36 9  147 259 
 PTB  HN ES       1022 15.94                             132   -0.40 9  147 259 
 PTB  HZ I        1022 19.15         2.5 0.30            132            147 259 
 SPBC HZ EP       1021 56.68                             129   -0.24 9  161 219 
 SPBC HN ES       1022 19.62                             129    0.69 9  161 219 
 SPBC HZ I        1022 24.16         3.5 0.22            128            161 219 
 ZAR  HN ES       1022 26.26                             122   -0.05 9  204 293 
                                                                                
