 2017  222 1112 57.8 L   6.746 -73.096139.4  RSN  6 0.2 1.5LRSN                1
 GAP=145        0.70       3.0     4.8  4.7 -0.3188E+01 -0.3555E+01  0.4117E+01E
 Epicentro: LOS SANTOS - SANTANDER                                             3
 ACTION:UPD 17-05-24 15:39 OP:jn   STATUS:               ID:20170222111257 L   I
 OLDACT:UP  17-02-22 21:58 OP:edw  STATUS:               ID:20170222110744d    3
 OLDACT:DUP 17-02-22 21:54 OP:edw  STATUS:               ID:20170222110744d    3
 OLDACT:UP  17-02-22 21:53 OP:edw  STATUS:               ID:20170222110743     3
 OLDACT:REG 17-02-22 19:39 OP:edw  STATUS:               ID:20170222110743     3
 2017-02-22-1108-00M.COL___370                                                 6
 STAT SP IPHASW D HRMM SECON CODA AMPLIT PERI AZIMU VELO AIN AR TRES W  DIS CAZ7
 BAR2 EZ EP       1113 16.57                             172   -0.0310 19.5 209 
 BAR2 EZ ES       1113 31.59                             172    0.3310 19.5 209 
 BAR2 EZ I        1113 34.27        14.4 0.34            169           19.5 209 
 BRR  HZ EP       1113 18.64                             149   -0.1110 78.9 300 
 BRR  HN ES       1113 35.04                             149   -0.0310 78.9 300 
 PAM  EZ EP     D 1113 19.31                             149   -0.1410 78.9  34 
 PAM  EN ES       1113 36.34                             149    0.0210 78.9  34 
 PAM  EZ I        1113 38.63         3.4 0.20            154           78.9  34 
 RUS  HZ EP       1113 20.46                             144   -0.0410 94.4 179 
 RUS  HN ES       1113 37.85                             144   -0.3310 94.4 179 
 RUS  HZ I        1113 42.06         6.1 0.32            144           94.4 179 
 PTB  HZ EP   9   1113 23.49                             130   -1.19 0  152 261 
 PTB  HN ES       1113 43.85                             132   -0.59 9  152 261 
 PTB  HZ I        1113 49.15         4.8 0.16            131            152 261 
 ZAR  HN ES   4   1113 52.14                             120   -4.08 0  211 293 
 CHI  HZ EP       1113 34.75                             116    0.04 8  244 197 
 CHI  HN ES       1114  3.96                             116    0.48 8  244 197 
 CHI  HZ I        1114  9.61         1.5 0.26            117            244 197 
                                                                                
