 2014  622 1329 18.2 L   6.860 -73.114141.6  RSN 10 0.3 2.1LRSN                1
 GAP=187        0.62       2.3     4.0  4.8  0.6361E+00  0.5051E+01  0.2137E+00E
 Epicentro: LOS SANTOS - SANTANDER                                             3
 ACTION:UPD 14-07-01 22:55 OP:nd   STATUS:               ID:20140622132918 L   I
 OLDACT:UP  14-06-22 22:57 OP:mh   STATUS:               ID:20140622132818     3
 OLDACT:UP  14-06-22 22:55 OP:mh   STATUS:               ID:20140622132818     3
 OLDACT:REG 14-06-22 21:04 OP:mh   STATUS:               ID:20140622132818     3
 2014-06-22-1328-18M.COL___259                                                 6
 STAT SP IPHASW D HRMM SECON CODA AMPLIT PERI AZIMU VELO AIN AR TRES W  DIS CAZ7
 BAR2 SZ EP   1   1329 37.73                             167    0.19 8 30.5 194 
 BAR2 SZ ES   1   1329 52.43                             167   -0.16 8 30.5 194 
 BAR2 SZ I        1329 54.64        14.1 0.13            164           30.5 194 
 RUS  HZ EP       1329 42.09                             141    0.0310  107 178 
 RUS  HN ES   1   1330  0.73                             141    0.08 7  107 178 
 RUS  HZ I        1330  2.83        13.3 0.08            142            107 178 
 PTB  HZ EP   1   1329 45.02                             130   -0.30 7  153 257 
 PTB  HN ES   1   1330  5.79                             130   -0.65 7  153 257 
 PTB  HZ I        1330  8.66        12.4 0.07            129            153 257 
 OCA  HN ES   1   1330  7.28                             130    0.24 7  154 352 
 SPBC HZ EP       1329 46.90                             127   -0.23 9  171 219 
 SPBC HN ES   1   1330 10.15                             127    0.48 7  171 219 
 SPBC HZ I        1330 16.65        17.6 0.15            127            171 219 
 ZAR  HZ EP   1   1329 50.79                             121    0.28 6  205 290 
 ZAR  HE ES   1   1330 16.15                             121    0.47 6  205 290 
 SML  HZ EP   1   1329 53.83                             117   -0.32 6  239 334 
 SML  HN ES   1   1330 21.87                             117   -0.29 6  239 334 
 SML  HZ I        1330 26.25        13.7 0.10            119            239 334 
 NOR  HZ EP   1   1329 54.28                             117   -0.18 6  241 234 
 NOR  HN ES   1   1330 22.84                             117    0.13 6  241 234 
 NOR  HZ I        1330 28.72         7.7 0.11            117            241 234 
 GUY2CHZ EP       1330  2.97                             111    0.55 7  308 234 
 GUY2CHN ES   4   1330 39.30                             111    2.42 0  308 234 
 GUY2CHZ I        1330 44.78         5.5 0.29                           308 234 
 PRA  HZ EP       1330 12.40                             105   -0.10 6  399 210 
 PRA  HN ES   1   1330 54.34                             105   -0.47 4  399 210 
 PRA  HZ I        1331  1.17         6.2 0.12            106            399 210 
                                                                                
