 2017  722 1622 53.1 L   6.792 -73.180138.8  RSN  8 0.4 1.7LRSN                1
 GAP=233        0.92       4.3     4.5  5.6  0.2671E+01  0.6039E+01  0.4542E+01E
 Epicentro: LOS SANTOS - SANTANDER                                             3
 ACTION:UPD 17-08-30 15:35 OP:rebc STATUS:               ID:20170722162253 L   I
 OLDACT:REG 17-07-22 19:39 OP:lv   STATUS:               ID:20170722161735     3
 2017-07-22-1618-00M.COL___392                                                 6
 STAT SP IPHASW D HRMM SECON CODA AMPLIT PERI AZIMU VELO AIN AR TRES W  DIS CAZ7
 BAR2 EZ EP       1623 11.75                             170   -0.1310 22.1 181 
 BAR2 EZ ES       1623 26.52                             170    0.0110 22.1 181 
 BAR2 EZ I        1623 29.60        21.7 0.10            171           22.1 181 
 BRR  HZ EP       1623 13.74                             152    0.3910 68.3 301 
 BRR  HN ES       1623 28.48                             152   -0.6510 68.3 301 
 BRR  HZ I        1623 33.02        10.2 0.16            150           68.3 301 
 RUS  HZ EP       1623 15.95                             142   -0.1910  100 174 
 RUS  HN ES       1623 34.56                             142    0.4610  100 174 
 PTB  HZ EP   9   1623 18.54                             131   -0.62 0  144 259 
 PTB  HN ES       1623 38.86                                    0.00 9  144 259 
 SPBC HZ EP       1623 20.68                             128   -0.11 9  160 218 
 SPBC HN ES       1623 42.23                             128   -0.14 9  160 218 
 SPBC HZ I        1623 45.29         7.4 0.12            129            160 218 
 ZAR  HE ES       1623 50.09                             121    0.61 9  201 293 
 ZAR  HZ I        1623 55.61         4.0 0.06            122            201 293 
 NOR  HZ EP       1623 28.33                             117    0.27 8  231 234 
 NOR  HN ES       1623 55.70                             117    0.39 8  231 234 
 NOR  HZ I        1624  0.64         4.7 0.29            118            231 234 
 GUY2CHZ EP       1623 35.37                             111   -0.63 7  298 234 
 GUY2CHN ES       1624  8.98                             111   -0.46 7  298 234 
 GUY2CHZ I        1624 17.15         1.8 0.12                           298 234 
                                                                                
