 2011  222 1056 54.6 L   6.804 -73.162140.0  RSN  8 0.4 2.1LRSN                1
 GAP=181        0.82       4.6     7.6  7.8 -0.7932E+01  0.3306E+02 -0.9608E+01E
 Epicentro: LOS SANTOS - SANTANDER                                             3
 ACTION:UP  11-03-28 15:10 OP:jfem STATUS:               ID:20110222105654 L   I
 2011-02-22-1056-00S.COL___130                                                 6
 STAT SP IPHASW D HRMM SECON CODA AMPLIT PERI AZIMU VELO SNR AR TRES W  DIS CAZ7
 BAR2 SZ EP       1057 13.59                             170     0.110   24 186 
 BAR2 SZ ES   1   1057 28.21                             170    -0.1 7   24 186 
 BAR2 SZ I        1057 29.65        33.1 0.56                            24 186 
 RUS  HZ EP       1057 17.44                             142    -0.410  101 175 
 RUS  HN ES   1   1057 36.30                             142     0.4 7  101 175 
 RUS  HZ I        1057 38.74        12.8 0.40                           101 175 
 OCA  SZ EP       1057 22.46                             128     0.1 9  160 354 
 OCA  SZ I        1057 52.07        16.3 0.16                           160 354 
 NOR  SZ EP       1057 29.70                             117    -0.2 8  234 234 
 NOR  SN ES   1   1057 56.84                             117    -0.6 6  234 234 
 CHI  HZ EP       1057 31.86                             116    -0.1 8  249 195 
 CHI  HN ES   1   1058  1.65                             116     0.5 6  249 195 
 CHI  HZ I        1058  3.65        10.4 0.45                           249 195 
 HEL  HZ EP   1   1057 35.29                             114     1.0 6  270 256 
 HEL  HZ I        1058 13.10         8.4 0.53                           270 256 
 DBB  SZ EP       1057 41.70                             108     0.1 7  338 274 
 TOL  SZ EP   2   1057 42.40                             108    -0.1 3  343 224 
                                                                                
