 2017 1022 1946 24.5 L   6.679 -73.240149.8  RSN  4 0.3 1.3LRSN                1
 GAP=194        0.72       5.6     5.2  5.8  0.1398E+02  0.4135E+01  0.1890E+01E
 Epicentro: BARICHARA - SANTANDER                                              3
 ACTION:UPD 17-11-07 19:35 OP:rebc STATUS:               ID:20171022194624 L   I
 OLDACT:DUP 17-10-23 01:05 OP:lv   STATUS:               ID:20171022193746d    3
 OLDACT:DUP 17-10-23 00:58 OP:lv   STATUS:               ID:20171022193745d    3
 2017-10-22-1938-00M.COL___402                                                 6
 STAT SP IPHASW D HRMM SECON CODA AMPLIT PERI AZIMU VELO AIN AR TRES W  DIS CAZ7
 BAR2 EZ EP       1946 44.14                             175   -0.3210 11.5 147 
 BAR2 EZ ES       1946 59.90                             175   -0.1110 11.5 147 
 BAR2 EZ I        1947  1.29         4.7 0.22            173           11.5 147 
 BRR  HZ EP       1946 46.21                             153    0.1510 70.4 312 
 BRR  HN ES       1947  3.02                             153    0.1510 70.4 312 
 RUS  HZ EP       1946 47.64                             148   -0.2310 88.7 169 
 RUS  HN ES       1947  6.39                             148    0.3210 88.7 169 
 RUS  HZ I        1947  7.74         2.3 0.32            147           88.7 169 
 PTB  HZ EP       1946 51.12                             136    0.38 9  135 264 
 PTB  HN ES       1947 10.86                             136   -0.33 9  135 264 
 PTB  HZ I        1947 14.26         3.5 0.34            135            135 264 
                                                                                
