 2016  222 1103 15.2 L   6.179 -73.792101.1  RSN  6 0.4 1.1LRSN                1
 GAP=117        0.95       3.7     3.5  7.1 -0.1529E+00  0.3634E+01  0.6315E+01E
 Epicentro: LANDAZURI - SANTANDER                                              3
 ACTION:UPD 16-03-04 21:28 OP:rebc STATUS:               ID:20160222110315 L   I
 OLDACT:REG 16-02-22 19:58 OP:drio STATUS:               ID:20160222105748     3
 2016-02-22-1057-48M.COL___297                                                 6
 STAT SP IPHASW D HRMM SECON CODA AMPLIT PERI AZIMU VELO AIN AR TRES W  DIS CAZ7
 SPBC HZ EP       11 3 31.78                             144    0.2710 66.0 208 
 SPBC HN ES       11 3 44.29                             144    0.0710 66.0 208 
 SPBC HZ I        11 3 46.25         6.7 0.10            143           66.0 208 
 BAR2 EZ EP       11 3 32.76                             138   -0.1410 81.5  56 
 BAR2 EZ ES       11 3 47.45                             138    0.7510 81.5  56 
 BAR2 EZ I        11 3 48.28         4.6 0.16            142           81.5  56 
 PTB  HZ IP     C 11 3 32.46                             137   -0.3210 83.7 299 
 PTB  HN ES       11 3 46.36                             137   -0.1210 83.7 299 
 PTB  HZ I        11 3 47.05         3.1 0.26            142           83.7 299 
 RUS  HZ EP       11 3 33.40                             137   -0.1110 84.6 112 
 RUS  HN ES       11 3 47.07                             137   -0.7110 84.6 112 
 RUS  HZ I        11 3 50.09         1.2 0.34            138           84.6 112 
 CHI  HZ EP       11 3 42.18                             115    0.13 9  171 178 
 CHI  HN ES       11 4  3.23                             115    0.24 9  171 178 
 CHI  HZ I        11 4 10.58         1.4 0.56            116            171 178 
 GUY2CHZ EP       11 3 45.79                             111    0.03 9  204 239 
 GUY2CHE ES   4   11 4 11.43                             111    1.84 0  204 239 
 GUY2CHZ I        11 4 16.79         1.6 0.44                           204 239 
                                                                                
