 2014 1022 1900 28.1 L   6.787 -73.145152.0  RSN  8 0.4 1.8LRSN                1
 GAP=137        0.99       4.8     5.0  7.3  0.5766E+01  0.5641E+01  0.8005E+01E
 Epicentro: LOS SANTOS - SANTANDER                                             3
 ACTION:UPD 14-11-29 23:54 OP:nd   STATUS:               ID:20141022190028 L   I
 OLDACT:REG 14-10-25 03:49 OP:fm   STATUS:               ID:20141022185745     3
 2014-10-22-1857-45M.COL___277                                                 6
 STAT SP IPHASW D HRMM SECON CODA AMPLIT PERI AZIMU VELO AIN AR TRES W  DIS CAZ7
 BAR2 SZ EP   1   19 0 48.12                             171   -0.28 7 21.9 191 
 BAR2 SZ ES   1   19 1  3.72                             171   -0.56 7 21.9 191 
 BAR2 SZ I        19 1  5.44        12.6 0.14            170           21.9 191 
 BRR  HZ EP       19 0 50.36                             153    0.4410 72.0 300 
 BRR  HN ES       19 1  7.78                             153    0.8010 72.0 300 
 BRR  HZ I        19 1 15.74        15.1 0.20            153           72.0 300 
 PAM  SZ EP   1   19 0 50.85                             152   -0.15 7 78.5  39 
 PAM  SE ES   1   19 1  8.56                             152   -0.34 7 78.5  39 
 PAM  SZ I        19 1 10.62         7.8 0.46            156           78.5  39 
 RUS  HZ EP       19 0 52.52                             145    0.2010 99.1 176 
 RUS  HE ES       19 1 11.17                             145   -0.0710 99.1 176 
 RUS  HZ I        19 1 13.62         8.7 0.50            148           99.1 176 
 PTB  HZ EP       19 0 54.92                             133   -0.59 9  148 259 
 PTB  HE ES       19 1 16.73                             133   -0.21 9  148 259 
 PTB  HZ I        19 1 19.37        11.1 0.26            134            148 259 
 ZAR  HE ES       19 1 26.31                             124   -0.34 9  205 293 
 ZAR  HZ I        19 1 32.15        11.2 0.26            125            205 293 
 CHI  HZ EP       19 1  6.40                             119    0.45 8  247 195 
 CHI  HN ES   1   19 1 35.61                             119    0.10 6  247 195 
 CHI  HZ I        19 1 41.68         3.1 0.24            121            247 195 
 GUY2CHZ EP   4   19 1 13.21                             114    1.35 0  300 235 
 GUY2CHN ES   4   19 1 49.53                             114    3.49 0  300 235 
 GUY2CHZ I        19 1 54.22         3.8 0.48                           300 235 
                                                                                
