 2015  722 1410  9.4 L   6.756 -73.104137.7  RSN  6 0.4 1.9LRSN                1
 GAP=231        0.99       7.5     6.9  9.0  0.2501E+01  0.2282E+02 -0.5431E+01E
 Epicentro: LOS SANTOS - SANTANDER                                             3
 ACTION:UPD 15-09-08 21:50 OP:cam  STATUS:               ID:20150722141009 L   I
 OLDACT:UP  15-07-22 23:08 OP:ak   STATUS:               ID:20150722140748     3
 OLDACT:REG 15-07-22 21:10 OP:ak   STATUS:               ID:20150722140748     3
 2015-07-22-1407-48M.COL___337                                                 6
 STAT SP IPHASW D HRMM SECON CODA AMPLIT PERI AZIMU VELO AIN AR TRES W  DIS CAZ7
 BAR2 EZ EP       1410 28.27                             171    0.2310 20.1 206 
 BAR2 EZ ES       1410 42.58                             171    0.0410 20.1 206 
 BAR2 EZ I        1410 44.04        16.2 0.12            173           20.1 206 
 ZAR  HZ EP       1410 41.53                             120   -0.49 8  210 293 
 ZAR  HN ES       1411  7.60                             120    0.16 8  210 293 
 ZAR  HZ I        1411 13.60         6.7 0.42            120            210 293 
 NOR  HN ES       1411 12.03                             117   -0.40 8  236 236 
 SML  HZ EP   9   1410 43.33                             115   -3.00 0  250 335 
 SML  HE ES       1411 12.61                             125    0.51 8  250 335 
 SML  HZ I        1411 20.46         9.9 0.10            115            250 335 
 HEL  HZ EP   2   1410 50.12                             113    0.49 4  275 257 
 HEL  HE ES   2   1411 22.09                             113    1.11 4  275 257 
 GUY2CHZ EP   9   1410 54.98                             111    2.17 0  302 236 
 GUY2CHN ES       1411 29.82                             116    1.01 7  302 236 
 GUY2CHZ I        1411 33.59         3.4 0.30                           302 236 
                                                                                
