 2017 1022 1012 25.5 L   6.807 -73.145146.0  RSN  9 0.3 1.4LRSN                1
 GAP=112        0.83       3.5     3.3  5.4  0.3360E+01  0.3621E+01  0.5623E+01E
 Epicentro: LOS SANTOS - SANTANDER                                             3
 ACTION:UPD 17-11-07 19:35 OP:rebc STATUS:               ID:20171022101225 L   I
 OLDACT:UP  17-10-22 21:54 OP:edw  STATUS:               ID:20171022100439     3
 OLDACT:REG 17-10-22 19:41 OP:edw  STATUS:               ID:20171022100439     3
 2017-10-22-1008-00M.COL___399                                                 6
 STAT SP IPHASW D HRMM SECON CODA AMPLIT PERI AZIMU VELO AIN AR TRES W  DIS CAZ7
 BAR2 EZ EP       1012 45.01                             170   -0.1210 24.1 190 
 BAR2 EZ ES       1012 59.92                             170   -0.5510 24.1 190 
 BAR2 EZ I        1013  4.47         5.9 0.74            167           24.1 190 
 BRR  HZ EP       1012 46.95                             153    0.3410 70.9 298 
 BRR  HN ES       1013  3.67                             153    0.5610 70.9 298 
 PAM  EN ES       1013  4.93                             151   -0.0410 76.7  40 
 RUS  HZ EP       1012 49.40                             144    0.1110  101 176 
 RUS  HN ES       1013  8.01                             144    0.1410  101 176 
 RUS  HZ I        1013  8.80         2.2 0.24            143            101 176 
 PTB  HZ EP       1012 52.11                             132   -0.35 9  148 259 
 PTB  HN ES       1013 13.03                             132   -0.49 9  148 259 
 PTB  HZ I        1013 16.75         1.9 0.18            130            148 259 
 SPBC HZ EP       1012 53.95                             129   -0.08 9  164 219 
 SPBC HN ES       1013 16.83                             129    0.51 9  164 219 
 SPBC HZ I        1013 22.20         3.0 0.10            128            164 219 
 YPLC HZ EP       1012 55.58                             126    0.25 9  177 151 
 YPLC HN ES       1013 18.44                             126   -0.19 9  177 151 
 YPLC HZ I        1013 20.37         4.1 0.28            128            177 151 
 ZAR  HN ES       1013 23.09                             122   -0.10 9  204 292 
 ZAR  HZ I        1013 33.41         2.0 0.26            122            204 292 
 PRA  HZ EP   2   1013 18.53                             106   -0.54 3  393 210 
 PRA  HE ES   2   1014  1.11                             106    0.23 3  393 210 
 PRA  HZ I        1014  6.89         1.2 0.70            107            393 210 
                                                                                
