 2012 1222 1203 24.0 L   6.469 -73.771 97.4  RSN  7 0.3 1.8LRSN                1
 GAP=131        0.68       3.1     2.2  5.8  0.3461E+00  0.2557E+01  0.3187E+01E
 Epicentro: SANTA HELENA DEL OPON - SANTANDER                                  3
 ACTION:UPD 13-01-04 14:29 OP:ep   STATUS:               ID:20121222120324 L   I
 2012-12-22-1200-00M.COL___238                                                 6
 STAT SP IPHASW D HRMM SECON CODA AMPLIT PERI AZIMU VELO AIN AR TRES W  DIS CAZ7
 BAR2 SZ EP       12 3 40.24                             143    0.1110 66.5  78 
 BAR2 SZ ES   1   12 3 52.94                             143    0.19 7 66.5  78 
 BAR2 SZ I        12 3 54.29        52.4 0.27                          66.5  78 
 BRR  HZ EP       12 3 40.46                             141    0.3410 70.8   5 
 BRR  HN ES       12 3 52.98                             141    0.2510 70.8   5 
 BRR  HZ I        12 3 53.99        13.0 0.27                          70.8   5 
 PTB  HZ EP     C 12 3 40.33                             139   -0.2410 76.2 276 
 PTB  HE ES   1   12 3 53.14                             139   -0.39 7 76.2 276 
 PTB  HZ I        12 3 53.68        15.9 0.16                          76.2 276 
 RUS  HZ EP       12 3 43.02                             132   -0.2110 99.3 130 
 RUS  HN ES   1   12 3 58.39                             132    0.13 7 99.3 130 
 RUS  HN I        12 3 59.98        10.8 0.34                          99.3 130 
 PAM  SZ EP   1   12 3 48.46                             119   -0.16 7  153  51 
 PAM  SN ES       12 4  7.44                             119   -0.43 9  153  51 
 PAM  SZ I        12 4  8.76         9.6 0.15                           153  51 
 ZAR  HZ EP   1   12 3 49.92                             116    0.55 7  165 313 
 ZAR  HN ES   1   12 4  8.88                             116   -0.32 7  165 313 
 ZAR  HZ I        12 4 13.91         6.7 0.35                           165 313 
 HEL  HZ EP   1   12 3 53.80                             112    0.38 6  197 261 
 HEL  HN ES   1   12 4 16.35                             112   -0.06 6  197 261 
 HEL  HZ I        12 4 22.16         5.0 0.25                           197 261 
                                                                                
