 2012  222 1209 50.1 L   6.687 -73.138146.0  RSN  5 0.3 1.6LRSN                1
 GAP=184        0.57       7.0     6.9  7.5  0.4275E+01  0.1192E+02 -0.1091E+00E
 ACTION:UP  12-03-07 16:33 OP:epov STATUS:               ID:20120222120950 L   I
 2012-02-22-1210-00M.COL___191                                                 6
 STAT SP IPHASW D HRMM SECON CODA AMPLIT PERI AZIMU VELO AIN AR TRES W  DIS CAZ7
 BAR2 SZ EP   1   1210  9.82                             175    0.26 7 11.6 205 
 BAR2 SZ ES   2   1210 24.64                             175   -0.11 5 11.6 205 
 BAR2 SZ I        1210 26.00         4.8 0.21                          11.6 205 
 GIR2 SZ EP   1   1210  9.78                             163   -0.39 7 43.7 352 
 GIR2 SZ ES   2   1210 25.60                             163   -0.25 5 43.7 352 
 BRR  HZ EP   2   1210 12.27                             150    0.58 5 78.6 306 
 BRR  HN ES   2   1210 29.11                             150    0.57 5 78.6 306 
 BRR  HZ I        1210 37.68        15.4 0.63                          78.6 306 
 RUS  HN ES   2   1210 30.98                             148    0.11 5 88.1 176 
 PTB  HZ EP   1   1210 16.80                             132   -0.17 7  147 264 
 PTB  HN ES   2   1210 37.65                             132   -0.30 5  147 264 
                                                                                
