 2012  122 1013 16.9 L   6.725 -73.205118.3  RSN  6 0.3 0.8LRSN                1
 GAP=131        0.71       4.4     4.2  9.5  0.4221E+01  0.1477E+02  0.9147E+01E
 Epicentro: VILLANUEVA - SANTANDER                                             3
 ACTION:UP  12-02-03 08:19 OP:REBC STATUS:               ID:20120122101316 L   I
 2012-01-22-1010-00M.COL___186                                                 6
 STAT SP IPHASW D HRMM SECON CODA AMPLIT PERI AZIMU VELO SNR AR TRES W  DIS CAZ7
 BAR2 SZ EP   1   1013 32.64                             172    -0.5 7   15 170 
 BAR2 SZ I        1013 34.13         2.9 0.11                            15 170 
 BRR  HZ EP   1   1013 35.40                             147     0.3 7   70 307 
 BRR  HE ES   1   1013 49.05                             147    -0.3 7   70 307 
 PAM  SN ES   1   1013 52.96                             141     0.2 7   88  39 
 RUS  HZ EP   1   1013 37.79                             139     0.3 7   93 172 
 RUS  HN ES   1   1013 53.53                             139     0.0 7   93 172 
 RUS  HZ I        1013 57.13         1.1 0.12                            93 172 
 PTB  HZ EP   1   1013 40.56                             126    -0.5 7  140 262 
 PTB  HN ES   1   1014  0.15                             126     0.3 7  140 262 
 PTB  HZ I        1014  7.67                                            140 262 
 ZAR  HN ES   1   1014 11.42                             116     0.2 6  201 295 
                                                                                
