 2012  222 1624  8.5 L   6.834 -73.501115.2  RSN  5 0.3 1.1LRSN                1
 GAP= 97        0.43       7.9     4.3  7.3  0.2825E+01 -0.8158E-01  0.2284E+02E
 ACTION:UP  12-03-07 16:33 OP:epov STATUS:               ID:20120222162408 L   I
 2012-02-22-1620-00M.COL___191                                                 6
 STAT SP IPHASW D HRMM SECON CODA AMPLIT PERI AZIMU VELO AIN AR TRES W  DIS CAZ7
 BRR  HE ES   2   1624 37.59                             160    0.37 5 38.2 322 
 GIR2 SZ EP   2   1624 24.72                             158   -0.37 5 43.4  51 
 BAR2 SZ EP   1   1624 25.25                             158   -0.01 7 44.2 127 
 BAR2 SZ ES   2   1624 38.15                             158   -0.16 5 44.2 127 
 PTB  HZ EP   2   1624 29.70                             133    0.06 5  111 253 
 PTB  HN ES   2   1624 45.88                             133   -0.23 5  111 253 
 RUS  HZ EP   2   1624 30.95                             132    0.36 5  114 156 
 RUS  HZ I        1624 31.64         2.5 0.43                           114 156 
                                                                                
