 2010  622 1613 32.0 L   6.818 -73.068143.6  RSN  5 0.4 2.0LRSN                1
 GAP=167        0.89       6.5    12.8 12.4 -0.6819E+01 -0.3759E+02 -0.1624E+02E
 Epicentro: LOS SANTOS - SANTANDER                                             3
 ACTION:UP  10-08-24 10:12 OP:vdl  STATUS:               ID:20100622161332 L   I
 2010-06-22-1609-13S.COL___118                                                 6
 STAT SP IPHASW D HRMM SECON CODA AMPLIT PERI AZIMU VELO SNR AR TRES W  DIS CAZ7
 BAR2 SZ EP   1   1613 51.49                             168     0.0 7   28 207 
 BAR2 SZ ES   2   1614  6.17                             168    -0.5 5   28 207 
 BRR  HZ IP     D 1613 53.37                             150     0.110   78 294 
 BRR  HZ I        1613 57.75        21.2 0.14                            78 294 
 BRR  HE ES   2   1614 10.15                             150     0.2 5   78 294 
 RUS  HZ EP   1   1613 55.93                             143     0.3 7  102 181 
 RUS  HE ES   2   1614 14.05                             143    -0.1 5  102 181 
 RUS  HZ I        1614 15.80        14.2 0.22                           102 181 
 GUE  SZ EP   1   1613 55.30                             140    -0.9 7  113   8 
 GRA  SZ EP   1   1613 57.18                             137     0.5 7  122  14 
 GRA  SZ ES   2   1614 16.55                             137     0.6 5  122  14 
                                                                                
