 2010  822 1631 52.5 L   6.806 -73.065136.8  RSN  6 0.3 1.9LRSN                1
 GAP=168        0.73       3.6     7.2  6.4  0.1269E+01 -0.1728E+02 -0.3885E+01E
 Epicentro: LOS SANTOS - SANTANDER                                             3
 ACTION:UP  10-09-07 10:57 OP:vdl  STATUS:               ID:20100822163152 L   I
 2010-08-22-1629-56S.COL___120                                                 6
 STAT SP IPHASW D HRMM SECON CODA AMPLIT PERI AZIMU VELO SNR AR TRES W  DIS CAZ7
 BTL  SZ EP       1632 11.03                             169     0.010   26 299 
 BTL  SZ ES   1   1632 25.39                             169    -0.2 7   26 299 
 BAR2 SZ EP       1632 10.89                             168    -0.210   27 209 
 BAR2 SZ ES   1   1632 25.33                             168    -0.3 7   27 209 
 BAR2 SZ I        1632 26.62        18.1 0.27                            27 209 
 BRR  HZ EP       1632 12.86                             148    -0.310   79 295 
 BRR  HZ I        1632 28.81        18.2 0.26                            79 295 
 BRR  HE ES       1632 29.61                             148     0.410   79 295 
 RUS  HZ EP   1   1632 15.53                             142     0.2 7  101 181 
 RUS  HE ES   1   1632 33.48                             142     0.2 7  101 181 
 RUS  HZ I        1632 34.84         8.7 0.46                           101 181 
 GRA  SZ IP       1632 17.01                             136     0.410  123  14 
 GRA  SZ ES   1   1632 35.61                             136     0.1 7  123  14 
 GRA  SZ I        1632 38.70         8.8 0.28                           123  14 
 OCA  SZ EP   2   1632 19.80                             127    -0.4 5  161 350 
 OCA  SZ ES   2   1632 41.17                             127    -0.6 5  161 350 
 OCA  SZ I        1632 43.88        14.7 0.23                           161 350 
                                                                                
