 2011 1022 1353 26.6 L   6.783 -73.079143.2  RSN  4 0.2 1.3LRSN                1
 GAP=146        0.51       3.7     5.2  6.5  0.4354E+00  0.1255E+01  0.2670E+01E
 Epicentro: LOS SANTOS - SANTANDER                                             3
 ACTION:UPD 12-07-13 16:05 OP:ep   STATUS:               ID:20111022135326 L   I
 2011-10-22-1350-44S.COL___171                                                 6
 STAT SP IPHASW D HRMM SECON CODA AMPLIT PERI AZIMU VELO AIN AR TRES W  DIS CAZ7
 BAR2 SZ EP   1   1353 45.73                             170   -0.22 7 24.0 208 
 BAR2 SZ I        1354  2.60         5.7 0.19                          24.0 208 
 PAM  SZ EP   1   1353 48.82                             151    0.44 7 74.5  34 
 PAM  SN ES   1   1354  5.15                             151   -0.21 7 74.5  34 
 PAM  SZ I        1354  8.55         1.5 0.40                          74.5  34 
 BRR  HZ EP       1353 47.78                             150   -0.1410 78.6 297 
 BRR  HN ES   1   1354  4.73                             150    0.19 7 78.6 297 
 BRR  HZ I        1354 18.30        11.5 0.31                          78.6 297 
 RUS  HZ EP   1   1353 49.92                             144   -0.04 7 98.4 180 
 RUS  HN ES   1   1354  8.26                             144    0.10 7 98.4 180 
 RUS  HZ I        1354  9.71         2.3 0.27                          98.4 180 
                                                                                
