 2017 1122 1209 54.5 L   6.786 -73.190139.2  RSN  4 0.2 1.4LRSN                1
 GAP=274        0.60       5.6     3.6  5.0  0.2197E+01  0.6832E+01 -0.9198E+00E
 Epicentro: ZAPATOCA - SANTANDER                                               3
 ACTION:UPD 17-12-12 19:58 OP:rebc STATUS:               ID:20171122120954 L   I
 OLDACT:DUP 17-11-22 23:18 OP:dhb  STATUS:               ID:20171122120745d    3
 OLDACT:REG 17-11-22 21:26 OP:dhb  STATUS:               ID:20171122120744     3
 2017-11-22-1208-00M.COL___489                                                 6
 STAT SP IPHASW D HRMM SECON CODA AMPLIT PERI AZIMU VELO AIN AR TRES W  DIS CAZ7
 BAR2 EZ IP     C 1210 13.36                             171    0.0910 21.5 178 
 BAR2 EZ ES       1210 27.88                             171   -0.0610 21.5 178 
 BAR2 EZ I        1210 29.20         8.7 0.18            168           21.5 178 
 RUS  HZ EP       1210 17.30                             143   -0.2010 99.5 173 
 RUS  HN ES       1210 35.58                             143    0.1110 99.5 173 
 RUS  HZ I        1210 37.22         4.3 0.50            143           99.5 173 
 PTB  HZ EP       1210 20.19                             131   -0.25 9  143 259 
 PTB  HN ES       1210 40.85                             131    0.15 9  143 259 
 PTB  HZ I        1210 43.34         2.5 0.12            132            143 259 
 NOR  HZ EP       1210 29.80                             118    0.50 8  230 234 
 NOR  HN ES       1210 56.20                             118   -0.27 8  230 234 
 NOR  HZ I        1210 59.25         2.2 0.16            118            230 234 
                                                                                
