 2012 1022 1951 25.9 L   6.807 -73.150144.4  RSN  5 0.4 1.8LRSN                1
 GAP=238        0.84      10.5    14.9  8.7  0.1280E+03  0.3892E+02  0.2530E+01E
 Epicentro: LOS SANTOS - SANTANDER                                             3
 ACTION:UPD 12-11-22 17:05 OP:ep   STATUS:               ID:20121022195125 L   I
 2012-10-22-1950-00M.COL___234                                                 6
 STAT SP IPHASW D HRMM SECON CODA AMPLIT PERI AZIMU VELO AIN AR TRES W  DIS CAZ7
 BAR2 SZ ES   1   1951 59.79                             170   -0.77 7 24.0 189 
 BAR2 SZ I        1952  2.00        13.8 0.20                          24.0 189 
 BRR  HZ EP       1951 47.14                             153    0.3010 70.4 298 
 BRR  HN ES   1   1952  3.69                             153    0.50 7 70.4 298 
 BRR  HZ I        1952  7.03        15.9 0.37                          70.4 298 
 RUS  HN ES       1952  8.20                             143    0.1710  101 176 
 ZAR  HZ EP       1951 57.84                             122   -0.33 9  203 292 
 ZAR  HE ES   1   1952 23.16                             122   -0.19 6  203 292 
 ZAR  HZ I        1952 28.97         4.6 0.36                           203 292 
 CHI  HZ EP   2   1952  3.57                             117   -0.01 4  249 195 
                                                                                
