 2017  322 1308 44.6 L   6.745 -73.173144.0  RSN  6 0.5 1.8LRSN                1
 GAP=145        1.12       6.1     5.2  8.2 -0.9112E+01  0.7414E+01  0.6825E+01E
 Epicentro: LOS SANTOS - SANTANDER                                             3
 ACTION:UPD 17-05-25 18:43 OP:jn   STATUS:               ID:20170322130844 L   I
 OLDACT:REG 17-03-22 20:37 OP:cog  STATUS:               ID:20170322130748     3
 2017-03-22-1308-00M.COL___385                                                 6
 STAT SP IPHASW D HRMM SECON CODA AMPLIT PERI AZIMU VELO AIN AR TRES W  DIS CAZ7
 BAR2 EZ EP       13 9  3.79                             173   -0.1010 16.9 184 
 BAR2 EZ ES       13 9 18.59                             173   -0.3610 16.9 184 
 BAR2 EZ I        13 9 19.86        14.7 0.24            174           16.9 184 
 BRR  HZ EP       13 9  5.86                             152    0.2810 71.8 304 
 BRR  HN ES       13 9 22.89                             152    0.9410 71.8 304 
 BRR  HZ I        13 9 24.67        12.7 0.38            149           71.8 304 
 PAM  EZ EP       13 9  6.90                             148   -0.1210 84.0  38 
 PAM  EN ES       13 9 24.37                             148   -0.1510 84.0  38 
 PAM  EZ I        13 9 26.20         9.4 0.44            150           84.0  38 
 PTB  HZ EP       13 9 10.74                             132   -0.31 9  144 261 
 PTB  HN ES       13 9 30.89                             132   -0.80 9  144 261 
 PTB  HZ I        13 9 33.83         6.4 0.14            132            144 261 
 SPBC HZ EP       13 9 12.64                             130    0.31 9  157 220 
 SPBC HN ES       13 9 34.38                             130    0.41 9  157 220 
 SPBC HZ I        13 9 36.86        14.2 0.14            131            157 220 
 ZAR  HZ EP   3   13 9 17.72                             122    0.84 2  204 294 
 ZAR  HE ES       13 9 41.83                             122   -0.24 9  204 294 
 ZAR  HZ I        13 9 48.54         7.8 0.44            122            204 294 
                                                                                
