 2012  422 1817 29.3 L   6.768 -73.123143.3  RSN  5 0.1 1.8LRSN                1
 GAP=141        0.40       2.3     3.8  3.4  0.1904E+00 -0.4875E+00 -0.1537E+01E
 Epicentro: LOS SANTOS - SANTANDER                                             3
 ACTION:UPD 12-07-05 11:55 OP:tino STATUS:               ID:20120422181729 L   I
 2012-04-22-1810-00M.COL___186                                                 6
 STAT SP IPHASW D HRMM SECON CODA AMPLIT PERI AZIMU VELO AIN AR TRES W  DIS CAZ7
 BAR2 SZ EP       1817 48.74                             171     0.110   20 199 
 BAR2 SZ ES   1   1818  3.67                             171     0.0 7   20 199 
 BAR2 SZ I        1818  6.74        16.0 0.40                            20 199 
 BRR  HZ EP       1817 50.48                             151     0.010   75 300 
 BRR  HZ I        1817 50.85        21.9 0.17                            75 300 
 BRR  HE ES   1   1818  6.94                             151     0.0 7   75 300 
 PAM  SZ EP       1817 51.45                             150     0.110   79  36 
 PAM  SE ES   1   1818  8.52                             150     0.0 7   79  36 
 RUS  HZ EP       1817 52.60                             144     0.010   97 177 
 RUS  HN ES   1   1818 10.47                             144    -0.2 7   97 177 
 RUS  HZ I        1818 12.57         5.6 0.32                            97 177 
 OCA  SZ EP       1817 57.60                             128    -0.2 9  164 352 
                                                                                
