 2017  522 1235 44.0 L   6.776 -73.140145.3  RSN  5 0.3 1.8LRSN                1
 GAP=236        0.70       4.1     4.4  6.1  0.7737E+01  0.2741E+01 -0.1091E+01E
 Epicentro: LOS SANTOS - SANTANDER                                             3
 ACTION:UPD 17-06-16 13:38 OP:jn   STATUS:               ID:20170522123544 L   I
 OLDACT:REG 17-05-22 20:48 OP:dnl  STATUS:               ID:20170522122235     3
 2017-05-22-1228-00M.COL___353                                                 6
 STAT SP IPHASW D HRMM SECON CODA AMPLIT PERI AZIMU VELO AIN AR TRES W  DIS CAZ7
 BRR  HZ EP       1236  5.21                             152    0.0610 73.1 300 
 BRR  HN ES       1236 21.96                             152    0.2710 73.1 300 
 BRR  HZ I        1236 26.44        14.0 0.12            151           73.1 300 
 RUS  HZ EP       1236  7.77                             145    0.3110 97.9 176 
 RUS  HN ES       1236 25.52                             145   -0.2810 97.9 176 
 RUS  HZ I        1236 26.43         4.7 0.22            149           97.9 176 
 PTB  HZ EP       1236 10.69                             132   -0.20 9  148 260 
 PTB  HN ES       1236 31.49                             132   -0.41 9  148 260 
 PTB  HZ I        1236 34.05         9.3 0.22            134            148 260 
 ZAR  HZ EP       1236 16.21                             122   -0.32 8  206 293 
 ZAR  HN ES       1236 42.06                             122    0.12 8  206 293 
 ZAR  HZ I        1236 47.80        10.4 0.72            124            206 293 
 NOR  HZ EP   2   1236 19.83                             118    0.29 4  234 235 
 NOR  HN ES       1236 47.72                             118    0.42 8  234 235 
 NOR  HZ I        1236 48.94         3.2 0.28            121            234 235 
                                                                                
