 2017 1022 1102 51.1 L   6.775 -73.158142.0  RSN 10 0.4 1.5LRSN                1
 GAP=111        1.01       4.1     4.0  6.3  0.6034E+00  0.5376E+01  0.9407E+01E
 Epicentro: LOS SANTOS - SANTANDER                                             3
 ACTION:UPD 17-11-07 19:35 OP:rebc STATUS:               ID:20171022110251 L   I
 OLDACT:UP  17-10-22 22:41 OP:edw  STATUS:               ID:20171022105504     3
 OLDACT:UP  17-10-22 22:21 OP:edw  STATUS:               ID:20171022105504     3
 OLDACT:REG 17-10-22 19:45 OP:edw  STATUS:               ID:20171022105504     3
 2017-10-22-1058-00M.COL___399                                                 6
 STAT SP IPHASW D HRMM SECON CODA AMPLIT PERI AZIMU VELO AIN AR TRES W  DIS CAZ7
 BAR2 EZ EP       11 3  9.95                             171   -0.3010 20.4 188 
 BAR2 EZ ES       11 3 25.81                             171    0.6510 20.4 188 
 BAR2 EZ I        11 3 27.43         6.5 0.38            167           20.4 188 
 BRR  HZ EP       11 3 11.91                             152    0.0310 71.4 301 
 BRR  HE ES       11 3 28.16                             152    0.0910 71.4 301 
 PAM  EN ES       11 3 29.93                             149   -0.3610 80.4  39 
 RUS  HZ EP       11 3 14.41                             144    0.0910 97.9 175 
 RUS  HN ES       11 3 32.27                             144   -0.1310 97.9 175 
 RUS  HZ I        11 3 42.52         1.9 0.46            144           97.9 175 
 PTB  HZ EP       11 3 17.45                             131   -0.17 9  146 260 
 PTB  HN ES       11 3 37.83                             131   -0.45 9  146 260 
 PTB  HZ I        11 3 42.21         2.4 0.14            133            146 260 
 SPBC HZ EP       11 3 20.07                             129    1.02 9  160 219 
 SPBC HN ES       11 3 40.42                             129   -0.41 9  160 219 
 SPBC HZ I        11 3 46.82         4.9 0.12            130            160 219 
 YPLC HZ EP       11 3 20.36                             126   -0.12 9  175 151 
 ZAR  HZ EP   4   11 3 26.96                             122    3.65 0  204 293 
 ZAR  HN ES       11 3 48.76                             122    0.35 9  204 293 
 ZAR  HZ I        11 3 54.89         5.0 0.40            125            204 293 
 NOR  HZ EP   4   11 3 25.32                             118   -1.03 0  232 235 
 NOR  HN ES       11 3 53.52                             118   -0.30 8  232 235 
 GUY2CHE ES   4   11 4 10.78                             112    2.88 0  298 235 
 PRA  HZ EP       11 3 43.68                             106   -0.48 6  389 210 
 PRA  HE ES       11 4 26.01                             106    0.49 6  389 210 
 PRA  HZ I        11 4 31.67         1.5 0.28            108            389 210 
                                                                                
