 2011  222 1545  3.8 L   6.707 -73.554145.7  RSN  4 0.1 1.5LRSN                1
 GAP=254        0.37      10.6    51.2 15.4  0.4074E+03  0.7509E+03  0.1293E+03E
 Epicentro: EL CARMEN DE CHUCURI - SANTANDER                                   3
 ACTION:UP  11-03-28 15:10 OP:jfem STATUS:               ID:20110222154503 L   I
 2011-02-22-1542-44S.COL___137                                                 6
 STAT SP IPHASW D HRMM SECON CODA AMPLIT PERI AZIMU VELO SNR AR TRES W  DIS CAZ7
 BTL  SZ EP       1545 23.97                             164     0.110   39  54 
 BTL  SZ ES   1   1545 39.39                             164    -0.1 7   39  54 
 BAR2 SZ EP       1545 23.84                             163    -0.110   43 107 
 BAR2 SZ ES   1   1545 39.81                             163     0.1 7   43 107 
 BAR2 SZ I        1545 40.58         7.4 0.22                            43 107 
 GIR2 SZ ES   2   1545 40.53                             157     0.0 5   57  44 
 RUS  HZ EP   2   1545 27.85                             143     0.1 5  104 150 
                                                                                
