 2015  122 1014 38.5 L   6.785 -73.098146.1  RSN  5 0.3 1.3LRSN                1
 GAP=143        0.73       4.5     4.4  8.0  0.1876E+01  0.1057E+02 -0.1138E+02E
 Epicentro: LOS SANTOS - SANTANDER                                             3
 ACTION:UPD 15-03-02 15:41 OP:nd   STATUS:               ID:20150122101438 L   I
 OLDACT:REG 15-01-22 20:01 OP:spq  STATUS:               ID:20150122100740     3
 2015-01-22-1007-40M.COL___261                                                 6
 STAT SP IPHASW D HRMM SECON CODA AMPLIT PERI AZIMU VELO AIN AR TRES W  DIS CAZ7
 PAM  SZ EP       1015  1.02                             151    0.4010 75.5  36 
 PAM  SE ES       1015 17.88                             151   -0.0110 75.5  36 
 PAM  SZ I        1015 19.91         3.8 0.44            157           75.5  36 
 BRR  HZ EP   1   1015  0.16                             151    0.18 7 76.6 298 
 BRR  HN ES   1   1015 16.61                             151   -0.14 7 76.6 298 
 BRR  HZ I        1015 25.03         5.1 0.32            151           76.6 298 
 RUS  HE ES   1   1015 20.27                             144   -0.32 7 98.7 179 
 RUS  HZ I        1015 21.52         1.6 0.28            151           98.7 179 
 ZAR  HE ES       1015 37.56                             122    0.28 8  209 292 
 ZAR  HZ I        1015 40.21         1.4 0.44            126            209 292 
 SML  HZ EP   1   1015 14.72                             117   -0.81 6  247 334 
 SML  HE ES       1015 44.19                             117   -0.23 8  247 334 
 SML  HZ I        1015 47.01         2.2 0.00            122            247 334 
                                                                                
