 2013  222 1125  9.9 L   7.094 -73.951 94.4  RSN  5 0.3 1.7LRSN                1
 GAP=153        0.71       4.2     3.1  5.9  0.4649E+01  0.1415E+01  0.2155E+01E
 Epicentro: BARRANCABERMEJA - SANTANDER                                        3
 ACTION:UPD 13-03-12 09:34 OP:ep   STATUS:               ID:20130222112509 L   I
 2013-02-22-1120-00M.COL___238                                                 6
 STAT SP IPHASW D HRMM SECON CODA AMPLIT PERI AZIMU VELO AIN AR TRES W  DIS CAZ7
 BRR  HZ EP       1125 22.98                             163   -0.1810 26.5  87 
 BRR  HN ES       1125 33.48                             163   -0.0110 26.5  87 
 BRR  HN I        1125 33.80        62.1 0.36            140           26.5  87 
 PTB  HZ EP       1125 26.71                             135   -0.1110 82.9 222 
 PTB  HN ES       1125 39.76                             135   -0.2510 82.9 222 
 PTB  HN I        1125 41.48         7.3 0.18            119           82.9 222 
 BAR2 SZ EP       1125 28.64                             129   -0.1810  102 123 
 BAR2 SZ I        1125 46.38         7.2 0.52            108            102 123 
 ZAR  HZ EP       1125 29.32                             127    0.0510  109 294 
 ZAR  HN ES       1125 44.71                             127    0.3410  109 294 
 ZAR  HN I        1125 46.75        18.8 0.24            110            109 294 
 RUS  HN ES   1   1125 56.53                             116    0.78 7  164 144 
 RUS  HN I        1125 59.80         3.7 0.42            100            164 144 
                                                                                
