 2011  522 1140 22.1 L   7.396 -73.148132.0  RSN  6 0.3 1.6LRSN                1
 GAP=152        0.72       8.1    11.5 12.0 -0.6211E+02  0.9264E+02 -0.5371E+02E
 Epicentro: EL PLAYON - SANTANDER                                              3
 ACTION:UP  11-06-29 08:55 OP:tino STATUS:               ID:20110522114022 L   I
 2011-05-22-1135-07S.COL___141                                                 6
 STAT SP IPHASW D HRMM SECON CODA AMPLIT PERI AZIMU VELO SNR AR TRES W  DIS CAZ7
 GIR2 SZ EP   3   1140 40.48                             164     0.2 2   35 188 
 PAM  SZ EP       1140 41.08                             159    -0.310   50  97 
 PAM  SN ES   1   1140 56.88                             159     0.5 7   50  97 
 BTL  SZ EP       1140 41.47                             157     0.310   54 194 
 GRA  SZ EP       1140 41.62                             152    -0.110   66  35 
 GRA  SZ ES   2   1140 56.57                             152    -0.4 5   66  35 
 BRR  HZ EP       1140 41.72                             150     0.010   70 243 
 BRR  HZ I        1140 41.96         7.7 0.29                            70 243 
 BAR2 SZ ES   1   1140 59.43                             144    -0.4 7   89 182 
 BAR2 SZ I        1141  1.00         7.6 0.18                            89 182 
                                                                                
