 2011  222 1253 24.2 L   6.655 -72.947154.0  RSN  5 0.2 1.2LRSN                1
 GAP=184        0.52       9.5    37.7 13.8 -0.8912E+02 -0.3158E+03  0.1676E+02E
 Epicentro: ARATOCA - SANTANDER                                                3
 ACTION:UP  11-03-28 15:10 OP:jfem STATUS:               ID:20110222125324 L   I
 2011-02-22-1251-58S.COL___137                                                 6
 STAT SP IPHASW D HRMM SECON CODA AMPLIT PERI AZIMU VELO SNR AR TRES W  DIS CAZ7
 BAR2 SZ EP       1253 44.98                             170     0.110   27 255 
 BAR2 SZ I        1254  1.34         3.8 0.34                            27 255 
 BTL  SZ EP       1253 45.31                             163    -0.210   46 309 
 GIR2 SZ EP   2   1253 46.23                             160     0.6 5   54 330 
 GIR2 SZ ES   2   1254  2.41                             160     0.0 5   54 330 
 RUS  HN ES   3   1254  6.07                             150    -0.2 2   86 190 
 RUS  HZ I        1254  8.53         1.9 0.35                            86 190 
 GRA  SZ EP   2   1253 50.99                             136    -0.1 5  137   7 
 GRA  SZ I        1254 11.90         2.6 0.19                           137   7 
                                                                                
