 2016  822 1138 26.5 L   6.372 -73.580106.4  RSN  4 0.4 1.6LRSN                1
 GAP=220        1.10       9.2     5.5 10.0  0.8384E+01  0.2322E+02  0.1092E+02E
 Epicentro: SANTA HELENA DEL OPON - SANTANDER                                  3
 ACTION:UPD 16-10-29 15:38 OP:rebc STATUS:               ID:20160822113826 L   I
 OLDACT:UP  16-08-22 22:24 OP:ar   STATUS:               ID:20160822113745     3
 OLDACT:REG 16-08-22 20:28 OP:ar   STATUS:               ID:20160822113745     3
 2016-08-22-1137-45M.COL___337                                                 6
 STAT SP IPHASW D HRMM SECON CODA AMPLIT PERI AZIMU VELO AIN AR TRES W  DIS CAZ7
 BAR2 EZ EP       1138 42.92                             153    0.4010 50.3  61 
 BAR2 EZ ES       1138 55.32                             153    0.2710 50.3  61 
 BRR  HZ EP       1138 43.82                             139   -0.5810 82.6 350 
 BRR  HN ES       1138 58.01                             139   -0.3810 82.6 350 
 BRR  HZ I        1139  4.20         8.5 0.58                          82.6 350 
 PTB  HZ EP       1138 45.70                             134   -0.0810 98.7 281 
 PTB  HN ES       1139  0.65                             134   -0.2010 98.7 281 
 PTB  HZ I        1139  2.09         7.4 0.07                          98.7 281 
 ZAR  HZ EP       1138 54.75                             114   -0.14 9  188 311 
 ZAR  HN ES       1139 17.94                             114    0.88 9  188 311 
 ZAR  HZ I        1139 20.01         5.1 0.17                           188 311 
                                                                                
