 2012 1122 1055 10.3 L   6.795 -73.159146.0  RSN 12 0.4 2.6LRSN                1
 GAP=135        0.71       2.7     3.8  5.1 -0.5768E+00  0.7321E+01 -0.3210E+00E
 Epicentro: LOS SANTOS - SANTANDER                                             3
 ACTION:UPD 12-12-05 15:35 OP:}ep  STATUS:               ID:20121122105510 L   I
 2012-11-22-1050-00M.COL___233                                                 6
 STAT SP IPHASW D HRMM SECON CODA AMPLIT PERI AZIMU VELO AIN AR TRES W  DIS CAZ7
 BAR2 SZ EP   1   1055 29.83                             171   -0.08 7 22.6 186 
 BAR2 SZ ES   1   1055 45.58                             171    0.35 7 22.6 186 
 BAR2 SZ I        1055 46.78       166.7 0.42                          22.6 186 
 GIR2 SZ EP   1   1055 29.96                             167   -0.01 7 31.6 353 
 GIR2 SZ ES   1   1055 45.57                             167    0.22 7 31.6 353 
 PAM  SZ EP   1   1055 32.64                             150    0.05 7 78.7  40 
 PAM  SE ES   1   1055 49.83                             150   -0.17 7 78.7  40 
 PAM  SZ I        1055 52.21        84.7 0.50                          78.7  40 
 RUS  HZ EP   1   1055 33.80                             144   -0.21 7  100 175 
 RUS  HE ES   1   1055 52.66                             144    0.13 7  100 175 
 RUS  HZ I        1055 54.20        54.3 0.38                           100 175 
 PTB  HZ EP   1   1055 36.47                             132   -0.64 7  146 259 
 PTB  HN ES   1   1055 57.85                             132   -0.20 7  146 259 
 PTB  HZ I        1055 59.53        51.8 0.22                           146 259 
 OCA  HZ EP   1   1055 39.03                             130    0.40 7  161 354 
 OCA  HN ES   1   1056  0.17                             130   -0.58 7  161 354 
 OCA  HZ I        1056  4.39        41.9 0.24                           161 354 
 ZAR  HZ EP   1   1055 42.59                             123   -0.01 6  203 292 
 ZAR  HE ES   1   1056  7.73                             123   -0.10 6  203 292 
 ZAR  HZ I        1056 13.59        48.7 0.38                           203 292 
 SML  HZ EP   1   1055 46.68                             118   -0.21 6  244 336 
 SML  HN ES   1   1056 15.91                             118    0.46 6  244 336 
 CHI  HZ EP   1   1055 47.77                             117   -0.11 6  248 195 
 CHI  HN ES   1   1056 17.00                             117   -0.22 6  248 195 
 CHI  HZ I        1056 22.65        12.2 0.28                           248 195 
 HEL  HZ EP   1   1055 51.65                             115    1.34 6  270 256 
 HEL  HN ES   1   1056 21.48                             115   -0.07 6  270 256 
 HEL  HZ I        1056 28.70        25.7 0.30                           270 256 
 GUY  SZ EP   4   1055 56.06                             112    2.08 0  302 235 
 GUY  SN ES   4   1056 29.95                             112    1.88 0  302 235 
 GUY  SZ I        1056 36.57        26.2 0.58                           302 235 
 RREF HZ EP   4   1055 58.36                             111    2.11 0  320 229 
 RREF HN ES   4   1056 34.09                             111    1.97 0  320 229 
 RREF HZ I        1056 37.66        20.1 0.30                           320 229 
                                                                                
