 2016  422 1607 34.0 L   6.737 -73.148140.2  RSN  6 0.4 1.9LRSN                1
 GAP=259        0.92       6.2     5.8  7.8  0.1943E+01  0.1490E+02  0.5053E+01E
 Epicentro: LOS SANTOS - SANTANDER                                             3
 ACTION:UPD 16-05-05 14:23 OP:rebc STATUS:               ID:20160422160734 L   I
 OLDACT:ARG 16-04-22 20:26 OP:ar   STATUS:               ID:20160422155750     3
 2016-04-22-1557-50M.COL___318                                                 6
 STAT SP IPHASW D HRMM SECON CODA AMPLIT PERI AZIMU VELO AIN AR TRES W  DIS CAZ7
 BAR2 EZ EP       16 7 52.78                             173   -0.1010 16.5 193 
 BAR2 EZ ES       16 8  7.78                             173    0.2110 16.5 193 
 BAR2 EZ I        16 8  8.47        14.0 0.26            168           16.5 193 
 PTB  HZ EP       16 8  0.75                             131    0.33 9  146 261 
 PTB  HE ES       16 8 20.47                             131   -0.53 9  146 261 
 PTB  HZ I        16 8 23.25         9.0 0.56            129            146 261 
 SPBC HZ EP       16 8  0.87                             129   -0.72 9  158 220 
 SPBC HN ES       16 8 23.18                             129    0.11 9  158 220 
 SPBC HZ I        16 8 27.16        16.2 0.24            128            158 220 
 ZAR  HN ES       16 8 31.71                             121    0.10 8  207 294 
 ZAR  HZ I        16 8 38.05         8.1 0.26            120            207 294 
 NOR  HZ EP       16 8  9.45                             118    0.45 8  230 236 
 NOR  HE ES       16 8 36.57                             118    0.31 8  230 236 
 NOR  HZ I        16 8 44.19         5.7 0.18            117            230 236 
 GUY2CHZ EP   4   16 8 19.11                             112    2.19 0  297 236 
 GUY2CHN ES   4   16 8 51.53                             112    1.16 0  297 236 
 GUY2CHZ I        16 8 59.50         3.5 0.30                           297 236 
                                                                                
