 2010  822 1016  3.1 L   7.195 -74.076  3.6  RSN  4 0.2 1.1LRSN                1
 GAP=279        0.48       5.4     6.7  6.5 -0.2214E+02 -0.3127E+02  0.2186E+02E
 Epicentro: PUERTO WILCHES - SANTANDER                                         3
 ACTION:UP  10-09-07 10:57 OP:vdl  STATUS:               ID:20100822101603 L   I
 2010-08-22-1013-53S.COL___120                                                 6
 STAT SP IPHASW D HRMM SECON CODA AMPLIT PERI AZIMU VELO SNR AR TRES W  DIS CAZ7
 BRR  HZ IP     C 1016  9.94                              47    -0.110   41 104 
 BRR  HN ES       1016 15.51                              47     0.110   41 104 
 BRR  HZ I        1016 16.38        10.5 0.29                            41 104 
 BTL  SZ EP   1   1016 18.34                              47     0.0 7   94 109 
 GRA  SZ ES   2   1016 47.68                              47     0.0 5  160  61 
 GRA  SZ I        1016 48.38         3.8 0.34                           160  61 
 RUS  HZ EP   2   1016 32.29                              37     0.6 4  181 143 
 RUS  HN ES   1   1016 53.83                              37    -0.1 7  181 143 
 RUS  HZ I        1016 55.64         1.5 0.21                           181 143 
                                                                                
