 2010  722 1057 17.9 L   6.773 -73.105143.9  RSN 12 0.4 2.4LRSN                1
 GAP=163        0.95       4.3     7.1  6.6 -0.8626E+01  0.5010E+01  0.9911E+00E
 Epicentro: LOS SANTOS - SANTANDER                                             3
 ACTION:UPD 10-12-01 15:19 OP:pat  STATUS:               ID:20100722105717 L   I
 2010-07-22-1054-35S.COL___123                                                 6
 STAT SP IPHASW D HRMM SECON CODA AMPLIT PERI AZIMU VELO AIN AR TRES W  DIS CAZ7
 BAR2 SZ IP       1057 37.23                             171    -0.110   22 203 
 BAR2 SZ ES   1   1057 52.93                             171     0.5 7   22 203 
 BAR2 SZ I        1057 53.66        37.0 0.17                            22 203 
 GIR2 SZ EP   1   1057 37.21                             166    -0.3 7   35 344 
 GIR2 SZ ES   2   1057 52.94                             166     0.2 5   35 344 
 BRR  HZ IP     C 1057 39.11                             151    -0.110   77 299 
 BRR  HZ I        1057 40.51        51.7 0.12                            77 299 
 BRR  HN ES   1   1057 55.62                             151    -0.2 7   77 299 
 RUS  HZ IP     D 1057 41.24                             144     0.010   97 179 
 RUS  HE ES   1   1057 59.22                             144    -0.3 7   97 179 
 RUS  HZ I        1058  2.05        24.9 0.32                            97 179 
 GUE  SZ EP   1   1057 42.04                             138    -0.6 7  119  10 
 GRA  SZ IP       1057 44.05                             136     0.910  127  15 
 GRA  SZ I        1058  9.62        16.4 0.32                           127  15 
 OCA  SZ EP   1   1057 45.82                             129    -0.6 7  164 352 
 OCA  SZ I        1058 12.33        33.6 0.46                           164 352 
 CHI  HZ EP   1   1057 55.42                             117     0.1 6  247 196 
 CHI  HE ES   2   1058 24.69                             117     0.1 4  247 196 
 CHI  HZ I        1058 28.88         9.2 0.26                           247 196 
 HEL  HZ EP   2   1057 58.73                             114     0.3 4  276 257 
 HEL  HN ES   2   1058 30.07                             114     0.0 4  276 257 
 HEL  HZ I        1058 35.85        17.8 0.44                           276 257 
 GUY  SN ES   2   1058 36.56                             112     0.7 4  303 236 
 GUY  SZ I        1058 44.33        31.1 0.57                           303 236 
 RREF HZ EP   1   1058  4.56                             110     0.4 5  323 230 
 RREF HE ES   2   1058 40.14                             110    -0.1 3  323 230 
 RREF HZ I        1058 49.27        10.3 0.38                           323 230 
 PRA  HZ EP   1   1058 11.07                             106    -0.3 4  392 210 
 PRA  HE ES   1   1058 52.52                             106    -0.5 4  392 210 
 PRA  HZ I        1058 59.56        13.1 0.24                           392 210 
                                                                                
