 2017 1022 1148 52.4 L   6.791 -73.185147.2  RSN  7 0.3 1.5LRSN                1
 GAP=232        0.85       4.3     4.4  6.2  0.4905E+01  0.5978E+01  0.3076E+01E
 Epicentro: ZAPATOCA - SANTANDER                                               3
 ACTION:UPD 17-11-07 19:35 OP:rebc STATUS:               ID:20171022114852 L   I
 OLDACT:DUP 17-10-22 22:54 OP:edw  STATUS:               ID:20171022114409d    3
 OLDACT:UP  17-10-22 22:51 OP:edw  STATUS:               ID:20171022114408     3
 OLDACT:REG 17-10-22 19:49 OP:edw  STATUS:               ID:20171022114408     3
 2017-10-22-1148-00M.COL___384                                                 6
 STAT SP IPHASW D HRMM SECON CODA AMPLIT PERI AZIMU VELO AIN AR TRES W  DIS CAZ7
 BAR2 EZ EP       1149 11.85                             171   -0.3610 22.0 179 
 BAR2 EZ ES       1149 27.26                             171   -0.3810 22.0 179 
 BAR2 EZ I        1149 29.46         6.2 0.28            167           22.0 179 
 BRR  HZ EP       1149 13.76                             154    0.2110 67.9 301 
 BRR  HN ES       1149 30.44                             154    0.4110 67.9 301 
 RUS  HZ EP       1149 16.34                             144    0.0610  100 174 
 RUS  HN ES       1149 35.12                             144    0.2310  100 174 
 PTB  HZ EP       1149 18.89                             133   -0.22 9  143 259 
 PTB  HN ES       1149 39.31                             133   -0.61 9  143 259 
 PTB  HZ I        1149 42.14         2.2 0.14            133            143 259 
 SPBC HZ EP       1149 20.80                             130    0.09 9  160 218 
 SPBC HN ES       1149 43.22                             130    0.45 9  160 218 
 SPBC HZ I        1149 49.75         7.7 0.34            129            160 218 
 ZAR  HN ES       1149 49.93                             123    0.25 9  200 293 
 NOR  HN ES       1149 55.24                             119   -0.15 8  231 234 
                                                                                
