 2010  722 1438  8.7 L   6.790 -73.082144.6  RSN  5 0.1 1.8LRSN                1
 GAP=243        0.33       3.8     6.0  3.7  0.1234E+02  0.1732E+01  0.4434E+01E
 Epicentro: LOS SANTOS - SANTANDER                                             3
 ACTION:UPD 10-12-01 15:19 OP:pat  STATUS:               ID:20100722143808 L   I
 2010-07-22-1434-40S.COL___123                                                 6
 STAT SP IPHASW D HRMM SECON CODA AMPLIT PERI AZIMU VELO AIN AR TRES W  DIS CAZ7
 BAR2 SZ EP   1   1438 28.03                             170    -0.2 7   25 207 
 BAR2 SZ ES   1   1438 43.55                             170     0.1 7   25 207 
 BAR2 SZ I        1438 46.41        11.3 0.45                            25 207 
 BRR  HZ EP   1   1438 30.10                             150     0.0 7   78 297 
 BRR  HZ I        1438 32.25        15.7 0.43                            78 297 
 BRR  HN ES   1   1438 46.82                             150     0.0 7   78 297 
 RUS  HZ EP   1   1438 32.28                             144     0.1 7   99 180 
 RUS  HE ES   2   1438 50.48                             144    -0.1 5   99 180 
 RUS  HZ I        1438 52.71         5.4 0.28                            99 180 
 CHI  HZ EP   2   1438 46.64                             117     0.2 4  250 197 
 CHI  HZ I        1438 49.18         3.6 0.54                           250 197 
 PRA  HZ EP   2   1439  2.62                             106     0.2 3  395 211 
 PRA  HN ES   2   1439 44.27                             106    -0.1 3  395 211 
 PRA  HZ I        1439 48.76         2.9 0.46                           395 211 
                                                                                
