 2012  122 1515 30.3 L   6.767 -73.102149.8  RSN  6 0.4 1.6LRSN                1
 GAP=144        0.81       5.6     7.0 10.1  0.1311E+02  0.2314E+02  0.2470E+02E
 Epicentro: LOS SANTOS - SANTANDER                                             3
 ACTION:DUP 12-02-03 08:19 OP:REBC STATUS:               ID:20120122151531dL   I
 2012-01-22-1510-00M.COL___186                                                 6
 STAT SP IPHASW D HRMM SECON CODA AMPLIT PERI AZIMU VELO SNR AR TRES W  DIS CAZ7
 BAR2 SZ EP   1   1515 50.76                             172     0.4 7   21 205 
 BAR2 SZ I        1516  7.17         9.2 0.34                            21 205 
 BRR  HZ EP   1   1515 51.80                             151    -0.4 7   77 299 
 BRR  HZ I        1515 54.51         9.2 0.08                            77 299 
 BRR  HN ES   1   1516  9.53                             151     0.2 7   77 299 
 PAM  SN ES   1   1516 10.53                             152     0.0 7   77  35 
 RUS  HZ EP   1   1515 53.65                             146    -0.5 7   97 179 
 RUS  HN ES   1   1516 12.70                             146     0.0 7   97 179 
 RUS  HZ I        1516 15.25         3.4 0.28                            97 179 
 ZAR  HN ES   1   1516 29.41                             122    -0.1 6  210 293 
 CHI  HZ EP   1   1516  8.69                             118     0.8 6  246 196 
 CHI  HN ES   2   1516 36.86                             118    -0.5 4  246 196 
                                                                                
