 2014  722 1735  7.5 L   6.765 -73.140149.1  RSN 11 0.5 1.9LRSN                1
 GAP=201        1.08       4.4     6.3  7.2  0.8576E+01  0.5663E+01 -0.9522E+00E
 Epicentro: LOS SANTOS - SANTANDER                                             3
 ACTION:UPD 15-03-16 20:46 OP:nd   STATUS:               ID:20140722173507 L   I
 OLDACT:DUP 14-07-22 22:04 OP:fm   STATUS:               ID:20140722172820d    3
 2014-07-22-1728-19M.COL___272                                                 6
 STAT SP IPHASW D HRMM SECON CODA AMPLIT PERI AZIMU VELO AIN AR TRES W  DIS CAZ7
 BAR2 SZ EP       1735 27.37                             172   -0.0810 19.7 194 
 BAR2 SZ ES   1   1735 42.68                             172   -0.34 7 19.7 194 
 BAR2 SZ I        1735 44.06        15.2 0.32            165           19.7 194 
 BRR  HZ EP       1735 29.31                             153    0.1710 73.7 301 
 BRR  HN ES       1735 46.78                             153    0.7610 73.7 301 
 BRR  HZ I        1735 50.69         8.2 0.32            147           73.7 301 
 RUS  HZ EP       1735 31.69                             146    0.4010 96.6 176 
 RUS  HE ES       1735 49.57                             146   -0.2910 96.6 176 
 PTB  HZ EP       1735 34.22                             133   -0.50 9  148 260 
 PTB  HN ES       1735 55.07                             133   -0.90 9  148 260 
 PTB  HZ I        1736  1.33         6.9 0.40            129            148 260 
 SPBC HZ EP   1   1735 36.33                             131    0.33 7  161 220 
 SPBC HN ES   1   1735 59.16                             131    0.92 7  161 220 
 SPBC HZ I        1736  5.37        10.8 0.24            128            161 220 
 ZAR  HZ EP   2   1735 40.21                             123   -0.16 4  206 293 
 ZAR  HN ES       1736  6.23                             123    0.22 8  206 293 
 ZAR  HZ I        1736 11.86         7.0 0.48            121            206 293 
 NOR  HZ EP   1   1735 42.40                             120   -0.83 6  233 235 
 NOR  HN ES   4   1736  8.89                             120   -2.22 0  233 235 
 NOR  HZ I        1736 15.09         3.6 0.20            118            233 235 
 SML  HZ EP   1   1735 44.25                             118   -0.46 6  248 336 
 SML  HN ES       1736 13.72                             118   -0.03 8  248 336 
 SML  HZ I        1736 17.08         8.1 0.10            118            248 336 
 GUY2CHZ EP   1   1735 51.09                             113    0.03 5  300 235 
 GUY2CHN ES   4   1736 30.41                             113    5.36 0  300 235 
 GUY2CHZ I        1736 34.12         5.1 0.84                           300 235 
 TOL  SN ES   4   1736 35.73                             110    2.57 0  341 225 
 TOL  SZ I        1736 41.33         5.7 0.42            110            341 225 
 PRA  HZ EP   2   1736  1.69                             107    0.92 3  389 210 
 PRA  HN ES   1   1736 42.98                             107    0.65 4  389 210 
 PRA  HZ I        1736 48.82         2.3 0.42            107            389 210 
                                                                                
