 2010  922 1738 49.4 L   6.837 -73.042137.4  RSN  5 0.2 1.5LRSN                1
 GAP=170        0.55       5.8    15.0  7.1  0.5018E+02 -0.1835E+01 -0.9756E+01E
 Epicentro: LOS SANTOS - SANTANDER                                             3
 ACTION:UP  11-02-18 11:04 OP:tino STATUS:               ID:20100922173849 L   I
 2010-09-22-1735-17S.COL___122                                                 6
 STAT SP IPHASW D HRMM SECON CODA AMPLIT PERI AZIMU VELO SNR AR TRES W  DIS CAZ7
 BTL  SZ EP       1739  7.84                             168    -0.310   27 290 
 BAR2 SZ EP   3   1739  8.57                             166     0.3 2   31 210 
 BAR2 SZ ES   1   1739 22.74                             166    -0.2 7   31 210 
 BAR2 SZ I        1739 26.01         9.5 0.14                            31 210 
 BRR  HZ EP       1739 10.35                             147     0.210   80 292 
 BRR  HZ I        1739 11.44        12.1 0.34                            80 292 
 RUS  HZ EP       1739 12.77                             140     0.110  105 182 
 RUS  HE ES   1   1739 30.84                             140     0.1 7  105 182 
 RUS  HZ I        1739 32.72         3.3 0.15                           105 182 
 GRA  SZ ES   3   1739 32.59                             137     0.6 2  119  13 
 GRA  SZ I        1739 35.55         3.6 0.16                           119  13 
                                                                                
