 2010  122 1918  6.9 L   6.785 -73.048144.9  RSN 11 0.3 2.5LRSN                1
 GAP=193        0.69       2.6     5.1  4.7 -0.2289E+01  0.1163E+02  0.5041E+00E
 Epicentro: LOS SANTOS - SANTANDER                                             3
 ACTION:UP  10-08-24 09:45 OP:vdl  STATUS:               ID:20100122191806 L   I
 2010-01-22-1915-29S.COL___095                                                 6
 STAT SP IPHASW D HRMM SECON CODA AMPLIT PERI AZIMU VELO SNR AR TRES W  DIS CAZ7
 BAR2 SZ IP       1918 26.60                             169     0.110   26 215 
 BAR2 SZ ES   1   1918 41.59                             169    -0.2 7   26 215 
 GIR2 SZ IP       1918 26.82                             165     0.210   36 334 
 GIR2 SZ ES   1   1918 41.89                             165    -0.2 7   36 334 
 RUS  BZ IP       1918 30.48                             144     0.010   99 182 
 RUS  BN ES       1918 48.94                             144     0.110   99 182 
 RUS  BZ I        1918 50.47        31.8 0.44                            99 182 
 OCA  SZ IP       1918 35.90                             129     0.4 9  164 349 
 OCA  SZ ES   1   1918 57.48                             129    -0.3 7  164 349 
 OCA  SZ I        1919  0.78        87.7 0.22                           164 349 
 CHI  HZ IP       1918 44.82                             117     0.1 8  250 198 
 CHI  HN ES   1   1919 13.84                             117    -0.4 6  250 198 
 CHI  HZ I        1919 16.76        10.3 0.40                           250 198 
 HEL  HZ IP       1918 48.50                             114     0.3 7  282 257 
 HEL  HE ES   1   1919 20.67                             114     0.2 6  282 257 
 HEL  HZ I        1919 25.36        24.2 0.37                           282 257 
 GUY  HE ES   1   1919 25.98                             111    -0.1 5  309 236 
 RREF BZ EP   2   1918 53.60                             110    -0.3 3  329 231 
 RREF BE ES   2   1919 31.11                             110     0.6 3  329 231 
 RREF BZ I        1919 39.44        17.5 0.32                           329 231 
 TOL  SZ IP       1918 55.49                             109    -0.4 6  350 226 
 DBB  SZ IP       1918 55.09                             109    -0.5 6  350 274 
 PRA  HZ IP       1919  0.23                             106    -0.7 6  396 211 
 PRA  HN ES       1919 43.55                             106     0.6 6  396 211 
 PRA  HZ I        1919 50.67        10.2 0.45                           396 211 
                                                                                
