 2015 1122 1832 29.9 L   6.733 -73.121144.5  RSN  8 0.4 1.8LRSN                1
 GAP=143        1.04       3.4     4.8  6.2 -0.1855E+01  0.1025E+02 -0.2252E+01E
 Epicentro: JORDAN - SANTANDER                                                 3
 ACTION:UPD 15-12-28 16:12 OP:cam  STATUS:               ID:20151122183229 L   I
 OLDACT:UP  15-11-22 23:25 OP:mh   STATUS:               ID:20151122181949     3
 OLDACT:UP  15-11-22 23:20 OP:mh   STATUS:               ID:20151122181949     3
 OLDACT:REG 15-11-22 20:40 OP:mh   STATUS:               ID:20151122181949     3
 2015-11-22-1819-49M.COL___211                                                 6
 STAT SP IPHASW D HRMM SECON CODA AMPLIT PERI AZIMU VELO AIN AR TRES W  DIS CAZ7
 BAR2 EZ EP       1832 49.54                             173    0.2710 17.0 204 
 BAR2 EZ ES       1833  4.29                             173   -0.0910 17.0 204 
 BAR2 EZ I        1833  6.06        10.4 0.17            169           17.0 204 
 BRR  HZ EP       1832 51.63                             150    0.3510 77.3 302 
 BRR  HN ES       1833  8.56                             150    0.6110 77.3 302 
 BRR  HZ I        1833 23.45        17.6 0.43            148           77.3 302 
 PAM  EN EP       1832 52.48                             149    0.2310 81.7  35 
 PAM  EZ ES       1833  9.39                             149   -0.2910 81.7  35 
 PAM  EN I        1833 10.48        13.6 0.46            155           81.7  35 
 RUS  HZ EP       1832 53.57                             146    0.5710 93.0 177 
 RUS  HZ I        1832 54.35         5.0 0.54            151           93.0 177 
 RUS  HN ES       1833 10.47                             146   -0.5410 93.0 177 
 SPBC HZ EP       1832 57.79                             129   -0.15 9  159 221 
 SPBC HN ES       1833 19.41                             129   -0.39 9  159 221 
 ZAR  HZ EP       1833  3.29                             121    0.46 8  209 294 
 ZAR  HN ES       1833 28.37                             121   -0.14 8  209 294 
 ZAR  HZ I        1833 33.88         5.7 0.56            123            209 294 
 NOR  HZ EP       1833  5.32                             118   -0.03 8  233 236 
 NOR  HN ES       1833 32.94                             118   -0.06 8  233 236 
 NOR  HZ I        1833 39.68         3.7 0.13            121            233 236 
 SML  HZ EP       1833  6.33                             116   -0.99 8  252 335 
 SML  HN ES       1833 36.16                             116   -0.35 8  252 335 
 SML  HZ I        1833 36.70         7.1 0.24            119            252 335 
                                                                                
