 2015  522 1455 51.0 L   6.789 -73.118142.0  RSN  6 0.3 1.8LRSN                1
 GAP=141        0.71       3.7     3.7  6.1 -0.2737E+00  0.7826E+01  0.2710E+01E
 Epicentro: LOS SANTOS - SANTANDER                                             3
 ACTION:UPD 15-09-10 22:06 OP:cam  STATUS:               ID:20150522145551 L   I
 OLDACT:REG 15-05-22 20:29 OP:spq  STATUS:               ID:20150522144747     3
 2015-05-22-1447-47M.COL___294                                                 6
 STAT SP IPHASW D HRMM SECON CODA AMPLIT PERI AZIMU VELO AIN AR TRES W  DIS CAZ7
 BAR2 EZ EP       1456  9.97                             170   -0.2010 22.9 198 
 BAR2 EZ ES   1   1456 24.68                             170   -0.44 7 22.9 198 
 BAR2 EZ I        1456 25.77        14.5 0.32            170           22.9 198 
 BRR  HZ EP       1456 11.76                             151   -0.1810 74.5 298 
 BRR  HN ES       1456 28.78                             151    0.5110 74.5 298 
 BRR  HZ I        1456 32.69        18.5 0.14            150           74.5 298 
 PAM  SZ EP   1   1456 12.96                             150    0.20 7 76.4  37 
 PAM  SN ES       1456 29.59                             150   -0.1410 76.4  37 
 PAM  SZ I        1456 32.07        15.1 0.60            154           76.4  37 
 RUS  HZ EP   1   1456 14.55                             143    0.26 7 99.2 178 
 RUS  HN ES   1   1456 32.70                             143    0.25 7 99.2 178 
 RUS  HZ I        1456 34.43         6.1 0.18            146           99.2 178 
 ZAR  HZ EP   1   1456 23.99                             121    0.44 6  207 292 
 ZAR  HN ES       1456 48.62                             121   -0.32 8  207 292 
 ZAR  HZ I        1456 53.80         7.5 0.32            122            207 292 
 NOR  HE ES       1456 54.42                             117   -0.15 8  237 235 
 NOR  HZ I        1456 57.83         6.1 0.32            119            237 235 
                                                                                
