 2017  222 1249 23.1 L   7.407 -72.817  4.0  RSN  4 0.2 1.3LRSN                1
 GAP=238        0.63       4.1     1.9  5.1 -0.1067E+01  0.8393E+00  0.1005E+02E
 Epicentro: VETAS - SANTANDER                                                  3
 ACTION:UPD 17-05-24 15:39 OP:jn   STATUS:               ID:20170222124923 L   I
 OLDACT:UP  17-02-22 23:10 OP:edw  STATUS:               ID:20170222124746     3
 OLDACT:REG 17-02-22 19:49 OP:edw  STATUS:               ID:20170222124746     3
 2017-02-22-1248-00M.COL___376                                                 6
 STAT SP IPHASW D HRMM SECON CODA AMPLIT PERI AZIMU VELO AIN AR TRES W  DIS CAZ7
 PAM  EZ IP     D 1249 26.14                              47   -0.3110 15.0 120 
 PAM  EN ES       1249 29.23                              47    0.1610 15.0 120 
 BAR2 EZ EP     D 1249 38.84                              47   -0.0410 98.7 204 
 BAR2 EZ ES       1249 51.16                              47   -0.0410 98.7 204 
 BAR2 EZ I        1249 55.94         5.8 0.48             91           98.7 204 
 RUS  HZ EP   4   1249 50.91                              47    0.97 0  170 190 
 RUS  HN ES       1250 10.97                              47    0.07 9  170 190 
 RUS  HZ I        1250 14.37         2.8 0.32             56            170 190 
 PTB  HZ EP       1249 54.47                              37    0.50 9  205 242 
 PTB  HN ES       1250 17.80                              37   -0.27 9  205 242 
 PTB  HZ I        1250 19.24         3.6 0.30             56            205 242 
                                                                                
