 2015 1022 1621 34.1 L   6.272 -74.102 32.1  RSN  5 0.4 1.5LRSN                1
 GAP=120        0.91       3.3     2.2 11.3 -0.2752E+01 -0.1149E+01 -0.7069E+00E
 Epicentro: CIMITARRA - SANTANDER                                              3
 ACTION:UPD 15-12-22 20:42 OP:cam  STATUS:               ID:20151022162134 L   I
 OLDACT:UP  15-11-01 03:31 OP:DRIO STATUS:               ID:20151022162134 L   3
 OLDACT:UP  15-10-22 23:40 OP:drio STATUS:               ID:20151022161750     3
 OLDACT:UP  15-10-22 23:32 OP:drio STATUS:               ID:20151022161750     3
 OLDACT:REG 15-10-22 21:19 OP:dnl  STATUS:               ID:20151022161750     3
 2015-10-22-1617-50M.COL___318                                                 6
 STAT SP IPHASW D HRMM SECON CODA AMPLIT PERI AZIMU VELO AIN AR TRES W  DIS CAZ7
 BRR  HZ EP       1621 49.97                              61    0.2110  102  25 
 BRR  HN ES       1622  1.71                              61   -0.2410  102  25 
 BAR2 EZ EP       1621 51.17                              61    0.4010  108  71 
 BAR2 EZ ES       1622  3.92                              61    0.1710  108  71 
 BAR2 EZ I        1622  5.61        15.9 0.30             37            108  71 
 RUS  HZ EP       1621 52.50                              61   -0.1610  120 110 
 RUS  HE ES       1622  6.63                              61   -0.4810  120 110 
 RUS  HZ I        1622  7.31        11.7 0.24             43            120 110 
 HEL  HZ EP       1621 57.23                              61   -0.02 9  158 267 
 HEL  HE ES       1622 14.73                              61   -0.55 9  158 267 
 HEL  HZ I        1622 15.66         8.3 0.24             37            158 267 
 GUY2CHZ EP       1622  0.99                              61    0.68 9  182 230 
 GUY2CHN ES       1622 20.78                              61    0.04 9  182 230 
 GUY2CHZ I        1622 29.06         2.2 0.48                           182 230 
                                                                                
