 2016 1122 1122 18.7 L   6.810 -73.159140.8  RSN  8 0.4 1.6LRSN                1
 GAP=145        0.89       4.9     4.0  6.3 -0.5015E+01  0.5070E+01  0.9757E+01E
 Epicentro: LOS SANTOS - SANTANDER                                             3
 ACTION:UPD 17-10-26 21:10 OP:lp   STATUS:               ID:20161122112218 L   I
 OLDACT:DUP 16-11-22 21:42 OP:dani STATUS:               ID:20161122111745d    3
 OLDACT:UP  16-11-22 21:42 OP:dani STATUS:               ID:20161122111744     3
 OLDACT:REG 16-11-22 20:17 OP:dani STATUS:               ID:20161122111744     3
 2016-11-22-1118-00M.COL___349                                                 6
 STAT SP IPHASW D HRMM SECON CODA AMPLIT PERI AZIMU VELO AIN AR TRES W  DIS CAZ7
 BAR2 EZ EP       1122 37.62                             170   -0.1810 24.2 186 
 BAR2 EZ ES       1122 52.21                             170   -0.4410 24.2 186 
 BAR2 EZ I        1122 54.01         8.0 0.60            168           24.2 186 
 BRR  HZ EP       1122 39.29                             152    0.0410 69.4 298 
 BRR  HN ES       1122 55.52                             152    0.2710 69.4 298 
 BRR  HZ I        1122 59.29        12.5 0.31            154           69.4 298 
 PAM  EZ EP       1122 40.58                             150    0.1410 77.5  41 
 PAM  EN ES       1122 57.67                             150    0.3110 77.5  41 
 PAM  EZ I        1123  0.69         3.6 0.34            154           77.5  41 
 PTB  HZ EP       1122 44.38                             131   -0.82 9  147 258 
 PTB  HN ES       1123  5.58                             131   -0.25 9  147 258 
 PTB  HZ I        1123  7.97         3.6 0.17            133            147 258 
 ZAR  HE ES       1123 15.58                             121   -0.01 9  202 292 
 NOR  HZ EP       1122 54.47                             117    0.34 8  234 234 
 NOR  HN ES       1123 22.50                             117    0.77 8  234 234 
 NOR  HZ I        1123 26.69         1.8 0.31            119            234 234 
 CHI  HZ EP   2   1122 56.53                             116    0.28 4  249 195 
 CHI  HN ES   2   1123 25.74                             116    0.24 4  249 195 
 CHI  HZ I        1123 27.51         2.4 0.36            117            249 195 
 PRA  HZ EP   2   1123 11.62                             106   -0.50 3  392 209 
 PRA  HE ES   2   1123 54.09                             106    0.33 3  392 209 
 PRA  HZ I        1123 58.03         2.2 0.41            107            392 209 
                                                                                
