 2013  722 1438 17.9 L   6.720 -73.186146.0  RSN  4 0.3 1.9LRSN                1
 GAP=226        0.70       6.6     7.0  8.2  0.2549E+02  0.1222E+02  0.5878E+01E
 Epicentro: VILLANUEVA - SANTANDER                                             3
 ACTION:UPD 13-08-12 10:39 OP:ep   STATUS:               ID:20130722143817 L   I
 OLDACT:REG 13-07-22 15:59 OP:mh   STATUS:               ID:20130722143651     3
 2013-07-22-1436-51M.COL___219                                                 6
 STAT SP IPHASW D HRMM SECON CODA AMPLIT PERI AZIMU VELO AIN AR TRES W  DIS CAZ7
 BAR2 SZ EP       1438 37.30                             174   -0.0710 14.1 178 
 BAR2 SZ ES   1   1438 51.99                             174   -0.60 7 14.1 178 
 BAR2 SZ I        1438 53.30         8.6 0.30            165           14.1 178 
 BRR  HN ES       1438 55.96                             152    0.3110 72.2 306 
 BRR  HN I        1438 56.68        42.2 0.26            149           72.2 306 
 RUS  HN ES       1438 59.38                             146    0.2510 92.2 173 
 RUS  HN I        1439  1.34         8.0 0.32            143           92.2 173 
 PTB  HZ EP   1   1438 44.26                             133   -0.06 7  142 262 
 PTB  HN ES   1   1439  4.71                             133   -0.24 7  142 262 
 PTB  HN I        1439 10.62        14.9 0.28            129            142 262 
                                                                                
