 2013  422 1908 34.8 L   6.774 -73.229136.9  RSN  4 0.3 1.5LRSN                1
 GAP=144        0.67       5.4     4.8  7.3 -0.2269E+01  0.1344E+02  0.3631E+01E
 Epicentro: ZAPATOCA - SANTANDER                                               3
 ACTION:UPD 13-05-22 14:40 OP:EP   STATUS:               ID:20130422190834 L   I
 2013-04-22-1900-00M.COL___250                                                 6
 STAT SP IPHASW D HRMM SECON CODA AMPLIT PERI AZIMU VELO AIN AR TRES W  DIS CAZ7
 BAR2 SZ EP       19 8 53.31                             171    0.0410 20.7 166 
 BAR2 SZ ES   1   19 9  7.28                             171   -0.42 7 20.7 166 
 BAR2 SZ I        19 9  9.59         8.3 0.18            173           20.7 166 
 PAM  SN ES   1   19 9 13.75                             146    0.16 7 85.7  43 
 PAM  SZ I        19 9 15.99         6.9 0.48            149           85.7  43 
 RUS  HZ EP       19 8 57.18                             142   -0.3310 98.8 171 
 RUS  HE ES   1   19 9 15.77                             142    0.51 7 98.8 171 
 RUS  HZ I        19 9 17.13         5.4 0.34            146           98.8 171 
 PTB  HZ EP       19 9  0.30                             132    0.17 9  138 259 
 PTB  HN ES   1   19 9 19.89                             132   -0.03 7  138 259 
 PTB  HZ I        19 9 22.16         5.3 0.09            135            138 259 
                                                                                
