 2017  222 1036 53.7 L   6.839 -73.153152.0  RSN 29 0.6 2.9LRSN                1
 GAP= 64        1.31       3.9     3.5  5.7  0.1109E+01  0.4876E+01  0.5319E+01E
 Epicentro: LOS SANTOS - SANTANDER                                             3
 ACTION:UPD 17-05-24 15:39 OP:jn   STATUS:               ID:20170222103653 L   I
 OLDACT:UP  17-02-22 21:23 OP:edw  STATUS:               ID:20170222102742     3
 OLDACT:UP  17-02-22 21:21 OP:edw  STATUS:               ID:20170222102742     3
 OLDACT:REG 17-02-22 19:34 OP:edw  STATUS:               ID:20170222102742     3
 2017-02-22-1028-00M.COL___370                                                 6
 STAT SP IPHASW D HRMM SECON CODA AMPLIT PERI AZIMU VELO AIN AR TRES W  DIS CAZ7
 BAR2 EZ IP     D 1037 14.07                             169   -0.1210 27.4 187 
 BAR2 EZ ES       1037 29.90                             169   -0.2510 27.4 187 
 BAR2 EZ I        1037 31.96       272.6 0.40            167           27.4 187 
 BRR  HZ IP     D 1037 15.87                             154    0.4610 68.6 296 
 BRR  HN ES       1037 32.91                             154    0.5910 68.6 296 
 BRR  HZ I        1037 36.72       115.0 0.14            152           68.6 296 
 PAM  EZ EP     C 1037 16.96                             152    0.5110 74.7  42 
 PAM  EN ES       1037 34.25                             152    0.0710 74.7  42 
 PAM  EZ I        1037 37.20       122.0 0.44            154           74.7  42 
 RUS  HZ IP     D 1037 17.94                             144   -0.4610  105 176 
 RUS  HN ES       1037 36.75                             144   -0.9010  105 176 
 RUS  HZ I        1037 38.01       150.8 0.38            141            105 176 
 PTB  HZ EP     C 1037 20.59                             133   -0.63 9  148 257 
 PTB  HN ES       1037 42.12                             133   -0.54 9  148 257 
 PTB  HZ I        1037 45.47        83.0 0.20            131            148 257 
 TAM  HZ IP     C 1037 22.55                             131    0.47 9  157 106 
 TAM  HZ I        1037 43.48        50.7 0.36            131            157 106 
 TAM  HN ES       1037 44.23                             131    0.04 9  157 106 
 ZAR  HZ EP       1037 26.03                             124   -0.32 9  202 291 
 ZAR  HN ES       1037 51.99                             124    0.19 9  202 291 
 ZAR  HZ I        1038  1.05        74.7 0.16            122            202 291 
 CHI  HZ EP     C 1037 32.43                             118    0.23 8  253 195 
 CHI  HN ES       1038  1.50                             118   -0.71 8  253 195 
 CHI  HZ I        1038 11.70        31.8 0.52            116            253 195 
 ROSC BZ EP       1037 33.89                             117    1.34 8  256 210 
 ROSC BN ES       1038  4.20                             117    1.38 8  256 210 
 ROSC BZ I        1038  8.79        85.7 0.45            116            256 210 
 HEL  HZ EP       1037 34.63                             116    0.33 8  272 255 
 HEL  HN ES       1038  6.25                             116    0.31 8  272 255 
 HEL  HZ I        1038 14.35        40.1 0.38            114            272 255 
 URE  HZ EP   9   1037 33.81                             115   -1.04 0  282 291 
 URE  HN ES       1038  4.55                             115   -1.34 7  282 291 
 URE  HZ I        1038 11.25        29.8 0.36            113            282 291 
 LL1C HZ EP   4   1037 39.53                             113    2.41 0  302 352 
 LL1C HN ES   4   1038 15.57                             113    4.60 0  302 352 
 VIL  EZ EP       1037 37.79                             113   -0.10 7  307 191 
 VIL  EE ES       1038 12.16                             113   -0.17 7  307 191 
 VIL  EZ I        1038 17.62        58.7 0.32            111            307 191 
 PTGC HZ IP     D 1037 37.27                             112   -1.08 7  313 159 
 PTGC HN ES   4   1038 10.00                             112   -3.15 0  313 159 
 PTGC HZ I        1038 12.01        44.1 0.22            111            313 159 
 LL6C HN EP   4   1037 20.96                             112   -18.2 0  321 358 
 LL6C HE ES   4   1037 55.54                             112   -19.1 0  321 358 
 ELA  HZ EP   4   1037 43.40                             111    2.30 0  331 229 
 ELA  HN ES   4   1038 19.79                             111    1.75 0  331 229 
 ELA  HZ I        1038 33.36        40.0 0.42            110            331 229 
 CBOC HZ EP   4   1037 41.86                             111    0.89 0  334 251 
 CBOC HN ES       1038 18.07                             111    0.25 7  334 251 
 CBOC HZ I        1038 35.20        14.1 0.62            109            334 251 
 DBB  EZ EP       1037 41.62                             110    0.28 7  338 274 
 DBB  EN ES       1038 17.63                             110   -0.85 7  338 274 
 DBB  EZ I        1038 19.61        15.7 0.38            109            338 274 
 ARGC HZ EP   4   1037 40.40                             109   -2.73 0  355 340 
 ARGC HN ES   4   1038 22.20                             109    0.53 0  355 340 
 ANIL HZ EP   4   1037 45.32                             109    1.26 0  360 224 
 ANIL HN ES   4   1038 26.23                             109    2.90 0  360 224 
 ANIL HZ I        1038 34.17        92.4 0.28            108            360 224 
 PRA  HZ EP       1037 47.68                             107   -0.17 6  395 209 
 PRA  HN ES   4   1038 28.57                             107   -1.51 0  395 209 
 PRA  HZ I        1038 36.35        43.6 0.42            106            395 209 
 APAC HZ EP     C 1037 47.94                             107    0.05 6  396 287 
 APAC HN ES   4   1038 27.90                             107   -2.24 0  396 287 
 APAC HZ I        1038 32.58        10.9 0.40            106            396 287 
 ORTC HZ EP       1037 48.34                             107    0.13 6  398 216 
 ORTC HN ES       1038 31.31                             107    0.60 6  398 216 
 ORTC HZ I        1038 38.00        23.0 0.32            106            398 216 
 SJC  HZ EP       1037 48.28                             107   -0.75 6  405 327 
 SJC  HN ES   4   1038 27.95                             107   -4.22 0  405 327 
 SJC  HZ I        1038 33.46        10.8 0.36            106            405 327 
 CRJC HZ EP   9   1037 54.58                             104   -1.33 0  463   4 
 CRJC HN ES       1038 41.59                             105   -1.49 5  463   4 
 CRJC HZ I        1038 43.90        15.7 0.48            104            463   4 
 SMAR HZ EP   4   1037 59.20                             103   -0.05 0  493 346 
 SMAR HN ES   4   1038 45.92                             103   -4.44 0  493 346 
 SMAR HZ I        1038 51.58        12.6 0.80            102            493 346 
 MARO HZ EP       1038  5.78                             102    0.52 4  540 215 
 MARO HN ES   4   1038 55.60                             102   -5.46 0  540 215 
 URI  HZ EP       1038  4.87                             101   -1.53 4  553  13 
 URI  HN ES   4   1038 58.66                             101   -4.42 0  553  13 
 URI  HZ I        1039  7.13         3.7 0.54            101            553  13 
 GARC HZ EP   4   1038  6.39                             101   -3.14 0  576 207 
 GARC HN ES   4   1039  2.50                             101   -6.16 0  576 207 
 GARC HZ I        1039 11.12        10.1 0.20            100            576 207 
 FLO2 HZ EP       1038 17.37                              99   -0.02 2  644 206 
 SOTO HZ EP   2   1038 18.12                              99   -0.10 1  646 217 
 BBAC HZ EP       1038 24.63                              98    0.26 1  700 221 
 BBAC HN ES   4   1039 13.69                              98   -21.4 0  700 221 
                                                                                
