 2013  622 1946 53.7 L   6.797 -73.138154.7  RSN  6 0.4 2.0LRSN                1
 GAP=188        0.90       5.9     6.5  7.7  0.6209E+01  0.5182E+00  0.1058E+02E
 Epicentro: LOS SANTOS - SANTANDER                                             3
 ACTION:UPD 14-01-08 09:56 OP:ep   STATUS:               ID:20130622194653 L   I
 OLDACT:UP  13-06-22 19:03 OP:cam  STATUS:               ID:20130622193959     3
 OLDACT:REG 13-06-22 19:00 OP:cam  STATUS:               ID:20130622193959     3
 2013-06-22-1939-59M.COL___266                                                 6
 STAT SP IPHASW D HRMM SECON CODA AMPLIT PERI AZIMU VELO AIN AR TRES W  DIS CAZ7
 GIR2 SZ EP       1947 14.41                             167   -0.0510 31.7 349 
 GIR2 SZ ES   2   1947 30.25                             167   -0.39 5 31.7 349 
 BRR  HZ IP     D 1947 16.25                             153    0.3710 72.1 298 
 BRR  HZ I        1947 16.43        23.6 0.22            134           72.1 298 
 BRR  HN ES       1947 33.80                             153    0.6310 72.1 298 
 RUS  HZ EP       1947 18.14                             146   -0.1810  100 177 
 RUS  HN ES   1   1947 37.14                             146   -0.38 7  100 177 
 RUS  HZ I        1947 38.08         5.8 0.36            135            100 177 
 PTB  HZ EP       1947 21.21                             134   -0.28 9  149 259 
 PTB  HN ES       1947 42.61                             134   -0.55 9  149 259 
 PTB  HZ I        1947 44.30        10.5 0.16            117            149 259 
 ZAR  HZ EP   1   1947 26.85                             124    0.00 6  205 292 
 ZAR  HZ I        1947 58.85        12.1 0.36            109            205 292 
 PRA  HZ EP   1   1947 48.02                             108    0.45 4  392 210 
 PRA  HN ES   1   1948 30.50                             108    0.92 4  392 210 
 PRA  HZ I        1948 36.15         3.0 0.58            100            392 210 
                                                                                
