 2010  622 1345 53.3 L   6.798 -73.079147.0  RSN  5 0.3 1.3LRSN                1
 GAP=163        0.67       5.1    11.0 12.2 -0.8628E+01 -0.5334E+02 -0.6828E+01E
 Epicentro: LOS SANTOS - SANTANDER                                             3
 ACTION:UP  10-08-24 10:12 OP:vdl  STATUS:               ID:20100622134553 L   I
 2010-06-22-1341-47S.COL___119                                                 6
 STAT SP IPHASW D HRMM SECON CODA AMPLIT PERI AZIMU VELO SNR AR TRES W  DIS CAZ7
 BRR  HZ EP   1   1346 15.04                             151     0.1 7   78 296 
 BRR  HN ES   2   1346 31.89                             151     0.0 5   78 296 
 RUS  HZ EP   1   1346 17.04                             144    -0.1 7  100 180 
 RUS  HN ES   2   1346 35.81                             144     0.1 5  100 180 
 RUS  HZ I        1346 36.62         3.1 0.34                           100 180 
 BRI  SZ EP   1   1346 17.67                             142     0.5 7  106  17 
 GUE  SZ EP   1   1346 17.40                             140    -0.6 7  115   9 
 GRA  SZ EP   1   1346 18.71                             138     0.2 7  124  14 
 GRA  SZ ES   2   1346 38.03                             138    -0.1 5  124  14 
                                                                                
