 2014  122 1254 45.7 L   6.687 -73.080137.3  RSN  5 0.6 1.6LRSN                1
 GAP=150        1.45       6.9    11.2 10.4 -0.4684E+01 -0.1135E+01  0.1408E+02E
 Epicentro: JORDAN - SANTANDER                                                 3
 ACTION:UPD 14-03-13 09:57 OP:ep   STATUS:               ID:20140122125445 L   I
 OLDACT:REG 14-01-22 15:48 OP:stll STATUS:               ID:20140122124809     3
 2014-01-22-1248-09M.COL___250                                                 6
 STAT SP IPHASW D HRMM SECON CODA AMPLIT PERI AZIMU VELO AIN AR TRES W  DIS CAZ7
 BAR2 SZ EP       1255  4.39                             173    0.2210 15.4 227 
 BAR2 SZ ES       1255 19.34                             173    0.7610 15.4 227 
 BAR2 SZ I        1255 20.76        12.0 0.32            172           15.4 227 
 PAM  SZ EP       1255  7.29                             147   -0.1210 83.5  30 
 PAM  SZ I        1255  7.41        11.8 0.20            150           83.5  30 
 PAM  SN ES       1255 24.44                             147    0.0910 83.5  30 
 BRR  HZ EP       1255  5.94                             147   -0.8010 83.9 304 
 BRR  HN ES       1255 23.21                             147    0.0610 83.9 304 
 RUS  HZ EP       1255  7.95                             146    0.2410 87.9 180 
 RUS  HN ES       1255 23.91                             146   -0.9710 87.9 180 
 RUS  HZ I        1255 28.36         2.8 0.24            146           87.9 180 
 CHI  HZ EP       1255 22.68                             116    0.82 8  239 198 
                                                                                
