 2016  722 1459 26.0 L   6.725 -73.157143.3  RSN  8 0.8 1.9LRSN                1
 GAP=230        1.73       6.9    10.1 11.0  0.1950E+02  0.3711E+02  0.2141E+02E
 Epicentro: VILLANUEVA - SANTANDER                                             3
 ACTION:UPD 17-03-29 16:53 OP:lp   STATUS:               ID:20160722145926 L   I
 OLDACT:REG 16-07-22 20:52 OP:lv   STATUS:               ID:20160722145759     3
 2016-07-22-1457-59S.COL___340                                                 6
 STAT SP IPHASW D HRMM SECON CODA AMPLIT PERI AZIMU VELO AIN AR TRES W  DIS CAZ7
 BAR2 EZ EP       1459 44.93                             174   -0.3010 14.9 191 
 BAR2 EZ ES       1459 59.38                             174   -0.8210 14.9 191 
 BRR  HZ EP       1459 46.81                             151   -0.3010 74.5 305 
 BRR  HN ES       15 0  4.30                             151    0.7510 74.5 305 
 BRR  HZ I        15 0  7.87        15.6 0.17            149           74.5 305 
 RUS  HZ EP     C 1459 47.99                             146   -0.9810 92.4 175 
 RUS  HN ES       15 0  7.81                             146    0.9610 92.4 175 
 RUS  HZ I        15 0  8.84         9.3 0.30            147           92.4 175 
 SPBC HZ IP       1459 53.97                             130    0.30 9  156 221 
 SPBC HN ES       15 0 15.63                             130    0.41 9  156 221 
 SPBC HZ I        15 0 19.44        13.8 0.16            130            156 221 
 ZAR  HZ EP       1459 59.24                             122    0.69 8  206 294 
 ZAR  HN ES       15 0 23.35                             122   -0.55 8  206 294 
 ZAR  HZ I        15 0 29.17        13.9 0.21            122            206 294 
 CHI  HZ EP       15 0  3.63                             118    0.94 8  240 195 
 CHI  HN ES       15 0 31.33                             118    0.05 8  240 195 
 CHI  HZ I        15 0 34.71         2.4 0.08            119            240 195 
 GUY2CHN ES       15 0 42.00                             112   -0.31 7  295 236 
 GUY2CHZ I        15 0 55.81         4.4 0.40                           295 236 
 PRA  HZ EP       15 0 19.17                             107    0.61 6  384 210 
 PRA  HN ES       15 0 57.53                             107   -1.99 6  384 210 
 PRA  HZ I        15 1  4.56         3.4 0.45            108            384 210 
                                                                                
