 2016 1122 1123 53.4 L   6.796 -73.152146.0  RSN 10 0.5 2.1LRSN                1
 GAP=149        1.00       4.7     4.4  6.5 -0.3229E+01  0.4029E+01  0.1369E+02E
 Epicentro: LOS SANTOS - SANTANDER                                             3
 ACTION:UPD 17-10-26 21:10 OP:lp   STATUS:               ID:20161122112353 L   I
 OLDACT:UP  16-11-22 21:42 OP:dani STATUS:               ID:20161122111744     3
 OLDACT:REG 16-11-22 20:17 OP:dani STATUS:               ID:20161122111744     3
 2016-11-22-1118-00M.COL___349                                                 6
 STAT SP IPHASW D HRMM SECON CODA AMPLIT PERI AZIMU VELO AIN AR TRES W  DIS CAZ7
 BAR2 EZ EP       1124 12.89                             171   -0.1810 22.8 189 
 BAR2 HN ES       1124 28.28                             171   -0.1110 22.8 189 
 BAR2 EZ I        1124 29.13        29.6 0.22            166           22.8 189 
 BRR  HZ EP       1124 14.66                             153    0.0810 70.8 299 
 BRR  HE ES       1124 31.98                             153    0.9110 70.8 299 
 BRR  HZ I        1124 35.97        17.4 0.16            149           70.8 299 
 PAM  EZ EP       1124 15.85                             151    0.1410 78.2  40 
 PAM  EN ES       1124 32.88                             151   -0.2110 78.2  40 
 PAM  EZ I        1124 35.04        14.1 0.52            149           78.2  40 
 PTB  HZ EP       1124 19.61                             132   -0.73 9  147 259 
 PTB  HN ES       1124 40.76                             132   -0.58 9  147 259 
 PTB  HZ I        1124 42.65        12.4 0.13            126            147 259 
 ZAR  HZ EP   3   1124 27.74                             123    1.90 2  204 292 
 ZAR  HN ES       1124 50.89                             123   -0.23 9  204 292 
 ZAR  HZ I        1124 56.07        15.1 0.35            117            204 292 
 NOR  HZ EP       1124 29.05                             119   -0.03 8  234 234 
 NOR  HN ES       1124 57.49                             119    0.60 8  234 234 
 NOR  HZ I        1125  6.23         8.2 0.42            113            234 234 
 CHI  HZ EP       1124 31.45                             117    0.39 8  248 195 
 CHI  HN ES       1125  0.38                             117   -0.05 8  248 195 
 CHI  HZ I        1125  5.45         7.4 0.50            112            248 195 
 ROSC BN ES   4   1125  4.09                             117    2.94 0  252 211 
 ROSC BZ I        1125  7.38        18.2 0.39            111            252 211 
 PRA  HZ EP       1124 46.84                             107   -0.02 6  391 210 
 PRA  HN ES   3   1125 27.52                             107   -1.03 1  391 210 
 PRA  HZ I        1125 33.37         7.1 0.52            103            391 210 
 ORTC HZ EP       1124 47.36                             107    0.10 6  395 216 
 ORTC HZ I        1125 34.29         5.4 0.26            102            395 216 
                                                                                
