 2012 1022 1420 15.9 L   6.821 -73.245140.1  RSN  4 0.3 1.5LRSN                1
 GAP=131        0.57       4.9     6.3  8.0 -0.8919E+01  0.7523E+01  0.1231E+02E
 Epicentro: ZAPATOCA - SANTANDER                                               3
 ACTION:UPD 12-11-22 17:05 OP:ep   STATUS:               ID:20121022142015 L   I
 2012-10-22-1420-00M.COL___231                                                 6
 STAT SP IPHASW D HRMM SECON CODA AMPLIT PERI AZIMU VELO AIN AR TRES W  DIS CAZ7
 BAR2 SZ EP       1420 34.93                             169    0.0010 26.2 165 
 BAR2 SZ I        1420 53.03        10.5 0.41                          26.2 165 
 BRR  HZ EP   1   1420 36.29                             155    0.41 7 60.5 302 
 BRR  HN ES   2   1420 50.95                             155   -0.49 5 60.5 302 
 BRR  HZ I        1420 55.57         9.1 0.31                          60.5 302 
 PAM  SZ EP       1420 37.92                             148    0.0210 83.2  46 
 PAM  SN ES       1420 55.05                             148    0.0010 83.2  46 
 PAM  SZ I        1420 57.17         6.4 0.21                          83.2  46 
 RUS  HZ EP   1   1420 39.01                             142   -0.38 7  104 170 
 RUS  HE I        1420 40.96         3.8 0.33                           104 170 
 RUS  HN ES   2   1420 58.06                             142    0.36 5  104 170 
                                                                                
