 2013 1122 1453 19.7 L   6.833 -73.163145.6  RSN 11 0.5 2.2LRSN                1
 GAP=142        1.27       4.0     5.2  7.2 -0.4478E+01  0.9081E+01  0.2840E+01E
 Epicentro: LOS SANTOS - SANTANDER                                             3
 ACTION:UPD 14-01-09 16:30 OP:ep   STATUS:               ID:20131122145319 L   I
 OLDACT:REG 13-11-22 16:14 OP:nd   STATUS:               ID:20131122145000     3
 2013-11-22-1450-00M.COL___282                                                 6
 STAT SP IPHASW D HRMM SECON CODA AMPLIT PERI AZIMU VELO AIN AR TRES W  DIS CAZ7
 BAR2 SZ IP     D 1453 39.50                             169    0.1210 26.7 185 
 BAR2 SZ ES       1453 54.15                             169   -0.5810 26.7 185 
 BAR2 SZ I        1453 55.87        29.1 0.18            169           26.7 185 
 BRR  HZ IP     C 1453 41.21                             154    0.5710 67.8 297 
 BRR  HN ES       1453 57.78                             154    0.8110 67.8 297 
 BRR  HZ I        1454  1.86        28.4 0.14            152           67.8 297 
 PAM  SZ EP       1453 42.33                             151    0.5310 75.9  42 
 PAM  SN ES       1453 58.99                             151   -0.0610 75.9  42 
 PAM  SZ I        1454  1.65        22.4 0.40            155           75.9  42 
 PTB  HZ EP       1453 46.30                             132   -0.24 9  147 257 
 PTB  HN ES       1454  7.23                             132   -0.26 9  147 257 
 PTB  HZ I        1454 10.55        17.1 0.36            133            147 257 
 SPBC HZ EP       1453 48.22                             129   -0.12 9  165 218 
 SPBC HN ES       1454 10.84                             129    0.16 9  165 218 
 SPBC HZ I        1454 16.60        17.0 0.20            130            165 218 
 ZAR  HZ EP       1453 52.07                             123    0.27 9  201 291 
 ZAR  HN ES       1454 17.09                             123    0.24 9  201 291 
 ZAR  HZ I        1454 23.06        22.8 0.44            124            201 291 
 NOR  HZ EP       1453 55.63                             118    0.15 8  235 233 
 NOR  HN ES       1454 22.83                             118   -0.56 8  235 233 
 NOR  HZ I        1454 25.63        11.2 0.22            120            235 233 
 SML  HZ EP       1453 55.67                             118   -0.19 8  240 335 
 SML  HN ES       1454 22.62                             118   -1.46 8  240 335 
 SML  HZ I        1454 29.38        17.1 0.22            119            240 335 
 CHI  HZ EP       1453 57.74                             117    0.03 8  252 195 
 CHI  HN ES       1454 26.62                             117   -0.75 8  252 195 
 CHI  HZ I        1454 34.93         6.4 0.52            118            252 195 
 GUY2CHZ EP   4   1454  4.79                             112    1.43 0  302 234 
 GUY2CHN ES       1454 38.21                             112    0.80 7  302 234 
 GUY2CHZ I        1454 49.66         5.8 0.78                           302 234 
 SJC  HZ EP   4   1454 13.58                             106   -1.19 0  405 327 
 SJC  HN ES   4   1454 54.85                             106   -2.87 0  405 327 
 SJC  HZ I        1455  1.31         2.5 0.44            107            405 327 
                                                                                
