 2013  222 1212 38.3 L   6.782 -73.156150.2  RSN  6 0.3 2.6LRSN                1
 GAP=136        0.65       3.4     4.1  5.2 -0.2868E+01  0.1883E+01  0.5504E+01E
 Epicentro: LOS SANTOS - SANTANDER                                             3
 ACTION:UPD 13-03-12 09:34 OP:ep   STATUS:               ID:20130222121238 L   I
 2013-02-22-1210-00M.COL___238                                                 6
 STAT SP IPHASW D HRMM SECON CODA AMPLIT PERI AZIMU VELO AIN AR TRES W  DIS CAZ7
 BAR2 SZ EP       1212 58.29                             172   -0.1410 21.2 188 
 BAR2 SZ ES   1   1213 14.11                             172   -0.02 7 21.2 188 
 BAR2 SZ I        1213 16.30       100.8 0.52            167           21.2 188 
 BRR  HZ EP       1213  0.24                             153    0.3010 71.2 300 
 BRR  HN ES   1   1213 17.31                             153    0.50 7 71.2 300 
 BRR  HN I        1213 33.10        79.3 0.78            149           71.2 300 
 PAM  SZ EP       1213  1.20                             151    0.0710 79.6  39 
 PAM  SN ES       1213 18.67                             151   -0.2610 79.6  39 
 PAM  SN I        1213 18.99        73.5 0.80            159           79.6  39 
 RUS  HZ EP       1213  2.22                             145   -0.1510 98.7 175 
 RUS  HN ES   1   1213 21.47                             145    0.33 7 98.7 175 
 RUS  HN I        1213 27.34        60.4 0.68            151           98.7 175 
 PTB  HZ EP   1   1213  5.21                             133   -0.30 7  146 259 
 PTB  HN ES   1   1213 26.23                             133   -0.50 7  146 259 
 PTB  HN I        1213 32.00        50.2 0.34            134            146 259 
 CHI  HZ EP       1213 16.31                             118    0.29 8  246 195 
 CHI  HN ES   1   1213 45.25                             118   -0.19 6  246 195 
 CHI  HN I        1213 45.61        24.5 0.57            124            246 195 
                                                                                
