 2016 1222 1651 22.9 L   6.818 -73.201143.7  RSN  6 0.3 1.9LRSN                1
 GAP=146        0.69       3.4     3.9  5.1 -0.3708E+01  0.4446E+01  0.2672E+01E
 Epicentro: ZAPATOCA - SANTANDER                                               3
 ACTION:UPD 17-01-11 20:17 OP:rebc STATUS:               ID:20161222165122 L   I
 OLDACT:REG 16-12-22 20:54 OP:edw  STATUS:               ID:20161222164747     3
 2016-12-22-1648-00M.COL___386                                                 6
 STAT SP IPHASW D HRMM SECON CODA AMPLIT PERI AZIMU VELO AIN AR TRES W  DIS CAZ7
 BAR2 EZ EP       1651 42.34                             170    0.0010 25.1 175 
 BAR2 EZ ES       1651 57.18                             170   -0.3010 25.1 175 
 BAR2 EZ I        1652  0.01        24.6 0.30            169           25.1 175 
 PAM  EZ EP       1651 45.24                             150    0.1710 80.0  44 
 PAM  EN ES       1652  2.58                             150    0.2310 80.0  44 
 PAM  EZ I        1652  4.49        11.9 0.50            154           80.0  44 
 RUS  HZ EP       1651 46.30                             143   -0.3610  103 173 
 RUS  HN ES       1652  5.15                             143   -0.0210  103 173 
 RUS  HZ I        1652  6.08        10.1 0.32            144            103 173 
 PTB  HZ EP       1651 48.88                             133   -0.33 9  142 258 
 PTB  HN ES       1652  9.95                             133    0.23 9  142 258 
 PTB  HZ I        1652 15.06         7.0 0.12            133            142 258 
 CHI  HZ EP       1652  0.61                             117    0.06 8  249 194 
 CHI  HN ES       1652 30.41                             117    0.51 8  249 194 
 CHI  HZ I        1652 35.58         6.1 0.56            118            249 194 
 GUY2CHZ EP   4   1652  7.78                             112    1.78 0  297 234 
 GUY2CHE ES   4   1652 43.63                             112    4.02 0  297 234 
 GUY2CHZ I        1652 47.47         3.9 0.40                           297 234 
                                                                                
