 2015  922 1548  8.9 L   6.814 -73.147147.6  RSN 10 0.4 2.2LRSN                1
 GAP=196        0.82       3.6     5.2  5.8  0.1567E+01  0.4733E+01 -0.4042E+01E
 Epicentro: LOS SANTOS - SANTANDER                                             3
 ACTION:UPD 15-10-28 16:27 OP:cam  STATUS:               ID:20150922154808 L   I
 OLDACT:REG 15-09-22 22:03 OP:ar   STATUS:               ID:20150922153749     3
 2015-09-22-1537-49M.COL___358                                                 6
 STAT SP IPHASW D HRMM SECON CODA AMPLIT PERI AZIMU VELO AIN AR TRES W  DIS CAZ7
 BAR2 EZ EP       1548 28.68                             170   -0.1310 24.9 189 
 BAR2 EZ ES       1548 44.34                             170    0.0210 24.9 189 
 BAR2 EZ I        1548 45.65        13.4 0.24            169           24.9 189 
 BRR  HZ EP     C 1548 30.56                             153    0.3310 70.3 297 
 BRR  HE ES   2   1548 47.31                             153    0.47 5 70.3 297 
 BRR  HZ I        1548 52.67        19.9 0.32            148           70.3 297 
 PTB  HZ EP       1548 35.63                             132   -0.43 9  148 258 
 PTB  HN ES       1548 56.97                             132   -0.25 9  148 258 
 PTB  HZ I        1549  1.20        16.2 0.14            132            148 258 
 OCA  HZ EP   2   1548 37.63                             130    0.40 5  159 353 
 OCA  HN ES   2   1548 59.06                             130   -0.25 5  159 353 
 OCA  HZ I        1549  5.46        24.4 0.22            131            159 353 
 SPBC HZ EP       1548 37.67                             129   -0.00 9  164 219 
 SPBC HN ES   2   1549  0.05                             129   -0.05 5  164 219 
 SPBC HZ I        1549  4.20        23.0 0.14            132            164 219 
 ZAR  HZ EP       1548 42.24                             123    0.82 9  203 292 
 ZAR  HN ES       1549  7.13                             123    0.37 9  203 292 
 ZAR  HZ I        1549 12.68        25.6 0.34            123            203 292 
 SML  HZ EP       1548 45.63                             118    0.13 8  242 335 
 SML  HN ES       1549 13.34                             118   -0.68 8  242 335 
 SML  HZ I        1549 20.59        13.9 0.10            119            242 335 
 CHI  HZ EP   2   1548 47.12                             117    0.23 4  250 195 
 CHI  HN ES   2   1549 16.16                             117   -0.34 4  250 195 
 URE  HZ EP       1548 49.51                             114   -0.50 7  283 292 
 URE  HN ES   4   1549 20.39                             114   -1.66 0  283 292 
 URE  HZ I        1549 32.61        11.5 0.20            115            283 292 
 GUY2CHZ EP   4   1548 54.68                             113    1.97 0  302 235 
 GUY2CHE ES   4   1549 29.70                             113    2.84 0  302 235 
 GUY2CHZ I        1549 37.38         8.1 0.54                           302 235 
                                                                                
