 2017 1222 1042  1.9 L   6.814 -73.140136.2  RSN  6 0.3 1.3LRSN                1
 GAP=151        0.74       3.9     3.8  5.7 -0.4064E+01  0.8175E+01 -0.2364E+01E
 Epicentro: LOS SANTOS - SANTANDER                                             3
 ACTION:UPD 18-01-04 13:23 OP:rebc STATUS:               ID:20171222104201 L   I
 OLDACT:REG 17-12-22 20:34 OP:dhb  STATUS:               ID:20171222103738     3
 2017-12-22-1038-00M.COL___460                                                 6
 STAT SP IPHASW D HRMM SECON CODA AMPLIT PERI AZIMU VELO AIN AR TRES W  DIS CAZ7
 BAR2 EZ EP       1042 20.08                             169   -0.3210 24.9 191 
 BAR2 EZ ES       1042 35.17                             169    0.3310 24.9 191 
 PAM  EZ EP       1042 22.98                             149   -0.0210 75.9  40 
 PAM  EE ES       1042 39.21                             149   -0.2510 75.9  40 
 PAM  EZ I        1042 41.03         3.0 0.52            151           75.9  40 
 PTB  HZ EP   9   1042 26.94                             129   -1.23 0  149 258 
 PTB  HN ES       1042 47.59                                    0.15 9  149 258 
 PTB  HZ I        1042 51.40         2.1 0.26            129            149 258 
 OCA  HE ES       1042 51.09                             128    0.35 9  159 353 
 ZAR  HZ EP       1042 34.09                             120    0.36 9  204 292 
 ZAR  HE ES       1042 58.10                             120   -0.46 9  204 292 
 ZAR  HZ I        1043  4.37         2.8 0.15            120            204 292 
 GUY2CHN ES       1043 19.10                             110    0.07 7  303 235 
                                                                                
