 2016  922 1422 44.0 L   6.722 -73.098156.0  RSN 10 0.3 1.7LRSN                1
 GAP=146        0.86       4.3     5.0  5.5 -0.7311E+01 -0.2295E+01  0.5910E+01E
 Epicentro: JORDAN - SANTANDER                                                 3
 ACTION:UPD 17-08-17 21:15 OP:lp   STATUS:               ID:20160922142244 L   I
 OLDACT:UP  16-09-23 01:44 OP:edw  STATUS:               ID:20160922141736     3
 OLDACT:UP  16-09-23 01:41 OP:edw  STATUS:               ID:20160922141736     3
 OLDACT:UP  16-09-23 01:39 OP:edw  STATUS:               ID:20160922141736     3
 OLDACT:UP  16-09-23 01:37 OP:edw  STATUS:               ID:20160922141736     3
 OLDACT:REG 16-09-22 22:33 OP:edw  STATUS:               ID:20160922141736     3
 2016-09-22-1418-00M.COL___369                                                 6
 STAT SP IPHASW D HRMM SECON CODA AMPLIT PERI AZIMU VELO AIN AR TRES W  DIS CAZ7
 BAR2 EZ EP       1423  5.05                             173    0.2710 17.2 213 
 BAR2 EZ ES       1423 20.97                             173   -0.0010 17.2 213 
 BAR2 EZ I        1423 22.85         9.4 0.27            169           17.2 213 
 BRR  HZ EP       1423  6.93                             151    0.1510 80.1 302 
 BRR  HN ES       1423 24.60                             151    0.0710 80.1 302 
 PAM  EZ EP     C 1423  7.89                             151    0.3410 81.2  33 
 PAM  EN ES       1423 25.37                             151   -0.5310 81.2  33 
 PAM  EZ I        1423 27.06         2.7 0.23            154           81.2  33 
 RUS  HZ EP       1423  8.15                             148   -0.0510 91.8 179 
 RUS  HN ES       1423 27.20                             148    0.1310 91.8 179 
 RUS  HZ I        1423 28.92         4.6 0.20            149           91.8 179 
 PTB  HZ EP   9   1423 11.78                             133   -0.39 0  152 262 
 PTB  HN ES       1423 33.13                             133   -0.61 9  152 262 
 PTB  HZ I        1423 40.33         6.6 0.25            131            152 262 
 SPBC HZ EP   2   1423 12.42                             132   -0.62 5  160 222 
 SPBC HN ES   2   1423 36.24                             132    0.56 5  160 222 
 SPBC HZ I        1423 39.62         8.6 0.18            131            160 222 
 ZAR  HZ EP   4   1423 19.85                             123    1.87 0  212 294 
 ZAR  HN ES   4   1423 47.44                             123    2.97 0  212 294 
 ZAR  HZ I        1423 50.18         7.1 0.30            122            212 294 
 NOR  HN ES       1423 48.71                             120    0.09 8  234 237 
 CHI  HZ EP       1423 20.92                             120   -0.66 8  242 197 
 CHI  HN ES   4   1423 52.76                             120    1.88 0  242 197 
 GUY2CHZ EP   4   1423 22.86                             114   -5.21 0  301 237 
 GUY2CHN ES   4   1424  3.12                             114    0.70 0  301 237 
 GUY2CHZ I        1424 12.42         2.4 0.34                           301 237 
 SOCV BZ EP   4   1423 25.94                             114   -1.66 0  302  55 
 SOCV BN ES   4   1423 59.30                             114   -2.30 0  302  55 
                                                                                
