 2013 1022 1217 46.9 L   6.758 -73.142145.6  RSN  8 0.4 2.3LRSN                1
 GAP=139        0.93       4.3     4.3  6.4 -0.1004E+01  0.9600E+01  0.3274E+01E
 Epicentro: LOS SANTOS - SANTANDER                                             3
 ACTION:UPD 13-11-25 09:23 OP:ep   STATUS:               ID:20131022121746 L   I
 OLDACT:REG 13-10-22 14:46 OP:cam  STATUS:               ID:20131022120848     3
 2013-10-22-1208-48M.COL___218                                                 6
 STAT SP IPHASW D HRMM SECON CODA AMPLIT PERI AZIMU VELO AIN AR TRES W  DIS CAZ7
 BAR2 SZ EP       1218  6.48                             172    0.0010 18.9 194 
 BAR2 SZ ES       1218 21.23                             172   -0.4810 18.9 194 
 BAR2 SZ I        1218 22.52       107.4 0.23            170           18.9 194 
 BRR  HZ EP     C 1218  8.37                             152    0.1410 73.9 302 
 BRR  HN ES       1218 25.51                             152    0.6710 73.9 302 
 BRR  HZ I        1218 28.33        33.3 0.62            151           73.9 302 
 PAM  SZ EP   2   1218  9.35                             150    0.00 5 80.7  37 
 PAM  SN ES       1218 26.58                             150   -0.2410 80.7  37 
 PAM  SZ I        1218 28.81        28.2 0.66            154           80.7  37 
 RUS  HZ EP       1218 10.45                             145    0.1010 95.9 176 
 RUS  HN ES       1218 29.00                             145    0.3910 95.9 176 
 RUS  HZ I        1218 29.83        20.0 0.22            146           95.9 176 
 PTB  HZ EP       1218 13.05                             132   -0.82 9  147 261 
 PTB  HN ES       1218 34.48                             132   -0.38 9  147 261 
 PTB  HZ I        1218 37.42        26.3 0.18            132            147 261 
 SPBC HZ EP   2   1218 15.55                             130    0.43 5  160 220 
 SPBC HN ES   2   1218 37.27                             130    0.17 5  160 220 
 SPBC HZ I        1218 43.37        22.2 0.32            130            160 220 
 ZAR  HZ EP   1   1218 20.26                             122    0.65 6  206 293 
 ZAR  HN ES   1   1218 45.13                             122    0.05 6  206 293 
 ZAR  HZ I        1218 47.39        20.8 0.30            123            206 293 
 NOR  HZ EP   1   1218 22.44                             119    0.02 6  232 235 
 NOR  HN ES       1218 50.16                             119    0.07 8  232 235 
 NOR  HZ I        1218 54.66        14.4 0.20            120            232 235 
 HEL  HZ EP   4   1218 29.15                             115    2.07 0  271 257 
 GUY2CHZ EP   4   1218 31.63                             112    1.34 0  299 236 
                                                                                
