 2010  222 1406 25.7 L   6.777 -73.113142.3  RSN  5 0.4 1.8LRSN                1
 GAP=186        0.59       5.5    13.0  8.5  0.4221E+02 -0.1965E+02 -0.2179E+01E
 Epicentro: LOS SANTOS - SANTANDER                                             3
 ACTION:UP  10-08-24 09:50 OP:vdl  STATUS:               ID:20100222140625 L   I
 2010-02-22-1400-00S.COL___095                                                 6
 STAT SP IPHASW D HRMM SECON CODA AMPLIT PERI AZIMU VELO SNR AR TRES W  DIS CAZ7
 BAR2 SZ EP       14 6 44.81                             170    -0.110   22 201 
 BAR2 SZ ES   2   14 6 59.64                             170    -0.2 5   22 201 
 BRR  HZ EP       14 6 46.73                             150     0.010   76 299 
 BRR  HN ES   2   14 7  3.58                             150     0.4 5   76 299 
 BRR  HZ I        14 7  7.92        19.2 0.17                            76 299 
 RUS  BZ EP       14 6 49.19                             143     0.310   98 178 
 RUS  BN ES   2   14 7  6.81                             143    -0.2 5   98 178 
 RUS  BZ I        14 7  8.64         7.0 0.36                            98 178 
 OCA  SZ ES   2   14 7 15.61                             128    -0.5 5  163 352 
 CHI  HZ EP   3   14 7  2.77                             116    -0.3 2  247 196 
 CHI  HN ES   3   14 7 30.75                             116    -1.4 2  247 196 
 CHI  HZ I        14 7 39.35         3.3 0.61                           247 196 
                                                                                
