 2016  822 1844 56.4 L   6.869 -73.557106.8  RSN  5 0.5 1.8LRSN                1
 GAP=159        1.23       9.4     6.3 10.1  0.2133E+02  0.2381E+02  0.5951E+00E
 Epicentro: SAN VICENTE DE CHUCURI - SANTANDER                                 3
 ACTION:UPD 16-10-29 15:38 OP:rebc STATUS:               ID:20160822184456 L   I
 OLDACT:DUP 16-08-23 01:00 OP:ar   STATUS:               ID:20160822183748d    3
 OLDACT:UP  16-08-23 00:59 OP:ar   STATUS:               ID:20160822183747     3
 OLDACT:REG 16-08-22 21:15 OP:ar   STATUS:               ID:20160822183747     3
 2016-08-22-1837-47M.COL___343                                                 6
 STAT SP IPHASW D HRMM SECON CODA AMPLIT PERI AZIMU VELO AIN AR TRES W  DIS CAZ7
 BRR  HZ EP       1845 10.60                             162   -0.7210 31.4 327 
 BRR  HN ES       1845 22.54                             162   -0.3810 31.4 327 
 BAR2 EZ EP       1845 12.87                             152    0.2510 51.5 126 
 BAR2 EZ ES       1845 25.76                             152    0.5310 51.5 126 
 BAR2 EZ I        1845 27.01        19.1 0.21                          51.5 126 
 PTB  HZ EP       1845 16.12                             132   -0.3210  106 250 
 PTB  HN ES       1845 31.87                             132   -0.1610  106 250 
 PTB  HZ I        1845 37.56         7.0 0.08                           106 250 
 ZAR  HZ EP       1845 21.85                             119    0.07 9  159 296 
 ZAR  HN ES       1845 42.38                             119    0.85 9  159 296 
 ZAR  HZ I        1845 43.70        14.9 0.15                           159 296 
 URE  HZ EP   4   1845 34.46                             108    3.76 0  239 294 
 URE  HN ES   4   1845 55.46                             108   -1.96 0  239 294 
 URE  HZ I        1846  2.01         8.5 0.24                           239 294 
                                                                                
