 2016 1222 1325 31.8 L   6.822 -73.121145.5  RSN 12 0.4 2.1LRSN                1
 GAP=139        0.85       3.3     4.0  4.9 -0.3679E+00  0.3463E+01  0.5342E+01E
 Epicentro: LOS SANTOS - SANTANDER                                             3
 ACTION:UPD 17-01-11 20:17 OP:rebc STATUS:               ID:20161222132531 L   I
 OLDACT:UP  16-12-23 02:02 OP:edw  STATUS:               ID:20161222131747     3
 OLDACT:UP  16-12-23 02:02 OP:edw  STATUS:               ID:20161222131747     3
 OLDACT:UP  16-12-23 01:58 OP:edw  STATUS:               ID:20161222131747     3
 OLDACT:REG 16-12-22 20:35 OP:edw  STATUS:               ID:20161222131747     3
 2016-12-22-1318-00M.COL___371                                                 6
 STAT SP IPHASW D HRMM SECON CODA AMPLIT PERI AZIMU VELO AIN AR TRES W  DIS CAZ7
 BAR2 EZ IP     D 1325 51.26                             169   -0.2310 26.3 195 
 BAR2 EZ ES       1326  6.45                             169   -0.3810 26.3 195 
 BAR2 EZ I        1326  7.51        27.7 0.22            168           26.3 195 
 BRR  HZ EP     D 1325 53.29                             152    0.2610 72.5 296 
 BRR  HN ES       1326 10.02                             152    0.4610 72.5 296 
 BRR  HZ I        1326 10.87        18.6 0.10            149           72.5 296 
 PAM  EZ EP       1325 54.16                             152    0.3510 73.8  39 
 PAM  EN ES       1326 10.97                             152    0.0210 73.8  39 
 PAM  EZ I        1326 13.44        34.2 0.52            154           73.8  39 
 RUS  HZ EP       1325 55.29                             143   -0.4310  103 178 
 RUS  HE ES       1326 14.42                             143    0.0610  103 178 
 RUS  HZ I        1326 15.16        28.7 0.30            143            103 178 
 PTB  HZ EP   9   1325 58.13                             131   -0.93 0  151 258 
 PTB  HN ES       1326 19.09                             131   -0.28 9  151 258 
 PTB  HZ I        1326 21.66         8.4 0.11            129            151 258 
 ZAR  HZ EP   4   1326  6.44                             122    2.01 0  206 291 
 ZAR  HN ES       1326 29.37                             122   -0.49 8  206 291 
 ZAR  HZ I        1326 34.99        10.8 0.26            121            206 291 
 CHI  HZ EP       1326  9.46                             117   -0.38 8  252 196 
 CHI  HE ES       1326 39.80                             117    0.30 8  252 196 
 CHI  HZ I        1326 42.26         5.4 0.38            116            252 196 
 ROSC BZ EP   2   1326 11.25                             116    0.94 4  256 211 
 ROSC BN ES   4   1326 42.53                             116    2.20 0  256 211 
 ROSC BZ I        1326 46.14        10.6 0.30            116            256 211 
 GUY2CHZ EP       1326 15.43                             112   -0.41 7  305 235 
 GUY2CHE ES   4   1326 53.95                             112    3.79 0  305 235 
 GUY2CHZ I        1326 57.42         7.4 0.30                           305 235 
 ANIL HE ES   2   1327  1.74                             108    0.53 3  361 225 
 ORTC HZ EP       1326 26.32                             106    0.16 6  399 216 
 ORTC HN ES       1327  9.27                             106    0.74 6  399 216 
 ORTC HZ I        1327 15.10         4.2 0.44            106            399 216 
 SJC  HZ EP   4   1326 25.96                             106   -1.36 0  409 326 
 SJC  HN ES   4   1327  6.51                             106   -4.10 0  409 326 
 SJC  HZ I        1327 13.48         1.7 0.29            105            409 326 
 CRJC HZ EP   4   1326 31.44                             103   -2.58 0  465   3 
 CRJC HE ES   4   1327 19.63                             103   -2.89 0  465   3 
                                                                                
