 2011 1222 1115 44.9 L   6.747 -73.188150.7  RSN  6 0.3 1.6LRSN                1
 GAP=174        0.71       5.9     5.8  6.1  0.7579E+01  0.1025E+02  0.8635E+01E
 Epicentro: VILLANUEVA - SANTANDER                                             3
 ACTION:UPD 12-07-13 16:17 OP:ep   STATUS:               ID:20111222111544 L   I
 2011-12-22-1110-00M.COL___191                                                 6
 STAT SP IPHASW D HRMM SECON CODA AMPLIT PERI AZIMU VELO AIN AR TRES W  DIS CAZ7
 BAR2 SZ EP       1116  4.92                             173   -0.1210 17.1 178 
 BAR2 SZ ES   1   1116 20.17                             173   -0.56 7 17.1 178 
 BAR2 SZ I        1116 21.68         8.7 0.43                          17.1 178 
 GIR2 SZ EP   1   1116  5.11                             166   -0.23 7 36.7 359 
 GIR2 SZ ES   1   1116 21.68                             166    0.43 7 36.7 359 
 BRR  HZ EP   1   1116  6.44                             154   -0.12 7 70.2 305 
 BRR  HZ I        1116  7.05         8.2 0.17                          70.2 305 
 BRR  HE ES   1   1116 23.84                             154    0.41 7 70.2 305 
 RUS  HZ EP   1   1116  8.88                             146    0.09 7 95.2 173 
 RUS  HN ES   1   1116 27.66                             146    0.25 7 95.2 173 
 RUS  HZ I        1116 29.18         4.3 0.26                          95.2 173 
 PTB  HZ EP       1116 11.65                             134   -0.15 9  142 261 
 PTB  HN ES   1   1116 32.43                             134   -0.33 7  142 261 
 NOR  SZ EP   1   1116 20.89                             120    0.71 6  227 235 
                                                                                
