 2013  122 1921 29.0 L   6.790 -73.195141.7  RSN  4 0.4 1.5LRSN                1
 GAP=131        0.80       6.3     5.7 10.3 -0.7921E+01  0.1056E+02 -0.1716E+01E
 Epicentro: ZAPATOCA - SANTANDER                                               3
 ACTION:UPD 13-02-15 09:16 OP:ep   STATUS:               ID:20130122192129 L   I
 2013-01-22-1920-00M.COL___241                                                 6
 STAT SP IPHASW D HRMM SECON CODA AMPLIT PERI AZIMU VELO AIN AR TRES W  DIS CAZ7
 BRR  HZ EP   1   1921 50.12                             153    0.64 7 67.1 302 
 BRR  HN ES   1   1922  5.84                             153    0.39 7 67.1 302 
 BRR  HZ I        1922 17.26         8.2 0.32            150           67.1 302 
 PAM  SZ EP   1   1921 51.03                             149   -0.02 7 81.7  42 
 PAM  SN ES   1   1922  7.81                             149   -0.44 7 81.7  42 
 PAM  SZ I        1922 10.25         5.7 0.66            153           81.7  42 
 RUS  HN ES   1   1922 10.64                             143    0.15 7  100 173 
 PTB  HZ EP   1   1921 54.83                             132   -0.30 7  142 259 
 PTB  HN ES   1   1922 15.01                             132   -0.51 7  142 259 
 PTB  HZ I        1922 18.45         3.5 0.19            136            142 259 
                                                                                
