 2017  522 1118 15.0 L   7.460 -73.163132.5  RSN  4 0.2 1.6LRSN                1
 GAP=266        0.52       7.3     7.0  5.7  0.4395E+02 -0.1859E+02 -0.1909E+02E
 Epicentro: EL PLAYON - SANTANDER                                              3
 ACTION:UPD 17-06-16 13:38 OP:jn   STATUS:               ID:20170522111815 L   I
 OLDACT:UP  17-05-22 21:22 OP:dnl  STATUS:               ID:20170522110742     3
 OLDACT:REG 17-05-22 20:46 OP:dnl  STATUS:               ID:20170522110742     3
 2017-05-22-1108-00M.COL___344                                                 6
 STAT SP IPHASW D HRMM SECON CODA AMPLIT PERI AZIMU VELO AIN AR TRES W  DIS CAZ7
 BRR  HZ EP       1118 34.81                             150    0.0810 72.1 237 
 BRR  HN ES       1118 50.05                             150   -0.1110 72.1 237 
 BRR  HZ I        1118 50.43        19.5 0.34            136           72.1 237 
 RUS  HZ EP       1118 43.84                             124   -0.20 9  174 177 
 RUS  HE ES       1119  6.95                             124    0.23 9  174 177 
 RUS  HZ I        1119  9.19         2.3 0.66            117            174 177 
 PTB  HZ EP       1118 43.32                             124   -0.28 9  175 235 
 PTB  HN ES   4   1119  3.38                             124   -2.56 0  175 235 
 PTB  HZ I        1119  9.07         3.5 0.24            115            175 235 
 ZAR  HZ EP       1118 45.06                             122    0.27 9  187 271 
 ZAR  HN ES       1119  8.08                             122    0.03 9  187 271 
 ZAR  HZ I        1119 12.45         6.6 0.28            115            187 271 
                                                                                
