 2017 1122 1820 49.8 L   6.813 -73.104149.2  RSN  5 0.4 1.2LRSN                1
 GAP=247        1.06       7.4     6.3  8.3  0.1720E+02  0.1439E+02 -0.9380E+01E
 Epicentro: LOS SANTOS - SANTANDER                                             3
 ACTION:UPD 17-12-12 19:58 OP:rebc STATUS:               ID:20171122182049 L   I
 OLDACT:REG 17-11-22 22:18 OP:edw  STATUS:               ID:20171122181743     3
 2017-11-22-1818-00M.COL___477                                                 6
 STAT SP IPHASW D HRMM SECON CODA AMPLIT PERI AZIMU VELO AIN AR TRES W  DIS CAZ7
 BAR2 EZ EP       1821  9.58                             170   -0.3510 25.9 200 
 BAR2 EZ ES       1821 26.24                             170    0.6310 25.9 200 
 BAR2 EZ I        1821 26.30         3.8 0.16            165           25.9 200 
 RUS  HZ EP       1821 14.50                             144    0.4910  102 179 
 RUS  HN ES       1821 32.22                             144   -0.6510  102 179 
 RUS  HZ I        1821 33.80         1.7 0.42            142            102 179 
 PTB  HZ EP       1821 17.20                             132   -0.32 9  153 259 
 PTB  HN ES       1821 38.77                             132   -0.35 9  153 259 
 PTB  HZ I        1821 42.14         1.6 0.16            130            153 259 
 ZAR  HZ EP       1821 22.85                             123   -0.04 8  208 291 
 ZAR  HE ES       1821 48.70                             123    0.02 8  208 291 
 NOR  HZ EP       1821 26.58                             119    0.32 8  239 235 
 NOR  HN ES       1821 55.08                             119    0.41 8  239 235 
 NOR  HZ I        1821 59.72         2.2 0.28            118            239 235 
                                                                                
