 2012 1122 1118 19.8 L   6.810 -73.171151.8  RSN  5 0.1 1.4LRSN                1
 GAP=199        0.38       3.0     3.6  5.0  0.5284E+01  0.3089E+01 -0.3578E+01E
 Epicentro: LOS SANTOS - SANTANDER                                             3
 ACTION:UPD 12-12-05 15:35 OP:}ep  STATUS:               ID:20121122111819 L   I
 2012-11-22-1110-00M.COL___233                                                 6
 STAT SP IPHASW D HRMM SECON CODA AMPLIT PERI AZIMU VELO AIN AR TRES W  DIS CAZ7
 BAR2 SZ ES   1   1118 56.20                             171    0.19 7 24.1 183 
 BAR2 SZ I        1118 56.99         8.7 0.48                          24.1 183 
 RUS  HZ EP   1   1118 44.27                             145    0.07 7  102 175 
 RUS  HN ES   1   1119  3.05                             145   -0.21 7  102 175 
 RUS  HZ I        1119  4.43         2.1 0.24                           102 175 
 PTB  HZ EP   1   1118 47.10                             134    0.10 7  145 258 
 PTB  HN ES   1   1119  8.12                             134   -0.12 7  145 258 
 PTB  HZ I        1119 11.69         3.3 0.12                           145 258 
 ZAR  HE ES   1   1119 17.77                             124    0.10 6  201 292 
 ZAR  HZ I        1119 23.80         3.4 0.10                           201 292 
 SML  HE ES   1   1119 24.97                             119   -0.17 6  242 336 
                                                                                
