 2012  422 1355 59.7 L   6.796 -73.045135.6  RSN  4 0.2 1.6LRSN                1
 GAP=150        0.59       4.0     5.7  6.2  0.4948E-01  0.5435E+00  0.9013E-01E
 Epicentro: LOS SANTOS - SANTANDER                                             3
 ACTION:UPD 12-07-05 11:55 OP:tino STATUS:               ID:20120422135559 L   I
 2012-04-22-1350-00M.COL___186                                                 6
 STAT SP IPHASW D HRMM SECON CODA AMPLIT PERI AZIMU VELO AIN AR TRES W  DIS CAZ7
 BAR2 SZ EP   1   1356 18.19                             168     0.0 7   27 214 
 BAR2 SZ I        1356 18.81        10.6 0.60                            27 214 
 BAR2 SZ ES   1   1356 32.13                             168    -0.5 7   27 214 
 PAM  SZ EP   1   1356 20.34                             151    -0.1 7   71  32 
 PAM  SN ES   1   1356 36.87                             151     0.2 7   71  32 
 BRR  HZ EP       1356 20.27                             147    -0.110   81 295 
 BRR  HZ I        1356 30.24         7.7 0.44                            81 295 
 BRR  HE ES   1   1356 36.84                             147     0.3 7   81 295 
 RUS  HZ EP   1   1356 22.55                             142     0.1 7  100 182 
 RUS  HE ES   1   1356 40.36                             142     0.2 7  100 182 
                                                                                
