 2011  222 1401 27.9 L   6.764 -73.683108.0  RSN  4 0.2 1.6LRSN                1
 GAP=272        0.47       9.3    54.9 29.1  0.4378E+03  0.1560E+04  0.2333E+03E
 Epicentro: EL CARMEN DE CHUCURI - SANTANDER                                   3
 ACTION:UP  11-03-28 15:10 OP:jfem STATUS:               ID:20110222140127 L   I
 2011-02-22-1356-44S.COL___137                                                 6
 STAT SP IPHASW D HRMM SECON CODA AMPLIT PERI AZIMU VELO SNR AR TRES W  DIS CAZ7
 BTL  SZ EP       14 1 44.11                             156     0.110   49  70 
 BAR2 SZ EP       14 1 44.57                             151     0.010   58 109 
 BAR2 SZ ES   1   14 1 57.52                             151    -0.1 7   58 109 
 BAR2 SZ I        14 1 58.89        32.7 0.32                            58 109 
 GIR2 SZ EP   2   14 1 45.16                             148     0.3 5   64  57 
 GIR2 SZ ES   2   14 1 57.87                             148    -0.2 5   64  57 
 RUS  HZ EP       14 1 49.48                             130    -0.210  117 145 
 RUS  HZ I        14 1 50.61         2.4 0.23                           117 145 
 RUS  HN ES   2   14 2  7.09                             130     0.5 5  117 145 
                                                                                
