 2017  422 1234 45.9 L   6.790 -73.146141.4  RSN  7 0.4 1.9LRSN                1
 GAP=152        0.93       4.6     4.2  6.0 -0.6441E+01  0.6544E+01  0.3495E+01E
 Epicentro: LOS SANTOS - SANTANDER                                             3
 ACTION:UPD 17-05-30 21:15 OP:jn   STATUS:               ID:20170422123445 L   I
 OLDACT:UP  17-04-22 20:25 OP:dani STATUS:               ID:20170422122430     3
 OLDACT:REG 17-04-22 19:34 OP:dani STATUS:               ID:20170422122430     3
 2017-04-22-1228-00M.COL___374                                                 6
 STAT SP IPHASW D HRMM SECON CODA AMPLIT PERI AZIMU VELO AIN AR TRES W  DIS CAZ7
 BAR2 EZ EP       1235  4.89                             171   -0.1110 22.2 191 
 BAR2 EZ ES       1235 19.85                             171   -0.0310 22.2 191 
 BAR2 EZ I        1235 21.02        16.5 0.14            171           22.2 191 
 BRR  HZ EP       1235  6.81                             152    0.1910 71.8 299 
 BRR  HE ES       1235 22.45                             152   -0.3310 71.8 299 
 BRR  HZ I        1235 25.29        13.3 0.06            150           71.8 299 
 PAM  EZ EP       1235  7.67                             150   -0.0510 78.3  39 
 PAM  EN ES       1235 24.97                             150    0.2410 78.3  39 
 PAM  EZ I        1235 29.50         8.8 0.48            153           78.3  39 
 PTB  HZ EP       1235 11.94                             131   -0.57 9  148 259 
 PTB  HN ES       1235 32.61                             131   -0.64 9  148 259 
 PTB  HZ I        1235 38.50         7.7 0.30            132            148 259 
 SPBC HZ EP       1235 13.81                             128   -0.18 9  162 219 
 SPBC HN ES       1235 36.57                             128    0.67 9  162 219 
 SPBC HZ I        1235 39.06        16.3 0.23            130            162 219 
 ZAR  HZ EP       1235 18.35                             121    0.23 9  204 292 
 ZAR  HE ES       1235 43.89                             121    0.64 9  204 292 
 ZAR  HZ I        1235 49.28        11.6 0.41            122            204 292 
 NOR  HZ EP       1235 21.27                             118   -0.05 8  234 235 
 NOR  HE ES       1235 49.14                             118    0.21 8  234 235 
 NOR  HZ I        1235 55.21         7.2 0.20            119            234 235 
                                                                                
