 2012  722 1031 12.3 L   6.820 -73.123144.6  RSN 14 0.4 2.8LRSN                1
 GAP= 67        0.92       3.6     3.2  6.1  0.1219E+01  0.2546E+01  0.5835E+01E
 Epicentro: LOS SANTOS - SANTANDER                                             3
 SPEC SD       MO  0.3 ST  4.2 OM  0.9 f00.645 R0.0715 AL      WI      MW  0.2 3
 SPEC ROSCBH Z MO 13.8 ST  3.3 OM  2.0 f0 3.28 R0.4482 AL 4.22 WI 28.7 MW  3.2 3
 SPEC ROSCBH Z T103220 K 0.000 GD  294 VS 4.20 DE 3.00 Q0230.0 QA 0.60 VS 4.20 3
 SPEC OCA HH Z MO 14.1 ST 12.1 OM  2.4 f0 4.12 R0.3568 AL 4.52 WI 15.2 MW  3.3 3
 SPEC OCA HH Z T1032 1 K 0.000 GD  214 VS 4.20 DE 3.00 Q0230.0 QA 0.60 VS 4.20 3
 SPEC PTB HH Z MO 13.4 ST  3.2 OM  1.7 f0 4.54 R0.3238 AL 4.01 WI 12.8 MW  2.9 3
 SPEC PTB HH Z T103159 K 0.000 GD  209 VS 4.20 DE 3.00 Q0230.0 QA 0.60 VS 4.20 3
 SPEC RUS HH Z MO 13.5 ST  1.1 OM  1.9 f0 2.92 R0.5034 AL 3.52 WI  8.5 MW  3.0 3
 SPEC RUS HH Z T103153 K 0.000 GD  177 VS 4.20 DE 3.00 Q0230.0 QA 0.60 VS 4.20 3
 ACTION:UPD 12-08-14 11:46 OP:ep   STATUS:               ID:20120722103112 L   I
 2012-07-22-1030-00M.COL___215                                                 6
 STAT SP IPHASW D HRMM SECON CODA AMPLIT PERI AZIMU VELO AIN AR TRES W  DIS CAZ7
 BAR2 SZ IP       1031 31.51                             169    -0.310   26 194 
 BAR2 SZ ES   1   1031 46.85                             169    -0.2 7   26 194 
 BAR2 SZ I        1031 47.77       165.0 0.27            156             26 194 
 BRR  HZ IP     C 1031 33.42                             152     0.110   72 296 
 BRR  HN ES   1   1031 50.18                             152     0.4 7   72 296 
 BRR  HZ I        1031 54.73       140.9 0.12            139             72 296 
 PAM  SZ EP       1031 34.39                             152     0.210   74  39 
 PAM  SN ES   1   1031 51.32                             152     0.1 7   74  39 
 RUS  HZ EP   1   1031 35.53                             143    -0.5 7  103 178 
 RUS  HN ES   2   1031 53.99                             143    -0.6 5  103 178 
 RUS  HZ I        1031 55.08       109.1 0.39            127            103 178 
 PTB  HZ EP   1   1031 38.55                             131    -0.8 7  151 258 
 PTB  HN ES   1   1032  0.21                             131    -0.3 7  151 258 
 PTB  HZ I        1032  2.66        44.9 0.23            116            151 258 
 TAM  HZ IP     C 1031 39.83                             131     0.2 9  153 106 
 TAM  HN ES   1   1032  1.27                             131     0.2 7  153 106 
 OCA  HZ EP   1   1031 39.87                             130    -0.4 7  158 352 
 OCA  HN ES   2   1032  1.74                             130    -0.4 5  158 352 
 OCA  HZ I        1032  5.05       207.6 0.32            119            158 352 
 YOP  SZ EP       1031 42.24                             126    -0.1 9  180 154 
 YOP  SN ES   1   1032  6.20                             126     0.5 7  180 154 
 YOP  SZ I        1032  8.51        27.6 0.28            113            180 154 
 ZAR  HZ EP   1   1031 44.81                             122     0.0 6  206 291 
 ZAR  HN ES   1   1032 10.58                             122     0.4 6  206 291 
 ZAR  HZ I        1032 15.92       124.6 0.42            109            206 291 
 NOR  SZ EP   1   1031 48.24                             118     0.0 6  238 234 
 NOR  SN ES   1   1032 16.56                             118     0.2 6  238 234 
 CHI  HZ EP   1   1031 49.84                             117    -0.4 6  251 196 
 CHI  HE ES   1   1032 20.20                             117     0.4 6  251 196 
 CHI  HZ I        1032 26.00        18.2 0.38            104            251 196 
 ROSC BZ EP   1   1031 51.43                             116     0.8 6  256 211 
 ROSC BZ I        1032 29.61        41.5 0.45            104            256 211 
 HEL  HZ EP   1   1031 53.78                             114     1.0 6  275 255 
 HEL  HN ES   2   1032 24.48                             114     0.2 4  275 255 
 HEL  HZ I        1032 30.87        30.9 0.33            102            275 255 
 VIL  SZ EP   1   1031 55.21                             112    -0.7 5  306 192 
 VIL  SZ I        1032 38.16        20.5 0.36            100            306 192 
