 2014 1022 1154 15.1 L   6.812 -73.146142.9  RSN 23 0.5 2.7LRSN                1
 GAP= 71        1.13       2.6     2.9  5.1 -0.3117E+00  0.4784E+01  0.1373E+01E
 Epicentro: LOS SANTOS - SANTANDER                                             3
 ACTION:UPD 14-11-29 23:54 OP:nd   STATUS:               ID:20141022115415 L   I
 OLDACT:DUP 14-10-25 07:02 OP:fm   STATUS:               ID:20141022114745d    3
 2014-10-22-1147-44M.COL___277                                                 6
 STAT SP IPHASW D HRMM SECON CODA AMPLIT PERI AZIMU VELO AIN AR TRES W  DIS CAZ7
 BAR2 SZ EP       1154 34.71                             170    0.2810 24.7 189 
 BAR2 SZ ES   1   1154 49.76                             170    0.26 7 24.7 189 
 BAR2 SZ I        1154 50.47        61.9 0.32            168           24.7 189 
 BRR  HZ EP       1154 36.48                             152    0.5610 70.5 298 
 BRR  HN ES       1154 53.11                             152    0.9710 70.5 298 
 BRR  HZ I        1154 54.47        62.9 0.16            151           70.5 298 
 PAM  SZ EP     C 1154 37.58                             151    0.6110 76.4  40 
 PAM  SN ES       1154 53.93                             151   -0.0810 76.4  40 
 PAM  SZ I        1154 56.61       125.9 0.46            155           76.4  40 
 RUS  HZ EP       1154 38.74                             143    0.0510  102 176 
 RUS  HE ES       1154 56.80                             143   -0.2810  102 176 
 PTB  HZ EP       1154 41.39                             131   -0.48 9  148 258 
 PTB  HN ES       1155  1.85                             131   -0.89 9  148 258 
 PTB  HZ I        1155  7.85        47.6 0.26            131            148 258 
 TAM  HZ EP       1154 42.49                             130   -0.12 9  156 105 
 TAM  HE ES       1155  3.43                             130   -0.62 9  156 105 
 TAM  HZ I        1155  5.59        34.9 0.28            134            156 105 
 OCA  HZ EP       1154 42.94                             129   -0.14 9  159 353 
 OCA  HN ES       1155  4.59                             129   -0.30 9  159 353 
 OCA  HZ I        1155  8.79        70.8 0.18            131            159 353 
 SPBC HZ EP       1154 43.76                             128    0.26 9  164 219 
 SPBC HE ES       1155  5.37                             128   -0.26 9  164 219 
 SPBC HZ I        1155 11.13        34.7 0.34            128            164 219 
 ZAR  HZ EP       1154 47.65                             122    0.33 9  203 292 
 ZAR  HN ES       1155 13.16                             122    0.73 9  203 292 
 ZAR  HZ I        1155 18.51        54.6 0.56            122            203 292 
 SML  HZ EP       1154 51.00                             117   -0.45 8  242 335 
 SML  HN ES       1155 19.40                             117   -0.38 8  242 335 
 SML  HZ I        1155 22.98        54.0 0.28            118            242 335 
 CHI  HZ EP       1154 52.82                             116    0.02 8  250 195 
 CHI  HN ES       1155 21.81                             116   -0.38 8  250 195 
 CHI  HZ I        1155 28.85        15.2 0.36            117            250 195 
 ROSC BE ES   4   1155 26.38                             116    3.46 0  254 211 
 ROSC BZ I        1155 31.09        45.9 0.50            117            254 211 
 HEL  HZ EP       1154 55.33                             114    0.11 8  272 256 
 HEL  HE ES       1155 25.90                             114   -0.59 8  272 256 
 HEL  HZ I        1155 34.02        14.9 0.42            115            272 256 
 URE  HZ EP   4   1154 54.57                             113   -1.41 0  283 292 
 URE  HN ES   4   1155 27.02                             113   -0.84 0  283 292 
 URE  HZ I        1155 39.59        38.9 0.30            114            283 292 
 GUY2CHZ EP       1154 58.63                             112   -0.05 7  302 235 
 GUY2CHN ES       1155 32.10                             112   -0.55 7  302 235 
 GUY2CHZ I        1155 42.37        20.0 0.52                           302 235 
 CBOC HZ EP       1155  2.54                             109    0.58 7  334 252 
 CBOC HN ES       1155 38.65                             109    0.16 7  334 252 
 CBOC HZ I        1155 41.54         7.1 0.38            110            334 252 
 DBB  SZ EP       1155  2.96                             109    0.50 7  339 274 
 DBB  SZ ES   1   1155 38.57                             109   -0.82 5  339 274 
 DBB  SZ I        1155 46.69        47.3 0.40            110            339 274 
 TOL  SZ EP       1155  4.29                             109    0.92 7  344 224 
 TOL  SN ES       1155 41.42                             109    0.42 7  344 224 
 TOL  SZ I        1155 48.86        31.7 0.40            109            344 224 
 MON  HZ EP   4   1155  2.24                             108   -1.66 0  353 308 
 MON  HN ES       1155 41.06                             108   -0.90 6  353 308 
 MON  HZ I        1155 41.93        17.9 0.20            109            353 308 
 ANIL HN ES   4   1155 45.54                             108    1.77 0  358 224 
 SDV  BN ES   4   1155 40.42                             108   -3.41 0  360  50 
 SDV  BZ I        1155 43.88        15.4 0.45            110            360  50 
 PRA  HZ EP       1155  9.26                             106    0.58 6  393 209 
 PRA  HN ES       1155 50.40                             106   -0.05 6  393 209 
 PRA  HZ I        1155 55.39        15.9 0.28            107            393 209 
 ORTC HZ EP       1155  9.40                             106    0.34 6  396 216 
 ORTC HE ES   4   1155 50.45                             106   -0.69 0  396 216 
 ORTC HZ I        1155 58.01        14.6 0.52            107            396 216 
 SJC  HZ EP       1155  9.31                             105   -1.14 6  408 327 
 SJC  HN ES   4   1155 50.56                             105   -3.04 0  408 327 
 SJC  HZ I        1155 54.71        21.0 0.36            106            408 327 
                                                                                
