 2015  422 1642 52.8 L   6.802 -73.110154.3  RSN  6 0.4 1.6LRSN                1
 GAP=141        0.89       5.8     5.7  9.6  0.5770E+01  0.2387E+02  0.1834E+02E
 Epicentro: LOS SANTOS - SANTANDER                                             3
 ACTION:UPD 15-06-03 16:56 OP:cam  STATUS:               ID:20150422164252 L   I
 OLDACT:DUP 15-04-23 00:23 OP:spq  STATUS:               ID:20150422163750d    3
 2015-04-22-1637-48M.COL___280                                                 6
 STAT SP IPHASW D HRMM SECON CODA AMPLIT PERI AZIMU VELO AIN AR TRES W  DIS CAZ7
 BAR2 EZ EP       1643 13.59                             170    0.0610 24.6 199 
 BAR2 EZ ES   1   1643 29.49                             170   -0.17 7 24.6 199 
 BAR2 EZ I        1643 30.23         8.2 0.24            169           24.6 199 
 BRR  HN ES   1   1643 33.38                             153    0.91 7 74.6 297 
 BRR  HZ I        1643 36.08        17.6 0.41            152           74.6 297 
 PAM  SN ES   1   1643 33.64                             153   -0.11 7 74.7  37 
 PAM  SZ I        1643 35.76         7.5 0.54            156           74.7  37 
 RUS  HZ EP   1   1643 17.55                             145    0.10 7  101 178 
 RUS  HE ES   1   1643 36.23                             145   -0.41 7  101 178 
 RUS  HZ I        1643 37.13         3.4 0.36            147            101 178 
 ZAR  HN ES       1643 51.59                             124   -0.67 8  208 292 
 ZAR  HZ I        1643 53.70         4.0 0.32            124            208 292 
 NOR  HZ EP   1   1643 29.81                             120    0.37 6  238 235 
 NOR  HN ES       1643 58.13                             120    0.15 8  238 235 
 NOR  HZ I        1644  4.71         2.2 0.28            120            238 235 
                                                                                
