 2015  522 1523 37.4 L   6.261 -73.781 10.7  RSN  8 0.4 1.5LRSN                1
 GAP=120        0.96       2.6     2.3  5.2 -0.2097E+01  0.5188E+01 -0.3605E+01E
 Epicentro: LANDAZURI - SANTANDER                                              3
 ACTION:UPD 15-09-10 22:06 OP:cam  STATUS:               ID:20150522152337 L   I
 OLDACT:REG 15-05-22 20:30 OP:spq  STATUS:               ID:20150522151748     3
 2015-05-22-1517-48M.COL___294                                                 6
 STAT SP IPHASW D HRMM SECON CODA AMPLIT PERI AZIMU VELO AIN AR TRES W  DIS CAZ7
 BAR2 EZ EP       1523 49.81                              95    0.0110 75.7  61 
 BAR2 EZ ES   1   1523 58.31                              95   -1.12 7 75.7  61 
 BAR2 EZ I        1523 58.86        16.6 0.28             95           75.7  61 
 RUS  HZ EP       1523 52.33                              95    0.5210 87.3 118 
 RUS  HE ES   1   1524  2.86                              95   -0.16 7 87.3 118 
 RUS  HZ I        1524  4.32         5.1 0.14             95           87.3 118 
 BRR  HZ EP   1   1523 52.50                              94    0.20 7 93.9   5 
 BRR  HN ES       1524  4.09                              94    0.1910 93.9   5 
 BRR  HZ I        1524 11.89        11.1 0.46             94           93.9   5 
 NOR  HZ EP       1523 59.80                              93    0.00 9  143 237 
 NOR  HN ES       1524 16.87                              93   -0.36 9  143 237 
 NOR  HZ I        1524 17.93        14.8 0.14             93            143 237 
 PAM  SZ EP   1   1524  4.59                              56    0.77 7  169  45 
 PAM  SE ES   1   1524 24.15                              56   -0.25 7  169  45 
 PAM  SZ I        1524 29.71         9.3 0.28             56            169  45 
 ZAR  HE ES   1   1524 25.71                              56   -0.34 7  181 319 
 ZAR  HZ I        1524 27.65         7.7 0.14             56            181 319 
 HEL  HZ EP       1524  7.09                              56    0.32 9  194 268 
 HEL  HE ES       1524 29.48                              56   -0.17 9  194 268 
 GUY2CHZ EP   4   1524 11.48                              56    2.58 0  210 237 
 GUY2CHN ES   4   1524 35.32                              56    1.89 0  210 237 
 GUY2CHZ I        1524 37.74         2.5 0.33                           210 237 
                                                                                
