 2015  122 1316 32.6 L   6.748 -73.096140.0  RSN  4 0.2 1.5LRSN                1
 GAP=145        0.47       2.9     3.7  4.5 -0.7996E+00 -0.1047E+01  0.6100E+00E
 Epicentro: LOS SANTOS - SANTANDER                                             3
 ACTION:UPD 15-03-02 15:41 OP:nd   STATUS:               ID:20150122131632 L   I
 OLDACT:DUP 15-01-22 23:07 OP:spq  STATUS:               ID:20150122130750d    3
 2015-01-22-1307-49M.COL___255                                                 6
 STAT SP IPHASW D HRMM SECON CODA AMPLIT PERI AZIMU VELO AIN AR TRES W  DIS CAZ7
 BAR2 EZ ES   1   1317  6.22                             172   -0.00 7 19.7 209 
 BAR2 EZ I        1317  7.65         6.7 0.20            170           19.7 209 
 PAM  SZ EP     D 1316 54.39                             149    0.0610 78.7  34 
 PAM  SN ES       1317 11.21                             149   -0.0310 78.7  34 
 PAM  SZ I        1317 13.24         5.9 0.56            153           78.7  34 
 BRR  HZ EP       1316 53.36                             149   -0.2710 78.8 300 
 BRR  HN ES       1317 10.16                             149    0.1610 78.8 300 
 BRR  HZ I        1317 15.90        15.5 0.47            148           78.8 300 
 RUS  HZ EP   1   1316 55.68                             144    0.28 7 94.6 179 
 RUS  HE ES   1   1317 13.00                             144   -0.14 7 94.6 179 
 RUS  HZ I        1317 14.82         2.8 0.42            148           94.6 179 
                                                                                
