 2012 1022 1136 32.6 L   6.841 -73.307121.9  RSN  4 0.2 1.5LRSN                1
 GAP=210        0.40       5.1     5.5  3.8  0.2417E+02  0.4632E+01  0.2148E+01E
 Epicentro: ZAPATOCA - SANTANDER                                               3
 ACTION:UPD 12-11-22 17:05 OP:ep   STATUS:               ID:20121022113632 L   I
 2012-10-22-1130-00M.COL___231                                                 6
 STAT SP IPHASW D HRMM SECON CODA AMPLIT PERI AZIMU VELO AIN AR TRES W  DIS CAZ7
 BAR2 SZ EP       1136 49.72                             165    0.1610 30.8 153 
 BAR2 SZ ES       1137  2.73                             165   -0.0710 30.8 153 
 BAR2 SZ I        1137  4.04        23.5 0.28                          30.8 153 
 BRR  HZ EP       1136 50.01                             155   -0.1610 53.5 303 
 BRR  HN ES       1137  3.94                             155    0.0610 53.5 303 
 BRR  HZ I        1137  5.41         7.6 0.18                          53.5 303 
 RUS  HZ EP   2   1136 54.98                             136    0.31 5  108 167 
 RUS  HN ES   1   1137 11.78                             136   -0.11 7  108 167 
 RUS  HN I        1137 13.57         2.8 0.25                           108 167 
 ZAR  HZ EP   2   1137  1.32                             119   -0.31 4  186 293 
 ZAR  HN ES   1   1137 24.40                             119    0.12 7  186 293 
 ZAR  HZ I        1137 27.31         2.3 0.39                           186 293 
                                                                                
