 2016  622 1511 51.0 L   6.829 -73.176143.6  RSN 12 0.4 1.9LRSN                1
 GAP=106        0.93       3.6     3.2  5.2 -0.2645E+01  0.3404E+01  0.6099E+01E
 Epicentro: ZAPATOCA - SANTANDER                                               3
 ACTION:UPD 16-07-21 22:21 OP:rebc STATUS:               ID:20160622151151 L   I
 OLDACT:UP  16-06-22 22:50 OP:edw  STATUS:               ID:20160622150744     3
 OLDACT:REG 16-06-22 20:36 OP:edw  STATUS:               ID:20160622150744     3
 2016-06-22-1507-44M.COL___337                                                 6
 STAT SP IPHASW D HRMM SECON CODA AMPLIT PERI AZIMU VELO AIN AR TRES W  DIS CAZ7
 BAR2 EZ EP       1512 10.22                             169   -0.2310 26.2 182 
 BAR2 EZ ES       1512 25.93                             169    0.3310 26.2 182 
 BAR2 EZ I        1512 26.41        11.8 0.24                          26.2 182 
 BRR  HZ EP       1512 12.18                             154    0.5010 66.8 297 
 BRR  HN ES       1512 27.83                             154    0.0310 66.8 297 
 BRR  HZ I        1512 29.82        17.5 0.23                          66.8 297 
 PAM  EZ EP     D 1512 13.21                             150    0.2210 77.1  43 
 PAM  EN ES       1512 30.08                             150   -0.0410 77.1  43 
 PAM  EZ I        1512 30.96        10.1 0.26                          77.1  43 
 RUS  HZ EP       1512 14.58                             142   -0.2310  104 174 
 RUS  HN ES       1512 33.09                             142   -0.2810  104 174 
 RUS  HZ I        1512 34.43         5.4 0.48                           104 174 
 PTB  HZ EP       1512 16.95                             132   -0.63 9  145 257 
 PTB  HN ES       1512 37.84                             132   -0.45 9  145 257 
 PTB  HZ I        1512 39.86         8.6 0.40                           145 257 
 TAM  HZ EP   4   1512 12.69                             129   -6.21 0  159 106 
 TAM  HE ES       1512 40.66                             129    0.01 9  159 106 
 SPBC HZ EP       1512 19.46                             128    0.06 9  164 217 
 SPBC HN ES       1512 41.56                             128    0.03 9  164 217 
 SPBC HZ I        1512 45.38        12.6 0.36                           164 217 
 ZAR  HZ EP   4   1512  6.21                             122   -16.7 0  200 292 
 ZAR  HE ES   4   1512 47.77                             122    0.04 0  200 292 
 ZAR  HZ I        1512 53.33        11.3 0.40                           200 292 
 NOR  HZ EP       1512 26.22                             118   -0.32 8  234 233 
 NOR  HE ES       1512 53.84                             118   -0.40 8  234 233 
 NOR  HZ I        1513  1.70         4.6 0.24                           234 233 
 CHI  HZ EP       1512 28.87                             116    0.02 8  251 194 
 CHI  HE ES       1512 58.49                             116    0.14 8  251 194 
 CHI  HZ I        1513  3.03         5.6 0.28                           251 194 
 GUY2CHZ EP       1512 34.88                             112    0.44 7  300 234 
 GUY2CHE ES       1513  9.70                             112    1.40 7  300 234 
 GUY2CHZ I        1513 18.40         6.5 0.28                           300 234 
 PRA  HZ EP       1512 44.53                             106   -0.08 6  393 209 
 PRA  HN ES       1513 26.46                             106    0.06 6  393 209 
 PRA  HZ I        1513 30.43         4.2 0.58                           393 209 
                                                                                
