 2014  522 1118 26.3 L   6.874 -73.386123.3  RSN 10 0.5 2.0LRSN                1
 GAP= 88        1.08       3.9     4.5  7.1 -0.3247E+01  0.9184E+01 -0.8332E+01E
 Epicentro: SAN VICENTE DE CHUCURI - SANTANDER                                 3
 ACTION:UPD 15-03-16 16:59 OP:nd   STATUS:               ID:20140522111826 L   I
 OLDACT:UP  14-05-22 23:08 OP:cam  STATUS:               ID:20140522111813     3
 OLDACT:REG 14-05-22 21:55 OP:cam  STATUS:               ID:20140522111813     3
 2014-05-22-1118-13M.COL___243                                                 6
 STAT SP IPHASW D HRMM SECON CODA AMPLIT PERI AZIMU VELO AIN AR TRES W  DIS CAZ7
 BAR2 SZ EP     C 1118 43.81                             162    0.0810 38.5 144 
 BAR2 SZ ES       1118 57.04                             162   -0.2610 38.5 144 
 BAR2 SZ I        1118 58.14        92.6 0.32            168           38.5 144 
 BRR  HZ IP     D 1118 44.18                             159    0.5710 44.3 306 
 BRR  HE ES       1118 58.09                             159    0.9910 44.3 306 
 BRR  HZ I        1119  4.85        18.1 0.16            158           44.3 306 
 PAM  SZ EP   1   1118 47.28                             141    0.06 7 91.6  56 
 PAM  SE ES       1119  3.40                             141   -0.1310 91.6  56 
 PAM  SZ I        1119  5.57        22.4 0.24            146           91.6  56 
 RUS  HZ EP   2   1118 49.23                             135    0.20 5  114 163 
 RUS  HE ES   2   1119  6.07                             135   -0.66 5  114 163 
 RUS  HZ I        1119  7.27         5.8 0.26            142            114 163 
 PTB  HZ EP       1118 49.19                             132   -0.1110  124 253 
 PTB  HN ES       1119  6.37                             132   -0.8510  124 253 
 OCA  HZ EP       1118 52.11                             126    0.05 9  151   3 
 OCA  HN ES       1119 11.64                             126   -0.50 9  151   3 
 OCA  HZ I        1119 13.58        15.3 0.50            129            151   3 
 SPBC HN ES   2   1119 13.17                             125    0.47 5  155 209 
 NOR  HE ES   4   1119 26.13                             115    1.46 0  219 229 
 SML  HZ EP       1118 59.76                             114   -0.05 8  226 341 
 SML  HE ES       1119 25.71                             114   -0.23 8  226 341 
 SML  HZ I        1119 31.36        18.2 0.10            117            226 341 
 HEL  HZ EP   4   1119  4.66                             112    1.82 0  249 252 
 URE  HE ES   1   1119 32.23                             111    0.23 6  256 292 
 GUY2CHZ EP   2   1119  8.10                             109    0.97 4  285 230 
                                                                                
