 2017 1022 1947 20.1 L   6.789 -73.140143.1  RSN 12 0.5 2.0LRSN                1
 GAP=212        1.21       5.1     5.0  6.8  0.5357E+01  0.3504E+01  0.7840E+01E
 Epicentro: LOS SANTOS - SANTANDER                                             3
 ACTION:UPD 17-11-07 19:35 OP:rebc STATUS:               ID:20171022194720 L   I
 OLDACT:DUP 17-10-23 00:58 OP:lv   STATUS:               ID:20171022193745d    3
 2017-10-22-1938-00M.COL___402                                                 6
 STAT SP IPHASW D HRMM SECON CODA AMPLIT PERI AZIMU VELO AIN AR TRES W  DIS CAZ7
 BAR2 EZ EP       1947 39.36                             171    0.0210 22.2 192 
 BAR2 EZ ES       1947 53.80                             171   -0.5810 22.2 192 
 BAR2 EZ I        1947 55.27        30.5 0.34            168           22.2 192 
 BRR  HZ EP       1947 41.01                             152    0.0310 72.3 299 
 BRR  HN ES       1947 58.19                             152    0.9010 72.3 299 
 BRR  HZ I        1948  1.31        11.4 0.11            151           72.3 299 
 RUS  HZ EP       1947 43.79                             144    0.3410 99.3 176 
 RUS  HN ES       1948  1.75                             144    0.0510 99.3 176 
 RUS  HZ I        1948  2.98        12.1 0.26            144           99.3 176 
 PTB  HZ EP       1947 45.94                             131   -0.89 9  148 259 
 PTB  HN ES       1948  7.03                             131   -0.69 9  148 259 
 PTB  HZ I        1948  9.02         7.9 0.16            131            148 259 
 SPBC HZ EP       1947 48.61                             129    0.32 9  163 219 
 SPBC HN ES       1948 10.32                             129    0.01 9  163 219 
 SPBC HZ I        1948 14.71        17.4 0.20            128            163 219 
 YPLC HZ EP       1947 49.70                             126    0.18 9  175 151 
 YPLC HN ES       1948 12.79                             126    0.29 9  175 151 
 YPLC HZ I        1948 16.35         8.3 0.28            128            175 151 
 ZAR  HZ EP   4   1947 53.60                             122    1.17 0  205 292 
 ZAR  HN ES   4   1948 16.23                             122   -1.45 0  205 292 
 ZAR  HZ I        1948 22.33        10.7 0.38            122            205 292 
 NOR  HZ EP       1947 55.92                             118    0.32 8  234 235 
 NOR  HN ES       1948 23.58                             118    0.25 8  234 235 
 NOR  HZ I        1948 29.04         4.8 0.22            118            234 235 
 CHI  HN EP       1947 56.74                             117   -0.75 8  248 195 
 CHI  HZ ES       1948 26.18                             117   -0.51 8  248 195 
 CHI  HN I        1948 29.26        22.6 0.44            117            248 195 
 GUY2CHZ EP   9   1948  4.73                             112    1.22 0  301 235 
 GUY2CHN ES       1948 39.21                                    0.58 7  301 235 
 GUY2CHZ I        1948 45.65         4.2 0.56                           301 235 
 PTGC HZ EP   9   1948  2.51                             111   -1.13 0  307 159 
 PTGC HN ES       1948 36.13                                   -0.37 7  307 159 
 ORTC HZ EP       1948 13.66                             106   -0.14 6  395 216 
 ORTC HN ES       1948 56.99                             106    1.26 6  395 216 
 ORTC HZ I        1949  1.35         2.4 0.46            106            395 216 
 SJC  HZ EP   4   1948 13.21                             105   -2.48 0  411 327 
 SJC  HN ES   4   1948 54.74                             105   -4.34 0  411 327 
                                                                                
