 2010 1022 1456 39.4 L   6.788 -73.024145.3  RSN  6 0.3 2.2LRSN                1
 GAP=172        0.63       4.5    10.7  9.3  0.1651E+02 -0.4005E+02 -0.2286E+02E
 Epicentro: CEPITA - SANTANDER                                                 3
 ACTION:UP  11-02-18 11:11 OP:tino STATUS:               ID:20101022145639 L   I
 2010-10-22-1453-49S.COL___125                                                 6
 STAT SP IPHASW D HRMM SECON CODA AMPLIT PERI AZIMU VELO SNR AR TRES W  DIS CAZ7
 BAR2 SZ IP       1456 59.16                             168     0.110   28 219 
 BAR2 SZ ES   2   1457 14.87                                     0.5 5   28 219 
 BAR2 SZ I        1457 19.78        20.0 0.21                            28 219 
 BRR  HZ IP     D 1457  1.13                             147    -0.110   84 295 
 BRR  HN ES   2   1457 18.46                                     0.2 5   84 295 
 BRR  HZ I        1457 23.22        59.5 0.19                            84 295 
 RUS  HZ EP   1   1457  3.04                             143     0.0 7   99 184 
 RUS  HZ I        1457  3.86        14.2 0.22                            99 184 
 RUS  HN ES   1   1457 21.12                             143    -0.3 7   99 184 
 GUE  SZ EP   2   1457  4.58                                     0.6 5  116   5 
 GRA  SZ EP   1   1457  4.20                             137    -0.2 7  124  11 
 GRA  SZ I        1457 25.19        22.9 0.26                           124  11 
 OCA  SZ EP   1   1457  8.28                                     0.3 7  164 349 
 OCA  SZ ES   2   1457 29.69                                    -0.6 5  164 349 
                                                                                
