 2016 1022 1635 50.4 L   6.827 -73.168140.0  RSN  6 0.3 1.6LRSN                1
 GAP=132        0.83       4.8     4.1  5.2 -0.7835E+01  0.4450E+01  0.1880E+01E
 Epicentro: LOS SANTOS - SANTANDER                                             3
 ACTION:UPD 16-11-09 19:21 OP:rebc STATUS:               ID:20161022163550 L   I
 OLDACT:REG 16-10-23 00:04 OP:ar   STATUS:               ID:20161022162649     3
 2016-10-22-1627-00M.COL___352                                                 6
 STAT SP IPHASW D HRMM SECON CODA AMPLIT PERI AZIMU VELO AIN AR TRES W  DIS CAZ7
 BAR2 EZ EP       1636  9.28                             169   -0.0910 26.0 183 
 BAR2 EZ ES       1636 23.86                             169   -0.3210 26.0 183 
 BAR2 EZ I        1636 25.46        11.3 0.24            170           26.0 183 
 BRR  HZ EP   9   1636 11.94                             153    1.25 0 67.6 297 
 BRR  HN ES       1636 28.10                                    0.3110 67.6 297 
 PAM  EZ EP       1636 12.36                             150    0.4210 76.8  42 
 PAM  EN ES       1636 28.71                             150   -0.0510 76.8  42 
 PAM  EZ I        1636 31.49         6.7 0.64            152           76.8  42 
 RUS  HZ EP       1636 13.48                             142   -0.3110  104 175 
 RUS  HN ES       1636 32.49                             142    0.4210  104 175 
 RUS  HZ I        1636 33.75         4.0 0.32            144            104 175 
 PTB  HZ EP       1636 16.20                             131   -0.50 9  146 257 
 PTB  HN ES       1636 37.53                             131    0.29 9  146 257 
 PTB  HZ I        1636 41.35         4.2 0.16            132            146 257 
 NOR  HZ EP       1636 26.01                             117    0.27 8  234 234 
 NOR  HN ES       1636 53.23                             117   -0.10 8  234 234 
 NOR  HZ I        1636 55.46         4.3 0.18            119            234 234 
 SJC  HZ EP   4   1636 44.01                             105   -1.28 0  405 327 
                                                                                
