 2012  222 1918 15.7 L   6.761 -73.091142.0  RSN  7 0.3 1.5LRSN                1
 GAP=145        0.51       4.4     4.8  5.6 -0.1901E+01  0.5615E+01  0.4007E+01E
 ACTION:UP  12-03-07 16:33 OP:epov STATUS:               ID:20120222191815 L   I
 2012-02-22-1910-00M.COL___191                                                 6
 STAT SP IPHASW D HRMM SECON CODA AMPLIT PERI AZIMU VELO AIN AR TRES W  DIS CAZ7
 BAR2 SZ EP   1   1918 34.98                             171    0.11 7 21.2 208 
 BAR2 SZ ES   1   1918 49.34                             171   -0.45 7 21.2 208 
 BAR2 SZ I        1918 51.92        11.6 0.35                          21.2 208 
 GIR2 SZ EP   1   1918 35.10                             164   -0.03 7 37.0 342 
 GIR2 SZ ES   2   1918 50.31                             164    0.05 5 37.0 342 
 PAM  SN ES   2   1918 54.54                             150   -0.01 5 77.3  34 
 BRR  HZ EP   1   1918 36.99                             149    0.07 7 78.6 299 
 BRR  HN ES   2   1918 54.01                             149    0.57 5 78.6 299 
 RUS  HZ EP   1   1918 39.00                             144    0.21 7 96.0 179 
 RUS  HN ES   2   1918 56.92                             144    0.16 5 96.0 179 
 RUS  HZ I        1918 59.55         3.1 0.40                          96.0 179 
 PTB  HZ EP   2   1918 42.17                             130   -0.71 5  153 261 
 PTB  HE ES   2   1919  3.88                             130   -0.17 5  153 261 
 NOR  SN ES   2   1919 19.71                             117    0.28 4  237 236 
                                                                                
