 2014  322 1419 33.1 L   6.777 -73.179141.3  RSN  4 0.3 1.7LRSN                1
 GAP=241        0.57       7.2     6.6 10.5  0.3118E+02 -0.1177E+02 -0.3374E+02E
 Epicentro: LOS SANTOS - SANTANDER                                             3
 OLDACT:REG 14-03-22 15:27 OP:fm   STATUS:               ID:20140322141816     3
 ACTION:UPD 14-04-09 23:19 OP:nd   STATUS:               ID:20140322141933 L   I
 OLDACT:UP  14-03-22 18:17 OP:fm   STATUS:               ID:20140322141816     3
 2014-03-22-1418-16M.COL___246                                                 6
 STAT SP IPHASW D HRMM SECON CODA AMPLIT PERI AZIMU VELO AIN AR TRES W  DIS CAZ7
 RUS  HZ EP   1   1419 56.29                             143    0.01 7 98.4 174 
 RUS  HZ I        1420 12.81         7.5 1.30             91           98.4 174 
 RUS  HN ES   1   1420 14.34                             143   -0.00 7 98.4 174 
 PTB  HZ EP   1   1419 58.80                             132   -0.56 7  144 260 
 PTB  HN ES   2   1420 19.69                             132   -0.13 5  144 260 
 PTB  HZ I        1420 21.83         7.5 1.04             91            144 260 
 SPBC HZ EP   1   1420  1.31                             129    0.43 7  159 219 
 SPBC HN ES   1   1420 22.49                             129   -0.03 7  159 219 
 SPBC HZ I        1420 37.16         6.8 1.62             56            159 219 
 ZAR  HE ES   1   1420 30.19                             122    0.27 6  202 293 
                                                                                
