 2015 1122 1832 29.4 L   6.809 -73.144148.0  RSN  7 0.3 1.7LRSN                1
 GAP=150        0.89       3.7     4.5  6.0 -0.5170E+01  0.8417E+01  0.2415E+01E
 Epicentro: LOS SANTOS - SANTANDER                                             3
 ACTION:UPD 15-12-28 16:12 OP:cam  STATUS:               ID:20151122183230dL   I
 OLDACT:UP  15-11-23 00:15 OP:mh   STATUS:               ID:20151122181950d    3
 OLDACT:UP  15-11-23 00:01 OP:mh   STATUS:               ID:20151122181950d    3
 OLDACT:REG 15-11-22 21:20 OP:mh   STATUS:               ID:20151122181950d    3
 2015-11-22-1819-49M.COL___211                                                 6
 STAT SP IPHASW D HRMM SECON CODA AMPLIT PERI AZIMU VELO AIN AR TRES W  DIS CAZ7
 BAR2 EZ EP       1832 49.29                             170   -0.0610 24.3 190 
 BAR2 EZ ES       1833  4.65                             170   -0.2310 24.3 190 
 BAR2 EZ I        1833  7.31        11.3 0.26            113           24.3 190 
 BRR  HZ EP       1832 50.24                             153   -0.5610 70.9 298 
 BRR  HN ES       1833  7.42                             153   -0.0510 70.9 298 
 BRR  HN I        1833  9.01        26.5 0.18            110           70.9 298 
 PAM  EZ EP       1832 52.36                             151    0.5310 76.5  40 
 PAM  EN ES       1833  9.31                             151    0.0110 76.5  40 
 PAM  EZ I        1833 13.90         3.6 0.15            110           76.5  40 
 OCA  HE ES       1833 19.96                             130   -0.01 9  159 353 
 OCA  HZ I        1841 50.37         3.1 0.50            106            159 353 
 SPBC HZ EP       1832 57.98                             129   -0.20 9  164 219 
 SPBC HE ES       1833 21.27                             129    0.66 9  164 219 
 ZAR  HZ EP       1833  1.78                             123   -0.21 9  204 292 
 ZAR  HN ES       1833 27.84                             123    0.44 9  204 292 
 ZAR  HZ I        1833 34.10         5.7 0.56            107            204 292 
 NOR  HZ EP       1833  5.52                             119    0.16 8  235 234 
 NOR  HN ES       1833 32.95                             119   -0.44 8  235 234 
 NOR  HZ I        1833 41.38         4.1 0.16            114            235 234 
                                                                                
