 2014  322 1258 33.2 L   6.770 -73.133142.4  RSN 15 0.4 2.1LRSN                1
 GAP=140        0.60       2.3     2.8  4.4 -0.4897E+00  0.4500E+01  0.5767E+00E
 Epicentro: LOS SANTOS - SANTANDER                                             3
 OLDACT:REG 14-03-22 15:19 OP:fm   STATUS:               ID:20140322124815     3
 ACTION:UPD 14-04-09 23:19 OP:nd   STATUS:               ID:20140322125833 L   I
 OLDACT:UP  14-03-22 17:34 OP:fm   STATUS:               ID:20140322124815     3
 2014-03-22-1248-15M.COL___242                                                 6
 STAT SP IPHASW D HRMM SECON CODA AMPLIT PERI AZIMU VELO AIN AR TRES W  DIS CAZ7
 BAR2 SZ EP       1258 52.43                             171    0.0110 20.4 196 
 BAR2 SZ ES   1   1259  7.37                             171    0.00 7 20.4 196 
 BAR2 SZ I        1259  8.77        53.5 0.42            165           20.4 196 
 PAM  SZ EP   2   1258 55.74                             150    0.53 5 79.1  37 
 PAM  SN ES   1   1259 12.48                             150    0.14 7 79.1  37 
 PAM  SZ I        1259 13.44        17.3 0.20            154           79.1  37 
 RUS  HZ EP   1   1258 56.23                             144   -0.19 7 97.1 177 
 RUS  HN ES   1   1259 14.73                             144    0.24 7 97.1 177 
 RUS  SZ I        1259 15.58        18.0 0.18            144           97.1 177 
 PTB  HZ EP       1258 59.51                             131   -0.50 9  149 260 
 PTB  HN ES       1259 20.66                             131   -0.23 9  149 260 
 PTB  SZ I        1259 22.84        19.5 0.34            127            149 260 
 SPBC HZ EP       1259  1.47                             129    0.14 9  162 220 
 SPBC HE ES   1   1259 23.35                             129    0.12 7  162 220 
 SPBC SZ I        1259 30.53        15.9 0.28            126            162 220 
 OCA  HN ES   2   1259 23.17                             128   -0.60 5  164 353 
 ZAR  HZ EP   2   1259  4.81                             121   -0.94 4  207 293 
 ZAR  HN ES       1259 31.37                             121    0.28 8  207 293 
 ZAR  SZ I        1259 40.27        14.2 0.26            119            207 293 
 NOR  HZ EP   2   1259  8.76                             118    0.06 4  234 235 
 NOR  HN ES   1   1259 36.64                             118    0.29 6  234 235 
 NOR  SZ I        1259 45.35        10.4 0.20            116            234 235 
 CHI  HZ EP   1   1259 10.62                             117    0.17 6  246 196 
 CHI  HN ES   1   1259 39.14                             117   -0.33 6  246 196 
 CHI  SZ I        1259 49.47         6.2 1.62            116            246 196 
 SML  HZ EP   1   1259  9.77                             116   -0.31 6  247 335 
 SML  HE ES   2   1259 39.48                             116    0.66 4  247 335 
 SML  SZ I        1259 46.95        12.6 0.08            116            247 335 
 HEL  HZ EP   2   1259 14.30                             114    0.94 4  273 257 
 HEL  HN ES   4   1259 46.93                             114    2.29 0  273 257 
 HEL  SZ I        1259 51.05         7.1 0.32            112            273 257 
 URE  HZ EP   4   1259 13.80                             113   -0.65 0  286 292 
 URE  HE ES   4   1259 44.69                             113   -1.89 0  286 292 
 URE  SZ I        1259 53.01         8.0 0.16            111            286 292 
 GUY2CHZ EP   4   1259 18.37                             112    1.75 0  300 235 
 GUY2CHN ES   4   1259 53.98                             112    3.54 0  300 235 
 GUY2CSZ I        1259 59.61         6.9 0.70                           300 235 
 RREF HZ EP   2   1259 19.42                             110    0.30 3  321 230 
 RREF HN ES   1   1259 54.68                             110   -0.22 5  321 230 
 RREF SZ I        13 0  3.14         6.4 0.66            109            321 230 
 CBOC HZ EP   1   1259 20.42                             109    0.36 5  334 253 
 CBOC HN ES   1   1259 56.82                             109    0.24 5  334 253 
 CBOC SZ I        13 0 10.53         4.0 1.84            108            334 253 
                                                                                
