 2011 1022 1602 43.3 L   6.751 -73.139138.2  RSN  6 0.2 1.6LRSN                1
 GAP=140        0.41       2.6     3.2  4.1 -0.2621E+01  0.8335E+00  0.3704E+00E
 Epicentro: LOS SANTOS - SANTANDER                                             3
 ACTION:UPD 12-07-13 16:05 OP:ep   STATUS:               ID:20111022160243 L   I
 2011-10-22-1601-05S.COL___171                                                 6
 STAT SP IPHASW D HRMM SECON CODA AMPLIT PERI AZIMU VELO AIN AR TRES W  DIS CAZ7
 BAR2 SZ EP   1   16 3  1.90                             172    0.02 7 18.2 195 
 BAR2 SZ ES   1   16 3 16.23                             172   -0.17 7 18.2 195 
 BAR2 SZ I        16 3 17.67         8.4 0.11                          18.2 195 
 GIR2 SZ EP   2   16 3  2.08                             164   -0.11 5 36.7 351 
 BRR  HZ EP   1   16 3  3.91                             150    0.12 7 74.5 302 
 BRR  HZ I        16 3  4.56        12.4 0.09                          74.5 302 
 BRR  HN ES   1   16 3 20.00                             150    0.20 7 74.5 302 
 PAM  SZ EP       16 3  5.00                             148    0.0910 81.2  37 
 PAM  SN ES   1   16 3 21.56                             148   -0.24 7 81.2  37 
 RUS  HZ EP   1   16 3  5.74                             144   -0.13 7 95.2 176 
 RUS  HN ES   1   16 3 23.78                             144    0.27 7 95.2 176 
 RUS  HZ I        16 3 25.86         6.4 0.38                          95.2 176 
 NOR  SN ES   1   16 3 45.32                             117   -0.29 6  232 236 
                                                                                
