 2017  222 1403 57.9 L   6.567 -73.496116.0  RSN 31 0.4 3.2LRSN 3.7WRSN        1
 SPEC AVERAGE  MO 14.7 ST  1.1 OM  2.7 f0 1.46 R1.6684 AL 0.00 WI 30.0 MW  3.7 3
 SPEC SD       MO  0.2 ST  1.4 OM  0.4 f00.706 R0.7798 AL      WI      MW  0.2 3
 GAP= 54        1.19       3.0     3.5  5.7  0.1981E+01  0.1031E+02  0.4425E+01E
 Epicentro: EL CARMEN - SANTANDER                                              3
 SPEC RUS HH Z MO 14.6 ST  1.5 OM  2.7 f0 1.87 R1.0289 AL-0.00 WI 30.0 MW  3.7 3
 SPEC RUS HH Z T14 431 K 0.000 GD  145 VS 5.20 DE 3.50 Q0750.0 QA 1.50 VS 5.20 3
 SPEC ZAR HH Z MO 14.6 ST  5.1 OM  2.6 f0 2.65 R0.7260 AL-0.00 WI 30.0 MW  3.7 3
 SPEC ZAR HH Z T14 447 K 0.000 GD  215 VS 5.20 DE 3.50 Q0750.0 QA 1.50 VS 5.20 3
 SPEC ROSCBH Z MO 14.8 ST0.229 OM  2.7 f00.840 R2.2905 AL-0.00 WI 30.0 MW  3.8 3
 SPEC ROSCBH Z T14 455 K 0.000 GD  241 VS 5.20 DE 3.50 Q0750.0 QA 1.50 VS 5.20 3
 SPEC CHI HH Z MO 14.3 ST0.377 OM  2.2 f0 1.45 R1.3269 AL-0.00 WI 30.0 MW  3.5 3
 SPEC CHI HH Z T14 454 K 0.000 GD  245 VS 5.20 DE 3.50 Q0750.0 QA 1.50 VS 5.20 3
 SPEC HEL HH Z MO 14.6 ST0.469 OM  2.5 f0 1.22 R1.5770 AL-0.00 WI 30.0 MW  3.7 3
 SPEC HEL HH Z T14 456 K 0.000 GD  256 VS 5.20 DE 3.50 Q0750.0 QA 1.50 VS 5.20 3
 SPEC URE HH Z MO 14.4 ST  2.6 OM  2.2 f0 2.64 R0.7288 AL-0.00 WI 30.0 MW  3.5 3
 SPEC URE HH Z T14 5 1 K 0.000 GD  284 VS 5.20 DE 3.50 Q0750.0 QA 1.50 VS 5.20 3
 SPEC VIL EH Z MO 14.6 ST0.419 OM  2.4 f0 1.21 R1.5901 AL-0.00 WI 30.0 MW  3.7 3
 SPEC VIL EH Z T14 5 6 K 0.000 GD  295 VS 5.20 DE 3.50 Q0750.0 QA 1.50 VS 5.20 3
 SPEC ELA HH Z MO 14.9 ST0.297 OM  2.7 f00.847 R2.2715 AL-0.00 WI 30.0 MW  3.9 3
 SPEC ELA HH Z T14 5 7 K 0.000 GD  305 VS 5.20 DE 3.50 Q0750.0 QA 1.50 VS 5.20 3
 SPEC CBOCHH Z MO 14.8 ST0.147 OM  2.6 f00.719 R2.6759 AL-0.00 WI 30.0 MW  3.8 3
 SPEC CBOCHH Z T14 5 6 K 0.000 GD  311 VS 5.20 DE 3.50 Q0750.0 QA 1.50 VS 5.20 3
 SPEC PTGCHH Z MO 15.2 ST0.289 OM  3.0 f00.655 R2.9374 AL-0.00 WI 30.0 MW  4.1 3
 SPEC PTGCHH Z T14 5 9 K 0.000 GD  323 VS 5.20 DE 3.50 Q0750.0 QA 1.50 VS 5.20 3
 SPEC ANILHH Z MO 14.4 ST  1.9 OM  2.2 f0 2.23 R0.8628 AL-0.00 WI 30.0 MW  3.6 3
 SPEC ANILHH Z T14 517 K 0.000 GD  332 VS 5.20 DE 3.50 Q0750.0 QA 1.50 VS 5.20 3
 SPEC ORTCHH Z MO 14.9 ST0.169 OM  2.6 f00.711 R2.7060 AL-0.00 WI 30.0 MW  3.9 3
 SPEC ORTCHH Z T14 522 K 0.000 GD  370 VS 5.20 DE 3.50 Q0750.0 QA 1.50 VS 5.20 3
 SPEC CRJCHH Z MO 14.4 ST  1.3 OM  2.0 f0 1.99 R0.9668 AL-0.00 WI 30.0 MW  3.6 3
 SPEC CRJCHH Z T14 552 K 0.000 GD  510 VS 5.20 DE 3.50 Q0750.0 QA 1.50 VS 5.20 3
 OLDACT:UP  17-02-22 23:51 OP:edw  STATUS:               ID:20170222135743d    3
 OLDACT:REG 17-02-22 20:00 OP:edw  STATUS:               ID:20170222135743d    3
 ACTION:UPD 17-05-24 15:39 OP:jn   STATUS:               ID:20170222140357 L   I
 OLDACT:UP  17-02-22 23:52 OP:edw  STATUS:               ID:20170222135743d    3
 2017-02-22-1358-00M.COL___376                                                 6
 STAT SP IPHASW D HRMM SECON CODA AMPLIT PERI AZIMU VELO AIN AR TRES W  DIS CAZ7
 BAR2 EZ IP     C 14 4 14.50                             161    0.1710 34.7  85 
 BAR2 HN ES       14 4 27.31                             161    0.1710 34.7  85 
 BAR2 EZ ES       14 4 27.41                             160           34.7  85 
 BRR  HZ IP     C 14 4 15.22                             148   -0.2610 64.3 338 
 BRR  HN ES       14 4 29.10                             148   -0.0910 64.3 338 
 BRR  HZ I        14 4 37.76       352.1 0.14            148           64.3 338 
 RUS  HZ IP     C 14 4 17.57                             140   -0.2410 87.4 149 
 RUS  HN ES       14 4 33.16                             140   -0.1710 87.4 149 
 RUS  HZ I        14 4 34.65       431.7 0.24            139           87.4 149 
 PTB  HZ IP   9 D 14 4 17.34                             134   -1.37 0  106 268 
 PTB  HN ES       14 4 32.29                             134   -1.2710  106 268 
 PTB  HZ I        14 4 33.71       843.6 0.18            132            106 268 
 PAM  EZ EP       14 4 20.85                             129    0.0310  123  46 
 PAM  EN ES       14 4 38.71                             129    0.0210  123  46 
 PAM  EZ I        14 4 40.07       335.8 0.42            130            123  46 
 ZAR  HZ EP       14 4 26.26                             117    0.06 9  182 304 
 ZAR  HN ES       14 4 48.80                             117    0.53 9  182 304 
 TAM  HZ IP   9 D 14 4 27.29                             116    0.28 0  189  94 
 TAM  HN ES       14 4 48.19                             116   -1.80 9  189  94 
 TAM  HZ I        14 4 53.00       176.7 0.50            116            189  94 
 ROSC BZ EP   4   14 4 30.93                             113    0.98 0  212 206 
 ROSC BN ES   4   14 4 56.96                             113    2.03 0  212 206 
 ROSC BZ I        14 5  1.12       196.6 0.40            112            212 206 
 CHI  HZ EP       14 4 30.48                             113    0.04 8  216 187 
 CHI  HN ES       14 4 55.83                             113    0.02 8  216 187 
 CHI  HZ I        14 5  0.93        57.2 0.28            112            216 187 
 HEL  HZ EP       14 4 31.59                             111   -0.24 8  229 260 
 HEL  HN ES       14 4 58.04                             111   -0.25 8  229 260 
 HEL  HZ I        14 5  1.79       132.0 0.36            110            229 260 
 URE  HZ EP   9   14 4 33.71                             108   -1.29 0  260 300 
 URE  HN ES       14 5  3.02                             108    0.38 8  260 300 
 URE  HZ I        14 5  5.09       265.7 0.38            108            260 300 
 VIL  EZ EP   4   14 4 34.11                             107   -2.42 0  272 185 
 VIL  EN ES       14 5  7.52                             107    0.87 8  272 185 
 VIL  EZ I        14 5 15.95       109.3 0.38            106            272 185 
 ELA  HZ EP   4   14 4 39.67                             107    1.40 0  283 228 
 ELA  HN ES       14 5  9.25                             107   -0.50 7  283 228 
 ELA  HZ I        14 5 21.98       114.9 0.68            106            283 228 
 CBOC HZ EP       14 4 38.89                             106    0.35 7  289 255 
 CBOC HN ES   4   14 5  7.75                             106   -2.47 0  289 255 
 CBOC HZ I        14 5 12.99        59.8 0.78            105            289 255 
 PTGC HZ EP   9 C 14 4 39.17                             105   -0.68 0  302 150 
 PTGC HN ES       14 5 11.25                             105   -0.64 7  302 150 
 PTGC HZ I        14 5 16.95        75.4 0.18            104            302 150 
 DBB  EZ EP       14 4 40.20                             105    0.02 7  304 280 
 DBB  EN ES   4   14 5 10.28                             105   -2.87 0  304 280 
 DBB  EZ I        14 5 16.61        72.0 0.18            104            304 280 
 ANIL HZ EP       14 4 41.68                             104    0.31 7  312 223 
 ANIL HN ES   4   14 5 18.59                             104    3.32 0  312 223 
 ANIL HZ I        14 5 24.65       261.6 0.32            104            312 223 
 LL1C HZ EP   4   14 4 45.88                             103    2.88 0  329 359 
 LL1C HN ES   4   14 5 23.02                             103    4.86 0  329 359 
 LL6C HN EP   4   14 4 27.29                             102   -18.4 0  351   4 
 LL6C HN ES   4   14 5  7.47                             102   -15.4 0  351   4 
 ORTC HZ EP       14 4 46.33                             102    0.52 6  352 214 
 ORTC HN ES   4   14 5 24.01                             102    0.84 0  352 214 
 ORTC HZ I        14 5 30.89        48.7 0.24            101            352 214 
 APAC HZ EP     D 14 4 47.60                             101   -0.42 6  371 294 
 APAC HN ES       14 5 26.15                             101   -0.95 6  371 294 
 APAC HZ I        14 5 29.40        39.2 0.26            100            371 294 
 ARGC HZ EP   4   14 4 49.61                             101    1.34 0  373 347 
 ARGC HN ES   4   14 5 32.08                             101    4.53 0  373 347 
 ARGC HZ I        14 5 42.07        42.3 0.34            101            373 347 
 LCBC HZ EP       14 4 51.85                             100   -0.28 6  406 309 
 LCBC HN ES       14 5 35.05                             100    0.62 6  406 309 
 LCBC HZ I        14 5 39.57        56.8 0.18             99            406 309 
 SJC  HZ EP   9   14 4 51.66                              99   -1.37 0  412 333 
 SJC  HN ES       14 5 33.64                              99   -1.01 6  412 333 
 SJC  HZ I        14 5 38.17        31.2 0.38             99            412 333 
 YOT  HZ EP       14 4 54.02                              99   -0.71 5  426 228 
 YOT  HN ES   4   14 5 42.71                              99    3.66 0  426 228 
 MACC HZ EP       14 5  1.78                              97   -0.62 4  490 185 
 MACC HN ES   4   14 5 48.71                              97   -3.99 0  490 185 
 MACC HZ I        14 5 57.24        17.2 0.60             96            490 185 
 CRJC HZ EP   9   14 5  2.65                              96   -0.64 0  497   8 
 CRJC HN ES       14 5 53.99                              96    0.34 4  497   8 
 CRJC HZ I        14 6  1.15        63.8 0.20             96            497   8 
 MAL  EZ EP       14 5  5.02                              96    0.20 4  511 237 
 MAL  EN ES   4   14 5 51.32                              96   -5.68 0  511 237 
 SMAR HZ EP       14 5  5.57                              96    0.27 4  515 351 
 SMAR HN ES   4   14 5 57.13                              96   -0.73 0  515 351 
 GARC HZ EP       14 5  7.60                              96   -0.20 4  533 205 
 GARC HN ES   4   14 5 59.90                              96   -2.41 0  533 205 
 GARC HZ I        14 6  4.19        33.9 0.22             95            533 205 
 CONO HZ EP       14 5 13.34                              95    0.79 3  569 215 
 CONO HE ES   4   14 6 15.23                              95    4.46 0  569 215 
 CONO HZ I        14 6 20.05         9.6 0.36             94            569 215 
 URI  HZ EP   4   14 5 13.56                              94   -1.04 0  591  16 
 URI  HN ES   4   14 6 12.75                              94   -1.67 0  591  16 
 URI  HZ I        14 6 18.95         6.4 0.66             94            591  16 
 SOTO HZ EP   4   14 5 18.22                              94    2.01 0  600 215 
 FLO2 HZ EP   2   14 5 15.57                              94   -0.23 1  601 204 
 FLO2 HN ES   4   14 6 15.42                              94   -1.14 0  601 204 
 FLO2 HZ I        14 6 19.50         5.4 0.46             94            601 204 
                                                                                
