 2016  622 1740 58.7 L   6.778 -73.115143.9  RSN 12 0.5 1.9LRSN                1
 GAP=141        1.08       3.8     3.9  6.1 -0.1104E+01  0.7732E+01  0.4646E+01E
 Epicentro: LOS SANTOS - SANTANDER                                             3
 ACTION:UPD 16-07-21 22:21 OP:rebc STATUS:               ID:20160622174058 L   I
 OLDACT:UP  16-06-23 01:04 OP:mh   STATUS:               ID:20160622173743     3
 OLDACT:UP  16-06-23 01:04 OP:mh   STATUS:               ID:20160622173743     3
 OLDACT:REG 16-06-22 20:54 OP:edw  STATUS:               ID:20160622173743     3
 2016-06-22-1737-43M.COL___337                                                 6
 STAT SP IPHASW D HRMM SECON CODA AMPLIT PERI AZIMU VELO AIN AR TRES W  DIS CAZ7
 BAR2 EZ EP       1741 18.06                             171    0.0410 21.8 200 
 BAR2 EZ ES       1741 32.71                             171   -0.4310 21.8 200 
 BAR2 EZ I        1741 34.98        11.6 0.34                          21.8 200 
 BRR  HZ EP       1741 19.99                             151    0.1610 75.3 299 
 BRR  HN ES       1741 36.81                             151    0.4510 75.3 299 
 BRR  HZ I        1741 49.13         9.7 0.48                          75.3 299 
 PAM  EZ EP       1741 20.96                             150    0.3110 77.2  36 
 PAM  EN ES       1741 37.57                             150   -0.2510 77.2  36 
 PAM  EZ I        1741 40.46        15.6 0.11                          77.2  36 
 RUS  HZ EP       1741 22.07                             144    0.0410 98.0 178 
 RUS  HN ES       1741 40.70                             144    0.4410 98.0 178 
 RUS  HZ I        1741 41.27        13.3 0.26                          98.0 178 
 PTB  HZ EP   1   1741 25.17                             131   -0.56 7  151 260 
 PTB  HN ES       1741 46.10                             131   -0.74 9  151 260 
 PTB  HZ I        1741 48.31        10.4 0.26                           151 260 
 SPBC HZ EP       1741 27.32                             128    0.29 9  163 220 
 SPBC HN ES       1741 49.09                             128   -0.08 9  163 220 
 SPBC HZ I        1741 56.46        13.8 0.26                           163 220 
 ZAR  HZ EP   1   1741 31.89                             121    0.50 6  208 292 
 ZAR  HN ES       1741 56.90                             121   -0.03 8  208 292 
 ZAR  HZ I        1742  2.01        21.7 0.38                           208 292 
 NOR  HZ EP   1   1741 33.99                             118   -0.43 6  236 235 
 NOR  HN ES       1742  1.80                             118   -0.51 8  236 235 
 NOR  HZ I        1742  9.41         5.8 0.18                           236 235 
 CHI  HZ EP       1741 35.14                             117   -0.95 8  247 196 
 CHI  HN ES       1742  5.92                             117    0.63 8  247 196 
 CHI  HZ I        1742  9.60         4.3 0.26                           247 196 
 HEL  HZ EP   1   1741 38.25                             114   -0.81 6  275 256 
 HEL  HE ES       1742 11.49                             114    0.90 8  275 256 
 HEL  HZ I        1742 24.54         3.9 0.24                           275 256 
 GUY2CHZ EP   4   1741 43.44                             112    1.11 0  303 236 
 GUY2CHE ES   4   1742 17.81                             112    1.42 0  303 236 
 GUY2CHZ I        1742 23.21         3.8 0.28                           303 236 
 CBOC HZ EP   1   1741 46.35                             109    0.58 5  336 253 
 CBOC HZ I        1742 12.06         2.1 0.22                           336 253 
 CBOC HN ES       1742 22.74                             109    0.22 7  336 253 
                                                                                
