 2016  322 1458 37.3 L   6.779 -73.241135.9  RSN  4 0.3 1.3LRSN                1
 GAP=229        0.47       8.2     6.8  6.9  0.4336E+02 -0.4519E+01 -0.2020E+02E
 Epicentro: ZAPATOCA - SANTANDER                                               3
 ACTION:UPD 16-05-13 21:26 OP:cam  STATUS:               ID:20160322145837 L   I
 OLDACT:REG 16-03-22 21:26 OP:dnl  STATUS:               ID:20160322145742     3
 2016-03-22-1457-42M.COL___304                                                 6
 STAT SP IPHASW D HRMM SECON CODA AMPLIT PERI AZIMU VELO AIN AR TRES W  DIS CAZ7
 BAR2 EZ EP   3   1458 55.82                             171    0.13 2 21.6 163 
 BAR2 EZ ES   2   1459 10.00                             171   -0.05 5 21.6 163 
 BAR2 EZ I        1459 11.65         8.1 0.30            163           21.6 163 
 RUS  HZ EP       1459  0.19                             142    0.1910 99.5 170 
 RUS  HN ES   2   1459 17.35                             142   -0.36 5 99.5 170 
 RUS  HZ I        1459 19.41         1.9 0.16            143           99.5 170 
 PTB  HZ EP   2   1459  2.42                             132   -0.05 5  137 259 
 PTB  HN ES   2   1459 22.05                             132   -0.07 5  137 259 
 PTB  HZ I        1459 29.77         1.6 0.12            129            137 259 
 ZAR  HZ EP       1459  7.94                             121   -0.25 9  195 294 
 ZAR  HE ES   2   1459 32.90                             121    0.60 4  195 294 
 ZAR  HZ I        1459 39.45         3.5 0.17            121            195 294 
                                                                                
