 2011  522 1731 20.1 L   6.824 -73.139152.0  RSN  5 0.2 1.1LRSN                1
 GAP=136        0.36       6.5     6.5  7.5 -0.6922E+01 -0.2865E+02  0.1647E+02E
 Epicentro: LOS SANTOS - SANTANDER                                             3
 ACTION:UP  11-06-29 08:55 OP:tino STATUS:               ID:20110522173120 L   I
 2011-05-22-1729-03S.COL___139                                                 6
 STAT SP IPHASW D HRMM SECON CODA AMPLIT PERI AZIMU VELO SNR AR TRES W  DIS CAZ7
 BAR2 SZ EP   3   1731 40.35                             170    -0.1 2   26 191 
 BRR  HZ EP       1731 41.82                             154     0.010   71 296 
 BRR  HN ES   1   1731 58.91                             154     0.1 7   71 296 
 PAM  SZ EP   2   1731 43.15                             153     0.4 5   75  40 
 PAM  SN ES   3   1732  0.34                             153    -0.2 2   75  40 
 RUS  HZ EP   2   1731 44.57                             144     0.0 5  103 177 
 RUS  HZ I        1732  4.32         2.0 0.36                           103 177 
 GRA  SZ EP   2   1731 45.41                             139    -0.2 5  123  17 
                                                                                
