 2016  522 1410 27.5 L   6.796 -73.157149.2  RSN  5 0.5 1.5LRSN                1
 GAP=248        1.24       9.3     7.9 10.0  0.5675E+01  0.2243E+02  0.2338E+02E
 Epicentro: LOS SANTOS - SANTANDER                                             3
 ACTION:UPD 16-08-18 17:48 OP:cam  STATUS:               ID:20160522141027 L   I
 OLDACT:DUP 16-05-22 22:43 OP:drio STATUS:               ID:20160522140748d    3
 2016-05-22-1407-47M.COL___302                                                 6
 STAT SP IPHASW D HRMM SECON CODA AMPLIT PERI AZIMU VELO AIN AR TRES W  DIS CAZ7
 BAR2 EZ EP       1410 47.44                             171   -0.0610 22.7 187 
 BAR2 EZ ES       1411  2.71                             171   -0.4110 22.7 187 
 BAR2 EZ I        1411  3.78         6.9 0.22            172           22.7 187 
 BRR  HZ EP       1410 48.88                             153   -0.0610 70.3 299 
 BRR  HE ES       1411  6.64                             153    0.9510 70.3 299 
 PTB  HZ EP       1410 54.26                             133   -0.34 9  146 259 
 PTB  HN ES       1411 15.17                             133   -0.59 9  146 259 
 PTB  HZ I        1411 20.89         2.9 0.44            124            146 259 
 ZAR  HZ EP   4   1411  2.84                             123    2.80 0  203 292 
 ZAR  HZ I        1411 19.50         3.7 0.24            114            203 292 
 ZAR  HE ES       1411 25.07                             123   -0.37 9  203 292 
 NOR  HZ EP       1411  3.92                             119    0.65 8  233 234 
 NOR  HN ES       1411 31.55                             119    0.36 8  233 234 
 NOR  HZ I        1411 39.37         2.7 0.16            112            233 234 
                                                                                
