 2010  222 1512 57.4 L   6.684 -73.129 25.9  RSN 15 0.7 3.3LRSN                1
 GAP=184        1.22       3.3     7.1  5.1  0.7660E+01  0.1029E+02  0.1993E+01E
 Epicentro: VILLANUEVA - SANTANDER                                             3
 ACTION:UP  10-08-24 09:50 OP:vdl  STATUS:               ID:20100222151257 L   I
 2010-02-22-1510-28S.COL___094                                                 6
 STAT SP IPHASW D HRMM SECON CODA AMPLIT PERI AZIMU VELO SNR AR TRES W  DIS CAZ7
 BAR2 SZ IP       1513  3.22                             154     0.910   12 211 
 BAR2 SZ ES   2   1513  7.08                             154     1.0 5   12 211 
 GIR2 SZ IP       1513  5.54                             113    -0.110   44 351 
 GIR2 SZ ES   2   1513 11.19                             113    -0.9 5   44 351 
 BRR  HZ IP       1513  9.92                              94    -0.510   80 306 
 BRR  HN ES   1   1513 20.19                              94    -0.4 7   80 306 
 BRR  HZ I        1513 21.06      1528.5 0.12                            80 306 
 RUS  BZ IP       1513 11.33                              93    -0.810   88 177 
 RUS  BZ I        1513 12.13      1341.7 0.19                            88 177 
 RUS  BN ES   1   1513 22.96                              93    -0.7 7   88 177 
 OCA  SZ EP       1513 22.44                              61    -0.2 9  173 353 
 OCA  SZ ES   2   1513 44.30                              61     2.0 4  173 353 
 CHI  HZ EP       1513 31.37                              61     0.5 8  237 196 
 ROSC BZ EP   3   1513 31.67                              61     0.1 2  243 213 
 HEL  HZ EP       1513 34.49                              60    -0.6 8  271 259 
 GUY  HZ EP       1513 38.26                              60     0.0 7  296 237 
 GUY  HN ES   3   1514  9.74                              60    -0.4 2  296 237 
 RREF BZ EP       1513 41.30                              60     0.5 7  315 231 
 RREF BN ES   3   1514 14.13                              60    -0.6 2  315 231 
 RREF BZ I        1514 29.27        46.1 0.22                           315 231 
 TOL  SZ EP       1513 43.61                              60     0.6 7  336 226 
 TOL  SZ ES   3   1514 18.73                              60     0.1 2  336 226 
 DBB  SZ EP       1513 44.22                              60     0.7 7  342 276 
 DBB  SZ ES   3   1514 20.12                              60     0.6 2  342 276 
 ANIL BZ EP   2   1513 44.70                              60     0.0 3  350 226 
 ANIL BN ES   3   1514 22.38                              60     0.8 2  350 226 
 ANIL BZ I        1514 37.08       109.2 0.27                           350 226 
 MON  HZ IP   2   1513 46.35                              60     0.4 3  362 310 
 MON  HN ES   3   1514 23.46                              60    -0.4 2  362 310 
 PRA  HZ EP   3   1513 48.91                              60     0.6 1  382 211 
 PRA  HZ I        1514 43.65        38.1 0.30                           382 211 
                                                                                
