 2016  222 1013 26.4 L   6.828 -73.521  5.3  RSN  8 0.5 1.3LRSN                1
 GAP= 92        1.16       3.1     2.3 10.0  0.1353E+01  0.7220E+01  0.1147E+02E
 Epicentro: SAN VICENTE DE CHUCURI - SANTANDER                                 3
 ACTION:UPD 16-03-04 21:28 OP:rebc STATUS:               ID:20160222101326 L   I
 OLDACT:UP  16-02-22 20:58 OP:drio STATUS:               ID:20160222100749     3
 OLDACT:REG 16-02-22 19:57 OP:drio STATUS:               ID:20160222100749     3
 2016-02-22-1007-49M.COL___294                                                 6
 STAT SP IPHASW D HRMM SECON CODA AMPLIT PERI AZIMU VELO AIN AR TRES W  DIS CAZ7
 BRR  HZ EP       1013 32.38                              92   -0.2810 37.4 326 
 BRR  HE ES       1013 37.76                              92    0.2110 37.4 326 
 BRR  HZ I        1013 38.51        20.1 0.34            105           37.4 326 
 BAR2 EZ EP       1013 33.71                              92   -0.4410 45.6 125 
 BAR2 EZ ES       1013 39.97                              92   -0.2310 45.6 125 
 BAR2 EZ I        1013 40.81        12.6 0.30            100           45.6 125 
 PAM  EZ EP       1013 44.47                              91    0.7610  107  58 
 PAM  EE ES       1013 56.93                              91   -0.2810  107  58 
 PAM  EZ I        1013 58.59         6.3 0.28             95            107  58 
 PTB  HZ EP       1013 42.92                              91   -0.4810  108 253 
 PTB  HN ES       1013 56.96                              91    0.3010  108 253 
 PTB  HZ I        1013 58.63        16.5 0.16             94            108 253 
 RUS  HZ EP       1013 45.42                              91    0.6210  114 155 
 RUS  HN ES   4   1013 57.46                              91   -1.69 0  114 155 
 RUS  HZ I        1014  7.49         3.1 0.56             94            114 155 
 SPBC HZ EP   4   1013 50.30                              91    1.46 0  144 205 
 SPBC HN ES   4   1014  8.67                              91    2.33 0  144 205 
 SPBC HZ I        1014 10.74         8.4 0.30             93            144 205 
 OCA  HZ EP   4   1013 56.60                              90    5.56 0  158   8 
 ZAR  HZ EP       1013 51.59                              90   -0.40 9  165 297 
 ZAR  HE ES   4   1014 10.83                              90   -1.13 0  165 297 
 ZAR  HZ I        1014 12.32        11.4 0.30             56            165 297 
 GUY2CHZ EP       1014  6.63                              56    0.72 8  270 229 
 GUY2CHE ES       1014 36.31                              56   -0.42 8  270 229 
 GUY2CHZ I        1014 41.59         1.1 0.30                           270 229 
                                                                                
