 2016  422 1133  7.6 L   6.794 -73.169135.9  RSN  9 0.4 2.1LRSN                1
 GAP=143        1.06       4.2     4.7  7.1 -0.8329E+01  0.1426E+02  0.8397E+00E
 Epicentro: LOS SANTOS - SANTANDER                                             3
 ACTION:UPD 16-05-05 14:23 OP:rebc STATUS:               ID:20160422113307 L   I
 OLDACT:ARG 16-04-22 20:26 OP:ar   STATUS:               ID:20160422112746     3
 2016-04-22-1127-46M.COL___309                                                 6
 STAT SP IPHASW D HRMM SECON CODA AMPLIT PERI AZIMU VELO AIN AR TRES W  DIS CAZ7
 BAR2 EZ IP     C 1133 25.93                             170   -0.0710 22.3 184 
 BAR2 EZ ES       1133 40.44                             170    0.0710 22.3 184 
 BAR2 EZ I        1133 42.20        19.4 0.20            170           22.3 184 
 PAM  EZ EP       1133 28.99                             148    0.1010 79.6  41 
 PAM  EN ES       1133 45.81                             148    0.2910 79.6  41 
 PAM  EZ I        1133 50.17        19.8 0.38            153           79.6  41 
 PTB  HZ EP       1133 32.91                             130   -0.59 9  145 259 
 PTB  HN ES       1133 52.93                             130   -0.80 9  145 259 
 PTB  HZ I        1133 55.65        18.0 0.14            132            145 259 
 OCA  HE ES       1133 56.50                             127   -0.21 9  161 354 
 OCA  HZ I        1133 57.07        43.1 0.32            130            161 354 
 SPBC HZ EP       1133 34.88                             127   -0.24 9  161 218 
 SPBC HN ES       1133 56.80                             127    0.19 9  161 218 
 SPBC HZ I        1134  0.54        18.5 0.22            129            161 218 
 ZAR  HZ EP       1133 38.64                             120   -0.53 9  202 293 
 ZAR  HN ES       1134  4.72                             120    0.91 9  202 293 
 ZAR  HZ I        1134  9.89        11.8 0.24            122            202 293 
 NOR  HZ EP       1133 42.49                             117    0.02 8  232 234 
 NOR  HN ES       1134  9.34                             117   -0.36 8  232 234 
 NOR  HZ I        1134 17.14        11.3 0.16            119            232 234 
 HEL  HZ EP       1133 47.41                             113    0.41 8  269 256 
 HEL  HE ES       1134 17.85                             113    0.10 8  269 256 
 HEL  HZ I        1134 24.93         7.3 0.32            115            269 256 
 GUY2CHZ EP       1133 51.01                             111    0.56 7  299 235 
 GUY2CHN ES       1134 24.69                             111    0.79 7  299 235 
 GUY2CHZ I        1134 31.19         7.8 0.22                           299 235 
                                                                                
