 2015  622 1032 18.0 L   6.779 -73.298125.1  RSN 10 0.4 1.8LRSN                1
 GAP=149        1.01       2.6     4.2  5.6 -0.5828E+00  0.9791E+01  0.1090E+00E
 Epicentro: ZAPATOCA - SANTANDER                                               3
 ACTION:UPD 15-09-10 22:14 OP:cam  STATUS:               ID:20150622103218 L   I
 OLDACT:REG 15-06-22 20:29 OP:drio STATUS:               ID:20150622102749     3
 2015-06-22-1027-49M.COL___310                                                 6
 STAT SP IPHASW D HRMM SECON CODA AMPLIT PERI AZIMU VELO AIN AR TRES W  DIS CAZ7
 BAR2 EZ EP       1032 35.32                             168    0.1810 24.3 148 
 BAR2 EZ ES       1032 48.69                             168    0.1610 24.3 148 
 BAR2 EZ I        1032 49.73        10.0 0.20            169           24.3 148 
 BRR  HZ EP       1032 36.07                             153   -0.0910 58.4 308 
 BRR  HN ES       1032 50.54                             153    0.1910 58.4 308 
 RUS  HZ EP       1032 40.27                             139    0.5110  101 166 
 RUS  HN ES       1032 56.63                             139   -0.1410  101 166 
 OCA  HZ EP       1032 44.77                             124   -0.10 9  161 359 
 OCA  HN ES       1033  5.01                             124   -0.86 9  161 359 
 OCA  HZ I        1033 10.33        15.9 0.26            124            161 359 
 ZAR  HZ EP       1032 47.84                             119    0.25 9  190 295 
 ZAR  HE ES       1033 10.96                             119    0.25 9  190 295 
 ZAR  HZ I        1033 13.88         6.9 0.36            119            190 295 
 NOR  HZ EP       1032 50.44                             115   -0.49 8  220 232 
 NOR  HE ES       1033 15.72                             115   -0.92 8  220 232 
 NOR  HZ I        1033 20.13         5.0 0.16            115            220 232 
 SML  HZ EP       1032 52.83                             113   -0.20 8  239 339 
 SML  HN ES       1033 20.57                             113    0.19 8  239 339 
 SML  HZ I        1033 23.64         8.0 0.30            113            239 339 
 HEL  HZ EP       1032 56.01                             112    0.72 8  255 255 
 HEL  HE ES       1033 24.79                             112    0.39 8  255 255 
 HEL  HZ I        1033 27.83         3.7 0.44            111            255 255 
 GUY2CHZ EP       1032 59.60                             109    0.63 7  286 233 
 GUY2CHE ES       1033 30.52                             109   -0.43 7  286 233 
 GUY2CHZ I        1033 38.16         2.2 0.46                           286 233 
 PRA  HZ EP       1033  9.58                             103   -0.07 6  382 208 
 PRA  HN ES       1033 49.51                             103   -0.45 6  382 208 
 PRA  HZ I        1034  0.18         1.4 0.24            103            382 208 
                                                                                
