 2013 1222 1252  4.3 L   7.292 -73.298119.9  RSN  8 0.5 1.8LRSN                1
 GAP= 87        1.14       4.0     5.7  8.9 -0.6101E+01  0.2980E+02 -0.1247E+01E
 Epicentro: RIONEGRO - SANTANDER                                               3
 ACTION:UPD 14-01-13 10:20 OP:ep   STATUS:               ID:20131222125204 L   I
 OLDACT:REG 13-12-22 18:29 OP:nd   STATUS:               ID:20131222125000     3
 2013-12-22-1250-00M.COL___285                                                 6
 STAT SP IPHASW D HRMM SECON CODA AMPLIT PERI AZIMU VELO AIN AR TRES W  DIS CAZ7
 PAM  SE ES       1252 38.11                             149    0.3810 66.3  85 
 BAR2 SZ IP     C 1252 23.87                             145    0.3510 78.5 171 
 BAR2 SZ ES       1252 38.26                             145   -0.2810 78.5 171 
 BAR2 SZ I        1252 40.05        54.3 0.24            150           78.5 171 
 OCA  HZ EP       1252 25.54                             136    0.0910  105 359 
 OCA  HN ES       1252 42.00                             136    0.0310  105 359 
 OCA  HZ I        1252 47.84         6.0 0.28            138            105 359 
 PTB  HZ EP       1252 28.69                             124   -1.06 9  153 237 
 PTB  HN ES       1252 49.18                             124   -0.45 9  153 237 
 PTB  HZ I        1252 52.59        11.6 0.38            126            153 237 
 RUS  HZ EP       1252 30.38                             124   -0.39 9  157 171 
 RUS  HN ES   2   1252 51.37                             124   -0.08 5  157 171 
 RUS  HZ I        1252 52.51         3.1 0.28            129            157 171 
 NOR  HZ EP       1252 41.72                             110    0.39 8  258 222 
 NOR  HN ES       1253 10.79                             110    0.55 8  258 222 
 NOR  HZ I        1253 17.90         5.7 0.28            113            258 222 
 HEL  HZ EP       1252 44.40                             109    0.76 8  275 244 
 HEL  HN ES       1253 14.86                             109    0.50 8  275 244 
 HEL  HZ I        1253 21.23         3.4 0.28            111            275 244 
 SJC  HZ EP       1252 52.08                             103   -0.52 6  355 324 
 SJC  HN ES   4   1253 28.05                             103   -2.25 0  355 324 
 SJC  HZ I        1253 34.94         2.1 0.46            106            355 324 
                                                                                
