 2011 1022 1444 58.2 L   6.646 -73.558  4.0  RSN  5 0.5 1.4LRSN                1
 GAP=194        1.04       3.6     5.3  8.7  0.9373E+01 -0.1319E+02 -0.4309E+01E
 Epicentro: EL CARMEN DE CHUCURI - SANTANDER                                   3
 ACTION:UPD 12-07-13 16:05 OP:ep   STATUS:               ID:20111022144458 L   I
 2011-10-22-1443-01S.COL___171                                                 6
 STAT SP IPHASW D HRMM SECON CODA AMPLIT PERI AZIMU VELO AIN AR TRES W  DIS CAZ7
 BAR2 SZ EP   1   1445  5.81                              47    0.43 7 41.9  98 
 BAR2 SZ I        1445  6.07        39.1 0.14                          41.9  98 
 BAR2 SZ ES   1   1445 10.54                              47   -0.45 7 41.9  98 
 BRR  HZ EP   1   1445  6.75                              47   -0.18 7 53.8 342 
 BRR  HZ I        1445  7.02        30.5 0.13                          53.8 342 
 BRR  HE ES   1   1445 13.26                              47   -0.49 7 53.8 342 
 GIR2 SZ EP   1   1445  8.73                              47    0.33 7 62.6  40 
 RUS  HZ EP   1   1445 14.66                              47    0.46 7 98.5 148 
 RUS  HN ES   1   1445 26.07                              47   -0.63 7 98.5 148 
 RUS  HZ I        1445 29.10         5.4 0.28                          98.5 148 
 PAM  SZ EP   1   1445 18.73                              47    0.97 7  122  51 
 PAM  SN ES   1   1445 32.62                              47   -0.42 7  122  51 
                                                                                
