 2017  722 1112 11.1 L   6.792 -73.145143.7  RSN  4 0.3 1.0LRSN                1
 GAP=244        0.80       8.2     6.2  7.7  0.3345E+02  0.5074E+01 -0.1073E+02E
 Epicentro: LOS SANTOS - SANTANDER                                             3
 ACTION:UPD 17-08-30 15:35 OP:rebc STATUS:               ID:20170722111211 L   I
 OLDACT:DUP 17-07-22 21:03 OP:lv   STATUS:               ID:20170722110744d    3
 2017-07-22-1108-00M.COL___374                                                 6
 STAT SP IPHASW D HRMM SECON CODA AMPLIT PERI AZIMU VELO AIN AR TRES W  DIS CAZ7
 BAR2 EZ EP       1112 30.49                             171    0.0610 22.5 191 
 BAR2 EZ ES       1112 45.50                             171   -0.0410 22.5 191 
 BAR2 EZ I        1112 47.13         7.7 0.23            169           22.5 191 
 RUS  HZ EP       1112 35.00                             144    0.4510 99.7 176 
 RUS  HN ES       1112 52.62                             144   -0.2510 99.7 176 
 RUS  HZ I        1112 54.10         1.0 0.12            144           99.7 176 
 PTB  HZ EP       1112 37.31                             131   -0.55 9  148 259 
 PTB  HN ES       1112 59.07                             131    0.31 9  148 259 
 PTB  HZ I        1113  1.30         0.8 0.21            132            148 259 
 ZAR  HN ES       1113  8.67                             122    0.01 9  204 292 
                                                                                
