 2013  222 1916 35.9 L   6.803 -73.130143.3  RSN  9 1.0 2.3LRSN                1
 GAP=101        2.14       9.1     7.8 13.1  0.1031E+02  0.1635E+02  0.1182E+02E
 Epicentro: LOS SANTOS - SANTANDER                                             3
 ACTION:UPD 13-03-12 09:35 OP:ep   STATUS:               ID:20130222191635 L   I
 2013-02-22-1910-00M.COL___225                                                 6
 STAT SP IPHASW D HRMM SECON CODA AMPLIT PERI AZIMU VELO AIN AR TRES W  DIS CAZ7
 BAR2 SZ IP     C 1916 55.08                             171   -0.1610 24.1 194 
 BAR2 SZ ES       1917 10.40                             171    0.0710 24.1 194 
 BAR2 SZ I        1917 11.37        42.5 0.18            162           24.1 194 
 BRR  HZ EP       1916 57.03                             152    0.1810 72.5 298 
 BRR  HN ES       1917 14.19                             152    1.0010 72.5 298 
 BRR  HN I        1917 14.25        69.5 0.22            138           72.5 298 
 PAM  SZ EP       1916 57.90                             150    0.1310 76.0  39 
 PAM  SN ES       1917 15.42                             150    0.6010 76.0  39 
 RUS  HZ EP       1916 59.02                             144   -0.4010  101 177 
 RUS  HN ES       1917 16.89                             144   -0.8810  101 177 
 RUS  HN I        1917 19.30        17.0 0.24            133            101 177 
 PTB  HZ EP       1917  1.81                             132   -1.01 9  149 259 
 PTB  HN ES       1917 22.41                             132   -1.41 9  149 259 
 PTB  HN I        1917 26.96        30.5 0.12            118            149 259 
 TAM  HZ EP   1   1917  3.33                             131    0.09 7  154 105 
 TAM  HN ES   1   1917 24.29                             131   -0.27 7  154 105 
 ZAR  HZ EP       1917  8.09                             122   -0.24 8  205 292 
 ZAR  HN ES       1917 34.56                             122    0.94 8  205 292 
 ZAR  HN I        1917 42.84        34.7 0.14            110            205 292 
 CHI  HZ EP   1   1917 13.25                             117   -0.30 6  249 196 
 CHI  HN ES   4   1917 45.56                             117    2.65 0  249 196 
 CHI  HN I   L1   1917 46.48         8.8 0.22            117    3.57 6  249 196 
 HEL  HZ EP   4   1917 17.24                             115    1.06 0  274 256 
 HEL  HE I        1917 56.18        12.5 0.34            104            274 256 
                                                                                
