 2017  622 1134 13.1 L   6.779 -73.090138.0  RSN  5 0.3 1.8LRSN                1
 GAP=283        0.75       6.3     9.3  8.6 -0.3450E+02 -0.3943E+02  0.3277E+02E
 Epicentro: LOS SANTOS - SANTANDER                                             3
 ACTION:UPD 17-09-14 16:54 OP:jn   STATUS:               ID:20170622113413 L   I
 OLDACT:UP  17-07-06 18:55 OP:nlst STATUS:               ID:20170622113413 L   3
 OLDACT:REG 17-06-22 18:01 OP:dhb  STATUS:               ID:20170622112745     3
 2017-06-22-1128-00M.COL___339                                                 6
 STAT SP IPHASW D HRMM SECON CODA AMPLIT PERI AZIMU VELO AIN AR TRES W  DIS CAZ7
 BRR  HZ EP       1134 33.87                             150    0.0510 77.7 298 
 BRR  HN ES       1134 50.30                             150    0.3210 77.7 298 
 PTB  HZ EP       1134 39.35                             130   -0.64 9  153 260 
 PTB  HE ES       1135  0.69                             130   -0.26 9  153 260 
 PTB  HZ I        1135  2.23         8.6 0.14            132            153 260 
 SPBC HZ EP       1134 41.06                             127   -0.18 9  165 221 
 SPBC HN ES       1135  3.23                             127    0.05 9  165 221 
 SPBC HZ I        1135  7.25         8.8 0.16            128            165 221 
 NOR  HZ EP       1134 49.04                             117    0.23 8  238 236 
 NOR  HN ES       1135 16.79                             117    0.14 8  238 236 
 NOR  HZ I        1135 19.23         4.0 0.16            119            238 236 
 GUY2CHZ EP   1   1134 57.51                             111    0.71 5  305 236 
 GUY2CHN ES   1   1135 31.10                             111    0.23 5  305 236 
 GUY2CHZ I        1135 38.67         3.8 0.48                           305 236 
                                                                                
