 2015  422 1100  5.6 L   6.798 -73.175151.3  RSN  4 0.3 1.3LRSN                1
 GAP=206        0.62       5.6     5.1  8.5  0.2821E+00  0.4948E+01 -0.2524E+02E
 Epicentro: LOS SANTOS - SANTANDER                                             3
 ACTION:UPD 15-06-03 16:56 OP:cam  STATUS:               ID:20150422110005 L   I
 OLDACT:DUP 15-04-22 22:55 OP:spq  STATUS:               ID:20150422105749d    3
 2015-04-22-1057-48M.COL___274                                                 6
 STAT SP IPHASW D HRMM SECON CODA AMPLIT PERI AZIMU VELO AIN AR TRES W  DIS CAZ7
 BAR2 EZ EP   1   11 0 25.79                             171   -0.12 8 22.8 182 
 BAR2 EZ ES   1   11 0 41.93                             171    0.20 8 22.8 182 
 BAR2 EZ I        11 0 42.72         3.1 0.24            171           22.8 182 
 PTB  HZ EP   1   11 0 32.78                             134    0.01 7  145 259 
 PTB  HN ES       11 0 53.69                             134   -0.2510  145 259 
 PTB  HZ I        11 1  0.76         2.1 0.22            133            145 259 
 ZAR  HE ES   1   11 1  4.06                             124    0.55 7  201 293 
 ZAR  HZ I        11 1  9.59         2.2 0.42            124            201 293 
 SML  HZ EP   1   11 0 42.81                             119    0.36 6  243 336 
 SML  HE ES   1   11 1 10.68                             119   -0.49 6  243 336 
 SML  HN ES   1   11 1 11.45                             119            243 336 
 SML  HZ I        11 1 18.53         2.2 0.10            119            243 336 
                                                                                
