 2015  922 1955  9.6 L   6.795 -73.138141.0  RSN 11 0.4 2.2LRSN                1
 GAP=138        0.77       3.1     3.6  4.8 -0.1916E+01  0.4663E+01  0.3889E+01E
 Epicentro: LOS SANTOS - SANTANDER                                             3
 ACTION:UPD 15-10-28 16:27 OP:cam  STATUS:               ID:20150922195510dL   I
 OLDACT:UP  15-09-23 01:49 OP:ar   STATUS:               ID:20150922194749     3
 OLDACT:REG 15-09-22 23:14 OP:ar   STATUS:               ID:20150922194749     3
 2015-09-22-1947-49M.COL___310                                                 6
 STAT SP IPHASW D HRMM SECON CODA AMPLIT PERI AZIMU VELO AIN AR TRES W  DIS CAZ7
 BAR2 EZ EP       1955 28.39                             170   -0.2110 22.9 192 
 BAR2 EZ ES       1955 43.18                             170   -0.2910 22.9 192 
 BAR2 EZ I        1955 44.54        32.1 0.20            169           22.9 192 
 BRR  HZ EP       1955 30.23                             151   -0.0210 72.2 299 
 BRR  HN ES       1955 46.95                             151    0.5610 72.2 299 
 BRR  HZ I        1955 47.59        29.9 0.32            149           72.2 299 
 PAM  EZ EP       1955 31.28                             150    0.0210 77.3  39 
 PAM  EN ES       1955 48.13                             150   -0.0710 77.3  39 
 PAM  EZ I        1955 50.26        33.5 0.30            153           77.3  39 
 RUS  HZ EP       1955 32.53                             143   -0.2610 99.9 176 
 RUS  HN ES       1955 51.31                             143    0.3910 99.9 176 
 RUS  HZ I        1955 52.24        12.1 0.24            144           99.9 176 
 PTB  HZ EP   2   1955 35.27                             131   -0.93 5  148 259 
 PTB  HE ES   2   1955 56.61                             131   -0.37 5  148 259 
 PTB  HZ I        1956  1.31        15.4 0.10            130            148 259 
 SPBC HZ EP   2   1955 37.04                             128   -0.65 5  163 219 
 SPBC HN ES   2   1955 59.08                             128   -0.57 5  163 219 
 ZAR  HZ EP   2   1955 42.05                             121    0.26 4  205 292 
 ZAR  HN ES   2   1956  6.57                             121   -0.37 4  205 292 
 ZAR  HZ I        1956 12.11        20.8 0.28            121            205 292 
 NOR  HZ EP       1955 45.08                             117    0.04 8  235 235 
 NOR  HE ES       1956 12.29                             117   -0.44 8  235 235 
 NOR  HZ I        1956 16.15        18.5 0.38            118            235 235 
 CHI  HZ EP       1955 47.58                             116    0.63 8  248 195 
 CHI  HN ES       1956 16.22                             116    0.10 8  248 195 
 CHI  HZ I        1956 21.22         5.1 0.38            117            248 195 
 HEL  HE ES   2   1956 21.58                             114    0.75 4  273 256 
 GUY2CHZ EP   2   1955 53.55                             111    0.57 4  301 235 
 GUY2CHN ES   2   1956 27.41                             111    0.56 4  301 235 
 GUY2CHZ I        1956 34.70         9.4 0.36                           301 235 
                                                                                
