 2011  622 1015 50.1 L   6.710 -73.140146.9  RSN  4 0.2 1.4LRSN                1
 GAP=208        0.53      16.2    12.6  5.9  0.1421E+03 -0.2607E+02 -0.3718E+02E
 Epicentro: JORDAN - SANTANDER                                                 3
 ACTION:UP  11-07-14 19:07 OP:ep   STATUS:               ID:20110622101550 L   I
 2011-06-22-1000-00M.COL___126                                                 6
 STAT SP IPHASW D HRMM SECON CODA AMPLIT PERI AZIMU VELO SNR AR TRES W  DIS CAZ7
 BAR2 SZ EP   3   1016  9.20                             174    -0.5 2   14 200 
 BAR2 SZ ES   1   1016 25.12                             174     0.1 7   14 200 
 BAR2 SZ I        1016 25.37         4.2 0.20                            14 200 
 BTL  SZ EP       1016 10.02                             169     0.110   27 328 
 BTL  SZ ES   1   1016 25.08                             169    -0.3 7   27 328 
 GIR2 SZ EP       1016 10.33                             164     0.110   41 352 
 BRR  HZ EP       1016 11.51                             151    -0.210   77 305 
 BRR  HN ES   1   1016 28.76                             151     0.2 7   77 305 
 BRR  HZ I        1016 32.18         6.8 0.32                            77 305 
                                                                                
