 2010  922 1501 27.2 L   6.711 -73.237141.7  RSN  4 0.3 1.5LRSN                1
 GAP=165        0.68      10.7    17.6  7.6  0.1550E+03 -0.1784E+02 -0.4022E+01E
 Epicentro: VILLANUEVA - SANTANDER                                             3
 ACTION:UP  11-02-18 11:04 OP:tino STATUS:               ID:20100922150127 L   I
 2010-09-22-1458-25S.COL___122                                                 6
 STAT SP IPHASW D HRMM SECON CODA AMPLIT PERI AZIMU VELO SNR AR TRES W  DIS CAZ7
 BAR2 SZ EP       15 1 45.99                             174    -0.210   14 156 
 BAR2 SZ ES   1   15 2  0.85                             174    -0.1 7   14 156 
 BAR2 SZ I        15 2  2.57        11.4 0.34                            14 156 
 BTL  SZ EP       15 1 46.60                             170     0.310   23 352 
 BRR  HZ EP       15 1 47.94                             153     0.210   68 310 
 BRR  HN ES   1   15 2  3.51                             153    -0.3 7   68 310 
 RUS  HZ EP       15 1 49.70                             146    -0.210   92 169 
 RUS  HZ I        15 1 50.73         3.1 0.11                            92 169 
 RUS  HN ES   2   15 2  8.23                             146     0.6 5   92 169 
                                                                                
