 2013  322 1122 49.0 L   6.801 -73.168148.5  RSN 10 0.5 2.3LRSN                1
 GAP=134        1.23       3.8     4.8  7.2 -0.1339E+01  0.9299E+01 -0.2016E+01E
 Epicentro: LOS SANTOS - SANTANDER                                             3
 ACTION:UPD 13-04-09 14:04 OP:ep   STATUS:               ID:20130322112249 L   I
 2013-03-22-1120-00M.COL___241                                                 6
 STAT SP IPHASW D HRMM SECON CODA AMPLIT PERI AZIMU VELO AIN AR TRES W  DIS CAZ7
 BAR2 SZ EP       1123  9.13                             171    0.1510 23.1 184 
 BAR2 SZ ES       1123 23.90                             171   -0.6510 23.1 184 
 BAR2 SZ I        1123 25.71        24.9 0.38            171           23.1 184 
 BRR  HZ EP       1123 10.89                             154    0.5410 69.0 299 
 BRR  HN ES       1123 27.60                             154    0.6210 69.0 299 
 BRR  HN I        1123 28.31       117.3 0.22            150           69.0 299 
 PAM  SZ IP     D 1123 12.05                             151    0.4310 78.9  41 
 PAM  SN ES       1123 28.92                             151   -0.3310 78.9  41 
 PAM  SN I        1123 30.08        20.5 0.26            152           78.9  41 
 RUS  HZ EP       1123 13.20                             144    0.1310  101 175 
 RUS  HN ES       1123 31.55                             144   -0.2710  101 175 
 RUS  HN I        1123 33.45        14.1 0.58            146            101 175 
 PTB  HZ EP       1123 15.94                             133   -0.06 9  145 259 
 PTB  HN ES       1123 36.50                             133   -0.54 9  145 259 
 PTB  HN I        1123 39.34        26.5 0.22            131            145 259 
 OCA  HZ EP       1123 17.22                             130   -0.29 9  160 354 
 OCA  HN ES       1123 40.04                             130    0.30 9  160 354 
 OCA  HN I        1123 42.08        58.7 0.26            130            160 354 
 ZAR  HZ EP   4   1123 23.45                             123    2.04 0  202 292 
 ZAR  HE ES       1123 47.47                             123    0.80 9  202 292 
 ZAR  HN I        1123 54.35        34.2 0.34            122            202 292 
 SML  HZ EP       1123 24.89                             118   -0.79 8  243 336 
 SML  HN ES   1   1123 53.88                             118   -0.40 6  243 336 
 SML  HN I        1124  1.65        34.6 0.10            118            243 336 
 CHI  HN ES       1123 57.20                             118    0.91 8  248 195 
 CHI  HN I        1123 59.41        10.2 0.24            118            248 195 
 HEL  HZ EP       1123 28.52                             115   -0.59 8  270 256 
 HEL  HN ES       1123 59.92                             115   -0.46 8  270 256 
 HEL  HN I        1124  6.46         5.9 0.38            115            270 256 
 SJC  HN ES   4   1124 24.89                             106   -2.90 0  408 327 
                                                                                
