 2017  522 1143 29.2 L   6.747 -73.183144.7  RSN  4 0.2 1.6LRSN                1
 GAP=229        0.39       2.5     3.4  4.3  0.5079E+01  0.1435E+01  0.5422E+00E
 Epicentro: VILLANUEVA - SANTANDER                                             3
 ACTION:UPD 17-06-16 13:38 OP:jn   STATUS:               ID:20170522114329 L   I
 OLDACT:REG 17-05-22 20:47 OP:dnl  STATUS:               ID:20170522113310     3
 2017-05-22-1138-00M.COL___347                                                 6
 STAT SP IPHASW D HRMM SECON CODA AMPLIT PERI AZIMU VELO AIN AR TRES W  DIS CAZ7
 BRR  HZ EP   2   1143 49.79                             153   -0.43 5 70.7 304 
 BRR  HE ES       1144  6.67                             153    0.0610 70.7 304 
 BRR  HZ I        1144 10.42         8.3 0.48            148           70.7 304 
 RUS  HZ EP       1143 52.52                             145    0.0510 95.1 173 
 RUS  HE ES       1144 10.62                             145    0.0010 95.1 173 
 RUS  HZ I        1144 11.24         4.8 0.22            147           95.1 173 
 SPBC HZ EP   2   1143 56.84                             130   -0.12 5  156 219 
 SPBC HN ES       1144 18.58                             130   -0.02 9  156 219 
 SPBC HZ I        1144 21.35         8.4 0.22            129            156 219 
 ZAR  HZ EP   2   1144  1.93                             122    0.50 4  203 294 
 ZAR  HE ES       1144 26.50                             122   -0.07 9  203 294 
 ZAR  HZ I        1144 35.26         3.6 0.30            121            203 294 
                                                                                
