 2010 1022 1739  9.3 L   6.796 -73.088145.0  RSN  8 0.5 2.1LRSN                1
 GAP=165        0.96       5.8     9.8 10.0 -0.2124E+02  0.1708E+02  0.3415E+01E
 Epicentro: LOS SANTOS - SANTANDER                                             3
 ACTION:UP  11-02-18 11:11 OP:tino STATUS:               ID:20101022173909 L   I
 2010-10-22-1736-10S.COL___125                                                 6
 STAT SP IPHASW D HRMM SECON CODA AMPLIT PERI AZIMU VELO SNR AR TRES W  DIS CAZ7
 BAR2 SZ EP   1   1739 28.90                             170     0.0 7   25 205 
 BAR2 SZ ES   2   1739 43.84                             170    -0.3 5   25 205 
 BAR2 SZ I        1739 44.98        30.9 0.23                            25 205 
 BRR  HZ EP   1   1739 30.61                             150    -0.1 7   77 297 
 BRR  HN ES   2   1739 47.96                             150     0.5 5   77 297 
 BRR  HZ I        1739 49.57        21.2 0.35                            77 297 
 RUS  HZ EP   1   1739 32.94                             144     0.0 7  100 180 
 RUS  HN ES   2   1739 51.83                             144     0.5 5  100 180 
 RUS  HZ I        1739 52.70        11.7 0.34                           100 180 
 GUE  SZ EP   1   1739 34.93                             139     1.0 7  116   9 
 GRA  SZ EP   1   1739 33.70                             137    -0.7 7  124  15 
 GRA  SZ ES   2   1739 53.22                             137    -0.7 5  124  15 
 GRA  SZ I        1739 55.69        13.9 0.28                           124  15 
 NOR  SZ EP   1   1739 45.08                             118    -0.5 6  240 236 
 NOR  SN ES   2   1740 13.31                             118    -0.5 4  240 236 
 CHI  HZ EP   1   1739 47.27                             117     0.1 6  250 197 
 CHI  HE ES   2   1740 16.37                             117    -0.2 4  250 197 
 CHI  HZ I        1740 20.18        13.7 0.60                           250 197 
 HEL  HZ EP   1   1739 50.60                             114     0.4 6  278 256 
                                                                                
