 2012  222 1000 55.3 L   7.476 -73.156129.7  RSN  7 0.5 1.9LRSN                1
 GAP=301        0.63       7.5     7.2  7.5  0.4902E+01 -0.1399E+01  0.8089E+01E
 ACTION:UP  12-03-07 16:33 OP:epov STATUS:               ID:20120222100055 L   I
 2012-02-22-1000-00M.COL___191                                                 6
 STAT SP IPHASW D HRMM SECON CODA AMPLIT PERI AZIMU VELO AIN AR TRES W  DIS CAZ7
 GIR2 SZ EP   2   10 1 13.70                             161    0.16 5 44.1 185 
 GIR2 SZ ES   2   10 1 28.12                             161    0.36 5 44.1 185 
 BRR  HZ EP   1   10 1 14.99                             149    0.08 7 73.7 236 
 BRR  HZ I        10 1 15.25        16.8 0.24                          73.7 236 
 BRR  HN ES   1   10 1 30.49                             149    0.30 7 73.7 236 
 BAR2 SZ EP   1   10 1 16.83                             141   -0.12 7 97.8 182 
 BAR2 SZ ES   2   10 1 33.21                             141   -0.61 5 97.8 182 
 BAR2 SZ I        10 1 34.43        15.5 0.14                          97.8 182 
 RUS  HN ES   2   10 1 46.50                             123   -0.56 4  175 177 
 PTB  HZ EP   2   10 1 23.40                             123   -0.55 4  177 234 
 PTB  HE ES   2   10 1 45.55                             123   -0.74 4  177 234 
 NOR  SN ES   2   10 2  7.63                             110    0.39 4  284 222 
 CHI  HZ EP   2   10 1 41.34                             108    0.87 3  321 191 
 CHI  HN ES   2   10 2 16.47                             108    0.79 3  321 191 
                                                                                
