 2016 1222 1917 25.1 L   6.801 -73.154139.7  RSN 12 0.6 2.3LRSN                1
 GAP=135        1.23       4.2     4.9  6.7  0.3095E+00  0.1218E+02  0.8213E+01E
 Epicentro: LOS SANTOS - SANTANDER                                             3
 ACTION:UPD 17-01-11 20:17 OP:rebc STATUS:               ID:20161222191725 L   I
 OLDACT:UP  16-12-23 07:30 OP:ar   STATUS:               ID:20161222190746d    3
 OLDACT:UP  16-12-23 07:30 OP:ar   STATUS:               ID:20161222190746d    3
 OLDACT:DUP 16-12-23 07:23 OP:ar   STATUS:               ID:20161222190746d    3
 2016-12-22-1908-00M.COL___387                                                 6
 STAT SP IPHASW D HRMM SECON CODA AMPLIT PERI AZIMU VELO AIN AR TRES W  DIS CAZ7
 BAR2 EZ IP     C 1917 43.79                             170   -0.2310 23.3 188 
 BAR2 EZ ES       1917 58.76                             170   -0.0010 23.3 188 
 BAR2 EZ I        1918  1.42        45.7 0.44            169           23.3 188 
 BRR  HZ EP       1917 45.56                             152    0.0010 70.3 299 
 BRR  HN ES       1918  2.19                             152    0.6810 70.3 299 
 BRR  HZ I        1918  6.21        38.7 0.46            150           70.3 299 
 PAM  EZ EP       1917 46.72                             149    0.0010 77.9  40 
 PAM  EE ES       1918  3.68                             149    0.1110 77.9  40 
 PAM  EZ I        1918  6.01        39.0 0.38            154           77.9  40 
 RUS  HZ EP       1917 47.76                             142   -0.5310  101 176 
 RUS  HE ES       1918  6.30                             142   -0.0710  101 176 
 RUS  HZ I        1918  8.03        16.5 0.40            144            101 176 
 PTB  HZ EP   1   1917 50.51                             131   -1.00 7  147 259 
 PTB  HE ES       1918 11.80                             131   -0.30 9  147 259 
 PTB  HZ I        1918 12.74        19.3 0.28            130            147 259 
 ZAR  HZ EP       1917 57.79                             121    0.72 9  203 292 
 ZAR  HN ES       1918 21.34                             121   -0.66 9  203 292 
 ZAR  HZ I        1918 27.69        29.1 0.38            122            203 292 
 NOR  HZ EP       1917 59.93                             117   -0.49 8  234 234 
 NOR  HE ES   4   1918 26.53                             117   -1.44 0  234 234 
 NOR  HZ I        1918 31.11        13.1 0.36            118            234 234 
 CHI  HZ EP       1918  2.04                             116   -0.43 8  249 195 
 CHI  HN ES       1918 31.44                             116   -0.17 8  249 195 
 CHI  HZ I        1918 34.02        19.9 0.30            117            249 195 
 ROSC BZ EP   4   1918  4.68                             115    1.81 0  252 211 
 ROSC BN ES       1918 33.25                             115    0.93 8  252 211 
 GUY2CHZ EP       1918  9.13                             111    0.76 7  301 235 
 GUY2CHN ES   4   1918 44.15                             111    2.04 0  301 235 
 GUY2CHZ I        1918 49.67        12.1 0.32                           301 235 
 CBOC HZ EP       1918 12.60                             109    0.91 7  333 252 
 CBOC HN ES       1918 47.14                             109   -0.87 7  333 252 
 CBOC HZ I        1919  2.63         2.5 0.18            110            333 252 
 ORTC HZ EP       1918 19.52                             105    0.74 6  395 216 
 ORTC HN ES       1919  1.28                             105    0.64 6  395 216 
 ORTC HZ I        1919  6.34        10.2 0.46            107            395 216 
                                                                                
