 2017  822 1716 53.4 L   7.243 -73.591101.2  RSN  5 0.3 1.6LRSN                1
 GAP=163        0.79       4.2     3.1  6.1  0.3691E+01 -0.6277E+00  0.2450E+01E
 Epicentro: SABANA DE TORRES - SANTANDER                                       3
 ACTION:UPD 17-09-04 20:23 OP:rebc STATUS:               ID:20170822171653 L   I
 OLDACT:DUP 17-08-22 23:52 OP:edw  STATUS:               ID:20170822170745d    3
 2017-08-22-1708-00M.COL___411                                                 6
 STAT SP IPHASW D HRMM SECON CODA AMPLIT PERI AZIMU VELO AIN AR TRES W  DIS CAZ7
 BRR  HZ EP     C 1717  7.38                             168    0.1610 20.1 222 
 BRR  HN ES       1717 17.93                             168   -0.1010 20.1 222 
 BRR  HZ I        1717 18.38        18.5 0.40            171           20.1 222 
 BAR2 EZ EP       1717 11.64                             137    0.2910 85.0 148 
 BAR2 EZ ES       1717 25.81                             137    0.4310 85.0 148 
 BAR2 EZ I        1717 26.52        13.5 0.42            138           85.0 148 
 PAM  EZ EP       1717 13.19                             132    0.2810 99.0  84 
 PAM  EN ES       1717 27.76                             132   -0.4010 99.0  84 
 PAM  EZ I        1717 30.71         4.5 0.52            132           99.0  84 
 ZAR  HN ES       1717 34.55                             120   -0.14 9  143 281 
 RUS  HZ EP       1717 18.77                             117   -0.24 9  160 159 
 RUS  HN ES       1717 38.61                             117   -0.41 9  160 159 
                                                                                
