 2010  522 1125 55.0 L   6.840 -73.133140.2  RSN  9 0.6 2.4LRSN                1
 GAP=141        1.09       6.8     9.7  8.9 -0.3207E+02  0.1595E+02 -0.6254E+01E
 Epicentro: LOS SANTOS - SANTANDER                                             3
 ACTION:UP  10-08-24 10:06 OP:vdl  STATUS:               ID:20100522112555 L   I
 2010-05-22-1123-59S.COL___111                                                 6
 STAT SP IPHASW D HRMM SECON CODA AMPLIT PERI AZIMU VELO SNR AR TRES W  DIS CAZ7
 BAR2 SZ IP       1126 13.71                             168    -0.410   28 192 
 BAR2 SZ ES   1   1126 28.42                             168    -0.5 7   28 192 
 BRI  SZ IP       1126 18.46                             142     0.410  104  21 
 GUE  SZ EP       1126 18.75                             140    -0.110  112  12 
 GUE  SZ ES   2   1126 38.27                             140     0.8 5  112  12 
 GRA  SZ IP       1126 19.70                             137     0.310  121  17 
 GRA  SZ ES   1   1126 38.52                             137     0.1 7  121  17 
 OCA  SZ EP       1126 22.22                             129    -0.3 9  156 352 
 OCA  SZ ES   1   1126 43.83                             129    -0.1 7  156 352 
 OCA  SZ I        1126 48.53        45.7 0.22                           156 352 
 HEL  HZ EP       1126 36.04                             113     0.8 8  275 255 
 HEL  HN ES   3   1127  6.96                             113     0.4 2  275 255 
 HEL  HZ I        1127 13.30        11.4 0.50                           275 255 
 RREF BZ EP   2   1126 41.93                             110     0.6 3  326 229 
 RREF BN ES   3   1127 17.39                             110    -0.1 2  326 229 
 RREF BZ I        1127 25.82         8.9 0.29                           326 229 
 MON  HZ IP   2   1126 41.67                             108    -1.9 3  351 308 
 MON  HE ES   3   1127 20.44                             108    -1.0 2  351 308 
 MON  HZ I        1127 37.38         6.6 0.77                           351 308 
 SDV  BZ EP       1126 43.55                             108    -0.8 6  356  51 
 SDV  BZ I        1127 23.44         8.4 0.61                           356  51 
                                                                                
