 2012 1222 1531 19.8 L   6.817 -73.495111.9  RSN  4 0.2 1.3LRSN                1
 GAP=162        0.45       3.6     3.2  5.3  0.5845E+01  0.8079E+00  0.3910E+01E
 Epicentro: SAN VICENTE DE CHUCURI - SANTANDER                                 3
 ACTION:UPD 13-01-04 14:29 OP:ep   STATUS:               ID:20121222153119 L   I
 2012-12-22-1530-00M.COL___238                                                 6
 STAT SP IPHASW D HRMM SECON CODA AMPLIT PERI AZIMU VELO AIN AR TRES W  DIS CAZ7
 BRR  HZ EP   1   1531 35.96                             159    0.38 7 40.0 323 
 BRR  HE ES   1   1531 47.81                             159   -0.10 7 40.0 323 
 BRR  HZ I        1531 50.94         7.1 0.45                          40.0 323 
 BAR2 SZ IP       1531 35.88                             158   -0.1710 42.6 126 
 BAR2 SZ I        1531 36.09        13.3 0.17                          42.6 126 
 PTB  HZ EP     C 1531 40.60                             132   -0.0110  111 254 
 PTB  HN ES   1   1531 56.84                             132   -0.02 7  111 254 
 PTB  HZ I        1532  1.95         2.5 0.41                           111 254 
 RUS  HZ EP       1531 41.29                             132   -0.0910  112 156 
 RUS  HE ES       1531 58.37                             132    0.1410  112 156 
 RUS  HE I        1532  0.35         3.0 0.30                           112 156 
                                                                                
