 2017  222 1006 32.1 L   6.165 -73.851  4.0  RSN  4 0.3 0.9LRSN                1
 GAP=192        0.81       3.2     2.2  6.1  0.3350E+01 -0.4255E+01 -0.6863E+01E
 Epicentro: LANDAZURI - SANTANDER                                              3
 ACTION:UPD 17-05-24 15:39 OP:jn   STATUS:               ID:20170222100632 L   I
 OLDACT:DUP 17-02-22 20:48 OP:edw  STATUS:               ID:20170222095744d    3
 OLDACT:UP  17-02-22 20:45 OP:edw  STATUS:               ID:20170222095742     3
 OLDACT:REG 17-02-22 19:31 OP:edw  STATUS:               ID:20170222095742     3
 2017-02-22-0958-00M.COL___370                                                 6
 STAT SP IPHASW D HRMM SECON CODA AMPLIT PERI AZIMU VELO AIN AR TRES W  DIS CAZ7
 PTB  HZ EP       10 6 44.77                              47    0.1110 78.7 302 
 PTB  HN ES       10 6 54.40                              47   -0.0410 78.7 302 
 PTB  HZ I        10 6 55.60         5.9 0.18             96           78.7 302 
 BAR2 EZ ES       10 6 57.52                              47    0.2210 87.8  57 
 BAR2 EZ I        10 6 58.48         3.9 0.14             94           87.8  57 
 RUS  HZ EP       10 6 47.39                              47    0.4910 90.2 109 
 RUS  HN ES       10 6 57.99                              47   -0.4310 90.2 109 
 RUS  HZ I        10 6 59.65         2.7 0.40             94           90.2 109 
 BRR  HZ EP       10 6 48.29                              47   -0.3910  105   8 
 BRR  HN ES       10 7  1.63                              47    0.0410  105   8 
                                                                                
