 2015  422 1105 17.1 L   6.725 -73.157151.6  RSN  6 0.4 1.5LRSN                1
 GAP=199        0.80       5.5     6.5  7.3  0.8069E+01  0.6122E+01 -0.1522E+02E
 Epicentro: VILLANUEVA - SANTANDER                                             3
 ACTION:UPD 15-06-03 16:56 OP:cam  STATUS:               ID:20150422110517 L   I
 OLDACT:REG 15-04-22 20:47 OP:spq  STATUS:               ID:20150422105748     3
 2015-04-22-1057-48M.COL___274                                                 6
 STAT SP IPHASW D HRMM SECON CODA AMPLIT PERI AZIMU VELO AIN AR TRES W  DIS CAZ7
 BAR2 EZ ES   1   11 5 52.40                             175   -0.63 7 15.0 191 
 BAR2 EZ I        11 5 53.27         5.7 0.24            175           15.0 191 
 BRR  HZ EP       11 5 39.33                             152    0.2910 74.5 305 
 BRR  HN ES       11 5 56.69                             152    0.5210 74.5 305 
 BRR  HZ I        11 5 58.87         5.7 0.34            150           74.5 305 
 RUS  HE ES   1   11 5 59.52                             148    0.12 7 92.4 175 
 RUS  HZ I        11 6  0.78         4.1 0.34            150           92.4 175 
 PTB  HZ EP   1   11 5 44.36                             134    0.07 7  145 262 
 PTB  HN ES       11 6  5.07                             134   -0.46 9  145 262 
 PTB  HZ I        11 6  6.95         2.9 0.22            134            145 262 
 ZAR  HZ EP   1   11 5 50.16                             123    0.04 6  206 294 
 ZAR  HE ES   1   11 6 16.05                             123    0.15 6  206 294 
 ZAR  HZ I        11 6 21.63         3.5 0.36            123            206 294 
 SML  HZ EP   1   11 5 54.54                             118   -0.25 6  251 336 
 SML  HE ES   1   11 6 23.79                             118   -0.42 6  251 336 
 SML  HZ I        11 6 27.30         4.7 0.26            118            251 336 
                                                                                
