 2012  522 1534 44.8 L   6.785 -73.193142.0  RSN  6 0.2 1.8LRSN                1
 GAP=131        0.45       2.9     2.5  4.2 -0.4495E+00  0.3228E+01 -0.1128E-01E
 Epicentro: ZAPATOCA - SANTANDER                                               3
 ACTION:UP  12-07-05 12:07 OP:pat  STATUS:               ID:20120522153444 L   I
 2012-05-22-1530-00M.COL___200                                                 6
 STAT SP IPHASW D HRMM SECON CODA AMPLIT PERI AZIMU VELO SNR AR TRES W  DIS CAZ7
 BAR2 SZ EP       1535  4.10                             171     0.110   21 177 
 BAR2 SZ ES   1   1535 19.21                             171     0.3 7   21 177 
 BAR2 SZ I        1535 20.78        29.8 0.22                            21 177 
 PAM  SZ EP       1535  6.95                             149     0.010   82  42 
 PAM  SN ES   1   1535 23.99                             149    -0.2 7   82  42 
 RUS  HZ EP       1535  8.03                             143    -0.110   99 173 
 RUS  HN ES   1   1535 26.21                             143    -0.1 7   99 173 
 RUS  HZ I        1535 27.85         8.0 0.48                            99 173 
 PTB  HZ EP       1535 11.07                             132     0.1 9  142 259 
 PTB  HN ES   1   1535 31.15                             132    -0.3 7  142 259 
 PTB  HZ I        1535 34.05         5.3 0.16                           142 259 
 ZAR  HE ES   1   1535 41.46                             122     0.1 6  200 293 
 ZAR  HZ I        1535 48.21         8.7 0.20                           200 293 
 NOR  SZ EP   1   1535 19.88                             118     0.1 6  229 234 
                                                                                
