 2010  322 1728  2.8 L   6.863 -72.973144.2  RSN  7 0.3 1.8LRSN                1
 GAP=201        0.55       3.2     6.5  5.9  0.6973E+00  0.5102E+01  0.2821E+01E
 Epicentro: CEPITA - SANTANDER                                                 3
 ACTION:UP  10-08-24 09:55 OP:vdl  STATUS:               ID:20100322172802 L   I
 2010-03-22-1725-36S.COL___098                                                 6
 STAT SP IPHASW D HRMM SECON CODA AMPLIT PERI AZIMU VELO SNR AR TRES W  DIS CAZ7
 BAR2 SZ EP   1   1728 22.78                             165     0.1 7   38 218 
 BAR2 SZ ES   2   1728 37.85                             165    -0.3 5   38 218 
 BRR  HZ EP   1   1728 24.58                             148    -0.1 7   86 288 
 BRR  HZ I        1728 40.16        11.7 0.37                            86 288 
 BRR  HE ES   2   1728 41.57                             148    -0.2 5   86 288 
 RUS  HZ EP   1   1728 27.23                             141     0.3 7  108 186 
 RUS  HE ES   2   1728 45.84                             141     0.0 5  108 186 
 RUS  HZ I        1728 47.54         6.7 0.21                           108 186 
 OCA  SZ EP   1   1728 30.55                             130    -0.1 7  157 346 
 OCA  SZ ES   2   1728 52.76                             130     0.3 5  157 346 
 OCA  SZ I        1728 58.19        15.3 0.63                           157 346 
 CHI  HZ EP   1   1728 42.02                             116     0.3 6  261 199 
 CHI  HN ES   2   1729 11.98                             116    -0.2 4  261 199 
 CHI  HZ I        1729 16.04         2.0 0.29                           261 199 
 HEL  HZ EP   1   1728 44.64                             113    -0.6 5  292 255 
 HEL  HN ES   2   1729 19.14                             113     0.9 4  292 255 
 HEL  HZ I        1729 21.17         3.2 0.28                           292 255 
 PRA  HZ EP   1   1728 57.95                             105    -0.2 4  408 211 
 PRA  HE ES   2   1729 40.83                             105    -0.4 3  408 211 
 PRA  HZ I        1729 44.50         2.7 0.42                           408 211 
                                                                                
