 2014  222 1942  2.7 L   6.775 -73.149150.2  RSN  6 0.4 1.4LRSN                1
 GAP=137        0.89       5.1     4.6  7.7 -0.2508E+00  0.8778E+01 -0.1307E+01E
 Epicentro: LOS SANTOS - SANTANDER                                             3
 ACTION:UPD 14-03-10 08:12 OP:ep   STATUS:               ID:20140222194202 L   I
 OLDACT:UP  14-02-22 19:24 OP:cam  STATUS:               ID:20140222194000     3
 OLDACT:UP  14-02-22 19:23 OP:cam  STATUS:               ID:20140222194000     3
 OLDACT:REG 14-02-22 19:20 OP:cam  STATUS:               ID:20140222194000     3
 2014-02-22-1940-00M.COL___215                                                 6
 STAT SP IPHASW D HRMM SECON CODA AMPLIT PERI AZIMU VELO AIN AR TRES W  DIS CAZ7
 BAR2 SZ EP       1942 22.85                             172   -0.0110 20.5 190 
 BAR2 SZ ES       1942 38.24                             172   -0.3110 20.5 190 
 BAR2 SZ I        1942 40.10        13.0 0.10            172           20.5 190 
 BRR  HZ EP   1   1942 24.78                             153    0.35 7 72.2 301 
 BRR  HE ES   1   1942 42.35                             153    1.00 7 72.2 301 
 PAM  SZ EP   1   1942 25.14                             151   -0.44 7 79.8  38 
 PAM  SN ES       1942 43.29                             151   -0.1010 79.8  38 
 PAM  SZ I        1942 44.68         4.0 0.56            153           79.8  38 
 RUS  HZ EP   1   1942 27.26                             145    0.51 7 97.8 176 
 RUS  HN ES       1942 45.57                             145    0.1010 97.8 176 
 RUS  HZ I        1942 46.37         1.4 0.26            147           97.8 176 
 PTB  HZ EP   1   1942 29.89                             133   -0.11 7  147 260 
 PTB  HN ES       1942 50.80                             133   -0.46 9  147 260 
 PTB  HZ I        1942 53.86         3.3 0.16            134            147 260 
 ZAR  HN ES   1   1943  1.08                             123   -0.07 6  205 293 
                                                                                
