 2013  122 1616 29.4 L   6.811 -73.148144.1  RSN 12 0.4 2.3LRSN                1
 GAP= 71        0.83       3.4     3.6  6.0  0.8946E+00  0.6490E+01  0.5048E+01E
 Epicentro: LOS SANTOS - SANTANDER                                             3
 ACTION:UPD 13-02-15 09:16 OP:ep   STATUS:               ID:20130122161629 L   I
 2013-01-22-1610-00M.COL___241                                                 6
 STAT SP IPHASW D HRMM SECON CODA AMPLIT PERI AZIMU VELO AIN AR TRES W  DIS CAZ7
 BAR2 SZ EP       1616 48.87                             170    0.0310 24.5 189 
 BAR2 SZ E        1616 48.87                                           24.5 189 
 BAR2 SZ ES   1   1617  4.19                             170    0.17 7 24.5 189 
 BRR  HZ EP   1   1616 50.61                             152    0.29 7 70.4 298 
 BRR  HN ES   1   1617  7.54                             152    0.90 7 70.4 298 
 BRR  HZ I        1617 10.86        35.9 0.19            145           70.4 298 
 PAM  SZ EP   1   1616 51.72                             151    0.34 7 76.6  40 
 PAM  SE ES   1   1617  8.39                             151   -0.15 7 76.6  40 
 PAM  SZ I        1617 11.54        17.6 0.44            146           76.6  40 
 RUS  HZ EP     C 1616 52.90                             143   -0.1610  102 176 
 RUS  HN ES   1   1617 10.79                             143   -0.74 7  102 176 
 RUS  HZ I        1617 12.52        11.8 0.18            133            102 176 
 PTB  HZ EP   1   1616 55.64                             132   -0.58 7  148 258 
 PTB  HN ES   1   1617 16.42                             132   -0.73 7  148 258 
 PTB  HZ I        1617 19.56        25.6 0.30            121            148 258 
 TAM  HN ES   1   1617 18.54                             130    0.03 7  156 105 
 OCA  HN ES   1   1617 18.89                             129   -0.46 7  159 353 
 ZAR  HZ EP   1   1617  1.89                             122    0.23 6  203 292 
 ZAR  HN ES   1   1617 26.85                             122    0.02 6  203 292 
 ZAR  HZ I        1617 32.33        29.3 0.42            113            203 292 
 NOR  HZ EP   1   1617  5.10                             118    0.02 6  235 234 
 NOR  HN ES   1   1617 33.07                             118    0.16 6  235 234 
 NOR  HZ I        1617 39.21        20.3 0.16            109            235 234 
 CHI  HZ EP   1   1617  7.31                             117    0.20 6  250 195 
 CHI  HN ES   1   1617 37.41                             117    0.87 6  250 195 
 CHI  HZ I        1617 44.43        11.2 0.42            108            250 195 
 ROSC BZ EP   1   1617  7.62                             116    0.10 6  254 211 
 ROSC BZ I        1617 45.01        19.8 0.40            108            254 211 
 DBB  SZ EP   1   1617 16.52                             109   -0.24 5  339 274 
                                                                                
