 2010  622 1232  3.3 L   6.793 -73.107145.1  RSN  9 0.3 2.2LRSN                1
 GAP=160        0.59       3.4     6.0  5.9 -0.9024E+01  0.7715E+01 -0.1508E+01E
 Epicentro: LOS SANTOS - SANTANDER                                             3
 ACTION:UP  10-08-24 10:12 OP:vdl  STATUS:               ID:20100622123203 L   I
 2010-06-22-1227-27S.COL___119                                                 6
 STAT SP IPHASW D HRMM SECON CODA AMPLIT PERI AZIMU VELO SNR AR TRES W  DIS CAZ7
 BAR2 SZ IP       1232 22.71                             170    -0.110   24 201 
 BAR2 SZ ES   2   1232 37.70                             170    -0.4 5   24 201 
 BRR  HZ EP   1   1232 24.57                             151     0.0 7   75 297 
 BRR  HN ES   2   1232 41.60                             151     0.4 5   75 297 
 BRR  HZ I        1232 45.64        30.8 0.10                            75 297 
 RUS  HZ EP   1   1232 26.71                             144    -0.2 7  100 178 
 RUS  HE ES   2   1232 45.46                             144     0.1 5  100 178 
 RUS  HZ I        1232 47.31        21.5 0.39                           100 178 
 BRI  SZ EP   1   1232 27.31                             141     0.3 7  108  19 
 BRI  SZ ES   2   1232 46.17                             141     0.6 5  108  19 
 GUE  SZ EP   1   1232 27.78                             139    -0.1 7  116  10 
 GRA  SZ IP       1232 28.57                             137     0.210  125  16 
 GRA  SZ ES   2   1232 48.13                             137     0.1 5  125  16 
 OCA  SZ EP   1   1232 31.46                             129    -0.2 7  162 352 
 OCA  SZ ES   2   1232 53.00                             129    -0.8 5  162 352 
 OCA  SZ I        1232 57.70        22.1 0.27                           162 352 
 HEL  HZ EP   1   1232 43.58                             114    -0.3 6  276 256 
 HEL  HZ I        1233 21.43         8.9 0.46                           276 256 
 RREF HZ EP   1   1232 50.10                             110     0.4 5  325 230 
 RREF HN ES   2   1233 26.53                             110     0.6 3  325 230 
 RREF HZ I        1233 31.53         5.5 0.59                           325 230 
                                                                                
