 2015  322 1326  3.5 L   6.854 -73.178147.9  RSN  5 0.3 2.0LRSN                1
 GAP=188        0.75       4.2     3.9  8.1 -0.7185E+01  0.1107E+02 -0.4763E+01E
 Epicentro: ZAPATOCA - SANTANDER                                               3
 ACTION:UPD 15-04-30 16:28 OP:nd   STATUS:               ID:20150322132603 L   I
 OLDACT:REG 15-03-22 20:25 OP:cam  STATUS:               ID:20150322131749     3
 2015-03-22-1317-49M.COL___281                                                 6
 STAT SP IPHASW D HRMM SECON CODA AMPLIT PERI AZIMU VELO AIN AR TRES W  DIS CAZ7
 PAM  SZ EP       1326 26.15                             152    0.3310 75.4  45 
 PAM  SN ES       1326 43.16                             152   -0.0810 75.4  45 
 PAM  SZ I        1326 44.66         5.9 0.18            154           75.4  45 
 PTB  HZ EP       1326 30.37                             133   -0.07 9  146 256 
 PTB  HN ES       1326 51.15                             133   -0.31 9  146 256 
 PTB  HZ I        1326 53.68         7.7 0.12            131            146 256 
 ZAR  HN ES       1327  1.13                             124    0.63 9  199 291 
 ZAR  HN I        1327  8.32        12.7 0.26            122            199 291 
 NOR  HN ES       1327  7.41                             119   -0.03 8  235 233 
 NOR  HN I        1327 16.85        13.7 0.16            119            235 233 
 SML  HZ EP       1326 39.28                             119   -0.22 8  237 335 
 SML  HN ES       1327  7.25                             119   -0.34 8  237 335 
 SML  HZ I        1327 16.67         7.7 0.10            118            237 335 
                                                                                
