 2014  322 1912 10.8 L   6.817 -73.163147.5  RSN  5 0.3 1.6LRSN                1
 GAP=133        0.60       5.1     5.6  6.9 -0.6971E-01  0.1086E+02  0.9564E+01E
 Epicentro: LOS SANTOS - SANTANDER                                             3
 OLDACT:REG 14-03-22 15:46 OP:fm   STATUS:               ID:20140322190816     3
 ACTION:UPD 14-04-09 23:19 OP:nd   STATUS:               ID:20140322191210 L   I
 OLDACT:UP  14-03-22 19:09 OP:fm   STATUS:               ID:20140322190816     3
 2014-03-22-1908-16M.COL___245                                                 6
 STAT SP IPHASW D HRMM SECON CODA AMPLIT PERI AZIMU VELO AIN AR TRES W  DIS CAZ7
 BAR2 SZ EP   2   1912 30.85                             170    0.16 5 24.9 185 
 BAR2 SZ ES   1   1912 45.73                             170   -0.46 8 24.9 185 
 BAR2 SZ I        1912 47.23        17.1 1.36            167           24.9 185 
 BRR  HN ES   2   1912 49.35                             154    0.81 5 68.6 298 
 PAM  SN ES   1   1912 50.58                             151   -0.10 8 77.2  42 
 RUS  HZ EP       1912 34.93                             143    0.0410  103 175 
 RUS  HN ES   1   1912 53.94                             143    0.28 7  103 175 
 RUS  SZ I        1912 55.46         3.3 0.38            144            103 175 
 PTB  HZ EP   1   1912 37.65                             133   -0.14 7  146 258 
 PTB  HN ES   2   1912 58.58                             133   -0.25 5  146 258 
 PTB  SZ I        1913  2.23         5.4 0.56            132            146 258 
                                                                                
