 2015  822 1743 14.0 L   6.750 -73.180139.1  RSN  4 0.1 1.8LRSN                1
 GAP=230        0.35       4.3     4.4  3.6  0.1522E+02  0.2235E+01 -0.1522E+01E
 Epicentro: LOS SANTOS - SANTANDER                                             3
 ACTION:UPD 15-09-15 23:04 OP:cam  STATUS:               ID:20150822174314 L   I
 OLDACT:REG 15-08-22 22:00 OP:ar   STATUS:               ID:20150822173746     3
 2015-08-22-1737-46M.COL___349                                                 6
 STAT SP IPHASW D HRMM SECON CODA AMPLIT PERI AZIMU VELO AIN AR TRES W  DIS CAZ7
 BAR2 EZ EP       1743 32.59                             173   -0.1210 17.5 181 
 BAR2 EZ ES       1743 47.40                             173    0.0810 17.5 181 
 BAR2 EZ I        1743 48.91        20.0 0.18            165           17.5 181 
 BRR  HZ EP   2   1743 34.34                             151   -0.06 5 70.8 304 
 BRR  HN ES   4   1743 50.46                             151    0.14 0 70.8 304 
 RUS  HZ EP       1743 36.80                             144    0.0810 95.5 174 
 RUS  HE ES       1743 54.39                             144   -0.0610 95.5 174 
 RUS  HZ I        1743 56.34         8.0 0.30            142           95.5 174 
 ZAR  HZ EP   2   1743 46.16                             121    0.29 4  203 294 
 ZAR  HN ES       1744 10.70                             121   -0.04 9  203 294 
 ZAR  HZ I        1744 17.22         8.3 0.26            120            203 294 
                                                                                
