 2015 1122 1518  2.0 L   6.838 -73.056145.2  RSN  4 0.3 1.9LRSN                1
 GAP=209        0.76       5.3     8.1  7.6  0.3060E+02 -0.2003E+02 -0.1977E+02E
 Epicentro: LOS SANTOS - SANTANDER                                             3
 ACTION:UPD 15-12-28 16:12 OP:cam  STATUS:               ID:20151122151802 L   I
 OLDACT:REG 15-11-23 07:38 OP:cara STATUS:               ID:20151122145935     3
 2015-11-22_15:00.mseed                                                        6
 STAT SP IPHASW D HRMM SECON CODA AMPLIT PERI AZIMU VELO AIN AR TRES W  DIS CAZ7
 BRR  HZ EP       1518 23.72                             150    0.2310 78.4 292 
 BRR  HN ES       1518 40.63                             150    0.3710 78.4 292 
 BRR  HZ I        1518 44.50        17.7 0.46            150           78.4 292 
 RUS  HZ EP       1518 25.86                             143   -0.1110  105 182 
 RUS  HN ES       1518 44.46                             143   -0.2210  105 182 
 RUS  HZ I        1518 45.48         5.2 0.24            146            105 182 
 ZAR  BZ EP       1518 35.52                             121    0.33 8  212 290 
 ZAR  BE ES       1519  0.72                             121   -0.37 8  212 290 
 ZAR  BZ I        1519  4.88         8.1 0.30            123            212 290 
 SML  HZ EP       1518 38.78                             117    0.15 8  244 333 
 SML  BE ES       1519  6.68                             117   -0.54 8  244 333 
 SML  HZ I        1519  9.83        12.2 0.10            119            244 333 
                                                                                
