 2015  922 1928 40.3 L   6.784 -73.125154.5  RSN  8 0.3 2.2LRSN                1
 GAP=221        0.61       3.1     4.2  5.1 -0.6302E-01  0.2787E+01  0.2522E+01E
 Epicentro: LOS SANTOS - SANTANDER                                             3
 ACTION:UPD 15-10-28 16:27 OP:cam  STATUS:               ID:20150922192840 L   I
 OLDACT:REG 15-09-22 23:10 OP:ar   STATUS:               ID:20150922191749     3
 2015-09-22-1917-49M.COL___358                                                 6
 STAT SP IPHASW D HRMM SECON CODA AMPLIT PERI AZIMU VELO AIN AR TRES W  DIS CAZ7
 BAR2 EZ EP       1929  0.68                             171   -0.2810 22.1 197 
 BAR2 EZ ES       1929 16.97                             171   -0.1010 22.1 197 
 BAR2 EZ I        1929 18.70        21.6 0.24            170           22.1 197 
 BRR  HZ EP     C 1929  2.80                             153    0.2410 74.1 299 
 BRR  HN ES       1929 20.14                             153    0.2210 74.1 299 
 BRR  HZ I        1929 24.16        19.3 0.58            147           74.1 299 
 PTB  HZ EP   2   1929  7.71                             133   -0.46 5  150 260 
 PTB  HN ES       1929 29.66                             133   -0.24 9  150 260 
 PTB  HZ I        1929 36.16        22.7 0.44            129            150 260 
 ZAR  HZ EP   2   1929 13.17                             124   -0.44 4  207 292 
 ZAR  HN ES   2   1929 40.24                             124    0.64 4  207 292 
 ZAR  HZ I        1929 45.86        18.8 0.28            120            207 292 
 NOR  HN ES       1929 44.88                             120   -0.11 8  236 235 
 NOR  HZ I        1929 48.86        13.1 0.24            117            236 235 
 SML  HZ EP   2   1929 17.28                             119   -0.42 4  246 335 
 SML  HE ES   2   1929 47.26                             119    0.38 4  246 335 
 SML  HZ I        1929 57.38        15.2 0.20            116            246 335 
 CHI  HZ EP   2   1929 19.26                             119    0.88 4  248 196 
 CHI  HN ES       1929 48.30                             119    0.21 8  248 196 
 CHI  HZ I        1929 55.85         5.5 0.54            117            248 196 
 GUY2CHZ EP   4   1929 25.93                             114    1.51 0  302 235 
 GUY2CHN ES   4   1930  0.88                             114    2.04 0  302 235 
 GUY2CHZ I        1930  5.57         7.7 0.34                           302 235 
                                                                                
