 2015 1222 1001 24.3 L   6.811 -73.100148.0  RSN 12 0.4 2.0LRSN                1
 GAP=188        1.01       2.7     4.6  5.6 -0.5035E+00  0.6204E+01 -0.1544E+00E
 Epicentro: LOS SANTOS - SANTANDER                                             3
 ACTION:UPD 16-02-04 15:06 OP:cam  STATUS:               ID:20151222100124 L   I
 OLDACT:REG 15-12-22 22:21 OP:cara STATUS:               ID:20151222095749     3
 2015-12-22-0957-49M.COL___334                                                 6
 STAT SP IPHASW D HRMM SECON CODA AMPLIT PERI AZIMU VELO AIN AR TRES W  DIS CAZ7
 BAR2 EZ IP       10 1 44.30                             170    0.0610 25.9 200 
 BAR2 EZ ES       10 1 59.61                             170   -0.1910 25.9 200 
 BAR2 EZ I        10 2  0.59        24.5 0.18            168           25.9 200 
 BRR  HZ EP       10 1 45.73                             152   -0.1610 75.1 296 
 BRR  HN ES       10 2  3.32                             152    0.5710 75.1 296 
 BRR  HZ I        10 2  3.53        12.8 0.14            150           75.1 296 
 RUS  HZ EP       10 1 48.49                             144    0.1610  102 179 
 RUS  HN ES       10 2  7.22                             144    0.1310  102 179 
 RUS  HZ I        10 2  8.67        11.0 0.36            145            102 179 
 PTB  HZ EP       10 1 51.31                             132   -0.59 9  153 259 
 PTB  HN ES   4   10 2 12.17                             132   -1.27 0  153 259 
 PTB  HZ I        10 2 14.48        11.7 0.16            131            153 259 
 OCA  HZ EP       10 1 53.76                             130    1.05 9  160 351 
 OCA  HN ES       10 2 14.63                             130   -0.26 9  160 351 
 OCA  HZ I        10 2 18.80        29.6 0.18            131            160 351 
 SPBC HZ EP       10 1 52.84                             129   -0.51 9  167 220 
 SPBC HN ES       10 2 15.62                             129   -0.40 9  167 220 
 SPBC HZ I        10 2 22.43        15.0 0.24            129            167 220 
 ZAR  HZ EP       10 1 57.42                             122    0.12 8  208 291 
 ZAR  HN ES       10 2 23.05                             122   -0.01 8  208 291 
 ZAR  HZ I        10 2 28.13        10.7 0.46            122            208 291 
 NOR  HZ EP       10 2  0.31                             118   -0.35 8  240 235 
 NOR  HN ES       10 2 28.70                             118   -0.33 8  240 235 
 NOR  HZ I        10 2 33.48         8.0 0.46            118            240 235 
 SML  HZ EP       10 2  1.05                             118   -0.09 8  245 334 
 SML  HN ES       10 2 29.18                             118   -0.71 8  245 334 
 SML  HZ I        10 2 32.46        15.8 0.10            118            245 334 
 CHI  HZ EP       10 2  2.40                             117    0.02 8  251 196 
 CHI  HN ES       10 2 32.15                             117    0.05 8  251 196 
 CHI  HZ I        10 2 36.23         2.3 0.26            118            251 196 
 HEL  HE ES       10 2 37.50                             115    0.42 7  277 256 
 HEL  HZ I        10 2 42.54         4.3 0.36            115            277 256 
 GUY2CHZ EP       10 2  9.11                             112    0.57 7  306 235 
 GUY2CHN ES       10 2 43.70                             112    0.64 7  306 235 
 GUY2CHZ I        10 2 53.74         3.5 0.30                           306 235 
                                                                                
