 2010  922 1324 44.3 L   6.584 -73.918 13.7  RSN  6 0.2 1.3LRSN                1
 GAP=252        0.60       2.4     4.8  5.3  0.6189E+01  0.4934E+01 -0.3537E+00E
 Epicentro: PUERTO PARRA - SANTANDER                                           3
 ACTION:UP  11-02-18 11:04 OP:tino STATUS:               ID:20100922132444 L   I
 2010-09-22-1322-47S.COL___122                                                 6
 STAT SP IPHASW D HRMM SECON CODA AMPLIT PERI AZIMU VELO SNR AR TRES W  DIS CAZ7
 BRR  HZ EP       1324 54.17                             100    -0.210   62  21 
 BRR  HE ES   1   1325  2.37                             100     0.0 7   62  21 
 BRR  HZ I        1325  3.41        10.7 0.04                            62  21 
 BTL  SZ EP       1324 57.76                              97     0.310   81  63 
 BAR2 SZ EP       1324 57.62                              97     0.110   81  89 
 BAR2 SZ ES   1   1325  7.63                              97    -0.2 7   81  89 
 BAR2 SZ I        1325  8.10         5.1 0.44                            81  89 
 RUS  HZ EP       1325  3.76                              95     0.210  120 130 
 RUS  HZ I        1325  4.37         5.3 0.16                           120 130 
 RUS  HN ES   1   1325 18.44                              95    -0.2 7  120 130 
 GUE  SZ EP       1325 10.95                              56    -0.2 9  176  38 
 GRA  SZ ES   2   1325 34.88                              56     0.3 4  189  40 
 GRA  SZ I        1325 35.85         6.0 0.35                           189  40 
                                                                                
