 2016  222 1315  5.4 L   6.386 -73.605105.9  RSN  8 0.4 1.6LRSN                1
 GAP= 72        1.05       3.3     3.7  8.0  0.2353E+01  0.1245E+02  0.8630E+01E
 Epicentro: SANTA HELENA DEL OPON - SANTANDER                                  3
 ACTION:UPD 16-03-04 21:28 OP:rebc STATUS:               ID:20160222131505 L   I
 OLDACT:REG 16-02-22 20:17 OP:drio STATUS:               ID:20160222130750     3
 2016-02-22-1307-50M.COL___309                                                 6
 STAT SP IPHASW D HRMM SECON CODA AMPLIT PERI AZIMU VELO AIN AR TRES W  DIS CAZ7
 BAR2 EZ EP       1315 21.90                             152    0.3510 52.0  64 
 BAR2 EZ ES       1315 34.66                             152    0.5510 52.0  64 
 BAR2 EZ I        1315 36.03        30.7 0.42            153           52.0  64 
 RUS  HZ EP       1315 23.81                             141    0.0310 79.5 133 
 RUS  HE ES       1315 37.39                             141   -0.6810 79.5 133 
 RUS  HZ I        1315 41.38         5.3 0.50            141           79.5 133 
 BRR  HZ EP       1315 22.90                             140   -0.2810 80.6 352 
 BRR  HE ES       1315 37.10                             140    0.0910 80.6 352 
 PTB  HZ EP   4 C 1315 22.88                             134   -1.58 0 95.7 280 
 PTB  HN ES       1315 39.06                             134   -0.2310 95.7 280 
 PTB  HZ I        1315 39.61        14.7 0.10            136           95.7 280 
 NOR  HZ EP   4   1315 33.52                             117    1.92 0  167 237 
 NOR  HN ES       1315 51.49                             117   -0.51 9  167 237 
 NOR  HZ I        1315 53.06         5.7 0.22            119            167 237 
 ZAR  HZ EP       1315 33.23                             115   -0.27 9  185 312 
 ZAR  HE ES       1315 55.48                             115    0.11 9  185 312 
 ZAR  HZ I        1315 59.13        11.5 0.30            116            185 312 
 CHI  HZ EP       1315 34.88                             113   -0.24 9  195 184 
 CHI  HE ES       1315 58.74                             113    0.47 9  195 184 
 CHI  HZ I        1316  0.89         1.8 0.30            115            195 184 
 GUY2CHZ EP   4   1315 41.26                             109    1.65 0  233 237 
 GUY2CHE ES       1316  7.08                             109    0.83 8  233 237 
 GUY2CHZ I        1316  9.97         2.3 0.24                           233 237 
                                                                                
