 2015  122 1119 49.9 L   6.859 -73.149151.8  RSN  6 0.4 1.4LRSN                1
 GAP=133        1.00       5.7     6.0  8.0 -0.4687E+01  0.1189E+02 -0.8832E+01E
 Epicentro: LOS SANTOS - SANTANDER                                             3
 ACTION:UPD 15-03-02 15:41 OP:nd   STATUS:               ID:20150122111949 L   I
 OLDACT:REG 15-01-22 20:20 OP:spq  STATUS:               ID:20150122111747     3
 2015-01-22-1117-47M.COL___261                                                 6
 STAT SP IPHASW D HRMM SECON CODA AMPLIT PERI AZIMU VELO AIN AR TRES W  DIS CAZ7
 BAR2 EZ EP   1   1120 10.63                             168    0.22 7 29.8 187 
 BAR2 EZ ES   1   1120 26.08                             168   -0.32 7 29.8 187 
 BAR2 EZ I        1120 27.48         3.5 0.54            170           29.8 187 
 BRR  HZ EP   1   1120 11.96                             154    0.42 7 68.0 294 
 BRR  HE ES       1120 29.18                             154    0.7610 68.0 294 
 BRR  HZ I        1120 31.92         7.9 0.34            154           68.0 294 
 PAM  SZ EP       1120 12.81                             154    0.3010 72.7  43 
 PAM  SN ES       1120 29.54                             154   -0.5910 72.7  43 
 PAM  SZ I        1120 31.57         4.1 0.22            155           72.7  43 
 RUS  HE ES   1   1120 34.04                             143   -0.05 7  107 176 
 RUS  HZ I        1120 35.89         1.5 0.26            146            107 176 
 PTB  HZ EP       1120 17.38                             133   -0.09 9  149 256 
 PTB  HN ES   1   1120 38.31                             133   -0.66 7  149 256 
 PTB  HZ I        1120 39.37         2.6 0.16            134            149 256 
 SML  HZ EP   1   1120 25.89                             119   -0.34 6  238 335 
 SML  HN ES   1   1120 54.28                             119   -0.28 6  238 335 
 SML  HZ I        1120 58.20         3.0 0.26            120            238 335 
                                                                                
