 2014  322 1347 55.9 L   6.799 -73.137151.3  RSN 15 0.4 2.3LRSN                1
 GAP=138        0.94       2.6     3.6  5.1 -0.1087E+01  0.4971E+01  0.1059E+01E
 Epicentro: LOS SANTOS - SANTANDER                                             3
 OLDACT:REG 14-03-22 15:23 OP:fm   STATUS:               ID:20140322133816     3
 ACTION:UPD 14-04-09 23:19 OP:nd   STATUS:               ID:20140322134755 L   I
 OLDACT:UP  14-03-22 17:48 OP:fm   STATUS:               ID:20140322133816     3
 2014-03-22-1338-16M.COL___246                                                 6
 STAT SP IPHASW D HRMM SECON CODA AMPLIT PERI AZIMU VELO AIN AR TRES W  DIS CAZ7
 BAR2 SZ EP       1348 15.98                             171   -0.2210 23.4 192 
 BAR2 SZ ES   1   1348 31.92                             171   -0.11 7 23.4 192 
 BAR2 SZ I        1348 39.60        44.7 0.64            174           23.4 192 
 BRR  HZ IP       1348 17.94                             153    0.2410 72.1 298 
 BRR  SZ I        1348 33.74        34.2 1.40            147           72.1 298 
 BRR  HN ES       1348 35.26                             153    0.5610 72.1 298 
 PAM  SZ EP       1348 18.82                             152    0.1410 76.8  39 
 PAM  SN ES       1348 36.07                             152   -0.3710 76.8  39 
 PAM  SZ I        1348 39.60        14.0 0.64            145           76.8  39 
 RUS  HZ EP       1348 20.04                             145   -0.1510  100 177 
 RUS  HN ES       1348 39.70                             145    0.5710  100 177 
 RUS  SZ I        1348 39.71        23.7 3.12            144            100 177 
 PTB  HZ EP       1348 22.91                             133   -0.50 9  149 259 
 PTB  HN ES       1348 44.14                             133   -0.72 9  149 259 
 PTB  SZ I        1348 48.56        28.3 0.28            129            149 259 
 OCA  HZ EP   2   1348 24.92                             131    0.25 5  160 353 
 OCA  SZ I        1348 45.70        21.5 1.36            124            160 353 
 OCA  HN ES   2   1348 47.21                             131    0.11 5  160 353 
 SPBC HZ EP       1348 24.99                             130    0.11 9  164 219 
 SPBC HN ES   1   1348 47.69                             130    0.21 7  164 219 
 SPBC SZ I        1348 54.11        27.5 0.28            127            164 219 
 ZAR  HZ EP       1348 28.66                             124   -0.15 9  205 292 
 ZAR  HE ES       1348 54.08                             124   -0.40 9  205 292 
 ZAR  SZ I        1349  0.85        27.7 0.44            118            205 292 
 NOR  HZ EP       1348 31.76                             120   -0.28 8  235 235 
 NOR  HN ES       1349  0.65                             120    0.43 8  235 235 
 NOR  SZ I        1349  4.22        22.3 0.22            116            235 235 
 SML  HZ EP       1348 33.00                             119    0.10 8  244 335 
 SML  HE ES       1349  2.03                             119    0.28 8  244 335 
 CHI  HZ EP       1348 34.29                             118    0.35 8  249 195 
 CHI  HN ES       1349  2.81                             118   -0.79 8  249 195 
 ROSC BZ EP   4   1348 36.29                             118    1.91 0  253 211 
 ROSC BN ES   2   1349  5.29                             118    0.90 4  253 211 
 HEL  HZ EP   1   1348 37.23                             116    0.72 6  273 256 
 HEL  SZ I        1349  8.06        13.8 2.92            112            273 256 
 HEL  HN ES   1   1349  8.96                             116    0.79 6  273 256 
 URE  HN ES   4   1349  7.17                             115   -2.51 0  285 292 
 GUY2CHZ EP   4   1348 42.04                             113    2.18 0  302 235 
 GUY2CHN ES   1   1349 13.25                             113   -0.89 5  302 235 
 RREF HZ EP   1   1348 42.25                             112   -0.12 5  322 229 
 RREF HN ES   1   1349 19.02                             112    0.41 5  322 229 
 SJC  HZ EP   4   1348 50.02                             107   -1.71 0  410 327 
 SJC  HN ES   4   1349 32.63                             107   -2.63 0  410 327 
                                                                                
