 2014  322 1553 55.8 L   6.785 -73.141148.4  RSN 11 0.4 2.0LRSN                1
 GAP=138        0.70       3.6     4.4  6.2  0.1764E+01  0.3901E+01 -0.3226E-01E
 Epicentro: LOS SANTOS - SANTANDER                                             3
 OLDACT:REG 14-03-22 15:40 OP:fm   STATUS:               ID:20140322154812     3
 ACTION:UPD 14-04-09 23:19 OP:nd   STATUS:               ID:20140322155355 L   I
 OLDACT:UP  14-03-22 20:25 OP:fm   STATUS:               ID:20140322154812     3
 2014-03-22-1548-12M.COL___246                                                 6
 STAT SP IPHASW D HRMM SECON CODA AMPLIT PERI AZIMU VELO AIN AR TRES W  DIS CAZ7
 BAR2 SZ EP   1   1554 15.49                             171   -0.24 7 21.8 192 
 BAR2 SZ I        1554 33.18        29.4 0.94            164           21.8 192 
 BRR  HZ EP       1554 17.53                             153    0.2110 72.5 299 
 BRR  HN ES   1   1554 34.45                             153    0.36 7 72.5 299 
 BRR  SZ I        1554 44.64        23.4 0.52            154           72.5 299 
 PAM  SE ES   2   1554 35.78                             151   -0.17 5 78.3  38 
 RUS  HZ EP   1   1554 19.98                             145    0.27 7 98.9 176 
 RUS  HN ES   1   1554 38.21                             145   -0.13 7 98.9 176 
 RUS  SZ I        1554 39.90        10.1 1.12            135           98.9 176 
 PTB  HZ EP       1554 22.50                             133   -0.51 9  148 259 
 PTB  HN ES   1   1554 43.65                             133   -0.58 7  148 259 
 PTB  SZ I        1554 50.44        10.6 0.40            128            148 259 
 SPBC HN ES   2   1554 46.68                             130   -0.06 5  162 219 
 ZAR  HZ EP   1   1554 27.97                             123   -0.58 6  205 293 
 ZAR  HN ES   1   1554 54.25                             123    0.18 6  205 293 
 ZAR  SZ I        1555  0.58         5.6 0.14            118            205 293 
 NOR  HZ EP   1   1554 31.88                             119    0.24 6  234 235 
 NOR  HN ES   1   1555  0.24                             119    0.66 6  234 235 
 NOR  SZ I        1555  3.09         6.7 0.22            113            234 235 
 SML  HZ EP   1   1554 32.99                             118    0.22 6  245 335 
 SML  HE ES   2   1555  2.04                             118    0.44 4  245 335 
 SML  SZ I        1555  6.97        10.1 0.08            112            245 335 
 CHI  HZ EP   1   1554 33.81                             118    0.31 6  247 195 
 CHI  SZ I        1555 14.27         5.4 1.36            110            247 195 
 GUY2CHZ EP   4   1554 41.11                             113    1.62 0  301 235 
 GUY2CHN ES   4   1555 17.37                             113    3.82 0  301 235 
 GUY2CSZ I        1555 19.16         6.1 3.24                           301 235 
                                                                                
