 2017  722 1953 59.5 L   6.347 -73.561112.7  RSN 15 0.3 2.1LRSN                1
 GAP= 81        0.84       2.2     1.9  4.1 -0.1644E+00  0.2190E+01  0.8926E+00E
 Epicentro: SANTA HELENA DEL OPON - SANTANDER                                  3
 ACTION:UPD 17-08-30 15:35 OP:rebc STATUS:               ID:20170722195359 L   I
 OLDACT:DUP 17-07-22 23:45 OP:lv   STATUS:               ID:20170722194737d    3
 2017-07-22-1948-00M.COL___395                                                 6
 STAT SP IPHASW D HRMM SECON CODA AMPLIT PERI AZIMU VELO AIN AR TRES W  DIS CAZ7
 BAR2 EZ IP     D 1954 16.31                             154    0.0410 49.9  57 
 BAR2 EZ ES       1954 29.38                             154    0.0610 49.9  57 
 BAR2 EZ I        1954 30.64       130.0 0.31            157           49.9  57 
 RUS  HZ EP       1954 17.99                             145   -0.0610 72.9 133 
 RUS  HN ES       1954 32.17                             145   -0.3210 72.9 133 
 RUS  HZ I        1954 33.93                             150           72.9 133 
 BRR  HZ EP       1954 18.10                             140   -0.2110 85.7 349 
 BRR  HN ES       1954 32.74                             140   -0.2110 85.7 349 
 BRR  HZ I        1954 40.35        26.7 0.07            141           85.7 349 
 SPBC HZ EP       1954 19.42                             137    0.2010 95.4 216 
 SPBC HN ES       1954 34.84                             137    0.2710 95.4 216 
 SPBC HZ I        1954 36.37        18.0 0.09            140           95.4 216 
 PTB  HZ IP   9 D 1954 18.88                             135   -0.74 0  101 282 
 PTB  HN ES       1954 34.31                                   -0.2310  101 282 
 PTB  HZ I        1954 37.24        17.3 0.11            137            101 282 
 PAM  EZ EP       1954 24.23                             124   -0.19 9  145  41 
 PAM  EN ES       1954 44.23                             124    0.41 9  145  41 
 PAM  EZ I        1954 45.82        13.2 0.13            127            145  41 
 YPLC HZ IP     C 1954 26.21                             119    0.00 9  168 129 
 YPLC HN ES       1954 47.51                             119    0.51 9  168 129 
 YPLC HZ I        1954 48.90        12.9 0.19            124            168 129 
 NOR  HZ EP       1954 25.97                             119   -0.32 9  169 239 
 NOR  HN ES       1954 46.72                             119   -0.42 9  169 239 
 NOR  HZ I        1954 49.00        12.4 0.07            122            169 239 
 ZAR  HZ EP       1954 28.68                             116    0.01 9  191 312 
 ZAR  HN ES       1954 51.57                             116    0.19 9  191 312 
 ZAR  HZ I        1954 56.67        47.0 0.18            118            191 312 
 TAM  HZ EP       1954 28.90                             115   -0.33 9  196  87 
 TAM  HN ES   4   1954 49.93                             115   -2.46 0  196  87 
 TAM  HZ I        1954 51.75        16.7 0.30            119            196  87 
 HEL  HZ EP       1954 32.92                             112    0.77 8  218 266 
 HEL  HN ES       1954 57.60                             112    0.02 8  218 266 
 GUY2CHZ EP       1954 33.20                             111   -0.99 8  235 238 
 GUY2CHN ES   4   1955  2.35                             111    1.15 0  235 238 
 GUY2CHZ I        1955  6.20         9.8 0.14                           235 238 
 URE  HN ES   4   1955  5.81                             107   -1.00 0  268 306 
 DBB  EZ EP       1954 41.65                             105    0.18 7  302 284 
 DBB  HN ES       1955 14.46                             105    0.29 7  302 284 
 DBB  EZ I        1955 17.01         9.2 0.17            107            302 284 
 ORTC HZ EP       1954 44.41                             103   -0.07 7  328 215 
 ORTC HN ES       1955 19.96                             103    0.44 7  328 215 
 SJC  HZ EP   4   1954 55.75                              98   -1.12 0  431 336 
 SJC  HN ES   4   1955 37.92                              98   -3.66 0  431 336 
 SJC  HZ I        1955 40.60         2.0 0.29            101            431 336 
                                                                                
