 2017  222 1828 19.3 L   6.788 -73.135147.2  RSN  7 0.4 1.8LRSN                1
 GAP=138        1.05       4.5     5.0  7.0 -0.4404E+01  0.4523E+01  0.8654E+01E
 Epicentro: LOS SANTOS - SANTANDER                                             3
 ACTION:UPD 17-05-24 15:39 OP:jn   STATUS:               ID:20170222182819 L   I
 OLDACT:UP  17-02-23 01:11 OP:edw  STATUS:               ID:20170222182748     3
 OLDACT:UP  17-02-23 01:11 OP:edw  STATUS:               ID:20170222182748     3
 OLDACT:REG 17-02-22 20:31 OP:edw  STATUS:               ID:20170222182748     3
 2017-02-22-1828-00M.COL___388                                                 6
 STAT SP IPHASW D HRMM SECON CODA AMPLIT PERI AZIMU VELO AIN AR TRES W  DIS CAZ7
 BAR2 EZ EP       1828 38.87                             171   -0.2010 22.3 194 
 BAR2 EZ ES       1828 54.01                             171   -0.4810 22.3 194 
 BAR2 EZ I        1828 55.17        21.1 0.24            172           22.3 194 
 BRR  HZ EP       1828 40.83                             152    0.1510 72.8 299 
 BRR  HN ES       1828 58.08                             152    0.7110 72.8 299 
 PAM  EZ EP       1828 41.89                             151    0.2210 77.6  38 
 PAM  EN ES       1828 59.11                             151   -0.0110 77.6  38 
 PAM  EZ I        1829  1.19         7.5 0.44            152           77.6  38 
 RUS  HZ EP       1828 43.09                             144    0.0110 99.2 177 
 RUS  HN ES       1829  1.73                             144    0.0910 99.2 177 
 RUS  HZ I        1829  2.42        10.5 0.24            146           99.2 177 
 PTB  HZ EP       1828 45.86                             132   -0.59 9  149 259 
 PTB  HN ES       1829  6.94                             132   -0.70 9  149 259 
 PTB  HZ I        1829 10.96         7.6 0.44            133            149 259 
 NOR  HN ES       1829 23.80                             119    0.73 8  235 235 
 CHI  HZ EP       1828 57.01                             117    0.04 8  248 196 
 CHI  HE ES       1829 26.57                             117    0.22 8  248 196 
                                                                                
