 2013  522 1005  4.1 L   6.556 -73.449119.3  RSN  4 0.1 1.3LRSN                1
 GAP=118        0.43       3.7     5.2  5.1  0.1436E+02  0.1139E+02  0.6872E+01E
 Epicentro: HATO - SANTANDER                                                   3
 ACTION:UPD 13-06-20 09:52 OP:ep   STATUS:               ID:20130522100504 L   I
 2013-05-22-0958-50M.COL___214                                                 6
 STAT SP IPHASW D HRMM SECON CODA AMPLIT PERI AZIMU VELO AIN AR TRES W  DIS CAZ7
 BAR2 SZ EP       10 5 20.73                             165   -0.0210 29.7  82 
 BAR2 SZ I        10 5 35.08         5.9 0.42            129           29.7  82 
 BRR  HZ EP       10 5 22.05                             148   -0.1810 67.6 335 
 BRR  HN ES       10 5 36.48                             148    0.1110 67.6 335 
 BRR  HN I        10 5 37.65         6.3 0.16            125           67.6 335 
 RUS  HZ EP       10 5 24.25                             143    0.2010 83.7 151 
 RUS  HN ES       10 5 39.49                             143   -0.1110 83.7 151 
 RUS  HN I        10 5 40.74         3.2 0.24            122           83.7 151 
 PTB  HZ EP       10 5 25.63                             134   -0.0110  111 269 
                                                                                
