 2011 1022 1404 31.3 L   6.780 -73.135148.8  RSN  7 0.3 1.8LRSN                1
 GAP=139        0.52       3.3     3.3  5.9 -0.2955E+00  0.4818E+01  0.4447E+01E
 Epicentro: LOS SANTOS - SANTANDER                                             3
 ACTION:UPD 12-07-13 16:05 OP:ep   STATUS:               ID:20111022140431 L   I
 2011-10-22-1401-24S.COL___171                                                 6
 STAT SP IPHASW D HRMM SECON CODA AMPLIT PERI AZIMU VELO AIN AR TRES W  DIS CAZ7
 BAR2 SZ EP       14 4 51.29                             171   -0.0110 21.4 194 
 BAR2 SZ I        14 5  8.08        17.8 0.37                          21.4 194 
 GIR2 SZ EP   2   14 4 51.85                             167    0.41 5 33.7 349 
 BRR  HZ EP   1   14 4 52.89                             152   -0.05 7 73.3 300 
 BRR  HN ES   1   14 5 10.26                             152    0.48 7 73.3 300 
 BRR  HZ I        14 5 12.43        18.2 0.22                          73.3 300 
 PAM  SZ EP   1   14 4 54.06                             151    0.13 7 78.3  38 
 PAM  SN ES   1   14 5 11.26                             151   -0.29 7 78.3  38 
 RUS  HZ EP   1   14 4 55.21                             145   -0.02 7 98.3 177 
 RUS  HN ES   1   14 5 13.72                             145   -0.14 7 98.3 177 
 RUS  HZ I        14 5 15.28         6.3 0.32                          98.3 177 
 ZAR  HN ES   1   14 5 29.32                             123   -0.48 6  206 293 
 NOR  SZ EP   1   14 5  7.37                             119    0.15 6  234 235 
 NOR  SN ES   1   14 5 35.15                             119   -0.05 6  234 235 
                                                                                
