 2012  422 1822 57.3 L   6.762 -73.093139.6  RSN  5 0.1 1.7LRSN                1
 GAP=145        0.38       2.5     3.2  3.5  0.1187E+00  0.1636E+01 -0.9497E+00E
 Epicentro: LOS SANTOS - SANTANDER                                             3
 ACTION:UPD 12-07-05 11:55 OP:tino STATUS:               ID:20120422182257 L   I
 2012-04-22-1820-00M.COL___186                                                 6
 STAT SP IPHASW D HRMM SECON CODA AMPLIT PERI AZIMU VELO AIN AR TRES W  DIS CAZ7
 BAR2 SZ EP       1823 16.15                             171     0.010   21 208 
 BAR2 SZ ES   1   1823 30.89                             171     0.0 7   21 208 
 BAR2 SZ I        1823 32.33        10.5 0.41                            21 208 
 PAM  SZ EP       1823 18.92                             150     0.110   77  34 
 PAM  SN ES   1   1823 35.64                             150     0.0 7   77  34 
 BRR  HZ EP       1823 18.01                             149    -0.210   78 299 
 BRR  HZ I        1823 18.38        15.8 0.18                            78 299 
 BRR  HE ES   1   1823 34.64                             149     0.1 7   78 299 
 RUS  HZ EP   1   1823 20.25                             144     0.1 7   96 179 
 RUS  HN ES   1   1823 37.86                             144    -0.1 7   96 179 
 RUS  HZ I        1823 39.62         5.5 0.22                            96 179 
 ZAR  HZ EP   1   1823 30.25                             120     0.2 6  211 293 
 ZAR  HZ I        1824  0.26         7.4 0.35                           211 293 
                                                                                
