 2017 1022 1031 27.0 L   6.703 -73.118145.5  RSN  6 0.4 1.3LRSN                1
 GAP=233        1.11       6.4     7.2  8.5  0.9392E+01  0.5146E+01  0.4093E+01E
 Epicentro: JORDAN - SANTANDER                                                 3
 ACTION:UPD 17-11-07 19:35 OP:rebc STATUS:               ID:20171022103127 L   I
 OLDACT:UP  17-10-22 22:08 OP:edw  STATUS:               ID:20171022102741     3
 OLDACT:REG 17-10-22 19:42 OP:edw  STATUS:               ID:20171022102741     3
 2017-10-22-1028-00M.COL___399                                                 6
 STAT SP IPHASW D HRMM SECON CODA AMPLIT PERI AZIMU VELO AIN AR TRES W  DIS CAZ7
 BAR2 EZ EP       1031 46.62                             174    0.1510 14.2 210 
 BAR2 EZ ES       1032  2.15                             174    0.5110 14.2 210 
 BAR2 EZ I        1032  3.65         3.9 0.58            162           14.2 210 
 BRR  HZ EP       1031 48.40                             150   -0.2310 79.4 304 
 BRR  HN ES       1032  5.22                             150   -0.2610 79.4 304 
 RUS  HZ EP       1031 49.39                             147   -0.6110 89.7 178 
 RUS  HN ES       1032  7.80                             147   -0.1110 89.7 178 
 PTB  HN ES       1032 15.28                             132    0.08 9  149 263 
 SPBC HZ EP       1031 55.90                             130    0.98 9  157 222 
 SPBC HN ES       1032 16.30                             130   -0.39 9  157 222 
 SPBC HZ I        1032 27.50         3.2 0.40            125            157 222 
 ZAR  HZ EP   2   1032  0.10                             121   -0.08 4  211 295 
 ZAR  HN ES   4   1032 28.26                             121    2.22 0  211 295 
 ZAR  HZ I        1032 35.55         1.8 0.34            118            211 295 
                                                                                
