 2010  522 1306 30.3 L   6.334 -73.633112.0  RSN  5 0.4 1.8LRSN                1
 GAP=170        0.61      10.4     7.5 11.5 -0.6280E+02  0.5707E+02 -0.5796E+02E
 Epicentro: SANTA HELENA DEL OPON - SANTANDER                                  3
 ACTION:UP  10-08-24 10:06 OP:vdl  STATUS:               ID:20100522130630 L   I
 2010-05-22-1304-42S.COL___111                                                 6
 STAT SP IPHASW D HRMM SECON CODA AMPLIT PERI AZIMU VELO SNR AR TRES W  DIS CAZ7
 BAR2 SZ EP       13 6 47.44                             151     0.110   57  60 
 BAR2 SZ ES   2   13 7  0.31                             151    -0.3 5   57  60 
 BRI  SZ ES   2   13 7 20.85                             118     0.9 4  179  31 
 GUE  SZ EP       13 6 58.51                             117    -0.3 9  183  25 
 HEL  HZ EP       13 7  2.01                             113     0.1 8  210 266 
 HEL  HE ES   2   13 7 26.49                             113    -0.1 4  210 266 
 HEL  HZ I        13 7 28.51         9.7 0.30                           210 266 
 RREF BZ EP   3   13 7  6.64                             110     0.2 2  247 230 
 RREF BN ES   3   13 7 35.15                             110     0.4 2  247 230 
 RREF BZ I        13 7 38.52         2.7 0.17                           247 230 
                                                                                
