 2017  722 1951 14.0 L   6.735 -73.196138.9  RSN  6 0.4 1.7LRSN                1
 GAP=133        0.97       5.1     4.3  7.0 -0.4960E-01  0.9635E+01 -0.6363E+01E
 Epicentro: VILLANUEVA - SANTANDER                                             3
 ACTION:UPD 17-08-30 15:35 OP:rebc STATUS:               ID:20170722195114 L   I
 OLDACT:REG 17-07-22 23:24 OP:lv   STATUS:               ID:20170722194736     3
 2017-07-22-1948-00M.COL___395                                                 6
 STAT SP IPHASW D HRMM SECON CODA AMPLIT PERI AZIMU VELO AIN AR TRES W  DIS CAZ7
 BAR2 EZ EP       1951 33.00                             173    0.3310 15.8 174 
 BAR2 EZ ES       1951 47.51                             173    0.2710 15.8 174 
 BRR  HZ EP       1951 34.61                             152    0.2510 70.3 306 
 BRR  HN ES       1951 50.75                             152    0.5110 70.3 306 
 PAM  EZ EP       1951 35.74                             147   -0.3410 86.5  39 
 PAM  EN ES       1951 52.85                             147   -0.4510 86.5  39 
 RUS  HZ EP   3   1951 36.96                             144    0.36 2 94.0 172 
 RUS  HN ES       1951 54.13                             144   -0.1010 94.0 172 
 PTB  HZ EP       1951 39.60                             132   -0.20 9  141 261 
 PTB  HN ES       1951 59.24                             132   -0.68 9  141 261 
 ZAR  HZ EP       1951 46.33                             121    0.56 9  202 295 
 ZAR  HN ES       1952 10.38                             121   -0.17 9  202 295 
 ZAR  HZ I        1952 16.89         4.2 0.16            120            202 295 
                                                                                
