 2013  622 1120  4.7 L   6.795 -73.148149.3  RSN  9 0.4 2.1LRSN                1
 GAP=183        0.75       3.5     4.7  5.5  0.6063E+01 -0.1974E+00 -0.1449E+01E
 Epicentro: LOS SANTOS - SANTANDER                                             3
 ACTION:UPD 14-01-08 09:56 OP:ep   STATUS:               ID:20130622112004 L   I
 OLDACT:REG 13-06-22 15:09 OP:y    STATUS:               ID:20130622111959     3
 2013-06-22-1119-59M.COL___267                                                 6
 STAT SP IPHASW D HRMM SECON CODA AMPLIT PERI AZIMU VELO AIN AR TRES W  DIS CAZ7
 BAR2 SZ EP       1120 24.81                             171    0.0810 22.8 189 
 BAR2 SZ ES       1120 40.01                             171   -0.3610 22.8 189 
 BAR2 SZ I        1120 41.42        38.6 0.28            167           22.8 189 
 GIR2 SZ EP       1120 24.81                             167    0.0210 31.7 351 
 BRR  HZ EP   1   1120 26.61                             153    0.39 7 71.2 299 
 BRR  HN ES       1120 43.62                             153    0.6110 71.2 299 
 BRR  HZ I        1120 46.22        23.7 0.34            149           71.2 299 
 RUS  HZ EP       1120 28.71                             145   -0.0410  100 176 
 RUS  HN ES   1   1120 47.41                             145   -0.11 7  100 176 
 RUS  HZ I        1120 48.77        13.0 0.22            145            100 176 
 PTB  HZ EP   1   1120 32.04                             133    0.13 7  147 259 
 PTB  HN ES   1   1120 52.46                             133   -0.68 7  147 259 
 PTB  HZ I        1120 59.60         9.4 0.18            130            147 259 
 OCA  HZ EP   2   1120 32.79                             130   -0.53 5  161 353 
 OCA  HN ES   1   1120 55.72                             130    0.07 7  161 353 
 ZAR  HZ EP   4   1120 38.51                             123    1.15 0  204 292 
 ZAR  HE ES       1121  2.84                             123    0.00 9  204 292 
 ZAR  HZ I        1121  7.96        12.3 0.26            122            204 292 
 SML  HZ EP   2   1120 41.38                             118   -0.17 4  244 335 
 SML  HN ES   1   1121  9.68                             118   -0.62 6  244 335 
 SML  HZ I        1121 13.08        23.1 0.26            118            244 335 
 CHI  HZ EP   1   1120 42.89                             118    0.37 6  248 195 
                                                                                
