 2013  222 1923  0.5 L   6.765 -73.144151.3  RSN  7 0.5 2.1LRSN                1
 GAP=138        1.13       4.8     5.1  7.0  0.3110E+01  0.8316E+01  0.4857E+01E
 Epicentro: LOS SANTOS - SANTANDER                                             3
 ACTION:UPD 13-03-12 09:35 OP:ep   STATUS:               ID:20130222192300 L   I
 2013-02-22-1920-00M.COL___225                                                 6
 STAT SP IPHASW D HRMM SECON CODA AMPLIT PERI AZIMU VELO AIN AR TRES W  DIS CAZ7
 BAR2 SZ EP       1923 20.31                             172   -0.3810 19.6 192 
 BAR2 SZ ES       1923 36.19                             172   -0.2710 19.6 192 
 BAR2 SZ I        1923 37.09        18.0 0.46            170           19.6 192 
 BRR  HZ IP     C 1923 22.43                             153    0.1110 73.3 301 
 BRR  HE ES       1923 39.91                             153    0.5410 73.3 301 
 BRR  HE I        1923 40.58        33.7 0.28            151           73.3 301 
 PAM  SZ EP       1923 23.50                             151    0.0710 80.3  38 
 PAM  SN ES       1923 41.18                             151   -0.1810 80.3  38 
 PAM  SN I        1923 41.80        14.3 0.70            155           80.3  38 
 RUS  HZ EP       1923 24.39                             146   -0.1010 96.7 176 
 RUS  HE ES       1923 43.73                             146    0.5010 96.7 176 
 RUS  HE I        1923 45.79        10.3 0.52            146           96.7 176 
 PTB  HZ EP       1923 27.24                             133   -0.59 9  147 260 
 PTB  HN ES       1923 48.45                             133   -0.74 9  147 260 
 PTB  HN I        1923 53.88        45.0 0.48            132            147 260 
 ZAR  HZ EP       1923 33.27                             123   -0.17 8  206 293 
 ZAR  HN ES       1923 59.92                             123    0.76 8  206 293 
 ZAR  HN I        1924  6.95        17.0 0.36            123            206 293 
 CHI  HZ EP       1923 38.86                             119    0.79 8  245 195 
 CHI  HN ES   1   1924  7.27                             119   -0.14 6  245 195 
 CHI  HN I        1924 10.27         8.0 0.28            119            245 195 
                                                                                
