 2012  422 1742 18.1 L   6.755 -73.106148.7  RSN  7 0.2 2.0LRSN                1
 GAP=144        0.54       2.5     3.0  3.7 -0.4216E+00  0.2716E+01 -0.4174E+00E
 Epicentro: LOS SANTOS - SANTANDER                                             3
 ACTION:UPD 12-07-05 11:55 OP:tino STATUS:               ID:20120422174218 L   I
 2012-04-22-1740-00M.COL___186                                                 6
 STAT SP IPHASW D HRMM SECON CODA AMPLIT PERI AZIMU VELO AIN AR TRES W  DIS CAZ7
 BAR2 SZ EP       1742 38.11                             172     0.110   20 205 
 BAR2 SZ I        1742 38.40        16.3 0.23                            20 205 
 BAR2 SZ ES       1742 53.38                             172    -0.210   20 205 
 BRR  HZ EP       1742 39.90                             151    -0.110   77 300 
 BRR  HZ I        1742 40.43        27.2 0.09                            77 300 
 BRR  HN ES       1742 57.34                             151     0.410   77 300 
 PAM  SZ EP       1742 40.92                             151     0.210   79  35 
 PAM  SN ES       1742 58.17                             151    -0.210   79  35 
 RUS  HZ EP       1742 42.02                             146     0.210   95 179 
 RUS  HN ES       1743  0.25                             146     0.010   95 179 
 RUS  HZ I        1743  3.29         6.8 0.18                            95 179 
 OCA  SZ EP   1   1742 46.92                             129    -0.3 7  166 352 
 ZAR  HZ EP   1   1742 51.38                             122     0.0 6  210 293 
 ZAR  HE ES   1   1743 17.29                             122     0.0 6  210 293 
 ZAR  HZ I        1743 22.56        13.4 0.28                           210 293 
 NOR  SZ EP   1   1742 53.98                             119    -0.1 6  236 236 
 NOR  SN ES   1   1743 21.98                             119    -0.2 6  236 236 
                                                                                
