 2017 1022 1419 39.8 L   6.845 -73.134138.8  RSN  6 0.4 1.3LRSN                1
 GAP=243        0.87       5.5     5.1  6.3  0.8397E+01  0.8759E+01  0.5856E+01E
 Epicentro: LOS SANTOS - SANTANDER                                             3
 ACTION:UPD 17-11-07 19:35 OP:rebc STATUS:               ID:20171022141939 L   I
 OLDACT:UP  17-10-23 00:33 OP:edw  STATUS:               ID:20171022141611     3
 OLDACT:REG 17-10-22 21:16 OP:edw  STATUS:               ID:20171022141611     3
 2017-10-22-1418-00M.COL___423                                                 6
 STAT SP IPHASW D HRMM SECON CODA AMPLIT PERI AZIMU VELO AIN AR TRES W  DIS CAZ7
 BAR2 EZ EP       1419 58.76                             168    0.0310 28.5 191 
 BAR2 EZ ES       1420 13.70                             168    0.2210 28.5 191 
 BAR2 EZ I        1420 14.58         6.4 0.32            166           28.5 191 
 BRR  HZ EP       1420  0.50                             152    0.3410 70.2 294 
 BRR  HN ES       1420 16.11                             152    0.0910 70.2 294 
 RUS  HZ EP       1420  3.30                             141    0.0410  105 177 
 RUS  HN ES       1420 21.15                             141   -0.3910  105 177 
 RUS  HZ I        1420 22.73         2.5 0.32            141            105 177 
 PTB  HZ EP       1420  6.25                             130   -0.19 9  150 257 
 PTB  HN ES       1420 26.66                             130   -0.55 9  150 257 
 PTB  HZ I        1420 31.71         3.2 0.48            130            150 257 
 ZAR  HN ES   2   1420 36.09                             121   -0.58 4  203 291 
 NOR  HZ EP       1420 15.42                             116   -0.17 8  239 234 
 NOR  HN ES       1420 44.30                             116    0.81 8  239 234 
 NOR  HZ I        1420 44.56         1.5 0.22            117            239 234 
                                                                                
