 2017  322 1406 34.7 L   6.646 -73.127151.0  RSN  4 0.3 1.6LRSN                1
 GAP=278        0.57       7.8     4.6  5.2  0.4118E+01  0.4213E+01  0.6197E+01E
 Epicentro: VILLANUEVA - SANTANDER                                             3
 ACTION:UPD 17-05-25 18:43 OP:jn   STATUS:               ID:20170322140634 L   I
 OLDACT:UP  17-03-22 22:40 OP:cog  STATUS:               ID:20170322135745d    3
 OLDACT:UP  17-03-22 22:39 OP:cog  STATUS:               ID:20170322135745d    3
 OLDACT:UP  17-03-22 22:39 OP:cog  STATUS:               ID:20170322135745d    3
 OLDACT:DUP 17-03-22 22:26 OP:cog  STATUS:               ID:20170322135745d    3
 2017-03-22-1358-00M.COL___385                                                 6
 STAT SP IPHASW D HRMM SECON CODA AMPLIT PERI AZIMU VELO AIN AR TRES W  DIS CAZ7
 BAR2 EZ EP       14 6 54.77                             177    0.0510 8.53 226 
 BAR2 EZ ES       14 7 10.21                             177   -0.1610 8.53 226 
 BAR2 EZ I        14 7 11.61         6.3 0.38            174           8.53 226 
 BRR  HZ EP       14 6 57.32                             149    0.2910 82.4 308 
 BRR  HE ES       14 7 14.40                             149   -0.0710 82.4 308 
 PTB  HZ EP       14 7  1.77                             133   -0.27 9  147 266 
 PTB  HE ES       14 7 23.59                             133    0.20 9  147 266 
 PTB  HZ I        14 7 24.67         5.2 0.18            133            147 266 
 ZAR  HE ES   3   14 7 33.51                             122   -1.14 2  213 296 
                                                                                
