 2011  522 1955 20.4 L   5.975 -74.144  3.9  RSN  8 0.8 1.6LRSN                1
 GAP=134        1.82       7.6     4.7 12.0 -0.1566E+02  0.1685E+01 -0.2525E+02E
 Epicentro: LA BELLEZA - SANTANDER                                             3
 ACTION:UP  11-06-29 08:55 OP:tino STATUS:               ID:20110522195520 L   I
 2011-05-22-1952-19S.COL___139                                                 6
 STAT SP IPHASW D HRMM SECON CODA AMPLIT PERI AZIMU VELO SNR AR TRES W  DIS CAZ7
 NOR  SZ EP       1955 35.78                              47     0.810   92 240 
 NOR  SN ES   1   1955 46.93                              47     0.5 7   92 240 
 RUS  HZ EP       1955 39.40                              47     0.110  118  94 
 RUS  HN ES   1   1955 52.93                              47    -1.2 7  118  94 
 RUS  HZ I        1955 54.13         5.0 0.12                           118  94 
 BAR2 SZ EP   1   1955 40.42                              47     0.0 7  126  57 
 BAR2 SZ I        1955 56.81         9.1 0.57                           126  57 
 BRR  HZ EP   1   1955 41.00                              47    -0.3 7  134  21 
 BRR  HN ES   1   1955 57.20                              47    -0.4 7  134  21 
 BRR  HZ I        1955 57.95        15.4 0.13                           134  21 
 HEL  HZ EP       1955 44.55                              47    -0.3 9  155 279 
 HEL  HE ES   1   1956  2.48                              47    -1.5 7  155 279 
 HEL  HZ I        1956  2.98        10.6 0.24                           155 279 
 RREF HZ EP   3   1955 49.17                              47     0.5 2  179 228 
 RREF HN ES   3   1956 10.69                              47    -0.1 2  179 228 
 RREF HZ I        1956 13.25         4.7 0.44                           179 228 
 PAM  SN ES   1   1956 20.07                              37     0.4 6  220  47 
 GRA  SZ ES   1   1956 29.46                              37     2.0 6  258  35 
 GRA  SZ I        1956 31.95         8.6 0.34                           258  35 
                                                                                
