 2011  622 1651 42.0 L   6.779 -73.140145.9  RSN 25 0.5 4.0LRSN                1
 GAP=135        1.06       3.3     5.2  5.6 -0.6295E+01  0.7888E+01  0.4973E+01E
 Epicentro: LOS SANTOS - SANTANDER                                             3
 ACTION:UP  11-07-14 19:07 OP:ep   STATUS:               ID:20110622165142 L   I
 2011-06-22-1649-47S.COL___140                                                 6
 STAT SP IPHASW D HRMM SECON CODA AMPLIT PERI AZIMU VELO SNR AR TRES W  DIS CAZ7
 BTL  SZ ES   2   1652 16.35                             171    -0.6 5   21 318 
 BAR2 SZ IP       1652  1.69                             171     0.110   21 193 
 BAR2 SZ ES   1   1652 16.37                             171    -0.5 7   21 193 
 BAR2 SZ I        1652 19.57      2322.4 0.22                            21 193 
 GIR2 SZ ES   2   1652 16.78                             166    -0.4 5   34 350 
 BRR  HZ IP     C 1652  3.48                             152     0.210   73 300 
 BRR  HN ES   1   1652 20.13                             152     0.3 7   73 300 
 BRR  HZ I        1652 23.01      1257.6 0.21                            73 300 
 PAM  SZ IP       1652  4.45                             150     0.110   79  38 
 PAM  SN ES   1   1652 21.71                             150     0.0 7   79  38 
 RUS  HZ IP     D 1652  5.58                             144     0.010   98 176 
 RUS  HN ES   1   1652 23.76                             144    -0.2 7   98 176 
 RUS  HZ I        1652 25.64       777.3 0.44                            98 176 
 BRI  SZ IP       1652  6.21                             141     0.210  110  20 
 BRI  SZ ES   1   1652 25.47                             141     0.6 7  110  20 
 GRA  SZ IP       1652  7.47                             136     0.010  128  17 
 GRA  SZ ES   1   1652 26.83                             136    -0.4 7  128  17 
 GRA  SZ I        1652 28.11       784.2 0.45                           128  17 
 OCA  SZ IP       1652 10.11                             129    -0.4 9  163 353 
 OCA  SZ ES   1   1652 33.18                             129     0.4 7  163 353 
 OCA  SZ I        1652 40.53       890.6 0.35                           163 353 
 NOR  SZ EP       1652 17.26                             119    -0.4 8  234 235 
 NOR  SN ES   1   1652 45.27                             119    -0.2 6  234 235 
 CHI  HZ EP       1652 19.57                             117     0.1 8  247 195 
 CHI  HN ES   1   1652 49.29                             117     0.6 6  247 195 
 CHI  HZ I        1652 52.98       736.4 0.62                           247 195 
 ROSC BZ IP     D 1652 21.42                             117     1.5 8  251 211 
 ROSC BZ I        1652 56.34      1817.6 0.40                           251 211 
 HEL  HZ EP       1652 21.50                             115    -0.7 8  272 256 
 HEL  HN ES   1   1652 53.64                             115     0.0 6  272 256 
 HEL  HZ I        1653  0.28       416.1 0.38                           272 256 
 VIL  SZ EP       1652 24.78                             112    -0.4 7  301 192 
 VIL  SN ES   1   1652 58.92                             112     0.1 5  301 192 
 VIL  SZ I        1653  9.57       471.6 0.30                           301 192 
 GUY  SZ EP   1   1652 26.17                             112     0.4 5  303 236 
 GUY  SN ES   2   1653  1.37                             112     1.4 4  303 236 
 GUY  SZ I        1653  9.38      1087.4 0.37                           303 236 
 RREF HZ EP       1652 27.54                             111    -0.5 7  321 230 
 RREF HZ I        1653 13.44       619.3 0.41                           321 230 
 DBB  SZ IP       1652 29.43                             109    -0.1 7  340 275 
 TOL  SZ EP       1652 30.45                             109     0.3 7  342 225 
 PRA  HZ EP   1   1652 34.36                             107    -1.0 4  390 210 
 SJA  SZ EP   2   1652 35.55                             106    -0.8 3  398 193 
 SJA  SZ I        1653 21.03       924.2 0.49                           398 193 
 SJC  HZ EP   4   1652 35.12                             106    -2.7 0  412 327 
 SJC  HZ I        1653 31.74       167.3 0.48                           412 327 
 GUA  SZ EP       1652 44.46                             103    -0.4 5  472 173 
 MARA HZ EP   1   1652 52.08                             101    -0.8 3  536 216 
 MARA HZ I        1653 53.41        60.9 0.35                           536 216 
 PCON HZ EP   1   1653  2.94                              99     0.7 2  611 216 
 SOTA HZ EP       1653  6.37                              99     0.5 2  642 217 
                                                                                
