 2016  422 1215 40.1 L   6.814 -73.174133.1  RSN  5 0.5 1.9LRSN                1
 GAP=140        1.32       7.2     6.5 10.5 -0.1620E+02  0.2903E+02 -0.8449E+01E
 Epicentro: LOS SANTOS - SANTANDER                                             3
 ACTION:UPD 16-05-05 14:23 OP:rebc STATUS:               ID:20160422121540 L   I
 OLDACT:ARG 16-04-22 20:26 OP:ar   STATUS:               ID:20160422120749     3
 2016-04-22-1207-49M.COL___312                                                 6
 STAT SP IPHASW D HRMM SECON CODA AMPLIT PERI AZIMU VELO AIN AR TRES W  DIS CAZ7
 BAR2 EZ EP       1215 57.65                             169   -0.5510 24.5 182 
 BAR2 EZ ES       1216 12.35                             169    0.0010 24.5 182 
 BAR2 EZ I        1216 13.62        19.3 0.16            170           24.5 182 
 PAM  EZ EP       1216  0.58                             148   -0.4210 78.2  42 
 PAM  EN ES       1216 17.81                             148    0.4810 78.2  42 
 PAM  EZ I        1216 19.85        18.8 0.66            153           78.2  42 
 PTB  HZ EP       1216  4.88                             130   -0.89 9  145 258 
 PTB  HN ES       1216 25.56                             130   -0.26 9  145 258 
 PTB  HZ I        1216 31.09         8.4 0.18            130            145 258 
 SPBC HZ EP       1216  8.36                             126    0.81 9  162 218 
 SPBC HE ES       1216 29.27                             126    0.28 9  162 218 
 SPBC HZ I        1216 34.27         7.2 0.20            128            162 218 
 ZAR  HZ EP       1216 12.08                             120    0.73 9  201 292 
 ZAR  HN ES       1216 35.86                             120    0.10 9  201 292 
 ZAR  HZ I        1216 42.29        16.4 0.24            121            201 292 
                                                                                
