 2017  122 1329 30.5 L   6.815 -73.146149.7  RSN  4 0.4 0.9LRSN                1
 GAP=142        1.13       7.1     6.9  9.7 -0.1546E+02  0.1914E+02 -0.6146E+01E
 Epicentro: LOS SANTOS - SANTANDER                                             3
 ACTION:UPD 17-05-22 16:02 OP:jn   STATUS:               ID:20170122132930 L   I
 OLDACT:DUP 17-01-22 23:02 OP:cog  STATUS:               ID:20170122132744d    3
 2017-01-22-1328-00M.COL___343                                                 6
 STAT SP IPHASW D HRMM SECON CODA AMPLIT PERI AZIMU VELO AIN AR TRES W  DIS CAZ7
 BAR2 EZ ES       1330  6.90                             170    0.5110 25.0 189 
 PAM  EZ EP       1329 53.56                             152    0.4610 76.1  40 
 PAM  EE ES       1330 10.21                             152   -0.4910 76.1  40 
 PAM  EZ I        1330 12.96         1.6 0.38            152           76.1  40 
 RUS  HZ EP       1329 55.12                             144    0.3210  102 176 
 RUS  HN ES       1330 13.28                             144   -0.4510  102 176 
 RUS  HZ I        1330 14.02         0.9 0.26            147            102 176 
 PTB  HZ EP       1329 57.30                             133   -0.57 9  148 258 
 PTB  HN ES       1330 19.34                             133    0.16 9  148 258 
 PTB  HZ I        1330 21.01         1.0 0.11            134            148 258 
                                                                                
