 2014  522 1137 11.8 L   6.811 -73.152147.1  RSN 12 0.4 2.2LRSN                1
 GAP=135        0.88       2.3     3.5  4.8 -0.9944E+00  0.3730E+01  0.1238E+00E
 Epicentro: LOS SANTOS - SANTANDER                                             3
 ACTION:UPD 15-03-16 16:59 OP:nd   STATUS:               ID:20140522113711 L   I
 OLDACT:UP  14-05-23 00:44 OP:cam  STATUS:               ID:20140522113635     3
 OLDACT:REG 14-05-23 00:37 OP:cam  STATUS:               ID:20140522113635     3
 2014-05-22-1136-35M.COL___246                                                 6
 STAT SP IPHASW D HRMM SECON CODA AMPLIT PERI AZIMU VELO AIN AR TRES W  DIS CAZ7
 BAR2 SZ EP     C 1137 31.55                             170   -0.0510 24.4 188 
 BAR2 SZ ES       1137 46.78                             170   -0.2810 24.4 188 
 BAR2 SZ I        1137 49.28        65.7 0.30            169           24.4 188 
 BRR  HZ EP     C 1137 33.35                             153    0.3410 69.9 298 
 BRR  HN ES       1137 50.42                             153    0.8510 69.9 298 
 BRR  HZ I        1137 52.83        31.2 0.34            152           69.9 298 
 PAM  SZ EP       1137 34.48                             151    0.3610 76.9  41 
 PAM  SN ES       1137 51.51                             151   -0.0310 76.9  41 
 PAM  SZ I        1137 53.60        20.5 0.54            155           76.9  41 
 RUS  HZ EP   1   1137 35.45                             144   -0.31 7  102 176 
 RUS  HE ES       1137 54.43                             144   -0.0410  102 176 
 RUS  HZ I        1137 55.56        11.6 0.22            145            102 176 
 PTB  HZ EP   1   1137 38.35                             132   -0.47 7  147 258 
 PTB  HE ES       1137 59.41                             132   -0.50 9  147 258 
 PTB  HZ I        1138  1.85        17.0 0.12            132            147 258 
 OCA  HZ EP   1   1137 39.72                             130   -0.36 7  159 353 
 OCA  HN ES       1138  1.49                             130   -0.66 9  159 353 
 OCA  HZ I        1138  5.75        13.9 0.36            132            159 353 
 SPBC HZ EP   1   1137 40.84                             129    0.40 7  164 219 
 SPBC HE ES       1138  2.63                             129   -0.15 9  164 219 
 SPBC HZ I        1138  8.08        34.3 0.22            130            164 219 
 ZAR  HZ EP   1   1137 44.22                             123    0.02 6  203 292 
 ZAR  HN ES       1138  9.58                             123    0.10 9  203 292 
 ZAR  HZ I        1138 14.69        18.2 0.24            123            203 292 
 NOR  HZ EP   1   1137 47.76                             119    0.15 6  235 234 
 NOR  HN ES       1138 15.42                             119   -0.13 8  235 234 
 NOR  HZ I        1138 24.89         7.2 0.36            119            235 234 
 SML  HZ EP       1137 47.92                             118   -0.41 8  242 335 
 SML  HE ES       1138 17.26                             118    0.42 8  242 335 
 SML  HZ I        1138 18.48        24.2 0.34            119            242 335 
 CHI  HZ EP       1137 50.13                             117    0.46 8  250 195 
 CHI  HN ES       1138 19.26                             117    0.04 8  250 195 
 CHI  HZ I        1138 22.50        10.8 0.56            119            250 195 
 GUY2CHZ EP   4   1137 56.62                             113    1.15 0  301 234 
 RREF HZ EP   4   1137 59.52                             111    1.51 0  322 229 
 PRA  HZ EP   1   1138  5.36                             107   -0.08 4  393 209 
 SJC  HZ EP   4   1138  4.12                             106   -3.10 0  408 327 
                                                                                
