 2012  122 1312 24.6 L   6.767 -73.192137.2  RSN 11 0.4 2.8LRSN                1
 GAP=132        0.90       4.2     4.1  6.5 -0.5015E+00  0.7439E+01  0.6390E+01E
 Epicentro: VILLANUEVA - SANTANDER                                             3
 ACTION:UP  12-02-03 08:19 OP:REBC STATUS:               ID:20120122131224 L   I
 2012-01-22-1310-00M.COL___186                                                 6
 STAT SP IPHASW D HRMM SECON CODA AMPLIT PERI AZIMU VELO SNR AR TRES W  DIS CAZ7
 BAR2 SZ EP       1312 43.23                             172     0.210   19 177 
 BAR2 SZ ES   1   1312 57.63                             172     0.1 7   19 177 
 BAR2 SZ I        1312 59.20       121.7 0.27                            19 177 
 BRR  HZ EP   1   1312 44.97                             152     0.3 7   69 303 
 BRR  HN ES   1   1313  1.25                             152     0.9 7   69 303 
 BRR  HZ I        1313  4.19       115.4 0.16                            69 303 
 PAM  SZ EP       1312 46.18                             147    -0.110   83  41 
 PAM  SN ES   1   1313  2.70                             147    -0.5 7   83  41 
 RUS  HZ EP       1312 47.27                             143     0.010   97 173 
 RUS  HE ES   1   1313  4.56                             143    -0.4 7   97 173 
 RUS  HZ I        1313  7.65        74.8 0.30                            97 173 
 PTB  HZ EP       1312 49.66                             131    -0.7 9  142 260 
 PTB  HN ES   1   1313 10.02                             131    -0.4 7  142 260 
 ZAR  HZ EP   1   1312 56.46                             121     0.3 6  201 294 
 ZAR  HN ES   1   1313 20.41                             121    -0.3 6  201 294 
 ZAR  HZ I        1313 26.42        50.0 0.26                           201 294 
 NOR  SZ EP   1   1312 59.43                             117     0.3 6  228 234 
 NOR  SN ES   1   1313 25.95                             117    -0.1 6  228 234 
 CHI  HZ EP   1   1313  1.68                             116     0.4 6  244 194 
 CHI  HN ES   1   1313 30.08                             116     0.2 6  244 194 
 CHI  HZ I        1313 35.26        31.1 0.59                           244 194 
 HEL  HN ES   1   1313 34.09                             113    -0.1 6  266 256 
 HEL  HZ I        1313 41.34        29.6 0.44                           266 256 
 RREF HZ EP   1   1313  9.79                             110     0.2 5  316 229 
 PRA  HZ EP   1   1313 17.34                             105     0.2 4  386 209 
 PRA  HZ I        1314  3.70        58.4 0.26                           386 209 
                                                                                
