 2012  222 1829  1.6 L   6.778 -73.133142.5  RSN 10 0.5 1.8LRSN                1
 GAP=139        0.81       4.5     5.6  6.6 -0.6693E+01  0.5601E+01  0.5936E+01E
 ACTION:UP  12-03-07 16:33 OP:epov STATUS:               ID:20120222182901 L   I
 2012-02-22-1827-59S.COL___194                                                 6
 STAT SP IPHASW D HRMM SECON CODA AMPLIT PERI AZIMU VELO AIN AR TRES W  DIS CAZ7
 BAR2 SZ EP   1   1829 20.60                             171   -0.23 7 21.2 195 
 BAR2 SZ ES   1   1829 35.04                             171   -0.76 7 21.2 195 
 BAR2 SZ I        1829 38.35        16.1 0.31                          21.2 195 
 GIR2 SZ EP   1   1829 20.50                             166   -0.50 7 34.0 349 
 GIR2 SZ ES   2   1829 36.96                             166    0.86 5 34.0 349 
 BRR  HZ EP   1   1829 22.93                             151    0.36 7 73.7 300 
 BRR  HE ES   2   1829 39.56                             151    0.65 5 73.7 300 
 BRR  HZ I        1829 42.16        21.1 0.13                          73.7 300 
 PAM  SZ EP   1   1829 23.81                             150    0.24 7 78.4  38 
 PAM  SN ES   1   1829 40.61                             150   -0.06 7 78.4  38 
 RUS  HZ EP   1   1829 24.65                             144   -0.23 7 98.0 177 
 RUS  HN ES   1   1829 43.63                             144    0.62 7 98.0 177 
 RUS  HZ I        1829 45.71         8.2 0.59                          98.0 177 
 PTB  HZ EP   2   1829 28.58                             131    0.15 5  149 260 
 PTB  HN ES   1   1829 48.66                             131   -0.66 7  149 260 
 OCA  SZ EP   2   1829 30.25                             128    0.31 5  163 353 
 NOR  SN ES   2   1830  5.74                             118    0.89 4  234 235 
 CHI  HZ EP   1   1829 38.74                             116   -0.19 6  247 196 
 CHI  HN ES   2   1830  8.12                             116    0.09 4  247 196 
 CHI  HZ I        1830 11.56         4.6 0.62                           247 196 
 PRA  HZ EP   1   1829 55.20                             106    0.33 4  391 210 
 PRA  HN ES   2   1830 36.56                             106    0.16 3  391 210 
                                                                                
