 2011  822 1427 42.8 L   6.749 -73.126147.5  RSN  7 0.4 1.8LRSN                1
 GAP=236        0.78       5.3     5.9  7.2  0.3741E+01  0.1533E+02  0.1085E+02E
 Epicentro: LOS SANTOS - SANTANDER                                             3
 ACTION:UPD 12-07-13 15:53 OP:ep   STATUS:               ID:20110822142742 L   I
 2011-08-22-1425-56S.COL___157                                                 6
 STAT SP IPHASW D HRMM SECON CODA AMPLIT PERI AZIMU VELO AIN AR TRES W  DIS CAZ7
 BAR2 SZ EP   1   1428  2.53                             172    0.02 7 18.4 200 
 BAR2 SZ I        1428  2.82        16.0 0.19                          18.4 200 
 BAR2 SZ ES   1   1428 17.02                             172   -0.90 7 18.4 200 
 BRR  HZ EP   1   1428  4.36                             151   -0.01 7 75.9 301 
 BRR  HN ES   1   1428 21.65                             151    0.43 7 75.9 301 
 BRR  HZ I        1428 24.17        25.6 0.14                          75.9 301 
 RUS  HZ EP       1428  6.41                             146    0.1310 94.8 177 
 RUS  HZ I        1428  7.05         5.6 0.17                          94.8 177 
 RUS  HN ES   1   1428 25.13                             146    0.50 7 94.8 177 
 NOR  SZ EP   1   1428 17.90                             119   -0.54 6  233 236 
 NOR  SN ES   1   1428 46.72                             119    0.45 6  233 236 
 CHI  HZ EP   2   1428 19.68                             118   -0.36 4  244 196 
 CHI  HN ES   1   1428 49.10                             118   -0.01 6  244 196 
 HEL  HZ EP   1   1428 23.52                             115    0.36 6  273 257 
 HEL  HN ES   2   1428 54.24                             115   -0.42 4  273 257 
 GUY  SN ES   1   1429  0.32                             112   -0.40 5  302 236 
                                                                                
