 2010  322 1305 21.4 L   5.944 -73.792105.8  RSN  6 0.2 1.8LRSN                1
 GAP= 86        0.41       2.2     3.3  7.7 -0.8998E-01  0.1642E+02  0.4030E+01E
 Epicentro: GUAVATA - SANTANDER                                                3
 ACTION:UP  10-08-24 09:55 OP:vdl  STATUS:               ID:20100322130521 L   I
 2010-03-22-1301-32S.COL___098                                                 6
 STAT SP IPHASW D HRMM SECON CODA AMPLIT PERI AZIMU VELO SNR AR TRES W  DIS CAZ7
 RUS  HZ EP   1   13 5 39.38                             141    -0.3 7   79  94 
 RUS  HZ I        13 5 39.89        10.7 0.32                            79  94 
 RUS  HN ES   2   13 5 53.80                             141    -0.1 5   79  94 
 BAR2 SZ EP   1   13 5 40.94                             134     0.0 7   98  43 
 BAR2 SZ ES   2   13 5 56.40                             134     0.3 5   98  43 
 BRR  HZ EP   1   13 5 43.26                             125    -0.2 7  129   4 
 BRR  HZ I        13 5 44.85        20.2 0.11                           129   4 
 BRR  HN ES   2   13 6  1.00                             125     0.3 5  129   4 
 CHI  HZ EP   1   13 5 45.93                             122     0.2 7  146 177 
 CHI  HE ES   2   13 6  4.52                             122    -0.2 5  146 177 
 CHI  HZ I        13 6 11.69         5.2 0.34                           146 177 
 HEL  HZ EP   1   13 5 50.98                             113     0.1 6  194 278 
 HEL  HZ I        13 5 52.17         7.3 0.38                           194 278 
 HEL  HN ES   2   13 6 13.76                             113    -0.2 4  194 278 
 PRA  HZ EP   1   13 5 59.93                             105     0.1 6  275 206 
 PRA  HE ES   2   13 6 30.00                             105     0.2 4  275 206 
 PRA  HZ I        13 6 35.74         3.7 0.33                           275 206 
                                                                                
