 2010  822 1237 50.9 L   7.203 -74.035  0.0  RSN  4 0.2 1.5LRSN                1
 GAP=276        0.57       2.9     9.4  9.5 -0.1684E+02 -0.7784E+02  0.1529E+02E
 Epicentro: PUERTO WILCHES - SANTANDER                                         3
 ACTION:UP  10-09-07 10:57 OP:vdl  STATUS:               ID:20100822123750 L   I
 2010-08-22-1234-44S.COL___120                                                 6
 STAT SP IPHASW D HRMM SECON CODA AMPLIT PERI AZIMU VELO SNR AR TRES W  DIS CAZ7
 BRR  HZ EP       1237 57.42                              47    -0.210   37 106 
 BRR  HN ES       1238  3.10                              47     0.110   37 106 
 BRR  HZ I        1238  3.97        32.9 0.30                            37 106 
 GUE  SZ EP   1   1238 13.93                              47     0.2 7  141  60 
 GUE  SZ I        1238 33.55         3.6 0.12                           141  60 
 GRA  SZ ES       1238 35.07                              47    -0.1 9  155  61 
 GRA  SZ I        1238 35.99        13.9 0.38                           155  61 
 RUS  HZ EP       1238 19.84                              47     0.2 9  179 144 
 RUS  HN ES       1238 42.05                              47    -0.1 9  179 144 
 RUS  HZ I        1238 43.32         4.4 0.42                           179 144 
                                                                                
