 2016  222 1711 37.9 L   6.783 -73.146139.1  RSN 18 0.5 2.3LRSN                1
 GAP= 99        1.07       3.6     3.1  5.1 -0.1711E+01  0.4658E+01  0.2852E+01E
 Epicentro: LOS SANTOS - SANTANDER                                             3
 ACTION:UPD 16-03-04 21:28 OP:rebc STATUS:               ID:20160222171137 L   I
 OLDACT:UP  16-02-22 23:38 OP:drio STATUS:               ID:20160222170750     3
 OLDACT:UP  16-02-22 23:38 OP:drio STATUS:               ID:20160222170750     3
 OLDACT:REG 16-02-22 20:37 OP:drio STATUS:               ID:20160222170750     3
 2016-02-22-1707-50M.COL___328                                                 6
 STAT SP IPHASW D HRMM SECON CODA AMPLIT PERI AZIMU VELO AIN AR TRES W  DIS CAZ7
 BAR2 EZ EP       1711 56.68                             171   -0.0110 21.5 191 
 BAR2 EZ ES       1712 10.81                             171   -0.5410 21.5 191 
 BAR2 EZ I        1712 12.46        96.0 0.14            168           21.5 191 
 BRR  HZ EP       1711 58.52                             151    0.1410 72.0 300 
 BRR  HN ES       1712 15.38                             151    1.0210 72.0 300 
 BRR  HZ I        1712 19.51        53.7 0.10            152           72.0 300 
 PAM  EZ EP     C 1711 59.57                             149    0.0710 78.9  39 
 PAM  EN ES       1712 16.40                             149    0.0510 78.9  39 
 PAM  EZ I        1712 18.81        60.5 0.58            153           78.9  39 
 RUS  HZ EP       1712  0.69                             143   -0.1810 98.8 176 
 RUS  HE ES       1712 19.32                             143    0.5410 98.8 176 
 RUS  HZ I        1712 20.74        38.8 0.40            142           98.8 176 
 PTB  HZ EP       1712  3.33                             131   -0.96 9  147 260 
 PTB  HN ES       1712 24.23                             131   -0.65 9  147 260 
 PTB  HZ I        1712 27.51        39.6 0.16            131            147 260 
 TAM  HZ IP     C 1712  5.07                             129    0.05 9  155 104 
 TAM  HE ES       1712 25.83                             129   -0.35 9  155 104 
 TAM  HZ I        1712 31.08        10.8 0.28            131            155 104 
 SPBC HZ EP       1712  5.85                             128    0.09 9  162 219 
 SPBC HN ES       1712 27.47                             128   -0.01 9  162 219 
 SPBC HZ I        1712 29.85        35.5 0.54            128            162 219 
 ZAR  HZ EP       1712 10.27                             121    0.28 9  205 293 
 ZAR  HE ES   4   1712 36.10                             121    1.09 0  205 293 
 ZAR  HZ I        1712 36.80        28.2 0.10            122            205 293 
 NOR  HZ EP       1712 12.56                             117   -0.57 8  234 235 
 NOR  HN ES       1712 40.95                             117    0.34 8  234 235 
 NOR  HZ I        1712 44.43        15.8 0.22            118            234 235 
 CHI  HZ EP       1712 15.00                             116   -0.04 8  247 195 
 CHI  HN ES       1712 43.96                             116   -0.05 8  247 195 
 CHI  HZ I        1712 53.68         8.7 0.46            117            247 195 
 HEL  HZ EP   4   1712 19.09                             114    1.37 0  272 256 
 HEL  HE ES       1712 48.48                             114   -0.31 8  272 256 
 HEL  HZ I        1712 55.49        15.9 0.40            114            272 256 
 URE  HZ EP       1712 18.33                             112   -0.40 7  284 292 
 URE  HN ES   4   1712 49.12                             112   -1.45 0  284 292 
 URE  HZ I        1712 50.82        17.4 0.12            114            284 292 
 GUY2CHZ EP       1712 21.90                             111    0.82 7  300 235 
 GUY2CHN ES   4   1712 57.28                             111    2.52 0  300 235 
 GUY2CHZ I        1713  1.87         9.6 0.26                           300 235 
 SOCV BZ EP   4   1712 18.77                             111   -2.00 0  302  57 
 SOCV BE ES   4   1712 50.55                             111   -3.66 0  302  57 
 ELA  HZ EP   4   1712 27.41                             109    3.08 0  328 230 
 ELA  HN ES   4   1713  6.28                             109    5.73 0  328 230 
 ELA  HZ I        1713  7.22         5.2 0.24            110            328 230 
 DBB  SZ EP       1712 25.59                             108    0.47 7  340 275 
 DBB  SZ ES   4   1712 58.91                             108   -3.04 0  340 275 
 ORTC HZ EP       1712 31.88                             105    0.46 6  394 216 
 ORTC HE ES       1713 13.72                             105    0.55 6  394 216 
 ORTC HZ I        1713 21.47         5.3 0.46            106            394 216 
 PAL  HZ EP       1712 32.86                             105    0.13 6  405 239 
 PAL  HE ES       1713 15.21                             105   -0.28 6  405 239 
 PAL  HZ I        1713 21.50         5.1 0.36            106            405 239 
 SJC  HZ EP   4   1712 31.14                             105   -2.29 0  411 327 
 SJC  HN ES   4   1713 14.18                             105   -2.56 0  411 327 
 SJC  HZ I        1713 17.12         3.6 0.40            106            411 327 
                                                                                
