 2012  622 1933 52.2 L   6.768 -73.111149.3  RSN  7 0.4 1.6LRSN                1
 GAP=239        0.70       5.5     6.0  6.7  0.1381E+02  0.7131E+01  0.8266E+01E
 Epicentro: LOS SANTOS - SANTANDER                                             3
 ACTION:UPD 12-08-06 17:51 OP:ep   STATUS:               ID:20120622193352 L   I
 2012-06-22-1930-00M.COL___199                                                 6
 STAT SP IPHASW D HRMM SECON CODA AMPLIT PERI AZIMU VELO AIN AR TRES W  DIS CAZ7
 BAR2 SZ EP   1   1934 12.29                             172    0.04 7 21.0 202 
 BAR2 SZ ES   1   1934 27.67                             172   -0.19 7 21.0 202 
 BAR2 SZ I        1934 30.48         7.4 0.16                          21.0 202 
 BRR  HZ EP   1   1934 14.30                             152    0.25 7 76.2 299 
 BRR  HN ES   1   1934 31.61                             152    0.53 7 76.2 299 
 BRR  HZ I        1934 36.08        11.7 0.13                          76.2 299 
 RUS  HZ EP   1   1934 16.22                             146    0.14 7 96.9 178 
 RUS  HN ES   1   1934 34.45                             146   -0.23 7 96.9 178 
 RUS  HZ I        1934 35.66         3.3 0.37                          96.9 178 
 PTB  HZ EP   1   1934 19.14                             132   -0.63 7  151 260 
 PTB  HN ES   1   1934 40.69                             132   -0.57 7  151 260 
 PTB  HZ I        1934 46.08         4.5 0.28                           151 260 
 ZAR  HN ES   2   1934 51.30                             122    0.01 4  209 293 
 ZAR  HZ I        1934 56.66         6.7 0.27                           209 293 
 NOR  SN ES   2   1934 57.25                             119    0.83 4  236 236 
 CHI  HZ EP   1   1934 30.05                             118    0.17 6  246 196 
 CHI  HN ES   2   1934 59.71                             118    0.47 4  246 196 
 CHI  HZ I        1935  5.58         2.4 0.56                           246 196 
                                                                                
