 2016 1122 1116 37.3 L   7.488 -73.178132.7  RSN 10 0.5 2.2LRSN                1
 GAP=191        1.02       6.1     3.4  6.0  0.3680E+01  0.4289E+01 -0.9795E+00E
 Epicentro: EL PLAYON - SANTANDER                                              3
 ACTION:UPD 17-10-26 21:10 OP:lp   STATUS:               ID:20161122111637 L   I
 OLDACT:UP  16-11-22 21:37 OP:dani STATUS:               ID:20161122110749d    3
 OLDACT:UP  16-11-22 21:36 OP:dani STATUS:               ID:20161122110749d    3
 OLDACT:DUP 16-11-22 21:33 OP:dani STATUS:               ID:20161122110749d    3
 2016-11-22-1108-00M.COL___346                                                 6
 STAT SP IPHASW D HRMM SECON CODA AMPLIT PERI AZIMU VELO AIN AR TRES W  DIS CAZ7
 PAM  EZ EP       1116 57.47                             156    0.5610 55.3 107 
 PAM  EE ES       1117 12.49                             156    0.3010 55.3 107 
 PAM  EZ I        1117 14.36        25.5 0.28            150           55.3 107 
 BRR  HZ EP       1116 57.24                             150    0.0910 72.5 234 
 BRR  HN ES       1117 12.48                             150   -0.1410 72.5 234 
 BRR  HZ I        1117 15.40        25.3 0.42            140           72.5 234 
 BAR2 EZ EP       1116 58.79                             142   -0.5510 99.1 180 
 BAR2 HE ES       1117 15.67                             142   -0.8510 99.1 180 
 BAR2 EZ I        1117 16.76        39.7 0.14            131           99.1 180 
 PTB  HZ EP       1117  5.65                             124   -0.38 9  176 233 
 PTB  HE ES       1117 28.89                             124    0.46 9  176 233 
 PTB  HZ I        1117 30.14        13.3 0.12            115            176 233 
 ZAR  HZ EP       1117  7.28                             122    0.28 9  185 270 
 ZAR  HN ES       1117 30.45                             122    0.31 9  185 270 
 ZAR  HZ I        1117 34.77        21.5 0.28            114            185 270 
 TAM  HZ EP       1117  7.91                             121    0.14 9  192 127 
 TAM  HN ES       1117 31.78                             121    0.26 9  192 127 
 TAM  HZ I        1117 33.98        18.9 0.33            113            192 127 
 URE  HZ EP       1117 14.62                             113   -0.64 8  261 277 
 URE  HN ES   3   1117 42.93                             113   -1.91 2  261 277 
 URE  HZ I        1117 45.20        13.0 0.09            106            261 277 
 NOR  HZ EP       1117 17.68                             111   -0.10 7  283 221 
 NOR  HZ I        1117 55.67         8.0 0.16            104            283 221 
 CHI  HZ EP   4   1117 20.71                             108   -1.97 0  322 191 
 CHI  HN ES   3   1117 59.09                             108    1.03 2  322 191 
 CHI  HZ I        1118  3.89         3.5 0.26            102            322 191 
 PRA  HZ EP       1117 38.58                             102    0.28 5  458 204 
 PRA  HN ES       1118 26.57                             102    0.71 5  458 204 
 PRA  HZ I        1118 33.74         4.8 0.36             96            458 204 
                                                                                
