 2016  622 1410 58.0 L   6.813 -73.150141.3  RSN  8 0.3 1.6LRSN                1
 GAP=244        0.74       3.9     3.7  5.1  0.3658E+01  0.6161E+01  0.2703E+01E
 Epicentro: LOS SANTOS - SANTANDER                                             3
 ACTION:UPD 16-07-21 22:21 OP:rebc STATUS:               ID:20160622141058 L   I
 OLDACT:DUP 16-06-22 22:28 OP:edw  STATUS:               ID:20160622140745d    3
 2016-06-22-1407-44M.COL___337                                                 6
 STAT SP IPHASW D HRMM SECON CODA AMPLIT PERI AZIMU VELO AIN AR TRES W  DIS CAZ7
 BAR2 EZ EP       1411 17.60                             170    0.4510 24.7 188 
 BAR2 EZ ES       1411 32.31                             170    0.2410 24.7 188 
 BAR2 EZ I        1411 33.59        11.9 0.24                          24.7 188 
 RUS  HZ EP       1411 21.44                             142   -0.0110  102 176 
 RUS  HN ES       1411 39.49                             142   -0.2410  102 176 
 RUS  HZ I        1411 41.85         6.2 0.26                           102 176 
 PTB  HZ EP       1411 24.12                             131   -0.50 9  148 258 
 PTB  HN ES       1411 45.29                             131   -0.07 9  148 258 
 PTB  HZ I        1411 47.07         5.6 0.42                           148 258 
 SPBC HZ EP   4   1411  6.03                             128   -20.2 0  164 219 
 SPBC HN ES       1411 48.04                             128   -0.26 9  164 219 
 ZAR  HN ES       1411 54.87                             122   -0.21 9  203 292 
 ZAR  HZ I        1412  0.71         6.8 0.62                           203 292 
 NOR  HZ EP       1411 33.33                             117   -0.22 8  235 234 
 NOR  HN ES       1412  1.55                             117    0.29 8  235 234 
 NOR  HZ I        1412  6.43         2.5 0.26                           235 234 
 CHI  HZ EP       1411 35.63                             116    0.01 8  250 195 
 CHI  HN ES       1412  4.71                             116   -0.24 8  250 195 
 GUY2CHZ EP       1411 41.93                             111    0.45 7  302 234 
 GUY2CHE ES       1412 15.95                             111    0.57 7  302 234 
 GUY2CHZ I        1412 16.98         1.2 0.46                           302 234 
                                                                                
