 2014  222 1439 26.2 L   6.773 -73.121144.0  RSN  9 0.3 2.1LRSN                1
 GAP=141        0.73       3.2     3.5  4.6  0.2315E+00  0.6023E+01  0.2287E+01E
 Epicentro: LOS SANTOS - SANTANDER                                             3
 ACTION:UPD 14-03-10 08:12 OP:ep   STATUS:               ID:20140222143926 L   I
 OLDACT:UP  14-02-22 17:17 OP:cam  STATUS:               ID:20140222143751     3
 OLDACT:REG 14-02-22 16:59 OP:cam  STATUS:               ID:20140222143751     3
 2014-02-22-1437-51M.COL___223                                                 6
 STAT SP IPHASW D HRMM SECON CODA AMPLIT PERI AZIMU VELO AIN AR TRES W  DIS CAZ7
 BAR2 SZ IP     D 1439 45.59                             171   -0.0210 21.1 199 
 BAR2 SZ ES       1440  0.75                             171    0.0310 21.1 199 
 BAR2 SZ I        1440  1.97        44.1 0.18            169           21.1 199 
 BRR  HZ IP     C 1439 47.37                             151   -0.0510 75.0 300 
 BRR  HE ES       1440  4.49                             151    0.5510 75.0 300 
 BRR  HZ I        1440  8.35        23.8 0.14            149           75.0 300 
 PAM  SZ EP       1439 48.31                             150    0.0010 78.1  37 
 PAM  SN ES       1440  5.43                             150   -0.0910 78.1  37 
 PAM  SZ I        1440  6.01        12.1 0.18            155           78.1  37 
 RUS  HZ EP       1439 49.65                             144    0.0610 97.4 178 
 RUS  HN ES       1440  7.65                             144   -0.1510 97.4 178 
 RUS  HZ I        1440  9.99        14.1 0.32            147           97.4 178 
 PTB  HZ EP   1   1439 52.47                             131   -0.78 7  150 260 
 PTB  HN ES   4   1440 12.66                             131   -1.66 0  150 260 
 PTB  HZ I        1440 18.53        17.1 0.50            131            150 260 
 ZAR  HZ EP       1439 58.57                             122   -0.37 8  208 293 
 ZAR  HN ES       1440 24.36                             122   -0.10 8  208 293 
 ZAR  HZ I        1440 30.05        13.0 0.16            122            208 293 
 NOR  HZ EP       1440  2.12                             118    0.20 8  235 235 
 NOR  HN ES       1440 29.54                             118   -0.20 8  235 235 
 NOR  HZ I        1440 33.21         6.0 0.24            119            235 235 
 CHI  HZ EP   1   1440  4.03                             117    0.43 6  246 196 
 GUY2CHZ EP   1   1440 10.62                             112    0.80 5  302 236 
                                                                                
