 2012  222 1833 53.5 L   6.775 -73.121149.3  RSN 14 0.4 2.4LRSN                1
 GAP=141        0.65       3.1     4.2  4.8 -0.3692E+01  0.5005E+01  0.3646E+01E
 ACTION:UP  12-03-07 16:33 OP:epov STATUS:               ID:20120222183353 L   I
 2012-02-22-1830-00M.COL___191                                                 6
 STAT SP IPHASW D HRMM SECON CODA AMPLIT PERI AZIMU VELO AIN AR TRES W  DIS CAZ7
 BAR2 SZ EP   1   1834 13.38                             172   -0.15 7 21.3 198 
 BAR2 SZ ES   1   1834 28.66                             172   -0.49 7 21.3 198 
 BAR2 SZ I        1834 30.19        35.2 0.24                          21.3 198 
 GIR2 SZ EP   1   1834 13.59                             166   -0.11 7 34.5 347 
 GIR2 SZ ES   2   1834 29.53                             166    0.09 5 34.5 347 
 BRR  HZ EP   1   1834 15.36                             152    0.11 7 74.9 299 
 BRR  HE ES   1   1834 32.99                             152    0.78 7 74.9 299 
 BRR  HZ I        1834 35.22        42.9 0.29                          74.9 299 
 PAM  SZ EP   1   1834 16.41                             151    0.28 7 77.9  37 
 PAM  SN ES   1   1834 33.73                             151   -0.05 7 77.9  37 
 RUS  HZ EP   1   1834 17.30                             145   -0.11 7 97.7 178 
 RUS  HN ES   2   1834 36.39                             145    0.34 5 97.7 178 
 RUS  HZ I        1834 39.02        27.9 0.44                          97.7 178 
 PTB  HZ EP   1   1834 20.06                             132   -0.90 7  150 260 
 PTB  HN ES   2   1834 41.61                             132   -0.77 5  150 260 
 OCA  SZ ES   2   1834 44.96                             130    0.05 5  163 352 
 NOR  SZ EP   1   1834 29.63                             119    0.12 6  235 235 
 NOR  SN ES   2   1834 57.21                             119   -0.39 4  235 235 
 CHI  HZ EP   1   1834 31.40                             118    0.20 6  247 196 
 CHI  HN ES   1   1835  0.78                             118    0.19 6  247 196 
 CHI  HZ I        1835  8.83        11.7 0.49                           247 196 
 HEL  HZ EP   1   1834 34.71                             115    0.59 6  274 257 
 HEL  HN ES   2   1835  6.00                             115    0.20 4  274 257 
 HEL  HZ I        1835 11.51        10.7 0.30                           274 257 
 GUY  SN ES   2   1835 12.06                             113    0.03 4  304 236 
 GUY  SZ I        1835 19.42        21.6 0.87                           304 236 
 RREF HN ES   2   1835 15.84                             111   -0.14 3  322 230 
 RREF HZ I        1835 24.87        14.6 0.44                           322 230 
 COD  HZ EP   2   1834 42.04                             109   -0.33 3  351 354 
 COD  HN ES   2   1835 20.17                             109   -0.32 3  351 354 
 PRA  HZ EP   1   1834 47.22                             107    0.19 4  391 210 
 PRA  HN ES   2   1835 29.41                             107    0.63 3  391 210 
                                                                                
