 2017 1222 1813 15.7 L   6.794 -73.123136.3  RSN  4 0.2 1.4LRSN                1
 GAP=159        0.60       5.1     3.2  5.2 -0.5815E+01  0.8069E+01 -0.6852E+01E
 Epicentro: LOS SANTOS - SANTANDER                                             3
 ACTION:UPD 18-01-04 13:23 OP:rebc STATUS:               ID:20171222181315 L   I
 OLDACT:REG 17-12-22 21:33 OP:dhb  STATUS:               ID:20171222180703     3
 2017-12-22-1808-00M.COL___476                                                 6
 STAT SP IPHASW D HRMM SECON CODA AMPLIT PERI AZIMU VELO AIN AR TRES W  DIS CAZ7
 BAR2 EZ EP       1813 34.21                             170    0.0710 23.3 196 
 BAR2 EZ ES       1813 48.56                             170    0.0010 23.3 196 
 BAR2 EZ I        1813 51.55         7.6 0.44            173           23.3 196 
 PAM  EZ EP       1813 37.18                             149    0.3810 76.3  38 
 PAM  EN ES       1813 53.04                             149   -0.2510 76.3  38 
 PAM  EZ I        1813 56.10         5.1 0.46            150           76.3  38 
 PTB  HZ EP       1813 41.83                             129   -0.26 9  150 259 
 PTB  HN ES       1814  2.79                             129    0.08 9  150 259 
 PTB  HZ I        1814  4.38         2.7 0.32            132            150 259 
 ZAR  HZ EP       1813 47.52                             120   -0.25 8  207 292 
 ZAR  HN ES       1814 13.02                             120    0.19 8  207 292 
 ZAR  HZ I        1814 18.01         3.4 0.34            122            207 292 
                                                                                
