 2016  622 1107 55.1 L   6.303 -73.644108.0  RSN  6 0.2 1.5LRSN                1
 GAP= 87        0.63       2.3     2.4  4.8  0.9482E+00  0.3410E+01 -0.1231E+01E
 Epicentro: SANTA HELENA DEL OPON - SANTANDER                                  3
 ACTION:UPD 16-07-21 22:21 OP:rebc STATUS:               ID:20160622110755 L   I
 OLDACT:UP  16-06-22 21:48 OP:edw  STATUS:               ID:20160622105745d    3
 OLDACT:DUP 16-06-22 21:43 OP:edw  STATUS:               ID:20160622105745d    3
 2016-06-22-1057-44M.COL___313                                                 6
 STAT SP IPHASW D HRMM SECON CODA AMPLIT PERI AZIMU VELO AIN AR TRES W  DIS CAZ7
 BAR2 EZ IP     D 11 8 11.89                             149   -0.0010 60.2  58 
 BAR2 EZ ES       11 8 25.08                             149    0.0610 60.2  58 
 BAR2 EZ I        11 8 26.20        22.4 0.42                          60.2  58 
 RUS  HZ EP       11 8 13.14                             142   -0.2710 76.9 126 
 RUS  HE ES       11 8 27.63                             142   -0.0810 76.9 126 
 RUS  HZ I        11 8 29.30         4.1 0.34                          76.9 126 
 SPBC HZ EP       11 8 14.10                             138    0.5310 86.2 213 
 SPBC HN ES       11 8 28.07                             138    0.0710 86.2 213 
 SPBC HZ I        11 8 31.64         9.4 0.22                          86.2 213 
 BRR  HZ EP       11 8 13.65                             137   -0.0410 89.2 355 
 BRR  HN ES       11 8 28.42                             137    0.2110 89.2 355 
 PTB  HZ EP       11 8 13.83                             136   -0.2510 93.6 286 
 PTB  HN ES       11 8 28.59                             136   -0.3210 93.6 286 
 PTB  HZ I        11 8 29.22         5.1 0.30                          93.6 286 
 NOR  HN ES   4   11 8 20.67                             120   -19.5 0  158 239 
 ZAR  HZ EP       11 8 23.51                             115   -0.06 9  188 314 
 ZAR  HN ES       11 8 45.97                             115    0.17 9  188 314 
 ZAR  HZ I        11 8 50.00         5.8 0.26                           188 314 
                                                                                
