 2016 1222 1309 54.9 L   6.622 -73.515108.0  RSN  6 0.2 1.1LRSN                1
 GAP=116        0.89       4.0     5.8  6.7  0.4307E+01 -0.9992E+01 -0.1038E+01E
 Epicentro: EL CARMEN - SANTANDER                                              3
 ACTION:UPD 17-01-11 20:17 OP:rebc STATUS:               ID:20161222130954 L   I
 OLDACT:UP  16-12-23 01:10 OP:edw  STATUS:               ID:20161222130747     3
 OLDACT:REG 16-12-22 20:35 OP:edw  STATUS:               ID:20161222130747     3
 2016-12-22-1308-00M.COL___371                                                 6
 STAT SP IPHASW D HRMM SECON CODA AMPLIT PERI AZIMU VELO AIN AR TRES W  DIS CAZ7
 BAR2 EZ EP       1310 10.76                             160    0.2910 36.9  95 
 BAR2 EZ ES       1310 22.79                             160    0.1710 36.9  95 
 BRR  HZ EP       1310 11.05                             150   -0.1710 57.9 338 
 BRR  HN ES       1310 23.93                             150   -0.0310 57.9 338 
 RUS  HZ EP       1310 14.66                             136    0.1010 93.7 149 
 RUS  HN ES       1310 29.76                             136   -0.1410 93.7 149 
 RUS  HZ I        1310 31.34         4.3 0.28            136           93.7 149 
 PTB  HZ EP   9   1310 13.55                             132   -1.31 0  105 265 
 PTB  HN ES       1310 28.23                             135   -0.8910  105 265 
 PTB  HZ I        1310 31.97         1.9 0.30            132            105 265 
 PAM  EZ EP       1310 16.86                             128   -0.0810  120  49 
 PAM  EE ES       1310 33.99                             128   -0.1510  120  49 
 PAM  EZ I        1310 35.34         2.2 0.32            129            120  49 
 ZAR  HZ EP   4   1310 19.27                             116   -2.91 0  177 303 
 ZAR  HN ES   4   1310 44.66                             116    1.19 0  177 303 
 GUY2CHZ EP   4   1310 33.90                             107    2.09 0  257 233 
 GUY2CHE ES   4   1311  5.59                             107    4.98 0  257 233 
 GUY2CHZ I        1311  8.03         0.6 0.42                           257 233 
                                                                                
