 2016  222 1153  5.8 L   6.317 -73.555111.9  RSN 10 0.4 1.7LRSN                1
 GAP= 78        0.88       2.5     2.7  5.4 -0.6897E+00  0.5164E+01  0.2297E+01E
 Epicentro: SANTA HELENA DEL OPON - SANTANDER                                  3
 ACTION:UPD 16-03-04 21:28 OP:rebc STATUS:               ID:20160222115305 L   I
 OLDACT:UP  16-02-22 22:05 OP:drio STATUS:               ID:20160222114748     3
 OLDACT:UP  16-02-22 22:05 OP:drio STATUS:               ID:20160222114748     3
 OLDACT:REG 16-02-22 20:02 OP:drio STATUS:               ID:20160222114748     3
 2016-02-22-1147-48M.COL___297                                                 6
 STAT SP IPHASW D HRMM SECON CODA AMPLIT PERI AZIMU VELO AIN AR TRES W  DIS CAZ7
 BAR2 EZ IP     C 1153 22.82                             154    0.3410 51.2  54 
 BAR2 EZ ES       1153 35.89                             154    0.3810 51.2  54 
 BAR2 EZ I        1153 37.35        29.5 0.44            156           51.2  54 
 RUS  HZ EP       1153 24.12                             146    0.1110 70.2 132 
 RUS  HN ES       1153 37.71                             146   -0.5310 70.2 132 
 RUS  HZ I        1153 41.07         8.2 0.38            147           70.2 132 
 BRR  HZ EP       1153 24.47                             138   -0.2610 89.1 349 
 BRR  HE ES       1153 39.79                             138    0.2710 89.1 349 
 PTB  HZ EP   4   1153 24.82                             134   -1.09 0  103 284 
 PTB  HN ES       1153 41.44                             134   -0.1710  103 284 
 PTB  HZ I        1153 42.24        13.3 0.12            136            103 284 
 PAM  EZ EP       1153 30.97                             123    0.17 9  147  40 
 PAM  EN ES       1153 50.21                             123   -0.11 9  147  40 
 PAM  EZ I        1153 54.51         5.0 0.24            126            147  40 
 NOR  HZ EP       1153 32.23                             119   -0.13 9  168 240 
 NOR  HN ES       1153 52.65                             119   -0.44 9  168 240 
 NOR  HZ I        1153 57.34         8.5 0.16            120            168 240 
 CHI  HZ EP       1153 35.00                             116    0.03 9  188 186 
 CHI  HN ES       1153 57.71                             116   -0.03 9  188 186 
 CHI  HZ I        1154  3.60         1.8 0.20            117            188 186 
 ZAR  HZ EP       1153 34.72                             115   -0.43 9  194 312 
 ZAR  HE ES       1153 57.98                             115   -0.09 9  194 312 
 ZAR  HZ I        1154  0.59        10.1 0.52            117            194 312 
 HEL  HZ EP       1153 38.17                             112   -0.23 8  219 266 
 HEL  HE ES   4   1154  5.44                             112    1.60 0  219 266 
 HEL  HZ I        1154  6.81         5.2 0.30            114            219 266 
 GUY2CHZ EP       1153 40.53                             111    0.27 8  234 239 
 GUY2CHN ES       1154  8.16                             111    1.01 8  234 239 
 GUY2CHZ I        1154 11.74         3.4 0.50                           234 239 
                                                                                
