 2013  922 1846 49.9 L   6.795 -73.151143.7  RSN  8 0.5 1.7LRSN                1
 GAP=136        1.09       4.8     4.6  7.2  0.6402E+00  0.6743E+01  0.4444E+01E
 Epicentro: LOS SANTOS - SANTANDER                                             3
 ACTION:UPD 13-10-22 09:24 OP:ep   STATUS:               ID:20130922184649 L   I
 OLDACT:REG 13-09-22 17:11 OP:carl STATUS:               ID:20130922183959     3
 2013-09-22-1839-59M.COL___269                                                 6
 STAT SP IPHASW D HRMM SECON CODA AMPLIT PERI AZIMU VELO AIN AR TRES W  DIS CAZ7
 BAR2 SZ EP       1847  9.43                             171    0.1310 22.6 189 
 BAR2 SZ ES       1847 23.53                             171   -0.8810 22.6 189 
 BAR2 SZ I        1847 26.79         8.1 0.46            169           22.6 189 
 BRR  HZ IP     C 1847 11.11                             152    0.2610 71.0 299 
 BRR  HN ES       1847 27.75                             152    0.5910 71.0 299 
 BRR  HZ I        1847 31.00         9.2 0.34            151           71.0 299 
 PAM  SZ EP       1847 12.28                             150    0.3010 78.2  40 
 PAM  SN ES   1   1847 29.20                             150    0.02 7 78.2  40 
 PAM  SZ I        1847 30.82         9.1 0.18            155           78.2  40 
 RUS  HZ EP       1847 13.39                             143   -0.0510  100 176 
 RUS  HN ES   1   1847 32.24                             143    0.46 7  100 176 
 RUS  HZ I        1847 34.30         3.5 0.42            146            100 176 
 PTB  HZ EP       1847 15.94                             132   -0.73 9  147 259 
 PTB  HN ES       1847 37.23                             132   -0.30 9  147 259 
 PTB  HZ I        1847 41.99         7.7 0.38            132            147 259 
 ZAR  HZ EP       1847 21.77                             122   -0.44 9  204 292 
 ZAR  HE ES       1847 47.65                             122    0.26 9  204 292 
 ZAR  HZ I        1847 52.94         7.4 0.60            123            204 292 
 NOR  HE ES       1847 53.49                             118    0.33 8  234 234 
 NOR  HZ I        1847 59.66         4.0 0.32            120            234 234 
 CHI  HZ EP   1   1847 27.31                             117   -0.13 6  248 195 
 CHI  HN ES   1   1847 57.39                             117    0.70 6  248 195 
                                                                                
