 2013  822 1212 20.4 L   6.811 -73.127139.2  RSN 17 0.5 2.1LRSN 2.7WRSN        1
 SPEC AVERAGE  MO 13.1 ST131.3 OM  1.6 f0 14.1 R0.1769 AL 0.00 WI 20.0 MW  2.7 3
 SPEC SD       MO  0.6 ST296.4 OM  0.7 f0 11.4 R0.0935 AL      WI      MW  0.4 3
 GAP= 72        1.28       3.4     3.5  6.1 -0.2850E+01  0.1127E+01  0.2807E+01E
 Epicentro: LOS SANTOS - SANTANDER                                             3
 SPEC TAM HH Z MO 14.9 ST999.9 OM  3.2 f0 40.0 R0.0388 AL-0.00 WI 20.0 MW  3.9 3
 SPEC TAM HH Z T1213 7 K 0.000 GD  206 VS 4.20 DE 3.20 Q0300.0 QA 0.60 VS 4.20 3
 SPEC BAR2SH Z MO 12.7 ST  1.5 OM  1.2 f0 6.17 R0.2519 AL-0.00 WI 20.0 MW  2.4 3
 SPEC BAR2SH Z T121251 K 0.000 GD  141 VS 4.20 DE 3.20 Q0300.0 QA 0.60 VS 4.20 3
 SPEC BRR HH Z MO 13.2 ST  2.6 OM  1.6 f0 5.26 R0.2954 AL-0.00 WI 20.0 MW  2.7 3
 SPEC BRR HH Z T121256 K 0.000 GD  156 VS 4.20 DE 3.20 Q0300.0 QA 0.60 VS 4.20 3
 SPEC RUS HH Z MO 12.6 ST0.556 OM  1.0 f0 4.80 R0.3237 AL-0.00 WI 20.0 MW  2.4 3
 SPEC RUS HH Z T121260 K 0.000 GD  172 VS 4.20 DE 3.20 Q0300.0 QA 0.60 VS 4.20 3
 SPEC PTB HH Z MO 12.8 ST 58.2 OM  1.1 f0 19.8 R0.0785 AL-0.00 WI 20.0 MW  2.5 3
 SPEC PTB HH Z T1213 5 K 0.000 GD  204 VS 4.20 DE 3.20 Q0300.0 QA 0.60 VS 4.20 3
 SPEC OCA HH Z MO 12.9 ST  4.8 OM  1.2 f0 7.88 R0.1972 AL-0.00 WI 20.0 MW  2.6 3
 SPEC OCA HH Z T1213 7 K 0.000 GD  211 VS 4.20 DE 3.20 Q0300.0 QA 0.60 VS 4.20 3
 SPEC ZAR HH Z MO 13.1 ST  8.7 OM  1.3 f0 8.44 R0.1841 AL-0.00 WI 20.0 MW  2.7 3
 SPEC ZAR HH Z T121315 K 0.000 GD  247 VS 4.20 DE 3.20 Q0300.0 QA 0.60 VS 4.20 3
 SPEC NOR HH Z MO 12.9 ST  4.7 OM  1.1 f0 7.76 R0.2003 AL-0.00 WI 20.0 MW  2.6 3
 SPEC NOR HH Z T121322 K 0.000 GD  274 VS 4.20 DE 3.20 Q0300.0 QA 0.60 VS 4.20 3
 SPEC SML HH Z MO 12.8 ST217.9 OM  1.0 f0 29.9 R0.0520 AL-0.00 WI 20.0 MW  2.5 3
 SPEC SML HH Z T121321 K 0.000 GD  280 VS 4.20 DE 3.20 Q0300.0 QA 0.60 VS 4.20 3
 SPEC URE HH Z MO 13.0 ST 13.8 OM  1.1 f0 10.6 R0.1466 AL-0.00 WI 20.0 MW  2.6 3
 SPEC URE HH Z T121335 K 0.000 GD  317 VS 4.20 DE 3.20 Q0300.0 QA 0.60 VS 4.20 3
 SPECGUY2CHH Z MO 13.1 ST  0.4 OM  1.2 f0 2.86 R 0.543 AL-0.00 WI 20.0 MW  2.7 3
 SPECGUY2CHH Z T121337 K       GD333.7 VS 4.20 DE 3.20 Q0300.0 QA 0.60 VS 4.20 3
 OLDACT:REG 13-08-22 15:55 OP:stll STATUS:               ID:20130822120848     3
 ACTION:UPD 14-01-14 09:05 OP:ep   STATUS:               ID:20130822121220 L   I
 OLDACT:UP  13-08-22 18:34 OP:stll STATUS:               ID:20130822120848     3
 OLDACT:UP  13-08-22 18:32 OP:stll STATUS:               ID:20130822120848     3
 2013-08-22-1208-48M.COL___212                                                 6
 STAT SP IPHASW D HRMM SECON CODA AMPLIT PERI AZIMU VELO AIN AR TRES W  DIS CAZ7
 BAR2 SZ EP       1212 39.62                             169    0.3910 24.9 194 
 BAR2 SZ ES       1212 53.04                             169   -0.9210 24.9 194 
 BAR2 HZ I        1212 56.47        22.4 0.30            172           24.9 194 
 BAR2 SZ I        1212 56.47        22.4 0.30                          24.9 194 
 BRR  HZ EP       1212 41.75                             151    0.8810 72.4 297 
 BRR  HE ES       1212 57.83                             151    0.9610 72.4 297 
 BRR  HZ I        1213  2.15        41.0 0.14            140           72.4 297 
 BRR  SZ I        1213  2.15        41.0 0.14                          72.4 297 
 PAM  SZ EP       1212 42.20                             150    0.4610 75.2  39 
 PAM  SN ES       1212 58.65                             150    0.2310 75.2  39 
 PAM  HZ I        1213  0.86        32.5 0.48            140           75.2  39 
 PAM  SZ I        1213  0.86        32.5 0.48                          75.2  39 
 RUS  HZ EP       1212 43.36                             142   -0.1910  102 177 
 RUS  HN ES       1213  1.52                             142   -0.1210  102 177 
 RUS  SZ I        1213  2.91        13.5 0.44            138            102 177 
 RUS  HZ I        1213  2.91        13.5 0.44                           102 177 
 CAPV BZ EP       1212 47.22                             131    0.20 9  147  38 
 PTB  HZ EP       1212 46.30                             130   -0.70 9  150 259 
 PTB  HN ES       1213  7.18                             130   -0.61 9  150 259 
 PTB  SZ I        1213 12.46        13.8 0.18            121            150 259 
 PTB  HZ I        1213 12.46        13.8 0.18                           150 259 
 TAM  HZ EP       1212 47.73                             129    0.36 9  153 106 
 TAM  HN ES       1213  8.58                             129    0.15 9  153 106 
 TAM  HZ I        1213 18.69        14.8 1.02            122            153 106 
 TAM  SZ I        1213 18.69        14.8 1.02                           153 106 
 OCA  HZ EP       1212 47.71                             128   -0.36 9  159 352 
 OCA  HN ES       1213  9.01                             128   -0.68 9  159 352 
 OCA  SZ I        1213 15.27        16.9 0.20            117            159 352 
 OCA  HZ I        1213 15.27        16.9 0.20                           159 352 
 SPBC HN ES       1213 10.57                             127   -0.01 9  165 219 
 ZAR  HZ EP   4   1212 54.15                             121    1.62 0  205 292 
 ZAR  HN ES       1213 17.28                             121   -0.35 8  205 292 
 ZAR  SZ I        1213 22.86        25.8 0.32            112            205 292 
 ZAR  HZ I        1213 22.86        25.8 0.32                           205 292 
 NOR  HZ EP       1212 55.92                             117   -0.05 8  237 235 
 NOR  HN ES       1213 23.96                             117    0.21 8  237 235 
 NOR  SZ I        1213 26.24        11.9 0.30            109            237 235 
 NOR  HZ I        1213 26.24        11.9 0.30                           237 235 
 SML  HZ EP   4   1212 55.65                             116   -0.95 0  243 335 
 SML  SZ I        1213 28.67        23.5 0.08            107            243 335 
 CHI  HZ EP       1212 57.74                             115   -0.15 8  250 196 
 CHI  HN ES       1213 26.75                             115   -0.41 8  250 196 
 CHI  HZ I        1213 37.43         5.2 2.00            109            250 196 
 CHI  SZ I        1213 37.43         5.2 2.00                           250 196 
 URE  HZ EP   4   1213  3.35                             112    2.07 0  285 292 
 URE  SZ I        1213 39.99        10.7 0.30            104            285 292 
 SOCV BZ EP       1213  2.11                             111   -0.73 7  299  57 
 GUY2CHZ EP       1213  4.69                             111    0.75 7  304 235 
 GUY2CHN ES       1213 38.77                             111    0.84 7  304 235 
 GUY2CSZ I        1213 46.60         5.2 0.32                           304 235 
 GUY2CHZ I        1213 46.60         5.2 0.32                           304 235 
 PRA  HZ EP       1213 13.42                             105   -0.48 6  394 210 
 PRA  HN ES       1213 55.52                             105   -0.14 6  394 210 
 PRA  HZ I        1214  1.29         7.1 0.30             99            394 210 
                                                                                
