 2014  922 1054 45.4 L   6.815 -73.128143.5  RSN 18 0.5 2.3LRSN                1
 GAP= 67        1.10       3.1     4.0  5.6 -0.6651E+00  0.1144E+01  0.3127E+01E
 Epicentro: LOS SANTOS - SANTANDER                                             3
 ACTION:UPD 14-10-03 23:07 OP:nd   STATUS:               ID:20140922105445 L   I
 OLDACT:REG 14-09-22 20:04 OP:spq  STATUS:               ID:20140922104819     3
 2014-09-22-1048-19M.COL___281                                                 6
 STAT SP IPHASW D HRMM SECON CODA AMPLIT PERI AZIMU VELO AIN AR TRES W  DIS CAZ7
 BAR2 SZ IP     C 1055  4.79                             170    0.0010 25.3 194 
 BAR2 SZ ES   1   1055 19.36                             170   -0.56 7 25.3 194 
 BAR2 SZ I        1055 20.42        62.0 0.36            167           25.3 194 
 BRR  HZ EP       1055  6.63                             152    0.2910 72.1 297 
 BRR  HN ES       1055 23.44                             152    0.7510 72.1 297 
 BRR  HZ I        1055 27.13        32.1 0.14            150           72.1 297 
 PAM  SZ EP       1055  7.69                             151    0.4810 74.9  39 
 PAM  SE ES       1055 24.49                             151    0.2510 74.9  39 
 PAM  SZ I        1055 26.55        64.8 0.44            155           74.9  39 
 RUS  HZ EP   1   1055  8.54                             143   -0.49 7  102 177 
 RUS  HN ES   1   1055 27.34                             143   -0.13 7  102 177 
 RUS  HZ I        1055 28.97        28.2 0.26            143            102 177 
 PTB  HZ EP       1055 11.90                             131   -0.47 9  150 258 
 PTB  HN ES       1055 33.14                             131   -0.28 9  150 258 
 PTB  HZ I        1055 35.33        20.8 0.28            130            150 258 
 TAM  HZ IP     D 1055 13.20                             130    0.45 9  154 106 
 OCA  HZ EP       1055 13.29                             129   -0.10 9  159 352 
 OCA  HN ES       1055 34.49                             129   -0.74 9  159 352 
 OCA  HZ I        1055 35.97        19.8 0.20            131            159 352 
 SPBC HZ EP     C 1055 13.90                             128   -0.05 9  166 219 
 SPBC HN ES       1055 35.84                             128   -0.39 9  166 219 
 SPBC HZ I        1055 42.10        24.6 0.32            128            166 219 
 ZAR  HZ EP       1055 18.15                             122    0.34 8  205 292 
 ZAR  HN ES       1055 43.49                             122    0.40 8  205 292 
 ZAR  HZ I        1055 45.37        16.9 0.26            122            205 292 
 SML  HZ EP       1055 20.98                             117   -0.83 8  243 335 
 SML  HN ES   1   1055 49.69                             117   -0.53 6  243 335 
 SML  HZ I        1055 59.30        18.3 0.10            118            243 335 
 CHI  HZ EP   1   1055 23.68                             116    0.49 6  251 195 
 CHI  HN ES   1   1055 52.21                             116   -0.46 6  251 195 
 CHI  HZ I        1055 55.93         6.0 0.44            117            251 195 
 ROSC BZ EP   4   1055 26.24                             116    2.59 0  255 211 
 ROSC BN ES   4   1055 55.99                             116    2.50 0  255 211 
 ROSC BZ I        1056  2.48        11.0 0.30            116            255 211 
 GUY2CHZ EP       1055 29.81                             112    0.63 7  304 235 
 GUY2CHE ES   4   1056  6.06                             112    2.73 0  304 235 
 GUY2CHZ I        1056 13.27         6.5 0.32                           304 235 
 PTGC HZ EP       1055 28.49                             111   -0.75 7  310 159 
 PTGC HN ES   4   1056  1.38                             111   -2.06 0  310 159 
 PTGC HZ I        1056  4.06        23.7 0.46            112            310 159 
 TOL  SZ EP       1055 34.74                             109    0.90 6  346 225 
 TOL  SE ES   4   1056 13.68                             109    2.04 0  346 225 
 TOL  SZ I        1056 19.35        17.2 0.68            109            346 225 
 MON  HZ EP   4   1055 32.30                             108   -2.06 0  354 308 
 MON  HN ES   4   1056 11.12                             108   -1.43 0  354 308 
 MON  HZ I        1056 11.78         4.6 0.16            109            354 308 
 PRA  HZ EP       1055 39.34                             106    0.23 6  394 210 
 PRA  HN ES   4   1056 23.54                             106    2.53 0  394 210 
 PRA  HZ I        1056 26.86         6.9 0.28            106            394 210 
 SJC  HN ES   4   1056 20.47                             105   -3.62 0  409 327 
 SJC  HZ I        1056 24.24         7.0 0.40            106            409 327 
                                                                                
