 2017 1022 1912 48.1 L   6.678 -73.264140.6  RSN  7 0.5 1.5LRSN                1
 GAP=182        1.27       6.4     6.1  8.3  0.1042E+02  0.1455E+02  0.2124E+01E
 Epicentro: GALAN - SANTANDER                                                  3
 ACTION:UPD 17-11-07 19:35 OP:rebc STATUS:               ID:20171022191248 L   I
 OLDACT:DUP 17-10-23 00:48 OP:lv   STATUS:               ID:20171022190418d    3
 2017-10-22-1908-00M.COL___402                                                 6
 STAT SP IPHASW D HRMM SECON CODA AMPLIT PERI AZIMU VELO AIN AR TRES W  DIS CAZ7
 BAR2 EZ EP       1913  6.56                             174   -0.4310 13.1 136 
 BAR2 EZ ES       1913 20.96                             174   -0.7310 13.1 136 
 BAR2 EZ I        1913 22.08        12.7 0.16            173           13.1 136 
 BRR  HZ EP       1913  8.32                             152   -0.2710 68.6 314 
 BRR  HE ES       1913 25.45                             152    0.9110 68.6 314 
 RUS  HZ EP       1913 11.20                             146    0.6210 89.1 167 
 RUS  HN ES       1913 28.26                             146    0.1810 89.1 167 
 RUS  HZ I        1913 30.16         3.0 0.52            146           89.1 167 
 PTB  HZ EP       1913 13.17                             134   -0.1710  133 263 
 PTB  HN ES       1913 33.42                             134    0.4210  133 263 
 PTB  HZ I        1913 37.21         3.8 0.24            133            133 263 
 ZAR  HZ EP       1913 19.95                             122    0.34 9  198 297 
 ZAR  HE ES       1913 43.45                             122   -0.70 9  198 297 
 ZAR  HZ I        1913 47.83         4.2 0.14            122            198 297 
 NOR  HZ EP       1913 21.55                             120   -0.05 8  216 235 
 NOR  HN ES       1913 47.41                             120   -0.28 8  216 235 
 NOR  HZ I        1913 52.32         2.1 0.14            119            216 235 
 GUY2CHZ EP   9   1913 33.02                             113    3.59 0  283 235 
 GUY2CHN ES       1914  4.68                                   -0.54 7  283 235 
 GUY2CHZ I        1914 11.71         2.4 0.24                           283 235 
                                                                                
