 2010  322 1553 15.2 L   6.564 -73.498115.1  RSN  4 0.2 2.2LRSN                1
 GAP=152        0.40       2.5     7.3  5.2  0.2570E+00  0.1089E+02  0.2565E+01E
 Epicentro: EL CARMEN DE CHUCURI - SANTANDER                                   3
 ACTION:UP  10-08-24 09:55 OP:vdl  STATUS:               ID:20100322155315 L   I
 2010-03-22-1550-41S.COL___098                                                 6
 STAT SP IPHASW D HRMM SECON CODA AMPLIT PERI AZIMU VELO SNR AR TRES W  DIS CAZ7
 BAR2 SZ IP       1553 31.53                             162     0.010   35  85 
 BAR2 SZ ES   2   1553 44.19                             162     0.0 5   35  85 
 BRR  HZ EP   1   1553 32.45                             149    -0.2 7   65 339 
 BRR  HN ES   2   1553 46.49                             149     0.2 5   65 339 
 BRR  HZ I        1553 56.39        31.6 0.14                            65 339 
 OCA  SZ EP   1   1553 44.31                             117     0.2 7  186   6 
 OCA  SZ ES   2   1554  6.33                             117    -0.3 4  186   6 
 OCA  SZ I        1554 10.05        46.8 0.41                           186   6 
 CHI  HZ EP   1   1553 47.51                             113    -0.1 6  215 187 
 CHI  HE ES   2   1554 13.04                             113     0.1 4  215 187 
 CHI  HZ I        1554 20.82         5.8 0.63                           215 187 
                                                                                
