 2011 1122 1018 26.0 L   6.768 -73.145146.4  RSN  6 0.4 1.8LRSN                1
 GAP=138        0.70       4.5     5.2  6.4  0.5455E+01  0.7042E+01  0.4523E+01E
 Epicentro: LOS SANTOS - SANTANDER                                             3
 ACTION:UPD 12-07-13 16:11 OP:ep   STATUS:               ID:20111122101825 L   I
 2011-11-22-1016-29S.COL___178                                                 6
 STAT SP IPHASW D HRMM SECON CODA AMPLIT PERI AZIMU VELO AIN AR TRES W  DIS CAZ7
 BAR2 SZ EP   1   1018 45.57                             172   -0.03 7 19.8 192 
 BAR2 SZ ES   1   1019  0.61                             172   -0.31 7 19.8 192 
 BAR2 SZ I        1019  2.11        22.1 0.21                          19.8 192 
 BRR  HZ EP   1   1018 47.45                             152    0.17 7 73.1 301 
 BRR  HZ I        1018 49.00        12.6 0.12                          73.1 301 
 BRR  HN ES   1   1019  4.65                             152    0.74 7 73.1 301 
 PAM  SZ EP   1   1018 48.40                             150    0.00 7 80.1  38 
 PAM  SZ I        1018 48.75         4.1 0.17                          80.1  38 
 PAM  SN ES   1   1019  5.71                             150   -0.20 7 80.1  38 
 RUS  HZ EP   1   1018 49.49                             145   -0.02 7 97.0 176 
 RUS  HN ES   1   1019  7.93                             145    0.04 7 97.0 176 
 RUS  HZ I        1019  9.64         7.7 0.35                          97.0 176 
 ZAR  HZ EP   2   1018 59.08                             122    0.49 4  206 293 
 ZAR  HN ES   1   1019 23.26                             122   -0.79 6  206 293 
 ZAR  HZ I        1019 29.51         6.0 0.29                           206 293 
 CHI  HZ EP   1   1019  3.35                             118    0.03 6  245 195 
 CHI  HZ I        1019  4.21         4.5 0.11                           245 195 
                                                                                
