 2012 1122 1556 17.5 L   6.809 -73.174143.3  RSN  7 0.3 1.7LRSN                1
 GAP=133        0.58       3.1     3.5  5.0 -0.1182E+00  0.4563E+01  0.3980E+01E
 Epicentro: LOS SANTOS - SANTANDER                                             3
 ACTION:UPD 12-12-05 15:35 OP:}ep  STATUS:               ID:20121122155617 L   I
 2012-11-22-1550-00M.COL___233                                                 6
 STAT SP IPHASW D HRMM SECON CODA AMPLIT PERI AZIMU VELO AIN AR TRES W  DIS CAZ7
 BAR2 SZ EP       1556 36.85                             170    0.0110 23.9 182 
 BAR2 SZ ES   1   1556 52.45                             170    0.52 7 23.9 182 
 BAR2 SZ I        1556 52.90        20.8 0.21                          23.9 182 
 GIR2 SZ EP   1   1556 36.79                             168   -0.04 7 30.0 356 
 GIR2 SZ ES   1   1556 51.78                             168   -0.15 7 30.0 356 
 GIR2 SZ I        1556 53.89         9.0 0.30                          30.0 356 
 PAM  SZ EP   1   1556 39.72                             150    0.20 7 78.7  42 
 PAM  SN ES   1   1556 56.66                             150   -0.05 7 78.7  42 
 PAM  SZ I        1556 58.79         7.9 0.50                          78.7  42 
 RUS  HZ EP   1   1556 40.86                             143   -0.23 7  102 174 
 RUS  HN ES   1   1556 59.04                             143   -0.46 7  102 174 
 RUS  HZ I        1557  1.33         4.6 0.28                           102 174 
 PTB  HZ EP   1   1556 43.67                             132   -0.33 7  145 258 
 PTB  HN ES   1   1557  4.50                             132   -0.18 7  145 258 
 PTB  HZ I        1557  8.38         6.7 0.12                           145 258 
 ZAR  HN ES   1   1557 14.59                             122    0.22 6  201 292 
 ZAR  HZ I        1557 20.69         7.5 0.68                           201 292 
 CHI  HZ EP   1   1556 55.30                             117    0.23 6  249 194 
 CHI  HN ES   1   1557 24.88                             117    0.50 6  249 194 
 CHI  HZ I        1557 29.31         3.5 0.52                           249 194 
                                                                                
