 2012  222 1745 24.8 L   6.770 -73.130142.0  RSN 16 0.4 2.6LRSN                1
 GAP=116        0.57       2.8     3.1  4.2 -0.1412E+01  0.2555E+01  0.5453E+01E
 ACTION:UP  12-03-07 16:33 OP:epov STATUS:               ID:20120222174524 L   I
 2012-02-22-1740-00M.COL___191                                                 6
 STAT SP IPHASW D HRMM SECON CODA AMPLIT PERI AZIMU VELO AIN AR TRES W  DIS CAZ7
 BAR2 SZ IP       1745 43.77                             171   -0.1110 20.5 196 
 BAR2 SZ ES   1   1745 58.80                             171    0.01 7 20.5 196 
 BAR2 SZ I        1745 59.93        96.7 0.18                          20.5 196 
 GIR2 SZ EP   1   1745 43.88                             166   -0.20 7 34.8 348 
 GIR2 SZ ES   2   1745 58.95                             166   -0.21 5 34.8 348 
 BRR  HZ EP       1745 45.62                             151   -0.0610 74.4 300 
 BRR  HN ES   1   1746  2.83                             151    0.82 7 74.4 300 
 BRR  HZ I        1746  6.90        88.6 0.15                          74.4 300 
 PAM  SZ EP   1   1745 46.57                             150   -0.09 7 78.8  37 
 PAM  SE ES   1   1746  3.81                             150    0.06 7 78.8  37 
 RUS  HZ EP   1   1745 47.84                             144   -0.05 7 97.2 177 
 RUS  HN ES   2   1746  6.00                             144    0.06 5 97.2 177 
 RUS  HZ I        1746  7.68        54.1 0.34                          97.2 177 
 PTB  HZ EP   2   1745 50.98                             131   -0.54 5  149 260 
 PTB  HN ES   1   1746 11.55                             131   -0.85 7  149 260 
 YOP  SN ES   2   1746 17.17                             126    0.07 4  175 153 
 NOR  SZ EP   1   1746  0.34                             118    0.12 6  234 235 
 NOR  SN ES   2   1746 28.39                             118    0.50 4  234 235 
 CHI  HZ EP   1   1746  2.10                             117    0.14 6  246 196 
 CHI  HN ES   1   1746 30.97                             117    0.00 6  246 196 
 CHI  HZ I        1746 38.06        18.3 0.50                           246 196 
 ROSC BZ EP   2   1746  2.58                             116    0.11 4  251 212 
 ROSC BE ES   2   1746 31.74                             116   -0.14 4  251 212 
 ROSC BZ I        1746 40.04        33.6 0.48                           251 212 
 HEL  HZ EP   2   1746  5.69                             114    0.81 4  273 257 
 HEL  HE ES   2   1746 35.98                             114   -0.20 4  273 257 
 HEL  HZ I        1746 42.00        17.5 0.31                           273 257 
 VIL  SZ EP   2   1746  7.68                             111    0.00 4  301 192 
 RREF HZ EP   1   1746 10.74                             110    0.09 5  321 230 
 RREF HN ES   1   1746 46.66                             110    0.21 5  321 230 
 RREF HZ I        1746 55.77        24.3 0.41                           321 230 
 TOL  SZ EP   2   1746 13.63                             109    0.89 3  342 225 
 PRA  HZ EP   1   1746 17.74                             106   -0.18 4  390 210 
 PRA  HE ES   2   1746 59.68                             106    0.29 3  390 210 
 SJA  SZ EP   2   1746 19.41                             106    0.55 3  397 193 
 SJA  SZ ES   2   1747  0.50                             106   -0.56 3  397 193 
                                                                                
