 2016  522 1015 16.9 L   6.805 -73.179136.0  RSN 14 0.4 2.0LRSN                1
 GAP=132        1.02       3.4     4.3  6.3 -0.5858E+01  0.1299E+02 -0.3958E+01E
 Epicentro: ZAPATOCA - SANTANDER                                               3
 ACTION:UPD 16-08-18 17:48 OP:cam  STATUS:               ID:20160522101516 L   I
 OLDACT:UP  16-05-24 15:34 OP:dnl  STATUS:               ID:20160522101516 L   3
 OLDACT:UP  16-05-22 21:48 OP:drio STATUS:               ID:20160522100743     3
 OLDACT:UP  16-05-22 21:47 OP:drio STATUS:               ID:20160522100743     3
 OLDACT:UP  16-05-22 21:47 OP:drio STATUS:               ID:20160522100743     3
 OLDACT:REG 16-05-22 19:41 OP:drio STATUS:               ID:20160522100743     3
 2016-05-22-1007-43M.COL___286                                                 6
 STAT SP IPHASW D HRMM SECON CODA AMPLIT PERI AZIMU VELO AIN AR TRES W  DIS CAZ7
 BAR2 EZ EP       1015 35.48                             170    0.1210 23.5 181 
 BAR2 EZ ES       1015 49.29                             170   -0.4710 23.5 181 
 BAR2 EZ I        1015 51.67        16.4 0.14            168           23.5 181 
 BRR  HZ EP       1015 37.40                             152    0.6110 67.7 300 
 BRR  HN ES   4   1015 54.25                             152    1.94 0 67.7 300 
 BRR  HZ I        1015 58.49        27.5 0.10            150           67.7 300 
 PAM  EZ EP       1015 38.53                             148    0.3210 79.4  42 
 PAM  EN ES       1015 55.42                             148    0.5910 79.4  42 
 PAM  EZ I        1015 56.85        15.7 0.20            155           79.4  42 
 RUS  HZ EP       1015 38.99                             142   -0.7710  101 174 
 RUS  HN ES       1015 57.81                             142    0.2110  101 174 
 RUS  HZ I        1015 58.73         6.3 0.22            145            101 174 
 PTB  HZ EP       1015 42.13                             130   -0.62 9  144 258 
 PTB  HN ES       1016  2.85                             130   -0.07 9  144 258 
 PTB  HZ I        1016  5.86        17.9 0.16            130            144 258 
 OCA  HZ EP       1015 44.07                             128   -0.31 9  159 354 
 OCA  HN ES       1016  5.43                             128   -0.38 9  159 354 
 OCA  HZ I        1016  6.79        36.4 0.34            131            159 354 
 SPBC HZ EP       1015 44.52                             127    0.04 9  161 218 
 SPBC HN ES       1016  5.85                             127   -0.14 9  161 218 
 SPBC HZ I        1016 10.12        19.0 0.22            128            161 218 
 ZAR  HZ EP       1015 48.37                             121    0.03 9  200 292 
 ZAR  HE ES   4   1016 14.93                             121    2.06 0  200 292 
 ZAR  HZ I        1016 20.39        13.6 0.26            122            200 292 
 CHI  HZ EP   9   1015 55.34                             115    1.32 0  248 194 
 CHI  HN ES       1016 24.77                             115    0.47 8  248 194 
 CHI  HZ I        1016 29.39         4.0 0.82            118            248 194 
 HEL  HZ EP   4   1015 58.01                             113    1.77 0  269 255 
 HEL  HE ES       1016 27.43                             113    0.50 8  269 255 
 HEL  HZ I        1016 36.48         5.5 0.22            115            269 255 
 CBOC HZ EP   4   1016  4.16                             108    1.13 0  330 252 
 CBOC HN ES       1016 39.16                             108    0.14 7  330 252 
 CBOC HZ I        1016 43.25         2.4 0.26            110            330 252 
 PRA  HZ EP       1016 10.64                             105    0.70 6  391 209 
 PRA  HE ES   4   1016 50.67                             105   -0.64 0  391 209 
 PRA  HZ I        1016 57.51         2.9 0.42            107            391 209 
 PAL  HZ EP       1016 11.24                             104   -0.16 6  403 239 
 PAL  HN ES       1016 54.23                             104    0.31 6  403 239 
 PAL  HZ I        1016 55.86         1.9 0.64            106            403 239 
 SJC  HZ EP   4   1016  9.97                             104   -1.89 0  407 327 
 SJC  HE ES   4   1016 51.82                             104   -2.92 0  407 327 
 SJC  HZ I        1016 55.05         2.8 0.42            106            407 327 
                                                                                
