 2014  822 1615 36.5 L   6.784 -73.141148.5  RSN  9 0.4 1.9LRSN                1
 GAP=138        1.01       3.5     4.3  5.9 -0.4512E+00  0.6116E+01 -0.1421E+01E
 Epicentro: LOS SANTOS - SANTANDER                                             3
 ACTION:UPD 14-09-15 21:52 OP:nd   STATUS:               ID:20140822161536 L   I
 OLDACT:UP  14-08-22 21:18 OP:cam  STATUS:               ID:20140822161000     3
 OLDACT:REG 14-08-22 20:20 OP:cam  STATUS:               ID:20140822161000     3
 2014-08-22-1610-00M.COL___285                                                 6
 STAT SP IPHASW D HRMM SECON CODA AMPLIT PERI AZIMU VELO AIN AR TRES W  DIS CAZ7
 BAR2 SZ EP     C 1615 56.40                             171   -0.0110 21.7 192 
 BAR2 SZ ES       1616 12.46                             171    0.5110 21.7 192 
 BAR2 SZ I        1616 13.05        11.3 0.22            170           21.7 192 
 BRR  HZ EP       1615 58.38                             153    0.3810 72.5 300 
 BRR  HN ES       1616 14.94                             153    0.1610 72.5 300 
 BRR  HN I        1616 19.12        25.8 0.18            150           72.5 300 
 PAM  SZ EP       1615 59.18                             151    0.1310 78.4  38 
 PAM  SN ES       1616 16.53                             151   -0.1210 78.4  38 
 PAM  SZ I        1616 18.53        10.6 0.48            155           78.4  38 
 RUS  HZ EP       1616  0.08                             145   -0.2910 98.8 176 
 RUS  HE ES       1616 18.84                             145   -0.1710 98.8 176 
 RUS  HZ I        1616 20.18         3.9 0.48            147           98.8 176 
 PTB  HZ EP       1616  3.51                             133   -0.17 9  148 260 
 PTB  HN ES       1616 24.37                             133   -0.53 9  148 260 
 PTB  HZ I        1616 30.32         8.7 0.56            132            148 260 
 SPBC HZ EP       1616  5.41                             130    0.32 9  162 220 
 SPBC HN ES       1616 26.88                             130   -0.52 9  162 220 
 SPBC HZ I        1616 34.33        11.2 0.40            131            162 220 
 ZAR  HN ES       1616 35.45                             123    0.69 9  205 293 
 ZAR  HN I        1616 40.56        12.3 0.52            123            205 293 
 SML  HZ EP       1616 13.48                             118    0.02 8  246 335 
 SML  HN ES       1616 41.37                             118   -0.93 8  246 335 
 SML  HZ I        1616 46.07        11.5 0.10            119            246 335 
 GUY2CHZ EP       1616 20.63                             113    0.48 7  301 235 
 GUY2CHZ I        1617  3.24         5.7 0.76                           301 235 
                                                                                
