 2015  922 1329 41.6 L   6.766 -73.149148.5  RSN  5 0.5 1.8LRSN                1
 GAP=215        1.05      12.1     9.7  9.7  0.6421E+02  0.6405E+01 -0.2855E+02E
 Epicentro: LOS SANTOS - SANTANDER                                             3
 ACTION:UPD 15-10-28 16:27 OP:cam  STATUS:               ID:20150922132941 L   I
 OLDACT:REG 15-09-22 21:29 OP:ar   STATUS:               ID:20150922132749     3
 2015-09-22-1327-49M.COL___361                                                 6
 STAT SP IPHASW D HRMM SECON CODA AMPLIT PERI AZIMU VELO AIN AR TRES W  DIS CAZ7
 BAR2 EZ EP       1330  1.47                             172    0.0210 19.5 191 
 BAR2 EZ ES       1330 16.40                             172   -0.5610 19.5 191 
 BAR2 EZ I        1330 17.97        13.4 0.24            175           19.5 191 
 BRR  HZ EP       1330  3.61                             152    0.5210 72.8 301 
 BRR  HE ES       1330 20.51                             152    0.6210 72.8 301 
 PTB  HZ EP   2   1330  8.31                             133   -0.35 5  147 260 
 PTB  HN ES   2   1330 29.36                             133   -0.44 5  147 260 
 PTB  HZ I        1330 30.44         4.2 0.16            133            147 260 
 ZAR  HZ EP   2   1330 15.20                             123    0.90 4  205 293 
 ZAR  HN ES       1330 39.33                             123   -0.51 8  205 293 
 ZAR  HZ I        1330 41.72         5.5 0.32            123            205 293 
 SML  HZ EP   2   1330 17.96                             118   -0.73 4  247 336 
 SML  HN ES   2   1330 46.93                             118   -0.73 4  247 336 
 SML  HZ I        1330 50.20         5.7 0.10            117            247 336 
                                                                                
