 2011  922 1005 32.8 L   6.858 -72.991146.6  RSN  7 0.4 1.5LRSN                1
 GAP=154        0.48       8.4     8.7  9.6  0.4094E+02 -0.1099E+02  0.3477E+02E
 Epicentro: CEPITA - SANTANDER                                                 3
 ACTION:UPD 12-07-13 15:59 OP:ep   STATUS:               ID:20110922100532 L   I
 2011-09-22-1000-00M.COL___167                                                 6
 STAT SP IPHASW D HRMM SECON CODA AMPLIT PERI AZIMU VELO AIN AR TRES W  DIS CAZ7
 BTL  SZ EP   3   10 5 53.60                             167    0.85 2 31.3 282 
 GIR2 SZ EP   2   10 5 53.25                             167    0.59 5 33.1 317 
 GIR2 SZ ES   3   10 6  8.81                             167    0.69 2 33.1 317 
 BAR2 SZ EP       10 5 52.78                             166   -0.1110 36.3 216 
 PAM  SN ES   3   10 6 10.17                             156   -0.89 2 62.2  31 
 BRR  HZ EP       10 5 54.81                             148   -0.0510 84.3 289 
 BRR  HZ I        10 5 54.95         6.1 0.38                          84.3 289 
 BRR  HN ES   1   10 6 12.00                             148   -0.04 7 84.3 289 
 RUS  HZ EP       10 5 57.17                             142    0.0110  107 185 
 ZAR  HN ES   3   10 6 33.08                             121   -0.15 2  218 289 
                                                                                
