 2011  422 1911 52.2 L   7.456 -73.155138.3  RSN  5 0.3 1.4LRSN                1
 GAP=161        0.75       9.1     8.0  8.3 -0.3868E+02 -0.3674E+01  0.2727E+02E
 Epicentro: EL PLAYON - SANTANDER                                              3
 ACTION:UP  11-06-22 15:32 OP:REBC STATUS:               ID:20110422191152 L   I
 2011-04-22-1909-10S.COL___139                                                 6
 STAT SP IPHASW D HRMM SECON CODA AMPLIT PERI AZIMU VELO SNR AR TRES W  DIS CAZ7
 PAM  SZ EP   1   1912 11.91                             159    -0.3 7   52 104 
 PAM  SN ES   1   1912 27.62                             159    -0.3 7   52 104 
 BTL  SZ EP   1   1912 12.11                             155    -0.2 7   61 192 
 GRA  SZ EP   1   1912 12.19                             155     0.0 7   61  39 
 GRA  SZ ES   1   1912 28.24                             155     0.4 7   61  39 
 GRA  SZ I        1912 30.43        16.3 0.38                            61  39 
 BRR  HZ EP   1   1912 12.36                             151    -0.2 7   73 238 
 BRR  HZ I        1912 12.64        12.1 0.15                            73 238 
 BRR  HN ES   1   1912 28.62                             151     0.1 7   73 238 
 RUS  HZ EP   1   1912 22.24                             126     0.6 7  173 177 
 RUS  HZ I        1912 32.32         0.4 0.07                           173 177 
                                                                                
