 2017  422 1107  1.6 L   6.777 -73.421110.4  RSN  4 0.2 1.6LRSN                1
 GAP=169        0.47       3.8     2.1  3.7  0.1404E+01  0.1964E+01 -0.2698E+01E
 Epicentro: SAN VICENTE DE CHUCURI - SANTANDER                                 3
 ACTION:UPD 17-05-30 21:15 OP:jn   STATUS:               ID:20170422110701 L   I
 OLDACT:REG 17-04-22 19:31 OP:dani STATUS:               ID:20170422105121     3
 2017-04-22-1058-00M.COL___365                                                 6
 STAT SP IPHASW D HRMM SECON CODA AMPLIT PERI AZIMU VELO AIN AR TRES W  DIS CAZ7
 BAR2 EZ EP     C 11 7 17.44                             162    0.0910 33.4 128 
 BAR2 EZ ES       11 7 29.66                             162    0.0510 33.4 128 
 BAR2 EZ I        11 7 30.27        19.3 0.48            164           33.4 128 
 BRR  HZ EP       11 7 17.48                             154   -0.2110 48.6 319 
 BRR  HN ES       11 7 30.07                             154   -0.1410 48.6 319 
 BRR  HZ I        11 7 30.58        22.1 0.14            151           48.6 319 
 PAM  EZ EP       11 7 22.20                             135    0.0610  101  52 
 PAM  EE ES       11 7 38.17                             135    0.0410  101  52 
 PAM  EZ I        11 7 41.76         4.9 0.24            133            101  52 
 ZAR  HZ EP       11 7 28.91                             117   -0.19 9  177 297 
 ZAR  HE ES       11 7 50.84                             117    0.32 9  177 297 
 ZAR  HZ I        11 7 53.87         4.6 0.33            117            177 297 
                                                                                
