 2015 1222 1334 28.5 L   6.797 -73.164149.5  RSN  8 0.4 2.0LRSN                1
 GAP=199        0.96       3.4     5.3  6.0  0.4155E+01  0.6288E+01 -0.2348E-01E
 Epicentro: LOS SANTOS - SANTANDER                                             3
 ACTION:UPD 16-02-04 15:06 OP:cam  STATUS:               ID:20151222133428 L   I
 OLDACT:REG 15-12-22 21:11 OP:cara STATUS:               ID:20151222132747     3
 2015-12-22-1327-47M.COL___339                                                 6
 STAT SP IPHASW D HRMM SECON CODA AMPLIT PERI AZIMU VELO AIN AR TRES W  DIS CAZ7
 BAR2 EZ EP       1334 48.45                             171   -0.1210 22.7 185 
 BAR2 EZ ES       1335  4.27                             171    0.0510 22.7 185 
 BAR2 EZ I        1335  6.14        14.7 0.26            168           22.7 185 
 BRR  HZ EP       1334 50.44                             154    0.4710 69.6 300 
 BRR  HN ES       1335  7.37                             154    0.6610 69.6 300 
 BRR  HZ I        1335 13.49        23.8 0.46            152           69.6 300 
 RUS  HN ES       1335 10.98                             145   -0.4310  100 175 
 RUS  HZ I        1335 13.48         9.2 0.34            145            100 175 
 PTB  HZ EP       1334 55.21                             133   -0.39 9  146 259 
 PTB  HE ES       1335 16.03                             133   -0.70 9  146 259 
 PTB  HZ I        1335 19.55        10.6 0.10            132            146 259 
 ZAR  HZ EP   4   1335  2.94                             123    1.92 0  202 292 
 ZAR  HE ES       1335 26.52                             123    0.14 9  202 292 
 ZAR  HZ I        1335 32.15        16.1 0.34            124            202 292 
 NOR  HZ EP       1335  4.57                             119    0.31 8  233 234 
 NOR  HN ES       1335 32.34                             119    0.20 8  233 234 
 NOR  HZ I        1335 38.88         7.6 0.22            120            233 234 
 SML  HZ EP       1335  5.03                             118   -0.26 8  243 336 
 SML  HE ES       1335 33.59                             118   -0.39 8  243 336 
 SML  HZ I        1335 36.85        13.0 0.26            120            243 336 
 CHI  HZ IP       1335  6.68                             118    0.36 8  248 195 
 CHI  HN ES       1335 35.92                             118    0.11 8  248 195 
 CHI  HZ I        1335 45.82         2.7 0.40            119            248 195 
                                                                                
