 2017  422 1843  3.8 L   6.781 -73.154144.7  RSN  5 0.3 1.6LRSN                1
 GAP=150        0.87       7.1     4.1  6.3 -0.6037E+01  0.7619E+01 -0.2714E+01E
 Epicentro: LOS SANTOS - SANTANDER                                             3
 ACTION:UPD 17-05-30 21:15 OP:jn   STATUS:               ID:20170422184303 L   I
 OLDACT:UP  17-04-22 22:00 OP:dani STATUS:               ID:20170422183740     3
 OLDACT:REG 17-04-22 19:56 OP:dani STATUS:               ID:20170422183740     3
 2017-04-22-1838-00M.COL___371                                                 6
 STAT SP IPHASW D HRMM SECON CODA AMPLIT PERI AZIMU VELO AIN AR TRES W  DIS CAZ7
 BAR2 EZ EP       1843 23.14                             171   -0.0810 21.1 189 
 BAR2 EZ ES       1843 38.38                             171   -0.0210 21.1 189 
 BAR2 EZ I        1843 40.94        11.4 0.38            170           21.1 189 
 BRR  HZ EP       1843 24.98                             152    0.1710 71.4 300 
 BRR  HN ES       1843 41.86                             152    0.6310 71.4 300 
 BRR  HZ I        1843 42.57        10.7 0.25            151           71.4 300 
 PAM  EZ EP       1843 26.10                             150    0.1010 79.5  39 
 PAM  HE IS       1843 42.97                             150   -0.3710 79.5  39 
 PAM  HE ES       1843 42.97                                           79.5  39 
 PAM  EZ I        1843 43.88         4.2 0.24            154           79.5  39 
 PTB  HZ EP       1843 30.40                             132   -0.13 9  147 260 
 PTB  HN ES       1843 51.22                             132   -0.19 9  147 260 
 PTB  HZ I        1843 57.22         2.5 0.37            132            147 260 
 ZAR  HZ EP       1843 36.55                             122    0.41 9  204 293 
 ZAR  HN ES       1844  0.77                             122   -0.62 9  204 293 
 ZAR  HZ I        1844  6.44         4.6 0.20            123            204 293 
                                                                                
