 2013  722 1853 37.2 L   6.776 -73.167144.0  RSN 11 0.4 2.5LRSN                1
 GAP=135        0.75       2.4     3.7  5.8 -0.6473E-02  0.8743E+01 -0.7801E+00E
 Epicentro: LOS SANTOS - SANTANDER                                             3
 ACTION:UPD 13-08-12 10:39 OP:ep   STATUS:               ID:20130722185338dL   I
 OLDACT:DUP 13-07-22 19:07 OP:mh   STATUS:               ID:20130722184960d    3
 OLDACT:REG 13-07-22 15:13 OP:mh   STATUS:               ID:20130722184959     3
 2013-07-22-1849-59M.COL___267                                                 6
 STAT SP IPHASW D HRMM SECON CODA AMPLIT PERI AZIMU VELO AIN AR TRES W  DIS CAZ7
 BAR2 SZ EP   1   1853 56.81                             172    0.21 7 20.4 185 
 BAR2 SZ ES   1   1854 11.59                             172   -0.12 7 20.4 185 
 BAR2 SZ I        1854 13.38        32.2 0.36            170           20.4 185 
 GIR2 SZ EP   1   1853 56.85                             166    0.08 7 33.6 355 
 BRR  HZ EP   1   1853 58.58                             153    0.42 7 70.5 301 
 BRR  HN ES   4   1854 16.07                             153    1.60 0 70.5 301 
 BRR  HN I        1854 16.82        77.0 0.22            150           70.5 301 
 PAM  SZ EP   1   1853 59.42                             150   -0.07 7 81.0  40 
 PAM  SN ES       1854 17.27                             150    0.4310 81.0  40 
 PAM  SN I        1854 18.04        48.7 0.68            153           81.0  40 
 RUS  HZ EP   1   1854  0.37                             144   -0.27 7 98.1 175 
 RUS  HN ES       1854 18.60                             144   -0.2910 98.1 175 
 RUS  HN I        1854 20.85        21.1 0.16            146           98.1 175 
 PTB  HZ EP       1854  3.51                             132   -0.30 9  145 260 
 PTB  HN ES       1854 24.54                             132    0.01 9  145 260 
 PTB  HZ I        1854 30.40        17.6 0.42            131            145 260 
 OCA  HN ES   1   1854 27.72                             129   -0.07 7  163 354 
 OCA  HN I        1854 34.03        77.4 0.32            130            163 354 
 ZAR  HZ EP   1   1854 10.15                             122    0.70 6  203 293 
 ZAR  HE ES       1854 34.89                             122    0.32 9  203 293 
 ZAR  HE I        1854 41.87        61.8 0.22            122            203 293 
 CHI  HN ES       1854 43.61                             117    0.06 8  245 195 
 CHI  HN I        1854 47.73         9.9 0.26            119            245 195 
 SML  HZ EP   1   1854 13.14                             117   -0.79 6  245 336 
 SML  HN ES       1854 41.94                             117   -0.60 8  245 336 
 SML  HN I        1854 45.02        68.3 0.10            118            245 336 
 PRA  HZ EP   1   1854 30.66                             107    0.37 4  389 209 
 PRA  HN ES   2   1855 12.23                             107    0.56 3  389 209 
 PRA  HN I        1855 17.64         5.3 0.46            108            389 209 
 SJC  HZ EP   4   1854 30.91                             105   -1.95 0  410 327 
 SJC  HE ES   4   1855  9.97                             105   -6.27 0  410 327 
                                                                                
