 2014  622 1857 30.2 L   6.803 -73.130144.6  RSN 10 0.3 2.2LRSN                1
 GAP=239        0.72       3.9     3.9  6.2  0.3059E+01  0.3690E+01  0.2220E+01E
 Epicentro: LOS SANTOS - SANTANDER                                             3
 ACTION:UPD 14-07-01 22:55 OP:nd   STATUS:               ID:20140622185730 L   I
 OLDACT:UP  14-06-24 10:41 OP:MHER STATUS:               ID:20140622185730 L   3
 OLDACT:REG 14-06-22 21:11 OP:mh   STATUS:               ID:20140622184813     3
 2014-06-22-1848-13M.COL___262                                                 6
 STAT SP IPHASW D HRMM SECON CODA AMPLIT PERI AZIMU VELO AIN AR TRES W  DIS CAZ7
 BAR2 SZ EP     C 1857 49.78                             170    0.0910 24.0 194 
 BAR2 SZ I        1858  8.64        29.2 0.18            171           24.0 194 
 BRR  HZ IP     C 1857 51.71                             152    0.4210 72.6 298 
 BRR  HN ES   1   1858  7.30                             152   -0.45 7 72.6 298 
 BRR  HZ I        1858 10.05        18.8 0.28            154           72.6 298 
 RUS  HZ EP       1857 53.74                             144   -0.1010  101 177 
 RUS  HN ES   1   1858 12.40                             144    0.11 7  101 177 
 RUS  HZ I        1858 13.38        10.6 0.26            145            101 177 
 PTB  HZ EP       1857 56.57                             131   -0.65 9  150 259 
 PTB  HN ES   1   1858 18.28                             131   -0.03 7  150 259 
 PTB  HZ I        1858 22.12        20.9 0.38            133            150 259 
 SPBC HZ EP   1   1857 58.68                             129   -0.05 7  165 219 
 SPBC HN ES   1   1858 21.50                             129    0.51 7  165 219 
 SPBC HZ I        1858 27.91        31.5 0.22            131            165 219 
 ZAR  HZ EP   1   1858  2.43                             122   -0.28 6  206 292 
 ZAR  HE ES       1858 28.42                             122    0.34 8  206 292 
 ZAR  HZ I        1858 33.39        19.4 0.22            124            206 292 
 NOR  HZ EP   1   1858  5.88                             118   -0.14 6  236 235 
 NOR  HN ES       1858 33.64                             118   -0.33 8  236 235 
 NOR  HZ I        1858 38.95        18.0 0.32            120            236 235 
 HEL  HZ EP   1   1858 10.52                             114   -0.02 6  274 256 
 HEL  HN ES   1   1858 42.21                             114    0.20 6  274 256 
 HEL  HZ I        1858 50.29        10.5 0.40            116            274 256 
 URE  HZ EP   4   1858  9.55                             113   -1.82 0  285 292 
 URE  HN ES   4   1858 40.66                             113   -2.83 0  285 292 
 GUY2CHZ EP   1   1858 14.72                             112    0.80 5  303 235 
 GUY2CHN ES   4   1858 50.11                             112    2.07 0  303 235 
 GUY2CHZ I        1858 56.49        15.0 0.74                           303 235 
 RREF HZ EP   1   1858 16.58                             110    0.13 5  323 230 
 RREF HN ES   2   1858 52.25                             110   -0.29 3  323 230 
                                                                                
