 2016 1222 1955 42.7 L   6.863 -73.351121.5  RSN 12 0.5 2.4LRSN                1
 GAP= 62        1.24       4.1     3.3  6.4  0.4491E+00  0.4613E+01  0.3218E+01E
 Epicentro: SAN VICENTE DE CHUCURI - SANTANDER                                 3
 ACTION:UPD 17-01-11 20:17 OP:rebc STATUS:               ID:20161222195542 L   I
 OLDACT:UP  16-12-23 07:42 OP:ar   STATUS:               ID:20161222194745     3
 OLDACT:REG 16-12-22 21:26 OP:edw  STATUS:               ID:20161222194745     3
 2016-12-22-1948-00M.COL___381                                                 6
 STAT SP IPHASW D HRMM SECON CODA AMPLIT PERI AZIMU VELO AIN AR TRES W  DIS CAZ7
 BAR2 EZ IP       1955 59.82                             163    0.0110 35.3 148 
 BAR2 HE IP     D 1955 59.83                             163    0.0210 35.3 148 
 BAR2 EZ ES       1956 12.94                             163   -0.2010 35.3 148 
 BRR  HZ IP     C 1956  0.21                             157    0.2110 48.1 304 
 BRR  HE ES       1956 14.15                             157    0.6810 48.1 304 
 BRR  HZ I        1956 19.15        58.3 0.14            156           48.1 304 
 PAM  EZ EP       1956  3.26                             142   -0.0210 89.2  54 
 PAM  EE ES       1956 19.78                             142    0.4710 89.2  54 
 PAM  EZ I        1956 21.48        63.5 0.28            146           89.2  54 
 RUS  HZ EP       1956  4.83                             135   -0.2510  111 165 
 RUS  HN ES       1956 22.10                             135   -0.4210  111 165 
 RUS  HZ I        1956 23.42        34.5 0.24            137            111 165 
 PTB  HZ IP     C 1956  5.10                             130   -0.7710  127 254 
 PTB  HN ES       1956 22.91                             130   -1.0110  127 254 
 PTB  HZ I        1956 27.05        61.6 0.20            131            127 254 
 TAM  HZ EP       1956 10.74                             120   -0.31 9  179 105 
 TAM  HN ES       1956 32.84                             120   -0.31 9  179 105 
 TAM  HZ I        1956 33.04        28.5 0.20            124            179 105 
 ZAR  HZ EP       1956 12.05                             120    0.88 9  180 293 
 ZAR  HN ES   4   1956 35.84                             120    2.48 0  180 293 
 ZAR  HZ I        1956 38.22        49.6 0.34            121            180 293 
 NOR  HZ EP       1956 16.33                             114    0.68 8  221 230 
 NOR  HN ES       1956 41.91                             114    0.58 8  221 230 
 NOR  HZ I        1956 47.74        11.0 0.14            116            221 230 
 CHI  HZ EP       1956 19.79                             111    0.37 8  251 190 
 CHI  HN ES       1956 48.71                             111    0.67 8  251 190 
 CHI  HZ I        1956 55.66         7.7 0.38            113            251 190 
 URE  HZ EP       1956 19.47                             110   -0.54 8  260 292 
 URE  HN ES       1956 48.60                             110   -0.49 8  260 292 
 URE  HZ I        1956 49.84        21.4 0.40            112            260 292 
 GUY2CHZ EP   9   1956 25.90                             108    2.19 0  287 231 
 GUY2CHE ES       1956 58.12                             108    0.25 7  287 231 
 GUY2CHZ I        1957  3.37        10.9 0.34                           287 231 
 CRJC HZ EP   9   1956 41.41                              99   -2.63 0  463   6 
 CRJC HN ES       1957 29.18                             100   -0.06 5  463   6 
 CRJC HZ I        1957 34.89         7.0 0.20            101            463   6 
                                                                                
