 2016 1022 1057  7.0 L   6.761 -73.080153.7  RSN  5 0.3 1.4LRSN                1
 GAP=147        0.85       4.3     6.0  6.2 -0.8486E+01  0.1727E+01  0.3450E+01E
 Epicentro: LOS SANTOS - SANTANDER                                             3
 ACTION:UPD 16-11-09 19:21 OP:rebc STATUS:               ID:20161022105707 L   I
 OLDACT:REG 16-10-22 20:12 OP:ar   STATUS:               ID:20161022104743     3
 2016-10-22-1048-00M.COL___337                                                 6
 STAT SP IPHASW D HRMM SECON CODA AMPLIT PERI AZIMU VELO AIN AR TRES W  DIS CAZ7
 BAR2 EZ EP       1057 27.39                             172   -0.1310 21.8 211 
 BAR2 EZ ES       1057 43.41                             172   -0.1510 21.8 211 
 BAR2 EZ I        1057 46.32         6.3 0.64            169           21.8 211 
 PAM  EZ EP       1057 30.15                             152    0.1710 76.5  33 
 PAM  EN ES       1057 47.58                             152   -0.3610 76.5  33 
 PAM  EZ I        1057 49.83         5.0 0.52            157           76.5  33 
 BRR  HZ EP       1057 29.55                             151    0.0910 79.7 299 
 BRR  HN ES       1057 47.30                             151    0.3010 79.7 299 
 RUS  HZ EP       1057 31.76                             147    0.5610 96.0 180 
 RUS  HE ES       1057 50.21                             147    0.1210 96.0 180 
 RUS  HZ I        1057 51.25         2.0 0.24            147           96.0 180 
 SPBC HZ EP       1057 35.58                             130   -0.64 9  165 222 
 SPBC HN ES       1057 58.94                             130   -0.10 9  165 222 
 SPBC HZ I        1058  5.99         3.8 0.14            131            165 222 
                                                                                
