 2010  722 1331 40.5 L   6.765 -73.080147.7  RSN  7 0.3 2.4LRSN                1
 GAP=242        0.72       5.0     8.1  6.4  0.9825E+01  0.1380E+02  0.1112E+02E
 Epicentro: LOS SANTOS - SANTANDER                                             3
 ACTION:UPD 10-12-01 15:19 OP:pat  STATUS:               ID:20100722133140 L   I
 2010-07-22-1327-29S.COL___123                                                 6
 STAT SP IPHASW D HRMM SECON CODA AMPLIT PERI AZIMU VELO AIN AR TRES W  DIS CAZ7
 BAR2 SZ IP       1332  0.41                             171     0.010   22 211 
 BAR2 SZ I        1332  0.79        76.1 0.36                            22 211 
 BAR2 SZ ES   1   1332 15.26                             171    -0.6 7   22 211 
 BRR  HZ IP     D 1332  2.31                             150    -0.110   80 298 
 BRR  HZ I        1332  2.74        75.5 0.12                            80 298 
 BRR  HN ES   1   1332 19.69                             150     0.3 7   80 298 
 RUS  HZ IP     D 1332  4.27                             145     0.110   97 180 
 RUS  HN ES   1   1332 23.14                             145     0.5 7   97 180 
 RUS  HZ I        1332 26.02        16.8 0.50                            97 180 
 CHI  HZ EP   1   1332 18.33                             118     0.2 6  247 197 
 CHI  HN ES   2   1332 47.16                             118    -0.4 4  247 197 
 CHI  HZ I        1332 51.35        13.5 0.55                           247 197 
 HEL  HZ EP   2   1332 22.24                             114     0.7 4  278 257 
 HEL  HZ I        1332 58.46         9.9 0.45                           278 257 
 RREF HZ EP   2   1332 26.53                             111    -0.6 3  325 231 
 RREF HE ES   2   1333  3.71                             111     0.2 3  325 231 
 RREF HZ I        1333 11.84        23.1 0.33                           325 231 
 PRA  HZ EP   1   1332 33.86                             107    -0.3 4  392 211 
 PRA  HE ES   1   1333 15.70                             107    -0.3 4  392 211 
 PRA  HZ I        1333 22.09        11.9 0.22                           392 211 
                                                                                
