 2013 1222 1920 53.3 L   5.922 -73.728106.3  RSN  5 0.3 1.3LRSN                1
 GAP= 89        0.70       2.7     2.5  6.9 -0.1418E+00  0.5016E+01  0.4793E+01E
 Epicentro: GUAVATA - SANTANDER                                                3
 ACTION:UPD 14-01-13 10:20 OP:ep   STATUS:               ID:20131222192053 L   I
 OLDACT:REG 13-12-22 18:43 OP:nd   STATUS:               ID:20131222192000     3
 2013-12-22-1920-00M.COL___285                                                 6
 STAT SP IPHASW D HRMM SECON CODA AMPLIT PERI AZIMU VELO AIN AR TRES W  DIS CAZ7
 RUS  HZ EP       1921 11.22                             144    0.1810 71.5  93 
 RUS  HN ES       1921 24.73                             144   -0.1810 71.5  93 
 RUS  HZ I        1921 31.10         2.4 0.44            152           71.5  93 
 BAR2 SZ EP       1921 12.77                             135    0.1610 95.6  39 
 BAR2 SZ ES       1921 27.85                             135    0.1510 95.6  39 
 BAR2 SZ I        1921 29.81        16.6 0.28            145           95.6  39 
 PTB  HZ EP       1921 12.55                             131   -0.6510  106 310 
 PTB  HN ES       1921 28.78                             131    0.0310  106 310 
 PTB  HZ I        1921 32.68         3.8 0.24            140            106 310 
 NOR  HZ EP       1921 16.07                             124    0.2410  132 253 
 NOR  HN ES       1921 33.64                             124    0.2110  132 253 
 NOR  HZ I        1921 37.56         6.3 0.38            132            132 253 
 CHI  HZ EP       1921 17.41                             122    0.04 9  143 180 
 CHI  HN ES       1921 36.01                             122   -0.16 9  143 180 
 CHI  HZ I        1921 40.01         1.1 0.28            130            143 180 
                                                                                
