 2017  422 1928 43.1 L   6.775 -73.141146.0  RSN  4 0.2 1.3LRSN                1
 GAP=222        0.59       7.9     3.6  8.2 -0.1396E+02  0.3883E+01  0.2111E+02E
 Epicentro: LOS SANTOS - SANTANDER                                             3
 ACTION:UPD 17-05-30 21:15 OP:jn   STATUS:               ID:20170422192843 L   I
 OLDACT:UP  17-04-22 22:17 OP:dani STATUS:               ID:20170422192741     3
 OLDACT:REG 17-04-22 20:03 OP:dani STATUS:               ID:20170422192741     3
 2017-04-22-1928-00M.COL___365                                                 6
 STAT SP IPHASW D HRMM SECON CODA AMPLIT PERI AZIMU VELO AIN AR TRES W  DIS CAZ7
 BRR  HZ EP       1929  4.68                             152    0.2910 73.0 300 
 PAM  EZ EP       1929  5.60                             150    0.1310 79.3  38 
 PAM  EN ES       1929 22.74                             150   -0.1610 79.3  38 
 PAM  EZ I        1929 24.24         2.9 0.22            160           79.3  38 
 PTB  HZ EP       1929  9.73                             132   -0.37 9  148 260 
 PTB  HN ES       1929 31.26                             132    0.12 9  148 260 
 PTB  HZ I        1929 37.85         2.0 0.54            135            148 260 
 ZAR  HN ES       1929 41.11                             122   -0.06 8  206 293 
 ZAR  HZ I        1929 42.70         3.6 0.40            127            206 293 
                                                                                
