 2011 1122 1648 53.4 L   6.746 -73.086134.0  RSN  4 0.4 1.2LRSN                1
 GAP=147        0.73       7.6    11.3 11.6  0.3257E+02 -0.4030E+02 -0.2773E+02E
 Epicentro: JORDAN - SANTANDER                                                 3
 ACTION:UPD 12-07-13 16:11 OP:ep   STATUS:               ID:20111122164853 L   I
 2011-11-22-1645-58S.COL___178                                                 6
 STAT SP IPHASW D HRMM SECON CODA AMPLIT PERI AZIMU VELO AIN AR TRES W  DIS CAZ7
 BAR2 SZ EP   2   1649 11.54                             171   -0.04 5 20.0 212 
 BAR2 SZ ES   2   1649 25.45                             171   -0.28 5 20.0 212 
 BAR2 SZ I        1649 28.50        10.8 0.20                          20.0 212 
 PAM  SZ EP   1   1649 14.61                             148    0.14 7 78.3  33 
 PAM  SZ I        1649 14.91         1.7 0.23                          78.3  33 
 BRR  HZ EP       1649 13.50                             147   -0.3710 79.9 300 
 BRR  HN ES   2   1649 30.71                             147    0.90 5 79.9 300 
 RUS  HZ EP   1   1649 15.98                             143    0.41 7 94.3 180 
 RUS  HN ES   2   1649 32.50                             143   -0.34 5 94.3 180 
 RUS  HZ I        1649 35.37         2.8 0.42                          94.3 180 
                                                                                
