 2012  922 1954 17.7 L   6.780 -73.125148.4  RSN  4 0.2 1.6LRSN                1
 GAP=140        0.54       4.6     3.7  6.8  0.9004E+00  0.4164E+01  0.9397E+01E
 Epicentro: LOS SANTOS - SANTANDER                                             3
 ACTION:UPD 12-10-22 14:20 OP:ep   STATUS:               ID:20120922195417 L   I
 2012-09-22-1950-00M.COL___221                                                 6
 STAT SP IPHASW D HRMM SECON CODA AMPLIT PERI AZIMU VELO AIN AR TRES W  DIS CAZ7
 BRR  HZ EP   1   1954 39.62                             152    0.30 7 74.3 299 
 BRR  HN ES   1   1954 56.27                             152    0.10 7 74.3 299 
 BRR  HZ I        1955  0.38         9.1 0.26                          74.3 299 
 PAM  SZ EP       1954 40.42                             151    0.1910 77.7  37 
 PAM  SN ES       1954 57.62                             151   -0.1710 77.7  37 
 PAM  SZ I        1955  0.15         6.3 0.57                          77.7  37 
 RUS  HZ EP   1   1954 41.20                             145   -0.35 7 98.2 177 
 RUS  HE ES   2   1955  0.41                             145    0.25 5 98.2 177 
 ZAR  HN ES   1   1955 16.03                             122   -0.28 6  207 292 
                                                                                
