 2014  722 1219 40.3 L   6.828 -73.083146.3  RSN 13 0.5 2.1LRSN                1
 GAP=206        1.05       3.3     5.2  5.8 -0.7418E-01  0.6135E+01  0.1304E+01E
 Epicentro: LOS SANTOS - SANTANDER                                             3
 ACTION:UPD 15-03-16 20:46 OP:nd   STATUS:               ID:20140722121940 L   I
 OLDACT:DUP 14-07-22 21:21 OP:fm   STATUS:               ID:20140722121821d    3
 2014-07-22-1218-20M.COL___266                                                 6
 STAT SP IPHASW D HRMM SECON CODA AMPLIT PERI AZIMU VELO AIN AR TRES W  DIS CAZ7
 BAR2 SZ EP       1220  0.52                             169    0.3910 28.2 203 
 BAR2 SZ ES   1   1220 15.97                             169    0.39 7 28.2 203 
 BAR2 SZ I        1220 18.28        24.3 0.26            166           28.2 203 
 BRR  HZ EP   1   1220  2.36                             151    0.55 7 76.0 294 
 BRR  HN ES       1220 19.14                             151    0.5710 76.0 294 
 BRR  HZ I        1220 27.46        16.3 0.42            147           76.0 294 
 RUS  HZ EP   1   1220  4.14                             143   -0.20 7  103 180 
 RUS  HE ES       1220 22.60                             143   -0.4710  103 180 
 PTB  HZ EP       1220  7.30                             131   -0.71 9  155 258 
 PTB  HE ES       1220 29.02                             131   -0.59 9  155 258 
 PTB  HZ I        1220 36.14        12.7 0.34            130            155 258 
 SPBC HZ EP       1220  9.60                             128    0.09 9  170 220 
 SPBC HN ES       1220 31.97                             128   -0.31 9  170 220 
 SPBC HZ I        1220 36.64        17.9 0.40            129            170 220 
 ZAR  HZ EP       1220 13.70                             122    0.35 8  209 291 
 ZAR  HN ES       1220 38.93                             122   -0.18 8  209 291 
 ZAR  HZ I        1220 44.86        11.6 0.32            122            209 291 
 NOR  HZ EP       1220 16.76                             118   -0.12 8  242 235 
 NOR  HN ES       1220 44.78                             118   -0.62 8  242 235 
 NOR  HZ I        1220 48.71         7.2 0.26            119            242 235 
 SML  HZ EP       1220 16.61                             118   -0.40 8  244 334 
 SML  HN ES       1220 45.45                             118   -0.16 8  244 334 
 SML  HZ I        1220 50.23        18.1 0.10            119            244 334 
 GUY2CHZ EP       1220 25.41                             112    0.61 7  309 235 
 GUY2CHN ES       1221  0.51                             112    1.03 7  309 235 
 GUY2CHZ I        1221  7.43         7.5 0.72                           309 235 
 RREF HZ EP       1220 27.60                             110    0.28 7  329 230 
 RREF HN ES       1221  4.18                             110    0.21 7  329 230 
 RREF HZ I        1221 13.20         5.1 0.48            112            329 230 
 TOL  SZ EP       1220 28.55                             109   -0.87 6  351 225 
 TOL  SN ES       1221  8.00                             109    0.30 6  351 225 
 TOL  SZ I        1221 11.48        12.2 0.44            111            351 225 
 PRA  HZ EP       1220 34.82                             106    0.24 6  398 210 
 PRA  HN ES       1221 17.49                             106    0.59 6  398 210 
 PRA  HZ I        1221 22.34         5.1 0.38            109            398 210 
 SJC  HZ EP   4   1220 34.74                             106   -1.31 0  410 326 
 SJC  HN ES   4   1221 15.14                             106   -4.38 0  410 326 
 SJC  HZ I        1221 26.55         1.8 0.52            108            410 326 
                                                                                
