 2017 1022 1539  8.1 L   6.731 -73.204145.5  RSN  5 0.4 1.5LRSN                1
 GAP=225        0.95       7.1     6.5  6.9  0.2876E+02  0.7176E+01 -0.2892E+01E
 Epicentro: VILLANUEVA - SANTANDER                                             3
 ACTION:UPD 17-11-07 19:35 OP:rebc STATUS:               ID:20171022153908 L   I
 OLDACT:UP  17-10-23 00:51 OP:edw  STATUS:               ID:20171022153741     3
 OLDACT:REG 17-10-22 21:23 OP:edw  STATUS:               ID:20171022153741     3
 2017-10-22-1538-00M.COL___426                                                 6
 STAT SP IPHASW D HRMM SECON CODA AMPLIT PERI AZIMU VELO AIN AR TRES W  DIS CAZ7
 BAR2 EZ EP       1539 27.19                             174   -0.3310 15.6 171 
 BAR2 EZ ES       1539 42.29                             174   -0.4110 15.6 171 
 BAR2 EZ I        1539 43.11         9.9 0.34            167           15.6 171 
 BRR  HZ EP       1539 28.94                             153   -0.1610 69.9 307 
 BRR  HN ES       1539 45.99                             153    0.4810 69.9 307 
 RUS  HZ EP       1539 31.46                             146    0.1710 93.7 172 
 RUS  HN ES       1539 49.80                             146    0.3810 93.7 172 
 RUS  HZ I        1539 51.37         2.3 0.50            144           93.7 172 
 PTB  HZ EP       1539 33.87                             134   -0.44 9  140 261 
 PTB  HN ES       1539 54.66                             134   -0.13 9  140 261 
 PTB  HZ I        1540  0.10         2.4 0.32            130            140 261 
 ZAR  HZ EP       1539 40.85                             123    0.66 9  201 295 
 ZAR  HN ES       1540  5.10                             123   -0.15 9  201 295 
 ZAR  HZ I        1540 10.42         6.4 0.38            122            201 295 
                                                                                
