 2013 1122 1825 11.9 L   6.815 -73.177143.8  RSN  5 0.4 1.8LRSN                1
 GAP=139        0.94       5.5     5.0  6.8 -0.6449E+01  0.8609E+01 -0.1066E+02E
 Epicentro: LOS SANTOS - SANTANDER                                             3
 ACTION:UPD 14-01-09 16:30 OP:ep   STATUS:               ID:20131122182511 L   I
 OLDACT:REG 13-11-22 16:27 OP:nd   STATUS:               ID:20131122182000     3
 2013-11-22-1820-00M.COL___282                                                 6
 STAT SP IPHASW D HRMM SECON CODA AMPLIT PERI AZIMU VELO AIN AR TRES W  DIS CAZ7
 BAR2 SZ EP       1825 31.27                             170   -0.0610 24.7 181 
 BAR2 SZ ES       1825 45.97                             170   -0.5110 24.7 181 
 BAR2 SZ I        1825 47.56        13.5 0.28            172           24.7 181 
 BRR  HZ EP       1825 33.22                             153    0.6010 67.3 299 
 BRR  HN ES       1825 49.17                             153    0.3810 67.3 299 
 BRR  HZ I        1825 53.08         9.5 0.22            150           67.3 299 
 PAM  SZ EP       1825 34.13                             150    0.1610 78.4  42 
 PAM  SN ES       1825 51.23                             150    0.0410 78.4  42 
 PAM  SZ I        1825 53.54         8.0 0.46            153           78.4  42 
 PTB  HZ EP       1825 38.03                             132   -0.40 9  145 258 
 PTB  HN ES       1825 59.20                             132    0.08 9  145 258 
 PTB  HZ I        1826  5.22         6.4 0.46            133            145 258 
 SML  HZ EP       1825 48.22                             117    0.13 8  241 336 
 SML  HN ES       1826 15.69                             117   -0.63 8  241 336 
 SML  HZ I        1826 20.88         8.7 0.10            119            241 336 
                                                                                
