 2016 1222 1314 40.1 L   6.785 -73.131145.3  RSN  6 0.2 1.6LRSN                1
 GAP=139        0.72       3.7     4.4  4.6 -0.2830E+01  0.1514E+00  0.2189E+01E
 Epicentro: LOS SANTOS - SANTANDER                                             3
 ACTION:UPD 17-01-11 20:17 OP:rebc STATUS:               ID:20161222131440 L   I
 OLDACT:UP  16-12-23 01:18 OP:edw  STATUS:               ID:20161222130748d    3
 OLDACT:DUP 16-12-23 01:15 OP:edw  STATUS:               ID:20161222130748d    3
 OLDACT:UP  16-12-23 01:10 OP:edw  STATUS:               ID:20161222130747     3
 OLDACT:REG 16-12-22 20:35 OP:edw  STATUS:               ID:20161222130747     3
 2016-12-22-1308-00M.COL___371                                                 6
 STAT SP IPHASW D HRMM SECON CODA AMPLIT PERI AZIMU VELO AIN AR TRES W  DIS CAZ7
 BAR2 EZ EP       1314 59.46                             171   -0.1810 22.1 195 
 BAR2 EZ ES       1315 14.79                             171   -0.1010 22.1 195 
 BAR2 EZ I        1315 15.95         9.2 0.16            171           22.1 195 
 BRR  HZ EP       1315  1.35                             152    0.0310 73.4 299 
 BRR  HN ES       1315 18.16                             152    0.2910 73.4 299 
 PAM  EZ EP     C 1315  2.32                             151    0.0410 77.6  38 
 PAM  EN ES       1315 19.45                             151   -0.1310 77.6  38 
 PAM  EZ I        1315 21.44         6.4 0.50            151           77.6  38 
 RUS  HZ EP       1315  3.48                             144   -0.2010 98.9 177 
 RUS  HN ES       1315 22.20                             144    0.1310 98.9 177 
 RUS  HZ I        1315 23.21         6.7 0.24            145           98.9 177 
 PTB  HZ EP   9   1315  6.58                             132   -0.56 0  149 260 
 PTB  HN ES       1315 26.90                             135   -0.77 9  149 260 
 PTB  HZ I        1315 30.32         4.2 0.12            132            149 260 
 GUY2CHZ EP       1315 23.88                             112    0.15 7  302 235 
 GUY2CHE ES   2   1315 57.99                             112    0.23 4  302 235 
 GUY2CHZ I        1316  4.92         1.5 0.26                           302 235 
                                                                                
