 2010  922 1319 14.1 L   6.761 -73.046143.3  RSN  4 0.2 1.5LRSN                1
 GAP=237        0.61       9.5    16.0  8.6  0.1234E+03 -0.7283E+02 -0.4686E+02E
 Epicentro: LOS SANTOS - SANTANDER                                             3
 ACTION:UP  11-02-18 11:04 OP:tino STATUS:               ID:20100922131914 L   I
 2010-09-22-1316-48S.COL___122                                                 6
 STAT SP IPHASW D HRMM SECON CODA AMPLIT PERI AZIMU VELO SNR AR TRES W  DIS CAZ7
 BAR2 SZ EP       1319 33.42                             170     0.010   24 219 
 BAR2 SZ ES   1   1319 48.18                             170    -0.3 7   24 219 
 BAR2 SZ I        1319 49.98         8.6 0.09                            24 219 
 BTL  SZ EP       1319 33.81                             168     0.310   30 305 
 BRR  HZ EP       1319 35.39                             148    -0.310   83 298 
 BRR  HZ I        1319 52.00        10.3 0.52                            83 298 
 BRR  HN ES   1   1319 52.71                             148     0.2 7   83 298 
 RUS  HZ EP   2   1319 37.17                             145    -0.1 5   96 182 
 RUS  HN ES   1   1319 55.43                             145     0.1 7   96 182 
 RUS  HZ I        1319 57.73         3.5 0.68                            96 182 
                                                                                
