 2011  322 1237 18.6 L   6.795 -73.156137.7  RSN 11 0.4 2.5LRSN                1
 GAP=159        0.75       3.1     4.4  6.4  0.1376E+01  0.1081E+02  0.5090E+01E
 Epicentro: LOS SANTOS - SANTANDER                                             3
 ACTION:UP  11-06-16 14:35 OP:jfem STATUS:               ID:20110322123718 L   I
 2011-03-22-1233-12S.COL___133                                                 6
 STAT SP IPHASW D HRMM SECON CODA AMPLIT PERI AZIMU VELO SNR AR TRES W  DIS CAZ7
 BAR2 SZ IP       1237 37.24                             170     0.010   23 188 
 BAR2 SZ ES   1   1237 51.65                             170    -0.2 7   23 188 
 BAR2 SZ I        1237 53.38        77.9 0.30                            23 188 
 OCA  SZ EP   1   1237 46.46                             128     0.1 7  161 354 
 OCA  SZ ES   1   1238  7.76                             128    -0.2 7  161 354 
 OCA  SZ I        1238 10.86        58.6 0.20                           161 354 
 YOP  SZ EP   1   1237 48.06                             124     0.0 7  179 153 
 YOP  SZ I        1237 49.45        20.2 0.35                           179 153 
 YOP  SN ES   1   1238 11.88                             124     0.8 7  179 153 
 NOR  SZ EP   1   1237 53.71                             117    -0.1 6  234 235 
 NOR  SN ES   2   1238 20.89                             117    -0.3 4  234 235 
 CHI  HZ EP   1   1237 55.59                             115    -0.2 6  248 195 
 CHI  HE ES   1   1238 24.78                             115     0.0 6  248 195 
 CHI  HZ I        1238 32.13        18.7 0.59                           248 195 
 HEL  HZ EP   1   1237 58.52                             113     0.2 6  271 256 
 HEL  HN ES       1238 29.50                             113     0.3 8  271 256 
 HEL  HZ I        1238 36.40        20.7 0.50                           271 256 
 GUY  SZ EP   1   1238  2.49                             111     0.8 5  300 235 
 GUY  SZ I        1238 42.91        31.3 0.41                           300 235 
 VIL  SZ EP       1238  1.24                             110    -0.3 7  303 191 
 VIL  SN ES   1   1238 34.14                             110    -1.0 5  303 191 
 VIL  SZ I        1238 45.09        15.4 0.42                           303 191 
 RREF HZ EP       1238  4.33                             109     0.1 7  321 229 
 RREF HZ I        1238 51.34        17.0 0.29                           321 229 
 DBB  SZ EP   1   1238  5.51                             108    -0.1 5  338 274 
 DBB  SZ I        1238 51.06         4.0 0.56                           338 274 
 PRA  HZ EP   1   1238 11.42                             105    -0.3 4  391 209 
 PRA  HN ES   1   1238 53.41                             105     0.2 4  391 209 
                                                                                
