 2013  122 1312 49.7 L   6.786 -73.137146.4  RSN  5 0.3 1.3LRSN                1
 GAP=138        0.61       5.0     4.9  8.0 -0.1075E+01  0.1460E+02  0.4625E+01E
 Epicentro: LOS SANTOS - SANTANDER                                             3
 ACTION:UPD 13-02-15 09:16 OP:ep   STATUS:               ID:20130122131249 L   I
 2013-01-22-1310-00M.COL___241                                                 6
 STAT SP IPHASW D HRMM SECON CODA AMPLIT PERI AZIMU VELO AIN AR TRES W  DIS CAZ7
 BAR2 SZ EP   1   1313  9.56                             171    0.20 7 22.1 193 
 BAR2 SZ I        1313 23.02         4.7 0.48            164           22.1 193 
 BAR2 SZ ES   1   1313 24.57                             171   -0.14 7 22.1 193 
 BRR  HN ES   1   1313 28.11                             152    0.51 7 72.8 299 
 PAM  SN ES   1   1313 29.11                             151   -0.29 7 77.9  38 
 RUS  HN ES   1   1313 31.98                             144    0.11 7 99.0 177 
 PTB  HZ EP   1   1313 16.75                             132   -0.01 7  148 259 
 PTB  HN ES   1   1313 37.45                             132   -0.43 7  148 259 
 PTB  HZ I        1313 40.54         1.9 0.16            122            148 259 
                                                                                
