 2014  522 1314 25.6 L   6.849 -73.191138.0  RSN  4 0.4 1.9LRSN                1
 GAP=198        0.91       5.5     6.9 10.8  0.6370E+01  0.1683E+02 -0.3236E+02E
 Epicentro: ZAPATOCA - SANTANDER                                               3
 ACTION:UPD 15-03-16 16:59 OP:nd   STATUS:               ID:20140522131425 L   I
 OLDACT:UP  14-05-22 23:28 OP:cam  STATUS:               ID:20140522130815     3
 OLDACT:REG 14-05-22 22:09 OP:cam  STATUS:               ID:20140522130815     3
 2014-05-22-1308-15M.COL___243                                                 6
 STAT SP IPHASW D HRMM SECON CODA AMPLIT PERI AZIMU VELO AIN AR TRES W  DIS CAZ7
 BAR2 SZ EP       1314 44.37                             168   -0.0410 28.4 178 
 BAR2 SZ ES       1314 59.51                             168    0.4310 28.4 178 
 BAR2 SZ I        1315  0.33        17.4 0.20            173           28.4 178 
 RUS  HE ES       1315  6.86                             141   -0.4510  106 174 
 PTB  HZ EP   1   1314 52.41                             131    0.82 7  144 256 
 PTB  HN ES       1315 11.65                             131   -0.22 9  144 256 
 SML  HZ EP   1   1315  1.12                             117    0.09 6  237 336 
 SML  HE ES       1315 28.36                             117   -0.31 8  237 336 
 SML  HZ I        1315 34.39         5.5 0.10            117            237 336 
                                                                                
