 2012  522 2229 29.7 L   6.797 -73.167138.4  RSN  6 0.4 1.7LRSN                1
 GAP=134        0.71       5.7     6.3  7.7 -0.1530E+02  0.1926E+02 -0.2635E+01E
 Epicentro: LOS SANTOS - SANTANDER                                             3
 ACTION:UP  12-07-05 12:07 OP:pat  STATUS:               ID:20120522222929 L   I
 2012-05-22-2227-39M.COL___188                                                 6
 STAT SP IPHASW D HRMM SECON CODA AMPLIT PERI AZIMU VELO SNR AR TRES W  DIS CAZ7
 BAR2 SZ IP       2229 48.60                             170     0.210   23 184 
 BAR2 SZ I        2229 48.92        15.8 0.09            170             23 184 
 BAR2 SZ ES   1   2230  2.85                             170    -0.2 7   23 184 
 PAM  SZ EP       2229 51.46                             149     0.310   79  41 
 PAM  SN ES   1   2230  7.93                             149    -0.1 7   79  41 
 RUS  HZ EP       2229 52.47                             142    -0.210  100 175 
 RUS  HN ES   2   2230 10.89                             142     0.2 5  100 175 
 RUS  HZ I        2230 11.77         5.2 0.24                           100 175 
 PTB  HZ EP       2229 55.51                             131    -0.3 9  145 259 
 PTB  HN ES   3   2230 15.32                             131    -0.9 2  145 259 
 PTB  HZ I        2230 22.23         4.2 0.14                           145 259 
 ZAR  HN ES   3   2230 26.43                             121     0.2 2  202 292 
 ZAR  HZ I        2230 32.36        13.5 0.28                           202 292 
 NOR  SE ES   2   2230 33.06                             117     0.9 4  233 234 
                                                                                
