 2017  422 2113  4.2 L   5.980 -73.820106.3  RSN  9 0.4 1.6LRSN                1
 GAP= 66        1.10       2.7     3.2  9.0 -0.8569E+00  0.1249E+01  0.6878E+01E
 Epicentro: BOLIVAR - SANTANDER                                                3
 ACTION:UPD 17-05-30 21:15 OP:jn   STATUS:               ID:20170422211304 L   I
 OLDACT:UP  17-04-23 06:28 OP:edw  STATUS:               ID:20170422210739     3
 OLDACT:UP  17-04-23 06:27 OP:edw  STATUS:               ID:20170422210739     3
 OLDACT:UP  17-04-23 06:26 OP:edw  STATUS:               ID:20170422210739     3
 OLDACT:REG 17-04-23 05:49 OP:edw  STATUS:               ID:20170422210739     3
 2017-04-22-2108-00M.COL___365                                                 6
 STAT SP IPHASW D HRMM SECON CODA AMPLIT PERI AZIMU VELO AIN AR TRES W  DIS CAZ7
 PTB  HZ EP     C 2113 22.56                             135   -0.5010 93.7 311 
 PTB  HN ES       2113 37.23                             135   -0.5510 93.7 311 
 PTB  HZ I        2113 40.46         4.4 0.24            141           93.7 311 
 BAR2 EZ EP     C 2113 24.00                             134    0.2910 97.7  46 
 BAR2 EZ ES       2113 39.75                             134    0.8110 97.7  46 
 NOR  HZ EP       2113 26.69                             126    0.6810  125 248 
 NOR  HN ES       2113 43.40                             126    0.3710  125 248 
 NOR  HZ I        2113 45.80         8.9 0.26            133            125 248 
 BRR  HZ EP       2113 25.97                             126    0.0210  125   5 
 BRR  HN ES       2113 42.87                             126   -0.0610  125   5 
 BRR  HZ I        2113 56.47        16.0 0.36            132            125   5 
 CHI  HZ EP       2113 28.73                             121   -0.26 9  150 176 
 CHI  HN ES       2113 47.67                             121   -0.67 9  150 176 
 CHI  HZ I        2113 52.18         4.6 0.20            128            150 176 
 YPLC HZ EP   4   2113 29.57                             117   -1.37 0  172 112 
 YPLC HN ES       2113 51.75                             117   -0.06 9  172 112 
 YPLC HZ I        2113 53.83         9.5 0.28            123            172 112 
 PAM  EZ EP   4   2113 31.97                             114   -2.00 0  195  39 
 PAM  EN ES       2113 56.72                             114   -0.49 9  195  39 
 PAM  EZ I        2114  0.17         4.5 0.26            119            195  39 
 ZAR  HZ EP       2113 34.36                             112    0.09 9  203 326 
 ZAR  HE ES       2113 57.67                             112   -0.06 9  203 326 
 ZAR  HZ I        2114  0.48         5.6 0.22            118            203 326 
 PRA  HZ EP       2113 42.84                             105   -0.07 7  277 205 
 PRA  HN ES       2114 13.54                             105    0.42 7  277 205 
 PRA  HZ I        2114 15.40         2.6 0.36            110            277 205 
                                                                                
