 2017  822 2211 51.8 L   6.610 -73.549101.4  RSN  5 0.3 1.3LRSN                1
 GAP=111        0.81       3.9     4.3  8.6  0.8142E+01  0.2127E+02  0.1384E+02E
 Epicentro: EL CARMEN - SANTANDER                                              3
 ACTION:UPD 17-09-04 20:23 OP:rebc STATUS:               ID:20170822221151 L   I
 OLDACT:REG 17-08-23 03:33 OP:dnl  STATUS:               ID:20170822220736     3
 2017-08-22-2208-00M.COL___414                                                 6
 STAT SP IPHASW D HRMM SECON CODA AMPLIT PERI AZIMU VELO AIN AR TRES W  DIS CAZ7
 BAR2 EZ EP       2212  6.93                             157    0.1210 40.6  93 
 BAR2 EZ ES       2212 18.48                             157   -0.0310 40.6  93 
 BRR  HZ EP       2212  7.51                             148    0.0610 57.9 342 
 BRR  HN ES       2212 19.32                             148   -0.3310 57.9 342 
 BRR  HZ I        2212 27.61        12.4 0.30            152           57.9 342 
 RUS  HZ EP       2212 10.53                             134   -0.4610 94.6 147 
 RUS  HN ES       2212 26.40                             134    0.4510 94.6 147 
 RUS  HZ I        2212 27.81         3.1 0.28            144           94.6 147 
 ZAR  HZ EP   4   2212 19.68                             115    1.19 0  174 304 
 ZAR  HE ES       2212 39.72                             115    0.43 9  174 304 
 ZAR  HZ I        2212 42.55         2.8 0.20            121            174 304 
 NOR  HE ES       2212 41.56                             113   -0.20 9  186 232 
 NOR  HZ I        2212 44.67         2.7 0.30            119            186 232 
                                                                                
