 2011  222 2147 19.8 L   6.879 -73.660132.5  RSN  5 0.2 1.5LRSN                1
 GAP=192        0.50       3.3    13.2  8.7 -0.2125E+02  0.8202E+02 -0.5253E+01E
 Epicentro: SAN VICENTE DE CHUCURI - SANTANDER                                 3
 *RUS-BTL-GRA                                                                  3
 ACTION:UP  11-03-28 15:10 OP:jfem STATUS:               ID:20110222214719 L   I
 2011-02-22-2141-29S.COL___137                                                 6
 STAT SP IPHASW D HRMM SECON CODA AMPLIT PERI AZIMU VELO SNR AR TRES W  DIS CAZ7
 BAR2 SZ EP   1   2147 39.47                             154     0.210   62 121 
 BAR2 SZ ES   1   2147 54.60                             154     0.110   62 121 
 BAR2 SZ I        2147 56.37         5.7 0.39                            62 121 
 RUS  HZ EP   2   2147 44.16                             134    -0.2 6  126 150 
 RUS  HZ I        2148  2.88         2.9 0.28                           126 150 
 GRA  SZ EP   1   2147 46.07                             129     0.3 9  146  40 
 GRA  SZ ES   1   2148  5.72                             129    -0.2 9  146  40 
 GRA  SZ I        2148  7.35         4.9 0.33                           146  40 
 OCA  SZ ES   1   2148  7.44                             127    -0.1 9  155  14 
 OCA  SZ I        2148 15.93        10.8 0.44                           155  14 
 CHI  HZ EP       2147 56.70                             114    -0.110  249 182 
                                                                                
