 2016 1022 2125 48.9 L   6.128 -73.672111.3  RSN  5 0.3 1.3LRSN                1
 GAP=164        0.63       3.7     3.3  6.4 -0.5699E+01  0.6445E+01  0.3460E+01E
 Epicentro: CHIPATA - SANTANDER                                                3
 ACTION:UPD 16-11-09 19:21 OP:rebc STATUS:               ID:20161022212548 L   I
 OLDACT:REG 16-10-23 03:54 OP:dnl  STATUS:               ID:20161022211749     3
 2016-10-22-2118-00M.COL___353                                                 6
 STAT SP IPHASW D HRMM SECON CODA AMPLIT PERI AZIMU VELO AIN AR TRES W  DIS CAZ7
 SPBC HZ EP   2   2126  5.77                             146   -0.65 5 68.8 220 
 SPBC HE ES       2126 19.88                             146   -0.2010 68.8 220 
 SPBC HZ I        2126 21.78         6.9 0.28            144           68.8 220 
 RUS  HZ EP       2126  6.93                             146   -0.1610 70.2 112 
 RUS  HN ES       2126 21.03                             146   -0.2310 70.2 112 
 RUS  HZ I        2126 24.38         3.5 0.68            142           70.2 112 
 BAR2 EZ EP   2   2126  7.26                             144    0.22 5 74.6  47 
 BAR2 EZ ES       2126 21.49                             144    0.3110 74.6  47 
 CHI  HZ EP   2   2126 15.51                             119   -0.21 5  166 182 
 CHI  HE ES       2126 37.04                             119    0.41 9  166 182 
 CHI  HZ I        2126 42.47         2.5 0.30            118            166 182 
 GUY2CHZ EP   2   2126 20.72                             113   -0.19 4  212 242 
 GUY2CHN ES       2126 46.05                             113    0.17 8  212 242 
 GUY2CHZ I        2126 53.60         2.6 0.60                           212 242 
                                                                                
