 2011  922 2042 13.0 L   6.760 -73.117151.0  RSN  9 0.3 1.9LRSN                1
 GAP=142        0.39       2.3     3.3  4.3 -0.1503E+01  0.3878E+01  0.1105E+01E
 Epicentro: LOS SANTOS - SANTANDER                                             3
 ACTION:UPD 12-07-13 15:59 OP:ep   STATUS:               ID:20110922204213 L   I
 2011-09-22-2041-05S.COL___165                                                 6
 STAT SP IPHASW D HRMM SECON CODA AMPLIT PERI AZIMU VELO AIN AR TRES W  DIS CAZ7
 BAR2 SZ EP   2   2042 33.20                             172    0.02 5 19.8 201 
 BAR2 SZ ES   2   2042 48.71                             172   -0.23 5 19.8 201 
 BRR  HZ EP   2   2042 34.84                             152   -0.14 5 76.1 300 
 BRR  HZ I        2042 39.80        24.5 0.31                          76.1 300 
 BRR  HE ES   2   2042 52.62                             152    0.49 5 76.1 300 
 PAM  SZ EP   1   2042 36.05                             151    0.20 7 79.0  36 
 PAM  SE ES   2   2042 53.43                             151   -0.26 5 79.0  36 
 RUS  HZ EP   2   2042 37.04                             146    0.11 5 95.9 178 
 RUS  HN ES   2   2042 55.75                             146    0.14 5 95.9 178 
 RUS  HZ I        2042 57.19         6.2 0.62                          95.9 178 
 OCA  SZ EP   2   2042 41.80                             130   -0.35 5  165 352 
 OCA  SZ ES   2   2043  5.01                             130    0.10 5  165 352 
 OCA  SZ I        2043  8.98        10.7 0.23                           165 352 
 ZAR  HZ EP   2   2042 45.95                             123   -0.29 4  209 293 
 ZAR  HN ES   2   2043 12.08                             123   -0.11 4  209 293 
 ZAR  HZ I        2043 18.64         9.3 0.42                           209 293 
 NOR  SZ EP   2   2042 49.02                             120    0.00 4  235 236 
 NOR  SN ES   2   2043 16.59                             120   -0.54 4  235 236 
 CHI  HZ EP   2   2042 50.71                             119    0.10 4  245 196 
 CHI  HE ES   2   2043 19.60                             119   -0.35 4  245 196 
 CHI  HZ I        2043 29.42         3.6 0.63                           245 196 
 RREF HZ EP   2   2042 59.73                             112    0.43 3  321 230 
 RREF HN ES   2   2043 35.96                             112    0.53 3  321 230 
 RREF HZ I        2043 44.80         5.5 0.38                           321 230 
                                                                                
