 2015  722 2321 21.5 L   6.816 -73.131143.9  RSN  6 0.2 1.7LRSN                1
 GAP=138        0.42       2.0     2.4  4.2  0.5043E-01  0.3078E+01 -0.2734E+01E
 Epicentro: LOS SANTOS - SANTANDER                                             3
 ACTION:UPD 15-09-08 21:50 OP:cam  STATUS:               ID:20150722232121 L   I
 OLDACT:REG 15-07-23 06:38 OP:spq  STATUS:               ID:20150722231748     3
 2015-07-22-2317-48M.COL___334                                                 6
 STAT SP IPHASW D HRMM SECON CODA AMPLIT PERI AZIMU VELO AIN AR TRES W  DIS CAZ7
 BAR2 EZ EP       2321 40.68                             170   -0.2810 25.4 193 
 BAR2 EZ ES   1   2321 56.05                             170   -0.07 7 25.4 193 
 BAR2 EZ I        2321 58.37         8.4 0.40            172           25.4 193 
 PAM  EZ EP       2321 43.56                             151    0.1810 75.0  39 
 RUS  HZ EP   1   2321 45.33                             143    0.13 7  102 177 
 RUS  HE ES       2322  3.72                             143    0.0510  102 177 
 RUS  HZ I        2322  5.24         6.8 0.42            151            102 177 
 ZAR  HN ES       2322 19.30                             122    0.10 9  205 292 
 ZAR  HZ I        2322 28.08         4.6 0.14            123            205 292 
 NOR  HZ EP       2321 57.46                             118    0.08 8  237 234 
 NOR  HE ES       2322 25.32                             118   -0.04 8  237 234 
 NOR  HZ I        2322 26.31         4.4 0.12            121            237 234 
 SML  HZ EP   1   2321 57.62                             117   -0.31 6  243 335 
 SML  HN ES   1   2322 26.44                             117    0.10 6  243 335 
 SML  HZ I        2322 34.64         4.3 0.22            119            243 335 
                                                                                
