 2010  522 2137 12.6 L   6.700 -72.862139.1  RSN  6 0.2 1.8LRSN                1
 GAP=199        0.44       5.2    10.7  5.8 -0.4504E+02 -0.7193E+00  0.5173E+01E
 Epicentro: MOLAGAVITA - SANTANDER                                             3
 ACTION:UP  10-08-24 10:06 OP:vdl  STATUS:               ID:20100522213712 L   I
 2010-05-22-2132-28S.COL___111                                                 6
 STAT SP IPHASW D HRMM SECON CODA AMPLIT PERI AZIMU VELO SNR AR TRES W  DIS CAZ7
 BAR2 SZ IP       2137 31.74                             164    -0.110   38 251 
 BAR2 SZ ES   2   2137 46.87                             164     0.0 5   38 251 
 BRI  SZ EP   1   2137 36.65                             139     0.4 7  113   4 
 GUE  SZ EP   1   2137 37.24                             136    -0.2 7  125 357 
 CHI  HZ EP   1   2137 49.77                             116    -0.2 6  248 203 
 CHI  HN ES   2   2138 19.30                             116     0.3 4  248 203 
 CHI  HZ I        2138 29.69         2.6 0.44                           248 203 
 RREF BZ EP   1   2138  0.48                             108    -0.1 5  340 234 
 RREF BN ES   2   2138 37.92                             108     0.0 3  340 234 
 RREF BZ I        2138 43.37         3.6 0.34                           340 234 
 PRA  HZ EP   1   2138  6.73                             105     0.0 4  399 214 
 PRA  HN ES   2   2138 49.39                             105     0.4 3  399 214 
                                                                                
