 2016  322 2003 27.7 L   6.787 -73.155144.6  RSN  6 0.2 2.0LRSN                1
 GAP=136        0.55       2.5     2.5  4.0 -0.8217E+00  0.3708E+01 -0.1130E+01E
 Epicentro: LOS SANTOS - SANTANDER                                             3
 ACTION:UPD 16-05-13 21:26 OP:cam  STATUS:               ID:20160322200327 L   I
 OLDACT:DUP 16-03-23 05:05 OP:cara STATUS:               ID:20160322195747d    3
 2016-03-22-1957-46M.COL___308                                                 6
 STAT SP IPHASW D HRMM SECON CODA AMPLIT PERI AZIMU VELO AIN AR TRES W  DIS CAZ7
 BAR2 EZ IP       20 3 47.25                             171    0.1210 21.8 188 
 BAR2 EZ ES       20 4  2.27                             171   -0.0410 21.8 188 
 BAR2 EZ I        20 4  4.75        18.1 0.28            170           21.8 188 
 PAM  EZ EP       20 3 49.90                             150    0.0310 79.2  39 
 PAM  EZ I        20 3 50.14        35.5 0.22            154           79.2  39 
 PAM  EN ES       20 4  7.03                             150   -0.1510 79.2  39 
 RUS  HZ EP       20 3 51.49                             144    0.2810 99.2 175 
 RUS  HE ES       20 4  9.62                             144    0.0510 99.2 175 
 RUS  HZ I        20 4 10.32         7.7 0.30            148           99.2 175 
 PTB  HZ EP       20 3 54.16                             132   -0.26 9  146 259 
 PTB  HN ES       20 4 15.07                             132   -0.22 9  146 259 
 PTB  HZ I        20 4 22.25         7.6 0.60            132            146 259 
 SPBC HZ EP       20 3 55.54                             129   -0.37 9  161 219 
 SPBC HN ES       20 4 18.08                             129    0.14 9  161 219 
 SPBC HZ I        20 4 20.87        17.5 0.34            131            161 219 
 ZAR  HZ EP       20 4  0.08                             122    0.09 9  204 293 
 ZAR  HE ES       20 4 25.55                             122    0.35 9  204 293 
 ZAR  HZ I        20 4 31.57         9.5 0.38            123            204 293 
                                                                                
