 2011  122 2206  2.7 L   6.808 -73.120138.6  RSN  6 0.4 2.0LRSN                1
 GAP=161        0.65       4.7     8.5  8.4 -0.1920E+02  0.3405E+02 -0.5517E+01E
 Epicentro: LOS SANTOS - SANTANDER                                             3
 ACTION:UP  11-02-08 08:42 OP:pat  STATUS:               ID:20110122220602 L   I
 2011-01-22-2203-47S.COL___137                                                 6
 STAT SP IPHASW D HRMM SECON CODA AMPLIT PERI AZIMU VELO SNR AR TRES W  DIS CAZ7
 BAR2 SZ EP   1   22 6 21.65                             169     0.1 7   25 196 
 BAR2 SZ ES   2   22 6 36.52                             169     0.3 5   25 196 
 BAR2 SZ I        22 6 39.64        29.5 0.52                            25 196 
 RUS  HZ EP   1   22 6 25.71                             142    -0.1 7  101 178 
 RUS  HN ES   2   22 6 43.67                             142    -0.2 5  101 178 
 RUS  HZ I        22 6 46.27        20.5 0.29                           101 178 
 GRA  SZ EP   1   22 6 27.29                             136     0.1 7  124  16 
 GRA  SZ ES   2   22 6 45.83                             136    -0.4 5  124  16 
 GRA  SZ I        22 6 47.60        10.7 0.42                           124  16 
 NOR  SZ EP   1   22 6 37.99                             117    -0.4 6  238 235 
 NOR  SN ES   2   22 7  5.53                             117    -0.6 4  238 235 
 CHI  HZ EP   1   22 6 40.10                             115    -0.1 6  250 196 
 CHI  HZ I        22 6 41.58         5.2 0.53                           250 196 
 CHI  HN ES   2   22 7  9.91                             115     0.5 4  250 196 
 HEL  HZ EP   1   22 6 43.58                             113     0.7 6  275 256 
 HEL  HZ I        22 7 20.26         8.5 0.41                           275 256 
                                                                                
