 2015  122 2245 21.5 L   6.818 -73.186132.6  RSN  6 0.4 1.6LRSN                1
 GAP=131        0.93       4.4     3.9  7.1  0.1370E+01  0.5950E+01 -0.1537E-01E
 Epicentro: ZAPATOCA - SANTANDER                                               3
 ACTION:UPD 15-03-02 15:41 OP:nd   STATUS:               ID:20150122224521 L   I
 OLDACT:DUP 15-01-23 05:00 OP:mh   STATUS:               ID:20150122223745d    3
 2015-01-22-2237-44M.COL___262                                                 6
 STAT SP IPHASW D HRMM SECON CODA AMPLIT PERI AZIMU VELO AIN AR TRES W  DIS CAZ7
 BAR2 EZ ES       2245 53.68                             169   -0.0210 25.0 179 
 BAR2 EZ I    1   2245 56.00         7.5 0.19            169           25.0 179 
 BRR  HZ EP       2245 41.58                             152    0.6110 66.4 299 
 BRR  HN ES       2245 56.64                             152    0.5010 66.4 299 
 BRR  HZ I        2246 21.29        16.0 0.38            147           66.4 299 
 PAM  SZ EP       2245 42.53                             148    0.0910 78.8  43 
 PAM  SN ES       2245 58.23                             148   -0.5210 78.8  43 
 PAM  SZ I        2246  1.27         9.4 0.44            154           78.8  43 
 RUS  HZ EP       2245 44.21                             140    0.0310  103 174 
 RUS  HN ES       2246  1.88                             140    0.0310  103 174 
 RUS  HZ I        2246  3.18         5.3 0.30            153            103 174 
 PTB  HZ EP   1   2245 46.66                             130   -0.41 7  144 258 
 PTB  HN ES       2246  6.61                             130   -0.39 9  144 258 
 PTB  HZ I        2246 13.92         3.0 0.28            133            144 258 
 ZAR  HN ES       2246 16.65                             120   -0.24 9  199 292 
 ZAR  HZ I        2246 26.28         3.3 0.10            124            199 292 
                                                                                
