 2010  822 2017 32.4 L   6.275 -73.565113.2  RSN 12 0.4 2.1LRSN                1
 GAP= 82        0.77       2.7     5.2  6.7 -0.4371E+01  0.1620E+02 -0.1152E+01E
 Epicentro: EL GUACAMAYO - SANTANDER                                           3
 ACTION:UP  10-09-07 10:57 OP:vdl  STATUS:               ID:20100822201732 L   I
 2010-08-22-2015-39S.COL___120                                                 6
 STAT SP IPHASW D HRMM SECON CODA AMPLIT PERI AZIMU VELO SNR AR TRES W  DIS CAZ7
 BAR2 SZ IP       2017 49.78                             153     0.310   55  50 
 BAR2 SZ I        2017 50.07        62.7 0.26                            55  50 
 BAR2 SZ ES   2   2018  2.67                             153    -0.1 5   55  50 
 RUS  HZ EP       2017 50.66                             148     0.010   68 128 
 RUS  HN ES   1   2018  4.95                                     0.1 7   68 128 
 RUS  HZ I        2018  6.99        15.6 0.26                            68 128 
 BRR  HZ EP       2017 51.61                             138    -0.310   94 350 
 BRR  HZ I        2018  0.64        38.3 0.04                            94 350 
 BRR  HN ES   1   2018  6.76                                    -0.3 7   94 350 
 GIR2 SZ EP       2017 52.64                             137     0.210   98  25 
 ROSC BZ EP   3   2018  0.87                             118     0.1 2  179 208 
 ROSC BN ES   3   2018 22.84                             118     0.0 2  179 208 
 ROSC BZ I        2018 30.95         5.7 0.43                           179 208 
 CHI  HZ EP       2018  0.94                             118    -0.2 9  183 186 
 CHI  HZ I        2018  2.93         7.5 0.21                           183 186 
 CHI  HE ES   3   2018 23.63                                     0.0 2  183 186 
 GUE  SZ EP       2018  1.10                             117    -0.3 9  186  22 
 GUE  SZ ES   1   2018 23.43                             117    -0.6 7  186  22 
 GRA  SZ EP       2018  2.49                             116     0.1 9  197  25 
 GRA  SZ ES   1   2018 26.42                             116     0.7 6  197  25 
 GRA  SZ I        2018 28.53        29.3 0.27                           197  25 
 HEL  HZ EP       2018  5.29                             113     0.3 8  218 268 
 HEL  HZ I        2018 32.34         5.1 0.34                           218 268 
 OCA  SZ EP   2   2018  5.20                             113     0.4 4  219   7 
 OCA  SZ ES   2   2018 29.92                             113    -0.2 4  219   7 
 OCA  SZ I        2018 31.84        24.5 0.91                           219   7 
 GUY  SZ EP   2   2018  7.18                             112     0.6 4  231 240 
 PRA  HZ EP   1   2018 15.36                             104    -0.9 5  319 207 
 PRA  HE ES   2   2018 51.14                             104     0.6 3  319 207 
 PRA  HZ I        2018 57.55         7.4 0.70                           319 207 
                                                                                
