 2017  522 2025 20.1 L   6.794 -73.185150.8  RSN  5 0.3 1.8LRSN                1
 GAP=132        0.84       4.1     4.3  6.8 -0.4840E+01  0.1749E+01  0.4834E+01E
 Epicentro: ZAPATOCA - SANTANDER                                               3
 ACTION:UPD 17-06-16 13:38 OP:jn   STATUS:               ID:20170522202520 L   I
 OLDACT:DUP 17-05-23 04:18 OP:cog  STATUS:               ID:20170522201737d    3
 2017-05-22-2018-00M.COL___353                                                 6
 STAT SP IPHASW D HRMM SECON CODA AMPLIT PERI AZIMU VELO AIN AR TRES W  DIS CAZ7
 BRR  HZ EP       2025 42.08                             154    0.4210 67.8 301 
 BRR  HN ES       2025 58.81                             154    0.3710 67.8 301 
 BRR  HZ I        2026  5.18        14.5 0.14            153           67.8 301 
 PAM  EZ EP       2025 43.06                             151   -0.0310 80.7  42 
 PAM  HE ES       2026  0.68                             151   -0.3110 80.7  42 
 PAM  EZ I        2026  2.47        16.9 0.24            155           80.7  42 
 RUS  HZ EP       2025 44.26                             145   -0.1110  100 174 
 RUS  HN ES       2026  3.39                             145    0.1210  100 174 
 RUS  HZ I        2026  4.65         3.8 0.16            150            100 174 
 PTB  HZ EP       2025 46.64                             134   -0.50 9  143 259 
 PTB  HN ES       2026  7.89                             134   -0.31 9  143 259 
 PTB  HZ I        2026 13.70         8.1 0.20            135            143 259 
 SPBC HZ EP       2025 49.21                             131    0.47 9  160 218 
 SPBC HE ES       2026 10.87                             131   -0.17 9  160 218 
                                                                                
