 2012  222 2346 55.8 L   6.811 -73.140151.8  RSN  6 0.5 1.4LRSN                1
 GAP=137        0.90       6.0     6.9  9.5  0.4985E+01  0.1519E+02  0.1344E+02E
 ACTION:UP  12-03-07 16:33 OP:epov STATUS:               ID:20120222234655 L   I
 2012-02-22-2340-00M.COL___191                                                 6
 STAT SP IPHASW D HRMM SECON CODA AMPLIT PERI AZIMU VELO AIN AR TRES W  DIS CAZ7
 GIR2 SZ EP   2   2347 15.27                             168   -0.90 5 30.2 349 
 BRR  HZ EP   1   2347 18.03                             153    0.42 8 71.2 297 
 BRR  HE ES   1   2347 35.37                             153    0.76 8 71.2 297 
 BRR  HZ I        2347 38.18        11.3 0.12                          71.2 297 
 PAM  SN ES   1   2347 36.07                             152   -0.30 8 76.1  40 
 RUS  HZ EP   1   2347 20.22                             145   -0.02 7  102 176 
 RUS  HN ES       2347 39.29                             145    0.0010  102 176 
 RUS  HZ I        2347 40.30         1.7 0.20                           102 176 
 PTB  HZ EP   1   2347 23.21                             133   -0.14 7  149 258 
 PTB  HN ES   1   2347 44.11                             133   -0.72 7  149 258 
 CHI  HZ EP   1   2347 34.45                             118    0.46 6  250 195 
 CHI  HZ I        2348  4.32         1.3 0.39                           250 195 
                                                                                
