 2012  822 2320 38.2 L   6.731 -73.133146.7  RSN  5 0.3 1.6LRSN                1
 GAP=141        0.62       4.4     4.6  7.4  0.3573E+01  0.9113E+01  0.3892E+01E
 Epicentro: JORDAN - SANTANDER                                                 3
 ACTION:UPD 12-09-10 11:57 OP:ep   STATUS:               ID:20120822232038 L   I
 2012-08-22-2320-00M.COL___217                                                 6
 STAT SP IPHASW D HRMM SECON CODA AMPLIT PERI AZIMU VELO AIN AR TRES W  DIS CAZ7
 BRR  HZ EP   1   2321  0.30                             151    0.51 7 76.4 303 
 BRR  HZ I        2321 15.53        14.6 0.36                          76.4 303 
 BRR  HN ES   1   2321 16.72                             151    0.13 7 76.4 303 
 PAM  SZ EP   1   2321  1.12                             149    0.25 7 82.6  35 
 PAM  SZ I        2321  1.56         5.5 0.29                          82.6  35 
 PAM  SE ES   1   2321 18.16                             149   -0.36 7 82.6  35 
 RUS  HZ EP   1   2321  1.38                             146   -0.16 7 92.8 177 
 RUS  HZ I        2321  3.03         3.1 0.18                          92.8 177 
 RUS  HE ES   1   2321 19.82                             146    0.10 7 92.8 177 
 PTB  HZ EP   1   2321  4.86                             132   -0.44 7  148 262 
 PTB  HZ I        2321 26.99         3.1 0.17                           148 262 
 ZAR  HE ES   1   2321 36.78                             122   -0.11 6  208 294 
 ZAR  HZ I        2321 42.22         5.2 0.40                           208 294 
                                                                                
