 2011 1222 2128  3.1 L   6.750 -73.154149.4  RSN  5 0.3 1.6LRSN                1
 GAP=182        0.49       5.7     6.3  5.6  0.1278E+02  0.1043E+02  0.5287E+01E
 Epicentro: LOS SANTOS - SANTANDER                                             3
 ACTION:UPD 12-07-13 16:17 OP:ep   STATUS:               ID:20111222212803 L   I
 2011-12-22-2120-00M.COL___188                                                 6
 STAT SP IPHASW D HRMM SECON CODA AMPLIT PERI AZIMU VELO AIN AR TRES W  DIS CAZ7
 BAR2 SZ ES   1   2128 38.48                             173   -0.11 7 17.7 190 
 GIR2 SZ EP   2   2128 23.39                             165    0.08 5 36.6 353 
 GIR2 SZ ES   2   2128 38.73                             165   -0.37 5 36.6 353 
 BRR  HZ EP   1   2128 24.93                             152    0.22 7 73.3 303 
 BRR  HZ I        2128 25.22        12.2 0.16                          73.3 303 
 BRR  HE ES   1   2128 41.75                             152    0.15 7 73.3 303 
 RUS  HZ EP   2   2128 26.27                             146   -0.51 5 95.1 175 
 RUS  HZ I        2128 44.99         3.4 0.52                          95.1 175 
 RUS  HN ES   2   2128 45.82                             146    0.53 5 95.1 175 
 PTB  HZ EP   1   2128 30.14                             133   -0.02 7  146 261 
 PTB  HN ES   2   2128 50.97                             133   -0.32 5  146 261 
                                                                                
