 2016  522 2158 52.3 L   6.801 -73.191149.1  RSN  4 0.3 1.5LRSN                1
 GAP=131        0.76       4.7     4.2  7.2 -0.4426E+01  0.5323E+01 -0.1190E+01E
 Epicentro: ZAPATOCA - SANTANDER                                               3
 ACTION:UPD 16-08-18 17:48 OP:cam  STATUS:               ID:20160522215852 L   I
 OLDACT:REG 16-05-23 02:59 OP:edw  STATUS:               ID:20160522214741     3
 2016-05-22-2147-41M.COL___304                                                 6
 STAT SP IPHASW D HRMM SECON CODA AMPLIT PERI AZIMU VELO AIN AR TRES W  DIS CAZ7
 BRR  HZ EP       2159 13.90                             155    0.3010 66.7 301 
 BRR  HN ES       2159 30.56                             155    0.3710 66.7 301 
 BRR  HZ I        2159 34.71         7.0 0.38            153           66.7 301 
 PAM  EZ EP       2159 14.93                             150   -0.1710 80.6  42 
 PAM  EE ES       2159 32.61                             150   -0.2410 80.6  42 
 RUS  HE ES       2159 35.36                             144    0.0910  101 173 
 PTB  HZ EP       2159 19.24                             134    0.10 9  143 258 
 PTB  HE ES       2159 39.54                             134   -0.50 9  143 258 
 PTB  HZ I        2159 43.76         3.5 0.16            134            143 258 
                                                                                
