 2013 1022 2123 22.8 L   6.804 -73.135148.2  RSN 17 0.4 2.4LRSN                1
 GAP= 71        0.93       2.4     2.9  4.6 -0.9300E+00  0.3405E+01  0.4084E+00E
 Epicentro: LOS SANTOS - SANTANDER                                             3
 ACTION:UPD 13-11-25 09:23 OP:ep   STATUS:               ID:20131022212322 L   I
 OLDACT:UP  13-10-22 22:18 OP:mh   STATUS:               ID:20131022211848     3
 OLDACT:UP  13-10-22 22:15 OP:mh   STATUS:               ID:20131022211848     3
 OLDACT:UP  13-10-22 22:12 OP:mh   STATUS:               ID:20131022211848     3
 OLDACT:UP  13-10-22 22:12 OP:mh   STATUS:               ID:20131022211848     3
 OLDACT:REG 13-10-22 21:42 OP:y    STATUS:               ID:20131022211848     3
 2013-10-22-2118-48M.COL___230                                                 6
 STAT SP IPHASW D HRMM SECON CODA AMPLIT PERI AZIMU VELO AIN AR TRES W  DIS CAZ7
 BAR2 SZ EP       2123 42.88                             171    0.1510 24.0 193 
 BAR2 SZ ES   1   2123 57.90                             171   -0.38 7 24.0 193 
 BAR2 SZ I        2124  1.68        76.8 0.40            169           24.0 193 
 BRR  HZ EP   1   2123 44.89                             153    0.63 7 72.0 298 
 BRR  HN ES       2124  1.78                             153    0.7910 72.0 298 
 BRR  HZ I        2124  4.87        39.9 0.15            150           72.0 298 
 PAM  SZ EP       2123 45.69                             152    0.4810 76.3  39 
 PAM  SN ES       2124  2.94                             152    0.2510 76.3  39 
 PAM  SZ I        2124  5.33        29.9 0.24            155           76.3  39 
 RUS  HZ EP   1   2123 46.74                             144   -0.07 7  101 177 
 RUS  HN ES       2124  4.94                             144   -0.6010  101 177 
 RUS  HZ I        2124  6.88        17.3 0.19            146            101 177 
 PTB  HZ EP       2123 49.46                             132   -0.62 9  149 259 
 PTB  HN ES       2124 10.73                             132   -0.62 9  149 259 
 PTB  HZ I        2124 16.97        45.9 0.35            132            149 259 
 TAM  HZ EP   1   2123 50.24                             131   -0.34 7  154 105 
 TAM  HN ES   1   2124 12.30                             131    0.06 7  154 105 
 SPBC HZ EP       2123 51.68                             129    0.10 9  164 219 
 SPBC HN ES       2124 14.09                             129    0.05 9  164 219 
 ZAR  HZ EP   1   2123 55.57                             123    0.07 6  205 292 
 ZAR  HN ES       2124 20.94                             123   -0.06 9  205 292 
 ZAR  HZ I        2124 28.09        32.5 0.21            123            205 292 
 NOR  HZ EP       2123 58.69                             119   -0.11 8  236 235 
 NOR  HN ES       2124 27.09                             119    0.22 8  236 235 
 NOR  HZ I        2124 31.81        31.2 0.27            119            236 235 
 SML  HZ EP       2123 59.28                             118   -0.29 8  244 335 
 SML  HN ES       2124 28.09                             118   -0.17 8  244 335 
 SML  HZ I        2124 32.69        60.8 0.06            119            244 335 
 CHI  HZ EP   1   2124  0.70                             118   -0.01 6  249 195 
 CHI  HN ES       2124 29.97                             118   -0.31 8  249 195 
 CHI  HZ I        2124 34.44        13.2 0.50            119            249 195 
 ROSC BZ EP   4   2124  3.05                             117    1.90 0  254 211 
 ROSC BN ES   4   2124 32.81                             117    1.74 0  254 211 
 HEL  HZ EP       2124  4.18                             115    0.91 8  273 256 
 HEL  HN ES   1   2124 34.83                             115   -0.01 6  273 256 
 HEL  HZ I        2124 42.01        16.7 0.33            116            273 256 
 GUY2CHZ EP   4   2124  7.12                             113    0.47 0  302 235 
 GUY2CHN ES   4   2124 42.49                             113    1.63 0  302 235 
 RREF HZ EP   4   2124 10.89                             111    1.71 0  323 229 
 RREF HN ES   4   2124 47.56                             111    2.21 0  323 229 
 CBOC HZ EP   1   2124 10.33                             110    0.37 5  335 252 
 CBOC HE ES   1   2124 45.98                             110   -0.76 5  335 252 
 CBOC HZ I        2124 54.29         4.0 0.30            111            335 252 
 COD  HZ EP   1   2124 11.08                             109   -0.16 5  348 354 
 COD  HN ES       2124 48.27                             109   -0.75 6  348 354 
 ANIL HZ EP   4   2124 13.96                             109    1.14 0  358 225 
 PRA  HZ EP       2124 16.24                             107   -0.27 6  393 210 
 PRA  HN ES       2124 59.16                             107    0.75 6  393 210 
 PRA  HZ I        2125  4.61        16.1 0.30            108            393 210 
 ORTC HZ EP   1   2124 17.05                             107    0.13 4  396 216 
 ORTC HN ES       2124 59.44                             107    0.30 6  396 216 
 ORTC HZ I        2125  5.85         8.7 0.36            108            396 216 
 SJC  HZ EP   4   2124 16.87                             106   -1.61 0  410 327 
 SJC  HN ES   4   2124 57.19                             106   -4.71 0  410 327 
 SJC  HZ I        2125 11.15         3.5 0.29            107            410 327 
                                                                                
