 2012  722 2035 59.4 L   6.676 -73.176144.3  RSN  5 0.2 1.6LRSN                1
 GAP=224        0.44       5.8     4.2  5.0  0.1005E+02  0.4528E+01  0.3149E+01E
 Epicentro: VILLANUEVA - SANTANDER                                             3
 ACTION:UPD 12-08-14 11:46 OP:ep   STATUS:               ID:20120722203559 L   I
 2012-07-22-2030-00M.COL___215                                                 6
 STAT SP IPHASW D HRMM SECON CODA AMPLIT PERI AZIMU VELO AIN AR TRES W  DIS CAZ7
 BAR2 SZ EP   2   2036 18.39                             176    -0.3 5    9 184 
 BAR2 SZ ES   1   2036 33.60                             176    -0.1 7    9 184 
 BAR2 SZ I        2036 35.64        17.8 0.19            154              9 184 
 BRR  HZ EP       2036 20.82                             151     0.110   76 309 
 BRR  HE ES   1   2036 37.45                             151     0.1 7   76 309 
 BRR  HZ I        2036 40.12        10.5 0.31            151             76 309 
 RUS  HZ EP   2   2036 22.15                             147     0.0 5   87 173 
 RUS  HZ I        2036 42.77         4.2 0.34            123             87 173 
 PTB  HZ EP   1   2036 25.87                             133     0.1 7  142 264 
 PTB  HN ES   1   2036 46.42                             133     0.1 7  142 264 
 PTB  HZ I        2036 49.51         3.4 0.17            120            142 264 
 ZAR  HN ES   1   2036 57.19                             122    -0.3 6  207 296 
 ZAR  HZ I        2037  3.13         4.3 0.33            111            207 296 
