 2011  522 2224  5.6 L   6.818 -73.212146.1  RSN  4 0.3 1.7LRSN                1
 GAP=128        0.64       6.5     9.5  9.3  0.6147E+01  0.3417E+01  0.7048E+01E
 Epicentro: ZAPATOCA - SANTANDER                                               3
 ACTION:UP  11-06-29 08:55 OP:tino STATUS:               ID:20110522222405 L   I
 2011-05-22-2220-14S.COL___139                                                 6
 STAT SP IPHASW D HRMM SECON CODA AMPLIT PERI AZIMU VELO SNR AR TRES W  DIS CAZ7
 BAR2 SZ EP   2   2224 25.15                             170    -0.2 5   25 172 
 BAR2 SZ ES   2   2224 41.33                             170     0.6 5   25 172 
 BAR2 SZ I        2224 42.10         9.6 0.33                            25 172 
 BRR  HZ EP   1   2224 26.81                             155     0.4 7   64 300 
 BRR  HE ES   2   2224 42.04                             155    -0.6 5   64 300 
 BRR  HZ I        2224 45.11        12.6 0.40                            64 300 
 PAM  SZ EP   2   2224 27.97                             150    -0.1 5   81  44 
 PAM  SN ES   2   2224 45.51                             150    -0.1 5   81  44 
 RUS  HZ EP   1   2224 29.46                             143    -0.2 7  103 172 
 RUS  HE ES   2   2224 48.13                             143    -0.2 5  103 172 
 RUS  HZ I        2224 49.72         6.0 0.61                           103 172 
                                                                                
