 2015  522 2330 44.0 L   6.757 -73.089139.9  RSN  4 0.5 1.4LRSN                1
 GAP=146        1.22       6.3     9.4 10.0 -0.1320E+01 -0.6622E+01  0.1856E+01E
 Epicentro: LOS SANTOS - SANTANDER                                             3
 ACTION:UPD 15-09-10 22:06 OP:cam  STATUS:               ID:20150522233044 L   I
 OLDACT:DUP 15-05-23 04:26 OP:drio STATUS:               ID:20150522232750d    3
 2015-05-22-2327-49M.COL___297                                                 6
 STAT SP IPHASW D HRMM SECON CODA AMPLIT PERI AZIMU VELO AIN AR TRES W  DIS CAZ7
 BAR2 EZ EP       2331  2.34                             171   -0.5610 20.9 209 
 BAR2 EZ ES       2331 16.82                             171   -0.8010 20.9 209 
 BAR2 EZ I        2331 18.97         8.8 0.30            170           20.9 209 
 PAM  SZ EP       2331  5.86                             150    0.2310 77.5  34 
 PAM  SE ES       2331 22.64                             150    0.1710 77.5  34 
 BRR  HZ EP       2331  4.79                             149   -0.2210 78.9 299 
 BRR  HE ES       2331 21.89                             149    0.5110 78.9 299 
 RUS  HZ EP       2331  6.93                             144    0.0910 95.6 180 
 RUS  HN ES       2331 25.23                             144    0.5910 95.6 180 
 RUS  HZ I        2331 26.47         3.2 0.26            144           95.6 180 
                                                                                
