 2017  222 2142 41.7 L   6.740 -73.161144.3  RSN  4 0.4 1.1LRSN                1
 GAP=137        0.95       5.2     5.1  9.8 -0.3675E+01 -0.3428E+01  0.8834E+01E
 Epicentro: LOS SANTOS - SANTANDER                                             3
 ACTION:UPD 17-05-24 15:39 OP:jn   STATUS:               ID:20170222214241 L   I
 OLDACT:REG 17-02-23 03:33 OP:dnl  STATUS:               ID:20170222213745     3
 2017-02-22-2138-00M.COL___388                                                 6
 STAT SP IPHASW D HRMM SECON CODA AMPLIT PERI AZIMU VELO AIN AR TRES W  DIS CAZ7
 BRR  HZ EP   2   2143  2.86                             152    0.04 5 73.2 304 
 BRR  HN ES       2143 19.91                             152    0.6310 73.2 304 
 PAM  EZ EP       2143  3.95                             149   -0.2110 83.6  38 
 PAM  EN ES       2143 21.39                             149   -0.2710 83.6  38 
 PAM  EZ I        2143 22.95         2.7 0.34            152           83.6  38 
 RUS  HZ EP       2143  5.33                             145    0.4710 94.1 175 
 RUS  HE ES       2143 22.77                             145   -0.1510 94.1 175 
 RUS  HZ I        2143 24.79         2.1 0.24            146           94.1 175 
 PTB  HZ EP   2   2143  8.26                             132   -0.05 5  145 261 
 PTB  HN ES       2143 28.51                             132   -0.54 9  145 261 
 PTB  HZ I        2143 33.83         1.7 0.32            132            145 261 
                                                                                
