 2016  822 2137 37.1 L   7.209 -73.431106.5  RSN  4 0.2 1.6LRSN                1
 GAP=158        0.58       3.9     2.3  6.8 -0.2015E+01  0.8658E+01 -0.9653E+01E
 Epicentro: SABANA DE TORRES - SANTANDER                                       3
 ACTION:UPD 16-10-29 15:38 OP:rebc STATUS:               ID:20160822213737 L   I
 OLDACT:DUP 16-08-23 04:06 OP:y    STATUS:               ID:20160822212760d    3
 2016-08-22-2127-59S.COL___346                                                 6
 STAT SP IPHASW D HRMM SECON CODA AMPLIT PERI AZIMU VELO AIN AR TRES W  DIS CAZ7
 BAR2 EZ EP       2137 55.02                             143    0.3710 73.5 158 
 BAR2 EZ ES       2138  8.24                             143   -0.1310 73.5 158 
 BAR2 EZ I        2138 10.81        14.7 0.18                          73.5 158 
 PAM  EZ EP       2137 55.73                             140    0.0810 82.0  80 
 PAM  EE ES       2138 10.04                             140   -0.1010 82.0  80 
 PAM  EZ I        2138 11.25         9.1 0.20                          82.0  80 
 PTB  HZ EP       2137 59.53                             124   -0.36 9  135 237 
 PTB  HN ES       2138 17.79                             124    0.10 9  135 237 
 PTB  HZ I        2138 22.21         5.4 0.19                           135 237 
 ZAR  HZ EP       2138  2.40                             119   -0.12 9  161 281 
 ZAR  HE ES       2138 22.50                             119    0.13 9  161 281 
 ZAR  HZ I        2138 25.94         7.3 0.12                           161 281 
                                                                                
