 2011  922 2303 46.9 L   6.781 -73.100148.3  RSN  8 0.3 2.0LRSN                1
 GAP=143        0.41       2.8     4.6  5.0  0.5940E+00  0.2253E+01 -0.4530E+00E
 Epicentro: LOS SANTOS - SANTANDER                                             3
 ACTION:UPD 12-07-13 15:59 OP:ep   STATUS:               ID:20110922230346 L   I
 2011-09-22-2302-16S.COL___165                                                 6
 STAT SP IPHASW D HRMM SECON CODA AMPLIT PERI AZIMU VELO AIN AR TRES W  DIS CAZ7
 BAR2 SZ EP   1   23 4  6.72                             171   -0.10 7 22.8 204 
 BAR2 SZ ES   2   23 4 21.94                             171   -0.42 5 22.8 204 
 BAR2 SZ I        23 4 24.47        18.9 0.32                          22.8 204 
 BTL  SZ EP   1   23 4  7.03                             170    0.18 7 24.0 309 
 PAM  SZ EP   2   23 4  9.34                             152    0.04 5 75.9  36 
 PAM  SN ES   2   23 4 26.93                             152    0.16 5 75.9  36 
 BRR  HZ EP   2   23 4  8.66                             151    0.03 5 76.7 298 
 BRR  HZ I        23 4  9.90        23.3 0.37                          76.7 298 
 BRR  HE ES   2   23 4 26.14                             151    0.55 5 76.7 298 
 RUS  HZ EP   2   23 4 10.56                             145   -0.17 5 98.3 179 
 RUS  HN ES   2   23 4 29.09                             145   -0.24 5 98.3 179 
 RUS  HZ I        23 4 30.43         7.1 0.28                          98.3 179 
 ZAR  HN ES   2   23 4 45.45                             122   -0.50 4  210 292 
 ZAR  HZ I        23 4 50.87         7.7 0.34                           210 292 
 CHI  HZ EP   2   23 4 24.85                             118    0.18 4  248 196 
 CHI  HE ES   2   23 4 54.53                             118    0.40 4  248 196 
 CHI  HZ I        23 5  3.96         3.3 0.64                           248 196 
 COD  HZ EP   2   23 4 35.37                             109   -0.30 3  351 354 
 COD  HZ I        23 5 12.82         8.2 0.65                           351 354 
 COD  HN ES   2   23 5 13.66                             109   -0.05 3  351 354 
                                                                                
