 2011  122 2330 55.0 L   6.803 -73.161141.3  RSN  5 0.2 1.6LRSN                1
 GAP=157        0.40       3.5    10.3  5.5 -0.2593E+02  0.2898E+02 -0.6393E+01E
 Epicentro: LOS SANTOS - SANTANDER                                             3
 ACTION:UP  11-02-08 08:42 OP:pat  STATUS:               ID:20110122233055 L   I
 2011-01-22-2327-16S.COL___138                                                 6
 STAT SP IPHASW D HRMM SECON CODA AMPLIT PERI AZIMU VELO SNR AR TRES W  DIS CAZ7
 BAR2 SZ EP   1   2331 14.16                             170     0.0 8   24 186 
 BAR2 SZ ES   2   2331 29.18                             170     0.2 5   24 186 
 BAR2 SZ I        2331 30.46        12.5 0.34                            24 186 
 RUS  HZ EP   1   2331 18.24                             143    -0.1 8  101 175 
 RUS  HE ES   2   2331 36.32                             143    -0.3 5  101 175 
 RUS  HZ I        2331 38.67         4.5 0.29                           101 175 
 GRA  SZ IP       2331 19.96                             136     0.110  126  18 
 GRA  SZ ES   2   2331 39.18                             136    -0.1 5  126  18 
 GRA  SZ I        2331 40.59         5.5 0.38                           126  18 
 CHI  HZ EP   1   2331 32.63                             116     0.2 6  249 195 
 CHI  HN ES   2   2332  1.99                             116     0.3 4  249 195 
 CHI  HZ I        2332  8.52         2.7 0.47                           249 195 
 RREF HZ EP   1   2331 40.61                             110    -0.3 5  321 229 
 RREF HZ I        2332 26.19         2.4 0.50                           321 229 
                                                                                
