 2011  422 2304 17.5 L   6.764 -73.077148.8  RSN  5 0.3 1.6LRSN                1
 GAP=147        0.60       5.4     6.5  8.5 -0.2856E+01 -0.4934E+01  0.1561E+02E
 Epicentro: LOS SANTOS - SANTANDER                                             3
 ACTION:UP  11-06-22 15:32 OP:REBC STATUS:               ID:20110422230417 L   I
 2011-04-22-2258-52S.COL___138                                                 6
 STAT SP IPHASW D HRMM SECON CODA AMPLIT PERI AZIMU VELO SNR AR TRES W  DIS CAZ7
 BAR2 SZ EP   1   23 4 37.22                             171    -0.3 7   22 212 
 BAR2 SZ I        23 4 55.13        13.8 0.53                            22 212 
 GIR2 SZ EP   2   23 4 38.53                             165     0.8 5   37 340 
 PAM  SZ EP   1   23 4 40.05                             152     0.1 7   76  33 
 PAM  SN ES   1   23 4 57.38                             152    -0.1 7   76  33 
 BRR  HZ EP   1   23 4 39.25                             150    -0.2 7   80 298 
 BRR  HE ES   1   23 4 56.70                             150     0.1 7   80 298 
 BRR  HZ I        23 4 58.54        11.1 0.17                            80 298 
 RUS  HZ EP   1   23 4 41.31                             146     0.0 7   96 180 
 RUS  HE ES   2   23 4 59.86                             146     0.1 5   96 180 
 RUS  HZ I        23 5  2.99         2.8 0.56                            96 180 
                                                                                
