 2017  922 2336 48.2 L   6.773 -73.103146.2  RSN 21 0.4 2.3LRSN                1
 GAP=117        0.78       2.9     3.2  4.3  0.6329E+00  0.4123E+01  0.3954E+01E
 Epicentro: LOS SANTOS - SANTANDER                                             3
 ACTION:UPD 17-10-05 19:15 OP:rebc STATUS:               ID:20170922233648 L   I
 OLDACT:UP  17-09-23 10:11 OP:mg   STATUS:               ID:20170922232741     3
 OLDACT:UP  17-09-23 10:10 OP:mg   STATUS:               ID:20170922232741     3
 OLDACT:UP  17-09-23 10:09 OP:mg   STATUS:               ID:20170922232741     3
 OLDACT:UP  17-09-23 10:07 OP:mg   STATUS:               ID:20170922232741     3
 OLDACT:REG 17-09-23 06:35 OP:mg   STATUS:               ID:20170922232741     3
 2017-09-22-2328-00M.COL___450                                                 6
 STAT SP IPHASW D HRMM SECON CODA AMPLIT PERI AZIMU VELO AIN AR TRES W  DIS CAZ7
 BAR2 EZ IP     D 2337  7.73                             171   -0.0710 21.8 204 
 BAR2 EZ ES       2337 22.75                             171   -0.3810 21.8 204 
 BAR2 EZ I        2337 25.67        50.9 0.34            164           21.8 204 
 BRR  HZ EP       2337  9.78                             151    0.1110 76.8 299 
 BRR  HN ES       2337 27.09                             151    0.6410 76.8 299 
 BRR  HZ I        2337 29.66        23.2 0.27            146           76.8 299 
 PAM  EZ IP     D 2337 10.50                             151    0.1210 76.9  35 
 PAM  EN ES       2337 27.83                             151    0.1110 76.9  35 
 PAM  EZ I        2337 29.98        24.7 0.46            152           76.9  35 
 RUS  HZ EP       2337 11.60                             145   -0.1110 97.4 179 
 RUS  HN ES       2337 29.86                             145   -0.2310 97.4 179 
 RUS  HZ I        2337 31.46        29.6 0.30            138           97.4 179 
 YPLC HZ EP   1   2337 17.80                             127    0.30 7  172 152 
 YPLC HN ES   3   2337 42.11                             127    1.72 2  172 152 
 YPLC HZ I        2337 45.60        18.3 0.26            123            172 152 
 ZAR  HZ EP       2337 21.13                             122   -0.06 8  210 292 
 ZAR  HN ES       2337 46.04                             122   -0.92 8  210 292 
 ZAR  HZ I        2337 52.19        14.2 0.25            117            210 292 
 TABC EZ EP   4   2337 25.26                             119    1.35 0  230 212 
 TABC EZ ES   4   2337 55.81                             119    4.00 0  230 212 
 TABC EZ I        2337 58.06        15.3 0.27            114            230 212 
 NOR  HZ EP       2337 24.05                             118   -0.08 8  237 236 
 NOR  HN ES       2337 52.38                             118    0.18 8  237 236 
 NOR  HZ I        2337 55.37        18.1 0.28            113            237 236 
 CHI  HZ EP       2337 25.80                             117    0.10 8  247 196 
 CHI  HN ES       2337 54.92                             117   -0.06 8  247 196 
 CHI  HZ I        2338  5.04         6.7 0.32            112            247 196 
 ROSC BZ EP   4   2337 27.78                             117    1.50 0  253 212 
 ROSC BN ES   4   2338  0.75                             117    4.72 0  253 212 
 ROSC BZ I        2338  5.66        19.1 0.40            112            253 212 
 HEL  HZ EP   1   2337 28.90                             114    0.09 6  276 257 
 HEL  HE ES   1   2338  0.78                             114    0.25 6  276 257 
 HEL  HZ I        2338  6.11         7.4 0.28            110            276 257 
 GUY2CHZ EP   4   2337 33.71                             112    1.69 0  303 236 
 GUY2CHN ES   4   2338  9.82                             112    3.58 0  303 236 
 GUY2CHZ I        2338 12.65        10.8 0.32                           303 236 
 PTGC HZ EP   1   2337 30.75                             112   -0.77 5  304 159 
 PTGC HN ES   4   2338  3.53                             112   -1.81 0  304 159 
 PTGC HZ I        2338  6.77        12.3 0.39            108            304 159 
 ELA  HZ EP   1   2337 35.11                             110   -0.10 5  331 230 
 ELA  HZ I        2338 18.99         6.7 0.35            106            331 230 
 DBB  EN ES   4   2338 11.18                             109   -2.52 0  344 275 
 DBB  EZ I        2338 18.36         3.5 0.24            106            344 275 
 ANIL HZ EP   4   2337 39.19                             108    1.08 0  359 225 
 ANIL HN ES   4   2338 18.97                             108    1.89 0  359 225 
 ANIL HZ I        2338 23.03        19.1 0.27            105            359 225 
 PRA  HZ EP   1   2337 42.23                             106    0.57 4  392 210 
 PRA  HN ES   4   2338 25.68                             106    2.29 0  392 210 
 PRA  HZ I        2338 32.42         7.9 0.33            103            392 210 
 ORTC HZ EP   1   2337 42.47                             106    0.34 4  396 217 
 ORTC HN ES   3   2338 25.17                             106    0.94 1  396 217 
 ORTC HZ I        2338 30.88         6.4 0.37            103            396 217 
 PAL  HE ES   1   2338 27.65                             106    0.76 4  408 240 
 PAL  HZ I        2338 32.00        14.6 0.05            102            408 240 
 SJC  HZ EP   4   2337 42.14                             105   -2.18 0  414 327 
 SJC  HN ES   4   2338 24.36                             105   -3.78 0  414 327 
 SJC  HZ I        2338 29.87         2.5 0.26            103            414 327 
 CRJC HZ EP   4   2337 48.04                             103   -2.95 0  470   3 
 CRJC HN ES   4   2338 37.77                             103   -2.23 0  470   3 
 CRJC HZ I        2338 44.17         3.3 0.19            101            470   3 
                                                                                
