 2012  122 2237  5.3 L   6.013 -73.790115.0  RSN  5 0.2 1.4LRSN                1
 GAP= 96        0.51       2.4     3.2  7.2 -0.8096E+00  0.6860E+01 -0.2232E+00E
 Epicentro: EL PEON - SANTANDER                                                3
 ACTION:UP  12-02-03 08:19 OP:REBC STATUS:               ID:20120122223705 L   I
 2012-01-22-2230-00M.COL___186                                                 6
 STAT SP IPHASW D HRMM SECON CODA AMPLIT PERI AZIMU VELO SNR AR TRES W  DIS CAZ7
 RUS  HZ EP   1   2237 24.81                             143     0.3 7   79 100 
 RUS  HN ES   1   2237 39.21                             143    -0.2 7   79 100 
 RUS  HZ I        2237 40.77         9.6 0.21                            79 100 
 BRR  HZ EP   1   2237 27.53                             130     0.2 7  121   4 
 BRR  HN ES   1   2237 44.45                             130    -0.1 7  121   4 
 BRR  HZ I        2237 48.86         5.4 0.16                           121   4 
 NOR  SZ EP   2   2237 27.81                             128    -0.4 5  129 247 
 NOR  SN ES   1   2237 46.18                             128     0.1 7  129 247 
 CHI  HZ EP   1   2237 30.90                             123    -0.1 7  153 178 
 CHI  HE ES   1   2237 51.11                             123     0.0 7  153 178 
 CHI  HZ I        2237 55.20         1.7 0.25                           153 178 
 ZAR  HZ EP   2   2237 35.36                             115    -0.3 4  202 324 
 ZAR  HZ I        2238  4.65         3.8 0.21                           202 324 
                                                                                
