 2017  922 2126 55.4 L   6.868 -73.033153.6  RSN  6 0.5 1.6LRSN                1
 GAP=254        1.14       6.7     8.4  8.8  0.2292E+02  0.3003E+02  0.7126E+01E
 Epicentro: PIEDECUESTA - SANTANDER                                            3
 ACTION:UPD 17-10-05 19:15 OP:rebc STATUS:               ID:20170922212655 L   I
 OLDACT:UP  17-09-23 08:39 OP:mg   STATUS:               ID:20170922211741     3
 OLDACT:UP  17-09-23 08:39 OP:mg   STATUS:               ID:20170922211741     3
 OLDACT:UP  17-09-23 08:38 OP:mg   STATUS:               ID:20170922211741     3
 OLDACT:REG 17-09-23 06:18 OP:mg   STATUS:               ID:20170922211741     3
 2017-09-22-2118-00M.COL___450                                                 6
 STAT SP IPHASW D HRMM SECON CODA AMPLIT PERI AZIMU VELO AIN AR TRES W  DIS CAZ7
 BAR2 EZ EP       2127 16.86                             167    0.6210 34.7 209 
 BAR2 EZ ES       2127 32.38                             167   -0.1210 34.7 209 
 BAR2 EZ I        2127 34.43        10.2 0.23            163           34.7 209 
 RUS  HZ EP       2127 21.06                             144    0.6010  108 183 
 RUS  HN ES       2127 39.85                             144   -0.1510  108 183 
 RUS  HZ I        2127 40.65         8.0 0.22            144            108 183 
 ZAR  HZ EP       2127 28.93                             123   -0.36 8  213 289 
 ZAR  HN ES       2127 55.39                             123   -0.34 8  213 289 
 ZAR  HZ I        2128  0.39         4.1 0.19            123            213 289 
 NOR  HZ EP   2   2127 32.49                             119   -0.65 4  249 235 
 NOR  HN ES   3   2128  3.35                             119    0.77 2  249 235 
 NOR  HZ I        2128  8.16         2.3 0.17            119            249 235 
 CHI  HZ EP       2127 33.87                             118   -0.83 8  259 197 
 CHI  HN ES       2128  4.64                             118   -0.71 8  259 197 
 CHI  HZ I        2128  6.85         2.7 0.25            118            259 197 
 GUY2CHZ EP       2127 41.25                             113    0.24 7  316 235 
 GUY2CHN ES       2128 17.47                             113    0.88 7  316 235 
 GUY2CHZ I        2128 23.21         1.3 0.27                           316 235 
                                                                                
