 2014  322 2143 20.3 L   6.736 -73.146140.0  RSN  7 0.4 1.6LRSN                1
 GAP=139        0.85       3.0     3.9  6.4 -0.2193E+00  0.6625E+01  0.2718E+01E
 Epicentro: JORDAN - SANTANDER                                                 3
 ACTION:UPD 14-04-09 23:19 OP:nd   STATUS:               ID:20140322214320 L   I
 OLDACT:DUP 14-03-23 01:16 OP:nd   STATUS:               ID:20140322214042d    3
 2014-03-22-2140-41M.COL___240                                                 6
 STAT SP IPHASW D HRMM SECON CODA AMPLIT PERI AZIMU VELO AIN AR TRES W  DIS CAZ7
 BRR  HZ EP       2143 41.26                             150    0.1710 74.8 303 
 BRR  HN ES   1   2143 57.49                             150    0.23 7 74.8 303 
 BRR  HZ I        2144  1.80        11.5 0.20            152           74.8 303 
 PAM  SZ EP       2143 42.26                             148   -0.0510 83.0  36 
 PAM  SN ES       2143 59.29                             148   -0.1410 83.0  36 
 PAM  SZ I        2144  1.77         8.0 0.48            157           83.0  36 
 RUS  HZ EP       2143 42.84                             145   -0.1910 93.6 176 
 RUS  HN ES       2144  0.97                             145    0.2510 93.6 176 
 RUS  HZ I        2144  2.47         8.6 0.32            146           93.6 176 
 PTB  HZ EP       2143 46.07                             131   -0.66 9  146 262 
 PTB  HN ES   1   2144  6.83                             131   -0.48 7  146 262 
 PTB  HZ I        2144 11.90         5.7 0.16            133            146 262 
 SPBC HZ EP       2143 47.73                             129   -0.16 9  158 221 
 SPBC HN ES       2144  9.42                             129    0.05 9  158 221 
 SPBC HZ I        2144 18.37         5.2 0.34            130            158 221 
 ZAR  HZ EP       2143 53.63                             121    0.92 8  207 294 
 ZAR  HN ES       2144 17.90                             121   -0.05 8  207 294 
 ZAR  HZ I        2144 19.93         7.1 0.20            124            207 294 
 CHI  HZ EP       2143 56.92                             117   -0.07 8  242 196 
 CHI  HN ES       2144 25.79                             117    0.22 8  242 196 
 CHI  HZ I        2144 36.49         1.3 0.66            119            242 196 
                                                                                
