 2017  822 2328  3.8 L   6.763 -73.126150.9  RSN 12 0.3 2.3LRSN                1
 GAP=115        0.75       2.5     2.8  4.5  0.7112E+00  0.1491E+01  0.2703E+01E
 Epicentro: LOS SANTOS - SANTANDER                                             3
 ACTION:UPD 17-09-04 20:23 OP:rebc STATUS:               ID:20170822232803 L   I
 OLDACT:UP  17-08-23 05:47 OP:dnl  STATUS:               ID:20170822231739     3
 OLDACT:REG 17-08-23 03:36 OP:dnl  STATUS:               ID:20170822231739     3
 2017-08-22-2318-00M.COL___414                                                 6
 STAT SP IPHASW D HRMM SECON CODA AMPLIT PERI AZIMU VELO AIN AR TRES W  DIS CAZ7
 BRR  HZ IP     C 2328 25.87                             152    0.1310 75.1 300 
 BRR  HE ES       2328 43.34                             152    0.5010 75.1 300 
 BRR  HZ I        2328 44.10        39.4 0.28            151           75.1 300 
 PAM  EZ IP     C 2328 26.86                             151    0.1710 79.3  36 
 PAM  EN ES       2328 44.21                             151   -0.3210 79.3  36 
 PAM  EZ I        2328 46.17        72.3 0.90            156           79.3  36 
 RUS  HZ EP       2328 27.75                             146   -0.0310 96.4 177 
 RUS  HE ES       2328 46.23                             146   -0.2510 96.4 177 
 RUS  HZ I        2328 47.40        26.3 0.34            145           96.4 177 
 SPBC HZ EP       2328 32.69                             131    0.14 9  161 221 
 SPBC HN ES       2328 54.57                             131   -0.39 9  161 221 
 SPBC HZ I        2329  1.53        33.4 0.28            129            161 221 
 YPLC HZ EP       2328 33.53                             129   -0.01 9  172 151 
 YPLC HE ES       2328 57.23                             129    0.50 9  172 151 
 YPLC HZ I        2328 59.18        12.2 0.24            130            172 151 
 ZAR  HZ EP       2328 36.87                             123   -0.10 8  208 293 
 ZAR  HE ES       2329  2.38                             123   -0.44 8  208 293 
 ZAR  HZ I        2329  8.25        35.4 0.26            123            208 293 
 NOR  HZ EP       2328 39.91                             120    0.12 8  234 236 
 NOR  HE ES       2329  7.95                             120    0.10 8  234 236 
 NOR  HZ I        2329 13.18        17.8 0.16            119            234 236 
 CHI  HZ EP       2328 41.82                             119    0.38 8  245 196 
 CHI  HE ES       2329 10.73                             119   -0.06 8  245 196 
 CHI  HZ I        2329 14.96         5.1 0.50            119            245 196 
 HEL  HZ EP   2   2328 44.63                             116    0.21 4  273 257 
 HEL  HE ES   4   2329 14.80                             116   -1.29 0  273 257 
 HEL  HZ I        2329 23.33         8.0 0.28            115            273 257 
 GUY2CHZ EP   9   2328 48.81                             113    1.21 0  301 236 
 GUY2CHN ES       2329 23.39                             113    0.43 7  301 236 
 GUY2CHZ I        2329 29.55         6.5 0.26                           301 236 
 PTGC HZ EP       2328 46.63                             113   -0.76 7  304 159 
 PTGC HE ES   4   2329 19.65                             113   -1.73 0  304 159 
 PTGC HZ I        2329 23.08        14.8 0.30            114            304 159 
 PRA  HZ EP   2   2328 57.55                             107    0.32 3  390 210 
 PRA  HN ES   4   2329 40.69                             107    1.80 0  390 210 
 PRA  HZ I        2329 47.67         8.2 0.44            108            390 210 
                                                                                
