 2012  122 2328 13.8 L   6.825 -73.147145.3  RSN  5 0.3 1.2LRSN                1
 GAP=135        0.57       5.6     4.8  7.8  0.3053E+00  0.5609E+01  0.1035E+02E
 Epicentro: LOS SANTOS - SANTANDER                                             3
 ACTION:UP  12-02-03 08:19 OP:REBC STATUS:               ID:20120122232813 L   I
 2012-01-22-2320-00M.COL___186                                                 6
 STAT SP IPHASW D HRMM SECON CODA AMPLIT PERI AZIMU VELO SNR AR TRES W  DIS CAZ7
 BRR  HZ EP   1   2328 34.85                             153     0.1 7   70 297 
 BRR  HZ I        2328 35.48         4.4 0.06                            70 297 
 BRR  HN ES   1   2328 51.44                             153     0.3 7   70 297 
 PAM  SZ EP   1   2328 35.90                             151     0.1 7   75  41 
 PAM  SN ES   1   2328 52.87                             151    -0.1 7   75  41 
 RUS  HZ EP   2   2328 37.40                             143    -0.3 5  103 176 
 RUS  HE ES   2   2328 56.14                             143    -0.2 5  103 176 
 RUS  HZ I        2328 57.20         2.0 0.19                           103 176 
 PTB  HZ EP   2   2328 41.19                             132     0.5 5  148 258 
 ZAR  HN ES   2   2329 10.42                             122    -0.8 4  203 291 
                                                                                
