 2011 1122 2201  9.6 L   6.913 -72.789184.5  RSN  5 0.3 1.9LRSN                1
 GAP=184        0.68       6.7     8.6 10.2  0.1721E+02  0.3801E+02  0.1509E+02E
 Epicentro: GUACA - SANTANDER                                                  3
 ACTION:UPD 12-07-13 16:11 OP:ep   STATUS:               ID:20111122220109 L   I
 2011-11-22-2159-34S.COL___179                                                 6
 STAT SP IPHASW D HRMM SECON CODA AMPLIT PERI AZIMU VELO AIN AR TRES W  DIS CAZ7
 PAM  SN ES   1   22 1 54.75                             165    0.13 7 48.2  12 
 BAR2 SZ EP   1   22 1 34.66                             162   -0.15 7 56.1 231 
 BAR2 SZ I        22 1 51.23         8.8 0.25                          56.1 231 
 BRR  HZ EP   1   22 1 36.39                             149   -0.49 7  104 282 
 BRR  HZ I        22 2  0.10        15.4 0.32                           104 282 
 RUS  HZ EP   1   22 1 38.98                             146    0.54 7  117 196 
 RUS  HN ES   1   22 2  0.71                             146   -0.19 7  117 196 
 RUS  HZ I        22 2  4.50         6.7 0.31                           117 196 
 ZAR  HN ES   1   22 2 18.36                             125    0.28 6  237 286 
                                                                                
