 2014 1122 2326 47.3 L   6.763 -73.197146.1  RSN  5 0.2 1.4LRSN                1
 GAP=229        0.53       4.1     3.7  4.3  0.9493E+01  0.2343E+01  0.2820E+00E
 Epicentro: ZAPATOCA - SANTANDER                                               3
 ACTION:UPD 14-12-19 15:46 OP:nd   STATUS:               ID:20141122232647 L   I
 OLDACT:REG 14-11-23 03:04 OP:cam  STATUS:               ID:20141122231815     3
 2014-11-22-2318-15M.COL___297                                                 6
 STAT SP IPHASW D HRMM SECON CODA AMPLIT PERI AZIMU VELO AIN AR TRES W  DIS CAZ7
 BAR2 SZ EP       2327  6.78                             172   -0.1110 18.9 175 
 BAR2 SZ ES       2327 22.26                             172    0.1010 18.9 175 
 BAR2 SZ I        2327 26.98         5.2 0.32            175           18.9 175 
 BRR  HZ EP       2327  8.19                             153   -0.1410 68.5 304 
 BRR  HN ES       2327 24.68                             153   -0.0510 68.5 304 
 BRR  HZ I        2327 29.28         5.8 0.18            156           68.5 304 
 RUS  HZ EP       2327 11.20                             145    0.3710 97.0 173 
 RUS  HN ES       2327 29.07                             145   -0.1110 97.0 173 
 RUS  HZ I        2327 31.30         3.2 0.26            150           97.0 173 
 PTB  HZ EP       2327 13.48                             133   -0.25 9  141 260 
 PTB  HN ES       2327 34.30                             133   -0.03 9  141 260 
 PTB  HZ I        2327 35.93         5.8 0.14            138            141 260 
 ZAR  HN ES       2327 44.70                             123    0.27 9  200 294 
                                                                                
