 2015  322 2259  4.1 L   6.804 -73.138153.1  RSN 14 0.4 2.0LRSN                1
 GAP= 66        0.94       2.9     3.1  5.3  0.5876E-01  0.1302E+01 -0.4346E+00E
 Epicentro: LOS SANTOS - SANTANDER                                             3
 ACTION:UPD 15-04-30 16:28 OP:nd   STATUS:               ID:20150322225904 L   I
 OLDACT:REG 15-03-23 02:19 OP:spq  STATUS:               ID:20150322225748     3
 2015-03-22-2257-48M.COL___284                                                 6
 STAT SP IPHASW D HRMM SECON CODA AMPLIT PERI AZIMU VELO AIN AR TRES W  DIS CAZ7
 BAR2 EZ EP       2259 24.67                             171    0.0310 23.9 192 
 BAR2 EZ ES   1   2259 40.54                             171   -0.11 7 23.9 192 
 BAR2 EZ I        2259 41.62        16.5 0.24            172           23.9 192 
 BRR  HZ EP     C 2259 26.47                             154    0.3810 71.7 298 
 BRR  HN ES       2259 43.94                             154    0.7010 71.7 298 
 BRR  HZ I        2259 48.87        14.6 0.30            151           71.7 298 
 PAM  SZ EP       2259 27.51                             152    0.4410 76.5  39 
 PAM  SE ES       2259 44.78                             152   -0.1910 76.5  39 
 PAM  SZ I        2259 45.44         6.6 0.18            153           76.5  39 
 RUS  HZ EP   1   2259 28.98                             145    0.36 7  101 177 
 RUS  HN ES       2259 47.42                             145   -0.3110  101 177 
 RUS  HZ I        2259 48.28         9.2 0.24            148            101 177 
 PTB  HZ EP       2259 31.23                             133   -0.54 9  149 259 
 PTB  HN ES       2259 52.81                             133   -0.53 9  149 259 
 PTB  HZ I        2259 54.71        10.4 0.36            133            149 259 
 TAM  HZ EP   1   2259 32.71                             132    0.39 7  154 105 
 TAM  HN ES   1   2259 54.33                             132    0.01 7  154 105 
 TAM  HZ I        2259 57.47         7.4 0.22            135            154 105 
 OCA  HZ EP       2259 32.77                             131   -0.21 9  160 353 
 OCA  HE ES       2259 54.89                             131   -0.60 9  160 353 
 OCA  HZ I        23 0  0.52        29.1 0.18            131            160 353 
 SPBC HZ EP       2259 33.55                             130    0.28 9  164 219 
 SPBC HE ES       2259 56.16                             130    0.16 9  164 219 
 SPBC HZ I        2259 58.55        14.5 0.33            131            164 219 
 ZAR  HZ EP   1   2259 37.51                             124    0.40 6  205 292 
 ZAR  HE ES       23 0  3.10                             124    0.25 9  205 292 
 ZAR  HZ I        23 0  8.71        19.7 0.30            124            205 292 
 SML  HZ EP       2259 41.39                             119    0.23 8  244 335 
 SML  HE ES   1   23 0  9.57                             119   -0.49 6  244 335 
 SML  HZ I        23 0 17.39        12.0 0.10            119            244 335 
 HEL  HZ EP   4   2259 46.34                             116    1.53 0  273 256 
 HEL  HN ES   1   23 0 16.32                             116   -0.24 6  273 256 
 HEL  HZ I        23 0 23.84         4.2 0.56            116            273 256 
 GUY2CHZ EP   4   2259 50.01                             114    1.83 0  302 235 
 GUY2CHE ES   4   23 0 25.77                             114    3.23 0  302 235 
 GUY2CHZ I        23 0 33.42         5.5 0.48                           302 235 
 PTGC HZ EP       2259 47.59                             113   -0.73 7  309 159 
 PTGC HN ES   4   23 0 20.98                             113   -1.82 0  309 159 
 PTGC HZ I        23 0 22.69         9.8 0.26            114            309 159 
 MON  HZ EP   4   2259 52.07                             110   -1.39 0  354 308 
 MON  HN ES   4   23 0 30.82                             110   -1.12 0  354 308 
 MON  HZ I        23 0 35.32         2.5 0.37            110            354 308 
                                                                                
