 2017  722 2054 12.6 L   6.806 -73.110145.4  RSN  8 0.3 1.7LRSN                1
 GAP=141        0.82       3.4     3.6  5.2 -0.1354E+01  0.3786E+01 -0.3449E+00E
 Epicentro: LOS SANTOS - SANTANDER                                             3
 ACTION:UPD 17-08-30 15:35 OP:rebc STATUS:               ID:20170722205412 L   I
 OLDACT:UP  17-07-23 05:19 OP:edw  STATUS:               ID:20170722204739d    3
 OLDACT:DUP 17-07-23 05:13 OP:edw  STATUS:               ID:20170722204739d    3
 2017-07-22-2048-00M.COL___398                                                 6
 STAT SP IPHASW D HRMM SECON CODA AMPLIT PERI AZIMU VELO AIN AR TRES W  DIS CAZ7
 BAR2 EZ EP       2054 31.76                             170   -0.4810 25.0 199 
 BAR2 EZ ES       2054 47.51                             170   -0.0410 25.0 199 
 BAR2 EZ I        2054 47.81        18.2 0.22            171           25.0 199 
 PAM  EZ IP     C 2054 34.71                             151    0.1010 74.3  38 
 PAM  EN ES       2054 51.93                             151    0.1510 74.3  38 
 PAM  EZ I        2054 53.77         7.7 0.50            151           74.3  38 
 BRR  HZ EP       2054 33.65                             151   -0.2610 74.4 297 
 BRR  HN ES       2054 50.56                             151    0.0410 74.4 297 
 RUS  HZ EP       2054 36.25                             143   -0.1210  101 178 
 RUS  HN ES       2054 54.93                             143    0.0310  101 178 
 RUS  HZ I        2054 55.49         6.8 0.30            145            101 178 
 PTB  HZ EP   9   2054 38.83                             131   -1.09 0  152 259 
 PTB  HN ES       2054 59.36                             132   -0.77 9  152 259 
 PTB  HZ I        2055  1.86         4.5 0.48            131            152 259 
 SPBC HN ES       2055  4.11                             128    0.29 9  166 220 
 ZAR  HZ EP       2054 45.93                             121    0.54 8  208 292 
 ZAR  HN ES       2055 10.78                             121   -0.18 8  208 292 
 ZAR  HZ I        2055 16.43         7.4 0.30            121            208 292 
 GUY2CHN ES       2055 31.09                             112    0.14 7  305 235 
                                                                                
