 2010  522 2231 41.0 L   6.764 -72.810147.1  RSN  6 0.4 2.1LRSN                1
 GAP=214        0.75       7.2    15.3  9.6 -0.7979E+02 -0.7570E+01  0.1463E+02E
 Epicentro: SAN ANDRES - SANTANDER                                             3
 ACTION:UP  10-08-24 10:06 OP:vdl  STATUS:               ID:20100522223141 L   I
 2010-05-22-2229-43S.COL___111                                                 6
 STAT SP IPHASW D HRMM SECON CODA AMPLIT PERI AZIMU VELO SNR AR TRES W  DIS CAZ7
 BAR2 SZ EP   1   2232  1.98                             162     0.5 8   46 245 
 BAR2 SZ ES   2   2232 16.89                             162    -0.5 5   46 245 
 GUE  SZ EP   1   2232  5.95                             139    -0.1 8  119 354 
 GUE  SZ ES   2   2232 25.63                             139     0.1 5  119 354 
 GRA  SZ EP       2232  6.17                             138    -0.110  124   0 
 OCA  SZ EP   1   2232 10.00                             128    -0.6 7  173 341 
 OCA  SZ ES   2   2232 34.46                             128     0.8 5  173 341 
 OCA  SZ I        2232 35.46        13.5 0.24                           173 341 
 RREF BZ EP   1   2232 30.74                             109     0.5 5  348 234 
 RREF BN ES   2   2233  7.95                             109    -0.8 3  348 234 
 RREF BZ I        2233 12.45         3.2 0.25                           348 234 
 PRA  HZ EP   1   2232 36.71                             106     0.2 4  408 214 
 PRA  HN ES   2   2233 19.64                             106    -0.1 3  408 214 
 PRA  HZ I        2233 24.51         4.5 0.24                           408 214 
                                                                                
