 2013  822 2203 30.3 L   6.725 -73.176152.0  RSN  6 0.3 1.5LRSN                1
 GAP=228        0.64       4.7     5.0  7.1  0.1364E+02  0.4805E+01 -0.1398E+01E
 Epicentro: VILLANUEVA - SANTANDER                                             3
 ACTION:UPD 14-01-14 09:05 OP:ep   STATUS:               ID:20130822220330 L   I
 OLDACT:REG 13-08-22 22:17 OP:jn   STATUS:               ID:20130822215959     3
 2013-08-22-2159-59M.COL___270                                                 6
 STAT SP IPHASW D HRMM SECON CODA AMPLIT PERI AZIMU VELO AIN AR TRES W  DIS CAZ7
 BAR2 SZ ES   1   22 4  6.10                             174   -0.21 7 14.7 183 
 BAR2 SZ I        22 4  9.24         6.4 0.42            177           14.7 183 
 BRR  HZ EP   1   22 3 52.29                             153    0.10 7 72.8 306 
 BRR  HE ES   1   22 4  9.73                             153    0.45 7 72.8 306 
 BRR  HZ I        22 4 15.43         8.0 0.31            152           72.8 306 
 RUS  HZ EP       22 3 54.07                             147   -0.0310 92.6 174 
 RUS  HN ES       22 4 12.60                             147   -0.0910 92.6 174 
 RUS  HZ I        22 4 15.17         2.1 0.20            154           92.6 174 
 PTB  HN ES   1   22 4 17.96                             134   -0.51 7  143 262 
 SPBC HN ES   1   22 4 21.00                             132    0.52 7  155 220 
 SPBC HZ I        22 4 21.60         8.2 0.18            137            155 220 
 ZAR  HN ES       22 4 28.72                             124   -0.09 9  204 295 
 ZAR  HZ I        22 4 36.37         3.3 0.26            126            204 295 
                                                                                
