 2013  422 2005 13.3 L   6.764 -73.169145.5  RSN  6 0.3 1.9LRSN                1
 GAP=135        0.77       3.9     3.9  5.0 -0.1763E+01  0.2247E+01  0.2259E+01E
 Epicentro: LOS SANTOS - SANTANDER                                             3
 ACTION:UPD 13-05-22 14:40 OP:EP   STATUS:               ID:20130422200513 L   I
 2013-04-22-1958-48M.COL___218                                                 6
 STAT SP IPHASW D HRMM SECON CODA AMPLIT PERI AZIMU VELO AIN AR TRES W  DIS CAZ7
 BAR2 SZ EP       20 5 32.68                             172   -0.1410 19.1 185 
 BAR2 SZ ES       20 5 47.90                             172   -0.1510 19.1 185 
 BAR2 SZ I        20 5 49.54        16.4 0.36            171           19.1 185 
 GIR2 SZ EP       20 5 33.27                             166    0.2210 34.9 356 
 GIR2 SZ ES       20 5 48.92                             166    0.4710 34.9 356 
 GIR2 SZ I        20 5 50.18         8.2 0.46            167           34.9 356 
 BRR  HZ EP       20 5 34.23                             153   -0.1810 71.0 302 
 BRR  HN ES       20 5 51.09                             153    0.2110 71.0 302 
 BRR  HN I        20 5 52.48        28.1 0.30            152           71.0 302 
 PAM  SZ EP       20 5 36.01                             149    0.2310 82.1  39 
 PAM  SN ES       20 5 52.73                             149   -0.5710 82.1  39 
 PAM  SN I        20 5 53.97        10.1 0.54            153           82.1  39 
 RUS  HZ EP       20 5 37.05                             145    0.2910 96.8 174 
 RUS  HN ES       20 5 55.01                             145   -0.0510 96.8 174 
 RUS  HN I        20 5 56.69         8.0 0.22            146           96.8 174 
 PTB  HZ EP       20 5 39.73                             133   -0.23 9  145 260 
 PTB  HN ES       20 6  0.58                             133   -0.17 9  145 260 
 PTB  HN I        20 6  5.93        22.4 0.38            133            145 260 
                                                                                
