 2012  122 2246 37.8 L   6.835 -73.164143.2  RSN 14 0.5 2.6LRSN                1
 GAP=132        1.10       4.1     5.0  7.1 -0.1942E+01  0.9571E+01  0.7141E+01E
 Epicentro: LOS SANTOS - SANTANDER                                             3
 ACTION:UP  12-02-03 08:19 OP:REBC STATUS:               ID:20120122224637 L   I
 2012-01-22-2240-00M.COL___186                                                 6
 STAT SP IPHASW D HRMM SECON CODA AMPLIT PERI AZIMU VELO SNR AR TRES W  DIS CAZ7
 BAR2 SZ EP       2246 57.10                             169    -0.110   27 184 
 BAR2 SZ ES   1   2247 12.55                             169     0.2 7   27 184 
 BAR2 SZ I        2247 15.83        65.9 0.64                            27 184 
 BRR  HZ IP     C 2246 58.48                             153     0.010   68 296 
 BRR  HE ES   1   2247 15.18                             153     0.6 7   68 296 
 BRR  HZ I        2247 16.43        86.0 0.11                            68 296 
 PAM  SZ EP       2246 59.37                             151    -0.310   76  43 
 PAM  SE ES   1   2247 16.31                             151    -0.4 7   76  43 
 RUS  HZ EP       2247  1.46                             142    -0.210  105 175 
 RUS  HN ES   1   2247 20.83                             142     0.6 7  105 175 
 RUS  HZ I        2247 21.83        30.3 0.29                           105 175 
 PTB  HZ EP       2247  3.61                             132    -0.9 9  147 257 
 PTB  HN ES   1   2247 25.02                             132    -0.2 7  147 257 
 OCA  SZ EP   1   2247  6.53                             130     1.0 7  156 354 
 OCA  SZ ES   1   2247 27.27                             130     0.1 7  156 354 
 OCA  SZ I        2247 32.15        29.5 0.25                           156 354 
 ZAR  HZ EP   1   2247 10.15                             122     0.4 6  201 291 
 ZAR  HE ES   1   2247 34.23                             122    -0.4 6  201 291 
 NOR  SZ EP       2247 13.53                             118     0.1 8  235 233 
 NOR  SN ES   1   2247 40.52                             118    -0.8 6  235 233 
 CHI  HZ EP   1   2247 15.74                             116     0.0 6  252 194 
 CHI  HN ES   1   2247 45.37                             116     0.1 6  252 194 
 CHI  HZ I        2247 49.80        25.8 0.36                           252 194 
 HEL  HZ EP   1   2247 18.88                             114     1.1 6  271 255 
 HEL  HE ES   1   2247 49.33                             114     0.4 6  271 255 
 HEL  HZ I        2247 56.48        22.8 0.38                           271 255 
 GUY  SZ EP   1   2247 22.47                             112     0.8 5  304 234 
 GUY  SZ I        2248  4.78        41.9 0.35                           304 234 
 VIL  SZ EP   1   2247 21.51                             111     0.0 5  307 191 
 VIL  SZ I        2248  0.25        16.1 0.34                           307 191 
 RREF HZ EP   1   2247 23.41                             110    -0.6 5  323 229 
 RREF HZ I        2248  8.73        20.4 0.28                           323 229 
 PRA  HZ EP   1   2247 31.59                             106     0.1 4  394 209 
 PRA  HN ES   1   2248 14.09                             106     0.7 4  394 209 
                                                                                
