 2012  122 2255  1.6 L   6.726 -73.233152.0  RSN  5 0.3 1.6LRSN                1
 GAP=211        0.69       7.5     7.4  8.8  0.3417E+02  0.1324E+02  0.1439E+00E
 Epicentro: VILLANUEVA - SANTANDER                                             3
 ACTION:UP  12-02-03 08:19 OP:REBC STATUS:               ID:20120122225501 L   I
 2012-01-22-2250-00M.COL___186                                                 6
 STAT SP IPHASW D HRMM SECON CODA AMPLIT PERI AZIMU VELO SNR AR TRES W  DIS CAZ7
 BAR2 SZ ES   2   2255 37.04                             174    -0.6 5   16 159 
 BAR2 SZ I        2255 37.90        12.5 0.21                            16 159 
 BRR  HZ EP   1   2255 23.24                             155     0.0 7   68 309 
 BRR  HE ES   1   2255 40.58                             155     0.5 7   68 309 
 BRR  HZ I        2255 41.96         6.8 0.12                            68 309 
 RUS  HZ EP   2   2255 25.62                             147     0.1 5   94 170 
 RUS  HE ES   1   2255 44.14                             147     0.0 7   94 170 
 RUS  HZ I        2255 45.24         4.6 0.34                            94 170 
 PTB  HZ EP   1   2255 28.06                             136    -0.1 7  137 261 
 PTB  HN ES   1   2255 49.02                             136     0.2 7  137 261 
 ZAR  HE ES   1   2255 58.64                             125    -0.5 6  199 295 
 ZAR  HZ I        2256  5.28         4.2 0.29                           199 295 
                                                                                
