 2016  922 2359 21.9 L   6.810 -73.160142.1  RSN 15 0.3 2.5LRSN                1
 GAP=118        0.86       2.5     3.2  4.5 -0.1994E+01  0.3680E+01  0.7428E+00E
 Epicentro: LOS SANTOS - SANTANDER                                             3
 ACTION:UPD 17-08-17 21:15 OP:lp   STATUS:               ID:20160922235921 L   I
 OLDACT:DUP 16-09-23 04:51 OP:lv   STATUS:               ID:20160922234736d    3
 2016-09-22-2348-00M.COL___333                                                 6
 STAT SP IPHASW D HRMM SECON CODA AMPLIT PERI AZIMU VELO AIN AR TRES W  DIS CAZ7
 BAR2 EZ EP     C 2359 40.81                             170   -0.2610 24.2 186 
 BAR2 EZ IP     C 2359 40.81                             170           24.2 186 
 BAR2 EZ ES       2359 56.18                             170    0.1210 24.2 186 
 BAR2 EZ I        2359 57.03        72.2 0.28            167           24.2 186 
 BRR  HZ IP     D 2359 42.73                             152    0.2210 69.3 298 
 BRR  HE ES       2359 58.69                             152    0.0810 69.3 298 
 BRR  HZ I        24 0  3.27        37.5 0.42            148           69.3 298 
 PAM  EZ EP       2359 43.76                             150    0.0610 77.5  41 
 PAM  EN ES       24 0  0.91                             150    0.1810 77.5  41 
 PAM  EZ I        24 0  2.99       104.1 0.56            156           77.5  41 
 RUS  HZ EP       2359 44.77                             143   -0.5810  102 175 
 RUS  HE ES       24 0  3.96                             143    0.2910  102 175 
 RUS  HZ I        24 0  5.20        16.4 0.32            145            102 175 
 PTB  HZ EP       2359 48.00                             131   -0.42 9  146 258 
 PTB  HN ES       24 0  9.02                             131   -0.11 9  146 258 
 PTB  HZ I        24 0 16.09        35.1 0.38            130            146 258 
 OCA  HZ EP       2359 49.81                             129    0.04 9  159 354 
 OCA  HE ES       24 0 11.25                             129   -0.28 9  159 354 
 OCA  HZ I        24 0 14.98        88.0 0.18            131            159 354 
 SPBC HZ EP       2359 49.75                             128   -0.33 9  163 218 
 SPBC HN ES       24 0 11.95                             128   -0.13 9  163 218 
 SPBC HZ I        24 0 17.96        47.4 0.30            128            163 218 
 ZAR  HZ EP       2359 53.78                             122   -0.10 9  202 292 
 ZAR  HE ES       24 0 19.00                             122    0.15 9  202 292 
 ZAR  HZ I        24 0 25.77        30.5 0.38            121            202 292 
 NOR  HZ EP       2359 57.33                             118    0.01 8  234 234 
 NOR  HE ES       24 0 25.32                             118    0.35 8  234 234 
 NOR  HZ I        24 0 33.49        20.2 0.20            118            234 234 
 ROSC BZ EP       24 0  0.45                             116    0.64 8  253 211 
 ROSC BN ES       24 0 29.24                             116   -0.16 8  253 211 
 ROSC BZ I        24 0 38.57        28.0 0.40            117            253 211 
 HEL  HZ EP   9   24 0  5.17                             114    3.41 0  271 255 
 HEL  HN ES       24 0 37.09                                    0.80 8  271 255 
 HEL  HZ I        24 0 40.18        11.0 0.34            114            271 255 
 URE  HZ EP   4   24 0  5.53                             113    2.98 0  282 292 
 URE  HE ES   4   24 0 33.01                             113   -1.27 0  282 292 
 URE  HZ I        24 0 44.98        15.5 0.30            113            282 292 
 GUY2CHZ EP       24 0  6.16                             112    0.92 7  301 234 
 GUY2CHN ES       24 0 38.86                             112   -0.21 7  301 234 
 GUY2CHZ I        24 0 48.27        11.7 0.22                           301 234 
 PTGC HZ EP   9   24 0  3.83                             111   -1.91 0  310 158 
 PTGC HN ES       24 0 37.39                                   -0.67 7  310 158 
 PTGC HZ I        24 0 39.81        15.0 0.42            113            310 158 
 SJC  HZ EP   4   24 0 15.26                             105   -1.83 0  407 327 
 SJC  HN ES   4   24 0 56.47                             105   -3.71 0  407 327 
 SJC  HZ I        24 1  0.62        10.5 0.36            106            407 327 
                                                                                
