 2014  222 2012 14.4 L   6.772 -73.123150.0  RSN  6 0.4 2.0LRSN                1
 GAP=141        0.84       4.8     4.9  6.9 -0.1847E+01  0.4679E+01  0.4902E+01E
 Epicentro: LOS SANTOS - SANTANDER                                             3
 ACTION:UPD 14-03-10 08:12 OP:ep   STATUS:               ID:20140222201214 L   I
 OLDACT:UP  14-02-23 00:07 OP:mh   STATUS:               ID:20140222201001d    3
 OLDACT:DUP 14-02-23 00:04 OP:mh   STATUS:               ID:20140222201001d    3
 OLDACT:UP  14-02-22 23:55 OP:mh   STATUS:               ID:20140222201000     3
 OLDACT:REG 14-02-22 21:37 OP:mh   STATUS:               ID:20140222201000     3
 2014-02-22-2010-00M.COL___215                                                 6
 STAT SP IPHASW D HRMM SECON CODA AMPLIT PERI AZIMU VELO AIN AR TRES W  DIS CAZ7
 BAR2 SZ EP       2012 34.23                             172   -0.2210 20.9 198 
 BAR2 SZ I        2012 51.39         9.3 0.21            160           20.9 198 
 BRR  HZ EP       2012 36.28                             152    0.1110 74.9 300 
 BRR  HN ES       2012 53.63                             152    0.4410 74.9 300 
 BRR  HZ I        2013 32.26        14.9 0.34            142           74.9 300 
 PAM  SZ EP       2012 37.45                             151    0.3810 78.3  37 
 PAM  SE ES   1   2012 54.19                             151   -0.61 7 78.3  37 
 PAM  SZ I        2012 56.82         5.0 0.25            150           78.3  37 
 RUS  HZ EP       2012 38.16                             146   -0.1410 97.3 177 
 RUS  HN ES       2012 57.17                             146    0.2010 97.3 177 
 RUS  HZ I        2012 58.13         3.0 0.31            158           97.3 177 
 PTB  HZ EP       2012 41.50                             133   -0.34 9  150 260 
 PTB  HN ES   1   2013  2.66                             133   -0.62 7  150 260 
 PTB  HZ I        2013  8.43      1058.2 0.03            131            150 260 
 NOR  HZ EP       2012 50.42                             119    0.06 8  235 235 
 NOR  HN ES   2   2013 19.21                             119    0.77 4  235 235 
 NOR  HZ I        2013 26.26         2.8 0.38            124            235 235 
                                                                                
