 2010  322 2123 41.6 L   6.795 -73.012149.3  RSN  7 0.3 2.0LRSN                1
 GAP=196        0.50       2.9     5.4  5.4  0.9322E+00  0.1791E+01  0.9135E+00E
 Epicentro: CEPITA - SANTANDER                                                 3
 ACTION:UP  10-08-24 09:55 OP:vdl  STATUS:               ID:20100322212341 L   I
 2010-03-22-2120-02S.COL___098                                                 6
 STAT SP IPHASW D HRMM SECON CODA AMPLIT PERI AZIMU VELO SNR AR TRES W  DIS CAZ7
 BRR  HZ IP       2124  3.74                             149    -0.210   85 294 
 BRR  HZ I        2124  4.23        22.5 0.13                            85 294 
 BRR  HN ES   1   2124 21.31                             149    -0.1 7   85 294 
 RUS  HZ EP   1   2124  5.53                             145    -0.1 7  100 184 
 RUS  HN ES   1   2124 24.67                             145     0.2 7  100 184 
 RUS  HZ I        2124 26.12         6.6 0.60                           100 184 
 OCA  SZ EP   1   2124 10.60                             130     0.1 7  163 348 
 OCA  SZ ES   2   2124 33.16                             130     0.2 5  163 348 
 OCA  SZ I        2124 36.87        19.4 0.28                           163 348 
 CHI  HZ EP   2   2124 19.92                             117     0.0 4  252 198 
 CHI  HZ I        2124 57.78         4.0 0.72                           252 198 
 HEL  HZ EP   2   2124 24.19                             114     0.6 4  286 257 
 HEL  HN ES   2   2124 56.41                             114     0.1 4  286 257 
 HEL  HZ I        2124 59.75         4.2 0.53                           286 257 
 RREF BZ EP   2   2124 29.74                             111     0.6 3  333 231 
 RREF BN ES   2   2125  6.39                             111     0.1 3  333 231 
 RREF BZ I        2125 13.23         6.9 0.35                           333 231 
 PRA  HZ EP   2   2124 35.78                             107    -0.3 3  399 211 
 PRA  HN ES   2   2125 17.73                             107    -0.8 3  399 211 
 PRA  HZ I        2125 23.42         6.2 0.39                           399 211 
                                                                                
