 2011  922 2212 15.5 L   6.773 -73.123142.7  RSN 12 0.2 2.4LRSN                1
 GAP=141        0.31       1.6     2.1  2.7 -0.7149E+00  0.1141E+01  0.9005E-01E
 Epicentro: LOS SANTOS - SANTANDER                                             3
 ACTION:UPD 12-07-13 15:59 OP:ep   STATUS:               ID:20110922221215 L   I
 2011-09-22-2208-16S.COL___165                                                 6
 STAT SP IPHASW D HRMM SECON CODA AMPLIT PERI AZIMU VELO AIN AR TRES W  DIS CAZ7
 BAR2 SZ EP   1   2212 34.71                             171    0.00 7 21.1 198 
 BAR2 SZ ES   2   2212 49.50                             171   -0.20 5 21.1 198 
 BAR2 SZ I        2212 52.17        53.3 0.28                          21.1 198 
 BTL  SZ EP   1   2212 34.94                             171    0.20 7 22.7 315 
 BRR  HZ EP   1   2212 36.50                             151   -0.03 7 74.8 300 
 BRR  HE ES   1   2212 53.23                             151    0.30 7 74.8 300 
 BRR  HZ I        2212 57.56        67.3 0.13                          74.8 300 
 PAM  SZ EP   1   2212 37.55                             150    0.12 7 78.1  37 
 PAM  SN ES   2   2212 54.32                             150   -0.22 5 78.1  37 
 RUS  HZ EP   2   2212 38.66                             144   -0.06 5 97.5 177 
 RUS  HN ES   2   2212 56.78                             144   -0.06 5 97.5 177 
 RUS  HZ I        2212 58.70        24.3 0.48                          97.5 177 
 OCA  SZ EP   1   2212 43.67                             128   -0.21 7  164 352 
 OCA  SZ ES   2   2213  5.85                             128   -0.17 5  164 352 
 OCA  SZ I        2213  8.21        40.9 0.29                           164 352 
 ZAR  HZ EP   2   2212 48.15                             121    0.05 4  208 293 
 ZAR  HN ES   2   2213 13.47                             121   -0.07 4  208 293 
 ZAR  HZ I        2213 19.13        30.2 0.34                           208 293 
 NOR  SZ EP   2   2212 50.72                             118   -0.37 4  235 235 
 NOR  SN ES   2   2213 18.50                             118   -0.35 4  235 235 
 CHI  HZ EP   2   2212 53.06                             117    0.27 4  246 196 
 CHI  HE ES   2   2213 21.88                             117    0.00 4  246 196 
 CHI  HZ I        2213 29.49        12.7 0.59                           246 196 
 HEL  HZ EP   2   2212 56.04                             114    0.29 4  274 257 
 HEL  HE ES   2   2213 27.01                             114   -0.13 4  274 257 
 HEL  HZ I        2213 33.73        16.6 0.53                           274 257 
 RREF HZ EP   2   2213  1.71                             110    0.21 3  322 230 
 RREF HN ES   2   2213 37.32                             110   -0.08 3  322 230 
 RREF HZ I        2213 46.32        11.2 0.29                           322 230 
 COD  HZ EP   2   2213  3.90                             108   -0.22 3  351 354 
 COD  HZ I        2213 34.33        15.1 0.85                           351 354 
 COD  HN ES   2   2213 42.00                             108   -0.04 3  351 354 
                                                                                
