 2012  122 2003 48.9 L   6.080 -73.666113.4  RSN  7 0.5 1.6LRSN                1
 GAP=139        1.13       6.8     5.2 12.4  0.9442E+00  0.1172E+02 -0.1081E+02E
 Epicentro: CHIPATA - SANTANDER                                                3
 ACTION:UP  12-02-03 08:19 OP:REBC STATUS:               ID:20120122200348 L   I
 2012-01-22-2000-00M.COL___186                                                 6
 STAT SP IPHASW D HRMM SECON CODA AMPLIT PERI AZIMU VELO SNR AR TRES W  DIS CAZ7
 RUS  HZ EP   1   20 4  7.31                             147     0.1 7   68 108 
 RUS  HN ES   1   20 4 21.01                             147    -0.4 7   68 108 
 RUS  HZ I        20 4 23.92         4.9 0.18                            68 108 
 BAR2 SZ EP   1   20 4  7.62                             143     0.1 7   78  43 
 BAR2 SZ ES   1   20 4 22.55                             143     0.5 7   78  43 
 BAR2 SZ I        20 4 24.51        14.9 0.33                            78  43 
 PTB  HZ EP   1   20 4  8.26                             135    -0.8 7  101 300 
 PTB  HN ES   1   20 4 23.95                             135    -0.8 7  101 300 
 BRR  HZ EP   1   20 4 10.36                             131     0.2 7  114 357 
 BRR  HZ I        20 4 17.56         7.6 0.37                           114 357 
 BRR  HN ES   1   20 4 26.89                             131     0.2 7  114 357 
 NOR  SN ES   1   20 4 33.01                             124     0.8 7  145 247 
 PAM  SZ EP   1   20 4 16.84                             119    -0.2 7  176  37 
 ZAR  HN ES   1   20 4 43.80                             114     0.4 6  204 320 
 ZAR  HZ I        20 4 45.11         5.7 0.19                           204 320 
                                                                                
