 2011  722 2244 24.1 L   6.776 -73.133141.2  RSN  9 0.4 2.3LRSN                1
 GAP=139        0.67       3.6     4.7  5.1 -0.4542E+01  0.6012E+01  0.4808E+01E
 Epicentro: LOS SANTOS - SANTANDER                                             3
 ACTION:UPD 12-07-25 14:02 OP:epov STATUS:               ID:20110722224424 L   I
 2011-07-22-2242-19S.COL___140                                                 6
 STAT SP IPHASW D HRMM SECON CODA AMPLIT PERI AZIMU VELO AIN AR TRES W  DIS CAZ7
 BAR2 SZ EP   1   2244 42.93                             171   -0.24 7 21.1 195 
 BAR2 SZ ES   1   2244 57.67                             171   -0.34 7 21.1 195 
 BAR2 SZ I        2245  0.77        61.4 0.28                          21.1 195 
 BRR  HN EP   1   2244 44.78                             151   -0.16 7 73.7 300 
 BRR  HE ES   1   2245  1.53                             151    0.37 7 73.7 300 
 BRR  HN I        2245  2.79       173.6 0.17                          73.7 300 
 PAM  SZ EP       2244 46.05                             150    0.1110 78.5  38 
 PAM  SZ I        2244 46.29        20.5 0.16                          78.5  38 
 PAM  SN ES   1   2245  2.91                             150   -0.03 7 78.5  38 
 RUS  HZ EP       2244 47.20                             144   -0.0410 97.9 177 
 RUS  HN ES   1   2245  5.55                             144    0.29 7 97.9 177 
 RUS  HZ I        2245  6.87        36.1 0.26                          97.9 177 
 NOR  SZ EP   1   2244 58.66                             117   -0.91 6  234 235 
 NOR  SN ES   1   2245 26.95                             117   -0.25 6  234 235 
 NOR  SZ I        2245 32.20         3.0 0.28                           234 235 
 CHI  HZ EP   1   2245  1.04                             116   -0.31 6  246 196 
 CHI  HZ I        2245  3.07        12.4 0.20                           246 196 
 CHI  HN ES   1   2245 30.61                             116    0.23 6  246 196 
 ROSC BZ EP   1   2245  2.40                             116    0.55 6  251 212 
 HEL  HZ EP   1   2245  4.67                             114    0.46 6  273 256 
 HEL  HZ I        2245 43.16        22.7 0.31                           273 256 
 TOL  SZ EP   1   2245 12.56                             108    0.44 5  343 225 
                                                                                
