 2015  422 2241 45.0 L   6.768 -73.916 18.5  RSN  9 0.4 2.0LRSN                1
 GAP= 61        1.07       2.2     2.1  3.3 -0.1288E+01 -0.5760E+00  0.1781E+00E
 Epicentro: PUERTO PARRA - SANTANDER                                           3
 ACTION:UPD 15-06-03 16:56 OP:cam  STATUS:               ID:20150422224145 L   I
 OLDACT:REG 15-04-23 05:14 OP:carl STATUS:               ID:20150422223748     3
 2015-04-22-2237-48M.COL___280                                                 6
 STAT SP IPHASW D HRMM SECON CODA AMPLIT PERI AZIMU VELO AIN AR TRES W  DIS CAZ7
 BRR  HZ IP     C 2241 52.39                             110   -0.2110 43.7  31 
 BRR  HN ES       2241 58.78                             110    0.2510 43.7  31 
 BRR  HZ I        2241 59.03       140.7 0.12            101           43.7  31 
 PTB  HZ EP       2241 55.78                             103    0.0910 64.9 247 
 PTB  HE ES       2242  4.25                             103    0.2110 64.9 247 
 PTB  HZ I        2242  5.65       232.8 0.18             97           64.9 247 
 BAR2 EZ EP       2241 58.61                             101   -0.0710 83.4 103 
 BAR2 EZ ES       2242  8.90                             101   -0.4510 83.4 103 
 BAR2 EZ I        2242 12.46        27.5 0.30             97           83.4 103 
 SPBC HZ EP       2242  4.79                              97    0.0910  125 188 
 SPBC HN ES       2242 20.63                              97    0.5710  125 188 
 SPBC HZ I        2242 23.52        21.6 0.24             94            125 188 
 ZAR  HZ EP       2242  4.57                              56   -0.8610  131 308 
 ZAR  HZ I        2242 24.05        15.3 0.36             93            131 308 
 RUS  HZ EP       2242  6.62                              56    0.3110  134 136 
 RUS  HN ES       2242 23.12                              56    0.1810  134 136 
 RUS  HZ I        2242 25.16        26.7 0.36             94            134 136 
 PAM  SZ EP       2242  8.16                              56   -0.00 9  149  65 
 PAM  SE ES       2242 26.18                              56   -0.05 9  149  65 
 PAM  SZ I        2242 27.52        52.5 0.30             93            149  65 
 NOR  HN ES       2242 29.35                              56   -0.72 9  170 218 
 NOR  HZ I        2242 33.60         7.9 0.20             56            170 218 
 SML  HZ EP   4   2242 20.38                              56    3.20 0  225 356 
 SML  HE ES       2242 43.09                              56    0.80 8  225 356 
 SML  HZ I        2242 51.23        12.4 0.50             56            225 356 
                                                                                
