 2013  922 2115  9.4 L   6.815 -73.154147.9  RSN 16 0.5 2.8LRSN 3.2WRSN        1
 SPEC AVERAGE  MO 13.8 ST 50.0 OM  2.4 f0 7.43 R0.3359 AL 0.00 WI 34.0 MW  3.2 3
 SPEC SD       MO  0.2 ST 40.9 OM  0.3 f0 3.64 R0.2634 AL      WI      MW  0.1 3
 GAP=135        1.17       3.3     4.4  5.5 -0.8728E+00  0.6098E+01  0.3585E+00E
 Epicentro: LOS SANTOS - SANTANDER                                             3
 SPEC SML HH N MO 13.6 ST 52.1 OM  1.8 f0 10.0 R0.1554 AL 0.00 WI 53.4 MW  3.0 3
 SPEC SML HH N T211612 K 0.000 GD  283 VS 4.20 DE 3.20 Q0300.0 QA 0.60 VS 4.20 3
 SPEC ZAR HH E MO 14.0 ST115.9 OM  2.2 f0 10.0 R0.1554 AL 0.00 WI 25.8 MW  3.3 3
 SPEC ZAR HH E T2116 6 K 0.000 GD  251 VS 4.20 DE 3.20 Q0300.0 QA 0.60 VS 4.20 3
 SPEC SPBCHH N MO 13.8 ST 80.9 OM  2.1 f0 10.0 R0.1554 AL 0.00 WI 32.3 MW  3.2 3
 SPEC SPBCHH N T211558 K 0.000 GD  220 VS 4.20 DE 3.20 Q0300.0 QA 0.60 VS 4.20 3
 SPEC PTB HH N MO 13.6 ST 48.2 OM  1.9 f0 10.0 R0.1554 AL 0.00 WI 32.3 MW  3.0 3
 SPEC PTB HH N T211554 K 0.000 GD  208 VS 4.20 DE 3.20 Q0300.0 QA 0.60 VS 4.20 3
 SPEC RUS HH E MO 13.8 ST  1.6 OM  2.2 f0 2.66 R0.5842 AL 0.00 WI 29.4 MW  3.2 3
 SPEC RUS HH E T211552 K 0.000 GD  179 VS 4.20 DE 3.20 Q0300.0 QA 0.60 VS 4.20 3
 SPEC PAM SH N MO 14.1 ST  1.1 OM  2.5 f0 1.92 R0.8094 AL 0.00 WI 30.5 MW  3.4 3
 SPEC PAM SH N T211548 K 0.000 GD  166 VS 4.20 DE 3.20 Q0300.0 QA 0.60 VS 4.20 3
 ACTION:UPD 13-10-22 09:24 OP:ep   STATUS:               ID:20130922211509 L   I
 OLDACT:UP  13-09-22 22:47 OP:cam  STATUS:               ID:20130922210959     3
 OLDACT:REG 13-09-22 21:42 OP:cam  STATUS:               ID:20130922210959     3
 2013-09-22-2109-59M.COL___269                                                 6
 STAT SP IPHASW D HRMM SECON CODA AMPLIT PERI AZIMU VELO AIN AR TRES W  DIS CAZ7
 BAR2 SZ EP       2115 29.31                             170   -0.0210 24.9 187 
 BAR2 SZ ES       2115 44.56                             170   -0.3010 24.9 187 
 BAR2 SZ I        2115 45.53       146.1 0.24            170           24.9 187 
 BRR  HE ES       2115 48.44                             153    1.1310 69.6 298 
 BRR  HZ I        2115 52.32        78.7 0.16            153           69.6 298 
 PAM  SZ EP       2115 32.15                             151    0.3410 76.7  41 
 PAM  SN ES       2115 49.19                             151   -0.1010 76.7  41 
 PAM  SZ I        2115 51.45       163.4 0.48            154           76.7  41 
 RUS  HZ EP       2115 33.30                             144   -0.2010  102 176 
 RUS  HE ES       2115 52.25                             144   -0.0310  102 176 
 RUS  HZ I        2115 53.05        79.0 0.26            146            102 176 
 PTB  HZ EP       2115 35.88                             133   -0.62 9  147 258 
 PTB  HN ES       2115 56.94                             133   -0.69 9  147 258 
 PTB  HZ I        2116  0.31        43.6 0.12            133            147 258 
 OCA  HZ EP       2115 37.40                             130   -0.32 9  158 353 
 SPBC HZ EP       2115 38.28                             129    0.14 9  164 218 
 SPBC HN ES       2116  0.23                             129   -0.32 9  164 218 
 SPBC HZ I        2116  2.58        99.3 0.30            130            164 218 
 ZAR  HZ EP       2115 41.80                             123   -0.04 9  203 292 
 ZAR  HE ES       2116  7.40                             123    0.26 9  203 292 
 ZAR  HZ I        2116  8.72        36.8 0.12            124            203 292 
 NOR  HZ EP       2115 45.19                             119   -0.10 8  235 234 
 SML  HZ EP       2115 45.76                             118   -0.19 8  242 335 
 SML  HN ES       2116 14.39                             118   -0.06 8  242 335 
 SML  HZ I        2116 16.35        88.7 0.26            119            242 335 
 CHI  HZ EP       2115 47.58                             117    0.20 8  250 195 
 CHI  HN ES       2116 17.02                             117    0.03 8  250 195 
 CHI  HZ I        2116 20.36        38.5 0.48            119            250 195 
 ROSC BZ EP   4   2115 49.43                             117    1.68 0  254 211 
 HEL  HZ EP       2115 51.05                             115    1.37 8  272 255 
 HEL  HE ES       2116 20.32                             115   -0.77 8  272 255 
 HEL  HZ I        2116 27.41        28.0 0.26            116            272 255 
 GUY2CHZ EP       2115 54.01                             113    0.87 7  301 234 
 VIL  SZ EP   1   2115 52.98                             112   -0.11 5  305 191 
 RREF HZ EP   4   2115 56.99                             111    1.30 0  322 229 
 COD  HZ EP   1   2115 56.81                             109   -0.86 5  346 355 
 ORTC HZ EP       2116  3.76                             107    0.26 6  396 216 
                                                                                
