 2014  322 2247 30.9 L   6.764 -73.123152.0  RSN  6 0.4 1.7LRSN                1
 GAP=141        1.05       4.8     5.0  8.0 -0.2950E+01  0.6603E+01  0.3123E+01E
 Epicentro: LOS SANTOS - SANTANDER                                             3
 ACTION:UPD 14-04-09 23:19 OP:nd   STATUS:               ID:20140322224730 L   I
 OLDACT:REG 14-03-23 00:18 OP:nd   STATUS:               ID:20140322224041     3
 2014-03-22-2240-41M.COL___237                                                 6
 STAT SP IPHASW D HRMM SECON CODA AMPLIT PERI AZIMU VELO AIN AR TRES W  DIS CAZ7
 BRR  HZ EP       2247 53.15                             152    0.1810 75.3 300 
 BRR  HN ES       2248 10.76                             152    0.5810 75.3 300 
 BRR  HZ I        2248 30.41         9.2 0.32            150           75.3 300 
 PAM  SZ EP       2247 54.10                             151    0.2110 79.0  36 
 PAM  SN ES       2248 11.14                             151   -0.6710 79.0  36 
 PAM  SZ I        2248 13.11         5.4 0.52            158           79.0  36 
 RUS  HZ EP       2247 55.16                             146    0.1610 96.5 177 
 RUS  HN ES       2248 14.19                             146    0.4010 96.5 177 
 RUS  HZ I        2248 14.90         3.5 0.34            154           96.5 177 
 PTB  HZ EP       2247 57.91                             133   -0.65 9  150 261 
 PTB  HN ES       2248 19.72                             133   -0.40 9  150 261 
 PTB  HZ I        2248 26.50         7.7 0.36            135            150 261 
 SPBC HZ EP       2247 59.66                             131   -0.11 9  162 221 
 SPBC HN ES       2248 21.99                             131   -0.28 9  162 221 
 SPBC HZ I        2248 30.34         6.3 0.24            136            162 221 
 ZAR  HZ EP   1   2248  4.84                             123    0.67 6  208 293 
 ZAR  HN ES   1   2248 30.35                             123    0.25 6  208 293 
 ZAR  HZ I        2248 35.30         7.8 0.44            127            208 293 
                                                                                
