 2010  822 2012 55.2 L   6.092 -73.677108.0  RSN  4 0.1 1.3LRSN                1
 GAP=249        0.35       4.6    12.4  9.9  0.4080E+02  0.8757E+02  0.3344E+02E
 Epicentro: CHIPATA - SANTANDER                                                3
 ACTION:UP  10-09-07 10:57 OP:vdl  STATUS:               ID:20100822201255 L   I
 2010-08-22-2009-39S.COL___120                                                 6
 STAT SP IPHASW D HRMM SECON CODA AMPLIT PERI AZIMU VELO SNR AR TRES W  DIS CAZ7
 RUS  HZ EP       2013 12.98                             146     0.010   69 109 
 RUS  HZ I        2013 13.28         2.3 0.26                            69 109 
 RUS  HN ES   3   2013 26.36                             146    -0.5 2   69 109 
 BAR2 SZ EP   1   2013 13.26                             142     0.1 7   78  45 
 BAR2 SZ ES   2   2013 27.49                             142     0.2 5   78  45 
 BAR2 SZ I        2013 28.63         8.1 0.70                            78  45 
 BTL  SZ EP       2013 15.14                             134    -0.110  102  26 
 BTL  SZ ES   1   2013 30.77                             134    -0.1 7  102  26 
 BRR  HZ I        2013 31.10         8.3 0.08                           112 358 
 BRR  HE ES   2   2013 32.01                             130     0.1 5  112 358 
                                                                                
