 2012  822 2226 10.4 L   6.777 -73.160148.2  RSN  4 0.1 1.5LRSN                1
 GAP=136        0.35       2.9     2.8  4.7  0.8264E+00 -0.3600E+01 -0.2693E+01E
 Epicentro: LOS SANTOS - SANTANDER                                             3
 ACTION:UPD 12-09-10 11:57 OP:ep   STATUS:               ID:20120822222610 L   I
 2012-08-22-2220-00M.COL___217                                                 6
 STAT SP IPHASW D HRMM SECON CODA AMPLIT PERI AZIMU VELO AIN AR TRES W  DIS CAZ7
 BRR  HZ EP   1   2226 31.78                             153   -0.07 7 71.1 301 
 BRR  HN ES   1   2226 48.69                             153    0.14 7 71.1 301 
 BRR  HZ I        2226 53.39         9.3 0.21                          71.1 301 
 PAM  SZ EP       2226 33.02                             150   -0.0710 80.4  39 
 PAM  SZ I        2226 33.61        10.7 0.23                          80.4  39 
 RUS  HZ EP   1   2226 34.45                             145    0.19 7 98.1 175 
 RUS  HZ I        2226 35.67         2.5 0.24                          98.1 175 
 RUS  HN ES   1   2226 52.75                             145   -0.09 7 98.1 175 
 PTB  HZ EP   1   2226 37.48                             133    0.06 7  146 260 
 PTB  HN ES   1   2226 58.35                             133   -0.12 7  146 260 
 PTB  HZ I        2227  0.22         2.4 0.23                           146 260 
                                                                                
