 2017  122 2110 38.3 L   6.670 -73.508117.8  RSN 19 0.4 2.7LRSN                1
 GAP= 47        0.85       2.9     2.2  4.3 -0.2869E+00  0.3143E+01  0.9056E+00E
 Epicentro: EL CARMEN - SANTANDER                                              3
 ACTION:UPD 17-05-22 16:02 OP:jn   STATUS:               ID:20170122211038 L   I
 OLDACT:UP  17-01-23 03:11 OP:and  STATUS:               ID:20170122210743     3
 OLDACT:UP  17-01-23 03:10 OP:and  STATUS:               ID:20170122210743     3
 OLDACT:UP  17-01-23 03:10 OP:and  STATUS:               ID:20170122210743     3
 OLDACT:UP  17-01-23 03:07 OP:and  STATUS:               ID:20170122210743     3
 OLDACT:UP  17-01-23 03:07 OP:and  STATUS:               ID:20170122210743     3
 OLDACT:UP  17-01-23 03:06 OP:and  STATUS:               ID:20170122210743     3
 OLDACT:UP  17-01-23 03:05 OP:and  STATUS:               ID:20170122210743     3
 OLDACT:UP  17-01-23 03:04 OP:and  STATUS:               ID:20170122210743     3
 OLDACT:UP  17-01-23 03:04 OP:and  STATUS:               ID:20170122210743     3
 OLDACT:UP  17-01-23 03:03 OP:and  STATUS:               ID:20170122210743     3
 OLDACT:UP  17-01-23 03:02 OP:and  STATUS:               ID:20170122210743     3
 OLDACT:UP  17-01-23 03:00 OP:and  STATUS:               ID:20170122210743     3
 OLDACT:UP  17-01-23 03:00 OP:and  STATUS:               ID:20170122210743     3
 OLDACT:UP  17-01-23 03:00 OP:and  STATUS:               ID:20170122210743     3
 OLDACT:REG 17-01-23 02:24 OP:y    STATUS:               ID:20170122210743     3
 2017-01-22-2108-00M.COL___355                                                 6
 STAT SP IPHASW D HRMM SECON CODA AMPLIT PERI AZIMU VELO AIN AR TRES W  DIS CAZ7
 BAR2 EZ IP     D 2110 55.34                             162    0.3210 37.0 103 
 BAR2 EZ ES       2111  7.81                             162   -0.2510 37.0 103 
 BAR2 EZ I        2111  9.33       392.8 0.12            158           37.0 103 
 BRR  HZ IP     C 2110 55.47                             154    0.0410 53.3 335 
 BRR  HN ES       2111  9.32                             154    0.5410 53.3 335 
 BRR  HZ I        2111 10.32       125.4 0.12            154           53.3 335 
 RUS  HZ IP     C 2110 59.18                             138   -0.0310 98.0 151 
 RUS  HE ES       2111 15.62                             138    0.1110 98.0 151 
 RUS  HZ I        2111 17.09       220.6 0.24            131           98.0 151 
 PTB  HZ IP     C 2110 58.38                             135   -0.8310  106 262 
 PTB  HN ES   3   2111 13.92                             135   -1.60 2  106 262 
 PTB  HZ I        2111 15.74       100.9 0.12            130            106 262 
 PAM  EZ EP       2111  0.63                             133   -0.1310  116  50 
 PAM  EN ES       2111 17.85                             133   -0.4210  116  50 
 PAM  EZ I        2111 20.55        55.1 0.18            130            116  50 
 ZAR  HZ EP       2111  6.32                             120    0.40 9  175 301 
 ZAR  HN ES   3   2111 28.70                             120    1.24 2  175 301 
 ZAR  HZ I        2111 32.43        75.5 0.28            116            175 301 
 TAM  HZ IP     D 2111  7.87                             117    0.08 9  192  98 
 TAM  HZ I        2111 29.92        28.0 0.24            113            192  98 
 TAM  HN ES       2111 30.98                             117    0.20 9  192  98 
 NOR  HZ EP       2111  7.74                             117   -0.32 9  194 231 
 NOR  HN ES       2111 31.28                             117    0.01 9  194 231 
 NOR  HZ I        2111 35.51        54.2 0.24            112            194 231 
 ROSC BZ EP   9   2111 13.66                             114    2.14 0  221 204 
 ROSC BN ES       2111 39.90                             114    0.34 8  221 204 
 ROSC BZ I        2111 45.10        35.8 0.33            109            221 204 
 CHI  HZ EP   2   2111 13.03                             113    0.86 4  227 186 
 CHI  HN ES   4   2111 39.85                             113    1.27 0  227 186 
 CHI  HZ I        2111 44.08        19.2 0.32            108            227 186 
 URE  HZ EP       2111 14.52                             110   -0.16 8  254 298 
 URE  HN ES   4   2111 41.22                             110   -1.83 0  254 298 
 URE  HZ I        2111 51.45        28.3 0.14            107            254 298 
 ELA  HZ EP   4   2111 22.26                             107    2.75 0  290 226 
 ELA  HN ES   4   2111 53.14                             107    1.50 0  290 226 
 ELA  HZ I        2111 59.74        31.5 0.34            103            290 226 
 CBOC HZ EP   4   2111 20.79                             107    1.57 0  291 252 
 CBOC HN ES       2111 51.43                             107    0.31 7  291 252 
 CBOC HZ I        2112  7.09        13.8 0.50            103            291 252 
 DBB  EZ EP       2111 20.69                             106    0.42 7  301 277 
 DBB  EN ES       2111 52.70                             106   -0.31 7  301 277 
 DBB  EZ I        2111 54.29        12.5 0.40            103            301 277 
 PTGC HZ EP       2111 21.09                             105   -0.46 7  313 151 
 PTGC HN ES   4   2111 54.36                             105   -0.92 0  313 151 
 LL6C HZ EP   9   2111  6.47                             104   -18.3 0  340   4 
 LL6C HE ES   3   2111 44.28                                    1.58 2  340   4 
 LL6C HZ I        2111 52.53        11.4 0.17            101            340   4 
 ORTC HZ EP       2111 28.07                             103    0.77 6  361 212 
 ORTC HN ES   4   2112  8.06                             103    2.55 0  361 212 
 ORTC HZ I        2112 10.69        15.6 0.20             99            361 212 
 ARGC HZ EP   4   2111 31.01                             103    3.66 0  362 347 
 ARGC HN ES   4   2112 13.37                             103    7.76 0  362 347 
 SJC  HZ EP   4   2111 30.91                             101   -1.26 0  402 333 
 SJC  HN ES   4   2112 10.69                             101   -3.49 0  402 333 
 CRJC HZ EP       2111 42.59                              98    0.21 4  486   8 
 CRJC HN ES   2   2112 32.36                              98    0.01 2  486   8 
 CRJC HZ I        2112 35.53        17.1 0.30             94            486   8 
 MACC HZ EP   2   2111 43.33                              97   -0.85 2  502 184 
 MACC HN ES   4   2112 34.14                              97   -1.42 0  502 184 
 MACC HZ I        2112 40.41         6.4 0.36             93            502 184 
                                                                                
