 2015 1022 2344 16.5 L   6.787 -73.119143.8  RSN 11 0.4 1.9LRSN                1
 GAP=141        0.89       2.6     3.6  4.9 -0.8540E+00  0.6766E+01  0.8971E+00E
 Epicentro: LOS SANTOS - SANTANDER                                             3
 ACTION:UPD 15-12-22 20:42 OP:cam  STATUS:               ID:20151022234416 L   I
 OLDACT:REG 15-10-23 03:49 OP:ak   STATUS:               ID:20151022233748     3
 2015-10-22-2337-48M.COL___316                                                 6
 STAT SP IPHASW D HRMM SECON CODA AMPLIT PERI AZIMU VELO AIN AR TRES W  DIS CAZ7
 BAR2 EZ EP       2344 35.95                             171    0.1210 22.6 198 
 BAR2 EZ ES       2344 50.73                             171   -0.2210 22.6 198 
 BAR2 EZ I        2344 52.01        15.3 0.18            170           22.6 198 
 BRR  HZ EP       2344 37.85                             151    0.2710 74.5 298 
 BRR  HN ES       2344 54.21                             151    0.1510 74.5 298 
 BRR  HZ I        2344 57.03        17.0 0.41            149           74.5 298 
 PAM  EZ EP       2344 38.87                             151    0.4510 76.7  37 
 PAM  EN ES       2344 55.58                             151    0.0310 76.7  37 
 PAM  EZ I        2344 56.36         8.0 0.18            153           76.7  37 
 RUS  HZ EP       2344 39.80                             144   -0.1010 99.0 178 
 RUS  HN ES       2344 58.21                             144    0.0310 99.0 178 
 RUS  HZ I        2344 59.47         5.6 0.30            147           99.0 178 
 SPBC HZ EP   1   2344 45.00                             128    0.12 7  164 220 
 SPBC HE ES       2345  6.97                             128   -0.07 9  164 220 
 SPBC HZ I        2345 12.21         7.5 0.26            130            164 220 
 ZAR  HZ EP       2344 49.49                             121    0.38 8  207 292 
 ZAR  HN ES       2345 14.71                             121    0.12 8  207 292 
 ZAR  HZ I        2345 22.72        11.2 0.52            122            207 292 
 NOR  HZ EP       2344 52.41                             118    0.17 8  236 235 
 NOR  HN ES       2345 19.93                             118   -0.22 8  236 235 
 NOR  HZ I        2345 22.77         4.7 0.13            119            236 235 
 SML  HZ EP   1   2344 52.33                             117   -0.92 6  246 335 
 SML  HN ES       2345 21.08                             117   -0.87 8  246 335 
 SML  HZ I        2345 27.52        10.8 0.07            118            246 335 
 CHI  HZ EP       2344 53.21                             117   -0.77 8  248 196 
 CHI  HN ES       2345 23.27                             117    0.02 8  248 196 
 HEL  HZ EP       2344 57.26                             114    0.41 8  275 256 
 HEL  HN ES       2345 28.82                             114    0.47 8  275 256 
 GUY2CHZ EP   1   2345  0.72                             112    0.57 5  303 235 
 GUY2CHE ES       2345 33.47                             112   -0.77 7  303 235 
 GUY2CHZ I        2345 43.38         3.0 0.34                           303 235 
 MON  HZ EP   4   2345  3.49                             108   -2.27 0  357 308 
 MON  HE ES   4   2345 41.61                             108   -2.60 0  357 308 
                                                                                
