 2015  222 2308 31.2 L   6.801 -73.148147.4  RSN  8 0.3 1.9LRSN                1
 GAP=136        0.76       2.4     3.6  4.3 -0.8594E+00  0.2743E+01  0.2761E+00E
 Epicentro: LOS SANTOS - SANTANDER                                             3
 ACTION:UPD 15-04-30 21:28 OP:nd   STATUS:               ID:20150222230831 L   I
 OLDACT:DUP 15-02-23 08:26 OP:stll STATUS:               ID:20150222225747d    3
 2015-02-22-2257-46M.COL___275                                                 6
 STAT SP IPHASW D HRMM SECON CODA AMPLIT PERI AZIMU VELO AIN AR TRES W  DIS CAZ7
 BAR2 EZ EP       23 8 50.94                             171   -0.0610 23.4 189 
 BAR2 EZ ES       23 9  6.22                             171   -0.2510 23.4 189 
 BAR2 EZ I        23 9  7.36        30.5 0.20            169           23.4 189 
 BRR  HZ EP       23 8 52.92                             153    0.4310 71.0 299 
 BRR  HN ES       23 9  9.29                             153    0.1810 71.0 299 
 BRR  HZ I        23 9 10.70        13.2 0.12            149           71.0 299 
 PAM  SZ EP       23 8 54.01                             151    0.4410 77.5  40 
 PAM  SZ I        23 8 54.14        12.2 0.24            154           77.5  40 
 PAM  SN ES       23 9 11.00                             151   -0.0410 77.5  40 
 RUS  HZ EP       23 8 55.04                             144   -0.0510  101 176 
 RUS  HZ I        23 8 55.83         7.5 0.50            145            101 176 
 RUS  HN ES       23 9 13.62                             144   -0.1310  101 176 
 PTB  HZ EP       23 8 57.86                             132   -0.40 9  148 259 
 PTB  HE ES       23 9 19.68                             132    0.30 9  148 259 
 PTB  HZ I        23 9 24.37         6.9 0.30            130            148 259 
 SPBC HZ EP       23 9  0.07                             129    0.28 9  163 219 
 SPBC HN ES       23 9 22.13                             129    0.01 9  163 219 
 SPBC HZ I        23 9 27.68        10.6 0.28            128            163 219 
 SML  HZ EP       23 9  7.44                             118   -0.43 8  244 335 
 SML  HN ES       23 9 36.05                             118   -0.45 8  244 335 
 SML  HZ I        23 9 42.18         6.6 0.10            117            244 335 
 CHI  HZ EP       23 9  9.24                             117    0.27 8  249 195 
 CHI  HN ES       23 9 38.01                             117   -0.43 8  249 195 
 CHI  HZ I        23 9 40.74         3.0 0.30            117            249 195 
                                                                                
