 2014  722 2005 36.5 L   6.773 -73.180142.6  RSN 18 0.6 2.4LRSN                1
 GAP= 70        1.24       3.0     3.7  5.7 -0.1400E+01  0.5906E+01  0.2589E+01E
 Epicentro: LOS SANTOS - SANTANDER                                             3
 ACTION:UPD 15-03-16 20:46 OP:nd   STATUS:               ID:20140722200536 L   I
 OLDACT:REG 14-07-23 05:07 OP:stll STATUS:               ID:20140722200150     3
 2014-07-22-2001-50M.COL___272                                                 6
 STAT SP IPHASW D HRMM SECON CODA AMPLIT PERI AZIMU VELO AIN AR TRES W  DIS CAZ7
 BAR2 SZ EP       20 5 55.91                             172    0.2710 19.9 181 
 BAR2 SZ ES       20 6 11.01                             172    0.4110 19.9 181 
 BAR2 SZ I        20 6 12.75        80.2 0.42            169           19.9 181 
 BRR  HZ IP     C 20 5 57.81                             153    0.6410 69.5 302 
 BRR  HZ I        20 5 58.04        48.6 0.24            152           69.5 302 
 BRR  HN ES       20 6 13.99                             153    0.6710 69.5 302 
 PAM  SZ EP       20 5 58.49                             149   -0.1410 82.1  40 
 PAM  SN ES       20 6 15.76                             149   -0.1610 82.1  40 
 PAM  SZ I        20 6 18.09        18.5 0.54            155           82.1  40 
 RUS  HZ EP       20 5 59.65                             144   -0.0510 97.9 174 
 RUS  HN ES       20 6 17.59                             144   -0.2410 97.9 174 
 RUS  HZ I        20 6 19.30        22.8 0.28            145           97.9 174 
 PTB  HZ EP       20 6  2.35                             132   -0.43 9  143 260 
 PTB  HN ES       20 6 23.02                             132   -0.29 9  143 260 
 PTB  HZ I        20 6 28.42        28.2 0.30            132            143 260 
 SPBC HZ EP       20 6  4.68                             129    0.42 9  158 219 
 SPBC HZ I        20 6 32.36        24.3 0.14            129            158 219 
 TAM  HZ IP     D 20 6  4.04                             129   -0.12 9  158 104 
 TAM  HZ I        20 6  4.18        37.4 0.20            134            158 104 
 OCA  HZ EP       20 6  4.64                             128   -0.13 9  163 355 
 OCA  HN ES       20 6 26.60                             128   -0.26 9  163 355 
 ZAR  HZ EP       20 6  8.13                             122   -0.33 9  202 293 
 ZAR  HN ES       20 6 33.55                             122    0.13 9  202 293 
 ZAR  HZ I        20 6 39.91        28.6 0.38            123            202 293 
 NOR  HZ EP       20 6 11.64                             118    0.16 8  230 235 
 NOR  HE ES       20 6 38.24                             118   -0.56 8  230 235 
 NOR  HZ I        20 6 47.11        18.7 0.18            119            230 235 
 SML  HZ EP       20 6 12.08                             117   -0.96 8  245 336 
 SML  HN ES       20 6 40.91                             117   -0.67 8  245 336 
 SML  HZ I        20 6 43.83        33.6 0.32            119            245 336 
 CHI  HZ EP       20 6 13.46                             117   -0.10 8  245 194 
 CHI  HN ES       20 6 41.48                             117   -1.01 8  245 194 
 CHI  HZ I        20 6 49.09        12.2 0.30            118            245 194 
 HEL  HZ EP       20 6 16.75                             115    0.73 8  268 256 
 HEL  HE ES       20 6 46.47                             115   -0.41 8  268 256 
 HEL  HZ I        20 6 54.95         9.8 0.56            116            268 256 
 GUY2CHZ EP       20 6 20.49                             112    1.12 7  296 235 
 GUY2CHE ES       20 6 53.22                             112    0.37 7  296 235 
 GUY2CHZ I        20 7  4.54         9.8 0.34                           296 235 
 RREF HZ EP   1   20 6 20.91                             111   -1.00 5  317 229 
 RREF HE ES   2   20 6 56.96                             111   -0.40 3  317 229 
 RREF HZ I        20 7  7.11        14.5 0.30            112            317 229 
 DBB  SZ EP       20 6 24.99                             109    1.59 7  336 275 
 DBB  SZ ES       20 6 59.60                             109   -0.42 7  336 275 
 TOL  SZ EP       20 6 25.30                             109    1.27 7  339 225 
 TOL  SN ES       20 7  0.72                             109   -0.42 7  339 225 
 PRA  HZ EP       20 6 29.31                             106   -0.03 6  388 209 
 PRA  HN ES       20 7 10.40                             106   -0.19 6  388 209 
 PRA  HZ I        20 7 15.12        10.1 0.26            108            388 209 
                                                                                
