 2011  522 2223 32.0 L   6.761 -73.157134.6  RSN  5 0.3 1.5LRSN                1
 GAP=137        0.68       5.4     8.8  7.7 -0.4123E+01 -0.9171E+01 -0.8845E+01E
 Epicentro: LOS SANTOS - SANTANDER                                             3
 ACTION:UP  11-06-29 08:55 OP:tino STATUS:               ID:20110522222332 L   I
 2011-05-22-2220-14S.COL___139                                                 6
 STAT SP IPHASW D HRMM SECON CODA AMPLIT PERI AZIMU VELO SNR AR TRES W  DIS CAZ7
 BAR2 SZ EP   1   2223 50.18                             171     0.0 7   19 189 
 BAR2 SZ I        2223 51.09        10.5 0.39                            19 189 
 BAR2 SZ ES   1   2224  3.95                             171    -0.5 7   19 189 
 BRR  HZ EP   1   2223 52.17                             150     0.1 7   72 302 
 BRR  HZ I        2223 52.70        14.7 0.24                            72 302 
 BRR  HN ES   2   2224  7.91                             150     0.3 5   72 302 
 PAM  SZ EP   1   2223 53.55                             147     0.2 7   82  38 
 PAM  SN ES   2   2224 10.44                             147     0.5 5   82  38 
 RUS  HZ EP   1   2223 54.48                             142     0.1 7   96 175 
 RUS  HE ES   2   2224 12.00                             142     0.2 5   96 175 
 RUS  HZ I        2224 13.86         3.0 0.26                            96 175 
 GRA  SZ EP   1   2223 56.19                             133    -0.5 7  130  17 
 GRA  SZ I        2224 18.15         4.4 0.29                           130  17 
                                                                                
