 2016  522 2039 29.3 L   6.687 -73.174143.2  RSN  4 0.3 1.0LRSN                1
 GAP=225        0.88       6.9     7.1  7.3  0.2653E+02  0.1167E+02  0.5342E+01E
 Epicentro: VILLANUEVA - SANTANDER                                             3
 ACTION:UPD 16-08-18 17:48 OP:cam  STATUS:               ID:20160522203929 L   I
 OLDACT:UP  16-05-23 03:31 OP:edw  STATUS:               ID:20160522202744     3
 OLDACT:REG 16-05-23 02:43 OP:edw  STATUS:               ID:20160522202744     3
 2016-05-22-2027-44M.COL___304                                                 6
 STAT SP IPHASW D HRMM SECON CODA AMPLIT PERI AZIMU VELO AIN AR TRES W  DIS CAZ7
 BAR2 EZ ES       2040  3.49                             176    0.1110 10.5 185 
 BRR  HZ EP       2039 49.85                             151   -0.6010 75.5 308 
 BRR  HN ES       2040  7.18                             151    0.2510 75.5 308 
 RUS  HZ EP       2039 52.18                             147    0.2110 88.4 173 
 RUS  HN ES       2040  9.45                             147   -0.1910 88.4 173 
 RUS  HZ I        2040 11.70         1.6 0.28            144           88.4 173 
 PTB  HZ EP       2039 56.10                             132    0.47 9  143 264 
 PTB  HN ES       2040 15.93                             132   -0.22 9  143 264 
 PTB  HZ I        2040 20.40         1.6 0.07            130            143 264 
                                                                                
