 2012  122 2053 35.1 L   6.740 -73.148147.1  RSN  6 0.4 1.6LRSN                1
 GAP=139        0.90       4.8     5.5  9.4  0.2038E+01  0.7584E+01  0.1231E+02E
 Epicentro: JORDAN - SANTANDER                                                 3
 ACTION:UP  12-02-03 08:19 OP:REBC STATUS:               ID:20120122205335 L   I
 2012-01-22-2050-00M.COL___186                                                 6
 STAT SP IPHASW D HRMM SECON CODA AMPLIT PERI AZIMU VELO SNR AR TRES W  DIS CAZ7
 BRR  HZ EP       2053 56.75                             152     0.210   74 303 
 BRR  HE ES   1   2054 14.03                             152     0.7 7   74 303 
 BRR  HZ I        2054 15.39        14.8 0.30                            74 303 
 PAM  SZ EP   1   2053 57.74                             149     0.0 7   83  37 
 PAM  SN ES   1   2054 15.02                             149    -0.5 7   83  37 
 RUS  HZ EP   1   2053 58.62                             146     0.1 7   94 176 
 RUS  HN ES   1   2054 16.83                             146     0.1 7   94 176 
 RUS  HZ I        2054 18.33         4.9 0.30                            94 176 
 PTB  HZ EP   1   2054  1.49                             133    -0.6 7  146 261 
 PTB  HE ES   1   2054 22.51                             133    -0.6 7  146 261 
 ZAR  HE ES   1   2054 33.54                             122     0.1 6  206 294 
 ZAR  HZ I        2054 39.00         7.0 0.29                           206 294 
 CHI  HZ EP   1   2054 12.75                             118     0.6 6  242 196 
 CHI  HN ES   1   2054 40.86                             118    -0.2 6  242 196 
 CHI  HZ I        2054 47.60         1.3 0.44                           242 196 
                                                                                
