 2014  822 2334 35.7 L   6.817 -73.118144.0  RSN 21 0.4 2.3LRSN                1
 GAP= 72        0.82       2.2     2.9  4.1 -0.8960E+00  0.2598E+01  0.1454E+01E
 Epicentro: LOS SANTOS - SANTANDER                                             3
 ACTION:UPD 14-09-15 21:52 OP:nd   STATUS:               ID:20140822233435 L   I
 OLDACT:REG 14-08-23 06:21 OP:spq  STATUS:               ID:20140822232818     3
 2014-08-22-2328-18M.COL___251                                                 6
 STAT SP IPHASW D HRMM SECON CODA AMPLIT PERI AZIMU VELO AIN AR TRES W  DIS CAZ7
 BAR2 SZ EP     D 2334 54.85                             169   -0.3010 25.9 196 
 BAR2 SZ ES   1   2335  9.86                             169   -0.48 7 25.9 196 
 BAR2 SZ I        2335 10.76        73.4 0.32            167           25.9 196 
 BRR  HZ IP     C 2334 56.65                             152   -0.1010 73.1 296 
 BRR  HN ES       2335 13.66                             152    0.4810 73.1 296 
 BRR  HZ I        2335 16.02        32.4 0.16            147           73.1 296 
 PAM  SZ EP       2334 57.69                             152    0.1910 74.0  39 
 PAM  SE ES       2335 14.72                             152    0.1910 74.0  39 
 PAM  SZ I        2335 17.03        35.6 0.50            155           74.0  39 
 RUS  HZ EP       2334 58.91                             143   -0.4710  102 178 
 RUS  HN ES       2335 17.72                             143   -0.1510  102 178 
 RUS  HZ I        2335 19.43        22.3 0.18            144            102 178 
 PTB  HZ EP   4   2335  1.50                             131   -1.32 0  151 258 
 PTB  HE ES   1   2335 23.73                             131   -0.25 7  151 258 
 PTB  HZ I        2335 26.12        20.5 0.18            129            151 258 
 TAM  HZ IP     D 2335  3.35                             131    0.37 9  153 106 
 OCA  HZ EP   1   2335  3.83                             130    0.12 7  159 352 
 OCA  HE ES       2335 25.67                             130    0.09 9  159 352 
 OCA  HZ I        2335 28.46        30.0 0.16            129            159 352 
 SPBC HZ EP       2335  4.24                             128   -0.13 9  167 219 
 SPBC HE ES       2335 27.07                             128    0.32 9  167 219 
 SPBC HZ I        2335 32.07        30.2 0.24            127            167 219 
 ZAR  HZ EP       2335  8.89                             122    0.65 8  206 291 
 ZAR  HE ES       2335 33.45                             122   -0.18 8  206 291 
 ZAR  HZ I        2335 40.58        23.2 0.32            120            206 291 
 NOR  HZ EP   1   2335 11.39                             118   -0.31 6  238 235 
 NOR  HE ES       2335 39.55                             118   -0.24 8  238 235 
 NOR  HZ I        2335 44.73        16.2 0.16            117            238 235 
 SML  HZ EP       2335 11.22                             117   -0.94 8  243 334 
 SML  HE ES   1   2335 40.71                             117    0.09 6  243 334 
 SML  HZ I        2335 50.41        28.5 0.09            117            243 334 
 CHI  HZ EP   1   2335 13.38                             117   -0.19 6  251 196 
 CHI  HE ES   1   2335 43.72                             117    0.60 6  251 196 
 CHI  HZ I        2335 47.33         6.1 0.32            117            251 196 
 ROSC BN ES   4   2335 46.67                             116    2.68 0  256 211 
 ROSC BZ I        2335 48.53        13.0 0.40            116            256 211 
 HEL  HZ EP       2335 16.05                             114   -0.14 7  276 256 
 HEL  HN ES   4   2335 50.28                             114    2.49 0  276 256 
 HEL  HZ I        2335 53.14        10.6 0.42            114            276 256 
 URE  HZ EP   4   2335 19.16                             113    2.25 0  286 291 
 URE  HN ES   4   2335 46.18                             113   -2.89 0  286 291 
 URE  HZ I        2335 58.91        16.4 0.18            112            286 291 
 GUY2CHZ EP       2335 19.71                             112    0.09 7  305 235 
 GUY2CHE ES   4   2335 57.02                             112    3.13 0  305 235 
 GUY2CHZ I        2336  1.18         8.3 0.34                           305 235 
 CBOC HZ EP   1   2335 23.64                             109    0.71 5  337 252 
 CBOC HN ES   1   2335 59.38                             109   -0.40 5  337 252 
 CBOC HZ I        2336  4.51         3.2 0.14            109            337 252 
 TOL  SN ES   4   2336  4.03                             109    1.86 0  347 225 
 TOL  SZ I        2336 11.14        14.6 0.38            109            347 225 
 PRA  HZ EP       2335 29.17                             106   -0.34 6  395 210 
 PRA  HN ES       2336 11.67                             106    0.17 6  395 210 
 PRA  HZ I        2336 16.18         5.1 0.30            106            395 210 
 ORTC HZ EP       2335 29.96                             106    0.03 6  399 216 
 ORTC HN ES       2336 13.15                             106    0.90 6  399 216 
 ORTC HZ I        2336 15.74         4.0 0.48            106            399 216 
 SJC  HZ EP   4   2335 29.13                             105   -2.07 0  409 326 
 SJC  HN ES   4   2336 12.43                             105   -2.07 0  409 326 
 SJC  HZ I        2336 14.36         5.0 0.54            106            409 326 
                                                                                
