 2016  222 2244 35.5 L   6.617 -74.160 25.8  RSN 11 0.5 1.9LRSN                1
 GAP= 81        1.20       2.6     2.1  4.1 -0.7993E+00 -0.1313E+01  0.2614E+01E
 Epicentro: PUERTO PARRA - SANTANDER                                           3
 ACTION:UPD 16-03-04 21:28 OP:rebc STATUS:               ID:20160222224435 L   I
 OLDACT:REG 16-02-23 06:00 OP:ak   STATUS:               ID:20160222223749     3
 2016-02-22-2237-49M.COL___331                                                 6
 STAT SP IPHASW D HRMM SECON CODA AMPLIT PERI AZIMU VELO AIN AR TRES W  DIS CAZ7
 PTB  HZ IP     D 2244 42.20                             120   -0.1210 33.8 255 
 PTB  HN ES       2244 47.58                             120   -0.0310 33.8 255 
 PTB  HZ I        2244 47.96       229.2 0.13            112           33.8 255 
 BRR  HZ EP       2244 47.50                              94   -0.2110 73.5  42 
 BRR  HN ES       2244 57.07                              94   -0.1510 73.5  42 
 BRR  HZ I        2244 57.99        32.4 0.10             99           73.5  42 
 SPBC HZ EP   2   2244 52.51                              61    0.08 5  107 175 
 SPBC HN ES       2245  5.31                              61   -0.3010  107 175 
 SPBC HZ I        2245  5.91        14.1 0.10             97            107 175 
 BAR2 EZ IP     D 2244 52.82                              61    0.0810  108  91 
 BAR2 EZ ES       2245  5.22                              61   -0.9510  108  91 
 BAR2 EZ I        2245  6.98        36.3 0.34             97            108  91 
 ZAR  HZ EP       2244 54.31                              61   -0.1010  124 322 
 ZAR  HN ES       2245  8.97                              61   -0.1710  124 322 
 ZAR  HZ I        2245 11.16        18.3 0.20             96            124 322 
 NOR  HZ EP   2   2244 57.16                              61    0.61 5  140 214 
 NOR  HE ES       2245 12.22                              61   -0.73 9  140 214 
 NOR  HZ I        2245 15.95         9.8 0.18             56            140 214 
 RUS  HZ EP       2244 58.24                              61    0.77 9  144 124 
 RUS  HN ES       2245 15.35                              61    0.76 9  144 124 
 RUS  HZ I        2245 17.00        20.3 0.42             56            144 124 
 HEL  HZ IP     D 2244 59.56                              61    0.37 9  159 253 
 HEL  HN ES       2245 17.12                              61   -0.53 9  159 253 
 HEL  HZ I        2245 18.75        14.8 0.42             56            159 253 
 PAM  EZ EP   2   2245  3.02                              61    0.99 4  180  64 
 PAM  EN ES   4   2245 24.42                              61    1.71 0  180  64 
 PAM  EZ I        2245 25.92        22.0 0.24             56            180  64 
 URE  HZ EP   4   2245  5.53                              61    1.99 0  197 310 
 URE  HE ES       2245 26.10                              61    0.70 9  197 310 
 URE  HZ I        2245 33.65         7.6 0.16             56            197 310 
 GUY2CHZ EP   2   2245  5.83                              61    0.86 4  204 221 
 GUY2CHN ES       2245 28.35                              61    0.42 9  204 221 
 GUY2CHZ I        2245 35.10         4.5 0.44                           204 221 
                                                                                
