 2016  622 2314 44.8 L   6.782 -73.167143.9  RSN  4 0.1 1.3LRSN                1
 GAP=242        0.39       3.9     3.0  3.8  0.7711E+01 -0.1401E+00 -0.5201E+01E
 Epicentro: LOS SANTOS - SANTANDER                                             3
 ACTION:UPD 16-07-21 22:21 OP:rebc STATUS:               ID:20160622231444 L   I
 OLDACT:REG 16-06-23 02:47 OP:drio STATUS:               ID:20160622230747     3
 2016-06-22-2307-47M.COL___337                                                 6
 STAT SP IPHASW D HRMM SECON CODA AMPLIT PERI AZIMU VELO AIN AR TRES W  DIS CAZ7
 BAR2 EZ EP       2315  4.07                             171   -0.1210 21.0 185 
 BAR2 EZ ES       2315 19.26                             171   -0.0310 21.0 185 
 RUS  HZ EP       2315  8.21                             144   -0.0610 98.8 175 
 RUS  HE ES       2315 26.71                             144    0.1710 98.8 175 
 RUS  HZ I        2315 28.26         2.2 0.64                          98.8 175 
 PTB  HE ES       2315 31.97                             132   -0.16 9  145 259 
 ZAR  HZ EP       2315 17.11                             122    0.10 9  203 293 
 ZAR  HE ES       2315 42.25                             122    0.14 9  203 293 
 ZAR  HZ I        2315 50.87         3.1 0.10                           203 293 
                                                                                
