 2012  222 2009 42.7 L   6.297 -73.773  4.0  RSN  9 0.5 2.2LRSN                1
 GAP=102        1.09       3.0     2.3  6.6 -0.1298E+01  0.2095E+01  0.2602E+01E
 ACTION:UP  12-03-07 16:33 OP:epov STATUS:               ID:20120222200942 L   I
 2012-02-22-2007-00S.MAN___184                                                 6
 STAT SP IPHASW D HRMM SECON CODA AMPLIT PERI AZIMU VELO AIN AR TRES W  DIS CAZ7
 BAR2 SZ EP       20 9 54.75                              47    0.1710 73.0  63 
 BAR2 SZ ES   1   2010  2.85                              47   -1.02 7 73.0  63 
 BAR2 SZ I        2010  3.78       101.0 0.46                          73.0  63 
 PTB  HZ IP     D 20 9 55.43                              47    0.0010 80.2 290 
 PTB  HN ES   1   2010  4.86                              47   -0.53 7 80.2 290 
 RUS  HZ IP     D 20 9 57.60                              47    0.4110 88.5 120 
 RUS  HZ I        20 9 57.78        62.7 0.12                          88.5 120 
 RUS  HN ES   1   2010  7.92                              47   -0.58 7 88.5 120 
 BRR  HZ EP       20 9 57.41                              47    0.5310 89.8   4 
 BRR  HZ I        2010  6.57        40.8 0.10                          89.8   4 
 BRR  HE ES   1   2010  7.87                              47   -0.09 7 89.8   4 
 NOR  SZ EP   1   2010  5.80                              47    0.36 7  146 236 
 NOR  SN ES       2010 22.76                              47   -0.43 9  146 236 
 PAM  SZ EP   1   2010  9.29                              47    0.45 7  165  46 
 HEL  HZ EP       2010 12.31                              37   -0.40 9  195 267 
 HEL  HZ I        2010 36.99        36.2 0.15                           195 267 
 RREF HN ES   1   2010 45.43                              37    0.22 6  233 229 
 RREF HZ I        2010 48.66        20.8 0.26                           233 229 
 TOL  SZ EP   1   2010 21.29                              37    1.03 6  255 222 
                                                                                
