 2010  922 2029  5.2 L   6.777 -73.056146.0  RSN 10 0.4 2.6LRSN                1
 GAP=169        0.71       3.6     8.3  7.3 -0.8848E+01  0.2814E+00  0.1762E+00E
 Epicentro: LOS SANTOS - SANTANDER                                             3
 ACTION:UP  11-02-18 11:04 OP:tino STATUS:               ID:20100922202905 L   I
 2010-09-22-2026-20S.COL___122                                                 6
 STAT SP IPHASW D HRMM SECON CODA AMPLIT PERI AZIMU VELO SNR AR TRES W  DIS CAZ7
 BAR2 SZ IP     D 2029 24.85                             170    -0.110   25 214 
 BAR2 SZ ES   2   2029 39.64                             170    -0.7 5   25 214 
 BAR2 SZ I        2029 41.13        75.9 0.40                            25 214 
 BTL  SZ EP   1   2029 25.55                             169     0.5 7   28 304 
 BRR  HZ IP     C 2029 26.73                             149    -0.310   81 297 
 BRR  HZ I        2029 27.02       193.2 0.19                            81 297 
 BRR  HE ES   2   2029 44.27                             149     0.3 5   81 297 
 RUS  HZ EP   1   2029 29.03                             145     0.2 7   98 182 
 RUS  HN ES   2   2029 47.37                             145     0.1 5   98 182 
 RUS  HZ I        2029 48.74        40.1 0.26                            98 182 
 GUE  SZ EP   1   2029 29.90                             139    -0.1 7  117   7 
 GRA  SZ IP     C 2029 30.67                             137     0.210  126  13 
 GRA  SZ ES   2   2029 50.42                             137     0.2 5  126  13 
 GRA  SZ I        2029 51.26        49.9 0.34                           126  13 
 OCA  SZ EP   1   2029 33.39                             129    -0.6 7  164 350 
 OCA  SZ ES   2   2029 56.79                             129     0.5 5  164 350 
 OCA  SZ I        2030  1.14        53.2 0.36                           164 350 
 CHI  HZ EP   1   2029 42.85                             117    -0.1 6  249 198 
 CHI  HZ I        2029 45.54        15.1 0.42                           249 198 
 CHI  HE ES   2   2030 12.36                             117    -0.1 4  249 198 
 HEL  HZ EP   2   2029 46.88                             114     0.4 4  281 257 
 HEL  HZ I        2030 23.19        20.8 0.35                           281 257 
 RREF HZ EP   2   2029 52.13                             110     0.1 3  328 231 
 RREF HN ES   3   2030 30.17                             110     1.6 2  328 231 
 RREF HZ I        2030 36.37        18.1 0.22                           328 231 
                                                                                
