 2014 1222 2316 50.5 L   6.357 -73.703101.2  RSN  7 0.5 1.4LRSN                1
 GAP=169        1.24       3.9     5.5 11.9 -0.4943E+01 -0.1029E+02  0.1688E+02E
 Epicentro: SANTA HELENA DEL OPON - SANTANDER                                  3
 ACTION:UPD 15-02-10 17:06 OP:nd   STATUS:               ID:20141222231650 L   I
 OLDACT:REG 14-12-23 03:00 OP:fm   STATUS:               ID:20141222230750     3
 2014-12-22-2307-50M.COL___289                                                 6
 STAT SP IPHASW D HRMM SECON CODA AMPLIT PERI AZIMU VELO AIN AR TRES W  DIS CAZ7
 BRR  HZ EP       2317  7.44                             137   -0.5710 82.9 359 
 BRR  HE ES       2317 21.86                             137    0.2110 82.9 359 
 PTB  HZ EP       2317  7.88                             136   -0.3910 85.8 284 
 PTB  HN ES       2317 21.68                             136   -0.4410 85.8 284 
 PTB  HZ I        2317 23.18         5.9 0.12            133           85.8 284 
 NOR  HN ES       2317 35.06                             118    0.53 9  156 236 
 NOR  HZ I        2317 38.63         3.9 0.16            117            156 236 
 ZAR  HE ES       2317 38.85                             114   -0.04 9  179 315 
 ZAR  HZ I        2317 44.17         5.5 0.40            114            179 315 
 CHI  HZ EP       2317 18.82                             112   -0.74 9  191 181 
 CHI  HE ES       2317 42.83                             112    0.62 9  191 181 
 CHI  HZ I        2317 46.51         1.5 0.32            113            191 181 
 HEL  HZ EP       2317 20.75                             111   -0.10 9  203 265 
 HEL  HN ES       2317 44.92                             111    0.42 9  203 265 
 HEL  HZ I        2317 48.69         3.3 0.54            111            203 265 
 OCA  HE ES       2317 46.83                             110    0.89 8  212  11 
                                                                                
