 2017  522 2350  4.0 L   6.768 -73.163143.7  RSN  4 0.3 1.7LRSN                1
 GAP=136        0.84       4.6     4.4  7.5 -0.2206E+01  0.2848E+01  0.4475E+01E
 Epicentro: LOS SANTOS - SANTANDER                                             3
 ACTION:UPD 17-06-16 13:38 OP:jn   STATUS:               ID:20170522235004 L   I
 OLDACT:REG 17-05-23 03:19 OP:cog  STATUS:               ID:20170522234742     3
 2017-05-22-2348-00M.COL___341                                                 6
 STAT SP IPHASW D HRMM SECON CODA AMPLIT PERI AZIMU VELO AIN AR TRES W  DIS CAZ7
 BRR  HZ EP       2350 25.17                             152    0.2210 71.3 302 
 BRR  HN ES       2350 41.68                             152    0.4010 71.3 302 
 BRR  HZ I        2350 49.99        15.5 0.42            152           71.3 302 
 PAM  EZ EP       2350 26.25                             149   -0.0110 81.3  39 
 PAM  EN ES       2350 43.28                             149   -0.3210 81.3  39 
 PAM  EZ I        2350 45.68         8.6 0.52            153           81.3  39 
 RUS  HZ EP       2350 27.78                             144    0.4610 97.2 175 
 RUS  HN ES       2350 45.35                             144   -0.1510 97.2 175 
 RUS  HZ I        2350 46.66         4.5 0.22            151           97.2 175 
 PTB  HZ EP       2350 30.11                             132   -0.48 9  145 260 
 PTB  HN ES       2350 51.10                             132   -0.21 9  145 260 
 PTB  HZ I        2350 53.33         5.6 0.20            135            145 260 
                                                                                
