 2014  422 2051 24.1 L   6.800 -73.236146.4  RSN  4 0.2 1.5LRSN                1
 GAP=126        0.67       6.0     4.3 11.3  0.4418E+01 -0.7679E+01 -0.4200E+02E
 Epicentro: ZAPATOCA - SANTANDER                                               3
 ACTION:UPD 14-05-13 23:10 OP:nd   STATUS:               ID:20140422205124 L   I
 OLDACT:REG 14-04-23 04:56 OP:stll STATUS:               ID:20140422204818     3
 2014-04-22-2048-18M.COL___242                                                 6
 STAT SP IPHASW D HRMM SECON CODA AMPLIT PERI AZIMU VELO AIN AR TRES W  DIS CAZ7
 BRR  HZ EP       2051 45.33                             156    0.4510 62.6 303 
 PAM  SZ EP       2051 46.53                             149   -0.2810 84.0  45 
 PAM  SZ I        2051 46.63         7.8 0.16            148           84.0  45 
 RUS  HZ EP       2051 48.15                             144    0.1410  102 170 
 RUS  HN ES       2052  6.63                             144   -0.0310  102 170 
 PTB  HZ EP       2051 50.05                             134   -0.22 9  138 258 
 PTB  HZ I        2051 52.18         2.4 0.20            131            138 258 
 PTB  HN ES       2052 10.57                             134   -0.10 9  138 258 
                                                                                
