 2017  922 2003 24.6 L   7.418 -73.181132.2  RSN 16 0.3 2.2LRSN                1
 GAP=147        0.63       2.9     2.3  3.9  0.2763E+00  0.2272E+01  0.5104E+00E
 Epicentro: EL PLAYON - SANTANDER                                              3
 ACTION:UPD 17-10-05 19:15 OP:rebc STATUS:               ID:20170922200324 L   I
 OLDACT:UP  17-09-23 07:10 OP:mg   STATUS:               ID:20170922195736d    3
 OLDACT:UP  17-09-23 07:10 OP:mg   STATUS:               ID:20170922195736d    3
 OLDACT:UP  17-09-23 07:08 OP:mg   STATUS:               ID:20170922195736d    3
 OLDACT:DUP 17-09-23 06:56 OP:mg   STATUS:               ID:20170922195736d    3
 OLDACT:REG 17-09-23 05:02 OP:mg   STATUS:               ID:20170922195735     3
 2017-09-22-1958-00M.COL___450                                                 6
 STAT SP IPHASW D HRMM SECON CODA AMPLIT PERI AZIMU VELO AIN AR TRES W  DIS CAZ7
 PAM  EZ EP       20 3 44.24                             157    0.1310 53.9  99 
 PAM  EN ES       20 3 59.41                             157    0.1210 53.9  99 
 PAM  EZ I        20 4  2.26        44.8 0.48            155           53.9  99 
 BRR  HZ EP       20 3 44.03                             151   -0.1110 67.9 240 
 BRR  HN ES       20 3 59.50                             151    0.1410 67.9 240 
 BRR  HZ I        20 4  3.90        37.7 0.14            142           67.9 240 
 BAR2 EZ IP     D 20 3 46.32                             143    0.2910 91.3 180 
 BAR2 EZ ES       20 4  2.51                             143   -0.2010 91.3 180 
 BAR2 EZ I        20 4  3.88        27.2 0.22            135           91.3 180 
 RUS  HZ EP       20 3 53.19                             125   -0.06 9  169 176 
 RUS  HN ES       20 4 15.36                             125   -0.20 9  169 176 
 RUS  HZ I        20 4 17.58         7.3 0.19            118            169 176 
 ZAR  HZ EP       20 3 53.85                             122   -0.42 9  185 273 
 ZAR  HN ES       20 4 17.32                             122   -0.05 9  185 273 
 ZAR  HZ I        20 4 21.64        23.3 0.32            115            185 273 
 TAM  HZ EP   3   20 3 55.03                             121    0.42 2  188 125 
 TAM  HN ES   1   20 4 17.80                             121   -0.19 7  188 125 
 TAM  HZ I        20 4 19.83        24.9 0.26            116            188 125 
 YPLC HZ EP   9   20 4  0.92                             115    0.64 0  240 158 
 YPLC HN ES   4   20 4 28.95                             116    0.23 0  240 158 
 YPLC HZ I        20 4 32.63        19.8 0.42            109            240 158 
 URE  HZ EP   4   20 4  1.06                             113   -1.56 0  262 278 
 URE  HN ES   4   20 4 29.59                             113   -2.66 0  262 278 
 URE  HZ I        20 4 32.00        11.8 0.09            107            262 278 
 NOR  HZ EP       20 4  4.56                             111    0.17 7  277 222 
 NOR  HN ES       20 4 34.92                             111   -0.47 7  277 222 
 NOR  HZ I        20 4 41.13        11.0 0.14            106            277 222 
 HEL  HZ EP   1   20 4  7.20                             110    0.64 5  293 243 
 HEL  HZ I        20 4 46.75        11.7 0.28            105            293 243 
 CHI  HZ EP   3   20 4 10.01                             109    0.93 2  314 191 
 CHI  HN ES   1   20 4 44.04                             109    0.29 5  314 191 
 CHI  HZ I        20 4 51.31         4.4 0.29            103            314 191 
 SDV  BZ EP   1   20 4  9.60                             108   -0.39 5  324  60 
 SDV  B1 ES   4   20 4 42.91                             108   -2.46 0  324  60 
 SDV  BZ I        20 4 43.76         7.8 0.50            104            324  60 
 GUY2CHZ EP   4   20 4 14.62                             107    2.20 0  342 225 
 GUY2CHE ES   1   20 4 50.63                             107    0.94 5  342 225 
 GUY2CHZ I        20 5  0.61         8.9 0.52                           342 225 
 SJC  HN ES   4   20 4 47.08                             106   -3.60 0  351 321 
 SJC  HZ I        20 4 50.57         3.6 0.31            102            351 321 
 CBOC HZ EP   9   20 4 11.80                             106   -1.97 0  357 241 
 CBOC HN ES   4   20 4 50.65                             106    0.53 0  357 241 
 CBOC HZ I        20 4 54.59         4.3 0.18            101            357 241 
 PRA  HZ EP   9   20 4 26.48                             102    1.74 0  451 205 
 PRA  HN ES   4   20 5 14.40                             102    1.05 0  451 205 
 PRA  HZ I        20 5 22.99         4.6 0.39             97            451 205 
                                                                                
