 2013  722 2231 16.3 L   6.471 -73.769 94.2  RSN  7 0.5 1.6LRSN                1
 GAP= 89        1.26       4.6     4.1 10.2 -0.2291E+01  0.7297E+01  0.1278E+02E
 Epicentro: SANTA HELENA DEL OPON - SANTANDER                                  3
 ACTION:UPD 13-08-12 10:39 OP:ep   STATUS:               ID:20130722223116 L   I
 OLDACT:REG 13-07-22 22:56 OP:nd   STATUS:               ID:20130722223000     3
 2013-07-22-2230-00M.COL___263                                                 6
 STAT SP IPHASW D HRMM SECON CODA AMPLIT PERI AZIMU VELO AIN AR TRES W  DIS CAZ7
 BAR2 SZ EP       2231 32.15                             142   -0.0010 66.2  78 
 BAR2 SZ ES       2231 44.70                             142    0.2010 66.2  78 
 BAR2 SZ I        2231 46.01        17.8 0.18            148           66.2  78 
 BRR  HZ EP       2231 32.45                             140    0.2910 70.6   5 
 BRR  HN ES       2231 45.07                             140    0.5510 70.6   5 
 BRR  HZ I        2231 51.92        12.0 0.46            142           70.6   5 
 PTB  HZ EP       2231 32.05                             138   -0.6010 76.4 276 
 PTB  HN ES       2231 44.53                             138   -0.8610 76.4 276 
 PTB  HZ I        2231 48.37         7.5 0.42            140           76.4 276 
 SPBC HZ EP       2231 34.27                             131   -0.2610 96.6 200 
 SPBC HN ES       2231 49.26                             131    0.5210 96.6 200 
 SPBC HZ I        2231 50.58        12.4 0.24            137           96.6 200 
 RUS  HZ EP       2231 34.98                             130   -0.3410 99.2 130 
 RUS  HN ES       2231 49.75                             130   -0.3910 99.2 130 
 RUS  HZ I        2231 52.68         4.5 0.36            138           99.2 130 
 NOR  HZ EP       2231 41.30                             116    0.48 9  158 231 
 NOR  HN ES       2232  0.53                             116    0.60 9  158 231 
 NOR  HZ I        2232  3.06         8.0 0.20            120            158 231 
 ZAR  HZ EP   4   2231 38.88                             115   -2.69 0  165 313 
 ZAR  HE ES   4   2232  2.52                             115    1.26 0  165 313 
 ZAR  HZ I        2232  5.74         8.3 0.34            118            165 313 
                                                                                
