 2012  922 2042 13.7 L   6.779 -73.170142.7  RSN  6 0.4 1.8LRSN                1
 GAP=134        0.76       5.0     4.5  8.2  0.1098E+01  0.4031E+01  0.5597E+01E
 Epicentro: LOS SANTOS - SANTANDER                                             3
 ACTION:UPD 12-10-22 14:20 OP:ep   STATUS:               ID:20120922204213 L   I
 2012-09-22-2040-00M.COL___221                                                 6
 STAT SP IPHASW D HRMM SECON CODA AMPLIT PERI AZIMU VELO AIN AR TRES W  DIS CAZ7
 GIR2 SZ EP   1   2042 32.96                             166   -0.05 7 33.2 355 
 GIR2 SZ ES   1   2042 47.75                             166   -0.36 7 33.2 355 
 BRR  HZ EP   1   2042 34.66                             152    0.26 7 70.0 301 
 BRR  HE ES   1   2042 51.48                             152    0.90 7 70.0 301 
 PAM  SZ EP   1   2042 35.79                             149    0.04 7 80.9  40 
 PAM  SN ES   1   2042 52.72                             149   -0.27 7 80.9  40 
 PAM  SN I        2042 53.94        14.7 0.42                          80.9  40 
 RUS  HZ EP   1   2042 37.02                             144    0.07 7 98.5 174 
 RUS  HN ES   1   2042 55.15                             144    0.03 7 98.5 174 
 PTB  HN ES   1   2043  0.21                             132   -0.50 7  145 260 
 PTB  HN I        2043  6.07        10.2 0.60                           145 260 
 ZAR  HN ES   1   2043 10.53                             122   -0.22 6  202 293 
 ZAR  HZ I        2043 17.21         3.0 0.30                           202 293 
                                                                                
