 2012  622 2245 14.3 L   6.798 -73.155149.7  RSN  8 0.3 1.6LRSN                1
 GAP=135        0.65       3.5     3.6  5.8 -0.1518E+00  0.4074E+01  0.5022E+01E
 Epicentro: LOS SANTOS - SANTANDER                                             3
 ACTION:UPD 12-08-06 17:51 OP:ep   STATUS:               ID:20120622224514 L   I
 2012-06-22-2240-00M.COL___198                                                 6
 STAT SP IPHASW D HRMM SECON CODA AMPLIT PERI AZIMU VELO AIN AR TRES W  DIS CAZ7
 BAR2 SZ EP   1   2245 34.36                             171   -0.07 7 22.9 188 
 BAR2 SZ ES   1   2245 49.85                             171   -0.25 7 22.9 188 
 BAR2 SZ I        2245 51.12         9.7 0.33                          22.9 188 
 BRR  HZ EP   1   2245 35.79                             153   -0.07 7 70.4 299 
 BRR  HZ I        2245 51.07        10.5 0.31                          70.4 299 
 BRR  HE ES   1   2245 53.52                             153    0.86 7 70.4 299 
 PAM  SZ EP   1   2245 37.23                             151    0.21 7 78.2  40 
 PAM  SN ES   1   2245 54.53                             151   -0.18 7 78.2  40 
 RUS  HZ EP   1   2245 38.30                             145   -0.16 7  100 175 
 RUS  HN ES   1   2245 57.13                             145   -0.15 7  100 175 
 RUS  HZ I        2245 58.60         3.2 0.44                           100 175 
 PTB  HZ EP   1   2245 41.35                             133   -0.18 7  147 259 
 PTB  HN ES   1   2246  2.31                             133   -0.43 7  147 259 
 PTB  HZ I        2246  8.26         3.9 0.13                           147 259 
 ZAR  HN ES   1   2246 12.15                             123   -0.24 6  203 292 
 ZAR  HZ I        2246 20.08         5.8 0.33                           203 292 
 NOR  SE ES   1   2246 18.22                             119    0.07 6  234 234 
 CHI  HZ EP   1   2245 52.47                             118    0.28 6  248 195 
 CHI  HZ I        2245 53.31         1.7 0.25                           248 195 
 CHI  HN ES   1   2246 22.17                             118    0.44 6  248 195 
                                                                                
