 2016  922 2340 34.9 L   6.770 -73.156147.7  RSN  8 0.3 1.5LRSN                1
 GAP=137        0.81       3.3     3.3  5.2 -0.1377E+01  0.4710E+01  0.2955E+00E
 Epicentro: LOS SANTOS - SANTANDER                                             3
 ACTION:UPD 17-08-17 21:15 OP:lp   STATUS:               ID:20160922234034 L   I
 OLDACT:REG 16-09-23 03:02 OP:lv   STATUS:               ID:20160922233736     3
 2016-09-22-2338-00M.COL___333                                                 6
 STAT SP IPHASW D HRMM SECON CODA AMPLIT PERI AZIMU VELO AIN AR TRES W  DIS CAZ7
 BAR2 EZ EP       2340 54.56                             172   -0.1010 19.8 188 
 BAR2 EZ ES       2341 10.02                             172   -0.0810 19.8 188 
 BAR2 EZ I        2341 11.95         6.8 0.24            171           19.8 188 
 BRR  HZ EP       2340 56.44                             153    0.1910 71.8 301 
 BRR  HE ES       2341 13.07                             153    0.1310 71.8 301 
 PAM  EZ EP       2340 57.23                             150   -0.2510 80.7  39 
 PAM  EN ES       2341 14.89                             150   -0.2410 80.7  39 
 PAM  EZ I        2341 17.01         4.1 0.34            154           80.7  39 
 RUS  HZ EP       2340 58.85                             145    0.2810 97.3 175 
 RUS  HE ES       2341 17.32                             145    0.2510 97.3 175 
 RUS  HZ I        2341 18.50         2.6 0.33            148           97.3 175 
 PTB  HZ EP       2341  1.79                             133   -0.03 9  146 260 
 PTB  HN ES       2341 22.45                             133   -0.41 9  146 260 
 PTB  HZ I        2341 29.78         4.3 0.34            132            146 260 
 SPBC HZ EP       2341  3.46                             130    0.27 9  160 219 
 SPBC HN ES       2341 25.39                             130    0.10 9  160 219 
 SPBC HZ I        2341 28.91         5.4 0.24            131            160 219 
 ZAR  HZ EP       2341  7.08                             123   -0.37 9  204 293 
 ZAR  HN ES       2341 33.63                             123    0.76 9  204 293 
 ZAR  HZ I        2341 41.60         3.3 0.11            123            204 293 
 NOR  HE ES       2341 37.50                             119   -0.60 8  232 235 
 NOR  HZ I        2341 41.77         2.3 0.16            120            232 235 
                                                                                
