 2011 1122 2011 56.4 L   6.490 -74.130 90.1  RSN  6 0.3 1.6LRSN                1
 GAP= 99        0.65       3.0     2.4 10.2 -0.8345E+00  0.3742E+01  0.4140E+01E
 Epicentro: PUERTO PARRA - SANTANDER                                           3
 ACTION:UPD 12-07-13 16:11 OP:ep   STATUS:               ID:20111122201156 L   I
 2011-11-22-2009-40S.COL___178                                                 6
 STAT SP IPHASW D HRMM SECON CODA AMPLIT PERI AZIMU VELO AIN AR TRES W  DIS CAZ7
 BRR  HZ EP   1   2012 13.33                             134    0.42 7 82.5  34 
 BRR  HN ES   1   2012 25.82                             134    0.06 7 82.5  34 
 BRR  HZ I        2012 26.33        41.7 0.12                          82.5  34 
 NOR  SN ES   1   2012 34.76                             120    0.30 7  131 219 
 RUS  HZ EP   1   2012 19.00                             120    0.39 7  133 120 
 RUS  HZ I        2012 19.50         2.4 0.10                           133 120 
 RUS  HN ES   1   2012 35.62                             120   -0.28 7  133 120 
 ZAR  HZ EP   1   2012 18.47                             119    0.09 7  137 324 
 ZAR  HN ES   1   2012 35.58                             119    0.09 7  137 324 
 ZAR  HZ I        2012 38.70         6.1 0.12                           137 324 
 HEL  HZ EP   1   2012 21.00                             115   -0.18 7  158 258 
 HEL  HN ES   1   2012 39.94                             115   -0.53 7  158 258 
 HEL  HZ I        2012 42.84         5.3 0.23                           158 258 
 PAM  SN ES   1   2012 45.39                             112   -0.53 7  184  59 
                                                                                
