 2015  822 2316 47.0 L   6.824 -73.138137.3  RSN  4 0.4 1.8LRSN                1
 GAP=151        1.00       8.2     8.7 17.0  0.2006E+02  0.1013E+03  0.5992E+02E
 Epicentro: LOS SANTOS - SANTANDER                                             3
 ACTION:UPD 15-09-15 23:04 OP:cam  STATUS:               ID:20150822231647 L   I
 OLDACT:UP  15-08-23 05:48 OP:mh   STATUS:               ID:20150822230752d    3
 OLDACT:UP  15-08-23 05:48 OP:mh   STATUS:               ID:20150822230752d    3
 OLDACT:UP  15-08-23 05:47 OP:mh   STATUS:               ID:20150822230752d    3
 OLDACT:DUP 15-08-23 05:42 OP:mh   STATUS:               ID:20150822230752d    3
 OLDACT:UP  15-08-23 05:38 OP:mh   STATUS:               ID:20150822230751d    3
 OLDACT:DUP 15-08-23 05:38 OP:mh   STATUS:               ID:20150822230751d    3
 2015-08-22-2307-50M.COL___340                                                 6
 STAT SP IPHASW D HRMM SECON CODA AMPLIT PERI AZIMU VELO AIN AR TRES W  DIS CAZ7
 BAR2 EZ EP       2317  5.13                             169   -0.5010 26.0 191 
 BAR2 EZ I        2317 21.75        12.9 0.21            158           26.0 191 
 PAM  EZ EP       2317  8.13                             150    0.0110 74.8  40 
 PAM  EN ES       2317 25.08                             150    0.4510 74.8  40 
 PAM  EZ I        2317 27.83         7.1 0.24            164           74.8  40 
 OCA  HZ EP   4   2317 21.13                             128    6.75 0  158 353 
 OCA  HN ES       2317 35.31                             128   -0.46 9  158 353 
 OCA  HZ I        2317 39.64        11.4 0.26            139            158 353 
 ZAR  HZ EP       2317 19.43                             120    0.59 9  204 291 
 ZAR  HN ES   1   2317 43.72                             120    0.01 6  204 291 
 ZAR  HZ I        2317 49.88         6.6 0.48            124            204 291 
                                                                                
