 2015  222 2349  2.1 L   6.796 -73.171140.8  RSN 15 0.4 2.0LRSN                1
 GAP= 64        1.46       3.6     4.1  7.0 -0.9587E+00  0.6972E+01  0.3105E+01E
 Epicentro: LOS SANTOS - SANTANDER                                             3
 ACTION:UPD 15-04-30 21:28 OP:nd   STATUS:               ID:20150222234902 L   I
 OLDACT:REG 15-02-23 03:15 OP:stll STATUS:               ID:20150222234739     3
 2015-02-22-2347-39M.COL___278                                                 6
 STAT SP IPHASW D HRMM SECON CODA AMPLIT PERI AZIMU VELO AIN AR TRES W  DIS CAZ7
 BAR2 EZ EP       2349 21.30                             170    0.1510 22.6 183 
 BAR2 EZ ES       2349 36.44                             170    0.4610 22.6 183 
 BAR2 EZ I        2349 37.83        31.7 0.20            170           22.6 183 
 BRR  HZ EP       2349 23.16                             152    0.5510 69.0 300 
 BRR  HE ES       2349 38.76                             152    0.1710 69.0 300 
 BRR  HZ I        2349 41.56        14.3 0.50            150           69.0 300 
 PAM  SZ IP     D 2349 24.07                             149    0.1210 79.5  41 
 PAM  SZ I        2349 24.35        23.4 0.22            152           79.5  41 
 PAM  SN ES       2349 40.96                             149   -0.0110 79.5  41 
 RUS  HZ EP       2349 25.27                             143   -0.1110  100 174 
 RUS  HN ES       2349 43.65                             143    0.1410  100 174 
 RUS  HZ I        2349 45.10        14.5 0.26            144            100 174 
 PTB  HZ EP       2349 28.59                             131    0.16 9  145 259 
 PTB  HN ES       2349 48.16                             131   -0.79 9  145 259 
 PTB  HZ I        2349 54.58         6.4 0.20            130            145 259 
 TAM  HZ EP       2349 29.47                             129   -0.20 9  158 105 
 TAM  HZ I        2349 29.64        12.0 0.20            132            158 105 
 TAM  HN ES       2349 51.01                             129   -0.13 9  158 105 
 OCA  HN ES       2349 51.27                             128   -0.59 9  160 354 
 OCA  HZ I        2349 56.15         9.3 0.38            129            160 354 
 SPBC HZ EP       2349 30.33                             128    0.28 9  161 218 
 SPBC HN ES       2349 52.20                             128    0.38 9  161 218 
 SPBC HZ I        2349 54.90        24.0 0.28            128            161 218 
 ZAR  HZ EP       2349 34.13                             121    0.13 9  202 293 
 ZAR  HN ES       2349 59.12                             121    0.26 9  202 293 
 ZAR  HZ I        2350  7.21         7.1 0.46            121            202 293 
 NOR  HZ EP       2349 37.48                             118    0.18 8  232 234 
 NOR  HE ES       2350  3.68                             118   -1.05 8  232 234 
 NOR  HZ I        2350  9.78         7.0 0.20            118            232 234 
 SML  HZ EP       2349 37.74                             116   -0.66 8  243 336 
 SML  HN ES       2350  6.16                             116   -0.53 8  243 336 
 SML  HZ I        2350 12.95        11.2 0.24            117            243 336 
 CHI  HZ EP       2349 39.28                             116   -0.15 8  247 195 
 CHI  HN ES       2350  8.16                             116   -0.36 8  247 195 
 CHI  HZ I        2350 18.60         3.7 0.48            117            247 195 
 GUY2CHZ EP       2349 46.43                             111    1.21 7  299 235 
 GUY2CHN ES       2350 18.93                             111    0.10 7  299 235 
 GUY2CHZ I        2350 25.50         3.6 0.24                           299 235 
 PTGC HZ EP   9   2349 44.25                             110   -1.59 0  309 158 
 PTGC HN ES       2350 15.46                                   -2.88 7  309 158 
 ORTC HZ EP       2349 55.74                             105    0.09 6  393 216 
 ORTC HE ES       2350 37.29                             105   -0.10 6  393 216 
 ORTC HZ I        2350 44.93         2.9 0.44            106            393 216 
                                                                                
