 2011  522 2333 16.7 L   6.783 -73.080148.6  RSN  7 0.3 1.6LRSN                1
 GAP=146        0.59       3.9     8.7  7.3 -0.4989E+01 -0.9156E+01 -0.1970E+01E
 Epicentro: LOS SANTOS - SANTANDER                                             3
 ACTION:UP  11-06-29 08:55 OP:tino STATUS:               ID:20110522233316 L   I
 2011-05-22-2329-58S.COL___139                                                 6
 STAT SP IPHASW D HRMM SECON CODA AMPLIT PERI AZIMU VELO SNR AR TRES W  DIS CAZ7
 BAR2 SZ EP   1   2333 36.44                             170    -0.2 7   24 208 
 BAR2 SZ ES   2   2333 52.67                             170     0.4 5   24 208 
 BAR2 SZ I        2333 55.55         6.1 0.75                            24 208 
 PAM  SZ EP   2   2333 38.93                             152    -0.1 5   75  34 
 PAM  SE ES   2   2333 56.49                             152     0.0 5   75  34 
 BRR  HZ EP   2   2333 38.58                             151     0.0 5   78 297 
 BRR  HZ I        2333 50.30         7.6 0.43                            78 297 
 BRR  HE ES   2   2333 55.82                             151     0.2 5   78 297 
 RUS  HZ EP   1   2333 40.40                             145    -0.2 7   98 180 
 RUS  HN ES   2   2333 59.06                             145    -0.1 5   98 180 
 RUS  HZ I        2334  0.20         2.5 0.28                            98 180 
 BRI  SZ EP   2   2333 41.16                             142     0.4 5  108  17 
 BRI  SZ I        2333 43.49        11.3 0.91                           108  17 
 GRA  SZ EP   1   2333 42.38                             138     0.2 7  126  14 
 GRA  SZ ES   2   2334  1.92                             138    -0.1 5  126  14 
 GRA  SZ I        2334  4.81         6.2 0.71                           126  14 
 OCA  SZ EP   2   2333 45.99                             130     0.5 5  163 351 
 OCA  SZ ES   2   2334  7.03                             130    -0.9 5  163 351 
 OCA  SZ I        2334 12.20         9.1 0.48                           163 351 
                                                                                
