 2011  522 2341 55.2 L   6.767 -73.079144.9  RSN  6 0.3 1.7LRSN                1
 GAP=164        0.77       4.4     9.4  8.0 -0.8877E+00 -0.2210E+02 -0.1026E+02E
 Epicentro: LOS SANTOS - SANTANDER                                             3
 ACTION:UP  11-06-29 08:55 OP:tino STATUS:               ID:20110522234155 L   I
 2011-05-22-2338-39S.COL___139                                                 6
 STAT SP IPHASW D HRMM SECON CODA AMPLIT PERI AZIMU VELO SNR AR TRES W  DIS CAZ7
 BAR2 SZ EP   1   2342 14.65                             171    -0.1 7   22 211 
 BAR2 SZ ES   1   2342 29.71                             171    -0.2 7   22 211 
 BAR2 SZ I        2342 31.74        13.0 0.35                            22 211 
 BRR  HZ EP   1   2342 16.32                             150    -0.4 7   79 298 
 BRR  HZ I        2342 16.78        15.5 0.20                            79 298 
 BRR  HN ES   1   2342 33.86                             150     0.3 7   79 298 
 RUS  HZ EP   1   2342 18.65                             145     0.0 7   97 180 
 RUS  HN ES   1   2342 37.02                             145     0.2 7   97 180 
 RUS  HZ I        2342 38.62         6.5 0.46                            97 180 
 BRI  SZ EP   1   2342 19.71                             141     0.6 7  110  17 
 GRA  SZ EP   1   2342 20.09                             136    -0.4 7  127  14 
 GRA  SZ ES   1   2342 40.17                             136    -0.1 7  127  14 
 GRA  SZ I        2342 43.06         3.3 0.32                           127  14 
 OCA  SZ EP   1   2342 24.12                             129     0.2 7  165 351 
 OCA  SZ I        2342 51.90         6.6 0.19                           165 351 
                                                                                
