 2017  922 2210 39.9 L   6.771 -73.143146.0  RSN 11 0.3 1.9LRSN                1
 GAP=138        0.78       3.1     3.7  4.9  0.2941E+00  0.6254E+01  0.2978E+01E
 Epicentro: LOS SANTOS - SANTANDER                                             3
 ACTION:UPD 17-10-05 19:15 OP:rebc STATUS:               ID:20170922221039 L   I
 OLDACT:UP  17-09-23 08:57 OP:mg   STATUS:               ID:20170922220739     3
 OLDACT:REG 17-09-23 06:25 OP:mg   STATUS:               ID:20170922220739     3
 2017-09-22-2208-00M.COL___450                                                 6
 STAT SP IPHASW D HRMM SECON CODA AMPLIT PERI AZIMU VELO AIN AR TRES W  DIS CAZ7
 BAR2 EZ EP       2210 59.35                             172   -0.1910 20.3 192 
 BAR2 EZ ES       2211 14.62                             172   -0.2110 20.3 192 
 BAR2 EZ I        2211 17.16        23.6 0.27            167           20.3 192 
 BRR  HZ EP       2211  1.17                             152   -0.0510 73.0 301 
 BRR  HN ES       2211 18.17                             152    0.3610 73.0 301 
 BRR  HZ I        2211 22.29        12.7 0.31            150           73.0 301 
 PAM  EZ IP     C 2211  2.28                             150   -0.0410 79.7  38 
 PAM  EN ES       2211 19.60                             150   -0.1810 79.7  38 
 PAM  EZ I        2211 22.54         9.3 0.28            157           79.7  38 
 RUS  HZ EP       2211  3.43                             145   -0.0610 97.4 176 
 RUS  HN ES       2211 22.23                             145    0.3810 97.4 176 
 RUS  HZ I        2211 23.24        16.0 0.34            145           97.4 176 
 YPLC HZ EP   4   2211 11.30                             127    1.83 0  174 151 
 YPLC HN ES   4   2211 33.91                             127    1.41 0  174 151 
 YPLC HZ I        2211 34.86        12.5 0.27            130            174 151 
 ZAR  HZ EP       2211 13.18                             122    0.63 8  206 293 
 ZAR  HN ES       2211 37.96                             122   -0.03 8  206 293 
 ZAR  HZ I        2211 47.86         5.8 0.09            123            206 293 
 NOR  HZ EP       2211 14.94                             119   -0.57 8  233 235 
 NOR  HN ES       2211 42.70                             119   -0.56 8  233 235 
 NOR  HZ I        2211 51.20         5.6 0.18            119            233 235 
 CHI  HZ EP   1   2211 17.55                             118    0.22 6  246 195 
 CHI  HN ES   1   2211 47.00                             118    0.51 6  246 195 
 CHI  HZ I        2211 53.14         3.9 0.30            118            246 195 
 GUY2CHZ EP   4   2211 25.48                             113    2.10 0  300 235 
 GUY2CHN ES   4   2212  0.24                             113    2.98 0  300 235 
 GUY2CHZ I        2212  5.68         3.3 0.11                           300 235 
 PRA  HZ EP   1   2211 33.38                             107    0.22 4  389 210 
 PRA  HN ES   4   2212 15.79                             107    1.12 0  389 210 
 PRA  HZ I        2212 21.60         4.1 0.56            108            389 210 
 SJC  HZ EP   4   2211 33.10                             106   -2.74 0  412 327 
 SJC  HN ES   4   2212 14.86                             106   -4.58 0  412 327 
 SJC  HZ I        2212 19.16         1.3 0.29            107            412 327 
                                                                                
