 2012 1022 2050 50.9 L   6.810 -73.108144.1  RSN  4 0.2 1.6LRSN                1
 GAP=141        0.46       3.3     4.8  5.2 -0.4255E+00 -0.1678E+01  0.5327E+00E
 Epicentro: LOS SANTOS - SANTANDER                                             3
 ACTION:UPD 12-11-22 17:05 OP:ep   STATUS:               ID:20121022205050 L   I
 2012-10-22-2050-00M.COL___231                                                 6
 STAT SP IPHASW D HRMM SECON CODA AMPLIT PERI AZIMU VELO AIN AR TRES W  DIS CAZ7
 BAR2 SZ ES   1   2051 25.36                             170   -0.16 7 25.4 199 
 PAM  SZ EP   1   2051 12.95                             152    0.26 7 74.0  38 
 PAM  SN ES   1   2051 29.62                             152   -0.10 7 74.0  38 
 PAM  SN I        2051 30.72        11.7 0.46                          74.0  38 
 BRR  HZ EP   1   2051 11.68                             151   -0.33 7 74.4 296 
 BRR  HZ I        2051 12.12        11.6 0.16                          74.4 296 
 BRR  HN ES   1   2051 28.74                             151    0.24 7 74.4 296 
 RUS  HZ EP   1   2051 14.51                             143    0.01 7  101 178 
 RUS  HN ES   1   2051 33.04                             143    0.09 7  101 178 
 RUS  HN I        2051 34.23         3.6 0.20                           101 178 
                                                                                
