 2013  122 2119 28.6 L   6.551 -72.866  4.0  RSN  5 0.5 1.8LRSN                1
 GAP=186        1.10       3.3     4.8  9.6 -0.3210E+01  0.1831E+02 -0.7629E+01E
 Epicentro: SAN JOAQUIN - SANTANDER                                            3
 ACTION:UPD 13-02-15 09:16 OP:ep   STATUS:               ID:20130122211928 L   I
 2013-01-22-2117-50M.COL___196                                                 6
 STAT SP IPHASW D HRMM SECON CODA AMPLIT PERI AZIMU VELO AIN AR TRES W  DIS CAZ7
 BAR2 SZ EP       2119 34.52                              47   -0.3010 35.3 278 
 BAR2 SZ ES   1   2119 38.87                              47   -0.78 7 35.3 278 
 BAR2 SZ I        2119 39.42       160.7 0.24             47           35.3 278 
 RUS  HZ EP       2119 41.86                              47    0.5110 76.6 198 
 RUS  HN ES   1   2119 50.70                              47   -0.57 7 76.6 198 
 PAM  SZ EP   1   2119 43.55                              47    0.30 7 89.2  12 
 PAM  SE ES   1   2119 54.25                              47   -0.39 7 89.2  12 
 PAM  SZ I        2119 55.18        11.9 0.14             47           89.2  12 
 BRR  HN ES   1   2120  0.48                              47    0.60 7  112 303 
 BRR  HZ I        2120  3.94        13.1 0.28             47            112 303 
 PTB  HZ EP   4   2119 57.19                              47    1.29 0  176 270 
 PTB  HN ES   1   2120 17.79                              47    0.63 7  176 270 
 PTB  HZ I        2120 19.70        14.4 0.12             37            176 270 
 CHI  HZ EP   4   2120  7.22                              37    3.69 0  233 204 
 CHI  HN ES   4   2120 35.97                              37    5.23 0  233 204 
                                                                                
