 2017  222 2029  4.2 L   6.780 -73.119146.8  RSN  4 0.3 1.3LRSN                1
 GAP=141        0.61       3.9     3.9  7.4 -0.7740E+01  0.1164E+02 -0.3059E+01E
 Epicentro: LOS SANTOS - SANTANDER                                             3
 ACTION:UPD 17-05-24 15:39 OP:jn   STATUS:               ID:20170222202904 L   I
 OLDACT:REG 17-02-23 03:31 OP:dnl  STATUS:               ID:20170222202631     3
 2017-02-22-2028-00M.COL___388                                                 6
 STAT SP IPHASW D HRMM SECON CODA AMPLIT PERI AZIMU VELO AIN AR TRES W  DIS CAZ7
 PAM  EZ EP       2029 26.50                             151   -0.0410 77.3  37 
 PAM  EN ES       2029 43.97                             151    0.0210 77.3  37 
 PAM  EZ I        2029 45.88         3.7 0.46            152           77.3  37 
 RUS  HZ EP   2   2029 28.26                             145    0.35 5 98.2 178 
 RUS  HN ES       2029 46.29                             145   -0.1010 98.2 178 
 RUS  HZ I        2029 47.57         3.7 0.34            146           98.2 178 
 PTB  HZ EP   2   2029 30.58                             132   -0.92 5  150 260 
 PTB  HN ES       2029 53.01                             132    0.24 9  150 260 
 PTB  HZ I        2029 53.43         1.9 0.16            133            150 260 
 NOR  HZ EP   2   2029 40.84                             119    0.71 4  236 235 
 NOR  HN ES       2030  8.00                             119   -0.14 8  236 235 
 NOR  HZ I        2030 10.50         2.2 0.22            120            236 235 
                                                                                
