 2015  722 2310 16.5 L   6.809 -73.067149.5  RSN  4 0.2 1.7LRSN                1
 GAP=208        0.49       4.4     5.3  6.4  0.1484E+02 -0.7158E+01 -0.1612E+02E
 Epicentro: LOS SANTOS - SANTANDER                                             3
 ACTION:UPD 15-09-08 21:50 OP:cam  STATUS:               ID:20150722231016 L   I
 OLDACT:REG 15-07-23 06:37 OP:spq  STATUS:               ID:20150722230748     3
 2015-07-22-2307-48M.COL___334                                                 6
 STAT SP IPHASW D HRMM SECON CODA AMPLIT PERI AZIMU VELO AIN AR TRES W  DIS CAZ7
 BAR2 EZ EP       2310 36.96                             169    0.3010 27.1 208 
 BAR2 EZ ES   1   2310 52.20                             169   -0.18 7 27.1 208 
 BAR2 EZ I        2310 52.89         6.7 0.12            171           27.1 208 
 RUS  HZ EP   1   2310 40.60                             144   -0.07 7  101 181 
 RUS  HE ES   1   2310 59.46                             144   -0.06 7  101 181 
 RUS  HZ I        2310 59.85         3.5 0.28            150            101 181 
 ZAR  HN ES       2311 16.11                             122    0.00 8  212 291 
 ZAR  HZ I        2311 21.84         5.9 0.28            122            212 291 
 SML  HZ EP       2310 53.36                             118   -0.29 8  247 333 
 SML  HE ES   1   2311 22.79                             118    0.16 6  247 333 
 SML  HZ I        2311 31.19         5.9 0.24            118            247 333 
                                                                                
