 2015  222 2327 51.9 L   6.800 -73.180144.6  RSN  7 0.3 1.5LRSN                1
 GAP=132        0.74       2.8     3.6  5.4 -0.1273E+01  0.3989E+01 -0.1674E+01E
 Epicentro: LOS SANTOS - SANTANDER                                             3
 ACTION:UPD 15-04-30 21:28 OP:nd   STATUS:               ID:20150222232751 L   I
 OLDACT:REG 15-02-23 03:14 OP:stll STATUS:               ID:20150222231749     3
 2015-02-22-2317-49M.COL___278                                                 6
 STAT SP IPHASW D HRMM SECON CODA AMPLIT PERI AZIMU VELO AIN AR TRES W  DIS CAZ7
 BAR2 EZ ES       2328 26.56                             171   -0.0510 23.0 181 
 BAR2 EZ I        2328 28.60         7.1 0.36            171           23.0 181 
 BRR  HZ EP       2328 13.23                             153    0.4610 67.9 300 
 BRR  HN ES       2328 29.25                             153    0.2310 67.9 300 
 BRR  HZ I        2328 31.41         9.4 0.50            153           67.9 300 
 PAM  SZ EP       2328 14.53                             150    0.3610 79.8  42 
 PAM  SN ES       2328 31.33                             150   -0.1810 79.8  42 
 RUS  HZ EP       2328 15.52                             143   -0.0710  101 174 
 RUS  HZ I        2328 16.67         2.6 0.58            145            101 174 
 RUS  HN ES       2328 33.76                             143   -0.2810  101 174 
 PTB  HZ EP       2328 18.09                             132   -0.38 9  144 259 
 PTB  HN ES       2328 39.14                             132   -0.03 9  144 259 
 PTB  HZ I        2328 41.51         4.6 0.14            133            144 259 
 SPBC HN ES       2328 42.28                             129    0.18 9  161 218 
 SML  HN ES       2328 56.28                             117   -0.42 8  242 336 
                                                                                
