 2016  822 2131 19.7 L   6.791 -73.160147.3  RSN 10 0.4 2.0LRSN                1
 GAP=235        0.91       3.5     4.3  5.1  0.3292E+01  0.5631E+01  0.4323E+01E
 Epicentro: LOS SANTOS - SANTANDER                                             3
 ACTION:UPD 16-10-29 15:38 OP:rebc STATUS:               ID:20160822213119 L   I
 OLDACT:REG 16-08-23 03:08 OP:lv   STATUS:               ID:20160822212759     3
 2016-08-22-2127-59S.COL___346                                                 6
 STAT SP IPHASW D HRMM SECON CODA AMPLIT PERI AZIMU VELO AIN AR TRES W  DIS CAZ7
 BAR2 EZ EP       2131 39.32                             171   -0.2210 22.1 186 
 BAR2 EZ ES       2131 54.56                             171   -0.4210 22.1 186 
 BAR2 EZ I        2131 57.07        29.1 0.32                          22.1 186 
 BRR  HZ EP       2131 40.79                             153   -0.2310 70.3 300 
 BRR  HN ES       2131 58.24                             153    0.6410 70.3 300 
 BRR  HZ I        2131 58.41        20.8 0.27                          70.3 300 
 RUS  HZ EP       2131 43.75                             144    0.1610 99.7 175 
 RUS  HE ES       2132  2.13                             144   -0.0510 99.7 175 
 RUS  HZ I        2132  3.46         7.0 0.17                          99.7 175 
 PTB  HZ EP       2131 46.17                             133   -0.51 9  146 259 
 PTB  HN ES       2132  7.20                             133   -0.49 9  146 259 
 PTB  HZ I        2132 14.33         8.1 0.14                           146 259 
 SPBC HZ EP       2131 48.25                             130    0.06 9  161 219 
 SPBC HE ES       2132 11.00                             130    0.62 9  161 219 
 SPBC HZ I        2132 15.20        17.9 0.17                           161 219 
 ZAR  HZ EP       2131 52.75                             123    0.57 9  203 293 
 ZAR  HN ES       2132 17.39                             123   -0.09 9  203 293 
 ZAR  HZ I        2132 22.58        11.1 0.26                           203 293 
 NOR  HZ EP       2131 55.52                             119    0.16 8  233 234 
 NOR  HE ES       2132 23.17                             119    0.03 8  233 234 
 NOR  HZ I        2132 28.70         5.7 0.14                           233 234 
 CHI  HZ EP       2131 57.66                             118    0.28 8  247 195 
 CHI  HN ES       2132 27.13                             118    0.40 8  247 195 
 CHI  HZ I        2132 30.23         4.6 0.18                           247 195 
 GUY2CHZ EP       2132  3.28                             113    0.07 7  299 235 
 GUY2CHE ES       2132 36.98                             113   -0.13 7  299 235 
 GUY2CHZ I        2132 45.50         5.7 0.36                           299 235 
 PRA  HZ EP       2132 12.69                             107   -0.43 6  390 209 
 PRA  HE ES       2132 53.95                             107   -0.81 6  390 209 
 PRA  HZ I        2133  1.48         6.4 0.43                           390 209 
                                                                                
