 2011  322 2057 22.9 L   6.748 -73.169141.7  RSN  8 0.3 2.0LRSN                1
 GAP=168        0.49       3.8     7.5  4.8 -0.1903E+02  0.1047E+02  0.6861E-01E
 Epicentro: VILLANUEVA - SANTANDER                                             3
 ACTION:UP  11-06-16 14:35 OP:jfem STATUS:               ID:20110322205723 L   I
 2011-03-22-2054-34S.COL___138                                                 6
 STAT SP IPHASW D HRMM SECON CODA AMPLIT PERI AZIMU VELO SNR AR TRES W  DIS CAZ7
 BAR2 SZ EP   1   2057 41.61                             173    -0.4 7   17 185 
 BAR2 SZ ES   1   2057 56.98                             173     0.2 7   17 185 
 BAR2 SZ I        2057 58.01        52.8 0.21                            17 185 
 BTL  SZ EP       2057 41.85                             171    -0.210   22 330 
 BTL  SZ ES   2   2057 57.06                             171     0.1 5   22 330 
 GRA  SZ EP   1   2057 48.39                             135     0.0 7  132  18 
 GRA  SZ ES   1   2058  8.38                             135     0.2 7  132  18 
 GRA  SZ I        2058  8.75         8.7 0.33                           132  18 
 OCA  SZ ES   2   2058 13.74                             128     0.0 5  166 354 
 OCA  SZ I        2058 15.35        15.4 0.18                           166 354 
 NOR  SZ EP   1   2057 57.99                             118     0.1 6  229 235 
 NOR  SN ES   2   2058 24.84                             118    -0.3 4  229 235 
 CHI  HZ EP   2   2057 59.59                             117    -0.1 4  242 195 
 CHI  HE ES   2   2058 28.78                             117     0.3 4  242 195 
 CHI  HZ I        2058 36.13         6.2 0.29                           242 195 
 HEL  HZ EP   3   2058  3.34                             114     0.8 2  268 257 
 HEL  HZ I        2058 42.68         6.1 0.30                           268 257 
 PRA  HZ EP   1   2058 16.07                             106     0.5 4  386 210 
                                                                                
