 2015  522 2336 51.1 L   6.792 -73.172147.9  RSN  8 0.4 1.7LRSN                1
 GAP=134        1.00       3.3     4.8  6.4  0.4411E+00  0.1052E+02 -0.7270E+00E
 Epicentro: LOS SANTOS - SANTANDER                                             3
 ACTION:UPD 15-09-10 22:06 OP:cam  STATUS:               ID:20150522233651 L   I
 OLDACT:REG 15-05-23 03:01 OP:drio STATUS:               ID:20150522232749     3
 2015-05-22-2327-49M.COL___297                                                 6
 STAT SP IPHASW D HRMM SECON CODA AMPLIT PERI AZIMU VELO AIN AR TRES W  DIS CAZ7
 BAR2 EZ EP       2337 11.29                             171    0.3010 22.1 183 
 BAR2 EZ ES       2337 27.01                             171    0.5310 22.1 183 
 BAR2 EZ I        2337 27.34        10.3 0.18            174           22.1 183 
 BRR  HZ EP       2337 12.50                             154    0.1110 69.1 300 
 BRR  HN ES       2337 29.41                             154    0.4410 69.1 300 
 BRR  HZ I        2337 33.87        11.2 0.60            152           69.1 300 
 PAM  SZ EP       2337 14.12                             150    0.4010 79.9  41 
 PAM  SE ES       2337 31.00                             150   -0.3410 79.9  41 
 PAM  SZ I        2337 33.51         8.4 0.50            151           79.9  41 
 RUS  HZ EP       2337 15.12                             144    0.0810 99.9 174 
 RUS  HE ES       2337 32.91                             144   -0.7810 99.9 174 
 RUS  HZ I        2337 34.32         4.5 0.44            148           99.9 174 
 OCA  HN ES       2337 41.40                             130   -0.50 9  161 354 
 ZAR  HE ES       2337 48.67                             123   -0.02 9  202 293 
 SML  HZ EP       2337 27.72                             118   -0.10 8  243 336 
 SML  HE ES       2337 56.22                             118   -0.23 8  243 336 
 SML  HZ I        2338  5.36         6.1 0.10            119            243 336 
 GUY2CHZ EP       2337 34.80                             113    0.30 7  298 235 
 GUY2CHN ES       2338  7.86                             113   -0.48 7  298 235 
                                                                                
