 2012  622 2003  1.0 L   6.788 -73.139142.1  RSN  9 0.4 2.1LRSN                1
 GAP=138        0.79       3.5     3.9  5.8 -0.2713E+00  0.6000E+01  0.3780E+01E
 Epicentro: LOS SANTOS - SANTANDER                                             3
 ACTION:UPD 12-08-06 17:51 OP:ep   STATUS:               ID:20120622200300 L   I
 2012-06-22-2000-00M.COL___198                                                 6
 STAT SP IPHASW D HRMM SECON CODA AMPLIT PERI AZIMU VELO AIN AR TRES W  DIS CAZ7
 BAR2 SZ EP       20 3 20.05                             171   -0.0810 22.2 192 
 BAR2 SZ ES   1   20 3 34.99                             171   -0.09 7 22.2 192 
 BAR2 SZ I        20 3 36.26        12.4 0.07                          22.2 192 
 BRR  HZ IP     C 20 3 21.88                             152    0.0910 72.4 299 
 BRR  HN ES   1   20 3 38.64                             152    0.61 7 72.4 299 
 BRR  HZ I        20 3 42.56        30.7 0.09                          72.4 299 
 PAM  SZ EP       20 3 22.78                             150   -0.0410 77.9  39 
 PAM  SN ES   1   20 3 39.92                             150    0.04 7 77.9  39 
 RUS  HZ EP       20 3 24.15                             143   -0.1110 99.3 176 
 RUS  HN ES   1   20 3 42.53                             143    0.10 7 99.3 176 
 RUS  HZ I        20 3 44.56        13.4 0.23                          99.3 176 
 PTB  HZ EP   1   20 3 26.96                             131   -0.71 7  148 259 
 PTB  HN ES   1   20 3 47.71                             131   -0.80 7  148 259 
 PTB  HZ I        20 3 51.43        11.5 0.12                           148 259 
 ZAR  HZ EP   1   20 3 33.11                             121   -0.18 6  205 292 
 ZAR  HN ES   1   20 3 58.59                             121    0.09 6  205 292 
 ZAR  HZ I        20 4  3.83        26.3 0.34                           205 292 
 NOR  SZ EP   1   20 3 36.58                             118    0.12 6  235 235 
 NOR  SN ES   1   20 4  4.25                             118    0.10 6  235 235 
 CHI  HZ EP   1   20 3 38.05                             116   -0.29 6  248 195 
 CHI  HN ES       20 4  7.82                             116    0.32 8  248 195 
 CHI  HZ I        20 4 15.99         4.4 0.28                           248 195 
 HEL  HZ EP   1   20 3 42.21                             114    1.18 6  272 256 
 HEL  HZ I        20 4 18.46        12.5 0.24                           272 256 
                                                                                
