 2014 1222 2145  5.7 L   7.262 -72.945  1.1  RSN  5 0.4 1.4LRSN                1
 GAP=269        1.09       9.1    11.3 10.5  0.8874E+02  0.9295E+02  0.6380E+02E
 Epicentro: CHARTA - SANTANDER                                                 3
 ACTION:UPD 15-02-10 17:06 OP:nd   STATUS:               ID:20141222214505 L   I
 OLDACT:DUP 14-12-23 03:35 OP:fm   STATUS:               ID:20141222213749d    3
 2014-12-22-2137-46M.COL___289                                                 6
 STAT SP IPHASW D HRMM SECON CODA AMPLIT PERI AZIMU VELO AIN AR TRES W  DIS CAZ7
 BAR2 EZ EP       2145 19.57                              47    0.7010 78.6 199 
 BAR2 EZ ES   1   2145 29.50                              47    0.37 7 78.6 199 
 BAR2 EZ I        2145 32.35         5.8 0.18             47           78.6 199 
 BRR  HZ EP       2145 19.22                              47   -0.5810 86.4 259 
 BRR  HN ES       2145 30.98                              47    0.1910 86.4 259 
 BRR  HZ I        2145 33.43        10.7 0.40             47           86.4 259 
 RUS  HZ EP       2145 30.12                              47   -0.17 9  152 186 
 RUS  HN ES       2145 49.10                              47   -0.36 9  152 186 
 RUS  HZ I        2145 51.81         4.5 0.44             47            152 186 
 PTB  HN ES       2145 56.69                              37   -0.45 9  185 245 
 PTB  HZ I        2145 59.65        10.2 0.38             37            185 245 
 ZAR  HN ES       2146  3.66                              37    0.40 8  213 277 
 ZAR  HZ I        2146  5.50         4.5 0.52             37            213 277 
                                                                                
