 2011 1122 2248 12.1 L   6.821 -73.288124.0  RSN  5 0.3 1.4LRSN                1
 GAP=126        0.54       3.5     4.0  6.9  0.1614E+01  0.9457E+01 -0.2796E+01E
 Epicentro: ZAPATOCA - SANTANDER                                               3
 ACTION:UPD 12-07-13 16:11 OP:ep   STATUS:               ID:20111122224812 L   I
 2011-11-22-2246-00S.COL___179                                                 6
 STAT SP IPHASW D HRMM SECON CODA AMPLIT PERI AZIMU VELO AIN AR TRES W  DIS CAZ7
 BAR2 SZ EP   1   2248 29.16                             167   -0.12 7 27.8 155 
 BAR2 SZ ES   1   2248 42.29                             167   -0.35 7 27.8 155 
 BAR2 SZ I        2248 46.10         7.1 0.18                          27.8 155 
 BRR  HZ EP   1   2248 30.30                             154    0.18 7 56.5 304 
 PAM  SZ EP   1   2248 32.37                             143   -0.38 7 86.7  49 
 PAM  SZ I        2248 32.90         5.4 0.16                          86.7  49 
 PAM  SN ES   1   2248 49.17                             143    0.35 7 86.7  49 
 RUS  HZ EP   1   2248 34.26                             137    0.07 7  105 168 
 RUS  HN ES   1   2248 51.61                             137    0.23 7  105 168 
 RUS  HZ I        2248 53.81         4.2 0.38                           105 168 
 ZAR  HN ES   1   2249  4.63                             119    0.03 7  189 293 
                                                                                
