 2014  322 2126  2.9 L   6.787 -73.147147.6  RSN 18 0.3 2.5LRSN                1
 GAP=137        0.80       3.0     3.4  4.8 -0.1777E+01  0.4281E+01  0.2155E+01E
 Epicentro: LOS SANTOS - SANTANDER                                             3
 ACTION:UPD 14-04-09 23:19 OP:nd   STATUS:               ID:20140322212602 L   I
 OLDACT:REG 14-03-23 00:05 OP:nd   STATUS:               ID:20140322212041     3
 2014-03-22-2120-41M.COL___240                                                 6
 STAT SP IPHASW D HRMM SECON CODA AMPLIT PERI AZIMU VELO AIN AR TRES W  DIS CAZ7
 BAR2 SZ EP       2126 22.46                             171   -0.2210 21.9 190 
 BAR2 SZ ES       2126 37.75                             171   -0.4010 21.9 190 
 BAR2 SZ I        2126 39.62       115.2 0.42            170           21.9 190 
 BRR  HZ IP     C 2126 24.63                             153    0.3910 71.8 300 
 BRR  HN ES   1   2126 41.42                             153    0.50 7 71.8 300 
 BRR  HZ I        2126 46.87        42.8 0.12            146           71.8 300 
 PAM  SZ EP     D 2126 25.59                             151    0.2510 78.6  39 
 PAM  SN ES       2126 42.82                             151   -0.0710 78.6  39 
 PAM  SZ I        2126 46.83        22.2 0.50            142           78.6  39 
 RUS  HZ EP       2126 26.68                             145   -0.0110 99.1 176 
 RUS  HN ES       2126 45.42                             145    0.1410 99.1 176 
 RUS  HZ I        2126 46.36        38.6 0.26            137           99.1 176 
 PTB  HZ EP       2126 29.15                             132   -0.79 9  147 259 
 PTB  HN ES       2126 50.69                             132   -0.37 9  147 259 
 PTB  HZ I        2126 55.32        51.8 0.28            124            147 259 
 SPBC HZ EP       2126 31.56                             130    0.18 9  162 219 
 SPBC HN ES       2126 53.94                             130    0.31 9  162 219 
 SPBC HZ I        2126 59.06        44.4 0.50            122            162 219 
 OCA  HZ EP   4   2126 30.92                             130   -0.53 0  162 353 
 OCA  HN ES   4   2126 53.59                             130   -0.16 0  162 353 
 OCA  HZ I        2126 58.69        29.1 0.18            121            162 353 
 ZAR  HZ EP   1   2126 35.29                             123   -0.17 6  204 293 
 ZAR  HN ES   1   2127  1.42                             123    0.52 6  204 293 
 ZAR  HZ I        2127  6.81        51.4 0.38            115            204 293 
 NOR  HZ EP       2126 38.46                             119   -0.13 8  234 235 
 NOR  HN ES       2127  6.56                             119    0.10 8  234 235 
 NOR  HZ I        2127 11.03        33.9 0.18            111            234 235 
 SML  HZ EP   4   2126 39.07                             118   -0.65 0  245 335 
 SML  HN ES   4   2127  7.74                             118   -0.74 0  245 335 
 SML  HZ I        2127 14.98        42.9 0.28            110            245 335 
 CHI  HZ EP       2126 40.65                             118    0.15 8  247 195 
 CHI  HN ES       2127  9.88                             118    0.02 8  247 195 
 CHI  HZ I        2127 15.99        17.8 0.30            110            247 195 
 ROSC BZ EP   4   2126 42.45                             117    1.52 0  251 211 
 ROSC BN ES   4   2127 12.94                             117    2.31 0  251 211 
 ROSC BZ I        2127 16.27        36.3 0.45            110            251 211 
 HEL  HZ EP   4   2126 44.33                             115    1.22 0  272 256 
 HEL  HN ES   4   2127 15.51                             115    1.01 0  272 256 
 HEL  HZ I        2127 21.02        17.7 0.30            108            272 256 
 URE  HZ EP   4   2126 43.34                             114   -0.72 0  284 292 
 URE  HN ES   4   2127 13.37                             114   -2.83 0  284 292 
 URE  HZ I        2127 23.68        29.5 0.24            107            284 292 
 GUY2CHZ EP   4   2126 46.95                             113    0.51 0  300 235 
 GUY2CHN ES   4   2127 24.10                             113    3.67 0  300 235 
 GUY2CHZ I        2127 28.24        15.4 0.62                           300 235 
 PTGC HZ EP   4   2126 45.50                             112   -1.15 0  307 159 
 PTGC HZ I        2127 17.41        14.3 0.48            105            307 159 
 PTGC HN ES   4   2127 18.65                             112   -2.16 0  307 159 
 RREF HZ EP   4   2126 49.81                             111    0.86 0  321 230 
 RREF HN ES   4   2127 27.16                             111    2.25 0  321 230 
 RREF HZ I        2127 34.13        22.5 0.34            105            321 230 
 COD  HZ EP   4   2126 51.43                             109   -0.04 0  350 355 
 COD  HN ES   4   2127 28.61                             109   -0.78 0  350 355 
 COD  HZ I        2127 34.81         5.9 0.38            102            350 355 
                                                                                
