 2014  622 2317 16.3 L   6.837 -73.429112.7  RSN  7 0.5 1.6LRSN                1
 GAP=153        1.20       4.8     5.2  8.4  0.9064E+01  0.5250E+01 -0.7827E+01E
 Epicentro: SAN VICENTE DE CHUCURI - SANTANDER                                 3
 ACTION:UPD 14-07-01 22:55 OP:nd   STATUS:               ID:20140622231716 L   I
 OLDACT:REG 14-06-23 03:43 OP:fm   STATUS:               ID:20140622230815     3
 2014-06-22-2308-15M.COL___262                                                 6
 STAT SP IPHASW D HRMM SECON CODA AMPLIT PERI AZIMU VELO AIN AR TRES W  DIS CAZ7
 BAR2 SZ EP       2317 32.79                             160    0.3410 38.4 135 
 BAR2 SZ ES   1   2317 45.36                             160    0.29 7 38.4 135 
 BAR2 SZ I        2317 46.57        27.0 0.38            166           38.4 135 
 BRR  HZ EP       2317 32.80                             158    0.4910 43.2 314 
 BRR  HE ES       2317 44.80                             158   -0.0210 43.2 314 
 BRR  HZ I        2317 50.29         5.6 0.16            157           43.2 314 
 RUS  HZ EP       2317 37.88                             133    0.0110  111 160 
 RUS  HN ES       2317 54.59                             133   -0.1310  111 160 
 RUS  HZ I        2317 55.96         2.6 0.18            139            111 160 
 PTB  HZ EP       2317 37.38                             130   -0.4910  118 254 
 PTB  HN ES       2317 53.85                             130   -0.8710  118 254 
 PTB  HZ I        2317 58.30         8.0 0.28            133            118 254 
 ZAR  HZ EP   1   2317 44.23                             119    0.76 7  174 295 
 ZAR  HN ES       2318  5.34                             119    0.65 9  174 295 
 ZAR  HZ I        2318  9.89         5.5 0.38            122            174 295 
 SML  HZ EP       2317 48.77                             111   -0.75 8  228 342 
 SML  HN ES       2318 15.20                             111   -0.27 8  228 342 
 SML  HZ I        2318 18.54         5.4 0.10            115            228 342 
 HEL  HN ES   1   2318 19.96                             110    0.69 6  243 253 
                                                                                
