 2010  922 2045 22.9 L   6.784 -73.102147.5  RSN  7 0.2 1.8LRSN                1
 GAP=164        0.48       3.6     8.0  6.6 -0.2447E+01 -0.1536E+02 -0.4099E+01E
 Epicentro: LOS SANTOS - SANTANDER                                             3
 ACTION:UP  11-02-18 11:04 OP:tino STATUS:               ID:20100922204522 L   I
 2010-09-22-2042-31S.COL___122                                                 6
 STAT SP IPHASW D HRMM SECON CODA AMPLIT PERI AZIMU VELO SNR AR TRES W  DIS CAZ7
 BAR2 SZ EP   1   2045 42.44                             171    -0.3 7   23 203 
 BAR2 SZ ES   2   2045 57.84                             171    -0.4 5   23 203 
 BAR2 SZ I        2045 59.46        13.3 0.36                            23 203 
 BTL  SZ EP   1   2045 43.12                             170     0.3 7   24 309 
 GIR2 SZ EP   2   2045 43.12                             166     0.2 5   34 343 
 GIR2 SZ ES   3   2045 58.53                             166     0.1 2   34 343 
 BRR  HZ EP   1   2045 44.49                             151    -0.1 7   76 298 
 BRR  HE ES   2   2046  1.55                             151     0.1 5   76 298 
 BRR  HZ I        2046  5.04        14.8 0.22                            76 298 
 RUS  HZ EP   1   2045 46.82                             145     0.1 7   99 179 
 RUS  HE ES   2   2046  5.46                             145     0.2 5   99 179 
 RUS  HZ I        2046  6.41         8.7 0.23                            99 179 
 GUE  SZ EP   1   2045 47.64                             140    -0.2 7  117  10 
 GRA  SZ EP   1   2045 48.41                             137     0.0 7  126  15 
 GRA  SZ ES   2   2046  8.41                             137     0.2 5  126  15 
 GRA  SZ I        2046  9.41        13.2 0.20                           126  15 
                                                                                
