 2012  422 2326 24.8 L   6.758 -73.182140.1  RSN  6 0.3 2.0LRSN                1
 GAP=134        0.74       5.0     4.5  7.6 -0.2326E+00  0.1297E+02 -0.7767E+01E
 Epicentro: VILLANUEVA - SANTANDER                                             3
 ACTION:UPD 12-07-05 11:55 OP:tino STATUS:               ID:20120422232624 L   I
 2012-04-22-2320-00M.COL___186                                                 6
 STAT SP IPHASW D HRMM SECON CODA AMPLIT PERI AZIMU VELO AIN AR TRES W  DIS CAZ7
 BAR2 SZ EP   1   2326 43.72                             172     0.1 7   18 180 
 BAR2 SZ ES   1   2326 58.70                             172     0.3 7   18 180 
 BAR2 SZ I        2326 59.94       166.0 0.12                            18 180 
 BRR  HZ EP       2326 45.57                             152     0.310   70 303 
 BRR  HZ I        2327  6.73        25.0 0.14                            70 303 
 PAM  SZ EP   1   2326 46.65                             148    -0.2 7   84  40 
 PAM  SN ES   1   2327  3.70                             148    -0.3 7   84  40 
 RUS  HZ EP   1   2326 47.58                             144    -0.1 7   96 173 
 RUS  HN ES   1   2327  5.48                             144    -0.1 7   96 173 
 RUS  HZ I        2327  7.12         8.7 0.29                            96 173 
 PTB  HZ EP   1   2326 50.39                             132    -0.5 7  143 260 
 PTB  HN ES   1   2327 11.06                             132    -0.2 7  143 260 
 PTB  HZ I        2327 12.96         5.0 0.26                           143 260 
 ZAR  HZ EP   1   2326 57.32                             121     0.6 6  202 294 
 ZAR  HN ES   1   2327 21.28                             121    -0.3 6  202 294 
 ZAR  HZ I        2327 28.24         9.3 0.26                           202 294 
                                                                                
