 2014  822 2315 27.0 L   6.741 -73.169159.0  RSN  4 0.2 1.5LRSN                1
 GAP=230        0.50       4.5     4.4  4.8  0.1243E+02 -0.2684E+01 -0.3083E+01E
 Epicentro: LOS SANTOS - SANTANDER                                             3
 ACTION:UPD 14-09-15 21:52 OP:nd   STATUS:               ID:20140822231527 L   I
 OLDACT:REG 14-08-23 06:20 OP:spq  STATUS:               ID:20140822230819     3
 2014-08-22-2308-19M.COL___235                                                 6
 STAT SP IPHASW D HRMM SECON CODA AMPLIT PERI AZIMU VELO AIN AR TRES W  DIS CAZ7
 BRR  HZ EP       2315 49.69                             154    0.0010 72.4 304 
 BRR  HE ES       2316  7.31                             154   -0.0510 72.4 304 
 BRR  HZ I        2316 13.02         7.6 0.32            153           72.4 304 
 RUS  HZ EP       2315 51.97                             148    0.2910 94.2 174 
 RUS  HN ES   1   2316 10.68                             148   -0.24 7 94.2 174 
 RUS  HZ I        2316 12.90         2.7 0.52            152           94.2 174 
 PTB  HZ EP   1   2315 54.45                             136   -0.34 7  144 261 
 PTB  HE ES       2316 16.52                             136    0.07 9  144 261 
 PTB  HZ I        2316 22.42         3.6 0.32            137            144 261 
 ZAR  HZ EP       2316  0.22                             125   -0.17 9  204 294 
 ZAR  HN ES       2316 26.60                             125    0.18 9  204 294 
 ZAR  HZ I        2316 32.61         4.0 0.32            127            204 294 
                                                                                
