 2013  122 2358 56.2 L   6.761 -73.205155.3  RSN  4 0.4 1.5LRSN                1
 GAP=228        0.75       8.1     8.8  8.8  0.3887E+02 -0.1618E+01  0.1120E+02E
 Epicentro: VILLANUEVA - SANTANDER                                             3
 ACTION:UPD 13-02-15 09:16 OP:ep   STATUS:               ID:20130122235856 L   I
 2013-01-22-2356-35M.COL___183                                                 6
 STAT SP IPHASW D HRMM SECON CODA AMPLIT PERI AZIMU VELO AIN AR TRES W  DIS CAZ7
 BRR  HZ EP   1   2359 18.12                             155   -0.11 7 67.9 304 
 BRR  HN ES   1   2359 35.81                             155    0.42 7 67.9 304 
 RUS  HZ EP   1   2359 20.43                             147   -0.24 7 97.0 172 
 RUS  HN ES   1   2359 39.54                             147   -0.20 7 97.0 172 
 RUS  HZ I        2359 40.78         2.0 0.26            118           97.0 172 
 PTB  HZ EP   1   2359 22.96                             136   -0.39 7  141 260 
 PTB  HN ES   1   2359 44.40                             136   -0.12 7  141 260 
 PTB  HZ I        2359 50.16         3.0 0.36            110            141 260 
 CHI  HZ EP   1   2359 34.74                             120    0.90 6  243 194 
 CHI  HZ I        2359 57.04         4.9 0.42            101            243 194 
                                                                                
