 2013  222 2153 34.3 L   6.771 -73.148146.0  RSN  4 0.4 1.7LRSN                1
 GAP=157        0.79       9.0     6.1 11.4 -0.2750E+02 -0.1331E+02  0.6974E+02E
 Epicentro: LOS SANTOS - SANTANDER                                             3
 ACTION:UPD 13-03-12 09:35 OP:ep   STATUS:               ID:20130222215334 L   I
 2013-02-22-2150-00M.COL___223                                                 6
 STAT SP IPHASW D HRMM SECON CODA AMPLIT PERI AZIMU VELO AIN AR TRES W  DIS CAZ7
 BRR  HZ EP   1   2153 55.59                             152    0.08 7 72.6 301 
 BRR  HN ES   1   2154 12.77                             152    0.68 7 72.6 301 
 BRR  HN I        2154 13.37        17.1 0.28            157           72.6 301 
 PAM  SZ EP   1   2153 56.69                             150    0.03 7 80.1  38 
 PAM  SN ES       2154 13.93                             150   -0.2110 80.1  38 
 PAM  SN I        2154 14.53         3.9 0.40            160           80.1  38 
 PTB  HZ EP   1   2154  0.77                             132   -0.40 7  147 260 
 PTB  HN ES   1   2154 21.69                             132   -0.47 7  147 260 
 PTB  HN I        2154 27.36        12.0 0.28            135            147 260 
 CHI  HZ EP   1   2154 12.31                             117    0.69 6  245 195 
 CHI  HN ES   2   2154 40.42                             117   -0.35 4  245 195 
 CHI  HN I        2154 46.66         3.0 0.28            119            245 195 
                                                                                
