 2014  122 2339 36.5 L   6.179 -73.672108.5  RSN 18 0.5 2.7LRSN                1
 GAP= 66        1.14       2.1     2.7  5.2 -0.1372E+01  0.3697E+01  0.4946E+00E
 Epicentro: LA PAZ - SANTANDER                                                 3
 ACTION:UPD 14-03-13 09:57 OP:ep   STATUS:               ID:20140122233936 L   I
 OLDACT:REG 14-01-22 23:27 OP:carl STATUS:               ID:20140122233748     3
 2014-01-22-2337-48M.COL___253                                                 6
 STAT SP IPHASW D HRMM SECON CODA AMPLIT PERI AZIMU VELO AIN AR TRES W  DIS CAZ7
 BAR2 SZ IP     D 2339 54.45                             144    0.4110 70.9  50 
 BAR2 SZ ES       2340  8.14                             144    0.3810 70.9  50 
 BAR2 SZ I        2340  9.33       308.4 0.58            147           70.9  50 
 RUS  HZ IP     C 2339 54.54                             144    0.0210 72.4 116 
 RUS  HN ES       2340  8.25                             144   -0.3510 72.4 116 
 RUS  HZ I        2340  9.76        78.5 0.34            147           72.4 116 
 SPBC HZ EP       2339 54.15                             143    0.1510 73.2 217 
 SPBC HN ES       2340  7.93                             143    0.2410 73.2 217 
 SPBC HZ I        2340  9.77       139.4 0.32            144           73.2 217 
 PTB  HZ IP       2339 54.99                             135   -0.6910 95.5 295 
 PTB  HN ES       2340  9.78                             135   -0.8910 95.5 295 
 PTB  HZ I        2340 13.38        97.4 0.16            135           95.5 295 
 BRR  HZ IP     C 2339 56.51                             133    0.2210  103 358 
 BRR  HN ES       2340 12.43                             133    0.6810  103 358 
 BRR  HZ I        2340 17.24        67.2 0.12            134            103 358 
 NOR  HZ EP       2340  0.43                             122   -0.44 9  149 243 
 NOR  HN ES       2340 19.54                             122   -0.36 9  149 243 
 NOR  HZ I        2340 21.80        97.6 0.14            122            149 243 
 ROSC BZ EP   4   2340  3.71                             119    0.77 0  165 206 
 ROSC BN ES   4   2340 25.80                             119    2.20 0  165 206 
 PAM  SZ EP       2340  3.33                             118   -0.04 9  167  40 
 PAM  SN ES       2340 23.61                             118   -0.75 9  167  40 
 PAM  SZ I        2340 28.14        22.9 0.20            120            167  40 
 CHI  HZ EP       2340  3.38                             118   -0.33 9  171 182 
 CHI  HN ES       2340 25.02                             118    0.06 9  171 182 
 CHI  HZ I        2340 27.22        44.8 0.26            119            171 182 
 ZAR  HZ EP       2340  5.89                             114    0.04 9  196 318 
 ZAR  HE ES       2340 29.51                             114    0.74 9  196 318 
 ZAR  HZ I        2340 33.26        48.7 0.10            115            196 318 
 HEL  HZ EP       2340  7.88                             113    0.47 8  206 270 
 HEL  HN ES       2340 30.74                             113   -0.81 8  206 270 
 HEL  HZ I        2340 38.12        26.6 0.36            114            206 270 
 GUY2CHZ EP       2340  9.37                             112    0.73 8  215 241 
 VIL  SZ EP       2340  9.66                             110   -0.07 8  229 181 
 VIL  SN ES       2340 36.21                             110    0.53 8  229 181 
 VIL  SZ I        2340 40.58        56.5 0.22            111            229 181 
 OCA  HZ EP       2340 10.09                             110    0.04 8  231  10 
 OCA  HN ES       2340 36.36                             110    0.11 8  231  10 
 OCA  HZ I        2340 41.68        42.5 0.18            111            231  10 
 RREF BZ EP       2340 10.74                             110   -0.16 8  233 233 
 RREF BN ES       2340 37.92                             110    0.15 8  233 233 
 RREF BZ I        2340 42.91        41.6 0.18            111            233 233 
 CBOC HZ EP       2340 13.78                             107    0.20 8  261 262 
 CBOC HN ES       2340 43.03                             107    0.49 8  261 262 
 CBOC HZ I        2340 45.68        14.5 0.16            108            261 262 
 ANIL BZ EP   4   2340 14.18                             106   -0.28 0  268 226 
 ANIL BN ES   4   2340 44.03                             106   -0.08 0  268 226 
 SML  HZ EP       2340 16.47                             104   -0.64 7  293 351 
 SML  HN ES       2340 49.14                             104    0.33 7  293 351 
 SML  HZ I        2340 51.25        44.1 0.10            105            293 351 
 PRA  HZ EP       2340 17.69                             104   -0.74 7  304 206 
 PRA  HN ES       2340 51.38                             104    0.21 7  304 206 
 PRA  HZ I        2340 58.12        49.5 0.32            105            304 206 
 ORTC HZ EP       2340 18.13                             103   -0.50 7  306 215 
 ORTC HN ES       2340 52.36                             103    0.83 7  306 215 
 ORTC HZ I        2340 57.10        36.4 0.62            105            306 215 
                                                                                
