 2015  222 2114 29.8 L   7.454 -72.884 16.6  RSN  4 0.5 1.4LRSN                1
 GAP=151        1.16       9.7    15.5 17.3  0.1414E+03  0.2586E+03  0.1573E+03E
 Epicentro: CALIFORNIA - SANTANDER                                             3
 ACTION:UPD 15-04-30 21:28 OP:nd   STATUS:               ID:20150222211429 L   I
 OLDACT:UP  15-03-01 09:45 OP:FJMB STATUS:               ID:20150222211429 L   3
 OLDACT:DUP 15-02-23 06:43 OP:stll STATUS:               ID:20150222210749d    3
 2015-02-22-2107-48M.COL___278                                                 6
 STAT SP IPHASW D HRMM SECON CODA AMPLIT PERI AZIMU VELO AIN AR TRES W  DIS CAZ7
 PAM  SZ IP     D 2114 35.14                             124   -0.0410 24.0 122 
 PAM  SZ I        2114 35.27        39.0 0.16            117           24.0 122 
 PAM  SN ES       2114 39.29                             124   -0.0710 24.0 122 
 OCA  HZ EP       2114 45.66                              98   -0.0810 99.2 331 
 OCA  HN ES       2114 57.96                              98   -0.1910 99.2 331 
 OCA  HZ I        2115  1.64         7.2 0.30             95           99.2 331 
 RUS  HZ EP       2114 57.11                              56    0.76 9  174 187 
 RUS  HZ I        2114 57.42         6.2 0.14             56            174 187 
 RUS  HN ES       2115 16.29                              56   -0.74 9  174 187 
 PTB  HZ EP       2114 59.98                              56    0.84 9  201 240 
 PTB  HN ES       2115 21.68                              56   -0.33 9  201 240 
 PTB  HZ I        2115 22.69         2.8 0.20             56            201 240 
                                                                                
