 2010 1222 2244 21.3 L   6.794 -73.126136.3  RSN  7 0.2 1.9LRSN                1
 GAP=161        0.47       2.3     4.9  4.3 -0.5829E+01  0.1060E+02 -0.2019E+01E
 Epicentro: LOS SANTOS - SANTANDER                                             3
 ACTION:UP  11-01-14 15:26 OP:pat  STATUS:               ID:20101222224421 L   I
 2010-12-22-2240-00M.COL___134                                                 6
 STAT SP IPHASW D HRMM SECON CODA AMPLIT PERI AZIMU VELO SNR AR TRES W  DIS CAZ7
 BAR2 SZ EP       2244 39.96                             170     0.210   23 196 
 BAR2 SZ ES   1   2244 54.08                             170    -0.1 7   23 196 
 BAR2 SZ I        2244 56.08        22.1 0.08                            23 196 
 RUS  HZ EP       2244 43.94                             142    -0.110  100 177 
 RUS  HZ I        2244 44.61         6.4 0.29                           100 177 
 RUS  HN ES   2   2245  1.64                             142    -0.1 5  100 177 
 GRA  SZ EP       2244 45.92                             135     0.310  126  16 
 GRA  SZ ES   1   2245  4.62                             135    -0.1 7  126  16 
 GRA  SZ I        2245  6.51        10.6 0.46                           126  16 
 OCA  SZ EP       2244 48.66                             127    -0.3 9  161 352 
 OCA  SZ I        2245 17.72        10.3 0.18                           161 352 
 NOR  SZ EP       2244 56.52                             116    -0.1 8  236 235 
 NOR  SN ES   2   2245 24.32                             116     0.1 4  236 235 
 CHI  HZ EP       2244 58.37                             115    -0.1 8  249 196 
 CHI  HN ES   2   2245 27.59                             115     0.2 4  249 196 
 HEL  HZ EP       2245  1.27                             113     0.1 8  274 256 
 HEL  HZ I        2245 39.04         6.3 0.60                           274 256 
                                                                                
