 2011  822 2201 48.8 L   6.744 -73.075137.9  RSN  8 0.4 1.9LRSN                1
 GAP=190        0.78       3.7     7.7  5.6 -0.3234E+01  0.5965E+01  0.2212E+01E
 Epicentro: JORDAN - SANTANDER                                                 3
 ACTION:UPD 12-07-13 15:53 OP:ep   STATUS:               ID:20110822220148 L   I
 2011-08-22-2158-11S.COL___158                                                 6
 STAT SP IPHASW D HRMM SECON CODA AMPLIT PERI AZIMU VELO AIN AR TRES W  DIS CAZ7
 BAR2 SZ EP       22 2  7.01                             171   -0.4610 20.5 215 
 BAR2 SZ ES       22 2 21.75                             171   -0.2510 20.5 215 
 BAR2 SZ I        22 2 24.95        13.1 0.32                          20.5 215 
 BRR  HZ EP   1   22 2  9.22                             148   -0.54 7 81.0 300 
 BRR  HE ES   1   22 2 26.57                             148    0.50 7 81.0 300 
 BRR  HZ I        22 2 30.67        19.0 0.41                          81.0 300 
 RUS  HZ EP   1   22 2 11.84                             144    0.48 7 94.1 181 
 RUS  HE ES   2   22 2 29.61                             144    0.70 5 94.1 181 
 RUS  HZ I        22 2 32.26         7.6 0.17                          94.1 181 
 OCA  SZ EP       22 2 17.41                             126    0.15 9  168 351 
 OCA  SZ ES   2   22 2 40.17                             126    0.74 5  168 351 
 OCA  SZ I        22 2 43.54        13.1 0.49                           168 351 
 NOR  SZ EP   1   22 2 23.86                             116   -0.59 6  238 237 
 NOR  SE ES   2   22 2 52.01                             116   -0.20 4  238 237 
 CHI  HZ EP   1   22 2 25.72                             116    0.02 6  245 197 
 CHI  HE ES   1   22 2 54.72                             116    0.27 6  245 197 
 CHI  HZ I        22 3  3.39         4.1 0.56                           245 197 
 RREF HZ EP   2   22 2 35.31                             109    0.42 3  324 231 
 RREF HN ES   2   22 3 10.87                             109    0.07 3  324 231 
 RREF HZ I        22 3 17.61         5.9 0.20                           324 231 
 PRA  HZ EP   1   22 2 42.44                             105    0.51 4  391 211 
                                                                                
