 2017  722 2129 46.1 L   6.697 -73.200149.1  RSN  4 0.1 1.1LRSN                1
 GAP=222        0.37       3.6     3.0  3.2  0.4607E+01  0.1895E+01  0.2935E+01E
 Epicentro: VILLANUEVA - SANTANDER                                             3
 ACTION:UPD 17-08-30 15:35 OP:rebc STATUS:               ID:20170722212946 L   I
 OLDACT:UP  17-07-23 05:23 OP:edw  STATUS:               ID:20170722212743     3
 OLDACT:REG 17-07-23 04:41 OP:edw  STATUS:               ID:20170722212743     3
 2017-07-22-2128-00M.COL___395                                                 6
 STAT SP IPHASW D HRMM SECON CODA AMPLIT PERI AZIMU VELO AIN AR TRES W  DIS CAZ7
 BAR2 EZ ES       2130 21.45                             175   -0.0310 11.8 170 
 BRR  HZ EP       2130  7.58                             153   -0.1210 72.5 309 
 BRR  HN ES       2130 24.61                             153    0.0710 72.5 309 
 RUS  HZ EP       2130  9.66                             147    0.1810 89.9 172 
 RUS  HE ES   2   2130 27.48                             147   -0.21 5 89.9 172 
 RUS  HZ I        2130 29.12         1.9 0.28            146           89.9 172 
 PTB  HZ EP       2130 12.62                             134   -0.06 9  140 263 
 PTB  HN ES       2130 33.39                             134   -0.00 9  140 263 
 PTB  HZ I        2130 35.53         1.5 0.42            133            140 263 
                                                                                
