 2012 1222 2140  8.3 L   6.831 -73.154145.1  RSN 10 0.5 2.2LRSN 3.0WRSN        1
 SPEC AVERAGE  MO 13.6 ST  3.7 OM  3.0 f0 3.33 R0.4606 AL 2.29 WI 25.8 MW  3.0 3
 SPEC SD       MO  0.3 ST  3.3 OM  1.1 f00.663 R0.0985 AL      WI      MW  0.2 3
 GAP=113        1.18       3.5     6.1  6.9  0.1879E+01  0.3392E+01  0.1225E+01E
 Epicentro: LOS SANTOS - SANTANDER                                             3
 SPEC RUS HH N MO 13.1 ST0.258 OM  1.5 f0 2.42 R0.6074 AL 1.93 WI 17.9 MW  2.7 3
 SPEC RUS HH N T214048 K 0.000 GD  178 VS 4.20 DE 3.00 Q0230.0 QA 0.60 VS 4.20 3
 SPEC NOR HH N MO 14.0 ST  9.1 OM  2.2 f0 4.00 R0.3675 AL 2.46 WI 30.8 MW  3.3 3
 SPEC NOR HH N T214110 K 0.000 GD  277 VS 4.20 DE 3.00 Q0230.0 QA 0.60 VS 4.20 3
 SPEC OCA HH N MO 13.8 ST  2.3 OM  2.1 f0 2.98 R0.4933 AL 1.98 WI 28.2 MW  3.1 3
 SPEC OCA HH N T214056 K 0.000 GD  213 VS 4.20 DE 3.00 Q0230.0 QA 0.60 VS 4.20 3
 SPEC BRR HH N MO 13.6 ST  3.1 OM  2.0 f0 3.93 R0.3740 AL 2.78 WI 26.3 MW  3.0 3
 SPEC BRR HH N T214046 K 0.000 GD  160 VS 4.20 DE 3.00 Q0230.0 QA 0.60 VS 4.20 3
 ACTION:UPD 13-01-04 14:29 OP:ep   STATUS:               ID:20121222214008 L   I
 2012-12-22-2140-00M.COL___243                                                 6
 STAT SP IPHASW D HRMM SECON CODA AMPLIT PERI AZIMU VELO AIN AR TRES W  DIS CAZ7
 BAR2 SZ EP       2140 28.06                             169    0.0910 26.6 187 
 BAR2 SZ ES       2140 43.04                             169   -0.2310 26.6 187 
 BAR2 SZ I        2140 45.29        34.2 0.26                          26.6 187 
 GIR2 SZ EP       2140 27.99                             169    0.1410 27.8 351 
 GIR2 SZ I        2140 50.36         7.5 0.50                          27.8 351 
 BRR  HZ EP       2140 29.54                             153    0.2510 68.8 296 
 BRR  HN ES       2140 46.68                             153    1.0510 68.8 296 
 BRR  HN I        2140 47.22        36.5 0.42                          68.8 296 
 RUS  HZ EP       2140 32.16                             143   -0.1310  104 176 
 RUS  HN ES       2140 50.41                             143   -0.5510  104 176 
 RUS  HN I        2140 52.22        24.9 0.36                           104 176 
 PTB  HZ EP       2140 34.54                             132   -0.71 9  148 257 
 PTB  HN I        2141  0.99        31.6 0.26                           148 257 
 OCA  HN ES       2140 57.78                             130   -0.29 9  157 353 
 TAM  HZ EP       2140 36.43                             130    0.29 9  157 106 
 TAM  HZ I        2140 36.57        17.0 0.36                           157 106 
 NOR  HZ EP       2140 44.60                             118    0.42 8  236 234 
 NOR  HN ES       2141 12.17                             118    0.05 8  236 234 
 SML  HZ EP       2140 45.02                             118    0.46 8  240 335 
 SML  HE ES       2141 11.85                             118   -0.96 8  240 335 
 SML  HN I        2141 17.34        26.8 0.10                           240 335 
 CHI  HZ EP       2140 46.49                             117    0.15 8  252 195 
 CHI  HN ES       2141 15.82                             117   -0.16 8  252 195 
                                                                                
