 2010  622 2117 52.1 L   6.788 -73.117140.4  RSN  7 0.2 1.9LRSN                1
 GAP=159        0.43       2.4     4.4  4.1 -0.8998E+00 -0.1769E+01 -0.2060E+01E
 Epicentro: LOS SANTOS - SANTANDER                                             3
 ACTION:UP  10-08-24 10:12 OP:vdl  STATUS:               ID:20100622211752 L   I
 2010-06-22-2115-49S.COL___118                                                 6
 STAT SP IPHASW D HRMM SECON CODA AMPLIT PERI AZIMU VELO SNR AR TRES W  DIS CAZ7
 BAR2 SZ EP       2118 11.14                             170     0.110   23 199 
 BAR2 SZ ES   1   2118 26.12                             170     0.2 7   23 199 
 BRR  HZ IP     D 2118 12.91                             150     0.010   75 298 
 BRR  HZ I        2118 13.08        29.4 0.17                            75 298 
 BRR  HE ES   1   2118 28.94                             150    -0.2 7   75 298 
 RUS  HZ EP   1   2118 15.20                             143     0.0 7   99 178 
 RUS  HN ES   1   2118 33.02                             143    -0.2 7   99 178 
 RUS  HZ I        2118 34.74         8.7 0.31                            99 178 
 BRI  SZ EP   1   2118 15.67                             140     0.2 7  109  19 
 GRA  SZ EP   1   2118 16.86                             136    -0.1 7  126  16 
 GRA  SZ ES   1   2118 36.31                             136     0.1 7  126  16 
 OCA  SZ EP   2   2118 19.69                             128    -0.5 5  162 352 
 OCA  SZ I        2118 44.47        12.4 0.14                           162 352 
 HEL  HZ EP   2   2118 32.65                             113     0.3 4  275 256 
 HEL  HZ I        2119  9.55         3.8 0.50                           275 256 
                                                                                
