 2015  622 2322 38.3 L   7.474 -72.992152.1  RSN  7 0.5 1.8LRSN                1
 GAP=138        1.27       4.6     6.9  8.2  0.9638E+01  0.1015E+02 -0.8082E+00E
 Epicentro: SURATA - SANTANDER                                                 3
 ACTION:UPD 15-09-10 22:14 OP:cam  STATUS:               ID:20150622232238 L   I
 OLDACT:REG 15-06-23 03:46 OP:stll STATUS:               ID:20150622231750     3
 2015-06-22-2317-50M.COL___322                                                 6
 STAT SP IPHASW D HRMM SECON CODA AMPLIT PERI AZIMU VELO AIN AR TRES W  DIS CAZ7
 PAM  SZ EP       2322 59.32                             166   -0.0310 35.6 115 
 PAM  SN ES       2323 16.00                             166    0.2210 35.6 115 
 PAM  SZ I        2323 18.19        11.1 0.24            171           35.6 115 
 BRR  HZ EP       2323  1.77                             148    0.5710 89.2 243 
 BRR  HZ I        2323  2.61        10.7 0.18            146           89.2 243 
 BRR  HN ES       2323 20.02                             148    0.9510 89.2 243 
 OCA  HZ EP       2323  2.14                             147    0.5410 92.0 337 
 OCA  HZ I        2323  2.40        18.0 0.20            146           92.0 337 
 OCA  HN ES       2323 19.50                             147   -0.2910 92.0 337 
 BAR2 EZ EP       2323  2.49                             145    0.2410 99.7 192 
 BAR2 EZ I        2323  2.64        10.3 0.66            146           99.7 192 
 BAR2 EZ ES       2323 19.99                             145   -0.9410 99.7 192 
 RUS  HZ EP       2323  8.68                             129   -0.26 9  175 183 
 RUS  HZ I        2323  9.20         5.4 0.12            130            175 183 
 RUS  HE ES       2323 32.60                             129   -0.25 9  175 183 
 SML  HZ EP       2323  9.37                             126   -0.25 9  189 321 
 SML  HE ES       2323 33.41                             126   -0.65 9  189 321 
 SML  HZ I        2323 39.23         8.8 0.10            126            189 321 
 ZAR  HZ EP       2323 11.32                             123   -0.02 8  206 271 
 ZAR  HE ES       2323 36.92                             123   -0.21 8  206 271 
 ZAR  HZ I        2323 44.80         5.4 0.26            123            206 271 
                                                                                
