 2013  522 2330 23.5 L   6.297 -73.569109.7  RSN  8 0.5 1.9LRSN                1
 GAP= 77        0.95       4.1     4.1  8.9 -0.2567E+01  0.1278E+02  0.1716E+02E
 Epicentro: SANTA HELENA DEL OPON - SANTANDER                                  3
 ACTION:UPD 13-06-20 09:52 OP:ep   STATUS:               ID:20130522233023 L   I
 2013-05-22-2330-00M.COL___259                                                 6
 STAT SP IPHASW D HRMM SECON CODA AMPLIT PERI AZIMU VELO AIN AR TRES W  DIS CAZ7
 BAR2 SZ EP   1   2330 40.49                             152    0.40 7 53.8  53 
 BAR2 SZ ES   1   2330 53.50                             152    0.45 7 53.8  53 
 BAR2 SZ I        2330 54.65        30.7 0.36            159           53.8  53 
 RUS  HZ IP     D 2330 40.92                             146   -0.5610 70.0 130 
 RUS  HN ES   1   2330 55.37                             146   -0.15 7 70.0 130 
 RUS  HZ I        2330 57.18         7.3 0.26            149           70.0 130 
 BRR  HZ EP   1   2330 42.25                             137   -0.14 7 90.9 350 
 BRR  HE ES       2330 57.55                             137    0.4110 90.9 350 
 BRR  HE I        2330 58.41        28.2 0.20            143           90.9 350 
 GIR2 SZ EP   1   2330 42.87                             136   -0.13 7 95.9  26 
 GIR2 SZ ES   1   2330 58.28                             136    0.05 7 95.9  26 
 GIR2 SZ I        2330 59.56         9.1 0.14            143           95.9  26 
 PTB  HZ EP   1   2330 42.46                             134   -0.87 7  102 285 
 PTB  HN ES   1   2330 58.27                             134   -0.55 7  102 285 
 PTB  HN I        2331  1.21        20.3 0.20            137            102 285 
 NOR  HZ EP   1   2330 49.40                             119   -0.26 7  165 241 
 NOR  HE ES   1   2331  9.81                             119   -0.27 7  165 241 
 NOR  HZ I        2331 15.87        17.8 0.16            122            165 241 
 GUY2CHZ EP   1   2330 58.24                             110    0.67 6  232 239 
 GUY2CHE ES       2331 24.71                             110    0.54 8  232 239 
 GUY2CHZ I        2331 34.39         5.6 0.54                           232 239 
 PRA  HZ EP   1   2331  7.73                             103    0.25 5  321 207 
 PRA  HE ES       2331 42.36                             103    0.56 7  321 207 
 PRA  HZ I        2331 47.27         3.4 0.28            106            321 207 
                                                                                
