 2016 1022 2327  0.9 L   6.751 -73.145142.1  RSN  5 0.3 1.3LRSN                1
 GAP=139        0.70       3.7     3.6  5.2 -0.1275E+01  0.2727E+01  0.5024E+00E
 Epicentro: LOS SANTOS - SANTANDER                                             3
 ACTION:UPD 16-11-09 19:21 OP:rebc STATUS:               ID:20161022232700 L   I
 OLDACT:REG 16-10-23 03:55 OP:dnl  STATUS:               ID:20161022231744     3
 2016-10-22-2318-00M.COL___353                                                 6
 STAT SP IPHASW D HRMM SECON CODA AMPLIT PERI AZIMU VELO AIN AR TRES W  DIS CAZ7
 BAR2 EZ EP   2   2327 20.10                             172    0.07 5 18.0 193 
 BAR2 EZ ES       2327 35.08                             172    0.1610 18.0 193 
 BAR2 EZ I        2327 37.99         5.7 0.42            173           18.0 193 
 BRR  HZ EP       2327 21.99                             151    0.1310 74.0 302 
 BRR  HN ES       2327 38.02                             151   -0.1510 74.0 302 
 BRR  HZ I        2327 43.45         6.8 0.32            153           74.0 302 
 PAM  EZ EP       2327 23.03                             149    0.0010 81.6  37 
 PAM  EN ES       2327 40.21                             149   -0.0410 81.6  37 
 PAM  EZ I        2327 41.78         2.6 0.14            153           81.6  37 
 RUS  HZ EP       2327 24.32                             145    0.3810 95.1 176 
 RUS  HN ES       2327 41.55                             145   -0.3210 95.1 176 
 RUS  HZ I        2327 45.14         2.6 0.34            148           95.1 176 
 PTB  HZ EP       2327 27.01                             131   -0.52 9  147 261 
 PTB  HN ES       2327 48.57                             131    0.30 9  147 261 
 PTB  HZ I        2327 49.51         3.0 0.48            134            147 261 
                                                                                
