 2010  922 2138 35.7 L   6.779 -73.087141.4  RSN  5 0.5 1.8LRSN                1
 GAP=232        0.93       8.8    19.7 12.3  0.6974E+02  0.1690E+01  0.2556E+02E
 Epicentro: LOS SANTOS - SANTANDER                                             3
 ACTION:UP  11-02-18 11:04 OP:tino STATUS:               ID:20100922213835 L   I
 2010-09-22-2135-18S.COL___122                                                 6
 STAT SP IPHASW D HRMM SECON CODA AMPLIT PERI AZIMU VELO SNR AR TRES W  DIS CAZ7
 BAR2 SZ EP   1   2138 54.61                             171    -0.2 7   23 207 
 BAR2 SZ ES   2   2139  9.06                             171    -0.7 5   23 207 
 BAR2 SZ I        2139 10.57        15.4 0.42                            23 207 
 BTL  SZ EP   1   2138 55.67                             170     0.8 7   25 308 
 BRR  HZ EP   1   2138 56.29                             150    -0.5 7   78 298 
 BRR  HZ I        2138 56.58        29.8 0.19                            78 298 
 BRR  HE ES   2   2139 13.66                             150     0.4 5   78 298 
 RUS  HZ EP   1   2138 58.89                             144     0.0 7   98 180 
 RUS  HN ES   2   2139 17.20                             144     0.3 5   98 180 
 RUS  HZ I        2139 18.38         4.9 0.55                            98 180 
 CHI  HZ EP   1   2139 12.91                             116    -0.2 6  248 197 
 CHI  HN ES   2   2139 42.52                             116     0.2 4  248 197 
 CHI  HZ I        2139 44.57         4.0 0.46                           248 197 
                                                                                
