 2017 1022 2313 40.0 L   7.580 -73.110150.9  RSN  8 0.2 2.0LRSN                1
 GAP=213        0.55       3.5     2.6  4.4 -0.1260E+00  0.3394E+01 -0.4493E+00E
 Epicentro: EL PLAYON - SANTANDER                                              3
 ACTION:UPD 17-11-07 19:35 OP:rebc STATUS:               ID:20171022231340 L   I
 OLDACT:UP  17-10-23 07:04 OP:dnl  STATUS:               ID:20171022230510     3
 OLDACT:REG 17-10-23 06:56 OP:dnl  STATUS:               ID:20171022230510     3
 2017-10-22-2308-00M.COL___405                                                 6
 STAT SP IPHASW D HRMM SECON CODA AMPLIT PERI AZIMU VELO AIN AR TRES W  DIS CAZ7
 PAM  EZ EP       2314  1.47                             160   -0.0710 52.5 120 
 PAM  EN ES       2314 18.02                             160   -0.3110 52.5 120 
 PAM  EZ I        2314 18.48        25.0 0.20            165           52.5 120 
 BRR  HZ IP     D 2314  2.67                             149    0.1610 84.6 232 
 BRR  HN ES       2314 20.42                             149    0.3710 84.6 232 
 BRR  HZ I        2314 21.14        21.4 0.14            146           84.6 232 
 BAR2 EZ EP       2314  4.65                             142    0.0910  110 184 
 BAR2 EZ ES       2314 23.77                             142    0.0510  110 184 
 BAR2 EZ I        2314 24.64        13.8 0.42            143            110 184 
 RUS  HZ EP   2   2314 12.09                             126    0.40 4  187 179 
 RUS  HE ES       2314 36.49                             126    0.08 9  187 179 
 PTB  HZ EP       2314 11.20                             126   -0.00 9  188 232 
 PTB  HN ES       2314 35.46                             126   -0.08 9  188 232 
 PTB  HZ I        2314 39.06         5.0 0.14            124            188 232 
 ZAR  HZ EP   2   2314 11.64                             125   -0.06 4  193 267 
 ZAR  HN ES       2314 36.35                             125   -0.07 9  193 267 
 ZAR  HZ I        2314 42.01         9.5 0.52            123            193 267 
 NOR  HZ EP   3   2314 23.12                             114    0.38 2  296 221 
 NOR  HN ES       2314 55.45                             114   -0.61 7  296 221 
 NOR  HZ I        2315  3.54         4.5 0.18            113            296 221 
 SJC  HZ EP   4   2314 26.87                             110   -1.18 0  343 319 
 SJC  HN ES   4   2315  2.42                             110   -3.11 0  343 319 
 SJC  HZ I        2315 11.77         2.6 0.82            109            343 319 
                                                                                
