 2014  222 2241 41.6 L   6.796 -73.099154.4  RSN  5 0.4 1.8LRSN                1
 GAP=143        0.81       4.1     8.0  7.7  0.5549E+01  0.1635E+02 -0.5938E+01E
 Epicentro: LOS SANTOS - SANTANDER                                             3
 ACTION:UPD 14-03-10 08:12 OP:ep   STATUS:               ID:20140222224141 L   I
 OLDACT:UP  14-02-23 02:18 OP:mh   STATUS:               ID:20140222224000     3
 OLDACT:REG 14-02-22 21:44 OP:mh   STATUS:               ID:20140222224000     3
 2014-02-22-2240-00M.COL___215                                                 6
 STAT SP IPHASW D HRMM SECON CODA AMPLIT PERI AZIMU VELO AIN AR TRES W  DIS CAZ7
 PAM  SZ EP   1   2242  4.98                             153    0.44 7 74.6  36 
 PAM  SN ES   1   2242 22.41                             153   -0.05 7 74.6  36 
 PAM  SZ I        2242 24.62         9.7 0.27            157           74.6  36 
 BRR  HZ EP       2242  4.27                             152    0.3710 75.9 297 
 BRR  HN ES   1   2242 21.68                             152    0.35 7 75.9 297 
 BRR  HZ I        2242 25.55        14.2 0.15            139           75.9 297 
 RUS  HZ EP   1   2242  6.19                             146    0.07 7 99.9 179 
 RUS  HN ES       2242 24.80                             146   -0.4710 99.9 179 
 RUS  HZ I        2242 26.18         5.1 0.30            132           99.9 179 
 SPBC HZ EP   1   2242 11.26                             130    0.26 7  166 220 
 SPBC HZ I        2242 40.28        16.5 0.22            117            166 220 
 SML  HZ EP       2242 18.47                             119   -0.49 8  246 334 
 SML  HN ES   1   2242 47.66                             119   -0.47 6  246 334 
                                                                                
