 2010 1222 2102 33.2 L   6.822 -73.199136.0  RSN  6 0.3 1.9LRSN                1
 GAP=153        0.68       2.8     7.2  6.0 -0.7958E+01  0.1346E+02 -0.3637E+00E
 Epicentro: ZAPATOCA - SANTANDER                                               3
 ACTION:UP  11-01-14 15:26 OP:pat  STATUS:               ID:20101222210233 L   I
 2010-12-22-2100-00M.COL___135                                                 6
 STAT SP IPHASW D HRMM SECON CODA AMPLIT PERI AZIMU VELO SNR AR TRES W  DIS CAZ7
 BTL  SZ IP       21 2 51.28                             174    -0.210   13 324 
 BTL  SZ ES   1   21 3  5.96                             174     0.2 7   13 324 
 RUS  HZ EP       21 2 56.14                             141    -0.110  104 173 
 RUS  HN ES   1   21 3 13.94                             141    -0.2 7  104 173 
 RUS  HZ I        21 3 16.17        12.9 0.44                           104 173 
 GRA  SZ IP       21 2 57.83                             135     0.310  125  20 
 GRA  SZ ES   1   21 3 16.93                             135     0.4 7  125  20 
 GRA  SZ I        21 3 18.26        20.8 0.34                           125  20 
 OCA  SZ IP       21 3  0.36                             128    -0.1 9  157 355 
 OCA  SZ ES   1   21 3 21.07                             128    -0.7 7  157 355 
 OCA  SZ I        21 3 23.60        15.7 0.23                           157 355 
 NOR  SZ EP       21 3  8.16                             117     0.1 8  232 233 
 NOR  SN ES   2   21 3 35.67                             117     0.5 4  232 233 
 CHI  HZ EP   1   21 3 10.50                             115     0.0 6  250 194 
 CHI  HN ES   2   21 3 39.59                             115     0.0 4  250 194 
 CHI  HZ I        21 3 50.03         3.2 0.45                           250 194 
                                                                                
