 2014  822 2009 22.5 L   6.776 -73.100154.5  RSN  6 0.2 1.6LRSN                1
 GAP=144        0.62       3.2     3.1  5.4 -0.9563E+00  0.4178E+00  0.2431E+01E
 Epicentro: LOS SANTOS - SANTANDER                                             3
 ACTION:UPD 14-09-15 21:52 OP:nd   STATUS:               ID:20140822200922 L   I
 OLDACT:REG 14-08-23 04:27 OP:spq  STATUS:               ID:20140822200818     3
 2014-08-22-2008-18M.COL___231                                                 6
 STAT SP IPHASW D HRMM SECON CODA AMPLIT PERI AZIMU VELO AIN AR TRES W  DIS CAZ7
 PAM  SZ EP       20 9 45.87                             153    0.2810 76.4  35 
 PAM  SN ES   1   2010  3.27                             153   -0.34 7 76.4  35 
 PAM  SZ I        2010  5.62         3.8 0.58            156           76.4  35 
 BRR  HZ EP       20 9 45.12                             152    0.2110 76.9 298 
 BRR  HN ES       2010  2.44                             152    0.0410 76.9 298 
 BRR  HZ I        2010  8.61        16.8 0.34            152           76.9 298 
 RUS  HZ EP   1   20 9 46.50                             146   -0.41 7 97.7 179 
 RUS  HN ES   1   2010  6.10                             146    0.14 7 97.7 179 
 RUS  HZ I        2010  7.34         3.7 0.36            150           97.7 179 
 PTB  HZ EP       20 9 50.13                             133   -0.45 9  152 260 
 PTB  HN ES       2010 12.38                             133   -0.11 9  152 260 
 PTB  HZ I        2010 15.05         5.0 0.11            135            152 260 
 SPBC HZ EP       20 9 52.01                             131    0.23 9  164 221 
 SPBC HE ES       2010 14.71                             131    0.08 9  164 221 
 SPBC HZ I        2010 18.51         5.9 0.20            134            164 221 
 ZAR  HE ES       2010 22.36                             123    0.05 8  210 292 
 ZAR  HZ I        2010 27.10         3.7 0.28            126            210 292 
                                                                                
