 2015  522 2153 57.0 L   6.765 -73.149135.1  RSN  4 0.3 1.7LRSN                1
 GAP=138        0.70       3.5     5.2  5.7 -0.1472E+00 -0.2028E+01  0.6467E+00E
 Epicentro: LOS SANTOS - SANTANDER                                             3
 ACTION:UPD 15-09-10 22:06 OP:cam  STATUS:               ID:20150522215357 L   I
 OLDACT:REG 15-05-23 02:52 OP:drio STATUS:               ID:20150522214749     3
 2015-05-22-2147-49M.COL___297                                                 6
 STAT SP IPHASW D HRMM SECON CODA AMPLIT PERI AZIMU VELO AIN AR TRES W  DIS CAZ7
 BAR2 EZ EP       2154 15.29                             171    0.0610 19.5 191 
 BAR2 EZ ES       2154 29.96                             171    0.4810 19.5 191 
 BAR2 EZ I        2154 35.09         8.7 0.30            171           19.5 191 
 BRR  HZ EP       2154 17.34                             150    0.2810 72.8 301 
 BRR  HE ES       2154 32.41                             150   -0.3310 72.8 301 
 PAM  SZ EP       2154 18.23                             148   -0.0310 80.6  38 
 PAM  SE ES       2154 34.74                             148   -0.1310 80.6  38 
 PAM  SZ I        2154 37.03        15.3 0.52            151           80.6  38 
 RUS  HZ EP       2154 19.31                             143   -0.0810 96.8 176 
 RUS  HE ES       2154 36.63                             143   -0.2510 96.8 176 
 RUS  HZ I        2154 39.27         8.5 0.34            145           96.8 176 
                                                                                
