 2015  722 2215 33.2 L   7.459 -73.242133.0  RSN 11 0.4 2.3LRSN                1
 GAP=108        0.83       3.1     3.7  6.5  0.2446E+01  0.1384E+02  0.4992E+01E
 Epicentro: EL PLAYON - SANTANDER                                              3
 ACTION:UPD 15-09-08 21:50 OP:cam  STATUS:               ID:20150722221533 L   I
 OLDACT:REG 15-07-23 06:29 OP:spq  STATUS:               ID:20150722220748     3
 2015-07-22-2207-48M.COL___334                                                 6
 STAT SP IPHASW D HRMM SECON CODA AMPLIT PERI AZIMU VELO AIN AR TRES W  DIS CAZ7
 PAM  EZ EP       2215 53.63                             154    0.5310 61.3 102 
 PAM  EE ES       2216  8.33                             154   -0.3110 61.3 102 
 PAM  EZ I        2216 10.52        19.5 0.30            152           61.3 102 
 OCA  HZ EP   1   2215 54.67                             145    0.48 7 86.7 354 
 OCA  HN ES       2216 10.58                             145   -0.0110 86.7 354 
 OCA  HZ I        2216 14.92        56.6 0.23            138           86.7 354 
 BAR2 EZ EP     C 2215 54.62                             142   -0.3710 96.1 176 
 BAR2 EZ ES   4   2216 10.09                             142   -1.92 0 96.1 176 
 BAR2 EZ I        2216 11.19       114.6 0.36            141           96.1 176 
 SML  HZ EP       2216  1.93                             124    0.22 9  174 328 
 SML  HN ES   1   2216 23.84                             124   -0.13 7  174 328 
 SML  HZ I        2216 26.86        55.0 0.10            118            174 328 
 RUS  HZ EP   1   2216  1.70                             124   -0.64 7  174 174 
 RUS  HN ES   4   2216 23.66                             124   -1.43 0  174 174 
 ZAR  HZ EP       2216  2.56                             123    0.42 9  178 271 
 ZAR  HE ES       2216 24.94                             123    0.19 9  178 271 
 ZAR  HZ I        2216 28.75        41.3 0.22            119            178 271 
 NOR  HZ EP   1   2216 13.10                             112    0.26 6  276 221 
 NOR  HN ES       2216 44.02                             112    0.24 7  276 221 
 NOR  HZ I        2216 48.96        14.5 0.20            108            276 221 
 HEL  HZ EP       2216 14.66                             111   -0.03 7  289 241 
 HEL  HE ES   1   2216 46.98                             111   -0.10 5  289 241 
 HEL  HZ I        2216 56.40         7.8 0.50            107            289 241 
 MON  HZ EP       2216 15.33                             109   -0.64 7  304 299 
 MON  HE ES       2216 48.94                             109   -0.42 7  304 299 
 MON  HZ I        2216 54.38         3.7 0.32            105            304 299 
 GUY2CHZ EP   4   2216 22.85                             107    2.03 0  341 224 
 GUY2CHE ES   4   2217  0.20                             107    2.22 0  341 224 
 GUY2CHZ I        2217  5.22         6.5 0.28                           341 224 
 SJC  HZ EP       2216 21.00                             107    0.37 7  344 322 
 SJC  HE ES   1   2216 56.75                             107   -0.90 5  344 322 
 SJC  HZ I        2216 58.81         6.7 0.38            103            344 322 
                                                                                
