 2017  422 2320 38.5 L   6.532 -73.531113.5  RSN  7 0.2 1.7LRSN                1
 GAP=126        0.89       4.2     3.2  5.9  0.2637E+01  0.2480E+01  0.7735E+01E
 Epicentro: EL CARMEN - SANTANDER                                              3
 ACTION:UPD 17-05-30 21:15 OP:jn   STATUS:               ID:20170422232038 L   I
 OLDACT:UP  17-04-23 09:24 OP:edw  STATUS:               ID:20170422231734     3
 OLDACT:UP  17-04-23 09:23 OP:edw  STATUS:               ID:20170422231734     3
 OLDACT:REG 17-04-23 06:01 OP:edw  STATUS:               ID:20170422231734     3
 2017-04-22-2318-00M.COL___359                                                 6
 STAT SP IPHASW D HRMM SECON CODA AMPLIT PERI AZIMU VELO AIN AR TRES W  DIS CAZ7
 BAR2 EZ EP       2320 54.82                             159    0.0510 39.1  80 
 BAR2 EZ ES       2321  7.69                             159    0.2010 39.1  80 
 BRR  HZ EP       2320 55.85                             146   -0.0810 66.7 343 
 BRR  HN ES       2321  9.61                             146    0.0610 66.7 343 
 PTB  HZ IP   9 D 2320 57.68                             134   -1.02 0  102 271 
 PTB  HN ES       2321 12.66                             133   -0.8110  102 271 
 PTB  HZ I        2321 17.27         5.9 0.30            133            102 271 
 PAM  EZ EP       2321  1.65                             127   -0.0510  128  46 
 PAM  EN ES       2321 19.46                             127   -0.3610  128  46 
 PAM  EZ I        2321 20.49         4.5 0.30            129            128  46 
 YPLC HZ EP       2321  6.62                             117    0.26 9  179 135 
 YPLC HN ES       2321 27.86                             117   -0.25 9  179 135 
 YPLC HZ I        2321 30.82        10.8 0.34            118            179 135 
 ZAR  HZ EP       2321  6.98                             117    0.46 9  181 306 
 ZAR  HN ES   4   2321 30.04                             117    1.65 0  181 306 
 ZAR  HZ I        2321 33.63         7.5 0.38            116            181 306 
 NOR  HE ES   4   2321 28.79                             117   -0.04 0  183 234 
 CHI  HN ES   4   2321 31.76                             113   -3.52 0  212 186 
 HEL  HE ES       2321 37.41                             111   -0.32 8  224 260 
                                                                                
