 2016 1122 2030 19.9 L   6.777 -73.113146.6  RSN 10 0.5 2.0LRSN                1
 GAP= 97        1.07       4.5     4.4  6.6 -0.2303E+01  0.4465E+01  0.1225E+02E
 Epicentro: LOS SANTOS - SANTANDER                                             3
 ACTION:UPD 17-10-26 21:10 OP:lp   STATUS:               ID:20161122203019 L   I
 OLDACT:UP  16-11-23 04:01 OP:and  STATUS:               ID:20161122202747     3
 OLDACT:UP  16-11-23 04:01 OP:and  STATUS:               ID:20161122202747     3
 OLDACT:UP  16-11-23 04:00 OP:and  STATUS:               ID:20161122202747     3
 OLDACT:UP  16-11-23 03:57 OP:and  STATUS:               ID:20161122202747     3
 OLDACT:UP  16-11-23 03:55 OP:and  STATUS:               ID:20161122202747     3
 OLDACT:REG 16-11-23 02:58 OP:and  STATUS:               ID:20161122202747     3
 2016-11-22-2028-00M.COL___352                                                 6
 STAT SP IPHASW D HRMM SECON CODA AMPLIT PERI AZIMU VELO AIN AR TRES W  DIS CAZ7
 BAR2 EZ IP     C 2030 39.46                             171   -0.1210 21.9 201 
 BAR2 EZ ES       2030 54.65                             171   -0.3010 21.9 201 
 BAR2 EZ I        2030 57.57        22.5 0.34            166           21.9 201 
 BRR  HZ EP       2030 41.35                             151   -0.0210 75.6 299 
 BRR  HN ES       2030 58.86                             151    0.7310 75.6 299 
 BRR  HZ I        2031  3.70        12.3 0.19            144           75.6 299 
 PAM  EZ IP     C 2030 42.21                             151    0.0510 77.1  36 
 PAM  EN ES       2030 59.21                             151   -0.3410 77.1  36 
 PAM  EZ I        2031  1.69        10.1 0.21            152           77.1  36 
 TAM  HZ IP     C 2030 47.59                             132    0.36 9  151 104 
 PTB  HZ EP       2030 46.37                             131   -0.82 9  151 260 
 PTB  HN ES   4   2031  7.11                             131   -1.39 0  151 260 
 PTB  HZ I        2031 14.99        13.4 0.26            126            151 260 
 ZAR  HZ EP       2030 53.42                             122    0.60 8  208 292 
 ZAR  HE ES       2031 18.00                             122   -0.52 8  208 292 
 ZAR  HZ I        2031 24.77         8.5 0.18            118            208 292 
 NOR  HZ EP       2030 55.71                             118   -0.11 8  236 235 
 NOR  HN ES       2031 24.45                             118    0.60 8  236 235 
 NOR  HZ I        2031 30.46         7.8 0.24            115            236 235 
 CHI  HZ EP       2030 57.70                             117    0.24 8  247 196 
 CHI  HN ES       2031 27.01                             117    0.23 8  247 196 
 CHI  HZ I        2031 32.42         5.0 0.33            115            247 196 
 LL6C HZ EP   9   2030 46.02                             110   -19.9 0  328 357 
 LL6C HN ES   4   2031 20.14                                   -1.79 0  328 357 
 PRA  HZ EP       2031 13.42                             107    0.04 6  392 210 
 PRA  HN ES       2031 54.25                             107   -0.86 6  392 210 
 PRA  HZ I        2032  1.95         3.4 0.29            105            392 210 
 SJC  HZ EP   4   2031 13.72                             106   -2.22 0  413 327 
 SJC  HN ES   4   2031 55.34                             106   -4.34 0  413 327 
 SJC  HZ I        2032  3.24         2.6 0.30            104            413 327 
                                                                                
