 2012  722 2122  2.4 L   7.443 -73.185130.0  RSN 16 0.4 3.6LRSN                1
 GAP= 66        0.95       2.4     3.2  4.8  0.9620E+00 -0.8121E+00  0.1672E+00E
 Epicentro: EL PLAYON - SANTANDER                                              3
 SPEC SD       MO  0.1 ST  6.4 OM  0.7 f00.587 R0.1477 AL      WI      MW  0.1 3
 SPEC TAM HH Z MO 14.5 ST 15.5 OM  2.8 f0 3.21 R0.4579 AL 1.80 WI 15.4 MW  3.6 3
 SPEC TAM HH Z T212251 K 0.000 GD  230 VS 4.20 DE 3.00 Q0230.0 QA 0.60 VS 4.20 3
 SPEC ZAR HH Z MO 14.8 ST  5.4 OM  3.1 f0 1.81 R0.8122 AL 2.28 WI 14.7 MW  3.8 3
 SPEC ZAR HH Z T212255 K 0.000 GD  226 VS 4.20 DE 3.00 Q0230.0 QA 0.60 VS 4.20 3
 SPEC PTB HH Z MO 14.5 ST  5.9 OM  2.8 f0 2.38 R0.6176 AL 2.25 WI 14.0 MW  3.6 3
 SPEC PTB HH Z T212252 K 0.000 GD  215 VS 4.20 DE 3.00 Q0230.0 QA 0.60 VS 4.20 3
 SPEC CHI HH Z MO 14.5 ST  3.0 OM  2.6 f0 1.89 R0.7778 AL 1.82 WI 20.5 MW  3.6 3
 SPEC CHI HH Z T212323 K 0.000 GD  342 VS 4.20 DE 3.00 Q0230.0 QA 0.60 VS 4.20 3
 SPEC HEL HH Z MO 14.7 ST 19.5 OM  2.8 f0 3.10 R0.4742 AL 3.00 WI 25.7 MW  3.7 3
 SPEC HEL HH Z T212312 K 0.000 GD  321 VS 4.20 DE 3.00 Q0230.0 QA 0.60 VS 4.20 3
 ACTION:UPD 12-08-14 11:46 OP:ep   STATUS:               ID:20120722212202 L   I
 2012-07-22-2120-00M.COL___215                                                 6
 STAT SP IPHASW D HRMM SECON CODA AMPLIT PERI AZIMU VELO AIN AR TRES W  DIS CAZ7
 BRR  HZ IP     D 2122 22.07                             150     0.310   69 238 
 BRR  HZ I        2122 22.59      1320.9 0.22            131             69 238 
 BRR  HE ES       2122 37.17                             150     0.310   69 238 
 OCA  HZ EP       2122 23.69                             143     0.310   89 350 
 OCA  HN ES       2122 39.62                             143     0.010   89 350 
 OCA  HZ I        2122 47.37      2281.2 0.57            127             89 350 
 BAR2 SZ EP       2122 23.98                             142     0.210   94 180 
 BAR2 SZ ES       2122 39.85                             142    -0.610   94 180 
 BAR2 SZ I        2122 41.70      1334.3 0.26            130             94 180 
 PTB  HZ EP       2122 30.28                             123    -0.3 9  172 235 
 PTB  HE ES   1   2122 52.38                             123    -0.2 7  172 235 
 PTB  HZ I        2122 55.13       344.3 0.33            110            172 235 
 RUS  HZ EP       2122 30.79                             124    -0.4 9  172 176 
 RUS  HE ES   2   2122 52.77                             124    -0.8 4  172 176 
 ZAR  HZ EP       2122 32.11                             121     0.2 9  185 272 
 ZAR  HN ES   1   2122 55.40                             121     0.6 7  185 272 
 ZAR  HZ I        2123  0.21       940.9 0.46            108            185 272 
 TAM  HZ EP       2122 32.86                             121     0.4 9  190 126 
 TAM  HN ES       2122 56.08                             121     0.2 9  190 126 
 YOP  SZ EP       2122 39.02                             114     0.4 8  246 160 
 YOP  SE ES   1   2123  6.86                             114     0.0 6  246 160 
 YOP  SZ I        2123  8.62       200.0 0.34            106            246 160 
 COD  HZ EP       2122 41.73                             111    -0.3 7  277 354 
 COD  HE ES       2123 12.15                             111    -0.7 7  277 354 
 COD  HZ I        2123 16.57       189.8 0.51            103            277 354 
 NOR  SZ EP       2122 42.48                             111     0.2 7  279 222 
 NOR  SN ES   2   2123 13.82                             111     0.4 4  279 222 
 HEL  HZ EP       2122 44.46                             110     0.1 7  294 242 
 HEL  HZ I        2123 25.95       279.4 0.39            101            294 242 
 CHI  HZ EP       2122 47.27                             108     0.2 7  317 191 
 CHI  HN ES   1   2123 21.27                             108    -0.7 5  317 191 
 CHI  HZ I        2123 29.68       111.8 0.52            101            317 191 
 SDV  BZ EP       2122 47.69                             107     0.1 7  323  60 
 DBB  SZ EP       2122 48.88                             107    -0.2 7  337 262 
 SJC  HZ IP     C 2122 49.78                             106    -0.6 6  349 321 
 SJC  HZ I        2123 29.18       125.5 0.40             99            349 321 
 VIL  SZ EP       2122 53.61                             105     0.3 6  373 189 
 VIL  SE ES   1   2123 32.25                             105    -0.7 5  373 189 
 VIL  SZ I        2123 43.33        89.5 0.39             99            373 189 
