 2014  122 2138 48.6 L   6.753 -73.156144.3  RSN 10 0.5 1.9LRSN                1
 GAP=137        1.28       3.4     5.3  7.2 -0.7956E+00  0.7560E+01  0.2742E+00E
 Epicentro: LOS SANTOS - SANTANDER                                             3
 ACTION:UPD 14-03-13 09:57 OP:ep   STATUS:               ID:20140122213848 L   I
 OLDACT:REG 14-01-22 23:27 OP:carl STATUS:               ID:20140122213750     3
 2014-01-22-2137-50M.COL___250                                                 6
 STAT SP IPHASW D HRMM SECON CODA AMPLIT PERI AZIMU VELO AIN AR TRES W  DIS CAZ7
 BAR2 SZ EP       2139  8.23                             173    0.3210 18.0 189 
 BAR2 SZ ES       2139 23.01                             173    0.0110 18.0 189 
 BAR2 SZ I        2139 24.29        26.2 0.20            171           18.0 189 
 BRR  HZ EP       2139 10.47                             152    0.8410 72.8 303 
 BRR  HN ES       2139 26.68                             152    0.6010 72.8 303 
 BRR  HZ I        2139 28.39        15.6 0.18            148           72.8 303 
 PAM  SZ EP       2139 11.39                             149    0.4910 82.2  38 
 PAM  SN ES       2139 27.97                             149   -0.3710 82.2  38 
 PAM  SZ I        2139 31.09        12.0 0.72            152           82.2  38 
 RUS  HZ EP       2139 11.90                             145    0.1110 95.5 175 
 RUS  HN ES       2139 29.75                             145   -0.1710 95.5 175 
 RUS  HZ I        2139 31.57        14.8 0.30            148           95.5 175 
 PTB  HZ EP       2139 14.92                             132   -0.29 9  146 261 
 PTB  HN ES       2139 35.35                             132   -0.65 9  146 261 
 PTB  HZ I        2139 44.13         7.6 0.34            131            146 261 
 SPBC HZ EP       2139 15.47                             130   -1.01 9  158 220 
 SPBC HN ES       2139 38.11                             130   -0.16 9  158 220 
 SPBC HZ I        2139 41.32         9.9 0.34            130            158 220 
 OCA  HZ EP       2139 17.03                             128   -0.20 9  165 354 
 OCA  HN ES       2139 39.00                             128   -0.59 9  165 354 
 OCA  HZ I        2139 43.52        15.0 0.18            129            165 354 
 ZAR  HZ EP       2139 20.94                             122   -0.06 9  205 294 
 ZAR  HN ES       2139 47.19                             122    0.89 9  205 294 
 ZAR  HZ I        2139 56.06         9.4 0.34            121            205 294 
 CHI  HZ EP       2139 26.16                             117    0.58 8  243 195 
 CHI  HN ES       2139 54.48                             117    0.01 8  243 195 
 CHI  HZ I        2139 57.91         2.3 0.38            119            243 195 
 SML  HN ES       2139 53.85                             117   -0.57 8  248 336 
 SML  HZ I        2140  3.23        13.7 0.10            117            248 336 
                                                                                
