 2015  222 2118 48.9 L   7.427 -73.218127.9  RSN  5 0.5 1.7LRSN                1
 GAP=116        1.24       6.2     6.9 11.2 -0.1094E+02  0.2543E+02  0.4164E+01E
 Epicentro: EL PLAYON - SANTANDER                                              3
 ACTION:UPD 15-04-30 21:28 OP:nd   STATUS:               ID:20150222211848 L   I
 OLDACT:REG 15-02-23 03:11 OP:stll STATUS:               ID:20150222211747     3
 2015-02-22-2117-47M.COL___281                                                 6
 STAT SP IPHASW D HRMM SECON CODA AMPLIT PERI AZIMU VELO AIN AR TRES W  DIS CAZ7
 PAM  SZ EP       2119  8.25                             154    0.1610 58.1 100 
 PAM  SN ES       2119 23.63                             154    0.5710 58.1 100 
 PAM  SZ I        2119 26.10        10.0 0.26            153           58.1 100 
 BRR  HZ EP       2119  7.90                             151    0.1310 65.0 237 
 BRR  HZ I        2119  8.06        10.6 0.16            153           65.0 237 
 BRR  HN ES       2119 23.00                             151    0.5110 65.0 237 
 OCA  HN ES       2119 25.37                             143   -0.5410 90.5 353 
 BAR2 EZ ES       2119 25.45                             142   -0.9210 92.4 178 
 BAR2 EZ I        2119 27.41        15.0 0.12            142           92.4 178 
 PTB  HZ EP       2119 16.53                             124    0.01 9  168 234 
 PTB  HZ I        2119 17.00         3.9 0.24            125            168 234 
 PTB  HN ES       2119 38.16                             124    0.10 9  168 234 
                                                                                
