 2010 1222 2221 21.4 L   6.924 -73.589107.2  RSN  4 0.4 1.4LRSN                1
 GAP=218        0.86       4.6    23.9 15.5 -0.1286E+02  0.1625E+03 -0.3468E+01E
 Epicentro: SAN VICENTE DE CHUCURI - SANTANDER                                 3
 ACTION:UP  11-01-14 15:26 OP:pat  STATUS:               ID:20101222222121 L   I
 2010-12-22-2216-20S.COL___134                                                 6
 STAT SP IPHASW D HRMM SECON CODA AMPLIT PERI AZIMU VELO SNR AR TRES W  DIS CAZ7
 BAR2 SZ EP   1   2221 38.49                             150     0.5 8   58 129 
 BAR2 SZ ES   2   2221 51.12                             150     0.1 5   58 129 
 BAR2 SZ I        2221 53.00        19.3 0.38                            58 129 
 RUS  HZ EP       2221 43.75                             126    -0.410  127 154 
 RUS  HZ I        2222  2.20         2.4 0.26                           127 154 
 GRA  SZ EP       2221 44.80                             124     0.110  137  39 
 GRA  SZ ES   2   2222  2.64                             124    -0.2 5  137  39 
 GRA  SZ I        2222  6.38         2.9 0.18                           137  39 
 OCA  SZ EP   2   2221 46.55                             121     0.7 5  148  12 
 OCA  SZ ES   1   2222  4.43                             121    -0.4 7  148  12 
 OCA  SZ I        2222  9.95         6.5 0.45                           148  12 
                                                                                
