 2012  822 2121 43.3 L   6.765 -73.145140.7  RSN  4 0.2 1.8LRSN                1
 GAP=138        0.48       3.3     3.7  5.1  0.4348E-02 -0.2579E+00  0.2473E+01E
 Epicentro: LOS SANTOS - SANTANDER                                             3
 ACTION:UPD 12-09-10 11:57 OP:ep   STATUS:               ID:20120822212143 L   I
 2012-08-22-2120-00M.COL___217                                                 6
 STAT SP IPHASW D HRMM SECON CODA AMPLIT PERI AZIMU VELO AIN AR TRES W  DIS CAZ7
 BRR  HZ EP       2122  4.26                             151    0.2110 73.2 301 
 BRR  HZ I        2122  4.67        16.6 0.09                          73.2 301 
 BRR  HN ES       2122 20.24                             151    0.0310 73.2 301 
 PAM  SZ EP       2122  5.24                             149    0.0510 80.3  38 
 PAM  SZ I        2122  5.65        21.0 0.25                          80.3  38 
 PAM  SN ES   1   2122 22.02                             149   -0.22 7 80.3  38 
 RUS  HZ EP   1   2122  6.38                             144    0.08 7 96.7 176 
 RUS  HN ES   1   2122 24.22                             144   -0.01 7 96.7 176 
 RUS  HZ I        2122 25.81         5.2 0.34                          96.7 176 
 PTB  HZ EP   1   2122  9.39                             131   -0.44 7  147 260 
 PTB  HZ I        2122 32.47         5.1 0.26                           147 260 
                                                                                
