 2012 1122 2040 22.5 L   6.762 -73.125140.8  RSN  5 0.4 1.8LRSN                1
 GAP=141        1.10       5.7     5.2  8.6 -0.7701E+00  0.1721E+02 -0.7938E+01E
 Epicentro: LOS SANTOS - SANTANDER                                             3
 ACTION:UPD 12-12-05 15:35 OP:}ep  STATUS:               ID:20121122204022 L   I
 2012-11-22-2040-00M.COL___233                                                 6
 STAT SP IPHASW D HRMM SECON CODA AMPLIT PERI AZIMU VELO AIN AR TRES W  DIS CAZ7
 BAR2 SZ EP       2040 41.49                             172   -0.0210 19.8 198 
 BAR2 SZ ES       2040 56.70                             172    0.4010 19.8 198 
 PAM  SZ EP       2040 44.75                             149    0.4010 79.3  36 
 PAM  SN ES       2041  0.89                             149   -0.4710 79.3  36 
 PAM  SN I        2041  6.21         8.5 0.44                          79.3  36 
 RUS  HZ EP       2040 46.12                             144    0.6210 96.3 177 
 RUS  HN ES       2041  2.95                             144   -0.4510 96.3 177 
 RUS  HN I        2041  6.36         5.1 0.22                          96.3 177 
 PTB  HZ EP       2040 48.87                             130   -0.37 9  149 261 
 PTB  HE ES       2041  9.92                             130   -0.15 9  149 261 
 PTB  HZ I        2041 12.54         8.9 0.10                           149 261 
 ZAR  HZ EP       2040 54.48                             121   -0.57 8  208 293 
 ZAR  HN ES       2041 20.93                             121    0.52 8  208 293 
 ZAR  HN I        2041 26.44        15.5 0.38                           208 293 
                                                                                
