 2016 1022 2336 18.2 L   6.804 -73.072148.1  RSN 18 0.6 2.4LRSN                1
 GAP=146        1.20       3.7     5.4  6.4 -0.6255E+01  0.1297E+02  0.3394E+01E
 Epicentro: LOS SANTOS - SANTANDER                                             3
 ACTION:UPD 16-11-09 19:21 OP:rebc STATUS:               ID:20161022233618 L   I
 OLDACT:UP  16-10-23 04:24 OP:dnl  STATUS:               ID:20161022232748     3
 OLDACT:REG 16-10-23 03:55 OP:dnl  STATUS:               ID:20161022232748     3
 2016-10-22-2328-00M.COL___353                                                 6
 STAT SP IPHASW D HRMM SECON CODA AMPLIT PERI AZIMU VELO AIN AR TRES W  DIS CAZ7
 BAR2 EZ EP       2336 38.17                             169    0.0310 26.4 207 
 BAR2 EZ ES       2336 53.28                             169   -0.4410 26.4 207 
 BAR2 EZ I        2336 54.78        55.9 0.22            165           26.4 207 
 PAM  EZ EP       2336 40.89                             153    0.5610 72.1  35 
 PAM  EN ES       2336 57.90                             153    0.2910 72.1  35 
 PAM  EZ I        2337  0.20        21.4 0.50            157           72.1  35 
 BRR  HZ EP       2336 40.18                             151    0.2110 78.2 295 
 BRR  HN ES       2336 57.26                             151    0.2810 78.2 295 
 BRR  HZ I        2337  1.87        26.2 0.34            146           78.2 295 
 RUS  HZ EP       2336 42.06                             144   -0.1110  101 181 
 RUS  HN ES       2337  0.78                             144   -0.1010  101 181 
 RUS  HZ I        2337  2.03        18.4 0.32            145            101 181 
 PTB  HZ EP       2336 44.98                             131   -1.08 9  156 259 
 PTB  HN ES   4   2337  6.01                             131   -1.80 0  156 259 
 PTB  HZ I        2337 13.66        27.8 0.44            129            156 259 
 OCA  HZ EP       2336 46.84                             130    0.11 9  161 350 
 OCA  HN ES       2337  8.68                             130   -0.32 9  161 350 
 OCA  HZ I        2337 13.77        82.5 0.38            131            161 350 
 SPBC HZ EP       2336 47.18                             128   -0.20 9  169 221 
 SPBC HE ES       2337  9.58                             128   -0.58 9  169 221 
 SPBC HZ I        2337 14.48        43.2 0.24            128            169 221 
 NOR  HZ EP       2336 54.13                             118   -0.64 8  242 235 
 NOR  HN ES   4   2337 21.68                             118   -1.65 0  242 235 
 NOR  HZ I        2337 30.02        19.3 0.20            118            242 235 
 CHI  HZ EP       2336 56.24                             117   -0.05 8  251 197 
 CHI  HE ES       2337 26.57                             117    0.55 8  251 197 
 CHI  HZ I        2337 31.32         7.7 0.46            118            251 197 
 ROSC BZ EP   2   2336 57.73                             117    0.81 4  257 213 
 ROSC BE ES   4   2337 28.89                             117    1.74 0  257 213 
 ROSC BZ I        2337 36.11        37.4 0.35            117            257 213 
 HEL  HZ EP   2   2336 59.11                             114   -0.27 4  280 256 
 HEL  HN ES       2337 33.08                             114    1.55 7  280 256 
 HEL  HZ I        2337 37.66        14.2 0.38            114            280 256 
 GUY2CHZ EP       2337  2.57                             112   -0.10 7  308 236 
 GUY2CHN ES   4   2337 39.68                             112    2.31 0  308 236 
 GUY2CHZ I        2337 44.65        17.0 0.46                           308 236 
 LL6C HZ EP   4   2336 43.86                             111   -20.1 0  325 356 
 LL6C HZ I        2337  9.96         7.4 0.70            112            325 356 
 LL6C HN ES   4   2337 19.21                             111   -20.5 0  325 356 
 ELA  HZ EP   2   2337  7.18                             110    1.32 3  336 230 
 ELA  HN ES       2337 43.95                             110    0.89 7  336 230 
 ELA  HZ I        2337 51.61        11.5 0.52            110            336 230 
 CBOC HZ EP       2337  5.95                             110   -0.13 7  341 252 
 CBOC HN ES       2337 42.27                             110   -1.18 7  341 252 
 CBOC HZ I        2337 56.96         5.2 0.48            110            341 252 
 ANIL HZ EP   2   2337  8.32                             108   -0.44 3  363 225 
 ANIL HN ES       2337 48.81                             108    0.58 6  363 225 
 ORTC HZ EP   2   2337 12.49                             106   -0.29 3  401 217 
 ORTC HN ES       2337 55.64                             106    0.27 6  401 217 
 ORTC HZ I        2338  2.13         8.0 0.26            107            401 217 
 SJC  HZ EP   4   2337 11.93                             106   -2.36 0  413 326 
 SJC  HN ES   4   2337 53.66                             106   -4.40 0  413 326 
 SJC  HZ I        2337 57.62         2.6 0.26            106            413 326 
                                                                                
