 2011  522 2203 21.3 L   6.636 -73.577  4.0  RSN 10 0.7 2.5LRSN                1
 GAP= 87        1.49       3.7     5.3 11.7  0.1564E+01  0.4011E+02  0.8371E+01E
 Epicentro: EL CARMEN DE CHUCURI - SANTANDER                                   3
 ACTION:UP  11-06-29 08:55 OP:tino STATUS:               ID:20110522220321 L   I
 2011-05-22-2203-24S.COL___139                                                 6
 STAT SP IPHASW D HRMM SECON CODA AMPLIT PERI AZIMU VELO SNR AR TRES W  DIS CAZ7
 BAR2 SZ IP       22 3 28.56                              47    -0.210   44  96 
 BAR2 SZ ES   1   22 3 34.16                              47    -0.5 7   44  96 
 BAR2 SZ I        22 3 34.81       368.8 0.31                            44  96 
 BRR  HZ EP       22 3 29.69                              47    -0.410   54 344 
 BRR  HN ES   1   22 3 36.61                              47    -0.4 7   54 344 
 BRR  HZ I        22 3 39.62       234.1 0.15                            54 344 
 RUS  HZ IP     D 22 3 37.36                              47     0.010   99 146 
 RUS  HE ES   2   22 3 49.19                              47    -0.7 5   99 146 
 RUS  HZ I        22 3 52.50        66.1 0.41                            99 146 
 PAM  SZ EP   2   22 3 41.71                              47     0.5 5  124  51 
 PAM  SN ES   2   22 3 56.23                              47    -0.6 5  124  51 
 BRI  SZ EP   2   22 3 45.13                              47     0.7 5  147  36 
 BRI  SZ ES   2   22 4  3.31                              47     0.9 5  147  36 
 BRI  SZ I        22 4  9.08        54.8 0.42                           147  36 
 GRA  SZ EP   1   22 3 47.61                              47     0.9 7  162  32 
 GRA  SZ ES   1   22 4  6.50                              47     0.0 7  162  32 
 GRA  SZ I        22 4  9.38       139.1 0.29                           162  32 
 OCA  SZ EP   1   22 3 50.15                              37     0.9 7  180   9 
 OCA  SZ ES   1   22 4 10.71                              37    -0.2 7  180   9 
 OCA  SZ I        22 4 16.07        99.6 0.34                           180   9 
 NOR  SZ EP   2   22 3 50.06                              37     0.2 4  186 230 
 NOR  SN ES   2   22 4 11.43                              37    -0.7 4  186 230 
 HEL  HZ EP   1   22 3 54.43                              37    -0.3 6  221 257 
 HEL  HN ES   1   22 4 19.31                              37    -1.4 6  221 257 
 HEL  HZ I        22 4 21.51        47.0 0.26                           221 257 
 RREF HZ EP   1   22 4  3.25                              37     1.6 6  274 226 
 RREF HN ES   1   22 4 34.57                              37     1.5 6  274 226 
 RREF HZ I        22 4 39.38        15.1 0.31                           274 226 
                                                                                
