 2017  722 2256 27.1 L   6.743 -73.209117.1  RSN  6 0.4 1.1LRSN                1
 GAP=224        0.95       4.7     5.6  7.4  0.1188E+02  0.1274E+02  0.3657E+00E
 Epicentro: VILLANUEVA - SANTANDER                                             3
 ACTION:UPD 17-08-30 15:35 OP:rebc STATUS:               ID:20170722225627 L   I
 OLDACT:UP  17-07-23 06:00 OP:edw  STATUS:               ID:20170722224735     3
 OLDACT:UP  17-07-23 05:59 OP:edw  STATUS:               ID:20170722224735     3
 OLDACT:REG 17-07-23 04:48 OP:edw  STATUS:               ID:20170722224735     3
 2017-07-22-2248-00M.COL___395                                                 6
 STAT SP IPHASW D HRMM SECON CODA AMPLIT PERI AZIMU VELO AIN AR TRES W  DIS CAZ7
 BAR2 EZ ES       2256 55.57                             171   -0.1510 17.0 170 
 BRR  HZ EP     D 2256 44.30                             147   -0.8010 68.6 306 
 BRR  HN ES       2256 59.54                             147    0.4310 68.6 306 
 RUS  HZ EP       2256 48.20                             139    0.4610 95.1 172 
 RUS  HN ES       2257  3.81                             139   -0.0010 95.1 172 
 RUS  HZ I        2257  6.04         2.7 0.32            138           95.1 172 
 PTB  HZ EP   4   2256 49.52                             126   -1.62 0  140 261 
 PTB  HN ES       2257  9.83                             126   -0.03 9  140 261 
 PTB  HZ I        2257 12.25         1.7 0.18            126            140 261 
 SPBC HN ES       2257 12.39                             123   -0.17 9  154 218 
 ZAR  HZ EP       2256 57.69                             116    0.23 9  200 295 
 ZAR  HN ES       2257 21.18                             116    0.07 9  200 295 
                                                                                
