 2014  422 2232 55.8 L   6.812 -73.170144.0  RSN  5 0.5 1.5LRSN                1
 GAP=133        1.12       5.3     5.9  9.3 -0.3911E+01  0.1336E+02 -0.1440E+02E
 Epicentro: LOS SANTOS - SANTANDER                                             3
 ACTION:UPD 14-05-13 23:10 OP:nd   STATUS:               ID:20140422223255 L   I
 OLDACT:REG 14-04-23 05:02 OP:stll STATUS:               ID:20140422222818     3
 2014-04-22-2228-18M.COL___245                                                 6
 STAT SP IPHASW D HRMM SECON CODA AMPLIT PERI AZIMU VELO AIN AR TRES W  DIS CAZ7
 BRR  HZ EP       2233 17.16                             153    0.5510 68.2 299 
 BRR  HZ I        2233 17.52         5.5 0.46            151           68.2 299 
 BRR  HN ES       2233 33.33                             153    0.5010 68.2 299 
 PAM  SZ EP       2233 18.17                             150    0.2810 78.1  42 
 PAM  SZ I        2233 18.38         8.2 0.24            154           78.1  42 
 PAM  SN ES       2233 35.01                             150   -0.0910 78.1  42 
 RUS  HN ES       2233 37.43                             143   -0.5610  102 175 
 PTB  HZ EP       2233 22.37                             132   -0.06 9  145 258 
 PTB  HN ES       2233 43.09                             132   -0.10 9  145 258 
 PTB  HZ I        2233 49.67         3.6 0.18            130            145 258 
 SML  HZ EP       2233 32.22                             117    0.13 8  241 336 
 SML  HN ES       2233 59.39                             117   -0.99 8  241 336 
                                                                                
