 2012  522 2126  3.7 L   6.774 -73.176145.0  RSN  6 0.1 1.9LRSN                1
 GAP=134        0.29       2.0     2.4  3.8 -0.9849E+00  0.5204E+01 -0.2279E-01E
 Epicentro: LOS SANTOS - SANTANDER                                             3
 ACTION:UP  12-07-05 12:07 OP:pat  STATUS:               ID:20120522212603 L   I
 2012-05-22-2120-00M.COL___201                                                 6
 STAT SP IPHASW D HRMM SECON CODA AMPLIT PERI AZIMU VELO SNR AR TRES W  DIS CAZ7
 BAR2 SZ EP       2126 23.15                             172     0.010   20 182 
 BAR2 SZ ES   3   2126 38.24                             172    -0.1 2   20 182 
 BAR2 SZ I        2126 39.71        47.8 0.20                            20 182 
 PAM  SZ EP       2126 26.12                             149     0.010   82  40 
 PAM  SZ I        2126 26.20        17.2 0.16                            82  40 
 PAM  SN ES   1   2126 43.47                             149    -0.1 7   82  40 
 RUS  HZ EP       2126 27.08                             144    -0.110   98 174 
 RUS  HN ES   1   2126 45.59                             144     0.1 7   98 174 
 RUS  HZ I        2126 46.82         9.8 0.44                            98 174 
 PTB  HZ EP       2126 30.21                             133     0.0 9  144 260 
 PTB  HN ES   3   2126 50.99                             133     0.0 2  144 260 
 PTB  HZ I        2126 54.08         7.1 0.18                           144 260 
 ZAR  HZ EP   3   2126 35.97                             122     0.1 2  202 293 
 ZAR  HE ES   2   2127  1.08                             122     0.1 4  202 293 
 ZAR  HZ I        2127  7.73         7.4 0.48                           202 293 
 NOR  SZ EP       2126 38.98                             119     0.1 8  230 235 
 NOR  SN ES   3   2127  5.65                             119    -0.7 2  230 235 
                                                                                
