 2010  522 2321 37.0 L   6.648 -72.779128.0  RSN  7 0.5 2.3LRSN                1
 GAP=206        1.00       8.5    20.9 18.0 -0.1263E+03  0.4740E+02  0.3641E+02E
 Epicentro: SAN JOSE DE MIRANDA - SANTANDER                                    3
 ACTION:UP  10-08-24 10:06 OP:vdl  STATUS:               ID:20100522232137 L   I
 2010-05-22-2319-28S.COL___111                                                 6
 STAT SP IPHASW D HRMM SECON CODA AMPLIT PERI AZIMU VELO SNR AR TRES W  DIS CAZ7
 BAR2 SZ EP       2321 55.27                             159     0.010   45 262 
 BRI  SZ EP       2321 59.57                             134    -0.510  118 359 
 GRA  SZ EP   1   2322  1.40                             130    -0.3 7  137 359 
 GRA  SZ ES   2   2322 20.90                             130    -0.1 5  137 359 
 OCA  SZ EP       2322  7.33                             120     0.7 9  186 341 
 CHI  HZ EP       2322 14.22                             113     0.6 8  247 205 
 RREF BZ EP   1   2322 24.84                             106    -0.2 5  344 236 
 RREF BE ES   2   2323  2.28                             106    -0.2 3  344 236 
 RREF BZ I        2323  7.26         8.0 0.40                           344 236 
 PRA  HZ EP   1   2322 29.98                             103    -0.9 4  400 216 
 PRA  HN ES   2   2323 12.38                             103    -0.5 3  400 216 
 PRA  HZ I        2323 16.22         5.7 1.03                           400 216 
                                                                                
