 2017 1122 2333 30.7 L   6.831 -73.143139.0  RSN 13 0.7 2.0LRSN                1
 GAP= 65        1.62       3.8     4.3  8.5 -0.5909E+00  0.9053E+01 -0.1124E+01E
 Epicentro: LOS SANTOS - SANTANDER                                             3
 ACTION:UPD 17-12-12 19:58 OP:rebc STATUS:               ID:20171122233330 L   I
 OLDACT:UP  17-11-23 06:05 OP:leo  STATUS:               ID:20171122232739     3
 OLDACT:REG 17-11-23 04:04 OP:leo  STATUS:               ID:20171122232739     3
 2017-11-22-2328-00M.COL___480                                                 6
 STAT SP IPHASW D HRMM SECON CODA AMPLIT PERI AZIMU VELO AIN AR TRES W  DIS CAZ7
 BAR2 EZ EP       2333 49.36                             169   -0.2410 26.7 189 
 BAR2 EZ ES       2334  5.01                             169    0.6710 26.7 189 
 BAR2 EZ I        2334  5.78        32.6 0.38            167           26.7 189 
 PAM  EZ EP       2333 52.20                             150    0.1610 74.6  41 
 PAM  EE ES       2334  7.72                             150   -0.9510 74.6  41 
 PAM  EZ I        2334 11.18        13.7 0.50            154           74.6  41 
 RUS  HZ EP       2333 53.43                             141   -0.6210  104 176 
 RUS  HN ES       2334 11.94                             141   -0.3210  104 176 
 RUS  HZ I        2334 13.10        10.3 0.46            142            104 176 
 PTB  HZ EP       2333 56.24                             130   -0.98 9  149 258 
 PTB  HN ES       2334 16.83                             130   -1.07 9  149 258 
 PTB  HZ I        2334 22.06        10.3 0.10            130            149 258 
 TAM  HZ EP       2333 57.81                             129   -0.11 9  156 106 
 TAM  HE ES       2334 19.52                             129    0.38 9  156 106 
 OCA  HZ EP       2333 58.56                             129    0.38 9  157 353 
 OCA  HN ES       2334 19.71                             129    0.11 9  157 353 
 SPBC HZ EP       2333 58.74                             127   -0.23 9  166 218 
 SPBC HN ES       2334 22.74                             127    1.73 9  166 218 
 YPLC HZ EP       2334  0.00                             125   -0.30 9  180 152 
 YPLC HN ES       2334 24.17                             125    0.78 9  180 152 
 YPLC HZ I        2334 26.66        10.9 0.20            126            180 152 
 ZAR  HZ EP       2334  2.88                             121    0.27 9  203 291 
 ZAR  HE ES       2334 27.34                             121   -0.16 9  203 291 
 ZAR  HZ I        2334 32.87        15.1 0.38            122            203 291 
 NOR  HZ EP       2334  5.62                             117   -0.67 8  237 234 
 NOR  HN ES       2334 33.68                             117   -0.37 8  237 234 
 NOR  HZ I        2334 40.56         7.8 0.58            117            237 234 
 CHI  HZ EP       2334  7.89                             115   -0.52 8  252 195 
 CHI  HN ES       2334 37.75                             115   -0.06 8  252 195 
 CHI  HZ I        2334 45.14         4.2 0.34            116            252 195 
 ROSC BZ EP   4   2334  9.81                             115    1.01 0  256 211 
 ROSC BN ES   4   2334 40.67                             115    2.15 0  256 211 
 HEL  HZ EP       2334 11.31                             113    0.61 8  273 255 
 HEL  HN ES       2334 43.06                             113    1.16 8  273 255 
 HEL  HZ I        2334 47.62         6.6 0.36            114            273 255 
 DRL03HZ EP       2334 12.33                             112    0.71 7  286 353 
 DRL03HN ES       2334 44.22                             112    0.69 7  286 353 
                                                                                
