 2012 1022 2106 10.7 L   6.776 -73.128139.1  RSN  5 0.1 1.6LRSN                1
 GAP=140        0.28       1.9     2.3  3.3  0.2888E+00  0.2488E+01 -0.8005E+00E
 Epicentro: LOS SANTOS - SANTANDER                                             3
 ACTION:UPD 12-11-22 17:05 OP:ep   STATUS:               ID:20121022210610 L   I
 2012-10-22-2100-00M.COL___231                                                 6
 STAT SP IPHASW D HRMM SECON CODA AMPLIT PERI AZIMU VELO AIN AR TRES W  DIS CAZ7
 BAR2 SZ EP   1   21 6 29.37                             171   -0.12 7 21.1 196 
 BAR2 SZ I        21 6 29.68         8.5 0.09                          21.1 196 
 BAR2 SZ ES   1   21 6 44.15                             171    0.01 7 21.1 196 
 BRR  HZ EP   1   21 6 31.41                             150    0.10 7 74.2 300 
 PAM  SZ EP   1   21 6 32.28                             149    0.01 7 78.3  37 
 PAM  SN ES   1   21 6 49.09                             149    0.00 7 78.3  37 
 PAM  SN I        21 6 50.02         7.6 0.24                          78.3  37 
 RUS  HZ EP   1   21 6 33.61                             143    0.01 7 97.8 177 
 RUS  HN ES   1   21 6 51.47                             143    0.02 7 97.8 177 
 RUS  HN I        21 6 53.33         6.0 0.26                          97.8 177 
 ZAR  HN ES   1   21 7  8.19                             120   -0.03 6  207 293 
                                                                                
