 2015  822 2057 19.4 L   7.447 -73.170136.0  RSN  6 0.5 2.0LRSN                1
 GAP=113        1.23       4.8     6.9 10.7  0.9908E+01  0.3752E+02  0.1009E+02E
 Epicentro: EL PLAYON - SANTANDER                                              3
 ACTION:UPD 15-09-15 23:04 OP:cam  STATUS:               ID:20150822205719 L   I
 OLDACT:UP  15-09-01 11:26 OP:ar   STATUS:               ID:20150822205719 L   3
 OLDACT:UP  15-08-23 05:26 OP:mh   STATUS:               ID:20150822204749d    3
 OLDACT:DUP 15-08-23 05:22 OP:mh   STATUS:               ID:20150822204749d    3
 OLDACT:UP  15-08-23 05:19 OP:mh   STATUS:               ID:20150822204748     3
 OLDACT:REG 15-08-23 04:13 OP:mh   STATUS:               ID:20150822204748     3
 2015-08-22-2047-48M.COL___349                                                 6
 STAT SP IPHASW D HRMM SECON CODA AMPLIT PERI AZIMU VELO AIN AR TRES W  DIS CAZ7
 PAM  EZ EP       2057 40.02                             158    0.7210 53.3 103 
 PAM  EN ES       2057 54.53                             158   -0.2610 53.3 103 
 PAM  EZ I        2057 57.13        11.1 0.44            160           53.3 103 
 OCA  HZ EP       2057 40.47                             145   -0.4610 89.1 349 
 OCA  HN ES       2057 58.40                             145    0.7010 89.1 349 
 OCA  HZ I        2058  0.16        22.4 0.28            147           89.1 349 
 BAR2 EZ EP   1   2057 41.59                             143    0.15 7 94.5 181 
 BAR2 EZ ES   1   2057 57.92                             143   -0.67 7 94.5 181 
 BAR2 EZ I        2057 59.26        14.7 0.11            146           94.5 181 
 SML  HZ EP       2057 48.46                             124   -0.27 9  180 327 
 SML  HN ES       2058 10.79                             124   -0.79 9  180 327 
 SML  HZ I        2058 12.41        18.0 0.28            126            180 327 
 ZAR  HZ EP       2057 49.66                             123    0.23 9  186 272 
 ZAR  HN ES       2058 13.26                             123    0.44 9  186 272 
 ZAR  HZ I        2058 13.95         8.1 0.46            125            186 272 
 CHI  HN ES       2058 39.36                             109   -0.16 7  318 191 
                                                                                
