 2015  122 2230  1.0 L   6.806 -73.569 99.3  RSN  6 0.5 2.0LRSN                1
 GAP=120        1.10       5.2     3.7 10.1  0.5839E+00  0.1476E+02 -0.1494E+02E
 Epicentro: EL CARMEN - SANTANDER                                              3
 ACTION:UPD 15-03-02 15:41 OP:nd   STATUS:               ID:20150122223001 L   I
 OLDACT:UP  15-01-23 04:55 OP:mh   STATUS:               ID:20150122222747     3
 OLDACT:REG 15-01-23 02:34 OP:mh   STATUS:               ID:20150122222747     3
 2015-01-22-2227-47M.COL___262                                                 6
 STAT SP IPHASW D HRMM SECON CODA AMPLIT PERI AZIMU VELO AIN AR TRES W  DIS CAZ7
 BAR2 EZ EP   1   2230 17.14                             152    0.89 7 48.8 119 
 BAR2 EZ ES       2230 28.69                             152    0.5810 48.8 119 
 BAR2 EZ I        2230 30.64       117.3 0.21            156           48.8 119 
 PTB  HZ EP       2230 20.13                             131    0.0110  102 253 
 PTB  HN ES       2230 34.55                             131   -0.4510  102 253 
 PTB  HZ I        2230 35.69        12.7 0.30            134            102 253 
 PAM  SZ EP   1   2230 21.20                             128   -0.53 7  113  58 
 PAM  SN ES       2230 37.44                             128   -0.4210  113  58 
 PAM  SZ I        2230 40.91        13.6 0.40            131            113  58 
 RUS  HZ EP       2230 21.96                             128    0.0610  114 152 
 RUS  HN ES       2230 37.75                             128   -0.4110  114 152 
 RUS  HZ I        2230 40.47        20.6 0.92            132            114 152 
 ZAR  HZ EP       2230 26.66                             118    0.50 9  161 298 
 ZAR  HN ES   4   2230 48.29                             118    2.54 0  161 298 
 ZAR  HZ I        2230 50.38        16.5 0.76            119            161 298 
 URE  HN ES       2231  1.83                             108   -0.06 8  241 296 
                                                                                
