 2011  322 2330 15.4 L   6.799 -73.133143.1  RSN  9 0.2 2.3LRSN                1
 GAP=177        0.35       3.1     4.9  3.6 -0.1191E+02  0.6733E+01 -0.2047E+01E
 Epicentro: LOS SANTOS - SANTANDER                                             3
 ACTION:UP  11-06-16 14:35 OP:jfem STATUS:               ID:20110322233015 L   I
 2011-03-22-2328-43S.COL___137                                                 6
 STAT SP IPHASW D HRMM SECON CODA AMPLIT PERI AZIMU VELO SNR AR TRES W  DIS CAZ7
 BAR2 SZ EP   1   2330 34.63                             170    -0.1 7   24 194 
 BAR2 SZ ES   1   2330 49.82                             170     0.0 7   24 194 
 BAR2 SZ I        2330 51.11        55.0 0.21                            24 194 
 GIR2 SZ EP   2   2330 34.74                             167    -0.1 5   32 348 
 GIR2 SZ ES   3   2330 49.54                             167    -0.4 2   32 348 
 GRA  SZ EP   1   2330 40.44                             136     0.0 7  125  17 
 GRA  SZ ES   1   2331  0.17                             136     0.3 7  125  17 
 GRA  SZ I        2331  2.92        22.0 0.42                           125  17 
 OCA  SZ EP   1   2330 43.37                             129    -0.2 7  161 353 
 OCA  SZ I        2331  9.12        27.8 0.22                           161 353 
 NOR  SZ EP   2   2330 51.60                             118     0.5 4  236 235 
 NOR  SN ES   1   2331 18.96                             118     0.0 6  236 235 
 CHI  HZ EP   2   2330 52.78                             117    -0.2 4  249 195 
 CHI  HN ES   3   2331 22.25                             117    -0.1 2  249 195 
 CHI  HZ I        2331 26.59         7.4 0.40                           249 195 
 HEL  HZ EP   3   2330 55.43                             114    -0.2 2  273 256 
 HEL  HE ES   3   2331 26.66                             114    -0.4 2  273 256 
 RREF HZ EP   2   2331  1.79                             110     0.2 3  323 230 
 RREF HN ES   2   2331 37.94                             110     0.4 3  323 230 
 RREF HZ I        2331 46.34         9.9 0.34                           323 230 
 PRA  HZ EP   2   2331  8.83                             106    -0.1 3  393 210 
 PRA  HN ES   2   2331 50.95                             106     0.3 3  393 210 
 PRA  HZ I        2331 53.17        11.1 0.30                           393 210 
                                                                                
