 2013  922 2206 52.5 L   6.800 -73.152151.4  RSN  6 0.4 1.4LRSN                1
 GAP=136        1.00       4.5     5.5  8.2 -0.8553E-01  0.1054E+02 -0.6748E+01E
 Epicentro: LOS SANTOS - SANTANDER                                             3
 ACTION:UPD 13-10-22 09:24 OP:ep   STATUS:               ID:20130922220652 L   I
 OLDACT:UP  13-09-22 22:59 OP:cam  STATUS:               ID:20130922215959     3
 OLDACT:REG 13-09-22 21:44 OP:cam  STATUS:               ID:20130922215959     3
 2013-09-22-2159-59M.COL___269                                                 6
 STAT SP IPHASW D HRMM SECON CODA AMPLIT PERI AZIMU VELO AIN AR TRES W  DIS CAZ7
 BRR  HZ EP       22 7 14.67                             154    0.4610 70.6 299 
 BRR  HN ES       22 7 31.90                             154    0.7410 70.6 299 
 PAM  SZ EP   1   22 7 15.52                             152    0.19 7 77.8  40 
 PAM  SN ES       22 7 32.83                             152   -0.3210 77.8  40 
 PAM  SZ I        22 7 34.79         5.1 0.46            156           77.8  40 
 RUS  HZ EP   1   22 7 16.93                             145    0.13 7  101 176 
 RUS  HN ES       22 7 35.46                             145   -0.3010  101 176 
 RUS  HZ I        22 7 37.95         2.2 0.32            146            101 176 
 PTB  HZ EP   1   22 7 19.99                             133    0.13 7  147 259 
 PTB  HN ES       22 7 40.75                             133   -0.46 9  147 259 
 PTB  HZ I        22 7 48.15         5.5 0.36            134            147 259 
 ZAR  HZ EP   1   22 7 24.85                             124   -0.39 6  203 292 
 SML  HZ EP   1   22 7 29.73                             119    0.32 6  243 335 
 SML  HN ES       22 7 57.60                             119   -0.60 8  243 335 
                                                                                
