 2015  522 2246 50.2 L   6.793 -73.134146.3  RSN  7 0.4 1.9LRSN                1
 GAP=138        0.93       4.6     5.1  6.4  0.4029E+01  0.9583E+01 -0.1035E+02E
 Epicentro: LOS SANTOS - SANTANDER                                             3
 ACTION:UPD 15-09-10 22:06 OP:cam  STATUS:               ID:20150522224650 L   I
 OLDACT:REG 15-05-23 02:58 OP:drio STATUS:               ID:20150522223750     3
 2015-05-22-2237-50M.COL___294                                                 6
 STAT SP IPHASW D HRMM SECON CODA AMPLIT PERI AZIMU VELO AIN AR TRES W  DIS CAZ7
 BAR2 EZ EP       2247  9.77                             171   -0.0710 22.8 194 
 BAR2 EZ ES       2247 24.93                             171   -0.2610 22.8 194 
 BAR2 EZ I        2247 25.66         9.5 0.16            171           22.8 194 
 BRR  HZ EP       2247 11.87                             152    0.4310 72.7 299 
 BRR  HE ES       2247 27.98                             152   -0.0710 72.7 299 
 BRR  HZ I        2247 33.09        12.6 0.52            151           72.7 299 
 PAM  SZ EP       2247 12.82                             151    0.4110 77.2  38 
 PAM  SE ES       2247 29.85                             151    0.0810 77.2  38 
 PAM  SZ I        2247 32.10        20.2 0.74            154           77.2  38 
 RUS  HN ES       2247 32.19                             144   -0.2210 99.7 177 
 ZAR  HZ EP       2247 23.31                             122    0.53 8  206 292 
 ZAR  HN ES       2247 48.45                             122    0.21 8  206 292 
 ZAR  HZ I        2247 54.47        15.9 0.44            124            206 292 
 SML  HZ EP       2247 25.93                             117   -1.01 8  245 335 
 SML  HE ES       2247 55.55                             117   -0.08 8  245 335 
 MON  HZ EP       2247 39.00                             108   -0.34 6  355 308 
 MON  HN ES   4   2248 16.63                             108   -1.08 0  355 308 
 MON  HZ I        2248 16.97         2.1 0.18            110            355 308 
                                                                                
