 2013  522 2205 56.3 L   6.810 -73.140145.8  RSN 10 0.5 1.8LRSN                1
 GAP=137        1.05       3.9     4.9  7.3  0.6681E+00  0.1116E+02  0.2983E+01E
 Epicentro: LOS SANTOS - SANTANDER                                             3
 ACTION:UPD 13-06-20 09:52 OP:ep   STATUS:               ID:20130522220556 L   I
 2013-05-22-2200-00M.COL___259                                                 6
 STAT SP IPHASW D HRMM SECON CODA AMPLIT PERI AZIMU VELO AIN AR TRES W  DIS CAZ7
 BAR2 SZ EP       22 6 15.98                             170   -0.0210 24.5 191 
 BAR2 SZ ES   1   22 6 31.45                             170    0.12 7 24.5 191 
 BAR2 SZ I        22 6 32.40        15.4 0.18            170           24.5 191 
 GIR2 SZ EP       22 6 15.99                             168   -0.0010 30.3 349 
 GIR2 SZ ES   1   22 6 31.57                             168    0.25 7 30.3 349 
 GIR2 SZ I        22 6 40.27         8.5 0.44            167           30.3 349 
 BRR  HZ IP     C 22 6 17.79                             152    0.2910 71.3 298 
 BRR  HN ES   1   22 6 35.01                             152    1.01 7 71.3 298 
 BRR  HZ I        22 6 39.09        14.2 0.12            152           71.3 298 
 PAM  SZ EP   1   22 6 18.95                             151    0.47 7 76.1  40 
 PAM  SN ES   1   22 6 35.76                             151    0.00 7 76.1  40 
 PAM  SZ I        22 6 36.20         6.9 0.56            157           76.1  40 
 RUS  HZ EP   1   22 6 20.20                             143    0.03 7  102 176 
 RUS  HN ES       22 6 38.08                             143   -0.6810  102 176 
 RUS  HZ I        22 6 40.54         8.4 0.30            148            102 176 
 PTB  HZ EP   1   22 6 22.98                             132   -0.41 7  149 258 
 PTB  HN ES       22 6 43.84                             132   -0.65 9  149 258 
 PTB  HZ I        22 6 48.94         9.8 0.18            134            149 258 
 ZAR  HN ES       22 6 54.45                             122    0.31 9  204 292 
 ZAR  HZ I        22 6 59.78        12.6 0.68            125            204 292 
 NOR  HZ EP   1   22 6 32.39                             118    0.20 6  236 234 
 NOR  HE ES   1   22 7  0.34                             118    0.18 6  236 234 
 NOR  HZ I        22 7  2.16         5.0 0.22            122            236 234 
 SML  HE ES       22 7  0.50                             117   -0.90 8  243 335 
 PRA  HZ EP   1   22 6 49.99                             106   -0.02 4  393 210 
 PRA  HE ES       22 7 32.81                             106    0.94 6  393 210 
 PRA  HZ I        22 7 35.66         3.4 0.34            110            393 210 
                                                                                
