 2016  122 2255 28.4 L   6.789 -73.152141.6  RSN  7 0.5 1.8LRSN                1
 GAP=136        1.22       5.9     5.5  9.4 -0.3990E+01  0.2282E+02 -0.5934E+01E
 Epicentro: LOS SANTOS - SANTANDER                                             3
 ACTION:UPD 16-03-09 23:27 OP:cam  STATUS:               ID:20160122225528 L   I
 OLDACT:REG 16-01-23 03:30 OP:drio STATUS:               ID:20160122224746     3
 2016-01-22-2247-46M.COL___321                                                 6
 STAT SP IPHASW D HRMM SECON CODA AMPLIT PERI AZIMU VELO AIN AR TRES W  DIS CAZ7
 BAR2 EZ EP       2255 47.29                             171   -0.2310 22.0 189 
 BAR2 EZ ES       2256  3.00                             171    0.5910 22.0 189 
 BAR2 EZ I        2256  3.11        12.2 0.34            170           22.0 189 
 PAM  EZ EP       2255 50.37                             150    0.1010 78.7  39 
 PAM  EN ES       2256  7.15                             150   -0.1610 78.7  39 
 PAM  EZ I        2256  9.52        11.9 0.48            152           78.7  39 
 RUS  HZ EP       2255 51.42                             143   -0.2510 99.4 176 
 RUS  HE ES       2256  9.80                             143   -0.0110 99.4 176 
 RUS  HZ I        2256 11.33         5.0 0.28            146           99.4 176 
 PTB  HZ EP       2255 54.32                             131   -0.64 9  147 259 
 PTB  HN ES       2256 15.01                             131   -0.66 9  147 259 
 PTB  HZ I        2256 18.83         8.8 0.20            131            147 259 
 ZAR  HZ EP       2256  1.56                             121    0.99 9  204 293 
 ZAR  HN ES       2256 25.61                             121   -0.04 9  204 293 
 ZAR  HZ I        2256 31.98         8.8 0.34            121            204 293 
 HEL  HZ EP   4   2256  9.89                             114    1.58 0  271 256 
 HEL  HN ES   4   2256 40.97                             114    1.54 0  271 256 
 HEL  HZ I        2256 47.72         4.8 0.38            115            271 256 
 GUY2CHZ EP   4   2256 13.52                             112    1.83 0  300 235 
 GUY2CHN ES       2256 46.25                             112    0.81 7  300 235 
 GUY2CHZ I        2256 53.79         4.1 0.32                           300 235 
                                                                                
