 2011 1122 2221 35.1 L   6.108 -73.652108.8  RSN  6 0.3 1.9LRSN                1
 GAP=202        0.55       4.3     3.3  6.4 -0.6474E+01  0.4265E+01 -0.2582E+01E
 Epicentro: CHIPATA - SANTANDER                                                3
 ACTION:UPD 12-07-13 16:11 OP:ep   STATUS:               ID:20111122222135 L   I
 2011-11-22-2220-10S.COL___179                                                 6
 STAT SP IPHASW D HRMM SECON CODA AMPLIT PERI AZIMU VELO AIN AR TRES W  DIS CAZ7
 BAR2 SZ EP   1   2221 53.35                             143    0.38 7 74.6  44 
 BAR2 SZ ES   1   2222  7.14                             143    0.22 7 74.6  44 
 BAR2 SZ I        2222  9.49        66.5 0.17                          74.6  44 
 BRR  HZ EP   1   2221 55.78                             131    0.12 7  111 357 
 BRR  HZ I        2221 56.46        54.0 0.09                           111 357 
 BRR  HN ES   1   2222 11.63                             131   -0.07 7  111 357 
 NOR  SN ES   1   2222 18.01                             122   -0.30 7  148 246 
 NOR  SZ I        2222 21.74         0.6 0.31                           148 246 
 PAM  SZ EP   1   2222  2.17                             118   -0.35 7  172  38 
 PAM  SN ES   1   2222 23.44                             118   -0.48 7  172  38 
 ZAR  HZ EP   1   2222  5.61                             113    0.30 6  203 319 
 ZAR  HN ES   1   2222 28.86                             113   -0.03 6  203 319 
 ZAR  HZ I        2222 30.58        14.3 0.36                           203 319 
 OCA  SZ EP   1   2222  9.66                             109    0.13 6  238   9 
                                                                                
