 2010  722 2224 14.0 L   6.793 -73.039143.4  RSN 11 0.6 2.5LRSN                1
 GAP=171        1.28       4.5     8.5  8.3 -0.1478E+02  0.3774E+01  0.6726E+01E
 Epicentro: CEPITA - SANTANDER                                                 3
 ACTION:UPD 10-12-01 15:19 OP:pat  STATUS:               ID:20100722222414 L   I
 2010-07-22-2219-40S.COL___123                                                 6
 STAT SP IPHASW D HRMM SECON CODA AMPLIT PERI AZIMU VELO AIN AR TRES W  DIS CAZ7
 BAR2 SZ EP       2224 33.18                             169    -0.310   27 216 
 BAR2 SZ ES   1   2224 48.27                             169    -0.4 7   27 216 
 BAR2 SZ I        2224 49.89       120.3 0.58                            27 216 
 GIR2 SZ EP   2   2224 33.31                             165    -0.3 5   36 332 
 BRR  HZ EP       2224 35.15                             148    -0.410   82 295 
 BRR  HN ES       2224 52.43                             148     0.010   82 295 
 BRR  HZ I        2224 54.16        47.9 0.25                            82 295 
 RUS  HZ EP       2224 37.06                             143    -0.410  100 183 
 RUS  HN ES       2224 55.80                             143     0.010  100 183 
 RUS  HZ I        2224 57.17        44.1 0.53                           100 183 
 GUE  SZ EP       2224 39.25                             139     0.810  115   6 
 GUE  SZ I        2225  1.48        10.0 0.03                           115   6 
 GRA  SZ EP       2224 38.96                             137     0.110  123  12 
 GRA  SZ ES   1   2224 58.46                             137     0.2 7  123  12 
 GRA  SZ I        2225  0.16        26.9 0.80                           123  12 
 CHI  HZ EP   1   2224 51.15                             116    -0.7 6  251 198 
 CHI  HZ I        2224 51.72        16.7 0.37                           251 198 
 CHI  HN ES       2225 21.85                             116     0.4 8  251 198 
 ROSC BZ EP   1   2224 53.20                             115     0.6 6  258 213 
 ROSC BN ES   1   2225 23.76                             115     1.0 6  258 213 
 ROSC BZ I        2225 28.60        22.5 0.07                           258 213 
 HEL  HN ES   2   2225 26.22                             113    -1.4 4  283 257 
 HEL  HZ I        2225 30.85        16.8 0.57                           283 257 
 RREF HZ EP       2225  1.31                             110     0.3 7  330 231 
 RREF HN ES   1   2225 38.28                             110     0.5 5  330 231 
 RREF HZ I        2225 44.02        18.6 0.20                           330 231 
 PRA  HZ EP   1   2225  6.67                             106    -1.4 4  397 211 
 PRA  HN ES       2225 50.55                             106     0.3 6  397 211 
 PRA  HZ I        2225 54.91        16.8 0.73                           397 211 
                                                                                
