 2014 1022 2110 25.5 L   6.788 -73.160149.1  RSN  7 0.4 1.8LRSN                1
 GAP=135        1.12       5.9     6.1  8.3  0.1141E+01  0.2835E+01 -0.2046E+01E
 Epicentro: LOS SANTOS - SANTANDER                                             3
 ACTION:UPD 14-11-29 23:54 OP:nd   STATUS:               ID:20141022211026dL   I
 OLDACT:DUP 14-10-25 21:32 OP:mh   STATUS:               ID:20141022210745d    3
 OLDACT:REG 14-10-25 04:26 OP:fm   STATUS:               ID:20141022210744     3
 2014-10-22-2107-44M.COL___277                                                 6
 STAT SP IPHASW D HRMM SECON CODA AMPLIT PERI AZIMU VELO AIN AR TRES W  DIS CAZ7
 BAR2 SZ EP       2110 45.71                             171    0.2210 21.8 186 
 BAR2 SZ ES       2111  0.60                             171   -0.4910 21.8 186 
 BAR2 SZ I        2111  4.37        18.1 0.40            172           21.8 186 
 BRR  HZ EP       2110 46.40                             153   -0.5610 70.4 300 
 BRR  HN ES       2111  4.59                             153    0.8910 70.4 300 
 BRR  HZ I        2111  5.48        13.6 0.18            155           70.4 300 
 PAM  SZ EP       2110 48.36                             151    0.1810 79.4  40 
 PAM  SN ES   1   2111  5.72                             151   -0.16 7 79.4  40 
 PAM  SZ I        2111  7.79         8.4 0.20            153           79.4  40 
 RUS  HZ EP       2110 50.00                             145    0.5110 99.4 175 
 RUS  HN ES   1   2111  7.85                             145   -0.35 7 99.4 175 
 RUS  HZ I        2111  9.38         8.1 0.27            147           99.4 175 
 PTB  HZ EP       2110 52.35                             133   -0.22 9  146 259 
 PTB  HN ES       2111 13.59                             133   -0.10 9  146 259 
 PTB  HZ I        2111 15.85         8.8 0.24            136            146 259 
 SML  HN ES   1   2111 30.63                             118   -0.49 6  244 336 
 GUY2CHZ EP   4   2111 11.05                             113    2.03 0  299 235 
 GUY2CHN ES   4   2111 45.96                             113    2.99 0  299 235 
 GUY2CHZ I        2111 54.27         4.4 0.44                           299 235 
                                                                                
