 2010  222 2316 34.7 L   6.795 -73.044147.5  RSN  7 0.4 2.0LRSN                1
 GAP=247        0.63       5.6     8.3  7.2  0.2040E+01  0.1772E+02  0.1578E+02E
 Epicentro: LOS SANTOS - SANTANDER                                             3
 ACTION:UP  10-08-24 09:50 OP:vdl  STATUS:               ID:20100222231634 L   I
 2010-02-22-2312-22S.COL___094                                                 6
 STAT SP IPHASW D HRMM SECON CODA AMPLIT PERI AZIMU VELO SNR AR TRES W  DIS CAZ7
 BAR2 SZ EP   1   2316 54.82                             169     0.2 7   27 215 
 BAR2 SZ ES   2   2317  9.78                             169    -0.4 5   27 215 
 BRR  HZ EP   1   2316 56.67                             149     0.0 7   82 295 
 BRR  HE ES   2   2317 14.07                             149     0.3 5   82 295 
 BRR  HZ I        2317 16.32        16.8 0.25                            82 295 
 RUS  BZ EP   1   2316 58.54                             144    -0.1 7  100 182 
 RUS  BN ES   2   2317 17.28                             144     0.1 5  100 182 
 RUS  BZ I        2317 18.51         9.6 0.29                           100 182 
 CHI  HZ EP   1   2317 12.65                             117    -0.2 6  251 198 
 CHI  HN ES   2   2317 42.95                             117     0.4 4  251 198 
 CHI  HZ I        2317 48.12         3.7 0.63                           251 198 
 RREF BZ EP   1   2317 21.54                             111    -0.4 5  330 231 
 RREF BN ES   2   2317 57.71                             111    -1.0 3  330 231 
 RREF BZ I        2318  6.27         4.9 0.44                           330 231 
 TOL  SZ EP   1   2317 24.74                             109     0.8 5  351 226 
 TOL  SZ ES   2   2318  2.31                             109     0.0 3  351 226 
 PRA  HZ EP   1   2317 28.41                             106    -0.5 4  397 211 
 PRA  HN ES   2   2318 12.11                             106     0.9 3  397 211 
 PRA  HZ I        2318 17.18         4.9 0.23                           397 211 
                                                                                
