 2012 1022 2341 20.3 L   6.800 -73.144150.9  RSN 13 0.4 3.8LRSN 3.9WRSN        1
 SPEC AVERAGE  MO 14.9 ST180.8 OM  3.3 f0 4.93 R0.3072 AL 4.71 WI 13.1 MW  3.9 3
 SPEC SD       MO  0.2 ST141.8 OM  0.4 f00.820 R0.0527 AL      WI      MW  0.1 3
 GAP= 66        0.70       2.6     2.7  4.7  0.1178E+01  0.3991E+01  0.2558E+01E
 Epicentro: LOS SANTOS - SANTANDER                                             3
 SPEC ZAR HH E MO 15.2 ST502.4 OM  3.4 f0 6.12 R0.2402 AL 4.43 WI 16.2 MW  4.1 3
 SPEC ZAR HH E T234217 K 0.000 GD  253 VS 4.20 DE 3.20 Q0230.0 QA 0.60 VS 4.20 3
 SPEC TAM HH N MO 14.8 ST 53.0 OM  3.1 f0 3.84 R0.3828 AL 3.82 WI  8.0 MW  3.8 3
 SPEC TAM HH N T2342 9 K 0.000 GD  216 VS 4.20 DE 3.20 Q0230.0 QA 0.60 VS 4.20 3
 SPEC PRA HH N MO 14.8 ST141.1 OM  2.8 f0 5.37 R0.2737 AL 5.60 WI 10.9 MW  3.8 3
 SPEC PRA HH N T234255 K 0.000 GD  420 VS 4.20 DE 3.20 Q0230.0 QA 0.60 VS 4.20 3
 SPEC RUS HH Z MO 14.8 ST 87.0 OM  2.4 f0 4.54 R0.3238 AL 4.39 WI 18.5 MW  3.8 3
 SPEC RUS HH Z T234143 K 0.000 GD  181 VP 7.60 DE 3.20 Q0230.0 QA 0.60 VS 4.20 3
 SPEC RUS HH E MO 14.8 ST145.6 OM  3.1 f0 5.70 R0.2579 AL 5.86 WI  5.5 MW  3.8 3
 SPEC RUS HH E T2342 2 K 0.000 GD  181 VS 4.20 DE 3.20 Q0230.0 QA 0.60 VS 4.20 3
 SPEC HEL HH N MO 15.1 ST 96.0 OM  3.2 f0 3.84 R0.3828 AL 3.93 WI 23.4 MW  4.0 3
 SPEC HEL HH N T234232 K 0.000 GD  311 VS 4.20 DE 3.20 Q0230.0 QA 0.60 VS 4.20 3
 SPEC CHI HH N MO 15.0 ST109.6 OM  3.1 f0 4.43 R0.3318 AL 4.91 WI 14.1 MW  3.9 3
 SPEC CHI HH N T234226 K 0.000 GD  291 VS 4.20 DE 3.20 Q0230.0 QA 0.60 VS 4.20 3
 SPEC BRR HH N MO 15.1 ST312.0 OM  3.5 f0 5.56 R0.2644 AL 4.77 WI  8.2 MW  4.0 3
 SPEC BRR HH N T234158 K 0.000 GD  166 VS 4.20 DE 3.20 Q0230.0 QA 0.60 VS 4.20 3
 ACTION:UPD 12-11-22 17:05 OP:ep   STATUS:               ID:20121022234120 L   I
 2012-10-22-2340-00M.COL___231                                                 6
 STAT SP IPHASW D HRMM SECON CODA AMPLIT PERI AZIMU VELO AIN AR TRES W  DIS CAZ7
 BAR2 SZ EP       2341 40.52                             171   -0.0710 23.4 190 
 BAR2 SZ ES   1   2341 55.92                             171   -0.46 7 23.4 190 
 BAR2 SZ I        2341 58.55      1888.7 0.34                          23.4 190 
 BRR  HZ EP   1   2341 42.41                             153    0.35 7 71.3 298 
 BRR  HZ I        2341 44.11       847.4 0.14                          71.3 298 
 BRR  HN ES   1   2341 59.71                             153    0.72 7 71.3 298 
 PAM  SZ EP       2341 43.29                             152    0.1910 77.3  39 
 PAM  SZ I        2341 43.58       721.9 0.21                          77.3  39 
 PAM  SN ES   1   2342  0.68                             152   -0.17 7 77.3  39 
 RUS  HZ EP   1   2341 44.35                             145   -0.25 7  101 176 
 RUS  HE ES   1   2342  3.22                             145   -0.30 7  101 176 
 TAM  HZ EP   1   2341 48.68                             132    0.26 7  155 105 
 TAM  HZ I        2342  9.61       530.1 0.34                           155 105 
 TAM  HN ES   1   2342 10.46                             132    0.15 7  155 105 
 OCA  HZ EP   1   2341 48.63                             131   -0.43 7  160 353 
 OCA  HN ES   1   2342 11.28                             131   -0.17 7  160 353 
 YOP  SZ EP   1   2341 51.00                             127    0.25 7  179 153 
 YOP  SZ I        2341 51.91       573.2 0.76                           179 153 
 YOP  SE ES   1   2342 14.64                             127    0.17 7  179 153 
 ZAR  HZ EP   1   2341 52.67                             123   -0.47 6  204 292 
 ZAR  HE ES   1   2342 18.80                             123    0.08 6  204 292 
 CHI  HZ EP   1   2341 58.21                             118   -0.13 6  249 195 
 CHI  HN ES   1   2342 27.59                             118   -0.38 6  249 195 
 CHI  HN I        2342 30.50       598.5 0.28                           249 195 
 HEL  HZ EP   1   2342  0.45                             116   -0.39 6  272 256 
 HEL  HN ES   1   2342 33.26                             116    0.84 6  272 256 
 HEL  HN I        2342 41.56       356.6 0.38                           272 256 
 RREF HZ EP   1   2342  7.64                             112    0.91 5  322 229 
 DBB  SZ EP   1   2342  7.97                             110   -0.08 5  340 274 
 DBB  SZ ES   1   2342 44.57                             110   -0.69 5  340 274 
 DBB  SZ I        2342 47.15       295.4 0.50                           340 274 
 PRA  HZ EP   1   2342 13.90                             107   -0.15 4  392 210 
 PRA  HN ES   1   2342 55.96                             107    0.01 4  392 210 
 PRA  HZ I        2343  2.08       330.5 0.64                           392 210 
                                                                                
