 2015  322 2100 59.2 L   6.819 -73.161143.6  RSN 10 0.3 1.8LRSN                1
 GAP=134        0.80       2.8     3.5  5.3 -0.1607E+01  0.4775E+01 -0.1182E+01E
 Epicentro: LOS SANTOS - SANTANDER                                             3
 ACTION:UPD 15-04-30 16:28 OP:nd   STATUS:               ID:20150322210059 L   I
 OLDACT:UP  15-03-23 03:15 OP:spq  STATUS:               ID:20150322205749     3
 OLDACT:REG 15-03-23 02:09 OP:spq  STATUS:               ID:20150322205749     3
 2015-03-22-2057-49M.COL___289                                                 6
 STAT SP IPHASW D HRMM SECON CODA AMPLIT PERI AZIMU VELO AIN AR TRES W  DIS CAZ7
 BAR2 EZ EP   1   21 1 18.62                             169    0.00 7 25.1 185 
 BAR2 EZ ES   1   21 1 33.91                             169    0.16 7 25.1 185 
 BAR2 EZ I        21 1 34.76         9.7 0.20            171           25.1 185 
 BRR  HZ EP       21 1 20.45                             153    0.4710 68.7 298 
 BRR  HE ES       21 1 36.57                             153    0.3910 68.7 298 
 BRR  HZ I        21 1 41.15        14.2 0.48            149           68.7 298 
 PAM  SZ EP       21 1 21.51                             150    0.3410 76.9  42 
 PAM  SN ES       21 1 38.24                             150   -0.0510 76.9  42 
 PAM  SZ I        21 1 40.56         9.4 0.32            154           76.9  42 
 RUS  HZ EP       21 1 23.11                             143    0.2010  103 175 
 RUS  HE ES   1   21 1 40.74                             143   -0.65 7  103 175 
 RUS  HZ I        21 1 43.25         4.4 0.22            148            103 175 
 PTB  HZ EP       21 1 25.65                             132   -0.23 9  146 258 
 PTB  HN ES       21 1 46.42                             132   -0.27 9  146 258 
 PTB  HZ I        21 1 53.91         5.4 0.16            132            146 258 
 OCA  HN ES       21 1 48.22                             129   -0.70 9  158 354 
 OCA  HZ I        21 1 51.75        17.3 0.28            131            158 354 
 SPBC HE ES   1   21 1 49.54                             128   -0.19 7  164 218 
 ZAR  HZ EP       21 1 31.36                             122    0.10 9  202 292 
 ZAR  HN ES   1   21 1 56.60                             122    0.33 6  202 292 
 ZAR  HZ I        21 2  2.98         7.7 0.26            123            202 292 
 SML  HZ EP       21 1 35.23                             117   -0.20 8  241 335 
 SML  HE ES   1   21 2  3.55                             117   -0.13 6  241 335 
 SML  HZ I        21 2 12.74         6.6 0.10            119            241 335 
 GUY2CHZ EP   4   21 1 44.66                             112    1.97 0  301 234 
 GUY2CHE ES   1   21 2 16.63                             112    0.03 5  301 234 
 GUY2CHZ I        21 2 24.11         3.5 0.46                           301 234 
                                                                                
