 2016  722 2314 26.0 L   6.799 -73.134145.4  RSN 14 0.3 2.2LRSN                1
 GAP=120        0.73       2.4     3.1  4.1 -0.4459E+00  0.4919E+01  0.1917E+01E
 Epicentro: LOS SANTOS - SANTANDER                                             3
 ACTION:UPD 17-03-29 16:53 OP:lp   STATUS:               ID:20160722231426 L   I
 OLDACT:UP  16-07-23 07:03 OP:dani STATUS:               ID:20160722230759     3
 OLDACT:UP  16-07-23 07:03 OP:dani STATUS:               ID:20160722230759     3
 OLDACT:UP  16-07-23 07:02 OP:dani STATUS:               ID:20160722230759     3
 OLDACT:REG 16-07-23 05:03 OP:dani STATUS:               ID:20160722230759     3
 2016-07-22-2307-59S.COL___328                                                 6
 STAT SP IPHASW D HRMM SECON CODA AMPLIT PERI AZIMU VELO AIN AR TRES W  DIS CAZ7
 BAR2 EZ EP       2314 45.49                             170   -0.1510 23.4 193 
 BAR2 EZ ES       2315  0.50                             170   -0.4210 23.4 193 
 BRR  HZ EP       2314 47.33                             152    0.1010 72.4 298 
 BRR  HE ES       2315  3.98                             152    0.2310 72.4 298 
 BRR  HZ I        2315  7.50        25.0 0.28            149           72.4 298 
 PAM  EZ IP       2314 48.44                             151    0.2510 76.7  39 
 PAM  EN ES       2315  5.70                             151    0.2410 76.7  39 
 PAM  EZ I        2315  7.64        27.1 0.50            155           76.7  39 
 RUS  HZ EP       2314 49.42                             144   -0.3310  100 177 
 RUS  HN ES       2315  8.48                             144    0.2410  100 177 
 RUS  HZ I        2315  9.25        16.1 0.26            145            100 177 
 SPBC HZ EP       2314 54.53                             129   -0.06 9  164 219 
 SPBC HN ES       2315 16.73                             129   -0.12 9  164 219 
 SPBC HZ I        2315 22.88        26.4 0.20            128            164 219 
 ZAR  HZ EP       2314 58.31                             122   -0.29 8  205 292 
 ZAR  HE ES       2315 23.55                             122   -0.44 8  205 292 
 ZAR  HZ I        2315 28.67        19.5 0.28            122            205 292 
 NOR  HZ EP       2315  1.65                             118   -0.21 8  236 235 
 NOR  HE ES       2315 30.11                             118    0.31 8  236 235 
 NOR  HZ I        2315 34.92        10.1 0.14            118            236 235 
 CHI  HZ EP   2   2315  4.12                             117    0.37 4  249 195 
 CHI  HN ES       2315 33.11                             117   -0.05 8  249 195 
 CHI  HZ I        2315 36.80        12.4 0.48            118            249 195 
 HEL  HZ EP   4   2315  7.66                             114    1.28 0  273 256 
 HEL  HN ES   4   2315 36.62                             114   -1.21 0  273 256 
 HEL  HZ I        2315 43.56         9.8 0.30            114            273 256 
 URE  HE ES   4   2315 36.10                             113   -3.27 0  285 292 
 GUY2CHZ EP   4   2315 10.88                             112    1.13 0  302 235 
 GUY2CHE ES   4   2315 48.62                             112    4.78 0  302 235 
 GUY2CHZ I        2315 51.75         9.4 0.34                           302 235 
 PTGC HZ EP   9   2315  8.59                             111   -1.23 0  308 159 
 PTGC HN ES       2315 42.58                             112   -0.15 7  308 159 
 PTGC HZ I        2315 44.72        12.0 0.36            113            308 159 
 CBOC HZ EP       2315 13.44                             110    0.36 7  335 252 
 CBOC HN ES       2315 50.60                             110    0.83 7  335 252 
 CBOC HZ I        2315 55.91         2.3 0.34            110            335 252 
 PRA  HZ EP       2315 19.59                             106   -0.03 6  393 210 
 PRA  HN ES       2316  1.13                             106   -0.27 6  393 210 
 PRA  HZ I        2316  5.95         8.7 0.70            107            393 210 
 SJC  HZ EP   9   2315 19.67                             106   -2.03 0  410 327 
 SJC  HN ES       2316  2.22                             106   -0.85 6  410 327 
 SJC  HZ I        2316 12.79         2.4 0.28            106            410 327 
 CONO HN ES   4   2315 48.15                              99   -61.1 0  613 216 
                                                                                
