 2014  422 2051 49.5 L   6.782 -73.145145.5  RSN  4 0.6 1.3LRSN                1
 GAP=137        1.63       8.9     8.5 14.4 -0.8545E+01  0.1123E+02  0.1728E+02E
 Epicentro: LOS SANTOS - SANTANDER                                             3
 ACTION:UPD 14-05-13 23:10 OP:nd   STATUS:               ID:20140422205149 L   I
 OLDACT:UP  14-04-23 05:58 OP:stll STATUS:               ID:20140422204819d    3
 OLDACT:DUP 14-04-23 05:48 OP:stll STATUS:               ID:20140422204819d    3
 2014-04-22-2048-18M.COL___242                                                 6
 STAT SP IPHASW D HRMM SECON CODA AMPLIT PERI AZIMU VELO AIN AR TRES W  DIS CAZ7
 BRR  HZ EP       2052 11.33                             152    0.6110 72.2 300 
 BRR  HN ES       2052 28.16                             152    0.9210 72.2 300 
 PAM  SZ EP       2052 11.28                             150   -0.5310 78.9  39 
 PAM  SN ES       2052 28.75                             150   -0.4410 78.9  39 
 PAM  SZ I        2052 29.87         4.1 0.36            153           78.9  39 
 RUS  HZ EP       2052 13.41                             144    0.2910 98.6 176 
 RUS  HZ I        2052 14.35         2.5 0.36            145           98.6 176 
 RUS  HE ES       2052 31.56                             144    0.0510 98.6 176 
 PTB  HZ EP       2052 16.64                             132    0.19 9  147 260 
 PTB  HN ES       2052 36.23                             132   -1.22 9  147 260 
 PTB  HZ I        2052 43.59         3.4 0.42            131            147 260 
                                                                                
