 2016 1122 2126 23.8 L   6.747 -73.098136.3  RSN  9 0.4 2.1LRSN                1
 GAP=163        0.82       3.4     3.7  5.0 -0.2193E+01  0.2779E+01  0.6399E+01E
 Epicentro: LOS SANTOS - SANTANDER                                             3
 ACTION:UPD 17-10-26 21:10 OP:lp   STATUS:               ID:20161122212623 L   I
 OLDACT:UP  16-11-23 04:27 OP:and  STATUS:               ID:20161122211747d    3
 OLDACT:DUP 16-11-23 04:24 OP:and  STATUS:               ID:20161122211747d    3
 OLDACT:REG 16-11-23 03:07 OP:and  STATUS:               ID:20161122211746     3
 2016-11-22-2118-00M.COL___352                                                 6
 STAT SP IPHASW D HRMM SECON CODA AMPLIT PERI AZIMU VELO AIN AR TRES W  DIS CAZ7
 BAR2 EZ IP     C 2126 42.02                             171   -0.1610 19.5 209 
 BAR2 EZ ES       2126 56.73                             171    0.1810 19.5 209 
 BAR2 EZ I        2126 58.03        53.7 0.14            169           19.5 209 
 BRR  HZ EP       2126 44.08                             148   -0.2810 78.7 300 
 BRR  HN ES       2127  0.61                             148    0.1810 78.7 300 
 BRR  HZ I        2127  4.02        27.5 0.17            149           78.7 300 
 PAM  EZ EP     D 2126 44.92                             148   -0.1610 78.9  34 
 PAM  EN ES       2127  1.60                             148   -0.1010 78.9  34 
 PAM  EZ I        2127  4.00        21.4 0.42            152           78.9  34 
 PTB  HZ EP   9   2126 48.87                             129   -1.50 0  152 261 
 PTB  HN ES       2127  9.41                                   -0.22 9  152 261 
 PTB  HZ I        2127 12.87        17.9 0.12            129            152 261 
 ZAR  HZ EP       2126 57.25                             119    0.89 8  211 293 
 ZAR  HE ES       2127 21.72                             119   -0.07 8  211 293 
 ZAR  HZ I        2127 26.30        15.8 0.33            120            211 293 
 NOR  HZ EP       2126 58.61                             116   -0.46 8  236 236 
 NOR  HE ES       2127 26.16                             116   -0.45 8  236 236 
 NOR  HZ I        2127 28.28         6.4 0.16            117            236 236 
 CHI  HZ EP       2127  0.55                             115    0.06 8  244 197 
 CHI  HN ES       2127 29.72                             115    0.58 8  244 197 
 CHI  HZ I        2127 33.19         3.8 0.34            116            244 197 
 PRA  HZ EP       2127 16.87                             105    0.19 6  390 211 
 PRA  HN ES       2127 57.65                             105   -0.31 6  390 211 
 PRA  HZ I        2128  6.52         5.7 0.46            106            390 211 
 SJC  HZ EP   4   2127 17.01                             104   -2.94 0  417 327 
 SJC  HN ES   4   2128  0.08                             104   -3.70 0  417 327 
 SJC  HZ I        2128  1.94         4.3 0.48            105            417 327 
                                                                                
