 2013 1122 2108  3.6 L   6.766 -73.163145.2  RSN  7 0.4 1.8LRSN                1
 GAP=136        1.01       4.1     5.0  6.7 -0.4422E+01  0.2295E+01  0.6320E+01E
 Epicentro: LOS SANTOS - SANTANDER                                             3
 ACTION:UPD 14-01-09 16:30 OP:ep   STATUS:               ID:20131122210803 L   I
 OLDACT:REG 13-11-23 01:09 OP:stll STATUS:               ID:20131122205809     3
 2013-11-22-2058-09M.COL___244                                                 6
 STAT SP IPHASW D HRMM SECON CODA AMPLIT PERI AZIMU VELO AIN AR TRES W  DIS CAZ7
 BAR2 SZ EP       21 8 22.87                             172   -0.1610 19.3 186 
 BAR2 SZ ES       21 8 38.27                             172    0.0410 19.3 186 
 BAR2 SZ I        21 8 39.70        23.4 0.34            168           19.3 186 
 BRR  HZ EP       21 8 25.25                             152    0.6010 71.4 302 
 BRR  HN ES       21 8 41.48                             152    0.3810 71.4 302 
 BRR  HZ I        21 8 43.10        13.5 0.42            152           71.4 302 
 PAM  SZ EP       21 8 26.08                             149    0.1310 81.5  39 
 PAM  SZ I        21 8 26.33        12.8 0.20            154           81.5  39 
 PAM  SN ES       21 8 42.78                             149   -0.6510 81.5  39 
 RUS  HZ EP       21 8 27.22                             145    0.2310 97.0 175 
 RUS  HN ES       21 8 45.61                             145    0.3410 97.0 175 
 RUS  HZ I        21 8 46.96         5.2 0.28            144           97.0 175 
 PTB  HZ EP       21 8 29.97                             132   -0.26 9  145 260 
 PTB  HN ES       21 8 50.98                             132   -0.07 9  145 260 
 PTB  HZ I        21 8 52.95         9.2 0.18            132            145 260 
 SPBC HN ES       21 8 52.75                             130   -0.75 9  159 219 
 SPBC HZ I        21 9  2.07        11.4 0.20            129            159 219 
 CHI  HZ EP       21 8 40.46                             117   -0.31 8  244 195 
 CHI  HN ES       21 9 10.12                             117    0.33 8  244 195 
 CHI  HZ I        21 9 14.15         4.8 0.60            117            244 195 
                                                                                
