 2017  922 2056 33.6 L   6.540 -73.503116.1  RSN  7 0.2 1.5LRSN                1
 GAP= 88        0.54       2.2     2.3  4.7 -0.9343E+00  0.6069E+01 -0.2047E+01E
 Epicentro: EL CARMEN - SANTANDER                                              3
 ACTION:UPD 17-10-05 19:15 OP:rebc STATUS:               ID:20170922205633 L   I
 OLDACT:UP  17-09-23 07:50 OP:mg   STATUS:               ID:20170922204014     3
 OLDACT:UP  17-09-23 07:50 OP:mg   STATUS:               ID:20170922204014     3
 OLDACT:UP  17-09-23 07:49 OP:mg   STATUS:               ID:20170922204014     3
 OLDACT:UP  17-09-23 07:48 OP:mg   STATUS:               ID:20170922204014     3
 OLDACT:REG 17-09-23 05:12 OP:mg   STATUS:               ID:20170922204014     3
 2017-09-22-2048-00M.COL___450                                                 6
 STAT SP IPHASW D HRMM SECON CODA AMPLIT PERI AZIMU VELO AIN AR TRES W  DIS CAZ7
 BAR2 EZ EP       2056 50.14                             162    0.0110 35.9  81 
 BAR2 EZ ES       2057  2.76                             162   -0.2210 35.9  81 
 BAR2 EZ I        2057  4.24        24.6 0.40            164           35.9  81 
 BRR  HZ EP   1   2056 51.08                             148   -0.31 7 66.8 340 
 RUS  HZ EP       2056 53.53                             141    0.1410 85.3 147 
 RUS  HN ES       2057  9.03                             141    0.2310 85.3 147 
 RUS  HZ I        2057 10.40         3.6 0.13            145           85.3 147 
 PAM  HZ EP       2056 56.85                             130    0.0410  125  45 
 PAM  EN ES       2057 14.86                             130   -0.0210  125  45 
 PAM  HZ I        2057 15.72         3.0 0.24            133            125  45 
 ZAR  HZ EP       2057  1.87                             118   -0.19 9  183 305 
 ZAR  HN ES       2057 24.65                             118    0.43 9  183 305 
 ZAR  HZ I        2057 26.76         5.6 0.24            120            183 305 
 NOR  HZ EP       2057  2.38                             118   -0.04 9  186 235 
 NOR  HN ES       2057 24.65                             118   -0.21 9  186 235 
 NOR  HZ I        2057 26.00         3.7 0.21            120            186 235 
 GUY2CHZ EP   4   2057 11.77                             110    1.38 0  252 235 
 GUY2CHN ES   4   2057 43.32                             110    4.26 0  252 235 
 GUY2CHZ I        2057 47.39         1.2 0.29                           252 235 
                                                                                
