 2013 1122 2256 23.3 L   6.821 -73.162140.1  RSN  5 0.4 1.4LRSN                1
 GAP=134        1.04       5.2     4.6  8.3  0.2035E+01  0.9293E+01  0.2243E+01E
 Epicentro: LOS SANTOS - SANTANDER                                             3
 ACTION:UPD 14-01-09 16:30 OP:ep   STATUS:               ID:20131122225623 L   I
 OLDACT:REG 13-11-23 01:12 OP:stll STATUS:               ID:20131122224809     3
 2013-11-22-2248-09M.COL___250                                                 6
 STAT SP IPHASW D HRMM SECON CODA AMPLIT PERI AZIMU VELO AIN AR TRES W  DIS CAZ7
 BRR  HZ EP       2256 44.38                             152    0.6610 68.6 298 
 BRR  HN ES       2257  0.08                             152    0.4610 68.6 298 
 PAM  SZ EP       2256 44.78                             150   -0.1310 76.8  42 
 PAM  SN ES       2257  1.30                             150   -0.4410 76.8  42 
 PAM  SZ I        2257  3.36         9.7 0.32            153           76.8  42 
 RUS  HZ EP       2256 47.01                             142    0.3010  103 175 
 RUS  HE ES       2257  4.96                             142    0.0210  103 175 
 RUS  HZ I        2257  7.35         1.4 0.24            144            103 175 
 PTB  HZ EP       2256 49.09                             131   -0.63 9  146 258 
 PTB  HN ES       2257  9.84                             131   -0.47 9  146 258 
 PTB  HZ I        2257 13.34         2.9 0.18            132            146 258 
 ZAR  HZ EP       2256 55.27                             121    0.12 9  202 292 
 ZAR  HN ES       2257 19.96                             121   -0.01 9  202 292 
 ZAR  HZ I        2257 24.62         5.9 0.32            123            202 292 
                                                                                
