 2012  422 2203 41.3 L   7.374 -73.175129.4  RSN  5 0.1 1.3LRSN                1
 GAP=211        0.30       3.6     2.2  3.0 -0.2803E+01  0.1141E+01  0.5678E+00E
 Epicentro: RIONEGRO - SANTANDER                                               3
 ACTION:UPD 12-07-05 11:55 OP:tino STATUS:               ID:20120422220341 L   I
 2012-04-22-2200-00M.COL___186                                                 6
 STAT SP IPHASW D HRMM SECON CODA AMPLIT PERI AZIMU VELO AIN AR TRES W  DIS CAZ7
 PAM  SZ EP   1   22 4  0.56                             157     0.1 7   53  94 
 PAM  SN ES   1   22 4 15.23                             157    -0.1 7   53  94 
 BRR  HZ EP   1   22 4  0.47                             151     0.0 7   66 244 
 BRR  HN ES   1   22 4 15.30                             151    -0.1 7   66 244 
 BAR2 SZ EP   1   22 4  2.17                             144     0.1 7   86 181 
 BAR2 SZ I        22 4  2.60         7.7 0.25                            86 181 
 BAR2 SZ ES   1   22 4 18.36                             144     0.1 7   86 181 
 RUS  HZ EP   1   22 4  9.15                             125    -0.1 7  164 176 
 RUS  HZ I        22 4  9.91         1.2 0.11                           164 176 
 PTB  HZ EP   1   22 4  9.04                             124    -0.1 7  169 237 
 PTB  HN ES   1   22 4 30.87                             124     0.1 7  169 237 
 PTB  HZ I        22 4 33.76         3.5 0.17                           169 237 
                                                                                
