 2013  222 2151  1.5 L   6.746 -73.142136.9  RSN  5 0.1 2.1LRSN                1
 GAP=139        0.30       1.6     2.1  3.0  0.4090E+00  0.1344E+01  0.2776E+00E
 Epicentro: JORDAN - SANTANDER                                                 3
 ACTION:UPD 13-03-12 09:35 OP:ep   STATUS:               ID:20130222215101 L   I
 2013-02-22-2147-48M.COL___200                                                 6
 STAT SP IPHASW D HRMM SECON CODA AMPLIT PERI AZIMU VELO AIN AR TRES W  DIS CAZ7
 BAR2 SZ EP   1   2151 19.86                             172   -0.07 7 17.6 195 
 BRR  HZ EP   1   2151 21.97                             150    0.09 7 74.5 302 
 BRR  HN ES       2151 37.85                             150    0.0710 74.5 302 
 BRR  HN I        2151 43.70        33.2 0.14            150           74.5 302 
 PAM  SZ EP   1   2151 23.03                             148   -0.01 7 81.8  37 
 PAM  SN ES       2151 39.81                             148   -0.0510 81.8  37 
 PAM  SN I        2151 40.79        31.9 0.48            153           81.8  37 
 RUS  HZ EP   1   2151 24.06                             144    0.13 7 94.6 176 
 RUS  HN ES       2151 41.38                             144   -0.0510 94.6 176 
 RUS  HN I        2151 43.36         8.0 0.18            148           94.6 176 
 ZAR  HZ EP   1   2151 33.66                             120    0.02 6  207 294 
 ZAR  HN ES   2   2151 58.43                             120   -0.30 4  207 294 
 ZAR  HN I        2152  0.47        12.7 0.12            123            207 294 
                                                                                
