 2016 1122 2024  5.4 L   6.832 -73.161150.0  RSN  9 0.4 1.9LRSN                1
 GAP=143        0.95       3.5     4.3  6.2 -0.2282E+01  0.8817E+01  0.3312E+01E
 Epicentro: LOS SANTOS - SANTANDER                                             3
 ACTION:UPD 17-10-26 21:10 OP:lp   STATUS:               ID:20161122202405 L   I
 OLDACT:UP  16-11-23 03:50 OP:and  STATUS:               ID:20161122201745     3
 OLDACT:UP  16-11-23 03:48 OP:and  STATUS:               ID:20161122201745     3
 OLDACT:UP  16-11-23 03:46 OP:and  STATUS:               ID:20161122201745     3
 OLDACT:REG 16-11-23 02:57 OP:and  STATUS:               ID:20161122201745     3
 2016-11-22-2018-00M.COL___352                                                 6
 STAT SP IPHASW D HRMM SECON CODA AMPLIT PERI AZIMU VELO AIN AR TRES W  DIS CAZ7
 BAR2 EZ EP       2024 25.78                             169    0.2110 26.6 185 
 BAR2 EZ ES       2024 40.93                             169   -0.4010 26.6 185 
 BAR2 EZ I        2024 42.18        23.4 0.19            169           26.6 185 
 BRR  HZ EP       2024 27.22                             154    0.4110 68.1 297 
 BRR  HN ES   4   2024 44.72                             154    1.19 0 68.1 297 
 PAM  EZ EP       2024 28.36                             152    0.4210 75.8  42 
 PAM  EN ES       2024 45.31                             152   -0.2410 75.8  42 
 PAM  EZ I        2024 47.62        15.6 0.48            154           75.8  42 
 PTB  HZ EP       2024 32.33                             133   -0.27 9  147 257 
 PTB  HN ES       2024 53.34                             133   -0.51 9  147 257 
 PTB  HZ I        2024 56.19         7.5 0.12            133            147 257 
 ZAR  HN ES       2025  3.61                             123    0.51 9  201 291 
 ZAR  HZ I        2025  8.66         8.6 0.22            124            201 291 
 NOR  HZ EP       2024 41.79                             119    0.37 8  235 234 
 NOR  HE ES       2025 10.03                             119    0.48 8  235 234 
 NOR  HZ I        2025 10.84         5.1 0.16            119            235 234 
 CHI  HZ EP       2024 43.95                             117    0.33 8  252 195 
 CHI  HN ES       2025 13.12                             117   -0.34 8  252 195 
 CHI  HZ I        2025 16.39         4.9 0.43            118            252 195 
 ROSC BZ EP   4   2024 46.08                             117    2.12 0  255 210 
 PRA  HZ EP       2024 59.35                             107    0.05 6  394 209 
 PRA  HN ES       2025 40.86                             107   -0.50 6  394 209 
 PRA  HZ I        2025 47.30         3.9 0.36            107            394 209 
 SJC  HZ EP       2024 59.71                             106   -0.91 6  405 327 
 SJC  HN ES       2025 43.12                             106   -0.60 6  405 327 
 SJC  HZ I        2025 45.18         2.2 0.58            107            405 327 
                                                                                
