 2017  122 2215 58.7 L   6.784 -73.106145.3  RSN  5 0.3 1.3LRSN                1
 GAP=142        0.44       3.9     3.5  4.9 -0.3350E+01 -0.1968E+01  0.4354E+01E
 Epicentro: LOS SANTOS - SANTANDER                                             3
 ACTION:UPD 17-05-22 16:02 OP:jn   STATUS:               ID:20170122221558 L   I
 OLDACT:DUP 17-01-23 03:37 OP:and  STATUS:               ID:20170122220743d    3
 OLDACT:UP  17-01-23 03:36 OP:and  STATUS:               ID:20170122220742     3
 OLDACT:UP  17-01-23 03:35 OP:and  STATUS:               ID:20170122220742     3
 OLDACT:UP  17-01-23 03:34 OP:and  STATUS:               ID:20170122220742     3
 OLDACT:UP  17-01-23 03:33 OP:and  STATUS:               ID:20170122220742     3
 OLDACT:REG 17-01-23 02:30 OP:y    STATUS:               ID:20170122220742     3
 2017-01-22-2208-00M.COL___355                                                 6
 STAT SP IPHASW D HRMM SECON CODA AMPLIT PERI AZIMU VELO AIN AR TRES W  DIS CAZ7
 BAR2 EZ ES   2   2216 33.16                             171   -0.35 5 22.8 202 
 BAR2 EZ I        2216 35.75         5.4 0.30            160           22.8 202 
 BRR  HZ EP   2   2216 19.93                             151   -0.12 5 75.9 298 
 BRR  HN ES       2216 36.87                             151    0.1510 75.9 298 
 BRR  HZ I        2216 56.19         8.6 0.29            140           75.9 298 
 PAM  EZ IP     C 2216 20.93                             151    0.1610 76.1  36 
 PAM  EN ES       2216 37.86                             151   -0.1410 76.1  36 
 PAM  EZ I        2216 42.82         1.9 0.42            153           76.1  36 
 RUS  HZ EP   2   2216 22.39                             144    0.14 5 98.6 179 
 RUS  HN ES   2   2216 40.79                             144    0.16 5 98.6 179 
 RUS  HZ I        2216 41.97         3.3 0.34            152           98.6 179 
 PTB  HZ EP   2   2216 25.60                             131   -0.37 5  152 260 
 PTB  HN ES   3   2216 46.48                             131   -0.78 2  152 260 
                                                                                
