 2012  522 2048 26.8 L   6.163 -73.706111.6  RSN  4 0.1 1.5LRSN                1
 GAP=183        0.38       4.9     3.0  6.8  0.8592E+01  0.6257E+01  0.5319E+01E
 Epicentro: LANDAZURI - SANTANDER                                              3
 ACTION:UP  12-07-05 12:07 OP:pat  STATUS:               ID:20120522204826 L   I
 2012-05-22-2040-00M.COL___201                                                 6
 STAT SP IPHASW D HRMM SECON CODA AMPLIT PERI AZIMU VELO SNR AR TRES W  DIS CAZ7
 BAR2 SZ EP       2048 44.93                             144     0.010   75  51 
 BAR2 SZ ES   2   2048 59.07                             144     0.0 5   75  51 
 BAR2 SZ I        2049  0.26        13.0 0.18                            75  51 
 RUS  HZ EP       2048 45.43                             144     0.110   75 113 
 RUS  HN ES   2   2048 59.57                             144    -0.2 5   75 113 
 PTB  HZ EP       2048 45.89                             137    -0.110   93 297 
 PTB  HN ES   2   2049  1.25                             137     0.2 5   93 297 
 PTB  HZ I        2049  3.87         3.0 0.14                            93 297 
 ZAR  HN ES   2   2049 19.18                             115     0.1 4  194 319 
 ZAR  HZ I        2049 22.44         5.2 0.12                           194 319 
                                                                                
