 2015  222 2056 41.0 L   6.787 -73.161146.1  RSN 14 0.5 2.0LRSN                1
 GAP= 71        1.23       3.5     3.8  6.4 -0.9815E+00  0.5450E+01  0.5554E+01E
 Epicentro: LOS SANTOS - SANTANDER                                             3
 ACTION:UPD 15-04-30 21:28 OP:nd   STATUS:               ID:20150222205641 L   I
 OLDACT:REG 15-02-23 03:10 OP:stll STATUS:               ID:20150222204749     3
 2015-02-22-2047-49M.COL___278                                                 6
 STAT SP IPHASW D HRMM SECON CODA AMPLIT PERI AZIMU VELO AIN AR TRES W  DIS CAZ7
 BAR2 EZ EP       2057  0.57                             171   -0.0810 21.7 186 
 BAR2 EZ ES       2057 15.98                             171    0.0210 21.7 186 
 BAR2 EZ I        2057 17.56        19.7 0.44            171           21.7 186 
 BRR  HZ EP       2057  2.72                             153    0.5710 70.4 300 
 BRR  HZ I        2057  2.92        26.5 0.22            149           70.4 300 
 BRR  HN ES       2057 19.59                             153    0.9510 70.4 300 
 PAM  SZ EP       2057  3.54                             150    0.1510 79.5  40 
 PAM  SN ES       2057 20.60                             150   -0.2410 79.5  40 
 PAM  SZ I        2057 22.91        16.0 0.56            151           79.5  40 
 RUS  HZ EP       2057  5.01                             144    0.3110 99.3 175 
 RUS  HN ES       2057 23.18                             144   -0.0010 99.3 175 
 RUS  HZ I        2057 24.94         9.2 0.40            145           99.3 175 
 PTB  HZ EP       2057  7.45                             132   -0.38 9  146 259 
 PTB  HN ES       2057 28.31                             132   -0.44 9  146 259 
 PTB  HZ I        2057 32.10        15.6 0.12            130            146 259 
 TAM  HZ EP       2057  8.85                             130    0.02 9  156 104 
 TAM  HZ I        2057  9.00        24.8 0.34            132            156 104 
 TAM  HE ES       2057 29.77                             130   -0.76 9  156 104 
 OCA  HN ES       2057 31.73                             129    0.08 9  161 354 
 OCA  HZ I        2057 36.75        16.3 0.28            128            161 354 
 NOR  HZ EP       2057 16.66                             119    0.13 8  233 235 
 NOR  HN ES       2057 43.49                             119   -0.74 8  233 235 
 NOR  HZ I        2057 51.98         9.4 0.24            118            233 235 
 SML  HN ES       2057 45.76                             117   -0.59 8  244 336 
 CHI  HZ EP       2057 18.63                             117    0.09 8  247 195 
 CHI  HN ES       2057 47.79                             117   -0.01 8  247 195 
 CHI  HZ I        2057 53.89         4.2 0.32            117            247 195 
 GUY2CHZ EP       2057 25.38                             112    0.99 7  299 235 
 GUY2CHN ES       2057 58.21                             112   -0.02 7  299 235 
 GUY2CHZ I        2058  7.57         5.4 0.42                           299 235 
 DBB  SZ EP       2057 27.66                             110   -0.66 7  338 274 
 MON  HZ EP   9   2057 28.18                             109   -1.80 0  353 309 
 MON  HN ES       2058  4.61                                   -1.76 6  353 309 
 MON  HZ I        2058 25.17         3.7 0.34            108            353 309 
 PRA  HZ EP       2057 34.79                             107    0.48 6  390 209 
 PRA  HN ES       2058 15.73                             107   -0.15 6  390 209 
 PRA  HZ I        2058 22.32         4.3 0.40            106            390 209 
                                                                                
