 2014 1122 2329  0.9 L   6.371 -73.620109.3  RSN 13 0.4 1.9LRSN                1
 GAP= 52        1.02       2.9     2.8  5.2 -0.1244E+01  0.2736E+01  0.8938E+00E
 Epicentro: SANTA HELENA DEL OPON - SANTANDER                                  3
 ACTION:UPD 14-12-19 15:46 OP:nd   STATUS:               ID:20141122232900 L   I
 OLDACT:UP  14-11-23 10:49 OP:cam  STATUS:               ID:20141122232818     3
 OLDACT:UP  14-11-23 10:49 OP:cam  STATUS:               ID:20141122232818     3
 OLDACT:REG 14-11-23 03:04 OP:cam  STATUS:               ID:20141122232818     3
 2014-11-22-2328-18M.COL___297                                                 6
 STAT SP IPHASW D HRMM SECON CODA AMPLIT PERI AZIMU VELO AIN AR TRES W  DIS CAZ7
 BAR2 SZ IP     C 2329 18.04                             152    0.5510 54.3  63 
 BAR2 SZ ES       2329 29.58                             152   -0.8510 54.3  63 
 BAR2 SZ I        2329 33.06        28.3 0.22            154           54.3  63 
 RUS  HZ IP     D 2329 19.35                             142   -0.1910 79.5 132 
 RUS  HN ES       2329 34.20                             142    0.1110 79.5 132 
 RUS  HZ I        2329 35.25         8.5 0.26            145           79.5 132 
 BRR  HZ EP       2329 19.60                             140    0.5510 82.1 353 
 BRR  HN ES       2329 33.53                             140    0.3210 82.1 353 
 BRR  HZ I        2329 37.10        16.1 0.16            142           82.1 353 
 SPBC HZ EP       2329 20.31                             136    0.1710 93.9 212 
 SPBC HN ES       2329 35.72                             136    0.5710 93.9 212 
 PTB  HZ EP       2329 19.91                             136   -0.1710 94.4 281 
 PTB  HN ES       2329 34.87                             136   -0.1710 94.4 281 
 PTB  HZ I        2329 37.22        33.2 0.40            137           94.4 281 
 PAM  SZ EP       2329 26.12                             122    0.34 9  148  43 
 PAM  SN ES       2329 45.06                             122   -0.14 9  148  43 
 PAM  SZ I        2329 50.08         9.2 0.20            125            148  43 
 NOR  HZ EP       2329 26.77                             119   -0.21 9  165 237 
 NOR  HN ES       2329 46.92                             119   -0.41 9  165 237 
 NOR  HZ I        2329 52.46        21.3 0.42            121            165 237 
 ZAR  HZ EP       2329 29.29                             116    0.19 9  185 312 
 ZAR  HN ES       2329 50.88                             116   -0.22 9  185 312 
 ZAR  HZ I        2329 56.96        24.7 0.32            117            185 312 
 CHI  HZ EP       2329 29.96                             115   -0.57 9  193 184 
 CHI  HN ES   4   2329 52.15                             115   -1.50 0  193 184 
 CHI  HZ I        2329 59.80         3.4 0.20            117            193 184 
 TAM  HZ EP       2329 30.93                             113   -0.19 9  202  88 
 HEL  HZ EP   4   2329 33.71                             112    1.09 0  212 265 
 GUY2CHZ EP       2329 35.25                             110    0.33 8  231 237 
 TOL  SZ EP       2329 39.87                             106    0.29 8  273 224 
 MON  HZ EP       2329 47.40                             101   -0.79 6  349 320 
 MON  HN ES   4   2330 23.88                             101   -1.20 0  349 320 
 MON  HZ I        2330 27.17         1.8 0.24            103            349 320 
                                                                                
