 2015  322 2329 41.4 L   6.793 -73.142150.8  RSN  7 0.3 1.5LRSN                1
 GAP=137        0.63       3.4     3.6  5.0  0.2953E+01  0.1395E+01 -0.2067E+01E
 Epicentro: LOS SANTOS - SANTANDER                                             3
 ACTION:UPD 15-04-30 16:28 OP:nd   STATUS:               ID:20150322232941 L   I
 OLDACT:REG 15-03-23 02:21 OP:spq  STATUS:               ID:20150322232748     3
 2015-03-22-2327-48M.COL___281                                                 6
 STAT SP IPHASW D HRMM SECON CODA AMPLIT PERI AZIMU VELO AIN AR TRES W  DIS CAZ7
 BAR2 EZ ES   1   2330 17.46                             171    0.02 7 22.7 191 
 BAR2 EZ I        2330 17.96        10.3 0.12            173           22.7 191 
 BRR  HZ EP       2330  3.43                             153    0.2610 71.9 299 
 BRR  HN ES       2330 20.37                             153    0.2410 71.9 299 
 BRR  HZ I        2330 25.42         4.3 0.32            150           71.9 299 
 PAM  SZ EP       2330  4.43                             152    0.2210 77.7  39 
 PAM  SE ES   1   2330 21.71                             152   -0.26 7 77.7  39 
 PAM  SZ I        2330 23.46         4.0 0.42            152           77.7  39 
 RUS  HZ EP       2330  5.63                             145   -0.0010 99.8 176 
 RUS  HE ES   1   2330 24.21                             145   -0.30 7 99.8 176 
 RUS  HZ I        2330 25.47         3.2 0.24            150           99.8 176 
 PTB  HZ EP   1   2330  8.77                             133   -0.07 7  148 259 
 PTB  HN ES   2   2330 29.37                             133   -0.85 5  148 259 
 PTB  HZ I        2330 31.73         3.0 0.24            133            148 259 
 ZAR  HN ES       2330 40.08                             123    0.18 9  205 292 
 ZAR  HZ I        2330 46.23         2.6 0.48            123            205 292 
 SML  HZ EP   1   2330 18.10                             118   -0.34 6  245 335 
 SML  HE ES   1   2330 46.73                             118   -0.57 6  245 335 
 SML  HZ I        2330 53.86         3.2 0.10            119            245 335 
                                                                                
