 2017  122 2354 22.9 L   6.781 -73.147149.2  RSN 11 0.4 1.8LRSN                1
 GAP=120        0.82       3.4     3.5  5.7  0.1002E+01  0.1261E+01  0.6771E+01E
 Epicentro: LOS SANTOS - SANTANDER                                             3
 ACTION:UPD 17-05-22 16:02 OP:jn   STATUS:               ID:20170122235422 L   I
 OLDACT:UP  17-01-23 04:01 OP:and  STATUS:               ID:20170122234747     3
 OLDACT:UP  17-01-23 04:01 OP:and  STATUS:               ID:20170122234747     3
 OLDACT:UP  17-01-23 04:01 OP:and  STATUS:               ID:20170122234747     3
 OLDACT:UP  17-01-23 03:59 OP:and  STATUS:               ID:20170122234747     3
 OLDACT:UP  17-01-23 03:57 OP:and  STATUS:               ID:20170122234747     3
 OLDACT:UP  17-01-23 03:57 OP:and  STATUS:               ID:20170122234747     3
 OLDACT:UP  17-01-23 03:57 OP:and  STATUS:               ID:20170122234747     3
 OLDACT:REG 17-01-23 02:40 OP:y    STATUS:               ID:20170122234747     3
 2017-01-22-2348-00M.COL___349                                                 6
 STAT SP IPHASW D HRMM SECON CODA AMPLIT PERI AZIMU VELO AIN AR TRES W  DIS CAZ7
 BAR2 EZ EP       2354 43.14                             171    0.2110 21.3 191 
 BAR2 EZ ES   2   2354 58.13                             171   -0.40 5 21.3 191 
 BAR2 EZ I        2355  0.68        22.1 0.32            165           21.3 191 
 BRR  HZ IP     D 2354 44.69                             153    0.1910 72.1 300 
 BRR  HN ES       2355  1.74                             153    0.4110 72.1 300 
 BRR  HZ I        2355  5.82        10.7 0.28            147           72.1 300 
 PAM  EZ IP     D 2354 45.61                             151   -0.0010 79.1  39 
 PAM  EN ES       2355  3.11                             151   -0.1910 79.1  39 
 PAM  EZ I        2355  5.05         8.3 0.40            151           79.1  39 
 RUS  HZ EP       2354 47.00                             145    0.1210 98.5 176 
 RUS  HN ES       2355  5.52                             145   -0.0310 98.5 176 
 RUS  HZ I        2355  6.79         9.9 0.36            138           98.5 176 
 PTB  HZ EP       2354 49.64                             133   -0.50 9  147 260 
 PTB  HN ES       2355 10.71                             133   -0.64 9  147 260 
 PTB  HZ I        2355 13.24         5.5 0.14            125            147 260 
 ZAR  HZ EP   4   2354 58.03                             123    2.36 0  205 293 
 ZAR  HN ES       2355 21.27                             123    0.06 9  205 293 
 ZAR  HZ I        2355 26.16         6.1 0.19            117            205 293 
 NOR  HZ EP   3   2354 59.43                             119    0.71 2  233 235 
 NOR  HN ES   2   2355 26.51                             119   -0.13 4  233 235 
 NOR  HZ I        2355 34.76         4.5 0.18            113            233 235 
 CHI  HZ EP       2355  1.20                             118    0.60 8  247 195 
 CHI  HN ES       2355 30.43                             118    0.45 8  247 195 
 CHI  HZ I        2355 36.64         3.0 0.32            112            247 195 
 ROSC BZ EP   4   2355  3.68                             117    2.64 0  251 211 
 ROSC BZ I        2355 37.58         7.5 0.40            111            251 211 
 PTGC HZ IP     D 2355  6.15                             112   -0.58 7  307 158 
 PTGC HN ES   3   2355 39.72                             112   -1.17 2  307 158 
 PTGC HZ I        2355 41.50         8.3 0.42            107            307 158 
 SJC  HZ EP   4   2355 17.01                             106   -1.80 0  411 327 
 SJC  HN ES   4   2355 59.35                             106   -3.04 0  411 327 
 SJC  HZ I        2356  1.32         1.5 0.44            102            411 327 
                                                                                
