 2014  622 2152 13.9 L   6.678 -73.228152.2  RSN  4 0.2 1.2LRSN                1
 GAP=201        0.51       5.0     4.4  6.1  0.1208E+02 -0.4577E+01 -0.6001E+01E
 Epicentro: BARICHARA - SANTANDER                                              3
 ACTION:UPD 14-07-01 22:55 OP:nd   STATUS:               ID:20140622215213 L   I
 OLDACT:REG 14-06-23 03:38 OP:fm   STATUS:               ID:20140622214818     3
 2014-06-22-2148-18M.COL___265                                                 6
 STAT SP IPHASW D HRMM SECON CODA AMPLIT PERI AZIMU VELO AIN AR TRES W  DIS CAZ7
 BAR2 SZ EP   1   2152 33.65                             176   -0.44 7 10.8 152 
 BRR  HZ EP   1   2152 35.75                             153    0.02 7 71.5 312 
 BRR  HN ES   1   2152 52.98                             153    0.20 7 71.5 312 
 BRR  HZ I        2152 57.58         6.4 0.32            154           71.5 312 
 RUS  HZ EP       2152 37.68                             149    0.2410 88.3 170 
 RUS  HN ES       2152 55.78                             149   -0.0410 88.3 170 
 RUS  HZ I        2152 57.33         1.3 0.36            155           88.3 170 
 PTB  HZ EP   1   2152 40.47                             136    0.07 7  137 264 
 PTB  HN ES       2153  0.99                             136   -0.12 9  137 264 
 PTB  HZ I        2153  3.88         2.4 0.20            140            137 264 
                                                                                
