 2013  622 2123 30.8 L   6.808 -73.149145.1  RSN 12 0.4 2.3LRSN                1
 GAP=181        0.90       3.1     4.5  5.6 -0.3563E+00  0.4152E+01  0.2574E+01E
 Epicentro: LOS SANTOS - SANTANDER                                             3
 ACTION:UPD 14-01-08 09:56 OP:ep   STATUS:               ID:20130622212330 L   I
 OLDACT:UP  13-06-23 00:08 OP:mh   STATUS:               ID:20130622211959     3
 OLDACT:UP  13-06-23 00:07 OP:mh   STATUS:               ID:20130622211959     3
 OLDACT:REG 13-06-22 21:41 OP:mh   STATUS:               ID:20130622211959     3
 2013-06-22-2119-59M.COL___267                                                 6
 STAT SP IPHASW D HRMM SECON CODA AMPLIT PERI AZIMU VELO AIN AR TRES W  DIS CAZ7
 BAR2 SZ EP   1   2123 50.35                             170   -0.02 7 24.2 189 
 BAR2 SZ ES   1   2124  5.92                             170    0.29 7 24.2 189 
 BAR2 SZ I        2124  8.02        35.5 0.30            169           24.2 189 
 BRR  HZ EP       2123 52.34                             152    0.5110 70.4 298 
 BRR  HN ES       2124  8.67                             152    0.4310 70.4 298 
 BRR  HN I        2124 10.95        55.4 0.18            153           70.4 298 
 RUS  HZ EP       2123 54.56                             143    0.0110  102 176 
 RUS  HN ES       2124 12.86                             143   -0.2210  102 176 
 RUS  HZ I        2124 14.08        18.2 0.24            145            102 176 
 PTB  HZ EP       2123 57.40                             132   -0.29 9  148 258 
 PTB  HN ES       2124 18.16                             132   -0.51 9  148 258 
 OCA  HN ES       2124 20.57                             129   -0.37 9  159 353 
 NOR  HZ EP       2124  6.35                             118   -0.16 8  235 234 
 NOR  HN ES       2124 34.46                             118    0.09 8  235 234 
 NOR  HZ I        2124 38.10        16.4 0.24            120            235 234 
 CHI  HZ EP   1   2124  8.35                             117   -0.19 6  249 195 
 CHI  HN ES       2124 37.25                             117   -0.73 8  249 195 
 CHI  HN I        2124 40.29        15.6 0.26            118            249 195 
 ROSC BZ EP   1   2124  9.95                             116    1.01 6  253 211 
 HEL  HZ EP   1   2124 11.80                             115    0.84 6  272 256 
 HEL  HE ES       2124 42.49                             115    0.20 8  272 256 
 GUY2CHZ EP   4   2124 15.58                             112    1.18 0  301 235 
 GUY2CHN ES   4   2124 50.06                             112    1.65 0  301 235 
 GUY2CHZ I        2124 57.20         8.7 0.34                           301 235 
 COD  HZ EP   1   2124 18.89                             109   -0.15 5  347 355 
 COD  HN ES   2   2124 55.87                             109   -0.80 3  347 355 
 PRA  HZ EP   1   2124 24.87                             106    0.50 4  393 209 
                                                                                
