 2011  822 2016  1.7 L   6.735 -73.165143.0  RSN  7 0.3 2.0LRSN                1
 GAP=180        0.59       3.2     5.3  5.0  0.2624E+01  0.5364E+01  0.2005E+01E
 Epicentro: VILLANUEVA - SANTANDER                                             3
 ACTION:UPD 12-07-13 15:53 OP:ep   STATUS:               ID:20110822201601 L   I
 2011-08-22-2013-18S.COL___158                                                 6
 STAT SP IPHASW D HRMM SECON CODA AMPLIT PERI AZIMU VELO AIN AR TRES W  DIS CAZ7
 BAR2 SZ EP       2016 20.71                             173   -0.2010 15.9 187 
 BAR2 SZ ES   1   2016 35.55                             173   -0.31 7 15.9 187 
 BAR2 SZ I        2016 37.42        20.2 0.24                          15.9 187 
 BRR  HZ EP       2016 22.65                             151   -0.0610 73.1 304 
 BRR  HZ I        2016 23.09        37.5 0.10                          73.1 304 
 BRR  HE ES   1   2016 39.60                             151    0.54 7 73.1 304 
 RUS  HZ EP       2016 25.03                             145    0.3110 93.5 174 
 RUS  HE ES       2016 42.65                             145    0.0110 93.5 174 
 RUS  HZ I        2016 44.49        11.2 0.36                          93.5 174 
 OCA  SZ EP   2   2016 29.97                             128   -0.54 5  167 354 
 OCA  SZ I        2016 57.37        20.0 0.43                           167 354 
 NOR  SZ EP   2   2016 36.59                             119   -0.09 4  229 236 
 NOR  SN ES   1   2017  3.60                             119   -0.33 6  229 236 
 CHI  HZ EP   1   2016 38.76                             117    0.29 6  241 195 
 CHI  HN ES   1   2017  6.92                             117   -0.20 6  241 195 
 CHI  HZ I        2017 13.95         4.4 0.31                           241 195 
 PRA  HZ EP   2   2016 54.67                             106    0.36 3  385 210 
                                                                                
