 2012  622 2015  9.0 L   6.064 -73.705113.3  RSN  9 0.5 1.8LRSN                1
 GAP= 76        1.02       4.6     4.1  9.6 -0.8558E+00  0.1230E+02  0.4866E+01E
 Epicentro: BOLIVAR - SANTANDER                                                3
 ACTION:UP  12-08-06 17:51 OP:ep   STATUS:               ID:20120622201509 L   I
 2012-06-22-2010-00M.COL___198                                                 6
 STAT SP IPHASW D HRMM SECON CODA AMPLIT PERI AZIMU VELO AIN AR TRES W  DIS CAZ7
 RUS  HZ EP       2015 27.24                             146   -0.1810 71.4 105 
 RUS  HZ I        2015 27.73        15.3 0.25                          71.4 105 
 RUS  HN ES   1   2015 41.74                             146   -0.07 7 71.4 105 
 BAR2 SZ EP       2015 28.01                             141    0.1710 82.2  45 
 BAR2 SZ ES   1   2015 43.15                             141    0.59 7 82.2  45 
 BAR2 SZ I        2015 43.60        35.0 0.11                          82.2  45 
 PTB  HZ EP   1   2015 27.85                             136   -0.99 7 98.4 302 
 PTB  HN ES   1   2015 43.57                             136   -0.77 7 98.4 302 
 PTB  HZ I        2015 45.57         8.1 0.10                          98.4 302 
 BRR  HZ EP       2015 30.43                             131    0.1110  115 360 
 BRR  HZ I        2015 33.96        10.1 0.31                           115 360 
 BRR  HE ES   1   2015 47.33                             131    0.35 7  115 360 
 NOR  SZ EP   1   2015 32.60                             125   -0.20 7  140 247 
 NOR  SE ES   1   2015 52.16                             125    0.77 7  140 247 
 CHI  HZ EP   1   2015 34.88                             121   -0.26 7  159 181 
 CHI  HZ I        2015 57.98         4.8 0.44                           159 181 
 PAM  SN ES   1   2015 59.23                             118   -0.44 7  180  38 
 HEL  HZ EP   1   2015 40.11                             115    0.32 6  202 274 
 HEL  HZ I        2015 41.89         4.5 0.16                           202 274 
 ZAR  HZ EP   1   2015 40.37                             114    0.97 6  203 321 
 ZAR  HN ES   1   2016  2.91                             114   -0.23 6  203 321 
 ZAR  HZ I        2016  5.09        10.2 0.06                           203 321 
                                                                                
