 2017 1222 2232 37.0 L   6.836 -73.136146.2  RSN  4 0.3 1.7LRSN                1
 GAP=260        0.69       5.0     4.8  6.1  0.5082E+01  0.6905E+01 -0.5277E+01E
 Epicentro: LOS SANTOS - SANTANDER                                             3
 ACTION:UPD 18-01-04 13:23 OP:rebc STATUS:               ID:20171222223236 L   I
 OLDACT:UP  18-01-02 16:06 OP:nlst STATUS:               ID:20171222223236 L   3
 OLDACT:REG 17-12-23 02:58 OP:lv   STATUS:               ID:20171222222356     3
 2017-12-22-2228-00M.COL___469                                                 6
 STAT SP IPHASW D HRMM SECON CODA AMPLIT PERI AZIMU VELO AIN AR TRES W  DIS CAZ7
 BAR2 EZ EP       2232 56.90                             169    0.1310 27.5 191 
 BAR2 EZ ES       2233 12.13                             169   -0.0610 27.5 191 
 BAR2 EZ I        2233 13.45        11.1 0.26            166           27.5 191 
 PTB  HZ EP       2233  4.03                             132   -0.14 9  150 257 
 PTB  HN ES       2233 24.89                             132   -0.47 9  150 257 
 PTB  HZ I        2233 25.87         3.4 0.14            131            150 257 
 SPBC HZ EP       2233  5.82                             128   -0.08 9  167 218 
 SPBC HE ES       2233 28.79                             128    0.36 9  167 218 
 SPBC HZ I        2233 34.06         5.9 0.36            128            167 218 
 ZAR  HZ EP       2233  9.31                             122   -0.11 9  204 291 
 ZAR  HN ES       2233 35.15                             122    0.44 9  204 291 
 ZAR  HZ I        2233 40.57         5.5 0.32            123            204 291 
                                                                                
