 2014  422 2022 19.0 L   6.701 -73.118142.2  RSN  5 0.4 1.5LRSN                1
 GAP=144        1.04       4.8     5.2  9.2 -0.6541E+01  0.4297E+01  0.2641E+01E
 Epicentro: JORDAN - SANTANDER                                                 3
 ACTION:UPD 14-05-13 23:10 OP:nd   STATUS:               ID:20140422202219 L   I
 OLDACT:REG 14-04-23 04:54 OP:stll STATUS:               ID:20140422201815     3
 2014-04-22-2018-15M.COL___242                                                 6
 STAT SP IPHASW D HRMM SECON CODA AMPLIT PERI AZIMU VELO AIN AR TRES W  DIS CAZ7
 BRR  HZ EP       2022 40.18                             149   -0.0610 79.5 304 
 BRR  HZ I        2022 56.65        10.3 0.38            143           79.5 304 
 BRR  HN ES       2022 57.16                             149    0.3310 79.5 304 
 PAM  SZ EP       2022 41.25                             148   -0.0110 84.5  33 
 PAM  SN ES       2022 58.34                             148   -0.3010 84.5  33 
 PAM  SZ I        2023  0.02         6.4 0.52            143           84.5  33 
 RUS  HZ EP       2022 42.39                             146    0.8010 89.4 177 
 RUS  HE ES       2022 59.08                             146   -0.1510 89.4 177 
 RUS  HZ I        2023  3.19         2.8 0.44            143           89.4 177 
 PTB  HZ EP       2022 45.22                             131   -0.55 9  149 263 
 PTB  HE ES       2023  6.97                             131    0.30 9  149 263 
 PTB  HZ I        2023  9.36         4.7 0.30            125            149 263 
 SPBC HN ES       2023  7.71                             129   -0.43 9  157 222 
 SPBC HZ I        2023 11.81         4.6 0.10            124            157 222 
                                                                                
