 2015  422 2234  6.6 L   6.306 -73.633105.8  RSN  9 0.5 1.9LRSN                1
 GAP=156        1.32       4.8     4.9  9.2 -0.1260E+02  0.1722E+02 -0.4265E+01E
 Epicentro: SANTA HELENA DEL OPON - SANTANDER                                  3
 ACTION:UPD 15-06-03 16:56 OP:cam  STATUS:               ID:20150422223406 L   I
 OLDACT:REG 15-04-23 05:13 OP:carl STATUS:               ID:20150422222748     3
 2015-04-22-2227-48M.COL___280                                                 6
 STAT SP IPHASW D HRMM SECON CODA AMPLIT PERI AZIMU VELO AIN AR TRES W  DIS CAZ7
 BAR2 EZ EP       2234 23.45                             149    0.3310 59.0  58 
 BAR2 EZ ES       2234 36.73                             149    0.7310 59.0  58 
 BAR2 EZ I        2234 37.96        56.0 0.30            150           59.0  58 
 SPBC HZ EP       2234 24.25                             137   -0.7410 87.2 214 
 SPBC HN ES       2234 38.46                             137   -0.8610 87.2 214 
 SPBC HZ I        2234 40.56        16.4 0.32            139           87.2 214 
 BRR  HZ EP       2234 24.73                             137   -0.2810 89.0 354 
 BRR  HN ES       2234 39.54                             137    0.1810 89.0 354 
 PTB  HZ EP   4   2234 24.17                             135   -1.35 0 94.7 286 
 PTB  HN ES   4   2234 38.38                             135   -1.89 0 94.7 286 
 PTB  HZ I        2234 40.61        13.9 0.46            136           94.7 286 
 PAM  SZ EP       2234 31.97                             120    0.05 9  154  42 
 PAM  SN ES       2234 51.49                             120   -0.18 9  154  42 
 PAM  SZ I        2234 53.29         5.3 0.20            122            154  42 
 NOR  HZ EP       2234 31.62                             119   -0.35 9  160 239 
 NOR  HN ES       2234 51.82                             119    0.07 9  160 239 
 NOR  HZ I        2234 52.83        10.5 0.16            120            160 239 
 ZAR  HZ EP       2234 34.68                             114   -0.38 9  189 314 
 ZAR  HN ES       2234 56.74                             114   -0.52 9  189 314 
 ZAR  HZ I        2235  0.35        15.5 0.44            115            189 314 
 HEL  HZ EP       2234 38.17                             111    0.21 8  210 267 
 HEL  HN ES       2235  2.85                             111    0.43 8  210 267 
 HEL  HZ I        2235  4.38         8.5 0.42            113            210 267 
 GUY2CHZ EP       2234 40.67                             110    0.75 8  226 238 
 GUY2CHN ES       2235  6.97                             110    1.07 8  226 238 
 GUY2CHZ I        2235 12.15         6.9 0.72                           226 238 
                                                                                
