 2015  222 2047 26.5 L   6.775 -73.087140.3  RSN  5 0.2 1.5LRSN                1
 GAP=145        0.60       2.6     4.5  4.7 -0.1981E+01 -0.3878E+00  0.2613E+01E
 Epicentro: LOS SANTOS - SANTANDER                                             3
 ACTION:UPD 15-04-30 21:28 OP:nd   STATUS:               ID:20150222204726 L   I
 OLDACT:DUP 15-02-23 06:32 OP:stll STATUS:               ID:20150222203750d    3
 OLDACT:REG 15-02-23 03:09 OP:stll STATUS:               ID:20150222203749     3
 2015-02-22-2037-49M.COL___281                                                 6
 STAT SP IPHASW D HRMM SECON CODA AMPLIT PERI AZIMU VELO AIN AR TRES W  DIS CAZ7
 BAR2 EZ EP       2047 45.26                             170   -0.2010 22.8 208 
 BAR2 EZ I        2047 45.74         6.3 0.10            170           22.8 208 
 BAR2 EZ ES       2048  0.32                             170    0.0710 22.8 208 
 PAM  SZ EP       2047 48.40                             150    0.3710 75.6  34 
 PAM  SZ I        2047 48.51        13.0 0.20            151           75.6  34 
 PAM  SN ES       2048  4.52                             150   -0.3010 75.6  34 
 BRR  HZ EP       2047 47.55                             149    0.0610 78.2 298 
 BRR  HN ES       2048  3.84                             149   -0.0110 78.2 298 
 RUS  HZ EP       2047 49.41                             143   -0.0910 97.6 180 
 RUS  HN ES       2048  7.70                             143    0.2610 97.6 180 
 RUS  HZ I        2048  9.44         3.1 0.30            143           97.6 180 
 CHI  HN ES       2048 32.66                             116   -0.25 8  248 197 
                                                                                
