 2015  822 2348 22.8 L   6.841 -73.129145.6  RSN  6 0.4 1.7LRSN                1
 GAP=137        1.10       4.2     6.7  8.7  0.4324E+01  0.2439E+02 -0.7382E+01E
 Epicentro: LOS SANTOS - SANTANDER                                             3
 ACTION:UPD 15-09-15 23:04 OP:cam  STATUS:               ID:20150822234822 L   I
 OLDACT:UP  15-08-23 05:59 OP:mh   STATUS:               ID:20150822233749d    3
 OLDACT:DUP 15-08-23 05:59 OP:mh   STATUS:               ID:20150822233749d    3
 2015-08-22-2337-47M.COL___343                                                 6
 STAT SP IPHASW D HRMM SECON CODA AMPLIT PERI AZIMU VELO AIN AR TRES W  DIS CAZ7
 BAR2 EZ ES       2348 57.59                             169   -0.2810 28.1 192 
 BAR2 EZ I        2349  0.57         6.8 0.50            169           28.1 192 
 PAM  EZ EP       2348 45.12                             152    0.4110 72.7  41 
 PAM  EN ES       2349  2.45                             152    0.6410 72.7  41 
 PAM  EZ I        2349  4.63         9.4 0.54            156           72.7  41 
 RUS  HZ EP       2348 46.45                             142   -0.3910  105 177 
 RUS  HN ES       2349  5.54                             142   -0.0710  105 177 
 RUS  HZ I        2349  6.27         4.0 0.32            146            105 177 
 OCA  HN ES       2349 11.66                             130   -0.78 9  156 352 
 SPBC HZ EP   4   2348 51.50                             128   -0.22 0  168 218 
 ZAR  HZ EP       2348 55.71                             122    0.49 9  204 291 
 ZAR  HN ES       2349 20.90                             122    0.38 9  204 291 
 ZAR  HZ I        2349 26.05         9.3 0.32            124            204 291 
 SML  HZ EP       2348 58.76                             118   -0.28 8  240 334 
 SML  HN ES       2349 27.14                             118   -0.17 8  240 334 
 SML  HZ I        2349 29.77         7.1 0.30            120            240 334 
                                                                                
