 2012  822 2026 15.9 L   6.766 -73.118144.2  RSN  9 0.3 2.2LRSN                1
 GAP= 74        0.57       2.7     3.0  4.1 -0.2228E+01  0.8180E+00  0.2231E+01E
 Epicentro: LOS SANTOS - SANTANDER                                             3
 ACTION:UPD 12-09-10 11:57 OP:ep   STATUS:               ID:20120822202615 L   I
 2012-08-22-2020-00M.COL___217                                                 6
 STAT SP IPHASW D HRMM SECON CODA AMPLIT PERI AZIMU VELO AIN AR TRES W  DIS CAZ7
 BAR2 SZ EP       2026 35.20                             172   -0.1310 20.5 200 
 BAR2 SZ ES   1   2026 50.16                             172   -0.28 7 20.5 200 
 BAR2 SZ I        2026 53.33        60.5 0.35                          20.5 200 
 BRR  HZ EP       2026 37.45                             151    0.2710 75.7 300 
 BRR  HZ I        2026 37.66        30.5 0.09                          75.7 300 
 BRR  HE ES   1   2026 54.13                             151    0.39 7 75.7 300 
 PAM  SZ EP       2026 38.28                             150    0.2310 78.5  36 
 PAM  SE ES       2026 55.31                             150    0.0110 78.5  36 
 PAM  SZ I        2026 57.46        18.1 0.22                          78.5  36 
 RUS  HZ EP       2026 39.30                             145    0.0410 96.7 178 
 RUS  HZ I        2026 40.16        12.3 0.22                          96.7 178 
 RUS  HE ES   1   2026 57.36                             145   -0.08 7 96.7 178 
 PTB  HZ EP   1   2026 42.42                             131   -0.57 7  150 260 
 PTB  HN ES   1   2027  3.67                             131   -0.42 7  150 260 
 PTB  HZ I        2027 11.10        21.6 0.40                           150 260 
 TAM  HZ EP   1   2026 42.94                             131   -0.20 7  151 104 
 OCA  HZ EP   1   2026 44.22                             128   -0.30 7  164 352 
 NOR  SZ EP   1   2026 51.62                             118    0.00 6  235 236 
 NOR  SN ES   1   2027 19.73                             118    0.29 6  235 236 
 NOR  SZ I        2027 23.35        17.9 0.23                           235 236 
 CHI  HZ EP   1   2026 53.42                             117    0.17 6  246 196 
 CHI  HZ I        2026 56.19         6.7 0.45                           246 196 
 CHI  HN ES   1   2027 22.65                             117    0.30 6  246 196 
                                                                                
