 2013  722 2114  6.0 L   6.850 -73.315123.2  RSN  9 0.4 2.0LRSN                1
 GAP=125        0.97       3.7     5.4  5.5  0.9372E+01  0.1165E+02  0.4632E+01E
 Epicentro: ZAPATOCA - SANTANDER                                               3
 ACTION:UPD 13-08-12 10:39 OP:ep   STATUS:               ID:20130722211406 L   I
 OLDACT:REG 13-07-22 22:44 OP:nd   STATUS:               ID:20130722211000     3
 2013-07-22-2110-00M.COL___263                                                 6
 STAT SP IPHASW D HRMM SECON CODA AMPLIT PERI AZIMU VELO AIN AR TRES W  DIS CAZ7
 GIR2 SZ IP     D 2114 22.95                             166   -0.0210 28.6  28 
 GIR2 SZ ES       2114 35.69                             166   -0.4810 28.6  28 
 GIR2 SZ I        2114 37.34        29.0 0.28            164           28.6  28 
 BAR2 SZ EP       2114 23.37                             165    0.1510 32.1 153 
 BAR2 SZ ES       2114 36.94                             165    0.3210 32.1 153 
 BAR2 SZ I        2114 37.84        49.2 0.22            167           32.1 153 
 BRR  HZ EP     C 2114 23.65                             155   -0.0610 52.2 303 
 BRR  HN ES       2114 37.78                             155    0.2910 52.2 303 
 BRR  HZ I        2114 38.47        25.5 0.46            150           52.2 303 
 RUS  HZ EP       2114 28.45                             136    0.1010  109 166 
 RUS  HN ES       2114 45.66                             136   -0.0910  109 166 
 RUS  HZ I        2114 46.94        12.1 0.20            135            109 166 
 PTB  HZ EP     D 2114 28.67                             130   -0.9810  131 255 
 PTB  HN ES   2   2114 47.47                             130   -0.59 5  131 255 
 PTB  HZ I        2114 51.94        12.3 0.38            126            131 255 
 ZAR  HZ EP       2114 35.29                             120    0.24 9  185 293 
 ZAR  HE ES       2114 58.20                             120    0.54 9  185 293 
 ZAR  HZ I        2115  1.89        13.2 0.30            116            185 293 
 SML  HZ EP       2114 39.81                             114   -0.31 8  231 339 
 SML  HN ES   2   2115  7.08                             114    0.38 4  231 339 
 SML  HZ I        2115 13.34        26.4 0.24            110            231 339 
 CHI  HZ EP       2114 43.34                             112    0.60 8  250 191 
 CHI  HN ES       2115 11.35                             112   -0.01 8  250 191 
 CHI  HZ I        2115 17.49         4.4 0.50            110            250 191 
 SJC  HZ EP   4   2114 57.42                             102   -1.79 0  395 329 
 SJC  HN ES   4   2115 37.25                             102   -3.42 0  395 329 
 SJC  HZ I        2115 54.87         2.3 0.70            100            395 329 
                                                                                
