 2013  122 2233 11.0 L   6.770 -73.143146.0  RSN  8 0.4 1.8LRSN                1
 GAP=138        0.82       4.1     4.4  6.6 -0.8488E-01  0.5747E+01  0.3368E+01E
 Epicentro: LOS SANTOS - SANTANDER                                             3
 ACTION:UPD 13-02-15 09:16 OP:ep   STATUS:               ID:20130122223311 L   I
 2013-01-22-2230-00M.COL___241                                                 6
 STAT SP IPHASW D HRMM SECON CODA AMPLIT PERI AZIMU VELO AIN AR TRES W  DIS CAZ7
 BAR2 SZ EP   1   2233 30.23                             172   -0.33 7 20.1 193 
 BAR2 SZ ES   1   2233 45.58                             172   -0.27 7 20.1 193 
 BAR2 SZ I        2233 46.53        30.7 0.32            167           20.1 193 
 BRR  HZ EP   1   2233 32.63                             152    0.38 7 73.1 301 
 BRR  HE ES   1   2233 49.62                             152    0.77 7 73.1 301 
 BRR  HZ I        2233 49.77        13.5 0.34            150           73.1 301 
 PAM  SZ EP       2233 33.38                             150    0.0310 79.8  38 
 PAM  SN ES   1   2233 50.58                             150   -0.23 7 79.8  38 
 PAM  SZ I        2233 52.23        11.5 0.76            154           79.8  38 
 RUS  HZ EP   1   2233 34.37                             145   -0.13 7 97.2 176 
 RUS  HN ES   1   2233 53.07                             145    0.22 7 97.2 176 
 RUS  HZ I        2233 53.79         8.8 0.24            142           97.2 176 
 PTB  HZ EP   1   2233 37.13                             132   -0.79 7  147 260 
 PTB  HN ES   1   2233 58.34                             132   -0.61 7  147 260 
 PTB  HZ I        2234  1.45         8.7 0.16            129            147 260 
 ZAR  HZ EP   1   2233 44.14                             122    0.55 6  206 293 
 ZAR  HN ES   1   2234  8.99                             122   -0.04 6  206 293 
 ZAR  HZ I        2234 12.97         5.8 0.46            121            206 293 
 NOR  HN ES   2   2234 14.22                             119   -0.04 4  233 235 
 NOR  HZ I        2234 21.50         5.4 0.18            117            233 235 
 CHI  HZ EP   1   2233 48.38                             118    0.05 6  245 195 
 CHI  HE ES   1   2234 18.05                             118    0.57 6  245 195 
 CHI  HZ I        2234 25.99         1.9 0.44            116            245 195 
                                                                                
