 2015  322 2238 27.5 L   6.801 -73.128154.7  RSN 10 0.3 1.9LRSN                1
 GAP=139        0.75       2.6     3.3  5.1 -0.1731E+01  0.3408E+01  0.8392E+00E
 Epicentro: LOS SANTOS - SANTANDER                                             3
 ACTION:UPD 15-04-30 16:28 OP:nd   STATUS:               ID:20150322223827 L   I
 OLDACT:REG 15-03-23 02:17 OP:spq  STATUS:               ID:20150322222750     3
 2015-03-22-2227-50M.COL___287                                                 6
 STAT SP IPHASW D HRMM SECON CODA AMPLIT PERI AZIMU VELO AIN AR TRES W  DIS CAZ7
 BRR  HZ EP     C 2238 49.92                             153    0.1810 72.9 298 
 BRR  HN ES       2239  7.55                             153    0.4910 72.9 298 
 BRR  HZ I        2239 12.22         8.6 0.14            152           72.9 298 
 PAM  SZ EP       2238 50.84                             153    0.2210 76.0  38 
 PAM  SN ES       2239  8.46                             153   -0.1810 76.0  38 
 PAM  SZ I        2239  9.94         7.5 0.52            158           76.0  38 
 RUS  HZ EP       2238 52.39                             146    0.2310  101 177 
 RUS  HN ES   1   2239 11.08                             146   -0.30 7  101 177 
 RUS  HZ I        2239 13.00         4.6 0.54            149            101 177 
 PTB  HZ EP       2238 54.94                             134   -0.47 9  150 259 
 PTB  HN ES   1   2239 16.30                             134   -0.86 7  150 259 
 PTB  HZ I        2239 21.98         8.9 0.36            134            150 259 
 OCA  HZ EP   1   2238 56.28                             132   -0.28 7  160 352 
 OCA  HN ES       2239 18.87                             132   -0.33 9  160 352 
 OCA  HZ I        2239 23.92        15.8 0.40            135            160 352 
 SPBC HZ EP       2238 56.87                             131    0.02 9  165 220 
 SPBC HN ES       2239 20.02                             131    0.30 9  165 220 
 SPBC HZ I        2239 26.15        13.9 0.32            133            165 220 
 ZAR  HZ EP       2239  0.69                             124   -0.06 8  206 292 
 ZAR  HN ES       2239 26.99                             124    0.32 8  206 292 
 ZAR  HZ I        2239 32.55         6.9 0.52            126            206 292 
 NOR  HZ EP   1   2239  3.86                             120   -0.11 6  236 235 
 NOR  HE ES   1   2239 32.04                             120   -0.35 6  236 235 
 NOR  HZ I        2239 35.81         4.6 0.26            122            236 235 
 SML  HZ EP   1   2239  5.02                             119    0.27 6  244 335 
 SML  HN ES   1   2239 33.75                             119   -0.03 6  244 335 
 SML  HZ I        2239 35.96        11.4 0.10            122            244 335 
 HEL  HZ EP   4   2239 10.17                             116    1.75 0  274 256 
 HEL  HE ES   1   2239 40.59                             116    0.27 6  274 256 
 HEL  HZ I        2239 46.77         2.9 0.28            118            274 256 
                                                                                
