 2011  922 2323  7.6 L   6.769 -73.112146.9  RSN  7 0.2 1.8LRSN                1
 GAP=142        0.37       3.1     4.1  5.2  0.1885E+01  0.2043E+01 -0.2437E+01E
 Epicentro: LOS SANTOS - SANTANDER                                             3
 ACTION:UPD 12-07-13 15:59 OP:ep   STATUS:               ID:20110922232307 L   I
 2011-09-22-2321-12S.COL___165                                                 6
 STAT SP IPHASW D HRMM SECON CODA AMPLIT PERI AZIMU VELO AIN AR TRES W  DIS CAZ7
 BAR2 SZ EP   2   2323 27.03                             171   -0.30 5 21.0 202 
 BAR2 SZ ES   2   2323 42.86                             171    0.15 5 21.0 202 
 BAR2 SZ I        2323 44.28         8.7 0.31                          21.0 202 
 BTL  SZ EP   1   2323 27.69                             170    0.30 7 23.9 314 
 BRR  HZ EP   1   2323 29.05                             151   -0.12 7 76.2 299 
 BRR  HZ I        2323 29.56        19.7 0.02                          76.2 299 
 BRR  HE ES   2   2323 46.15                             151    0.17 5 76.2 299 
 PAM  SZ EP   2   2323 30.08                             151    0.11 5 77.8  36 
 PAM  SN ES   2   2323 47.11                             151   -0.30 5 77.8  36 
 RUS  HZ EP   2   2323 31.40                             145    0.19 5 96.9 178 
 RUS  HN ES   2   2323 49.39                             145   -0.23 5 96.9 178 
 RUS  HZ I        2323 50.28         3.3 0.39                          96.9 178 
 OCA  SZ EP   2   2323 36.22                             129   -0.16 5  164 352 
 OCA  SZ ES   2   2323 58.93                             129    0.12 5  164 352 
 OCA  SZ I        2324  0.21         8.0 0.23                           164 352 
 ZAR  HE ES   2   2324  6.14                             122   -0.23 4  209 293 
 ZAR  HZ I        2324 10.63        11.0 0.26                           209 293 
                                                                                
