 2010  822 2138 27.0 L   6.774 -73.025145.8  RSN 10 0.4 2.1LRSN                1
 GAP=173        0.72       3.1     6.3  5.6 -0.7709E+01  0.1450E+01 -0.3422E+00E
 Epicentro: CEPITA - SANTANDER                                                 3
 ACTION:UP  10-09-07 10:57 OP:vdl  STATUS:               ID:20100822213827 L   I
 2010-08-22-2135-33S.COL___119                                                 6
 STAT SP IPHASW D HRMM SECON CODA AMPLIT PERI AZIMU VELO SNR AR TRES W  DIS CAZ7
 BAR2 SZ IP     D 2138 46.78                             169     0.010   27 221 
 BAR2 SZ ES   1   2139  1.96                             169    -0.1 7   27 221 
 BAR2 SZ I        2139  3.25        34.9 0.16                            27 221 
 GIR2 SZ EP   2   2138 46.75                             165    -0.2 5   39 331 
 BRR  HZ IP     C 2138 48.65                             148    -0.310   84 296 
 BRR  HZ I        2138 48.87        37.1 0.11                            84 296 
 BRR  HN ES   1   2139  5.92                             148    -0.2 7   84 296 
 RUS  HZ EP       2138 50.69                             145     0.110   98 184 
 RUS  HN ES   1   2139  9.13                             145     0.2 7   98 184 
 RUS  HZ I        2139 10.58        14.8 0.27                            98 184 
 GUE  SZ EP       2138 51.75                             139    -0.110  117   5 
 GRA  SZ EP   1   2138 52.51                             137     0.3 7  125  11 
 GRA  SZ ES   1   2139 12.32                             137     0.4 7  125  11 
 GRA  SZ I        2139 18.38         6.5 0.17                           125  11 
 OCA  SZ EP       2138 55.75                             129    -0.1 9  165 349 
 OCA  SZ I        2139 23.85         9.8 0.66                           165 349 
 CHI  HZ EP   2   2139  4.37                             117    -0.5 4  250 198 
 CHI  HE ES   2   2139 33.39                             117    -1.0 4  250 198 
 CHI  HZ I        2139 42.32         4.4 0.35                           250 198 
 RREF HZ EP   2   2139 14.76                             110     0.6 3  330 231 
 RREF HN ES   1   2139 51.80                             110     0.9 5  330 231 
 RREF HZ I        2139 57.86         8.0 0.25                           330 231 
 PRA  HZ EP   2   2139 21.02                             106     0.0 3  396 211 
 PRA  HN ES   1   2140  3.03                             106    -0.2 4  396 211 
 PRA  HZ I        2140  6.50         6.2 0.50                           396 211 
                                                                                
