 2011  922 2328 20.6 L   6.816 -73.057132.0  RSN  4 0.2 1.5LRSN                1
 GAP=246        0.38       8.7    15.3  8.1  0.1101E+03 -0.6530E+02 -0.3348E+02E
 Epicentro: LOS SANTOS - SANTANDER                                             3
 ACTION:UPD 12-07-13 15:59 OP:ep   STATUS:               ID:20110922232820 L   I
 2011-09-22-2320-00M.COL___167                                                 6
 STAT SP IPHASW D HRMM SECON CODA AMPLIT PERI AZIMU VELO AIN AR TRES W  DIS CAZ7
 BTL  SZ EP   2   2328 39.06                             168    0.40 5 25.9 296 
 BAR2 SZ EP   2   2328 38.48                             167   -0.24 5 28.4 209 
 BAR2 SZ ES   2   2328 52.68                             167   -0.16 5 28.4 209 
 BAR2 SZ I        2328 56.10         7.2 0.32                          28.4 209 
 BRR  HZ EP   2   2328 40.63                             147   -0.17 5 79.2 294 
 BRR  HZ I        2328 43.17        11.9 0.28                          79.2 294 
 BRR  HE ES   2   2328 56.63                             147    0.08 5 79.2 294 
 RUS  HZ EP   2   2328 43.13                             140   -0.04 5  102 182 
 RUS  HZ I        2328 43.78         3.0 0.12                           102 182 
 RUS  HN ES   2   2329  0.89                             140    0.13 5  102 182 
                                                                                
