 2012 1222 2024 21.3 L   6.833 -73.130150.6  RSN 24 0.6 3.4LRSN 3.5WRSN        1
 SPEC AVERAGE  MO 14.4 ST 11.5 OM  3.1 f0 3.00 R0.5178 AL 1.98 WI  8.6 MW  3.5 3
 SPEC SD       MO  0.2 ST  6.4 OM  0.6 f00.719 R0.1206 AL      WI      MW  0.1 3
 GAP= 71        1.30       2.6     3.5  5.5 -0.5179E+00  0.3014E+01  0.1247E+00E
 Epicentro: LOS SANTOS - SANTANDER                                             3
 SPEC ROSCBH Z MO 14.5 ST  3.9 OM  2.6 f0 2.13 R0.6901 AL 2.66 WI 11.5 MW  3.6 3
 SPEC ROSCBH Z T202529 K 0.000 GD  297 VS 4.20 DE 3.20 Q0300.0 QA 0.60 VS 4.20 3
 SPEC TAM HH N MO 14.0 ST  1.8 OM  2.3 f0 2.29 R0.6419 AL 1.99 WI  5.2 MW  3.3 3
 SPEC TAM HH N T202511 K 0.000 GD  215 VS 4.20 DE 3.20 Q0300.0 QA 0.60 VS 4.20 3
 SPEC OCA HH N MO 14.5 ST 18.7 OM  2.8 f0 3.41 R0.4311 AL 1.24 WI  6.2 MW  3.6 3
 SPEC OCA HH N T202511 K 0.000 GD  217 VS 4.20 DE 3.20 Q0300.0 QA 0.60 VS 4.20 3
 SPEC HEL HH N MO 14.2 ST 16.2 OM  2.3 f0 4.22 R0.3483 AL 1.89 WI  9.6 MW  3.4 3
 SPEC HEL HH N T202534 K 0.000 GD  313 VS 4.20 DE 3.20 Q0300.0 QA 0.60 VS 4.20 3
 SPEC CHI HH N MO 14.7 ST 12.3 OM  2.8 f0 2.68 R0.5485 AL 2.43 WI 13.1 MW  3.7 3
 SPEC CHI HH N T202528 K 0.000 GD  294 VS 4.20 DE 3.20 Q0300.0 QA 0.60 VS 4.20 3
 SPEC BRR HH N MO 14.5 ST 16.2 OM  2.9 f0 3.29 R0.4468 AL 1.66 WI  5.7 MW  3.6 3
 SPEC BRR HH N T2025 1 K 0.000 GD  166 VS 4.20 DE 3.20 Q0300.0 QA 0.60 VS 4.20 3
 ACTION:UPD 13-01-04 14:29 OP:ep   STATUS:               ID:20121222202421 L   I
 2012-12-22-2020-00M.COL___238                                                 6
 STAT SP IPHASW D HRMM SECON CODA AMPLIT PERI AZIMU VELO AIN AR TRES W  DIS CAZ7
 BAR2 SZ IP       2024 41.64                             169    0.0810 27.2 192 
 BAR2 SZ ES       2024 56.79                             169   -0.5910 27.2 192 
 BAR2 SZ I        2024 58.50       720.7 0.40                          27.2 192 
 BRR  HZ IP     C 2024 43.53                             153    0.6010 71.1 295 
 BRR  HZ I        2024 43.83       388.8 0.26                          71.1 295 
 BRR  HN ES       2025  1.08                             153    1.2510 71.1 295 
 RUS  HZ EP       2024 45.51                             144   -0.2310  104 177 
 RUS  HN ES       2025  4.28                             144   -0.5510  104 177 
 PTB  HZ EP       2024 48.10                             133   -0.75 9  150 258 
 PTB  HE ES       2025 10.59                             133    0.23 9  150 258 
 TAM  HZ IP     D 2024 49.81                             132    0.54 9  154 106 
 TAM  HZ I        2024 49.94       135.6 0.34                           154 106 
 TAM  HN ES       2025 11.41                             132    0.31 9  154 106 
 OCA  HZ EP       2024 49.80                             131    0.16 9  157 352 
 OCA  HN ES       2025 11.54                             131   -0.24 9  157 352 
 ZAR  HZ EP       2024 54.01                             123   -0.05 9  204 291 
 ZAR  HE ES       2025 19.41                             123   -0.22 9  204 291 
 CTAB SZ EP       2024 58.75                             120    1.02 8  234 211 
 CTAB SZ I        2025 31.80       221.3 0.42                           234 211 
 NOR  HZ EP       2024 57.23                             119   -0.42 8  238 234 
 NOR  HE ES       2025 25.97                             119   -0.07 8  238 234 
 SML  HZ EP       2024 58.06                             119    0.17 8  241 335 
 SML  HE ES       2025 26.57                             119    0.11 8  241 335 
 CHI  HZ EP       2024 59.56                             118   -0.10 8  253 195 
 CHI  HN ES       2025 28.36                             118   -1.25 8  253 195 
 ROSC BZ EP       2025  1.08                             117    0.99 8  257 211 
 ROSC BN ES       2025 30.31                             117   -0.05 8  257 211 
 ROSC BZ I        2025 38.93       223.5 0.40                           257 211 
 HEL  HZ EP       2025  2.39                             115    0.38 8  275 255 
 HEL  HN ES       2025 33.81                             115    0.02 8  275 255 
 VIL  SZ EP       2025  4.96                             113   -0.39 7  307 192 
 VIL  SE ES       2025 39.17                             113   -0.56 7  307 192 
 RREF HZ EP       2025  8.48                             111    0.44 7  325 229 
 RREF HE ES       2025 44.62                             111    0.10 7  325 229 
 RREF HZ I        2025 53.82       141.8 0.42                           325 229 
 COD  HZ EP       2025  9.26                             110   -0.18 7  345 354 
 COD  HE ES       2025 46.82                             110   -0.20 7  345 354 
 TOL  SZ EP       2025 11.11                             110    0.96 6  347 224 
 TOL  SZ ES       2025 48.78                             110    0.49 6  347 224 
 MON  HE ES       2025 48.32                             109   -0.33 6  353 308 
 SDV  BZ EP       2025 10.20                             109   -0.87 6  357  50 
 ANIL HZ EP       2025 12.79                             109    1.09 6  361 224 
 ANIL HE ES       2025 50.88                             109   -0.15 6  361 224 
 SJC  HN EP       2025 15.30                             107   -1.45 6  407 326 
 SJC  HE ES       2025 59.43                             107   -0.59 6  407 326 
 VALL EZ EP   9   2025 10.51                             107   -6.15 0  407 358 
 VALL EE ES       2025 53.21                                   -0.51 6  407 358 
 PAL  HZ EP       2025 17.27                             106    0.29 6  409 239 
 PAL  HN ES       2025 58.79                             106   -1.65 6  409 239 
 SMAR HZ EP       2025 26.32                             103   -0.58 4  494 346 
                                                                                
