 2012 1022 2248 32.3 L   6.156 -73.733105.1  RSN  8 0.2 2.2LRSN                1
 GAP=109        0.47       2.4     3.6  6.6  0.1151E+01  0.1530E+02 -0.1635E+01E
 Epicentro: LANDAZURI - SANTANDER                                              3
 ACTION:UPD 12-11-22 17:05 OP:ep   STATUS:               ID:20121022224832 L   I
 2012-10-22-2246-47M.COL___206                                                 6
 STAT SP IPHASW D HRMM SECON CODA AMPLIT PERI AZIMU VELO AIN AR TRES W  DIS CAZ7
 RUS  HZ EP   1   2248 50.37                             141   -0.07 7 77.6 112 
 RUS  HE ES   1   2249  4.43                             141   -0.14 7 77.6 112 
 RUS  HE I        2249  6.18        33.7 0.22                          77.6 112 
 BAR2 SZ EP   1   2248 50.26                             141    0.17 7 77.7  52 
 BAR2 SZ I        2248 50.52        69.7 0.15                          77.7  52 
 BAR2 SZ ES   1   2249  3.91                             141   -0.04 7 77.7  52 
 BRR  HZ EP   9   2248 51.88                             131   -0.22 0  105   1 
 BRR  HZ I        2249  4.90        32.0 0.14                           105   1 
 BRR  HE ES   9   2249 10.22                                    2.92 0  105   1 
 GIR2 SZ EP   1   2248 53.72                             128    0.20 7  118  30 
 CHI  HN ES   1   2249 20.10                             117    0.12 7  169 180 
 CHI  HZ I        2249 23.92        14.8 0.52                           169 180 
 PAM  SZ EP   1   2248 59.77                             116    0.03 7  174  41 
 ZAR  HZ EP   1   2249  0.65                             113   -0.62 7  193 320 
 ZAR  HZ I        2249  1.83        27.2 0.26                           193 320 
 ZAR  HN ES   1   2249 24.07                             113    0.23 7  193 320 
 DBB  SZ EP   1   2249 12.69                             104    0.10 5  290 289 
 DBB  SZ I        2249 45.41         6.9 0.26                           290 289 
                                                                                
