 2010  522 2239  6.7 L   6.807 -73.145136.8  RSN  6 0.5 1.9LRSN                1
 GAP=169        0.80       7.3    11.1 10.1 -0.5503E+02  0.3997E+02 -0.2549E+01E
 Epicentro: LOS SANTOS - SANTANDER                                             3
 ACTION:UP  10-08-24 10:06 OP:vdl  STATUS:               ID:20100522223906 L   I
 2010-05-22-2235-14S.COL___111                                                 6
 STAT SP IPHASW D HRMM SECON CODA AMPLIT PERI AZIMU VELO SNR AR TRES W  DIS CAZ7
 BAR2 SZ IP     D 2239 25.14                             169    -0.110   24 190 
 BAR2 SZ ES   2   2239 39.64                             169    -0.1 5   24 190 
 BRI  SZ EP   1   2239 30.20                             140     0.5 7  108  21 
 BRI  SZ ES   2   2239 48.14                             140     0.5 5  108  21 
 GUE  SZ EP   1   2239 29.74                             138    -0.8 7  116  12 
 GUE  SZ ES   2   2239 48.94                             138    -0.2 5  116  12 
 GRA  SZ EP   1   2239 30.91                             135    -0.2 7  125  18 
 GRA  SZ ES   2   2239 50.63                             135     0.5 5  125  18 
 HEL  HZ EP   1   2239 47.10                             113     0.6 6  272 256 
 HEL  HN ES   2   2240 17.10                             113    -0.4 4  272 256 
 HEL  HZ I        2240 24.18         5.0 0.53                           272 256 
 PRA  HZ EP   1   2239 59.73                             105    -0.3 4  393 210 
 PRA  HN ES   2   2240 42.42                             105     0.9 3  393 210 
 PRA  HZ I        2240 48.16         1.9 0.51                           393 210 
                                                                                
