 2013 1022 2128  1.4 L   6.806 -73.142146.0  RSN 13 0.5 2.6LRSN                1
 GAP= 71        0.99       3.3     2.9  5.5 -0.8355E+00  0.2546E+01  0.3315E+01E
 Epicentro: LOS SANTOS - SANTANDER                                             3
 ACTION:UPD 13-11-25 09:23 OP:ep   STATUS:               ID:20131022212801 L   I
 OLDACT:UP  13-10-23 00:09 OP:mh   STATUS:               ID:20131022212644     3
 OLDACT:REG 13-10-22 23:59 OP:mh   STATUS:               ID:20131022212644     3
 2013-10-22-2126-44M.COL___230                                                 6
 STAT SP IPHASW D HRMM SECON CODA AMPLIT PERI AZIMU VELO AIN AR TRES W  DIS CAZ7
 BAR2 SZ EP       2128 21.08                             170    0.0310 24.0 191 
 BAR2 SZ ES   1   2128 36.00                             170   -0.39 7 24.0 191 
 BAR2 SZ I        2128 37.45       134.0 0.27            169           24.0 191 
 BRR  HZ EP   1   2128 22.87                             153    0.32 7 71.3 298 
 BRR  HN ES       2128 39.84                             153    0.7710 71.3 298 
 BRR  HZ I        2128 42.53        53.5 0.26            151           71.3 298 
 PAM  SZ EP       2128 24.01                             151    0.4410 76.6  40 
 PAM  SN ES       2128 41.08                             151    0.2010 76.6  40 
 PAM  SZ I        2128 41.93        46.6 0.25            155           76.6  40 
 RUS  HZ EP   1   2128 25.01                             144   -0.18 7  101 176 
 RUS  HN ES   1   2128 43.56                             144   -0.20 7  101 176 
 RUS  HZ I        2128 44.84        30.2 0.23            145            101 176 
 PTB  HZ EP       2128 27.67                             132   -0.74 9  148 259 
 PTB  HN ES       2128 48.63                             132   -0.87 9  148 259 
 PTB  HZ I        2128 55.66        38.6 0.28            131            148 259 
 TAM  HZ EP       2128 29.41                             131    0.36 9  155 105 
 TAM  HE ES       2128 50.08                             131   -0.55 9  155 105 
 SPBC HZ EP   1   2128 29.99                             129    0.03 7  164 219 
 SPBC HN ES       2128 52.36                             129    0.10 9  164 219 
 ZAR  HZ EP   1   2128 34.29                             122    0.44 6  204 292 
 ZAR  HN ES       2128 58.91                             122   -0.27 9  204 292 
 ZAR  HZ I        2129  4.30        41.2 0.15            123            204 292 
 NOR  HZ EP   1   2128 37.22                             118    0.03 6  235 234 
 NOR  HN ES       2129  5.59                             118    0.46 8  235 234 
 NOR  HZ I        2129 10.59        28.6 0.27            119            235 234 
 SML  HZ EP       2128 37.53                             117   -0.45 8  243 335 
 SML  HN ES   2   2129  5.60                             117   -0.92 4  243 335 
 SML  HZ I        2129  8.21        35.2 0.08            119            243 335 
 CHI  HZ EP       2128 39.27                             117    0.11 8  249 195 
 CHI  HN ES   1   2129  8.85                             117    0.21 6  249 195 
 CHI  HZ I        2129 13.95        30.3 0.37            118            249 195 
 HEL  HZ EP   1   2128 42.65                             115    0.99 6  273 256 
 HEL  HN ES   1   2129 13.09                             115    0.00 6  273 256 
 HEL  HZ I        2129 19.52        24.7 0.38            115            273 256 
 PRA  HZ EP       2128 54.85                             106   -0.14 6  393 210 
 PRA  HN ES       2129 36.81                             106   -0.00 6  393 210 
                                                                                
