 2010  423 0211 24.5 L   6.798 -72.938145.0  RSN  5 0.2 1.9LRSN                1
 GAP=212        0.44       4.4     7.7  5.7 -0.1790E+02 -0.1751E+02  0.6519E+01E
 Epicentro: CEPITA - SANTANDER                                                 3
 ACTION:UPD 10-08-24 10:00 OP:vdl  STATUS:               ID:20100423021133 L   I
 2010-04-23-0207-14S.COL___104                                                 6
 STAT SP IPHASW D HRMM SECON CODA AMPLIT PERI AZIMU VELO AIN AR TRES W  DIS CAZ7
 BAR2 SZ ES   2    211 59.68                             165    -0.1 5   35 230 
 BRR  HZ IP     C  211 47.11                             145     0.210   92 292 
 BRR  HZ I         211 47.56        12.9 0.13                            92 292 
 BRR  HN ES   1    212  4.21                             145    -0.1 7   92 292 
 GUE  SZ EP   1    211 48.81                             140    -0.1 7  114   1 
 GUE  SZ ES   2    212  8.27                             140     0.3 5  114   1 
 OCA  SZ EP   1    211 53.10                             128    -0.1 7  165 345 
 OCA  SZ ES   2    212 15.18                             128    -0.4 5  165 345 
 OCA  SZ I         212 17.96        14.4 0.44                           165 345 
 PRA  HZ EP   2    212 19.18                             106    -0.2 3  404 212 
 PRA  HN ES   2    213  1.82                             106    -0.3 3  404 212 
 PRA  HZ I         213  8.01         1.9 0.24                           404 212 
                                                                                
