 2012  423 0912 40.0 L   6.796 -73.376121.0  RSN  5 0.4 1.4LRSN                1
 GAP=184        0.98       9.1     8.4 11.0  0.5020E+02  0.3345E+02  0.2383E+02E
 Epicentro: ZAPATOCA - SANTANDER                                               3
 ACTION:UPD 12-07-05 11:55 OP:tino STATUS:               ID:20120423091240 L   I
 2012-04-23-0910-00M.COL___186                                                 6
 STAT SP IPHASW D HRMM SECON CODA AMPLIT PERI AZIMU VELO AIN AR TRES W  DIS CAZ7
 BAR2 SZ ES   1    913  9.60                             165    -0.5 7   31 136 
 BAR2 SZ I         913 11.23        13.1 0.12                            31 136 
 BRR  HZ EP   1    912 57.17                             156    -0.2 7   51 313 
 BRR  HN ES   1    913 11.07                             156     0.2 7   51 313 
 BRR  HZ I         913 12.01         5.8 0.11                            51 313 
 RUS  HZ EP   1    913  1.94                             137     0.1 7  105 162 
 RUS  HE ES   1    913 19.32                             137     0.5 7  105 162 
 PTB  HZ EP   1    913  2.16                             131    -0.5 7  123 257 
 PTB  HN ES   1    913 20.12                             131    -0.3 7  123 257 
 PTB  HZ I         913 23.59         4.3 0.48                           123 257 
 ZAR  HN ES   1    913 31.34                             120     0.7 7  181 295 
 ZAR  HZ I         913 34.07         1.5 0.38                           181 295 
                                                                                
