 2010  523 0426 29.7 L   6.822 -73.246127.7  RSN  9 0.5 2.2LRSN                1
 GAP=138        0.97       5.6     9.8 11.4 -0.3189E+02  0.5162E+02 -0.2198E+01E
 Epicentro: ZAPATOCA - SANTANDER                                               3
 ACTION:UP  10-08-24 10:06 OP:vdl  STATUS:               ID:20100523042629 L   I
 2010-05-23-0424-55S.COL___111                                                 6
 STAT SP IPHASW D HRMM SECON CODA AMPLIT PERI AZIMU VELO SNR AR TRES W  DIS CAZ7
 BAR2 SZ EP   1    426 47.29                             168     0.0 8   26 165 
 BAR2 SZ ES   2    427  0.49                             168    -0.5 5   26 165 
 BRI  SZ IP        426 52.86                             137     0.710  111  27 
 BRI  SZ ES   2    427 10.51                             137     0.9 5  111  27 
 GUE  SZ EP        426 52.11                             135    -0.810  117  18 
 GRA  SZ IP        426 53.12                             132    -0.510  127  23 
 GRA  SZ ES   1    427 12.41                             132     0.3 7  127  23 
 OCA  SZ EP   1    426 56.27                             126    -0.1 7  157 357 
 OCA  SZ ES   2    427 17.42                             126     0.3 5  157 357 
 OCA  SZ I         427 20.87        23.9 0.35                           157 357 
 CHI  HZ EP   2    427  6.44                             113     0.0 4  248 193 
 CHI  HE ES   2    427 35.08                             113     0.0 4  248 193 
 CHI  HZ I         427 42.58         5.0 0.32                           248 193 
 RREF BZ EP   1    427 15.01                             108     0.6 5  315 228 
 RREF BE ES   2    427 49.52                             108     0.3 4  315 228 
 RREF BZ I         428  1.40         8.0 0.40                           315 228 
 DBB  SZ EP   1    427 15.58                             107     0.3 5  328 274 
 DBB  SZ ES   2    427 50.23                             107    -0.5 3  328 274 
 PRA  HZ EP   1    427 22.37                             103     0.1 4  389 208 
 PRA  HE ES   2    428  3.28                             103     0.0 3  389 208 
 PRA  HZ I         428  9.70         7.3 0.35                           389 208 
                                                                                
