 2012 1123 0836 34.4 L   6.752 -73.176140.0  RSN  6 0.3 1.2LRSN                1
 GAP=135        0.56       3.6     3.5  6.2 -0.6695E+00  0.5999E+01  0.2774E+01E
 Epicentro: VILLANUEVA - SANTANDER                                             3
 ACTION:UPD 12-12-05 15:35 OP:}ep  STATUS:               ID:20121123083634 L   I
 2012-11-23-0830-00M.COL___233                                                 6
 STAT SP IPHASW D HRMM SECON CODA AMPLIT PERI AZIMU VELO AIN AR TRES W  DIS CAZ7
 BAR2 SZ EP   1    836 53.29                             172    0.03 7 17.7 182 
 BAR2 SZ ES   1    837  8.10                             172    0.15 7 17.7 182 
 BAR2 SZ I         837 10.04         6.9 0.40                          17.7 182 
 PAM  SZ EP   1    836 56.17                             148   -0.26 7 83.6  39 
 PAM  SN ES   1    837 13.66                             148    0.07 7 83.6  39 
 PAM  SZ I         837 15.56         4.4 0.58                          83.6  39 
 RUS  HZ EP   1    836 57.15                             144   -0.10 7 95.6 174 
 RUS  HN ES   4    837 16.61                             144    1.55 0 95.6 174 
 RUS  HZ I         837 17.10         0.9 0.39                          95.6 174 
 PTB  HN ES   1    837 20.35                             132   -0.56 7  144 261 
 PTB  HZ I         837 28.59         3.2 0.40                           144 261 
 ZAR  HZ EP   1    837  6.52                             121    0.12 6  203 294 
 ZAR  HN ES   1    837 31.78                             121    0.44 6  203 294 
 ZAR  HZ I         837 37.91         1.7 0.36                           203 294 
 CHI  HN ES   1    837 40.12                             117    0.31 6  243 195 
                                                                                
