 2013  223 0115  4.4 L   6.827 -73.168148.5  RSN  7 0.4 1.7LRSN                1
 GAP=141        0.81       5.2     4.9  7.1 -0.5569E+00  0.7697E+01  0.8817E+01E
 Epicentro: LOS SANTOS - SANTANDER                                             3
 ACTION:UPD 13-03-12 09:35 OP:ep   STATUS:               ID:20130223011504 L   I
 2013-02-23-0110-00M.COL___225                                                 6
 STAT SP IPHASW D HRMM SECON CODA AMPLIT PERI AZIMU VELO AIN AR TRES W  DIS CAZ7
 BAR2 SZ EP   1    115 24.17                             170   -0.22 7 26.1 184 
 BAR2 SZ ES   1    115 39.76                             170   -0.24 7 26.1 184 
 BAR2 SZ I         115 40.66        13.3 0.12            165           26.1 184 
 BRR  HZ EP        115 26.09                             154    0.4710 67.6 297 
 BRR  HN ES   1    115 42.70                             154    0.50 7 67.6 297 
 BRR  HZ I         115 43.35        10.6 0.10            150           67.6 297 
 PAM  SZ EP   1    115 27.08                             151    0.24 7 76.7  42 
 PAM  SN ES   1    115 43.99                             151   -0.37 7 76.7  42 
 PAM  SZ I         115 45.66         4.6 0.18            154           76.7  42 
 PTB  HZ EP   1    115 30.79                             133   -0.62 7  146 257 
 PTB  HN ES   1    115 51.99                             133   -0.50 7  146 257 
 PTB  HZ I         115 54.30         9.8 0.12            129            146 257 
 ZAR  HN ES   1    116  2.07                             123    0.24 6  201 292 
 ZAR  HZ I         116  8.39         9.7 0.42            120            201 292 
 CHI  HZ EP   1    115 42.51                             117    0.04 6  251 194 
 CHI  HN ES   1    116 12.71                             117    0.52 6  251 194 
 CHI  HZ I         116 22.67         1.8 0.44            115            251 194 
 URE  HZ EP   1    115 44.69                             114   -0.51 6  280 292 
 URE  HE ES   4    116 14.73                             114   -2.32 0  280 292 
 URE  HZ I         116 25.36         3.9 0.18            112            280 292 
                                                                                
