 2015  923 0441 43.4 L   6.785 -73.145151.8  RSN  9 0.4 1.7LRSN                1
 GAP=183        0.99       3.0     5.2  5.9  0.1334E+01  0.2330E+01 -0.2772E+01E
 Epicentro: LOS SANTOS - SANTANDER                                             3
 ACTION:UPD 15-10-28 16:28 OP:cam  STATUS:               ID:20150923044143 L   I
 OLDACT:UP  15-09-23 15:15 OP:mh   STATUS:               ID:20150923043746     3
 OLDACT:UP  15-09-23 15:15 OP:mh   STATUS:               ID:20150923043746     3
 OLDACT:REG 15-09-23 12:42 OP:mh   STATUS:               ID:20150923043746     3
 2015-09-23-0437-46M.COL___355                                                 6
 STAT SP IPHASW D HRMM SECON CODA AMPLIT PERI AZIMU VELO AIN AR TRES W  DIS CAZ7
 BAR2 EZ EP        442  4.00                             171    0.2810 21.7 191 
 BAR2 EZ ES        442 19.28                             171   -0.3010 21.7 191 
 BAR2 EZ I         442 20.51        12.4 0.28            172           21.7 191 
 BRR  HZ EP     C  442  5.90                             153    0.6610 72.1 300 
 BRR  HN ES        442 22.81                             153    0.5210 72.1 300 
 BRR  HZ I         442 27.76         5.9 0.10            152           72.1 300 
 RUS  HZ EP   1    442  8.07                             145    0.44 7 98.9 176 
 RUS  HN ES        442 26.08                             145   -0.4510 98.9 176 
 RUS  HZ I         442 26.76         4.5 0.40            148           98.9 176 
 PTB  HZ EP        442 10.64                             133   -0.20 9  148 259 
 PTB  HN ES        442 31.69                             133   -0.56 9  148 259 
 PTB  HZ I         442 33.46         4.9 0.26            133            148 259 
 OCA  HZ I         442 38.86        12.8 0.22            131            162 353 
 SPBC HZ I         442 36.12         9.4 0.24            131            162 219 
 OCA  HZ EP        442 11.96                             131   -0.37 9  162 353 
 OCA  HN ES        442 34.91                             131    0.01 9  162 353 
 SPBC HZ EP   1    442 12.89                             131    0.64 7  162 219 
 SPBC HN ES        442 34.77                             131    0.01 9  162 219 
 ZAR  HZ EP        442 15.87                             124   -0.44 9  205 293 
 ZAR  HN ES        442 42.37                             124    0.38 9  205 293 
 ZAR  HZ I         442 47.78         6.5 0.42            124            205 293 
 SML  HZ EP        442 20.49                             118   -0.03 8  245 335 
 SML  HN ES   1    442 48.85                             118   -0.64 6  245 335 
 SML  HZ I         442 52.54         7.5 0.10            119            245 335 
 CHI  HZ EP   1    442 20.70                             118   -0.56 6  247 195 
 CHI  HE ES        442 51.09                             118    0.28 8  247 195 
 CHI  HZ I         442 56.49         1.6 0.32            120            247 195 
                                                                                
