 2016  423 0435 23.6 L   5.820 -73.723111.8  RSN  5 0.3 1.2LRSN                1
 GAP=161        0.68       6.3     3.5  5.3 -0.1710E+02  0.5700E+01 -0.5136E+01E
 Epicentro: PUENTE NACIONAL - SANTANDER                                        3
 ACTION:UPD 16-05-05 14:23 OP:rebc STATUS:               ID:20160423043523 L   I
 OLDACT:ARG 16-04-23 12:40 OP:cara STATUS:               ID:20160423042751     3
 2016-04-23-0427-51M.COL___309                                                 6
 STAT SP IPHASW D HRMM SECON CODA AMPLIT PERI AZIMU VELO AIN AR TRES W  DIS CAZ7
 SPBC HZ EP        435 39.48                             158   -0.1810 42.9 244 
 SPBC HN ES        435 52.04                             158   -0.1510 42.9 244 
 SPBC HZ I         435 53.52         6.8 0.20            159           42.9 244 
 RUS  HZ EP        435 41.79                             146   -0.1010 71.3  84 
 RUS  HN ES        435 56.38                             146    0.2110 71.3  84 
 RUS  HZ I         435 57.57         1.7 0.32            147           71.3  84 
 BAR2 EZ IP        435 43.69                             134   -0.4610  104  35 
 BAR2 EZ ES        436  0.49                             134    0.3010  104  35 
 BAR2 EZ I         436  1.00         9.6 0.26            136            104  35 
 NOR  HZ EP        435 46.60                             127    0.2910  130 257 
 NOR  HN ES        436  3.82                             127   -0.2110  130 257 
 NOR  HZ I         436  5.25         2.9 0.22            129            130 257 
 GUY2CHZ EP        435 53.67                             115    0.17 9  193 250 
 GUY2CHN ES        436 17.09                             115    0.25 9  193 250 
 GUY2CHZ I         436 21.27         1.2 0.18                           193 250 
                                                                                
