 2016  323 0204 24.6 L   6.814 -73.187137.5  RSN 11 0.4 1.9LRSN                1
 GAP=131        0.91       3.0     3.5  6.2 -0.2968E+01  0.1016E+02 -0.1642E+01E
 Epicentro: ZAPATOCA - SANTANDER                                               3
 ACTION:UPD 16-05-13 21:26 OP:cam  STATUS:               ID:20160323020424 L   I
 OLDACT:REG 16-03-23 12:26 OP:ak   STATUS:               ID:20160323015744     3
 2016-03-23-0157-44M.COL___310                                                 6
 STAT SP IPHASW D HRMM SECON CODA AMPLIT PERI AZIMU VELO AIN AR TRES W  DIS CAZ7
 BAR2 EZ EP     C  2 4 43.53                             169    0.2910 24.5 179 
 BAR2 EZ ES        2 4 57.61                             169   -0.2010 24.5 179 
 BAR2 EZ I         2 4 59.27        14.7 0.28            170           24.5 179 
 PAM  EZ EP        2 4 46.04                             149    0.0010 79.2  43 
 PAM  EN ES        2 5  3.15                             149    0.3710 79.2  43 
 PAM  EZ I         2 5  4.89         9.2 0.16            153           79.2  43 
 RUS  HZ EP        2 4 47.48                             141   -0.1910  103 174 
 RUS  HN ES        2 5  5.61                             141   -0.0810  103 174 
 RUS  HZ I         2 5  6.77         8.1 0.24            145            103 174 
 PTB  HZ EP        2 4 49.73                             131   -0.77 9  144 258 
 PTB  HN ES        2 5 10.29                             131   -0.43 9  144 258 
 PTB  HZ I         2 5 13.95         9.2 0.11            131            144 258 
 OCA  HZ EP   2    2 4 51.69                             128   -0.38 5  158 355 
 OCA  HN ES        2 5 13.10                             128   -0.41 9  158 355 
 OCA  HZ I         2 5 14.99        20.1 0.16            130            158 355 
 SPBC HZ EP        2 4 52.49                             127    0.19 9  162 217 
 SPBC HN ES        2 5 14.30                             127    0.38 9  162 217 
 SPBC HZ I         2 5 17.83        11.0 0.32            129            162 217 
 ZAR  HZ EP        2 4 56.56                             121    0.57 9  199 292 
 ZAR  HE ES        2 5 21.01                             121    0.51 9  199 292 
 ZAR  HZ I         2 5 28.42         8.2 0.18            122            199 292 
 NOR  HZ EP   2    2 4 59.44                             117   -0.10 4  232 233 
 NOR  HN ES        2 5 27.17                             117    0.36 8  232 233 
 NOR  HZ I         2 5 32.90         6.6 0.18            118            232 233 
 HEL  HZ EP   2    2 5  4.66                             113    0.73 4  268 255 
 HEL  HN ES        2 5 34.73                             113    0.10 8  268 255 
 HEL  HZ I         2 5 42.18         3.5 0.22            115            268 255 
 GUY2CHZ EP   2    2 5  8.12                             111    0.63 4  298 234 
 GUY2CHN ES        2 5 40.26                             111   -0.71 7  298 234 
 GUY2CHZ I         2 5 48.91         4.4 0.24                           298 234 
 SJC  HZ EP   2    2 5 18.39                             104   -1.04 3  405 327 
 SJC  HN ES   4    2 5 59.47                             104   -2.75 0  405 327 
                                                                                
