 2010  823 0255 25.1 L   7.202 -73.252115.4  RSN  4 0.3 1.2LRSN                1
 GAP=156        0.74       5.3     9.0  9.1 -0.2058E+02 -0.1283E+02 -0.1638E+01E
 Epicentro: LEBRIJA - SANTANDER                                                3
 ACTION:UP  10-09-07 10:57 OP:vdl  STATUS:               ID:20100823025525 L   I
 2010-08-23-0251-02S.COL___120                                                 6
 STAT SP IPHASW D HRMM SECON CODA AMPLIT PERI AZIMU VELO SNR AR TRES W  DIS CAZ7
 BTL  SZ IP        255 41.68                             164     0.410   31 183 
 BTL  SZ ES   1    255 54.03                             164     0.0 7   31 183 
 BRR  HZ EP   1    255 41.70                             154    -0.2 7   52 258 
 BRR  HE ES   1    255 54.73                             154    -0.2 7   52 258 
 BRR  HZ I         255 55.06         4.1 0.58                            52 258 
 GUE  SZ EP   1    255 43.54                             144    -0.5 7   78  28 
 GUE  SZ I         255 43.92         2.0 0.17                            78  28 
 GUE  SZ ES   1    255 58.61                             144    -0.1 7   78  28 
 OCA  SZ ES   1    256  4.05                             132     0.3 7  115 356 
 OCA  SZ I         256 10.56         7.2 0.43                           115 356 
                                                                                
