 2010  323 0310 47.0 L   6.847 -72.987140.0  RSN  4 0.2 1.9LRSN                1
 GAP=199        0.56       3.6     9.7  6.7  0.1700E+02 -0.3462E+02 -0.9449E+01E
 Epicentro: CEPITA - SANTANDER                                                 3
 ACTION:UP  10-08-24 09:55 OP:vdl  STATUS:               ID:20100323031047 L   I
 2010-03-23-0309-13S.COL___098                                                 6
 STAT SP IPHASW D HRMM SECON CODA AMPLIT PERI AZIMU VELO SNR AR TRES W  DIS CAZ7
 BAR2 SZ IP        311  6.36                             165     0.110   36 218 
 BAR2 SZ ES   1    311 20.92                             165    -0.3 7   36 218 
 BRR  HZ IP        311  8.22                             147    -0.210   85 290 
 BRR  HN ES   1    311 25.23                             147     0.1 7   85 290 
 BRR  HZ I         311 25.88        30.1 0.09                            85 290 
 RUS  HZ EP        311 10.49                             141    -0.110  106 186 
 RUS  HN ES   2    311 29.63                             141     0.6 5  106 186 
 RUS  HZ I         311 30.98         7.5 0.32                           106 186 
 OCA  SZ EP        311 14.72                             129     0.1 9  158 347 
 OCA  SZ ES   1    311 36.33                             129     0.1 7  158 347 
                                                                                
