 2015  323 0217 36.6 L   6.818 -73.139141.0  RSN  9 0.6 1.8LRSN                1
 GAP=136        1.53       4.6     6.4  9.1 -0.1362E+01  0.1582E+02 -0.4916E+01E
 Epicentro: LOS SANTOS - SANTANDER                                             3
 ACTION:UPD 15-04-30 16:28 OP:nd   STATUS:               ID:20150323021736 L   I
 OLDACT:DUP 15-03-23 14:05 OP:stll STATUS:               ID:20150323020741d    3
 2015-03-23-0207-39M.COL___281                                                 6
 STAT SP IPHASW D HRMM SECON CODA AMPLIT PERI AZIMU VELO AIN AR TRES W  DIS CAZ7
 BAR2 EZ EP        217 55.80                             169    0.0910 25.4 191 
 BAR2 EZ ES        218 10.65                             169    0.0410 25.4 191 
 BRR  HZ IP     C  217 57.67                             152    0.4410 70.9 297 
 BRR  HZ I         217 57.93        15.4 0.26            148           70.9 297 
 BRR  HN ES        218 14.46                             152    1.1510 70.9 297 
 PAM  SZ IP     C  217 58.60                             151    0.4010 75.4  40 
 PAM  SE ES        218 15.27                             151    0.2310 75.4  40 
 RUS  HZ EP        217 59.86                             142   -0.1810  103 177 
 RUS  HN ES        218 17.80                             142   -0.5110  103 177 
 PTB  HZ EP        218  2.88                             131   -0.42 9  149 258 
 PTB  HN ES        218 23.59                             131   -0.52 9  149 258 
 PTB  HZ I         218 30.96         6.0 0.48            130            149 258 
 OCA  HN ES        218 24.54                             129   -1.49 9  158 353 
 OCA  HZ I         218 30.72         7.8 0.28            129            158 353 
 SPBC HZ EP        218  5.15                             128    0.21 9  165 219 
 SPBC HN ES        218 26.73                             128   -0.30 9  165 219 
 SPBC HZ I         218 28.24         8.6 0.44            128            165 219 
 ZAR  HZ EP        218  9.89                             121    1.15 9  204 292 
 ZAR  HE ES        218 33.64                             121   -0.16 9  204 292 
 ZAR  HZ I         218 40.87         6.2 0.30            121            204 292 
 SML  HZ EP        218 12.58                             117   -0.23 8  242 335 
 SML  HE ES        218 40.89                             117   -0.16 8  242 335 
                                                                                
