 2014  223 0335 49.2 L   6.818 -73.144145.8  RSN 10 0.3 1.8LRSN                1
 GAP=136        0.68       2.2     3.0  4.7 -0.2788E+00  0.4468E+01  0.4657E+00E
 Epicentro: LOS SANTOS - SANTANDER                                             3
 ACTION:UPD 14-03-10 08:12 OP:ep   STATUS:               ID:20140223033549 L   I
 OLDACT:DUP 14-02-23 09:04 OP:fm   STATUS:               ID:20140223033001d    3
 2014-02-23-0330-00M.COL___215                                                 6
 STAT SP IPHASW D HRMM SECON CODA AMPLIT PERI AZIMU VELO AIN AR TRES W  DIS CAZ7
 BAR2 SZ EP        336  8.63                             170   -0.2910 25.3 190 
 BAR2 SZ ES   1    336 24.01                             170   -0.25 7 25.3 190 
 BAR2 SZ I         336 25.23        18.9 0.28            166           25.3 190 
 PAM  SZ EP        336 11.70                             151    0.3310 75.7  40 
 PAM  SN ES        336 28.73                             151    0.1110 75.7  40 
 PAM  SZ I         336 29.47         8.9 0.20            158           75.7  40 
 RUS  HZ EP        336 13.12                             143   -0.0210  103 176 
 RUS  HN ES        336 31.67                             143   -0.1110  103 176 
 RUS  HZ I         336 32.39         4.3 0.20            144            103 176 
 PTB  HZ EP        336 15.51                             132   -0.76 9  148 258 
 PTB  HN ES        336 37.57                             132    0.23 9  148 258 
 PTB  HZ I         336 43.71         6.6 0.14            130            148 258 
 SPBC HZ EP   1    336 17.79                             129   -0.11 7  165 219 
 SPBC HN ES   1    336 40.64                             129    0.39 7  165 219 
 SPBC HZ I         336 43.94         9.8 0.44            128            165 219 
 ZAR  HN ES        336 46.76                             122   -0.13 9  203 292 
 ZAR  HZ I         336 51.91         6.7 0.44            122            203 292 
 NOR  HZ EP        336 25.28                             118    0.16 8  236 234 
 NOR  HN ES   1    336 53.51                             118    0.42 6  236 234 
 NOR  HZ I         337  2.20         3.1 0.12            118            236 234 
 SML  HZ EP   1    336 25.77                             118    0.09 6  242 335 
 SML  HN ES        336 54.23                             118    0.13 8  242 335 
 CHI  HZ EP        336 27.36                             117    0.20 8  251 195 
 CHI  HN ES        336 56.82                             117    0.09 8  251 195 
 CHI  HZ I         337  1.54         3.9 0.30            118            251 195 
 HEL  HZ EP   4    336 31.08                             115    1.55 0  273 255 
 HEL  HN ES   4    337  3.07                             115    2.12 0  273 255 
 HEL  HZ I         337  7.33         3.8 0.26            115            273 255 
 SJC  HN ES   4    337 26.19                             106   -1.63 0  408 327 
                                                                                
