 2013  123 0531 14.8 L   6.781 -73.168143.3  RSN  6 0.5 1.7LRSN                1
 GAP=135        1.23       5.3     6.2  8.2 -0.3306E+01  0.5433E+01  0.1139E+02E
 Epicentro: LOS SANTOS - SANTANDER                                             3
 ACTION:UPD 13-02-15 09:16 OP:ep   STATUS:               ID:20130123053114 L   I
 2013-01-23-0528-48M.COL___183                                                 6
 STAT SP IPHASW D HRMM SECON CODA AMPLIT PERI AZIMU VELO AIN AR TRES W  DIS CAZ7
 BAR2 SZ EP        531 34.00                             171   -0.0610 20.9 184 
 BAR2 SZ ES        531 49.05                             171   -0.0510 20.9 184 
 BAR2 SZ I         531 50.45        12.7 0.20            169           20.9 184 
 BRR  HZ EP        531 35.92                             152    0.3310 70.2 301 
 BRR  HE ES        531 52.85                             152    1.0110 70.2 301 
 BRR  HN I         531 56.20        18.2 0.18            152           70.2 301 
 PAM  SZ EP        531 36.76                             149   -0.1610 80.6  40 
 PAM  SZ I         531 37.14         9.3 0.22            153           80.6  40 
 PAM  SN ES        531 53.90                             149   -0.3010 80.6  40 
 RUS  HZ EP        531 38.25                             144    0.1110 98.6 175 
 RUS  HN ES        531 56.06                             144   -0.3110 98.6 175 
 RUS  HE I         531 57.78         9.4 0.18            144           98.6 175 
 PTB  HZ EP        531 40.85                             132   -0.43 9  145 259 
 PTB  HN ES        532  1.07                             132   -0.89 9  145 259 
 PTB  HN I         532  4.25         5.5 0.10            132            145 259 
 CHI  HZ EP        531 52.40                             117    0.37 8  246 195 
 CHI  HN ES        532 21.66                             117    0.55 8  246 195 
 CHI  HN I         532 28.37         3.1 0.46            117            246 195 
                                                                                
