 2016  623 0709 46.2 L   6.790 -73.143146.0  RSN  8 0.4 1.4LRSN                1
 GAP=137        1.00       4.3     4.4  6.7 -0.9135E+00  0.5933E+01  0.2293E+01E
 Epicentro: LOS SANTOS - SANTANDER                                             3
 ACTION:UPD 16-07-21 22:22 OP:rebc STATUS:               ID:20160623070946 L   I
 OLDACT:REG 16-06-23 12:52 OP:ak   STATUS:               ID:20160623070746     3
 2016-06-23-0707-46M.COL___331                                                 6
 STAT SP IPHASW D HRMM SECON CODA AMPLIT PERI AZIMU VELO AIN AR TRES W  DIS CAZ7
 BAR2 EZ EP        710  5.84                             171    0.0510 22.3 191 
 BAR2 EZ ES        710 21.39                             171    0.2810 22.3 191 
 BAR2 EZ I         710 22.46         7.1 0.24                          22.3 191 
 BRR  HZ EP        710  7.35                             152   -0.0310 72.0 299 
 BRR  HN ES        710 24.51                             152    0.5810 72.0 299 
 BRR  HZ I         710 28.86         4.7 0.28                          72.0 299 
 PAM  EZ EP        710  8.81                             151    0.3710 78.1  39 
 PAM  EN ES        710 25.44                             151   -0.3810 78.1  39 
 PAM  EZ I         710 27.78         2.2 0.23                          78.1  39 
 RUS  HZ EP        710  9.47                             144   -0.3810 99.4 176 
 RUS  HN ES        710 28.09                             144   -0.2410 99.4 176 
 RUS  HZ I         710 30.00         1.9 0.10                          99.4 176 
 PTB  HZ EP   1    710 12.53                             132   -0.62 7  148 259 
 PTB  HN ES        710 33.46                             132   -0.75 9  148 259 
 PTB  HZ I         710 36.30         2.4 0.22                           148 259 
 SPBC HZ EP        710 14.72                             129    0.11 9  162 219 
 SPBC HN ES        710 37.42                             129    0.62 9  162 219 
 SPBC HZ I         710 41.78         4.9 0.08                           162 219 
 ZAR  HZ EP   2    710 18.92                             122    0.23 4  205 292 
 ZAR  HN ES        710 43.97                             122   -0.10 9  205 292 
 ZAR  HZ I         710 49.08         2.9 0.28                           205 292 
 GUY2CHZ EP   2    710 30.70                             113    0.97 4  301 235 
 GUY2CHN ES   4    711  7.85                             113    4.13 0  301 235 
 GUY2CHZ I         711 12.07         1.7 0.38                           301 235 
                                                                                
