 2017 1123 0142 48.6 L   6.795 -73.130143.1  RSN  4 0.3 1.1LRSN                1
 GAP=139        0.86       5.2     5.5  7.9 -0.9844E+01  0.3601E+01 -0.6265E+00E
 Epicentro: LOS SANTOS - SANTANDER                                             3
 ACTION:UPD 17-12-12 19:58 OP:rebc STATUS:               ID:20171123014248 L   I
 OLDACT:REG 17-11-23 12:41 OP:osc  STATUS:               ID:20171123013742     3
 2017-11-23-0138-00M.COL___480                                                 6
 STAT SP IPHASW D HRMM SECON CODA AMPLIT PERI AZIMU VELO AIN AR TRES W  DIS CAZ7
 BAR2 EZ EP        143  7.73                             170   -0.1210 23.1 194 
 BAR2 EZ ES        143 23.37                             170    0.4610 23.1 194 
 BAR2 EZ I         143 23.72         3.6 0.10            172           23.1 194 
 PAM  EZ EP        143 10.93                             150    0.4810 76.8  38 
 PAM  EE ES        143 27.07                             150   -0.4510 76.8  38 
 PAM  EZ I         143 29.46         2.4 0.36            151           76.8  38 
 RUS  HZ EP        143 11.84                             143   -0.1510 99.9 177 
 RUS  HN ES        143 30.15                             143   -0.1210 99.9 177 
 RUS  HZ I         143 30.70         1.7 0.46            145           99.9 177 
 PTB  HE ES        143 36.30                             131   -0.12 9  149 259 
                                                                                
