 2017  523 0905  3.4 L   6.802 -73.119137.9  RSN 13 0.6 2.1LRSN                1
 GAP=114        1.33       4.7     4.6  8.2  0.5574E+01  0.2461E+01  0.2005E+01E
 Epicentro: LOS SANTOS - SANTANDER                                             3
 ACTION:UPD 17-06-16 13:38 OP:jn   STATUS:               ID:20170523090503 L   I
 OLDACT:UP  17-05-23 17:42 OP:ar   STATUS:               ID:20170523085732     3
 OLDACT:UP  17-05-23 17:41 OP:ar   STATUS:               ID:20170523085732     3
 OLDACT:REG 17-05-23 12:48 OP:ar   STATUS:               ID:20170523085732     3
 2017-05-23-0858-00M.COL___335                                                 6
 STAT SP IPHASW D HRMM SECON CODA AMPLIT PERI AZIMU VELO AIN AR TRES W  DIS CAZ7
 BRR  HZ IP     D  9 5 23.68                             150   -0.1510 73.7 297 
 BRR  HN ES        9 5 40.43                             150    0.6510 73.7 297 
 BRR  HZ I         9 5 44.66        40.6 0.12            144           73.7 297 
 PAM  EZ EP        9 5 24.67                             150    0.0410 75.4  38 
 RUS  HZ EP        9 5 25.75                             142   -0.6110  101 178 
 RUS  HN ES        9 5 43.68                             142   -0.6110  101 178 
 RUS  HZ I         9 5 45.05        16.4 0.32            135            101 178 
 PTB  HZ EP   9    9 5 28.83                             129   -1.15 0  151 259 
 PTB  HN ES        9 5 49.26                             129   -0.32 9  151 259 
 PTB  HZ I         9 5 55.04        13.3 0.36            122            151 259 
 SPBC HZ EP        9 5 30.84                             127   -0.63 9  165 220 
 SPBC HN ES        9 5 52.91                             127   -0.48 9  165 220 
 SPBC HZ I         9 5 56.23        21.8 0.18            120            165 220 
 YPLC HZ IP     C  9 5 32.24                             125   -0.24 9  176 152 
 YPLC HN ES        9 5 56.17                             125    0.98 9  176 152 
 ZAR  HZ EP        9 5 35.13                             120   -0.47 8  207 292 
 ZAR  HN ES        9 6  0.85                             120    0.12 8  207 292 
 ZAR  HZ I         9 6  6.66        14.4 0.30            114            207 292 
 NOR  HZ EP   4    9 5 40.26                             116    1.33 0  237 235 
 NOR  HN ES        9 6  6.03                             116   -0.63 8  237 235 
 NOR  HZ I         9 6 11.43         8.6 0.22            111            237 235 
 CHI  HZ EP        9 5 40.29                             115   -0.46 8  250 196 
 CHI  HN ES        9 6 10.95                             115    1.04 8  250 196 
 CHI  HZ I         9 6 19.32         4.9 0.52            110            250 196 
 ROSC BZ EP        9 5 42.01                             115    0.75 8  254 212 
 ROSC BZ I         9 6 18.09         9.2 0.35            109            254 212 
 HEL  HZ EP        9 5 44.29                             113    0.77 8  275 256 
 HEL  HE ES        9 6 15.32                             113    0.49 8  275 256 
 HEL  HZ I         9 6 21.09         4.9 0.28            108            275 256 
 ELA  HN ES   4    9 6 21.45                             109   -5.23 0  331 230 
 ELA  HZ I         9 6 31.33         7.4 0.24            104            331 230 
 CBOC HZ EP        9 5 50.74                             108    0.44 7  336 252 
 CBOC HE ES        9 6 26.79                             108   -0.12 7  336 252 
 CBOC HZ I         9 6 29.61         1.7 0.26            103            336 252 
                                                                                
