 2011 1023 0654  2.0 L   6.777 -73.152154.1  RSN  6 0.3 1.5LRSN                1
 GAP=137        0.44       4.2     4.4  6.4  0.4344E+01  0.4080E+01  0.2752E+01E
 Epicentro: LOS SANTOS - SANTANDER                                             3
 ACTION:UPD 12-07-13 16:05 OP:ep   STATUS:               ID:20111023065402 L   I
 2011-10-23-0653-17S.COL___170                                                 6
 STAT SP IPHASW D HRMM SECON CODA AMPLIT PERI AZIMU VELO AIN AR TRES W  DIS CAZ7
 BAR2 SZ EP   1    654 22.37                             172   -0.25 7 20.7 189 
 BAR2 SZ I         654 39.25         9.7 0.18                          20.7 189 
 GIR2 SZ EP   3    654 22.50                             167   -0.27 2 33.7 352 
 GIR2 SZ ES   3    654 38.40                             167   -0.53 2 33.7 352 
 BRR  HZ EP   1    654 24.41                             154    0.28 7 71.9 301 
 BRR  HE ES   2    654 41.64                             154    0.28 5 71.9 301 
 BRR  HZ I         654 43.66         4.5 0.21                          71.9 301 
 PAM  SZ EP   1    654 25.53                             151    0.25 7 79.7  39 
 PAM  SN ES   2    654 43.10                             151   -0.31 5 79.7  39 
 RUS  HZ EP   1    654 26.36                             146   -0.09 7 98.1 176 
 RUS  HZ I         654 27.01         4.3 0.66                          98.1 176 
 RUS  HN ES   2    654 45.69                             146    0.20 5 98.1 176 
 ZAR  HZ EP   2    654 34.78                             124   -0.29 4  204 293 
 ZAR  HN ES   2    655  0.60                             124   -0.25 4  204 293 
 ZAR  HZ I         655  6.44         3.0 0.41                           204 293 
                                                                                
