 2014 1223 0317 46.2 L   6.794 -73.146148.0  RSN 10 0.5 2.0LRSN                1
 GAP=183        1.01       3.4     4.8  5.8 -0.7425E+00  0.4864E+01 -0.2448E+01E
 Epicentro: LOS SANTOS - SANTANDER                                             3
 ACTION:UPD 15-02-10 17:06 OP:nd   STATUS:               ID:20141223031746 L   I
 OLDACT:UP  14-12-23 15:10 OP:mh   STATUS:               ID:20141223030748     3
 OLDACT:REG 14-12-23 13:17 OP:mh   STATUS:               ID:20141223030748     3
 2014-12-23-0307-48M.COL___289                                                 6
 STAT SP IPHASW D HRMM SECON CODA AMPLIT PERI AZIMU VELO AIN AR TRES W  DIS CAZ7
 BAR2 EZ EP        318  6.40                             171    0.2710 22.7 190 
 BAR2 EZ ES        318 21.81                             171    0.1710 22.7 190 
 BAR2 EZ I         318 23.68        16.0 0.34            171           22.7 190 
 BRR  HZ EP        318  7.93                             153    0.2810 71.5 299 
 BRR  HN ES        318 24.34                             153   -0.0110 71.5 299 
 BRR  HZ I         318 27.11        10.3 0.39            149           71.5 299 
 RUS  HZ EP        318  9.43                             145   -0.7410 99.9 176 
 RUS  HN ES   1    318 28.85                             145    0.02 7 99.9 176 
 RUS  HZ I         318 29.64        10.8 0.30            149           99.9 176 
 PTB  HZ EP        318 12.84                             133   -0.54 9  148 259 
 PTB  HN ES        318 34.33                             133   -0.22 9  148 259 
 PTB  HZ I         318 39.17        13.5 0.16            132            148 259 
 OCA  HZ EP   1    318 15.36                             130    0.57 7  161 353 
 OCA  HN ES   1    318 36.63                             130   -0.43 7  161 353 
 OCA  HZ I         318 42.29         8.4 0.14            130            161 353 
 SPBC HZ EP   1    318 15.24                             130    0.38 7  163 219 
 SPBC HN ES   1    318 37.94                             130    0.75 7  163 219 
 ZAR  HZ EP   1    318 18.94                             123    0.08 6  204 292 
 ZAR  HN ES        318 45.08                             123    0.78 9  204 292 
 ZAR  HZ I         318 50.30        16.8 0.38            123            204 292 
 NOR  HZ EP        318 22.26                             119    0.20 8  234 235 
 NOR  HN ES        318 49.32                             119   -0.68 8  234 235 
 NOR  HZ I         318 54.50         8.6 0.20            120            234 235 
 SML  HZ IP        318 22.94                             118   -0.12 8  244 335 
 SML  HZ EP   1    318 22.97                             118   -0.09 6  244 335 
 SML  HN ES        318 51.42                             118   -0.36 8  244 335 
 SML  HZ I         318 58.90        14.2 0.10            118            244 335 
 CBOC HZ EP        318 33.94                             110    0.72 7  333 252 
 CBOC HN ES   1    319  9.13                             110   -0.74 5  333 252 
 CBOC HZ I         319 15.80         1.6 0.31            111            333 252 
                                                                                
