 2014  823 0539 40.0 L   6.795 -73.165138.8  RSN  6 0.4 1.8LRSN                1
 GAP=134        0.95       4.3     4.6  6.5 -0.4782E+01  0.4383E+01  0.3327E+01E
 Epicentro: LOS SANTOS - SANTANDER                                             3
 ACTION:UPD 14-09-15 21:52 OP:nd   STATUS:               ID:20140823053940 L   I
 OLDACT:REG 14-08-23 15:30 OP:stll STATUS:               ID:20140823053805     3
 2014-08-23-0538-05M.COL___251                                                 6
 STAT SP IPHASW D HRMM SECON CODA AMPLIT PERI AZIMU VELO AIN AR TRES W  DIS CAZ7
 BAR2 SZ EP        539 58.93                             170    0.1510 22.5 185 
 BAR2 SZ ES        540 13.56                             170    0.1310 22.5 185 
 BAR2 SZ I         540 15.31        17.3 0.16            169           22.5 185 
 BRR  HZ EP        540  0.78                             152    0.4710 69.6 300 
 BRR  HN ES        540 16.63                             152    0.4810 69.6 300 
 BRR  HZ I         540 21.33         9.5 0.42            151           69.6 300 
 PAM  SZ EP        540  1.84                             149    0.2410 79.2  41 
 PAM  SZ I         540  2.05         9.6 0.20            153           79.2  41 
 PAM  SN ES        540 17.72                             149   -0.7210 79.2  41 
 RUS  HZ EP        540  3.02                             142   -0.0310  100 175 
 RUS  HZ I         540  3.78         6.8 0.28            144            100 175 
 RUS  HN ES        540 21.12                             142    0.0910  100 175 
 PTB  HZ EP        540  5.73                             131   -0.48 9  146 259 
 PTB  HN ES        540 26.22                             131   -0.43 9  146 259 
 PTB  HZ I         540 29.20         8.8 0.10            131            146 259 
 SPBC HZ EP        540  7.95                             128    0.14 9  161 219 
 SPBC HE ES        540 29.34                             128   -0.16 9  161 219 
 SPBC HZ I         540 35.83         9.9 0.22            129            161 219 
                                                                                
