 2013  523 0422 49.7 L   6.794 -73.165151.7  RSN 10 0.4 2.2LRSN                1
 GAP= 74        1.06       4.1     4.6  5.6  0.7657E+00 -0.1578E+01 -0.4615E+01E
 Epicentro: LOS SANTOS - SANTANDER                                             3
 ACTION:UPD 13-06-20 09:52 OP:ep   STATUS:               ID:20130523042249 L   I
 2013-05-23-0418-51M.COL___207                                                 6
 STAT SP IPHASW D HRMM SECON CODA AMPLIT PERI AZIMU VELO AIN AR TRES W  DIS CAZ7
 BAR2 SZ EP        423 10.05                             171    0.0010 22.3 185 
 BAR2 SZ I         423 10.19        13.2 0.20            177           22.3 185 
 BAR2 SZ ES        423 25.88                             171   -0.0210 22.3 185 
 GIR2 SZ EP        423 10.16                             168    0.0510 31.7 354 
 GIR2 SZ ES        423 25.95                             168   -0.0610 31.7 354 
 GIR2 SZ I         423 27.56        15.4 0.16            159           31.7 354 
 BRR  HZ EP        423 11.92                             154    0.4810 69.7 300 
 BRR  HE ES        423 29.42                             154    1.0510 69.7 300 
 BRR  HN I         423 30.00        46.6 0.24            147           69.7 300 
 PAM  SZ EP        423 12.87                             151    0.1910 79.3  40 
 PAM  SN ES        423 30.24                             151   -0.3510 79.3  40 
 PAM  SN I         423 31.23        34.7 0.46            144           79.3  40 
 RUS  HZ EP        423 14.04                             145    0.0210  100 175 
 RUS  HN ES        423 32.52                             145   -0.4610  100 175 
 PTB  HZ EP        423 17.12                             134    0.13 9  146 259 
 PTB  HN ES        423 37.67                             134   -0.58 9  146 259 
 CAPV BZ EP        423 17.83                             133    0.06 9  151  38 
 TAM  HZ EP        423 18.19                             131    0.15 9  157 105 
 OCA  HZ EP        423 18.53                             131   -0.01 9  161 354 
 OCA  HN I         423 44.58        60.3 0.30            123            161 354 
 SML  HZ EP        423 26.48                             119   -0.18 8  243 336 
 SML  HN ES        423 54.60                             119   -0.88 8  243 336 
                                                                                
