 2016  823 0542  8.1 L   6.815 -73.151143.7  RSN 15 0.4 2.0LRSN                1
 GAP=135        0.95       2.6     3.5  5.0 -0.1393E+01  0.4731E+01  0.2429E+01E
 Epicentro: LOS SANTOS - SANTANDER                                             3
 ACTION:UPD 16-10-29 15:38 OP:rebc STATUS:               ID:20160823054208 L   I
 OLDACT:REG 16-08-23 15:04 OP:ak   STATUS:               ID:20160823053733     3
 2016-08-23-0538-00M.COL___362                                                 6
 STAT SP IPHASW D HRMM SECON CODA AMPLIT PERI AZIMU VELO AIN AR TRES W  DIS CAZ7
 BAR2 EZ EP        542 27.40                             170   -0.0710 24.9 188 
 BAR2 EZ ES        542 42.79                             170    0.1810 24.9 188 
 BAR2 EZ I         542 44.02        34.4 0.14                          24.9 188 
 BRR  HZ IP     C  542 29.21                             153    0.3010 69.9 298 
 BRR  HN ES        542 45.75                             153    0.5710 69.9 298 
 BRR  HZ I         542 46.97        17.9 0.09                          69.9 298 
 PAM  EZ EP        542 30.27                             151    0.2710 76.5  41 
 PAM  EN ES        542 47.25                             151    0.1410 76.5  41 
 PAM  EZ I         542 49.53        19.0 0.52                          76.5  41 
 RUS  HZ EP        542 31.38                             143   -0.3510  102 176 
 RUS  HN ES        542 49.95                             143   -0.2410  102 176 
 RUS  HZ I         542 51.06         4.4 0.28                           102 176 
 PTB  HZ EP        542 34.21                             132   -0.62 9  148 258 
 PTB  HN ES        542 55.02                             132   -0.70 9  148 258 
 PTB  HZ I         543  1.65         6.0 0.35                           148 258 
 OCA  HZ EP        542 35.45                             130   -0.59 9  159 353 
 OCA  HN ES        542 57.86                             130   -0.02 9  159 353 
 OCA  HZ I         543  7.31        13.3 0.26                           159 353 
 SPBC HZ EP        542 36.28                             129   -0.21 9  164 218 
 SPBC HN ES        542 58.50                             129   -0.16 9  164 218 
 SPBC HZ I         543  3.23        18.1 0.22                           164 218 
 ZAR  HZ EP   2    542 41.07                             122    0.82 4  203 292 
 ZAR  HN ES        543  5.15                             122   -0.21 9  203 292 
 ZAR  HZ I         543 12.16        10.1 0.27                           203 292 
 CHI  HZ EP        542 46.01                             117    0.21 8  250 195 
 CHI  HN ES        543 15.14                             117   -0.10 8  250 195 
 CHI  HZ I         543 18.69         5.3 0.50                           250 195 
 ROSC BZ EP   4    542 48.03                             116    1.84 0  254 211 
 ROSC BN ES        543 17.01                             116    1.08 8  254 211 
 ROSC BZ I         543 21.80         9.2 0.50                           254 211 
 HEL  HZ EP   2    542 48.56                             114    0.41 4  272 255 
 HEL  HN ES        543 19.76                             114    0.34 8  272 255 
 HEL  HZ I         543 26.44         3.3 0.30                           272 255 
 URE  HZ EP   4    542 52.34                             113    3.44 0  283 292 
 URE  HE ES   4    543 18.55                             113   -2.21 0  283 292 
 URE  HZ I         543 31.29         5.2 0.26                           283 292 
 GUY2CHZ EP   2    542 52.02                             112    0.40 4  302 234 
 GUY2CHE ES   4    543 27.95                             112    2.34 0  302 234 
 GUY2CHZ I         543 34.80         2.6 0.54                           302 234 
 CBOC HZ EP        542 55.52                             110    0.64 7  334 252 
 CBOC HN ES        543 31.37                             110   -0.04 7  334 252 
 PRA  HZ EP        543  1.68                             106    0.04 6  393 209 
 PRA  HN ES        543 43.01                             106   -0.43 6  393 209 
 PRA  HZ I         543 48.55         5.1 0.32                           393 209 
 SJC  HZ EP   4    543  1.67                             106   -1.68 0  408 327 
 SJC  HN ES   4    543 41.91                             106   -4.57 0  408 327 
                                                                                
