 2017  523 0341  7.5 L   6.811 -73.136145.9  RSN 28 0.5 2.9LRSN                1
 GAP=112        1.08       2.8     3.4  4.9  0.7913E+00  0.3762E+01  0.1815E+01E
 Epicentro: LOS SANTOS - SANTANDER                                             3
 ACTION:UPD 17-06-16 13:38 OP:jn   STATUS:               ID:20170523034107 L   I
 OLDACT:UP  17-05-23 15:44 OP:ar   STATUS:               ID:20170523032847     3
 OLDACT:UP  17-05-23 15:43 OP:ar   STATUS:               ID:20170523032847     3
 OLDACT:UP  17-05-23 15:42 OP:ar   STATUS:               ID:20170523032847     3
 OLDACT:UP  17-05-23 15:20 OP:ar   STATUS:               ID:20170523032847     3
 OLDACT:UP  17-05-23 15:20 OP:ar   STATUS:               ID:20170523032847     3
 OLDACT:UP  17-05-23 15:18 OP:ar   STATUS:               ID:20170523032847     3
 OLDACT:REG 17-05-23 12:31 OP:ar   STATUS:               ID:20170523032847     3
 2017-05-23-0338-00M.COL___347                                                 6
 STAT SP IPHASW D HRMM SECON CODA AMPLIT PERI AZIMU VELO AIN AR TRES W  DIS CAZ7
 BRR  HZ IP     C  341 28.63                             152   -0.0910 71.6 297 
 BRR  HN ES        341 45.76                             152    0.5110 71.6 297 
 BRR  HZ I         341 49.35       120.2 0.24            150           71.6 297 
 PAM  EZ EP        341 29.88                             151    0.2110 75.8  40 
 PAM  EN ES        341 46.68                             151   -0.2610 75.8  40 
 PAM  EZ I         341 49.57        90.8 0.42            155           75.8  40 
 RUS  HZ EP        341 30.94                             143   -0.4510  102 177 
 RUS  HN ES        341 49.73                             143   -0.2610  102 177 
 RUS  HZ I         341 51.19        93.4 0.52            145            102 177 
 PTB  HZ EP   9    341 33.28                             132   -1.35 0  149 258 
 PTB  HN ES        341 54.44                             132    0.03 9  149 258 
 PTB  HZ I         342  1.53       137.5 0.30            131            149 258 
 SPBC HZ EP        341 35.84                             129   -0.36 9  165 219 
 SPBC HN ES        341 58.62                             129    0.06 9  165 219 
 SPBC HZ I         342  1.80        99.4 0.20            129            165 219 
 YPLC HZ IP     D  341 37.35                             126   -0.05 9  177 152 
 YPLC HN ES        342  1.41                             126    0.72 9  177 152 
 YPLC HZ I         342  2.09        88.3 0.28            129            177 152 
 ZAR  HZ EP        341 39.43                             122   -0.61 9  205 292 
 ZAR  HN ES        342  4.73                             122   -0.67 9  205 292 
 ZAR  HZ I         342 10.10        83.1 0.44            122            205 292 
 TABC EZ EP        341 44.47                             119    1.01 8  232 211 
 TABC EZ ES   4    342 13.79                             119    2.30 0  232 211 
 TABC EZ I         342 15.27        69.7 0.44            120            232 211 
 NOR  HZ EP        341 42.97                             118   -0.47 8  236 234 
 NOR  HN ES        342 11.34                             118   -0.11 8  236 234 
 NOR  HZ I         342 15.49        55.8 0.26            119            236 234 
 CHI  HZ EP        341 45.04                             117   -0.36 8  250 195 
 CHI  HN ES        342 14.78                             117   -0.16 8  250 195 
 CHI  HZ I         342 16.67        74.4 0.38            118            250 195 
 ROSC BZ EP        341 46.70                             116    0.86 8  254 211 
 ROSC BN ES   4    342 18.38                             116    2.67 0  254 211 
 ROSC BZ I         342 21.47       127.5 0.35            117            254 211 
 HEL  HZ EP        341 48.86                             115    0.96 8  273 256 
 HEL  HN ES        342 19.46                             115    0.07 8  273 256 
 HEL  HZ I         342 24.93        43.6 0.32            115            273 256 
 VIL  EZ EP        341 50.78                             112   -0.34 7  305 192 
 VIL  EN ES        342 24.64                             112   -0.48 7  305 192 
 VIL  EZ I         342 27.51        57.4 0.34            113            305 192 
 LL1C HZ EP        341 51.62                             112    0.60 7  306 351 
 LL1C HN ES   4    342 28.28                             112    3.35 0  306 351 
 PTGC HZ IP   9 D  341 50.02                             111   -1.46 0  309 159 
 PTGC HN ES        342 23.51                             112   -0.79 7  309 159 
 PTGC HZ I         342 25.27        41.2 0.26            113            309 159 
 ELA  HZ EP   4    341 55.78                             110    1.21 0  331 229 
 ELA  HN ES   4    342 33.50                             110    2.23 0  331 229 
 ELA  HZ I         342 38.51        30.0 0.42            111            331 229 
 CBOC HZ EP        341 55.02                             110    0.41 7  335 252 
 CBOC HN ES   4    342 29.75                             110   -1.58 0  335 252 
 CBOC HZ I         342 40.59        14.4 0.44            110            335 252 
 DBB  EZ EP        341 55.34                             109    0.21 7  340 274 
 DBB  EN ES   4    342 29.84                             109   -2.41 0  340 274 
 DBB  EZ I         342 31.29        22.6 0.40            110            340 274 
 ARGC HZ EP        341 56.90                             108   -0.20 6  358 340 
 ARGC HN ES   4    342 37.97                             108    2.20 0  358 340 
 ARGC HZ I         342 46.93        17.2 0.28            109            358 340 
 ANIL HZ EP        341 58.19                             108    0.66 6  359 224 
 ANIL HN ES   4    342 37.83                             108    1.30 0  359 224 
 ANIL HZ I         342 42.53        84.4 0.30            109            359 224 
 ORTC HZ EP        342  1.66                             106    0.01 6  397 216 
 ORTC HN ES        342 44.74                             106    0.88 6  397 216 
 ORTC HZ I         342 50.70        25.4 0.58            107            397 216 
 APAC HZ EP   9    342  0.17                             106   -1.63 0  399 288 
 APAC HN ES        342 42.26                             106   -0.24 6  399 288 
 APAC HZ I         342 47.48        22.2 0.36            107            399 288 
 PAL  HZ IP     D  342  2.47                             106   -0.41 6  407 239 
 PAL  HN ES        342 45.90                             106   -0.15 6  407 239 
 PAL  HZ I         342 50.82        15.5 0.38            106            407 239 
 SJC  HZ EP   4    342  1.04                             106   -2.01 0  409 327 
 SJC  HN ES   4    342 42.66                             106   -3.69 0  409 327 
 SJC  HZ I         342 51.86        10.3 0.26            106            409 327 
 LCBC HN ES        342 48.97                             105   -0.02 5  422 303 
 LCBC HZ I         342 52.61        19.3 0.20            106            422 303 
 YOT  HZ EP        342  9.37                             103   -1.40 5  474 229 
 YOT  HN ES   4    343  3.07                             103    2.97 0  474 229 
 GUA  EZ EP        342  9.60                             103   -1.22 5  475 173 
 GUA  EN ES   4    342 57.81                             103   -2.37 0  475 173 
 GUA  EZ I         343  2.48        17.0 0.18            104            475 173 
 MACC HZ EP   4    342 14.25                             101   -2.16 0  522 189 
 MACC HN ES   4    343  6.44                             101   -3.70 0  522 189 
 MACC HZ I         343 25.66        10.1 0.68            102            522 189 
                                                                                
