 2012 1123 0144 38.3 L   6.748 -73.162133.6  RSN  7 0.4 1.4LRSN                1
 GAP=137        0.74       4.4     4.5  6.5 -0.1542E+01  0.9757E+01 -0.4199E+01E
 Epicentro: VILLANUEVA - SANTANDER                                             3
 ACTION:UPD 12-12-05 15:35 OP:}ep  STATUS:               ID:20121123014438 L   I
 2012-11-23-0140-00M.COL___233                                                 6
 STAT SP IPHASW D HRMM SECON CODA AMPLIT PERI AZIMU VELO AIN AR TRES W  DIS CAZ7
 BAR2 SZ ES   1    145 10.74                             172    0.33 7 17.3 188 
 BAR2 SZ I         145 12.31        10.0 0.18                          17.3 188 
 GIR2 SZ EP   1    144 56.92                             164    0.24 7 36.8 355 
 GIR2 SZ ES   1    145 10.74                             164   -0.29 7 36.8 355 
 GIR2 SZ I         145 12.95         9.0 0.42                          36.8 355 
 PAM  SZ EP   1    144 59.55                             146   -0.03 7 83.0  38 
 PAM  SN ES   1    145 16.22                             146    0.02 7 83.0  38 
 PAM  SZ I         145 18.71         6.2 0.62                          83.0  38 
 RUS  HZ EP   1    145  0.68                             143    0.26 7 94.9 175 
 RUS  HN ES   1    145 17.46                             143   -0.24 7 94.9 175 
 RUS  HZ I         145 20.67         1.8 0.30                          94.9 175 
 PTB  HZ EP   1    145  4.23                             130    0.22 7  145 261 
 PTB  HN ES   1    145 23.47                             130   -0.62 7  145 261 
 PTB  HZ I         145 27.07         4.0 0.17                           145 261 
 ZAR  HN ES   1    145 35.47                             119    0.69 6  205 294 
 ZAR  HZ I         145 41.36         2.1 0.14                           205 294 
 SML  HZ EP   1    145 14.05                             114   -0.70 6  248 336 
                                                                                
