 2017  723 0732 41.3 L   6.779 -73.164136.0  RSN 19 0.5 2.4LRSN                1
 GAP=111        1.05       3.3     3.0  5.0  0.3203E+00  0.4690E+01  0.2671E+01E
 Epicentro: LOS SANTOS - SANTANDER                                             3
 ACTION:UPD 17-08-30 15:35 OP:rebc STATUS:               ID:20170723073241 L   I
 OLDACT:REG 17-07-23 14:36 OP:lv   STATUS:               ID:20170723072732     3
 2017-07-23-0728-00M.COL___374                                                 6
 STAT SP IPHASW D HRMM SECON CODA AMPLIT PERI AZIMU VELO AIN AR TRES W  DIS CAZ7
 BAR2 EZ IP     C  732 59.58                             171   -0.0910 20.8 186 
 BAR2 EZ ES        733 13.98                             171   -0.0410 20.8 186 
 BRR  HZ IP     C  733  1.51                             151    0.1810 70.6 301 
 BRR  HE ES        733 17.53                             151    0.5510 70.6 301 
 BRR  HZ I         733 22.49        55.4 0.16            150           70.6 301 
 PAM  EZ EP        733  2.48                             148   -0.1710 80.5  40 
 PAM  EN ES        733 19.30                             148   -0.0310 80.5  40 
 PAM  EZ I         733 21.55        62.7 0.38            153           80.5  40 
 RUS  HZ EP        733  3.75                             142   -0.1610 98.4 175 
 RUS  HN ES        733 21.45                             142   -0.1210 98.4 175 
 PTB  HZ EP        733  6.50                             130   -0.72 9  145 260 
 PTB  HN ES        733 26.78                             130   -0.69 9  145 260 
 PTB  HZ I         733 30.07        14.1 0.12            130            145 260 
 SPBC HZ EP        733  8.59                             127   -0.14 9  160 219 
 SPBC HN ES        733 29.90                             127   -0.25 9  160 219 
 SPBC HZ I         733 34.50        26.6 0.18            128            160 219 
 YPLC HZ EP        733 10.03                             125   -0.24 9  176 150 
 YPLC HN ES        733 33.80                             125    0.91 9  176 150 
 YPLC HZ I         733 36.47        13.9 0.28            127            176 150 
 ZAR  HZ EP        733 12.46                             120   -0.53 9  203 293 
 ZAR  HN ES        733 38.53                             120    0.80 9  203 293 
 ZAR  HZ I         733 43.74        43.0 0.26            121            203 293 
 TABC EZ EP   9    733 18.08                             118    1.96 0  227 211 
 TABC EZ ES        733 45.87                                    0.60 8  227 211 
 TABC EZ I         733 51.65        14.5 0.09            119            227 211 
 NOR  HZ EP        733 15.58                             117   -0.54 8  232 235 
 NOR  HN ES        733 43.29                             117   -0.01 8  232 235 
 NOR  HZ I         733 46.41        14.7 0.16            118            232 235 
 ROSC BZ EP   4    733 13.48                             115   -5.05 0  250 211 
 ROSC BN ES   4    733 50.49                             115    2.89 0  250 211 
 ROSC BZ I         733 56.23        27.5 0.45            116            250 211 
 HEL  HZ EP   4    733 22.01                             113    1.30 0  270 256 
 HEL  HN ES        733 51.72                             113    0.24 8  270 256 
 HEL  HZ I         733 58.86         8.6 0.64            114            270 256 
 URE  HZ EP   9    733 20.15                             112   -1.61 0  283 292 
 URE  HN ES        733 52.05                                    0.31 7  283 292 
 URE  HZ I         734  4.66        18.1 0.19            113            283 292 
 GUY2CHZ EP        733 25.21                             111    1.11 7  298 235 
 GUY2CHN ES        733 57.29                             111   -0.21 7  298 235 
 GUY2CHZ I         734  5.08         9.1 0.17                           298 235 
 PTGC HZ EP   9    733 22.90                             110   -1.64 0  307 158 
 PTGC HN ES        733 56.29                                   -0.37 7  307 158 
 PTGC HZ I         733 58.41        14.4 0.37            112            307 158 
 LL6C HZ EP   4    733 24.54                             109   -2.29 0  327 358 
 LL6C HN ES   4    734  3.31                             109    0.94 0  327 358 
 CBOC HZ EP        733 27.62                             108    0.14 7  331 252 
 CBOC HN ES        734  3.40                             108   -0.13 7  331 252 
 DBB  EZ EP        733 28.51                             108    0.36 7  338 275 
 DBB  EN ES   4    734  3.54                             108   -1.17 0  338 275 
 DBB  EZ I         734  6.69                             109            338 275 
 ORTC HZ EP        733 35.02                             105    0.52 6  392 216 
 ORTC HN ES        734 16.41                             105    0.38 6  392 216 
 ORTC HZ I         734 21.85         6.7 0.74            106            392 216 
 SJC  HZ EP   4    733 34.47                             104   -2.15 0  410 327 
 SJC  HN ES   4    734 15.22                             104   -4.58 0  410 327 
 SJC  HZ I         734 19.16         8.7 0.44            106            410 327 
                                                                                
