 2015  723 0846 24.7 L   6.811 -73.195142.0  RSN 15 0.4 2.2LRSN                1
 GAP=178        0.88       2.2     3.7  5.2 -0.8336E+00  0.8225E+01  0.2642E+00E
 Epicentro: ZAPATOCA - SANTANDER                                               3
 ACTION:UPD 15-09-08 21:50 OP:cam  STATUS:               ID:20150723084624 L   I
 OLDACT:UP  15-07-23 15:49 OP:ak   STATUS:               ID:20150723083747     3
 OLDACT:REG 15-07-23 13:11 OP:ak   STATUS:               ID:20150723083747     3
 2015-07-23-0837-47M.COL___331                                                 6
 STAT SP IPHASW D HRMM SECON CODA AMPLIT PERI AZIMU VELO AIN AR TRES W  DIS CAZ7
 BAR2 EZ EP        846 43.86                             170    0.0010 24.2 177 
 BAR2 EZ ES        846 59.03                             170    0.2010 24.2 177 
 BAR2 EZ I         847  0.36        56.8 0.14            168           24.2 177 
 RUS  HZ EP        846 47.80                             142   -0.3710  102 173 
 RUS  HN ES        847  7.02                             142    0.5210  102 173 
 RUS  HZ I         847  7.69        18.9 0.11            144            102 173 
 OCA  HZ EP        846 52.83                             129    0.31 9  159 355 
 OCA  HN ES        847 13.97                             129   -0.27 9  159 355 
 OCA  HZ I         847 18.75        27.0 0.24            132            159 355 
 ZAR  HZ EP        846 55.83                             122   -0.46 9  199 292 
 ZAR  HN ES        847 20.92                             122   -0.05 9  199 292 
 ZAR  HZ I         847 24.43        13.3 0.15            123            199 292 
 NOR  HZ EP        846 59.83                             118    0.06 8  231 233 
 NOR  HN ES        847 27.17                             118    0.01 8  231 233 
 NOR  HZ I         847 35.39        15.3 0.14            119            231 233 
 SML  HZ EP        847  0.38                             117   -0.34 8  240 336 
 SML  HE ES        847 29.08                             117    0.24 8  240 336 
 CHI  HZ EP        847  1.55                             116   -0.58 8  248 194 
 CHI  HN ES        847 30.82                             116   -0.53 8  248 194 
 CHI  HZ I         847 39.50         8.8 0.38            118            248 194 
 ROSC BZ EP        847  2.54                             116    0.15 8  251 210 
 ROSC BN ES        847 30.97                             116   -0.84 8  251 210 
 ROSC BZ I         847 36.01        11.1 0.35            117            251 210 
 HEL  HZ EP   1    847  4.91                             114    0.78 6  267 255 
 HEL  HN ES        847 34.59                             114   -0.32 8  267 255 
 HEL  HZ I         847 41.89         7.6 0.32            115            267 255 
 GUY2CHZ EP        847  8.13                             112    0.46 7  297 234 
 GUY2CHN ES        847 41.73                             112    0.51 7  297 234 
 GUY2CHZ I         847 51.73         7.6 0.51                           297 234 
 PTGC HZ EP   4    847  6.73                             111   -1.98 0  312 158 
 PTGC HN ES   4    847 38.94                             111   -4.12 0  312 158 
 CBOC HZ EP        847 11.59                             109    0.72 7  329 252 
 CBOC HN ES        847 46.56                             109   -0.35 7  329 252 
 CBOC HZ I         847 54.27         2.8 0.53            110            329 252 
 TOL  SZ EP        847 12.75                             109    0.32 7  341 224 
 TOL  SN ES        847 49.92                             109    0.24 7  341 224 
 TOL  SZ I         847 57.92         7.2 0.60            110            341 224 
 ORTC HZ EP        847 18.00                             106   -0.19 6  393 215 
 ORTC HN ES        848  0.61                             106    0.67 6  393 215 
 ORTC HZ I         848  7.52         4.1 0.44            107            393 215 
 PAL  HZ EP        847 19.16                             105   -0.06 6  402 239 
 PAL  HN ES   4    847 59.40                             105   -2.38 0  402 239 
 PAL  HZ I         848  7.75         3.2 0.38            106            402 239 
 SJC  HZ EP   4    847 17.96                             105   -1.68 0  405 327 
 SJC  HN ES   4    847 58.82                             105   -3.70 0  405 327 
 SJC  HZ I         848  7.06         2.4 0.34            107            405 327 
                                                                                
