 2010 1023 0917 22.9 L   6.722 -73.129144.1  RSN  4 0.2 1.2LRSN                1
 GAP=212        0.54      11.9    22.9 14.1  0.2338E+03 -0.1945E+03 -0.8988E+02E
 Epicentro: JORDAN - SANTANDER                                                 3
 ACTION:UP  11-02-18 11:11 OP:tino STATUS:               ID:20101023091722 L   I
 2010-10-23-0913-39S.COL___127                                                 6
 STAT SP IPHASW D HRMM SECON CODA AMPLIT PERI AZIMU VELO SNR AR TRES W  DIS CAZ7
 BAR2 SZ EP   1    917 41.97                             174    -0.2 7   16 203 
 BAR2 SZ I         917 59.21         4.9 0.21                            16 203 
 BTL  SZ EP   1    917 42.54                             169     0.2 7   27 325 
 BRR  HZ EP   1    917 43.97                             150    -0.2 7   77 304 
 BRR  HE ES   2    918  1.09                             150     0.3 5   77 304 
 BRR  HZ I         918  5.09         4.8 0.38                            77 304 
 RUS  HZ EP   1    917 46.10                             146     0.3 7   92 177 
 RUS  HZ I         917 47.57         1.1 0.16                            92 177 
 RUS  HN ES   2    918  3.53                             146    -0.2 5   92 177 
                                                                                
