 2010 1023 0708 59.3 L   6.792 -73.131150.8  RSN 18 0.5 3.0LRSN                1
 GAP=137        1.10       3.8     6.0  7.3 -0.6428E+01  0.4461E+01  0.6741E+01E
 Epicentro: LOS SANTOS - SANTANDER                                             3
 ACTION:UP  11-02-18 11:11 OP:tino STATUS:               ID:20101023070859 L   I
 2010-10-23-0707-33S.COL___127                                                 6
 STAT SP IPHASW D HRMM SECON CODA AMPLIT PERI AZIMU VELO SNR AR TRES W  DIS CAZ7
 BTL  SZ EP        7 9 20.27                             172     0.810   21 313 
 BAR2 SZ IP        7 9 19.13                             171    -0.410   23 195 
 BAR2 SZ ES   1    7 9 35.11                             171    -0.1 7   23 195 
 BAR2 SZ I         7 9 37.18       145.0 0.26                            23 195 
 GIR2 SZ EP   1    7 9 19.22                             167    -0.3 7   33 348 
 URB  SZ EP        7 9 21.06                             159     0.810   54 336 
 BRR  HZ EP   1    7 9 20.99                             153    -0.1 7   73 299 
 BRR  HZ I         7 9 21.36       243.9 0.17                            73 299 
 BRR  HN ES   1    7 9 38.16                             153     0.1 7   73 299 
 RUS  HZ IP     D  7 9 22.94                             145    -0.510  100 177 
 RUS  HZ I         7 9 24.66        64.7 0.50                           100 177 
 RUS  HE ES   1    7 9 42.15                             145    -0.1 7  100 177 
 GRA  SZ IP        7 9 24.92                             138    -0.110  126  17 
 GRA  SZ ES   1    7 9 45.14                             138     0.1 7  126  17 
 GRA  SZ I         7 9 46.89       103.8 0.28                           126  17 
 OCA  SZ EP        7 9 27.71                             130    -0.4 9  161 353 
 OCA  SZ ES   1    7 9 50.06                             130    -0.5 7  161 353 
 OCA  SZ I         7 9 54.51       142.5 0.33                           161 353 
 YOP  SZ EP        7 9 29.56                             128     0.0 9  177 154 
 NOR  SZ EP   1    7 9 34.86                             119    -0.5 6  236 235 
 NOR  SE ES   1    710  3.11                             119    -0.4 6  236 235 
 CHI  HZ EP   1    7 9 36.84                             118    -0.3 6  248 196 
 CHI  HN ES   1    710  6.83                             118     0.1 6  248 196 
 CHI  HZ I         710 14.30        37.7 0.26                           248 196 
 ROSC BZ IP     D  7 9 38.53                             118     0.9 8  253 211 
 ROSC BN ES   2    710  7.23                             118    -0.4 4  253 211 
 ROSC BZ I         710 16.97        58.0 0.40                           253 211 
 CVER SZ EP   2    7 9 40.60                             116     0.8 4  272 203 
 CVER SZ I         7 9 42.18        66.8 0.45                           272 203 
 HEL  HZ EP   1    7 9 39.36                             116    -0.5 6  273 256 
 HEL  HN ES   1    710 11.36                             116    -0.2 6  273 256 
 HEL  HZ I         710 18.91        50.4 0.13                           273 256 
 VIL  SZ EP   2    7 9 42.37                             113    -0.3 4  301 190 
 GUY  SN ES   2    710 18.47                             113     1.0 4  302 235 
 GUY  SZ I         710 29.12        82.2 0.33                           302 235 
 RREF HZ EP   1    7 9 46.09                             112     0.4 5  322 230 
 RREF HZ I         710 31.43        53.9 0.22                           322 230 
 PRA  HZ EP   1    7 9 52.48                             107    -0.5 4  392 210 
 PRA  HN ES   1    710 35.03                             107     0.2 4  392 210 
 PRA  HZ I         710 41.36        91.9 0.28                           392 210 
                                                                                
