 2013  623 0307 19.3 L   6.462 -73.453126.7  RSN  6 0.3 1.6LRSN                1
 GAP=128        0.78       4.5     4.8  7.2  0.3778E+01  0.8291E+01  0.3437E+01E
 Epicentro: SIMACOTA - SANTANDER                                               3
 ACTION:UPD 14-01-08 09:56 OP:ep   STATUS:               ID:20130623030719 L   I
 OLDACT:REG 13-06-23 10:19 OP:carl STATUS:               ID:20130623025959     3
 2013-06-23-0259-59M.COL___267                                                 6
 STAT SP IPHASW D HRMM SECON CODA AMPLIT PERI AZIMU VELO AIN AR TRES W  DIS CAZ7
 BAR2 SZ EP        3 7 37.12                             164    0.2110 33.2  64 
 BAR2 SZ ES   1    3 7 50.43                             164   -0.22 7 33.2  64 
 BAR2 SZ I         3 7 51.56        15.5 0.26            167           33.2  64 
 GIR2 SZ EP        3 7 39.07                             147    0.2710 74.0  23 
 GIR2 SZ ES   1    3 7 53.88                             147   -0.13 7 74.0  23 
 RUS  HZ EP        3 7 39.57                             148    0.2010 75.1 147 
 RUS  HN ES   1    3 7 54.73                             148   -0.29 7 75.1 147 
 RUS  HZ I         3 7 56.41         4.1 0.28            149           75.1 147 
 BRR  HZ EP        3 7 39.00                             146    0.2210 76.9 338 
 BRR  HN ES   1    3 7 54.08                             146    0.10 7 76.9 338 
 PTB  HZ EP        3 7 40.73                             136   -0.7110  111 274 
 PTB  HN ES   1    3 7 59.06                             136    0.34 7  111 274 
 PTB  HZ I         3 8  0.18        11.2 0.20            137            111 274 
 OCA  HN ES   2    3 8 13.48                             119   -0.49 4  197   4 
                                                                                
