 2014  723 0103 10.8 L   6.595 -73.450113.5  RSN 22 0.5 2.7LRSN                1
 GAP= 57        0.97       2.5     3.3  5.6 -0.1976E+01  0.8123E+01 -0.1475E+01E
 Epicentro: EL CARMEN - SANTANDER                                              3
 ACTION:UPD 15-03-16 20:46 OP:nd   STATUS:               ID:20140723010310 L   I
 OLDACT:REG 14-07-23 12:17 OP:mh   STATUS:               ID:20140723005819     3
 2014-07-23-0058-19M.COL___269                                                 6
 STAT SP IPHASW D HRMM SECON CODA AMPLIT PERI AZIMU VELO AIN AR TRES W  DIS CAZ7
 BAR2 SZ EP     C  1 3 26.99                             164    0.2710 29.6  90 
 BAR2 SZ ES   1    1 3 39.13                             164   -0.02 7 29.6  90 
 BAR2 SZ I         1 3 41.03       212.0 0.13            167           29.6  90 
 BRR  HZ EP     C  1 3 28.34                             149    0.3110 63.6 333 
 BRR  HN ES   1    1 3 41.77                             149    0.27 7 63.6 333 
 BRR  HZ I         1 3 43.62       181.1 0.10            143           63.6 333 
 RUS  HZ EP     D  1 3 30.24                             140   -0.2010 87.6 152 
 RUS  HN ES        1 3 45.92                             140    0.1310 87.6 152 
 RUS  HZ I         1 3 48.75        45.2 0.24            137           87.6 152 
 PTB  HZ EP     C  1 3 30.84                             132   -0.9710  111 267 
 PTB  HN ES   4    1 3 47.26                             132   -0.96 0  111 267 
 PTB  HZ I         1 3 51.48                             126            111 267 
 PAM  SZ EP   1    1 3 32.58                             131   -0.37 7  117  45 
 PAM  SN ES   1    1 3 50.57                             131    0.32 7  117  45 
 PAM  SZ I         1 3 54.13        51.4 0.34            129            117  45 
 SPBC HZ EP        1 3 32.91                             129   -0.2510  125 213 
 SPBC HN ES        1 3 50.48                             129   -0.1510  125 213 
 OCA  HZ EP        1 3 39.04                             117   -0.11 9  182   5 
 OCA  HN ES   1    1 4  1.53                             117    0.24 7  182   5 
 OCA  HZ I         1 4  8.58        56.2 0.06            114            182   5 
 TAM  HZ EP   1    1 3 38.86                             117   -0.35 7  184  95 
 TAM  HN ES   4    1 3 59.40                             117   -2.00 0  184  95 
 TAM  HZ I         1 4  2.29        47.8 0.18            115            184  95 
 ZAR  HZ EP     D  1 3 39.45                             117    0.26 9  185 303 
 ZAR  HN ES   1    1 4  2.05                             117    0.69 7  185 303 
 ZAR  HZ I         1 4  5.17        60.3 0.32            113            185 303 
 NOR  HZ EP   1    1 3 40.68                             116    0.38 6  194 234 
 NOR  HN ES        1 4  2.60                             116   -0.73 9  194 234 
 NOR  HZ I         1 4  7.35        51.2 0.32            112            194 234 
 ROSC BZ EP   4    1 3 46.49                             113    3.26 0  217 206 
 ROSC BN ES   4    1 4 11.78                             113    3.22 0  217 206 
 ROSC BZ I         1 4 18.35        23.6 0.32            110            217 206 
 HEL  HZ EP        1 3 45.19                             111   -0.01 8  234 259 
 HEL  HN ES   1    1 4 11.78                             111   -0.28 6  234 259 
 HEL  HZ I         1 4 17.15        35.7 0.41            108            234 259 
 SML  HZ EP   1    1 3 46.75                             109   -0.18 6  253 344 
 SML  HN ES        1 4 14.84                             109   -0.30 8  253 344 
 SML  HZ I         1 4 20.11        69.6 0.26            107            253 344 
 GUY2CHZ EP        1 3 49.13                             108    0.77 8  261 235 
 GUY2CHN ES   4    1 4 21.47                             108    3.79 0  261 235 
 GUY2CHZ I         1 4 27.68        27.5 0.27                           261 235 
 URE  HZ EP   4    1 3 47.06                             108   -1.02 0  263 299 
 URE  HN ES   4    1 4 15.18                             108   -2.01 0  263 299 
 RREF HZ EP   4    1 3 52.27                             107    1.29 0  281 228 
 RREF HN ES   2    1 4 23.73                             107    1.38 4  281 228 
 RREF HZ I         1 4 28.89        27.1 0.31            105            281 228 
 CBOC HZ EP   1    1 3 52.24                             106    0.27 5  295 254 
 CBOC HN ES   1    1 4 23.56                             106   -0.55 5  295 254 
 CBOC HZ I         1 4 33.12        12.2 0.27            104            295 254 
 PTGC HZ EP   4    1 3 49.68                             105   -2.97 0  302 151 
 PTGC HN ES   4    1 4 22.80                             105   -2.52 0  302 151 
 PTGC HZ I         1 4 28.97        27.1 0.50            104            302 151 
 TOL  SZ EP   4    1 3 54.57                             105    1.34 0  304 223 
 TOL  SE ES   4    1 4 29.71                             105    3.36 0  304 223 
 TOL  SZ I         1 4 36.94        55.6 0.70            104            304 223 
 DBB  SZ EP        1 3 53.33                             105   -0.15 7  309 279 
 DBB  SZ I         1 4 41.80        44.6 0.57            103            309 279 
 PRA  HZ EP        1 3 59.75                             102    0.68 6  356 207 
 PRA  HN ES   4    1 4 35.48                             102   -1.27 0  356 207 
 PRA  HZ I         1 4 43.75        11.1 0.54            101            356 207 
 ORTC HZ EP        1 3 58.92                             102   -0.32 6  358 214 
 ORTC HE ES        1 4 38.07                             102    1.03 6  358 214 
 ORTC HZ I         1 4 46.14         8.8 0.48            101            358 214 
 PAL  HZ EP   4    1 4  0.33                             101    0.14 0  365 239 
 PAL  HN ES   4    1 4 38.77                             101    0.04 0  365 239 
 SJC  HZ EP   4    1 4  3.83                              99   -1.95 0  412 333 
 SJC  HN ES   4    1 4 45.16                              99   -3.53 0  412 333 
 SJC  HZ I         1 4 48.22        15.0 0.33            100            412 333 
                                                                                
