 2014  323 0329 47.3 L   6.812 -73.156143.9  RSN 18 0.4 2.5LRSN                1
 GAP= 70        0.89       2.3     2.6  4.6 -0.7509E+00  0.3983E+01 -0.3706E+00E
 Epicentro: LOS SANTOS - SANTANDER                                             3
 2014-03-23-0328-13M.COL___234                                                 6
 OLDACT:REG 14-03-23 08:35 OP:mh   STATUS:               ID:20140323032813     3
 ACTION:UPD 14-04-09 23:19 OP:nd   STATUS:               ID:20140323032947 L   I
 OLDACT:UP  14-03-23 12:10 OP:mh   STATUS:               ID:20140323032813     3
 STAT SP IPHASW D HRMM SECON CODA AMPLIT PERI AZIMU VELO AIN AR TRES W  DIS CAZ7
 BAR2 SZ EP        330  6.87                             170    0.1010 24.5 187 
 BAR2 SZ ES        330 22.21                             170    0.2810 24.5 187 
 BAR2 SZ I         330 22.79       109.4 0.34            168           24.5 187 
 PAM  SZ EP     C  330  9.64                             151    0.3010 77.1  41 
 PAM  SN ES        330 26.92                             151    0.4210 77.1  41 
 PAM  SZ I         330 28.50        23.9 0.20            146           77.1  41 
 RUS  HZ EP        330 10.78                             143   -0.2310  102 175 
 RUS  HN ES        330 29.36                             143   -0.1210  102 175 
 RUS  SZ I         330 30.63        33.7 0.70            138            102 175 
 PTB  HZ EP        330 13.62                             132   -0.46 9  147 258 
 PTB  HN ES        330 34.78                             132   -0.16 9  147 258 
 PTB  SZ I         330 36.90        37.2 0.16            124            147 258 
 TAM  HZ IP     D  330 15.03                             130    0.02 9  157 105 
 TAM  HN ES        330 36.28                             130   -0.30 9  157 105 
 TAM  SZ I         330 43.60         8.6 0.26            125            157 105 
 OCA  HZ EP        330 15.00                             129   -0.37 9  159 353 
 OCA  HN ES        330 37.00                             129   -0.23 9  159 353 
 OCA  SZ I         330 41.74        60.1 0.28            123            159 353 
 SPBC HZ EP        330 15.72                             129   -0.01 9  164 218 
 SPBC HN ES        330 37.34                             129   -0.53 9  164 218 
 SPBC SZ I         330 40.65        51.4 0.30            122            164 218 
 ZAR  HZ EP        330 19.47                             122   -0.04 9  203 292 
 ZAR  HN ES        330 45.06                             122    0.47 9  203 292 
 ZAR  SZ I         330 50.28        39.2 0.28            115            203 292 
 NOR  HN ES        330 50.55                             118   -0.17 8  235 234 
 SML  HZ EP        330 23.31                             117   -0.37 8  242 335 
 SML  HN ES   1    330 51.83                             117   -0.19 6  242 335 
 SML  SZ I         330 54.13        65.3 0.10            111            242 335 
 CHI  HZ EP        330 24.85                             117   -0.20 8  250 195 
 CHI  HN ES        330 54.84                             117    0.38 8  250 195 
 CHI  SZ I         330 59.77         9.9 0.34            111            250 195 
 ROSC BZ EP   4    330 26.15                             116    0.73 0  253 211 
 ROSC BN ES   4    330 56.35                             116    1.22 0  253 211 
 ROSC SZ I         331  1.30        28.3 0.35            111            253 211 
 HEL  HZ EP        330 28.21                             114    0.83 8  271 255 
 HEL  HN ES   1    330 58.37                             114   -0.23 6  271 255 
 HEL  SZ I         331  6.84        19.4 0.36            109            271 255 
 URE  HZ EP   1    330 27.53                             113   -0.62 6  282 292 
 URE  HN ES   4    330 57.78                             113   -2.20 0  282 292 
 URE  SZ I         331 11.65        17.4 0.32            108            282 292 
 GUY2CHZ EP        330 31.63                             112    0.78 7  301 234 
 GUY2CHN ES   1    331  4.18                             112   -0.60 5  301 234 
 GUY2CSZ I         331 13.90        18.6 0.34                           301 234 
 RREF HZ EP   1    330 34.63                             110    1.22 5  322 229 
 RREF HN ES   4    331 12.17                             110    2.83 0  322 229 
 RREF SZ I         331 18.28        21.9 0.36            105            322 229 
 CBOC HZ EP        330 34.53                             110    0.43 7  333 252 
 CBOC SZ I         331 19.59         5.3 0.42            104            333 252 
 SJC  HZ EP   4    330 40.86                             105   -1.78 0  407 327 
 SJC  HN ES   4    331 21.72                             105   -4.05 0  407 327 
 SJC  SZ I         331 48.40         7.1 1.20            101            407 327 
                                                                                
