 2017  623 0509 27.4 L   6.669 -73.175148.2  RSN  4 0.2 1.3LRSN                1
 GAP=236        0.56       6.4     4.1  5.1  0.9797E+01  0.5510E+01  0.2759E+01E
 Epicentro: VILLANUEVA - SANTANDER                                             3
 ACTION:UPD 17-09-14 16:54 OP:jn   STATUS:               ID:20170623050927 L   I
 OLDACT:REG 17-06-23 13:23 OP:lv   STATUS:               ID:20170623050730     3
 2017-06-23-0508-00M.COL___368                                                 6
 STAT SP IPHASW D HRMM SECON CODA AMPLIT PERI AZIMU VELO AIN AR TRES W  DIS CAZ7
 BAR2 EZ EP        5 9 47.29                             177    0.1710 8.59 185 
 BAR2 EZ ES        510  2.23                             177   -0.2710 8.59 185 
 BAR2 EZ I         510  3.37         4.4 0.37            176           8.59 185 
 BRR  HZ EP        5 9 49.04                             151   -0.0810 76.6 309 
 BRR  HN ES        510  6.36                             151    0.3010 76.6 309 
 PTB  HZ EP        5 9 54.11                             134    0.01 9  142 264 
 PTB  HN ES        510 15.00                             134    0.09 9  142 264 
 ZAR  HZ EP   4    510  2.23                             122    1.92 0  207 296 
 ZAR  HE ES        510 25.70                             122   -0.28 8  207 296 
                                                                                
