 2011  923 0559  0.3 L   6.811 -73.124153.3  RSN 18 0.4 3.1LRSN                1
 GAP= 94        0.76       2.4     3.2  3.9 -0.4331E+00  0.3114E+01  0.1361E+01E
 Epicentro: LOS SANTOS - SANTANDER                                             3
 ACTION:UPD 12-07-13 15:59 OP:ep   STATUS:               ID:20110923055900 L   I
 2011-09-23-0557-27S.COL___165                                                 6
 STAT SP IPHASW D HRMM SECON CODA AMPLIT PERI AZIMU VELO AIN AR TRES W  DIS CAZ7
 SAN  SZ EP        559 21.17                             177    0.5810 7.54 133 
 SAN  SZ ES        559 36.73                             177    0.3210 7.54 133 
 BTL  SZ IP        559 20.96                             172    0.1710 19.9 307 
 BAR2 SZ IP        559 20.66                             170   -0.2210 25.1 195 
 BAR2 SZ ES   2    559 36.71                             170   -0.21 5 25.1 195 
 BAR2 SZ I         559 37.45       342.9 0.31                          25.1 195 
 GIR2 SZ IP        559 20.71                             168   -0.1510 30.6 345 
 GIR2 SZ ES   1    559 37.30                             168    0.41 7 30.6 345 
 BRR  HZ EP        559 22.52                             153    0.1510 72.8 297 
 BRR  HZ I         559 22.79       647.6 0.18                          72.8 297 
 BRR  HN ES   1    559 39.86                             153    0.29 7 72.8 297 
 PAM  SZ IP        559 23.44                             153    0.2410 74.9  39 
 PAM  SN ES   1    559 40.12                             153   -0.92 7 74.9  39 
 RUS  HZ EP        559 24.59                             145   -0.3010  102 177 
 RUS  HN ES   2    559 43.37                             145   -0.68 5  102 177 
 RUS  HZ I         559 44.11       160.5 0.48                           102 177 
 BRI  SZ EP        559 25.12                             144    0.3410  106  20 
 OCA  SZ EP        559 29.28                             132    0.14 9  159 352 
 OCA  SZ ES   1    559 51.32                             132   -0.30 7  159 352 
 YOP  SZ EP   1    559 30.88                             128   -0.03 7  179 154 
 YOP  SE ES   1    559 54.57                             128   -0.21 7  179 154 
 ZAR  HZ EP        559 33.07                             124   -0.38 8  206 292 
 ZAR  HN ES        559 58.90                             124   -0.38 8  206 292 
 ZAR  HZ I         6 0  5.69       148.3 0.24                           206 292 
 NOR  SZ EP   1    559 36.40                             120   -0.38 6  237 235 
 NOR  SE ES        6 0  5.24                             120    0.02 8  237 235 
 CHI  HZ EP        559 38.57                             118   -0.07 8  250 196 
 CHI  HZ I         559 41.36        39.8 0.48                           250 196 
 CHI  HN ES   2    6 0  8.96                             118    0.43 4  250 196 
 HEL  HZ EP        559 41.38                             116    0.17 8  275 256 
 HEL  HZ I         6 0 19.68        49.0 0.61                           275 256 
 VIL  SZ EP   1    559 43.90                             113   -0.38 5  305 192 
 RREF HZ EP   1    559 47.71                             112    0.62 5  324 229 
 RREF HN ES   1    6 0 23.18                             112   -0.40 5  324 229 
 RREF HZ I         6 0 31.82        55.9 0.53                           324 229 
 TOL  SZ EP   1    559 49.87                             110    0.69 5  346 225 
 COD  HZ EP        559 48.41                             110   -0.48 6  347 354 
 COD  HN ES   2    6 0 26.66                             110   -0.11 3  347 354 
 COD  HZ I         6 0 37.09        57.7 0.67                           347 354 
                                                                                
