 2012 1023 0420  4.2 L   6.757 -73.084142.5  RSN  4 0.2 2.0LRSN                1
 GAP=147        0.57       3.2     4.7  6.6 -0.2983E+00 -0.1408E+01  0.3093E+01E
 Epicentro: LOS SANTOS - SANTANDER                                             3
 ACTION:UPD 12-11-22 17:05 OP:ep   STATUS:               ID:20121023042004 L   I
 2012-10-23-0418-47M.COL___191                                                 6
 STAT SP IPHASW D HRMM SECON CODA AMPLIT PERI AZIMU VELO AIN AR TRES W  DIS CAZ7
 BAR2 SZ EP   1    420 23.63                             171    0.28 7 21.2 211 
 PAM  SZ EP   1    420 25.82                             150   -0.19 7 77.2  33 
 PAM  SN ES        420 43.10                             150    0.0410 77.2  33 
 PAM  SN I         420 44.24        17.0 0.40                          77.2  33 
 BRR  HZ EP   1    420 25.09                             149   -0.36 7 79.5 299 
 BRR  HE ES        420 42.16                             149    0.1010 79.5 299 
 BRR  HN I         420 45.93        20.9 0.12                          79.5 299 
 RUS  HZ EP   1    420 27.60                             145    0.38 7 95.5 180 
 RUS  HN ES        420 45.01                             145   -0.2010 95.5 180 
                                                                                
