 2013 1023 0844  4.5 L   6.773 -73.159146.0  RSN 10 0.4 1.8LRSN                1
 GAP=136        1.13       3.2     4.8  7.0 -0.1709E+00  0.6298E+01  0.2848E+01E
 Epicentro: LOS SANTOS - SANTANDER                                             3
 ACTION:UPD 13-11-25 09:23 OP:ep   STATUS:               ID:20131023084404 L   I
 OLDACT:REG 13-10-23 08:31 OP:carl STATUS:               ID:20131023083845     3
 2013-10-23-0838-45M.COL___226                                                 6
 STAT SP IPHASW D HRMM SECON CODA AMPLIT PERI AZIMU VELO AIN AR TRES W  DIS CAZ7
 BAR2 SZ EP        844 24.05                             172   -0.0510 20.1 187 
 BAR2 SZ ES        844 39.44                             172    0.0510 20.1 187 
 BAR2 SZ I         844 40.62        31.2 0.18            171           20.1 187 
 BRR  HZ EP        844 25.96                             152    0.2710 71.5 301 
 BRR  HN ES        844 43.33                             152    1.1110 71.5 301 
 BRR  HZ I         844 49.83         7.7 0.16            151           71.5 301 
 PAM  SZ EP        844 26.98                             150    0.0410 80.6  39 
 PAM  SN ES        844 44.32                             150   -0.1210 80.6  39 
 PAM  SZ I         844 47.82         3.8 0.52            149           80.6  39 
 RUS  HZ EP        844 27.95                             145   -0.1210 97.7 175 
 RUS  HN ES        844 45.76                             145   -0.6910 97.7 175 
 RUS  HZ I         844 47.84         4.7 0.24            144           97.7 175 
 PTB  HZ EP        844 30.97                             132   -0.34 9  146 260 
 PTB  HN ES        844 51.96                             132   -0.26 9  146 260 
 PTB  HZ I         844 53.24         5.1 0.36            131            146 260 
 SPBC HZ EP        844 32.98                             130    0.27 9  160 219 
 SPBC HZ I         844 49.72        17.0 0.20            128            160 219 
 SPBC HN ES        844 54.51                             130   -0.21 9  160 219 
 OCA  HN ES        844 55.12                             129   -0.28 9  163 354 
 OCA  HN I         844 59.43        23.1 0.22            128            163 354 
 ZAR  HE ES        845  1.54                             122   -0.71 9  204 293 
 CHI  HZ EP        844 42.12                             118    0.26 8  245 195 
 CHI  HN ES        845 11.77                             118    0.78 8  245 195 
 CHI  HZ I         845 14.81         2.1 0.52            116            245 195 
 SML  HE ES        845 10.27                             117    0.14 8  246 336 
                                                                                
