 2014  323 0702  3.1 L   6.819 -73.105140.0  RSN  7 0.5 1.7LRSN                1
 GAP=246        1.02       5.2    15.3 19.5 -0.3101E+01 -0.1804E+03 -0.2027E+02E
 Epicentro: LOS SANTOS - SANTANDER                                             3
 OLDACT:UP  14-03-23 12:51 OP:mh   STATUS:               ID:20140323065813     3
 OLDACT:UP  14-03-23 12:49 OP:mh   STATUS:               ID:20140323065813     3
 OLDACT:REG 14-03-23 08:41 OP:mh   STATUS:               ID:20140323065813     3
 ACTION:UPD 14-04-09 23:19 OP:nd   STATUS:               ID:20140323070203 L   I
 OLDACT:UP  14-03-23 13:05 OP:mh   STATUS:               ID:20140323065813     3
 OLDACT:UP  14-03-23 12:54 OP:mh   STATUS:               ID:20140323065813     3
 OLDACT:UP  14-03-23 12:54 OP:mh   STATUS:               ID:20140323065813     3
 2014-03-23-0658-13M.COL___240                                                 6
 STAT SP IPHASW D HRMM SECON CODA AMPLIT PERI AZIMU VELO AIN AR TRES W  DIS CAZ7
 PTB  HZ EP        7 2 29.67                             130   -0.3810  153 258 
 PTB  HN ES   1    7 2 51.64                             130    0.56 7  153 258 
 PTB  HZ I         7 2 53.94         2.6 0.17            127            153 258 
 SPBC HN ES        7 2 54.02                             127    0.2010  168 220 
 ZAR  HZ EP   1    7 2 35.42                             121   -0.12 7  207 291 
 ZAR  HN ES        7 3  1.12                             121    0.29 9  207 291 
 ZAR  HZ I         7 3  7.06         2.7 0.28            118            207 291 
 NOR  HZ EP   4    7 2 37.02                             117   -2.01 0  240 235 
 NOR  HN ES        7 3  6.17                             117   -0.88 9  240 235 
 NOR  HZ I         7 3 10.40         2.8 0.24            116            240 235 
 SML  HZ EP   1    7 2 39.64                             116    0.22 6  244 334 
 SML  HN ES   1    7 3  7.23                             116   -0.51 6  244 334 
 SML  HZ I         7 3 12.09        10.8 0.07            115            244 334 
 GUY2CHZ EP        7 2 47.82                             111    0.82 8  306 235 
 SJC  HZ EP   4    7 2 56.02                             105   -2.55 0  410 326 
 SJC  HN ES   4    7 3 39.11                             105   -2.72 0  410 326 
 SJC  HZ I         7 3 43.96         3.5 0.91            105            410 326 
                                                                                
