 2011  623 0814 55.9 L   6.802 -73.091141.9  RSN 10 0.3 2.0LRSN                1
 GAP=162        0.68       3.6     7.3  5.8 -0.9558E+01 -0.3842E+01  0.3042E+00E
 Epicentro: LOS SANTOS - SANTANDER                                             3
 ACTION:UP  11-07-14 19:07 OP:ep   STATUS:               ID:20110623081455 L   I
 2011-06-23-0810-16S.COL___140                                                 6
 STAT SP IPHASW D HRMM SECON CODA AMPLIT PERI AZIMU VELO SNR AR TRES W  DIS CAZ7
 BTL  SZ EP        815 15.48                             170     0.410   23 303 
 BTL  SZ ES   1    815 30.44                             170     0.4 7   23 303 
 BAR2 SZ EP   1    815 14.90                             169    -0.2 7   25 203 
 BAR2 SZ ES   2    815 29.93                             169    -0.2 5   25 203 
 BAR2 SZ I         815 31.48        36.7 0.26                            25 203 
 GIR2 SZ EP   1    815 15.13                             166     0.0 7   33 340 
 GIR2 SZ ES   2    815 30.25                             166     0.1 5   33 340 
 BRR  HZ EP        815 16.82                             150    -0.110   76 296 
 BRR  HN ES   2    815 33.15                             150    -0.2 5   76 296 
 BRR  HZ I         815 37.58        24.5 0.08                            76 296 
 RUS  HZ EP   1    815 18.95                             143    -0.3 7  101 179 
 RUS  HN ES   2    815 37.31                             143    -0.2 5  101 179 
 RUS  HZ I         815 39.27         9.9 0.47                           101 179 
 BRI  SZ EP   1    815 19.54                             141     0.3 7  106  18 
 GRA  SZ EP   1    815 20.72                             137     0.1 7  124  15 
 GRA  SZ ES   1    815 39.23                             137    -0.7 7  124  15 
 GRA  SZ I         815 44.89         9.3 0.49                           124  15 
 OCA  SZ EP   1    815 24.03                             129     0.1 7  161 351 
 OCA  SZ ES   2    815 45.93                             129     0.1 5  161 351 
 NOR  SN ES   2    815 59.47                             117    -0.6 4  240 235 
 CHI  HN ES   2    816  3.26                             116     0.3 4  251 196 
 CHI  HZ I         816 12.28         5.6 0.32                           251 196 
                                                                                
