 2012 1123 0717 31.4 L   6.797 -73.148138.6  RSN  7 0.3 1.8LRSN                1
 GAP=136        0.57       2.9     3.5  5.3 -0.4981E+00  0.3425E+01 -0.2473E+01E
 Epicentro: LOS SANTOS - SANTANDER                                             3
 ACTION:UPD 12-12-05 15:35 OP:}ep  STATUS:               ID:20121123071731 L   I
 2012-11-23-0715-35M.COL___203                                                 6
 STAT SP IPHASW D HRMM SECON CODA AMPLIT PERI AZIMU VELO AIN AR TRES W  DIS CAZ7
 BAR2 SZ EP   1    717 50.22                             170    0.01 7 22.9 190 
 BAR2 SZ ES   1    718  4.95                             170    0.11 7 22.9 190 
 GIR2 SZ EP   1    717 50.33                             166    0.05 7 31.6 351 
 GIR2 SZ ES   1    718  4.56                             166   -0.40 7 31.6 351 
 GIR2 SZ I         718  6.65         9.3 0.11                          31.6 351 
 PAM  SZ EP   1    717 53.03                             149    0.10 7 77.8  39 
 PAM  SN ES   1    718 10.20                             149    0.51 7 77.8  39 
 PAM  SZ I         718 12.51        12.1 0.60                          77.8  39 
 RUS  HZ EP   1    717 54.25                             142   -0.22 7  100 176 
 RUS  HN ES   1    718 12.40                             142   -0.03 7  100 176 
 RUS  HZ I         718 13.54        12.6 0.24                           100 176 
 PTB  HN ES   1    718 18.32                             130   -0.06 7  147 259 
 OCA  HZ EP   1    717 59.29                             128    0.05 7  161 353 
 OCA  HN ES   1    718 20.41                             128   -0.51 7  161 353 
 OCA  HZ I         718 24.85        15.9 0.24                           161 353 
 ZAR  HN ES   1    718 28.78                             121    0.41 6  204 292 
                                                                                
