 2016 1123 0748 54.5 L   6.821 -73.170154.0  RSN 10 0.5 2.0LRSN                1
 GAP=116        1.23       5.0     5.0  6.8 -0.1046E+01  0.6328E+01  0.7655E+01E
 Epicentro: LOS SANTOS - SANTANDER                                             3
 ACTION:UPD 17-10-26 21:10 OP:lp   STATUS:               ID:20161123074854 L   I
 OLDACT:UP  16-11-23 17:31 OP:dani STATUS:               ID:20161123074741     3
 OLDACT:UP  16-11-23 17:30 OP:dani STATUS:               ID:20161123074741     3
 OLDACT:REG 16-11-23 16:56 OP:dani STATUS:               ID:20161123074741     3
 2016-11-23-0748-00M.COL___352                                                 6
 STAT SP IPHASW D HRMM SECON CODA AMPLIT PERI AZIMU VELO AIN AR TRES W  DIS CAZ7
 BAR2 EZ EP     C  749 15.07                             170   -0.0410 25.3 183 
 BAR2 EZ ES        749 30.77                             170   -0.4610 25.3 183 
 BAR2 EZ I         749 31.17        17.0 0.28            169           25.3 183 
 BRR  HZ EP     C  749 16.85                             155    0.5310 67.7 298 
 BRR  HE ES        749 34.15                             155    0.7810 67.7 298 
 BRR  HZ I         749 37.95        19.7 0.32            151           67.7 298 
 PAM  EZ EP        749 18.07                             152    0.5210 77.4  42 
 PAM  EN ES        749 35.14                             152   -0.4310 77.4  42 
 PAM  EZ I         749 37.23        12.0 0.50            156           77.4  42 
 PTB  HZ EP        749 21.58                             134   -0.33 9  146 258 
 PTB  HN ES        749 42.80                             134   -0.53 9  146 258 
 PTB  HZ I         749 48.44         9.9 0.38            132            146 258 
 ZAR  HZ EP        749 27.38                             124    0.27 9  201 292 
 ZAR  HE ES        749 52.13                             124   -0.45 9  201 292 
 ZAR  HZ I         750  1.02        11.8 0.12            124            201 292 
 NOR  HZ EP        749 31.65                             120    1.07 8  234 234 
 NOR  HN ES        749 58.85                             120    0.09 8  234 234 
 NOR  HZ I         750  6.62         4.9 0.20            120            234 234 
 CHI  HZ EP        749 33.22                             118    0.44 8  250 194 
 CHI  HN ES        750  2.57                             118   -0.11 8  250 194 
 CHI  HZ I         750  4.91         5.5 0.44            119            250 194 
 ROSC BZ EP   4    749 35.26                             118    2.16 0  253 210 
 URE  HZ EP        749 34.95                             115   -0.61 7  280 292 
 URE  HN ES   3    750  6.51                             115   -1.12 2  280 292 
 URE  HZ I         750 16.59         9.2 0.34            115            280 292 
 PTGC HZ EP        749 38.21                             113   -0.83 7  312 158 
 PTGC HN ES   4    750 11.52                             113   -2.30 0  312 158 
 PTGC HZ I         750 16.84         4.6 0.31            114            312 158 
 SJC  HZ EP        749 49.28                             107   -0.62 6  406 327 
                                                                                
