 2013 1123 0353 50.5 L   6.771 -73.120145.6  RSN  9 0.5 1.4LRSN                1
 GAP=141        1.12       4.4     6.1  8.8 -0.1920E+01  0.1289E+02 -0.1251E+00E
 Epicentro: LOS SANTOS - SANTANDER                                             3
 ACTION:UPD 14-01-09 16:30 OP:ep   STATUS:               ID:20131123035350 L   I
 OLDACT:UP  13-11-23 09:25 OP:mh   STATUS:               ID:20131123035001d    3
 OLDACT:UP  13-11-23 09:25 OP:mh   STATUS:               ID:20131123035001d    3
 OLDACT:DUP 13-11-23 09:18 OP:mh   STATUS:               ID:20131123035001d    3
 OLDACT:REG 13-11-23 07:40 OP:mh   STATUS:               ID:20131123035000     3
 2013-11-23-0350-00M.COL___282                                                 6
 STAT SP IPHASW D HRMM SECON CODA AMPLIT PERI AZIMU VELO AIN AR TRES W  DIS CAZ7
 BAR2 SZ EP        354 10.55                             171    0.5210 20.9 199 
 BAR2 SZ ES   1    354 25.12                             171   -0.16 7 20.9 199 
 BAR2 SZ I         354 26.22         8.4 0.29            174           20.9 199 
 BRR  HZ IP     D  354 12.09                             151    0.2610 75.3 300 
 BRR  HN ES        354 28.88                             151    0.3910 75.3 300 
 BRR  HZ I         354 32.05         3.7 0.14            147           75.3 300 
 PAM  SZ EP   1    354 12.97                             151    0.26 7 78.2  36 
 PAM  SN ES   1    354 29.07                             151   -0.99 7 78.2  36 
 PAM  SZ I         354 33.02         3.0 0.61            147           78.2  36 
 RUS  HN ES   2    354 31.74                             145   -0.54 5 97.2 178 
 PTB  HZ EP   1    354 16.96                             132   -0.66 7  150 260 
 PTB  HN ES   1    354 38.68                             132   -0.11 7  150 260 
 PTB  HZ I         354 40.49         2.3 0.18            131            150 260 
 SPBC HZ EP        354 18.76                             129   -0.12 9  162 220 
 SPBC HN ES   1    354 41.06                             129    0.01 7  162 220 
 SPBC HZ I         354 47.21         2.4 0.14            131            162 220 
 OCA  HN ES        354 42.14                             129    0.71 9  164 352 
 OCA  HZ I         354 59.17         3.0 0.11            126            164 352 
 ZAR  HZ EP   1    354 23.42                             122    0.12 6  208 293 
 ZAR  HN ES        354 48.87                             122   -0.03 8  208 293 
 ZAR  HZ I         354 54.82         2.4 0.10            121            208 293 
 SML  HE ES        354 55.34                             117   -1.10 8  248 335 
 SML  HZ I         355  5.98         6.1 0.07            116            248 335 
 GUY2CHN ES   4    355 10.78                             112    2.61 0  302 236 
                                                                                
