 2012  423 0345 39.7 L   6.792 -73.172144.0  RSN  6 0.3 1.5LRSN                1
 GAP=134        0.91       5.9     5.0  9.6  0.3195E+00  0.6596E+01  0.4025E+01E
 Epicentro: LOS SANTOS - SANTANDER                                             3
 ACTION:UPD 12-07-05 11:55 OP:tino STATUS:               ID:20120423034539 L   I
 2012-04-23-0340-00M.COL___186                                                 6
 STAT SP IPHASW D HRMM SECON CODA AMPLIT PERI AZIMU VELO AIN AR TRES W  DIS CAZ7
 BAR2 SZ EP   1    345 59.11                             171     0.1 7   22 183 
 BAR2 SZ I         346 14.89         6.7 0.10                            22 183 
 BRR  HZ EP        346  0.80                             153     0.310   69 300 
 BRR  HN ES   1    346 17.01                             153     0.2 7   69 300 
 BRR  HZ I         346 21.65         7.7 0.16                            69 300 
 PAM  SZ EP        346  1.95                             150     0.110   80  41 
 PAM  SN ES   1    346 18.61                             150    -0.5 7   80  41 
 RUS  HZ EP   1    346  3.27                             144     0.1 7  100 174 
 RUS  HN ES   1    346 21.83                             144     0.3 7  100 174 
 RUS  HZ I         346 25.37         2.3 0.37                           100 174 
 PTB  HZ EP        346  5.78                             132    -0.4 9  145 259 
 PTB  HN ES   1    346 26.37                             132    -0.6 7  145 259 
 PTB  HZ I         346 28.30         4.2 0.13                           145 259 
 ZAR  HN ES   1    346 37.24                             122     0.5 6  202 293 
 ZAR  HZ I         346 42.45         3.5 0.04                           202 293 
                                                                                
