 2014  923 0303 48.1 L   6.775 -73.175145.5  RSN  4 0.6 1.3LRSN                1
 GAP=232        1.43      11.3    10.7 11.5  0.6018E+02  0.1126E+02  0.3015E+01E
 Epicentro: LOS SANTOS - SANTANDER                                             3
 ACTION:UPD 14-10-03 23:07 OP:nd   STATUS:               ID:20140923030348 L   I
 OLDACT:REG 14-09-23 12:38 OP:cam  STATUS:               ID:20140923030000     3
 2014-09-23-0300-00M.COL___252                                                 6
 STAT SP IPHASW D HRMM SECON CODA AMPLIT PERI AZIMU VELO AIN AR TRES W  DIS CAZ7
 BAR2 SZ EP        3 4  7.11                             172   -0.5210 20.3 182 
 BAR2 SZ ES        3 4 22.02                             172   -0.8510 20.3 182 
 BAR2 SZ I         3 4 25.03         4.8 0.34            171           20.3 182 
 BRR  HZ EP     D  3 4  9.24                             153    0.1110 69.8 302 
 BRR  HN ES        3 4 26.38                             153    0.8410 69.8 302 
 BRR  HZ I         3 4 27.14         7.2 0.82            154           69.8 302 
 RUS  HZ EP        3 4 12.19                             144    0.5510 98.1 174 
 RUS  HN ES        3 4 30.45                             144    0.4410 98.1 174 
 RUS  HZ I         3 4 32.12         1.9 0.34            145           98.1 174 
 PTB  HZ EP        3 4 14.32                             133   -0.39 9  144 260 
 PTB  HN ES        3 4 35.22                             133   -0.24 9  144 260 
 PTB  HZ I         3 4 37.11         3.3 0.14            134            144 260 
                                                                                
