 2011  623 0452  1.9 L   6.750 -73.047143.9  RSN 10 0.3 1.6LRSN                1
 GAP=168        0.50       2.8     4.2  5.0 -0.6610E+01 -0.6202E+00  0.2452E+01E
 Epicentro: ARATOCA - SANTANDER                                                3
 ACTION:UP  11-07-14 19:07 OP:ep   STATUS:               ID:20110623045201 L   I
 2011-06-23-0451-38S.COL___140                                                 6
 STAT SP IPHASW D HRMM SECON CODA AMPLIT PERI AZIMU VELO SNR AR TRES W  DIS CAZ7
 BAR2 SZ EP   1    452 21.34                             171     0.0 8   23 221 
 BAR2 SZ ES   2    452 36.17                             171    -0.3 5   23 221 
 BAR2 SZ I         452 39.96         7.1 0.64                            23 221 
 BTL  SZ EP   1    452 21.68                             167     0.2 8   31 308 
 GIR2 SZ EP   1    452 21.53                             164    -0.1 8   40 336 
 BRR  HZ EP   1    452 23.45                             148    -0.2 8   83 298 
 BRR  HZ I         452 25.25        10.7 0.14                            83 298 
 BRR  HE ES   1    452 40.86                             148     0.3 8   83 298 
 RUS  HZ EP   1    452 25.17                             145     0.1 8   95 182 
 RUS  HN ES   2    452 43.58                             145     0.4 5   95 182 
 RUS  HZ I         452 45.60         5.6 0.37                            95 182 
 BRI  SZ EP        452 25.81                             140     0.010  110  14 
 BRI  SZ ES   2    452 44.22                             140    -0.2 5  110  14 
 GRA  SZ EP   1    452 27.22                             136     0.0 7  128  12 
 GRA  SZ ES   1    452 46.68                             136    -0.3 7  128  12 
 GRA  SZ I         452 48.13         6.2 0.29                           128  12 
 OCA  SZ EP   2    452 31.39                             128     0.6 5  167 350 
 OCA  SZ ES   2    452 53.51                             128     0.2 5  167 350 
 OCA  SZ I         452 56.89         5.6 0.40                           167 350 
 NOR  SE ES   2    453  5.89                             117    -0.6 4  241 237 
 RREF HZ EP   2    452 48.81                             110     0.3 3  327 231 
 RREF HN ES        453 24.76                             110    -0.1 7  327 231 
 RREF HZ I         453 33.22         2.5 0.54                           327 231 
                                                                                
