 2013  423 0414 14.0 L   6.786 -73.129149.3  RSN 15 0.4 2.4LRSN                1
 GAP= 72        0.90       3.6     3.4  4.6 -0.1185E+01  0.4879E+00  0.8146E+00E
 Epicentro: LOS SANTOS - SANTANDER                                             3
 ACTION:UPD 13-05-22 14:40 OP:EP   STATUS:               ID:20130423041414 L   I
 2013-04-23-0410-00M.COL___249                                                 6
 STAT SP IPHASW D HRMM SECON CODA AMPLIT PERI AZIMU VELO AIN AR TRES W  DIS CAZ7
 BAR2 SZ EP   1    414 34.05                             171    0.04 7 22.2 195 
 BAR2 SZ ES   1    414 49.15                             171   -0.49 7 22.2 195 
 BAR2 SZ I         414 52.13        35.9 0.38            170           22.2 195 
 GIR2 SZ EP        414 34.26                             167    0.1310 33.2 348 
 GIR2 SZ ES        414 49.55                             167   -0.2810 33.2 348 
 BRR  HZ EP     C  414 35.90                             152    0.2510 73.6 299 
 BRR  HN ES        414 53.19                             152    0.6510 73.6 299 
 BRR  HN I         414 54.74        91.8 0.18            150           73.6 299 
 PAM  SZ EP   1    414 36.91                             151    0.33 7 77.5  38 
 PAM  SN ES   1    414 54.22                             151    0.02 7 77.5  38 
 PAM  SZ I         414 56.18        23.9 0.48            153           77.5  38 
 RUS  HZ EP     D  414 37.92                             145   -0.0410 98.9 177 
 RUS  HN ES   1    414 56.40                             145   -0.26 7 98.9 177 
 RUS  HZ I         414 59.15        17.4 0.48            145           98.9 177 
 PTB  HZ EP        414 40.57                             132   -0.81 9  149 260 
 PTB  HN ES   1    415  2.00                             132   -0.74 7  149 260 
 PTB  HZ I         415  4.08        36.5 0.36            131            149 260 
 TAM  HZ EP     C  414 42.24                             132    0.50 9  153 105 
 TAM  HN ES   1    415  3.45                             132    0.06 7  153 105 
 TAM  HN I         415  4.61        43.1 0.32            133            153 105 
 OCA  HZ EP   1    414 42.95                             130    0.21 7  162 353 
 OCA  HN ES   2    415  5.54                             130    0.38 5  162 353 
 OCA  HN I         415  8.06        99.2 0.42            130            162 353 
 ZAR  HN ES   4    415 13.08                             123    0.51 0  206 292 
 NOR  HZ EP   1    414 49.95                             119   -0.03 6  235 235 
 NOR  HN ES   1    415 18.72                             119    0.66 6  235 235 
 NOR  HZ I         415 21.62        30.0 0.16            119            235 235 
 SML  HZ EP   1    414 50.94                             118   -0.11 6  246 335 
 SML  HN ES   2    415 19.72                             118   -0.23 4  246 335 
 ROSC BZ EP   4    414 53.64                             117    1.38 0  252 212 
 ROSC BN ES   4    415 25.36                             117    3.26 0  252 212 
 HEL  HZ EP   1    414 55.45                             115    0.92 6  273 256 
 HEL  HN ES   2    415 26.23                             115    0.07 4  273 256 
 HEL  HN I         415 35.68        13.3 0.52            115            273 256 
 URE  HZ EP   4    414 53.96                             114   -1.52 0  286 292 
 URE  HN ES   4    415 25.53                             114   -2.32 0  286 292 
 COD  HZ EP   1    415  2.05                             109   -0.65 5  350 354 
 COD  HN ES   2    415 40.15                             109   -0.55 3  350 354 
 COD  HZ I         415 47.61         5.0 0.52            110            350 354 
 SDV  BZ EP        415  3.31                             109   -0.81 6  360  50 
 PRA  HZ EP        415  7.55                             107   -0.03 6  392 210 
 PRA  HN ES   4    415 51.14                             107    1.77 0  392 210 
 PRA  HN I         415 55.78         6.8 0.24            107            392 210 
 SJC  HZ EP   4    415  7.67                             106   -2.27 0  412 327 
 SJC  HN ES   4    415 49.65                             106   -3.93 0  412 327 
 SJC  HN I         415 55.25         8.9 0.52            106            412 327 
                                                                                
