 2015 1023 0514 27.4 L   6.709 -73.512112.0  RSN  6 0.2 1.6LRSN                1
 GAP=148        0.47       2.0     2.2  3.5  0.1787E+01  0.8692E+00 -0.1711E+01E
 Epicentro: EL CARMEN - SANTANDER                                              3
 ACTION:UPD 15-12-22 20:42 OP:cam  STATUS:               ID:20151023051427 L   I
 OLDACT:REG 15-10-23 13:40 OP:mh   STATUS:               ID:20151023050749     3
 2015-10-23-0507-49M.COL___307                                                 6
 STAT SP IPHASW D HRMM SECON CODA AMPLIT PERI AZIMU VELO AIN AR TRES W  DIS CAZ7
 BAR2 EZ EP        514 43.78                             160    0.2810 38.7 109 
 BAR2 EZ ES        514 56.06                             160   -0.0110 38.7 109 
 BAR2 EZ I         514 57.95        10.3 0.34            158           38.7 109 
 BRR  HZ EP   1    514 43.24                             154   -0.41 7 49.3 333 
 BRR  HN ES        514 56.30                             154   -0.0410 49.3 333 
 BRR  HZ I         514 57.07        13.5 0.17            154           49.3 333 
 RUS  HZ EP   1    514 47.84                             135   -0.27 7  102 152 
 RUS  HN ES        515  4.30                             135    0.0210  102 152 
 RUS  HZ I         515  5.38         8.3 0.76            136            102 152 
 PAM  EZ EP        514 49.30                             131    0.1510  114  52 
 PAM  EN ES        515  6.04                             131   -0.0810  114  52 
 PAM  EZ I         515 10.48         3.6 0.32            130            114  52 
 ZAR  HN ES        515 15.53                             118    0.10 9  172 300 
 SML  HZ EP   1    515  1.67                             110   -0.20 6  239 345 
 SML  HN ES        515 28.85                             110    0.08 8  239 345 
 SML  HZ I         515 31.59         8.3 0.10            110            239 345 
                                                                                
