 2017 1023 0714 42.0 L   6.666 -74.073  3.0  RSN 16 0.5 2.0LRSN                1
 GAP= 83        1.15       1.9     1.7  4.0 -0.4189E+00  0.2114E+00  0.1158E+01E
 Epicentro: PUERTO PARRA - SANTANDER                                           3
 ACTION:UPD 17-11-07 19:35 OP:rebc STATUS:               ID:20171023071442 L   I
 OLDACT:DUP 17-10-23 18:29 OP:dhb  STATUS:               ID:20171023070222d    3
 OLDACT:REG 17-10-23 12:48 OP:dhb  STATUS:               ID:20171023070220     3
 2017-10-23-0707-00M.COL___384                                                 6
 STAT SP IPHASW D HRMM SECON CODA AMPLIT PERI AZIMU VELO AIN AR TRES W  DIS CAZ7
 PTB  HZ IP     D  714 49.38                              47   -0.1510 44.6 252 
 PTB  HN ES        714 55.23                              47   -0.1610 44.6 252 
 PTB  HZ I         714 55.59        54.7 0.16             47           44.6 252 
 BRR  HZ IP     D  714 52.48                              47    0.1810 63.0  39 
 BRR  HE ES        715  0.73                              47    0.4110 63.0  39 
 BRR  HZ I         715  1.46       105.4 0.10             47           63.0  39 
 BAR2 EZ IP     D  714 57.83                              47   -0.1410 98.8  95 
 BAR2 EZ ES        715  9.89                              47   -0.5310 98.8  95 
 BAR2 EZ I         715 16.02        35.1 0.48             47           98.8  95 
 SPBC HZ EP        714 59.96                              47    0.1310  112 180 
 SPBC HN ES        715 13.96                              47    0.2410  112 180 
 SPBC HZ I         715 18.00        18.3 0.20             47            112 180 
 ZAR  HZ EP        715  1.78                              47   -0.0710  126 317 
 ZAR  HE ES        715 17.23                              47   -0.0910  126 317 
 ZAR  HZ I         715 18.46        43.2 0.12             47            126 317 
 RUS  HZ EP        715  4.23                              47   -0.08 9  139 128 
 RUS  HE ES        715 22.08                              47    0.38 9  139 128 
 RUS  HZ I         715 24.40        63.5 0.22             47            139 128 
 NOR  HZ EP        715  5.45                              47   -0.15 9  150 216 
 NOR  HE ES        715 22.93                              47   -1.06 9  150 216 
 NOR  HZ I         715 25.78        14.1 0.42             47            150 216 
 PAM  EZ EP        715  9.10                              47    0.23 9  169  64 
 PAM  EN ES        715 29.28                              47   -0.54 9  169  64 
 PAM  EZ I         715 32.36        39.5 0.30             47            169  64 
 URE  HZ EP        715 12.08                              37   -0.50 9  201 307 
 URE  HE ES        715 37.17                              37    0.75 9  201 307 
 URE  HZ I         715 40.59        31.7 0.24             37            201 307 
 GUY2CHZ EP        715 15.10                              37    0.32 8  214 222 
 GUY2CHN ES        715 39.57                              37   -0.77 8  214 222 
 GUY2CHZ I         715 43.15        17.9 0.32                           214 222 
 CHI  HE ES        715 43.88                              37    0.53 8  228 170 
 CHI  HZ I         715 54.27         3.0 0.34             37            228 170 
 YPLC HZ EP   9    715 22.77                              37    5.98 0  234 127 
 YPLC HE ES        715 49.59                                   -0.31 8  234 127 
 YPLC HZ I         715 53.25        13.1 0.30             37            234 127 
 ELA  HZ EP   4    715 24.89                              37    5.83 0  248 216 
 ELA  HE ES        715 48.63                              37    0.67 8  248 216 
 ELA  HZ I         715 53.96        14.9 0.30             37            248 216 
 TAM  HN E      D  720  1.35                                            254  96 
 ORTC HZ EP        715 30.07                              36    1.22 7  331 203 
 ORTC HE ES   4    716  8.77                              36    3.39 0  331 203 
 ORTC HZ I         716 20.94         3.4 0.54             36            331 203 
 PRA  HZ EP   4    715 37.34                              36    7.59 0  339 195 
 PRA  HE ES   3    716  8.32                              36    1.35 2  339 195 
 PRA  HZ I         716 24.65         4.1 0.54             36            339 195 
                                                                                
