 2014  323 0417  9.6 L   6.842 -73.138140.3  RSN 24 0.5 2.7LRSN                1
 GAP= 70        1.07       2.6     3.3  5.4 -0.1286E+01  0.5824E+01  0.1027E+01E
 Epicentro: LOS SANTOS - SANTANDER                                             3
 OLDACT:UP  14-03-23 12:23 OP:mh   STATUS:               ID:20140323040818     3
 OLDACT:REG 14-03-23 08:36 OP:mh   STATUS:               ID:20140323040818     3
 ACTION:UPD 14-04-09 23:19 OP:nd   STATUS:               ID:20140323041709 L   I
 OLDACT:UP  14-03-23 12:24 OP:mh   STATUS:               ID:20140323040818     3
 2014-03-23-0408-18M.COL___230                                                 6
 STAT SP IPHASW D HRMM SECON CODA AMPLIT PERI AZIMU VELO AIN AR TRES W  DIS CAZ7
 BAR2 SZ IP     D  417 28.84                             168    0.1210 28.1 190 
 BAR2 SZ ES        417 43.39                             168   -0.2210 28.1 190 
 BAR2 SZ I         417 44.56       173.9 0.22            165           28.1 190 
 PAM  SZ EP        417 31.65                             151    0.6210 73.2  41 
 PAM  SN ES        417 47.87                             151    0.1610 73.2  41 
 PAM  SZ I         417 50.17       143.3 0.60            142           73.2  41 
 RUS  HZ EP        417 32.93                             141   -0.2710  105 177 
 RUS  HN ES        417 51.98                             141    0.3910  105 177 
 RUS  SZ I         417 53.06        28.9 0.34            132            105 177 
 PTB  HZ EP        417 35.46                             130   -0.88 9  150 257 
 PTB  HN ES   1    417 56.79                             130   -0.37 7  150 257 
 PTB  SZ I         417 57.91        61.2 0.18            119            150 257 
 OCA  HZ EP        417 36.79                             129   -0.31 9  156 353 
 OCA  HN ES        417 59.15                             129    0.63 9  156 353 
 OCA  SZ I         418  3.46        68.3 0.32            118            156 353 
 TAM  HZ IP        417 37.29                             129    0.36 9  156 107 
 TAM  HN ES   1    417 57.71                             129   -0.51 7  156 107 
 TAM  SZ I         418  3.61        15.7 0.34            119            156 107 
 SPBC HZ EP   1    417 37.77                             127   -0.36 7  167 218 
 SPBC HN ES   1    418  0.31                             127   -0.05 7  167 218 
 SPBC SZ I         418  7.71        50.4 0.22            117            167 218 
 ZAR  HZ EP   1    417 41.26                             121   -0.38 6  203 291 
 ZAR  HE ES        418  7.06                             121    0.46 9  203 291 
 ZAR  SZ I         418 12.43        70.3 0.28            111            203 291 
 NOR  HZ EP   1    417 45.03                             117   -0.40 6  238 234 
 NOR  HN ES        418 12.89                             117   -0.46 8  238 234 
 NOR  SZ I         418 17.09        22.3 0.64            107            238 234 
 SML  HZ EP        417 45.18                             117   -0.36 8  240 335 
 SML  HN ES        418 12.88                             117   -0.66 8  240 335 
 SML  SZ I         418 18.15       102.7 0.08            107            240 335 
 CHI  HZ EP        417 47.19                             115   -0.37 8  253 195 
 CHI  HN ES        418 16.53                             115   -0.61 8  253 195 
 CHI  SZ I         418 21.62        14.8 0.36            106            253 195 
 ROSC BZ EP        417 48.90                             115    0.94 8  257 211 
 ROSC BN ES   4    418 17.55                             115   -0.30 0  257 211 
 ROSC SZ I         418 24.33        41.0 0.35            106            257 211 
 HEL  HZ EP   4    417 50.89                             113    1.08 0  274 255 
 HEL  HN ES   4    418 19.33                             113   -1.81 0  274 255 
 HEL  SZ I         418 26.85        28.6 0.46            104            274 255 
 URE  HZ EP   4    417 48.91                             113   -1.44 0  283 291 
 URE  HN ES   4    418 20.44                             113   -1.66 0  283 291 
 URE  SZ I         418 30.89        40.9 0.34            103            283 291 
 GUY2CHZ EP        417 53.84                             111    0.45 7  305 234 
 GUY2CHN ES   1    418 27.33                             111   -0.19 5  305 234 
 GUY2CSZ I         418 36.61        21.0 0.66                           305 234 
 GUY2CHZ I         418 37.41        15.4 0.24                           305 234 
 PTGC HZ EP   4    417 51.86                             110   -1.86 0  313 159 
 PTGC HN ES   4    418 25.63                             110   -2.47 0  313 159 
 PTGC SZ I         418 29.20        19.5 0.60            102            313 159 
 RREF HZ EP   1    417 57.26                             110    1.28 5  326 229 
 RREF HN ES   4    418 34.53                             110    2.41 0  326 229 
 RREF SZ I         418 40.75        22.5 0.30            101            326 229 
 CBOC HZ EP        417 57.01                             109    0.41 7  336 251 
 CBOC HN ES        418 33.17                             109   -0.06 7  336 251 
 CBOC SZ I         418 49.01         9.0 0.86            100            336 251 
 TOL  SZ EP        417 58.92                             108    0.78 6  347 224 
 TOL  SZ I         418 42.09         6.6 0.25            100            347 224 
 SDV  BZ EP   1    417 58.22                             107   -0.83 5  357  51 
 SDV  BN ES   4    418 34.32                             107   -3.27 0  357  51 
 SDV  SZ I         418 38.25        10.6 1.80             99            357  51 
 ANIL HN ES   1    418 39.29                             107    0.54 5  361 224 
 ORTC HZ EP        418  3.63                             105   -0.25 6  400 216 
 ORTC HN ES   1    418 46.80                             105    0.61 4  400 216 
 ORTC SZ I         418 52.38        14.8 0.66             97            400 216 
 SJC  HZ EP   4    418  2.58                             105   -2.04 0  406 326 
 SJC  HN ES   4    418 43.79                             105   -3.71 0  406 326 
 SJC  SZ I         418 47.73        14.8 0.58             97            406 326 
 SMAR HZ EP   4    418 12.59                             102   -2.26 0  493 346 
 SMAR SZ I         419 27.38        30.5 1.76             93            493 346 
                                                                                
