 2012  123 0757 22.1 L   6.797 -73.142141.2  RSN  8 0.4 1.5LRSN                1
 GAP=137        1.03       5.6     6.4  8.7 -0.6980E-01  0.9357E+01  0.1454E+02E
 Epicentro: LOS SANTOS - SANTANDER                                             3
 ACTION:UP  12-02-03 08:19 OP:REBC STATUS:               ID:20120123075722 L   I
 2012-01-23-0750-00M.COL___186                                                 6
 STAT SP IPHASW D HRMM SECON CODA AMPLIT PERI AZIMU VELO SNR AR TRES W  DIS CAZ7
 BAR2 SZ EP   1    757 41.15                             170     0.0 7   23 191 
 BAR2 SZ ES   1    757 56.00                             170     0.0 7   23 191 
 BAR2 SZ I         757 57.46         6.4 0.34                            23 191 
 BRR  HZ EP   1    757 43.25                             151     0.5 7   72 299 
 BRR  HZ I         757 43.49        10.1 0.15                            72 299 
 BRR  HN ES   1    757 59.67                             151     0.8 7   72 299 
 PAM  SZ EP   1    757 43.75                             150     0.0 7   77  39 
 PAM  SN ES   1    758  0.08                             150    -0.7 7   77  39 
 PAM  SZ I         758  3.23         6.2 0.43                            77  39 
 RUS  HZ EP   1    757 45.98                             143     0.6 7  100 176 
 RUS  HZ I         757 46.59         2.9 0.20                           100 176 
 RUS  HN ES   1    758  3.46                             143     0.0 7  100 176 
 PTB  HZ EP   1    757 48.31                             131    -0.4 7  148 259 
 PTB  HN ES   1    758  8.78                             131    -0.7 7  148 259 
 PTB  HZ I         758 14.90         0.0 0.11                           148 259 
 ZAR  HE ES   2    758 19.23                             121    -0.1 4  205 292 
 ZAR  HZ I         758 24.78         6.6 0.28                           205 292 
 CHI  HZ EP   1    757 59.10                             116    -0.4 6  248 195 
 CHI  HN ES   1    758 28.65                             116     0.0 6  248 195 
 CHI  HZ I         758 34.03         1.9 0.32                           248 195 
 PRA  HZ EP   1    758 15.64                             106     0.2 4  392 210 
                                                                                
