 2012  123 0433 23.5 L   6.054 -73.872  9.2  RSN  4 0.1 0.7LRSN                1
 GAP=208        0.32       2.7     1.6  5.3  0.3328E+01 -0.3642E+01 -0.6806E+01E
 Epicentro: EL PEON - SANTANDER                                                3
 ACTION:UP  12-02-03 08:19 OP:REBC STATUS:               ID:20120123043323 L   I
 2012-01-23-0430-00M.COL___186                                                 6
 STAT SP IPHASW D HRMM SECON CODA AMPLIT PERI AZIMU VELO SNR AR TRES W  DIS CAZ7
 PTB  HZ EP        433 36.89                              94     0.010   84 310 
 PTB  HN ES   1    433 47.30                              94     0.0 7   84 310 
 PTB  HZ I         433 48.44         1.9 0.20                            84 310 
 RUS  HZ EP        433 38.28                              94     0.110   89 102 
 RUS  HN ES        433 49.48                              94    -0.110   89 102 
 RUS  HZ I         433 50.45         2.0 0.27                            89 102 
 BRR  HZ EP   2    433 41.99                              93     0.0 5  118   9 
 BRR  HZ I         433 45.53         2.9 0.43                           118   9 
 BRR  HN ES   2    433 56.42                              93     0.0 5  118   9 
 PAM  SN ES   2    434 15.93                              56     0.0 4  192  42 
                                                                                
