 2012  423 0834 26.6 L   6.776 -73.166146.9  RSN  4 0.5 1.4LRSN                1
 GAP=135        1.03       7.6     7.2 12.1 -0.6209E+01  0.7104E+01  0.1200E+02E
 Epicentro: LOS SANTOS - SANTANDER                                             3
 ACTION:UPD 12-07-05 11:55 OP:tino STATUS:               ID:20120423083426 L   I
 2012-04-23-0830-00M.COL___186                                                 6
 STAT SP IPHASW D HRMM SECON CODA AMPLIT PERI AZIMU VELO AIN AR TRES W  DIS CAZ7
 BRR  HZ EP   1    834 48.30                             153     0.5 7   71 301 
 BRR  HN ES   1    835  5.08                             153     0.7 7   71 301 
 BRR  HZ I         835  6.13         4.5 0.23                            71 301 
 PAM  SZ EP   1    834 49.22                             150     0.1 7   81  40 
 PAM  SE ES   1    835  6.05                             150    -0.6 7   81  40 
 RUS  HZ EP   1    834 50.39                             145     0.1 7   98 175 
 RUS  HE ES   1    835  8.86                             145     0.1 7   98 175 
 PTB  HZ EP   1    834 53.05                             133    -0.3 7  145 260 
 PTB  HN ES   1    835 13.62                             133    -0.7 7  145 260 
 PTB  HZ I         835 15.33         3.3 0.47                           145 260 
                                                                                
