 2017 1023 0207 14.4 L   6.808 -73.131146.0  RSN 14 0.6 1.9LRSN                1
 GAP=113        1.33       4.2     4.5  6.7  0.8334E+00  0.5964E+01  0.7992E+01E
 Epicentro: LOS SANTOS - SANTANDER                                             3
 ACTION:UPD 17-11-07 19:35 OP:rebc STATUS:               ID:20171023020714 L   I
 OLDACT:REG 17-10-23 12:19 OP:dhb  STATUS:               ID:20171023015743     3
 2017-10-23-0158-00M.COL___408                                                 6
 STAT SP IPHASW D HRMM SECON CODA AMPLIT PERI AZIMU VELO AIN AR TRES W  DIS CAZ7
 BAR2 EZ EP        2 7 33.71                             170   -0.3410 24.5 193 
 BAR2 EZ ES        2 7 49.17                             170   -0.2310 24.5 193 
 BAR2 EZ I         2 7 50.34        43.2 0.18            168           24.5 193 
 BRR  HZ IP     C  2 7 35.58                             152   -0.0210 72.2 297 
 BRR  HN ES        2 7 52.81                             152    0.6510 72.2 297 
 BRR  HZ I         2 7 56.42         9.1 0.18            152           72.2 297 
 PAM  EZ EP        2 7 36.64                             152    0.1310 75.7  39 
 PAM  EN ES        2 7 54.11                             152    0.3310 75.7  39 
 PAM  EZ I         2 7 56.04         6.7 0.40            155           75.7  39 
 RUS  HZ EP        2 7 37.91                             144   -0.2810  101 177 
 RUS  HE ES        2 7 56.82                             144    0.0410  101 177 
 RUS  HZ I         2 7 58.05        17.4 0.36            144            101 177 
 PTB  HZ EP        2 7 40.65                             132   -0.86 9  150 259 
 PTB  HE ES        2 8  2.68                             132   -0.01 9  150 259 
 PTB  HZ I         2 8  4.03         5.6 0.23            132            150 259 
 SPBC HZ IP     C  2 7 42.68                             129   -0.36 9  165 219 
 SPBC HN ES        2 8  4.54                             129   -0.87 9  165 219 
 SPBC HZ I         2 8  7.45        23.9 0.20            129            165 219 
 YPLC HZ EP        2 7 43.85                             127   -0.32 9  177 152 
 YPLC HE ES        2 8  7.62                             127    0.20 9  177 152 
 YPLC HZ I         2 8 11.14         2.8 0.27            128            177 152 
 ZAR  HZ EP        2 7 48.28                             122    1.33 8  205 292 
 ZAR  HE ES        2 8 11.75                             122   -0.61 8  205 292 
 ZAR  HZ I         2 8 19.77         3.9 0.07            123            205 292 
 NOR  HZ EP        2 7 50.21                             118   -0.09 8  237 235 
 NOR  HN ES        2 8 18.22                             118   -0.11 8  237 235 
 NOR  HZ I         2 8 21.79         8.1 0.16            119            237 235 
 CHI  HZ EP        2 7 51.85                             117   -0.36 8  250 195 
 CHI  HE ES        2 8 22.80                             117    1.07 8  250 195 
 CHI  HZ I         2 8 26.91         3.8 0.62            118            250 195 
 ROSC BZ EP   2    2 7 54.30                             117    1.63 4  254 211 
 ROSC BE ES   4    2 8 26.21                             117    3.67 0  254 211 
 ROSC BZ I         2 8 29.27         9.1 0.45            117            254 211 
 GUY2CHZ EP   9    2 8  0.53                             112    2.34 0  303 235 
 GUY2CHE ES        2 8 35.46                                    0.75 7  303 235 
 GUY2CHZ I         2 8 43.90         4.2 0.60                           303 235 
 PRA  HZ EP        2 8  7.50                             107   -0.57 6  394 210 
 PRA  HE ES        2 8 50.78                             107    0.81 6  394 210 
 PRA  HZ I         2 8 55.76         4.1 0.26            107            394 210 
 ORTC HZ EP        2 8  8.68                             106    0.19 6  397 216 
 ORTC HE ES        2 8 51.79                             106    1.09 6  397 216 
 ORTC HZ I         2 8 57.10         2.7 0.40            107            397 216 
                                                                                
