 2010  923 0243 59.1 L   6.797 -73.033147.5  RSN 14 0.3 2.7LRSN                1
 GAP=171        0.69       2.6     5.9  4.8 -0.5651E+01  0.1887E+01  0.1395E+01E
 Epicentro: CEPITA - SANTANDER                                                 3
 ACTION:UP  11-02-18 11:04 OP:tino STATUS:               ID:20100923024359 L   I
 2010-09-23-0242-25S.COL___122                                                 6
 STAT SP IPHASW D HRMM SECON CODA AMPLIT PERI AZIMU VELO SNR AR TRES W  DIS CAZ7
 BAR2 SZ IP        244 18.96                             169    -0.110   28 216 
 BAR2 SZ ES   1    244 34.39                             169    -0.2 7   28 216 
 BAR2 SZ I         244 35.82       101.5 0.64                            28 216 
 BTL  SZ EP        244 19.19                             168     0.110   29 297 
 GIR2 SZ EP        244 19.03                             166    -0.110   36 330 
 BRR  HZ IP     C  244 20.84                             149    -0.310   83 295 
 BRR  HZ I         244 21.12       227.1 0.17                            83 295 
 BRR  HN ES   1    244 38.45                             149     0.2 7   83 295 
 RUS  HZ EP        244 22.86                             144    -0.110  100 183 
 RUS  HE ES   1    244 41.49                             144    -0.1 7  100 183 
 RUS  HZ I         244 42.85        57.2 0.23                           100 183 
 GUE  SZ EP        244 23.89                             140     0.110  115   6 
 GRA  SZ IP        244 24.73                             138     0.510  123  12 
 GRA  SZ ES   1    244 43.94                             138     0.1 7  123  12 
 GRA  SZ I         244 45.41        75.7 0.39                           123  12 
 OCA  SZ EP        244 27.29                             130    -0.5 9  163 349 
 OCA  SZ ES   1    244 50.23                             130     0.1 7  163 349 
 OCA  SZ I         244 55.27        65.8 0.31                           163 349 
 CHI  HZ EP   1    244 36.81                             117    -0.4 6  252 198 
 CHI  HZ I         244 39.66        23.1 0.47                           252 198 
 CHI  HN ES   2    245  7.34                             117     0.4 4  252 198 
 ROSC BZ EP   1    244 38.67                             116     0.7 6  259 213 
 ROSC BN ES   2    245  8.89                             116     0.6 4  259 213 
 ROSC BZ I         245 16.51        36.3 0.77                           259 213 
 CVER SZ EP   1    244 40.39                             115     0.3 6  277 205 
 HEL  HZ EP   2    244 40.45                             114    -0.3 4  284 257 
 HEL  HZ I         245 17.64        23.9 0.21                           284 257 
 RREF HZ EP   1    244 45.97                             110    -0.4 5  331 231 
 RREF HN ES   2    245 23.75                             110     0.5 3  331 231 
 RREF HZ I         245 30.58        33.2 0.32                           331 231 
 TOL  SZ EP   1    244 48.28                             109    -0.1 5  352 226 
                                                                                
