 2017  223 0836 15.9 L   6.797 -73.146145.4  RSN 12 0.5 1.7LRSN                1
 GAP=101        1.19       4.7     4.4  6.4 -0.3826E+01  0.4284E+01  0.4353E+01E
 Epicentro: LOS SANTOS - SANTANDER                                             3
 ACTION:UPD 17-05-24 15:39 OP:jn   STATUS:               ID:20170223083615 L   I
 OLDACT:UP  17-02-23 17:08 OP:dani STATUS:               ID:20170223081852d    3
 OLDACT:UP  17-02-23 17:06 OP:dani STATUS:               ID:20170223081852d    3
 OLDACT:UP  17-02-23 17:06 OP:dani STATUS:               ID:20170223081852d    3
 OLDACT:DUP 17-02-23 17:02 OP:dani STATUS:               ID:20170223081852d    3
 OLDACT:UP  17-02-23 17:00 OP:dani STATUS:               ID:20170223081851     3
 OLDACT:UP  17-02-23 16:59 OP:dani STATUS:               ID:20170223081851     3
 OLDACT:REG 17-02-23 13:46 OP:edw  STATUS:               ID:20170223081851     3
 2017-02-23-0828-00M.COL___367                                                 6
 STAT SP IPHASW D HRMM SECON CODA AMPLIT PERI AZIMU VELO AIN AR TRES W  DIS CAZ7
 BAR2 EZ EP     C  836 35.51                             170    0.0410 23.0 190 
 BAR2 EZ ES        836 50.25                             170   -0.4910 23.0 190 
 BAR2 EZ I         836 51.59        14.5 0.16            166           23.0 190 
 BRR  HZ EP        836 37.49                             152    0.4810 71.3 299 
 BRR  HN ES        836 54.08                             152    0.6010 71.3 299 
 BRR  HZ I         836 59.70         8.4 0.13            148           71.3 299 
 PAM  EZ EP        836 38.49                             151    0.4010 77.7  39 
 PAM  EE ES        836 55.34                             151   -0.0610 77.7  39 
 PAM  EZ I         836 57.17         5.7 0.26            155           77.7  39 
 RUS  HZ EP        836 39.40                             144   -0.1810  100 176 
 RUS  HE ES        836 57.81                             144   -0.2510  100 176 
 RUS  HZ I         836 58.63         5.5 0.30            143            100 176 
 PTB  HZ EP        836 42.26                             132   -0.56 9  148 259 
 PTB  HN ES        837  3.23                             132   -0.59 9  148 259 
 PTB  HZ I         837  6.13        10.9 0.38            129            148 259 
 TAM  HZ EP        836 43.82                             131    0.29 9  155 105 
 NOR  HZ EP        836 51.36                             119   -0.21 8  234 235 
 NOR  HE ES        837 20.18                             119    0.77 8  234 235 
 NOR  HZ I         837 25.61         6.0 0.26            117            234 235 
 CHI  HZ EP        836 53.37                             117   -0.16 8  248 195 
 CHI  HN ES        837 23.06                             117    0.17 8  248 195 
 CHI  HZ I         837 30.33         2.0 0.25            117            248 195 
 ROSC BZ EP   9    836 54.84                             117    0.88 0  252 211 
 ROSC BN ES        837 25.85                             116    1.32 8  252 211 
 ROSC BZ I         837 32.99         4.3 0.44            116            252 211 
 HEL  HZ EP   3    836 57.08                             115    1.01 2  272 256 
 HEL  HE ES   3    837 28.34                             115    0.93 2  272 256 
 HEL  HZ I         837 34.41         4.3 0.32            113            272 256 
 URE  HZ EP        836 56.17                             114   -0.79 7  284 292 
 URE  HN ES   3    837 27.11                             114   -1.88 2  284 292 
 URE  HZ I         837 36.68         4.6 0.30            113            284 292 
 CBOC HZ EP   4    836 57.78                             110   -4.99 0  333 252 
 CBOC HE ES        837 39.93                             110    0.59 7  333 252 
 CBOC HZ I         837 51.77         1.2 0.16            109            333 252 
                                                                                
