 2017 1023 0846 15.7 L   6.645 -73.173147.9  RSN  4 0.1 1.1LRSN                1
 GAP=239        0.30       3.4     2.2  2.4  0.2630E+01  0.1342E+01 -0.4392E-01E
 Epicentro: VILLANUEVA - SANTANDER                                             3
 ACTION:UPD 17-11-07 19:35 OP:rebc STATUS:               ID:20171023084615 L   I
 OLDACT:REG 17-10-23 12:56 OP:dhb  STATUS:               ID:20171023083739     3
 2017-10-23-0838-00M.COL___372                                                 6
 STAT SP IPHASW D HRMM SECON CODA AMPLIT PERI AZIMU VELO AIN AR TRES W  DIS CAZ7
 BAR2 EZ EP        846 35.47                             178    0.0610 5.96 190 
 BAR2 EZ ES        846 50.73                             178   -0.0210 5.96 190 
 BAR2 EZ I         846 51.35         4.7 0.70            176           5.96 190 
 BRR  HZ EP        846 37.42                             150   -0.1210 78.4 311 
 BRR  HE ES        846 54.60                             150    0.0610 78.4 311 
 BRR  HZ I         846 55.00         2.1 0.32            148           78.4 311 
 PTB  HZ EP        846 42.40                             134   -0.01 9  142 265 
 PTB  HN ES        847  3.20                             134   -0.00 9  142 265 
 PTB  HZ I         847  4.76         0.8 0.30            132            142 265 
 ZAR  HZ EP        846 48.87                             122    0.09 8  208 297 
 ZAR  HN ES        847 14.50                             122   -0.04 8  208 297 
 ZAR  HZ I         847 19.71         1.4 0.28            121            208 297 
                                                                                
