 2015  623 0943 33.0 L   6.837 -73.128150.6  RSN  7 0.2 1.8LRSN                1
 GAP=200        0.49       2.2     3.8  3.9  0.7669E+00  0.2437E+01 -0.6351E-01E
 Epicentro: LOS SANTOS - SANTANDER                                             3
 ACTION:UPD 15-09-10 22:14 OP:cam  STATUS:               ID:20150623094333 L   I
 OLDACT:UP  15-06-23 17:22 OP:mh   STATUS:               ID:20150623093750     3
 OLDACT:UP  15-06-23 17:21 OP:mh   STATUS:               ID:20150623093750     3
 OLDACT:REG 15-06-23 12:31 OP:mh   STATUS:               ID:20150623093750     3
 2015-06-23-0937-50M.COL___310                                                 6
 STAT SP IPHASW D HRMM SECON CODA AMPLIT PERI AZIMU VELO AIN AR TRES W  DIS CAZ7
 BAR2 EZ EP        943 53.28                             169   -0.0610 27.7 193 
 BAR2 EZ ES   1    944  9.07                             169   -0.11 7 27.7 193 
 BAR2 EZ I         944 13.59         3.0 0.30            169           27.7 193 
 BRR  HZ EP        943 54.82                             153    0.1110 71.1 295 
 BRR  HN ES   1    944 11.78                             153    0.17 7 71.1 295 
 BRR  HZ I         944 15.42         8.1 0.23            149           71.1 295 
 OCA  HZ EP   1    944  1.60                             131    0.22 7  157 352 
 OCA  HN ES   1    944 23.45                             131   -0.04 7  157 352 
 OCA  HZ I         944 27.25         9.6 0.14            127            157 352 
 ZAR  HZ EP        944  6.15                             123    0.31 9  204 291 
 ZAR  HN ES        944 31.33                             123   -0.09 9  204 291 
 ZAR  HZ I         944 36.83         7.7 0.26            119            204 291 
 SML  HZ EP        944  9.73                             119    0.10 8  241 334 
 SML  HN ES        944 37.78                             119   -0.40 8  241 334 
 SML  HZ I         944 41.11         8.0 0.10            115            241 334 
 PRA  HZ EP   1    944 26.60                             107   -0.65 4  397 210 
 PRA  HN ES        945  9.49                             107   -0.05 6  397 210 
 PRA  HZ I         945 15.08         1.7 0.58            105            397 210 
 SJC  HZ EP   4    944 26.65                             106   -1.84 0  407 326 
 SJC  HZ I         945  5.85         1.6 0.60            104            407 326 
 SJC  HN ES   4    945  8.97                             106   -2.78 0  407 326 
                                                                                
