 2010 1123 0927 26.4 L   6.819 -73.046143.7  RSN  9 0.3 1.6LRSN                1
 GAP=170        0.69       3.5     7.5  6.4 -0.4704E+01  0.6015E-01  0.4154E+01E
 Epicentro: LOS SANTOS - SANTANDER                                             3
 ACTION:UP  10-12-17 16:54 OP:REBC STATUS:               ID:20101123092726 L   I
 2010-11-23-0923-44S.COL___131                                                 6
 STAT SP IPHASW D HRMM SECON CODA AMPLIT PERI AZIMU VELO SNR AR TRES W  DIS CAZ7
 BTL  SZ EP        927 46.45                             169     0.610   27 294 
 BAR2 SZ EP        927 45.98                             168     0.010   29 211 
 BAR2 SZ ES   1    928  0.66                             168    -0.5 7   29 211 
 BAR2 SZ I         928  3.75        10.5 0.39                            29 211 
 BRR  HZ EP        927 47.82                             149    -0.110   80 293 
 BRR  HZ I         927 48.03        11.5 0.14                            80 293 
 BRR  HE ES   1    928  4.80                             149     0.2 7   80 293 
 RUS  HZ EP   1    927 49.93                             143    -0.2 7  103 182 
 RUS  HZ I         927 59.03         2.9 0.64                           103 182 
 RUS  HN ES   2    928  8.98                             143     0.4 5  103 182 
 GRA  SZ EP   2    927 50.95                             137    -0.1 5  121  13 
 GRA  SZ ES   1    928 10.24                             137    -0.1 7  121  13 
 GRA  SZ I         928 17.17         4.6 0.35                           121  13 
 OCA  SZ EP   2    927 54.76                             129     0.2 5  160 349 
 OCA  SZ ES   2    928 15.86                             129    -0.6 5  160 349 
 OCA  SZ I         928 26.65         5.8 0.38                           160 349 
 CHI  HZ EP   2    928  4.30                             116    -0.3 4  254 197 
 CHI  HE ES   2    928 34.37                             116     0.0 4  254 197 
 CHI  HZ I         928 37.96         3.0 0.69                           254 197 
 HEL  HZ EP   2    928  7.88                             113     0.1 4  283 256 
 PRA  HZ EP   2    928 20.64                             106    -0.1 3  399 211 
 PRA  HE ES   2    929  2.28                             106    -0.8 3  399 211 
                                                                                
