 2011  323 0741  3.2 L   6.743 -73.124148.6  RSN  5 0.4 1.8LRSN                1
 GAP=186        0.79       6.0    10.1  8.4 -0.3891E+02  0.1631E+02 -0.1080E+02E
 Epicentro: JORDAN - SANTANDER                                                 3
 ACTION:UP  11-06-16 14:35 OP:jfem STATUS:               ID:20110323074103 L   I
 2011-03-23-0739-58S.COL___137                                                 6
 STAT SP IPHASW D HRMM SECON CODA AMPLIT PERI AZIMU VELO SNR AR TRES W  DIS CAZ7
 BAR2 SZ EP        741 23.38                             173     0.310   18 202 
 BAR2 SZ ES   1    741 38.21                             173    -0.3 7   18 202 
 BAR2 SZ I         741 40.09        31.7 0.28                            18 202 
 GIR2 SZ EP        741 23.37                             165     0.010   38 348 
 GIR2 SZ ES   2    741 40.04                             165     0.9 5   38 348 
 GRA  SZ EP        741 29.06                             136    -0.110  131  16 
 GRA  SZ I         741 30.26         4.5 0.34                           131  16 
 GRA  SZ ES   1    741 48.83                             136    -0.5 7  131  16 
 OCA  SZ EP   1    741 32.36                             129     0.0 7  167 353 
 OCA  SZ ES   1    741 55.18                             129     0.1 7  167 353 
 OCA  SZ I         742  0.37         4.3 0.27                           167 353 
 NOR  SN ES   1    742  6.46                             119    -0.3 6  233 236 
                                                                                
