 2016 1223 0741 54.0 L   6.822 -73.203130.0  RSN  5 0.4 1.3LRSN                1
 GAP=233        0.97       7.1     8.9  9.8  0.2099E+01  0.5652E+02 -0.4975E+01E
 Epicentro: ZAPATOCA - SANTANDER                                               3
 ACTION:UPD 17-01-11 20:18 OP:rebc STATUS:               ID:20161223074154 L   I
 OLDACT:UP  16-12-23 16:19 OP:cog  STATUS:               ID:20161223073744d    3
 OLDACT:UP  16-12-23 16:18 OP:cog  STATUS:               ID:20161223073744d    3
 OLDACT:DUP 16-12-23 16:15 OP:cog  STATUS:               ID:20161223073744d    3
 2016-12-23-0738-00M.COL___381                                                 6
 STAT SP IPHASW D HRMM SECON CODA AMPLIT PERI AZIMU VELO AIN AR TRES W  DIS CAZ7
 BAR2 HZ EP        742 11.59                             168   -0.2210 25.5 175 
 BAR2 HZ ES        742 25.61                             168   -0.0810 25.5 175 
 BAR2 HZ I         742 27.36         6.6 0.44            171           25.5 175 
 BRR  HZ EP        742 13.68                             152    0.5910 64.5 299 
 BRR  HN ES   4    742 30.19                             152    2.23 0 64.5 299 
 BRR  HZ I         742 31.93         6.0 0.18            150           64.5 299 
 RUS  HZ EP        742 16.39                             139   -0.1110  104 173 
 RUS  HN ES        742 34.20                             139    0.1710  104 173 
 PTB  HZ EP        742 18.47                             129   -0.74 9  142 257 
 PTB  HN ES   4    742 37.28                             129   -1.58 0  142 257 
 PTB  HZ I         742 41.48         2.0 0.15            131            142 257 
 GUY2CHZ EP        742 37.02                             109    0.50 7  297 234 
 GUY2CHN ES        743  9.77                             109    0.10 7  297 234 
 GUY2CHZ I         743 17.00         0.9 0.24                           297 234 
                                                                                
