 2014  223 0655 22.6 L   6.803 -73.134149.7  RSN  7 0.5 1.5LRSN                1
 GAP=138        1.08       3.8     5.9  8.8 -0.3300E+01  0.1663E+02 -0.2272E+01E
 Epicentro: LOS SANTOS - SANTANDER                                             3
 ACTION:UPD 14-03-10 08:12 OP:ep   STATUS:               ID:20140223065521 L   I
 OLDACT:UP  14-02-24 03:18 OP:Migu STATUS:               ID:20140223065521 L   3
 OLDACT:REG 14-02-23 08:48 OP:fm   STATUS:               ID:20140223065000     3
 2014-02-23-0650-00M.COL___215                                                 6
 STAT SP IPHASW D HRMM SECON CODA AMPLIT PERI AZIMU VELO AIN AR TRES W  DIS CAZ7
 PAM  SZ EP   1    655 46.16                             152    1.01 7 76.3  39 
 PAM  SN ESg       656  2.55                             152   -0.2110 76.3  39 
 PAM  SZ I         656  4.77         3.0 0.26            156           76.3  39 
 RUS  HZ EP        655 46.50                             144   -0.2410  101 177 
 RUS  HN ES        656  5.46                             144   -0.1210  101 177 
 RUS  HZ I         656  6.30         2.0 0.62            147            101 177 
 PTB  HZ EP        655 49.53                             133   -0.46 9  149 259 
 PTB  HN ES        656 10.96                             133   -0.41 9  149 259 
 PTB  HZ I         656 15.85         3.7 0.24            132            149 259 
 SPBC HZ EP   1    655 50.78                             130   -0.71 7  164 219 
 SPBC HN ES   1    656 14.91                             130    0.88 7  164 219 
 SPBC HZ I         656 20.69         7.3 0.36            130            164 219 
 NOR  HN ES   2    656 27.65                             119    0.82 4  236 235 
 SML  HZ EP        655 59.41                             118   -0.05 8  244 335 
 SML  HN ES        656 28.70                             118    0.48 8  244 335 
 SML  HZ I         656 34.89         5.7 0.10            120            244 335 
 CHI  HZ EP        656  0.60                             118    0.03 8  249 195 
 CHI  HN ES   1    656 30.94                             118    0.74 6  249 195 
 CHI  HZ I         656 35.81         1.6 0.36            120            249 195 
                                                                                
