 2014  223 0748 20.7 L   6.788 -73.132149.9  RSN  8 0.3 1.7LRSN                1
 GAP=139        0.65       2.4     3.7  4.5  0.6646E+00  0.6496E+01 -0.1136E+01E
 Epicentro: LOS SANTOS - SANTANDER                                             3
 ACTION:UPD 14-03-10 08:12 OP:ep   STATUS:               ID:20140223074820 L   I
 OLDACT:REG 14-02-23 09:09 OP:y    STATUS:               ID:20140223074641     3
 2014-02-23-0746-41M.COL___235                                                 6
 STAT SP IPHASW D HRMM SECON CODA AMPLIT PERI AZIMU VELO AIN AR TRES W  DIS CAZ7
 BAR2 SZ EP        748 40.78                             171   -0.0110 22.3 194 
 BAR2 SZ ES        748 56.79                             171    0.3210 22.3 194 
 BAR2 SZ I         748 57.43        12.3 0.42            166           22.3 194 
 PAM  SZ EP        748 43.46                             151    0.1210 77.5  38 
 PAM  SN ES        749  1.02                             151    0.0010 77.5  38 
 PAM  SZ I         749  2.01         4.3 0.18            158           77.5  38 
 RUS  HZ EP        748 44.70                             145   -0.0410 99.2 177 
 RUS  HN ES        749  3.01                             145   -0.4910 99.2 177 
 RUS  HZ I         749  4.29         2.5 0.60            145           99.2 177 
 PTB  HN ES   4    749  6.58                             133   -2.90 0  149 259 
 PTB  HZ I         749 14.63         7.4 0.26            130            149 259 
 SPBC HZ EP   1    748 49.69                             130    0.20 7  163 220 
 SPBC HE ES   1    749 11.95                             130   -0.01 7  163 220 
 SPBC HZ I         749 18.91        10.1 0.30            129            163 220 
 ZAR  HZ EP        748 53.32                             123   -0.27 8  206 292 
 ZAR  HE ES        749 19.30                             123    0.04 8  206 292 
 ZAR  HZ I         749 25.29         7.4 0.54            122            206 292 
 SML  HZ EP        748 57.38                             118   -0.36 8  246 335 
 SML  HN ES        749 26.74                             118    0.10 8  246 335 
 SML  HZ I         749 30.44         7.5 0.22            119            246 335 
 CHI  HZ EP        748 59.05                             118    0.54 8  248 196 
 CHI  HN ES   4    749 30.68                             118    2.66 0  248 196 
 CHI  HZ I         749 34.61         1.3 0.48            119            248 196 
                                                                                
