 2016  923 0359 18.7 L   6.795 -73.123150.7  RSN 26 0.5 2.5LRSN                1
 GAP= 67        1.11       2.8     2.9  4.9 -0.1393E+01  0.2948E+01  0.6619E+00E
 Epicentro: LOS SANTOS - SANTANDER                                             3
 ACTION:UPD 17-08-17 21:15 OP:lp   STATUS:               ID:20160923035918 L   I
 OLDACT:UP  16-09-23 16:23 OP:and  STATUS:               ID:20160923035734     3
 OLDACT:UP  16-09-23 16:21 OP:and  STATUS:               ID:20160923035734     3
 OLDACT:UP  16-09-23 16:20 OP:and  STATUS:               ID:20160923035734     3
 OLDACT:UP  16-09-23 16:17 OP:and  STATUS:               ID:20160923035734     3
 OLDACT:UP  16-09-23 16:10 OP:and  STATUS:               ID:20160923035734     3
 OLDACT:UP  16-09-23 16:05 OP:and  STATUS:               ID:20160923035734     3
 OLDACT:UP  16-09-23 15:42 OP:and  STATUS:               ID:20160923035734     3
 OLDACT:REG 16-09-23 11:04 OP:and  STATUS:               ID:20160923035734     3
 2016-09-23-0358-00M.COL___342                                                 6
 STAT SP IPHASW D HRMM SECON CODA AMPLIT PERI AZIMU VELO AIN AR TRES W  DIS CAZ7
 BAR2 EZ IP     C  359 38.86                             171   -0.0510 23.3 196 
 BAR2 EZ ES        359 54.28                             171   -0.4010 23.3 196 
 BRR  HZ EP        359 40.74                             153    0.2310 73.7 298 
 BRR  HN ES        359 58.12                             153    0.5910 73.7 298 
 BRR  HZ I         4 0  2.64        44.5 0.16            151           73.7 298 
 PAM  EZ IP     D  359 41.74                             152    0.3810 76.3  38 
 PAM  EE ES        359 59.16                             152    0.1110 76.3  38 
 PAM  EZ I         4 0  1.41        46.4 0.50            151           76.3  38 
 RUS  HZ IP     C  359 42.70                             145   -0.1710 99.8 177 
 RUS  HE ES        4 0  1.62                             145   -0.1210 99.8 177 
 RUS  HZ I         4 0  2.95        38.7 0.24            142           99.8 177 
 PTB  HZ EP        359 45.32                             133   -0.95 9  150 259 
 PTB  HN ES        4 0  6.58                             133   -1.21 9  150 259 
 PTB  HZ I         4 0  8.90        39.9 0.17            130            150 259 
 TAM  HZ IP     D  359 47.05                             132    0.53 9  153 105 
 TAM  HZ I         4 0  7.68        18.6 0.34            130            153 105 
 TAM  HN ES        4 0  8.66                             132    0.43 9  153 105 
 OCA  HZ EP        359 47.42                             130   -0.05 9  161 352 
 OCA  HE ES        4 0  9.88                             130   -0.03 9  161 352 
 OCA  HZ I         4 0 12.55        86.5 0.20            128            161 352 
 SPBC HZ IP     C  359 47.70                             130    0.02 9  164 220 
 SPBC HN ES        4 0 10.12                             130   -0.16 9  164 220 
 SPBC HZ I         4 0 15.49        56.4 0.10            127            164 220 
 ZAR  HZ EP        359 51.20                             123   -0.52 8  207 292 
 ZAR  HE ES        4 0 18.03                             123    0.55 8  207 292 
 ZAR  HZ I         4 0 23.04        32.0 0.32            121            207 292 
 NOR  HZ EP        359 55.14                             119    0.25 8  236 235 
 NOR  HN ES        4 0 23.57                             119    0.44 8  236 235 
 NOR  HZ I         4 0 28.37        30.2 0.16            117            236 235 
 CHI  HZ EP        359 56.91                             118    0.24 8  249 196 
 CHI  HN ES        4 0 26.00                             118   -0.30 8  249 196 
 CHI  HZ I         4 0 31.60        10.9 0.28            116            249 196 
 ROSC BZ EP   9    359 58.31                             118    1.14 0  254 212 
 ROSC BE ES        4 0 28.25                                   -0.07 8  254 212 
 ROSC BZ I         4 0 34.49        23.2 0.40            115            254 212 
 HEL  HZ EP        359 59.86                             115    0.45 8  274 256 
 HEL  HN ES        4 0 31.63                             115    0.46 8  274 256 
 HEL  HZ I         4 0 38.15        16.5 0.40            113            274 256 
 URE  HZ EP   4    359 58.82                             114   -1.47 0  286 292 
 URE  HE ES   4    4 0 30.53                             114   -2.20 0  286 292 
 URE  HZ I         4 0 45.73        18.2 0.24            112            286 292 
 GUY2CHZ EP   4    4 0  4.07                             113    1.35 0  303 235 
 GUY2CHE ES        4 0 37.85                             113    0.78 7  303 235 
 GUY2CHZ I         4 0 45.22        19.9 0.60                           303 235 
 PTGC HZ EP        4 0  1.67                             112   -0.93 7  307 159 
 PTGC HN ES   4    4 0 35.00                             112   -1.86 0  307 159 
 PTGC HZ I         4 0 39.72        12.7 0.32            111            307 159 
 LL6C HZ EP   2    4 0  4.42                             111   -0.26 3  326 357 
 LL6C HE ES   2    4 0 40.47                             111   -0.09 3  326 357 
 ELA  HZ EP   4    4 0  9.17                             111    3.24 0  331 230 
 ELA  HN ES   4    4 0 41.67                             111   -1.10 0  331 230 
 ELA  HZ I         4 0 50.14        13.3 0.30            109            331 230 
 CBOC HZ EP        4 0  6.85                             111    0.78 7  336 252 
 CBOC HN ES        4 0 42.03                             111   -0.99 7  336 252 
 CBOC HZ I         4 0 49.29         5.0 0.18            109            336 252 
 ANIL HZ EP   4    4 0 11.10                             109    2.26 0  359 225 
 ANIL HE ES   4    4 0 49.80                             109    1.84 0  359 225 
 ANIL HZ I         4 0 54.90        29.7 0.28            107            359 225 
 ARGC HZ EP   4    4 0 11.06                             109    2.36 0  361 340 
 ARGC HN ES   2    4 0 48.07                             109    0.37 3  361 340 
 PAL  HZ IP     D  4 0 14.67                             106    0.44 6  408 239 
 PAL  HN ES        4 0 57.64                             106    0.08 6  408 239 
 PAL  HZ I         4 1  3.26         9.0 0.42            105            408 239 
 SJC  HZ EP   4 C  4 0 13.30                             106   -1.34 0  411 327 
 SJC  HN ES   4    4 0 54.69                             106   -3.58 0  411 327 
 SJC  HZ I         4 1  2.55         5.5 0.28            105            411 327 
 CRJC HZ EP   4    4 0 19.37                             104   -2.01 0  468   3 
 CRJC HE ES        4 1  9.16                             104   -1.12 5  468   3 
 SMAR HZ EP   2    4 0 24.46                             103   -0.37 2  498 346 
 SMAR HN ES   4    4 1 13.29                             103   -3.13 0  498 346 
 URI  HZ EP   4    4 0 29.61                             101   -2.20 0  557  13 
 URI  HN ES   2    4 1 28.22                             101   -0.62 2  557  13 
                                                                                
