 2011  323 0451 59.7 L   6.833 -73.176129.0  RSN  9 0.5 2.2LRSN                1
 GAP=162        1.04       4.8     9.5  8.7 -0.2985E+02  0.4513E+02 -0.9413E+01E
 Epicentro: ZAPATOCA - SANTANDER                                               3
 ACTION:UP  11-06-16 14:35 OP:jfem STATUS:               ID:20110323045159 L   I
 2011-03-23-0448-09S.COL___137                                                 6
 STAT SP IPHASW D HRMM SECON CODA AMPLIT PERI AZIMU VELO SNR AR TRES W  DIS CAZ7
 BAR2 SZ EP        452 17.16                             167    -0.310   27 182 
 BAR2 SZ ES        452 30.91                             167    -0.310   27 182 
 BAR2 SZ I         452 34.78        39.5 0.37                            27 182 
 GRA  SZ EP        452 23.73                             133     0.410  123  19 
 GRA  SZ ES   2    452 42.04                             133     0.3 5  123  19 
 GRA  SZ I         452 44.98        21.3 0.40                           123  19 
 OCA  SZ EP   1    452 26.02                             126    -0.4 7  156 354 
 OCA  SZ ES   1    452 47.35                             126     0.2 7  156 354 
 OCA  SZ I         452 51.93        20.4 0.23                           156 354 
 NOR  SZ EP   1    452 33.82                             114    -0.7 6  234 233 
 NOR  SN ES   1    453  2.24                             114     0.7 6  234 233 
 CHI  HN ES        453  6.50                             113     0.7 8  251 194 
 CHI  HZ I         453 10.78         8.2 0.20                           251 194 
 HEL  HZ EP   1    452 39.26                             111     0.4 6  270 255 
 HEL  HZ I         453 17.25         8.4 0.35                           270 255 
 GUY  SZ EP   1    452 42.81                             109     0.3 5  301 234 
 GUY  SN ES   1    453 16.12                             109     0.2 5  301 234 
 GUY  SZ I         453 24.70        21.9 0.37                           301 234 
 RREF HZ EP        452 44.41                             107    -0.8 7  322 228 
 RREF HN ES   1    453 20.06                             107    -0.6 5  322 228 
 RREF HZ I         453 30.88         9.8 0.29                           322 228 
 PRA  HN ES        453 34.29                             103    -0.1 6  393 209 
                                                                                
