 2010  623 0304  2.8 L   6.780 -73.065147.0  RSN 17 0.4 3.8LRSN                1
 GAP=125        0.89       3.0     5.4  5.2 -0.7099E+01  0.2687E+01  0.2842E+01E
 Epicentro: LOS SANTOS - SANTANDER                                             3
 ACTION:UP  10-08-24 10:12 OP:vdl  STATUS:               ID:20100623030402 L   I
 2010-06-23-0302-30S.COL___118                                                 6
 STAT SP IPHASW D HRMM SECON CODA AMPLIT PERI AZIMU VELO SNR AR TRES W  DIS CAZ7
 BAR2 SZ IP        3 4 22.83                             170     0.210   25 212 
 BAR2 SZ ES   1    3 4 37.41                             170    -0.6 7   25 212 
 BRR  HZ IP     C  3 4 24.68                             150     0.110   80 297 
 BRR  HE ES   1    3 4 41.95                             150     0.4 7   80 297 
 BRR  HZ I         3 4 44.66      1618.7 0.15                            80 297 
 RUS  HZ IP     D  3 4 26.63                             145     0.210   98 181 
 RUS  HE ES   1    3 4 44.80                             145    -0.2 7   98 181 
 RUS  HZ I         3 4 48.38       647.2 0.26                            98 181 
 BRI  SZ IP        3 4 26.36                             142    -0.410  108  16 
 BRI  SZ ES   1    3 4 45.24                             142    -0.2 7  108  16 
 GUE  SZ EP   1    3 4 27.69                             139     0.0 7  117   8 
 GRA  SZ IP        3 4 28.62                             137     0.510  126  13 
 GRA  SZ ES   1    3 4 48.29                             137     0.4 7  126  13 
 OCA  SZ IP        3 4 31.18                             129    -0.3 9  164 350 
 OCA  SZ ES   1    3 4 53.67                             129    -0.3 7  164 350 
 OCA  SZ I         3 4 58.02      1300.6 0.24                           164 350 
 CHI  HZ EP   1    3 4 40.64                             117     0.1 6  249 197 
 CHI  HE ES   1    3 5  9.81                             117    -0.3 6  249 197 
 CHI  HZ I         3 5 13.77       476.8 0.67                           249 197 
 ROSC BZ EP   1    3 4 42.24                             117     1.0 6  256 213 
 ROSC BE ES   2    3 5 10.67                             117    -0.6 4  256 213 
 ROSC BZ I         3 5 16.74       466.0 0.39                           256 213 
 CVER SZ EP        3 4 43.93                             115     0.6 8  274 204 
 HEL  HZ EP        3 4 43.82                             114    -0.1 7  280 257 
 HEL  HZ I         3 5 22.06       245.1 0.32                           280 257 
 GUY  HZ EP        3 4 47.29                             112     0.2 7  307 236 
 GUY  HE ES   1    3 5 21.89                             112     0.1 5  307 236 
 DBB  SZ EP   1    3 4 50.23                             109    -1.1 5  348 275 
 TOL  SZ EP        3 4 51.41                             109    -0.2 6  348 226 
 SDV  BZ EP        3 4 52.03                             109    -0.2 6  355  49 
 SDV  BZ I         3 5 31.66       142.4 0.28                           355  49 
 GUA  SZ EP        3 5  4.77                             103    -0.8 5  471 174 
 BET  SZ EP   2    3 5 10.81                             102    -1.2 2  524 210 
                                                                                
