 2014  523 0622 26.9 L   6.767 -73.130139.3  RSN 11 0.4 1.4LRSN                1
 GAP=140        1.08       4.3     4.5  7.1 -0.3824E+01  0.7990E+01 -0.6541E+00E
 Epicentro: LOS SANTOS - SANTANDER                                             3
 ACTION:UPD 15-03-16 17:00 OP:nd   STATUS:               ID:20140523062226 L   I
 OLDACT:UP  14-05-23 16:14 OP:spq  STATUS:               ID:20140523061809     3
 OLDACT:REG 14-05-23 13:04 OP:spq  STATUS:               ID:20140523061809     3
 2014-05-23-0618-09M.COL___255                                                 6
 STAT SP IPHASW D HRMM SECON CODA AMPLIT PERI AZIMU VELO AIN AR TRES W  DIS CAZ7
 BAR2 SZ EPg       622 45.54                             171   -0.1710 20.2 197 
 BAR2 SZ ESg  1    622 59.89                             171   -0.48 7 20.2 197 
 BAR2 SZ I         623  2.46         7.2 0.20            169           20.2 197 
 BRR  HZ EPg       622 48.00                             150    0.4310 74.5 300 
 BRR  HN ESg       623  4.48                             150    0.8010 74.5 300 
 BRR  HZ I         623  6.80         3.4 0.13            149           74.5 300 
 PAM  SZ EP        622 49.01                             149    0.4510 79.1  37 
 PAM  SE ES        623  5.02                             149   -0.4210 79.1  37 
 PAM  SZ I         623  8.82         3.6 0.55            155           79.1  37 
 RUS  HZ EP        622 50.21                             143    0.4410 96.9 177 
 RUS  HN ES        623  7.17                             143   -0.4210 96.9 177 
 RUS  HZ I         623 10.60         2.7 0.38            146           96.9 177 
 PTB  HZ EP        622 53.08                             130   -0.39 9  149 260 
 PTB  HE ES        623 13.99                             130   -0.18 9  149 260 
 PTB  HZ I         623 21.72         4.0 0.14            131            149 260 
 SPBC HZ EP        622 55.12                             128    0.35 9  161 220 
 SPBC HN ES        623 16.72                             128    0.23 9  161 220 
 SPBC HZ I         623 24.23         4.7 0.34            129            161 220 
 OCA  HE ES   4    623 14.32                             127   -2.77 0  164 353 
 OCA  HZ I         623 19.65         3.3 0.26            131            164 353 
 ZAR  HE ES   1    623 24.13                             120   -0.36 6  207 293 
 SML  HZ EP        623  2.89                             116   -0.74 8  248 335 
 SML  HN ES   4    623 30.81                             116   -1.46 0  248 335 
 HEL  HE ES   1    623 37.76                             113   -0.33 6  273 257 
 HEL  HZ I         623 46.47         1.2 0.30            115            273 257 
 GUY2CHE ES   1    623 43.52                             111   -0.37 5  301 236 
 GUY2CHZ I         623 52.56         1.8 0.58                           301 236 
                                                                                
