 2013  323 0827 29.3 L   6.795 -73.140152.0  RSN  5 0.3 1.7LRSN                1
 GAP=137        0.65       3.6     3.5  5.3 -0.1362E+01  0.1579E+01  0.2078E+01E
 Epicentro: LOS SANTOS - SANTANDER                                             3
 ACTION:UPD 13-04-09 14:04 OP:ep   STATUS:               ID:20130323082729 L   I
 2013-03-23-0820-00M.COL___245                                                 6
 STAT SP IPHASW D HRMM SECON CODA AMPLIT PERI AZIMU VELO AIN AR TRES W  DIS CAZ7
 BAR2 SZ EP   1    827 49.45                             171   -0.20 7 22.9 192 
 BAR2 SZ ES   2    828  4.37                             171   -1.17 5 22.9 192 
 BRR  HZ EP        827 51.03                             153   -0.1210 72.0 299 
 BRR  HN ES        828  8.27                             153    0.0610 72.0 299 
 BRR  HN I         828  8.87        15.3 0.42            153           72.0 299 
 PAM  SZ EP     D  827 52.34                             152    0.1710 77.4  39 
 PAM  SN ES        828 10.10                             152    0.0810 77.4  39 
 PAM  SN I         828 10.66         8.7 0.56            154           77.4  39 
 RUS  HZ EP        827 53.59                             145   -0.0210100.0 176 
 RUS  HN ES        828 12.78                             145    0.2010100.0 176 
 RUS  HN I         828 13.89         5.7 0.28            146          100.0 176 
 PTB  HZ EP        827 56.63                             133   -0.18 9  148 259 
 PTB  HN ES        828 18.49                             133    0.22 9  148 259 
 PTB  HN I         828 22.29         6.3 0.52            133            148 259 
                                                                                
