 2011  823 0838 18.9 L   6.554 -73.674 95.1  RSN  7 0.3 1.7LRSN                1
 GAP= 97        0.52       2.5     3.5  5.6  0.4669E+00  0.1151E+02  0.2598E+01E
 Epicentro: EL CARMEN DE CHUCURI - SANTANDER                                   3
 ACTION:UPD 12-07-13 15:53 OP:ep   STATUS:               ID:20110823083818 L   I
 2011-08-23-0836-18S.COL___158                                                 6
 STAT SP IPHASW D HRMM SECON CODA AMPLIT PERI AZIMU VELO AIN AR TRES W  DIS CAZ7
 BAR2 SZ IP        838 34.16                             148    0.1410 54.5  86 
 BAR2 SZ ES   1    838 46.09                             148    0.28 7 54.5  86 
 BAR2 SZ I         838 48.36        26.2 0.37                          54.5  86 
 BRR  HZ EP   1    838 33.66                             145   -0.48 7 61.3 356 
 BRR  HE ES   1    838 46.11                             145    0.09 7 61.3 356 
 BRR  HZ I         838 47.95        20.2 0.13                          61.3 356 
 RUS  HZ EP   1    838 37.72                             131   -0.17 7 98.1 138 
 RUS  HE ES   1    838 52.46                             131   -0.23 7 98.1 138 
 RUS  HZ I         838 57.43         9.3 0.33                          98.1 138 
 NOR  SZ EP   1    838 45.07                             115    0.06 7  172 230 
 NOR  SN ES   2    839  5.16                             115   -0.22 4  172 230 
 OCA  SZ EP   1    838 47.59                             112    0.34 7  190  12 
 OCA  SZ ES   2    839  8.86                             112   -0.49 4  190  12 
 OCA  SZ I         839 11.91         8.7 0.49                           190  12 
 HEL  HZ EP   1    838 49.66                             110   -0.02 6  209 259 
 HEL  HZ I         839 15.48         4.0 0.23                           209 259 
 RREF HZ EP   1    838 56.37                             106    0.35 6  260 225 
                                                                                
