 2017 1023 0708 11.1 L   6.769 -73.186148.0  RSN  7 0.4 1.3LRSN                1
 GAP=231        0.90       4.3     4.7  5.8  0.5024E+01  0.6771E+01  0.1239E+01E
 Epicentro: LOS SANTOS - SANTANDER                                             3
 ACTION:UPD 17-11-07 19:35 OP:rebc STATUS:               ID:20171023070811 L   I
 OLDACT:REG 17-10-23 12:48 OP:dhb  STATUS:               ID:20171023070220     3
 2017-10-23-0707-00M.COL___384                                                 6
 STAT SP IPHASW D HRMM SECON CODA AMPLIT PERI AZIMU VELO AIN AR TRES W  DIS CAZ7
 BAR2 EZ EP        7 8 30.70                             172   -0.2310 19.5 179 
 BAR2 EZ ES        7 8 46.29                             172   -0.1110 19.5 179 
 BAR2 EZ I         7 8 47.84         3.1 0.21            166           19.5 179 
 BRR  HZ EP        7 8 32.27                             154   -0.1110 69.2 303 
 BRR  HN ES        7 8 49.62                             154    0.6410 69.2 303 
 BRR  HZ I         7 8 54.15         2.6 0.28            151           69.2 303 
 RUS  HZ EP        7 8 35.47                             145    0.6110 97.5 173 
 RUS  HN ES        7 8 53.11                             145   -0.2810 97.5 173 
 RUS  HZ I         7 8 56.31         2.4 0.28            146           97.5 173 
 PTB  HZ EP        7 8 37.45                             134   -0.36 9  143 260 
 PTB  HN ES        7 8 58.42                             134   -0.22 9  143 260 
 PTB  HZ I         7 9  6.00         1.1 0.32            132            143 260 
 SPBC HZ EP        7 8 39.14                             131   -0.12 9  158 219 
 SPBC HE ES        7 9  1.04                             131   -0.19 9  158 219 
 SPBC HZ I         7 9  8.32         3.3 0.24            130            158 219 
 ZAR  HZ EP        7 8 43.10                             123   -0.32 9  201 294 
 ZAR  HN ES        7 9  8.47                             123   -0.15 9  201 294 
 ZAR  HZ I         7 9 13.86         4.1 0.30            124            201 294 
 NOR  HZ EP        7 8 46.95                             120    0.58 8  229 235 
 NOR  HE ES        7 9 14.20                             120    0.33 8  229 235 
 NOR  HZ I         7 9 21.87         2.2 0.18            120            229 235 
                                                                                
