 2016  923 0409 40.4 L   7.393 -73.175128.2  RSN  6 0.4 1.5LRSN                1
 GAP=186        0.94       4.1     5.7  9.2  0.3638E+01  0.1300E+02  0.1445E+02E
 Epicentro: EL PLAYON - SANTANDER                                              3
 ACTION:UPD 17-08-17 21:15 OP:lp   STATUS:               ID:20160923040940 L   I
 OLDACT:UP  16-09-23 16:40 OP:and  STATUS:               ID:20160923040734     3
 OLDACT:UP  16-09-23 16:39 OP:and  STATUS:               ID:20160923040734     3
 OLDACT:UP  16-09-23 16:37 OP:and  STATUS:               ID:20160923040734     3
 OLDACT:REG 16-09-23 11:04 OP:and  STATUS:               ID:20160923040734     3
 2016-09-23-0408-00M.COL___342                                                 6
 STAT SP IPHASW D HRMM SECON CODA AMPLIT PERI AZIMU VELO AIN AR TRES W  DIS CAZ7
 BAR2 EZ ES        410 17.24                             143   -0.1910 88.5 181 
 BAR2 EZ I         410 18.59        12.7 0.10            141           88.5 181 
 OCA  HN ES        410 18.23                             141    0.1610 94.9 350 
 RUS  HZ EP     D  410  8.51                             124    0.05 9  166 176 
 RUS  HE ES   2    410 30.21                             124   -0.12 5  166 176 
 RUS  HZ I         410 31.90         1.2 0.24            124            166 176 
 PTB  HZ EP        410  7.81                             123   -0.42 9  170 236 
 PTB  HN ES        410 29.38                             123   -0.55 9  170 236 
 PTB  HZ I         410 32.11         3.7 0.16            122            170 236 
 ZAR  HN ES        410 33.11                             121    0.26 9  186 274 
 SPBC HZ EP        410 13.20                             117   -0.04 8  217 207 
 SPBC HN ES        410 39.76                             117    0.92 8  217 207 
 SPBC HZ I         410 48.84         3.8 0.11            116            217 207 
                                                                                
