 2012  623 0351 34.9 L   6.740 -73.175151.0  RSN  5 0.3 1.3LRSN                1
 GAP=135        0.54       6.2     5.0  7.5 -0.5513E+01 -0.6551E+01  0.8140E+00E
 Epicentro: VILLANUEVA - SANTANDER                                             3
 ACTION:UPD 12-08-06 17:51 OP:ep   STATUS:               ID:20120623035134 L   I
 2012-06-23-0350-00M.COL___199                                                 6
 STAT SP IPHASW D HRMM SECON CODA AMPLIT PERI AZIMU VELO AIN AR TRES W  DIS CAZ7
 BAR2 SZ EP   3    351 55.23                             173    0.19 2 16.4 183 
 BAR2 SZ I         352 11.18         5.6 0.22                          16.4 183 
 BRR  HZ EP   3    351 57.14                             153    0.49 2 71.9 304 
 BRR  HE ES   1    352 13.84                             153    0.22 7 71.9 304 
 BRR  HZ I         352 15.22         5.4 0.22                          71.9 304 
 PAM  SZ EP        351 57.90                             150   -0.2010 84.6  38 
 PAM  SZ I         351 58.38         4.2 0.24                          84.6  38 
 RUS  HZ EP   3    351 59.09                             147    0.36 2 94.3 174 
 RUS  HN ES   2    352 17.30                             147   -0.02 5 94.3 174 
 RUS  HZ I         352 18.73         2.0 0.32                          94.3 174 
 PTB  HZ EP        352  2.13                             134    0.22 9  143 261 
 PTB  HZ I         352  3.26         1.2 0.10                           143 261 
 PTB  HN ES   2    352 22.18                             134   -0.80 5  143 261 
                                                                                
