 2016 1023 0740 49.0 L   6.022 -73.682115.1  RSN 10 0.4 1.7LRSN                1
 GAP= 80        0.82       2.6     2.9  5.0 -0.2256E+01  0.4344E+01  0.2810E+00E
 Epicentro: VELEZ - SANTANDER                                                  3
 ACTION:UPD 16-11-09 19:22 OP:rebc STATUS:               ID:20161023074049 L   I
 OLDACT:UP  16-10-23 17:06 OP:e    STATUS:               ID:20161023073744     3
 OLDACT:UP  16-10-23 17:03 OP:e    STATUS:               ID:20161023073744     3
 OLDACT:REG 16-10-23 13:15 OP:and  STATUS:               ID:20161023073744     3
 2016-10-23-0738-00M.COL___353                                                 6
 STAT SP IPHASW D HRMM SECON CODA AMPLIT PERI AZIMU VELO AIN AR TRES W  DIS CAZ7
 SPBC HZ IP     D  741  6.18                             150   -0.1810 59.5 227 
 SPBC HE ES        741 20.39                             150    0.5210 59.5 227 
 SPBC HZ I         741 21.76        29.5 0.12            152           59.5 227 
 RUS  HZ IP     C  741  7.38                             148   -0.0710 67.8 102 
 RUS  HN ES        741 21.78                             148   -0.0310 67.8 102 
 RUS  HZ I         741 23.44        10.1 0.24            149           67.8 102 
 BAR2 EZ EP        741  8.22                             141   -0.0110 83.8  41 
 BAR2 EZ ES        741 22.68                             141   -0.5110 83.8  41 
 BAR2 EZ I         741 25.23         9.9 0.21            141           83.8  41 
 PTB  HZ IP   9 D  741  7.92                             135   -1.56 0  103 304 
 PTB  HN ES        741 23.33                                   -0.5310  103 304 
 PTB  HZ I         741 26.90        10.0 0.13            135            103 304 
 BRR  HZ EP        741 11.50                             130    0.5210  120 358 
 BRR  HN ES        741 28.19                             130    0.0910  120 358 
 BRR  HZ I         741 32.06         7.2 0.11            130            120 358 
 CHI  HZ EP        741 14.69                             123   -0.18 9  154 182 
 CHI  HN ES        741 34.84                             123   -0.18 9  154 182 
 CHI  HZ I         741 38.07        10.6 0.38            124            154 182 
 PAM  EZ EP   2    741 17.80                             118   -0.07 4  182  37 
 PAM  EN ES   2    741 40.06                             118   -0.30 4  182  37 
 PAM  EZ I         741 46.83         3.7 0.22            118            182  37 
 HEL  HZ EP        741 20.28                             114   -0.01 8  205 275 
 HEL  HN ES   2    741 43.53                             114   -1.14 4  205 275 
 HEL  HZ I         741 47.97         5.3 0.38            115            205 275 
 GUY2CHZ EP        741 20.94                             114    0.40 8  206 245 
 GUY2CHN ES        741 45.31                             114    0.20 8  206 245 
 GUY2CHZ I         741 53.99         2.9 0.34                           206 245 
 CBOC HZ EP   2    741 25.95                             109   -0.14 4  259 266 
 CBOC HN ES   2    741 54.23                             109   -0.75 4  259 266 
 CBOC HZ I         741 57.93         1.8 0.58            109            259 266 
                                                                                
