 2013  323 0659 17.9 L   6.760 -73.152154.0  RSN  6 0.3 2.0LRSN                1
 GAP=138        0.73       3.9     3.9  4.8 -0.1786E+01  0.1850E+01  0.1982E+01E
 Epicentro: LOS SANTOS - SANTANDER                                             3
 ACTION:UPD 13-04-09 14:04 OP:ep   STATUS:               ID:20130323065917 L   I
 2013-03-23-0657-50M.COL___202                                                 6
 STAT SP IPHASW D HRMM SECON CODA AMPLIT PERI AZIMU VELO AIN AR TRES W  DIS CAZ7
 BAR2 SZ EP        659 38.41                             173    0.0110 18.8 190 
 BAR2 SZ ES        659 54.26                             173   -0.1610 18.8 190 
 GIR2 SZ EP        659 38.51                             166   -0.1110 35.6 353 
 GIR2 SZ ES        659 54.87                             166    0.0510 35.6 353 
 GIR2 SZ I         659 55.70         9.7 0.32            167           35.6 353 
 BRR  HZ EP        659 40.30                             153    0.3210 72.8 302 
 BRR  HE ES        659 57.74                             153    0.4910 72.8 302 
 BRR  HE I         659 58.60        24.8 0.26            152           72.8 302 
 PAM  SZ EP        659 41.32                             151    0.1510 81.3  38 
 PAM  SN ES        659 58.96                             151   -0.4110 81.3  38 
 PAM  SN I         659 59.91        20.1 0.44            154           81.3  38 
 RUS  HZ EP        659 42.29                             147    0.1710 96.2 175 
 RUS  HN ES        7 0  1.16                             147    0.1110 96.2 175 
 RUS  HN I         7 0  2.83        11.5 0.20            147           96.2 175 
 PTB  HZ EP        659 44.99                             134   -0.38 9  146 260 
 PTB  HN ES        7 0  6.51                             134   -0.33 9  146 260 
 PTB  HN I         7 0 11.82        12.5 0.54            133            146 260 
                                                                                
