 2017  923 0018  9.6 L   7.023 -73.063160.2  RSN  5 0.2 1.4LRSN                1
 GAP=132        0.63       3.8     3.7  5.0  0.2940E+01  0.1823E+01  0.7799E+00E
 Epicentro: PIEDECUESTA - SANTANDER                                            3
 ACTION:UPD 17-10-05 19:15 OP:rebc STATUS:               ID:20170923001809 L   I
 OLDACT:DUP 17-09-23 16:01 OP:osc  STATUS:               ID:20170923001740d    3
 2017-09-23-0018-00M.COL___450                                                 6
 STAT SP IPHASW D HRMM SECON CODA AMPLIT PERI AZIMU VELO AIN AR TRES W  DIS CAZ7
 BAR2 EZ EP        018 31.71                             162    0.0210 49.4 196 
 BAR2 EZ ES        018 48.92                             162   -0.0110 49.4 196 
 BAR2 EZ I         018 51.70         6.9 0.18            162           49.4 196 
 PAM  EZ EP        018 32.16                             161   -0.0510 53.2  49 
 PAM  EE ES        018 49.70                             161   -0.1610 53.2  49 
 PAM  EZ I         018 50.12         5.4 0.24            163           53.2  49 
 BRR  HZ EP        018 32.54                             154    0.1610 72.3 277 
 BRR  HE ES        018 50.57                             154    0.4210 72.3 277 
 RUS  HZ EP        018 36.75                             140    0.1810  125 181 
 RUS  HN ES        018 57.37                             140   -0.2310  125 181 
 RUS  HZ I         018 58.35         2.1 0.30            141            125 181 
 ZAR  HE ES        019  8.80                             125   -0.45 9  205 285 
                                                                                
