 2012  823 0154  9.6 L   6.773 -73.156152.1  RSN  6 0.4 1.5LRSN                1
 GAP=136        0.77       5.3     4.6  7.4  0.2469E+01  0.5397E+01  0.8530E+00E
 Epicentro: LOS SANTOS - SANTANDER                                             3
 ACTION:UPD 12-09-10 11:57 OP:ep   STATUS:               ID:20120823015409 L   I
 2012-08-23-0150-00M.COL___217                                                 6
 STAT SP IPHASW D HRMM SECON CODA AMPLIT PERI AZIMU VELO AIN AR TRES W  DIS CAZ7
 BAR2 SZ EP        154 30.01                             172    0.0710 20.2 188 
 BAR2 SZ ES   1    154 46.15                             172    0.35 7 20.2 188 
 BRR  HZ EP   1    154 31.89                             153    0.42 7 71.7 301 
 BRR  HZ I         154 35.33         7.0 0.17                          71.7 301 
 BRR  HN ES   1    154 49.13                             153    0.61 7 71.7 301 
 PAM  SZ EP   1    154 32.66                             151   -0.01 7 80.4  39 
 PAM  SZ I         154 32.98         4.1 0.18                          80.4  39 
 PAM  SN ES   1    154 50.03                             151   -0.64 7 80.4  39 
 RUS  HZ EP   1    154 34.00                             146    0.22 7 97.7 175 
 RUS  HN ES   1    154 52.35                             146   -0.29 7 97.7 175 
 RUS  HZ I         154 54.53         3.0 0.44                          97.7 175 
 PTB  HZ EP   1    154 36.80                             134   -0.14 7  146 260 
 PTB  HN ES   1    154 57.74                             134   -0.53 7  146 260 
 PTB  HZ I         155  1.43         2.5 0.22                           146 260 
 ZAR  HN ES   1    155  7.87                             124   -0.25 6  204 293 
 ZAR  HZ I         155 14.26         5.6 0.28                           204 293 
                                                                                
