 2010 1123 0507 46.7 L   6.745 -73.039143.1  RSN  4 0.2 1.4LRSN                1
 GAP=171        0.65       3.9     8.4 10.0  0.4268E+00 -0.2354E+02  0.5077E+00E
 Epicentro: ARATOCA - SANTANDER                                                3
 ACTION:UP  10-12-17 16:54 OP:REBC STATUS:               ID:20101123050746 L   I
 2010-11-23-0504-44S.COL___132                                                 6
 STAT SP IPHASW D HRMM SECON CODA AMPLIT PERI AZIMU VELO SNR AR TRES W  DIS CAZ7
 BAR2 SZ EP        5 8  6.12                             170     0.110   23 223 
 BAR2 SZ I         5 8 23.78         7.5 0.46                            23 223 
 BRR  HZ EP   1    5 8  8.04                             148    -0.4 7   85 298 
 BRR  HZ I         5 8  9.59         9.3 0.12                            85 298 
 BRR  HN ES   1    5 8 25.52                             148     0.2 7   85 298 
 RUS  HZ EP   1    5 8 10.18                             145     0.4 7   94 183 
 RUS  HE ES   1    5 8 27.50                             145    -0.3 7   94 183 
 RUS  HZ I         5 8 30.11         2.2 0.00                            94 183 
 GRA  SZ EP   2    5 8 11.85                             136    -0.2 5  129  12 
 GRA  SZ ES   1    5 8 31.71                             136     0.0 7  129  12 
 GRA  SZ I         5 8 33.78         4.2 0.21                           129  12 
                                                                                
