 2010 1023 0729 42.3 L   7.190 -74.004  2.0  RSN  5 0.5 1.3LRSN                1
 GAP=169        1.24       8.2    10.9 15.9  0.4036E+02 -0.2158E+01  0.5344E+02E
 Epicentro: PUERTO WILCHES - SANTANDER                                         3
 ACTION:UP  11-02-18 11:11 OP:tino STATUS:               ID:20101023072942 L   I
 2010-10-23-0726-15S.COL___127                                                 6
 STAT SP IPHASW D HRMM SECON CODA AMPLIT PERI AZIMU VELO SNR AR TRES W  DIS CAZ7
 BRR  HZ EP        729 47.69                              47    -0.610   33 106 
 BRR  HZ ES   2    729 52.95                              47     0.1 5   33 106 
 BRR  HZ I         729 53.53        35.2 0.22                            33 106 
 BTL  SZ EP        729 57.48                              47     0.910   87 110 
 OCA  SZ EP   1    730  3.99                              47    -0.3 7  138  33 
 RUS  HZ EP   1    730 10.07                              47    -0.3 7  176 145 
 RUS  HE ES   1    730 31.98                              47    -0.2 7  176 145 
 RUS  HZ I         730 33.46         5.6 0.35                           176 145 
 MON  HZ EP   2    730 19.88                              37     0.3 4  253 314 
 MON  HZ I         730 23.82         0.8 0.20                           253 314 
 MON  HE ES   3    730 49.00                              37     0.4 2  253 314 
                                                                                
