 2016 1223 0836 41.8 L   6.813 -73.185143.2  RSN  8 0.3 1.7LRSN                1
 GAP=131        0.81       3.2     3.5  5.0  0.1424E+01  0.4365E+01  0.2859E+01E
 Epicentro: ZAPATOCA - SANTANDER                                               3
 ACTION:UPD 17-01-11 20:18 OP:rebc STATUS:               ID:20161223083641 L   I
 OLDACT:REG 16-12-23 13:26 OP:y    STATUS:               ID:20161223082744     3
 2016-12-23-0828-00M.COL___381                                                 6
 STAT SP IPHASW D HRMM SECON CODA AMPLIT PERI AZIMU VELO AIN AR TRES W  DIS CAZ7
 BAR2 EZ EP        837  1.08                             170   -0.1010 24.4 179 
 BAR2 EZ ES        837 15.85                             170   -0.4210 24.4 179 
 BAR2 EZ I         837 16.79         5.7 0.18            170           24.4 179 
 BRR  HZ EP        837  3.08                             154    0.6210 66.7 299 
 BRR  HN ES        837 18.79                             154    0.2510 66.7 299 
 PAM  EZ EP        837  4.17                             150    0.2910 79.1  43 
 PAM  EN ES        837 21.04                             150   -0.0410 79.1  43 
 PAM  EZ I         837 23.31        16.7 0.54            153           79.1  43 
 RUS  HZ EP        837  5.32                             143   -0.1510  102 174 
 RUS  HN ES        837 23.84                             143   -0.0710  102 174 
 RUS  HZ I         837 25.04         8.1 0.28            144            102 174 
 PTB  HZ EP        837  8.08                             132   -0.16 9  144 258 
 PTB  HN ES        837 29.14                             132    0.31 9  144 258 
 PTB  HZ I         837 33.91         4.5 0.18            131            144 258 
 ZAR  HZ EP        837 13.17                             122   -0.48 9  200 292 
 ZAR  HE ES        837 38.06                             122   -0.40 9  200 292 
 ZAR  HZ I         837 45.34         4.8 0.30            122            200 292 
 CHI  HZ EP        837 19.31                             116   -0.12 8  249 194 
 CHI  HN ES        837 49.09                             116    0.34 8  249 194 
 CHI  HZ I         837 52.13         2.7 0.50            117            249 194 
 GUY2CHZ EP   4    837 28.15                             112    3.12 0  299 234 
 GUY2CHZ I         838  7.44         2.8 0.30                           299 234 
                                                                                
