 2015  223 0200 17.4 L   6.791 -73.148145.6  RSN  9 0.5 2.0LRSN                1
 GAP=137        1.19       3.6     5.5  7.9 -0.5880E+01  0.7685E+01 -0.2133E+01E
 Epicentro: LOS SANTOS - SANTANDER                                             3
 ACTION:UPD 15-04-30 21:28 OP:nd   STATUS:               ID:20150223020017 L   I
 OLDACT:UP  15-02-23 17:00 OP:mh   STATUS:               ID:20150223015747     3
 OLDACT:REG 15-02-23 12:48 OP:mh   STATUS:               ID:20150223015747     3
 2015-02-23-0157-47M.COL___275                                                 6
 STAT SP IPHASW D HRMM SECON CODA AMPLIT PERI AZIMU VELO AIN AR TRES W  DIS CAZ7
 BRR  HZ EP        2 0 39.14                             152    0.6110 71.4 299 
 BRR  HN ES        2 0 55.40                             152    0.3710 71.4 299 
 BRR  HZ I         2 1  0.05        15.1 0.14            148           71.4 299 
 PAM  SZ EP        2 0 40.29                             150    0.6410 78.3  39 
 PAM  SN ES        2 0 57.43                             150    0.4210 78.3  39 
 PAM  SZ I         2 0 59.47        11.4 0.56            155           78.3  39 
 RUS  HZ EP        2 0 40.27                             144   -0.7910 99.6 176 
 RUS  HN ES        2 0 58.98                             144   -0.5410 99.6 176 
 RUS  HZ I         2 1  1.17         5.2 0.14            148           99.6 176 
 PTB  HZ EP        2 0 44.23                             132   -0.07 9  147 259 
 PTB  HN ES        2 1  4.85                             132   -0.44 9  147 259 
 PTB  HZ I         2 1  9.39         8.4 0.28            131            147 259 
 OCA  HZ EP        2 0 45.51                             129   -0.27 9  161 353 
 OCA  HN ES        2 1  7.31                             129   -0.61 9  161 353 
 OCA  HZ I         2 1 11.42        18.4 0.20            131            161 353 
 SPBC HZ EP        2 0 46.39                             129    0.61 9  162 219 
 SPBC HN ES        2 1  7.96                             129    0.03 9  162 219 
 SPBC HZ I         2 1 14.71        17.2 0.34            130            162 219 
 NOR  HZ EP   1    2 0 53.46                             119    0.44 6  234 235 
 NOR  HN ES        2 1 20.99                             119    0.18 8  234 235 
 NOR  HZ I         2 1 28.05         7.3 0.24            120            234 235 
 SML  HZ EP        2 0 53.67                             117   -0.42 8  244 335 
 SML  HN ES        2 1 22.59                             117   -0.13 8  244 335 
 SML  HZ I         2 1 30.01        11.7 0.10            119            244 335 
 URE  HZ EP   4    2 0 57.12                             114   -1.34 0  284 292 
 URE  HN ES   4    2 1 32.13                             114    1.63 0  284 292 
 URE  HZ I         2 1 40.09         7.0 0.18            114            284 292 
                                                                                
