 2014 1023 0731  7.2 L   6.706 -73.162144.5  RSN  4 0.2 1.0LRSN                1
 GAP=228        0.44       4.1     4.2  4.1  0.8778E+01  0.2676E+01  0.1758E+01E
 Epicentro: VILLANUEVA - SANTANDER                                             3
 ACTION:UPD 14-11-29 23:55 OP:nd   STATUS:               ID:20141023073107 L   I
 OLDACT:REG 14-10-26 04:55 OP:fm   STATUS:               ID:20141023072743     3
 2014-10-23-0727-43M.COL___271                                                 6
 STAT SP IPHASW D HRMM SECON CODA AMPLIT PERI AZIMU VELO AIN AR TRES W  DIS CAZ7
 BAR2 SZ EP   1    731 26.72                             175    0.21 7 12.7 190 
 BAR2 SZ ES   1    731 41.43                             175   -0.14 7 12.7 190 
 BAR2 SZ I         731 42.98         2.7 0.26            168           12.7 190 
 BRR  HZ EP        731 28.52                             151    0.0810 75.2 306 
 BRR  HN ES        731 44.99                             151   -0.0210 75.2 306 
 BRR  HZ I         731 49.08         2.8 0.52            148           75.2 306 
 RUS  HZ EP   1    731 30.22                             147    0.11 7 90.3 174 
 RUS  HE ES   1    731 47.94                             147   -0.04 7 90.3 174 
 PTB  HZ EP        731 33.45                             132   -0.29 9  144 263 
 PTB  HE ES   1    731 54.69                             132    0.24 7  144 263 
 PTB  HZ I         732  0.35         1.0 0.16            131            144 263 
                                                                                
