 2014 1023 0227 16.0 L   6.834 -73.166140.5  RSN 14 0.5 1.9LRSN                1
 GAP=132        1.02       2.6     4.1  5.7 -0.8326E+00  0.9054E+01  0.2330E+01E
 Epicentro: LOS SANTOS - SANTANDER                                             3
 ACTION:UPD 14-11-29 23:55 OP:nd   STATUS:               ID:20141023022716 L   I
 OLDACT:DUP 14-10-26 07:33 OP:fm   STATUS:               ID:20141023021746d    3
 2014-10-23-0217-45M.COL___268                                                 6
 STAT SP IPHASW D HRMM SECON CODA AMPLIT PERI AZIMU VELO AIN AR TRES W  DIS CAZ7
 BAR2 SZ EP        227 34.82                             169   -0.2710 26.8 184 
 BAR2 SZ ES   1    227 50.04                             169    0.07 7 26.8 184 
 BAR2 SZ I         227 51.54        16.2 0.20            168           26.8 184 
 BRR  HZ EP   1    227 35.99                             153   -0.39 7 67.5 297 
 BRR  HN ES        227 52.68                             153    0.4110 67.5 297 
 BRR  HZ I         227 54.60         9.8 0.30            151           67.5 297 
 PAM  SZ EP        227 38.17                             150    0.5810 76.0  43 
 PAM  SN ES        227 54.75                             150    0.3310 76.0  43 
 PAM  SZ I         227 57.45        19.0 0.26            154           76.0  43 
 RUS  HZ EP        227 38.93                             142   -0.6110  105 175 
 RUS  HE ES        227 57.39                             142   -0.5110  105 175 
 RUS  HZ I         227 58.98         3.8 0.22            142            105 175 
 PTB  HZ EP        227 41.84                             131   -0.58 9  146 257 
 PTB  HN ES        228  2.70                             131   -0.33 9  146 257 
 PTB  HZ I         228  8.78         9.1 0.18            130            146 257 
 OCA  HN ES        228  4.78                             129   -0.23 9  156 354 
 OCA  HZ I         228  9.51        10.0 0.34            130            156 354 
 SML  HZ EP        227 51.84                             117   -0.03 8  239 335 
 SML  HE ES        228 20.05                             117    0.21 8  239 335 
 SML  HZ I         228 25.68         8.4 0.22            118            239 335 
 CHI  HZ EP   1    227 54.13                             116    0.37 6  252 194 
 CHI  HE ES        228 23.71                             116    0.51 8  252 194 
 CHI  HZ I         228 30.95         4.3 0.26            116            252 194 
 ROSC BN ES   1    228 24.83                             115    1.06 6  255 210 
 ROSC BZ I         228 30.19         7.8 0.30            116            255 210 
 GUY2CHZ EP        227 59.10                             111   -0.32 7  302 234 
 GUY2CHN ES        228 33.85                             111    0.57 7  302 234 
 GUY2CHZ I         228 40.86         3.8 0.52                           302 234 
 CBOC HZ EP        228  3.56                             109    0.96 7  333 251 
 CBOC HN ES        228 39.09                             109    0.15 7  333 251 
 CBOC HZ I         228 45.63         1.4 0.40            109            333 251 
 MON  HZ EP   4    228  2.59                             108   -1.75 0  350 308 
 MON  HN ES        228 41.46                             108   -0.57 6  350 308 
 MON  HZ I         228 43.40         1.4 0.72            108            350 308 
 PRA  HZ EP        228  9.79                             105    0.18 6  394 209 
 PRA  HE ES        228 51.04                             105   -0.37 6  394 209 
 PRA  HZ I         228 57.89         6.0 0.32            106            394 209 
 ORTC HZ EP   1    228  9.95                             105   -0.01 4  397 216 
 ORTC HE ES   4    228 54.30                             105    2.27 0  397 216 
 ORTC HZ I         228 58.59         3.3 0.44            106            397 216 
                                                                                
