 2017  123 0628 48.5 L   6.801 -73.171143.7  RSN  5 0.2 1.0LRSN                1
 GAP=133        0.66       3.5     3.1  5.5 -0.2071E+00  0.5195E+01 -0.1521E+01E
 Epicentro: LOS SANTOS - SANTANDER                                             3
 ACTION:UPD 17-05-22 16:02 OP:jn   STATUS:               ID:20170123062848 L   I
 OLDACT:DUP 17-01-23 17:31 OP:lv   STATUS:               ID:20170123061743d    3
 OLDACT:REG 17-01-23 12:50 OP:lv   STATUS:               ID:20170123061742     3
 2017-01-23-0618-00M.COL___337                                                 6
 STAT SP IPHASW D HRMM SECON CODA AMPLIT PERI AZIMU VELO AIN AR TRES W  DIS CAZ7
 BAR2 EZ EP        629  8.10                             170    0.2210 23.1 183 
 BAR2 EZ ES        629 22.83                             170   -0.1610 23.1 183 
 BAR2 EZ I         629 23.72         1.8 0.14            171           23.1 183 
 PAM  EZ EP        629 10.51                             150   -0.0910 79.2  41 
 PAM  EE ES        629 27.79                             150   -0.0510 79.2  41 
 PAM  EZ I         629 29.83         1.8 0.46            150           79.2  41 
 RUS  HZ EP        629 12.17                             143    0.1010  101 174 
 RUS  HE ES        629 30.66                             143    0.2010  101 174 
 RUS  HZ I         629 32.31         1.6 0.36            144            101 174 
 PTB  HZ EP        629 14.64                             132   -0.41 9  145 259 
 PTB  HN ES        629 35.52                             132   -0.24 9  145 259 
 ZAR  HN ES        629 46.00                             122    0.47 9  201 292 
                                                                                
