 2012  223 0300 48.1 L   6.748 -73.189153.2  RSN  5 0.3 1.3LRSN                1
 GAP=174        0.58       5.4     5.6  6.0  0.1161E+02  0.6870E+01  0.4017E+01E
 ACTION:UP  12-03-07 16:33 OP:epov STATUS:               ID:20120223030048 L   I
 2012-02-23-0300-00M.COL___191                                                 6
 STAT SP IPHASW D HRMM SECON CODA AMPLIT PERI AZIMU VELO AIN AR TRES W  DIS CAZ7
 BAR2 SZ ES   1    3 1 24.27                             173   -0.14 7 17.3 178 
 BAR2 SZ I         3 1 24.41         4.1 0.15                          17.3 178 
 GIR2 SZ EP   2    3 1  8.21                             166   -0.55 5 36.5 359 
 GIR2 SZ ES   2    3 1 24.52                             166   -0.39 5 36.5 359 
 BRR  HZ EP   1    3 1 10.30                             154    0.34 7 70.1 304 
 BRR  HE ES   1    3 1 27.45                             154    0.41 7 70.1 304 
 BRR  HZ I         3 1 30.24         3.9 0.14                          70.1 304 
 RUS  HZ EP   1    3 1 12.24                             147    0.05 7 95.4 173 
 RUS  HZ I         3 1 28.59         2.7 0.60                          95.4 173 
 RUS  HN ES   1    3 1 31.15                             147    0.14 7 95.4 173 
 PTB  HZ EP   1    3 1 15.06                             135   -0.08 7  142 261 
 PTB  HN ES   1    3 1 35.92                             135   -0.35 7  142 261 
                                                                                
