 2015  523 0913  7.4 L   6.821 -73.083149.7  RSN  6 0.3 1.4LRSN                1
 GAP=189        0.74       4.7     7.0  6.9  0.1014E+02  0.8218E+01 -0.1126E+02E
 Epicentro: LOS SANTOS - SANTANDER                                             3
 ACTION:UPD 15-09-10 22:06 OP:cam  STATUS:               ID:20150523091307 L   I
 OLDACT:REG 15-05-23 12:44 OP:spq  STATUS:               ID:20150523090747     3
 2015-05-23-0907-47M.COL___294                                                 6
 STAT SP IPHASW D HRMM SECON CODA AMPLIT PERI AZIMU VELO AIN AR TRES W  DIS CAZ7
 BAR2 EZ ES   1    913 42.76                             169   -0.62 7 27.6 204 
 BAR2 EZ I         913 44.13         2.8 0.24            171           27.6 204 
 BRR  HZ EP        913 29.74                             151    0.4410 76.4 294 
 BRR  HN ES        913 46.74                             151    0.3810 76.4 294 
 BRR  HZ I         913 51.58         3.4 0.23            149           76.4 294 
 RUS  HE ES   1    913 50.70                             144    0.03 7  103 180 
 RUS  HZ I         913 52.37         2.4 0.28            150            103 180 
 OCA  HN ES   1    913 58.00                             131   -0.16 7  159 351 
 OCA  HZ I         914  2.28         5.5 0.27            131            159 351 
 ZAR  HZ EP        913 40.52                             122   -0.19 8  210 291 
 ZAR  HN ES        914  6.39                             122   -0.29 8  210 291 
 ZAR  HZ I         914 13.04         1.6 0.24            123            210 291 
 SML  HZ EP   1    913 44.20                             118   -0.18 6  245 334 
 SML  HN ES   1    914 13.19                             118   -0.01 6  245 334 
 SML  HZ I         914 22.72         3.1 0.10            119            245 334 
                                                                                
