 2011  623 0136 40.0 L   6.855 -73.292120.0  RSN 11 0.4 1.9LRSN                1
 GAP=132        0.87       4.0     6.0  6.2 -0.4252E+01  0.9349E+01  0.3115E+01E
 Epicentro: ZAPATOCA - SANTANDER                                               3
 ACTION:UP  11-07-14 19:07 OP:ep   STATUS:               ID:20110623013640 L   I
 2011-06-23-0132-52S.COL___140                                                 6
 STAT SP IPHASW D HRMM SECON CODA AMPLIT PERI AZIMU VELO SNR AR TRES W  DIS CAZ7
 BTL  SZ IP        136 56.83                             176     0.610    7  21 
 BTL  SZ ES   1    137  9.61                             176     0.6 7    7  21 
 GIR2 SZ EP   1    136 56.44                             167     0.0 7   27  24 
 BAR2 SZ IP        136 56.73                             164     0.010   32 157 
 BAR2 SZ ES   1    137  9.18                             164    -0.7 7   32 157 
 BAR2 SZ I         137 11.47        48.2 0.60                            32 157 
 BRR  HZ IP     C  136 57.12                             154    -0.310   54 301 
 BRR  HN ES   1    137 11.05                             154     0.1 7   54 301 
 BRR  HZ I         137 12.04        34.9 0.13                            54 301 
 RUS  HZ EP   1    137  1.96                             135     0.0 7  109 168 
 RUS  HN ES   2    137 19.32                             135     0.1 5  109 168 
 RUS  HZ I         137 20.45         7.3 0.24                           109 168 
 GRA  SZ EP   2    137  3.11                             130     0.0 5  126  25 
 GRA  SZ ES   2    137 20.82                             130    -0.3 5  126  25 
 GRA  SZ I         137 25.88         9.4 0.61                           126  25 
 OCA  SZ EP   1    137  5.42                             124    -0.3 7  153 359 
 OCA  SZ ES   2    137 25.32                             124    -0.4 5  153 359 
 OCA  SZ I         137 28.59        16.1 0.35                           153 359 
 NOR  SN ES   2    137 38.46                             114    -0.9 4  226 231 
 CHI  HZ EP   1    137 16.44                             111    -0.2 6  251 191 
 CHI  HN ES   2    137 44.86                             111    -0.4 4  251 191 
 CHI  HZ I         137 45.97         3.5 0.82                           251 191 
 HEL  HZ EP   1    137 17.97                             110     0.6 6  258 254 
 HEL  HE ES   2    137 46.04                             110    -0.6 4  258 254 
 HEL  HZ I         137 51.93         2.4 0.20                           258 254 
 RREF HZ EP   2    137 24.78                             106     0.6 3  314 227 
 RREF HN ES   2    137 59.55                             106     0.8 3  314 227 
 RREF HZ I         138  4.83         3.5 0.42                           314 227 
                                                                                
