 2016  823 0151 13.5 L   6.794 -73.103144.9  RSN 13 0.5 1.9LRSN                1
 GAP=222        0.99       3.9     3.8  5.4  0.4845E+01  0.4634E+01  0.5891E+01E
 Epicentro: LOS SANTOS - SANTANDER                                             3
 ACTION:UPD 16-10-29 15:38 OP:rebc STATUS:               ID:20160823015113 L   I
 OLDACT:REG 16-08-23 14:32 OP:ak   STATUS:               ID:20160823014743     3
 2016-08-23-0148-00M.COL___374                                                 6
 STAT SP IPHASW D HRMM SECON CODA AMPLIT PERI AZIMU VELO AIN AR TRES W  DIS CAZ7
 BAR2 EZ EP        151 33.36                             170    0.3210 24.0 202 
 BAR2 EZ ES        151 48.08                             170   -0.1910 24.0 202 
 BAR2 EZ I         151 49.55        19.8 0.28                          24.0 202 
 BRR  HZ IP     C  151 35.15                             151    0.3310 75.7 297 
 BRR  HE ES        151 51.93                             151    0.4910 75.7 297 
 BRR  HZ I         151 56.57        13.7 0.12                          75.7 297 
 RUS  HZ EP        151 36.91                             144   -0.1910 99.7 179 
 RUS  HN ES        151 55.84                             144    0.3410 99.7 179 
 RUS  HZ I         151 57.12         6.7 0.30                          99.7 179 
 PTB  HZ EP   1    151 39.84                             131   -0.97 7  152 259 
 PTB  HN ES        152  1.40                             131   -0.71 9  152 259 
 PTB  HZ I         152  3.09        20.1 0.05                           152 259 
 SPBC HZ EP        151 42.14                             128   -0.03 9  166 220 
 SPBC HN ES        152  4.71                             128    0.18 9  166 220 
 SPBC HZ I         152  8.60        10.8 0.07                           166 220 
 ZAR  HZ EP   1    151 46.83                             122    0.46 6  209 292 
 ZAR  HN ES        152 11.18                             122   -0.83 8  209 292 
 ZAR  HZ I         152 17.49         7.4 0.34                           209 292 
 NOR  HZ EP        151 49.61                             118    0.06 8  238 235 
 NOR  HN ES        152 17.32                             118   -0.35 8  238 235 
 NOR  HZ I         152 26.71         5.7 0.40                           238 235 
 CHI  HZ EP   2    151 50.83                             117   -0.39 4  249 196 
 CHI  HN ES        152 20.60                             117   -0.04 8  249 196 
 CHI  HZ I         152 25.96         4.8 0.40                           249 196 
 HEL  HZ EP   2    151 54.57                             114    0.41 4  276 256 
 HEL  HN ES        152 25.80                             114   -0.07 7  276 256 
 HEL  HZ I         152 31.44         3.9 0.30                           276 256 
 GUY2CHZ EP        151 57.92                             112    0.46 7  305 235 
 GUY2CHN ES        152 32.63                             112    0.88 7  305 235 
 GUY2CHZ I         152 39.59         4.1 0.34                           305 235 
 PTGC HZ EP        151 56.64                             112   -0.41 7  306 159 
 PTGC HN ES        152 30.52                             112   -0.50 7  306 159 
 CBOC HZ EP        152  1.76                             109    0.89 7  338 252 
 CBOC HE ES        152 37.77                             109   -0.05 7  338 252 
 CBOC HZ I         152 41.83         1.1 0.30                           338 252 
 PRA  HZ EP   1    152  6.60                             106   -0.60 4  394 210 
 PRA  HN ES        152 49.22                             106    0.14 6  394 210 
 PRA  HZ I         152 55.78         4.1 0.26                           394 210 
                                                                                
