 2017  723 0557 44.4 L   6.795 -73.135152.9  RSN 13 0.3 1.9LRSN                1
 GAP=113        1.20       4.5     4.7  6.6 -0.4688E+01  0.8863E+01 -0.4978E+00E
 Epicentro: LOS SANTOS - SANTANDER                                             3
 ACTION:UPD 17-08-30 15:35 OP:rebc STATUS:               ID:20170723055744 L   I
 OLDACT:DUP 17-07-23 16:40 OP:lv   STATUS:               ID:20170723054737d    3
 2017-07-23-0548-00M.COL___383                                                 6
 STAT SP IPHASW D HRMM SECON CODA AMPLIT PERI AZIMU VELO AIN AR TRES W  DIS CAZ7
 BAR2 EZ IP     D  558  4.59                             171   -0.2810 23.1 193 
 BAR2 EZ I         558 22.48        18.1 0.28            170           23.1 193 
 BRR  HZ EP        558  6.54                             153    0.1610 72.5 298 
 BRR  HN ES        558 23.96                             153    0.4210 72.5 298 
 BRR  HZ I         558 27.46        10.2 0.08            153           72.5 298 
 PAM  EZ EP        558  7.39                             152    0.0410 77.0  39 
 PAM  EN ES        558 24.78                             152   -0.4710 77.0  39 
 PAM  EZ I         558 26.84         9.9 0.14            155           77.0  39 
 RUS  HZ EP        558  8.55                             145   -0.2610100.0 177 
 RUS  HN ES        558 28.24                             145    0.3910100.0 177 
 PTB  HZ EP   9    558 11.27                             133   -0.77 0  149 259 
 PTB  HN ES        558 32.33                                   -0.51 9  149 259 
 PTB  HZ I         558 38.61         9.7 0.22            133            149 259 
 SPBC HZ EP        558 13.45                             131   -0.03 9  164 219 
 SPBC HN ES        558 35.98                             131   -0.18 9  164 219 
 SPBC HZ I         558 41.53        19.0 0.14            131            164 219 
 YPLC HZ IP   9 D  558 14.80                             128    0.19 0  176 152 
 YPLC HN ES        558 39.63                                    1.26 9  176 152 
 ZAR  HZ EP        558 17.86                             124    0.42 8  205 292 
 ZAR  HN ES        558 43.12                             124   -0.10 8  205 292 
 ZAR  HZ I         558 49.10        10.9 0.09            124            205 292 
 NOR  HZ EP        558 20.52                             120   -0.09 8  235 235 
 NOR  HN ES        558 48.88                             120    0.01 8  235 235 
 NOR  HZ I         558 52.38         7.9 0.29            120            235 235 
 ROSC BZ EP   9    558 24.49                             118    1.56 0  253 211 
 ROSC BN ES        558 54.43                                   -0.12 8  253 211 
 ROSC BZ I         559  0.82         8.6 0.18            119            253 211 
 GUY2CHZ EP        558 29.03                             114    0.62 7  302 235 
 GUY2CHN ES        559  2.56                             114   -0.19 7  302 235 
 GUY2CHZ I         559 11.42         3.3 0.21                           302 235 
 PTGC HZ EP   9    558 27.43                             113   -1.04 0  308 159 
 PTGC HN ES        559  0.20                                   -1.61 7  308 159 
 PTGC HZ I         559  3.51         5.0 0.27            114            308 159 
 LL6C HN ES   4    559  4.71                             112   -1.70 0  325 357 
 CBOC HZ EP        558 31.76                             111    0.04 7  335 252 
 CBOC HE ES        559  8.07                             111   -0.57 7  335 252 
 CBOC HZ I         559 16.86         1.4 0.48            112            335 252 
 SJC  HZ EP   4    558 38.70                             107   -1.62 0  410 327 
 SJC  HN ES   4    559 18.39                             107   -5.56 0  410 327 
                                                                                
