 2013  523 0525 38.7 L   6.788 -73.162145.5  RSN  7 0.3 1.8LRSN                1
 GAP=181        0.78       3.2     4.2  5.0 -0.8531E+00  0.5453E+01  0.2450E+01E
 Epicentro: LOS SANTOS - SANTANDER                                             3
 ACTION:UPD 13-06-20 09:52 OP:ep   STATUS:               ID:20130523052538 L   I
 2013-05-23-0518-52M.COL___206                                                 6
 STAT SP IPHASW D HRMM SECON CODA AMPLIT PERI AZIMU VELO AIN AR TRES W  DIS CAZ7
 BAR2 SZ EP        525 58.10                             171   -0.1210 21.8 186 
 BAR2 SZ ES        526 13.14                             171   -0.3410 21.8 186 
 BAR2 SZ I         526 15.31         8.4 0.22            171           21.8 186 
 GIR2 SZ EP        525 58.26                             167   -0.0610 32.3 354 
 GIR2 SZ ES        526 13.49                             167   -0.1710 32.3 354 
 BRR  HZ IP     C  525 59.90                             153    0.1810 70.3 300 
 BRR  HN ES        526 16.51                             153    0.3610 70.3 300 
 BRR  HN I         526 17.25        24.3 0.20            154           70.3 300 
 RUS  HZ EP        526  2.51                             144    0.2210 99.4 175 
 RUS  HN ES        526 20.95                             144    0.2210 99.4 175 
 RUS  HN I         526 21.56        10.3 0.24            145           99.4 175 
 PTB  HZ EP        526  4.70                             132   -0.71 9  146 259 
 PTB  HN ES        526 26.11                             132   -0.18 9  146 259 
 OCA  HN ES        526 29.42                             129    0.23 9  161 354 
 NOR  HZ EP        526 14.22                             119    0.09 8  232 234 
 NOR  HE ES        526 42.16                             119    0.37 8  232 234 
                                                                                
