 2012  823 0314 14.8 L   6.803 -73.172144.9  RSN  6 0.3 1.5LRSN                1
 GAP=133        0.62       4.3     3.9  6.6 -0.2140E+00  0.4047E+01  0.2028E+01E
 Epicentro: LOS SANTOS - SANTANDER                                             3
 ACTION:UPD 12-09-10 11:57 OP:ep   STATUS:               ID:20120823031414 L   I
 2012-08-23-0310-00M.COL___217                                                 6
 STAT SP IPHASW D HRMM SECON CODA AMPLIT PERI AZIMU VELO AIN AR TRES W  DIS CAZ7
 BAR2 SZ ES   2    314 50.10                             170    0.57 5 23.3 183 
 BRR  HZ EP   1    314 35.98                             153    0.30 7 68.5 299 
 BRR  HN ES   1    314 52.03                             153    0.05 7 68.5 299 
 BRR  HZ I         314 57.07        10.3 0.18                          68.5 299 
 PAM  SZ EP   1    314 37.24                             150    0.24 7 79.0  41 
 PAM  SN ES   1    314 53.91                             150   -0.42 7 79.0  41 
 RUS  HZ EP   1    314 38.48                             143    0.00 7  101 174 
 RUS  HN ES   1    314 57.04                             143    0.07 7  101 174 
 RUS  HZ I         314 58.64         5.5 0.30                           101 174 
 PTB  HZ EP   1    314 41.04                             132   -0.38 7  145 258 
 PTB  HN ES   1    315  1.80                             132   -0.40 7  145 258 
 PTB  HZ I         315  6.70         3.2 0.23                           145 258 
 ZAR  HE ES   2    315 12.47                             123    0.56 4  201 292 
                                                                                
