 2017 1223 0515 19.6 L   6.800 -73.143139.6  RSN 17 0.8 2.0LRSN                1
 GAP= 66        1.37       3.8     4.5  7.0 -0.4197E+01  0.8317E+01  0.2650E+01E
 Epicentro: LOS SANTOS - SANTANDER                                             3
 ACTION:UPD 18-01-04 13:23 OP:rebc STATUS:               ID:20171223051519 L   I
 OLDACT:UP  17-12-23 17:21 OP:dhb  STATUS:               ID:20171223050344     3
 OLDACT:REG 17-12-23 12:59 OP:dhb  STATUS:               ID:20171223050344     3
 2017-12-23-0508-00M.COL___463                                                 6
 STAT SP IPHASW D HRMM SECON CODA AMPLIT PERI AZIMU VELO AIN AR TRES W  DIS CAZ7
 BAR2 EZ IP     C  515 38.40                             170   -0.1410 23.4 191 
 BAR2 EZ ES        515 53.36                             170    0.0810 23.4 191 
 BAR2 EZ I         515 54.32        24.8 0.16            148           23.4 191 
 PAM  EZ IP     C  515 41.36                             150    0.1610 77.2  39 
 PAM  EN ES        515 58.51                             150    0.5010 77.2  39 
 PAM  EZ I         516  0.62        20.1 0.54            128           77.2  39 
 PTB  HZ EP        515 45.18                             130   -0.97 9  148 259 
 PTB  HE ES        516  6.70                             130   -0.12 9  148 259 
 PTB  HZ I         516  8.58        12.2 0.12            123            148 259 
 TAM  HZ IP     C  515 46.66                             129   -0.16 9  155 105 
 TAM  HZ I         516 49.63        14.4 0.54            109            155 105 
 OCA  HZ EP        515 47.13                             128   -0.36 9  160 353 
 OCA  HN ES        516  8.69                             128   -0.51 9  160 353 
 OCA  HZ I         516 14.46        22.5 0.22            116            160 353 
 SPBC HZ EP        515 47.55                             128   -0.15 9  163 219 
 SPBC HN ES        516  9.10                             128   -0.49 9  163 219 
 SPBC HZ I         516 14.41        17.4 0.34            115            163 219 
 ZAR  HZ EP        515 51.68                             121   -0.05 9  204 292 
 ZAR  HE ES        516 17.16                             121    0.41 9  204 292 
 ZAR  HZ I         516 21.96        10.3 0.32            113            204 292 
 ROSC BZ EP        515 58.58                             115    1.12 8  253 211 
 ROSC BZ I         516 34.56         5.9 0.45            105            253 211 
 URE  HZ EP        515 59.64                             112   -0.82 7  284 292 
 URE  HE ES        516 30.95                             112   -1.34 7  284 292 
 URE  HZ I         516 42.94         5.3 0.16            105            284 292 
 DRL03HZ EP        516  1.75                             112    0.78 7  289 353 
 DRL03HN ES        516 34.44                             112    1.24 7  289 353 
 GUY2CHZ EP        516  3.61                             111    0.60 7  301 235 
 GUY2CHE ES   2    516 38.67                             111    1.84 4  301 235 
 GUY2CHZ I         516 42.76         5.0 0.26                           301 235 
 PTGC HZ EP   2    516  1.51                             110   -1.71 4  309 159 
 PTGC HN ES   3    516 34.41                             110   -2.80 2  309 159 
 PTGC HZ I         516 41.26         4.0 0.52            100            309 159 
 CBOC HZ EP        516  7.18                             109    0.83 7  334 252 
 CBOC HE ES        516 43.79                             109    1.01 7  334 252 
 CBOC HZ I         516 46.21         2.2 0.54            102            334 252 
 PRA  HZ EP        516 12.61                             105   -0.37 6  392 210 
 PRA  HE ES        516 54.95                             105    0.37 6  392 210 
 PRA  HZ I         517  1.80         3.2 0.32             99            392 210 
 ORTC HZ EP        516 12.94                             105   -0.45 6  396 216 
 ORTC HE ES   2    516 56.38                             105    1.08 3  396 216 
 ORTC HZ I         517  1.99         2.0 0.40             99            396 216 
 PAL  HZ EP        516 15.03                             105    0.39 6  406 239 
 PAL  HE ES        516 57.28                             105   -0.26 6  406 239 
 PAL  HZ I         517  2.88         2.3 0.52             99            406 239 
 SJC  HZ EP   2    516 13.11                             105   -1.92 3  409 327 
 SJC  HN ES   4    516 55.21                             105   -3.02 0  409 327 
 SJC  HZ I         516 59.18         2.7 0.72             99            409 327 
                                                                                
