 2012  323 0335 35.1 L   6.734 -73.138145.3  RSN  6 0.3 1.4LRSN                1
 GAP=140        0.63       6.1     5.5  8.1  0.4690E+01  0.9815E+01 -0.3924E+01E
 ACTION:UP  12-03-31 23:22 OP:EP   STATUS:               ID:20120323033535 L   I
 2012-03-23-0330-00M.COL___198                                                 6
 STAT SP IPHASW D HRMM SECON CODA AMPLIT PERI AZIMU VELO SNR AR TRES W  DIS CAZ7
 BAR2 SZ EP        335 54.08                             173    -0.510   16 197 
 BAR2 SZ ES   2    336  9.75                             173     0.0 5   16 197 
 BAR2 SZ I         336 11.14         7.3 0.33                            16 197 
 BRR  HZ EP        335 56.69                             151     0.210   76 303 
 BRR  HN ES   2    336 13.43                             151     0.3 5   76 303 
 BRR  HZ I         336 14.52         8.8 0.10                            76 303 
 PAM  SZ EP   2    335 57.92                             149     0.3 5   83  36 
 PAM  SN ES   2    336 15.11                             149    -0.1 5   83  36 
 RUS  HZ EP   2    335 58.79                             146     0.5 5   93 176 
 RUS  HN ES   2    336 16.79                             146     0.4 5   93 176 
 RUS  HZ I         336 19.26         1.5 0.39                            93 176 
 PTB  HZ EP   2    336  2.00                             132     0.0 5  147 262 
 PTB  HE ES   2    336 22.74                             132    -0.3 5  147 262 
 ZAR  HZ EP   2    336  8.06                             122     0.1 4  208 294 
 ZAR  HN ES   2    336 33.45                             122     0.0 4  208 294 
 ZAR  HZ I         336 39.60         2.0 0.43                           208 294 
                                                                                
