 2015 1223 0510 37.0 L   6.777 -73.137145.9  RSN  8 0.5 1.6LRSN                1
 GAP=184        0.90       3.5     5.5  6.4 -0.5416E+00  0.9004E+01  0.2759E+01E
 Epicentro: LOS SANTOS - SANTANDER                                             3
 ACTION:UPD 16-02-04 15:06 OP:cam  STATUS:               ID:20151223051037 L   I
 OLDACT:REG 15-12-23 12:47 OP:dnl  STATUS:               ID:20151223050750     3
 2015-12-23-0507-50M.COL___327                                                 6
 STAT SP IPHASW D HRMM SECON CODA AMPLIT PERI AZIMU VELO AIN AR TRES W  DIS CAZ7
 BAR2 EZ EP        510 56.32                             171   -0.3010 21.1 194 
 BAR2 EZ ES        511 11.40                             171   -0.5110 21.1 194 
 BAR2 EZ I         511 14.35         6.2 0.18            170           21.1 194 
 BRR  HZ EP   2    510 59.42                             152    1.12 5 73.2 300 
 BRR  HN ES        511 15.35                             152    0.4510 73.2 300 
 RUS  HZ EP        511  0.88                             145    0.2810 98.0 177 
 RUS  HE ES        511 19.28                             145    0.2810 98.0 177 
 RUS  HZ I         511 20.78         3.5 0.27            146           98.0 177 
 PTB  HZ EP   2    511  2.90                             132   -1.14 5  148 260 
 PTB  HN ES   2    511 24.38                             132   -0.73 5  148 260 
 PTB  HZ I         511 26.70         5.1 0.15            131            148 260 
 SPBC HZ EP        511  5.24                             129   -0.16 9  162 220 
 SPBC HN ES        511 27.48                             129   -0.06 9  162 220 
 SPBC HZ I         511 32.52         6.0 0.10            130            162 220 
 OCA  HZ EP   4    510 59.87                             129   -5.71 0  163 353 
 OCA  HN ES        511 27.82                             129   -0.04 9  163 353 
 OCA  HZ I         511 30.30         7.2 0.34            130            163 353 
 ZAR  HZ EP   2    511 10.20                             122    0.54 4  206 293 
 ZAR  HE ES   2    511 34.69                             122   -0.43 4  206 293 
 ZAR  HZ I         511 41.46         3.8 0.12            122            206 293 
 NOR  HZ EP        511 12.56                             119   -0.12 8  234 235 
 NOR  HN ES        511 40.81                             119    0.31 8  234 235 
 NOR  HZ I         511 44.04         3.6 0.13            119            234 235 
                                                                                
