 2017 1023 0643 26.7 L   6.804 -73.129146.0  RSN 29 0.6 2.8LRSN                1
 GAP= 67        0.97       2.6     2.4  4.1  0.4966E+00  0.2503E+01  0.1970E+01E
 Epicentro: LOS SANTOS - SANTANDER                                             3
 ACTION:UPD 17-11-07 19:35 OP:rebc STATUS:               ID:20171023064326 L   I
 OLDACT:UP  17-10-23 17:59 OP:dhb  STATUS:               ID:20171023063540     3
 OLDACT:UP  17-10-23 17:58 OP:dhb  STATUS:               ID:20171023063540     3
 OLDACT:UP  17-10-23 17:58 OP:dhb  STATUS:               ID:20171023063540     3
 OLDACT:UP  17-10-23 17:55 OP:dhb  STATUS:               ID:20171023063540     3
 OLDACT:UP  17-10-23 17:54 OP:dhb  STATUS:               ID:20171023063540     3
 OLDACT:REG 17-10-23 12:44 OP:dhb  STATUS:               ID:20171023063540     3
 2017-10-23-0638-00M.COL___390                                                 6
 STAT SP IPHASW D HRMM SECON CODA AMPLIT PERI AZIMU VELO AIN AR TRES W  DIS CAZ7
 BAR2 EZ IP     C  643 46.28                             170   -0.1310 24.1 194 
 BAR2 EZ ES        644  1.40                             170   -0.3610 24.1 194 
 BAR2 EZ I         644  2.07       376.6 0.20            168           24.1 194 
 BRR  HZ IP     C  643 48.23                             152    0.2310 72.7 298 
 BRR  HN ES        644  4.77                             152    0.1910 72.7 298 
 BRR  HZ I         644  7.85       139.1 0.10            153           72.7 298 
 PAM  EZ IP     C  643 49.37                             151    0.4810 75.9  39 
 PAM  EN ES        644  6.06                             151   -0.1110 75.9  39 
 PAM  EZ I         644  8.51       167.3 0.60            152           75.9  39 
 RUS  HZ IP     C  643 50.27                             144   -0.2610  101 177 
 RUS  HZ E      C  643 50.31                                            101 177 
 RUS  HN ES        644  8.87                             144   -0.2210  101 177 
 RUS  HZ I         644 10.37       133.4 0.38            142            101 177 
 PTB  HZ EP        643 52.87                             131   -1.03 9  150 259 
 PTB  HE ES        644 15.02                             131   -0.06 9  150 259 
 PTB  HZ I         644 16.82        84.8 0.03            131            150 259 
 TAM  HZ IP     D  643 54.71                             131    0.43 9  153 105 
 TAM  HE ES        644 15.40                             131   -0.36 9  153 105 
 TAM  HZ I         644 25.71        34.0 0.44            130            153 105 
 SPBC HZ IP     C  643 55.22                             129   -0.18 9  165 219 
 SPBC HE ES        644 17.58                             129   -0.17 9  165 219 
 SPBC HZ I         644 22.96       117.6 0.12            128            165 219 
 YPLC HZ IP     C  643 56.76                             127    0.26 9  176 152 
 YPLC HE ES        644 20.63                             127    0.92 9  176 152 
 YPLC HZ I         644 23.15       192.1 0.26            126            176 152 
 ZAR  HZ EP        643 59.59                             122    0.23 8  206 292 
 ZAR  HN ES        644 25.16                             122    0.35 8  206 292 
 ZAR  HZ I         644 32.17        94.9 0.24            122            206 292 
 TABC EZ EP   2    644  3.75                             119    1.11 4  231 211 
 TABC EZ ES        644 30.62                             119   -0.02 8  231 211 
 TABC EZ I         644 38.81        84.1 0.38            118            231 211 
 NOR  HZ EP        644  2.16                             118   -0.51 8  236 235 
 NOR  HE ES        644 30.92                             118    0.22 8  236 235 
 NOR  HZ I         644 32.16        47.8 0.18            118            236 235 
 CHI  HZ EP        644  4.59                             117    0.04 8  250 196 
 CHI  HE ES        644 33.57                             117   -0.46 8  250 196 
 CHI  HZ I         644 37.10        29.3 0.52            116            250 196 
 ROSC BZ EP   9    644  6.18                             116    1.17 0  254 211 
 ROSC BE ES        644 36.72                             116    0.69 8  254 211 
 ROSC BZ I         644 42.51        67.4 0.55            116            254 211 
 URE  HZ EP   9    644  6.79                             113   -1.21 0  285 292 
 URE  HE ES        644 38.42                             113   -0.55 7  285 292 
 URE  HZ I         644 42.28        60.3 0.32            113            285 292 
 GUY2CHZ EP        644 11.11                             112    0.55 7  303 235 
 GUY2CHE ES   4    644 47.35                             112    2.62 0  303 235 
 GUY2CHZ I         644 51.50        41.6 0.28                           303 235 
 PTGC HZ EP   2    644  9.54                             111   -1.03 4  308 159 
 PTGC HE ES   3    644 42.37                             111   -2.39 2  308 159 
 PTGC HZ I         644 54.07        28.6 0.34            111            308 159 
 DBB  EZ EP        644 14.99                             109    0.55 7  341 274 
 DBB  EE ES        644 50.81                             109   -0.83 7  341 274 
 DBB  EZ I         644 53.83        31.7 0.40            109            341 274 
 ARGC HZ EP   3    644 18.24                             108    1.81 2  359 340 
 ARGC HE ES   2    644 55.80                             108    0.60 3  359 340 
 ARGC HZ I         645  3.17        12.6 0.24            108            359 340 
 PRA  HZ EP        644 19.86                             106   -0.56 6  393 210 
 PRA  HE ES   2    645  3.33                             106    1.05 3  393 210 
 PRA  HZ I         645 10.82        21.7 0.54            106            393 210 
 ORTC HZ EP        644 21.19                             106    0.36 6  397 216 
 ORTC HE ES        645  3.46                             106    0.43 6  397 216 
 ORTC HZ I         645  8.13        19.1 0.56            106            397 216 
 APAC HZ EP        644 21.00                             106   -0.13 6  400 288 
 APAC HE ES        645  3.59                             106    0.03 6  400 288 
 APAC HZ I         645  7.28        20.2 0.56            106            400 288 
 PAL  HZ EP        644 22.48                             106    0.36 6  407 239 
 PAL  HE ES        645  6.53                             106    1.21 6  407 239 
 PAL  HZ I         645 11.09        18.6 0.36            105            407 239 
 SJC  HZ EP   2    644 20.87                             106   -1.52 3  410 327 
 SJC  HE ES   4    645  2.71                             106   -3.09 0  410 327 
 SJC  HZ I         645  6.18         9.8 0.52            106            410 327 
 CRJC HZ EP   3    644 27.27                             103   -1.92 1  467   3 
 CRJC HE ES   4    645 13.63                             103   -4.26 0  467   3 
 CRJC HZ I         645 19.33        13.3 0.20            103            467   3 
 GUA  EZ EP        644 29.01                             103   -0.91 5  474 173 
 GUA  ET ES   2    645 17.41                             103   -1.79 2  474 173 
 GUA  EZ I         645 20.76        15.2 0.20            103            474 173 
 MACC HZ EP   2    644 33.61                             101   -1.93 2  521 189 
 MACC HT ES   4    645 24.84                             101   -4.36 0  521 189 
 MACC HZ I         645 45.46         6.2 0.30            101            521 189 
 JAMC HZ EP        644 40.35                             101    0.10 3  559 225 
 JAMC HT ES        645 38.34                             101    0.75 3  559 225 
 JAMC HZ I         645 48.14         2.8 0.26            100            559 225 
 POP2 HZ EP        644 46.96                              99    0.02 3  614 220 
 POP2 HT ES        645 49.25                              99   -0.24 3  614 220 
 FLO2 HZ EP        644 49.59                              99   -0.42 2  642 206 
 FLO2 HN ES        645 55.51                              99    0.55 2  642 206 
 FLO2 HZ I         646  0.40         2.1 0.78             98            642 206 
                                                                                
