 2011 1023 0405 56.1 L   6.310 -73.585115.8  RSN  6 0.3 1.3LRSN                1
 GAP=111        0.48       4.2     4.5  7.6 -0.7248E+01  0.9473E+01  0.1228E+01E
 Epicentro: SANTA HELENA DEL OPON - SANTANDER                                  3
 ACTION:UPD 12-07-13 16:05 OP:ep   STATUS:               ID:20111023040556 L   I
 2011-10-23-0405-38S.COL___171                                                 6
 STAT SP IPHASW D HRMM SECON CODA AMPLIT PERI AZIMU VELO AIN AR TRES W  DIS CAZ7
 BAR2 SZ EP   1    4 6 13.77                             153    0.32 7 54.3  55 
 BAR2 SZ ES   2    4 6 27.02                             153    0.07 5 54.3  55 
 BAR2 SZ I         4 6 28.23         9.2 0.48                          54.3  55 
 RUS  HZ EP   2    4 6 15.19                             146    0.28 5 72.2 130 
 RUS  HN ES   2    4 6 29.32                             146   -0.23 5 72.2 130 
 RUS  HZ I         4 6 30.75         1.4 0.17                          72.2 130 
 BRR  HZ I         4 6 17.11         8.7 0.47                          89.2 351 
 BRR  HN ES   2    4 6 30.74                             140    0.19 5 89.2 351 
 GIR2 SZ EP   3    4 6 16.45                             138    0.29 2 95.4  27 
 GIR2 SZ ES   3    4 6 31.44                             138   -0.34 2 95.4  27 
 PAM  SZ EP   2    4 6 21.05                             124   -0.66 5  150  41 
 PAM  SN ES   2    4 6 41.36                             124   -0.29 5  150  41 
 NOR  SZ EP   2    4 6 22.84                             121    0.22 5  164 240 
 NOR  SN ES   2    4 6 42.81                             121   -0.46 5  164 240 
                                                                                
