 2013 1023 0211 49.2 L   6.498 -73.560108.9  RSN  8 0.5 1.8LRSN                1
 GAP= 88        1.37       4.0     4.9  8.6  0.4246E+00  0.1466E+02 -0.4408E+01E
 Epicentro: SANTA HELENA DEL OPON - SANTANDER                                  3
 ACTION:UPD 13-11-25 09:23 OP:ep   STATUS:               ID:20131023021149 L   I
 OLDACT:DUP 13-10-23 09:04 OP:carl STATUS:               ID:20131023020844d    3
 2013-10-23-0208-43M.COL___227                                                 6
 STAT SP IPHASW D HRMM SECON CODA AMPLIT PERI AZIMU VELO AIN AR TRES W  DIS CAZ7
 BAR2 SZ EP        212  5.07                             157   -0.0610 43.1  76 
 BAR2 SZ ES        212 17.78                             157    0.2010 43.1  76 
 BAR2 SZ I         212 18.84       138.6 0.46            160           43.1  76 
 BRR  HZ EP        212  6.19                             145   -0.1610 69.4 346 
 BRR  HN ES        212 20.09                             145    0.3310 69.4 346 
 RUS  HZ EP        212  8.16                             139   -0.0710 85.2 142 
 RUS  HN ES        212 23.18                             139    0.0810 85.2 142 
 RUS  HZ I         212 24.16         4.6 0.24            141           85.2 142 
 PTB  HZ IP     C  212  8.03                             134   -0.7110 99.2 273 
 PTB  HN ES        212 22.74                             134   -1.2710 99.2 273 
 PTB  HZ I         212 23.92         8.6 0.16            133           99.2 273 
 SPBC HZ EP        212  9.59                             131   -0.1610  109 211 
 SPBC HN ES        212 26.26                             131    0.4510  109 211 
 SPBC HZ I         212 33.74         7.6 0.18            131            109 211 
 NOR  HZ EP        212 16.82                             117    0.14 9  178 235 
 NOR  HE ES        212 38.44                             117    0.29 9  178 235 
 NOR  HZ I         212 43.36         3.6 0.32            116            178 235 
 ZAR  HZ EP        212 17.84                             116    0.92 9  181 308 
 ZAR  HN ES        212 39.52                             116    0.94 9  181 308 
 ZAR  HZ I         212 42.22         7.6 0.26            116            181 308 
 SML  HZ EP        212 25.58                             107   -0.44 8  261 348 
 SML  HE ES        212 54.50                             107   -0.26 8  261 348 
 SML  HZ I         213  1.10         6.9 0.28            108            261 348 
                                                                                
