 2011 1023 0034 52.7 L   7.194 -73.498107.7  RSN  7 0.3 1.6LRSN                1
 GAP= 87        0.42       2.9     2.9  5.4  0.1115E+01  0.1562E+01 -0.1550E+01E
 Epicentro: SABANA DE TORRES - SANTANDER                                       3
 ACTION:UPD 12-07-13 16:05 OP:ep   STATUS:               ID:20111023003452 L   I
 2011-10-23-0031-24S.COL___171                                                 6
 STAT SP IPHASW D HRMM SECON CODA AMPLIT PERI AZIMU VELO AIN AR TRES W  DIS CAZ7
 BRR  HZ EP   1    035  7.21                             166   -0.27 7 25.5 248 
 BRR  HN ES   2    035 18.96                             166   -0.05 5 25.5 248 
 BRR  HZ I         035 19.46        15.2 0.29                          25.5 248 
 GIR2 SZ EP   3    035  7.96                             160   -0.11 2 36.0 111 
 GIR2 SZ ES   3    035 19.96                             160   -0.10 2 36.0 111 
 BAR2 SZ ES   2    035 24.63                             142    0.22 5 75.1 152 
 BAR2 SZ I         035 25.80        14.9 0.43                          75.1 152 
 PAM  SZ EP   1    035 12.40                             137    0.39 7 89.7  80 
 PAM  SN ES   2    035 27.10                             137    0.03 5 89.7  80 
 OCA  SZ EP   2    035 13.51                             129   -0.51 5  117  10 
 OCA  SZ ES   2    035 30.56                             129   -0.08 5  117  10 
 OCA  SZ I         035 31.68        10.2 0.27                           117  10 
 RUS  HZ EP   2    035 17.78                             121   -0.06 5  151 162 
 RUS  HN ES   2    035 37.23                             121   -0.21 5  151 162 
 RUS  HZ I         035 39.51         2.2 0.46                           151 162 
 ZAR  HZ EP   2    035 17.63                             120    0.14 5  154 282 
 ZAR  HN ES   2    035 37.13                             120    0.31 5  154 282 
 ZAR  HZ I         035 40.19         5.6 0.30                           154 282 
                                                                                
