 2015  423 0031 35.2 L   6.810 -73.174141.2  RSN 16 0.5 2.0LRSN                1
 GAP=132        1.08       2.9     3.8  5.3 -0.1202E+01  0.7698E+01  0.2212E+01E
 Epicentro: LOS SANTOS - SANTANDER                                             3
 ACTION:UPD 15-06-03 16:56 OP:cam  STATUS:               ID:20150423003135 L   I
 OLDACT:REG 15-04-23 12:08 OP:ak   STATUS:               ID:20150423002735     3
 2015-04-23-0027-35M.COL___280                                                 6
 STAT SP IPHASW D HRMM SECON CODA AMPLIT PERI AZIMU VELO AIN AR TRES W  DIS CAZ7
 BAR2 EZ IP        031 54.35                             170    0.0810 24.1 182 
 BAR2 EZ ES        032  8.41                             170   -0.7510 24.1 182 
 BAR2 EZ I         032 12.05        23.6 0.26            169           24.1 182 
 BRR  HZ IP     C  031 56.13                             153    0.4910 67.9 299 
 BRR  HE ES        032 12.47                             153    0.8710 67.9 299 
 BRR  HZ I         032 16.31        20.2 0.26            151           67.9 299 
 PAM  SZ IP     D  031 57.32                             149    0.3410 78.6  42 
 PAM  SN ES        032 14.26                             149    0.2810 78.6  42 
 PAM  SZ I         032 17.27        17.7 0.32            155           78.6  42 
 RUS  HZ EP        031 58.27                             142   -0.3110  102 174 
 RUS  HN ES        032 16.91                             142    0.0810  102 174 
 RUS  HZ I         032 18.33        10.6 0.28            145            102 174 
 PTB  HZ EP        032  1.12                             132   -0.39 9  145 258 
 PTB  HN ES        032 21.65                             132   -0.40 9  145 258 
 PTB  HZ I         032 27.12        12.1 0.18            132            145 258 
 ZAR  HZ EP        032  6.90                             122   -0.07 9  201 292 
 ZAR  HE ES        032 31.20                             122   -0.58 9  201 292 
 ZAR  HZ I         032 37.29        11.2 0.28            123            201 292 
 NOR  HZ EP        032 10.59                             118    0.16 8  233 234 
 NOR  HE ES        032 38.26                             118    0.32 8  233 234 
 NOR  HZ I         032 43.50         9.0 0.30            119            233 234 
 SML  HZ EP        032 11.09                             117   -0.20 8  241 336 
 SML  HN ES        032 38.76                             117   -0.70 8  241 336 
 SML  HZ I         032 45.62        16.6 0.10            119            241 336 
 CHI  HZ EP        032 12.58                             116   -0.07 8  249 194 
 CHI  HE ES        032 41.12                             116   -0.76 8  249 194 
 CHI  HZ I         032 48.07         6.8 0.34            118            249 194 
 ROSC BZ EP   4    032 14.04                             116    1.06 0  252 210 
 ROSC BE ES        032 42.84                             116    0.38 8  252 210 
 HEL  HZ EP        032 14.58                             114   -0.27 8  269 255 
 HEL  HN ES        032 46.76                             114    0.97 8  269 255 
 HEL  HZ I         032 53.02         6.6 0.48            115            269 255 
 GUY2CHZ EP        032 18.52                             112    0.17 7  299 234 
 GUY2CHN ES        032 51.37                             112   -0.67 7  299 234 
 GUY2CHZ I         033  4.55         5.9 0.46                           299 234 
 PTGC HZ EP   4    032 16.93                             110   -2.15 0  311 158 
 PTGC HE ES   4    032 48.40                             110   -4.93 0  311 158 
 CBOC HZ EP        032 22.19                             109    0.60 7  331 252 
 CBOC HE ES   2    032 57.25                             109   -0.55 3  331 252 
 TOL  SZ EP        032 23.10                             108    0.02 7  342 224 
 TOL  SE ES        033  0.42                             108   -0.04 7  342 224 
 TOL  SZ I         033 10.66         6.1 0.34            110            342 224 
 ORTC HZ EP   1    032 29.33                             106    0.50 4  394 216 
 ORTC HE ES        033 11.22                             106    0.54 6  394 216 
 ORTC HZ I         033 18.15         3.6 0.30            107            394 216 
 SJC  HZ EP   4    032 28.28                             105   -1.99 0  407 327 
 SJC  HN ES   4    033  8.39                             105   -4.86 0  407 327 
 SJC  HZ I         033 13.79         2.0 0.33            107            407 327 
                                                                                
