 2011 1023 0657 51.1 L   6.779 -73.114142.3  RSN  6 0.3 1.4LRSN                1
 GAP=142        0.41       3.7     4.0  5.3  0.3001E+01  0.2968E+01 -0.5203E+00E
 Epicentro: LOS SANTOS - SANTANDER                                             3
 ACTION:UPD 12-07-13 16:05 OP:ep   STATUS:               ID:20111023065751 L   I
 2011-10-23-0654-48S.COL___170                                                 6
 STAT SP IPHASW D HRMM SECON CODA AMPLIT PERI AZIMU VELO AIN AR TRES W  DIS CAZ7
 BAR2 SZ EP   1    658 10.28                             171    0.01 7 22.0 200 
 BAR2 SZ ES   2    658 24.80                             171   -0.44 5 22.0 200 
 BAR2 SZ I         658 27.57         6.5 0.28                          22.0 200 
 GIR2 SZ EP   3    658 10.26                             166   -0.17 2 34.3 345 
 BRR  HZ EP   1    658 12.04                             150   -0.07 7 75.4 299 
 BRR  HE ES   2    658 29.15                             150    0.65 5 75.4 299 
 BRR  HZ I         658 33.25         5.8 0.28                          75.4 299 
 PAM  SZ EP   1    658 12.94                             150    0.02 7 77.1  36 
 PAM  SN ES   2    658 29.89                             150   -0.06 5 77.1  36 
 RUS  HZ EP   1    658 14.45                             144    0.14 7 98.1 178 
 RUS  HN ES   2    658 32.41                             144   -0.02 5 98.1 178 
 RUS  HZ I         658 34.04         2.5 0.47                          98.1 178 
 ZAR  HZ EP   2    658 23.64                             121   -0.09 4  208 292 
 ZAR  HN ES   2    658 48.86                             121   -0.34 4  208 292 
 ZAR  HZ I         658 53.68         2.8 0.24                           208 292 
                                                                                
