 2013  223 0530 52.6 L   6.105 -74.044 86.7  RSN  5 0.3 1.4LRSN                1
 GAP=149        0.66       2.8     3.6  8.3  0.1680E+01 -0.1001E+01  0.6323E+01E
 Epicentro: CIMITARRA - SANTANDER                                              3
 ACTION:UPD 13-03-12 09:35 OP:ep   STATUS:               ID:20130223053052 L   I
 2013-02-23-0530-00M.COL___225                                                 6
 STAT SP IPHASW D HRMM SECON CODA AMPLIT PERI AZIMU VELO AIN AR TRES W  DIS CAZ7
 PTB  HZ EP     D  531  6.97                             140   -0.4610 66.2 317 
 PTB  HN ES   1    531 18.98                             140    0.00 7 66.2 317 
 PTB  HZ I         531 19.38         8.3 0.14            141           66.2 317 
 BAR2 SZ EP   1    531 11.65                             124   -0.09 7  110  60 
 BAR2 SZ ES   1    531 26.75                             124    0.10 7  110  60 
 BAR2 SZ I         531 27.98        22.3 0.12            124            110  60 
 BRR  HZ EP     D  531 12.04                             122   -0.1310  117  18 
 BRR  HN ES   1    531 27.56                             122    0.14 7  117  18 
 BRR  HZ I         531 33.39         6.0 0.14            123            117  18 
 CHI  HZ EP   1    531 17.97                             113   -0.23 7  167 168 
 CHI  HE ES   1    531 38.65                             113    0.50 7  167 168 
 CHI  HZ I         531 44.22         1.6 0.52            113            167 168 
 ZAR  HZ EP   1    531 19.29                             111    0.33 7  178 330 
 ZAR  HN ES   1    531 40.03                             111    0.53 7  178 330 
 ZAR  HZ I         531 43.70         3.5 0.30            111            178 330 
                                                                                
