 2015  523 0601 27.8 L   6.734 -73.180148.3  RSN  4 0.2 1.2LRSN                1
 GAP=228        0.59       7.8     8.3  5.3  0.5465E+02  0.6922E+01  0.8474E+00E
 Epicentro: VILLANUEVA - SANTANDER                                             3
 ACTION:UPD 15-09-10 22:06 OP:cam  STATUS:               ID:20150523060127 L   I
 OLDACT:REG 15-05-23 12:34 OP:spq  STATUS:               ID:20150523055736     3
 2015-05-23-0557-36M.COL___297                                                 6
 STAT SP IPHASW D HRMM SECON CODA AMPLIT PERI AZIMU VELO AIN AR TRES W  DIS CAZ7
 BAR2 EZ EP   1    6 1 47.55                             174   -0.10 7 15.7 181 
 BAR2 EZ ES   1    6 2  2.75                             174   -0.36 7 15.7 181 
 BAR2 EZ I         6 2  3.90         4.0 0.26            165           15.7 181 
 BRR  HZ EP        6 1 49.24                             153   -0.0610 71.8 305 
 BRR  HN ES        6 2  6.34                             153    0.3010 71.8 305 
 BRR  HZ I         6 2  9.45         3.4 0.24            148           71.8 305 
 RUS  HZ EP   1    6 1 51.27                             146   -0.10 7 93.7 173 
 RUS  HN ES   1    6 2  9.93                             146    0.22 7 93.7 173 
 RUS  HZ I         6 2 11.65         1.5 0.28            144           93.7 173 
 ZAR  HZ EP        6 2  0.67                             123    0.28 9  203 294 
 ZAR  HN ES        6 2 25.44                             123   -0.34 9  203 294 
 ZAR  HZ I         6 2 31.41         1.9 0.34            122            203 294 
                                                                                
