 2012  323 0531 15.6 L   6.775 -73.176151.2  RSN  6 0.3 1.7LRSN                1
 GAP=134        0.54       4.9     4.4  7.2  0.3820E+00  0.9243E+01  0.3039E+01E
 ACTION:UP  12-03-31 23:22 OP:EP   STATUS:               ID:20120323053115 L   I
 2012-03-23-0530-00M.COL___198                                                 6
 STAT SP IPHASW D HRMM SECON CODA AMPLIT PERI AZIMU VELO SNR AR TRES W  DIS CAZ7
 BAR2 SZ EP   2    531 35.91                             172     0.1 5   20 182 
 BAR2 SZ ES   2    531 52.09                             172     0.5 5   20 182 
 BAR2 SZ I         531 52.41        17.5 0.26                            20 182 
 PAM  SZ EP   2    531 38.84                             150     0.2 5   82  40 
 PAM  SN ES   2    531 56.31                             150    -0.3 5   82  40 
 RUS  HZ EP        531 39.62                             146    -0.110   98 174 
 RUS  HE ES   2    531 58.45                             146    -0.1 5   98 174 
 RUS  HZ I         532  0.18         5.5 0.33                            98 174 
 PTB  HZ EP   2    531 42.40                             134    -0.3 5  144 260 
 PTB  HN ES   2    532  3.02                             134    -0.8 5  144 260 
 PTB  HZ I         532  6.23         4.4 0.19                           144 260 
 ZAR  HZ EP   2    531 48.33                             124     0.1 4  202 293 
 ZAR  HN ES   2    532 13.94                             124     0.3 4  202 293 
 ZAR  HZ I         532 19.97         5.7 0.30                           202 293 
 NOR  SZ EP   2    531 51.34                             120     0.2 4  230 235 
 NOR  SE ES   2    532 19.44                             120     0.5 4  230 235 
                                                                                
