 2012  323 0424 18.0 L   6.817 -73.959 23.8  RSN  4 0.2 0.8LRSN                1
 GAP=104        0.37       2.3     1.8  2.6 -0.1216E+01 -0.8536E+00  0.1284E+01E
 ACTION:UP  12-03-31 23:22 OP:EP   STATUS:               ID:20120323042418 L   I
 2012-03-23-0420-00M.COL___198                                                 6
 STAT SP IPHASW D HRMM SECON CODA AMPLIT PERI AZIMU VELO SNR AR TRES W  DIS CAZ7
 BRR  HZ EP   2    424 25.52                             117    -0.2 5   42  40 
 BRR  HE ES   2    424 31.92                             117     0.2 5   42  40 
 BRR  HZ I         424 32.09         6.7 0.10                            42  40 
 PTB  HZ EP        424 28.64                             109    -0.110   63 241 
 PTB  HE ES   2    424 37.10                             109     0.1 5   63 241 
 PTB  HZ I         424 37.46         4.2 0.16                            63 241 
 ZAR  HN ES   2    424 52.05                              56     0.0 5  124 307 
 RUS  HZ EP   2    424 40.12                              56     0.3 5  141 136 
 RUS  HN ES   2    424 56.62                              56    -0.2 5  141 136 
                                                                                
