 2017  923 0914 35.1 L   6.588 -73.523118.0  RSN 15 0.5 3.2LRSN                1
 GAP= 68        1.10       3.1     2.9  5.8  0.1801E+01  0.6536E+01  0.5996E+01E
 Epicentro: EL CARMEN - SANTANDER                                              3
 ACTION:UPD 17-10-05 19:15 OP:rebc STATUS:               ID:20170923091435 L   I
 OLDACT:UP  17-09-23 19:53 OP:leo  STATUS:               ID:20170923090739     3
 OLDACT:REG 17-09-23 15:03 OP:leo  STATUS:               ID:20170923090739     3
 2017-09-23-0908-00M.COL___447                                                 6
 STAT SP IPHASW D HRMM SECON CODA AMPLIT PERI AZIMU VELO AIN AR TRES W  DIS CAZ7
 BAR2 EZ IP     D  914 51.91                             161    0.0810 37.7  89 
 BAR2 EZ ES        915  4.81                             161   -0.1010 37.7  89 
 BAR2 EZ I         915  5.81      1236.9 0.50            164           37.7  89 
 BRR  HZ EP        914 52.61                             151   -0.0410 61.1 340 
 BRR  HE ES        915  6.61                             151    0.2410 61.1 340 
 BRR  HZ I         915  7.36       327.3 0.42            151           61.1 340 
 RUS  HZ IP     D  914 54.94                             140   -0.4910 91.0 148 
 RUS  HN ES        915 10.75                             140   -0.5610 91.0 148 
 RUS  HZ I         915 12.02       214.9 0.24            141           91.0 148 
 PAM  EZ EP        914 58.35                             131    0.1610  123  48 
 PAM  HN ES        915 16.69                             131    0.4610  123  48 
 PAM  EZ I         915 17.45       197.7 0.42            133            123  48 
 ZAR  HZ EP        915  3.59                             119    0.52 9  178 304 
 ZAR  HE ES   3    915 26.75                             119    1.83 2  178 304 
 ZAR  HZ I         915 28.06       362.6 0.54            119            178 304 
 YPLC HZ EP        915  3.91                             118    0.28 9  183 136 
 YPLC HN ES        915 26.38                             118    0.47 9  183 136 
 YPLC HZ I         915 28.04       358.6 0.40            119            183 136 
 NOR  HZ EP        915  3.61                             118   -0.48 9  187 233 
 NOR  HN ES   3    915 26.27                             118   -0.46 2  187 233 
 NOR  HZ I         915 29.01       184.2 0.22            117            187 233 
 TAM  HZ EP        915  4.65                             117    0.02 9  192  95 
 TAM  HN ES        915 27.38                             117   -0.30 9  192  95 
 TAM  HZ I         915 30.38       102.8 0.58            118            192  95 
 CHI  HZ EP        915  8.35                             114    0.44 8  218 186 
 CHI  HN ES        915 33.47                             114   -0.05 8  218 186 
 HEL  HZ EP        915  9.05                             113    0.26 8  226 259 
 HEL  HN ES        915 35.38                             113    0.28 8  226 259 
 HEL  HZ I         915 41.56       106.7 0.22            112            226 259 
 GUY2CHZ EP        915 12.77                             110    0.73 8  254 234 
 GUY2CHN ES   4    915 43.00                             110    2.12 0  254 234 
 GUY2CHZ I         915 47.43        92.0 0.60                           254 234 
 URE  HZ EP        915 11.15                             110   -0.65 8  257 300 
 URE  HN ES        915 39.27                             110   -1.18 8  257 300 
 URE  HZ I         915 47.76       190.2 0.16            110            257 300 
 PTGC HZ EP        915 16.43                             106   -1.06 7  306 150 
 PTGC HE ES   4    915 48.58                             106   -1.99 0  306 150 
 PTGC HZ I         915 54.12        46.6 0.30            106            306 150 
 ANIL HZ EP   4    915 20.04                             106    1.49 0  312 222 
 ANIL HE ES   4    915 56.22                             106    3.76 0  312 222 
 ANIL HZ I         916  2.16       158.4 0.30            105            312 222 
 PRA  HZ EP        915 23.20                             103    0.21 6  352 206 
 PRA  HE ES        916  1.04                             103    0.68 6  352 206 
 PRA  HZ I         916  3.70        45.3 0.24            103            352 206 
                                                                                
