 2017  923 0850 49.3 L   6.839 -73.080145.2  RSN  4 0.3 1.6LRSN                1
 GAP=250        0.62       6.2     6.4  5.8  0.2655E+02  0.8268E+01 -0.4879E+01E
 Epicentro: LOS SANTOS - SANTANDER                                             3
 ACTION:UPD 17-10-05 19:15 OP:rebc STATUS:               ID:20170923085049 L   I
 OLDACT:UP  17-09-23 19:24 OP:leo  STATUS:               ID:20170923084738     3
 OLDACT:REG 17-09-23 15:00 OP:leo  STATUS:               ID:20170923084738     3
 2017-09-23-0848-00M.COL___447                                                 6
 STAT SP IPHASW D HRMM SECON CODA AMPLIT PERI AZIMU VELO AIN AR TRES W  DIS CAZ7
 BAR2 EZ EP        851  9.05                             168    0.0810 29.6 202 
 BAR2 EZ ES        851 24.47                             168    0.1310 29.6 202 
 BAR2 EZ I         851 25.30         9.4 0.26            165           29.6 202 
 RUS  HZ EP        851 13.44                             143    0.1810  105 180 
 RUS  HN ES        851 31.68                             143   -0.3010  105 180 
 RUS  HZ I         851 32.53         3.4 0.24            144            105 180 
 ZAR  HZ EP        851 21.77                             122   -0.43 8  209 290 
 ZAR  HN ES        851 48.04                             122    0.14 8  209 290 
 ZAR  HZ I         851 54.07         5.3 0.42            121            209 290 
 GUY2CHZ EP   2    851 34.69                             112    0.89 4  310 235 
 GUY2CHE ES   2    852  8.54                             112    0.00 4  310 235 
 GUY2CHZ I         852 15.49         2.1 0.66                           310 235 
                                                                                
