 2014  123 0954 32.5 L   6.857 -73.198140.6  RSN  8 0.3 1.6LRSN                1
 GAP=127        0.68       2.2     3.2  4.5 -0.1338E+01  0.5773E+01 -0.6316E+00E
 Epicentro: ZAPATOCA - SANTANDER                                               3
 ACTION:UPD 14-03-13 09:57 OP:ep   STATUS:               ID:20140123095432 L   I
 OLDACT:REG 14-01-23 09:01 OP:nd   STATUS:               ID:20140123095000     3
 2014-01-23-0950-00M.COL___285                                                 6
 STAT SP IPHASW D HRMM SECON CODA AMPLIT PERI AZIMU VELO AIN AR TRES W  DIS CAZ7
 BAR2 SZ EP        954 51.96                             168    0.2610 29.4 177 
 BAR2 SZ ES        955  6.72                             168    0.0910 29.4 177 
 BAR2 SZ I         955  8.90         9.7 0.36            167           29.4 177 
 PAM  SZ EP        954 54.60                             150    0.4310 76.6  46 
 PAM  SN ES        955 10.56                             150   -0.4710 76.6  46 
 PAM  SZ I         955 13.70        10.7 0.54            156           76.6  46 
 RUS  HZ EP        954 56.30                             141   -0.0110  107 173 
 RUS  HN ES        955 15.01                             141    0.1610  107 173 
 RUS  HZ I         955 16.64         5.3 0.28            144            107 173 
 PTB  HZ EP        954 58.67                             132   -0.04 9  144 256 
 PTB  HN ES        955 19.10                             132   -0.01 9  144 256 
 PTB  HZ I         955 22.89         4.9 0.48            131            144 256 
 ZAR  HZ EP   4    955  5.37                             122    1.51 0  196 291 
 ZAR  HN ES   4    955 29.55                             122    1.27 0  196 291 
 ZAR  HZ I         955 36.93         3.5 0.12            122            196 291 
 NOR  HZ EP        955  7.67                             117   -0.22 8  234 232 
 NOR  HN ES        955 35.68                             117    0.23 8  234 232 
 NOR  HZ I         955 45.54         2.5 0.22            118            234 232 
 SML  HZ EP        955  7.95                             117   -0.05 8  236 336 
 SML  HN ES        955 35.58                             117   -0.07 8  236 336 
 SML  HZ I         955 41.03         4.0 0.10            119            236 336 
 CHI  HZ EP        955 10.52                             115    0.04 8  253 194 
 CHI  HN ES        955 39.45                             115   -0.62 8  253 194 
 CHI  HZ I         955 45.11         2.1 0.32            118            253 194 
                                                                                
