 2013  323 0631 31.4 L   6.779 -73.142146.2  RSN  5 0.4 1.9LRSN                1
 GAP=138        1.14       6.1     5.9  8.4 -0.3445E+01  0.6081E+01  0.2161E+01E
 Epicentro: LOS SANTOS - SANTANDER                                             3
 ACTION:UPD 13-04-09 14:04 OP:ep   STATUS:               ID:20130323063131 L   I
 2013-03-23-0630-00M.COL___245                                                 6
 STAT SP IPHASW D HRMM SECON CODA AMPLIT PERI AZIMU VELO AIN AR TRES W  DIS CAZ7
 BAR2 SZ EP        631 50.92                             171   -0.1710 21.1 192 
 BAR2 SZ ES        632  5.92                             171   -0.4910 21.1 192 
 BAR2 SZ I         632  6.96        18.7 0.14            171           21.1 192 
 BRR  HZ IP     C  631 52.79                             152    0.0610 72.7 300 
 BRR  HN ES        632 10.09                             152    0.7610 72.7 300 
 BRR  HN I         632 10.29        22.0 0.24            152           72.7 300 
 PAM  SZ EP        631 53.84                             150    0.0410 78.9  38 
 PAM  SN ES        632 11.01                             150   -0.2310 78.9  38 
 PAM  SN I         632 12.80        12.6 0.50            152           78.9  38 
 RUS  HZ EP        631 54.84                             145   -0.2310 98.2 176 
 RUS  HN ES        632 14.06                             145    0.5610 98.2 176 
 RUS  HN I         632 14.99         8.2 0.30            145           98.2 176 
 PTB  HZ EP        631 58.81                             132    0.36 9  148 260 
 PTB  HN ES        632 18.79                             132   -0.72 9  148 260 
 PTB  HN I         632 21.73         8.7 0.66            133            148 260 
                                                                                
