 2016 1123 0507 43.2 L   6.818 -73.141150.7  RSN 12 0.6 2.0LRSN                1
 GAP=119        1.18       4.5     4.5  6.3 -0.1994E+01  0.5298E+01  0.9060E+01E
 Epicentro: LOS SANTOS - SANTANDER                                             3
 ACTION:UPD 17-10-26 21:10 OP:lp   STATUS:               ID:20161123050743 L   I
 OLDACT:UP  16-11-23 15:53 OP:dani STATUS:               ID:20161123045650d    3
 OLDACT:DUP 16-11-23 15:49 OP:dani STATUS:               ID:20161123045650d    3
 OLDACT:UP  16-11-23 15:48 OP:dani STATUS:               ID:20161123045649d    3
 OLDACT:UP  16-11-23 15:48 OP:dani STATUS:               ID:20161123045649d    3
 OLDACT:UP  16-11-23 15:47 OP:dani STATUS:               ID:20161123045649d    3
 OLDACT:UP  16-11-23 15:46 OP:dani STATUS:               ID:20161123045649d    3
 OLDACT:UP  16-11-23 15:43 OP:dani STATUS:               ID:20161123045648     3
 OLDACT:REG 16-11-23 12:53 OP:dani STATUS:               ID:20161123045648     3
 2016-11-23-0457-00M.COL___352                                                 6
 STAT SP IPHASW D HRMM SECON CODA AMPLIT PERI AZIMU VELO AIN AR TRES W  DIS CAZ7
 BAR2 EZ EP        5 8  3.34                             170   -0.1110 25.3 190 
 BAR2 HN ES        5 8 18.77                             170   -0.4810 25.3 190 
 BAR2 EZ I         5 8 19.54        28.2 0.26            167           25.3 190 
 BRR  HZ EP     C  5 8  5.09                             154    0.2510 70.8 297 
 BRR  HE ES        5 8 22.38                             154    0.6410 70.8 297 
 BRR  HZ I         5 8 25.26        16.9 0.34            151           70.8 297 
 PAM  EZ EP        5 8  6.32                             152    0.5010 75.5  40 
 PAM  EN ES        5 8 23.63                             152    0.1510 75.5  40 
 PAM  EZ I         5 8 26.33         6.1 0.48            156           75.5  40 
 PTB  HZ EP        5 8 10.01                             133   -0.63 9  149 258 
 PTB  HN ES        5 8 31.19                             133   -0.86 9  149 258 
 PTB  HZ I         5 8 36.24        11.5 0.52            131            149 258 
 ZAR  HZ EP        5 8 16.00                             124    0.07 9  204 292 
 ZAR  HE ES        5 8 41.32                             124   -0.15 9  204 292 
 ZAR  HZ I         5 8 47.64         9.1 0.20            123            204 292 
 NOR  HZ EP        5 8 19.52                             119    0.15 8  236 234 
 NOR  HE ES        5 8 47.77                             119    0.17 8  236 234 
 NOR  HZ I         5 8 52.41         6.8 0.19            119            236 234 
 CHI  HZ EP        5 8 21.77                             118    0.40 8  251 195 
 CHI  HN ES        5 8 51.26                             118    0.09 8  251 195 
 CHI  HZ I         5 8 53.29         6.8 0.31            118            251 195 
 ROSC BZ EP   9    5 8 23.12                             117    1.34 0  255 211 
 ROSC BE ES        5 8 53.93                             117    0.70 8  255 211 
 ROSC BZ I         5 8 58.23        13.6 0.36            117            255 211 
 URE  HZ EP        5 8 23.65                             115   -0.82 7  284 292 
 URE  HN ES   3    5 8 53.87                             115   -2.81 2  284 292 
 URE  HZ I         5 9  5.63        10.5 0.16            114            284 292 
 PTGC HZ EP        5 8 26.53                             112   -0.91 7  310 159 
 PTGC HN ES   3    5 8 59.73                             112   -2.24 2  310 159 
 PTGC HZ I         5 9  4.85         4.4 0.29            113            310 159 
 CBOC HZ EP        5 8 31.11                             111    0.68 7  335 252 
 CBOC HN ES        5 9  8.08                             111    0.79 7  335 252 
 CBOC HZ I         5 9 17.77         1.5 0.35            111            335 252 
 PRA  HZ EP        5 8 37.44                             107    0.34 6  394 209 
 PRA  HN ES        5 9 19.69                             107    0.53 6  394 209 
 PRA  HZ I         5 9 25.88         4.8 0.30            108            394 209 
                                                                                
