 2016  923 0738 34.9 L   6.839 -73.106145.1  RSN 15 0.4 1.8LRSN                1
 GAP=122        1.03       3.2     3.5  5.4 -0.3295E+01 -0.1973E+00  0.8854E+00E
 Epicentro: LOS SANTOS - SANTANDER                                             3
 ACTION:UPD 17-08-17 21:15 OP:lp   STATUS:               ID:20160923073834 L   I
 OLDACT:UP  16-09-23 23:06 OP:and  STATUS:               ID:20160923072730     3
 OLDACT:UP  16-09-23 22:53 OP:and  STATUS:               ID:20160923072730     3
 OLDACT:REG 16-09-23 11:20 OP:and  STATUS:               ID:20160923072730     3
 2016-09-23-0728-00M.COL___342                                                 6
 STAT SP IPHASW D HRMM SECON CODA AMPLIT PERI AZIMU VELO AIN AR TRES W  DIS CAZ7
 BAR2 EZ EP        738 54.43                             168   -0.1110 28.6 197 
 BAR2 EZ ES        739  9.38                             168   -0.5010 28.6 197 
 BAR2 EZ I         739 10.25        20.7 0.21            168           28.6 197 
 PAM  HZ EP        738 57.34                             153    0.6810 71.2  39 
 PAM  EN ES        739 13.65                             153   -0.0010 71.2  39 
 PAM  HZ I         739 16.53        14.3 0.54            154           71.2  39 
 BRR  HZ IP     C  738 56.20                             151    0.1410 73.2 294 
 BRR  HN ES        739 13.20                             151    0.6110 73.2 294 
 BRR  HZ I         739 15.99        12.2 0.14            148           73.2 294 
 RUS  HZ EP        738 59.14                             142    0.2810  105 179 
 RUS  HN ES        739 17.28                             142   -0.2910  105 179 
 RUS  HZ I         739 17.87         4.6 0.18            144            105 179 
 PTB  HZ EP   9    739  1.57                             131   -0.69 0  153 258 
 PTB  HE ES        739 22.47                             130   -0.46 9  153 258 
 PTB  HZ I         739 25.93         9.5 0.18            129            153 258 
 OCA  HZ EP        739  2.69                             130   -0.09 9  157 351 
 OCA  HE ES        739 24.28                             130   -0.27 9  157 351 
 OCA  HZ I         739 25.43        17.7 0.34            129            157 351 
 SPBC HZ EP        739  3.80                             128   -0.10 9  169 219 
 SPBC HN ES   4    739 24.94                             128   -1.61 0  169 219 
 SPBC HZ I         739 27.07         7.4 0.06            127            169 219 
 ZAR  HZ EP   4    739  9.37                             122    1.84 0  207 291 
 ZAR  HN ES        739 33.23                             122    0.22 8  207 291 
 ZAR  HZ I         739 39.28        10.6 0.18            120            207 291 
 NOR  HZ EP        739 10.95                             117   -0.27 8  241 234 
 NOR  HE ES        739 39.14                             117   -0.43 8  241 234 
 NOR  HZ I         739 40.24         5.7 0.15            117            241 234 
 CHI  HZ EP   4    739 13.95                             116    0.84 0  254 196 
 CHI  HN ES        739 43.67                             116    0.73 8  254 196 
 HEL  HZ EP   4    739 16.94                             114    1.30 0  277 255 
 HEL  HN ES        739 46.97                             114   -0.47 7  277 255 
 HEL  HZ I         739 52.87         4.7 0.26            113            277 255 
 URE  HZ EP   4    739 18.82                             113    2.63 0  286 291 
 URE  HN ES   4    739 44.79                             113   -3.63 0  286 291 
 SOCV BZ EP        739 17.55                             112    0.35 7  295  57 
 SOCV BN ES        739 49.28                             112   -0.94 7  295  57 
 GUY2CHZ EP   4    739 20.87                             111    1.73 0  307 235 
 GUY2CHN ES   4    739 58.20                             111    4.53 0  307 235 
 GUY2CHZ I         740  0.85         3.6 0.26                           307 235 
 PTGC HZ EP   4    739 15.08                             111   -3.90 0  311 160 
 PTGC HN ES   4    739 51.12                             111   -2.26 0  311 160 
 CBOC HZ EP   4    739 23.51                             109    1.12 0  339 252 
 CBOC HN ES   4    739 56.87                             109   -2.59 0  339 252 
 CBOC HZ I         740 10.93         1.1 0.25            109            339 252 
 SJC  HZ EP   4    739 29.08                             105   -1.19 0  408 326 
 SJC  HN ES   4    740  9.93                             105   -3.55 0  408 326 
 SJC  HZ I         740 14.37         1.1 0.14            105            408 326 
                                                                                
