 2015  523 0948 57.4 L   6.179 -73.642115.8  RSN  4 0.2 1.7LRSN                1
 GAP=171        0.47       2.2     3.0  4.5 -0.1298E+01  0.3845E+01 -0.2809E+01E
 Epicentro: LA PAZ - SANTANDER                                                 3
 ACTION:UPD 15-09-10 22:06 OP:cam  STATUS:               ID:20150523094857 L   I
 OLDACT:REG 15-05-23 12:46 OP:spq  STATUS:               ID:20150523094749     3
 2015-05-23-0947-49M.COL___294                                                 6
 STAT SP IPHASW D HRMM SECON CODA AMPLIT PERI AZIMU VELO AIN AR TRES W  DIS CAZ7
 BAR2 EZ EP        949 15.57                             147    0.0610 68.3  48 
 BAR2 EZ ES   1    949 29.31                             147   -0.36 7 68.3  48 
 BAR2 EZ I         949 30.86        19.3 0.38            154           68.3  48 
 SPBC HZ EP        949 15.66                             145   -0.1110 75.3 219 
 SPBC HN ES        949 30.23                             145    0.1010 75.3 219 
 SPBC HZ I         949 35.30        10.5 0.10            149           75.3 219 
 BRR  HZ EP        949 17.92                             135    0.1010  103 356 
 BRR  HN ES        949 33.97                             135    0.2010  103 356 
 BRR  HZ I         949 40.09         7.9 0.48            141            103 356 
 ZAR  HZ EP        949 27.40                             116    0.04 9  198 317 
 ZAR  HE ES        949 50.54                             116   -0.23 9  198 317 
 ZAR  HZ I         949 52.34         5.2 0.30            121            198 317 
                                                                                
