 2017  923 0455 47.4 L   6.766 -73.120143.3  RSN  4 0.3 1.5LRSN                1
 GAP=237        0.70       4.5     5.4  5.6  0.5505E+01  0.8827E+01  0.5485E+01E
 Epicentro: LOS SANTOS - SANTANDER                                             3
 ACTION:UPD 17-10-05 19:15 OP:rebc STATUS:               ID:20170923045547 L   I
 OLDACT:UP  17-09-23 15:42 OP:leo  STATUS:               ID:20170923044739     3
 OLDACT:REG 17-09-23 14:24 OP:leo  STATUS:               ID:20170923044739     3
 2017-09-23-0448-00M.COL___450                                                 6
 STAT SP IPHASW D HRMM SECON CODA AMPLIT PERI AZIMU VELO AIN AR TRES W  DIS CAZ7
 BAR2 EZ EP        456  6.34                             171   -0.2910 20.3 200 
 BAR2 EZ ES        456 21.48                             171   -0.1810 20.3 200 
 BAR2 EZ I         456 22.65        10.8 0.20            166           20.3 200 
 BRR  HZ EP        456  8.24                             151   -0.2510 75.5 300 
 BRR  HN ES        456 25.32                             151    0.3510 75.5 300 
 BRR  HZ I         456 25.79         6.1 0.28            148           75.5 300 
 RUS  HZ EP        456 11.01                             144    0.4310 96.6 178 
 RUS  HN ES        456 28.70                             144    0.0110 96.6 178 
 RUS  HZ I         456 29.49         4.8 0.46            143           96.6 178 
 NOR  HZ EP        456 23.05                             118    0.09 8  235 236 
 NOR  HN ES        456 50.54                             118   -0.18 8  235 236 
 NOR  HZ I         456 56.62         2.4 0.38            117            235 236 
                                                                                
