 2016  923 0819 52.1 L   6.814 -73.132147.8  RSN 11 0.5 1.5LRSN                1
 GAP=138        1.25       3.6     5.3  6.4 -0.2932E+01  0.5959E+01  0.9850E+00E
 Epicentro: LOS SANTOS - SANTANDER                                             3
 ACTION:UPD 17-08-17 21:15 OP:lp   STATUS:               ID:20160923081952 L   I
 OLDACT:UP  16-09-23 23:55 OP:and  STATUS:               ID:20160923081738     3
 OLDACT:REG 16-09-23 11:24 OP:and  STATUS:               ID:20160923081738     3
 2016-09-23-0818-00M.COL___341                                                 6
 STAT SP IPHASW D HRMM SECON CODA AMPLIT PERI AZIMU VELO AIN AR TRES W  DIS CAZ7
 BAR2 EZ EP        820 11.76                             170   -0.2610 25.1 193 
 BAR2 EZ ES        820 27.52                             170   -0.0310 25.1 193 
 BAR2 EZ I         820 28.48        11.4 0.17            168           25.1 193 
 BRR  HZ EP        820 13.55                             153    0.0410 71.8 297 
 BRR  HN ES        820 30.58                             153    0.3710 71.8 297 
 PAM  EZ EP        820 14.72                             152    0.3010 75.2  39 
 PAM  EN ES        820 31.85                             152    0.0310 75.2  39 
 PAM  EZ I         820 33.91        11.2 0.54            155           75.2  39 
 RUS  HZ EP        820 16.27                             144    0.1110  102 177 
 RUS  HN ES        820 35.32                             144    0.4010  102 177 
 RUS  HZ I         820 35.65         3.6 0.28            144            102 177 
 PTB  HZ EP   9    820 18.70                             132   -0.70 0  150 258 
 PTB  HN ES        820 39.43                             133   -0.56 9  150 258 
 PTB  HZ I         820 41.39         1.7 0.13            131            150 258 
 OCA  HZ EP        820 19.91                             130   -0.55 9  159 353 
 OCA  HN ES        820 42.11                             130   -0.46 9  159 353 
 SPBC HZ EP        820 20.90                             129   -0.07 9  165 219 
 SPBC HN ES        820 42.66                             129   -0.81 9  165 219 
 SPBC HZ I         820 47.62         5.0 0.11            129            165 219 
 ZAR  HZ EP        820 26.19                             123    1.42 9  205 292 
 ZAR  HN ES        820 49.87                             123   -0.38 9  205 292 
 ZAR  HZ I         820 56.73         2.8 0.08            122            205 292 
 NOR  HZ EP        820 28.39                             118    0.21 8  237 234 
 NOR  HN ES        820 56.96                             118    0.64 8  237 234 
 NOR  HZ I         821  3.43         2.8 0.50            118            237 234 
 CHI  HZ EP        820 30.26                             117    0.14 8  250 195 
 CHI  HN ES        820 58.92                             117   -0.85 8  250 195 
 CHI  HZ I         821  1.75         1.6 0.15            118            250 195 
 SJC  HZ EP        820 46.89                             106   -0.80 6  409 327 
 SJC  HN ES   4    821 26.23                             106   -4.81 0  409 327 
                                                                                
