 2017  623 0319 31.9 L   6.870 -73.067151.6  RSN  5 0.2 1.3LRSN                1
 GAP=272        0.86       7.7     5.9  7.7  0.9548E+01  0.7431E+01  0.7742E+01E
 Epicentro: PIEDECUESTA - SANTANDER                                            3
 ACTION:UPD 17-09-14 16:54 OP:jn   STATUS:               ID:20170623031931 L   I
 OLDACT:REG 17-06-23 13:08 OP:lv   STATUS:               ID:20170623031738     3
 2017-06-23-0318-00M.COL___374                                                 6
 STAT SP IPHASW D HRMM SECON CODA AMPLIT PERI AZIMU VELO AIN AR TRES W  DIS CAZ7
 BAR2 EZ EP        319 52.25                             167   -0.1710 33.2 203 
 BAR2 EZ ES        320  8.35                             167   -0.1210 33.2 203 
 BAR2 EZ I         320  8.64         4.8 0.12            167           33.2 203 
 BRR  HN ES        320 11.37                             152    0.2610 76.0 290 
 PTB  HZ EP   9    319 59.36                             131   -0.87 0  158 257 
 PTB  HN ES        320 20.74                                   -0.75 9  158 257 
 PTB  HZ I         320 22.62         1.3 0.09            131            158 257 
 ZAR  HE ES        320 31.16                             122   -0.13 8  210 289 
 GUY2CHZ EP   4    320 18.97                             112    1.93 0  313 235 
 GUY2CHN ES        320 52.54                             112    0.25 7  313 235 
 GUY2CHZ I         320 59.10         1.2 0.49                           313 235 
                                                                                
