 2010  923 0151 22.3 L   6.363 -73.638103.6  RSN 12 0.4 2.3LRSN                1
 GAP= 89        0.72       2.6     3.4  6.5 -0.2275E+01  0.8939E+01 -0.7298E+00E
 Epicentro: SANTA HELENA DEL OPON - SANTANDER                                  3
 ACTION:UP  11-02-18 11:04 OP:tino STATUS:               ID:20100923015122 L   I
 2010-09-23-0149-17S.COL___122                                                 6
 STAT SP IPHASW D HRMM SECON CODA AMPLIT PERI AZIMU VELO SNR AR TRES W  DIS CAZ7
 BAR2 SZ EP        151 38.64                             149     0.210   56  63 
 BAR2 SZ ES   2    151 50.94                             149    -0.1 5   56  63 
 RUS  HZ IP     C  151 40.57                             139     0.110   81 130 
 RUS  HN ES   1    151 54.60                             139    -0.1 7   81 130 
 RUS  HZ I         151 56.49        41.5 0.26                            81 130 
 BRR  HZ EP        151 39.62                             138    -0.410   83 354 
 BRR  HZ I         151 48.31        55.3 0.06                            83 354 
 BRR  HE ES   1    151 53.87                             138     0.1 7   83 354 
 GIR2 SZ EP   2    151 41.08                             135     0.0 5   93  32 
 NOR  SZ EP   2    151 47.02                             117    -0.9 5  163 237 
 NOR  SN ES   2    152  7.48                             117    -0.3 5  163 237 
 GUE  SZ EP   1    151 49.66                             115    -0.5 7  180  26 
 GUE  SZ I         151 50.32        17.1 0.11                           180  26 
 CHI  HZ EP   1    151 51.52                             113    -0.1 7  192 183 
 CHI  HE ES   2    152 14.63                             113     0.2 4  192 183 
 CHI  HZ I         152 18.59        14.6 0.20                           192 183 
 GRA  SZ EP   1    151 52.06                             113     0.8 7  192  29 
 GRA  SZ ES   2    152 13.98                             113     0.2 4  192  29 
 GRA  SZ I         152 19.17        36.9 0.36                           192  29 
 OCA  SZ EP   1    151 52.83                             111    -0.5 6  210  10 
 OCA  SZ ES   1    152 17.76                             111     0.3 6  210  10 
 OCA  SZ I         152 25.20        55.8 0.42                           210  10 
 HEL  HZ EP   1    151 53.61                             111     0.0 6  210 265 
 HEL  HN ES   1    152 18.40                             111     0.5 6  210 265 
 HEL  HZ I         152 22.98        24.9 0.45                           210 265 
 RREF HZ EP   1    151 58.38                             107     0.0 6  249 230 
 RREF HN ES   2    152 26.78                             107     0.2 4  249 230 
 RREF HZ I         152 35.85        17.1 0.30                           249 230 
 TOL  SZ EP   2    152  0.91                             105     0.3 4  271 224 
                                                                                
