 2012  623 0905 52.5 L   6.548 -73.598110.9  RSN  7 0.4 1.9LRSN                1
 GAP= 79        0.69       4.0     4.1  7.0 -0.2720E+01  0.4283E+01  0.5625E+01E
 Epicentro: EL CARMEN DE CHUCURI - SANTANDER                                   3
 ACTION:UPD 12-08-06 17:51 OP:ep   STATUS:               ID:20120623090552 L   I
 2012-06-23-0900-00M.COL___199                                                 6
 STAT SP IPHASW D HRMM SECON CODA AMPLIT PERI AZIMU VELO AIN AR TRES W  DIS CAZ7
 BAR2 SZ IP        9 6  8.76                             155   -0.0710 46.3  84 
 BAR2 SZ I         9 6  8.98        37.1 0.38                          46.3  84 
 BAR2 SZ ES   1    9 6 21.33                             155   -0.24 7 46.3  84 
 BRR  HZ EP        9 6  9.52                             148    0.0710 63.1 349 
 BRR  HE ES   1    9 6 23.50                             148    0.82 7 63.1 349 
 BRR  HZ I         9 6 29.24        17.2 0.14                          63.1 349 
 RUS  HN ES   3    9 6 26.90                             138   -0.83 2 92.2 142 
 PTB  HZ EP        9 6 11.59                             136   -0.2710 94.9 270 
 PTB  HN ES   1    9 6 26.47                             136   -0.49 7 94.9 270 
 PTB  HZ I         9 6 32.96         8.0 0.22                          94.9 270 
 NOR  SZ EP   3    9 6 20.55                             117    0.45 2  178 232 
 NOR  SN ES   2    9 6 41.83                             117    0.20 4  178 232 
 OCA  HZ EP   2    9 6 21.79                             115    0.28 4  190   9 
 OCA  HE ES   2    9 6 44.00                             115   -0.14 4  190   9 
 OCA  HZ I         9 6 51.38        26.6 0.44                           190   9 
 CHI  HZ EP   2    9 6 24.79                             113    0.39 4  213 184 
 CHI  HZ I         9 6 26.18         3.3 0.32                           213 184 
 CHI  HN ES   2    9 6 49.89                             113    0.59 4  213 184 
                                                                                
