 2016 1123 0640  9.7 L   6.858 -73.155148.8  RSN 23 0.8 2.7LRSN                1
 GAP= 64        1.27       4.3     3.7  6.3  0.4832E+00  0.6720E+01  0.7079E+01E
 Epicentro: LOS SANTOS - SANTANDER                                             3
 ACTION:UPD 17-10-26 21:10 OP:lp   STATUS:               ID:20161123064009 L   I
 OLDACT:UP  16-11-23 16:48 OP:dani STATUS:               ID:20161123063742     3
 OLDACT:UP  16-11-23 16:46 OP:dani STATUS:               ID:20161123063742     3
 OLDACT:UP  16-11-23 16:46 OP:dani STATUS:               ID:20161123063742     3
 OLDACT:UP  16-11-23 16:45 OP:dani STATUS:               ID:20161123063742     3
 OLDACT:UP  16-11-23 16:45 OP:dani STATUS:               ID:20161123063742     3
 OLDACT:UP  16-11-23 16:44 OP:dani STATUS:               ID:20161123063742     3
 OLDACT:REG 16-11-23 13:01 OP:dani STATUS:               ID:20161123063742     3
 2016-11-23-0638-00M.COL___352                                                 6
 STAT SP IPHASW D HRMM SECON CODA AMPLIT PERI AZIMU VELO AIN AR TRES W  DIS CAZ7
 BAR2 EZ EP        640 29.75                             168   -0.0910 29.5 186 
 BAR2 HE ES        640 44.98                             168   -0.5710 29.5 186 
 BAR2 EZ I         640 48.44       157.3 0.42            159           29.5 186 
 BRR  HZ EP     C  640 31.46                             154    0.4810 67.4 294 
 BRR  HN ES        640 48.32                             154    0.7510 67.4 294 
 BRR  HZ I         640 48.87       114.0 0.12            151           67.4 294 
 PAM  EZ EP     C  640 32.40                             153    0.3910 73.3  43 
 PAM  EN ES        640 49.11                             153   -0.3010 73.3  43 
 PAM  EZ I         640 51.51        67.0 0.44            160           73.3  43 
 PTB  HZ EP        640 36.47                             133   -0.49 9  148 256 
 PTB  HN ES   3    640 56.96                             133   -1.25 2  148 256 
 PTB  HZ I         640 58.96        64.1 0.16            128            148 256 
 TAM  HZ EP     C  640 38.21                             131    0.33 9  158 107 
 TAM  HN ES        640 59.77                             131   -0.09 9  158 107 
 TAM  HZ I         641  1.99        24.3 0.36            130            158 107 
 ZAR  HZ EP        640 42.48                             123    0.46 9  201 291 
 ZAR  HN ES        641  7.87                             123    0.65 9  201 291 
 ZAR  HZ I         641 13.43       102.7 0.28            121            201 291 
 NOR  HZ EP        640 45.89                             119   -0.04 8  238 233 
 NOR  HE ES        641 13.95                             119   -0.23 8  238 233 
 NOR  HZ I         641 20.36        48.9 0.30            115            238 233 
 CHI  HZ EP        640 48.24                             117    0.02 8  255 195 
 CHI  HN ES        641 17.82                             117   -0.44 8  255 195 
 CHI  HZ I         641 24.77        24.8 0.60            114            255 195 
 ROSC BZ EP   9    640 49.80                             117    1.26 0  258 210 
 ROSC BN ES        641 20.54                             117    0.45 8  258 210 
 ROSC BZ I         641 26.98        60.1 0.55            113            258 210 
 URE  HZ EP        640 49.80                             114   -0.76 7  281 291 
 URE  HE ES        641 21.54                             114   -0.88 7  281 291 
 URE  HZ I         641 31.63        38.3 0.26            113            281 291 
 PTGC HZ EP   3 D  640 53.14                             112   -1.28 2  315 159 
 PTGC HN ES   4    641 26.97                             112   -2.33 0  315 159 
 PTGC HZ I         641 29.61        14.2 0.24            109            315 159 
 LL6C HZ EP   9    640 34.79                             111   -20.0 0  318 358 
 LL6C HN ES   2    641  8.38                                   -1.58 3  318 358 
 LL6C HZ I         641 13.48        12.9 0.38            112            318 358 
 ELA  HZ EP   9    641  0.03                             111    2.95 0  333 229 
 ELA  HN ES        641 36.57                             111   -0.41 7  333 229 
 ELA  HZ I         641 45.24        16.8 0.60            108            333 229 
 CBOC HZ EP   3    640 57.84                             110    0.97 2  335 251 
 CBOC HN ES        641 33.31                             110   -0.35 7  335 251 
 CBOC HZ I         641 45.41         9.7 0.48            108            335 251 
 ARGC HZ EP   9    640 59.86                             109    1.12 0  353 340 
 ARGC HN ES        641 38.26                             109    0.15 6  353 340 
 ANIL HZ EP   3    641  1.22                             109    1.14 2  361 224 
 ANIL HN ES   4    641 41.85                             109    2.48 0  361 224 
 PRA  HZ EP        641  3.34                             107   -0.59 6  397 209 
 PRA  HN ES        641 46.63                             107    0.41 6  397 209 
 PRA  HZ I         641 51.17        34.1 0.28            105            397 209 
 ORTC HZ EP        641  4.09                             107   -0.18 6  400 216 
 ORTC HN ES   3    641 48.95                             107    2.12 1  400 216 
 ORTC HZ I         641 53.96        22.8 0.48            104            400 216 
 SJC  HZ EP        641  3.49                             106   -1.19 6  403 327 
 SJC  HE ES   4    641 44.63                             106   -2.92 0  403 327 
 SJC  HZ I         641 49.11        23.6 0.42            106            403 327 
 PAL  HZ EP        641  5.69                             106    0.43 6  408 238 
 PAL  HZ I         641 56.27         8.1 0.26            104            408 238 
 CRJC HZ EP   3    641  9.94                             104   -1.60 1  461   4 
 CRJC HN ES   4    641 54.42                             104   -5.35 0  461   4 
 CRJC HZ I         642  0.32        11.3 0.21            104            461   4 
 YOT  HZ EP        641 16.74                             103    3.49 5  475 228 
 URI  HZ EP   9    641 20.12                             101   -1.94 0  551  13 
 GARC HZ EP        641 24.47                             100   -1.19 3  578 207 
 GARC HZ I         642 25.15        11.7 0.26             99            578 207 
                                                                                
