 2013  723 0200 49.5 L   6.688 -73.164150.0  RSN  6 0.3 1.5LRSN                1
 GAP=179        0.68       5.8     5.7  7.1  0.1452E+02 -0.4691E+01 -0.5280E+01E
 Epicentro: VILLANUEVA - SANTANDER                                             3
 ACTION:UPD 13-08-12 10:39 OP:ep   STATUS:               ID:20130723020000 L   I
 OLDACT:UP  13-07-23 09:56 OP:cam  STATUS:               ID:20130723020000 L   3
 OLDACT:UPD 13-07-23 09:12 OP:stll STATUS:               ID:20130723020000 L   3
 2013-07-23-0200-00M.COL___263                                                 6
 STAT SP IPHASW D HRMM SECON CODA AMPLIT PERI AZIMU VELO AIN AR TRES W  DIS CAZ7
 BAR2 SZ EP        2 1  9.30                             176   -0.1110 10.8 191 
 GIR2 SZ EP        2 1  9.61                             163   -0.3910 43.3 356 
 BRR  HZ EP        2 1 11.38                             152    0.0310 76.3 307 
 BRR  HN ES        2 1 28.71                             152    0.2810 76.3 307 
 BRR  HZ I         2 1 32.69         8.3 0.68            152           76.3 307 
 RUS  HZ EP   1    2 1 13.28                             148    0.48 7 88.4 174 
 RUS  HN ES   1    2 1 31.09                             148    0.08 7 88.4 174 
 RUS  HZ I         2 1 32.78         4.3 0.32            151           88.4 174 
 PTB  HZ EP   1    2 1 16.09                             134   -0.33 7  144 264 
 PTB  HN ES   1    2 1 37.07                             134   -0.39 7  144 264 
 PTB  HZ I         2 1 41.12         4.5 0.10            135            144 264 
 ZAR  HZ EP   1    2 1 22.96                             123    0.46 6  207 296 
 ZAR  HE ES   2    2 1 48.50                             123    0.22 4  207 296 
                                                                                
