 2013  323 0636 21.6 L   6.775 -73.135147.5  RSN  5 0.2 1.8LRSN                1
 GAP=139        0.63       3.5     3.3  4.7 -0.1518E+01  0.2434E+01 -0.2803E+00E
 Epicentro: LOS SANTOS - SANTANDER                                             3
 ACTION:UPD 13-04-09 14:04 OP:ep   STATUS:               ID:20130323063621 L   I
 2013-03-23-0630-00M.COL___245                                                 6
 STAT SP IPHASW D HRMM SECON CODA AMPLIT PERI AZIMU VELO AIN AR TRES W  DIS CAZ7
 BAR2 SZ EP        636 41.40                             172    0.0310 20.9 194 
 BAR2 SZ ES        636 57.00                             172    0.1910 20.9 194 
 BAR2 SZ I         636 58.52        11.7 0.18            170           20.9 194 
 BRR  HZ EP        636 43.18                             152    0.1310 73.5 300 
 BRR  HN ES        637  0.02                             152    0.2310 73.5 300 
 BRR  HN I         637  0.41        17.9 0.34            153           73.5 300 
 PAM  SZ IP     C  636 44.29                             151    0.2210 78.8  38 
 PAM  SN ES        637  1.21                             151   -0.3910 78.8  38 
 PAM  SN I         637  2.01        13.3 0.46            153           78.8  38 
 RUS  HZ EP   1    636 45.59                             145    0.29 7 97.8 177 
 RUS  HN ES        637  3.65                             145   -0.1610 97.8 177 
 RUS  HN I         637  5.39         6.8 0.36            145           97.8 177 
 PTB  HZ EP        636 48.39                             132   -0.36 9  148 260 
 PTB  HN ES        637  9.82                             132   -0.11 9  148 260 
 PTB  HN I         637 12.36         8.5 0.22            133            148 260 
                                                                                
