 2010  323 0902 34.3 L   6.789 -73.047149.0  RSN  5 0.3 1.3LRSN                1
 GAP=193        0.46       5.7    11.5  6.0  0.5005E+02 -0.2751E+02 -0.1133E+02E
 Epicentro: LOS SANTOS - SANTANDER                                             3
 ACTION:UP  10-08-24 09:55 OP:vdl  STATUS:               ID:20100323090234 L   I
 2010-03-23-0859-42S.COL___098                                                 6
 STAT SP IPHASW D HRMM SECON CODA AMPLIT PERI AZIMU VELO SNR AR TRES W  DIS CAZ7
 BAR2 SZ EP   1    9 2 54.37                             169     0.0 7   27 215 
 BAR2 SZ ES   2    9 3  9.54                             169    -0.5 5   27 215 
 BRR  HZ IP        9 2 56.34                             149    -0.110   82 296 
 BRR  HN ES   1    9 3 13.81                             149     0.1 7   82 296 
 BRR  HZ I         9 3 28.45         7.9 0.37                            82 296 
 RUS  HZ EP   1    9 2 58.47                             145     0.2 7   99 182 
 RUS  HE ES   1    9 3 17.11                             145     0.1 7   99 182 
 RUS  HZ I         9 3 18.10         2.7 0.34                            99 182 
 OCA  SZ EP   3    9 3  2.89                             130    -0.3 2  163 349 
 OCA  SZ ES   3    9 3 26.36                             130     0.7 2  163 349 
 CHI  HZ EP   2    9 3 12.28                             117    -0.1 4  251 198 
 CHI  HZ I         9 3 44.19         0.8 0.20                           251 198 
                                                                                
