 2010  623 0634 40.8 L   6.079 -73.557118.0  RSN  7 0.4 1.3LRSN                1
 GAP=240        0.73       6.0    11.2  7.1  0.3203E+02  0.1586E+02 -0.2454E+01E
 Epicentro: GUEPSA - SANTANDER                                                 3
 ACTION:UP  10-08-24 10:12 OP:vdl  STATUS:               ID:20100623063440 L   I
 2010-06-23-0633-29S.COL___118                                                 6
 STAT SP IPHASW D HRMM SECON CODA AMPLIT PERI AZIMU VELO SNR AR TRES W  DIS CAZ7
 RUS  HZ EP        634 58.71                             153    -0.110   56 111 
 RUS  HZ I         634 59.35         3.5 0.12                            56 111 
 RUS  HN ES   2    635 13.14                             153     0.3 5   56 111 
 BAR2 SZ EP   1    634 59.32                             147     0.1 7   70  36 
 BAR2 SZ ES   1    635 13.62                             147    -0.1 7   70  36 
 BRR  HZ EP        635  2.27                             132    -0.210  115 351 
 BRR  HN ES   1    635 19.75                             132     0.3 7  115 351 
 BRR  HZ I         635 23.63         4.7 0.14                           115 351 
 BTN  SZ EP        635  7.87                             121    -0.2 9  168  17 
 BTN  SZ ES   2    635 28.48                             121    -0.8 5  168  17 
 BRI  SZ EP   1    635 12.01                             116     0.7 6  200  25 
 GUE  SZ EP   1    635 12.66                             115     0.5 6  206  20 
 GRA  SZ EP   1    635 12.82                             114    -0.3 6  216  23 
                                                                                
