 2016 1023 0530 17.4 L   6.794 -73.096145.7  RSN 18 0.5 1.9LRSN                1
 GAP= 69        0.99       2.9     3.3  5.1 -0.1812E+01  0.4166E+00  0.1816E+01E
 Epicentro: LOS SANTOS - SANTANDER                                             3
 ACTION:UPD 16-11-09 19:21 OP:rebc STATUS:               ID:20161023053017 L   I
 OLDACT:UP  16-10-23 16:19 OP:e    STATUS:               ID:20161023052749     3
 OLDACT:UP  16-10-23 16:17 OP:e    STATUS:               ID:20161023052749     3
 OLDACT:REG 16-10-23 12:57 OP:and  STATUS:               ID:20161023052749     3
 2016-10-23-0528-00M.COL___353                                                 6
 STAT SP IPHASW D HRMM SECON CODA AMPLIT PERI AZIMU VELO AIN AR TRES W  DIS CAZ7
 BAR2 EZ EP        530 37.04                             170   -0.0410 24.2 203 
 BAR2 EZ ES        530 52.30                             170   -0.1110 24.2 203 
 BAR2 EZ I         530 53.22        29.7 0.26            168           24.2 203 
 PAM  EZ EP        530 39.98                             152    0.5010 74.6  36 
 PAM  EN ES        530 57.11                             152    0.4310 74.6  36 
 PAM  EZ I         530 59.16        12.6 0.52            154           74.6  36 
 BRR  HZ IP     C  530 38.78                             151   -0.1110 76.4 297 
 BRR  HN ES        530 55.87                             151    0.2610 76.4 297 
 BRR  HZ I         530 59.06        17.0 0.15            149           76.4 297 
 RUS  HZ EP        530 40.76                             144   -0.3610 99.6 179 
 RUS  HN ES        530 59.86                             144    0.2710 99.6 179 
 RUS  HZ I         531  0.75        10.4 0.32            144           99.6 179 
 TAM  HZ IP     D  530 45.40                             132    0.79 9  150 105 
 TAM  HE ES        531  5.01                             132   -0.78 9  150 105 
 PTB  HZ EP   9    530 43.51                             131   -1.38 0  153 259 
 PTB  HN ES        531  4.83                             131   -0.09 9  153 259 
 OCA  HZ EP        530 45.45                             130   -0.43 9  162 351 
 OCA  HN ES        531  7.79                             130   -0.28 9  162 351 
 OCA  HZ I         531 10.65        15.9 0.28            130            162 351 
 SPBC HZ EP        530 45.85                             129   -0.37 9  166 221 
 SPBC HE ES        531  8.23                             129   -0.44 9  166 221 
 SPBC HZ I         531 10.48        15.0 0.08            128            166 221 
 TABC EZ EP   2    530 55.20                             119    1.77 4  232 212 
 TABC EZ ES   2    531 22.46                             119    0.96 4  232 212 
 NOR  HZ EP   2    530 53.40                             118   -0.21 4  239 235 
 NOR  HN ES   2    531 21.10                             118   -0.72 4  239 235 
 NOR  HZ I         531 26.55         6.8 0.17            118            239 235 
 CHI  HZ EP   2    530 55.35                             117    0.13 4  249 196 
 CHI  HN ES        531 24.90                             117    0.20 8  249 196 
 CHI  HZ I         531 29.61         4.3 0.42            117            249 196 
 ROSC HZ EP   9    530 57.87                             117    2.06 0  255 212 
 ROSC BN ES        531 28.58                             116    0.78 8  255 212 
 ROSC HZ I         531 31.69        11.5 0.40            117            255 212 
 HEL  HZ EP   2    530 58.28                             114    0.05 4  277 256 
 HEL  HN ES        531 30.05                             114    0.01 7  277 256 
 HEL  HZ I         531 36.72         4.6 0.30            114            277 256 
 GUY2CHZ EP   3    531  2.06                             112    0.55 2  305 235 
 GUY2CHN ES   4    531 37.56                             112    1.67 0  305 235 
 GUY2CHZ I         531 43.24         4.3 0.32                           305 235 
 PTGC HZ EP   2    531  0.18                             112   -0.82 4  306 160 
 PTGC HN ES   3    531 34.03                             112   -0.94 2  306 160 
 PTGC HZ I         531 34.92         5.2 0.22            113            306 160 
 LL6C HZ EP   9    530 43.47                             110   -19.8 0  326 357 
 LL6C HN ES        531 18.76                                   -0.44 7  326 357 
 CBOC HZ EP   2    531  5.47                             110    0.54 3  339 252 
 CBOC HN ES   4    531 40.09                             110   -1.88 0  339 252 
 CBOC HZ I         531 41.89         1.3 0.20            110            339 252 
 SJC  HZ EP   4    531 11.28                             106   -2.14 0  413 326 
 SJC  HE ES   4    531 52.81                             106   -4.28 0  413 326 
 SJC  HZ I         531 56.23         1.5 0.28            106            413 326 
                                                                                
