 2016  623 0903 44.6 L   6.805 -73.149147.3  RSN 24 0.4 2.7LRSN                1
 GAP=102        0.88       2.6     2.2  3.8 -0.4389E+00  0.2358E+01  0.2051E+01E
 Epicentro: LOS SANTOS - SANTANDER                                             3
 ACTION:UPD 16-07-21 22:22 OP:rebc STATUS:               ID:20160623090344 L   I
 OLDACT:REG 16-06-23 13:05 OP:ak   STATUS:               ID:20160623085746     3
 2016-06-23-0857-46M.COL___328                                                 6
 STAT SP IPHASW D HRMM SECON CODA AMPLIT PERI AZIMU VELO AIN AR TRES W  DIS CAZ7
 BAR2 EZ IP     D  9 4  4.52                             170    0.0510 23.8 189 
 BAR2 EZ ES        9 4 19.93                             170   -0.0010 23.8 189 
 BAR2 EZ I         9 4 22.34        94.5 0.28                          23.8 189 
 BRR  HZ IP     D  9 4  6.34                             153    0.4110 70.7 298 
 BRR  HN ES        9 4 23.02                             153    0.4910 70.7 298 
 BRR  HZ I         9 4 26.56        82.6 0.26                          70.7 298 
 PAM  EZ IP     D  9 4  7.55                             151    0.5410 77.2  40 
 PAM  EN ES        9 4 24.51                             151    0.0510 77.2  40 
 PAM  EZ I         9 4 27.62        73.2 0.32                          77.2  40 
 RUS  HZ EP        9 4  8.71                             144    0.1210  101 176 
 RUS  HN ES        9 4 26.95                             144   -0.3110  101 176 
 RUS  HZ I         9 4 28.62        36.5 0.32                           101 176 
 PTB  HZ EP        9 4 10.98                             132   -0.74 9  148 259 
 PTB  HN ES        9 4 32.52                             132   -0.32 9  148 259 
 PTB  HZ I         9 4 37.46        48.2 0.42                           148 259 
 TAM  HZ IP     C  9 4 13.00                             131    0.52 9  156 105 
 TAM  HN ES        9 4 33.55                             131   -0.65 9  156 105 
 TAM  HZ I         9 4 33.90        42.4 0.36                           156 105 
 SPBC HZ EP        9 4 13.49                             129    0.21 9  163 219 
 SPBC HN ES        9 4 35.52                             129   -0.10 9  163 219 
 SPBC HZ I         9 4 41.72        85.3 0.22                           163 219 
 ZAR  HZ EP        9 4 16.80                             123   -0.34 9  204 292 
 ZAR  HN ES        9 4 42.05                             123   -0.43 9  204 292 
 ZAR  HZ I         9 4 49.56        38.9 0.44                           204 292 
 NOR  HZ EP        9 4 20.62                             119    0.15 8  235 234 
 NOR  HN ES        9 4 48.66                             119    0.25 8  235 234 
 NOR  HZ I         9 4 54.03        39.5 0.22                           235 234 
 CHI  HZ EP        9 4 22.84                             117    0.37 8  249 195 
 CHI  HN ES        9 4 51.74                             117   -0.24 8  249 195 
 CHI  HZ I         9 4 57.34        25.1 0.28                           249 195 
 ROSC BZ EP   9    9 4 24.47                             117    1.59 0  253 211 
 ROSC BN ES        9 4 54.62                                    0.33 8  253 211 
 ROSC BZ I         9 4 59.21        72.4 0.45                           253 211 
 HEL  HZ EP   4    9 4 26.26                             115    1.35 0  272 256 
 HEL  HN ES        9 4 56.04                             115   -0.29 8  272 256 
 HEL  HZ I         9 5  3.14        28.5 0.26                           272 256 
 URE  HZ EP        9 4 25.08                             114   -0.65 7  283 292 
 URE  HN ES   4    9 4 55.10                             114   -2.68 0  283 292 
 URE  HZ I         9 5  3.67        27.9 0.14                           283 292 
 GUY2CHZ EP        9 4 28.72                             113    0.39 7  301 235 
 GUY2CHN ES        9 5  2.39                             113   -0.01 7  301 235 
 GUY2CHZ I         9 5 10.86        32.2 0.68                           301 235 
 PTGC HZ IP     D  9 4 27.75                             112   -0.89 7  309 159 
 PTGC HN ES   4    9 5  0.81                             112   -2.14 0  309 159 
 PTGC HZ I         9 5  2.45        23.3 0.24                           309 159 
 CBOC HZ EP        9 4 32.04                             110    0.44 7  333 252 
 CBOC HE ES        9 5  8.21                             110   -0.03 7  333 252 
 CBOC HZ I         9 5 25.63         8.7 0.60                           333 252 
 DBB  SZ EP        9 4 32.03                             110   -0.11 7  339 274 
 DBB  SZ ES        9 5  9.35                             110    0.16 7  339 274 
 DBB  SZ I         9 5 12.13        62.3 0.48                           339 274 
 ANIL HZ EP   1    9 4 34.89                             109    0.37 5  357 224 
 ANIL HN ES        9 5 14.23                             109    0.80 6  357 224 
 PRA  HZ EP        9 4 38.13                             107   -0.12 6  392 209 
 PRA  HN ES        9 5 20.14                             107    0.07 6  392 209 
 PRA  HZ I         9 5 26.77        27.6 0.48                           392 209 
 ORTC HZ EP        9 4 38.76                             107    0.12 6  396 216 
 ORTC HE ES        9 5 21.23                             107    0.47 6  396 216 
 ORTC HZ I         9 5 28.42        15.2 0.34                           396 216 
 PAL  HZ EP        9 4 39.77                             106   -0.08 6  406 239 
 PAL  HN ES        9 5 22.32                             106   -0.60 6  406 239 
 SJC  HZ EP   4    9 4 38.87                             106   -1.31 0  409 327 
 SJC  HN ES   4    9 5 19.27                             106   -4.23 0  409 327 
 SJC  HZ I         9 5 34.65         5.0 0.50                           409 327 
 YOT  HZ EP   4    9 4 46.26                             103   -1.48 0  472 229 
 YOT  HN ES   4    9 5 43.04                             103    6.08 0  472 229 
 YOT  HZ I         9 5 54.03         3.2 0.26                           472 229 
 MACC HZ EP   4    9 4 51.44                             102   -2.01 0  521 189 
 MACC HN ES   4    9 5 43.30                             102   -3.82 0  521 189 
 MACC HZ I         9 5 49.25         5.0 0.28                           521 189 
                                                                                
