 2010 1023 0347 49.0 L   6.758 -73.106146.1  RSN 11 0.3 2.8LRSN                1
 GAP=214        0.61       3.6     4.4  4.9  0.1991E+01  0.6401E+01  0.5816E+01E
 Epicentro: LOS SANTOS - SANTANDER                                             3
 ACTION:UP  11-02-18 11:11 OP:tino STATUS:               ID:20101023034749 L   I
 2010-10-23-0340-00M.COL___115                                                 6
 STAT SP IPHASW D HRMM SECON CODA AMPLIT PERI AZIMU VELO SNR AR TRES W  DIS CAZ7
 BAR2 SZ IP        348  8.58                             172    -0.110   20 205 
 BAR2 SZ ES   1    348 23.68                             172    -0.2 7   20 205 
 BAR2 SZ I         348 25.37       122.3 0.24                            20 205 
 BRR  HZ IP     C  348 10.51                             151     0.010   77 300 
 BRR  HE ES   1    348 27.50                             151     0.1 7   77 300 
 BRR  HZ I         348 30.19       190.4 0.05                            77 300 
 RUS  HZ IP     C  348 12.44                             145     0.010   96 178 
 RUS  HN ES   1    348 30.98                             145     0.2 7   96 178 
 RUS  HZ I         348 32.49        69.7 0.26                            96 178 
 YOP  SZ EP   2    348 18.65                             127     0.1 4  173 154 
 NOR  SZ EP   1    348 24.38                             118    -0.5 6  236 236 
 NOR  SE ES   1    348 52.98                             118     0.1 6  236 236 
 NOR  SZ I         349  0.38         9.5 0.12                           236 236 
 CHI  HZ EP   1    348 26.49                             118     0.1 6  245 196 
 CHI  HN ES   1    348 55.87                             118     0.3 6  245 196 
 CHI  HZ I         349  1.90        32.0 0.23                           245 196 
 HEL  HZ EP   1    348 30.41                             115     0.8 6  275 257 
 HEL  HE ES   2    349  1.12                             115    -0.1 4  275 257 
 HEL  HZ I         349  8.02        24.2 0.56                           275 257 
 VIL  SN ES   2    349  4.67                             112    -0.6 4  298 191 
 RREF HZ EP   1    348 34.88                             111    -0.3 5  322 231 
 RREF HZ I         349 21.13        43.0 0.07                           322 231 
 ANIL HN ES   1    349 17.30                             108    -0.4 5  357 226 
 ANIL HZ I         349 28.52        79.3 0.68                           357 226 
 PRA  HZ EP   1    348 42.28                             107    -0.1 4  390 210 
                                                                                
