 2013  823 0845 59.2 L   6.813 -73.166141.4  RSN 11 0.4 1.9LRSN                1
 GAP=180        0.99       2.8     4.8  5.7 -0.1221E+01  0.4749E+01 -0.3605E+01E
 Epicentro: LOS SANTOS - SANTANDER                                             3
 ACTION:UPD 14-01-14 09:05 OP:ep   STATUS:               ID:20130823084559 L   I
 OLDACT:REG 13-08-23 09:02 OP:nd   STATUS:               ID:20130823083959     3
 2013-08-23-0839-59M.COL___270                                                 6
 STAT SP IPHASW D HRMM SECON CODA AMPLIT PERI AZIMU VELO AIN AR TRES W  DIS CAZ7
 BAR2 SZ EP        846 18.12                             170   -0.1910 24.5 184 
 BAR2 SZ ES        846 33.53                             170    0.3110 24.5 184 
 BAR2 SZ I         846 35.99        15.2 0.48            168           24.5 184 
 BRR  HZ IP     C  846 19.98                             153    0.2810 68.5 298 
 BRR  HN ES   2    846 35.61                             153   -0.10 5 68.5 298 
 BRR  HZ I         846 42.22         7.0 0.28            150           68.5 298 
 RUS  HZ EP        846 22.46                             143   -0.1610  102 175 
 RUS  HN ES        846 40.97                             143    0.0710  102 175 
 RUS  HZ I         846 43.60         9.4 0.36            147            102 175 
 PTB  HZ EP        846 25.17                             132   -0.44 9  146 258 
 PTB  HN ES        846 45.48                             132   -0.75 9  146 258 
 PTB  HZ I         846 53.53        12.9 0.48            132            146 258 
 OCA  HZ EP        846 27.48                             129    0.48 9  159 354 
 OCA  HN ES        846 48.83                             129    0.14 9  159 354 
 OCA  HZ I         846 52.11         5.3 0.14            132            159 354 
 SPBC HZ EP        846 27.12                             128   -0.20 9  163 218 
 SPBC HN ES        846 49.01                             128   -0.25 9  163 218 
 SPBC HZ I         846 53.15        15.6 0.26            130            163 218 
 ZAR  HZ EP        846 30.87                             122   -0.20 9  201 292 
 ZAR  HN ES        846 56.69                             122    0.75 9  201 292 
 ZAR  HZ I         847  3.28         8.6 0.32            123            201 292 
 SML  HZ EP        846 35.00                             117   -0.32 8  241 336 
 SML  HE ES   2    847  4.18                             117    0.67 4  241 336 
 SML  HZ I         847  6.66        14.8 0.10            119            241 336 
 GUY2CHZ EP        846 43.46                             112    0.99 7  300 234 
 GUY2CHN ES   4    847 18.34                             112    2.10 0  300 234 
 GUY2CHZ I         847 24.98         4.1 0.34                           300 234 
 COD  HZ EP     D  846 47.30                             108    0.10 6  347 355 
 COD  HN ES        847 23.87                             108   -0.78 6  347 355 
 COD  HZ I         847 25.97         2.6 0.66            111            347 355 
 PRA  HZ EP        846 52.22                             106   -0.35 6  392 209 
 PRA  HN ES        847 34.83                             106    0.62 6  392 209 
 PRA  HZ I         847 42.49         3.1 0.38            108            392 209 
                                                                                
