 2010  923 0844 23.2 L   6.773 -73.089144.6  RSN  4 0.4 1.4LRSN                1
 GAP=230        0.62      14.5    26.9 11.7  0.3307E+03 -0.1544E+03 -0.6669E+02E
 Epicentro: LOS SANTOS - SANTANDER                                             3
 ACTION:UP  11-02-18 11:04 OP:tino STATUS:               ID:20100923084423 L   I
 2010-09-23-0840-16S.COL___122                                                 6
 STAT SP IPHASW D HRMM SECON CODA AMPLIT PERI AZIMU VELO SNR AR TRES W  DIS CAZ7
 BAR2 SZ EP   2    844 42.33                             171    -0.3 5   23 208 
 BAR2 SZ ES   2    844 57.49                             171    -0.3 5   23 208 
 BAR2 SZ I         844 58.90         8.5 0.44                            23 208 
 BTL  SZ EP   2    844 43.43                             170     0.7 5   25 309 
 BRR  HZ EP   2    844 44.34                             150    -0.3 5   78 298 
 BRR  HN ES   2    845  1.44                             150     0.1 5   78 298 
 BRR  HZ I         845  3.41         3.8 0.40                            78 298 
 RUS  HZ EP   1    844 46.49                             144    -0.1 7   97 180 
 RUS  HE ES   2    845  5.14                             144     0.3 5   97 180 
 RUS  HZ I         845  6.13         3.2 0.22                            97 180 
                                                                                
