 2010 1123 0842 20.1 L   6.750 -73.152153.6  RSN  4 0.0 1.3LRSN                1
 GAP=210        0.30       7.1    13.1  8.4  0.7791E+02 -0.7015E+02 -0.3662E+02E
 Epicentro: LOS SANTOS - SANTANDER                                             3
 ACTION:UP  10-12-17 16:54 OP:REBC STATUS:               ID:20101123084220 L   I
 2010-11-23-0841-21S.COL___132                                                 6
 STAT SP IPHASW D HRMM SECON CODA AMPLIT PERI AZIMU VELO SNR AR TRES W  DIS CAZ7
 BAR2 SZ EP   2    842 40.58                             173     0.0 5   18 191 
 BAR2 SZ I         843  0.88         7.0 0.76                            18 191 
 BTL  SZ EP        842 40.72                             171     0.010   23 326 
 BRR  HZ EP   1    842 42.23                             153     0.0 7   73 303 
 BRR  HN ES   2    842 59.56                             153     0.0 5   73 303 
 BRR  HZ I         843  3.22         5.5 0.17                            73 303 
 RUS  HZ EP   2    842 44.39                             147     0.1 5   95 175 
 RUS  HE ES   2    843  3.11                             147     0.0 5   95 175 
 RUS  HZ I         843  5.82         1.4 0.30                            95 175 
                                                                                
