 2012  723 0140 12.3 L   6.740 -73.172147.3  RSN  6 0.3 1.9LRSN                1
 GAP=158        0.72       8.1     5.0  6.1  0.2174E+02 -0.3280E+01 -0.8257E+01E
 Epicentro: VILLANUEVA - SANTANDER                                             3
 ACTION:UPD 12-08-14 11:46 OP:ep   STATUS:               ID:20120723014012 L   I
 2012-07-23-0140-00M.COL___215                                                 6
 STAT SP IPHASW D HRMM SECON CODA AMPLIT PERI AZIMU VELO AIN AR TRES W  DIS CAZ7
 BAR2 SZ EP        140 32.02                             174     0.010   16 184 
 BAR2 SZ ES   1    140 46.78                             174    -0.6 7   16 184 
 BAR2 SZ I         140 48.79        24.2 0.22            170             16 184 
 BRR  HZ IP     D  140 33.89                             152     0.210   72 304 
 BRR  HZ I         140 34.09        32.4 0.12            153             72 304 
 BRR  HE ES   1    140 50.79                             152     0.4 7   72 304 
 RUS  HZ EP   2    140 35.79                             146     0.0 5   94 174 
 RUS  HN ES   2    140 54.67                             146     0.6 5   94 174 
 RUS  HZ I         140 55.88         7.2 0.40            144             94 174 
 PTB  HZ EP        140 38.96                             133    -0.1 9  144 261 
 PTB  HN ES   2    140 59.85                             133    -0.1 5  144 261 
 PTB  HZ I         141  1.85         3.7 0.14            133            144 261 
 TAM  HZ EP        140 40.23                             130     0.0 9  156 102 
 TAM  HZ I         140 40.49        10.5 0.34            132            156 102 
 ZAR  HZ EP        140 44.98                             123     0.1 9  204 294 
 ZAR  HN ES   2    141  9.66                             123    -0.6 4  204 294 
