 2012 1123 0339 15.1 L   6.800 -73.196143.6  RSN  5 0.2 1.2LRSN                1
 GAP=130        0.43       4.4     3.5  5.5 -0.9451E+00  0.1487E+01 -0.9781E+01E
 Epicentro: ZAPATOCA - SANTANDER                                               3
 ACTION:UPD 12-12-05 15:35 OP:}ep  STATUS:               ID:20121123033915 L   I
 2012-11-23-0337-37M.COL___206                                                 6
 STAT SP IPHASW D HRMM SECON CODA AMPLIT PERI AZIMU VELO AIN AR TRES W  DIS CAZ7
 BAR2 SZ EP        339 34.25                             170   -0.1710 23.0 176 
 BAR2 SZ ES   1    339 49.64                             170    0.12 7 23.0 176 
 GIR2 SZ EP   1    339 34.44                             167   -0.02 7 30.9   1 
 GIR2 SZ I         339 52.73         2.7 0.38                          30.9   1 
 PAM  SZ EP   1    339 37.33                             149    0.06 7 81.1  43 
 RUS  HZ EP   1    339 38.52                             143   -0.11 7  101 173 
 RUS  HN ES   1    339 57.11                             143    0.09 7  101 173 
 RUS  HZ I         339 58.29         3.2 0.30                           101 173 
 PTB  HZ EP   1    339 41.74                             133    0.39 7  142 258 
 PTB  HN ES   1    340  1.66                             133   -0.20 7  142 258 
 PTB  HZ I         340  8.05         1.6 0.17                           142 258 
                                                                                
