 2016  823 0932 15.2 L   6.779 -73.124152.0  RSN  5 0.3 1.4LRSN                1
 GAP=238        0.83       5.1     5.5  6.1  0.6033E+01  0.3267E+01  0.2095E+01E
 Epicentro: LOS SANTOS - SANTANDER                                             3
 ACTION:UPD 16-10-29 15:38 OP:rebc STATUS:               ID:20160823093215 L   I
 OLDACT:REG 16-08-23 19:01 OP:ak   STATUS:               ID:20160823092932     3
 2016-08-23-0930-00M.COL___368                                                 6
 STAT SP IPHASW D HRMM SECON CODA AMPLIT PERI AZIMU VELO AIN AR TRES W  DIS CAZ7
 BAR2 EZ EP        932 35.35                             172   -0.1710 21.6 197 
 BAR2 EZ ES        932 50.94                             172   -0.4510 21.6 197 
 BAR2 EZ I         932 53.10         7.8 0.32                          21.6 197 
 BRR  HZ EP        932 37.41                             153    0.2410 74.4 299 
 BRR  HN ES        932 54.79                             153    0.4510 74.4 299 
 RUS  HZ EP        932 39.53                             146    0.1610 98.1 177 
 RUS  HN ES        932 58.36                             146    0.1110 98.1 177 
 RUS  HZ I         933  0.62         1.3 0.15                          98.1 177 
 PTB  HZ EP        932 42.24                             133   -0.58 9  150 260 
 PTB  HE ES        933  4.18                             133   -0.21 9  150 260 
 PTB  HZ I         933 10.57         7.5 0.38                           150 260 
 SPBC HZ EP        932 44.36                             130    0.23 9  163 220 
 SPBC HN ES        933  6.90                             130    0.19 9  163 220 
                                                                                
