 2011  923 0733 26.9 L   6.798 -73.125129.6  RSN  7 0.2 1.5LRSN                1
 GAP=139        0.47       3.2     4.6  4.4 -0.2557E+01  0.5454E+01 -0.4157E+01E
 Epicentro: LOS SANTOS - SANTANDER                                             3
 ACTION:UPD 12-07-13 15:59 OP:ep   STATUS:               ID:20110923073326 L   I
 2011-09-23-0720-00M.COL___167                                                 6
 STAT SP IPHASW D HRMM SECON CODA AMPLIT PERI AZIMU VELO AIN AR TRES W  DIS CAZ7
 BTL  SZ EP   1    733 44.67                             170    0.12 7 20.7 310 
 BAR2 SZ EP   1    733 44.29                             169   -0.32 7 23.6 196 
 BAR2 SZ ES   1    733 58.40                             169   -0.01 7 23.6 196 
 BAR2 SZ I         734  0.89         8.2 0.11                          23.6 196 
 BRR  HN ES   2    734  1.49                             148   -0.24 5 73.4 298 
 PAM  SZ EP        733 47.33                             148   -0.0210 76.1  38 
 PAM  SZ I         733 47.78         4.1 0.16                          76.1  38 
 PAM  SN ES   1    734  3.53                             148    0.24 7 76.1  38 
 RUS  HZ EP   1    733 49.00                             140   -0.08 7  100 177 
 RUS  HE ES   2    734  6.58                             140    0.21 5  100 177 
 RUS  HZ I         734  8.90         2.2 0.28                           100 177 
 OCA  SZ EP        733 53.92                             126   -0.16 9  161 352 
 OCA  SZ I         734 21.34         6.0 0.52                           161 352 
 ZAR  HZ EP   1    733 59.08                             118    0.48 6  206 292 
 ZAR  HZ I         734 29.93         5.3 0.25                           206 292 
                                                                                
