 2016  823 0347 21.1 L   6.880 -73.296125.8  RSN 19 0.6 2.0LRSN                1
 GAP= 52        1.18       2.9     2.9  5.6 -0.1882E+01  0.2262E+01  0.3504E+00E
 Epicentro: BETULIA - SANTANDER                                                3
 ACTION:UPD 16-10-29 15:38 OP:rebc STATUS:               ID:20160823034721 L   I
 OLDACT:REG 16-08-23 14:40 OP:ak   STATUS:               ID:20160823033736     3
 2016-08-23-0338-00M.COL___371                                                 6
 STAT SP IPHASW D HRMM SECON CODA AMPLIT PERI AZIMU VELO AIN AR TRES W  DIS CAZ7
 BAR2 EZ IP     C  347 38.95                             164    0.2510 34.2 158 
 BAR2 EZ ES        347 52.50                             164    0.1110 34.2 158 
 BAR2 EZ I         347 53.23        73.2 0.38                          34.2 158 
 BRR  HZ IP     C  347 39.34                             156    0.2310 52.3 299 
 BRR  HN ES        347 53.24                             156    0.1310 52.3 299 
 BRR  HZ I         347 54.26        30.9 0.12                          52.3 299 
 PAM  EZ EP        347 41.89                             144    0.2010 83.3  52 
 PAM  EN ES        347 58.39                             144    0.6810 83.3  52 
 PAM  EZ I         348  2.03        20.0 0.36                          83.3  52 
 RUS  HZ EP   2    347 44.50                             136    0.59 5  112 168 
 RUS  HN ES        348  0.67                             136   -0.9910  112 168 
 RUS  HZ I         348  2.62        13.4 0.24                           112 168 
 PTB  HZ EP        347 44.26                             130   -0.9610  134 254 
 PTB  HN ES   4    348  2.33                             130   -1.67 0  134 254 
 PTB  HZ I         348  6.73        14.9 0.21                           134 254 
 OCA  HZ EP        347 46.96                             126   -0.04 9  150 359 
 OCA  HN ES        348  6.75                             126   -0.42 9  150 359 
 SPBC HZ EP        347 47.33                             125   -0.61 9  161 212 
 SPBC HN ES        348  8.22                             125   -0.62 9  161 212 
 SPBC HZ I         348 11.58        13.7 0.08                           161 212 
 TAM  HZ EP        347 49.89                             122    0.70 9  174 106 
 TAM  HE ES        348 11.53                             122    0.46 9  174 106 
 TAM  HZ I         348 12.14        13.8 0.19                           174 106 
 ZAR  HZ EP        347 50.67                             120    0.29 9  185 292 
 ZAR  HN ES        348 13.46                             120    0.29 9  185 292 
 ZAR  HZ I         348 17.48        22.6 0.34                           185 292 
 NOR  HZ EP   2    347 55.03                             115    0.10 4  227 230 
 NOR  HE ES        348 20.77                             115   -0.52 8  227 230 
 NOR  HZ I         348 25.86         5.8 0.27                           227 230 
 CHI  HZ EP        347 58.85                             112    0.48 8  253 191 
 CHI  HN ES        348 26.86                             112   -0.54 8  253 191 
 CHI  HZ I         348 34.85         3.8 0.29                           253 191 
 HEL  HZ EP   4    348  0.49                             112    1.62 0  258 253 
 HEL  HN ES        348 29.17                             112    0.88 8  258 253 
 HEL  HZ I         348 33.37         7.0 0.46                           258 253 
 URE  HZ EP   2    347 59.75                             111    0.57 4  265 291 
 GUY2CHZ EP   9    348  5.47                             109    2.49 0  293 231 
 GUY2CHN ES        348 37.60                                   -0.50 7  293 231 
 GUY2CHZ I         348 42.80         4.0 0.50                           293 231 
 SOCV BZ EP        348  4.62                             107    0.15 7  311  60 
 SOCV BN ES        348 37.48                             107   -0.78 7  311  60 
 CBOC HZ EP   2    348  6.30                             107    0.49 3  321 250 
 CBOC HN ES        348 40.87                             107    0.23 7  321 250 
 CBOC HZ I         348 45.11         1.8 0.42                           321 250 
 PRA  HZ EP   2    348 14.81                             103    0.77 3  392 207 
 PRA  HN ES        348 56.07                             103    0.78 6  392 207 
 PRA  HZ I         349  3.43         2.8 0.24                           392 207 
 SJC  HZ EP   1    348 13.16                             103   -1.01 4  393 328 
 SJC  HE ES   4    348 52.92                             103   -2.61 0  393 328 
 SJC  HZ I         349  4.53         2.4 0.45                           393 328 
 CRJC HZ EP   2    348 21.30                             100   -0.96 2  460   6 
 CRJC HN ES   2    349  8.88                             100   -1.04 2  460   6 
 CRJC HZ I         349 15.37         5.0 0.23                           460   6 
                                                                                
