 2015 1123 0949 24.0 L   6.800 -73.054146.2  RSN  6 0.5 1.7LRSN                1
 GAP=149        1.32       4.9     9.2  8.3  0.1907E+01  0.1828E+02 -0.2008E+00E
 Epicentro: LOS SANTOS - SANTANDER                                             3
 ACTION:UPD 15-12-28 16:13 OP:cam  STATUS:               ID:20151123093742 L   I
 OLDACT:UPD 15-11-23 14:49 OP:Mher STATUS:               ID:20151123093742 L   3
 2015-11-23-0937-42M.COL___205                                                 6
 STAT SP IPHASW D HRMM SECON CODA AMPLIT PERI AZIMU VELO AIN AR TRES W  DIS CAZ7
 BAR2 EZ EP        949 43.55                             169   -0.2010 27.0 212 
 BAR2 EZ ES        949 59.59                             169    0.4310 27.0 212 
 BAR2 EZ I         950  0.87         6.9 0.38            168           27.0 212 
 PAM  EZ EP        949 46.51                             153    0.6110 71.4  33 
 PAM  EN ES        950  2.20                             153   -0.8010 71.4  33 
 PAM  EZ I         950  6.27         4.7 0.56            156           71.4  33 
 BRR  HN EP        949 45.84                             149    0.1210 80.3 295 
 BRR  HE ES        950  3.20                             149    0.5310 80.3 295 
 BRR  HN I         950  7.66        17.9 0.24            149           80.3 295 
 RUS  HE EP        949 48.43                             144    0.6710  100 182 
 RUS  HZ ES        950  5.59                             144   -0.7210  100 182 
 RUS  HE I         950  9.62         8.8 0.78            146            100 182 
 SML  HZ EP        950  0.81                             117   -0.30 8  248 333 
 SML  HE ES        950 29.57                             117   -0.51 8  248 333 
 SML  HZ I         950 33.80         6.6 0.10            119            248 333 
 PRA  HZ EP        950 18.41                             106    0.30 6  397 211 
 PRA  HN ES        950 59.62                             106   -0.71 6  397 211 
 PRA  HZ I         951  3.25         1.5 0.26            108            397 211 
                                                                                
