 2014  623 0607 47.6 L   6.775 -73.147143.0  RSN  9 0.5 1.6LRSN                1
 GAP=183        1.14       4.0     6.3  8.4 -0.5348E+01  0.5332E+01 -0.8179E+01E
 Epicentro: LOS SANTOS - SANTANDER                                             3
 ACTION:UPD 14-07-01 22:56 OP:nd   STATUS:               ID:20140623060747 L   I
 OLDACT:UP  14-06-23 17:48 OP:spq  STATUS:               ID:20140623055815d    3
 OLDACT:DUP 14-06-23 17:38 OP:spq  STATUS:               ID:20140623055815d    3
 2014-06-23-0558-14M.COL___259                                                 6
 STAT SP IPHASW D HRMM SECON CODA AMPLIT PERI AZIMU VELO AIN AR TRES W  DIS CAZ7
 BAR2 SZ EP        6 8  7.04                             171    0.2110 20.6 191 
 BAR2 SZ ES   1    6 8 21.55                             171   -0.28 7 20.6 191 
 BAR2 SZ I         6 8 23.74        10.2 0.14            169           20.6 191 
 BRR  HZ IP     C  6 8  9.07                             152    0.5710 72.4 300 
 BRR  HN ES        6 8 25.64                             152    0.8210 72.4 300 
 BRR  HZ I         6 8 29.28        10.3 0.32            150           72.4 300 
 RUS  HZ EP   1    6 8 10.93                             144    0.06 7 97.9 176 
 RUS  HN ES   1    6 8 28.27                             144   -0.75 7 97.9 176 
 RUS  HZ I         6 8 30.83         3.4 0.22            146           97.9 176 
 PTB  HZ EP        6 8 14.00                             132   -0.27 9  147 260 
 PTB  HN ES        6 8 34.75                             132   -0.33 9  147 260 
 PTB  HZ I         6 8 37.32         5.4 0.13            131            147 260 
 SPBC HE ES        6 8 37.42                             129   -0.14 9  161 220 
 SPBC HZ I         6 8 45.33         3.8 0.34            129            161 220 
 OCA  HZ EP        6 8 16.55                             128    0.62 9  163 353 
 OCA  HN ES        6 8 37.68                             128   -0.37 9  163 353 
 OCA  HZ I         6 8 40.58         4.9 0.22            130            163 353 
 SML  HZ EP        6 8 24.04                             117   -0.28 8  246 336 
 SML  HN ES        6 8 52.14                             117   -0.83 8  246 336 
 SML  HZ I         6 8 56.75         5.2 0.28            118            246 336 
 HEL  HE ES   1    6 8 58.47                             114   -0.29 6  271 256 
 HEL  HZ I         6 9  5.59         1.9 0.40            115            271 256 
 GUY2CHN ES   1    6 9  5.25                             112    0.60 5  300 235 
 GUY2CHZ I         6 9 12.23         1.0 0.20                           300 235 
                                                                                
