 2016  323 0908  6.1 L   6.777 -73.117152.1  RSN  7 0.5 1.5LRSN                1
 GAP=186        1.22       4.4     6.8  9.2  0.3510E+01  0.1535E+02 -0.3136E+01E
 Epicentro: LOS SANTOS - SANTANDER                                             3
 ACTION:UPD 16-05-13 21:26 OP:cam  STATUS:               ID:20160323090806 L   I
 OLDACT:UP  16-03-23 17:30 OP:ak   STATUS:               ID:20160323090746     3
 OLDACT:REG 16-03-23 13:14 OP:ak   STATUS:               ID:20160323090746     3
 2016-03-23-0907-46M.COL___300                                                 6
 STAT SP IPHASW D HRMM SECON CODA AMPLIT PERI AZIMU VELO AIN AR TRES W  DIS CAZ7
 BAR2 EZ EP        9 8 26.98                             172    0.4910 21.6 200 
 BAR2 EZ ES        9 8 42.73                             172    0.3610 21.6 200 
 BAR2 EZ I         9 8 43.53         5.1 0.22            177           21.6 200 
 RUS  HZ EP        9 8 29.80                             146   -0.5210 97.8 178 
 RUS  HE ES        9 8 48.58                             146   -0.6010 97.8 178 
 RUS  HZ I         9 8 50.86         3.1 0.42            144           97.8 178 
 PTB  HZ EP        9 8 33.45                             133   -0.41 9  150 260 
 PTB  HN ES        9 8 54.74                             133   -0.74 9  150 260 
 PTB  HZ I         9 9  0.80         3.3 0.17            128            150 260 
 OCA  HZ EP   2    9 8 35.01                             130   -0.20 5  163 352 
 OCA  HN ES        9 8 57.95                             130    0.05 9  163 352 
 OCA  HZ I         9 9  2.19         6.5 0.14            121            163 352 
 SPBC HZ EP        9 8 35.83                             130    0.70 9  163 220 
 SPBC HN ES        9 8 58.59                             130    0.85 9  163 220 
 SPBC HZ I         9 9  5.78         5.0 0.30            127            163 220 
 ZAR  HZ EP        9 8 39.39                             123   -0.01 8  208 292 
 ZAR  HN ES        9 9  5.41                             123    0.07 8  208 292 
 ZAR  HZ I         9 9 11.35         2.7 0.16            117            208 292 
 CHI  HN ES        9 9 13.44                             119   -0.12 8  247 196 
 MON  HZ EP   4    9 8 54.10                             109   -1.76 0  358 308 
 MON  HE ES   4    9 9 32.03                             109   -2.61 0  358 308 
 SJC  HN ES   4    9 9 41.69                             106   -4.53 0  413 327 
                                                                                
