 2017  723 0109 15.8 L   6.808 -73.160145.7  RSN 18 0.5 2.7LRSN                1
 GAP= 64        1.20       3.4     3.0  5.8 -0.1409E+00  0.3884E+01  0.5599E+00E
 Epicentro: LOS SANTOS - SANTANDER                                             3
 ACTION:UPD 17-08-30 15:35 OP:rebc STATUS:               ID:20170723010915 L   I
 OLDACT:REG 17-07-23 14:02 OP:lv   STATUS:               ID:20170723010737     3
 2017-07-23-0108-00M.COL___392                                                 6
 STAT SP IPHASW D HRMM SECON CODA AMPLIT PERI AZIMU VELO AIN AR TRES W  DIS CAZ7
 BAR2 EZ IP     D  1 9 35.38                             170   -0.0710 24.0 186 
 BAR2 EZ ES        1 9 50.25                             170   -0.5110 24.0 186 
 BAR2 EZ I         1 9 51.72       109.4 0.31            171           24.0 186 
 BRR  HZ IP     D  1 9 37.28                             153    0.4310 69.3 298 
 BRR  HN ES        1 9 54.26                             153    1.0010 69.3 298 
 BRR  HZ I         1 9 57.63        64.1 0.27            152           69.3 298 
 PAM  EZ EP        1 9 38.32                             151    0.2810 77.7  41 
 PAM  EN ES        1 9 55.58                             151    0.2110 77.7  41 
 PAM  EZ I         1 9 57.86       137.1 0.56            152           77.7  41 
 RUS  HZ EP        1 9 39.38                             144   -0.2510  102 175 
 RUS  HN ES        1 9 58.49                             144    0.2810  102 175 
 RUS  HZ I         1 9 59.25        46.0 0.29            145            102 175 
 PTB  HZ EP        1 9 42.16                             132   -0.49 9  146 258 
 PTB  HN ES        110  3.20                             132   -0.38 9  146 258 
 TAM  HZ IP     D  1 9 43.78                             130    0.13 9  157 105 
 TAM  HN ES        110  4.80                             130   -0.56 9  157 105 
 SPBC HZ EP        1 9 44.34                             129    0.06 9  163 218 
 SPBC HN ES        110  5.75                             129   -0.73 9  163 218 
 SPBC HZ I         110  9.05        58.0 0.14            130            163 218 
 YPLC HZ IP     D  1 9 45.78                             126    0.02 9  178 151 
 YPLC HN ES        110  9.80                             126    0.69 9  178 151 
 YPLC HZ I         110 10.88       217.6 0.04            128            178 151 
 ZAR  HZ EP        1 9 47.97                             123   -0.09 9  202 292 
 ZAR  HN ES        110 12.31                             123   -0.91 9  202 292 
 ZAR  HZ I         110 19.54        45.5 0.17            123            202 292 
 NOR  HZ EP        1 9 51.47                             119    0.02 8  234 234 
 NOR  HN ES        110 19.04                             119   -0.21 8  234 234 
 NOR  HZ I         110 25.15        30.2 0.16            119            234 234 
 HEL  HZ EP   4    1 9 57.85                             115    1.98 0  271 256 
 HEL  HN ES        110 27.63                             115    0.51 8  271 256 
 GUY2CHZ EP   4    110  0.84                             112    1.51 0  300 234 
 GUY2CHN ES        110 33.00                             112   -0.27 7  300 234 
 PTGC HZ EP   9    1 9 58.56                             111   -1.27 0  310 158 
 PTGC HN ES        110 31.78                                   -1.11 7  310 158 
 PTGC HZ I         110 34.81        28.4 0.11            113            310 158 
 LL6C HZ EP        110  0.74                             110   -0.66 7  324 358 
 LL6C HN ES   4    110 35.54                             110   -1.41 0  324 358 
 LL6C HZ I         110 41.12        11.4 0.35            111            324 358 
 CBOC HZ EP   4    110  3.83                             110    1.25 0  332 252 
 CBOC HN ES        110 40.00                             110    0.94 7  332 252 
 DBB  EN ES   4    110 36.63                             110   -3.34 0  338 274 
 ARGC HZ EP   4    110  8.02                             108    2.72 0  358 341 
 ARGC HN ES        110 44.30                             108    0.40 6  358 341 
 ORTC HZ EP        110  9.68                             106   -0.03 6  395 216 
 ORTC HN ES        110 52.26                             106    0.52 6  395 216 
 ORTC HZ I         110 58.61        11.5 0.27            107            395 216 
 MACC HZ EP   4    110 22.31                             102   -2.29 0  521 188 
 MACC HN ES   4    111 11.70                             102   -6.56 0  521 188 
 MACC HZ I         111 23.09         4.2 0.32            102            521 188 
                                                                                
