 2014  423 0135  2.5 L   6.762 -73.164138.7  RSN  4 0.3 1.4LRSN                1
 GAP=136        0.62       4.1     3.3  7.9  0.3679E+00  0.8160E+01 -0.4378E+01E
 Epicentro: LOS SANTOS - SANTANDER                                             3
 OLDACT:DUP 14-04-23 14:09 OP:fm   STATUS:               ID:20140423012811d    3
 ACTION:UPD 14-05-13 23:10 OP:nd   STATUS:               ID:20140423013502 L   I
 OLDACT:UP  14-04-23 14:13 OP:fm   STATUS:               ID:20140423012811d    3
 2014-04-23-0128-10M.COL___239                                                 6
 STAT SP IPHASW D HRMM SECON CODA AMPLIT PERI AZIMU VELO AIN AR TRES W  DIS CAZ7
 PAM  SZ EP   1    135 23.75                             148   -0.53 8 81.9  39 
 PAM  SN ES   1    135 41.52                             148    0.27 8 81.9  39 
 PAM  SZ I         135 45.57         5.6 0.50            159           81.9  39 
 RUS  HZ EP   1    135 25.54                             143    0.24 8 96.6 175 
 RUS  HN ES   1    135 42.97                             143   -0.09 8 96.6 175 
 RUS  SZ I         135 53.77         2.8 0.84            148           96.6 175 
 PTB  HZ EP   1    135 28.51                             131   -0.16 7  145 260 
 PTB  HN ES        135 49.06                             131   -0.0110  145 260 
 PTB  SZ I         135 53.68         3.8 0.58            138            145 260 
 ZAR  HZ EP   1    135 35.04                             121    0.55 7  204 293 
 ZAR  HN ES        135 59.32                             121   -0.11 9  204 293 
 ZAR  SZ I         136  4.59         3.9 0.30            130            204 293 
                                                                                
