 2013  123 0742  7.3 L   6.711 -73.211143.8  RSN  3 0.4 1.4LRSN                1
 GAP=218        1.03      13.4     8.0  9.5  0.9480E+01  0.1503E+02  0.1658E+02E
 Epicentro: VILLANUEVA - SANTANDER                                             3
 ACTION:UPD 13-02-15 09:16 OP:ep   STATUS:               ID:20130123074207 L   I
 2013-01-23-0738-44M.COL___183                                                 6
 STAT SP IPHASW D HRMM SECON CODA AMPLIT PERI AZIMU VELO AIN AR TRES W  DIS CAZ7
 BAR2 SZ EP        742 27.23                             174    0.6610 13.5 166 
 BAR2 SZ ES        742 41.20                             174   -0.3710 13.5 166 
 BAR2 SZ I         742 42.46         4.7 0.18            168           13.5 166 
 BRR  HZ EP        742 28.10                             152   -0.1410 70.6 308 
 BRR  HN ES        742 44.62                             152    0.0810 70.6 308 
 BRR  HN I         742 45.96         4.3 0.18            151           70.6 308 
 PTB  HZ EP        742 32.81                             133   -0.55 9  139 262 
 PTB  HN ES        742 53.95                             133    0.30 9  139 262 
 PTB  HN I         742 59.70         6.2 0.26            131            139 262 
                                                                                
