 2017 1123 0848 46.8 L   6.788 -73.171140.1  RSN  4 0.2 1.1LRSN                1
 GAP=242        0.46       4.6     3.5  4.4  0.1054E+02  0.2005E+01 -0.3055E+01E
 Epicentro: LOS SANTOS - SANTANDER                                             3
 ACTION:UPD 17-12-12 19:59 OP:rebc STATUS:               ID:20171123084846 L   I
 OLDACT:REG 17-11-23 13:21 OP:osc  STATUS:               ID:20171123084738     3
 2017-11-23-0848-00M.COL___465                                                 6
 STAT SP IPHASW D HRMM SECON CODA AMPLIT PERI AZIMU VELO AIN AR TRES W  DIS CAZ7
 BAR2 EZ EP        849  5.59                             171   -0.0810 21.7 183 
 BAR2 EZ ES        849 20.59                             171    0.1610 21.7 183 
 BAR2 EZ I         849 22.24         5.8 0.24            169           21.7 183 
 RUS  HZ EP        849  9.94                             143    0.0710 99.5 174 
 RUS  HN ES        849 27.70                             143   -0.2010 99.5 174 
 RUS  HZ I         849 28.63         1.8 0.26            144           99.5 174 
 PTB  HZ EP        849 13.15                             131    0.16 9  145 259 
 PTB  HN ES        849 33.54                             131    0.09 9  145 259 
 PTB  HZ I         849 36.45         1.0 0.30            132            145 259 
 ZAR  HN ES        849 43.24                             121   -0.23 9  202 293 
                                                                                
