 2013  123 0226  2.2 L   6.777 -73.172142.5  RSN  6 0.5 1.6LRSN                1
 GAP=134        1.19       5.9     6.1  8.0 -0.2668E+01  0.5927E+01  0.9346E+01E
 Epicentro: LOS SANTOS - SANTANDER                                             3
 ACTION:UPD 13-02-15 09:16 OP:ep   STATUS:               ID:20130123022602 L   I
 2013-01-23-0218-40M.COL___183                                                 6
 STAT SP IPHASW D HRMM SECON CODA AMPLIT PERI AZIMU VELO AIN AR TRES W  DIS CAZ7
 BAR2 SZ ES        226 36.35                             171    0.0110 20.5 183 
 BAR2 SZ I         226 36.94         9.8 0.22            171           20.5 183 
 BRR  HZ EP        226 23.35                             152    0.4310 69.9 301 
 BRR  HN ES        226 39.93                             152    0.8510 69.9 301 
 BRR  HE I         226 40.63        12.4 0.20            153           69.9 301 
 PAM  SZ EP        226 24.22                             149   -0.0810 81.2  40 
 PAM  SZ I         226 24.40         4.4 0.28            150           81.2  40 
 PAM  SN ES        226 41.01                             149   -0.5310 81.2  40 
 RUS  HZ EP        226 25.44                             144   -0.0210 98.3 174 
 RUS  HN ES        226 43.69                             144    0.0810 98.3 174 
 RUS  HN I         226 44.93         6.0 0.28            144           98.3 174 
 PTB  HZ EP        226 28.36                             132   -0.23 9  144 260 
 PTB  HN ES        226 48.31                             132   -0.87 9  144 260 
 CHI  HZ EP        226 39.73                             117    0.37 8  245 195 
                                                                                
