 2016 1023 0938 11.0 L   6.808 -73.129153.4  RSN  6 0.3 1.1LRSN                1
 GAP=138        0.81       4.2     4.4  6.2 -0.5570E+01  0.5021E+01 -0.1443E+01E
 Epicentro: LOS SANTOS - SANTANDER                                             3
 ACTION:UPD 16-11-09 19:22 OP:rebc STATUS:               ID:20161023093811 L   I
 OLDACT:REG 16-10-23 13:23 OP:and  STATUS:               ID:20161023092743     3
 2016-10-23-0928-00M.COL___353                                                 6
 STAT SP IPHASW D HRMM SECON CODA AMPLIT PERI AZIMU VELO AIN AR TRES W  DIS CAZ7
 BAR2 EZ EP        938 31.54                             171   -0.0710 24.6 194 
 BAR2 EZ ES        938 47.36                             171   -0.2910 24.6 194 
 BAR2 EZ I         938 49.22         3.6 0.35            169           24.6 194 
 BRR  HZ EP        938 33.31                             153    0.2410 72.3 297 
 BRR  HN ES        938 50.79                             153    0.5210 72.3 297 
 PAM  EZ IP     C  938 34.00                             153    0.0410 75.5  39 
 PAM  EN ES        938 51.73                             153   -0.1110 75.5  39 
 PAM  EZ I         938 53.04         1.6 0.26            155           75.5  39 
 RUS  HZ EP   2    938 35.67                             145    0.07 5  101 177 
 RUS  HE ES        938 54.76                             145   -0.0010  101 177 
 RUS  HZ I         938 55.21         1.3 0.21            145            101 177 
 PTB  HZ EP        938 38.57                             133   -0.23 9  150 259 
 PTB  HN ES        938 59.87                             133   -0.60 9  150 259 
 PTB  HZ I         939  2.99         1.8 0.18            133            150 259 
 SPBC HZ EP   4    938 41.85                             130    1.55 0  165 219 
 SPBC HN ES        939  3.57                             130    0.44 9  165 219 
 SPBC HZ I         939  7.25         2.4 0.15            131            165 219 
                                                                                
