 2010 1023 0620 16.6 L   6.882 -73.327112.3  RSN  8 0.4 1.7LRSN                1
 GAP=107        1.03       6.8     8.7 10.7 -0.1657E+01  0.1061E+02  0.2160E+02E
 Epicentro: BETULIA - SANTANDER                                                3
 ACTION:UP  11-02-18 11:11 OP:tino STATUS:               ID:20101023062016 L   I
 2010-10-23-0617-44S.COL___127                                                 6
 STAT SP IPHASW D HRMM SECON CODA AMPLIT PERI AZIMU VELO SNR AR TRES W  DIS CAZ7
 BTL  SZ EP        620 31.29                             176    -0.710    8  59 
 GIR2 SZ EP        620 32.64                             166     0.510   26  34 
 BRR  HZ EP        620 32.92                             154     0.010   49 300 
 BRR  HN ES   1    620 45.77                             154     0.1 7   49 300 
 BRR  HZ I         620 47.42        26.2 0.08                            49 300 
 RUS  HZ EP   1    620 38.01                             132    -0.3 7  113 166 
 RUS  HZ I         620 38.81         7.6 0.07                           113 166 
 RUS  HE ES   2    620 55.58                             132     0.3 5  113 166 
 OCA  SZ EP   1    620 41.61                             122     0.1 7  150   0 
 OCA  SZ I         621  6.09        14.4 0.25                           150   0 
 NOR  SZ EP   1    620 49.02                             111    -0.5 6  225 230 
 NOR  SN ES   2    621 14.99                             111    -0.1 4  225 230 
 NOR  SZ I         621 17.38         1.9 0.16                           225 230 
 CHI  HZ EP   2    620 53.98                             109     0.8 4  253 190 
 CHI  HZ I         621 26.25         2.7 0.40                           253 190 
 HEL  HZ EP   1    620 53.91                             108     0.5 6  255 253 
 HEL  HZ I         621 25.56         7.2 0.17                           255 253 
                                                                                
