 2017 1123 0946  2.1 L   6.853 -73.126138.6  RSN 13 0.6 1.7LRSN                1
 GAP= 70        1.39       4.4     5.1  8.5 -0.1591E+01  0.1225E+02  0.6678E+01E
 Epicentro: LOS SANTOS - SANTANDER                                             3
 ACTION:UPD 17-12-12 19:59 OP:rebc STATUS:               ID:20171123094602 L   I
 OLDACT:UP  17-11-23 15:37 OP:dani STATUS:               ID:20171123093746d    3
 OLDACT:DUP 17-11-23 15:32 OP:dani STATUS:               ID:20171123093746d    3
 OLDACT:UP  17-11-23 15:31 OP:dani STATUS:               ID:20171123093745     3
 OLDACT:UP  17-11-23 15:30 OP:dani STATUS:               ID:20171123093745     3
 OLDACT:UP  17-11-23 15:30 OP:dani STATUS:               ID:20171123093745     3
 OLDACT:REG 17-11-23 13:25 OP:osc  STATUS:               ID:20171123093745     3
 2017-11-23-0938-00M.COL___450                                                 6
 STAT SP IPHASW D HRMM SECON CODA AMPLIT PERI AZIMU VELO AIN AR TRES W  DIS CAZ7
 BAR2 EZ EP        946 20.86                             167   -0.2010 29.5 192 
 BAR2 EZ ES        946 35.41                             167   -0.4110 29.5 192 
 BAR2 EZ I         946 36.60        13.7 0.16            168           29.5 192 
 PAM  EZ EP        946 23.72                             151    0.4710 71.5  41 
 PAM  EN ES        946 40.05                             151    0.3410 71.5  41 
 PAM  EZ I         946 44.98         6.2 0.70            154           71.5  41 
 RUS  HZ EP        946 25.31                             141   -0.3210  106 177 
 RUS  HN ES        946 44.00                             141    0.0510  106 177 
 RUS  HZ I         946 45.12         3.0 0.30            143            106 177 
 PTB  HZ EP        946 27.92                             130   -0.93 9  151 257 
 PTB  HN ES        946 49.84                             130    0.16 9  151 257 
 PTB  HZ I         946 52.46         4.5 0.44            130            151 257 
 OCA  HN ES        946 50.64                             129    0.01 9  155 352 
 TAM  HZ EP        946 28.99                             129   -0.23 9  155 107 
 ZAR  HZ EP        946 34.10                             121   -0.02 9  204 290 
 ZAR  HE ES        947  0.12                             121    1.06 9  204 290 
 ZAR  HZ I         947  7.39         7.6 0.32            122            204 290 
 NOR  HZ EP        946 37.22                             116   -0.81 8  240 234 
 NOR  HE ES        947  5.42                             116   -0.60 8  240 234 
 NOR  HZ I         947  8.65         3.9 0.26            118            240 234 
 CHI  HN ES        947 10.34                             115    0.57 8  255 195 
 URE  HE ES   3    947 12.93                             112   -1.69 2  284 291 
 GUY2CHZ EP   3    946 47.47                             110    1.45 2  306 234 
 GUY2CHN ES   4    947 23.13                             110    2.89 0  306 234 
 GUY2CHZ I         947 26.29         2.4 0.32                           306 234 
 PRA  HZ EP        946 56.66                             105    0.51 6  398 209 
 PRA  HN ES        947 39.97                             105    1.70 6  398 209 
 PRA  HZ I         947 43.36         2.2 0.42            106            398 209 
 SJC  HZ EP   9    946 55.65                             105   -1.39 0  406 326 
 SJC  HN ES        947 36.77                              97   -1.70 6  406 326 
 SJC  HZ I         947 40.03         1.4 0.54            106            406 326 
                                                                                
