 2014  523 0854  0.9 L   6.678 -73.113136.1  RSN  5 0.5 1.3LRSN                1
 GAP=146        1.28       8.5     7.9 12.9 -0.7265E+01  0.4383E+02  0.2722E+01E
 Epicentro: JORDAN - SANTANDER                                                 3
 ACTION:UPD 15-03-16 17:00 OP:nd   STATUS:               ID:20140523085400 L   I
 OLDACT:DUP 14-05-23 18:25 OP:spq  STATUS:               ID:20140523084813d    3
 OLDACT:UP  14-05-23 18:24 OP:spq  STATUS:               ID:20140523084812     3
 OLDACT:UP  14-05-23 18:15 OP:spq  STATUS:               ID:20140523084812     3
 OLDACT:REG 14-05-23 13:19 OP:spq  STATUS:               ID:20140523084812     3
 2014-05-23-0848-12M.COL___252                                                 6
 STAT SP IPHASW D HRMM SECON CODA AMPLIT PERI AZIMU VELO AIN AR TRES W  DIS CAZ7
 BAR2 SZ EP        854 19.48                             175    0.3510 12.2 219 
 BAR2 SZ ES   1    854 34.07                             175    0.68 7 12.2 219 
 BAR2 SZ I         854 36.94         8.2 0.36            172           12.2 219 
 PAM  SN ES   1    854 39.07                             146   -0.54 7 86.3  32 
 RUS  HZ EP        854 23.36                             146    0.6910 86.9 178 
 RUS  HE ES        854 38.99                             146   -0.7010 86.9 178 
 RUS  HZ I         854 42.95         1.5 0.26            149           86.9 178 
 PTB  HZ EP        854 26.55                             129   -0.65 9  149 264 
 PTB  HN ES        854 47.91                             129    0.17 9  149 264 
 PTB  HZ I         854 51.90         2.9 0.10            132            149 264 
 GUY2CHE ES   1    855 16.80                             111    0.02 5  297 237 
                                                                                
