 2012 1123 0833 57.7 L   6.778 -73.162141.5  RSN  7 0.2 1.6LRSN                1
 GAP=135        0.47       2.5     2.9  4.1 -0.4683E-01  0.4358E+01  0.8169E+00E
 Epicentro: LOS SANTOS - SANTANDER                                             3
 ACTION:UPD 12-12-05 15:35 OP:}ep  STATUS:               ID:20121123083357 L   I
 2012-11-23-0830-00M.COL___233                                                 6
 STAT SP IPHASW D HRMM SECON CODA AMPLIT PERI AZIMU VELO AIN AR TRES W  DIS CAZ7
 BAR2 SZ EP   1    834 16.85                             171    0.09 7 20.6 186 
 BAR2 SZ ES   1    834 31.21                             171   -0.41 7 20.6 186 
 BAR2 SZ I         834 32.93        12.7 0.32                          20.6 186 
 GIR2 SZ EP   1    834 16.84                             166   -0.08 7 33.5 354 
 GIR2 SZ ES   1    834 32.34                             166    0.42 7 33.5 354 
 PAM  SZ EP   1    834 19.73                             149    0.08 7 80.5  39 
 PAM  SN ES   1    834 36.65                             149   -0.12 7 80.5  39 
 PAM  SZ I         834 38.80         8.5 0.50                          80.5  39 
 RUS  HZ EP   1    834 21.02                             144    0.16 7 98.3 175 
 RUS  HN ES   1    834 38.89                             144   -0.03 7 98.3 175 
 RUS  HZ I         834 40.68         2.7 0.28                          98.3 175 
 PTB  HZ EP   1    834 23.73                             131   -0.38 7  145 260 
 PTB  HE ES   1    834 44.88                             131    0.17 7  145 260 
 ZAR  HZ EP   1    834 29.81                             121    0.02 6  203 293 
 ZAR  HN ES   1    834 54.77                             121   -0.05 6  203 293 
 ZAR  HZ I         835  0.96         5.3 0.38                           203 293 
 CHI  HN ES   1    835  3.96                             116    0.14 6  246 195 
                                                                                
