 2010 1223 0014 14.2 L   6.769 -73.097146.0  RSN 10 0.3 1.9LRSN                1
 GAP=140        0.59       2.5     4.5  5.0 -0.5095E+01  0.7464E+01 -0.5494E+00E
 Epicentro: LOS SANTOS - SANTANDER                                             3
 ACTION:UP  11-01-14 15:26 OP:pat  STATUS:               ID:20101223001414 L   I
 2010-12-23-0011-33S.COL___132                                                 6
 STAT SP IPHASW D HRMM SECON CODA AMPLIT PERI AZIMU VELO SNR AR TRES W  DIS CAZ7
 BAR2 SZ IP        014 33.75                             171    -0.110   22 206 
 BAR2 SZ I         014 34.03        21.4 0.21                            22 206 
 BAR2 SZ ES   1    014 49.54                             171     0.4 7   22 206 
 RUS  HZ EP   1    014 37.44                             145    -0.3 7   97 179 
 RUS  HZ I         014 38.76         7.2 0.16                            97 179 
 RUS  HE ES   1    014 56.03                             145    -0.1 7   97 179 
 GRA  SZ IP        014 39.82                             137     0.210  128  15 
 GRA  SZ ES   1    014 59.41                             137     0.0 7  128  15 
 GRA  SZ I         015  0.73        11.5 0.34                           128  15 
 OCA  SZ EP   1    014 42.74                             129    -0.2 7  164 351 
 OCA  SZ ES   1    015  5.23                             129    -0.1 7  164 351 
 OCA  SZ I         015  9.59         8.7 0.37                           164 351 
 YOP  SZ EP   2    014 44.18                             127     0.4 4  174 154 
 YOP  SZ I         015  8.59         4.9 0.34                           174 154 
 NOR  SZ EP   1    014 49.83                             118    -0.4 6  237 236 
 NOR  SE ES   1    015 18.11                             118    -0.2 6  237 236 
 CHI  HZ EP   1    014 51.57                             117    -0.2 6  247 197 
 CHI  HE ES   2    015 20.85                             117    -0.2 4  247 197 
 CHI  HZ I         015 26.76         2.9 0.78                           247 197 
 HEL  HZ EP   2    014 54.95                             114     0.0 4  277 257 
 HEL  HN ES   2    015 26.96                             114     0.3 4  277 257 
 HEL  HZ I         015 32.88         5.7 0.43                           277 257 
 RREF HZ EP   1    015  1.36                             111     0.8 5  324 230 
 RREF HE ES   1    015 37.04                             111     0.3 5  324 230 
 RREF HZ I         015 43.05         5.2 0.21                           324 230 
 PRA  HZ EP   2    015  8.00                             107     0.3 3  392 211 
 PRA  HZ I         015 10.70         9.5 0.17                           392 211 
                                                                                
