 2016  323 0359 44.0 L   6.655 -73.610102.7  RSN  4 0.3 1.4LRSN                1
 GAP=196        0.80       5.5     3.5  9.1  0.3547E+00  0.2820E+01  0.8138E+01E
 Epicentro: EL CARMEN - SANTANDER                                              3
 ACTION:UPD 16-05-13 21:26 OP:cam  STATUS:               ID:20160323035944 L   I
 OLDACT:REG 16-03-23 12:33 OP:ak   STATUS:               ID:20160323035748     3
 2016-03-23-0357-48M.COL___307                                                 6
 STAT SP IPHASW D HRMM SECON CODA AMPLIT PERI AZIMU VELO AIN AR TRES W  DIS CAZ7
 BAR2 EZ EP        359 59.98                             153    0.4210 47.8  98 
 BAR2 EZ ES        4 0 11.71                             153    0.0510 47.8  98 
 BAR2 EZ I         4 0 13.51        11.7 0.18            160           47.8  98 
 PTB  HZ EP   2    4 0  2.78                             134    0.12 5 94.4 262 
 PTB  HN ES        4 0 16.91                             134   -0.2810 94.4 262 
 PTB  HZ I         4 0 21.92         4.4 0.14            135           94.4 262 
 RUS  HZ EP        4 0  3.65                             132   -0.3810  103 145 
 RUS  HN ES        4 0 19.40                             132   -0.2310  103 145 
 RUS  HZ I         4 0 20.56         6.5 0.20            136            103 145 
 SPBC HZ EP   4    4 0  7.55                             126    2.19 0  122 205 
 SPBC HN ES        4 0 22.41                             126    0.4210  122 205 
 SPBC HZ I         4 0 27.56         3.3 0.07            128            122 205 
                                                                                
