 2010  923 0256 48.8 L   6.775 -73.072149.6  RSN  7 0.2 1.7LRSN                1
 GAP=173        0.46       3.0     7.5  5.8  0.6686E+01 -0.1656E+02 -0.5574E+00E
 Epicentro: LOS SANTOS - SANTANDER                                             3
 ACTION:UP  11-02-18 11:04 OP:tino STATUS:               ID:20100923025648 L   I
 2010-09-23-0253-45S.COL___122                                                 6
 STAT SP IPHASW D HRMM SECON CODA AMPLIT PERI AZIMU VELO SNR AR TRES W  DIS CAZ7
 BAR2 SZ EP        257  8.80                             171    -0.110   24 211 
 BAR2 SZ ES   2    257 24.25                             171    -0.3 5   24 211 
 BAR2 SZ I         257 25.38        21.2 0.27                            24 211 
 BTL  SZ EP        257  9.10                             170     0.110   27 306 
 BRR  HZ EP        257 10.65                             151    -0.210   80 298 
 BRR  HE ES   1    257 28.06                             151     0.0 7   80 298 
 BRR  HZ I         257 30.20         9.6 0.10                            80 298 
 RUS  HZ EP        257 12.63                             145    -0.110   98 181 
 RUS  HN ES   2    257 31.65                             145     0.3 5   98 181 
 RUS  HZ I         257 33.13         5.5 0.27                            98 181 
 GUE  SZ EP   2    257 14.09                             140     0.1 5  118   8 
 OCA  SZ EP   2    257 17.82                             130     0.1 5  164 350 
 OCA  SZ ES   2    257 40.77                             130     0.4 5  164 350 
 OCA  SZ I         257 42.42         5.0 0.18                           164 350 
 CHI  HZ EP   2    257 26.70                             118     0.0 4  248 197 
 CHI  HE ES   2    257 56.74                             118     0.5 4  248 197 
 CHI  HZ I         258  4.66         2.6 0.51                           248 197 
                                                                                
