 2011 1223 0454 11.5 L   6.752 -73.164144.0  RSN  4 0.2 1.3LRSN                1
 GAP=232        0.39       5.0     5.9  5.3  0.1524E+02  0.4008E+00 -0.6432E+00E
 Epicentro: LOS SANTOS - SANTANDER                                             3
 ACTION:UPD 12-07-13 16:17 OP:ep   STATUS:               ID:20111223045411 L   I
 2011-12-23-0450-00M.COL___188                                                 6
 STAT SP IPHASW D HRMM SECON CODA AMPLIT PERI AZIMU VELO AIN AR TRES W  DIS CAZ7
 BAR2 SZ ES   2    454 45.61                             173   -0.31 5 17.8 186 
 BAR2 SZ I         454 48.63         4.0 0.54                          17.8 186 
 BRR  HZ EP        454 32.48                             152   -0.0710 72.1 303 
 BRR  HN ES   1    454 49.14                             152    0.20 7 72.1 303 
 BRR  HZ I         454 51.57         3.7 0.49                          72.1 303 
 RUS  HZ EP   2    454 35.05                             145    0.30 5 95.5 175 
 RUS  HN ES   2    454 52.92                             145    0.06 5 95.5 175 
 PTB  HZ EP   2    454 37.89                             132   -0.21 5  145 261 
 PTB  HE ES   2    454 58.77                             132   -0.04 5  145 261 
                                                                                
