 2015  223 0259 22.7 L   6.822 -73.173140.6  RSN  5 0.5 1.6LRSN                1
 GAP=167        1.14       6.5     6.3 13.4 -0.1225E+02  0.2182E+02  0.2755E+02E
 Epicentro: ZAPATOCA - SANTANDER                                               3
 ACTION:UPD 15-04-30 21:28 OP:nd   STATUS:               ID:20150223025922 L   I
 OLDACT:UP  15-02-23 17:04 OP:mh   STATUS:               ID:20150223025747     3
 OLDACT:REG 15-02-23 13:07 OP:mh   STATUS:               ID:20150223025747     3
 2015-02-23-0257-47M.COL___278                                                 6
 STAT SP IPHASW D HRMM SECON CODA AMPLIT PERI AZIMU VELO AIN AR TRES W  DIS CAZ7
 PAM  SZ EP        259 44.54                             150    0.1210 77.5  42 
 PAM  SN ES        3 0  1.53                             150    0.2010 77.5  42 
 PAM  SZ I         3 0  3.76         8.2 0.21            159           77.5  42 
 PTB  HZ EP        259 48.41                             131   -0.66 9  145 258 
 PTB  HN ES   1    3 0  9.57                             131   -0.04 7  145 258 
 PTB  HZ I         3 0 16.78         5.9 0.38            135            145 258 
 OCA  HN EP        259 50.98                             129    0.58 9  158 354 
 OCA  HE ES        3 0 11.20                             129   -0.77 9  158 354 
 ZAR  HN ES        3 0 19.84                             122    0.61 9  200 292 
 PRA  HN ES        3 0 57.83                             106   -0.00 6  393 209 
 PRA  HZ I         3 1  2.65         1.3 0.40            109            393 209 
                                                                                
