 2016  923 0756 10.4 L   6.671 -73.183146.5  RSN  5 0.3 1.1LRSN                1
 GAP=223        0.68       6.4     4.9  6.0  0.1494E+02  0.7330E+01  0.2840E+01E
 Epicentro: VILLANUEVA - SANTANDER                                             3
 ACTION:UPD 17-08-17 21:15 OP:lp   STATUS:               ID:20160923075610 L   I
 OLDACT:DUP 16-09-23 23:32 OP:and  STATUS:               ID:20160923074735d    3
 OLDACT:UP  16-09-23 23:30 OP:and  STATUS:               ID:20160923074734     3
 OLDACT:REG 16-09-23 11:22 OP:and  STATUS:               ID:20160923074734     3
 2016-09-23-0748-00M.COL___342                                                 6
 STAT SP IPHASW D HRMM SECON CODA AMPLIT PERI AZIMU VELO AIN AR TRES W  DIS CAZ7
 BAR2 EZ EP        756 29.93                             177   -0.0210 8.76 180 
 BAR2 EZ ES        756 44.77                             177   -0.4010 8.76 180 
 BAR2 EZ I         756 46.67         3.8 0.26            173           8.76 180 
 BRR  HZ EP        756 31.87                             151   -0.0610 75.8 309 
 BRR  HN ES        756 49.19                             151    0.5010 75.8 309 
 BRR  HZ I         756 51.96         2.1 0.16            152           75.8 309 
 RUS  HZ EP   2    756 33.68                             148    0.36 5 86.8 173 
 RUS  HN ES   2    756 51.35                             148    0.19 5 86.8 173 
 RUS  HZ I         756 53.38         1.6 0.26            148           86.8 173 
 PTB  HZ EP        756 37.03                             133    0.12 9  142 264 
 PTB  HN ES        756 57.53                             133   -0.03 9  142 264 
 PTB  HZ I         757  1.61         1.3 0.22            134            142 264 
 ZAR  HN ES        757  8.34                             122   -0.32 8  206 296 
                                                                                
