 2013  723 0158 42.5 L   6.739 -73.190155.7  RSN  4 0.3 1.6LRSN                1
 GAP=228        0.56       5.7     6.0  6.8  0.1759E+02 -0.4519E+01  0.3143E+01E
 Epicentro: VILLANUEVA - SANTANDER                                             3
 ACTION:UPD 13-08-12 10:39 OP:ep   STATUS:               ID:20130723015000 L   I
 OLDACT:UP  13-07-23 09:53 OP:cam  STATUS:               ID:20130723015000 L   3
 OLDACT:UPD 13-07-23 09:12 OP:stll STATUS:               ID:20130723015000 L   3
 2013-07-23-0150-00M.COL___263                                                 6
 STAT SP IPHASW D HRMM SECON CODA AMPLIT PERI AZIMU VELO AIN AR TRES W  DIS CAZ7
 BAR2 SZ EP   1    159  2.79                             174   -0.41 7 16.2 177 
 BAR2 SZ I         159  3.17        10.0 0.08            168           16.2 177 
 BRR  HZ EP   1    159  4.59                             154   -0.09 7 70.6 305 
 BRR  HN ES        159 22.13                             154    0.1310 70.6 305 
 RUS  HZ EP   1    159  7.29                             147    0.49 7 94.3 173 
 RUS  HN ES   1    159 25.65                             147   -0.13 7 94.3 173 
 PTB  HZ EP   1    159  9.73                             135   -0.03 7  142 261 
 PTB  HN ES   1    159 30.96                             135   -0.07 7  142 261 
 PTB  HZ I         159 35.34         4.0 0.16            131            142 261 
                                                                                
