 2016  323 0507  5.4 L   6.798 -73.129137.4  RSN  9 0.3 1.6LRSN                1
 GAP= 72        0.85       2.8     2.6  5.5 -0.2618E-01  0.3079E+01 -0.1671E+01E
 Epicentro: LOS SANTOS - SANTANDER                                             3
 ACTION:UPD 16-05-13 21:26 OP:cam  STATUS:               ID:20160323050705 L   I
 OLDACT:DUP 16-03-23 16:15 OP:ak   STATUS:               ID:20160323045749d    3
 OLDACT:REG 16-03-23 12:36 OP:ak   STATUS:               ID:20160323045748     3
 2016-03-23-0457-48M.COL___307                                                 6
 STAT SP IPHASW D HRMM SECON CODA AMPLIT PERI AZIMU VELO AIN AR TRES W  DIS CAZ7
 BAR2 EZ EP        5 7 24.50                             170    0.4410 23.5 195 
 BAR2 EZ ES        5 7 38.76                             170    0.1710 23.5 195 
 BAR2 EZ I         5 7 41.71         8.5 0.18            170           23.5 195 
 PAM  EZ EP        5 7 27.41                             149    0.7010 76.4  38 
 PAM  EN ES        5 7 42.98                             149   -0.3110 76.4  38 
 PAM  EZ I         5 7 46.44         8.4 0.52            144           76.4  38 
 RUS  HZ EP        5 7 28.39                             142    0.0410  100 177 
 RUS  HN ES        5 7 46.06                             142   -0.1510  100 177 
 RUS  HZ I         5 7 47.64         4.5 0.24            139            100 177 
 PTB  HZ EP        5 7 31.53                             130   -0.37 9  150 259 
 PTB  HN ES        5 7 52.59                             130    0.05 9  150 259 
 PTB  HZ I         5 7 55.01         4.0 0.07            127            150 259 
 TAM  HZ EP        5 7 32.68                             129    0.39 9  153 105 
 TAM  HZ I         5 7 52.14         2.1 0.33            124            153 105 
 TAM  HN ES        5 7 52.84                             129   -0.39 9  153 105 
 OCA  HZ EP        5 7 32.87                             127   -0.28 9  161 353 
 OCA  HN ES        5 7 54.51                             127   -0.26 9  161 353 
 OCA  HZ I         5 8  2.06        15.3 0.40            123            161 353 
 SPBC HZ EP        5 7 33.04                             127   -0.36 9  164 220 
 SPBC HN ES        5 7 55.15                             127   -0.06 9  164 220 
 SPBC HZ I         5 8  1.32         4.7 0.22            124            164 220 
 ZAR  HZ EP   2    5 7 36.92                             120   -0.62 4  206 292 
 ZAR  HE ES        5 8  2.96                             120    0.38 8  206 292 
 ZAR  HZ I         5 8  9.39         4.7 0.40            117            206 292 
 URE  HN ES        5 8 18.23                             112    0.03 7  286 292 
                                                                                
