 2017 1123 0952  1.3 L   6.786 -73.170136.3  RSN 11 0.6 1.7LRSN                1
 GAP=110        1.11       3.3     4.3  6.9 -0.2548E+01  0.6554E+01  0.2751E+01E
 Epicentro: LOS SANTOS - SANTANDER                                             3
 ACTION:UPD 17-12-12 19:59 OP:rebc STATUS:               ID:20171123095201 L   I
 OLDACT:UP  17-11-23 14:59 OP:dani STATUS:               ID:20171123094739     3
 OLDACT:UP  17-11-23 14:57 OP:dani STATUS:               ID:20171123094739     3
 OLDACT:UP  17-11-23 14:57 OP:dani STATUS:               ID:20171123094739     3
 OLDACT:REG 17-11-23 13:26 OP:osc  STATUS:               ID:20171123094739     3
 2017-11-23-0948-00M.COL___459                                                 6
 STAT SP IPHASW D HRMM SECON CODA AMPLIT PERI AZIMU VELO AIN AR TRES W  DIS CAZ7
 BAR2 EZ EP        952 19.80                             170    0.0110 21.5 184 
 BAR2 EZ ES        952 34.11                             170   -0.0710 21.5 184 
 BAR2 EZ I         952 36.47        13.8 0.16            168           21.5 184 
 PAM  EZ EP        952 22.65                             148   -0.0810 80.3  40 
 PAM  EE ES        952 39.89                             148    0.4710 80.3  40 
 PAM  EZ I         952 40.56         7.6 0.18            153           80.3  40 
 PTB  HZ EP        952 26.45                             130   -0.82 9  145 259 
 PTB  HN ES        952 46.93                             130   -0.56 9  145 259 
 PTB  HZ I         952 52.49         4.0 0.38            131            145 259 
 OCA  HZ EP        952 29.34                             127    0.30 9  161 354 
 OCA  HE ES        952 49.92                             127   -0.73 9  161 354 
 OCA  HZ I         952 51.94        10.6 0.24            130            161 354 
 YPLC HZ EP        952 30.26                             124   -0.20 9  177 150 
 YPLC HE ES   4    952 55.89                             124    2.72 0  177 150 
 YPLC HZ I         952 57.05         5.2 0.30            127            177 150 
 ZAR  HZ EP        952 32.91                             120   -0.06 9  202 293 
 ZAR  HN ES        952 57.78                             120    0.13 9  202 293 
 ZAR  HZ I         953  4.04         6.4 0.36            122            202 293 
 NOR  HZ EP        952 36.35                             117    0.16 8  232 234 
 NOR  HE ES        953  4.25                             117    0.87 8  232 234 
 NOR  HZ I         953  8.52         2.8 0.16            118            232 234 
 CHI  HZ EP        952 38.09                             115   -0.19 8  246 195 
 CHI  HN ES        953  7.65                             115    0.54 8  246 195 
 CHI  HZ I         953 12.64         2.8 0.68            117            246 195 
 DRL03HN ES        953 15.66                             111    0.81 7  290 353 
 GUY2CHZ EP   3    952 46.28                             111    2.12 2  298 235 
 GUY2CHN ES   4    953 21.46                             111    3.89 0  298 235 
 GUY2CHZ I         953 26.06         1.7 0.32                           298 235 
 PTGC HZ EP   3    952 42.98                             110   -1.75 2  308 158 
 PTGC HN ES   4    953 15.67                             110   -2.92 0  308 158 
                                                                                
