 2013  523 0454 11.7 L   6.777 -73.088143.4  RSN  6 0.1 1.5LRSN                1
 GAP=144        0.40       2.4     3.3  4.1  0.1950E+01 -0.4553E+01 -0.3022E+01E
 Epicentro: LOS SANTOS - SANTANDER                                             3
 ACTION:UPD 13-06-20 09:52 OP:ep   STATUS:               ID:20130523045411 L   I
 2013-05-23-0448-51M.COL___207                                                 6
 STAT SP IPHASW D HRMM SECON CODA AMPLIT PERI AZIMU VELO AIN AR TRES W  DIS CAZ7
 BAR2 SZ EP        454 31.05                             170    0.0110 22.9 207 
 BAR2 SZ I         454 48.47         4.8 0.38            170           22.9 207 
 GIR2 SZ EP        454 31.11                             165   -0.1110 35.4 341 
 BRR  HZ EP        454 32.76                             150   -0.2410 78.1 298 
 BRR  HN ES        454 49.71                             150    0.0910 78.1 298 
 BRR  HN I         454 50.35        12.7 0.46            154           78.1 298 
 RUS  HZ EP        454 35.04                             144    0.0210 97.8 180 
 RUS  HN ES        454 53.20                             144   -0.0010 97.8 180 
 RUS  HN I         454 55.51         5.2 0.32            143           97.8 180 
 CAPV BZ EP        454 38.88                             132    0.13 9  148  35 
 PTB  HZ EP        454 39.16                             130    0.14 9  154 260 
                                                                                
