 2016  923 0313  9.0 L   6.974 -72.911182.9  RSN  7 0.3 1.5LRSN                1
 GAP=207        0.75       3.9     5.5  5.9  0.6485E+01  0.2801E+00  0.2103E+01E
 Epicentro: SANTA BARBARA - SANTANDER                                          3
 ACTION:UPD 17-08-17 21:15 OP:lp   STATUS:               ID:20160923031309 L   I
 OLDACT:UP  16-09-23 15:19 OP:and  STATUS:               ID:20160923030736     3
 OLDACT:UP  16-09-23 15:16 OP:and  STATUS:               ID:20160923030736     3
 OLDACT:UP  16-09-23 15:12 OP:and  STATUS:               ID:20160923030736     3
 OLDACT:REG 16-09-23 10:57 OP:and  STATUS:               ID:20160923030736     3
 2016-09-23-0308-00M.COL___342                                                 6
 STAT SP IPHASW D HRMM SECON CODA AMPLIT PERI AZIMU VELO AIN AR TRES W  DIS CAZ7
 BAR2 EZ EP   2    313 33.48                             164   -0.35 5 51.7 215 
 BAR2 EZ ES   2    313 52.56                             164   -0.64 5 51.7 215 
 BAR2 EZ I         313 55.36         5.2 0.37            162           51.7 215 
 BRR  HZ EP        313 35.32                             153    0.1110 89.7 280 
 BRR  HN ES        313 55.80                             153    0.1510 89.7 280 
 RUS  HZ EP        313 37.88                             145   -0.0110  121 189 
 RUS  HN ES     D  314  0.47                             145    0.0510  121 189 
 RUS  HZ I         314  1.60         2.5 0.30            145            121 189 
 OCA  HZ EP   4    313 44.82                             140    5.47 0  147 342 
 OCA  HN ES        314  3.11                             140    0.10 9  147 342 
 OCA  HT ES        314  3.58                             137            147 342 
 OCA  HZ I         314  3.80         6.4 0.19            142            147 342 
 PTB  HZ EP        313 41.39                             134   -0.31 9  177 254 
 PTB  HN ES        314  7.03                             134   -0.18 9  177 254 
 PTB  HZ I         314 10.04         2.2 0.12            134            177 254 
 SPBC HZ EP        313 44.01                             131    0.66 9  195 221 
 SPBC HE ES   4    314 12.02                             131    1.89 0  195 221 
 SPBC HZ I         314 13.88         3.0 0.20            132            195 221 
 ZAR  HZ EP        313 45.29                             127   -0.59 8  223 285 
 ZAR  HE ES        314 14.88                             127    0.23 8  223 285 
                                                                                
