 2013  823 0755  5.8 L   6.744 -73.153139.9  RSN  6 0.4 1.5LRSN                1
 GAP=232        1.07       5.7     6.5  7.2  0.1142E+02  0.9175E+01 -0.6642E+00E
 Epicentro: JORDAN - SANTANDER                                                 3
 ACTION:UPD 14-01-14 09:05 OP:ep   STATUS:               ID:20130823075505 L   I
 OLDACT:REG 13-08-23 08:56 OP:nd   STATUS:               ID:20130823074959     3
 2013-08-23-0749-59M.COL___270                                                 6
 STAT SP IPHASW D HRMM SECON CODA AMPLIT PERI AZIMU VELO AIN AR TRES W  DIS CAZ7
 BAR2 SZ EP        755 24.24                             173   -0.3810 17.2 191 
 BAR2 SZ ES        755 39.01                             173   -0.2810 17.2 191 
 BAR2 SZ I         755 40.57         6.7 0.20            171           17.2 191 
 BRR  HZ IP     D  755 26.31                             151   -0.1710 73.7 303 
 BRR  HN ES        755 43.23                             151    0.6410 73.7 303 
 BRR  HZ I         755 46.52         4.9 0.26            149           73.7 303 
 RUS  HZ EP        755 28.70                             144    0.1510 94.5 175 
 RUS  HN ES        755 46.41                             144    0.1310 94.5 175 
 RUS  HZ I         755 47.92         3.3 0.30            147           94.5 175 
 PTB  HZ EP        755 32.03                             131   -0.11 9  146 261 
 PTB  HN ES        755 51.81                             131   -0.86 9  146 261 
 PTB  HZ I         755 54.76         4.1 0.12            131            146 261 
 SPBC HZ EP        755 33.21                             129   -0.16 9  158 220 
 SPBC HN ES        755 55.45                             129    0.59 9  158 220 
 SPBC HZ I         755 57.81         5.2 0.30            130            158 220 
 ZAR  HZ EP        755 38.57                             121    0.51 8  206 294 
 ZAR  HE ES   2    756  3.32                             121    0.11 4  206 294 
 ZAR  HZ I         756  8.50         3.4 0.30            122            206 294 
                                                                                
