 2017  223 0516  3.7 L   6.742 -73.144148.7  RSN  4 0.1 0.9LRSN                1
 GAP=139        0.34       1.9     1.8  3.0 -0.3671E+00  0.4609E+00  0.6080E+00E
 Epicentro: LOS SANTOS - SANTANDER                                             3
 ACTION:UPD 17-05-24 15:39 OP:jn   STATUS:               ID:20170223051603 L   I
 OLDACT:DUP 17-02-23 16:50 OP:edw  STATUS:               ID:20170223050744d    3
 2017-02-23-0508-00M.COL___382                                                 6
 STAT SP IPHASW D HRMM SECON CODA AMPLIT PERI AZIMU VELO AIN AR TRES W  DIS CAZ7
 BRR  HZ EP        516 25.46                             152    0.0710 74.7 303 
 BRR  HN ES        516 42.39                             152    0.1010 74.7 303 
 PAM  EZ EP     D  516 26.52                             150   -0.0410 82.3  37 
 PAM  EN ES        516 44.29                             150   -0.0710 82.3  37 
 PAM  EZ I         516 45.38         1.5 0.34            151           82.3  37 
 RUS  HZ EP        516 27.46                             146    0.1410 94.1 176 
 RUS  HN ES        516 45.67                             146   -0.0510 94.1 176 
 PTB  HZ EP        516 30.74                             133   -0.12 9  147 261 
 PTB  HN ES        516 51.96                             133   -0.05 9  147 261 
 PTB  HZ I         516 53.85         1.1 0.16            133            147 261 
                                                                                
