 2017 1023 0631 47.3 L   6.853 -73.326125.4  RSN 15 0.5 1.9LRSN                1
 GAP=109        1.22       3.5     3.0  6.0  0.7055E+00  0.3378E+01  0.4126E+01E
 Epicentro: BETULIA - SANTANDER                                                3
 ACTION:UPD 17-11-07 19:35 OP:rebc STATUS:               ID:20171023063147 L   I
 OLDACT:UP  17-10-23 17:28 OP:dhb  STATUS:               ID:20171023062245     3
 OLDACT:REG 17-10-23 12:44 OP:dhb  STATUS:               ID:20171023062245     3
 2017-10-23-0628-00M.COL___390                                                 6
 STAT SP IPHASW D HRMM SECON CODA AMPLIT PERI AZIMU VELO AIN AR TRES W  DIS CAZ7
 BAR2 EZ IP     C  632  4.59                             164   -0.1410 33.0 151 
 BAR2 EZ ES        632 17.78                             164   -0.5710 33.0 151 
 BRR  HZ IP     C  632  4.94                             156   -0.1810 51.0 303 
 BRR  HE ES        632 19.06                             156    0.0210 51.0 303 
 BRR  HZ I         632 19.94        53.3 0.12            157           51.0 303 
 PAM  EZ EP        632  8.06                             143   -0.0210 87.7  52 
 PAM  EN ES        632 24.79                             143    0.4710 87.7  52 
 PAM  EZ I         632 28.30        13.9 0.22            146           87.7  52 
 RUS  HN EP        632  9.83                             136    0.0110  110 166 
 RUS  HZ EP        632 10.20                             136            110 166 
 RUS  HE ES        632 27.19                             136   -0.2210  110 166 
 RUS  HN I         632 27.77        13.9 0.30            136            110 166 
 RUS  HZ I         632 28.71        13.4 0.30                           110 166 
 PTB  HZ IP     D  632  9.83                             131   -1.1110  130 255 
 PTB  HN ES        632 29.84                             131    0.4410  130 255 
 PTB  HZ I         632 31.90         8.9 0.24            130            130 255 
 SPBC HZ EP        632 13.60                             125   -0.01 9  156 212 
 SPBC HE ES        632 34.08                             125   -0.07 9  156 212 
 SPBC HZ I         632 40.84        13.1 0.20            125            156 212 
 TAM  HZ IP     C  632 15.51                             122   -0.03 9  176 105 
 TAM  HE ES        632 37.55                             122   -0.03 9  176 105 
 TAM  HZ I         632 40.87         9.9 0.28            123            176 105 
 ZAR  HZ EP        632 16.40                             120    0.14 9  183 293 
 ZAR  HN ES        632 39.79                             120    0.91 9  183 293 
 ZAR  HZ I         632 43.21        12.5 0.26            121            183 293 
 YPLC HZ EP        632 17.60                             119    0.32 9  192 147 
 YPLC HN ES        632 41.09                             119    0.39 9  192 147 
 YPLC HZ I         632 43.46        10.3 0.40            119            192 147 
 NOR  HZ EP        632 21.57                             115    1.02 8  222 230 
 NOR  HN ES        632 46.58                             115    0.08 8  222 230 
 NOR  HZ I         632 54.20         4.5 0.14            115            222 230 
 CHI  HZ EP        632 23.52                             112   -0.55 8  250 190 
 CHI  HE ES        632 53.04                             112    0.26 8  250 190 
 CHI  HZ I         633  0.55         2.5 0.26            112            250 190 
 URE  HZ EP        632 24.16                             111   -0.90 8  263 292 
 URE  HN ES   2    632 53.26                             111   -1.27 4  263 292 
 URE  HZ I         632 55.73         7.6 0.14            112            263 292 
 GUY2CHZ EP        632 29.58                             109    1.00 7  289 232 
 GUY2CHE ES        633  0.07                             109   -0.73 7  289 232 
 GUY2CHZ I         633  6.28         4.4 0.66                           289 232 
 PRA  HZ EP   9    632 40.71                             103    1.05 0  388 207 
 PRA  HE ES        633 21.95                             103    0.37 6  388 207 
 PRA  HZ I         633 26.53         3.0 0.26            103            388 207 
 ORTC HZ EP   4    632 42.19                             103    2.40 0  389 213 
 ORTC HE ES   4    633 24.29                             103    3.54 0  389 213 
 ORTC HZ I         633 29.15         1.3 0.30            103            389 213 
                                                                                
