 2013 1023 0640 26.4 L   6.731 -73.152140.1  RSN  8 0.3 1.8LRSN                1
 GAP=139        0.74       3.0     3.3  6.7 -0.7563E+00  0.7621E+01  0.3055E+01E
 Epicentro: JORDAN - SANTANDER                                                 3
 ACTION:UPD 13-11-25 09:23 OP:ep   STATUS:               ID:20131023064026 L   I
 OLDACT:DUP 13-10-23 10:09 OP:carl STATUS:               ID:20131023063840d    3
 2013-10-23-0638-39M.COL___226                                                 6
 STAT SP IPHASW D HRMM SECON CODA AMPLIT PERI AZIMU VELO AIN AR TRES W  DIS CAZ7
 BAR2 SZ ES        640 59.49                             173   -0.3610 15.7 192 
 BRR  HN ES        641  3.12                             150   -0.1510 74.6 304 
 PAM  SZ EP        640 48.28                             148   -0.1110 83.8  37 
 PAM  SN ES        641  5.70                             148    0.1410 83.8  37 
 PAM  SZ I         641  7.79         7.0 0.26            147           83.8  37 
 RUS  HN ES        641  7.22                             145    0.5410 93.0 175 
 RUS  HZ I         641 11.02         5.1 0.36            142           93.0 175 
 PTB  HN ES        641 13.22                             131   -0.00 9  146 262 
 ZAR  HE ES        641 24.15                             121    0.24 8  206 294 
 ZAR  HE I         641 30.15        19.2 0.20            118            206 294 
 NOR  HN ES        641 28.51                             118    0.08 8  230 236 
 NOR  HZ I         641 36.43         3.7 0.22            115            230 236 
 CHI  HN ES        641 31.01                             117   -0.44 8  241 195 
                                                                                
