 2012  223 0624 56.9 L   6.741 -73.155147.7  RSN  7 0.4 1.7LRSN                1
 GAP=138        0.84       5.4     5.8  6.8 -0.2556E+01  0.4691E+01  0.8113E+01E
 ACTION:UP  12-03-07 16:33 OP:epov STATUS:               ID:20120223062456 L   I
 2012-02-23-0620-00M.COL___191                                                 6
 STAT SP IPHASW D HRMM SECON CODA AMPLIT PERI AZIMU VELO AIN AR TRES W  DIS CAZ7
 BAR2 SZ EP   1    625 16.65                             173   -0.01 7 16.7 191 
 BAR2 SZ ES   1    625 31.62                             173   -0.45 7 16.7 191 
 BAR2 SZ I         625 33.26        19.7 0.11                          16.7 191 
 GIR2 SZ EP   1    625 16.80                             165   -0.20 7 37.6 353 
 GIR2 SZ ES   1    625 33.36                             165    0.69 7 37.6 353 
 BRR  HZ IP     D  625 18.50                             152    0.0910 73.7 303 
 BRR  HZ I         625 18.68        21.6 0.13                          73.7 303 
 BRR  HN ES   1    625 35.79                             152    0.60 7 73.7 303 
 PAM  SZ EP   1    625 19.56                             149   -0.12 7 83.1  37 
 PAM  SZ I         625 19.81         4.3 0.16                          83.1  37 
 PAM  SN ES   1    625 37.02                             149   -0.43 7 83.1  37 
 RUS  HZ EP   1    625 20.72                             146    0.32 7 94.1 175 
 RUS  HN ES   1    625 38.60                             146   -0.13 7 94.1 175 
 RUS  HZ I         625 40.33         6.0 0.46                          94.1 175 
 PTB  HZ EP   1    625 23.28                             133   -0.57 7  146 261 
 PTB  HN ES   1    625 44.42                             133   -0.44 7  146 261 
 CHI  HZ EP   1    625 34.73                             118    0.72 6  242 195 
 CHI  HZ I         625 35.16         1.4 0.20                           242 195 
                                                                                
