 2012  723 0937  8.4 L   6.776 -73.146149.9  RSN  6 0.3 1.9LRSN                1
 GAP=183        0.80       4.9     6.1  6.7  0.6785E+01  0.1778E+01 -0.9198E+01E
 Epicentro: LOS SANTOS - SANTANDER                                             3
 ACTION:UPD 12-08-14 11:44 OP:ep   STATUS:               ID:20120723093708 L   I
 2012-07-23-0930-00M.COL___215                                                 6
 STAT SP IPHASW D HRMM SECON CODA AMPLIT PERI AZIMU VELO AIN AR TRES W  DIS CAZ7
 BAR2 SZ IP        937 28.66                             172     0.210   21 191 
 BAR2 SZ I         937 28.83        14.5 0.32            171             21 191 
 BAR2 SZ ES   1    937 44.20                             172     0.1 7   21 191 
 BRR  HZ EP        937 30.48                             153     0.410   72 300 
 BRR  HZ I         937 32.75        15.9 0.14            148             72 300 
 BRR  HN ES   1    937 47.37                             153     0.4 7   72 300 
 RUS  HZ EP        937 32.47                             146     0.110   98 176 
 RUS  HN ES   1    937 50.61                             146    -0.5 7   98 176 
 PTB  HZ EP        937 35.24                             133    -0.4 9  147 260 
 PTB  HN ES   1    937 56.67                             133    -0.3 7  147 260 
 OCA  HZ EP        937 37.15                             130    -0.1 9  163 353 
 OCA  HE ES   2    937 58.89                             130    -0.9 5  163 353 
 ZAR  HZ EP        937 41.39                             123     0.2 9  205 293 
 ZAR  HN ES   3    938  6.87                             123     0.0 2  205 293 
 ZAR  HZ I         938 12.76         8.0 0.28            121            205 293 
