 2013  423 0524 17.0 L   6.776 -73.171143.9  RSN  7 0.3 1.6LRSN                1
 GAP=134        0.76       4.0     4.4  5.9 -0.6131E+00  0.4564E+01 -0.2435E+01E
 Epicentro: LOS SANTOS - SANTANDER                                             3
 ACTION:UPD 13-05-22 14:40 OP:EP   STATUS:               ID:20130423052417 L   I
 2013-04-23-0520-00M.COL___249                                                 6
 STAT SP IPHASW D HRMM SECON CODA AMPLIT PERI AZIMU VELO AIN AR TRES W  DIS CAZ7
 BAR2 SZ EP   1    524 36.31                             172   -0.04 7 20.3 184 
 BAR2 SZ ES        524 51.35                             172   -0.0910 20.3 184 
 BAR2 SZ I         524 52.87         6.7 0.40            172           20.3 184 
 GIR2 SZ EP        524 36.47                             166   -0.0410 33.6 356 
 GIR2 SZ ES   1    524 51.39                             166   -0.34 7 33.6 356 
 GIR2 SZ I         524 53.45         4.9 0.52            159           33.6 356 
 BRR  HZ IP     D  524 38.24                             152    0.3610 70.1 302 
 BRR  HN ES   1    524 55.09                             152    0.92 7 70.1 302 
 BRR  HZ I         524 58.23         4.6 0.16            146           70.1 302 
 PAM  SZ EP   1    524 39.38                             149    0.13 7 81.2  40 
 PAM  SN ES   1    524 56.27                             149   -0.34 7 81.2  40 
 PAM  SN I         524 57.19        13.8 0.44            148           81.2  40 
 RUS  HZ EP   1    524 40.63                             144    0.24 7 98.1 174 
 RUS  HN ES        524 58.64                             144    0.0110 98.1 174 
 RUS  HN I         525  0.06         4.3 0.26            149           98.1 174 
 PTB  HZ EP   1    524 43.05                             132   -0.47 7  145 260 
 PTB  HN ES        525  3.90                             132   -0.30 9  145 260 
 PTB  HN I         525  9.12         9.8 0.42            129            145 260 
 SML  HN ES   2    525 21.90                             117   -0.36 4  245 336 
 SML  HN I         525 35.40         7.2 0.10            115            245 336 
 PRA  HZ EP   4    525 11.52                             106    1.50 0  388 209 
 PRA  HN ES   4    525 50.49                             106   -0.89 0  388 209 
                                                                                
