 2013  323 0855 12.4 L   6.785 -73.155147.0  RSN  8 0.4 1.9LRSN                1
 GAP=136        1.08       4.0     4.7  6.7  0.1459E+01  0.7390E+01  0.2992E+01E
 Epicentro: LOS SANTOS - SANTANDER                                             3
 ACTION:UPD 13-04-09 14:04 OP:ep   STATUS:               ID:20130323085512 L   I
 2013-03-23-0850-00M.COL___245                                                 6
 STAT SP IPHASW D HRMM SECON CODA AMPLIT PERI AZIMU VELO AIN AR TRES W  DIS CAZ7
 BAR2 SZ EP        855 31.99                             171   -0.1910 21.6 188 
 BAR2 SZ ES        855 47.29                             171   -0.3010 21.6 188 
 BAR2 SZ I         855 48.07        24.1 0.26            172           21.6 188 
 BRR  HZ IP     C  855 33.76                             153    0.0510 71.1 300 
 BRR  HN ES        855 51.17                             153    0.8610 71.1 300 
 BRR  HN I         855 51.75        20.3 0.18            149           71.1 300 
 PAM  SZ IP     D  855 34.96                             150    0.0610 79.3  39 
 PAM  SN ES        855 52.61                             150    0.1910 79.3  39 
 PAM  SN I         855 53.18         4.6 0.30            152           79.3  39 
 RUS  HZ EP        855 36.13                             144   -0.0710 99.0 175 
 RUS  HN ES        855 54.75                             144    0.0110 99.0 175 
 RUS  HN I         855 55.18        11.8 0.34            147           99.0 175 
 PTB  HZ EP        855 38.91                             133   -0.47 9  146 259 
 PTB  HN ES        855 59.71                             133   -0.70 9  146 259 
 PTB  HN I         856  4.74         8.5 0.34            131            146 259 
 OCA  HE ES        856  2.62                             130   -0.63 9  162 354 
 OCA  HE I         856  7.65        26.2 0.22            129            162 354 
 ZAR  HZ EP        855 45.54                             123    0.61 9  204 293 
 ZAR  HN ES        856 10.50                             123    0.23 9  204 293 
 ZAR  HN I         856 18.45        10.5 0.20            122            204 293 
 CHI  HZ EP        855 50.27                             118    0.27 8  247 195 
 CHI  HE ES   2    856 20.26                             118    0.95 4  247 195 
                                                                                
