 2012 1223 0223 10.7 L   6.769 -73.170144.1  RSN  6 0.3 1.3LRSN                1
 GAP=135        0.62       5.3     4.5  6.6  0.9302E+01  0.7051E+00 -0.4365E+01E
 Epicentro: LOS SANTOS - SANTANDER                                             3
 ACTION:UPD 13-01-04 14:29 OP:ep   STATUS:               ID:20121223022310 L   I
 2012-12-23-0220-00M.COL___242                                                 6
 STAT SP IPHASW D HRMM SECON CODA AMPLIT PERI AZIMU VELO AIN AR TRES W  DIS CAZ7
 BAR2 SZ ES   1    223 44.59                             172   -0.55 7 19.6 184 
 BAR2 SZ I         223 46.41         7.7 0.26                          19.6 184 
 BRR  HN ES   1    223 48.41                             152    0.46 7 70.6 302 
 PAM  SZ EP   1    223 32.96                             149   -0.03 7 81.7  39 
 RUS  HZ EP   1    223 34.02                             144   -0.03 7 97.4 174 
 RUS  HN ES   1    223 52.63                             144    0.36 7 97.4 174 
 RUS  HZ I         223 53.83         2.1 0.40                          97.4 174 
 PTB  HZ EP   1    223 37.20                             132   -0.02 7  145 260 
 PTB  HN ES   1    223 57.72                             132   -0.20 7  145 260 
 PTB  HZ I         224  0.18         1.9 0.40                           145 260 
 ZAR  HN ES   1    224  8.00                             122   -0.03 6  203 293 
 ZAR  HZ I         224 14.66         2.2 0.15                           203 293 
                                                                                
