 2010  823 0203 53.5 L   6.805 -73.074144.9  RSN  8 0.5 1.5LRSN                1
 GAP=167        0.86       4.7    12.9 10.5  0.7298E+01 -0.5358E+02 -0.4897E+01E
 Epicentro: LOS SANTOS - SANTANDER                                             3
 ACTION:UP  10-09-07 10:57 OP:vdl  STATUS:               ID:20100823020352 L   I
 2010-08-23-0158-31S.COL___120                                                 6
 STAT SP IPHASW D HRMM SECON CODA AMPLIT PERI AZIMU VELO SNR AR TRES W  DIS CAZ7
 BTL  SZ EP        2 4 13.16                             172     0.110   25 301 
 BAR2 SZ IP        2 4 13.11                             171     0.110   26 207 
 BAR2 SZ I         2 4 13.39         7.2 0.09                            26 207 
 BAR2 SZ ES   2    2 4 27.66                             171    -0.7 5   26 207 
 BRR  HZ IP     C  2 4 14.83                             152    -0.110   78 295 
 BRR  HE ES   1    2 4 31.52                             152    -0.1 7   78 295 
 BRR  HZ I         2 4 32.50        12.1 0.14                            78 295 
 RUS  HZ EP   2    2 4 17.36                             145     0.2 5  101 181 
 RUS  HZ I         2 4 17.84         3.4 0.32                           101 181 
 RUS  HN ES   2    2 4 35.75                             145     0.1 5  101 181 
 GUE  SZ EP   2    2 4 17.20                             140    -0.7 5  115   8 
 GRA  SZ EP   2    2 4 18.96                             138     0.6 5  123  14 
 GRA  SZ I         2 4 39.52         4.1 0.32                           123  14 
 OCA  SZ EP   1    2 4 21.47                             130    -0.3 7  161 350 
 OCA  SZ ES   1    2 4 44.28                             130     0.4 7  161 350 
 OCA  SZ I         2 4 48.19         5.2 0.31                           161 350 
 CHI  HZ EP   2    2 4 30.31                             118    -1.1 4  251 197 
 CHI  HZ I         2 4 32.35         1.1 0.28                           251 197 
 CHI  HN ES   2    2 5  2.07                                     1.1 4  251 197 
                                                                                
