 2012  123 0559  4.6 L   6.959 -74.272  4.2  RSN  4 0.3 2.3LRSN                1
 GAP=123        0.72       2.0     2.4  6.1  0.4986E+00  0.6476E+01  0.1091E+01E
 Epicentro: PUERTO PARRA - SANTANDER                                           3
 ACTION:UP  12-02-03 08:19 OP:REBC STATUS:               ID:20120123055904 L   I
 2012-01-23-0550-00M.COL___186                                                 6
 STAT SP IPHASW D HRMM SECON CODA AMPLIT PERI AZIMU VELO SNR AR TRES W  DIS CAZ7
 PTB  HZ IP     C  559 13.07                              47     0.210   51 204 
 PTB  HE ES        559 19.07                              47    -0.310   51 204 
 BRR  HZ IP     D  559 15.09                              47     0.210   64  75 
 BRR  HZ I         559 15.25        91.8 0.11                            64  75 
 BRR  HE ES   2    559 22.31                              47    -0.6 5   64  75 
 ZAR  HZ EP        559 18.69                              47     0.210   88 312 
 ZAR  HE ES        559 28.99                              47    -0.310   88 312 
 ZAR  HZ I         559 29.87       114.6 0.27                            88 312 
 BAR2 SZ EP   1    559 24.74                              47     0.1 7  127 109 
                                                                                
