 2014  323 0019 28.1 L   6.812 -73.145144.8  RSN  9 0.5 1.9LRSN                1
 GAP=136        1.04       4.8     4.7  6.5 -0.7551E+01  0.8674E+01  0.3154E+01E
 Epicentro: LOS SANTOS - SANTANDER                                             3
 ACTION:UPD 14-04-09 23:19 OP:nd   STATUS:               ID:20140323001928 L   I
 OLDACT:UP  14-03-23 09:29 OP:mh   STATUS:               ID:20140323001811     3
 OLDACT:REG 14-03-23 08:23 OP:mh   STATUS:               ID:20140323001811     3
 2014-03-23-0018-11M.COL___234                                                 6
 STAT SP IPHASW D HRMM SECON CODA AMPLIT PERI AZIMU VELO AIN AR TRES W  DIS CAZ7
 BAR2 SZ EP        019 47.58                             170   -0.0710 24.7 190 
 BAR2 SZ ES        020  2.62                             170   -0.2710 24.7 190 
 BAR2 SZ I         020  4.93        21.8 0.18            167           24.7 190 
 BRR  HZ EP        019 49.32                             152    0.2010 70.7 298 
 BRR  HN ES        020  5.72                             152    0.2110 70.7 298 
 BRR  HZ I         020  7.02         7.3 0.21            152           70.7 298 
 PAM  SZ EP        019 50.62                             151    0.4710 76.2  40 
 PAM  SN ES        020  7.35                             151    0.0110 76.2  40 
 PAM  SZ I         020  9.97         8.3 0.41            155           76.2  40 
 RUS  HZ EP   1    019 51.66                             143   -0.20 7  102 176 
 RUS  HN ES        020 10.22                             143   -0.1710  102 176 
 RUS  HZ I         020 12.42         4.0 0.30            143            102 176 
 PTB  HZ EP        019 54.61                             132   -0.42 9  148 258 
 PTB  HN ES        020 15.43                             132   -0.60 9  148 258 
 PTB  HZ I         020 18.02       209.8 0.05            131            148 258 
 SPBC HZ EP        019 56.37                             129   -0.27 9  164 219 
 SPBC HN ES        020 19.80                             129    0.91 9  164 219 
 SPBC HZ I         020 25.31         5.7 0.25            128            164 219 
 NOR  HN ES        020 31.49                             118   -0.29 8  236 234 
 HEL  HZ EP   1    020  7.53                             114   -0.79 6  273 256 
 HEL  HN ES   1    020 40.67                             114    0.98 6  273 256 
 HEL  HZ I         020 48.17         3.2 0.38            115            273 256 
 RREF HZ EP        020 14.80                             110    0.48 7  323 229 
 RREF HN ES   4    020 51.84                             110    1.47 0  323 229 
 RREF HZ I         020 57.49         2.2 0.22            111            323 229 
                                                                                
