 2011 1023 0005 58.5 L   6.771 -73.124145.0  RSN  6 0.2 1.5LRSN                1
 GAP=141        0.40       4.0     4.2  5.8  0.2408E+01  0.9990E+00 -0.2582E+01E
 Epicentro: LOS SANTOS - SANTANDER                                             3
 ACTION:UPD 12-07-13 16:05 OP:ep   STATUS:               ID:20111023000558 L   I
 2011-10-23-0002-09S.COL___171                                                 6
 STAT SP IPHASW D HRMM SECON CODA AMPLIT PERI AZIMU VELO AIN AR TRES W  DIS CAZ7
 BAR2 SZ EP   1    0 6 17.92                             171   -0.10 7 20.8 198 
 BAR2 SZ ES   2    0 6 32.96                             171   -0.26 5 20.8 198 
 BAR2 SZ I         0 6 34.39         9.0 0.23                          20.8 198 
 GIR2 SZ EP   3    0 6 17.91                             166   -0.30 2 34.9 347 
 BRR  HZ EP   1    0 6 19.80                             151   -0.01 7 74.8 300 
 BRR  HZ I         0 6 19.99         8.0 0.18                          74.8 300 
 BRR  HE ES   2    0 6 36.89                             151    0.49 5 74.8 300 
 PAM  SZ EP   1    0 6 20.70                             150   -0.03 7 78.4  37 
 PAM  SN ES   2    0 6 38.07                             150    0.03 5 78.4  37 
 RUS  HZ EP   2    0 6 22.41                             145    0.44 5 97.2 177 
 RUS  HN ES   2    0 6 40.14                             145   -0.11 5 97.2 177 
 RUS  HZ I         0 6 41.78         3.5 0.44                          97.2 177 
 ZAR  HN ES   2    0 6 56.51                             122   -0.32 4  207 293 
 ZAR  HZ I         0 7  2.05         3.5 0.51                           207 293 
                                                                                
