 2015  323 0707 39.8 L   6.830 -73.183139.4  RSN 26 0.4 2.8LRSN                1
 GAP=107        1.60       3.4     5.0  7.0 -0.1441E+01  0.1172E+02  0.3275E+01E
 Epicentro: ZAPATOCA - SANTANDER                                               3
      97.0      28.0      78.0 18.0  7.0 40.0  0.0  0.1           RSN FPFIT    F
 ACTION:UPD 15-04-30 16:28 OP:nd   STATUS:               ID:20150323070739 L   I
 OLDACT:UP  15-03-23 16:20 OP:stll STATUS:               ID:20150323065735     3
 OLDACT:REG 15-03-23 13:09 OP:stll STATUS:               ID:20150323065735     3
 2015-03-23-0657-35M.COL___275                                                 6
 STAT SP IPHASW D HRMM SECON CODA AMPLIT PERI AZIMU VELO AIN AR TRES W  DIS CAZ7
 BAR2 EZ IP     C  7 7 58.85                             169    0.1110 26.3 180 
 BAR2 EZ ES        7 8 13.48                             169   -0.0310 26.3 180 
 BAR2 EZ I         7 8 15.10       148.8 0.30            166           26.3 180 
 BRR  HZ IP     C  7 8  0.71                             153    0.7310 66.0 298 
 BRR  HE ES        7 8 16.46                             153    0.7510 66.0 298 
 BRR  HZ I         7 8 18.28       123.0 0.12            143           66.0 298 
 PAM  SZ IP     C  7 8  1.69                             149    0.3210 77.6  43 
 PAM  SZ I         7 8  1.96       254.3 0.24            149           77.6  43 
 PAM  SN ES        7 8 18.17                             149   -0.0110 77.6  43 
 RUS  HZ IP     D  7 8  2.80                             141   -0.4110  104 174 
 RUS  HN ES        7 8 21.13                             141   -0.3410  104 174 
 RUS  HZ I         7 8 22.12        46.8 0.26            139            104 174 
 PTB  HZ EP        7 8  5.53                             131   -0.43 9  144 257 
 PTB  HN ES        7 8 26.11                             131   -0.25 9  144 257 
 PTB  HZ I         7 8 28.82       101.3 0.12            123            144 257 
 OCA  HZ IP     C  7 8  7.00                             129   -0.27 9  157 354 
 OCA  HN ES        7 8 28.77                             129    0.07 9  157 354 
 OCA  HZ I         7 8 36.11       200.4 0.46            123            157 354 
 SPBC HZ EP     D  7 8  7.81                             127   -0.02 9  163 217 
 SPBC HN ES        7 8 29.59                             127   -0.11 9  163 217 
 SPBC HZ I         7 8 37.89        66.4 0.42            122            163 217 
 ZAR  HZ EP        7 8 11.47                             121    0.15 9  199 292 
 ZAR  HE ES        7 8 35.99                             121    0.09 9  199 292 
 ZAR  HZ I         7 8 43.15        62.8 0.30            115            199 292 
 NOR  HZ EP        7 8 15.07                             117    0.04 8  233 233 
 NOR  HN ES        7 8 42.07                             117   -0.43 8  233 233 
 NOR  HZ I         7 8 49.95        44.7 0.14            112            233 233 
 SML  HZ EP        7 8 15.01                             116   -0.56 8  239 336 
 SML  HE ES        7 8 43.54                             116    0.08 8  239 336 
 SML  HZ I         7 8 51.29        99.2 0.10            111            239 336 
 ROSC BZ EP     D  7 8 18.70                             115    1.03 8  254 210 
 ROSC BE ES        7 8 47.32                             115    0.11 8  254 210 
 ROSC BZ I         7 8 54.49        54.0 0.35            111            254 210 
 HEL  HZ EP        7 8 19.02                             113   -0.33 8  269 255 
 HEL  HN ES        7 8 50.04                             113   -0.16 8  269 255 
 HEL  HZ I         7 8 58.13        32.9 0.52            109            269 255 
 URE  HZ EP        7 8 18.90                             112   -1.11 7  279 292 
 URE  HN ES        7 8 51.10                             112   -0.26 7  279 292 
 URE  HZ I         7 9  3.23        37.6 0.16            108            279 292 
 GUY2CHZ EP        7 8 23.24                             111    0.27 7  300 234 
 GUY2CHE ES        7 8 56.88                             111    0.24 7  300 234 
 GUY2CHZ I         7 9  3.41        30.2 0.36                           300 234 
 VIL  SZ EP        7 8 22.92                             110   -0.30 7  306 191 
 VIL  SN ES        7 8 56.31                             110   -0.77 7  306 191 
 VIL  SZ I         7 9  0.79        28.9 0.30            107            306 191 
 PTGC HZ EP   9    7 8 21.88                             110   -2.03 0  313 158 
 PTGC HZ I         7 8 22.48        42.0 0.18            107            313 158 
 PTGC HN ES        7 8 54.26                                   -2.02 7  313 158 
 CBOC HZ EP        7 8 26.85                             109    0.71 7  331 251 
 CBOC HZ I         7 9  7.38        12.6 0.18            105            331 251 
 DBB  SZ EP        7 8 26.57                             108    0.04 7  335 274 
 DBB  SZ I         7 9  4.97        54.7 0.34            104            335 274 
 MON  HZ EP   9    7 8 26.32                             107   -1.64 0  348 308 
 MON  HN ES        7 9  2.81                                   -1.07 6  348 308 
 MON  HZ I         7 9 22.11        17.5 0.50            104            348 308 
 ARGC HZ EP   9    7 8 29.25                             107    0.55 0  355 341 
 ARGC HE ES        7 9  6.97                                   -0.42 6  355 341 
 ARGC HZ I         7 9 10.62        17.3 0.32            104            355 341 
 ANIL HZ EP        7 8 30.14                             107    0.82 6  357 224 
 ANIL HN ES        7 9  7.73                             107   -0.21 6  357 224 
 SDV  BZ IP   9 D  7 8 28.56                             107   -1.18 0  361  51 
 SDV  BZ I         7 8 29.10        17.3 0.15            104            361  51 
 SDV  BN ES        7 9  5.39                                   -2.12 6  361  51 
 ORTC HZ EP        7 8 33.72                             105    0.17 6  396 215 
 ORTC HE ES        7 9 15.84                             105    0.37 6  396 215 
 ORTC HZ I         7 9 21.81        22.6 0.42            102            396 215 
 SJC  HZ EP   9 D  7 8 32.88                             105   -1.69 0  404 327 
 SJC  HN ES        7 9 13.64                                   -1.96 6  404 327 
 SJC  HZ I         7 9 18.95        20.2 0.42            101            404 327 
 CRJC HZ EP   9    7 8 39.34                             102   -2.43 0  465   4 
 CRJC HE ES        7 9 25.49                                   -2.18 5  465   4 
 CRJC HZ I         7 9 34.49        14.2 0.48             99            465   4 
 SMAR HZ EP   9    7 8 43.71                             101   -1.31 0  493 347 
 SMAR HN ES        7 9 30.40                                   -4.18 4  493 347 
                                                                                
