 2012  423 0420 11.0 L   6.761 -73.204148.5  RSN  5 0.2 1.1LRSN                1
 GAP=131        0.59       5.3     4.6  8.2  0.1321E+01 -0.8001E+01 -0.1509E+02E
 Epicentro: VILLANUEVA - SANTANDER                                             3
 ACTION:UPD 12-07-05 11:55 OP:tino STATUS:               ID:20120423042011 L   I
 2012-04-23-0420-00M.COL___186                                                 6
 STAT SP IPHASW D HRMM SECON CODA AMPLIT PERI AZIMU VELO AIN AR TRES W  DIS CAZ7
 BAR2 SZ EP   2    420 30.74                             172    -0.1 5   19 173 
 BRR  HZ EP        420 32.54                             154     0.310   68 304 
 BRR  HZ I         420 32.91         4.4 0.09                            68 304 
 BRR  HN ES   1    420 48.91                             154     0.1 7   68 304 
 PAM  SZ EP        420 33.71                             149    -0.210   85  41 
 RUS  HN ES   1    420 53.39                             145     0.1 7   97 172 
 PTB  HZ EP   1    420 37.67                             134     0.1 7  141 260 
 PTB  HN ES   1    420 57.89                             134    -0.4 7  141 260 
 PTB  HZ I         421  1.05         1.0 0.24                           141 260 
                                                                                
