 2015  323 0041 26.5 L   6.821 -73.188145.5  RSN  6 0.6 1.3LRSN                1
 GAP=130        1.37       4.9     7.3 10.1 -0.2596E+01  0.1686E+02 -0.2520E+01E
 Epicentro: ZAPATOCA - SANTANDER                                               3
 ACTION:UPD 15-04-30 16:28 OP:nd   STATUS:               ID:20150323004126 L   I
 OLDACT:REG 15-03-23 12:54 OP:stll STATUS:               ID:20150323003744     3
 2015-03-23-0037-44M.COL___281                                                 6
 STAT SP IPHASW D HRMM SECON CODA AMPLIT PERI AZIMU VELO AIN AR TRES W  DIS CAZ7
 BRR  HZ EP        041 48.18                             154    0.8310 66.0 299 
 BRR  HN ES        042  4.09                             154    0.4910 66.0 299 
 PAM  SN ES        042  5.85                             150   -0.3010 78.7  43 
 PAM  SZ I         042  8.30         2.7 0.22            156           78.7  43 
 RUS  HZ EP        041 50.41                             143   -0.0210  103 174 
 RUS  HN ES        042  8.77                             143   -0.3210  103 174 
 RUS  HZ I         042 11.97         1.9 0.18            145            103 174 
 PTB  HZ EP        041 53.21                             133    0.12 9  144 258 
 PTB  HN ES        042 12.78                             133   -1.04 9  144 258 
 PTB  HZ I         042 19.78         3.6 0.54            134            144 258 
 SPBC HZ EP        041 55.18                             129    0.29 9  162 217 
 SPBC HN ES        042 17.40                             129    0.38 9  162 217 
 SPBC HZ I         042 22.86         4.5 0.10            131            162 217 
 SML  HZ EP        042  1.75                             118   -0.95 8  240 336 
 SML  HN ES        042 31.21                             118    0.30 8  240 336 
                                                                                
