 2012  223 0341 10.2 L   6.703 -73.155151.1  RSN  4 0.2 1.4LRSN                1
 GAP=199        0.46       7.4     4.8  5.4 -0.2249E+01  0.6654E+01  0.1220E+02E
 ACTION:UP  12-03-07 16:33 OP:epov STATUS:               ID:20120223034110 L   I
 2012-02-23-0340-00M.COL___191                                                 6
 STAT SP IPHASW D HRMM SECON CODA AMPLIT PERI AZIMU VELO AIN AR TRES W  DIS CAZ7
 BAR2 SZ EP   1    341 30.34                             175    0.05 7 12.6 194 
 BAR2 SZ ES   1    341 46.10                             175    0.13 7 12.6 194 
 BAR2 SZ I         341 47.07         3.6 0.26                          12.6 194 
 GIR2 SZ ES   1    341 46.54                             164   -0.35 7 41.8 354 
 BRR  HZ EP   1    341 32.23                             152    0.05 7 76.0 306 
 BRR  HZ I         341 32.46         6.7 0.16                          76.0 306 
 BRR  HE ES   1    341 49.65                             152    0.31 7 76.0 306 
 PTB  HZ EP   1    341 37.30                             134   -0.04 7  145 263 
 PTB  HN ES   1    341 58.36                             134   -0.17 7  145 263 
                                                                                
