 2012  623 0746  4.7 L   6.787 -73.169143.6  RSN 10 0.5 1.9LRSN                1
 GAP=134        0.89       4.4     5.1  6.9 -0.2831E+01  0.9505E+01  0.4259E+01E
 Epicentro: LOS SANTOS - SANTANDER                                             3
 ACTION:UPD 12-08-06 17:51 OP:ep   STATUS:               ID:20120623074604 L   I
 2012-06-23-0740-00M.COL___199                                                 6
 STAT SP IPHASW D HRMM SECON CODA AMPLIT PERI AZIMU VELO AIN AR TRES W  DIS CAZ7
 BAR2 SZ IP        746 23.94                             171   -0.0610 21.6 184 
 BAR2 SZ ES   1    746 38.50                             171   -0.58 7 21.6 184 
 BAR2 SZ I         746 41.33        25.5 0.22                          21.6 184 
 BRR  HZ IP     C  746 25.70                             153    0.2110 69.6 301 
 BRR  HZ I         746 25.96        50.6 0.30                          69.6 301 
 BRR  HN ES   1    746 42.74                             153    1.01 7 69.6 301 
 PAM  SZ EP        746 26.90                             150    0.0810 80.1  40 
 PAM  SN ES   1    746 43.90                             150   -0.20 7 80.1  40 
 PAM  SZ I         746 46.24         7.8 0.72                          80.1  40 
 RUS  HZ EP   1    746 27.96                             144   -0.16 7 99.4 174 
 RUS  HN ES   1    746 46.77                             144    0.36 7 99.4 174 
 RUS  HZ I         746 48.18         7.9 0.46                          99.4 174 
 PTB  HZ EP        746 30.47                             132   -0.73 9  145 259 
 PTB  HN ES   2    746 51.14                             132   -0.75 5  145 259 
 PTB  HZ I         746 53.94         6.7 0.22                           145 259 
 OCA  HZ EP   2    746 32.69                             129   -0.23 5  161 354 
 OCA  HZ I         747  2.31        12.7 0.48                           161 354 
 ZAR  HE ES   2    747  1.52                             122   -0.30 4  202 293 
 NOR  SZ EP   1    746 40.06                             118    0.10 6  232 234 
 NOR  SN ES   2    747  7.40                             118   -0.08 4  232 234 
 CHI  HZ EP   1    746 42.28                             117    0.25 6  247 195 
 CHI  HN ES   1    747 11.41                             117    0.25 6  247 195 
 CHI  HZ I         747 13.93         4.4 0.30                           247 195 
 HEL  HZ EP   2    746 45.81                             115    1.36 4  269 256 
 HEL  HN ES   2    747 15.79                             115    0.31 4  269 256 
 HEL  HZ I         747 23.47         3.0 0.26                           269 256 
                                                                                
