 2012  423 0456  6.9 L   6.791 -73.163145.6  RSN  4 0.3 1.3LRSN                1
 GAP=135        0.66       4.7     4.4  7.5 -0.3810E+01  0.4849E+00  0.3130E+01E
 Epicentro: LOS SANTOS - SANTANDER                                             3
 ACTION:UPD 12-07-05 11:55 OP:tino STATUS:               ID:20120423045606 L   I
 2012-04-23-0450-00M.COL___186                                                 6
 STAT SP IPHASW D HRMM SECON CODA AMPLIT PERI AZIMU VELO AIN AR TRES W  DIS CAZ7
 BRR  HZ EP   1    456 28.26                             153     0.3 7   70 300 
 BRR  HE ES   1    456 44.71                             153     0.3 7   70 300 
 PAM  SZ EP        456 29.17                             150     0.010   79  40 
 PAM  SN ES   1    456 46.35                             150    -0.3 7   79  40 
 RUS  HZ EP   1    456 30.37                             144    -0.2 7  100 175 
 RUS  HN ES   1    456 49.24                             144     0.2 7  100 175 
 RUS  HZ I         456 50.82         2.4 0.27                           100 175 
 PTB  HZ EP   1    456 33.85                             132     0.2 7  146 259 
 PTB  HE ES   1    456 53.99                             132    -0.6 7  146 259 
 PTB  HZ I         457  1.62         2.8 0.41                           146 259 
                                                                                
