 2013  123 0044  2.2 L   6.796 -73.137143.7  RSN  8 0.4 2.2LRSN 2.8WRSN        1
 SPEC AVERAGE  MO 13.3 ST  3.4 OM  2.0 f0 4.42 R0.3364 AL 2.24 WI 17.4 MW  2.8 3
 SPEC SD       MO  0.3 ST  2.1 OM  0.6 f00.479 R0.0382 AL      WI      MW  0.2 3
 GAP= 72        1.11       4.4     3.7  7.4  0.2576E+01  0.5816E+00  0.8494E+00E
 Epicentro: LOS SANTOS - SANTANDER                                             3
 SPEC ZAR HH E MO 13.7 ST  6.6 OM  1.9 f0 4.69 R0.3134 AL 2.17 WI 24.4 MW  3.1 3
 SPEC ZAR HH E T 04459 K 0.000 GD  250 VS 4.20 DE 3.00 Q0230.0 QA 0.60 VS 4.20 3
 SPEC RUS HH N MO 12.9 ST0.552 OM  1.3 f0 3.66 R0.4016 AL 2.05 WI 10.8 MW  2.6 3
 SPEC RUS HH N T 04443 K 0.000 GD  175 VS 4.20 DE 3.00 Q0230.0 QA 0.60 VS 4.20 3
 SPEC OCA HH N MO 13.6 ST  5.0 OM  1.9 f0 4.50 R0.3267 AL 2.00 WI 24.9 MW  3.0 3
 SPEC OCA HH N T 04450 K 0.000 GD  215 VS 4.20 DE 3.00 Q0230.0 QA 0.60 VS 4.20 3
 SPEC PAM SH Z MO 13.4 ST  2.3 OM  1.0 f0 4.19 R0.3508 AL 2.14 WI  6.8 MW  2.8 3
 SPEC PAM SH Z T 04424 K 0.000 GD  163 VP 7.60 DE 3.00 Q0230.0 QA 0.60 VS 4.20 3
 SPEC BRR HH N MO 13.2 ST  2.7 OM  1.6 f0 5.08 R0.2894 AL 2.85 WI 20.3 MW  2.7 3
 SPEC BRR HH N T 04440 K 0.000 GD  160 VS 4.20 DE 3.00 Q0230.0 QA 0.60 VS 4.20 3
 ACTION:UPD 13-02-15 09:16 OP:ep   STATUS:               ID:20130123004402 L   I
 2013-01-23-0038-40M.COL___184                                                 6
 STAT SP IPHASW D HRMM SECON CODA AMPLIT PERI AZIMU VELO AIN AR TRES W  DIS CAZ7
 BAR2 SZ EP        044 21.96                             170    0.3810 23.0 192 
 BAR2 SZ ES        044 36.71                             170    0.0110 23.0 192 
 BAR2 SZ I         044 38.07        32.9 0.22            172           23.0 192 
 BRR  HZ EP        044 23.46                             152    0.2710 72.2 299 
 BRR  HN ES        044 40.16                             152    0.6010 72.2 299 
 BRR  HN I         044 40.87        36.3 0.20            150           72.2 299 
 PAM  SZ EP        044 24.58                             150    0.3910 77.2  39 
 PAM  SN ES        044 41.40                             150    0.0610 77.2  39 
 PAM  SE I         044 43.74        16.1 0.52            151           77.2  39 
 RUS  HZ EP        044 25.75                             144    0.0410  100 177 
 RUS  HN ES        044 44.10                             144    0.0510  100 177 
 PTB  HZ EP        044 28.76                             131   -0.32 9  149 259 
 PTB  HN ES        044 49.38                             131   -0.66 9  149 259 
 PTB  HN I         044 51.98        16.9 0.34            131            149 259 
 TAM  HZ EP        044 30.06                             130    0.44 9  154 105 
 TAM  HN ES        044 50.13                             130   -0.88 9  154 105 
 OCA  HN ES        044 51.80                             129   -0.61 9  161 353 
 OCA  HE I         044 54.22        35.6 0.30            129            161 353 
 ZAR  HN ES        044 59.82                             122   -0.09 9  205 292 
 ZAR  HE I         045  5.80        20.6 0.22            122            205 292 
                                                                                
