 2010  223 0430 26.2 L   6.796 -72.992147.0  RSN 13 0.4 2.5LRSN                1
 GAP=199        0.83       3.1     7.6  5.5 -0.4346E+01  0.2099E+02  0.1614E+01E
 Epicentro: CEPITA - SANTANDER                                                 3
 ACTION:UP  10-08-24 09:50 OP:vdl  STATUS:               ID:20100223043026 L   I
 2010-02-23-0428-51S.COL___094                                                 6
 STAT SP IPHASW D HRMM SECON CODA AMPLIT PERI AZIMU VELO SNR AR TRES W  DIS CAZ7
 BAR2 SZ IP        430 46.15                             168     0.010   31 223 
 BAR2 SZ ES        431  1.36                             168    -0.310   31 223 
 GIR2 SZ EP        430 46.22                             165     0.010   38 325 
 GIR2 SZ ES   2    431  2.34                             165     0.5 5   38 325 
 BRR  HZ IP        430 48.06                             148    -0.310   87 293 
 BRR  HZ I         430 48.23       100.3 0.15                            87 293 
 RUS  BZ EP        430 50.07                             144     0.010  100 186 
 RUS  BE ES   1    431  8.90                             144     0.3 7  100 186 
 RUS  BZ I         431  9.82        31.6 0.40                           100 186 
 OCA  SZ EP        430 54.91                             129     0.0 9  164 347 
 OCA  SZ ES        431 17.43                             129     0.1 9  164 347 
 CHI  HZ EP        431  4.19                             117    -0.2 8  253 199 
 CHI  HN ES   2    431 33.85                             117    -0.4 4  253 199 
 CHI  HZ I         431 39.25        14.8 0.36                           253 199 
 ROSC BZ EP        431  5.41                             116     0.1 8  262 214 
 ROSC BN ES   2    431 35.86                             116     0.0 4  262 214 
 ROSC BZ I         431 39.63        20.9 0.52                           262 214 
 HEL  HZ EP        431  8.23                             113     0.0 7  288 257 
 HEL  HZ I         431 44.91        10.9 0.54                           288 257 
 GUY  HZ EP        431 12.33                             111     0.9 7  315 237 
 GUY  HE ES   2    431 46.40                             111    -0.3 3  315 237 
 RREF BZ EP        431 14.62                             110     0.8 7  335 231 
 RREF BN ES   1    431 51.16                             110     0.2 5  335 231 
 RREF BZ I         431 57.60        20.1 0.43                           335 231 
 TOL  SZ EP        431 15.92                             109     0.1 6  355 227 
 DBB  SZ EP        431 14.84                             109    -0.8 6  356 274 
 PRA  HZ EP        431 19.94                             106    -0.8 6  400 212 
 PRA  HN ES   2    432  3.43                             106     0.2 3  400 212 
                                                                                
