 2011  423 0419 57.5 L   6.755 -73.084147.5  RSN  6 0.4 1.5LRSN                1
 GAP=147        0.91       5.2     8.1  7.8 -0.9356E+01  0.1148E+02 -0.1020E+01E
 Epicentro: LOS SANTOS - SANTANDER                                             3
 ACTION:UP  11-06-22 15:32 OP:REBC STATUS:               ID:20110423041957 L   I
 2011-04-23-0419-44S.COL___138                                                 6
 STAT SP IPHASW D HRMM SECON CODA AMPLIT PERI AZIMU VELO SNR AR TRES W  DIS CAZ7
 BAR2 SZ ES   2    420 32.57                             171    -0.1 5   21 211 
 BAR2 SZ I         420 34.11        10.3 0.29                            21 211 
 PAM  SZ EP        420 20.33                             151     0.510   77  33 
 PAM  SZ I         420 20.53         3.1 0.17                            77  33 
 PAM  SN ES   1    420 36.65                             151    -0.7 7   77  33 
 BRR  HZ EP   2    420 19.38                             150     0.1 5   80 299 
 BRR  HZ I         420 20.78         8.3 0.09                            80 299 
 BRR  HN ES   1    420 36.71                             150     0.4 7   80 299 
 RUS  HZ EP        420 21.14                             146     0.110   95 180 
 RUS  HN ES   1    420 39.38                             146     0.0 7   95 180 
 RUS  HZ I         420 40.85         6.2 0.42                            95 180 
 OCA  SZ EP        420 26.23                             129    -0.2 9  166 351 
 OCA  SZ I         420 51.06         3.8 0.28                           166 351 
 NOR  SZ EP        420 33.25                             118    -0.3 8  237 236 
 NOR  SN ES   3    421  0.81                             118    -0.9 2  237 236 
                                                                                
