 2014 1023 0349 39.7 L   6.813 -73.092150.5  RSN 20 0.5 2.3LRSN                1
 GAP=143        1.03       2.7     4.8  6.0 -0.1907E+01  0.5806E+01  0.1614E+01E
 Epicentro: LOS SANTOS - SANTANDER                                             3
 ACTION:UPD 14-11-29 23:55 OP:nd   STATUS:               ID:20141023034939 L   I
 OLDACT:DUP 14-10-26 09:40 OP:fm   STATUS:               ID:20141023034745d    3
 2014-10-23-0347-44M.COL___277                                                 6
 STAT SP IPHASW D HRMM SECON CODA AMPLIT PERI AZIMU VELO AIN AR TRES W  DIS CAZ7
 BAR2 SZ EP        350  0.25                             170    0.3310 26.4 202 
 BAR2 SZ I         350 17.01        28.2 0.28            168           26.4 202 
 PAM  SN ES   1    350 19.13                             153   -0.49 7 72.6  37 
 PAM  SZ I         350 22.52        22.8 0.56            156           72.6  37 
 BRR  HZ EP        350  2.17                             152    0.5910 75.8 295 
 BRR  HN ES        350 19.55                             152    0.8710 75.8 295 
 BRR  HZ I         350 21.91        22.3 0.16            151           75.8 295 
 RUS  HZ EP        350  3.98                             144    0.0110  102 179 
 RUS  HN ES        350 22.50                             144   -0.4210  102 179 
 RUS  HZ I         350 25.78        12.5 0.40            145            102 179 
 PTB  HZ EP        350  7.07                             132   -0.50 9  154 259 
 PTB  HN ES        350 28.47                             132   -0.86 9  154 259 
 PTB  HZ I         350 34.31        30.6 0.36            132            154 259 
 OCA  HZ EP        350  8.42                             131    0.13 9  160 351 
 OCA  HN ES        350 30.76                             131    0.15 9  160 351 
 OCA  HZ I         350 36.35        19.6 0.26            132            160 351 
 SPBC HZ EP        350  9.20                             129    0.21 9  168 220 
 SPBC HE ES        350 31.67                             129   -0.19 9  168 220 
 SPBC HZ I         350 38.45        44.2 0.32            130            168 220 
 SML  HZ EP        350 16.31                             118   -0.38 8  245 334 
 SML  HN ES        350 45.09                             118   -0.48 8  245 334 
 SML  HZ I         350 48.29        20.8 0.10            119            245 334 
 CHI  HZ EP        350 17.70                             118   -0.25 8  252 196 
 CHI  HN ES        350 47.92                             118    0.10 8  252 196 
 CHI  HZ I         350 53.58        10.2 0.30            119            252 196 
 ROSC BZ EP        350 18.96                             117    0.44 8  257 212 
 ROSC BN ES   4    350 51.61                             117    2.79 0  257 212 
 ROSC BZ I         350 53.75        21.2 0.40            118            257 212 
 HEL  HN ES        350 53.16                             115    0.29 7  278 256 
 HEL  HZ I         350 59.05        11.8 0.34            116            278 256 
 URE  HZ EP   1    350 20.64                             114   -0.88 5  289 291 
 URE  HN ES   4    350 50.25                             114   -3.91 0  289 291 
 URE  HZ I         351  1.10        13.1 0.30            115            289 291 
 GUY2CHN ES   4    351  2.50                             113    3.68 0  307 235 
 GUY2CHZ I         351  7.16        15.6 0.76                           307 235 
 CBOC HZ EP        350 28.02                             110    0.55 7  340 252 
 CBOC HE ES   4    351  2.12                             110   -2.64 0  340 252 
 CBOC HZ I         351 11.95         3.4 0.38            111            340 252 
 DBB  SZ EP   1    350 27.63                             110   -0.37 5  345 274 
 DBB  SZ ES   4    351  2.15                             110   -3.55 0  345 274 
 TOL  SN ES        351  7.10                             110    0.13 6  349 225 
 TOL  SZ I         351 13.79        22.7 0.52            111            349 225 
 MON  HZ EP   4    350 27.63                             109   -1.65 0  357 308 
 MON  HN ES   4    351  5.86                             109   -2.13 0  357 308 
 MON  HZ I         351  8.70         5.2 0.42            110            357 308 
 PRA  HN ES   1    351 15.93                             107   -0.17 4  396 210 
 PRA  HZ I         351 21.74        10.6 0.60            108            396 210 
 ORTC HN ES   1    351 17.43                             107    0.52 4  400 217 
 ORTC HZ I         351 21.98         6.4 0.34            108            400 217 
 SJC  HN ES   4    351 14.57                             106   -4.70 0  411 326 
 SJC  HZ I         351 28.83         2.7 0.30            107            411 326 
                                                                                
