 2017  823 0434  7.7 L   6.766 -73.095143.7  RSN  6 0.4 1.4LRSN                1
 GAP=145        0.96       4.4     5.8  7.0 -0.5948E+01  0.4235E+01  0.3758E+01E
 Epicentro: LOS SANTOS - SANTANDER                                             3
 ACTION:UPD 17-09-04 20:23 OP:rebc STATUS:               ID:20170823043407 L   I
 OLDACT:REG 17-08-23 12:50 OP:osc  STATUS:               ID:20170823042743     3
 2017-08-23-0428-00M.COL___405                                                 6
 STAT SP IPHASW D HRMM SECON CODA AMPLIT PERI AZIMU VELO AIN AR TRES W  DIS CAZ7
 BAR2 EZ EP        434 26.77                             171   -0.2410 21.5 207 
 BAR2 EZ ES        434 42.14                             171    0.0410 21.5 207 
 PAM  EZ EP        434 29.68                             151    0.0410 77.0  35 
 PAM  EE ES        434 47.02                             151    0.2410 77.0  35 
 PAM  EZ I         434 48.96         4.7 0.40            152           77.0  35 
 BRR  HZ EP        434 28.54                             150   -0.4410 77.9 299 
 BRR  HN ES        434 45.90                             150    0.2910 77.9 299 
 RUS  HZ EP        434 30.86                             145   -0.0610 96.6 179 
 RUS  HE ES        434 48.59                             145   -0.4710 96.6 179 
 RUS  HZ I         434 50.73         2.6 0.34            145           96.6 179 
 SPBC HZ EP        434 36.73                             128    0.66 9  164 221 
 SPBC HE ES        434 58.57                             128    0.34 9  164 221 
 SPBC HZ I         435  0.30         5.0 0.30            130            164 221 
 ZAR  HE ES   2    435  5.10                             121   -1.30 4  211 293 
                                                                                
