 2011  223 0533 56.1 L   6.768 -73.049142.1  RSN  8 0.2 1.7LRSN                1
 GAP=170        0.44       2.8     9.3  5.9 -0.1329E+02  0.1829E+02 -0.2156E+01E
 Epicentro: LOS SANTOS - SANTANDER                                             3
 ACTION:UP  11-03-28 15:10 OP:jfem STATUS:               ID:20110223053356 L   I
 2011-02-23-0532-22S.COL___136                                                 6
 STAT SP IPHASW D HRMM SECON CODA AMPLIT PERI AZIMU VELO SNR AR TRES W  DIS CAZ7
 BAR2 SZ EP   1    534 15.40                             170     0.0 7   25 217 
 BAR2 SZ ES   2    534 30.11                             170    -0.2 5   25 217 
 BAR2 SZ I         534 32.55        14.9 0.32                            25 217 
 BTL  SZ EP        534 15.70                             168     0.210   29 305 
 GIR2 SZ EP   2    534 15.69                             164     0.1 5   38 335 
 RUS  HZ EP   2    534 19.37                             144     0.1 5   97 182 
 RUS  HN ES   2    534 37.07                             144    -0.2 5   97 182 
 RUS  HZ I         534 41.57         5.2 0.45                            97 182 
 GRA  SZ EP   1    534 21.01                             136    -0.1 7  126  12 
 GRA  SZ ES   1    534 40.67                             136     0.1 7  126  12 
 GRA  SZ I         534 43.19         8.0 0.29                           126  12 
 OCA  SZ EP   2    534 24.22                             128    -0.4 5  165 350 
 OCA  SZ ES   2    534 46.59                             128    -0.3 5  165 350 
 OCA  SZ I         534 51.60        12.1 0.24                           165 350 
 CHI  HZ EP   2    534 33.16                             116    -0.4 4  248 198 
 CHI  HE ES   2    535  2.85                             116     0.0 4  248 198 
 CHI  HZ I         535  6.91         1.8 0.44                           248 198 
 HEL  HZ EP   2    534 37.38                             113     0.1 4  282 257 
 HEL  HZ I         535 14.45         3.3 0.43                           282 257 
                                                                                
