 2011  623 0536 17.0 L   6.821 -73.124147.2  RSN 10 0.3 1.5LRSN                1
 GAP=138        0.56       2.8     4.5  5.0 -0.5204E+01  0.2994E+00  0.1381E+01E
 Epicentro: LOS SANTOS - SANTANDER                                             3
 ACTION:UP  11-07-14 19:07 OP:ep   STATUS:               ID:20110623053617 L   I
 2011-06-23-0534-43S.COL___140                                                 6
 STAT SP IPHASW D HRMM SECON CODA AMPLIT PERI AZIMU VELO SNR AR TRES W  DIS CAZ7
 BTL  SZ EP   1    536 36.82                             172     0.1 7   19 304 
 BTL  SZ ES   2    536 51.99                             172    -0.1 5   19 304 
 BAR2 SZ EP   1    536 36.92                             169     0.0 7   26 194 
 BAR2 SZ I         536 37.40         6.4 0.20                            26 194 
 GIR2 SZ EP   1    536 36.79                             168     0.0 7   29 345 
 GIR2 SZ ES   2    536 51.96                             168    -0.3 5   29 345 
 BRR  HZ EP   1    536 37.99                             152    -0.4 7   72 296 
 BRR  HZ I         536 44.03        11.7 0.35                            72 296 
 BRR  HE ES   1    536 55.62                             152     0.6 7   72 296 
 PAM  SZ EP   1    536 39.62                             152     0.4 7   74  39 
 PAM  SN ES   2    536 56.45                             152     0.0 5   74  39 
 RUS  HZ EP   1    536 41.11                             143     0.0 7  103 177 
 RUS  HN ES   1    536 59.71                             143    -0.1 7  103 177 
 RUS  HZ I         537  3.38         2.0 0.51                           103 177 
 BRI  SZ ES   1    536 59.31                             143    -0.1 7  105  20 
 GRA  SZ EP   1    536 42.35                             138     0.2 7  123  17 
 GRA  SZ ES   1    537  1.54                             138    -0.2 7  123  17 
 GRA  SZ I         537  2.33         7.7 0.23                           123  17 
 OCA  SZ EP   1    536 45.14                             130    -0.1 7  158 352 
 OCA  SZ ES   2    537  6.89                             130    -0.4 5  158 352 
 OCA  SZ I         537  7.87         4.2 0.11                           158 352 
 NOR  SN ES   1    537 21.21                             118    -0.2 6  238 234 
                                                                                
