 2012  723 0623 28.0 L   6.845 -73.166145.2  RSN 20 0.5 3.0LRSN                1
 GAP= 56        1.06       3.5     4.3  6.7  0.1984E+01  0.2805E+01  0.3484E+01E
 Epicentro: LOS SANTOS - SANTANDER                                             3
 SPEC SD       MO  0.3 ST 22.5 OM  0.9 f00.813 R0.0677 AL      WI      MW  0.2 3
 SPEC CHI HH Z MO 13.5 ST  1.6 OM  1.7 f0 3.21 R0.4579 AL 2.24 WI  9.7 MW  3.0 3
 SPEC CHI HH Z T 62434 K 0.000 GD  291 VS 4.20 DE 3.00 Q0230.0 QA 0.60 VS 4.20 3
 SPEC ROSCBH Z MO 13.8 ST  7.2 OM  2.0 f0 4.23 R0.3475 AL 4.43 WI 16.9 MW  3.2 3
 SPEC ROSCBH Z T 62436 K 0.000 GD  294 VS 4.20 DE 3.00 Q0230.0 QA 0.60 VS 4.20 3
 SPEC HEL HH Z MO 13.9 ST  7.2 OM  2.0 f0 4.18 R0.3517 AL 2.78 WI 20.9 MW  3.2 3
 SPEC HEL HH Z T 62439 K 0.000 GD  307 VS 4.20 DE 3.00 Q0230.0 QA 0.60 VS 4.20 3
 SPEC OCA HH N MO 14.4 ST 57.1 OM  2.7 f0 5.50 R0.2673 AL 3.43 WI 17.9 MW  3.5 3
 SPEC OCA HH N T 62416 K 0.000 GD  212 VS 4.20 DE 3.00 Q0230.0 QA 0.60 VS 4.20 3
 ACTION:UPD 12-08-14 11:44 OP:ep   STATUS:               ID:20120723062328 L   I
 2012-07-23-0620-00M.COL___215                                                 6
 STAT SP IPHASW D HRMM SECON CODA AMPLIT PERI AZIMU VELO AIN AR TRES W  DIS CAZ7
 BAR2 SZ IP        623 47.73                             169     0.110   28 184 
 BAR2 SZ ES   2    624  1.87                             169    -1.1 5   28 184 
 BAR2 SZ I         624  5.02       169.2 0.22            155             28 184 
 BRR  HZ IP     C  623 49.49                             154     0.710   67 296 
 BRR  HN ES   1    624  6.00                             154     0.9 7   67 296 
 BRR  HZ I         624 10.24       164.5 0.48            120             67 296 
 RUS  HZ EP        623 51.73                             142    -0.310  106 175 
 RUS  HN ES   2    624 10.47                             142    -0.3 5  106 175 
 RUS  HZ I         624 11.92       163.8 0.28            118            106 175 
 PTB  HZ EP        623 54.22                             132    -0.5 9  147 257 
 PTB  HE ES   1    624 15.49                             132    -0.2 7  147 257 
 PTB  HZ I         624 17.80       124.0 0.48            104            147 257 
 OCA  HZ EP        623 55.68                             130    -0.1 9  155 354 
 OCA  HN ES   1    624 17.08                             130    -0.3 7  155 354 
 OCA  HZ I         624 22.01       279.1 0.20            104            155 354 
 TAM  HZ IP     C  623 56.11                             130     0.2 9  159 106 
 TAM  HZ I         623 56.25       222.5 0.36            107            159 106 
 TAM  HE ES   2    624 17.89                             130     0.2 5  159 106 
 YOP  SZ EP        623 58.60                             125     0.1 9  184 153 
 YOP  SN ES   1    624 22.26                             125    -0.1 7  184 153 
 YOP  SZ I         624 25.52        82.4 0.40            104            184 153 
 ZAR  HZ EP        624  0.11                             123     0.2 9  200 291 
 ZAR  HZ I         624 32.41        81.8 0.28            100            200 291 
 NOR  SZ EP        624  3.64                             118    -0.1 8  236 233 
 NOR  SN ES   1    624 31.24                             118    -0.5 6  236 233 
 CHI  HZ EP        624  6.12                             117     0.0 8  253 194 
 CHI  HZ I         624  8.50        35.9 0.50             98            253 194 
 CHI  HN ES   1    624 35.14                             117    -0.7 6  253 194 
 ROSC BN ES   3    624 37.19                             116     0.8 2  256 210 
 ROSC BZ I         624 44.30        75.6 0.70             98            256 210 
 HEL  HZ EP   1    624  7.78                             115    -0.2 6  271 255 
 HEL  HZ I         624 46.43        64.2 0.66             97            271 255 
 VIL  SZ EP        624 11.76                             112    -0.1 7  308 191 
 VIL  SN ES   1    624 45.72                             112    -0.4 5  308 191 
 VIL  SZ I         624 55.08        28.6 0.48             96            308 191 
 DBB  SZ EP        624 15.48                             109     0.4 7  337 273 
 COD  HZ EP   3    624 14.94                             109    -0.8 2  343 355 
 COD  HN ES   3    624 51.59                             109    -1.4 2  343 355 
 COD  HZ I         625  0.97        18.1 0.32             95            343 355 
 TOL  SZ EP        624 17.05                             109     0.6 6  345 224 
 SDV  BZ EP   2    624 17.22                             108    -0.6 3  359  51 
 SDV  BZ I         624 56.87         3.1 0.30             95            359  51 
 ANIL HZ EP   1    624 19.17                             108     1.2 5  359 224 
 ANIL HZ I         625 11.70       134.3 0.34             95            359 224 
 SJA  SZ EP        624 22.90                             106    -0.1 6  404 192 
 SJA  SZ I         625 19.01        50.1 0.52             94            404 192 
 SJC  HZ IP     D  624 22.08                             106    -0.8 6  404 327 
 SJC  HZ I         625  6.04        24.6 0.34             94            404 327 
