 2017 1123 0337 57.6 L   7.410 -73.125141.4  RSN  6 0.4 1.1LRSN                1
 GAP=186        0.96       5.5     4.8  9.0 -0.2753E+00  0.1785E+02  0.4304E+01E
 Epicentro: EL PLAYON - SANTANDER                                              3
 ACTION:UPD 17-12-12 19:58 OP:rebc STATUS:               ID:20171123033757 L   I
 OLDACT:REG 17-11-23 12:52 OP:osc  STATUS:               ID:20171123033739     3
 2017-11-23-0338-00M.COL___477                                                 6
 STAT SP IPHASW D HRMM SECON CODA AMPLIT PERI AZIMU VELO AIN AR TRES W  DIS CAZ7
 PAM  EZ EP        338 17.81                             161   -0.0310 47.6  99 
 PAM  EN ES        338 33.84                             161    0.2110 47.6  99 
 PAM  EZ I         338 36.46         3.0 0.46            162           47.6  99 
 BAR2 EZ ES        338 37.32                             146    0.0910 90.6 184 
 RUS  HZ EP        338 26.82                             127    0.06 9  168 178 
 RUS  HN ES        338 48.67                             127   -0.83 9  168 178 
 RUS  HZ I         338 49.36         0.9 0.46            130            168 178 
 PTB  HZ EP        338 27.16                             126    0.25 9  176 237 
 PTB  HN ES        338 50.04                             126    0.27 9  176 237 
 PTB  HZ I         338 50.90         1.5 0.20            128            176 237 
 ZAR  HE ES        338 52.02                             123   -0.55 9  192 273 
 SPBC HN ES        338 58.73                             119    0.54 8  221 208 
                                                                                
