 2013  223 0821 46.0 L   7.384 -73.695 28.7  RSN  6 0.4 1.8LRSN                1
 GAP=108        0.81       3.0     2.5  3.7 -0.1001E+01 -0.2206E+00 -0.4787E+01E
 Epicentro: SABANA DE TORRES - SANTANDER                                       3
 ACTION:UPD 13-03-12 09:35 OP:ep   STATUS:               ID:20130223082146 L   I
 2013-02-23-0820-00M.COL___225                                                 6
 STAT SP IPHASW D HRMM SECON CODA AMPLIT PERI AZIMU VELO AIN AR TRES W  DIS CAZ7
 BRR  HZ IP     C  821 52.39                             128   -0.2010 30.7 183 
 BRR  HE ES   1    821 57.81                             128    0.05 7 30.7 183 
 BRR  HZ I         821 58.19        98.1 0.10            123           30.7 183 
 OCA  HZ EP   1    822  1.88                              61   -0.36 7  103  24 
 OCA  HN ES   1    822 14.57                              61   -0.38 7  103  24 
 OCA  HZ I         822 17.45        23.5 0.16            100            103  24 
 BAR2 SZ EP   1    822  3.13                              61    0.65 7  104 147 
 BAR2 SZ ES   1    822 15.14                              61   -0.23 7  104 147 
 BAR2 SZ I         822 18.29        27.2 0.27            100            104 147 
 PAM  SZ EP        822  3.91                              61    0.4110  110  93 
 PAM  SN ES   1    822 17.16                              61   -0.03 7  110  93 
 PAM  SZ I         822 21.65        19.4 0.24             56            110  93 
 PTB  HZ EP   1    822  4.56                              61   -0.32 7  126 222 
 PTB  HN ES   1    822 19.10                              61   -0.55 7  126 222 
 PTB  HZ I         822 20.83        13.8 0.16             56            126 222 
 ZAR  HZ EP   1    822  5.53                              61    0.25 7  129 275 
 ZAR  HN ES   1    822 20.93                              61    0.58 7  129 275 
 ZAR  HZ I         822 22.96        19.7 0.28             56            129 275 
                                                                                
