 2013  723 0815 29.9 L   6.813 -73.121150.0  RSN 12 0.4 2.0LRSN                1
 GAP=186        0.92       3.8     5.1  6.1  0.3681E+01  0.5704E+01  0.8631E+00E
 Epicentro: LOS SANTOS - SANTANDER                                             3
 ACTION:UPD 13-08-12 10:39 OP:ep   STATUS:               ID:20130723081529 L   I
 OLDACT:REG 13-07-23 09:36 OP:cam  STATUS:               ID:20130723081000     3
 2013-07-23-0810-00M.COL___263                                                 6
 STAT SP IPHASW D HRMM SECON CODA AMPLIT PERI AZIMU VELO AIN AR TRES W  DIS CAZ7
 BAR2 SZ EP        815 50.07                             170    0.0310 25.4 196 
 BAR2 SZ ES   1    816  5.62                             170   -0.16 7 25.4 196 
 BAR2 SZ I         816  7.81        18.3 0.28            169           25.4 196 
 GIR2 SZ EP   1    815 50.21                             168    0.19 7 30.5 345 
 BRR  HZ EP     C  815 51.93                             153    0.3610 73.0 296 
 BRR  HN ES        816  9.31                             153    0.8110 73.0 296 
 BRR  HZ I         816 13.21        13.7 0.40            144           73.0 296 
 RUS  HZ EP        815 54.31                             144    0.1910  102 178 
 RUS  HN ES   1    816 12.39                             144   -0.66 7  102 178 
 RUS  HZ I         816 13.70         9.3 0.36            143            102 178 
 PTB  HZ EP        815 56.90                             132   -0.55 9  151 258 
 PTB  HN ES   1    816 18.47                             132   -0.49 7  151 258 
 PTB  HZ I         816 25.74         8.8 0.22            126            151 258 
 OCA  HZ EP   4    815 59.54                             131    1.14 0  159 352 
 OCA  HN ES   1    816 20.00                             131   -0.66 7  159 352 
 ZAR  HZ EP        816  2.78                             123   -0.01 8  206 291 
 ZAR  HE ES        816 28.51                             123    0.03 8  206 291 
 ZAR  HZ I         816 34.26        15.8 0.34            117            206 291 
 NOR  HZ EP   1    816  6.03                             119   -0.14 6  238 235 
 SML  HZ EP        816  6.43                             118   -0.28 8  244 335 
 SML  HN ES   1    816 35.37                             118   -0.09 6  244 335 
 SML  HZ I         816 41.35        16.0 0.28            113            244 335 
 HEL  HZ EP   1    816 11.28                             115    0.65 6  275 256 
 HEL  HN ES   1    816 41.84                             115   -0.58 6  275 256 
 HEL  HZ I         816 49.99         2.7 0.44            111            275 256 
 PRA  HZ EP   1    816 24.04                             107    0.20 4  395 210 
 PRA  HN ES   1    817  6.82                             107    0.88 4  395 210 
 PRA  HZ I         817 11.79         5.7 0.34            104            395 210 
 SJC  HZ EP   4    816 24.26                             106   -1.34 0  410 327 
 SJC  HZ I         817 12.10         1.8 0.22            103            410 327 
                                                                                
