 2017 1023 0223 49.0 L   5.874 -73.864107.3  RSN 10 0.5 1.4LRSN                1
 GAP= 66        1.37       3.3     3.6  7.7  0.5679E-03  0.9106E+00  0.1532E+01E
 Epicentro: JESUS MARIA - SANTANDER                                            3
 ACTION:UPD 17-11-07 19:35 OP:rebc STATUS:               ID:20171023022349 L   I
 OLDACT:REG 17-10-23 12:20 OP:dhb  STATUS:               ID:20171023021740     3
 2017-10-23-0218-00M.COL___405                                                 6
 STAT SP IPHASW D HRMM SECON CODA AMPLIT PERI AZIMU VELO AIN AR TRES W  DIS CAZ7
 SPBC HZ EP        224  3.85                             161   -0.2810 33.6 223 
 SPBC HE ES        224 16.32                             161    0.3610 33.6 223 
 SPBC HZ I         224 16.84        13.6 0.20            162           33.6 223 
 RUS  HZ EP        224  7.33                             139   -0.6710 86.5  89 
 RUS  HN ES        224 22.70                             139   -0.1410 86.5  89 
 RUS  HZ I         224 27.04         2.7 0.14            139           86.5  89 
 PTB  HZ EP        224  7.49                             134   -0.8710 98.5 318 
 PTB  HE ES        224 22.87                             134   -0.6010 98.5 318 
 PTB  HZ I         224 25.17         4.0 0.17            136           98.5 318 
 BAR2 EZ EP        224 10.23                             131    0.5810  110  44 
 BAR2 EZ ES        224 26.09                             131    0.3110  110  44 
 BAR2 EZ I         224 27.49         9.1 0.14            132            110  44 
 NOR  HZ EP        224  9.52                             129   -0.5310  116 253 
 NOR  HN ES        224 26.55                             129    0.0610  116 253 
 NOR  HZ I         224 28.03         6.3 0.32            130            116 253 
 BRR  HZ EP        224 12.21                             124    0.17 9  137   7 
 BRR  HN ES        224 30.74                             124    0.71 9  137   7 
 BRR  HZ I         224 32.21         3.6 0.15            125            137   7 
 CHI  HZ EP        224 12.38                             124   -0.30 9  138 174 
 CHI  HE ES        224 31.15                             124   -0.02 9  138 174 
 CHI  HZ I         224 34.50         3.8 0.36            125            138 174 
 YPLC HZ EP        224 15.30                             117   -0.56 9  173 108 
 YPLC HE ES        224 37.05                             117    0.22 9  173 108 
 YPLC HZ I         224 41.24         7.6 0.34            118            173 108 
 ZAR  HZ IP     C  224 19.73                             112   -0.19 8  210 329 
 ZAR  HN ES        224 44.80                             112    0.74 8  210 329 
 ZAR  HZ I         224 48.89         2.3 0.10            113            210 329 
 PRA  HZ EP        224 26.89                             106    0.65 8  264 205 
 PRA  HE ES        224 56.65                             106    1.35 8  264 205 
 PRA  HZ I         224 59.70         1.3 0.18            107            264 205 
                                                                                
