 2013  823 0150 48.0 L   6.790 -73.190146.1  RSN  7 0.5 1.6LRSN                1
 GAP=197        1.02       4.3     6.0  7.4  0.9453E+01  0.7411E+01 -0.1419E+01E
 Epicentro: ZAPATOCA - SANTANDER                                               3
 ACTION:UPD 14-01-14 09:05 OP:ep   STATUS:               ID:20130823015048 L   I
 OLDACT:REG 13-08-23 07:59 OP:nd   STATUS:               ID:20130823014959     3
 2013-08-23-0149-59M.COL___270                                                 6
 STAT SP IPHASW D HRMM SECON CODA AMPLIT PERI AZIMU VELO AIN AR TRES W  DIS CAZ7
 BAR2 SZ EP   2    151  9.03                             171    1.40 5 21.9 178 
 BAR2 SZ ES        151 22.82                             171   -0.1210 21.9 178 
 BAR2 SZ I         151 23.70        10.2 0.34            171           21.9 178 
 BRR  HZ IP     C  151  8.98                             154    0.0210 67.5 301 
 BRR  HN ES        151 25.96                             154    0.6410 67.5 301 
 BRR  HZ I         151 27.32         6.4 0.30            151           67.5 301 
 RUS  HZ EP        151 11.54                             144   -0.1810 99.9 173 
 RUS  HN ES        151 29.84                             144   -0.4010 99.9 173 
 RUS  HZ I         151 30.95         3.0 0.64            145           99.9 173 
 PTB  HZ EP        151 14.79                             133    0.27 9  143 259 
 PTB  HN ES        151 34.70                             133   -0.52 9  143 259 
 PTB  HZ I         151 37.02         3.7 0.16            132            143 259 
 SPBC HZ EP        151 16.35                             130    0.21 9  159 218 
 SPBC HN ES        151 38.27                             130    0.17 9  159 218 
 SPBC HZ I         151 42.47         5.8 0.44            129            159 218 
 ZAR  HZ EP   4    151 21.58                             123    1.55 0  200 293 
 ZAR  HN ES        151 44.99                             123   -0.03 9  200 293 
 ZAR  HZ I         151 50.41         3.9 0.28            122            200 293 
 SML  HZ EP   4    151 23.07                             118   -1.45 0  243 336 
 SML  HE ES        151 52.42                             118   -0.59 8  243 336 
 SML  HZ I         151 56.28         8.1 0.10            118            243 336 
                                                                                
