 2010  823 0242 58.3 L   6.816 -73.136146.1  RSN  5 0.1 1.3LRSN                1
 GAP=159        0.32       2.9     5.2  4.3  0.3575E+01 -0.7867E+01 -0.7413E+01E
 Epicentro: LOS SANTOS - SANTANDER                                             3
 ACTION:UP  10-09-07 10:57 OP:vdl  STATUS:               ID:20100823024258 L   I
 2010-08-23-0241-21S.COL___120                                                 6
 STAT SP IPHASW D HRMM SECON CODA AMPLIT PERI AZIMU VELO SNR AR TRES W  DIS CAZ7
 BTL  SZ EP        243 17.84                             172     0.010   18 308 
 BTL  SZ ES   1    243 33.11                             172     0.0 7   18 308 
 BRR  HZ IP     C  243 19.51                             152     0.010   71 297 
 BRR  HZ I         243 19.84         8.0 0.12                            71 297 
 BRR  HE ES   2    243 36.03                             152     0.0 5   71 297 
 RUS  HE ES   1    243 40.80                             143     0.0 7  102 177 
 RUS  HZ I         243 41.96         1.6 0.22                           102 177 
 GRA  SZ IP        243 23.46                             137     0.110  124  17 
 GRA  SZ I         243 24.87         1.7 0.26                           124  17 
 OCA  SZ EP   1    243 26.30                             130    -0.2 7  159 353 
 OCA  SZ I         243 52.00         3.2 0.28                           159 353 
                                                                                
