 2016  523 0832 26.2 L   6.814 -73.125149.6  RSN  9 0.4 1.7LRSN                1
 GAP=185        0.83       2.8     5.3  5.4 -0.1553E+01  0.2021E+01  0.1939E+00E
 Epicentro: LOS SANTOS - SANTANDER                                             3
 ACTION:UPD 16-08-18 17:48 OP:cam  STATUS:               ID:20160523083226 L   I
 OLDACT:REG 16-05-23 12:28 OP:mh   STATUS:               ID:20160523082748     3
 2016-05-23-0827-48M.COL___292                                                 6
 STAT SP IPHASW D HRMM SECON CODA AMPLIT PERI AZIMU VELO AIN AR TRES W  DIS CAZ7
 BAR2 EZ EP        832 46.39                             170    0.0610 25.3 195 
 BAR2 EZ ES        833  1.53                             170   -0.5010 25.3 195 
 BAR2 EZ I         833  2.95        11.0 0.22            166           25.3 195 
 BRR  HZ EP        832 48.15                             153    0.3110 72.5 297 
 BRR  HE ES        833  5.42                             153    0.7010 72.5 297 
 BRR  HZ I         833  7.67         7.6 0.30            147           72.5 297 
 RUS  HZ EP   2    832 50.80                             144    0.38 5  102 177 
 RUS  HN ES        833  9.41                             144    0.0810  102 177 
 RUS  HZ I         833 10.01         3.7 0.18            145            102 177 
 PTB  HZ EP        832 53.09                             132   -0.62 9  150 258 
 PTB  HE ES        833 14.84                             132   -0.33 9  150 258 
 PTB  HZ I         833 21.56         4.9 0.18            129            150 258 
 OCA  HZ EP        832 54.53                             131   -0.16 9  159 352 
 OCA  HE ES        833 16.76                             131   -0.16 9  159 352 
 OCA  HZ I         833 19.84         8.2 0.36            131            159 352 
 SPBC HZ EP        832 55.39                             129    0.15 9  166 219 
 SPBC HN ES        833 18.16                             129    0.26 9  166 219 
 SPBC HZ I         833 22.22         7.2 0.16            128            166 219 
 ZAR  HZ EP   3    832 59.84                             123    0.79 2  206 292 
 ZAR  HN ES   4    833 22.23                             123   -2.46 0  206 292 
 ZAR  HZ I         833 29.56         5.7 0.22            121            206 292 
 CHI  HZ EP   2    833  4.81                             118    0.48 4  251 196 
 CHI  HN ES        833 33.87                             118   -0.21 8  251 196 
 CHI  HZ I         833 35.99         2.9 0.40            118            251 196 
 PRA  HZ EP   2    833 20.36                             107    0.22 3  394 210 
 PRA  HN ES   2    834  2.24                             107    0.03 3  394 210 
 PRA  HZ I         834  8.39         3.4 0.72            107            394 210 
                                                                                
