 2010  223 0314 29.0 L   6.810 -73.051140.0  RSN 13 0.6 2.5LRSN                1
 GAP=193        1.23       4.7     8.9  7.0 -0.4247E+01  0.2482E+02  0.4912E+01E
 Epicentro: LOS SANTOS - SANTANDER                                             3
 ACTION:UP  10-08-24 09:50 OP:vdl  STATUS:               ID:20100223031429 L   I
 2010-02-23-0312-18S.COL___094                                                 6
 STAT SP IPHASW D HRMM SECON CODA AMPLIT PERI AZIMU VELO SNR AR TRES W  DIS CAZ7
 BAR2 SZ EP        314 48.12                             168     0.110   28 211 
 BAR2 SZ ES        315  1.75                             168    -1.110   28 211 
 GIR2 SZ IP        314 48.22                             166     0.210   34 332 
 GIR2 SZ ES   2    315  3.84                             166     1.0 5   34 332 
 BRR  HZ IP        314 49.95                             148    -0.110   80 294 
 BRR  HZ I         314 50.12        77.6 0.16                            80 294 
 BRR  HE ES   1    315  7.06                             148     0.6 7   80 294 
 RUS  BZ IP        314 52.34                             142     0.110  102 182 
 RUS  BN ES        315 10.90                             142     0.510  102 182 
 RUS  BZ I         315 11.85        25.0 0.31                           102 182 
 OCA  SZ EP        314 56.46                             128    -0.4 9  161 349 
 OCA  SZ ES   2    315 18.48                             128    -0.2 5  161 349 
 OCA  SZ I         315 26.90        73.5 0.31                           161 349 
 CHI  HZ IP        315  6.65                             115    -0.1 8  253 197 
 CHI  HN ES   2    315 35.85                             115    -0.4 4  253 197 
 CHI  HZ I         315 39.08        14.9 0.31                           253 197 
 ROSC BZ EP        315  8.49                             115     1.0 8  259 213 
 ROSC BE ES   2    315 37.91                             115     0.4 4  259 213 
 ROSC BZ I         315 42.97        27.2 0.30                           259 213 
 HEL  HZ EP        315 10.47                             113     0.4 7  283 256 
 HEL  HN ES   2    315 41.76                             113    -0.4 4  283 256 
 GUY  HZ EP        315 13.70                             110     0.3 7  311 236 
 GUY  HN ES   2    315 47.56                             110    -0.5 3  311 236 
 RREF BZ EP        315 15.37                             109    -0.5 7  331 230 
 RREF BE ES   2    315 53.98                             109     1.5 3  331 230 
 DBB  SZ EP   2    315 16.50                             108    -0.9 3  350 274 
 TOL  SZ EP        315 18.09                             108     0.1 6  352 226 
 TOL  SZ ES   2    315 55.89                             108    -0.3 3  352 226 
 PRA  HZ EP        315 22.19                             105    -0.8 6  398 211 
 PRA  HE ES        316  4.20                             105    -1.0 6  398 211 
 PRA  HZ I         316  8.53        15.2 0.45                           398 211 
                                                                                
