 2015  823 0426 17.5 L   6.810 -73.101146.4  RSN 17 0.5 2.3LRSN                1
 GAP=185        1.04       3.1     5.4  6.3  0.4333E+01  0.3392E+01  0.1121E+01E
 Epicentro: LOS SANTOS - SANTANDER                                             3
 ACTION:UPD 15-09-15 23:04 OP:cam  STATUS:               ID:20150823042617 L   I
 OLDACT:REG 15-08-23 14:37 OP:ar   STATUS:               ID:20150823041745     3
 2015-08-23-0417-45M.COL___334                                                 6
 STAT SP IPHASW D HRMM SECON CODA AMPLIT PERI AZIMU VELO AIN AR TRES W  DIS CAZ7
 BAR2 EZ IP     D  426 37.35                             170    0.0910 25.7 200 
 BAR2 EZ I         426 53.82        25.7 0.22            169           25.7 200 
 BRR  HZ IP     C  426 39.19                             151    0.2510 75.1 296 
 BRR  HN ES        426 56.19                             151    0.5210 75.1 296 
 BRR  HZ I         427  0.09        24.9 0.20            155           75.1 296 
 RUS  HZ EP        426 41.38                             144    0.0010  101 179 
 RUS  HE ES        426 59.76                             144   -0.2410  101 179 
 RUS  HZ I         427  1.17        13.9 0.28            143            101 179 
 SPBC HZ EP        426 46.34                             128   -0.09 9  167 220 
 SPBC HN ES        427  8.34                             128   -0.65 9  167 220 
 SPBC HZ I         427 13.75        25.9 0.22            129            167 220 
 ZAR  HZ EP        426 49.90                             122   -0.52 8  208 291 
 ZAR  HN ES        427 15.37                             122   -0.72 8  208 291 
 ZAR  HZ I         427 20.12        16.2 0.22            124            208 291 
 NOR  HZ EP        426 53.43                             118   -0.34 8  239 235 
 NOR  HN ES   4    427 19.29                             118   -2.76 0  239 235 
 NOR  HZ I         427 29.12        12.3 0.16            119            239 235 
 SML  HZ EP        426 54.12                             117   -0.17 8  245 334 
 SML  HE ES        427 23.28                             117    0.30 8  245 334 
 SML  HZ I         427 25.61        24.6 0.26            118            245 334 
 CHI  HZ EP        426 55.74                             117    0.25 8  251 196 
 CHI  HN ES        427 25.01                             117   -0.12 8  251 196 
 CHI  HZ I         427 31.06         8.6 0.34            117            251 196 
 ROSC BZ EP   2    426 57.56                             116    1.52 4  256 212 
 ROSC BE ES        427 26.68                             116    0.59 8  256 212 
 ROSC BZ I         427 31.87        20.5 0.45            117            256 212 
 HEL  HZ EP        426 59.24                             114    0.93 7  277 256 
 HEL  HN ES   2    427 30.49                             114    0.36 4  277 256 
 URE  HE ES   4    427 28.56                             113   -2.93 0  288 291 
 URE  HZ I         427 39.46        11.6 0.18            114            288 291 
 GUY2CHZ EP   2    427  2.53                             112    0.86 4  306 235 
 GUY2CHN ES   4    427 37.63                             112    1.52 0  306 235 
 GUY2CHZ I         427 47.51         8.5 0.48                           306 235 
 PTGC HZ EP        427  0.65                             112   -0.65 7  308 160 
 PTGC HE ES   4    427 34.26                             112   -1.21 0  308 160 
 PTGC HZ I         427 58.46        22.3 0.38            111            308 160 
 DBB  SZ EP        427  4.77                             109   -0.79 7  344 274 
 DBB  SZ ES   2    427 42.27                             109   -0.77 3  344 274 
 DBB  SZ I         427 43.24        18.8 0.64            110            344 274 
 TOL  SZ EP        427  7.13                             109    0.86 6  348 225 
 TOL  SN ES   2    427 44.92                             109    0.61 3  348 225 
 TOL  SZ I         427 49.05         6.8 0.26            109            348 225 
 ORTC HE ES        427 54.22                             106   -0.09 6  399 217 
 ORTC HZ I         428  1.19         4.6 0.26            106            399 217 
 SJC  HZ EP   4    427 11.64                             106   -1.66 0  411 326 
 SJC  HN ES   4    427 51.68                             106   -5.14 0  411 326 
 SJC  HZ I         428  6.94         3.0 0.70            106            411 326 
                                                                                
