 2012  623 0913 14.0 L   6.701 -73.204140.5  RSN  4 0.3 1.6LRSN                1
 GAP=220        0.59       6.6     6.5  6.0  0.2368E+02  0.8982E+01  0.9044E+01E
 Epicentro: VILLANUEVA - SANTANDER                                             3
 ACTION:UPD 12-08-06 17:51 OP:ep   STATUS:               ID:20120623091314 L   I
 2012-06-23-0910-00M.COL___199                                                 6
 STAT SP IPHASW D HRMM SECON CODA AMPLIT PERI AZIMU VELO AIN AR TRES W  DIS CAZ7
 BAR2 SZ EP        913 32.69                             175   -0.1410 12.2 169 
 BAR2 SZ ES   1    913 47.06                             175   -0.45 7 12.2 169 
 BAR2 SZ I         913 48.76        15.4 0.26                          12.2 169 
 BRR  HZ EP        913 34.71                             151    0.0810 71.9 309 
 BRR  HN ES   1    913 51.10                             151    0.38 7 71.9 309 
 BRR  HZ I         913 55.91        10.8 0.16                          71.9 309 
 RUS  HZ EP        913 36.73                             146    0.2210 90.4 171 
 RUS  HN ES   2    913 54.41                             146    0.34 5 90.4 171 
 RUS  HZ I         913 55.94         3.9 0.48                          90.4 171 
 PTB  HZ EP        913 39.58                             132   -0.23 9  140 263 
 PTB  HN ES   2    913 59.89                             132   -0.04 5  140 263 
 PTB  HZ I         914  2.95         3.5 0.30                           140 263 
                                                                                
