 2011  223 0206 35.1 L   6.781 -73.296134.3  RSN  7 0.3 1.7LRSN                1
 GAP=168        0.69       3.2    17.0  9.2 -0.1527E+02  0.8052E+02 -0.8772E+01E
 Epicentro: ZAPATOCA - SANTANDER                                               3
 ACTION:UP  11-03-28 15:10 OP:jfem STATUS:               ID:20110223020634 L   I
 2011-02-23-0203-28S.COL___136                                                 6
 STAT SP IPHASW D HRMM SECON CODA AMPLIT PERI AZIMU VELO SNR AR TRES W  DIS CAZ7
 BTL  SZ EP   1    2 6 53.45                             173     0.3 8   15  12 
 BAR2 SZ EP   1    2 6 53.19                             169    -0.2 8   24 149 
 BAR2 SZ ES   2    2 7  7.14                             169    -0.5 5   24 149 
 BAR2 SZ I         2 7  9.97        24.2 0.21                            24 149 
 GIR2 SZ EP   1    2 6 53.77                             165     0.3 8   35  19 
 RUS  HZ EP   2    2 6 56.96                             141    -0.8 5  101 167 
 RUS  HN ES   1    2 7 15.83                             141     0.4 8  101 167 
 RUS  HZ I         2 7 17.15         7.1 0.29                           101 167 
 GRA  SZ EP   1    2 6 59.92                             133    -0.1 8  134  24 
 GRA  SZ ES   2    2 7 19.25                             133    -0.2 5  134  24 
 GRA  SZ I         2 7 20.73         4.6 0.37                           134  24 
 OCA  SZ EP        2 7  2.86                             127     0.210  161 359 
 OCA  SZ ES   1    2 7 23.80                             127    -0.3 7  161 359 
 OCA  SZ I         2 7 29.74         5.7 0.23                           161 359 
 CHI  HZ EP   1    2 7 11.32                             115    -0.2 7  243 191 
 CHI  HZ I         2 7 11.73         3.1 0.15                           243 191 
 CHI  HE ES   2    2 7 39.73                             115    -0.2 4  243 191 
                                                                                
