 2016  623 0026 54.5 L   6.758 -73.139149.3  RSN  5 0.3 1.5LRSN                1
 GAP=235        0.85       6.6     6.1  6.6  0.2527E+02  0.4532E+01 -0.2064E+01E
 Epicentro: LOS SANTOS - SANTANDER                                             3
 ACTION:UPD 16-07-21 22:21 OP:rebc STATUS:               ID:20160623002654 L   I
 OLDACT:DUP 16-06-23 13:15 OP:ak   STATUS:               ID:20160623001742d    3
 OLDACT:REG 16-06-23 12:10 OP:ak   STATUS:               ID:20160623001741     3
 2016-06-23-0017-41M.COL___337                                                 6
 STAT SP IPHASW D HRMM SECON CODA AMPLIT PERI AZIMU VELO AIN AR TRES W  DIS CAZ7
 BAR2 EZ EP        027 14.37                             172   -0.0810 19.0 195 
 BAR2 EZ ES        027 29.86                             172   -0.1710 19.0 195 
 BAR2 EZ I         027 31.27         7.0 0.40                          19.0 195 
 BRR  HZ IP     C  027 16.32                             152    0.1510 74.2 301 
 BRR  HN ES        027 33.49                             152    0.3910 74.2 301 
 BRR  HZ I         027 35.03         9.0 0.40                          74.2 301 
 RUS  HZ EP        027 18.53                             146    0.2810 95.9 176 
 RUS  HN ES        027 36.48                             146   -0.3210 95.9 176 
 RUS  HZ I         027 38.04         3.4 0.40                          95.9 176 
 PTB  HZ EP        027 21.62                             133   -0.11 9  148 261 
 PTB  HN ES        027 43.41                             133    0.43 9  148 261 
 PTB  HZ I         027 44.44         2.7 0.24                           148 261 
 ZAR  HZ EP   2    027 27.47                             123    0.07 4  207 293 
 ZAR  HN ES        027 52.34                             123   -0.75 8  207 293 
 ZAR  HZ I         027 59.62         5.8 0.11                           207 293 
 GUY2CHN ES   4    028 14.38                             113    2.39 0  299 236 
                                                                                
