 2011  323 0744 49.2 L   6.294 -73.548108.9  RSN  5 0.2 1.3LRSN                1
 GAP=136        0.47       3.7     4.8  5.5 -0.1169E+02  0.1175E+02 -0.2232E+01E
 Epicentro: EL GUACAMAYO - SANTANDER                                           3
 ACTION:UP  11-06-16 14:35 OP:jfem STATUS:               ID:20110323074449 L   I
 2011-03-23-0743-46S.COL___137                                                 6
 STAT SP IPHASW D HRMM SECON CODA AMPLIT PERI AZIMU VELO SNR AR TRES W  DIS CAZ7
 BAR2 SZ EP        745  5.70                             153     0.010   52  51 
 BAR2 SZ ES        745 18.39                             153    -0.110   52  51 
 BAR2 SZ I         745 20.29        10.2 0.36                            52  51 
 GIR2 SZ EP        745  8.37                             136    -0.310   95  24 
 GIR2 SZ ES        745 23.95                             136     0.210   95  24 
 NOR  SZ EP   2    745 15.62                             118     0.0 5  167 241 
 NOR  SE ES   1    745 36.18                             118     0.0 7  167 241 
 CHI  HZ EP   2    745 18.32                             116     0.3 4  185 186 
 CHI  HZ I         745 18.61         1.7 0.19                           185 186 
 OCA  SZ I         745 44.65         1.7 0.59                           217   7 
 OCA  SZ ES   1    745 46.23                             112     0.1 6  217   7 
                                                                                
