 2017  323 0542 41.6 L   7.153 -73.295117.2  RSN  8 0.4 1.4LRSN                1
 GAP=147        1.07       5.4     4.2  7.6 -0.3597E+01  0.1361E+02 -0.6746E+01E
 Epicentro: LEBRIJA - SANTANDER                                                3
 ACTION:UPD 17-05-25 18:44 OP:jn   STATUS:               ID:20170323054241 L   I
 OLDACT:REG 17-03-23 13:07 OP:lv   STATUS:               ID:20170323053741     3
 2017-03-23-0538-00M.COL___382                                                 6
 STAT SP IPHASW D HRMM SECON CODA AMPLIT PERI AZIMU VELO AIN AR TRES W  DIS CAZ7
 BRR  HN ES        543 10.77                             157   -0.5610 46.4 264 
 BAR2 EZ EP        542 59.63                             150    0.0510 63.3 169 
 BAR2 EZ ES        543 14.07                             150    0.4710 63.3 169 
 BAR2 EZ I         543 15.13        17.7 0.38            147           63.3 169 
 PAM  EZ EP        542 59.86                             148   -0.4310 68.9  73 
 PAM  EN ES        543 15.14                             148    0.2710 68.9  73 
 PAM  EZ I         543 16.08         2.7 0.14            152           68.9  73 
 PTB  HZ EP        543  5.66                             125   -0.49 9  145 242 
 PTB  HN ES        543 25.34                             125    0.04 9  145 242 
 PTB  HZ I         543 28.97         4.9 0.08            124            145 242 
 ZAR  HZ EP        543  9.07                             119   -0.32 9  177 282 
 ZAR  HN ES        543 31.47                             119    0.41 9  177 282 
 ZAR  HZ I         543 36.65         3.3 0.15            119            177 282 
 SPBC HZ EP   4    543 13.40                             118    2.80 0  187 207 
 SPBC HN ES        543 33.19                             118   -0.03 9  187 207 
 SPBC HZ I         543 42.15         2.5 0.09            117            187 207 
 URE  HZ EP        543 19.12                             110    0.92 8  256 285 
 DBB  HZ E      C  551 19.57                                            322 268 
                                                                                
