 2011  523 0740 39.5 L   6.850 -73.248120.5  RSN  8 0.4 1.6LRSN                1
 GAP=117        0.76       5.0     5.7  6.6 -0.1692E+02  0.1571E+02 -0.5175E+01E
 Epicentro: ZAPATOCA - SANTANDER                                               3
 ACTION:UP  11-06-29 08:55 OP:tino STATUS:               ID:20110523074039 L   I
 2011-05-23-0740-00M.COL___142                                                 6
 STAT SP IPHASW D HRMM SECON CODA AMPLIT PERI AZIMU VELO SNR AR TRES W  DIS CAZ7
 BTL  SZ EP   1    740 55.97                             176     0.2 7    8 344 
 BAR2 SZ ES   1    741  9.29                             165     0.0 7   29 166 
 BRR  HZ EP   1    740 56.77                             152    -0.4 7   59 299 
 BRR  HN ES   1    741 11.09                             152     0.1 7   59 299 
 BRR  HZ I         741 11.63        14.5 0.12                            59 299 
 PAM  SN ES   1    741 14.84                             144     0.0 7   81  48 
 GRA  SZ EP   1    741  3.08                             131     0.6 7  124  23 
 OCA  SZ EP   1    741  5.03                             124    -0.2 7  154 357 
 OCA  SZ ES   1    741 25.09                             124    -0.3 7  154 357 
 OCA  SZ I         741 26.78         6.8 0.26                           154 357 
 NOR  SZ EP   1    741 12.61                             113    -0.6 6  229 232 
 NOR  SN ES   1    741 39.30                             113    -0.2 6  229 232 
 HEL  HZ EP   1    741 17.76                             110     0.3 6  263 254 
 HEL  HZ I         741 45.26         1.2 0.55                           263 254 
 HEL  HN ES   1    741 47.66                             110     0.6 6  263 254 
                                                                                
