 2012 1223 0531  0.7 L   6.817 -73.158135.0  RSN 13 0.5 2.2LRSN                1
 GAP= 70        1.00       3.8     4.3  7.6  0.8287E+00  0.8773E+01  0.1488E+01E
 Epicentro: LOS SANTOS - SANTANDER                                             3
 ACTION:UPD 13-01-04 14:29 OP:ep   STATUS:               ID:20121223053100 L   I
 2012-12-23-0530-00M.COL___243                                                 6
 STAT SP IPHASW D HRMM SECON CODA AMPLIT PERI AZIMU VELO AIN AR TRES W  DIS CAZ7
 BAR2 SZ EP   1    531 19.26                             169    0.15 7 25.0 186 
 BAR2 SZ ES   1    531 33.08                             169   -0.36 7 25.0 186 
 BAR2 SZ I         531 34.98       126.1 0.34                          25.0 186 
 GIR2 SZ EP     C  531 19.21                             167    0.1310 29.3 352 
 GIR2 SZ I         531 36.08        29.1 0.40                          29.3 352 
 BRR  HZ IP     C  531 21.00                             151    0.3910 69.2 298 
 BRR  HN ES   4    531 37.66                             151    1.55 0 69.2 298 
 BRR  HZ I         531 40.33        29.0 0.32                          69.2 298 
 PAM  SZ EP   1    531 22.11                             149    0.32 7 76.8  41 
 PAM  SN ES   1    531 38.95                             149    0.75 7 76.8  41 
 PAM  SZ I         531 41.30        38.3 0.54                          76.8  41 
 RUS  HZ EP   1    531 23.29                             141   -0.31 7  103 175 
 RUS  HE ES   1    531 41.20                             141   -0.22 7  103 175 
 RUS  HZ I         531 44.08        21.7 0.32                           103 175 
 PTB  HZ EP   1    531 25.91                             130   -0.85 7  147 258 
 PTB  HN ES   1    531 46.40                             130   -0.66 7  147 258 
 PTB  HZ I         531 48.63        23.4 0.22                           147 258 
 TAM  HZ IP     D  531 27.61                             128   -0.15 9  157 106 
 OCA  HN ES   1    531 48.81                             127   -0.53 7  158 354 
 OCA  HZ I         531 52.39        23.8 0.26                           158 354 
 ZAR  HZ EP   1    531 32.63                             120    0.32 6  202 292 
 ZAR  HN ES   1    531 57.66                             120    0.74 6  202 292 
 SML  HE ES   1    532  3.53                             115   -0.93 6  241 335 
 CHI  HZ EP   1    531 37.79                             115   -0.24 6  250 195 
 CHI  HN ES   1    532  7.39                             115    0.28 6  250 195 
 CHI  HZ I         532 12.30         4.5 0.36                           250 195 
 HEL  HZ EP   1    531 41.25                             113    0.91 6  271 255 
 HEL  HE ES   1    532 11.90                             113    0.68 6  271 255 
 HEL  HZ I         532 17.79         8.0 0.38                           271 255 
 URE  HZ EP   1    531 40.36                             111   -0.73 6  282 292 
 URE  HZ I         532 13.65        14.0 0.14                           282 292 
                                                                                
