 2014  223 0117 57.1 L   6.825 -73.145147.4  RSN 10 0.5 1.7LRSN                1
 GAP=135        1.05       3.9     4.7  7.1 -0.4934E+00  0.5586E+01  0.6176E+01E
 Epicentro: LOS SANTOS - SANTANDER                                             3
 ACTION:UPD 14-03-10 08:12 OP:ep   STATUS:               ID:20140223011757 L   I
 OLDACT:REG 14-02-23 08:01 OP:fm   STATUS:               ID:20140223011000     3
 2014-02-23-0110-00M.COL___215                                                 6
 STAT SP IPHASW D HRMM SECON CODA AMPLIT PERI AZIMU VELO AIN AR TRES W  DIS CAZ7
 BAR2 SZ EP        118 16.69                             169   -0.3410 26.0 189 
 BAR2 SZ ES   1    118 32.39                             169   -0.14 7 26.0 189 
 BAR2 SZ I         118 34.48        20.5 0.30            169           26.0 189 
 BRR  HZ EP        118 18.53                             153    0.1310 70.0 297 
 BRR  HN ES        118 35.20                             153    0.2210 70.0 297 
 BRR  HZ I         118 38.73         9.7 0.26            154           70.0 297 
 PAM  SZ EP        118 19.69                             152    0.2810 75.2  41 
 PAM  SN ES        118 36.77                             152    0.0010 75.2  41 
 PAM  SZ I         118 39.69         6.0 0.28            155           75.2  41 
 RUS  HZ EP        118 20.72                             143   -0.5310  103 176 
 RUS  HN ES        118 40.03                             143   -0.0210  103 176 
 RUS  HZ I         118 40.57         4.1 0.34            145            103 176 
 PTB  HZ EP   1    118 23.66                             132   -0.64 7  148 258 
 PTB  HN ES        118 45.08                             132   -0.41 9  148 258 
 PTB  HZ I         118 47.02         5.6 0.16            133            148 258 
 SPBC HN ES   2    118 48.09                             129   -0.37 5  165 218 
 SPBC HZ I         118 54.59         7.9 0.22            130            165 218 
 ZAR  HN ES   1    118 55.05                             123    0.13 6  203 291 
 NOR  HZ EP   1    118 32.91                             119   -0.24 6  236 234 
 NOR  HN ES   1    119  1.41                             119    0.18 6  236 234 
 SML  HN ES   1    119  2.75                             118    0.72 6  241 335 
 SML  HZ I         119  3.66         6.2 0.36            120            241 335 
 CHI  HZ EP        118 35.02                             117   -0.20 8  251 195 
 CHI  HN ES        119  6.40                             117    1.48 8  251 195 
 CHI  HZ I         119 10.48         2.5 0.32            119            251 195 
                                                                                
