 2010  423 0432 27.5 L   6.726 -73.073145.0  RSN  4 0.2 1.4LRSN                1
 GAP=182        0.40       6.1     8.3  6.4  0.1067E+02 -0.2123E+02  0.4372E+01E
 Epicentro: JORDAN - SANTANDER                                                 3
 ACTION:UPD 10-08-24 10:00 OP:vdl  STATUS:               ID:20100423043227 L   I
 2010-04-23-0429-02S.COL___104                                                 6
 STAT SP IPHASW D HRMM SECON CODA AMPLIT PERI AZIMU VELO AIN AR TRES W  DIS CAZ7
 BAR2 SZ EP   2    432 46.63                             172    -0.4 5   19 220 
 BAR2 SZ ES   2    433  2.23                             172     0.1 5   19 220 
 BRR  HZ EP   1    432 49.18                             150    -0.1 7   82 301 
 BRR  HE ES   1    433  6.25                             150     0.0 7   82 301 
 BRR  HZ I         433  8.71         5.1 0.36                            82 301 
 BRI  SZ EP   2    432 51.94                             141     0.2 5  114  16 
 CHI  HZ EP   2    433  4.83                             118     0.3 4  243 198 
 CHI  HZ I         433  5.34         1.6 0.38                           243 198 
                                                                                
