 2013  123 0535 57.0 L   6.816 -73.144145.1  RSN 11 0.5 2.4LRSN 2.9WRSN        1
 SPEC AVERAGE  MO 13.4 ST  3.0 OM  1.9 f0 4.10 R0.3673 AL 1.87 WI 18.3 MW  2.9 3
 SPEC SD       MO  0.2 ST  2.1 OM  0.4 f00.647 R0.0545 AL      WI      MW  0.1 3
 GAP= 71        1.29       4.0     4.5  7.0 -0.2727E+00  0.6065E+01  0.6566E+01E
 Epicentro: LOS SANTOS - SANTANDER                                             3
 SPEC ZAR HH N MO 13.6 ST  7.4 OM  1.8 f0 5.25 R0.2800 AL 1.98 WI 19.2 MW  3.0 3
 SPEC ZAR HH N T 53653 K 0.000 GD  250 VS 4.20 DE 3.00 Q0230.0 QA 0.60 VS 4.20 3
 SPEC RUS HH N MO 13.2 ST  1.5 OM  1.6 f0 4.04 R0.3639 AL 2.00 WI  8.3 MW  2.8 3
 SPEC RUS HH N T 53638 K 0.000 GD  177 VS 4.20 DE 3.00 Q0230.0 QA 0.60 VS 4.20 3
 SPEC OCA HH N MO 13.7 ST  2.7 OM  2.0 f0 3.38 R0.4349 AL 1.56 WI 27.2 MW  3.1 3
 SPEC OCA HH N T 53645 K 0.000 GD  215 VS 4.20 DE 3.00 Q0230.0 QA 0.60 VS 4.20 3
 SPEC PTB HH N MO 13.5 ST  2.8 OM  1.8 f0 4.05 R0.3630 AL 1.06 WI 21.9 MW  2.9 3
 SPEC PTB HH N T 53643 K 0.000 GD  207 VS 4.20 DE 3.00 Q0230.0 QA 0.60 VS 4.20 3
 SPEC PAM SH Z MO 13.3 ST  2.5 OM  0.9 f0 4.68 R0.3141 AL 2.22 WI 14.4 MW  2.8 3
 SPEC PAM SH Z T 53619 K 0.000 GD  163 VP 7.60 DE 3.00 Q0230.0 QA 0.60 VS 4.20 3
 SPEC HEL HH N MO 13.3 ST  1.1 OM  1.4 f0 3.50 R0.4200 AL 1.43 WI 24.5 MW  2.8 3
 SPEC HEL HH N T 537 8 K 0.000 GD  309 VS 4.20 DE 3.00 Q0230.0 QA 0.60 VS 4.20 3
 SPEC CHI HH N MO 13.3 ST  1.4 OM  1.5 f0 3.61 R0.4072 AL 1.73 WI 16.1 MW  2.8 3
 SPEC CHI HH N T 537 3 K 0.000 GD  289 VS 4.20 DE 3.00 Q0230.0 QA 0.60 VS 4.20 3
 SPEC BRR HH N MO 13.6 ST  6.0 OM  2.0 f0 4.88 R0.3012 AL 3.10 WI 17.4 MW  3.0 3
 SPEC BRR HH N T 53635 K 0.000 GD  161 VS 4.20 DE 3.00 Q0230.0 QA 0.60 VS 4.20 3
 SPEC BAR2SH Z MO 13.4 ST  1.6 OM  1.9 f0 3.49 R0.4212 AL 1.79 WI 15.8 MW  2.9 3
 SPEC BAR2SH Z T 53631 K 0.000 GD  147 VS 4.20 DE 3.00 Q0230.0 QA 0.60 VS 4.20 3
 ACTION:UPD 13-02-15 09:16 OP:ep   STATUS:               ID:20130123053557 L   I
 2013-01-23-0528-48M.COL___183                                                 6
 STAT SP IPHASW D HRMM SECON CODA AMPLIT PERI AZIMU VELO AIN AR TRES W  DIS CAZ7
 BAR2 SZ EP        536 16.46                             170   -0.1410 25.0 190 
 BAR2 SZ ES        536 31.67                             170   -0.2010 25.0 190 
 BAR2 SZ I         536 33.99        62.5 0.30            170           25.0 190 
 BRR  HZ EP        536 18.31                             153    0.2610 70.5 297 
 BRR  HN ES        536 35.26                             153    0.8010 70.5 297 
 BRR  HN I         536 38.82        52.4 0.18            151           70.5 297 
 PAM  SZ EP        536 19.32                             151    0.2510 76.0  40 
 PAM  SZ I         536 19.53        21.1 0.22            154           76.0  40 
 PAM  SN ES        536 36.28                             151    0.0010 76.0  40 
 RUS  HZ EP        536 20.35                             143   -0.4710  102 176 
 RUS  HE ES        536 39.13                             143   -0.2610  102 176 
 RUS  HN I         536 40.68        39.0 0.28            146            102 176 
 PTB  HZ EP        536 22.98                             132   -0.99 9  148 258 
 PTB  HN ES        536 44.25                             132   -0.74 9  148 258 
 PTB  HE I         536 50.05        43.1 0.26            132            148 258 
 TAM  HZ IP     D  536 24.66                             130    0.00 9  155 106 
 OCA  HN ES        536 47.17                             130    0.14 9  159 353 
 OCA  HN I         536 53.42        50.7 0.26            131            159 353 
 ZAR  HZ EP        536 29.40                             122    0.04 9  204 292 
 ZAR  HN ES        536 54.28                             122   -0.31 9  204 292 
 CHI  HZ EP        536 34.54                             117   -0.32 8  250 195 
 CHI  HN ES        537  4.27                             117   -0.11 8  250 195 
 CHI  HN I         537  7.85        11.3 0.26            119            250 195 
 ROSC BZ EP        536 36.18                             116    0.92 8  254 211 
 ROSC BN ES        537  6.57                             116    1.47 8  254 211 
 HEL  HZ EP        536 37.37                             115    0.12 8  273 255 
 HEL  HN ES        537  8.77                             115    0.13 8  273 255 
 HEL  HN I         537 16.30         9.8 0.38            115            273 255 
                                                                                
