 2010  523 0705 32.5 L   6.844 -73.082141.7  RSN  8 0.4 2.0LRSN                1
 GAP=178        0.82       5.0     9.6  8.0 -0.3089E+02  0.2212E+02 -0.1650E+01E
 Epicentro: LOS SANTOS - SANTANDER                                             3
 ACTION:UP  10-08-24 10:06 OP:vdl  STATUS:               ID:20100523070532 L   I
 2010-05-23-0702-10S.COL___111                                                 6
 STAT SP IPHASW D HRMM SECON CODA AMPLIT PERI AZIMU VELO SNR AR TRES W  DIS CAZ7
 BAR2 SZ EP        7 5 51.26                             167    -0.610   30 202 
 BAR2 SZ ES   1    7 6  6.92                             167     0.0 7   30 202 
 BRI  SZ EP   1    7 5 55.70                             142     0.2 7  102  18 
 GRA  SZ IP        7 5 57.01                             138     0.110  119  15 
 GRA  SZ ES   1    7 6 16.17                             138     0.3 7  119  15 
 OCA  SZ EP   1    7 5 59.62                             129    -0.6 7  157 350 
 OCA  SZ ES   2    7 6 22.17                             129     0.4 5  157 350 
 OCA  SZ I         7 6 27.33        12.6 0.29                           157 350 
 CHI  HZ EP   1    7 6 10.86                             115     0.1 6  255 196 
 CHI  HE ES   2    7 6 41.34                             115     0.8 4  255 196 
 CHI  HZ I         7 6 44.28         3.6 0.40                           255 196 
 ROSC BZ EP   2    7 6 10.76                             115    -0.5 4  261 212 
 ROSC BN ES   2    7 6 41.94                             115     0.4 4  261 212 
 ROSC BZ I         7 6 44.74         6.9 0.36                           261 212 
 HEL  HZ EP   2    7 6 13.23                             113    -0.2 4  280 255 
 HEL  HN ES   2    7 6 45.14                             113    -0.2 4  280 255 
 HEL  HZ I         7 6 49.94         4.3 0.56                           280 255 
 RREF BZ EP   1    7 6 20.38                             109     0.9 5  330 230 
 RREF BN ES   2    7 6 56.00                             109    -0.1 3  330 230 
 RREF BZ I         7 7  0.30         5.7 0.55                           330 230 
                                                                                
