 2016  923 0058 50.0 L   6.798 -73.142146.0  RSN 21 0.4 2.4LRSN                1
 GAP= 66        0.94       2.7     2.7  4.7 -0.9691E+00  0.1900E+01  0.1788E+01E
 Epicentro: LOS SANTOS - SANTANDER                                             3
 ACTION:UPD 17-08-17 21:15 OP:lp   STATUS:               ID:20160923005850 L   I
 OLDACT:UP  16-09-23 13:09 OP:and  STATUS:               ID:20160923004731     3
 OLDACT:UP  16-09-23 13:07 OP:and  STATUS:               ID:20160923004731     3
 OLDACT:UP  16-09-23 13:01 OP:and  STATUS:               ID:20160923004731     3
 OLDACT:REG 16-09-23 10:42 OP:and  STATUS:               ID:20160923004731     3
 2016-09-23-0048-00M.COL___333                                                 6
 STAT SP IPHASW D HRMM SECON CODA AMPLIT PERI AZIMU VELO AIN AR TRES W  DIS CAZ7
 BAR2 EZ IP        059  9.40                             171   -0.2610 23.2 191 
 BAR2 EZ ES        059 24.84                             171   -0.1510 23.2 191 
 BAR2 EZ I         059 25.88       120.6 0.24            169           23.2 191 
 BRR  HZ IP     D  059 11.25                             153    0.0510 71.7 298 
 BRR  HN ES        059 28.41                             153    0.6710 71.7 298 
 BRR  HZ I         059 33.49        46.4 0.12            144           71.7 298 
 PAM  EZ EP     C  059 12.38                             151    0.1510 77.2  39 
 PAM  EN ES        059 29.59                             151    0.0210 77.2  39 
 PAM  EZ I         059 31.06        14.4 0.14            148           77.2  39 
 RUS  HZ EP        059 13.45                             144   -0.3110  100 176 
 RUS  HN ES        059 32.28                             144   -0.0110  100 176 
 RUS  HZ I         059 33.08        43.0 0.24            143            100 176 
 PTB  HZ EP        059 15.95                             132   -1.07 9  148 259 
 PTB  HN ES        059 37.39                             132   -0.71 9  148 259 
 PTB  HZ I         059 39.18        31.1 0.18            126            148 259 
 TAM  HZ IP     C  059 17.74                             131    0.09 9  155 105 
 TAM  HN ES        059 39.57                             131    0.35 9  155 105 
 OCA  HZ EP        059 18.38                             130    0.03 9  161 353 
 OCA  HN ES        059 40.45                             130   -0.01 9  161 353 
 OCA  HZ I         059 49.80        54.5 0.24            124            161 353 
 SPBC HZ EP        059 18.37                             129   -0.16 9  163 219 
 SPBC HE ES        059 40.94                             129    0.16 9  163 219 
 SPBC HZ I         059 41.82        43.9 0.29            125            163 219 
 ZAR  HZ EP   3    059 22.83                             123    0.32 2  205 292 
 ZAR  HN ES        059 47.99                             123    0.12 9  205 292 
 ZAR  HZ I         059 54.11        27.2 0.19            117            205 292 
 NOR  HZ EP        059 25.90                             119    0.13 8  235 235 
 NOR  HN ES        059 54.35                             119    0.68 8  235 235 
 NOR  HZ I         059 58.06        17.7 0.16            114            235 235 
 CHI  HZ EP     D  059 27.61                             117   -0.09 8  249 195 
 CHI  HN ES        059 56.89                             117   -0.22 8  249 195 
 CHI  HZ I         059 59.16         9.0 0.44            114            249 195 
 HEL  HZ EP   9    059 31.51                             115    1.24 0  272 256 
 HEL  HZ I         1 0  2.67         5.7 0.35            110            272 256 
 HEL  HN ES   2    1 0  3.12                                    0.20 4  272 256 
 URE  HZ EP   2    059 30.10                             114   -1.03 4  284 292 
 URE  HN ES   4    1 0  0.25                             114   -2.97 0  284 292 
 URE  HZ I         1 0 10.96        20.6 0.18            109            284 292 
 GUY2CHZ EP        059 34.58                             112    0.93 7  301 235 
 GUY2CHN ES   2    1 0  7.81                             112    0.12 4  301 235 
 GUY2CHZ I         1 0 16.98        10.2 0.56                           301 235 
 PTGC HZ EP   9    059 32.38                             112   -1.45 0  308 159 
 PTGC HN ES   2    1 0  6.40                                   -0.17 4  308 159 
 ELA  HZ EP   9    059 40.18                             110    3.29 0  329 230 
 ELA  HN ES        1 0 17.46                                    0.71 7  329 230 
 ELA  HZ I         1 0 21.80         8.9 0.34            107            329 230 
 CBOC HZ EP   2    059 37.59                             110    0.62 3  334 252 
 CBOC HN ES   2    1 0 14.32                             110    0.72 3  334 252 
 CBOC HZ I         1 0 22.41         2.8 0.15            106            334 252 
 ANIL HN ES   2    1 0 19.41                             109    0.71 3  358 225 
 ANIL HZ I         1 0 23.69        19.4 0.30            105            358 225 
 PAL  HZ EP   4    059 46.48                             106    1.28 0  406 239 
 PAL  HN ES   4    1 0 30.81                             106    2.55 0  406 239 
 PAL  HZ I         1 0 32.80         2.1 0.26            103            406 239 
 SJC  HZ EP   4 D  059 43.59                             106   -2.03 0  410 327 
 SJC  HN ES   4    1 0 24.58                             106   -4.42 0  410 327 
 SJC  HZ I         1 0 28.83         4.5 0.30            102            410 327 
 CRJC HZ EP   4    059 49.84                             103   -2.69 0  468   3 
 CRJC HN ES   4    1 0 38.73                             103   -2.56 0  468   3 
 CRJC HZ I         1 0 46.14         6.3 0.62            101            468   3 
                                                                                
