 2011  923 0900  6.6 L   6.793 -73.112145.3  RSN  7 0.4 1.4LRSN                1
 GAP=141        0.79       4.2     6.3  6.9  0.1938E+01  0.1064E+02  0.5150E+01E
 Epicentro: LOS SANTOS - SANTANDER                                             3
 ACTION:UPD 12-07-13 15:59 OP:ep   STATUS:               ID:20110923090006 L   I
 2011-09-23-0858-07S.COL___165                                                 6
 STAT SP IPHASW D HRMM SECON CODA AMPLIT PERI AZIMU VELO AIN AR TRES W  DIS CAZ7
 BTL  SZ EP   1    9 0 25.95                             171   -0.15 7 22.1 309 
 BAR2 SZ EP   1    9 0 26.04                             170   -0.09 7 23.5 199 
 BAR2 SZ ES   1    9 0 40.70                             170   -0.70 7 23.5 199 
 BAR2 SZ I         9 0 44.22         5.4 0.31                          23.5 199 
 BRR  HZ EP   1    9 0 28.08                             151    0.22 7 74.9 298 
 BRR  HN ES   1    9 0 45.10                             151    0.62 7 74.9 298 
 BRR  HZ I         9 0 47.35         4.9 0.15                          74.9 298 
 PAM  SZ EP   1    9 0 28.96                             151    0.35 7 75.6  37 
 PAM  SZ I         9 0 29.25         2.8 0.14                          75.6  37 
 PAM  SN ES   1    9 0 45.84                             151    0.02 7 75.6  37 
 RUS  HZ EP   1    9 0 30.38                             144    0.19 7 99.6 178 
 RUS  HN ES   1    9 0 48.51                             144   -0.11 7 99.6 178 
 RUS  HZ I         9 0 50.14         2.6 0.31                          99.6 178 
 ZAR  HZ EP   1    9 0 39.00                             122   -0.36 6  208 292 
 ZAR  HE ES   2    9 1  4.43                             122   -0.51 4  208 292 
 ZAR  HZ I         9 1 10.67         3.4 0.33                           208 292 
 CHI  HZ EP   1    9 0 43.62                             117   -0.63 6  249 196 
 CHI  HN ES   1    9 1 14.42                             117    0.76 6  249 196 
 CHI  HZ I         9 1 19.14         1.5 0.37                           249 196 
                                                                                
