 2015  923 0733 17.3 L   6.798 -73.129140.0  RSN 18 0.5 2.4LRSN                1
 GAP=139        1.07       2.6     3.8  5.1 -0.1652E+01  0.6576E+01  0.8001E+00E
 Epicentro: LOS SANTOS - SANTANDER                                             3
 ACTION:UPD 15-10-28 16:28 OP:cam  STATUS:               ID:20150923073317 L   I
 OLDACT:UP  15-09-23 16:13 OP:mh   STATUS:               ID:20150923072748     3
 OLDACT:UP  15-09-23 16:13 OP:mh   STATUS:               ID:20150923072748     3
 OLDACT:REG 15-09-23 12:49 OP:mh   STATUS:               ID:20150923072748     3
 2015-09-23-0727-48M.COL___355                                                 6
 STAT SP IPHASW D HRMM SECON CODA AMPLIT PERI AZIMU VELO AIN AR TRES W  DIS CAZ7
 BAR2 EZ EP     C  733 36.50                             170    0.2210 23.5 194 
 BAR2 EZ ES        733 50.62                             170   -0.4410 23.5 194 
 BAR2 EZ I         733 51.95        53.2 0.22            169           23.5 194 
 BRR  HZ EP        733 38.44                             151    0.4710 72.9 298 
 BRR  HN ES        733 54.50                             151    0.4410 72.9 298 
 BRR  HZ I         733 58.19        30.8 0.28            150           72.9 298 
 PAM  EZ EP   1    733 39.48                             150    0.60 7 76.4  38 
 PAM  EN ES        733 56.21                             150    0.5210 76.4  38 
 PAM  EZ I         733 58.01       103.5 0.46            154           76.4  38 
 RUS  HZ EP        733 40.38                             143   -0.1310  100 177 
 RUS  HN ES        733 58.50                             143   -0.0810  100 177 
 RUS  HZ I         734  0.32        33.6 0.36            145            100 177 
 PTB  HZ EP   1    733 43.55                             130   -0.46 7  150 259 
 PTB  HN ES        734  4.06                             130   -0.75 9  150 259 
 PTB  HZ I         734 10.97        23.4 0.36            131            150 259 
 OCA  HZ IP     C  733 44.96                             128   -0.29 9  161 353 
 OCA  HN ES        734  6.41                             128   -0.61 9  161 353 
 OCA  HZ I         734 10.16        72.2 0.20            130            161 353 
 SPBC HZ EP        733 45.54                             127    0.04 9  164 220 
 SPBC HN ES        734  7.24                             127   -0.23 9  164 220 
 SPBC HZ I         734 10.51        32.7 0.18            129            164 220 
 ZAR  HZ EP        733 49.57                             121   -0.03 8  206 292 
 ZAR  HE ES        734 15.81                             121    1.04 8  206 292 
 ZAR  HZ I         734 21.29        24.2 0.38            122            206 292 
 NOR  HZ EP   1    733 53.03                             117    0.13 6  236 235 
 NOR  HN ES        734 20.68                             117    0.05 8  236 235 
 NOR  HZ I         734 22.62        13.7 0.18            118            236 235 
 SML  HZ EP        733 52.73                             116   -1.02 8  245 335 
 SML  HN ES        734 22.01                             116   -0.14 8  245 335 
 SML  HZ I         734 24.38        24.7 0.17            118            245 335 
 CHI  HZ EP        733 54.77                             116    0.01 8  249 196 
 CHI  HN ES        734 23.51                             116   -0.44 8  249 196 
 CHI  HZ I         734 26.75         9.6 0.26            118            249 196 
 HEL  HZ EP   1    733 58.09                             113    0.63 6  274 256 
 HEL  HN ES        734 28.29                             113   -0.47 8  274 256 
 HEL  HZ I         734 33.07        10.7 0.30            115            274 256 
 URE  HZ EP   4    733 53.02                             112   -5.32 0  286 292 
 URE  HN ES   4    734 27.57                             112   -2.74 0  286 292 
 URE  HZ I         734 29.83        15.3 0.14            113            286 292 
 GUY2CHZ EP   4    734  2.45                             111    1.60 0  303 235 
 GUY2CHN ES        734 35.64                             111    0.86 7  303 235 
 GUY2CHZ I         734 41.15        10.8 0.28                           303 235 
 PTGC HZ EP   4    733 59.20                             110   -1.65 0  308 159 
 PTGC HN ES   4    734 32.26                             110   -2.53 0  308 159 
 CBOC HZ EP        734  4.47                             109    0.25 7  335 252 
 CBOC HN ES   1    734 40.22                             109   -0.56 5  335 252 
 CBOC HZ I         734 44.03         3.9 0.54            110            335 252 
 DBB  SZ EP        734  4.70                             108   -0.10 7  341 274 
 DBB  SZ ES   4    734 39.91                             108   -1.91 0  341 274 
 ANIL HZ EP        734  7.53                             107    0.46 6  359 225 
 ANIL HE ES   4    734 47.25                             107    1.40 0  359 225 
 ANIL HZ I         734 52.39        26.2 0.28            109            359 225 
 ORTC HZ EP        734 11.16                             105   -0.02 6  396 216 
 ORTC HN ES        734 53.68                             105    0.50 6  396 216 
 ORTC HZ I         734 59.34         8.0 0.40            107            396 216 
                                                                                
