 2017  523 0016  6.8 L   6.769 -73.157136.9  RSN 11 0.6 2.2LRSN                1
 GAP=112        1.31       4.1     4.4  8.0  0.2663E+01  0.7544E+01  0.7079E+01E
 Epicentro: LOS SANTOS - SANTANDER                                             3
 ACTION:UPD 17-06-16 13:38 OP:jn   STATUS:               ID:20170523001606 L   I
 OLDACT:UP  17-05-23 13:18 OP:ar   STATUS:               ID:20170523000740     3
 OLDACT:REG 17-05-23 12:04 OP:ar   STATUS:               ID:20170523000740     3
 2017-05-23-0008-00M.COL___347                                                 6
 STAT SP IPHASW D HRMM SECON CODA AMPLIT PERI AZIMU VELO AIN AR TRES W  DIS CAZ7
 BRR  HZ IP     C  016 26.81                             151   -0.2110 71.9 301 
 BRR  HN ES        016 43.68                             151    0.8810 71.9 301 
 BRR  HZ I         016 47.99        30.7 0.12            151           71.9 301 
 PAM  EZ EP        016 27.97                             148   -0.3110 80.8  39 
 PAM  EN ES        016 44.86                             148   -0.1810 80.8  39 
 PAM  EZ I         016 46.80        49.4 0.46            152           80.8  39 
 RUS  HZ EP        016 29.39                             143   -0.0310 97.3 175 
 RUS  HN ES        016 46.82                             143   -0.2710 97.3 175 
 RUS  HZ I         016 48.22        27.2 0.38            145           97.3 175 
 PTB  HZ EP        016 32.10                             130   -0.77 9  146 260 
 PTB  HN ES        016 52.29                             130   -0.93 9  146 260 
 PTB  HZ I         016 55.07        12.0 0.58            132            146 260 
 SPBC HZ EP        016 34.43                             128    0.15 9  160 219 
 SPBC HN ES        016 55.68                             128   -0.06 9  160 219 
 SPBC HZ I         016 59.14        29.2 0.18            130            160 219 
 YPLC HZ EP        016 35.40                             125   -0.30 9  174 150 
 YPLC HN ES        016 58.95                             125    0.68 9  174 150 
 YPLC HZ I         017  1.57        26.4 0.24            128            174 150 
 ZAR  HZ EP        016 39.15                             120    0.47 9  204 293 
 ZAR  HN ES        017  3.90                             120    0.33 9  204 293 
 ZAR  HZ I         017  9.35        14.2 0.26            122            204 293 
 NOR  HZ EP        016 42.38                             117    0.69 8  232 235 
 NOR  HN ES        017  8.44                             117   -0.48 8  232 235 
 NOR  HZ I         017 10.18         9.0 0.14            119            232 235 
 CHI  HZ EP        016 42.85                             116   -0.75 8  245 195 
 CHI  HE ES        017 13.11                             116    0.78 8  245 195 
 CHI  HZ I         017 16.15         5.0 0.20            118            245 195 
 HEL  HZ EP        016 47.17                             113    0.84 8  270 256 
 HEL  HE ES   4    017 19.01                             113    1.83 0  270 256 
 HEL  HZ I         017 21.70         6.1 0.30            115            270 256 
 PTGC HZ EP   9    016 48.27                             110   -1.67 0  306 158 
 PTGC HN ES        017 21.89                             110   -0.05 7  306 158 
                                                                                
