 2014  523 0831 56.1 L   6.825 -73.196137.6  RSN 14 0.5 1.8LRSN                1
 GAP=129        1.06       3.1     3.9  6.8 -0.3887E+01  0.1241E+02 -0.2739E+01E
 Epicentro: ZAPATOCA - SANTANDER                                               3
 ACTION:UPD 15-03-16 17:00 OP:nd   STATUS:               ID:20140523083156 L   I
 OLDACT:UP  14-05-23 18:07 OP:spq  STATUS:               ID:20140523082806     3
 OLDACT:REG 14-05-23 13:16 OP:spq  STATUS:               ID:20140523082806     3
 2014-05-23-0828-06M.COL___255                                                 6
 STAT SP IPHASW D HRMM SECON CODA AMPLIT PERI AZIMU VELO AIN AR TRES W  DIS CAZ7
 BAR2 SZ EPg       832 15.20                             169    0.4310 25.8 177 
 BAR2 SZ ESg  1    832 28.47                             169   -0.89 7 25.8 177 
 BAR2 SZ I         832 30.78        28.9 0.36            171           25.8 177 
 PAM  SZ EP        832 17.94                             149    0.4210 79.0  44 
 PAM  SE ES        832 34.34                             149    0.0910 79.0  44 
 PAM  SZ I         832 37.36        12.0 0.42            152           79.0  44 
 RUS  HZ EP        832 19.23                             141   -0.0410  104 173 
 RUS  HE ES        832 37.26                             141   -0.1110  104 173 
 RUS  HZ I         832 38.41         6.3 0.26            146            104 173 
 PTB  HZ EP        832 21.92                             131   -0.01 9  143 257 
 PTB  HN ES        832 42.23                             131    0.13 9  143 257 
 PTB  HZ I         832 45.16        11.7 0.20            131            143 257 
 OCA  HZ EP        832 23.13                             128   -0.30 9  157 355 
 OCA  HN ES        832 44.09                             128   -0.69 9  157 355 
 OCA  HZ I         832 48.60         7.5 0.55            129            157 355 
 SPBC HZ EP        832 24.30                             127    0.47 9  162 217 
 SPBC HN ES        832 46.04                             127    0.55 9  162 217 
 SPBC HZ I         832 47.26         6.8 0.21            129            162 217 
 ZAR  HZ EP        832 28.21                             121    0.87 9  198 292 
 ZAR  HN ES        832 52.44                             121    0.70 9  198 292 
 ZAR  HZ I         832 56.38         6.3 0.07            122            198 292 
 NOR  HN ES        832 57.91                             117   -0.38 8  232 233 
 NOR  HZ I         833  1.13         5.4 0.14            119            232 233 
 SML  HZ EP   1    832 31.21                             116   -0.50 6  239 336 
 SML  HE ES   1    832 59.60                             116    0.08 6  239 336 
 SML  HZ I         833  4.96         9.3 0.10            117            239 336 
 HEL  HZ EP        832 35.05                             113   -0.30 8  267 255 
 HEL  HE ES        833  5.59                             113   -0.40 8  267 255 
 HEL  HZ I         833 14.21         4.0 0.28            115            267 255 
 URE  HE ES   4    833  5.88                             112   -1.36 0  278 292 
 URE  HN I         833 18.95         8.9 0.24            113            278 292 
 GUY2CHZ EP        832 38.14                             111   -0.83 7  298 234 
 GUY2CHN ES        833 11.95                             111   -0.50 7  298 234 
 GUY2CHZ I         833 22.94         2.1 0.46                           298 234 
 RREF HN ES   1    833 16.84                             109   -0.26 5  319 228 
 RREF HZ I         833 24.33         2.0 0.22            111            319 228 
 CBOC HZ EP   1    832 41.97                             109   -0.17 5  329 251 
 CBOC HE ES   1    833 18.17                             109    0.09 5  329 251 
 CBOC HZ I         833 22.94         1.3 0.34            110            329 251 
                                                                                
