 2016  323 0033 14.3 L   6.817 -73.171150.4  RSN  6 0.3 1.5LRSN                1
 GAP=243        0.62       3.5     3.7  4.9  0.5224E+01  0.3715E+01  0.3876E+00E
 Epicentro: LOS SANTOS - SANTANDER                                             3
 ACTION:UPD 16-05-13 21:26 OP:cam  STATUS:               ID:20160323003314 L   I
 OLDACT:REG 16-03-23 12:18 OP:ak   STATUS:               ID:20160323002748     3
 2016-03-23-0027-48M.COL___311                                                 6
 STAT SP IPHASW D HRMM SECON CODA AMPLIT PERI AZIMU VELO AIN AR TRES W  DIS CAZ7
 BAR2 EZ EP        033 34.48                             170    0.0010 24.9 183 
 BAR2 EZ ES        033 50.15                             170   -0.1010 24.9 183 
 BAR2 EZ I         033 51.31         6.9 0.16            169           24.9 183 
 RUS  HZ EP        033 38.51                             144   -0.1110  103 175 
 RUS  HN ES        033 57.84                             144    0.2210  103 175 
 RUS  HZ I         033 58.43         2.6 0.18            146            103 175 
 PTB  HZ EP        033 41.01                             134   -0.39 9  145 258 
 PTB  HN ES        034  2.45                             134   -0.12 9  145 258 
 PTB  HZ I         034  8.41         3.6 0.30            132            145 258 
 SPBC HZ EP        033 43.57                             130    0.48 9  163 218 
 SPBC HN ES        034  5.60                             130    0.02 9  163 218 
 SPBC HZ I         034  9.22         6.2 0.24            130            163 218 
 ZAR  HZ EP   2    033 46.26                             124   -0.41 4  201 292 
 ZAR  HN ES        034 12.26                             124    0.30 9  201 292 
 ZAR  HZ I         034 18.93         5.0 0.36            123            201 292 
 CHI  HZ EP   2    033 52.74                             118    0.40 4  250 194 
 CHI  HN ES        034 21.75                             118   -0.29 8  250 194 
                                                                                
