 2017  923 0904 17.2 L   6.794 -73.120148.3  RSN  7 0.4 1.9LRSN                1
 GAP=122        0.98       4.6     5.2  6.9  0.6408E+01  0.9370E+01  0.1161E+02E
 Epicentro: LOS SANTOS - SANTANDER                                             3
 ACTION:UPD 17-10-05 19:15 OP:rebc STATUS:               ID:20170923090417 L   I
 OLDACT:REG 17-09-23 15:01 OP:leo  STATUS:               ID:20170923085741     3
 2017-09-23-0858-00M.COL___447                                                 6
 STAT SP IPHASW D HRMM SECON CODA AMPLIT PERI AZIMU VELO AIN AR TRES W  DIS CAZ7
 BRR  HZ EP        9 4 38.75                             152    0.0110 74.0 298 
 BRR  HE ES        9 4 55.93                             152    0.3510 74.0 298 
 BRR  HZ I         9 4 58.82        14.8 0.30            150           74.0 298 
 PAM  EZ EP        9 4 39.89                             151    0.3210 76.1  38 
 PAM  EN ES        9 4 57.05                             151   -0.0110 76.1  38 
 PAM  EZ I         9 4 57.60        11.8 0.20            146           76.1  38 
 RUS  HZ EP        9 4 40.91                             145   -0.1910 99.7 178 
 RUS  HN ES        9 4 59.61                             145   -0.1610 99.7 178 
 RUS  HZ I         9 5  2.41         6.1 0.46            135           99.7 178 
 ZAR  HZ EP        9 4 49.93                             122   -0.14 8  207 292 
 ZAR  HE ES        9 5 15.00                             122   -0.74 8  207 292 
 ZAR  HZ I         9 5 21.10         9.1 0.32            117            207 292 
 CHI  HZ EP        9 4 55.29                             118    0.28 8  249 196 
 CHI  HN ES   2    9 5 24.56                             118    0.03 4  249 196 
 CHI  HZ I         9 5 29.74         5.9 0.30            111            249 196 
 GUY2CHZ EP        9 5  2.14                             113    1.03 7  303 235 
 GUY2CHE ES   4    9 5 39.85                             113    4.47 0  303 235 
 GUY2CHZ I         9 5 43.32         4.6 0.56                           303 235 
 PTGC HZ EP     D  9 5  0.18                             112   -0.76 7  307 159 
 PTGC HZ I         9 5 36.40         4.5 0.22            106            307 159 
                                                                                
