 2016 1023 0144 57.2 L   6.805 -73.120144.0  RSN 14 0.5 1.8LRSN                1
 GAP=121        0.91       3.7     3.8  5.1 -0.3373E+01  0.1806E+01  0.6369E+01E
 Epicentro: LOS SANTOS - SANTANDER                                             3
 ACTION:UPD 16-11-09 19:21 OP:rebc STATUS:               ID:20161023014457 L   I
 OLDACT:UP  16-10-23 14:13 OP:e    STATUS:               ID:20161023013745     3
 OLDACT:UP  16-10-23 14:11 OP:e    STATUS:               ID:20161023013745     3
 OLDACT:REG 16-10-23 12:33 OP:and  STATUS:               ID:20161023013745     3
 2016-10-23-0138-00M.COL___356                                                 6
 STAT SP IPHASW D HRMM SECON CODA AMPLIT PERI AZIMU VELO AIN AR TRES W  DIS CAZ7
 BAR2 EZ IP     C  145 16.62                             170    0.0010 24.5 196 
 BAR2 EZ ES        145 31.45                             170   -0.3310 24.5 196 
 BAR2 EZ I         145 33.42         8.4 0.23            168           24.5 196 
 BRR  HZ EP     D  145 18.43                             151    0.1710 73.5 297 
 BRR  HN ES        145 35.01                             151    0.3010 73.5 297 
 PAM  EZ IP     C  145 19.53                             151    0.4610 75.2  38 
 PAM  EN ES        145 36.27                             151    0.1210 75.2  38 
 PAM  EZ I         145 38.69        12.3 0.48            154           75.2  38 
 RUS  HZ EP     C  145 20.70                             143   -0.0810  101 178 
 RUS  HE ES        145 38.99                             143   -0.2010  101 178 
 RUS  HZ I         145 41.87         2.5 0.27            143            101 178 
 PTB  HZ EP        145 23.42                             131   -0.85 9  151 259 
 PTB  HE ES        145 44.87                             131   -0.53 9  151 259 
 PTB  HZ I         145 48.26         7.4 0.20            132            151 259 
 OCA  HZ EP   3    145 26.06                             129    0.73 2  160 352 
 OCA  HN ES   4    145 46.13                             129   -1.16 0  160 352 
 OCA  HZ I         145 50.52        12.4 0.15            132            160 352 
 SPBC HZ EP        145 25.65                             128   -0.10 9  165 220 
 SPBC HN ES        145 48.36                             128    0.32 9  165 220 
 SPBC HZ I         145 53.96         8.3 0.26            128            165 220 
 NOR  HZ EP        145 33.20                             118    0.11 8  237 235 
 NOR  HN ES        146  1.15                             118    0.05 8  237 235 
 NOR  HZ I         146  4.44         5.9 0.26            118            237 235 
 CHI  HZ EP   2    145 35.32                             117    0.40 4  250 196 
 CHI  HN ES   2    146  5.88                             117    1.52 4  250 196 
 CHI  HZ I         146 11.64         2.1 0.44            117            250 196 
 HEL  HN ES   2    146  9.37                             114    0.20 4  275 256 
 GUY2CHZ EP   4    145 42.47                             112    1.47 0  304 235 
 GUY2CHE ES   3 C  146 17.07                             112    1.88 2  304 235 
 GUY2CHZ I         146 22.93         3.6 0.56                           304 235 
 PTGC HZ EP        145 40.30                             111   -0.59 7  308 159 
 PRA  HZ EP        145 50.86                             106    0.00 6  394 210 
 PRA  HE ES        146 33.70                             106    0.97 6  394 210 
 PRA  HZ I         146 39.37         3.6 0.24            107            394 210 
 SJC  HZ EP   9    145 50.80                             105   -2.01 0  410 327 
 SJC  HN ES        146 34.19                                   -0.00 6  410 327 
                                                                                
