 2012  223 0315 36.0 L   6.264 -73.686106.4  RSN  6 0.3 1.4LRSN                1
 GAP=108        0.63       3.0     3.6  7.7  0.1840E+01  0.8473E+01  0.1008E+02E
 ACTION:UP  12-03-07 16:33 OP:epov STATUS:               ID:20120223031536 L   I
 2012-02-23-0310-00M.COL___191                                                 6
 STAT SP IPHASW D HRMM SECON CODA AMPLIT PERI AZIMU VELO AIN AR TRES W  DIS CAZ7
 BAR2 SZ EP   1    315 53.08                             146   -0.01 7 66.5  57 
 BAR2 SZ I         315 53.19         8.2 0.09                          66.5  57 
 BAR2 SZ ES   1    316  6.05                             146   -0.35 7 66.5  57 
 RUS  HZ EP   1    315 54.04                             141   -0.27 7 78.3 122 
 RUS  HN ES   1    316  8.45                             141   -0.12 7 78.3 122 
 RUS  HZ I         316  9.39         4.9 0.31                          78.3 122 
 PTB  HZ EP   1    315 54.28                             136   -0.36 7 90.5 290 
 PTB  HN ES   1    316  9.00                             136   -0.15 7 90.5 290 
 BRR  HZ EP   1    315 54.79                             135   -0.06 7 93.3 358 
 BRR  HN ES   1    316 10.06                             135    0.53 7 93.3 358 
 BRR  HZ I         316 10.59         9.3 0.30                          93.3 358 
 GIR2 SZ ES   1    316 12.06                             132    0.30 7  105  31 
 CHI  HZ EP   1    316  4.24                             116    0.06 7  181 182 
 CHI  HZ I         316  4.80         3.3 0.25                           181 182 
 CHI  HN ES   1    316 26.70                             116    0.57 7  181 182 
                                                                                
