 2011  623 0656 56.2 L   7.428 -73.480112.6  RSN  6 0.2 1.4LRSN                1
 GAP=155        0.46       2.9     4.9  6.0 -0.6314E+01  0.3978E+01 -0.9564E+00E
 Epicentro: SABANA DE TORRES - SANTANDER                                       3
 ACTION:UP  11-07-14 19:07 OP:ep   STATUS:               ID:20110623065656 L   I
 2011-06-23-0640-00M.COL___121                                                 6
 STAT SP IPHASW D HRMM SECON CODA AMPLIT PERI AZIMU VELO SNR AR TRES W  DIS CAZ7
 BRR  HZ EP   1    657 12.32                             157     0.1 7   44 216 
 BRR  HN ES   2    657 24.92                             157     0.1 5   44 216 
 BRR  HZ I         657 27.25         5.8 0.44                            44 216 
 GIR2 SZ EP   1    657 12.96                             154     0.2 7   50 141 
 BRI  SZ EP   1    657 15.16                             141     0.2 7   82  67 
 BRI  SZ ES   2    657 29.75                             141     0.2 5   82  67 
 GRA  SZ EP   1    657 15.51                             139     0.0 7   90  56 
 GRA  SZ ES   1    657 30.43                             139    -0.2 7   90  56 
 GRA  SZ I         657 33.48         8.7 0.29                            90  56 
 OCA  SZ EP   2    657 15.79                             138     0.2 5   91  11 
 OCA  SZ ES   2    657 30.48                             138    -0.3 5   91  11 
 OCA  SZ I         657 32.51         7.8 0.27                            91  11 
 BAR2 SZ EP   1    657 15.96                             136    -0.4 7   98 160 
 BAR2 SZ ES   1    657 31.98                             136     0.0 7   98 160 
 BAR2 SZ I         657 32.86         5.0 0.33                            98 160 
                                                                                
