 2013  323 0039 34.0 L   6.819 -73.162145.7  RSN  8 0.4 2.1LRSN                1
 GAP=134        1.01       4.6     4.4  5.8  0.2358E+01  0.6437E+01  0.4638E+01E
 Epicentro: LOS SANTOS - SANTANDER                                             3
 ACTION:UPD 13-04-09 14:04 OP:ep   STATUS:               ID:20130323003934 L   I
 2013-03-23-0037-46M.COL___212                                                 6
 STAT SP IPHASW D HRMM SECON CODA AMPLIT PERI AZIMU VELO AIN AR TRES W  DIS CAZ7
 BAR2 SZ EP        039 53.56                             170   -0.0910 25.1 185 
 BAR2 SZ ES        040  8.72                             170   -0.2610 25.1 185 
 BAR2 SZ I         040 11.18        16.1 0.24            169           25.1 185 
 GIR2 SZ EP        039 53.63                             168    0.0410 29.0 353 
 GIR2 SZ ES        040  8.46                             168   -0.4210 29.0 353 
 BRR  HZ IP     D  039 55.24                             153    0.2610 68.6 298 
 BRR  HN ES        040 12.07                             153    0.7110 68.6 298 
 BRR  HN I         040 12.49        67.1 0.30            152           68.6 298 
 PAM  SZ IP     D  039 56.40                             151    0.2310 77.0  42 
 PAM  SN ES        040 13.23                             151   -0.2510 77.0  42 
 PAM  SN I         040 15.22        27.8 0.64            154           77.0  42 
 RUS  HZ EP        039 57.69                             143   -0.2010  103 175 
 RUS  HN ES        040 17.16                             143    0.6310  103 175 
 RUS  HN I         040 19.02         6.8 0.18            145            103 175 
 PTB  HZ EP        040  0.26                             132   -0.56 9  146 258 
 PTB  HN ES        040 21.15                             132   -0.60 9  146 258 
 PTB  HN I         040 26.12        19.0 0.40            132            146 258 
 ZAR  HZ EP        040  6.21                             123    0.04 9  202 292 
 ZAR  HN ES        040 31.66                             123    0.38 9  202 292 
 ZAR  HN I         040 37.83        14.0 0.14            123            202 292 
 CHI  HZ EP        040 11.94                             117    0.10 8  250 195 
                                                                                
