 2014 1023 0641 19.4 L   6.807 -73.105146.0  RSN 20 0.5 2.3LRSN                1
 GAP=122        0.98       2.9     3.8  5.0 -0.1896E+01  0.3349E+01  0.4296E+01E
 Epicentro: LOS SANTOS - SANTANDER                                             3
 ACTION:UPD 14-11-29 23:55 OP:nd   STATUS:               ID:20141023064119 L   I
 OLDACT:REG 14-10-26 04:40 OP:fm   STATUS:               ID:20141023063746     3
 2014-10-23-0637-46M.COL___277                                                 6
 STAT SP IPHASW D HRMM SECON CODA AMPLIT PERI AZIMU VELO AIN AR TRES W  DIS CAZ7
 BAR2 SZ EP     D  641 39.08                             170   -0.0310 25.2 200 
 BAR2 SZ ES   1    641 54.01                             170   -0.46 7 25.2 200 
 BAR2 SZ I         641 55.76        34.7 0.18            166           25.2 200 
 PAM  SZ EP     D  641 41.72                             152    0.2610 74.0  37 
 PAM  SN ES        641 58.70                             152    0.0510 74.0  37 
 PAM  SZ I         641 59.48        17.2 0.22            157           74.0  37 
 BRR  HZ IP     C  641 40.82                             151    0.0310 74.8 296 
 BRR  HE ES        641 58.11                             151    0.6410 74.8 296 
 BRR  HZ I         642  1.15        25.2 0.16            152           74.8 296 
 RUS  HZ EP        641 42.99                             144   -0.2310  101 179 
 RUS  HE ES   1    642  2.21                             144    0.41 7  101 179 
 RUS  HZ I         642  3.89        10.9 0.30            143            101 179 
 PTB  HZ EP        641 45.71                             131   -1.10 9  152 259 
 PTB  HE ES        642  7.92                             131   -0.26 9  152 259 
 PTB  HZ I         642  9.31        35.7 0.07            131            152 259 
 OCA  HZ EP   1    641 48.17                             130    0.44 7  160 352 
 OCA  HN ES        642  9.86                             130    0.05 9  160 352 
 OCA  HZ I         642 12.99        13.9 0.35            133            160 352 
 SPBC HZ EP        641 48.12                             129   -0.13 9  167 220 
 SPBC HN ES        642 10.80                             129    0.05 9  167 220 
 SPBC HZ I         642 17.77        28.9 0.18            128            167 220 
 SML  HZ EP   1    641 56.08                             117   -0.10 6  245 334 
 SML  HE ES   1    642 24.03                             117   -0.83 6  245 334 
 SML  HZ I         642 27.60        23.6 0.26            120            245 334 
 CHI  HZ EP        641 57.24                             117   -0.09 8  251 196 
 CHI  HE ES   1    642 27.06                             117    0.15 6  251 196 
 CHI  HZ I         642 35.07         6.1 0.52            117            251 196 
 ROSC BZ EP        641 58.35                             117    0.48 8  256 212 
 ROSC BN ES   4    642 31.93                             117    4.07 0  256 212 
 ROSC BZ I         642 35.50        17.0 0.35            117            256 212 
 HEL  HZ EP   1    642  1.04                             114    0.91 6  277 256 
 HEL  HE ES        642 31.35                             114   -0.55 7  277 256 
 HEL  HZ I         642 38.93        13.2 0.42            115            277 256 
 GUY2CHZ EP   1    642  3.76                             112    0.27 5  305 235 
 GUY2CHE ES   4    642 40.11                             112    2.24 0  305 235 
 GUY2CHZ I         642 45.84        11.6 0.38                           305 235 
 PTGC HZ EP        642  2.24                             112   -0.94 7  308 159 
 PTGC HN ES   4    642 35.61                             112   -1.70 0  308 159 
 PTGC HZ I         642 44.05         9.2 0.40            113            308 159 
 RREF HZ EP   4    642  3.05                             111   -2.95 0  326 230 
 RREF HN ES   4    642 41.01                             111   -1.34 0  326 230 
 RREF HZ I         642 50.41         8.2 0.24            111            326 230 
 CBOC HZ EP        642  7.40                             110    0.55 7  338 252 
 CBOC HE ES        642 44.16                             110    0.31 7  338 252 
 CBOC HZ I         642 46.13         3.0 0.32            110            338 252 
 DBB  SZ EP   1    642  7.16                             109   -0.24 5  344 274 
 DBB  SZ ES   4    642 41.20                             109   -3.63 0  344 274 
 DBB  SZ I         642 47.58        24.0 0.42            110            344 274 
 TOL  SZ EP        642  8.97                             109    0.87 6  347 225 
 TOL  SN ES   4    642 47.33                             109    1.26 0  347 225 
 MON  HZ EP   4    642  5.97                             109   -2.80 0  357 308 
 MON  HE ES   4    642 44.74                             109   -2.53 0  357 308 
 MON  HZ I         642 45.38         2.9 0.14            110            357 308 
 PRA  HZ EP        642 13.08                             106   -0.19 6  395 210 
 PRA  HE ES        642 55.65                             106    0.36 6  395 210 
 PRA  HZ I         643  2.00        10.6 0.26            107            395 210 
 ORTC HZ EP   1    642 13.65                             106   -0.07 4  399 217 
 ORTC HE ES   4    642 57.54                             106    1.46 0  399 217 
 ORTC HZ I         643  3.57         7.6 0.62            107            399 217 
                                                                                
