 2013  223 0541 41.0 L   6.803 -73.169138.3  RSN 10 0.4 2.7LRSN                1
 GAP= 79        0.89       4.1     4.1  6.9 -0.1153E+01  0.4839E+01  0.2580E+01E
 Epicentro: LOS SANTOS - SANTANDER                                             3
 ACTION:UPD 13-03-12 09:35 OP:ep   STATUS:               ID:20130223054141 L   I
 2013-02-23-0540-00M.COL___225                                                 6
 STAT SP IPHASW D HRMM SECON CODA AMPLIT PERI AZIMU VELO AIN AR TRES W  DIS CAZ7
 BAR2 SZ EP        541 59.89                             170    0.1310 23.4 184 
 BAR2 SZ ES   1    542 14.15                             170   -0.22 7 23.4 184 
 BAR2 SZ I         542 16.04       198.5 0.22            162           23.4 184 
 BRR  HZ EP     C  542  1.78                             152    0.5510 68.8 299 
 BRR  HN ES   4    542 18.36                             152    1.37 0 68.8 299 
 BRR  HZ I         542 21.48        81.7 0.26            141           68.8 299 
 PAM  SZ EP        542  2.92                             149    0.3910 78.8  41 
 PAM  SN ES   1    542 19.47                             149    0.15 7 78.8  41 
 PAM  SZ I         542 21.82       181.4 0.44            151           78.8  41 
 PTB  HZ EP   1    542  6.55                             131   -0.61 7  145 258 
 PTB  HN ES   1    542 27.18                             131   -0.37 7  145 258 
 PTB  HZ I         542 34.69        59.4 0.34            122            145 258 
 TAM  HZ IP     D  542  8.28                             128   -0.08 9  158 105 
 OCA  HZ EP     C  542  8.17                             128   -0.53 9  160 354 
 OCA  HN ES   1    542 29.70                             128   -0.59 7  160 354 
 OCA  HZ I         542 34.61        59.7 0.30            123            160 354 
 ZAR  HZ EP   1    542 13.05                             121    0.33 6  202 292 
 ZAR  HN ES   1    542 38.02                             121    0.57 6  202 292 
 ZAR  HZ I         542 43.97        60.0 0.30            114            202 292 
 CHI  HZ EP   1    542 18.17                             116   -0.11 6  248 195 
 CHI  HN ES   1    542 47.03                             116   -0.32 6  248 195 
 CHI  HZ I         542 51.61        16.9 0.26            111            248 195 
 HEL  HZ EP   1    542 21.29                             113    0.70 6  270 256 
 HEL  HZ I         543  0.36        13.1 0.28            108            270 256 
 URE  HZ EP   1    542 20.78                             112   -0.67 6  281 292 
                                                                                
