 2015 1123 0617 41.3 L   6.782 -73.157145.9  RSN  7 0.4 1.5LRSN                1
 GAP=136        1.10       3.7     5.4  7.0 -0.1358E+01  0.8761E+01 -0.2234E+01E
 Epicentro: LOS SANTOS - SANTANDER                                             3
 ACTION:UPD 15-12-28 16:13 OP:cam  STATUS:               ID:20151123055741 L   I
 OLDACT:UPD 15-11-23 14:49 OP:Mher STATUS:               ID:20151123055741 L   3
 2015-11-23-0557-41M.COL___202                                                 6
 STAT SP IPHASW D HRMM SECON CODA AMPLIT PERI AZIMU VELO AIN AR TRES W  DIS CAZ7
 BAR2 EZ EP        618  1.34                             171    0.4710 21.2 188 
 BAR2 EZ ES        618 16.38                             171    0.2210 21.2 188 
 BAR2 EZ I         618 17.68         5.8 0.44            173           21.2 188 
 BRR  HN EP        618  2.80                             153    0.3810 71.1 300 
 BRR  HE ES        618 19.50                             153    0.5710 71.1 300 
 BRR  HN I         618 24.57        13.9 0.18            151           71.1 300 
 PAM  EZ EP        618  2.92                             150   -0.7210 79.7  39 
 PAM  EN ES        618 20.96                             150   -0.1210 79.7  39 
 PAM  EZ I         618 25.79         2.3 0.50            153           79.7  39 
 RUS  HZ EP        618  5.14                             144    0.2410 98.7 175 
 RUS  HE ES        618 22.90                             144   -0.4310 98.7 175 
 RUS  HZ I         618 26.08         3.5 0.48            150           98.7 175 
 SPBC HZ EP        618  9.48                             130   -0.07 9  161 219 
 SPBC HE ES        618 31.37                             130   -0.25 9  161 219 
 SPBC HZ I         618 33.81         6.2 0.10            133            161 219 
 OCA  HZ EP        618 10.30                             129    0.54 9  162 354 
 OCA  HE ES        618 31.58                             129   -0.40 9  162 354 
 OCA  HZ I         618 36.80         6.6 0.20            131            162 354 
 ZAR  HZ EP        618 13.74                             122    0.06 9  204 293 
 ZAR  HE ES        618 38.27                             122   -0.69 9  204 293 
 ZAR  HZ I         618 46.51         3.7 0.56            124            204 293 
                                                                                
