 2013  423 0936 41.9 L   6.876 -73.122121.4  RSN  5 0.4 1.7LRSN                1
 GAP=204        0.95       7.2     6.6 11.2  0.2535E+02  0.1422E+02 -0.2121E+02E
 Epicentro: LOS SANTOS - SANTANDER                                             3
 ACTION:UPD 13-05-22 14:40 OP:EP   STATUS:               ID:20130423093641 L   I
 2013-04-23-0930-00M.COL___249                                                 6
 STAT SP IPHASW D HRMM SECON CODA AMPLIT PERI AZIMU VELO AIN AR TRES W  DIS CAZ7
 BAR2 SZ EP        936 59.26                             164    0.4310 32.1 192 
 BAR2 SZ ES        937 11.70                             164   -0.3610 32.1 192 
 BAR2 SZ I         937 15.49         6.5 0.12            162           32.1 192 
 BRR  HZ EP   4    936 58.74                             148   -1.62 0 70.0 291 
 RUS  HZ EP   1    937  3.22                             135   -0.78 7  109 178 
 RUS  HN ES        937 21.67                             135    0.4110  109 178 
 RUS  HN I         937 23.41        10.2 0.28            138            109 178 
 PTB  HZ EP   4    937  3.96                             125   -3.44 0  152 256 
 PTB  HN ES        937 27.08                             125   -0.23 9  152 256 
 PTB  HN I         937 32.57        11.5 0.66            125            152 256 
 ZAR  HN ES        937 37.11                             116    0.21 9  203 290 
 ZAR  HN I         937 42.76         8.8 0.50            118            203 290 
 SML  HN ES   2    937 43.58                             112    0.03 4  237 334 
                                                                                
