 2010  723 0555 33.2 L   6.734 -73.087151.4  RSN  6 0.4 1.5LRSN                1
 GAP=166        0.90       6.5    12.9 13.4  0.8465E+01 -0.8227E+02 -0.1926E+02E
 Epicentro: JORDAN - SANTANDER                                                 3
 ACTION:UPD 10-12-01 15:19 OP:pat  STATUS:               ID:20100723055533 L   I
 2010-07-23-0552-14S.COL___123                                                 6
 STAT SP IPHASW D HRMM SECON CODA AMPLIT PERI AZIMU VELO AIN AR TRES W  DIS CAZ7
 BAR2 SZ IP        555 53.44                             173     0.010   19 214 
 BAR2 SZ I         556  6.48         7.0 0.03                            19 214 
 BRR  HZ EP        555 55.41                             151    -0.110   81 301 
 BRR  HN ES   1    556 12.93                             151     0.0 7   81 301 
 BRR  HZ I         556 15.09        13.9 0.22                            81 301 
 RUS  HZ EP   1    555 56.69                             147    -0.3 7   93 180 
 RUS  HN ES   2    556 15.81                             147     0.3 5   93 180 
 RUS  HZ I         556 17.24         2.8 0.65                            93 180 
 GUE  SZ EP   1    555 59.77                             139     0.9 7  123   8 
 GUE  SZ I         556 27.62         2.2 0.08                           123   8 
 GRA  SZ EP   1    555 59.51                             137     0.1 7  131  14 
 GRA  SZ ES   2    556 19.20                             137    -0.6 5  131  14 
 OCA  SZ EP   1    556  2.27                             129    -0.4 7  168 351 
 OCA  SZ I         556 28.72         4.5 0.46                           168 351 
                                                                                
