 2015  423 0320 55.7 L   6.542 -73.562106.1  RSN 18 0.4 2.2LRSN                1
 GAP= 61        1.00       2.7     2.9  5.7 -0.3281E+01  0.7326E+01 -0.4455E+01E
 Epicentro: EL CARMEN - SANTANDER                                              3
 ACTION:UPD 15-06-03 16:56 OP:cam  STATUS:               ID:20150423032055 L   I
 OLDACT:REG 15-04-23 12:22 OP:ak   STATUS:               ID:20150423031750     3
 2015-04-23-0317-50M.COL___280                                                 6
 STAT SP IPHASW D HRMM SECON CODA AMPLIT PERI AZIMU VELO AIN AR TRES W  DIS CAZ7
 BAR2 EZ IP     C  321 11.75                             157    0.4410 42.3  82 
 BAR2 EZ ES        321 23.81                             157    0.3310 42.3  82 
 BRR  HZ IP     C  321 12.70                             146    0.4310 64.6 345 
 BRR  HE ES   4    321 30.43                             146    5.24 0 64.6 345 
 BRR  HZ I         321 33.32        42.2 0.12            128           64.6 345 
 RUS  HZ EP        321 14.81                             137   -0.0210 89.2 144 
 RUS  HN ES   2    321 29.07                             137   -0.68 5 89.2 144 
 RUS  HZ I         321 30.55        20.7 0.30            134           89.2 144 
 PTB  HZ IP     C  321 14.63                             133   -0.3810 99.0 270 
 PTB  HN ES        321 29.86                             133   -0.2110 99.0 270 
 PTB  HZ I         321 33.52        35.7 0.12            120           99.0 270 
 SPBC HZ EP        321 16.51                             129    0.0710  113 210 
 SPBC HN ES        321 32.56                             129   -0.0610  113 210 
 SPBC HZ I         321 36.77        29.3 0.09            121            113 210 
 PAM  SZ EP        321 18.42                             125   -0.1410  130  47 
 PAM  SN ES        321 35.84                             125   -0.5410  130  47 
 PAM  SZ I         321 38.00        32.2 0.36            114            130  47 
 ZAR  HZ EP        321 23.88                             116    0.91 9  178 306 
 ZAR  HE ES   4    321 46.41                             116    2.17 0  178 306 
 ZAR  HZ I         321 52.04        35.4 0.34            106            178 306 
 NOR  HZ EP        321 23.25                             115   -0.12 9  181 233 
 NOR  HN ES        321 44.76                             115   -0.19 9  181 233 
 NOR  HZ I         321 47.55        20.0 0.38            107            181 233 
 OCA  HZ EP        321 24.16                             114   -0.31 9  190   8 
 OCA  HN ES        321 46.94                             114    0.03 9  190   8 
 OCA  HZ I         321 54.30        54.7 0.30            105            190   8 
 CHI  HZ EP   2    321 27.56                             111    0.19 4  212 185 
 CHI  HN ES   2    321 51.95                             111   -0.12 4  212 185 
 HEL  HZ EP        321 29.07                             110    0.76 8  221 260 
 HEL  HN ES        321 54.35                             110    0.60 8  221 260 
 HEL  HZ I         321 58.96        12.1 0.36            103            221 260 
 GUY2CHZ EP   4    321 32.92                             108    1.46 0  247 234 
 GUY2CHN ES   4    322  0.94                             108    1.59 0  247 234 
 GUY2CHZ I         322  7.08         7.2 0.44                           247 234 
 URE  HZ EP        321 31.34                             107   -0.51 8  256 302 
 URE  HN ES        321 59.61                             107   -0.44 8  256 302 
 URE  HZ I         322  9.53        17.6 0.20            100            256 302 
 SML  HZ EP        321 32.30                             107    0.41 8  256 347 
 SML  HE ES   4    322  1.56                             107    1.44 0  256 347 
 SML  HZ I         322  6.01        22.7 0.10            100            256 347 
 CBOC HZ EP        321 35.60                             105    0.51 7  281 255 
 CBOC HN ES        322  5.13                             105   -0.68 7  281 255 
 CBOC HZ I         322 11.22         6.1 0.28            100            281 255 
 MON  HZ EP     C  321 40.79                             101   -0.95 7  339 317 
 MON  HZ I         322 20.89         3.0 0.27             98            339 317 
 ORTC HZ EP   2    321 42.99                             101    0.39 3  346 213 
 ORTC HN ES        322 18.71                             101   -0.48 6  346 213 
 ORTC HZ I         322 28.94         2.7 0.42             98            346 213 
 SJC  HZ EP        321 50.48                              97   -0.06 6  412 334 
 SJC  HE ES   4    322 31.13                              97   -2.19 0  412 334 
                                                                                
