 2013  623 0328 13.3 L   6.820 -73.128148.7  RSN 12 0.5 2.4LRSN                1
 GAP=138        0.97       3.6     5.3  5.7 -0.4699E+01  0.1184E+02  0.1595E+01E
 Epicentro: LOS SANTOS - SANTANDER                                             3
 ACTION:UPD 14-01-08 09:56 OP:ep   STATUS:               ID:20130623032813 L   I
 OLDACT:REG 13-06-23 10:19 OP:carl STATUS:               ID:20130623031959     3
 2013-06-23-0319-59M.COL___267                                                 6
 STAT SP IPHASW D HRMM SECON CODA AMPLIT PERI AZIMU VELO AIN AR TRES W  DIS CAZ7
 BAR2 SZ IP     C  328 33.36                             170    0.0310 25.8 193 
 BAR2 SZ ES   1    328 48.47                             170   -0.48 7 25.8 193 
 BAR2 SZ I         328 50.86        58.6 0.30            168           25.8 193 
 GIR2 SZ EP        328 33.42                             168    0.1510 29.6 346 
 GIR2 SZ ES        328 49.20                             168    0.3510 29.6 346 
 BRR  HZ IP     D  328 35.16                             153    0.3610 71.9 296 
 BRR  HN ES   1    328 52.25                             153    0.68 7 71.9 296 
 BRR  HZ I         328 52.70        41.7 0.12            149           71.9 296 
 PAM  SZ EP        328 36.08                             152    0.4310 74.5  39 
 PAM  SN ES   1    328 53.17                             152    0.08 7 74.5  39 
 PAM  SZ I         328 55.36        26.2 0.50            156           74.5  39 
 RUS  HZ EP        328 37.47                             144   -0.0110  103 177 
 RUS  HN ES   1    328 55.59                             144   -0.75 7  103 177 
 RUS  HZ I         328 57.38        44.7 0.28            147            103 177 
 PTB  HZ EP        328 39.99                             132   -0.72 9  150 258 
 PTB  HN ES   4    329  0.71                             132   -1.38 0  150 258 
 PTB  HZ I         329  8.45        21.0 0.40            131            150 258 
 OCA  HZ EP   1    328 41.27                             131   -0.38 7  158 352 
 OCA  HN ES   1    329  3.01                             131   -0.77 7  158 352 
 OCA  HZ I         329  6.88        26.4 0.34            131            158 352 
 NOR  HZ EP   1    328 49.83                             119    0.33 6  238 234 
 NOR  HE ES   2    329 17.37                             119   -0.36 4  238 234 
 NOR  HZ I         329 22.41        15.9 0.46            119            238 234 
 SML  HZ EP        328 49.75                             118   -0.21 8  243 335 
 SML  HE ES   1    329 17.84                             118   -0.72 6  243 335 
 SML  HZ I         329 24.17        40.7 0.10            119            243 335 
 ROSC BZ EP   4    328 52.97                             117    1.09 0  256 211 
 ROSC BN ES   4    329 23.02                             117    1.04 0  256 211 
 HEL  HZ EP   1    328 54.89                             115    0.97 6  274 255 
 HEL  HN ES   1    329 25.67                             115    0.06 6  274 255 
 HEL  HZ I         329 32.95         9.3 0.38            116            274 255 
 GUY2CHZ EP   1    328 58.31                             113    0.95 5  304 235 
 GUY2CHN ES        329 31.71                             113   -0.02 7  304 235 
 GUY2CHZ I         329 38.59         6.7 0.36                           304 235 
 PRA  HZ EP        329  6.88                             107   -0.37 6  395 210 
 PRA  HN ES   1    329 49.21                             107   -0.12 4  395 210 
                                                                                
