 2016  623 0201 35.7 L   6.824 -73.155142.0  RSN  6 0.5 1.1LRSN                1
 GAP=134        1.15       5.7     5.1  8.2  0.2706E+01  0.9098E+01  0.4051E+00E
 Epicentro: LOS SANTOS - SANTANDER                                             3
 ACTION:UPD 16-07-21 22:21 OP:rebc STATUS:               ID:20160623020135 L   I
 OLDACT:DUP 16-06-23 13:49 OP:ak   STATUS:               ID:20160623015748d    3
 2016-06-23-0157-46M.COL___331                                                 6
 STAT SP IPHASW D HRMM SECON CODA AMPLIT PERI AZIMU VELO AIN AR TRES W  DIS CAZ7
 BAR2 EZ EP        2 1 55.05                             169    0.1110 25.8 187 
 BAR2 EZ ES        2 2  9.33                             169   -0.6010 25.8 187 
 BAR2 EZ I         2 2 10.85         2.9 0.24                          25.8 187 
 BRR  HZ EP        2 1 56.73                             153    0.4010 69.1 297 
 BRR  HN ES        2 2 13.36                             153    0.9510 69.1 297 
 PAM  EZ EP        2 1 57.43                             151   -0.0110 76.0  41 
 PAM  EN ES        2 2 14.04                             151   -0.3510 76.0  41 
 PAM  EZ I         2 2 16.74         4.4 0.50                          76.0  41 
 RUS  HZ EP        2 1 59.54                             142    0.2510  103 176 
 RUS  HE ES        2 2 17.87                             142    0.1910  103 176 
 RUS  HZ I         2 2 19.58         1.7 0.38                           103 176 
 PTB  HZ EP        2 2  1.73                             131   -0.60 9  147 258 
 PTB  HN ES        2 2 22.87                             131   -0.22 9  147 258 
 PTB  HZ I         2 2 24.27         1.7 0.13                           147 258 
 ZAR  HZ EP   2    2 2  8.23                             122    0.52 4  202 292 
 ZAR  HN ES        2 2 32.24                             122   -0.44 9  202 292 
                                                                                
