 2016  223 0530 59.6 L   6.805 -73.156143.5  RSN  5 0.3 1.3LRSN                1
 GAP=142        0.76       4.5     4.7  7.9 -0.9058E+01  0.1041E+02 -0.3635E+00E
 Epicentro: LOS SANTOS - SANTANDER                                             3
 ACTION:UPD 16-03-04 21:28 OP:rebc STATUS:               ID:20160223053059 L   I
 OLDACT:UP  16-02-23 18:08 OP:mh   STATUS:               ID:20160223052738     3
 OLDACT:UP  16-02-23 18:08 OP:mh   STATUS:               ID:20160223052738     3
 OLDACT:UP  16-02-23 18:08 OP:mh   STATUS:               ID:20160223052738     3
 OLDACT:REG 16-02-23 13:11 OP:mh   STATUS:               ID:20160223052738     3
 2016-02-23-0527-38M.COL___319                                                 6
 STAT SP IPHASW D HRMM SECON CODA AMPLIT PERI AZIMU VELO AIN AR TRES W  DIS CAZ7
 BAR2 EZ EP   1    531 19.08                             170    0.07 7 23.7 187 
 BAR2 EZ I         531 36.79         9.9 0.15            171           23.7 187 
 PAM  EZ EP        531 21.98                             150    0.3510 77.7  40 
 PAM  EN ES        531 38.45                             150   -0.3410 77.7  40 
 PAM  EZ I         531 42.03         2.3 0.38            149           77.7  40 
 RUS  HZ EP   1    531 23.10                             143   -0.11 7  101 175 
 RUS  HN ES        531 41.90                             143    0.3010  101 175 
 RUS  HZ I         531 42.43         1.9 0.34            144            101 175 
 PTB  HZ EP   1    531 26.71                             132    0.38 7  147 259 
 PTB  HE ES        531 47.29                             132    0.13 9  147 259 
 PTB  HZ I         531 54.00         1.7 0.20            129            147 259 
 SPBC HZ EP        531 27.45                             129   -0.49 9  163 219 
 SPBC HN ES   1    531 49.62                             129   -0.39 7  163 219 
 SPBC HZ I         531 55.61         3.1 0.44            128            163 219 
                                                                                
