 2017 1023 0933 27.6 L   6.412 -73.616104.0  RSN  5 0.4 0.8LRSN                1
 GAP=144        1.08       7.9     5.2  8.6  0.2579E+02  0.1162E+02  0.1791E+01E
 Epicentro: SANTA HELENA DEL OPON - SANTANDER                                  3
 ACTION:UPD 17-11-07 19:35 OP:rebc STATUS:               ID:20171023093327 L   I
 OLDACT:DUP 17-10-23 18:28 OP:edw  STATUS:               ID:20171023092740d    3
 OLDACT:UP  17-10-23 18:27 OP:edw  STATUS:               ID:20171023092739d    3
 OLDACT:UP  17-10-23 18:25 OP:edw  STATUS:               ID:20171023092739d    3
 OLDACT:DUP 17-10-23 17:48 OP:edw  STATUS:               ID:20171023092739d    3
 OLDACT:REG 17-10-23 13:01 OP:dhb  STATUS:               ID:20171023092738     3
 2017-10-23-0928-00M.COL___381                                                 6
 STAT SP IPHASW D HRMM SECON CODA AMPLIT PERI AZIMU VELO AIN AR TRES W  DIS CAZ7
 BAR2 EZ EP        933 43.00                             152   -0.5410 52.0  67 
 BAR2 EZ ES        933 55.86                             152   -0.0710 52.0  67 
 RUS  HE ES        934  0.81                             139    0.4610 82.3 134 
 PTB  HZ EP        933 45.85                             134   -0.4910 94.0 279 
 PTB  HN ES        934  0.74                             134   -0.1810 94.0 279 
 PTB  HZ I         934  4.16         0.9 0.10            134           94.0 279 
 YPLC HZ EP        933 55.04                             115    0.22 9  177 129 
 ZAR  HZ EP        933 55.28                             114    0.00 9  182 311 
 ZAR  HN ES        934 17.65                             114    0.82 9  182 311 
 ZAR  HZ I         934 19.70         1.5 0.38            116            182 311 
                                                                                
