 2010  823 0545 58.6 L   6.802 -73.302124.9  RSN 11 0.3 2.2LRSN                1
 GAP=126        0.74       2.9     5.4  4.9 -0.3666E+01  0.2292E+01 -0.1745E+01E
 Epicentro: ZAPATOCA - SANTANDER                                               3
 ACTION:UP  10-09-07 10:57 OP:vdl  STATUS:               ID:20100823054558 L   I
 2010-08-23-0544-16S.COL___120                                                 6
 STAT SP IPHASW D HRMM SECON CODA AMPLIT PERI AZIMU VELO SNR AR TRES W  DIS CAZ7
 BTL  SZ IP        546 15.83                             173     0.310   13  16 
 BTL  SZ ES   1    546 28.99                             173     0.2 7   13  16 
 BAR2 SZ IP        546 15.95                             168     0.110   27 151 
 BAR2 SZ I         546 16.33        90.8 0.25                            27 151 
 BAR2 SZ ES   1    546 29.12                             168    -0.1 7   27 151 
 GIR2 SZ IP        546 16.13                             164     0.210   33  21 
 BRR  HZ IP     D  546 16.74                             154     0.010   57 307 
 BRR  HZ I         546 16.92       244.3 0.13                            57 307 
 BRR  HN ES   1    546 31.13                             154     0.3 7   57 307 
 RUS  HZ EP   1    546 20.40                             139    -0.2 7  103 166 
 RUS  HE ES   1    546 37.27                             139    -0.5 7  103 166 
 RUS  HZ I         546 39.21        15.7 0.20                           103 166 
 GUE  SZ EP        546 21.93                             133     0.010  121  20 
 GUE  SZ I         546 25.40        13.9 0.14                           121  20 
 GRA  SZ EP        546 22.10                                    -0.510  132  25 
 GRA  SZ ES   1    546 41.23                             130    -0.1 7  132  25 
 GRA  SZ I         546 42.60        18.1 0.30                           132  25 
 OCA  SZ EP        546 25.38                                     0.1 9  159 359 
 OCA  SZ ES   2    546 46.15                             125     0.1 5  159 359 
 OCA  SZ I         546 49.60        24.9 0.47                           159 359 
 CHI  HZ EP   2    546 35.29                             113     0.4 4  245 191 
 CHI  HE ES   2    547  3.27                             113     0.2 4  245 191 
 CHI  HZ I         547  4.81         4.6 0.83                           245 191 
 HEL  HZ EP   2    546 35.68                             112    -0.3 4  255 255 
 HEL  HE ES   2    547  4.14                             112    -1.0 4  255 255 
 HEL  HZ I         547 11.04        11.5 0.33                           255 255 
 PRA  HZ EP   2    546 51.09                             103     0.5 3  384 207 
 PRA  HN ES   2    547 31.80                             103     0.7 3  384 207 
 PRA  HZ I         547 40.13         5.5 0.27                           384 207 
                                                                                
