 2011 1223 0250 29.7 L   6.805 -73.124142.7  RSN 15 0.3 2.5LRSN                1
 GAP=116        0.66       2.2     2.7  3.6 -0.1054E+01  0.1640E+01  0.2289E+01E
 Epicentro: LOS SANTOS - SANTANDER                                             3
 ACTION:UPD 12-07-13 16:17 OP:ep   STATUS:               ID:20111223025029 L   I
 2011-12-23-0250-00M.COL___188                                                 6
 STAT SP IPHASW D HRMM SECON CODA AMPLIT PERI AZIMU VELO AIN AR TRES W  DIS CAZ7
 BAR2 SZ EP        250 49.09                             170    0.1010 24.4 195 
 BAR2 SZ ES        251  3.70                             170   -0.3410 24.4 195 
 BAR2 SZ I         251  5.50        51.2 0.43                          24.4 195 
 GIR2 SZ EP        250 49.03                             167    0.0110 31.2 346 
 BRR  HZ IP     C  250 50.85                             151    0.2110 73.1 297 
 BRR  HN ES        251  7.25                             151    0.2910 73.1 297 
 BRR  HZ I         251 13.25        76.4 0.12                          73.1 297 
 PAM  SZ EP        250 51.90                             151    0.4210 75.4  38 
 PAM  SN ES        251  8.34                             151   -0.1310 75.4  38 
 RUS  HZ EP        250 53.19                             143    0.0010  101 177 
 RUS  HN ES   1    251 11.18                             143   -0.33 7  101 177 
 RUS  HZ I         251 13.65        34.4 0.21                           101 177 
 PTB  HZ EP        250 55.87                             131   -0.79 9  150 259 
 PTB  HE ES        251 17.72                             131    0.05 9  150 259 
 OCA  SZ EP        250 57.46                             129   -0.30 9  160 352 
 OCA  SZ ES   1    251 19.81                             129    0.17 7  160 352 
 OCA  SZ I         251 23.83        66.2 0.16                           160 352 
 YOP  SZ EP   2    250 59.39                             126   -0.09 4  178 154 
 YOP  SN ES   2    251 23.35                             126    0.65 4  178 154 
 YOP  SZ I         251 27.34        34.0 0.61                           178 154 
 NOR  SZ EP   1    251  5.50                             118   -0.01 6  237 235 
 NOR  SN ES   1    251 33.71                             118    0.28 6  237 235 
 CHI  HZ EP        251  7.58                             116    0.21 8  250 196 
 CHI  HN ES   1    251 36.81                             116    0.07 6  250 196 
 CHI  HZ I         251 43.90        17.7 0.94                           250 196 
 HEL  HZ EP   1    251 10.31                             114    0.27 6  275 256 
 HEL  HE ES   1    251 41.47                             114   -0.03 6  275 256 
 HEL  HZ I         251 47.53        19.4 0.24                           275 256 
 VIL  SZ EP   1    251 12.83                             111   -0.28 5  304 192 
 VIL  SN ES   1    251 47.40                             111    0.44 5  304 192 
 VIL  SZ I         251 57.96        18.5 0.44                           304 192 
 RREF HZ EP   2    251 16.46                             110    0.49 3  324 230 
 RREF HE ES   2    251 52.67                             110    0.62 3  324 230 
 RREF HZ I         252  1.74        16.1 0.30                           324 230 
 TOL  SZ EP   1    251 17.42                             109   -0.67 5  346 225 
 PRA  HZ EP   1    251 23.19                             106   -0.13 4  394 210 
 PRA  HE ES   1    252  5.12                             106   -0.02 4  394 210 
                                                                                
