 2012  623 0304 57.9 L   6.737 -73.165153.0  RSN  5 0.2 1.8LRSN                1
 GAP=137        0.52       4.1     4.3  6.3  0.3305E+01 -0.3911E+01 -0.3830E+01E
 Epicentro: VILLANUEVA - SANTANDER                                             3
 ACTION:UPD 12-08-06 17:51 OP:ep   STATUS:               ID:20120623030457 L   I
 2012-06-23-0300-00M.COL___199                                                 6
 STAT SP IPHASW D HRMM SECON CODA AMPLIT PERI AZIMU VELO AIN AR TRES W  DIS CAZ7
 BAR2 SZ EP        3 5 18.27                             174   -0.0510 16.1 187 
 BAR2 SZ I         3 5 34.88        25.4 0.22                          16.1 187 
 BRR  HZ EP        3 5 20.10                             153    0.1310 73.0 304 
 BRR  HZ I         3 5 20.48        16.7 0.30                          73.0 304 
 BRR  HN ES   1    3 5 37.40                             153    0.24 7 73.0 304 
 PAM  SZ EP        3 5 21.11                             150   -0.2210 84.1  38 
 PAM  SZ I         3 5 21.39         9.1 0.22                          84.1  38 
 RUS  HZ EP        3 5 22.18                             147    0.2310 93.8 174 
 RUS  HN ES   1    3 5 40.50                             147   -0.18 7 93.8 174 
 RUS  HZ I         3 5 42.06         5.4 0.38                          93.8 174 
 PTB  HZ EP        3 5 25.23                             134    0.01 9  144 261 
 PTB  HN ES   2    3 5 45.91                             134   -0.59 5  144 261 
 PTB  HZ I         3 5 48.80         3.4 0.18                           144 261 
                                                                                
