 2017 1023 0539  5.0 L   6.279 -73.684116.9  RSN  7 0.3 1.2LRSN                1
 GAP= 89        0.76       2.7     2.7  5.7 -0.5070E-01  0.3937E+01 -0.2142E+01E
 Epicentro: SANTA HELENA DEL OPON - SANTANDER                                  3
 ACTION:UPD 17-11-07 19:35 OP:rebc STATUS:               ID:20171023053905 L   I
 OLDACT:UP  17-10-23 16:49 OP:dhb  STATUS:               ID:20171023053133     3
 OLDACT:REG 17-10-23 12:39 OP:dhb  STATUS:               ID:20171023053133     3
 2017-10-23-0538-00M.COL___390                                                 6
 STAT SP IPHASW D HRMM SECON CODA AMPLIT PERI AZIMU VELO AIN AR TRES W  DIS CAZ7
 BAR2 EZ EP        539 23.29                             149    0.1910 65.4  58 
 BAR2 EZ ES        539 37.04                             149   -0.1710 65.4  58 
 RUS  HZ EP        539 24.03                             144   -0.3610 79.1 123 
 RUS  HN ES        539 39.41                             144   -0.0810 79.1 123 
 RUS  HZ I         539 39.96         4.2 0.24            148           79.1 123 
 SPBC HZ EP        539 24.38                             143    0.3810 81.6 212 
 SPBC HN ES        539 39.03                             143    0.2210 81.6 212 
 SPBC HZ I         539 43.66         3.2 0.20            143           81.6 212 
 PTB  HZ EP        539 24.08                             140   -0.4710 90.1 289 
 PTB  HN ES        539 39.45                             140   -0.3410 90.1 289 
 PTB  HZ I         539 41.05         3.4 0.12            140           90.1 289 
 BRR  HZ IP     D  539 25.02                             139    0.3710 91.6 358 
 BRR  HN ES        539 40.21                             139    0.2610 91.6 358 
 BRR  HZ I         539 40.48         2.1 0.12            141           91.6 358 
 NOR  HN ES        539 50.30                             123    0.08 9  153 239 
 NOR  HZ I         539 51.62         2.9 0.16            124            153 239 
 ZAR  HZ EP        539 33.66                             118   -0.20 9  187 316 
 ZAR  HE ES        539 56.48                             118    0.12 9  187 316 
 ZAR  HZ I         540  2.41         2.7 0.18            119            187 316 
                                                                                
