 2015  523 0002  1.2 L   6.763 -73.100148.0  RSN  6 0.3 1.4LRSN                1
 GAP=144        0.66       3.6     4.2  5.8 -0.5847E+00  0.8522E+00  0.1756E+01E
 Epicentro: LOS SANTOS - SANTANDER                                             3
 ACTION:UPD 15-09-10 22:06 OP:cam  STATUS:               ID:20150523000201 L   I
 OLDACT:REG 15-05-23 12:14 OP:spq  STATUS:               ID:20150523000003     3
 2015-05-23-0000-03M.COL___297                                                 6
 STAT SP IPHASW D HRMM SECON CODA AMPLIT PERI AZIMU VELO AIN AR TRES W  DIS CAZ7
 BAR2 EZ EP        0 2 20.93                             172   -0.1110 21.0 206 
 BAR2 EZ ES   1    0 2 35.84                             172   -0.69 7 21.0 206 
 BAR2 EZ I         0 2 38.96         4.9 0.46            170           21.0 206 
 BRR  HZ EP        0 2 22.92                             151   -0.0310 77.6 299 
 BRR  HN ES        0 2 40.32                             151    0.4010 77.6 299 
 BRR  HZ I         0 2 43.77         7.2 0.32            150           77.6 299 
 PAM  SZ EP        0 2 23.82                             151    0.1710 77.6  35 
 PAM  SN ES   1    0 2 41.14                             151   -0.04 7 77.6  35 
 PAM  SZ I         0 2 43.15         3.6 0.16            154           77.6  35 
 RUS  HZ EP   1    0 2 24.84                             145   -0.02 7 96.3 179 
 RUS  HN ES   1    0 2 43.53                             145    0.21 7 96.3 179 
 RUS  HZ I         0 2 44.74         1.9 0.44            149           96.3 179 
 SPBC HZ EP   1    0 2 29.80                             129   -0.07 7  163 221 
 SPBC HN ES   1    0 2 52.47                             129    0.23 7  163 221 
 SPBC HZ I         0 2 54.91         5.5 0.20            131            163 221 
 ZAR  HN ES   1    0 2 59.84                             122   -0.50 6  210 293 
 ZAR  HZ I         0 3  5.36         3.7 0.14            123            210 293 
                                                                                
