 2016  923 0754 57.2 L   6.789 -73.146143.3  RSN  8 0.4 1.5LRSN                1
 GAP=137        1.00       4.0     4.1  6.4 -0.1927E+01  0.7423E+01  0.6724E+00E
 Epicentro: LOS SANTOS - SANTANDER                                             3
 ACTION:UPD 17-08-17 21:15 OP:lp   STATUS:               ID:20160923075457 L   I
 OLDACT:UP  16-09-23 23:30 OP:and  STATUS:               ID:20160923074734     3
 OLDACT:REG 16-09-23 11:22 OP:and  STATUS:               ID:20160923074734     3
 2016-09-23-0748-00M.COL___342                                                 6
 STAT SP IPHASW D HRMM SECON CODA AMPLIT PERI AZIMU VELO AIN AR TRES W  DIS CAZ7
 BAR2 EZ EP        755 16.33                             171   -0.1810 22.1 190 
 BAR2 EZ ES        755 31.04                             171   -0.5310 22.1 190 
 BAR2 EZ I         755 32.54         6.7 0.11            170           22.1 190 
 BRR  HZ EP        755 18.00                             152   -0.1210 71.8 299 
 BRR  HN ES        755 35.03                             152    0.6010 71.8 299 
 BRR  HZ I         755 35.56         4.9 0.14            151           71.8 299 
 PAM  EZ EP        755 19.26                             150    0.0410 78.4  39 
 PAM  EE ES        755 36.31                             150   -0.0810 78.4  39 
 PAM  EZ I         755 38.18         8.0 0.40            153           78.4  39 
 RUS  HZ EP        755 20.89                             144    0.2710 99.3 176 
 RUS  HN ES        755 39.25                             144    0.3710 99.3 176 
 RUS  HZ I         755 40.18         5.1 0.40            145           99.3 176 
 PTB  HZ EP        755 23.11                             131   -0.84 9  147 259 
 PTB  HE ES        755 44.57                             131   -0.23 9  147 259 
 PTB  HZ I         755 45.46         2.9 0.08            131            147 259 
 SPBC HZ EP        755 25.32                             129   -0.10 9  162 219 
 SPBC HN ES        755 47.62                             129    0.20 9  162 219 
 SPBC HZ I         755 54.35         6.5 0.17            129            162 219 
 ZAR  HZ EP        755 30.29                             122    0.75 9  205 292 
 ZAR  HN ES        755 54.69                             122   -0.06 9  205 292 
 ZAR  HZ I         756  0.88         3.2 0.25            122            205 292 
 NOR  HE ES        756  0.38                             118   -0.02 8  234 235 
                                                                                
