 2017  623 0426 34.1 L   5.983 -73.592124.7  RSN  4 0.3 1.4LRSN                1
 GAP=202        0.68       5.1     4.2  6.4 -0.1266E+02  0.2397E+00  0.8450E+01E
 Epicentro: GUEPSA - SANTANDER                                                 3
 ACTION:UPD 17-09-14 16:54 OP:jn   STATUS:               ID:20170623042634 L   I
 OLDACT:DUP 17-06-23 17:15 OP:lv   STATUS:               ID:20170623041744d    3
 2017-06-23-0418-00M.COL___374                                                 6
 STAT SP IPHASW D HRMM SECON CODA AMPLIT PERI AZIMU VELO AIN AR TRES W  DIS CAZ7
 SPBC HZ EP        426 52.34                             151   -0.4110 64.5 236 
 SPBC HN ES        427  7.47                             151    0.1910 64.5 236 
 SPBC HZ I         427 10.78         6.8 0.05            153           64.5 236 
 BAR2 EZ EP        426 54.03                             145   -0.0110 81.2  34 
 BAR2 EZ ES        427  9.63                             145    0.0510 81.2  34 
 BAR2 EZ I         427 11.30         8.7 0.12            149           81.2  34 
 PTB  HN ES        427 13.57                             135   -0.0310  114 303 
 GUY2CHZ EP        427  7.44                             116    0.52 8  214 247 
 GUY2CHN ES        427 32.30                             116   -0.21 8  214 247 
 GUY2CHZ I         427 40.11         1.4 0.53                           214 247 
                                                                                
