 2016  323 0522 19.7 L   6.819 -73.129146.9  RSN  7 0.4 1.5LRSN                1
 GAP=185        0.98       3.8     5.1  7.8  0.1800E+00  0.1208E+02 -0.8466E+00E
 Epicentro: LOS SANTOS - SANTANDER                                             3
 ACTION:UPD 16-05-13 21:26 OP:cam  STATUS:               ID:20160323052219 L   I
 OLDACT:UP  16-03-23 16:23 OP:ak   STATUS:               ID:20160323051746d    3
 OLDACT:DUP 16-03-23 16:21 OP:ak   STATUS:               ID:20160323051746d    3
 OLDACT:REG 16-03-23 12:37 OP:ak   STATUS:               ID:20160323051745     3
 2016-03-23-0517-45M.COL___307                                                 6
 STAT SP IPHASW D HRMM SECON CODA AMPLIT PERI AZIMU VELO AIN AR TRES W  DIS CAZ7
 BAR2 EZ EP        522 39.68                             170    0.1710 25.8 193 
 BAR2 EZ ES        522 55.53                             170    0.5710 25.8 193 
 BAR2 EZ I         522 56.40         5.8 0.44            172           25.8 193 
 RUS  HZ EP        522 43.68                             143   -0.0210  103 177 
 RUS  HE ES        523  2.24                             143   -0.1810  103 177 
 RUS  HZ I         523  3.19         3.3 0.20            147            103 177 
 PTB  HZ EP        522 46.46                             132   -0.49 9  150 258 
 PTB  HN ES        523  7.52                             132   -0.69 9  150 258 
 PTB  HZ I         523 11.04         3.7 0.14            133            150 258 
 OCA  HZ EP   2    522 47.90                             130   -0.01 5  158 352 
 OCA  HN ES        523  9.73                             130   -0.19 9  158 352 
 OCA  HZ I         523 15.51         9.0 0.24            131            158 352 
 SPBC HZ EP        522 48.68                             129    0.14 9  166 219 
 SPBC HN ES        523 10.70                             129   -0.35 9  166 219 
 SPBC HZ I         523 12.81         4.8 0.08            131            166 219 
 ZAR  HN ES        523 18.17                             123    0.43 9  205 291 
 GUY2CHZ EP   2    523  4.38                             112    0.72 4  304 235 
 GUY2CHN ES        523 38.79                             112    0.83 7  304 235 
 GUY2CHZ I         523 48.33         1.3 0.30                           304 235 
                                                                                
