 2012  223 0317 48.5 L   6.749 -73.214148.0  RSN  4 0.3 1.2LRSN                1
 GAP=223        0.63       6.6     6.2  6.7  0.1978E+02  0.4410E+01  0.1779E+01E
 ACTION:UP  12-03-07 16:33 OP:epov STATUS:               ID:20120223031748 L   I
 2012-02-23-0310-00M.COL___191                                                 6
 STAT SP IPHASW D HRMM SECON CODA AMPLIT PERI AZIMU VELO AIN AR TRES W  DIS CAZ7
 BAR2 SZ EP   1    318  7.87                             173   -0.40 7 17.7 169 
 BAR2 SZ I         318  8.28         2.2 0.14                          17.7 169 
 BAR2 SZ ES   1    318 23.69                             173   -0.02 7 17.7 169 
 BRR  HZ EP   1    318  9.49                             154   -0.18 7 67.8 306 
 BRR  HZ I         318 11.54         7.0 0.12                          67.8 306 
 BRR  HN ES   1    318 26.52                             154    0.31 7 67.8 306 
 RUS  HZ EP   1    318 12.13                             146    0.03 7 95.8 171 
 RUS  HZ I         318 12.46         1.4 0.16                          95.8 171 
 RUS  HN ES   1    318 30.69                             146    0.15 7 95.8 171 
 PTB  HZ EP   1    318 15.40                             134    0.53 7  139 260 
 PTB  HN ES   1    318 35.07                             134   -0.40 7  139 260 
                                                                                
