 2012 1123 0009 19.8 L   5.859 -73.628123.1  RSN  6 0.4 1.4LRSN                1
 GAP= 98        0.76       3.4     5.4  9.3 -0.1476E+01  0.1876E+02  0.5314E+01E
 Epicentro: PUENTE NACIONAL - SANTANDER                                        3
 ACTION:UPD 12-12-05 15:35 OP:}ep  STATUS:               ID:20121123000919 L   I
 2012-11-23-0008-14M.COL___211                                                 6
 STAT SP IPHASW D HRMM SECON CODA AMPLIT PERI AZIMU VELO AIN AR TRES W  DIS CAZ7
 RUS  HZ EP   1    0 9 38.54                             152   -0.08 7 60.4  86 
 RUS  HE ES   1    0 9 52.91                             152   -0.38 7 60.4  86 
 RUS  HZ I         0 9 54.49         5.8 0.30                          60.4  86 
 BAR2 SZ ES   1    0 9 57.03                             140    0.20 7 94.9  31 
 CTAB SZ EP   1    0 9 43.22                             135    0.77 7  113 214 
 PTB  HZ EP   1    0 9 41.72                             133   -0.58 7  119 309 
 PTB  HN ES   1    0 9 59.80                             133   -0.04 7  119 309 
 PTB  HZ I         010  4.87         3.9 0.09                           119 309 
 CHI  HZ EP   1    0 9 44.20                             129   -0.28 7  136 185 
 CHI  HE ES   1    010  3.80                             129    0.09 7  136 185 
 CHI  HZ I         010  6.46         2.6 0.40                           136 185 
 GIR2 SZ EP   1    0 9 44.63                             127   -0.13 7  143  20 
 GIR2 SZ ES   1    010  4.68                             127    0.46 7  143  20 
 GIR2 SZ I         010  5.83         4.7 0.38                           143  20 
                                                                                
