 2014  123 0502 12.6 L   6.835 -73.412118.2  RSN  4 0.2 1.5LRSN                1
 GAP=155        0.66       3.2     3.8  6.2  0.3287E+01  0.3271E+01 -0.8988E+01E
 Epicentro: SAN VICENTE DE CHUCURI - SANTANDER                                 3
 ACTION:UPD 14-03-13 09:57 OP:ep   STATUS:               ID:20140123050212 L   I
 OLDACT:REG 14-01-23 08:38 OP:nd   STATUS:               ID:20140123050000     3
 2014-01-23-0500-00M.COL___285                                                 6
 STAT SP IPHASW D HRMM SECON CODA AMPLIT PERI AZIMU VELO AIN AR TRES W  DIS CAZ7
 BAR2 SZ EP        5 2 29.54                             162    0.2210 36.9 137 
 BAR2 SZ ES        5 2 42.12                             162   -0.2710 36.9 137 
 BAR2 SZ I         5 2 43.77        35.5 0.38            166           36.9 137 
 RUS  HZ EP        5 2 34.15                             134   -0.4010  110 161 
 RUS  HN ES        5 2 52.11                             134    0.4110  110 161 
 RUS  HZ I         5 2 57.35         1.2 0.44            139            110 161 
 PTB  HZ EP        5 2 34.73                             131   -0.0310  120 254 
 PTB  HN ES        5 2 52.08                             131   -0.0110  120 254 
 PTB  HZ I         5 2 57.97         3.1 0.42            133            120 254 
 SML  HZ EP        5 2 46.16                             113    0.00 8  229 342 
 SML  HN ES        5 3 12.49                             113    0.12 8  229 342 
 SML  HZ I         5 3 19.28         5.5 0.10            115            229 342 
                                                                                
