 2010 1023 0915 18.3 L   6.026 -73.664107.5  RSN  7 0.3 1.6LRSN                1
 GAP=108        0.68       3.0     4.5  8.6 -0.5519E+01  0.1646E+02 -0.7453E+01E
 Epicentro: VELEZ - SANTANDER                                                  3
 ACTION:UP  11-02-18 11:11 OP:tino STATUS:               ID:20101023091518 L   I
 2010-10-23-0913-39S.COL___127                                                 6
 STAT SP IPHASW D HRMM SECON CODA AMPLIT PERI AZIMU VELO SNR AR TRES W  DIS CAZ7
 RUS  HZ EP   1    915 36.10                             147     0.3 7   66 103 
 RUS  HN ES   1    915 49.07                             147    -0.4 7   66 103 
 RUS  HZ I         915 56.27         4.0 0.56                            66 103 
 BAR2 SZ EP        915 36.80                             140     0.210   82  40 
 BAR2 SZ ES   1    915 51.30                             140     0.4 7   82  40 
 BAR2 SZ I         915 52.44        16.2 0.05                            82  40 
 BTL  SZ EP        915 38.90                             131     0.010  108  24 
 BRR  HZ EP   1    915 39.05                             128    -0.6 7  120 357 
 BRR  HZ I         915 52.92        14.7 0.43                           120 357 
 BRR  HN ES   2    915 56.04                             128    -0.2 5  120 357 
 NOR  SZ EP   2    915 41.90                             122    -0.2 5  143 249 
 NOR  SN ES   1    916  0.83                             122     0.3 7  143 249 
 CHI  HE ES        916  3.45                             121    -0.1 9  155 183 
 OCA  SZ EP   2    915 54.02                             108     0.2 4  248   9 
 OCA  SZ I         916 29.77         2.8 0.37                           248   9 
                                                                                
