 2017  123 0658 49.7 L   6.781 -73.120142.5  RSN  5 0.2 0.8LRSN                1
 GAP=141        0.65       3.4     3.4  4.8 -0.1098E+01  0.2113E+01  0.7397E+00E
 Epicentro: LOS SANTOS - SANTANDER                                             3
 ACTION:UPD 17-05-22 16:02 OP:jn   STATUS:               ID:20170123065849 L   I
 OLDACT:DUP 17-01-23 17:33 OP:lv   STATUS:               ID:20170123064740d    3
 2017-01-23-0648-00M.COL___337                                                 6
 STAT SP IPHASW D HRMM SECON CODA AMPLIT PERI AZIMU VELO AIN AR TRES W  DIS CAZ7
 BAR2 EZ EP        659  8.70                             171   -0.2110 22.0 198 
 BAR2 EZ ES        659 24.05                             171    0.1610 22.0 198 
 BAR2 EZ I         659 26.60         1.8 0.29            171           22.0 198 
 BRR  HZ EP        659 10.53                             151   -0.1710 74.7 299 
 BRR  HN ES        659 27.42                             151    0.3410 74.7 299 
 PAM  EZ EP        659 11.76                             150    0.2110 77.2  37 
 PAM  EN ES        659 28.33                             150   -0.2810 77.2  37 
 PAM  EZ I         659 30.79         1.2 0.56            151           77.2  37 
 RUS  HZ EP        659 13.01                             144    0.0510 98.4 178 
 RUS  HN ES        659 31.12                             144    0.0010 98.4 178 
 RUS  HZ I         659 32.63         0.8 0.36            145           98.4 178 
 PTB  HZ EP        659 16.91                             131    0.29 9  150 260 
 PTB  HN ES        659 37.22                             131   -0.40 9  150 260 
 BOG  HE ES   4    659 28.54                             115   -29.9 0  259 204 
                                                                                
