 2016  623 0403 28.7 L   6.811 -73.104149.2  RSN 14 0.5 1.8LRSN                1
 GAP=141        1.04       4.0     4.1  5.7 -0.2149E+01  0.7709E+01  0.4345E+01E
 Epicentro: LOS SANTOS - SANTANDER                                             3
 ACTION:UPD 16-07-21 22:21 OP:rebc STATUS:               ID:20160623040328 L   I
 OLDACT:DUP 16-06-23 14:37 OP:ak   STATUS:               ID:20160623035746d    3
 2016-06-23-0357-45M.COL___337                                                 6
 STAT SP IPHASW D HRMM SECON CODA AMPLIT PERI AZIMU VELO AIN AR TRES W  DIS CAZ7
 BAR2 EZ IP     D  4 3 48.46                             170   -0.2810 25.7 200 
 BAR2 EZ ES        4 4  4.85                             170    0.4410 25.7 200 
 BAR2 EZ I         4 4  6.15         9.8 0.10                          25.7 200 
 PAM  EZ EP   2    4 3 51.49                             153    0.48 5 73.6  37 
 PAM  EN ES        4 4  8.18                             153   -0.2710 73.6  37 
 PAM  EZ I         4 4  9.86         5.1 0.28                          73.6  37 
 BRR  HZ EP        4 3 50.38                             152    0.0110 74.7 296 
 BRR  HN ES        4 4  7.82                             152    0.5210 74.7 296 
 BRR  HZ I         4 4 11.05        14.8 0.14                          74.7 296 
 RUS  HZ EP        4 3 52.29                             144   -0.5210  102 179 
 RUS  HN ES        4 4 11.38                             144   -0.2710  102 179 
 RUS  HZ I         4 4 12.97         5.6 0.42                           102 179 
 PTB  HZ EP   9    4 3 54.98                             132   -1.34 0  152 259 
 PTB  HN ES        4 4 16.47                                   -0.09 9  152 259 
 PTB  HZ I         4 4 19.64         7.5 0.23                           152 259 
 SPBC HZ EP        4 3 57.55                             129   -0.22 9  167 220 
 SPBC HN ES        4 4 20.30                             129   -0.19 9  167 220 
 ZAR  HZ EP        4 4  2.57                             123    0.86 8  208 291 
 ZAR  HN ES        4 4 26.71                             123   -0.79 8  208 291 
 ZAR  HZ I         4 4 32.45        15.3 0.42                           208 291 
 NOR  HZ EP        4 4  4.85                             119   -0.20 8  239 235 
 NOR  HE ES        4 4 33.90                             119    0.46 8  239 235 
 NOR  HZ I         4 4 36.15         4.4 0.28                           239 235 
 ROSC BZ EP   2    4 4  7.97                             117    0.64 4  256 212 
 ROSC BE ES        4 4 38.70                             117    1.20 8  256 212 
 HEL  HZ EP   2    4 4  9.94                             115    0.38 4  277 256 
 HEL  HN ES        4 4 41.31                             115   -0.16 7  277 256 
 HEL  HZ I         4 4 48.85         3.6 0.28                           277 256 
 GUY2CHZ EP   4    4 4 14.14                             113    1.22 0  306 235 
 GUY2CHE ES        4 4 46.68                             113   -0.76 7  306 235 
 GUY2CHZ I         4 4 57.55         2.9 0.56                           306 235 
 CBOC HZ EP   2    4 4 16.95                             110    0.70 3  338 252 
 CBOC HE ES        4 4 53.09                             110   -0.28 7  338 252 
 CBOC HZ I         4 4 56.04         1.2 0.39                           338 252 
 PRA  HZ EP        4 4 22.67                             107   -0.01 6  395 210 
 PRA  HN ES   2    4 5  4.77                             107   -0.05 3  395 210 
 PRA  HZ I         4 5 10.26         1.5 0.52                           395 210 
 ORTC HZ EP   2    4 4 23.33                             107    0.21 3  399 217 
 SJC  HZ EP   4    4 4 22.69                             106   -1.82 0  411 326 
 SJC  HN ES   4    4 5  4.29                             106   -3.78 0  411 326 
                                                                                
