 2011  423 0315 34.2 L   5.892 -73.683120.4  RSN  5 0.3 1.4LRSN                1
 GAP=165        0.64       4.5     3.6  8.4 -0.6607E+01  0.9051E+01  0.2125E+01E
 Epicentro: PUENTE NACIONAL - SANTANDER                                        3
 ACTION:UP  11-06-22 15:32 OP:REBC STATUS:               ID:20110423031534 L   I
 2011-04-23-0312-03S.COL___138                                                 6
 STAT SP IPHASW D HRMM SECON CODA AMPLIT PERI AZIMU VELO SNR AR TRES W  DIS CAZ7
 RUS  HZ EP        315 52.95                             150    -0.210   66  90 
 RUS  HZ I         315 53.48         2.7 0.23                            66  90 
 RUS  HN ES   2    316  7.94                             150     0.1 5   66  90 
 BAR2 SZ EP        315 54.98                             139     0.210   95  36 
 BAR2 SZ ES   1    316 10.55                             139    -0.3 7   95  36 
 BAR2 SZ I         316 12.15         9.9 0.31                            95  36 
 BRR  HZ EP        315 57.86                             128    -0.110  134 359 
 BRR  HZ I         315 58.12         3.6 0.14                           134 359 
 BRR  HN ES   1    316 16.79                             128     0.3 7  134 359 
 NOR  SZ EP        315 58.27                             128     0.1 9  136 255 
 NOR  SN ES   1    316 17.09                             128     0.2 7  136 255 
 HEL  HZ EP   2    316  6.14                             116     0.2 4  207 279 
 HEL  HN ES   2    316 29.74                             116    -0.9 4  207 279 
 HEL  HZ I         316 43.19         2.2 0.36                           207 279 
                                                                                
