 2014  323 0451  1.0 L   6.821 -73.168148.0  RSN  7 0.5 1.8LRSN                1
 GAP=142        0.98       5.4     6.4 13.3 -0.3250E+01 -0.1244E+01 -0.2569E+02E
 Epicentro: LOS SANTOS - SANTANDER                                             3
 ACTION:UPD 14-04-09 23:19 OP:nd   STATUS:               ID:20140323045101 L   I
 OLDACT:UP  14-03-23 12:28 OP:mh   STATUS:               ID:20140323044818     3
 OLDACT:UP  14-03-23 12:28 OP:mh   STATUS:               ID:20140323044818     3
 OLDACT:REG 14-03-23 08:38 OP:mh   STATUS:               ID:20140323044818     3
 2014-03-23-0448-18M.COL___231                                                 6
 STAT SP IPHASW D HRMM SECON CODA AMPLIT PERI AZIMU VELO AIN AR TRES W  DIS CAZ7
 BAR2 SZ EP        451 21.15                             170    0.2310 25.3 184 
 BAR2 SZ I         451 37.34        13.2 0.10            168           25.3 184 
 PAM  SN ES   2    451 41.09                             151    0.16 5 77.2  42 
 PTB  HZ EP        451 28.31                             133    0.36 9  146 258 
 PTB  HN ES        451 48.43                             133   -0.57 9  146 258 
 PTB  HZ I         451 54.08         3.8 0.09            141            146 258 
 SPBC HN ES   1    451 51.73                             129   -0.33 7  163 218 
 ZAR  HZ EP   4    451 34.83                             123    1.58 0  201 292 
 ZAR  HN ES        451 59.22                             123    0.80 9  201 292 
 ZAR  HZ I         452  5.40         4.7 0.12            130            201 292 
 SML  HZ EP        451 36.92                             118   -0.47 8  241 336 
 SML  HN ES        452  5.45                             118   -0.35 8  241 336 
 SML  HZ I         452 10.73        13.1 0.07            123            241 336 
 SJC  HZ EP   2    451 56.26                             106    0.03 3  406 327 
 SJC  HN ES   4    452 37.10                             106   -2.23 0  406 327 
                                                                                
