 2010  823 0501 30.8 L   6.805 -73.052143.7  RSN 13 0.4 2.0LRSN                1
 GAP=169        0.80       3.1     7.0  4.9 -0.6001E+01 -0.2574E+00  0.1106E+01E
 Epicentro: LOS SANTOS - SANTANDER                                             3
 ACTION:UP  10-09-07 10:57 OP:vdl  STATUS:               ID:20100823050130 L   I
 2010-08-23-0457-43S.COL___120                                                 6
 STAT SP IPHASW D HRMM SECON CODA AMPLIT PERI AZIMU VELO SNR AR TRES W  DIS CAZ7
 BTL  SZ EP        5 1 50.65                                     0.410   27 298 
 BTL  SZ ES   1    5 2  5.60                             170     0.2 7   27 298 
 BAR2 SZ IP        5 1 50.49                             169     0.210   28 212 
 BAR2 SZ ES        5 2  4.83                             169    -0.610   28 212 
 BAR2 SZ I         5 2  7.59        27.2 0.29                            28 212 
 GIR2 SZ EP   2    5 1 50.64                             166     0.4 5   34 333 
 BRR  HZ EP        5 1 52.41                             150     0.210   80 295 
 BRR  HE ES   1    5 2  8.94                             150     0.0 7   80 295 
 BRR  HZ I         5 2 13.33        38.7 0.16                            80 295 
 RUS  HZ EP        5 1 54.51                                     0.210  101 182 
 RUS  HN ES   1    5 2 12.91                             144     0.2 7  101 182 
 RUS  HZ I         5 2 14.55        16.5 0.46                           101 182 
 GUE  SZ EP   1    5 1 55.47                             140     0.4 7  114   7 
 GUE  SZ I         5 1 56.35         5.5 0.11                           114   7 
 GRA  SZ IP        5 1 55.43                             137    -0.110  123  13 
 GRA  SZ ES   1    5 2 14.44                             137    -0.5 7  123  13 
 GRA  SZ I         5 2 15.87        22.2 0.37                           123  13 
 OCA  SZ EP   1    5 1 58.97                             129    -0.1 7  161 349 
 OCA  SZ ES   1    5 2 20.82                             129    -0.2 7  161 349 
 OCA  SZ I         5 2 26.00        16.0 0.32                           161 349 
 CHI  HZ EP   1    5 2  8.59                             117    -0.1 6  252 197 
 CHI  HZ I         5 2 10.64         4.2 0.28                           252 197 
 CHI  HE ES   2    5 2 37.86                             117    -0.5 4  252 197 
 ROSC BZ EP   2    5 2  8.55                             116    -0.9 4  259 213 
 HEL  HZ EP   2    5 2 11.52                             114    -0.5 4  282 256 
 HEL  HZ I         5 2 47.61         7.2 0.23                           282 256 
 RREF HZ EP   2    5 2 17.92                             110     0.2 3  330 230 
 RREF HE ES   2    5 2 55.01                             110     0.6 3  330 230 
 RREF HZ I         5 3  4.31         5.0 0.20                           330 230 
 PRA  HZ EP   1    5 2 24.26                             106    -0.6 4  398 211 
 PRA  HE ES   2    5 3  6.93                             106    -0.2 3  398 211 
 PRA  HZ I         5 3 12.64         4.0 0.53                           398 211 
                                                                                
