 2015  523 0644 53.2 L   6.831 -73.052144.9  RSN  5 0.3 1.4LRSN                1
 GAP=219        0.59       4.3     5.2  5.6  0.6937E+01  0.1431E+00 -0.6985E+01E
 Epicentro: LOS SANTOS - SANTANDER                                             3
 ACTION:UPD 15-09-10 22:06 OP:cam  STATUS:               ID:20150523064453 L   I
 OLDACT:REG 15-05-23 12:36 OP:spq  STATUS:               ID:20150523063746     3
 2015-05-23-0637-46M.COL___297                                                 6
 STAT SP IPHASW D HRMM SECON CODA AMPLIT PERI AZIMU VELO AIN AR TRES W  DIS CAZ7
 BAR2 EZ EP        645 12.93                             168    0.0610 30.0 209 
 BAR2 EZ ES   1    645 27.85                             168   -0.37 7 30.0 209 
 BAR2 EZ I         645 29.14         4.4 0.32            173           30.0 209 
 BRR  HZ EP        645 14.76                             150    0.0510 79.0 293 
 BRR  HN ES        645 31.81                             150    0.3210 79.0 293 
 BRR  HZ I         645 35.68         2.5 0.16            148           79.0 293 
 OCA  HE ES   1    645 43.09                             130   -0.07 7  158 349 
 OCA  HZ I         645 50.20         3.9 0.12            129            158 349 
 ZAR  HZ EP   1    645 26.80                             121    0.35 6  212 290 
 ZAR  HN ES        645 52.04                             121   -0.35 8  212 290 
 ZAR  HZ I         645 57.26         2.4 0.25            123            212 290 
 SML  HZ EP   1    645 29.55                             117   -0.37 6  245 333 
 SML  HN ES   1    645 58.71                             117    0.14 6  245 333 
 SML  HZ I         646  2.75         2.8 0.10            118            245 333 
                                                                                
