 2015 1223 0034 31.8 L   6.796 -73.131152.3  RSN  9 0.4 1.7LRSN                1
 GAP=202        0.83       4.0     4.8  6.2  0.2886E+01  0.9287E+01 -0.2339E+01E
 Epicentro: LOS SANTOS - SANTANDER                                             3
 ACTION:UPD 16-02-04 15:06 OP:cam  STATUS:               ID:20151223003431 L   I
 OLDACT:REG 15-12-23 12:23 OP:dnl  STATUS:               ID:20151223002750     3
 2015-12-23-0027-50M.COL___331                                                 6
 STAT SP IPHASW D HRMM SECON CODA AMPLIT PERI AZIMU VELO AIN AR TRES W  DIS CAZ7
 BAR2 EZ EP   2    034 52.03                             171   -0.20 5 23.3 194 
 BAR2 EZ ES        035  8.44                             171    0.2810 23.3 194 
 BAR2 EZ I         035  9.71         5.0 0.08            167           23.3 194 
 BAR2 EZ I         035 20.59         4.5 0.14                          23.3 194 
 BRR  HZ EP        034 54.24                             153    0.4710 72.8 298 
 BRR  HE ES   2    035 11.70                             153    0.81 5 72.8 298 
 RUS  HZ EP        034 56.32                             145    0.1410  100 177 
 RUS  HE ES        035 14.69                             145   -0.5010  100 177 
 RUS  HZ I         035 15.74         4.0 0.33            147            100 177 
 PTB  HZ EP        034 58.94                             133   -0.52 9  149 259 
 PTB  HN ES   1    035 20.48                             133   -0.55 7  149 259 
 PTB  HZ I         035 27.66         5.8 0.24            131            149 259 
 SPBC HZ EP   2    035  0.34                             130   -0.55 5  164 220 
 SPBC HE ES        035 23.60                             130    0.03 9  164 220 
 SPBC HZ I         035 28.36         8.1 0.07            130            164 220 
 ZAR  HE ES        035 30.58                             123   -0.07 8  206 292 
 ZAR  HZ I         035 36.41        10.3 0.23            123            206 292 
 NOR  HZ EP   2    035  8.84                             120    0.79 4  236 235 
 NOR  HN ES        035 36.31                             120   -0.01 8  236 235 
 NOR  HZ I         035 42.38         3.3 0.18            120            236 235 
 SML  HZ EP   2    035  8.89                             119   -0.04 4  245 335 
 SML  HE ES   2    035 37.23                             119   -0.65 4  245 335 
 SML  HZ I         035 40.60        10.3 0.09            120            245 335 
 GUY2CHZ EP        035 16.27                             113    0.41 7  302 235 
 GUY2CHE ES   2    035 50.98                             113    0.76 4  302 235 
 GUY2CHZ I         036  4.98         3.7 0.28                           302 235 
                                                                                
