 2011 1223 0905 12.2 L   6.801 -73.170140.5  RSN 12 0.4 2.3LRSN                1
 GAP=111        0.83       3.0     3.7  5.5 -0.1279E+01  0.3722E+01  0.3335E+01E
 Epicentro: LOS SANTOS - SANTANDER                                             3
 ACTION:UPD 12-07-13 16:17 OP:ep   STATUS:               ID:20111223090512 L   I
 2011-12-23-0900-00M.COL___188                                                 6
 STAT SP IPHASW D HRMM SECON CODA AMPLIT PERI AZIMU VELO AIN AR TRES W  DIS CAZ7
 BAR2 SZ IP        9 5 31.12                             170   -0.0410 23.2 183 
 BAR2 SZ ES   1    9 5 45.95                             170   -0.02 7 23.2 183 
 BAR2 SZ I         9 5 47.34       112.7 0.16                          23.2 183 
 GIR2 SZ EP        9 5 31.09                             167   -0.1110 30.8 355 
 BRR  HZ IP     D  9 5 32.90                             152    0.2910 68.8 299 
 BRR  HE ES   1    9 5 49.37                             152    0.82 7 68.8 299 
 BRR  HZ I         9 5 53.84       126.1 0.20                          68.8 299 
 PAM  SZ EP        9 5 34.01                             149    0.0910 79.0  41 
 PAM  SN ES   1    9 5 50.77                             149   -0.12 7 79.0  41 
 RUS  HZ EP        9 5 35.16                             143   -0.2710  101 175 
 RUS  HE ES   1    9 5 53.53                             143   -0.05 7  101 175 
 RUS  HZ I         9 5 54.98        30.8 0.21                           101 175 
 PTB  HZ EP   1    9 5 37.46                             131   -1.01 7  145 259 
 PTB  HN ES   1    9 5 58.31                             131   -0.67 7  145 259 
 PTB  HZ I         9 6  1.43         0.3 0.18                           145 259 
 OCA  SZ EP        9 5 39.92                             129   -0.11 9  160 354 
 OCA  SZ I         9 6  7.10        68.8 0.17                           160 354 
 YOP  SZ EP   1    9 5 41.89                             125   -0.08 7  180 153 
 YOP  SN ES   1    9 6  5.60                             125    0.38 7  180 153 
 NOR  SZ EP   1    9 5 47.51                             118    0.14 6  233 234 
 NOR  SN ES   1    9 6 14.18                             118   -0.64 6  233 234 
 CHI  HZ EP        9 5 49.59                             116    0.07 8  248 195 
 CHI  HE ES        9 6 18.66                             116    0.01 8  248 195 
 CHI  HZ I         9 6 25.61        22.8 0.45                           248 195 
 HEL  HZ EP   1    9 5 52.71                             114    0.88 6  269 256 
 HEL  HN ES   1    9 6 23.24                             114    0.48 6  269 256 
 HEL  HZ I         9 6 30.72        31.0 0.30                           269 256 
 PRA  HZ EP   1    9 6  5.25                             106   -0.12 4  391 209 
 PRA  HN ES        9 6 47.46                             106    0.59 6  391 209 
                                                                                
