 2017  623 0219 31.4 L   6.735 -73.119142.6  RSN 11 0.4 1.8LRSN                1
 GAP=217        0.84       4.1     6.8  5.8  0.8554E+01  0.1476E+02  0.8213E+01E
 Epicentro: JORDAN - SANTANDER                                                 3
 ACTION:UPD 17-09-14 16:54 OP:jn   STATUS:               ID:20170623021931 L   I
 OLDACT:REG 17-06-23 18:27 OP:lv   STATUS:               ID:20170623021734     3
 2017-06-23-0218-00M.COL___368                                                 6
 STAT SP IPHASW D HRMM SECON CODA AMPLIT PERI AZIMU VELO AIN AR TRES W  DIS CAZ7
 BAR2 EZ EP        219 50.44                             173   -0.0710 17.3 204 
 BAR2 EZ ES        220  5.30                             173   -0.1410 17.3 204 
 BRR  HZ EP        219 52.45                             150   -0.0910 77.3 302 
 BRR  HE ES        220  9.60                             150    0.5410 77.3 302 
 BRR  HZ I         220 13.61         9.1 0.02            147           77.3 302 
 PTB  HZ EP        219 57.45                             131   -0.79 9  149 262 
 PTB  HN ES   4    220 17.50                             131   -1.69 0  149 262 
 PTB  HZ I         220 19.37         3.9 0.16            128            149 262 
 SPBC HZ EP        219 59.55                             129    0.26 9  160 221 
 SPBC HN ES        220 20.78                             129   -0.29 9  160 221 
 SPBC HZ I         220 23.57         8.5 0.10            126            160 221 
 ZAR  HN ES        220 29.59                             121   -0.18 8  210 294 
 ZAR  HZ I         220 35.59         7.9 0.08            120            210 294 
 NOR  HZ EP        220  7.09                             118    0.35 8  233 236 
 NOR  HN ES   4    220 35.25                             118    0.92 0  233 236 
 CHI  HZ EP   4    220  6.82                             117   -1.41 0  243 196 
 CHI  HE ES        220 37.20                             117    0.21 8  243 196 
 CHI  HZ I         220 44.07         2.8 0.37            117            243 196 
 ROSC BZ EP   4    220 10.85                             116    2.03 0  248 212 
 ROSC BN ES   4    220 41.31                             116    3.27 0  248 212 
 ROSC BZ I         220 44.85         4.1 0.36            116            248 212 
 GUY2CHZ EP        220 15.02                             112    0.37 7  300 236 
 GUY2CHN ES   4    220 49.78                             112    1.37 0  300 236 
 GUY2CHZ I         220 57.21         3.5 0.31                           300 236 
 PTGC HZ EP   9    220 13.62                             111   -0.59 0  301 159 
 PTGC HE ES        220 46.78                                   -0.26 7  301 159 
 ORTC HZ EP        220 24.85                             106    0.13 6  391 217 
 ORTC HN ES   4    221  9.38                             106    3.05 0  391 217 
 ORTC HZ I         221 14.92         2.1 0.14            106            391 217 
 SJC  HZ EP   4    220 24.79                             105   -2.93 0  417 327 
 SJC  HN ES   4    221  8.25                             105   -3.43 0  417 327 
 SJC  HZ I    4    221 10.79         2.7 0.51            106            417 327 
                                                                                
