 2013  423 0355  6.4 L   6.787 -73.183147.7  RSN  7 0.5 1.8LRSN                1
 GAP=132        0.91       5.6     5.3  8.6  0.3494E+01  0.8756E+01 -0.2872E+01E
 Epicentro: LOS SANTOS - SANTANDER                                             3
 ACTION:UPD 13-05-22 14:40 OP:EP   STATUS:               ID:20130423035507dL   I
 2013-04-23-0350-00M.COL___249                                                 6
 STAT SP IPHASW D HRMM SECON CODA AMPLIT PERI AZIMU VELO AIN AR TRES W  DIS CAZ7
 BAR2 SZ EP   1    355 26.30                             171    0.11 7 21.6 180 
 BAR2 SZ ES   1    355 41.26                             171   -0.40 7 21.6 180 
 BAR2 SZ I         355 42.13         7.1 0.26            170           21.6 180 
 BRR  HZ IP     C  355 28.10                             154    0.5410 68.3 301 
 BRR  HN ES   1    355 45.00                             154    0.90 7 68.3 301 
 BRR  HN I         355 47.97        17.9 0.18            150           68.3 301 
 PAM  SZ EP   1    355 29.01                             150    0.00 7 81.1  41 
 PAM  SN ES   1    355 46.34                             150   -0.33 7 81.1  41 
 PAM  SN I         355 47.01         8.8 0.48            154           81.1  41 
 RUS  HZ EP   1    355 30.25                             144    0.02 7 99.5 174 
 RUS  HN ES   1    355 48.64                             144   -0.20 7 99.5 174 
 RUS  HN I         355 49.30         7.0 0.34            147           99.5 174 
 PTB  HZ EP   1    355 32.91                             133   -0.19 7  143 259 
 PTB  HN ES   1    355 53.87                             133   -0.09 7  143 259 
 PTB  HN I         355 59.49         6.2 0.40            132            143 259 
 ZAR  HN ES   1    356  2.94                             123   -0.80 6  201 293 
 ZAR  HN I         356  9.50         7.1 0.54            123            201 293 
 SML  HE ES   2    356 10.83                             118   -0.84 4  243 336 
 SML  HE I         356 12.88        12.6 0.10            119            243 336 
                                                                                
