 2013  923 0131 55.9 L   6.830 -73.167149.3  RSN  4 0.4 1.3LRSN                1
 GAP=281        0.84       7.5    11.3 12.5  0.4927E+01 -0.3531E+02  0.2275E+02E
 Epicentro: LOS SANTOS - SANTANDER                                             3
 ACTION:UPD 13-10-22 09:24 OP:ep   STATUS:               ID:20130923013155 L   I
 OLDACT:UP  13-09-23 09:36 OP:mh   STATUS:               ID:20130923013000     3
 OLDACT:REG 13-09-23 07:35 OP:mher STATUS:               ID:20130923013000     3
 2013-09-23-0130-00M.COL___268                                                 6
 STAT SP IPHASW D HRMM SECON CODA AMPLIT PERI AZIMU VELO AIN AR TRES W  DIS CAZ7
 BRR  HZ EP   1    132 17.75                             154    0.49 7 67.6 297 
 BRR  HN ES   1    132 33.63                             154   -0.27 7 67.6 297 
 BRR  HZ I         132 35.38         6.6 0.42            152           67.6 297 
 PTB  HZ EP   1    132 22.23                             133   -0.81 7  146 257 
 PTB  HN ES   1    132 43.93                             133   -0.25 7  146 257 
 PTB  HZ I         132 50.02         1.7 0.38            131            146 257 
 SPBC HZ EP   1    132 24.86                             130    0.06 7  164 218 
 SPBC HN ES   1    132 47.71                             130    0.38 7  164 218 
 SPBC HZ I         132 51.85         2.3 0.20            128            164 218 
 ZAR  HN ES   1    132 53.93                             124    0.46 6  201 292 
                                                                                
