 2015  923 0652 41.6 L   6.795 -73.137143.8  RSN 10 0.5 2.2LRSN                1
 GAP=138        1.18       3.5     4.6  6.6 -0.2294E+01  0.8950E+01 -0.3592E+01E
 Epicentro: LOS SANTOS - SANTANDER                                             3
 ACTION:UPD 15-10-28 16:28 OP:cam  STATUS:               ID:20150923065241 L   I
 OLDACT:UP  15-09-23 15:59 OP:mh   STATUS:               ID:20150923064746     3
 OLDACT:REG 15-09-23 12:48 OP:mh   STATUS:               ID:20150923064746     3
 2015-09-23-0647-46M.COL___355                                                 6
 STAT SP IPHASW D HRMM SECON CODA AMPLIT PERI AZIMU VELO AIN AR TRES W  DIS CAZ7
 BAR2 EZ EP        653  1.16                             170    0.1810 22.9 193 
 BAR2 EZ ES        653 15.75                             170   -0.3410 22.9 193 
 BAR2 EZ I         653 16.57        31.3 0.20            170           22.9 193 
 BRR  HZ IP     D  653  3.10                             152    0.5110 72.3 299 
 BRR  HN ES        653 19.80                             152    0.8310 72.3 299 
 PAM  EZ EP        653  4.02                             150    0.4310 77.2  39 
 PAM  EE ES        653 20.62                             150   -0.1210 77.2  39 
 PAM  EZ I         653 23.25        17.9 0.28            152           77.2  39 
 RUS  HZ EP        653  5.20                             144    0.1010 99.9 177 
 RUS  HN ES        653 23.33                             144   -0.1110 99.9 177 
 RUS  HZ I         653 23.88        11.7 0.24            146           99.9 177 
 PTB  HZ EP   1    653  7.62                             131   -0.86 7  149 259 
 PTB  HN ES        653 28.73                             131   -0.71 9  149 259 
 PTB  HZ I         653 31.84        18.5 0.28            130            149 259 
 OCA  HZ EP        653  9.47                             129   -0.35 9  161 353 
 OCA  HN ES        653 31.45                             129   -0.38 9  161 353 
 OCA  HZ I         653 36.39        48.0 0.20            129            161 353 
 SPBC HZ EP        653  9.99                             129    0.04 9  163 219 
 SPBC HN ES        653 31.88                             129   -0.19 9  163 219 
 SPBC HZ I         653 37.04        14.5 0.10            129            163 219 
 ZAR  HZ EP        653 14.13                             122    0.10 9  205 292 
 ZAR  HN ES        653 40.04                             122    0.72 9  205 292 
 ZAR  HZ I         653 45.86        16.8 0.36            121            205 292 
 SML  HZ EP        653 17.52                             117   -0.69 8  245 335 
 SML  HN ES        653 46.48                             117   -0.29 8  245 335 
 SML  HZ I         653 52.89        20.8 0.22            117            245 335 
 HEL  HZ EP        653 22.77                             114    0.98 8  273 256 
 HEL  HN ES        653 52.73                             114   -0.42 8  273 256 
 HEL  HZ I         654  1.50         3.5 0.24            115            273 256 
 URE  HZ EP   4    653 21.72                             113   -0.97 0  285 292 
 URE  HN ES   4    653 53.21                             113   -1.54 0  285 292 
                                                                                
