 2013  323 0420 59.9 L   6.727 -73.188149.5  RSN  4 0.2 1.4LRSN                1
 GAP=227        0.53       5.1     5.2  5.7  0.1718E+02  0.2991E+00  0.2566E+01E
 Epicentro: VILLANUEVA - SANTANDER                                             3
 ACTION:UPD 13-04-09 14:04 OP:ep   STATUS:               ID:20130323042059 L   I
 2013-03-23-0420-00M.COL___245                                                 6
 STAT SP IPHASW D HRMM SECON CODA AMPLIT PERI AZIMU VELO AIN AR TRES W  DIS CAZ7
 BRR  HZ EP        421 21.12                             153   -0.3410 71.5 306 
 BRR  HN ES        421 38.40                             153    0.1210 71.5 306 
 BRR  HN I         421 38.91         7.6 0.22            154           71.5 306 
 RUS  HZ EP        421 23.63                             147    0.1410 93.0 173 
 RUS  HN ES   1    421 41.91                             147    0.01 7 93.0 173 
 RUS  HN I         421 43.47         2.1 0.24            146           93.0 173 
 PTB  HZ EP        421 26.72                             134    0.09 9  142 262 
 PTB  HN ES   1    421 47.23                             134   -0.26 7  142 262 
 PTB  HN I         421 49.67         3.9 0.22            134            142 262 
 ZAR  HE ES   1    421 58.16                             123    0.29 6  203 295 
                                                                                
