 2013  623 0441 48.2 L   6.797 -73.099146.0  RSN  8 0.5 1.7LRSN                1
 GAP=143        1.25       5.2    11.3 11.2 -0.2067E+01  0.6668E+02 -0.1240E+02E
 Epicentro: LOS SANTOS - SANTANDER                                             3
 ACTION:UPD 14-01-08 09:56 OP:ep   STATUS:               ID:20130623044148 L   I
 OLDACT:REG 13-06-23 10:21 OP:carl STATUS:               ID:20130623043959     3
 2013-06-23-0439-59M.COL___267                                                 6
 STAT SP IPHASW D HRMM SECON CODA AMPLIT PERI AZIMU VELO AIN AR TRES W  DIS CAZ7
 BAR2 SZ EP        442  8.43                             170    0.5310 24.4 202 
 BAR2 SZ ES   1    442 22.76                             170   -0.50 7 24.4 202 
 BAR2 SZ I         442 24.05         7.2 0.22            169           24.4 202 
 GIR2 SZ EP        442  8.43                             167    0.4610 32.8 342 
 PAM  SN ES        442 27.67                             152    0.1610 74.5  36 
 BRR  HZ EP        442 10.33                             151    0.6610 75.9 297 
 BRR  HN ES   1    442 27.04                             151    0.64 7 75.9 297 
 BRR  HN I         442 31.61        14.1 0.16            149           75.9 297 
 RUS  HN ES        442 29.81                             144   -0.6610  100 179 
 PTB  HZ EP        442 15.41                             131   -0.25 9  153 259 
 PTB  HN ES   4    442 35.36                             131   -1.71 0  153 259 
 PTB  HZ I         442 38.24         4.8 0.18            131            153 259 
 OCA  HN ES        442 38.19                             129   -0.63 9  161 351 
 SML  HZ EP        442 24.54                             117   -0.59 8  246 334 
 SML  HN ES   1    442 53.57                             117   -0.35 6  246 334 
                                                                                
