 2013 1023 0139 11.9 L   6.807 -73.169147.3  RSN  8 0.4 1.5LRSN                1
 GAP=236        0.92       4.1     4.7  6.5  0.5682E+01  0.5497E+01  0.5866E+01E
 Epicentro: LOS SANTOS - SANTANDER                                             3
 ACTION:UPD 13-11-25 09:23 OP:ep   STATUS:               ID:20131023013911 L   I
 OLDACT:REG 13-10-23 08:23 OP:carl STATUS:               ID:20131023013836     3
 2013-10-23-0138-36M.COL___227                                                 6
 STAT SP IPHASW D HRMM SECON CODA AMPLIT PERI AZIMU VELO AIN AR TRES W  DIS CAZ7
 BAR2 SZ EP        139 31.46                             171   -0.2910 23.8 183 
 BAR2 SZ ES        139 47.04                             171   -0.1710 23.8 183 
 BAR2 SZ I         139 49.31        15.6 0.26            167           23.8 183 
 BRR  HZ EP        139 33.24                             154    0.1410 68.6 299 
 BRR  HN ES        139 50.42                             154    0.8110 68.6 299 
 BRR  HZ I         139 52.97         7.0 0.32            151           68.6 299 
 RUS  HZ EP        139 35.90                             144    0.0010  102 175 
 RUS  HN ES        139 54.42                             144   -0.1710  102 175 
 RUS  HZ I         139 55.41         4.8 0.28            144            102 175 
 PTB  HZ EP        139 38.77                             133   -0.03 9  145 258 
 PTB  HN ES        139 59.23                             133   -0.54 9  145 258 
 PTB  HZ I         140  1.86         3.8 0.16            131            145 258 
 SPBC HE ES        140  2.46                             130   -0.23 9  162 218 
 ZAR  HE ES        140  8.99                             123   -0.38 9  201 292 
 ZAR  HZ I         140 15.81         2.3 0.32            122            201 292 
 NOR  HE ES        140 15.86                             119    0.50 8  233 234 
 NOR  HZ I         140 23.39         3.1 0.18            118            233 234 
 CHI  HZ EP        139 49.95                             117    0.24 8  249 195 
 CHI  HN ES        140 19.46                             117    0.27 8  249 195 
 CHI  HZ I         140 24.84         1.6 0.30            117            249 195 
                                                                                
