 2010  323 0734 23.6 L   6.815 -73.012143.1  RSN  6 0.3 1.5LRSN                1
 GAP=197        0.57       3.3     9.3  5.9  0.1301E+02 -0.1984E+02 -0.6811E+01E
 Epicentro: CEPITA - SANTANDER                                                 3
 ACTION:UP  10-08-24 09:55 OP:vdl  STATUS:               ID:20100323073423 L   I
 2010-03-23-0732-34S.COL___098                                                 6
 STAT SP IPHASW D HRMM SECON CODA AMPLIT PERI AZIMU VELO SNR AR TRES W  DIS CAZ7
 BAR2 SZ EP        734 43.07                             168     0.010   31 218 
 BAR2 SZ ES   1    734 58.03                             168    -0.3 7   31 218 
 BRR  HZ EP        734 45.13                             148    -0.110   84 293 
 BRR  HE ES   1    735  2.16                             148     0.0 7   84 293 
 BRR  HZ I         735  6.12         7.7 0.19                            84 293 
 RUS  HZ EP   1    734 47.04                             143    -0.2 7  102 184 
 RUS  HE ES   1    735  6.05                             143     0.4 7  102 184 
 RUS  HZ I         735  8.40         1.7 0.38                           102 184 
 OCA  SZ EP        734 52.08                             129     0.3 9  161 348 
 OCA  SZ ES   1    735 13.76                             129     0.0 7  161 348 
 CHI  HZ EP   2    735  1.24                             116    -0.6 4  254 198 
 PRA  HN ES   3    736  1.49                             106     0.9 1  401 211 
 PRA  HZ I         736  2.83         2.1 0.40                           401 211 
                                                                                
