 2012  723 0132 11.8 L   6.675 -73.190141.6  RSN  5 0.1 1.1LRSN                1
 GAP=223        0.28       5.3     5.6  4.8  0.1352E+02  0.1039E+02  0.1270E+02E
 Epicentro: VILLANUEVA - SANTANDER                                             3
 ACTION:UPD 12-08-14 11:46 OP:ep   STATUS:               ID:20120723013211 L   I
 2012-07-23-0130-00M.COL___215                                                 6
 STAT SP IPHASW D HRMM SECON CODA AMPLIT PERI AZIMU VELO AIN AR TRES W  DIS CAZ7
 BAR2 SZ ES   3    132 45.38                             176    -0.1 3    9 175 
 BAR2 SZ I         132 46.53         5.1 0.24            161              9 175 
 BRR  HZ EP   1    132 32.78                             151     0.1 8   75 310 
 BRR  HN ES   1    132 49.02                             151     0.0 8   75 310 
 RUS  HN ES   3    132 51.71                             147     0.0 3   87 172 
 PTB  HZ EP        132 37.78                             133     0.010  141 264 
 PTB  HN ES   3    132 58.20                             133     0.1 2  141 264 
 PTB  HZ I         133  4.05         0.9 0.10            128            141 264 
 ZAR  HN ES   2    133  9.24                             121    -0.1 5  205 296 
