 2010  823 0809 44.4 L   6.758 -73.096149.4  RSN  5 0.1 1.3LRSN                1
 GAP=193        0.32       4.3     6.0  5.1 -0.9437E+01 -0.8776E+01 -0.3351E+01E
 Epicentro: LOS SANTOS - SANTANDER                                             3
 ACTION:UP  10-09-07 10:57 OP:vdl  STATUS:               ID:20100823080944 L   I
 2010-08-23-0807-10S.COL___120                                                 6
 STAT SP IPHASW D HRMM SECON CODA AMPLIT PERI AZIMU VELO SNR AR TRES W  DIS CAZ7
 BAR2 SZ EP   1    810  4.54                             172     0.1 7   21 208 
 BAR2 SZ ES   2    810 19.86                             172    -0.2 5   21 208 
 BAR2 SZ I         810 20.67         4.6 0.57                            21 208 
 GIR2 SZ EP   2    810  4.57                             165    -0.1 5   37 343 
 BRR  HZ EP   1    810  6.32                             151     0.0 7   78 300 
 BRR  HN ES   2    810 23.50                             151     0.1 5   78 300 
 GUE  SZ EP   1    810  9.53                             139    -0.2 7  120   9 
 GRA  SZ EP   1    810 10.26                             137     0.1 7  129  15 
 GRA  SZ ES   2    810 30.44                             137     0.1 5  129  15 
                                                                                
