 2017 1023 0019 53.7 L   6.654 -74.060  4.0  RSN 22 0.7 2.5LRSN                1
 GAP= 56        1.22       1.9     1.8  4.1 -0.2763E+00  0.4315E+00  0.1313E+01E
 Epicentro: PUERTO PARRA - SANTANDER                                           3
 ACTION:UPD 17-11-07 19:35 OP:rebc STATUS:               ID:20171023001953 L   I
 OLDACT:UP  17-10-23 13:27 OP:dhb  STATUS:               ID:20171023001740     3
 OLDACT:UP  17-10-23 13:26 OP:dhb  STATUS:               ID:20171023001740     3
 OLDACT:UP  17-10-23 13:25 OP:dhb  STATUS:               ID:20171023001740     3
 OLDACT:UP  17-10-23 13:16 OP:dhb  STATUS:               ID:20171023001740     3
 OLDACT:REG 17-10-23 12:12 OP:dhb  STATUS:               ID:20171023001740     3
 2017-10-23-0018-00M.COL___405                                                 6
 STAT SP IPHASW D HRMM SECON CODA AMPLIT PERI AZIMU VELO AIN AR TRES W  DIS CAZ7
 PTB  HZ IP     D  020  0.86                              47   -0.3910 45.6 254 
 PTB  HN ES        020  6.74                              47   -0.3710 45.6 254 
 PTB  HZ I         020  6.98       236.8 0.24             47           45.6 254 
 BRR  HZ IP     D  020  3.92                              47    0.0210 63.2  38 
 BRR  HE ES        020 12.20                              47    0.3710 63.2  38 
 BRR  HZ I         020 12.92       230.3 0.10             47           63.2  38 
 BAR2 EZ IP     D  020  9.25                              47   -0.0710 97.3  94 
 BAR2 EZ ES        020 21.41                              47   -0.0710 97.3  94 
 BAR2 EZ I         020 27.74       121.7 0.50             47           97.3  94 
 SPBC HZ EP        020 11.55                              47    0.3410  111 181 
 SPBC HE ES        020 24.42                              47   -0.4110  111 181 
 SPBC HZ I         020 26.56        99.4 0.22             47            111 181 
 ZAR  HZ EP        020 13.33                              47   -0.3910  128 316 
 ZAR  HE ES        020 28.50                              47   -0.8010  128 316 
 ZAR  HZ I         020 30.59       117.7 0.40             47            128 316 
 RUS  HZ EP        020 15.63                              47    0.03 9  137 128 
 RUS  HE ES        020 31.81                              47   -0.85 9  137 128 
 RUS  HZ I         020 35.90       254.9 0.20             47            137 128 
 NOR  HZ EP        020 16.88                              47   -0.26 9  150 217 
 NOR  HE ES   3    020 33.50                              47   -1.89 2  150 217 
 NOR  HZ I         020 38.03        53.4 0.32             47            150 217 
 PAM  EZ EP        020 20.63                              47    0.28 9  168  63 
 PAM  EE ES        020 40.66                              47   -0.44 9  168  63 
 PAM  EZ I         020 43.88       143.6 0.28             47            168  63 
 URE  HZ EP        020 25.04                              37    0.67 9  203 307 
 URE  HE ES        020 48.98                              37    0.71 9  203 307 
 URE  HZ I         020 52.10        83.3 0.28             37            203 307 
 ROSC BZ EP   4    020 28.79                              37    4.00 0  203 188 
 ROSC BN ES        020 49.08                              37    0.06 9  203 188 
 ROSC BZ I         020 52.99        26.5 0.35             37            203 188 
 GUY2CHZ EP        020 26.64                              37    0.31 8  214 222 
 GUY2CHE ES        020 51.41                              37   -0.35 8  214 222 
 GUY2CHZ I         020 56.13        50.1 0.28                           214 222 
 CHI  HZ EP        020 28.55                              37    0.71 8  227 171 
 CHI  HE ES        020 55.08                              37    0.64 8  227 171 
 CHI  HZ I         021  2.60        16.4 0.54             37            227 171 
 YPLC HZ EP   3    020 31.25                              37    3.14 2  232 127 
 YPLC HE ES   4    021  0.93                              37    6.01 0  232 127 
 YPLC HZ I         021  6.71        43.7 0.42             37            232 127 
 DBB  EZ EP        020 28.53                              37   -0.68 8  241 280 
 DBB  EN ES   2    020 58.32                              37    1.44 4  241 280 
 DBB  EZ I         021  4.98        19.9 0.46             37            241 280 
 ELA  HZ EP        020 31.16                              37    0.57 8  248 217 
 ELA  HN ES        020 58.91                              37   -0.43 8  248 217 
 ELA  HZ I         021  5.64        61.5 0.48             37            248 217 
 ANIL HZ EP   4    020 40.41                              37    5.86 0  282 212 
 ANIL HE ES   2    021  8.13                              37    1.74 4  282 212 
 ANIL HZ I         021 10.78        51.7 0.30             37            282 212 
 VIL  EZ EP   3    020 37.17                              37    2.52 2  284 172 
 VIL  EE ES   4    021 10.68                              37    4.11 0  284 172 
 VIL  EZ I         021 18.90        24.3 0.40             37            284 172 
 APAC HZ EP   3    020 39.25                              36    1.48 2  311 296 
 APAC HE ES   4    021 14.97                              36    2.86 0  311 296 
 APAC HZ I         021 20.78        11.4 0.44             36            311 296 
 PAL  HZ EP   4    020 44.78                              36    6.61 0  313 232 
 PAL  HE ES   3    021 15.04                              36    2.21 2  313 232 
 PAL  HZ I         021 26.98        13.2 0.46             36            313 232 
 ORTC HZ EP        020 41.12                              36    0.80 7  331 203 
 ORTC HE ES   4    021 19.07                              36    2.41 0  331 203 
 ORTC HZ I         021 32.43        13.9 0.56             36            331 203 
 PRA  HZ EP   9    020 43.06                              36    1.87 0  338 196 
 PRA  HE ES        021 19.61                              36   -0.46 7  338 196 
 PRA  HZ I         021 36.08        17.6 0.66             36            338 196 
 SJC  HZ EP   2    020 47.78                              36    1.45 3  379 341 
 SJC  HE ES   4    021 30.57                              36    3.21 0  379 341 
 SJC  HZ I         021 44.98         4.1 0.48             36            379 341 
 YOT  HZ EP   4    020 56.51                              36    8.90 0  389 221 
                                                                                
