 2010  823 0302  4.3 L   6.793 -73.120146.1  RSN 10 0.4 2.0LRSN                1
 GAP=162        0.82       3.4     6.7  6.3 -0.6591E+01  0.4976E+01  0.1330E+01E
 Epicentro: LOS SANTOS - SANTANDER                                             3
 ACTION:UP  10-09-07 10:57 OP:vdl  STATUS:               ID:20100823030204 L   I
 2010-08-23-0257-53S.COL___120                                                 6
 STAT SP IPHASW D HRMM SECON CODA AMPLIT PERI AZIMU VELO SNR AR TRES W  DIS CAZ7
 BAR2 SZ EP   1    3 2 23.62                             170    -0.4 7   23 198 
 BAR2 SZ ES   1    3 2 38.66                             170    -0.7 7   23 198 
 BAR2 SZ I         3 2 42.36        24.2 0.46                            23 198 
 GIR2 SZ EP   2    3 2 24.04                             167     0.0 5   33 346 
 BRR  HZ IP     C  3 2 25.69                             152     0.010   74 298 
 BRR  HE ES   1    3 2 42.82                             152     0.5 7   74 298 
 BRR  HZ I         3 2 45.33        19.0 0.19                            74 298 
 RUS  HZ EP   1    3 2 28.02                             144     0.0 7  100 178 
 RUS  HE ES   1    3 2 47.20                             144     0.7 7  100 178 
 RUS  HZ I         3 2 47.76        15.1 0.18                           100 178 
 GRA  SZ IP        3 2 29.79                             137     0.210  126  16 
 GRA  SZ ES   1    3 2 49.24                             137    -0.1 7  126  16 
 GRA  SZ I         3 2 50.77        12.7 0.22                           126  16 
 OCA  SZ EP   1    3 2 32.62                             130    -0.1 7  161 352 
 OCA  SZ ES   2    3 2 54.83                             130    -0.1 5  161 352 
 OCA  SZ I         3 2 58.76        12.7 0.37                           161 352 
 CHI  HZ EP   1    3 2 42.15                             117     0.1 6  249 196 
 CHI  HE ES   1    3 3 11.22                             117    -0.2 6  249 196 
 CHI  HZ I         3 3 14.67         5.6 0.40                           249 196 
 HEL  HZ EP   2    3 2 45.00                             115     0.2 4  275 256 
 HEL  HE ES   2    3 3 15.57                             115    -0.9 4  275 256 
 HEL  HZ I         3 3 22.02         5.1 0.31                           275 256 
 RREF HZ EP   2    3 2 51.54                             111     0.9 3  323 230 
 RREF HE ES   2    3 3 27.34                             111     0.5 3  323 230 
 RREF HZ I         3 3 36.06         5.6 0.38                           323 230 
 PRA  HZ EP   1    3 2 57.24                             107    -0.7 4  393 210 
 PRA  HE ES   3    3 3 40.17                                     0.4 1  393 210 
 PRA  HZ I         3 3 44.01         4.6 0.29                           393 210 
                                                                                
