 2017 1023 0056 12.3 L   6.658 -74.076  2.9  RSN  8 0.5 1.5LRSN                1
 GAP= 88        0.99       2.3     1.7  5.0 -0.5816E-01  0.4647E+00  0.3592E+00E
 Epicentro: PUERTO PARRA - SANTANDER                                           3
 ACTION:UPD 17-11-07 19:35 OP:rebc STATUS:               ID:20171023005612 L   I
 OLDACT:REG 17-10-23 12:15 OP:dhb  STATUS:               ID:20171023004738     3
 2017-10-23-0048-00M.COL___405                                                 6
 STAT SP IPHASW D HRMM SECON CODA AMPLIT PERI AZIMU VELO AIN AR TRES W  DIS CAZ7
 PTB  HZ IP     D  056 19.64                              47   -0.1310 44.0 253 
 PTB  HE ES        056 25.42                              47   -0.1510 44.0 253 
 PTB  HZ I         056 25.64        22.4 0.14             47           44.0 253 
 BRR  HZ EP        056 22.77                              47   -0.0010 63.9  39 
 BRR  HE ES        056 31.17                              47    0.2510 63.9  39 
 BRR  HZ I         056 31.87        15.1 0.11             47           63.9  39 
 BAR2 EZ EP        056 28.08                              47   -0.2710 99.1  94 
 BAR2 EZ ES        056 40.28                              47   -0.5610 99.1  94 
 BAR2 EZ I         056 42.29        14.4 0.70             47           99.1  94 
 ZAR  HZ EP        056 32.17                              47   -0.0710  126 317 
 ZAR  HE ES        056 47.52                              47   -0.2510  126 317 
 ZAR  HZ I         056 49.31         7.1 0.10             47            126 317 
 RUS  HZ EP        056 35.12                              47    0.51 9  139 128 
 RUS  HE ES        056 52.30                              47    0.32 9  139 128 
 RUS  HZ I         056 54.53        14.3 0.22             47            139 128 
 NOR  HZ EP   2    056 37.24                              47    1.45 5  149 216 
 NOR  HE ES   3    056 53.15                              47   -0.93 2  149 216 
 NOR  HZ I         056 54.58         4.6 0.16             47            149 216 
 URE  HE ES   2    057  8.57                              37    1.74 4  201 307 
 URE  HZ I         057 10.86         5.9 0.28             37            201 307 
 GUY2CHZ EP        056 44.76                              37   -0.25 8  213 222 
 GUY2CHE ES        057 10.52                              37    0.03 8  213 222 
 GUY2CHZ I         057 13.39         3.1 0.30                           213 222 
                                                                                
