 2010  623 0829 19.7 L   6.718 -73.020141.6  RSN  5 0.2 1.6LRSN                1
 GAP=174        0.48       4.7     6.6  8.1 -0.3490E+01 -0.2696E+02 -0.1012E+02E
 Epicentro: ARATOCA - SANTANDER                                                3
 ACTION:UP  10-08-24 10:12 OP:vdl  STATUS:               ID:20100623082919 L   I
 2010-06-23-0828-12S.COL___118                                                 6
 STAT SP IPHASW D HRMM SECON CODA AMPLIT PERI AZIMU VELO SNR AR TRES W  DIS CAZ7
 BAR2 SZ EP   3    829 39.51                             171     0.7 2   23 232 
 BRR  HZ EP        829 41.43                             146     0.010   88 299 
 BRR  HZ I         829 41.73         7.4 0.19                            88 299 
 BRR  HE ES   1    829 58.48                             146     0.0 7   88 299 
 RUS  HN ES   2    830  0.08                             146    -0.1 5   92 184 
 GUE  SZ EP        829 44.39                             137    -0.210  123   5 
 GRA  SZ EP        829 45.33                             135     0.310  131  10 
 GRA  SZ ES   2    830  4.83                             135     0.0 5  131  10 
                                                                                
