 2016  223 0307 46.9 L   6.784 -73.180135.1  RSN 11 0.5 1.9LRSN                1
 GAP=133        2.92      10.2    11.4 17.3  0.7617E+01  0.3567E+02  0.1668E+02E
 Epicentro: LOS SANTOS - SANTANDER                                             3
 ACTION:UPD 16-03-04 21:28 OP:rebc STATUS:               ID:20160223030746 L   I
 OLDACT:REG 16-02-23 13:05 OP:mh   STATUS:               ID:20160223025740     3
 2016-02-23-0257-40M.COL___328                                                 6
 STAT SP IPHASW D HRMM SECON CODA AMPLIT PERI AZIMU VELO AIN AR TRES W  DIS CAZ7
 BAR2 EZ EP        3 8  5.11                             170   -0.1110 21.2 181 
 BAR2 EZ ES        3 8 19.88                             170    0.3810 21.2 181 
 BAR2 EZ I         3 8 21.31        21.4 0.27            171           21.2 181 
 BRR  HZ EP        3 8  6.96                             152    0.1810 68.7 301 
 BRR  HN ES        3 8 22.80                             152    0.5310 68.7 301 
 BRR  HZ I         3 8 27.27        15.0 0.16            150           68.7 301 
 PAM  EN EP        3 8  7.70                             147   -0.5510 81.2  41 
 PAM  EZ ES        3 8 24.97                             147    0.0810 81.2  41 
 PAM  EN I         3 8 25.90        35.4 0.46            150           81.2  41 
 RUS  HZ EP        3 8  8.99                             142   -0.5410 99.2 174 
 RUS  HN ES        3 8 27.27                             142    0.1110 99.2 174 
 RUS  HZ I         3 8 28.13         7.1 0.22            144           99.2 174 
 PTB  HZ EP        3 8 11.85                             131   -0.80 9  144 259 
 PTB  HN ES        3 8 32.83                             131    0.11 9  144 259 
 PTB  HZ I         3 8 33.85         9.0 0.16            131            144 259 
 OCA  HZ EP   1    3 8 13.79                             127   -0.76 7  162 355 
 OCA  HN ES   1    3 8 36.59                             127    0.49 7  162 355 
 OCA  HZ I         3 8 38.47        23.0 0.22            128            162 355 
 ZAR  HZ EP   1    3 8 18.73                             121    0.34 6  201 293 
 ZAR  HN ES        3 8 43.61                             121    0.68 9  201 293 
 ZAR  HZ I         3 8 49.53         9.8 0.22            121            201 293 
 CHI  HZ EP   1    3 8 23.22                             115   -0.53 6  246 194 
 CHI  HN ES   1    3 8 52.42                             115   -0.06 6  246 194 
 CHI  HZ I         3 8 55.44         1.7 0.32            117            246 194 
 URE  HZ EP   9    3 8 29.12                             112    1.96 0  281 293 
 URE  HN ES        3 8 56.62                                   -3.89 7  281 293 
 GUY2CHZ EP   1    3 8 30.35                             111    0.77 5  297 235 
 GUY2CHN ES   4    3 9  3.76                             111    0.90 0  297 235 
 GUY2CHZ I         3 9 11.42         3.3 0.40                           297 235 
 MON  HZ EP   9    3 8 38.83                             107    3.53 0  352 309 
 MON  HN ES   1    3 9  9.66                                   -6.91 5  352 309 
                                                                                
