 2013 1023 0613 44.0 L   7.072 -73.317119.7  RSN  7 0.4 1.8LRSN                1
 GAP=164        0.99       3.5     5.6  7.3 -0.3048E+01  0.1417E+02 -0.1895E+01E
 Epicentro: LEBRIJA - SANTANDER                                                3
 ACTION:UPD 13-11-25 09:23 OP:ep   STATUS:               ID:20131023061344 L   I
 OLDACT:REG 13-10-23 08:28 OP:carl STATUS:               ID:20131023060838     3
 2013-10-23-0608-38M.COL___226                                                 6
 STAT SP IPHASW D HRMM SECON CODA AMPLIT PERI AZIMU VELO AIN AR TRES W  DIS CAZ7
 BRR  HZ IP     C  614  1.00                             159    0.1410 43.8 275 
 BRR  HN ES        614 13.93                             159   -0.0910 43.8 275 
 BRR  HZ I         614 14.55        37.6 0.12            157           43.8 275 
 BAR2 SZ EP        614  2.34                             154    0.5710 55.1 164 
 BAR2 SZ ES        614 15.29                             154   -0.3510 55.1 164 
 BAR2 SZ I         614 16.74        25.5 0.30            150           55.1 164 
 OCA  HZ EP        614  7.37                             129    0.0310  129 360 
 OCA  HN ES        614 25.65                             129    0.1010  129 360 
 OCA  HZ I         614 26.46         9.9 0.32            129            129 360 
 PTB  HZ EP        614  7.20                             127   -0.92 9  139 245 
 PTB  HN ES   4    614 24.69                             127   -2.25 0  139 245 
 PTB  HZ I         614 25.89         8.9 0.30            124            139 245 
 ZAR  HZ EP        614 11.68                             120   -0.23 9  176 285 
 ZAR  HN ES        614 34.03                             120    0.34 9  176 285 
 ZAR  HZ I         614 36.04         6.3 0.28            118            176 285 
 SPBC HZ EP   4    614 14.39                             120    2.21 0  178 208 
 SPBC HN ES        614 34.51                             120    0.35 9  178 208 
 SPBC HZ I         614 40.56         6.5 0.20            117            178 208 
 RREF HZ EP   4    614 31.80                             105    1.81 0  329 223 
 RREF HN ES        615  6.04                             105    0.18 7  329 223 
 RREF HZ I         615 13.00         2.7 0.26            103            329 223 
                                                                                
