 2011  323 0248 47.0 L   6.285 -73.571103.2  RSN  7 0.4 1.9LRSN                1
 GAP=134        0.90       3.8     5.3  8.1 -0.1046E+02  0.2004E+02 -0.3285E+01E
 Epicentro: EL GUACAMAYO - SANTANDER                                           3
 ACTION:UP  11-06-16 14:35 OP:jfem STATUS:               ID:20110323024847 L   I
 2011-03-23-0240-00M.COL___138                                                 6
 STAT SP IPHASW D HRMM SECON CODA AMPLIT PERI AZIMU VELO SNR AR TRES W  DIS CAZ7
 BAR2 SZ IP        249  2.99                             150     0.010   55  52 
 BAR2 SZ I         249  3.35        33.4 0.34                            55  52 
 BAR2 SZ ES        249 15.27                             150    -0.210   55  52 
 NOR  SZ EP   1    249 12.40                             117    -0.4 7  165 241 
 NOR  SN ES   2    249 32.90                             117     0.0 5  165 241 
 CHI  HZ EP        249 15.05                             114    -0.3 9  184 186 
 CHI  HN ES   1    249 38.21                             114     0.8 7  184 186 
 CHI  HZ I         249 42.65         3.7 0.37                           184 186 
 GRA  SZ EP        249 15.93                             112    -0.5 9  196  26 
 GRA  SZ ES   1    249 39.58                             112     0.3 6  196  26 
 GRA  SZ I         249 40.94         9.3 0.30                           196  26 
 HEL  HZ EP   1    249 18.86                             110    -0.2 6  217 267 
 HEL  HN ES   1    249 43.89                             110    -0.1 6  217 267 
 HEL  HZ I         249 47.13         4.5 0.29                           217 267 
 OCA  SZ EP   1    249 18.99                             110     0.1 6  218   7 
 OCA  SZ ES   1    249 44.44                             110     0.7 6  218   7 
 OCA  SZ I         249 50.14        12.2 0.48                           218   7 
 GUY  SZ EP   1    249 21.35                             108     0.6 6  231 240 
 GUY  SZ I         249 53.15        10.2 0.50                           231 240 
                                                                                
