 2017 1123 0805 32.6 L   6.817 -73.168145.5  RSN  7 0.3 1.3LRSN                1
 GAP=133        0.78       3.2     3.5  5.9 -0.1362E+01  0.6215E+01  0.1564E+01E
 Epicentro: LOS SANTOS - SANTANDER                                             3
 ACTION:UPD 17-12-12 19:59 OP:rebc STATUS:               ID:20171123080532 L   I
 OLDACT:UP  17-11-23 16:20 OP:dani STATUS:               ID:20171123075738     3
 OLDACT:UP  17-11-23 16:17 OP:dani STATUS:               ID:20171123075738     3
 OLDACT:REG 17-11-23 13:15 OP:osc  STATUS:               ID:20171123075738     3
 2017-11-23-0758-00M.COL___456                                                 6
 STAT SP IPHASW D HRMM SECON CODA AMPLIT PERI AZIMU VELO AIN AR TRES W  DIS CAZ7
 BAR2 EZ EP        8 5 52.31                             170    0.0310 24.9 184 
 BAR2 EZ ES        8 6  7.46                             170   -0.1410 24.9 184 
 BAR2 EZ I         8 6  8.41        10.0 0.36            170           24.9 184 
 PAM  EZ EP        8 5 55.03                             151    0.1910 77.5  42 
 PAM  EN ES        8 6 12.08                             151   -0.0810 77.5  42 
 PAM  EZ I         8 6 15.02         2.6 0.38            153           77.5  42 
 RUS  HZ EP        8 5 56.57                             143    0.0410  103 175 
 RUS  HN ES        8 6 15.22                             143    0.0710  103 175 
 RUS  HZ I         8 6 16.72         1.7 0.26            145            103 175 
 PTB  HZ EP        8 5 59.02                             132   -0.39 9  146 258 
 PTB  HN ES        8 6 20.11                             132   -0.18 9  146 258 
 PTB  HZ I         8 6 21.92         1.4 0.10            133            146 258 
 SPBC HZ EP        8 6  1.41                             129    0.29 9  163 218 
 SPBC HN ES        8 6 24.00                             129    0.66 9  163 218 
 SPBC HZ I         8 6 28.28         3.8 0.14            130            163 218 
 ZAR  HZ EP   4    8 6  7.94                             123    3.17 0  201 292 
 ZAR  HN ES        8 6 29.88                             123    0.05 9  201 292 
 ZAR  HZ I         8 6 32.39         3.3 0.38            124            201 292 
 CHI  HN ES        8 6 39.26                             117   -0.70 8  250 195 
                                                                                
