 2015 1223 0244 57.6 L   6.800 -73.111138.0  RSN  8 0.4 1.6LRSN                1
 GAP=241        0.91       6.5     5.3  6.9  0.9541E+00  0.8883E+01  0.4943E+01E
 Epicentro: LOS SANTOS - SANTANDER                                             3
 ACTION:UPD 16-02-04 15:06 OP:cam  STATUS:               ID:20151223024457 L   I
 OLDACT:REG 15-12-23 12:40 OP:dnl  STATUS:               ID:20151223023750     3
 2015-12-23-0237-50M.COL___328                                                 6
 STAT SP IPHASW D HRMM SECON CODA AMPLIT PERI AZIMU VELO AIN AR TRES W  DIS CAZ7
 BAR2 EZ EP        245 16.77                             169    0.4310 24.3 199 
 BAR2 EZ ES        245 30.12                             169   -0.8210 24.3 199 
 BAR2 EZ I         245 33.32         7.5 0.20            168           24.3 199 
 BRR  HE ES   2    245 35.06                             149    0.92 5 74.5 297 
 RUS  HZ EP        245 20.93                             142    0.3210  100 178 
 RUS  HN ES   2    245 38.82                             142    0.29 5  100 178 
 RUS  HZ I         245 40.99         3.3 0.28            144            100 178 
 PTB  HZ EP        245 23.92                             129   -0.40 9  151 259 
 PTB  HE ES        245 45.36                             129    0.22 9  151 259 
 PTB  HZ I         245 48.44         4.4 0.22            130            151 259 
 SPBC HZ EP        245 25.93                             126    0.16 9  166 220 
 SPBC HE ES        245 47.63                             126   -0.10 9  166 220 
 SPBC HZ I         245 50.75         6.7 0.20            128            166 220 
 ZAR  HZ EP   2    245 29.46                             119   -0.48 4  208 292 
 ZAR  HE ES   2    245 55.14                             119   -0.01 4  208 292 
 ZAR  HZ I         246  0.36         4.5 0.08            121            208 292 
 NOR  HZ EP        245 33.20                             116   -0.05 8  238 235 
 NOR  HE ES        246  1.04                             116   -0.00 8  238 235 
 NOR  HZ I         246  4.42         3.8 0.25            118            238 235 
 GUY2CHZ EP   4    245 42.55                             110    1.31 0  304 235 
 GUY2CHN ES   4    246 16.45                             110    1.19 0  304 235 
 GUY2CHZ I         246 23.51         2.8 0.45                           304 235 
                                                                                
