 2013 1023 0914  3.3 L   6.798 -73.129142.6  RSN 13 0.5 2.2LRSN 2.7WRSN        1
 SPEC AVERAGE  MO 13.1 ST  8.4 OM  1.6 f0 6.22 R0.3706 AL 0.00 WI 20.0 MW  2.7 3
 SPEC SD       MO  0.3 ST 18.6 OM  0.4 f0 4.37 R0.2072 AL      WI      MW  0.2 3
 GAP=139        1.10       2.8     4.4  5.6 -0.1065E+01  0.6690E+01  0.2001E+01E
 Epicentro: LOS SANTOS - SANTANDER                                             3
 SPEC BAR2SH Z MO 13.6 ST0.460 OM  2.0 f0 2.22 R0.7000 AL-0.00 WI 20.0 MW  3.0 3
 SPEC BAR2SH Z T 91435 K 0.000 GD  144 VS 4.20 DE 3.20 Q0300.0 QA 0.60 VS 4.20 3
 SPEC BRR HH Z MO 12.8 ST  3.4 OM  1.2 f0 7.73 R0.2010 AL-0.00 WI 20.0 MW  2.5 3
 SPEC BRR HH Z T 91439 K 0.000 GD  160 VS 4.20 DE 3.20 Q0300.0 QA 0.60 VS 4.20 3
 SPEC PAM SH Z MO 13.3 ST0.287 OM  1.7 f0 2.30 R0.6757 AL-0.00 WI 20.0 MW  2.8 3
 SPEC PAM SH Z T 91440 K 0.000 GD  161 VS 4.20 DE 3.20 Q0300.0 QA 0.60 VS 4.20 3
 SPEC RUS HH Z MO 12.8 ST0.244 OM  1.2 f0 3.12 R0.4981 AL-0.00 WI 20.0 MW  2.5 3
 SPEC RUS HH Z T 91443 K 0.000 GD  174 VS 4.20 DE 3.20 Q0300.0 QA 0.60 VS 4.20 3
 SPEC PTB HH Z MO 12.8 ST 11.5 OM  1.1 f0 11.5 R0.1351 AL-0.00 WI 20.0 MW  2.5 3
 SPEC PTB HH Z T 91449 K 0.000 GD  206 VS 4.20 DE 3.20 Q0300.0 QA 0.60 VS 4.20 3
 SPEC SPBCHH Z MO 13.1 ST  2.8 OM  1.4 f0 5.63 R0.2760 AL-0.00 WI 20.0 MW  2.7 3
 SPEC SPBCHH Z T 91451 K 0.000 GD  217 VS 4.20 DE 3.20 Q0300.0 QA 0.60 VS 4.20 3
 SPEC ZAR HH Z MO 13.2 ST  3.2 OM  1.4 f0 5.58 R0.2785 AL-0.00 WI 20.0 MW  2.7 3
 SPEC ZAR HH Z T 91459 K 0.000 GD  250 VS 4.20 DE 3.20 Q0300.0 QA 0.60 VS 4.20 3
 SPEC NOR HH Z MO 13.5 ST0.659 OM  1.7 f0 2.54 R0.6118 AL-0.00 WI 20.0 MW  3.0 3
 SPEC NOR HH Z T 915 4 K 0.000 GD  275 VS 4.20 DE 3.20 Q0300.0 QA 0.60 VS 4.20 3
 SPEC SML HH Z MO 13.0 ST 66.5 OM  1.2 f0 17.2 R0.0903 AL-0.00 WI 20.0 MW  2.6 3
 SPEC SML HH Z T 915 6 K 0.000 GD  283 VS 4.20 DE 3.20 Q0300.0 QA 0.60 VS 4.20 3
 SPEC CHI HH Z MO 12.8 ST  1.7 OM  0.9 f0 6.35 R0.2447 AL-0.00 WI 20.0 MW  2.4 3
 SPEC CHI HH Z T 915 7 K 0.000 GD  286 VS 4.20 DE 3.20 Q0300.0 QA 0.60 VS 4.20 3
 SPEC PRA HH Z MO 13.2 ST  1.5 OM  1.2 f0 4.25 R0.3656 AL-0.00 WI 20.0 MW  2.8 3
 SPEC PRA HH Z T 91537 K 0.000 GD  418 VS 4.20 DE 3.20 Q0300.0 QA 0.60 VS 4.20 3
 OLDACT:REG 13-10-23 08:32 OP:carl STATUS:               ID:20131023090846     3
 ACTION:UPD 13-11-25 09:23 OP:ep   STATUS:               ID:20131023091403 L   I
 OLDACT:UP  13-10-23 10:29 OP:carl STATUS:               ID:20131023090846     3
 2013-10-23-0908-46M.COL___225                                                 6
 STAT SP IPHASW D HRMM SECON CODA AMPLIT PERI AZIMU VELO AIN AR TRES W  DIS CAZ7
 BAR2 SZ EP        914 22.59                             170    0.0610 23.5 195 
 BAR2 SZ ES        914 37.11                             170   -0.4310 23.5 195 
 BAR2 SZ I         914 38.70        49.6 0.18            168           23.5 195 
 BRR  HZ EP        914 24.50                             151    0.3210 73.0 298 
 BRR  HN ES        914 41.30                             151    0.8110 73.0 298 
 BRR  SZ I         914 45.56        27.3 0.12            149           73.0 298 
 PAM  SZ EP        914 25.44                             151    0.3510 76.4  38 
 PAM  SN ES        914 42.38                             151    0.2710 76.4  38 
 PAM  SZ I         914 44.26        57.8 0.44            155           76.4  38 
 RUS  HZ EP        914 26.67                             143   -0.0210  100 177 
 RUS  HN ES        914 45.00                             143    0.0510  100 177 
 RUS  SZ I         914 46.23        19.7 0.26            145            100 177 
 PTB  HZ EP        914 29.92                             131   -0.23 9  150 259 
 PTB  HE ES        914 51.23                             131    0.12 9  150 259 
 PTB  SZ I         914 53.67        21.5 0.20            130            150 259 
 OCA  HN ES        914 52.51                             129   -0.80 9  161 352 
 SPBC HZ EP        914 31.89                             128    0.26 9  164 220 
 SPBC HN ES        914 53.36                             128   -0.38 9  164 220 
 SPBC SZ I         914 58.99        21.5 0.30            128            164 220 
 ZAR  HZ EP        914 35.68                             121   -0.03 8  206 292 
 ZAR  HE ES        915  1.09                             121    0.09 8  206 292 
 ZAR  SZ I         915  6.63        17.4 0.28            122            206 292 
 NOR  HZ EP        914 39.33                             118    0.36 8  236 235 
 NOR  HN ES        915  6.44                             118   -0.37 8  236 235 
 NOR  SZ I         915 13.87        11.1 0.18            118            236 235 
 SML  HZ EP        914 39.11                             117   -0.73 8  245 335 
 SML  HE ES        915  8.05                             117   -0.30 8  245 335 
 SML  SZ I         915 14.54        16.7 0.10            118            245 335 
 CHI  HZ EP        914 40.96                             116    0.13 8  249 196 
 CHI  HN ES        915  9.22                             116   -0.90 8  249 196 
 CHI  SZ I         915 14.26         4.7 0.28            118            249 196 
 RREF HZ EP        914 50.76                             110    1.33 7  323 230 
 RREF HN ES   4    915 27.83                             110    2.41 0  323 230 
 RREF SZ I         915 30.29         7.0 0.28            111            323 230 
 PRA  HZ EP        914 56.48                             106   -0.29 6  393 210 
 PRA  HN ES        915 38.59                             106    0.09 6  393 210 
 PRA  SZ I         915 43.81         5.0 0.22            107            393 210 
                                                                                
