 2014  523 0913  7.9 L   6.814 -73.210140.0  RSN  6 0.4 1.4LRSN                1
 GAP=128        0.89       3.5     4.2  8.1 -0.1792E+01  0.1344E+02 -0.5011E+01E
 Epicentro: ZAPATOCA - SANTANDER                                               3
 ACTION:UPD 15-03-16 17:00 OP:nd   STATUS:               ID:20140523091307 L   I
 OLDACT:REG 14-05-23 13:21 OP:spq  STATUS:               ID:20140523090812     3
 2014-05-23-0908-12M.COL___255                                                 6
 STAT SP IPHASW D HRMM SECON CODA AMPLIT PERI AZIMU VELO AIN AR TRES W  DIS CAZ7
 PAM  SZ EP        913 29.82                             149    0.0810 81.0  44 
 PAM  SN ES        913 46.69                             149   -0.0810 81.0  44 
 PAM  SZ I         913 47.91         3.0 0.16            152           81.0  44 
 RUS  HZ EP        913 31.15                             142   -0.1210  103 172 
 RUS  HE ES        913 49.59                             142    0.1010  103 172 
 RUS  HZ I         913 51.33         2.5 0.32            147            103 172 
 PTB  HZ EP        913 33.93                             132    0.12 9  141 258 
 PTB  HE ES        913 53.89                             132   -0.11 9  141 258 
 PTB  HZ I         914  0.11         3.6 0.10            133            141 258 
 ZAR  HN ES   1    914  2.93                             122   -0.75 6  197 292 
 ZAR  HZ I         914  5.63         3.1 0.24            124            197 292 
 SML  HZ E         913 43.09                                            239 337 
 SML  HZ EP        913 43.09                             117   -0.66 8  239 337 
 SML  HE ES        914 12.55                             117    0.84 8  239 337 
 SML  HZ I         914 21.03         3.6 0.10            119            239 337 
 GUY2CHZ EP   1    913 50.73                             112    0.02 5  296 234 
 GUY2CHE ES   1    914 24.80                             112    0.71 5  296 234 
 GUY2CHZ I         914 34.46         1.3 0.54                           296 234 
                                                                                
