 2011 1223 0543 30.0 L   6.796 -73.113144.0  RSN 10 0.4 1.7LRSN                1
 GAP=141        0.72       3.6     4.7  5.2 -0.1227E+01  0.4370E+01  0.2634E+01E
 Epicentro: LOS SANTOS - SANTANDER                                             3
 ACTION:UPD 12-07-13 16:17 OP:ep   STATUS:               ID:20111223054330 L   I
 2011-12-23-0540-00M.COL___188                                                 6
 STAT SP IPHASW D HRMM SECON CODA AMPLIT PERI AZIMU VELO AIN AR TRES W  DIS CAZ7
 BAR2 SZ EP        543 49.24                             170   -0.1910 23.8 199 
 BAR2 SZ ES   1    544  4.39                             170   -0.19 7 23.8 199 
 BAR2 SZ I         544  5.43        11.1 0.35                          23.8 199 
 GIR2 SZ EP   1    543 49.26                             167   -0.24 7 32.5 344 
 BRR  HZ EP        543 51.23                             151    0.0710 74.6 297 
 BRR  HZ I         543 51.41        11.8 0.07                          74.6 297 
 BRR  HN ES        544  8.18                             151    0.5210 74.6 297 
 PAM  SZ EP   2    543 51.94                             151    0.03 5 75.5  37 
 PAM  SE ES   2    544  8.75                             151   -0.25 5 75.5  37 
 RUS  HZ EP   1    543 53.42                             144   -0.11 7 99.9 178 
 RUS  HE ES   1    544 12.11                             144    0.23 7 99.9 178 
 RUS  HZ I         544 13.87         3.8 0.62                          99.9 178 
 PTB  HZ EP        543 56.52                             131   -0.62 9  151 259 
 PTB  HE ES   2    544 17.51                             131   -0.81 5  151 259 
 OCA  SZ EP   1    543 58.60                             129    0.34 7  161 352 
 NOR  SZ EP   1    544  5.86                             118   -0.06 6  237 235 
 NOR  SN ES   1    544 33.88                             118   -0.06 6  237 235 
 CHI  HZ EP   1    544  7.95                             117    0.29 6  249 196 
 CHI  HN ES   1    544 37.54                             117    0.51 6  249 196 
 CHI  HZ I         544 41.36         4.2 0.68                           249 196 
 HEL  HZ EP   1    544 10.93                             114    0.43 6  276 256 
 HEL  HZ I         544 47.91         2.8 0.25                           276 256 
                                                                                
