 2014  223 0933  3.8 L   6.805 -73.165145.2  RSN 10 0.2 1.7LRSN                1
 GAP=134        0.49       1.7     2.0  3.3 -0.4487E+00  0.2040E+01 -0.2676E+00E
 Epicentro: LOS SANTOS - SANTANDER                                             3
 ACTION:UPD 14-03-10 08:12 OP:ep   STATUS:               ID:20140223093303 L   I
 OLDACT:DUP 14-02-23 09:05 OP:fm   STATUS:               ID:20140223093001d    3
 2014-02-23-0930-00M.COL___215                                                 6
 STAT SP IPHASW D HRMM SECON CODA AMPLIT PERI AZIMU VELO AIN AR TRES W  DIS CAZ7
 BAR2 SZ EP        933 23.38                             170   -0.0210 23.6 185 
 BAR2 SZ ES        933 38.35                             170   -0.3010 23.6 185 
 BAR2 SZ I         933 41.07        15.6 0.18            169           23.6 185 
 PAM  SZ EP        933 26.31                             150    0.2710 78.4  41 
 PAM  SN ES        933 43.40                             150    0.0310 78.4  41 
 PAM  SZ I         933 45.46         9.1 0.54            154           78.4  41 
 RUS  HZ EP        933 27.63                             143    0.0610  101 175 
 RUS  HE ES        933 46.24                             143    0.1510  101 175 
 RUS  HZ I         933 47.61         5.0 0.24            144            101 175 
 PTB  HZ EP   1    933 30.48                             132   -0.09 7  146 258 
 PTB  HN ES        933 51.31                             132   -0.11 9  146 258 
 PTB  HZ I         933 53.24         6.2 0.20            132            146 258 
 SPBC HZ EP   1    933 32.37                             129    0.17 7  162 218 
 SPBC HN ES        933 54.45                             129    0.13 9  162 218 
 SPBC HZ I         933 59.12        10.0 0.26            129            162 218 
 ZAR  HZ EP   1    933 35.71                             122   -0.30 6  202 292 
 ZAR  HE ES        934  1.31                             122    0.20 9  202 292 
 ZAR  HZ I         934  7.48         5.6 0.32            123            202 292 
 NOR  HE ES        934  7.26                             118    0.17 8  233 234 
 SML  HZ EP   1    933 39.81                             117   -0.47 6  242 336 
 SML  HN ES   1    934  8.76                             117    0.06 6  242 336 
 CHI  HZ EP        933 41.42                             117   -0.07 8  249 195 
 CHI  HN ES   1    934 10.38                             117   -0.49 6  249 195 
 CHI  HZ I         934 18.99         1.9 0.38            118            249 195 
 HEL  HZ EP   4    933 43.97                             115    0.17 0  270 256 
 GUY2CHZ EP   4    933 49.25                             112    2.00 0  300 234 
 GUY2CHN I         934 33.15         3.8 0.52                           300 234 
                                                                                
