 2011  823 0636  2.4 L   6.868 -72.964141.2  RSN  4 0.2 1.4LRSN                1
 GAP=259        0.46       8.3    13.7  7.1  0.9679E+02 -0.5755E+02 -0.3155E+02E
 Epicentro: CEPITA - SANTANDER                                                 3
 ACTION:UPD 12-07-13 15:53 OP:ep   STATUS:               ID:20110823063602 L   I
 2011-08-23-0634-04S.COL___158                                                 6
 STAT SP IPHASW D HRMM SECON CODA AMPLIT PERI AZIMU VELO AIN AR TRES W  DIS CAZ7
 BAR2 SZ EP   1    636 22.00                             162    0.14 7 38.9 218 
 BAR2 SZ ES   1    636 36.74                             162   -0.33 7 38.9 218 
 BAR2 SZ I         636 38.06         3.3 0.25                          38.9 218 
 BRR  HZ EP   1    636 23.77                             145   -0.21 7 86.8 288 
 BRR  HZ I         636 24.01         7.7 0.12                          86.8 288 
 BRR  HN ES   1    636 41.08                             145    0.23 7 86.8 288 
 RUS  HZ EP   1    636 26.39                             140    0.13 7  109 187 
 RUS  HE ES   1    636 45.00                             140    0.08 7  109 187 
 HEL  HZ EP   3    636 44.22                             111   -0.51 2  293 255 
 HEL  HZ I         637 20.88         1.3 0.39                           293 255 
                                                                                
