 2010 1123 0430 27.8 L   6.775 -73.102151.8  RSN  5 0.2 1.4LRSN                1
 GAP=164        0.65       5.2    10.6  8.7  0.2021E+02 -0.5268E+02 -0.2432E+02E
 Epicentro: LOS SANTOS - SANTANDER                                             3
 ACTION:UP  10-12-17 16:54 OP:REBC STATUS:               ID:20101123043027 L   I
 2010-11-23-0428-26S.COL___129                                                 6
 STAT SP IPHASW D HRMM SECON CODA AMPLIT PERI AZIMU VELO SNR AR TRES W  DIS CAZ7
 BAR2 SZ EP        430 47.76                             171    -0.410   22 204 
 BAR2 SZ ES   1    431  4.10                             171     0.1 7   22 204 
 BRR  HZ EP   1    430 50.04                             152     0.1 7   77 299 
 BRR  HZ I         430 50.40        10.9 0.08                            77 299 
 BRR  HE ES   1    431  7.18                             152     0.0 7   77 299 
 RUS  HZ EP   1    430 52.23                             146     0.3 7   98 179 
 RUS  HN ES   1    431 10.79                             146     0.0 7   98 179 
 RUS  HZ I         431 11.66         3.2 0.19                            98 179 
 GUE  SZ EP   1    430 52.98                             140    -0.2 7  118  10 
 GUE  SZ I         430 54.46         0.6 0.04                           118  10 
 GRA  SZ IP        430 53.95                             138     0.210  127  15 
 GRA  SZ I         430 55.07         9.4 0.44                           127  15 
                                                                                
