 2016  723 0351  5.4 L   6.777 -73.113139.1  RSN  9 0.4 2.0LRSN                1
 GAP=142        0.88       3.4     4.0  5.3 -0.1611E+01  0.8205E+01  0.1152E+01E
 Epicentro: LOS SANTOS - SANTANDER                                             3
 ACTION:UPD 17-03-29 16:53 OP:lp   STATUS:               ID:20160723035105 L   I
 OLDACT:UP  16-07-23 17:41 OP:ar   STATUS:               ID:20160723034701d    3
 OLDACT:DUP 16-07-23 16:58 OP:ar   STATUS:               ID:20160723034701d    3
 OLDACT:UP  16-07-23 16:56 OP:ar   STATUS:               ID:20160723034760d    3
 OLDACT:DUP 16-07-23 16:43 OP:ar   STATUS:               ID:20160723034760d    3
 2016-07-23-0347-59S.COL___328                                                 6
 STAT SP IPHASW D HRMM SECON CODA AMPLIT PERI AZIMU VELO AIN AR TRES W  DIS CAZ7
 BAR2 HZ EP        351 23.88                             171   -0.2810 21.9 201 
 BAR2 HZ ES        351 38.59                             171   -0.2410 21.9 201 
 BRR  HZ EP        351 25.78                             150   -0.2810 75.6 299 
 BRR  HN ES        351 42.53                             150    0.3310 75.6 299 
 BRR  HZ I         351 44.17        20.3 0.16            150           75.6 299 
 PAM  HZ EP        351 26.92                             150    0.0610 77.1  36 
 PAM  EN ES        351 43.70                             150    0.0710 77.1  36 
 PAM  HZ I         351 46.03        18.3 0.52            152           77.1  36 
 RUS  HZ EP        351 28.17                             143   -0.1010 97.9 178 
 RUS  HN ES        351 46.49                             143    0.3610 97.9 178 
 RUS  HZ I         351 47.63         8.3 0.50            145           97.9 178 
 SPBC HZ EP        351 32.69                             127   -0.71 9  164 221 
 SPBC HN ES        351 55.56                             127    0.30 9  164 221 
 SPBC HZ I         351 59.80        11.5 0.24            129            164 221 
 ZAR  HZ EP        351 38.24                             120    0.40 8  208 292 
 ZAR  HN ES        352  2.91                             120   -0.26 8  208 292 
 ZAR  HZ I         352  7.56         8.3 0.30            121            208 292 
 NOR  HN ES        352  8.20                             117   -0.38 8  236 235 
 HEL  HZ EP        351 45.95                             113    0.38 8  275 256 
 HEL  HN ES   4    352 15.44                             113   -1.50 0  275 256 
 GUY2CHZ EP        351 49.53                             111    0.68 7  303 236 
 GUY2CHE ES   4    352 24.61                             111    1.85 0  303 236 
 GUY2CHZ I         352 29.15         6.6 0.26                           303 236 
 SJC  HZ EP   4    351 58.91                             104   -2.29 0  413 327 
 SJC  HN ES   4    352 41.16                             104   -3.59 0  413 327 
                                                                                
