 2015  823 0653 38.1 L   6.771 -73.141149.0  RSN  7 0.4 1.8LRSN                1
 GAP=183        0.94       4.0     6.4  6.5  0.9269E+01  0.6420E+01 -0.3598E+01E
 Epicentro: LOS SANTOS - SANTANDER                                             3
 ACTION:UPD 15-09-15 23:04 OP:cam  STATUS:               ID:20150823065338 L   I
 OLDACT:REG 15-08-23 14:44 OP:ar   STATUS:               ID:20150823064744     3
 2015-08-23-0647-44M.COL___343                                                 6
 STAT SP IPHASW D HRMM SECON CODA AMPLIT PERI AZIMU VELO AIN AR TRES W  DIS CAZ7
 BAR2 EZ EP        653 57.83                             172   -0.2110 20.3 193 
 BAR2 EZ ES        654 13.15                             172   -0.4710 20.3 193 
 BAR2 EZ I         654 15.35         9.4 0.24            172           20.3 193 
 BRR  HZ IP     D  653 59.71                             152    0.0110 73.3 301 
 BRR  HN ES        654 17.19                             152    0.6310 73.3 301 
 BRR  HZ I         654 20.78         6.0 0.14            150           73.3 301 
 RUS  HZ EP        654  2.20                             145    0.2810 97.3 176 
 RUS  HN ES        654 20.24                             145   -0.2810 97.3 176 
 RUS  HZ I         654 21.15         4.1 0.46            149           97.3 176 
 SPBC HZ EP        654  7.11                             130    0.48 9  161 220 
 SPBC HE ES        654 29.07                             130    0.18 9  161 220 
 SPBC HZ I         654 30.07         6.2 0.24            132            161 220 
 OCA  HN ES   2    654 30.32                             130    0.85 5  164 353 
 OCA  HZ I         654 31.78        19.3 0.20            131            164 353 
 ZAR  HZ EP        654 10.68                             123   -0.24 8  206 293 
 ZAR  HE ES        654 35.96                             123   -0.57 8  206 293 
 ZAR  HZ I         654 42.22         6.4 0.40            123            206 293 
 SML  HZ EP   1    654 14.79                             118   -0.44 6  247 335 
 SML  HN ES   1    654 44.33                             118    0.12 6  247 335 
 SML  HZ I         654 47.09         8.6 0.10            119            247 335 
 SJC  HZ EP   4    654 31.46                             106   -2.64 0  412 327 
 SJC  HN ES   4    655 13.46                             106   -4.34 0  412 327 
                                                                                
