 2014 1223 0101 20.6 L   6.191 -73.681106.1  RSN 13 0.4 2.3LRSN                1
 GAP= 65        0.95       2.3     2.9  6.0  0.5284E+00  0.4946E+01  0.2372E+00E
 Epicentro: LA PAZ - SANTANDER                                                 3
 ACTION:UPD 15-02-10 17:06 OP:nd   STATUS:               ID:20141223010120 L   I
 OLDACT:UP  14-12-23 14:49 OP:mh   STATUS:               ID:20141223005746     3
 OLDACT:REG 14-12-23 13:02 OP:mh   STATUS:               ID:20141223005746     3
 2014-12-23-0057-46M.COL___292                                                 6
 STAT SP IPHASW D HRMM SECON CODA AMPLIT PERI AZIMU VELO AIN AR TRES W  DIS CAZ7
 BAR2 EZ EP        1 1 38.34                             144    0.4310 70.8  51 
 BAR2 EZ I         1 1 53.50       150.4 0.28            143           70.8  51 
 SPBC HZ EP        1 1 38.09                             142    0.1810 73.7 216 
 SPBC HN ES   1    1 1 52.27                             142    0.83 7 73.7 216 
 SPBC HZ I         1 1 53.85        59.4 0.28            144           73.7 216 
 RUS  HZ EP        1 1 38.31                             143   -0.1910 74.0 116 
 RUS  HN ES        1 1 52.23                             143   -0.2510 74.0 116 
 PTB  HZ EP        1 1 38.92                             135   -0.5310 94.0 294 
 PTB  HN ES   1    1 1 53.79                             135   -0.38 7 94.0 294 
 PTB  HZ I         1 1 56.41        24.5 0.52            135           94.0 294 
 BRR  HZ EP        1 1 40.39                             133    0.3210  101 358 
 BRR  HN ES        1 1 55.15                             133   -0.1310  101 358 
 BRR  HZ I         1 1 58.54        29.6 0.14            132            101 358 
 NOR  HZ EP        1 1 44.62                             121   -0.17 9  149 242 
 NOR  HN ES        1 2  3.73                             121    0.04 9  149 242 
 NOR  HZ I         1 2  6.50        22.9 0.16            122            149 242 
 CHI  HZ EP        1 1 47.27                             117   -0.56 9  173 182 
 CHI  HN ES        1 2  8.86                             117   -0.23 9  173 182 
 CHI  HZ I         1 2 11.29        13.5 0.25            118            173 182 
 ZAR  HZ EP        1 1 49.79                             113    0.14 9  194 318 
 ZAR  HN ES        1 2 12.76                             113    0.43 9  194 318 
 ZAR  HZ I         1 2 14.54        42.8 0.40            114            194 318 
 HEL  HZ EP   1    1 1 50.34                             112   -0.95 6  205 270 
 HEL  HE ES        1 2 15.02                             112   -0.24 9  205 270 
 HEL  HZ I         1 2 25.50         5.8 0.28            113            205 270 
 VIL  SZ EP   1    1 1 54.88                             109    0.98 6  230 180 
 VIL  SN ES   1    1 2 20.33                             109    0.44 6  230 180 
 TOL  SZ EP        1 1 57.01                             107    0.06 8  254 226 
 TOL  SN ES   4    1 2 24.72                             107   -0.60 0  254 226 
 TOL  SZ I         1 2 30.64        20.2 0.46            108            254 226 
 CBOC HZ EP   1    1 1 58.37                             106    0.86 6  261 262 
 CBOC HN ES   1    1 2 26.57                             106    0.25 6  261 262 
 URE  HZ EP   4    1 1 53.65                             106   -4.49 0  268 310 
 URE  HN ES   4    1 2 24.94                             106   -2.51 0  268 310 
 SML  HZ EP        1 2  0.57                             104   -0.40 7  292 352 
 SML  HE ES   1    1 2 32.70                             104    0.22 5  292 352 
 SML  HZ I         1 2 38.86        14.8 0.26            104            292 352 
                                                                                
