 2013  123 0948  2.0 L   6.791 -73.088139.3  RSN  9 0.4 2.5LRSN                1
 GAP= 74        1.01       3.4     4.3  6.1  0.3135E+00  0.1712E+01  0.4896E+01E
 Epicentro: LOS SANTOS - SANTANDER                                             3
 ACTION:UPD 13-02-15 09:16 OP:ep   STATUS:               ID:20130123094801 L   I
 2013-01-23-0938-41M.COL___177                                                 6
 STAT SP IPHASW D HRMM SECON CODA AMPLIT PERI AZIMU VELO AIN AR TRES W  DIS CAZ7
 BAR2 SZ EP        948 20.85                             170   -0.0510 24.3 205 
 BAR2 SZ ES        948 35.62                             170   -0.0110 24.3 205 
 BAR2 SZ I         948 37.09       125.2 0.20            158           24.3 205 
 PAM  SZ IP     D  948 23.77                             151    0.4010 74.3  35 
 PAM  SZ I         948 23.99        61.8 0.22            147           74.3  35 
 PAM  SN ES        948 40.42                             151    0.3910 74.3  35 
 BRR  HZ IP     D  948 22.66                             149   -0.1910 77.3 297 
 BRR  HN ES        948 39.52                             149    0.4310 77.3 297 
 BRR  HN I         948 39.99       132.0 0.26            134           77.3 297 
 RUS  HZ EP        948 24.81                             143   -0.2410 99.3 180 
 RUS  HN ES        948 42.79                             143   -0.2310 99.3 180 
 RUS  HN I         948 45.07        39.9 0.24            133           99.3 180 
 TAM  HZ EP        948 29.18                             130    0.58 9  149 105 
 TAM  HN ES        948 48.96                             130   -0.37 9  149 105 
 PTB  HZ EP   4    948 27.37                             129   -1.67 0  154 260 
 PTB  HN ES   4    948 47.82                             129   -2.29 0  154 260 
 PTB  HN I         948 54.06        36.8 0.58            116            154 260 
 OCA  HN ES        948 50.93                             128   -0.93 9  162 351 
 CHI  HZ EP        948 39.22                             116   -0.24 8  249 197 
 CHI  HN ES        949  8.63                             116   -0.02 8  249 197 
 HEL  HZ EP        948 43.02                             113    0.44 7  278 256 
 HEL  HN I         949 20.62         9.8 0.42            104            278 256 
                                                                                
