 2011  823 0854 34.7 L   6.776 -73.016146.3  RSN  4 0.3 1.3LRSN                1
 GAP=249        0.52       6.1     8.1  6.7  0.2288E+02  0.2612E+01  0.6258E+01E
 Epicentro: CEPITA - SANTANDER                                                 3
 ACTION:UPD 12-07-13 15:53 OP:ep   STATUS:               ID:20110823085434 L   I
 2011-08-23-0852-03S.COL___158                                                 6
 STAT SP IPHASW D HRMM SECON CODA AMPLIT PERI AZIMU VELO AIN AR TRES W  DIS CAZ7
 BAR2 SZ ES   1    855 10.11                             169    0.19 7 27.4 222 
 BAR2 SZ I         855 11.43         7.4 0.16                          27.4 222 
 BRR  HZ EP   1    854 56.49                             148   -0.26 7 85.1 295 
 BRR  HZ I         854 56.89         5.6 0.12                          85.1 295 
 BRR  HE ES   1    855 13.98                             148    0.03 7 85.1 295 
 RUS  HZ EP   1    854 58.60                             145    0.28 7 98.0 184 
 RUS  HN ES   2    855 16.19                             145   -0.56 5 98.0 184 
 RUS  HZ I         855 18.59         1.2 0.36                          98.0 184 
 NOR  SN ES   2    855 40.39                             118    0.05 4  245 237 
                                                                                
