 2014  623 0311 54.1 L   6.753 -73.139 94.9  RSN  4 0.4 0.9LRSN                1
 GAP=235        0.95       6.9     7.5  8.9  0.2899E+02  0.1937E+02  0.1199E+02E
 Epicentro: LOS SANTOS - SANTANDER                                             3
 ACTION:UPD 14-07-01 22:55 OP:nd   STATUS:               ID:20140623031154 L   I
 OLDACT:REG 14-06-23 13:07 OP:spq  STATUS:               ID:20140623030817     3
 2014-06-23-0308-17M.COL___259                                                 6
 STAT SP IPHASW D HRMM SECON CODA AMPLIT PERI AZIMU VELO AIN AR TRES W  DIS CAZ7
 BAR2 SZ ES   1    312 17.48                             168   -0.46 7 18.4 195 
 BAR2 SZ I         312 24.97         2.9 0.16            167           18.4 195 
 BRR  HZ EP        312 10.62                             139    0.3310 74.5 302 
 BRR  HN ES        312 23.01                             139    0.0810 74.5 302 
 BRR  HZ I         312 29.12         4.5 0.42            148           74.5 302 
 RUS  HZ EP   1    312 13.10                             132    0.33 7 95.3 176 
 RUS  HE ES   1    312 27.56                             132    0.21 7 95.3 176 
 RUS  HZ I         312 32.57         1.1 0.23            140           95.3 176 
 PTB  HZ EP        312 16.67                             119   -0.77 9  148 261 
 PTB  HN ES        312 35.93                             119    0.25 9  148 261 
 PTB  HZ I         312 39.51         1.4 0.18            127            148 261 
                                                                                
