 2016  223 0524  2.6 L   6.324 -73.650110.4  RSN  8 0.5 1.4LRSN                1
 GAP= 85        1.10       3.7     3.9  7.5 -0.5594E+01  0.3750E+01 -0.2347E+01E
 Epicentro: SANTA HELENA DEL OPON - SANTANDER                                  3
 ACTION:UPD 16-03-04 21:28 OP:rebc STATUS:               ID:20160223052402 L   I
 OLDACT:UP  16-02-23 18:04 OP:mh   STATUS:               ID:20160223051738     3
 OLDACT:UP  16-02-23 18:04 OP:mh   STATUS:               ID:20160223051738     3
 OLDACT:REG 16-02-23 13:11 OP:mh   STATUS:               ID:20160223051738     3
 2016-02-23-0517-38M.COL___322                                                 6
 STAT SP IPHASW D HRMM SECON CODA AMPLIT PERI AZIMU VELO AIN AR TRES W  DIS CAZ7
 BAR2 EZ EP   1    524 20.02                             150    0.38 7 59.6  60 
 BAR2 EZ ES        524 33.25                             150    0.3310 59.6  60 
 RUS  HZ EP   1    524 20.90                             142   -0.41 7 78.8 127 
 RUS  HN ES        524 35.49                             142   -0.4110 78.8 127 
 SPBC HZ EP        524 21.70                             138    0.2610 87.8 212 
 SPBC HN ES        524 36.56                             138    0.4210 87.8 212 
 SPBC HZ I         524 41.62        10.1 0.24            139           87.8 212 
 PTB  HZ EP   1    524 20.90                             137   -0.82 7 92.3 285 
 PTB  HN ES        524 35.85                             137   -0.7710 92.3 285 
 PTB  HZ I         524 36.94         3.5 0.14            139           92.3 285 
 PAM  EZ EP   1    524 28.45                             122    0.26 7  154  43 
 PAM  EN ES        524 48.21                             122    0.06 9  154  43 
 PAM  EZ I         524 52.45         3.3 0.50            124            154  43 
 NOR  HZ EP   1    524 27.88                             120   -0.29 7  159 238 
 NOR  HN ES        524 49.00                             120    0.88 9  159 238 
 NOR  HZ I         524 50.15         6.5 0.16            122            159 238 
 CHI  HZ EP        524 31.35                             116   -0.36 9  188 183 
 CHI  HN ES   1    524 54.18                             116   -0.24 7  188 183 
 CHI  HZ I         524 58.04         1.8 0.48            117            188 183 
 OCA  HZ EP   1    524 34.92                             112    0.49 6  215  10 
 OCA  HN ES   1    524 59.39                             112    0.14 6  215  10 
                                                                                
