 2011  723 0030 38.6 L   6.750 -73.141149.6  RSN  6 0.5 1.7LRSN                1
 GAP=157        0.98       5.3     7.6  9.7 -0.1750E+02 -0.7590E+01  0.1191E+02E
 Epicentro: LOS SANTOS - SANTANDER                                             3
 ACTION:UPD 12-07-25 14:02 OP:epov STATUS:               ID:20110723003038 L   I
 2011-07-23-0028-09S.COL___143                                                 6
 STAT SP IPHASW D HRMM SECON CODA AMPLIT PERI AZIMU VELO AIN AR TRES W  DIS CAZ7
 BAR2 SZ EP   1    030 58.39                             173   -0.17 7 18.1 195 
 BAR2 SZ I         031 16.55        12.1 0.37                          18.1 195 
 BRR  HZ EP   1    031  0.58                             152    0.27 7 74.4 302 
 BRR  HE ES        031 17.65                             152    0.3810 74.4 302 
 BRR  HZ I         031 21.15        12.7 0.13                          74.4 302 
 RUS  HZ EP   1    031  2.82                             146    0.51 7 95.1 176 
 RUS  HN ES   1    031 20.69                             146   -0.14 7 95.1 176 
 RUS  HZ I         031 22.76         5.9 0.36                          95.1 176 
 BRI  SZ EP   1    031  3.40                             141    0.20 7  113  20 
 BRI  SZ ES   1    031 22.67                             141    0.26 7  113  20 
 BRI  SZ I         031 26.76         8.0 0.44                           113  20 
 GRA  SZ EP   1    031  4.44                             137   -0.13 7  131  17 
 GRA  SZ ES   1    031 23.83                             137   -1.03 7  131  17 
 GRA  SZ I         031 25.43         9.1 0.30                           131  17 
 NOR  SZ EP   1    031 14.50                             120    0.27 6  232 236 
 NOR  SN ES   1    031 40.97                             120   -1.08 6  232 236 
                                                                                
