 2010 1023 0813 57.9 L   7.215 -73.028149.4  RSN  5 0.4 1.5LRSN                1
 GAP=176        0.84      10.5    15.8 13.6 -0.1019E+03 -0.3492E+02 -0.5229E+01E
 Epicentro: TONA - SANTANDER                                                   3
 ACTION:UP  11-02-18 11:11 OP:tino STATUS:               ID:20101023081357 L   I
 2010-10-23-0810-35S.COL___127                                                 6
 STAT SP IPHASW D HRMM SECON CODA AMPLIT PERI AZIMU VELO SNR AR TRES W  DIS CAZ7
 BTL  SZ EP        814 18.84                             163     0.410   42 219 
 GUE  SZ EP        814 19.31                             154    -0.410   69   9 
 BAR2 SZ EP   2    814 19.61                             153    -0.1 5   71 194 
 BAR2 SZ ES   2    814 36.32                             153    -0.5 5   71 194 
 BAR2 SZ I         814 38.91         6.0 0.12                            71 194 
 BRR  HZ EP   1    814 19.50                             151    -0.2 7   77 261 
 BRR  HZ I         814 19.79         6.0 0.05                            77 261 
 BRR  HE ES   2    814 36.99                             151     0.2 5   77 261 
 GRA  SZ EP   1    814 20.47                             151     0.4 7   78  18 
 GRA  SZ ES   2    814 37.39                             151     0.1 5   78  18 
 GRA  SZ I         814 39.23         7.0 0.26                            78  18 
                                                                                
