 2017  123 0622  2.1 L   6.822 -73.093152.1  RSN 11 0.5 1.9LRSN                1
 GAP=142        1.01       4.2     4.7  5.6  0.7733E+00  0.1061E+02  0.3380E+01E
 Epicentro: LOS SANTOS - SANTANDER                                             3
 ACTION:UPD 17-05-22 16:02 OP:jn   STATUS:               ID:20170123062202 L   I
 OLDACT:REG 17-01-23 12:50 OP:lv   STATUS:               ID:20170123061742     3
 2017-01-23-0618-00M.COL___337                                                 6
 STAT SP IPHASW D HRMM SECON CODA AMPLIT PERI AZIMU VELO AIN AR TRES W  DIS CAZ7
 BAR2 EZ IP     C  622 22.39                             169   -0.2010 27.3 201 
 BAR2 EZ ES        622 38.34                             169   -0.2210 27.3 201 
 BAR2 EZ I         622 39.17         9.4 0.24            165           27.3 201 
 PAM  EZ EP        622 25.18                             154    0.4810 71.8  37 
 PAM  EN ES        622 42.57                             154    0.2610 71.8  37 
 PAM  EZ I         622 44.62        14.8 0.15            160           71.8  37 
 BRR  HZ EP        622 24.20                             152    0.0210 75.3 295 
 BRR  HN ES        622 41.65                             152    0.2510 75.3 295 
 BRR  HZ I         622 46.15        14.7 0.22            149           75.3 295 
 RUS  HZ EP        622 26.26                             144   -0.3910  103 179 
 RUS  HE ES        622 45.59                             144   -0.2010  103 179 
 RUS  HZ I         622 47.09         4.7 0.30            145            103 179 
 PTB  HZ EP        622 29.44                             132   -0.73 9  154 258 
 PTB  HN ES   4    622 50.35                             132   -1.70 0  154 258 
 PTB  HZ I         622 56.58        15.6 0.34            131            154 258 
 ZAR  HZ EP        622 35.03                             123   -0.42 8  209 291 
 ZAR  HN ES        623  1.64                             123    0.20 8  209 291 
 ZAR  HZ I         623  6.99        16.7 0.44            123            209 291 
 CHI  HZ EP        622 41.26                             118    0.66 8  253 196 
 CHI  HN ES   4    623  9.08                             118   -1.54 0  253 196 
 CHI  HZ I         623 13.79         3.2 0.46            119            253 196 
 ROSC BZ EP   9    622 42.59                             117    1.44 0  258 212 
 ROSC BE ES        623 13.14                                    0.11 8  258 212 
 ROSC BZ I         623 20.15         8.4 0.50            118            258 212 
 URE  HZ EP        622 43.14                             114   -0.87 7  288 291 
 URE  HN ES   4    623 14.55                             114   -2.13 0  288 291 
 URE  HZ I         623 23.16         7.0 0.14            115            288 291 
 CBOC HZ EP        622 50.89                             111    0.87 7  340 252 
 CBOC HN ES        623 27.83                             111    0.44 7  340 252 
 CBOC HZ I         623 33.84         1.7 0.47            111            340 252 
 ORTC HZ EP        622 57.38                             107    0.48 6  401 217 
 ORTC HN ES        623 39.99                             107    0.37 6  401 217 
 ORTC HZ I         623 45.34         2.9 0.57            108            401 217 
                                                                                
