 2014 1223 0148 29.5 L   6.766 -73.116152.0  RSN  6 0.5 1.8LRSN                1
 GAP=186        1.04       3.9     6.1 11.3 -0.1003E+01  0.1111E+01 -0.6160E+01E
 Epicentro: LOS SANTOS - SANTANDER                                             3
 ACTION:UPD 15-02-10 17:06 OP:nd   STATUS:               ID:20141223014829 L   I
 OLDACT:UP  14-12-23 15:03 OP:mh   STATUS:               ID:20141223013750     3
 OLDACT:REG 14-12-23 13:03 OP:mh   STATUS:               ID:20141223013750     3
 2014-12-23-0137-50M.COL___292                                                 6
 STAT SP IPHASW D HRMM SECON CODA AMPLIT PERI AZIMU VELO AIN AR TRES W  DIS CAZ7
 RUS  HZ EP        148 53.76                             146    0.1610 96.7 178 
 RUS  HN ES   1    149 12.70                             146    0.31 7 96.7 178 
 RUS  HZ I         149 14.67         2.9 0.34            151           96.7 178 
 PTB  HZ EP        148 56.40                             133   -0.80 9  150 260 
 PTB  HN ES        149 18.29                             133   -0.52 9  150 260 
 PTB  HZ I         149 25.60         9.0 0.43            136            150 260 
 OCA  HZ EP        148 58.89                             130    0.21 9  164 352 
 OCA  HN ES        149 21.13                             130   -0.32 9  164 352 
 OCA  HZ I         149 25.07         8.3 0.46            135            164 352 
 ZAR  HZ EP   1    149  2.58                             123   -0.23 6  208 293 
 ZAR  HE ES        149 29.49                             123    0.70 8  208 293 
 ZAR  HZ I         149 34.12         7.7 0.44            127            208 293 
 SML  HZ EP   1    149  6.95                             118   -0.04 6  248 335 
 SML  HE ES        149 36.63                             118    0.39 8  248 335 
 SML  HZ I         149 38.14        10.1 0.10            122            248 335 
 TOL  SN ES        149 56.39                             110    0.61 7  343 225 
                                                                                
