 2016  823 0004 27.8 L   6.788 -73.162150.5  RSN  9 0.4 1.7LRSN                1
 GAP=235        0.96       4.9     5.4  6.7  0.1104E+02  0.9854E+01  0.1138E+02E
 Epicentro: LOS SANTOS - SANTANDER                                             3
 ACTION:UPD 16-10-29 15:38 OP:rebc STATUS:               ID:20160823000427 L   I
 OLDACT:UP  16-08-23 15:27 OP:ak   STATUS:               ID:20160822235944     3
 OLDACT:REG 16-08-23 13:51 OP:ak   STATUS:               ID:20160822235944     3
 2016-08-23-0000-15M.COL___374                                                 6
 STAT SP IPHASW D HRMM SECON CODA AMPLIT PERI AZIMU VELO AIN AR TRES W  DIS CAZ7
 BAR2 EZ EP   2    0 4 47.42                             171   -0.54 5 21.8 186 
 BAR2 EZ ES        0 5  3.30                             171   -0.4010 21.8 186 
 BAR2 EZ I         0 5  5.59        15.9 0.36                          21.8 186 
 BRR  HN ES        0 5  6.58                             154    0.3210 70.2 300 
 RUS  HZ EP        0 4 52.26                             145    0.3310 99.4 175 
 RUS  HE ES        0 5 11.06                             145    0.3010 99.4 175 
 RUS  HZ I         0 5 11.69         6.1 0.34                          99.4 175 
 PTB  HZ EP        0 4 54.42                             133   -0.54 9  146 259 
 PTB  HN ES        0 5 15.53                             133   -0.63 9  146 259 
 PTB  HZ I         0 5 20.77         3.5 0.15                           146 259 
 SPBC HZ EP        0 4 56.80                             130    0.35 9  161 219 
 SPBC HN ES        0 5 18.73                             130   -0.08 9  161 219 
 SPBC HZ I         0 5 23.64         6.3 0.06                           161 219 
 ZAR  HN ES        0 5 26.27                             123    0.39 9  203 293 
 NOR  HE ES        0 5 32.05                             120    0.59 8  232 234 
 NOR  HZ I         0 5 37.42         3.8 0.13                           232 234 
 CHI  HZ EP        0 5  5.62                             118    0.05 8  247 195 
 CHI  HN ES        0 5 34.66                             118   -0.38 8  247 195 
 GUY2CHZ EP   2    0 5 10.75                             113   -0.62 4  299 235 
 GUY2CHN ES   4    0 5 47.34                             113    1.98 0  299 235 
                                                                                
