 2017  323 0742  3.1 L   6.817 -73.199144.2  RSN  6 0.3 1.6LRSN                1
 GAP=132        0.71       3.8     3.9  5.2 -0.6387E+01 -0.1251E+01  0.8639E+01E
 Epicentro: ZAPATOCA - SANTANDER                                               3
 ACTION:UPD 17-05-25 18:44 OP:jn   STATUS:               ID:20170323074203 L   I
 OLDACT:REG 17-03-23 13:25 OP:lv   STATUS:               ID:20170323073744     3
 2017-03-23-0738-00M.COL___379                                                 6
 STAT SP IPHASW D HRMM SECON CODA AMPLIT PERI AZIMU VELO AIN AR TRES W  DIS CAZ7
 BAR2 EZ EP        742 22.38                             170   -0.1810 25.0 176 
 BAR2 EZ ES        742 37.69                             170   -0.0610 25.0 176 
 BAR2 EZ I         742 39.10                             170           25.0 176 
 BRR  HZ EP   4    742 22.22                             154   -1.51 0 65.1 300 
 BRR  HN ES        742 40.40                             154    0.5710 65.1 300 
 BRR  HZ I         742 42.39        14.6 0.43            154           65.1 300 
 PAM  EZ EP        742 25.35                             150    0.0710 79.9  44 
 PAM  EN ES        742 42.40                             150   -0.2010 79.9  44 
 PAM  EZ I         742 44.84         5.1 0.22            153           79.9  44 
 PTB  HZ EP        742 29.21                             133   -0.23 9  142 258 
 PTB  HN ES        742 49.64                             133   -0.35 9  142 258 
 PTB  HZ I         742 54.96         3.1 0.19            133            142 258 
 SPBC HZ EP        742 31.58                             129    0.32 9  161 217 
 SPBC HN ES        742 53.04                             129   -0.20 9  161 217 
 CHI  HZ EP        742 40.82                             117    0.09 8  249 194 
 CHI  HN ES        743 10.37                             117    0.27 8  249 194 
 CHI  HZ I         743 13.68         2.6 0.21            118            249 194 
                                                                                
