 2014 1223 0046 16.4 L   6.831 -73.143145.9  RSN  6 0.4 1.6LRSN                1
 GAP=245        0.84       5.4     6.0  9.0  0.1723E+02 -0.4269E+01 -0.8219E+01E
 Epicentro: LOS SANTOS - SANTANDER                                             3
 ACTION:UPD 15-02-10 17:06 OP:nd   STATUS:               ID:20141223004616 L   I
 OLDACT:REG 14-12-23 13:01 OP:mh   STATUS:               ID:20141223003749     3
 2014-12-23-0037-49M.COL___292                                                 6
 STAT SP IPHASW D HRMM SECON CODA AMPLIT PERI AZIMU VELO AIN AR TRES W  DIS CAZ7
 BAR2 EZ EP   1    046 36.68                             169    0.57 8 26.7 189 
 BAR2 EZ I         046 52.83         8.4 0.34            175           26.7 189 
 RUS  HZ EP        046 40.34                             143   -0.0610  104 176 
 RUS  HN ES        046 58.93                             143   -0.2010  104 176 
 RUS  HZ I         047  2.52         2.9 0.44            151            104 176 
 PTB  HZ EP        046 42.83                             132   -0.63 9  149 258 
 PTB  HN ES   1    047  4.67                             132    0.10 7  149 258 
 PTB  HZ I         047 11.87         3.5 0.10            140            149 258 
 SPBC HZ EP        046 44.84                             129   -0.33 9  166 218 
 SPBC HN ES        047  7.69                             129    0.07 9  166 218 
 SPBC HZ I         047 12.61         7.8 0.42            137            166 218 
 ZAR  HN ES        047 14.25                             122    0.26 9  203 291 
 CHI  HZ EP        046 55.05                             117    0.58 8  252 195 
 CHI  HN ES        047 24.33                             117    0.17 8  252 195 
 CHI  HZ I         047 29.65         2.8 0.54            123            252 195 
                                                                                
