 2010  123 0654 50.4 L   6.777 -72.934155.9  RSN  8 0.5 1.7LRSN                1
 GAP=204        0.81       4.4     8.8  9.2 -0.1082E+02  0.2744E+02 -0.1260E+01E
 Epicentro: CEPITA - SANTANDER                                                 3
 ACTION:UP  10-08-24 09:45 OP:vdl  STATUS:               ID:20100123065449 L   I
 2010-01-23-0650-33S.COL___095                                                 6
 STAT SP IPHASW D HRMM SECON CODA AMPLIT PERI AZIMU VELO SNR AR TRES W  DIS CAZ7
 BAR2 SZ EP   1    655 11.16                             167    -0.4 7   34 233 
 BAR2 SZ ES   2    655 27.34                             167    -0.6 5   34 233 
 GIR2 SZ EP   2    655 11.62                             164    -0.1 5   44 319 
 RUS  BZ EP        655 15.41                             146     0.310   99 190 
 RUS  BE ES   2    655 34.11                             146    -0.2 5   99 190 
 RUS  BZ I         655 35.12         3.0 0.08                            99 190 
 OCA  SZ EP        655 20.44                             130     0.3 9  167 345 
 OCA  SZ ES   2    655 43.52                             130     0.1 5  167 345 
 CHI  HZ EP        655 28.99                             119    -0.2 8  253 200 
 CHI  HN ES   1    656  0.22                             119     0.8 6  253 200 
 CHI  HZ I         656  4.00         2.6 0.48                           253 200 
 HEL  HZ EP   1    655 33.16                             115    -0.4 5  294 257 
 HEL  HN ES   2    656  8.13                             115     0.8 4  294 257 
 HEL  HZ I         656 10.84         2.9 0.27                           294 257 
 RREF BZ EP        655 38.32                             111    -0.6 7  338 232 
 RREF BN ES   1    656 16.85                             111     0.2 5  338 232 
 RREF BZ I         656 19.72         3.3 0.21                           338 232 
 PRA  HN ES   2    656 27.50                             108    -0.9 3  402 213 
                                                                                
