 2012  523 0113 16.6 L   7.336 -73.203129.7  RSN  5 0.1 2.1LRSN                1
 GAP=174        0.28       2.3     2.0  3.5 -0.6351E+00  0.3440E+01 -0.5537E+00E
 Epicentro: RIONEGRO - SANTANDER                                               3
 ACTION:UP  12-07-05 12:07 OP:pat  STATUS:               ID:20120523011316 L   I
 2012-05-23-0110-00M.COL___200                                                 6
 STAT SP IPHASW D HRMM SECON CODA AMPLIT PERI AZIMU VELO SNR AR TRES W  DIS CAZ7
 PAM  SZ EP   1    113 35.75                             156    -0.1 8   56  90 
 PAM  SN ES   1    113 50.90                             156     0.0 8   56  90 
 BAR2 SZ EP   1    113 37.01                             146    -0.1 8   82 178 
 BAR2 SZ ES   1    113 53.10                             146     0.0 8   82 178 
 BAR2 SZ I         113 54.85        35.9 0.12                            82 178 
 RUS  HZ EP   2    113 44.24                             126     0.1 5  160 175 
 RUS  HN ES   1    114  5.55                             126    -0.1 8  160 175 
 PTB  HZ EP        113 43.96                             125     0.110  164 238 
 PTB  HE ES   1    114  5.16                             125     0.0 7  164 238 
 ZAR  HE ES   2    114  8.65                             122     0.0 5  184 276 
 ZAR  HZ I         114 10.56        11.1 0.25                           184 276 
                                                                                
