 2012 1123 0139  3.4 L   6.801 -73.184149.5  RSN  5 0.2 1.4LRSN                1
 GAP=132        0.53       4.1     4.1  5.2 -0.4494E+01  0.4378E+01  0.1920E+01E
 Epicentro: LOS SANTOS - SANTANDER                                             3
 ACTION:UPD 12-12-05 15:35 OP:}ep  STATUS:               ID:20121123013903 L   I
 2012-11-23-0137-49M.COL___209                                                 6
 STAT SP IPHASW D HRMM SECON CODA AMPLIT PERI AZIMU VELO AIN AR TRES W  DIS CAZ7
 BAR2 SZ EP   1    139 23.57                             171    0.13 7 23.1 180 
 BAR2 SZ ES   1    139 39.52                             171    0.43 7 23.1 180 
 BAR2 SZ I         139 41.17         8.3 0.16                          23.1 180 
 GIR2 SZ ES   1    139 39.15                             168    0.01 7 30.7 358 
 GIR2 SZ I         139 42.03         4.3 0.30                          30.7 358 
 PAM  SZ EP   1    139 26.33                             151    0.20 7 80.0  42 
 PAM  SN ES   1    139 43.54                             151   -0.35 7 80.0  42 
 PAM  SZ I         139 47.40         3.3 0.38                          80.0  42 
 RUS  HZ EP   1    139 27.28                             144   -0.24 7  101 174 
 RUS  HN ES   1    139 46.23                             144   -0.12 7  101 174 
 RUS  HZ I         139 47.34         1.9 0.44                           101 174 
 PTB  HZ EP   1    139 30.45                             134    0.18 7  144 258 
 PTB  HN ES   1    139 51.01                             134   -0.25 7  144 258 
 PTB  HZ I         139 56.05         4.2 0.36                           144 258 
                                                                                
