 2011 1123 0303  9.6 L   6.765 -73.147149.6  RSN  7 0.3 1.8LRSN                1
 GAP=138        0.62       3.7     5.6  6.1  0.1721E+00 -0.3935E+00 -0.1454E+01E
 Epicentro: LOS SANTOS - SANTANDER                                             3
 ACTION:UPD 12-07-13 16:11 OP:ep   STATUS:               ID:20111123030309 L   I
 2011-11-23-0301-37S.COL___178                                                 6
 STAT SP IPHASW D HRMM SECON CODA AMPLIT PERI AZIMU VELO AIN AR TRES W  DIS CAZ7
 BAR2 SZ EP   1    3 3 29.70                             172    0.03 7 19.5 192 
 BAR2 SZ ES   1    3 3 45.03                             172   -0.26 7 19.5 192 
 BAR2 SZ I         3 3 47.69        15.4 0.25                          19.5 192 
 BRR  HN ES   1    3 3 48.88                             152    0.66 7 73.0 301 
 BRR  HZ I         3 3 52.04        14.9 0.14                          73.0 301 
 PAM  SZ EP   1    3 3 32.59                             151    0.13 7 80.5  38 
 PAM  SE ES   1    3 3 49.79                             151   -0.46 7 80.5  38 
 RUS  HZ EP   1    3 3 33.65                             146    0.14 7 96.7 176 
 RUS  HN ES   1    3 3 52.24                             146    0.11 7 96.7 176 
 RUS  HZ I         3 3 54.21         5.0 0.31                          96.7 176 
 OCA  SZ EP   1    3 3 38.48                             130   -0.14 7  164 353 
 OCA  SZ I         3 4  5.34         9.3 0.17                           164 353 
 ZAR  HE ES   2    3 4  7.70                             123   -0.41 4  205 293 
 ZAR  HZ I         3 4 14.61         8.8 0.34                           205 293 
 CHI  HN ES   2    3 4 16.06                             118   -0.35 4  245 195 
                                                                                
