 2015 1223 0838 24.4 L   6.775 -73.121141.5  RSN 12 0.4 1.8LRSN                1
 GAP=185        0.97       3.1     4.3  5.5  0.2244E+00  0.5839E+01  0.2309E+01E
 Epicentro: LOS SANTOS - SANTANDER                                             3
 ACTION:UPD 16-02-04 15:06 OP:cam  STATUS:               ID:20151223083824 L   I
 OLDACT:UP  16-01-26 22:32 OP:cma  STATUS:               ID:20151223083824 L   3
 OLDACT:UP  16-01-01 06:22 OP:CARA STATUS:               ID:20151223083824 L   3
 OLDACT:REG 15-12-23 13:02 OP:dnl  STATUS:               ID:20151223082747     3
 2015-12-23-0827-47M.COL___327                                                 6
 STAT SP IPHASW D HRMM SECON CODA AMPLIT PERI AZIMU VELO AIN AR TRES W  DIS CAZ7
 BAR2 EZ EP        838 43.57                             171    0.1310 21.3 199 
 BAR2 EZ ES        838 58.03                             171   -0.2910 21.3 199 
 BAR2 EZ I         838 59.28        30.9 0.22            170           21.3 199 
 BRR  HZ EP        838 45.40                             150    0.1210 75.0 299 
 BRR  HE ES        839  2.22                             150    0.6410 75.0 299 
 BRR  HZ I         839  3.30        13.4 0.17            147           75.0 299 
 RUS  HZ EP   2    838 47.95                             144    0.47 5 97.6 178 
 RUS  HN ES        839  5.94                             144    0.4310 97.6 178 
 RUS  HZ I         839  7.75        11.2 0.26            139           97.6 178 
 PTB  HZ EP   9    838 50.06                             130   -1.13 0  150 260 
 PTB  HN ES        839 10.33                             131   -0.65 9  150 260 
 PTB  HZ I         839 14.31         9.2 0.10            126            150 260 
 SPBC HZ EP        838 52.33                             128   -0.17 9  163 220 
 SPBC HN ES        839 14.29                             128   -0.16 9  163 220 
 SPBC HZ I         839 16.72         8.7 0.08            123            163 220 
 OCA  HZ EP   2    838 52.99                             128    0.34 5  163 352 
 OCA  HN ES        839 13.92                             128   -0.78 9  163 352 
 OCA  HZ I         839 21.28        15.8 0.23            123            163 352 
 ZAR  HZ EP   2    838 56.67                             121   -0.24 4  208 293 
 ZAR  HN ES        839 22.27                             121   -0.03 8  208 293 
 ZAR  HZ I         839 25.13         8.4 0.18            116            208 293 
 NOR  HZ EP        839  0.31                             117    0.39 8  235 235 
 NOR  HN ES        839 27.56                             117   -0.09 8  235 235 
 NOR  HZ I         839 31.92         4.5 0.14            113            235 235 
 CHI  HZ EP        839  1.61                             116   -0.01 8  247 196 
 CHI  HE ES        839 29.77                             116   -0.90 8  247 196 
 CHI  HZ I         839 34.33         2.4 0.45            112            247 196 
 HEL  HZ EP   4    839  5.96                             114    1.37 0  274 257 
 HEL  HN ES        839 35.68                             114   -0.28 8  274 257 
 HEL  HZ I         839 42.47         3.2 0.38            109            274 257 
 URE  HZ EP   4    839  6.63                             112    0.99 0  287 292 
 URE  HN ES   4    839 36.34                             112   -1.49 0  287 292 
 URE  HZ I         839 42.76         4.8 0.13            108            287 292 
 CBOC HZ EP        839 11.84                             109    0.53 7  335 253 
 CBOC HE ES        839 48.11                             109    0.18 7  335 253 
 CBOC HZ I         839 50.23         1.3 0.23            105            335 253 
                                                                                
