 2017  223 0833 32.4 L   6.773 -73.181144.8  RSN 11 0.5 1.8LRSN                1
 GAP= 98        1.46       5.9     5.0  8.2 -0.6774E+01  0.5247E+01  0.1089E+02E
 Epicentro: LOS SANTOS - SANTANDER                                             3
 ACTION:UPD 17-05-24 15:39 OP:jn   STATUS:               ID:20170223083332 L   I
 OLDACT:UP  17-02-23 17:09 OP:dani STATUS:               ID:20170223081851     3
 OLDACT:UP  17-02-23 17:00 OP:dani STATUS:               ID:20170223081851     3
 OLDACT:UP  17-02-23 17:00 OP:dani STATUS:               ID:20170223081851     3
 OLDACT:UP  17-02-23 16:59 OP:dani STATUS:               ID:20170223081851     3
 OLDACT:REG 17-02-23 13:46 OP:edw  STATUS:               ID:20170223081851     3
 2017-02-23-0828-00M.COL___367                                                 6
 STAT SP IPHASW D HRMM SECON CODA AMPLIT PERI AZIMU VELO AIN AR TRES W  DIS CAZ7
 BAR2 EZ EP     D  833 51.64                             172   -0.1810 20.0 180 
 BAR2 EZ ES        834  6.57                             172   -0.4210 20.0 180 
 BAR2 EZ I         834  7.90        18.2 0.24            170           20.0 180 
 BRR  HZ EP        833 53.68                             153    0.3810 69.3 302 
 BRR  HN ES        834 10.67                             153    1.0310 69.3 302 
 BRR  HZ I         834 14.79         8.9 0.17            151           69.3 302 
 PAM  EZ EP        833 54.59                             148   -0.1810 82.2  40 
 PAM  EN ES        834 11.66                             148   -0.5910 82.2  40 
 PAM  EZ I         834 13.84        21.8 0.52            153           82.2  40 
 RUS  HZ EP        833 55.84                             144    0.0110 97.9 174 
 RUS  HE ES        834 14.40                             144    0.2610 97.9 174 
 RUS  HZ I         834 15.44         9.6 0.23            145           97.9 174 
 PTB  HZ EP        833 58.62                             132   -0.23 9  143 260 
 PTB  HN ES        834 19.37                             132   -0.15 9  143 260 
 PTB  HZ I         834 23.15         6.2 0.16            132            143 260 
 TAM  HZ EP        834  0.07                             129   -0.18 9  158 104 
 NOR  HZ EP        834  7.73                             118    0.22 8  230 234 
 NOR  HN ES        834 34.49                             118   -0.43 8  230 234 
 NOR  HZ I         834 38.18         5.2 0.18            119            230 234 
 CHI  HZ EP        834  9.92                             117    0.34 8  245 194 
 CHI  HN ES        834 39.34                             117    0.72 8  245 194 
 CHI  HZ I         834 42.64         4.7 0.56            118            245 194 
 ROSC BZ EP   9    834 11.49                             117    1.56 0  248 211 
 ROSC BN ES        834 38.72                             116   -2.07 8  248 211 
 ROSC BZ I         834 47.37         8.2 0.38            117            248 211 
 HEL  HZ EP   3    834 14.44                             115    2.41 2  268 256 
 HEL  HE ES        834 42.23                             115   -0.73 8  268 256 
 HEL  HZ I         834 50.62         3.4 0.52            115            268 256 
 CBOC HZ EP   3    834 20.11                             110    1.41 2  329 252 
 CBOC HE ES        834 54.73                             110   -0.12 7  329 252 
 CBOC HZ I         834 58.79         1.7 0.10            110            329 252 
                                                                                
