 2013  623 0926 31.8 L   6.779 -73.139151.0  RSN  9 0.3 1.7LRSN                1
 GAP=183        0.68       2.8     4.0  6.3 -0.3170E+00  0.5447E+01 -0.1716E+01E
 Epicentro: LOS SANTOS - SANTANDER                                             3
 ACTION:UPD 14-01-08 09:56 OP:ep   STATUS:               ID:20130623092631 L   I
 OLDACT:REG 13-06-23 10:27 OP:carl STATUS:               ID:20130623091959     3
 2013-06-23-0919-59M.COL___267                                                 6
 STAT SP IPHASW D HRMM SECON CODA AMPLIT PERI AZIMU VELO AIN AR TRES W  DIS CAZ7
 BAR2 SZ EP        926 51.97                             172   -0.0710 21.2 193 
 BAR2 SZ ES   1    927  7.37                             172   -0.44 7 21.2 193 
 BAR2 SZ I         927  8.79        10.2 0.46            168           21.2 193 
 GIR2 SZ EP        926 52.22                             167    0.0410 33.7 350 
 BRR  HZ IP     C  926 53.85                             153    0.2110 73.0 300 
 BRR  HN ES   1    927 11.32                             153    0.67 7 73.0 300 
 BRR  HN I         927 12.23        13.2 0.22            149           73.0 300 
 RUS  HZ EP   1    926 55.72                             145   -0.21 7 98.2 176 
 RUS  HN ES   1    927 14.86                             145    0.13 7 98.2 176 
 RUS  HZ I         927 15.81         4.7 0.28            147           98.2 176 
 PTB  HZ EP   1    926 59.05                             133   -0.20 7  148 260 
 PTB  HN ES   1    927 20.08                             133   -0.56 7  148 260 
 PTB  HZ I         927 27.20         6.4 0.34            131            148 260 
 OCA  HN ES        927 23.38                             130    0.04 9  163 353 
 ZAR  HZ EP   1    927  5.18                             123    0.41 6  206 293 
 ZAR  HE ES   1    927 30.33                             123   -0.14 6  206 293 
 ZAR  HZ I         927 37.07         7.6 0.36            123            206 293 
 NOR  HN ES        927 36.05                             120    0.22 8  234 235 
 SML  HN ES   1    927 37.48                             118   -0.52 6  246 335 
                                                                                
