 2015  723 0719 53.1 L   6.801 -73.118146.2  RSN 18 0.5 2.3LRSN                1
 GAP=140        1.06       2.6     4.2  5.7 -0.2376E+01  0.1222E+02  0.4208E-01E
 Epicentro: LOS SANTOS - SANTANDER                                             3
 ACTION:UPD 15-09-08 21:50 OP:cam  STATUS:               ID:20150723071953 L   I
 OLDACT:REG 15-07-23 13:02 OP:ak   STATUS:               ID:20150723071739     3
 2015-07-23-0717-39M.COL___334                                                 6
 STAT SP IPHASW D HRMM SECON CODA AMPLIT PERI AZIMU VELO AIN AR TRES W  DIS CAZ7
 BAR2 EZ EP        720 12.91                             170    0.0810 24.1 197 
 BAR2 EZ ES        720 27.73                             170   -0.4710 24.1 197 
 BAR2 EZ I         720 31.09        25.2 0.23            168           24.1 197 
 PAM  EZ EP        720 15.71                             152    0.4410 75.4  38 
 PAM  EN ES        720 33.07                             152    0.5210 75.4  38 
 PAM  EZ I         720 35.13        20.8 0.20            157           75.4  38 
 RUS  HZ EP        720 16.82                             144   -0.1010  101 178 
 RUS  HN ES        720 35.19                             144   -0.2910  101 178 
 RUS  HZ I         720 36.78        12.4 0.40            147            101 178 
 OCA  HZ EP        720 21.63                             130    0.13 9  161 352 
 OCA  HN ES        720 43.39                             130   -0.24 9  161 352 
 OCA  HZ I         720 48.92        46.1 0.22            133            161 352 
 ZAR  HZ EP        720 25.58                             122   -0.31 8  207 292 
 ZAR  HN ES        720 51.54                             122    0.10 8  207 292 
 ZAR  HZ I         720 57.37        24.8 0.19            123            207 292 
 NOR  HZ EP        720 28.83                             118   -0.33 8  237 235 
 NOR  HE ES        720 57.25                             118   -0.01 8  237 235 
 NOR  HZ I         721  0.64        23.4 0.18            120            237 235 
 SML  HZ EP        720 29.60                             117   -0.31 8  245 335 
 SML  HN ES        720 59.37                             117    0.77 8  245 335 
 SML  HZ I         721  2.69        36.0 0.10            120            245 335 
 CHI  HZ EP        720 31.18                             117    0.23 8  250 196 
 CHI  HN ES        720 59.87                             117   -0.58 8  250 196 
 CHI  HZ I         721  6.23         9.0 0.33            120            250 196 
 ROSC BZ EP        720 31.96                             117    0.51 8  254 212 
 ROSC BN ES   4    721  2.69                             117    1.34 0  254 212 
 ROSC BZ I         721  9.05        21.0 0.55            119            254 212 
 HEL  HZ EP        720 33.90                             115    0.21 8  275 256 
 HEL  HN ES        721  4.57                             115   -0.77 8  275 256 
 HEL  HZ I         721 11.90         7.9 0.42            116            275 256 
 URE  HZ EP        720 33.84                             113   -0.69 7  287 292 
 URE  HN ES   4    721  5.08                             113   -1.75 0  287 292 
 URE  HZ I         721 14.05        10.1 0.14            115            287 292 
 GUY2CHZ EP        720 37.75                             112    0.70 7  304 235 
 GUY2CHN ES        721 12.41                             112    1.11 7  304 235 
 GUY2CHZ I         721 18.08        13.0 0.31                           304 235 
 PTGC HZ EP   4    720 35.69                             112   -1.20 0  308 159 
 PTGC HE ES   4    721  3.14                             112   -7.89 0  308 159 
 CBOC HZ EP        720 40.39                             110   -0.01 7  337 252 
 CBOC HN ES        721 17.15                             110   -0.12 7  337 252 
 CBOC HZ I         721 21.07         3.2 0.34            111            337 252 
 TOL  SZ EP   1    720 42.12                             109    0.46 5  346 225 
 TOL  SN ES        721 19.39                             109   -0.12 6  346 225 
 TOL  SZ I         721 27.10        10.0 0.44            111            346 225 
 MON  HZ EP   4    720 38.35                             108   -4.07 0  356 308 
 MON  HN ES   4    721 17.78                             108   -3.08 0  356 308 
 MON  HZ I         721 21.32         8.0 0.39            110            356 308 
 ORTC HZ EP        720 46.80                             106   -0.48 6  397 217 
 ORTC HN ES        721 30.19                             106    0.66 6  397 217 
 ORTC HZ I         721 34.56         5.7 0.41            108            397 217 
 PAL  HZ EP        720 48.50                             106   -0.12 6  408 239 
 PAL  HE ES        721 32.41                             106    0.51 6  408 239 
 PAL  HZ I         721 43.42         3.5 0.54            108            408 239 
 SJC  HZ EP        720 47.22                             106   -1.67 6  411 327 
 SJC  HN ES   4    721 27.77                             106   -4.61 0  411 327 
 SJC  HZ I         721 33.67         3.3 0.15            108            411 327 
                                                                                
