 2014  723 0809 22.4 L   6.788 -73.133133.6  RSN 22 0.4 2.2LRSN                1
 GAP=139        0.93       2.3     3.5  5.5 -0.2287E+01  0.7886E+01  0.1101E+01E
 Epicentro: LOS SANTOS - SANTANDER                                             3
 ACTION:UPD 15-03-16 20:46 OP:nd   STATUS:               ID:20140723080922 L   I
 OLDACT:REG 14-07-23 12:30 OP:mh   STATUS:               ID:20140723080815     3
 2014-07-23-0808-15M.COL___257                                                 6
 STAT SP IPHASW D HRMM SECON CODA AMPLIT PERI AZIMU VELO AIN AR TRES W  DIS CAZ7
 BAR2 SZ IP     D  8 9 40.96                             170    0.4610 22.3 194 
 BAR2 SZ ES   1    8 9 54.28                             170   -0.37 7 22.3 194 
 BAR2 SZ I         8 9 56.53        49.6 0.28            167           22.3 194 
 PAM  SZ IP     C  8 9 43.81                             148    0.5210 77.5  38 
 PAM  SE ES        8 9 59.83                             148    0.2010 77.5  38 
 PAM  SZ I         810  3.07        37.2 0.58            155           77.5  38 
 RUS  HZ EP        8 9 44.24                             141   -0.5810 99.2 177 
 RUS  HN ES   1    810  2.13                             141   -0.21 7 99.2 177 
 PTB  HZ EP        8 9 47.69                             129   -0.77 9  149 259 
 PTB  HN ES        810  8.12                             129   -0.70 9  149 259 
 PTB  HZ I         810 13.08        19.6 0.14            129            149 259 
 OCA  HZ EP        8 9 49.31                             126   -0.58 9  162 353 
 OCA  HN ES        810 11.61                             126    0.25 9  162 353 
 OCA  HZ I         810 16.13        19.1 0.19            130            162 353 
 SPBC HZ EP        8 9 49.90                             126   -0.03 9  163 220 
 SPBC HN ES        810 12.03                             126    0.59 9  163 220 
 SPBC HZ I         810 17.27        10.9 0.19            127            163 220 
 ZAR  HZ EP        8 9 53.87                             119   -0.35 8  206 292 
 ZAR  HN ES        810 19.06                             119   -0.01 8  206 292 
 ZAR  HZ I         810 25.16        20.7 0.28            121            206 292 
 NOR  HZ EP        8 9 57.51                             116    0.07 8  235 235 
 NOR  HN ES        810 25.10                             116    0.29 8  235 235 
 NOR  HZ I         810 30.77         9.0 0.18            117            235 235 
 SML  HZ EP   4    8 9 57.28                             115   -1.24 0  245 335 
 SML  HE ES        810 26.89                             115    0.16 8  245 335 
 SML  HZ I         810 29.43        17.4 0.08            117            245 335 
 CHI  HN ES   1    810 27.96                             114   -0.17 6  248 196 
 CHI  HZ I         810 38.15         5.6 0.13            117            248 196 
 ROSC BN ES        810 28.79                             114   -0.20 8  252 211 
 ROSC BZ I         810 37.30         8.9 0.45            116            252 211 
 HEL  HZ EP        810  2.63                             112    0.55 8  273 256 
 HEL  HN ES        810 33.65                             112    0.58 8  273 256 
 HEL  HZ I         810 40.26         7.4 0.38            114            273 256 
 URE  HZ EP   4    810  5.29                             111    2.23 0  286 292 
 URE  HE ES   4    810 42.54                             111    7.74 0  286 292 
 URE  HZ I         810 44.59        11.9 0.20            113            286 292 
 GUY2CHZ EP        810  5.67                             110    0.20 7  302 235 
 GUY2CHN ES   1    810 38.44                             110   -0.65 5  302 235 
 GUY2CHZ I         810 48.60         5.9 0.56                           302 235 
 PTGC HZ EP   4    810  4.40                             109   -1.10 0  307 159 
 PTGC HN ES   4    810 36.79                             109   -2.36 0  307 159 
 PTGC HZ I         810 39.79         6.9 0.38            112            307 159 
 RREF HN ES   1    810 44.22                             108    0.59 5  322 230 
 RREF HZ I         810 54.41         5.5 0.26            110            322 230 
 CBOC HZ EP        810  9.05                             107    0.16 7  335 252 
 CBOC HN ES   4    810 42.97                             107   -2.22 0  335 252 
 CBOC HZ I         810 45.77         1.9 0.24            109            335 252 
 DBB  SZ EP   1    810  9.14                             107   -0.39 5  341 274 
 DBB  SZ ES   4    810 43.06                             107   -3.27 0  341 274 
 TOL  SZ EP   4    810 11.36                             107    1.21 0  344 225 
 TOL  SN ES        810 47.93                             107    0.50 7  344 225 
 TOL  SZ I         810 55.28         8.6 0.38            109            344 225 
 PRA  HZ EP        810 15.10                             104   -0.32 6  392 210 
 PRA  HN ES        810 56.72                             104   -0.10 6  392 210 
 PRA  HZ I         810 59.67         5.0 0.30            106            392 210 
 ORTC HZ EP        810 16.17                             104    0.32 6  395 216 
 ORTC HN ES        810 57.70                             104    0.12 6  395 216 
 ORTC HZ I         811  4.01         5.9 0.34            106            395 216 
 SJC  HZ EP   4    810 15.72                             103   -2.04 0  411 327 
 SJC  HN ES   4    810 56.87                             103   -4.10 0  411 327 
 SJC  HZ I         811  1.00         5.2 0.34            106            411 327 
                                                                                
