 2012 1223 0959 46.2 L   7.127 -73.503 15.1  RSN  6 0.4 1.5LRSN                1
 GAP=118        0.78       3.4     2.9  3.7  0.2708E+01 -0.3130E+01 -0.2700E+01E
 Epicentro: SAN VICENTE DE CHUCURI - SANTANDER                                 3
 ACTION:UPD 13-01-04 14:29 OP:ep   STATUS:               ID:20121223095946 L   I
 2012-12-23-0957-49M.COL___208                                                 6
 STAT SP IPHASW D HRMM SECON CODA AMPLIT PERI AZIMU VELO AIN AR TRES W  DIS CAZ7
 BRR  HZ EP   1    959 50.64                             119   -0.12 7 23.2 265 
 BRR  HE ES   1    959 54.89                             119    0.58 7 23.2 265 
 BRR  HZ I         959 55.53        38.7 0.15                          23.2 265 
 GIR2 SZ EP   1    959 51.98                             110   -0.51 7 34.6  99 
 PTB  HZ EP   1   10 0  5.56                              95   -0.09 7  124 238 
 PTB  HN ES   1   10 0 20.56                              95   -0.26 7  124 238 
 PTB  HZ I        10 0 21.19        12.8 0.26                           124 238 
 RUS  HZ EP   1   10 0  9.69                              56    0.56 7  144 161 
 RUS  HE ES   1   10 0 27.18                              56    0.17 7  144 161 
 RUS  HZ I        10 0 30.34         4.8 0.22                           144 161 
 ZAR  HZ EP   1   10 0  9.66                              56   -0.24 7  155 285 
 ZAR  HN ES   1   10 0 27.85                              56   -0.52 7  155 285 
 ZAR  HZ I        10 0 29.64        13.2 0.26                           155 285 
 SML  HN ES   1   10 0 37.86                              56    0.51 6  195 341 
                                                                                
