 2012  523 0306 34.2 L   6.810 -73.206143.2  RSN  7 0.2 2.2LRSN                1
 GAP=177        0.54       2.5     2.9  4.3  0.7772E-01  0.3006E+01 -0.2379E+01E
 Epicentro: ZAPATOCA - SANTANDER                                               3
 ACTION:UP  12-07-05 12:07 OP:pat  STATUS:               ID:20120523030634 L   I
 2012-05-23-0300-00M.COL___200                                                 6
 STAT SP IPHASW D HRMM SECON CODA AMPLIT PERI AZIMU VELO SNR AR TRES W  DIS CAZ7
 BAR2 SZ EP        3 6 53.80                             170     0.210   24 174 
 BAR2 SZ ES        3 7  8.74                             170     0.110   24 174 
 BAR2 SZ I         3 7 10.51        66.2 0.18                            24 174 
 RUS  HZ EP        3 6 57.80                             143    -0.110  102 172 
 RUS  HN ES        3 7 16.20                             143    -0.110  102 172 
 RUS  HZ I         3 7 17.75        16.5 0.31                           102 172 
 PTB  HZ EP        3 7  0.60                             133     0.2 9  141 258 
 PTB  HE ES        3 7 20.52                             133    -0.3 9  141 258 
 OCA  HZ EP        3 7  2.05                             129    -0.1 9  159 355 
 OCA  HE ES   1    3 7 23.81                             129    -0.2 7  159 355 
 OCA  HZ I         3 7 30.99        22.2 0.48                           159 355 
 ZAR  HE ES   1    3 7 30.80                             123     0.3 6  197 293 
 ZAR  HZ I         3 7 35.74        13.9 0.11                           197 293 
 NOR  SZ EP   2    3 7  9.54                             118     0.2 4  230 233 
 NOR  SN ES   1    3 7 36.75                             118     0.1 6  230 233 
 RREF HZ EP   1    3 7 19.45                             111    -0.3 5  317 228 
 RREF HZ I         3 8  5.34         6.6 0.51                           317 228 
                                                                                
