 2012  123 0859 44.5 L   6.768 -73.150139.9  RSN 11 0.5 2.1LRSN                1
 GAP=137        1.06       3.9     5.0  7.5 -0.3241E+01  0.1415E+02  0.6240E+00E
 Epicentro: LOS SANTOS - SANTANDER                                             3
 ACTION:UP  12-02-03 08:19 OP:REBC STATUS:               ID:20120123085944 L   I
 2012-01-23-0857-35S.COL___152                                                 6
 STAT SP IPHASW D HRMM SECON CODA AMPLIT PERI AZIMU VELO SNR AR TRES W  DIS CAZ7
 BAR2 SZ EP        9 0  3.60                             172     0.210   20 191 
 BAR2 SZ I         9 0  3.95        48.5 0.10                            20 191 
 BAR2 SZ ES   1    9 0 17.75                             172    -0.3 7   20 191 
 BRR  HZ EP        9 0  5.50                             151     0.410   73 301 
 BRR  HZ I         9 0  5.91        65.0 0.11                            73 301 
 BRR  HN ES   1    9 0 22.20                             151     1.0 7   73 301 
 PAM  SZ EP   1    9 0  6.42                             149     0.1 7   80  38 
 PAM  SZ I         9 0  6.85        15.9 0.25                            80  38 
 PAM  SN ES   1    9 0 22.93                             149    -0.3 7   80  38 
 RUS  HZ EP   1    9 0  7.43                             144     0.0 7   97 176 
 RUS  HN ES        9 0 25.34                             144     0.010   97 176 
 RUS  HZ I         9 0 27.06        11.1 0.24                            97 176 
 PTB  HZ EP   1    9 0 10.10                             131    -0.8 7  147 260 
 PTB  HN ES   1    9 0 30.76                             131    -0.7 7  147 260 
 OCA  SZ EP   1    9 0 12.46                             128    -0.2 7  164 353 
 OCA  SZ ES   1    9 0 34.17                             128    -0.5 7  164 353 
 OCA  SZ I         9 0 40.48        11.3 0.22                           164 353 
 ZAR  HZ EP   1    9 0 16.52                             121    -0.1 6  205 293 
 ZAR  HN ES   2    9 0 42.30                             121     0.5 4  205 293 
 ZAR  HZ I         9 0 47.83        22.8 0.32                           205 293 
 NOR  SZ EP   1    9 0 19.67                             117     0.0 6  232 235 
 NOR  SN ES   1    9 0 47.39                             117     0.3 6  232 235 
 CHI  HZ EP   1    9 0 21.74                             116     0.2 6  245 195 
 CHI  HN ES   1    9 0 49.78                             116    -0.6 6  245 195 
 CHI  HZ I         9 0 53.82         2.8 0.23                           245 195 
 HEL  HZ EP   1    9 0 24.94                             114     0.7 6  271 256 
 HEL  HN ES        9 0 54.89                             114    -0.4 8  271 256 
 HEL  HZ I         9 1  3.24         8.4 0.24                           271 256 
 RREF HN ES   1    9 1  5.94                             110     0.3 5  319 230 
 RREF HZ I         9 1 12.91         6.1 0.25                           319 230 
                                                                                
