 2016  723 0529 21.0 L   6.807 -73.148140.0  RSN  6 0.4 1.7LRSN                1
 GAP=238        1.07       7.8     7.5  8.0  0.3444E+02  0.2718E+02  0.1755E+02E
 Epicentro: LOS SANTOS - SANTANDER                                             3
 ACTION:UPD 17-03-29 16:54 OP:lp   STATUS:               ID:20160723052921 L   I
 OLDACT:DUP 16-07-23 18:26 OP:ar   STATUS:               ID:20160723051701d    3
 OLDACT:UP  16-07-23 18:22 OP:ar   STATUS:               ID:20160723051759     3
 OLDACT:REG 16-07-23 14:35 OP:ar   STATUS:               ID:20160723051759     3
 2016-07-23-0517-59S.COL___322                                                 6
 STAT SP IPHASW D HRMM SECON CODA AMPLIT PERI AZIMU VELO AIN AR TRES W  DIS CAZ7
 BAR2 EZ EP        529 39.63                             170   -0.3110 24.1 189 
 BAR2 EZ ES        529 54.55                             170   -0.1710 24.1 189 
 BRR  HZ EP        529 41.40                             152   -0.0810 70.6 298 
 BRR  HN ES        529 58.24                             152    0.7710 70.6 298 
 BRR  HZ I         530  2.70         8.0 0.34            149           70.6 298 
 RUS  HZ EP        529 44.00                             143   -0.2410  101 176 
 RUS  HN ES        530  2.54                             143    0.1710  101 176 
 RUS  HZ I         530  3.26         5.5 0.26            145            101 176 
 ZAR  HZ EP   4    529 54.80                             121    1.79 0  204 292 
 ZAR  HN ES        530 17.30                             121   -0.69 9  204 292 
 ZAR  HZ I         530 22.70         6.3 0.34            122            204 292 
 HEL  HZ EP        530  1.72                             114    0.81 8  272 256 
 HEL  HN ES        530 31.73                             114   -0.32 8  272 256 
 HEL  HZ I         530 37.54         3.0 0.28            115            272 256 
 GUY2CHZ EP        530  4.52                             111    0.15 7  301 235 
 GUY2CHN ES   4    530 41.99                             111    3.79 0  301 235 
 GUY2CHZ I         530 45.60         2.9 0.34                           301 235 
                                                                                
