 2016 1123 0301 34.5 L   6.843 -73.250144.7  RSN  9 0.7 1.5LRSN                1
 GAP=117        1.03       6.1     4.8  7.3 -0.3766E+01  0.1454E+02 -0.4401E+01E
 Epicentro: ZAPATOCA - SANTANDER                                               3
 ACTION:UPD 17-10-26 21:10 OP:lp   STATUS:               ID:20161123030134 L   I
 OLDACT:UP  16-11-23 14:48 OP:dani STATUS:               ID:20161123025741     3
 OLDACT:UP  16-11-23 14:48 OP:dani STATUS:               ID:20161123025741     3
 OLDACT:UP  16-11-23 14:47 OP:dani STATUS:               ID:20161123025741     3
 OLDACT:UP  16-11-23 14:47 OP:dani STATUS:               ID:20161123025741     3
 OLDACT:UP  16-11-23 14:46 OP:dani STATUS:               ID:20161123025741     3
 OLDACT:REG 16-11-23 12:40 OP:dani STATUS:               ID:20161123025741     3
 2016-11-23-0258-00M.COL___355                                                 6
 STAT SP IPHASW D HRMM SECON CODA AMPLIT PERI AZIMU VELO AIN AR TRES W  DIS CAZ7
 BAR2 EZ EP        3 1 54.10                             168   -0.0310 28.7 165 
 BAR2 EZ ES        3 2  8.98                             168   -0.4610 28.7 165 
 BAR2 EZ I         3 2 10.27        10.6 0.24            171           28.7 165 
 BRR  HZ EP        3 1 55.65                             157    0.7610 58.9 300 
 BRR  HE ES   3    3 2 12.70                             157    1.91 2 58.9 300 
 BRR  HZ I         3 2 16.22         5.8 0.26            151           58.9 300 
 PAM  EZ EP        3 1 57.01                             149    0.1310 81.9  48 
 PAM  EN ES        3 2 14.27                             149   -0.0710 81.9  48 
 PAM  EZ I         3 2 16.22         7.3 0.50            154           81.9  48 
 PTB  HZ EP        3 2  0.74                             134    0.26 9  138 256 
 PTB  HN ES        3 2 20.59                             134   -0.14 9  138 256 
 PTB  HZ I         3 2 25.45         4.2 0.16            133            138 256 
 ZAR  HN ES   3    3 2 31.47                             124    1.60 2  192 292 
 ZAR  HZ I         3 2 37.58         2.8 0.10            123            192 292 
 CHI  HZ EP        3 2 11.94                             116   -0.41 8  251 192 
 CHI  HN ES   3    3 2 43.37                             116    1.50 2  251 192 
 CHI  HZ I         3 2 44.99         2.1 0.39            120            251 192 
 ROSC BZ EP   3    3 2 14.74                             116    2.34 2  251 208 
 URE  HZ EP        3 2 14.48                             114    0.34 8  271 292 
 URE  HN ES        3 2 44.28                             114   -0.77 8  271 292 
 URE  HZ I         3 2 56.77         1.9 0.37            115            271 292 
 SJC  HZ EP        3 2 28.06                             106   -0.78 6  399 328 
 SJC  HN ES   3    3 3  9.74                             106   -1.48 1  399 328 
                                                                                
