 2013  123 0808 38.4 L   6.725 -73.219148.3  RSN  4 0.3 1.6LRSN                1
 GAP=217        0.84       6.7     6.4  7.5  0.1697E+02  0.1076E+02 -0.2889E+01E
 Epicentro: VILLANUEVA - SANTANDER                                             3
 ACTION:UPD 13-02-15 09:16 OP:ep   STATUS:               ID:20130123080838 L   I
 2013-01-23-0758-35M.COL___180                                                 6
 STAT SP IPHASW D HRMM SECON CODA AMPLIT PERI AZIMU VELO AIN AR TRES W  DIS CAZ7
 BAR2 SZ EP        8 8 57.85                             174   -0.3210 15.3 164 
 BAR2 SZ ES        8 9 13.18                             174   -0.4410 15.3 164 
 BAR2 SZ I         8 9 14.14         8.8 0.24            175           15.3 164 
 BRR  HZ EP        8 8 59.92                             154    0.2510 68.9 308 
 BRR  HN ES        8 9 16.62                             154    0.3410 68.9 308 
 BRR  HN I         8 9 17.36        11.1 0.20            153           68.9 308 
 RUS  HN ES        8 9 20.59                             146    0.4010 93.3 171 
 PTB  HZ EP        8 9  4.67                             135   -0.04 9  138 262 
 PTB  HN ES        8 9 25.04                             135   -0.22 9  138 262 
 PTB  HN I         8 9 26.20         3.8 0.24            135            138 262 
                                                                                
