 2012  223 0654 10.7 L   5.808 -73.775119.5  RSN  5 0.4 1.3LRSN                1
 GAP=234        0.69       6.4     4.9  8.6  0.1070E+02  0.1078E+02  0.6414E+01E
 ACTION:UP  12-03-07 16:33 OP:epov STATUS:               ID:20120223065410 L   I
 2012-02-23-0650-00M.COL___191                                                 6
 STAT SP IPHASW D HRMM SECON CODA AMPLIT PERI AZIMU VELO AIN AR TRES W  DIS CAZ7
 RUS  HZ EP   1    654 30.35                             145    0.15 7 77.1  83 
 RUS  HN ES   1    654 45.29                             145   -0.10 7 77.1  83 
 RUS  HZ I         654 49.98         1.3 0.67                          77.1  83 
 BAR2 SZ EP   1    654 32.88                             135    0.56 7  109  37 
 BAR2 SZ ES   1    654 48.97                             135   -0.21 7  109  37 
 BAR2 SZ I         654 50.23        14.9 0.44                           109  37 
 PTB  HZ EP   1    654 31.69                             134   -0.50 7  111 317 
 PTB  HN ES   1    654 49.06                             134    0.12 7  111 317 
 BRR  HZ EP   1    654 35.25                             126   -0.02 7  144   3 
 BRR  HZ I         654 36.73         2.6 0.11                           144   3 
 BRR  HE ES   1    654 54.90                             126    0.47 7  144   3 
 GIR2 SZ EP   1    654 36.40                             124   -0.13 7  155  25 
 GIR2 SZ ES   2    654 55.85                             124   -0.82 5  155  25 
                                                                                
