 2016  323 0123 29.7 L   6.849 -73.182144.8  RSN  4 0.2 1.4LRSN                1
 GAP=278        0.47       5.1     3.2  4.4  0.4182E+01 -0.7732E+00 -0.1014E+02E
 Epicentro: ZAPATOCA - SANTANDER                                               3
 ACTION:UPD 16-05-13 21:26 OP:cam  STATUS:               ID:20160323012329 L   I
 OLDACT:DUP 16-03-23 14:59 OP:ak   STATUS:               ID:20160323011749d    3
 OLDACT:REG 16-03-23 12:23 OP:ak   STATUS:               ID:20160323011746     3
 2016-03-23-0117-46M.COL___311                                                 6
 STAT SP IPHASW D HRMM SECON CODA AMPLIT PERI AZIMU VELO AIN AR TRES W  DIS CAZ7
 BAR2 EZ EP        123 49.12                             168   -0.2610 28.4 180 
 BAR2 EZ ES        124  4.84                             168    0.1510 28.4 180 
 BAR2 EZ I         124  6.68         4.6 0.38            160           28.4 180 
 RUS  HZ EP        123 53.90                             142    0.0710  106 174 
 RUS  HE ES        124 12.57                             142   -0.0410  106 174 
 RUS  HZ I         124 13.67         2.5 0.16            138            106 174 
 PTB  HZ EP        123 56.62                             132    0.23 9  145 256 
 PTB  HN ES        124 17.03                             132   -0.14 9  145 256 
 PTB  HZ I         124 24.08         3.4 0.28            127            145 256 
 SPBC HZ EP   9    123 58.84                             128    0.49 0  165 217 
 SPBC HE ES        124 21.16                                    0.01 9  165 217 
 SPBC HZ I         124 27.76         6.2 0.23            124            165 217 
                                                                                
