 2013  323 0847 50.6 L   6.694 -73.203155.0  RSN  5 0.2 1.5LRSN                1
 GAP=219        0.46       3.8     3.6  4.0  0.6488E+01  0.3962E+00 -0.1570E+00E
 Epicentro: VILLANUEVA - SANTANDER                                             3
 ACTION:UPD 13-04-09 14:04 OP:ep   STATUS:               ID:20130323084750 L   I
 2013-03-23-0840-00M.COL___245                                                 6
 STAT SP IPHASW D HRMM SECON CODA AMPLIT PERI AZIMU VELO AIN AR TRES W  DIS CAZ7
 BAR2 SZ EP        848 10.88                             176   -0.2810 11.5 168 
 BAR2 SZ ES   1    848 27.04                             176   -0.17 7 11.5 168 
 BRR  HZ EP        848 13.00                             154    0.1910 72.5 309 
 BRR  HN ES        848 30.24                             154    0.1010 72.5 309 
 BRR  HN I         848 33.29        11.3 0.42            153           72.5 309 
 RUS  HZ EP        848 14.66                             149    0.1310 89.6 171 
 RUS  HN ES        848 33.29                             149    0.0910 89.6 171 
 RUS  HN I         848 35.71         2.0 0.34            149           89.6 171 
 PAM  SZ E      C  848 40.93                                           90.5  38 
 PTB  HZ EP        848 17.51                             136   -0.11 9  140 263 
 PTB  HN ES        848 38.65                             136   -0.05 9  140 263 
 PTB  HN I         848 43.83         5.0 0.14            135            140 263 
                                                                                
