 2011  823 0113 36.7 L   6.768 -73.165151.0  RSN  4 0.3 1.5LRSN                1
 GAP=180        0.58       6.2     7.9  8.2  0.1149E+02  0.8385E+01  0.2458E+02E
 Epicentro: LOS SANTOS - SANTANDER                                             3
 ACTION:UPD 12-07-13 15:53 OP:ep   STATUS:               ID:20110823011336 L   I
 2011-08-23-0100-00M.COL___159                                                 6
 STAT SP IPHASW D HRMM SECON CODA AMPLIT PERI AZIMU VELO AIN AR TRES W  DIS CAZ7
 GIR2 SZ EP   2    113 56.66                             167   -0.42 5 34.5 355 
 GIR2 SZ ES   1    114 12.59                             167   -0.39 7 34.5 355 
 BRR  HZ EP   1    113 58.61                             153    0.20 7 71.1 302 
 BRR  HZ I         113 59.84         9.5 0.16                          71.1 302 
 BRR  HN ES   1    114 15.57                             153    0.22 7 71.1 302 
 RUS  HZ EP   1    114  0.94                             145    0.21 7 97.2 175 
 RUS  HZ I         114  2.22         3.3 0.17                          97.2 175 
 RUS  HN ES   2    114 19.69                             145    0.21 5 97.2 175 
 GUY  SN ES   2    114 53.76                             113   -0.70 4  300 235 
                                                                                
