 2010 1223 0614 55.6 L   6.227 -73.738 96.5  RSN 12 0.4 2.1LRSN                1
 GAP=103        1.01       4.3     4.8 10.2 -0.1120E+02  0.2506E+02 -0.7883E+01E
 Epicentro: LANDAZURI - SANTANDER                                              3
 ACTION:UP  11-01-14 15:26 OP:pat  STATUS:               ID:20101223061455 L   I
 2010-12-23-0610-02S.COL___135                                                 6
 STAT SP IPHASW D HRMM SECON CODA AMPLIT PERI AZIMU VELO SNR AR TRES W  DIS CAZ7
 BAR2 SZ IP        615 12.44                             140     0.210   73  57 
 BAR2 SZ ES   1    615 25.57                             140     0.4 7   73  57 
 BAR2 SZ I         615 26.54        68.5 0.20                            73  57 
 RUS  HZ IP     D  615 13.03                             137    -0.210   81 117 
 RUS  HZ I         615 13.51        21.8 0.19                            81 117 
 RUS  HN ES   1    615 27.06                             137     0.1 7   81 117 
 BTL  SZ IP        615 13.07                             133    -0.810   92  34 
 NOR  SZ EP   1    615 18.72                             119    -0.2 7  145 240 
 NOR  SN ES   1    615 36.85                             119    -0.2 7  145 240 
 ROSC BZ EP   1    615 22.76                             116     1.1 7  166 203 
 ROSC BZ I         615 49.75        17.4 0.39                           166 203 
 CHI  HZ EP   1    615 22.35                             115    -0.5 7  177 180 
 CHI  HE ES   2    615 44.18                             115     0.2 4  177 180 
 CHI  HZ I         615 54.45         7.5 0.26                           177 180 
 HEL  HZ EP   1    615 25.32                             112     0.1 6  198 269 
 HEL  HE ES   2    615 48.36                             112     0.1 4  198 269 
 HEL  HZ I         615 51.63         6.4 0.45                           198 269 
 GRA  SZ EP   1    615 26.55                             110     0.2 6  210  29 
 GRA  SZ ES   1    615 50.55                             110     0.3 6  210  29 
 GRA  SZ I         615 53.05        11.8 0.26                           210  29 
 OCA  SZ EP   1    615 28.72                             109     0.4 6  227  12 
 OCA  SZ I         615 58.80         7.7 0.18                           227  12 
 RREF HZ EP   1    615 29.76                             109     0.4 6  231 231 
 RREF HE ES   1    615 55.45                             109    -0.1 6  231 231 
 RREF HZ I         616  1.81         9.1 0.71                           231 231 
 PRA  HZ EP   1    615 36.96                             103    -0.5 5  306 205 
 PRA  HN ES   2    616 10.42                             103     0.3 4  306 205 
 PRA  HZ I         616 18.44        15.8 0.35                           306 205 
 SJA  SZ EP   2    615 40.11                             102    -0.1 3  327 184 
 SJA  SZ I         615 41.65        15.8 0.38                           327 184 
                                                                                
