 2017  723 0709 35.8 L   6.769 -73.161142.0  RSN  7 0.4 1.2LRSN                1
 GAP=209        0.92       5.0     4.9  6.2  0.1105E+02  0.8567E+00  0.2807E+01E
 Epicentro: LOS SANTOS - SANTANDER                                             3
 ACTION:UPD 17-08-30 15:35 OP:rebc STATUS:               ID:20170723070935 L   I
 OLDACT:REG 17-07-23 14:35 OP:lv   STATUS:               ID:20170723070639     3
 2017-07-23-0707-00M.COL___371                                                 6
 STAT SP IPHASW D HRMM SECON CODA AMPLIT PERI AZIMU VELO AIN AR TRES W  DIS CAZ7
 BAR2 EZ EP        7 9 54.47                             172   -0.4310 19.7 187 
 BAR2 EZ ES        710  9.77                             172   -0.0310 19.7 187 
 BAR2 EZ I         710 12.56         6.5 0.31            166           19.7 187 
 BRR  HZ EP        7 9 56.83                             152    0.2810 71.5 302 
 BRR  HN ES        710 13.23                             152    0.4910 71.5 302 
 BRR  HZ I         710 14.50         1.6 0.08            153           71.5 302 
 RUS  HZ EP        7 9 59.02                             144    0.0810 97.3 175 
 RUS  HN ES        710 16.58                             144   -0.4110 97.3 175 
 RUS  HZ I         710 18.80         1.8 0.31            135           97.3 175 
 PTB  HZ EP        710  1.90                             132   -0.35 9  146 260 
 PTB  HN ES        710 22.39                             132   -0.49 9  146 260 
 PTB  HZ I         710 24.92         0.7 0.25            128            146 260 
 SPBC HZ EP        710  3.88                             129    0.23 9  160 219 
 SPBC HN ES        710 25.97                             129    0.59 9  160 219 
 SPBC HZ I         710 30.56         2.9 0.22            123            160 219 
 YPLC HZ EP        710  5.29                             126    0.19 9  175 150 
 YPLC HZ I         710 30.39         3.0 0.50            117            175 150 
 ZAR  HN ES        710 32.93                             121   -0.14 9  204 293 
                                                                                
