 2012  223 0814 25.9 L   6.740 -73.184145.6  RSN  5 0.4 1.3LRSN                1
 GAP=175        0.72       6.7     6.5  7.6  0.1626E+02  0.1257E+01 -0.3621E+01E
 ACTION:UP  12-03-07 16:33 OP:epov STATUS:               ID:20120223081425 L   I
 2012-02-23-0810-00M.COL___191                                                 6
 STAT SP IPHASW D HRMM SECON CODA AMPLIT PERI AZIMU VELO AIN AR TRES W  DIS CAZ7
 BAR2 SZ EP   1    814 45.40                             173   -0.03 7 16.3 180 
 BAR2 SZ ES   1    814 59.98                             173   -0.64 7 16.3 180 
 BAR2 SZ I         815  1.47         5.8 0.21                          16.3 180 
 GIR2 SZ EP   1    814 45.55                             165   -0.22 7 37.5 358 
 BRR  HZ EP   1    814 47.27                             152    0.21 7 71.1 305 
 BRR  HZ I         814 47.72         5.3 0.10                          71.1 305 
 BRR  HE ES   1    815  4.10                             152    0.56 7 71.1 305 
 RUS  HZ EP   1    814 49.46                             146    0.23 7 94.3 173 
 RUS  HN ES   1    815  7.73                             146    0.33 7 94.3 173 
 RUS  HZ I         815  8.88         1.9 0.21                          94.3 173 
 PTB  HZ EP   1    814 52.09                             133   -0.33 7  142 261 
 PTB  HN ES   1    815 12.90                             133   -0.17 7  142 261 
                                                                                
