 2017 1023 0912 15.7 L   6.635 -74.101  4.0  RSN  7 0.5 1.1LRSN                1
 GAP= 90        1.22       2.8     2.4  6.8 -0.5862E+00  0.4069E+01  0.3224E+01E
 Epicentro: PUERTO PARRA - SANTANDER                                           3
 ACTION:UPD 17-11-07 19:35 OP:rebc STATUS:               ID:20171023091215 L   I
 OLDACT:UP  17-10-23 17:38 OP:edw  STATUS:               ID:20171023090141     3
 OLDACT:UP  17-10-23 17:37 OP:edw  STATUS:               ID:20171023090141     3
 OLDACT:REG 17-10-23 12:57 OP:dhb  STATUS:               ID:20171023090141     3
 2017-10-23-0908-00M.COL___381                                                 6
 STAT SP IPHASW D HRMM SECON CODA AMPLIT PERI AZIMU VELO AIN AR TRES W  DIS CAZ7
 PTB  HZ IP     D  912 23.21                              47    0.7610 40.7 255 
 PTB  HN ES        912 27.39                              47   -0.3410 40.7 255 
 PTB  HZ I         912 29.33         6.0 0.26             47           40.7 255 
 BRR  HZ EP     D  912 26.27                              47   -0.2410 67.7  39 
 BRR  HN ES        912 34.66                              47   -0.3110 67.7  39 
 BRR  HZ I         912 35.24        12.0 0.10             47           67.7  39 
 BAR2 EZ EP        912 31.70                              47   -0.2210  102  93 
 ZAR  HZ EP        912 36.05                              47    0.6210  126 319 
 ZAR  HN ES        912 50.69                              47   -0.1610  126 319 
 ZAR  HZ I         912 52.92         4.1 0.26             47            126 319 
 RUS  HZ EP        912 37.96                              47    0.08 9  139 126 
 RUS  HN ES        912 55.60                              47    0.39 9  139 126 
 RUS  HZ I         912 58.22         4.9 0.18             47            139 126 
 NOR  HN ES        912 55.23                              47   -0.92 9  146 216 
 GUY2CHN ES        913 13.11                              37    0.44 8  210 222 
                                                                                
