 2017 1123 0943 56.7 L   6.342 -73.596106.0  RSN 20 0.7 2.0LRSN                1
 GAP= 53        1.59       3.1     3.1  7.3 -0.1587E+01  0.4949E+01 -0.1806E+01E
 Epicentro: SANTA HELENA DEL OPON - SANTANDER                                  3
 ACTION:UPD 17-12-12 19:59 OP:rebc STATUS:               ID:20171123094356 L   I
 OLDACT:UP  17-11-23 15:31 OP:dani STATUS:               ID:20171123093745     3
 OLDACT:UP  17-11-23 15:30 OP:dani STATUS:               ID:20171123093745     3
 OLDACT:UP  17-11-23 15:30 OP:dani STATUS:               ID:20171123093745     3
 OLDACT:REG 17-11-23 13:25 OP:osc  STATUS:               ID:20171123093745     3
 2017-11-23-0938-00M.COL___450                                                 6
 STAT SP IPHASW D HRMM SECON CODA AMPLIT PERI AZIMU VELO AIN AR TRES W  DIS CAZ7
 BAR2 EZ EP     D  944 13.16                             151    0.2610 53.5  59 
 BAR2 EZ ES        944 26.41                             151    0.8810 53.5  59 
 BAR2 EZ I         944 27.86        64.0 0.26            153           53.5  59 
 RUS  HZ EP        944 14.46                             142   -0.2710 75.4 131 
 RUS  HE ES        944 27.39                             142   -1.4010 75.4 131 
 RUS  HZ I         944 31.34        14.3 0.26            144           75.4 131 
 SPBC HZ EP        944 15.40                             135   -0.1610 92.7 215 
 SPBC HE ES        944 30.98                             135    0.7110 92.7 215 
 PTB  HZ EP        944 14.88                             134   -1.0110 97.6 283 
 PTB  HE ES        944 30.07                             134   -0.7810 97.6 283 
 PTB  HZ I         944 32.27        22.7 0.34            135           97.6 283 
 PAM  EZ EP        944 21.35                             121   -0.09 9  148  42 
 PAM  EN ES        944 40.70                             121   -0.03 9  148  42 
 PAM  EZ I         944 45.58        11.3 0.44            123            148  42 
 NOR  HZ EP        944 22.61                             118   -0.05 9  165 239 
 NOR  HN ES        944 42.99                             118    0.08 9  165 239 
 NOR  HZ I         944 47.61        14.4 0.22            119            165 239 
 YPLC HZ EP        944 23.03                             117   -0.23 9  170 128 
 YPLC HN ES        944 44.64                             117    0.66 9  170 128 
 YPLC HZ I         944 45.93        31.2 0.56            119            170 128 
 ROSC BZ EP        944 26.62                             115    1.42 9  184 206 
 ROSC BN ES        944 48.65                             115    1.22 9  184 206 
 ZAR  HZ EP        944 24.76                             114   -0.44 9  189 312 
 ZAR  HE ES        944 48.31                             114    0.88 9  189 312 
 ZAR  HZ I         944 51.75        29.3 0.30            115            189 312 
 CHI  HZ EP        944 25.62                             114   -0.22 9  190 185 
 CHI  HN ES        944 47.86                             114   -0.71 9  190 185 
 CHI  HZ I         944 52.42         5.8 0.42            116            190 185 
 TAM  HZ EP        944 25.98                             112   -0.51 9  200  87 
 TAM  HN ES        944 49.58                             112   -0.15 9  200  87 
 OCA  HZ EP        944 29.17                             111    1.17 8  212   8 
 OCA  HN ES        944 52.70                             111    0.28 8  212   8 
 OCA  HZ I         944 57.76        33.2 0.24            113            212   8 
 HEL  HZ EP        944 28.78                             111    0.22 8  215 266 
 HEL  HN ES        944 53.36                             111   -0.04 8  215 266 
 HEL  HZ I         944 59.64         6.0 0.28            112            215 266 
 GUY2CHZ EP        944 30.72                             109    0.07 8  232 238 
 GUY2CHE ES   3    944 59.51                             109    2.38 2  232 238 
 GUY2CHZ I         945  5.88         4.8 0.58                           232 238 
 URE  HZ EP        944 32.99                             106   -0.94 8  265 306 
 URE  HN ES   4    945  0.19                             106   -2.78 0  265 306 
 URE  HZ I         945  2.99        12.9 0.14            107            265 306 
 CBOC HZ EP        944 35.29                             105    0.24 8  273 259 
 CBOC HN ES        945  3.72                             105   -1.24 8  273 259 
 CBOC HZ I         945  6.72         1.9 0.24            107            273 259 
 PRA  HZ EP        944 40.47                             102   -0.50 7  324 206 
 PRA  HN ES        945 15.70                             102    0.20 7  324 206 
 PRA  HZ I         945 21.62         8.0 0.26            103            324 206 
 ORTC HZ EP        944 41.27                             102    0.13 7  325 214 
 ORTC HN ES   3    945 17.55                             102    1.75 2  325 214 
 ORTC HZ I         945 23.38         6.8 0.38            103            325 214 
 DRL03HZ EP        944 42.58                             101    0.04 7  338   2 
 DRL03HE ES        945 18.66                             101    0.36 7  338   2 
 SJC  HZ EP   9    944 52.10                              96   -1.69 0  430 336 
 SJC  HN ES        945 36.10                              97   -0.53 5  430 336 
 SJC  HZ I         945 39.29         2.0 0.66             98            430 336 
                                                                                
