 2015 1123 0350 25.4 L   6.791 -73.198142.0  RSN  9 0.4 1.8LRSN                1
 GAP=130        1.07       2.9     5.0  6.0 -0.6722E+00  0.8982E+01 -0.9618E+00E
 Epicentro: ZAPATOCA - SANTANDER                                               3
 ACTION:UPD 15-12-28 16:12 OP:cam  STATUS:               ID:20151123033750dL   I
 OLDACT:DUP 15-11-23 16:40 OP:drio STATUS:               ID:20151123033750dL   3
 2015-11-23-0337-48M.COL___211                                                 6
 STAT SP IPHASW D HRMM SECON CODA AMPLIT PERI AZIMU VELO AIN AR TRES W  DIS CAZ7
 BAR2 EZ EP        350 44.89                             171    0.3310 22.1 175 
 BAR2 EZ ES        350 58.66                             171   -0.8410 22.1 175 
 BAR2 EZ I         351  1.66        15.5 0.30            170           22.1 175 
 BRR  HN EP        350 46.62                             153    0.7210 66.7 302 
 BRR  HZ ES        351  2.05                             153    0.1710 66.7 302 
 BRR  HN I         351  4.25        33.6 0.34            151           66.7 302 
 PAM  EZ EP        350 47.76                             149    0.2610 81.9  42 
 PAM  EN ES        351  4.97                             149    0.2310 81.9  42 
 PAM  EZ I         351  7.09         6.4 0.58            153           81.9  42 
 RUS  HZ EP        350 48.81                             143    0.0510  100 173 
 RUS  HE ES        351  7.10                             143    0.1210  100 173 
 RUS  HZ I         351  8.56         4.0 0.50            145            100 173 
 SPBC HZ EP        350 53.41                             129    0.20 9  159 218 
 SPBC HN ES        351 14.62                             129   -0.27 9  159 218 
 SPBC HZ I         351 20.11         5.7 0.16            130            159 218 
 OCA  HZ EP        350 53.01                             129   -0.45 9  161 355 
 OCA  HN ES        351 15.34                             129   -0.00 9  161 355 
 OCA  HZ I         351 18.78        10.3 0.22            131            161 355 
 ZAR  HZ EP        350 56.73                             122   -0.36 9  199 293 
 ZAR  HN ES        351 22.47                             122    0.66 9  199 293 
 ZAR  HZ I         351 29.55         5.4 0.24            123            199 293 
 SML  HZ EP        351  1.12                             117   -0.54 8  242 337 
 SML  HE ES        351 29.37                             117   -0.57 8  242 337 
 MON  HZ EP   4    351 11.82                             108   -1.99 0  350 309 
 MON  HN ES   4    351 50.89                             108   -0.68 0  350 309 
 PRA  HZ EP        351 18.68                             106    0.31 6  388 209 
 PRA  HN ES        351 59.04                             106   -0.64 6  388 209 
 PRA  HZ I         352  6.14         2.8 0.32            107            388 209 
 SJC  HZ EP   4    351 19.21                             105   -1.37 0  407 328 
 SJC  HN ES   4    352  0.33                             105   -3.27 0  407 328 
                                                                                
