 2016  223 0023 42.0 L   6.808 -73.138147.0  RSN 18 0.4 2.5LRSN                1
 GAP= 71        0.98       3.0     2.9  4.9 -0.9876E+00  0.3216E+01  0.3870E+01E
 Epicentro: LOS SANTOS - SANTANDER                                             3
 ACTION:UPD 16-03-04 21:28 OP:rebc STATUS:               ID:20160223002342 L   I
 OLDACT:UP  16-02-23 13:54 OP:mh   STATUS:               ID:20160223001749     3
 OLDACT:UP  16-02-23 13:53 OP:mh   STATUS:               ID:20160223001749     3
 OLDACT:UP  16-02-23 13:53 OP:mh   STATUS:               ID:20160223001749     3
 OLDACT:REG 16-02-23 13:01 OP:mh   STATUS:               ID:20160223001749     3
 2016-02-23-0017-49M.COL___325                                                 6
 STAT SP IPHASW D HRMM SECON CODA AMPLIT PERI AZIMU VELO AIN AR TRES W  DIS CAZ7
 BAR2 EZ EP        024  1.91                             170    0.1110 24.4 192 
 BAR2 EZ ES        024 17.17                             170   -0.0810 24.4 192 
 BAR2 EZ I         024 18.17        86.0 0.28            168           24.4 192 
 BRR  HZ EP        024  3.69                             153    0.3910 71.5 298 
 BRR  HN ES        024 20.61                             153    0.6910 71.5 298 
 BRR  HZ I         024 24.67        52.2 0.16            146           71.5 298 
 PAM  EZ EP     C  024  4.72                             151    0.4510 76.1  39 
 PAM  EE ES        024 21.76                             151    0.1110 76.1  39 
 PAM  EZ I         024 23.94        48.5 0.52            151           76.1  39 
 RUS  HZ EP        024  5.81                             144   -0.1310  101 177 
 RUS  HN ES   1    024 24.74                             144    0.13 7  101 177 
 RUS  HZ I         024 25.69        23.8 0.18            143            101 177 
 PTB  HZ EP     C  024  8.57                             132   -0.59 9  149 259 
 PTB  HN ES        024 29.48                             132   -0.87 9  149 259 
 PTB  HZ I         024 35.87        31.6 0.36            127            149 259 
 TAM  HZ IP     D  024 10.34                             131    0.62 9  154 105 
 TAM  HE ES        024 30.39                             131   -0.95 9  154 105 
 TAM  HZ I         024 30.88        21.7 0.38            131            154 105 
 OCA  HZ EP   1    024  9.70                             130   -0.63 7  159 353 
 OCA  HN ES        024 32.12                             130   -0.31 9  159 353 
 OCA  HZ I         024 34.55        65.0 0.28            126            159 353 
 SPBC HZ EP   1    024 10.81                             129    0.09 7  164 219 
 SPBC HN ES   1    024 33.71                             129    0.60 7  164 219 
 ZAR  HZ EP   1    024 14.23                             123   -0.35 6  205 292 
 ZAR  HN ES   1    024 40.01                             123    0.03 6  205 292 
 ZAR  HZ I         024 44.69        36.2 0.30            118            205 292 
 NOR  HZ EP        024 18.07                             119    0.13 8  236 234 
 NOR  HN ES        024 45.55                             119   -0.42 8  236 234 
 NOR  HZ I         024 55.06        23.5 0.44            115            236 234 
 CHI  HZ EP     C  024 20.11                             117    0.22 8  250 195 
 CHI  HN ES        024 49.47                             117    0.03 8  250 195 
 CHI  HZ I         024 52.53        22.2 0.66            115            250 195 
 ROSC BZ EP   1    024 20.89                             117    0.57 6  254 211 
 ROSC BN ES   4    024 49.48                             117   -0.74 0  254 211 
 ROSC BZ I         024 56.50        52.1 0.40            114            254 211 
 HEL  HZ EP        024 22.36                             115   -0.04 8  273 256 
 HEL  HN ES        024 54.24                             115    0.34 8  273 256 
 HEL  HZ I         024 59.41        16.0 0.30            112            273 256 
 URE  HZ EP   4    024 21.40                             114   -1.78 0  284 292 
 URE  HN ES   4    024 54.84                             114   -0.47 0  284 292 
 SOCV BZ EP   4    024 23.66                             112   -1.30 0  300  57 
 SOCV BN ES   4    024 54.27                             112   -4.21 0  300  57 
 GUY2CHZ EP   1    024 25.99                             112    0.18 5  302 235 
 GUY2CHN ES   4    025  2.58                             112    2.60 0  302 235 
 GUY2CHZ I         025  7.88        18.7 0.36                           302 235 
 DBB  SZ EP   1    024 29.78                             110    0.16 5  340 274 
 DBB  SZ I         025  9.77        37.7 0.34            107            340 274 
 ANIL HZ EP   4    024 34.15                             109    2.15 0  359 225 
 ANIL HE ES   4    025 12.85                             109    1.85 0  359 225 
 ORTC HZ EP   1    024 35.77                             106   -0.34 4  397 216 
 ORTC HN ES        025 18.25                             106   -0.07 6  397 216 
 ORTC HZ I         025 22.97        12.6 0.26            104            397 216 
 PAL  HZ EP        024 37.29                             106   -0.05 6  407 239 
 PAL  HN ES   4    025 18.89                             106   -1.62 0  407 239 
 SJC  HZ EP   4    024 36.12                             106   -1.45 0  409 327 
 SJC  HN ES   4    025 16.97                             106   -3.94 0  409 327 
 SJC  HZ I         025 29.03         5.5 0.28            104            409 327 
 MACC HZ EP   4    024 46.95                             102   -3.92 0  522 189 
 MACC HN ES   4    025 40.91                             102   -3.67 0  522 189 
                                                                                
