 2012  723 0915 45.6 L   6.786 -73.140148.5  RSN 10 0.5 2.3LRSN                1
 GAP=111        1.17       5.5     5.1  8.1  0.4309E+01  0.2956E+01 -0.1418E+01E
 Epicentro: LOS SANTOS - SANTANDER                                             3
 ACTION:UPD 12-08-14 11:44 OP:ep   STATUS:               ID:20120723091545 L   I
 2012-07-23-0910-00M.COL___215                                                 6
 STAT SP IPHASW D HRMM SECON CODA AMPLIT PERI AZIMU VELO AIN AR TRES W  DIS CAZ7
 BAR2 SZ EP        916  5.53                             171     0.010   22 192 
 BAR2 SZ ES   1    916 20.65                             171    -0.4 7   22 192 
 BAR2 SZ I         916 23.31        51.1 0.42            172             22 192 
 BRR  HZ IP     D  916  7.46                             153     0.410   72 299 
 BRR  HN ES   1    916 24.92                             153     1.1 7   72 299 
 RUS  HZ EP        916  9.53                             145     0.110   99 176 
 RUS  HN ES   1    916 27.62                             145    -0.5 7   99 176 
 RUS  HZ I         916 29.23        14.1 0.30            145             99 176 
 PTB  HZ EP        916 12.19                             133    -0.6 9  148 259 
 PTB  HN ES   1    916 33.49                             133    -0.5 7  148 259 
 PTB  HZ I         916 40.80        26.0 0.38            127            148 259 
 TAM  HZ EP        916 13.62                             131     0.2 9  154 104 
 TAM  HZ I         916 13.80        14.3 0.32            130            154 104 
 TAM  HN ES   1    916 35.12                             131     0.1 7  154 104 
 OCA  HZ EP        916 13.69                             130    -0.6 9  162 353 
 OCA  HZ I         916 40.66        45.7 0.46            124            162 353 
 ZAR  HZ EP        916 18.32                             123     0.0 9  205 292 
 ZAR  HN ES   2    916 44.09                             123     0.2 4  205 292 
 ZAR  HZ I         916 50.88        19.2 0.22            117            205 292 
 NOR  SZ EP        916 21.56                             119     0.2 8  234 235 
 CHI  HZ EP        916 23.66                             118     0.4 8  247 195 
 CHI  HN ES   1    916 52.28                             118    -0.4 6  247 195 
 CHI  HZ I         917  0.64         7.8 0.52            115            247 195 
 ROSC BN ES   2    916 54.65                             117     1.2 4  252 211 
 ROSC BZ I         917  3.07        20.5 0.45            114            252 211 
