 2012 1123 0633 48.3 L   6.788 -73.145149.8  RSN  7 0.4 1.3LRSN                1
 GAP=137        0.85       5.0     6.1  8.5  0.5322E+01  0.2542E+02  0.9866E+01E
 Epicentro: LOS SANTOS - SANTANDER                                             3
 ACTION:UPD 12-12-05 15:35 OP:}ep  STATUS:               ID:20121123063348 L   I
 2012-11-23-0630-00M.COL___233                                                 6
 STAT SP IPHASW D HRMM SECON CODA AMPLIT PERI AZIMU VELO AIN AR TRES W  DIS CAZ7
 BAR2 SZ EP   1    634  8.26                             171   -0.10 7 22.0 191 
 BAR2 SZ ES   1    634 24.60                             171    0.57 7 22.0 191 
 BAR2 SZ I         634 26.37         6.5 0.16                          22.0 191 
 GIR2 SZ ES   1    634 23.63                             167   -0.57 7 32.6 351 
 GIR2 SZ I         634 26.76         2.4 0.22                          32.6 351 
 PAM  SN ES   1    634 28.47                             151   -0.22 7 78.4  39 
 RUS  HZ EP   1    634 12.42                             145    0.10 7 99.2 176 
 RUS  HN ES   1    634 31.56                             145    0.48 7 99.2 176 
 RUS  HZ I         634 33.69         1.8 0.46                          99.2 176 
 PTB  HZ EP   1    634 15.40                             133   -0.15 7  148 259 
 PTB  HN ES   1    634 36.20                             133   -0.62 7  148 259 
 PTB  HZ I         634 38.17         3.4 0.21                           148 259 
 ZAR  HZ EP   1    634 21.35                             123    0.32 6  205 292 
 ZAR  HN ES   1    634 47.28                             123    0.69 6  205 292 
 ZAR  HZ I         634 53.43         3.2 0.26                           205 292 
 CHI  HN ES   1    634 55.00                             118   -0.52 6  247 195 
 CHI  HZ I         635  1.08         1.0 0.31                           247 195 
                                                                                
