 2010  823 0935 11.2 L   6.065 -73.676114.8  RSN  7 0.2 1.3LRSN                1
 GAP=176        0.45       3.4    10.7  8.8 -0.2561E+02  0.6955E+02 -0.1384E+02E
 Epicentro: CHIPATA - SANTANDER                                                3
 ACTION:UP  10-09-07 10:57 OP:vdl  STATUS:               ID:20100823093511 L   I
 2010-08-23-0933-48S.COL___120                                                 6
 STAT SP IPHASW D HRMM SECON CODA AMPLIT PERI AZIMU VELO SNR AR TRES W  DIS CAZ7
 RUS  HZ EP   1    935 29.65                             146     0.0 7   68 106 
 RUS  HN ES   2    935 43.94                             146     0.0 5   68 106 
 RUS  HZ I         935 45.09         3.7 0.28                            68 106 
 BAR2 SZ EP   1    935 30.26                             142     0.2 7   80  43 
 BAR2 SZ ES   2    935 44.26                             142    -0.5 5   80  43 
 BAR2 SZ I         935 46.38        14.5 0.35                            80  43 
 BTL  SZ EP   1    935 32.23                             134     0.2 7  105  26 
 BTL  SZ ES   2    935 48.48                             134     0.2 5  105  26 
 GIR2 SZ EP   2    935 33.88                             129     0.2 5  124  25 
 CHI  HZ EP   1    935 37.44                             122    -0.1 7  159 182 
 CHI  HE ES   2    935 58.15                             122     0.1 5  159 182 
 CHI  HZ I         936  5.56         2.1 0.46                           159 182 
 GUE  SZ EP   1    935 42.78                             114    -0.4 6  212  23 
 PRA  HZ I         935 55.54         0.9 0.39                           293 207 
 PRA  HE ES   2    936 23.67                             106    -0.2 4  293 207 
                                                                                
