 2017  823 0620 57.3 L   5.943 -73.753111.0  RSN  5 0.3 0.7LRSN                1
 GAP=133        0.72       3.7     3.1  6.0 -0.5806E+01  0.5085E+01 -0.6964E+01E
 Epicentro: SUCRE - SANTANDER                                                  3
 ACTION:UPD 17-09-04 20:23 OP:rebc STATUS:               ID:20170823062057 L   I
 OLDACT:DUP 17-08-23 16:26 OP:osc  STATUS:               ID:20170823061740d    3
 OLDACT:UP  17-08-23 16:22 OP:osc  STATUS:               ID:20170823061739d    3
 OLDACT:DUP 17-08-23 16:15 OP:osc  STATUS:               ID:20170823061739d    3
 2017-08-23-0618-00M.COL___405                                                 6
 STAT SP IPHASW D HRMM SECON CODA AMPLIT PERI AZIMU VELO AIN AR TRES W  DIS CAZ7
 SPBC HZ EP   4    621  8.47                             155   -5.05 0 47.8 228 
 SPBC HN ES        621 25.73                             155   -0.4310 47.8 228 
 RUS  HZ EP        621 15.40                             144   -0.3410 74.3  94 
 RUS  HN ES        621 30.45                             144    0.3310 74.3  94 
 RUS  HZ I         621 39.73         0.7 0.20            144           74.3  94 
 BAR2 EZ EP        621 17.11                             136    0.0710 95.6  41 
 BAR2 EZ ES        621 32.58                             136    0.1410 95.6  41 
 BRR  HZ EP        621 19.54                             127   -0.2210  129   2 
 BRR  HE ES        621 37.26                             127   -0.0210  129   2 
 BRR  HZ I         621 40.25         1.4 0.23            132            129   2 
 NOR  HZ EP        621 20.20                             126    0.1910  131 251 
 NOR  HE ES        621 38.04                             126    0.3110  131 251 
                                                                                
