 2015  823 0200 12.6 L   6.802 -73.096142.1  RSN 10 0.5 2.1LRSN                1
 GAP=143        1.19       3.6     5.6  6.8 -0.4503E+01  0.1603E+02 -0.3809E+01E
 Epicentro: LOS SANTOS - SANTANDER                                             3
 ACTION:UPD 15-09-15 23:04 OP:cam  STATUS:               ID:20150823020013dL   I
 OLDACT:REG 15-08-23 14:23 OP:ar   STATUS:               ID:20150823015748     3
 2015-08-23-0157-48M.COL___343                                                 6
 STAT SP IPHASW D HRMM SECON CODA AMPLIT PERI AZIMU VELO AIN AR TRES W  DIS CAZ7
 BAR2 EZ EP        2 0 31.88                             170    0.0610 25.1 202 
 BAR2 EZ ES        2 0 46.27                             170   -0.5510 25.1 202 
 BAR2 EZ I         2 0 47.71        25.2 0.20            168           25.1 202 
 PAM  EZ EP        2 0 34.80                             151    0.5910 73.8  36 
 PAM  EN ES        2 0 51.55                             151    0.4810 73.8  36 
 PAM  EZ I         2 0 52.08        11.4 0.38            154           73.8  36 
 BRR  HZ IP     C  2 0 33.82                             150    0.1910 75.9 296 
 BRR  HN ES        2 0 50.54                             150    0.5110 75.9 296 
 BRR  HZ I         2 0 51.58        17.2 0.14            148           75.9 296 
 RUS  HN ES        2 0 54.28                             143    0.0510  101 179 
 RUS  HZ I         2 0 55.43        12.7 0.26            145            101 179 
 OCA  HZ EP        2 0 40.26                             129   -0.41 9  161 351 
 OCA  HN ES        2 1  2.01                             129   -0.56 9  161 351 
 OCA  HZ I         2 1  3.86        31.0 0.56            129            161 351 
 SPBC HZ EP        2 0 40.99                             127   -0.18 9  167 220 
 SPBC HE ES        2 1  2.52                             127   -0.93 9  167 220 
 SPBC HZ I         2 1  6.07        18.7 0.26            128            167 220 
 ZAR  HZ EP        2 0 44.99                             121   -0.33 8  209 292 
 ZAR  HN ES        2 1 10.74                             121   -0.11 8  209 292 
 ZAR  HZ I         2 1 17.84        13.0 0.26            121            209 292 
 SML  HZ EP        2 0 48.52                             116   -0.73 8  246 334 
 SML  HE ES        2 1 18.03                             116    0.19 8  246 334 
 SML  HZ I         2 1 19.92        11.4 0.10            117            246 334 
 HEL  HZ EP        2 0 54.29                             113    1.07 7  277 256 
 HEL  HN ES   2    2 1 25.48                             113    0.57 4  277 256 
 HEL  HZ I         2 1 31.17         6.8 0.42            114            277 256 
 GUY2CHZ EP        2 0 56.76                             111    0.20 7  306 235 
 GUY2CHN ES        2 1 31.37                             111    0.52 7  306 235 
 GUY2CHZ I         2 1 39.08         3.3 0.58                           306 235 
                                                                                
