 2016 1123 0723 52.9 L   6.074 -73.657125.4  RSN 17 0.6 2.1LRSN                1
 GAP= 62        1.04       2.7     3.0  6.5 -0.2756E+01  0.1578E+01  0.5134E+01E
 Epicentro: CHIPATA - SANTANDER                                                3
 ACTION:UPD 17-10-26 21:10 OP:lp   STATUS:               ID:20161123072352 L   I
 OLDACT:UP  16-11-23 17:17 OP:dani STATUS:               ID:20161123071746     3
 OLDACT:UP  16-11-23 17:17 OP:dani STATUS:               ID:20161123071746     3
 OLDACT:UP  16-11-23 17:16 OP:dani STATUS:               ID:20161123071746     3
 OLDACT:REG 16-11-23 16:55 OP:dani STATUS:               ID:20161123071746     3
 2016-11-23-0718-00M.COL___352                                                 6
 STAT SP IPHASW D HRMM SECON CODA AMPLIT PERI AZIMU VELO AIN AR TRES W  DIS CAZ7
 BAR2 EZ EP     D  724 12.98                             146    0.2810 77.7  43 
 BAR2 EZ ES        724 27.53                             146   -0.5810 77.7  43 
 BAR2 EZ I         724 29.28        92.1 0.50            143           77.7  43 
 PTB  HZ EP        724 13.44                             138   -0.7910  102 300 
 PTB  HN ES   3    724 29.17                             138   -1.66 2  102 300 
 PTB  HZ I         724 31.98        23.1 0.14            136            102 300 
 BRR  HZ EP        724 15.60                             135    0.3810  114 357 
 BRR  HE ES        724 32.62                             135    0.0210  114 357 
 BRR  HZ I         724 35.79        17.3 0.20            132            114 357 
 NOR  HZ EP        724 17.99                             127   -0.19 9  146 247 
 NOR  HN ES        724 37.93                             127    0.07 9  146 247 
 NOR  HZ I         724 39.52        26.0 0.24            125            146 247 
 ROSC BZ EP   2    724 20.67                             126    1.12 5  155 208 
 ROSC BN ES        724 40.83                             126    0.53 9  155 208 
 ROSC BZ I         724 47.71        16.5 0.39            123            155 208 
 CHI  HZ EP        724 19.86                             125   -0.21 9  160 183 
 CHI  HN ES   3    724 39.98                             125   -1.25 2  160 183 
 CHI  HZ I         724 43.52        12.7 0.32            122            160 183 
 PAM  EZ EP        724 22.26                             122    0.51 9  175  37 
 PAM  EN ES        724 44.53                             122    0.32 9  175  37 
 PAM  EZ I         724 47.22        15.6 0.30            119            175  37 
 ZAR  HZ EP        724 24.70                             117    0.40 8  205 320 
 ZAR  HN ES        724 48.81                             117    0.05 8  205 320 
 ZAR  HZ I         724 53.61        10.4 0.19            115            205 320 
 TAM  HZ EP        724 25.26                             117    0.38 8  210  79 
 TAM  HZ I         724 49.09         9.1 0.12            114            210  79 
 TAM  HE ES        724 49.86                             117    0.08 8  210  79 
 ANIL HZ EP        724 30.19                             111   -0.66 8  261 228 
 CBOC HZ EP        724 31.58                             111    0.79 8  262 265 
 CBOC HN ES   3    725  1.55                             111    1.25 2  262 265 
 CBOC HZ I         725  4.72         5.2 0.55            109            262 265 
 PTGC HZ EP        724 30.58                             111   -0.64 8  267 141 
 PTGC HN ES   3    724 59.73                             111   -1.34 2  267 141 
 PTGC HZ I         725  3.89         8.0 0.30            108            267 141 
 URE  HZ EP        724 31.90                             110   -0.56 7  278 312 
 URE  HN ES   4    724 59.46                             110   -3.81 0  278 312 
 URE  HZ I         725 12.09         8.3 0.10            107            278 312 
 PRA  HZ EP        724 33.76                             108   -0.61 7  294 208 
 PRA  HE ES        725  6.94                             108    0.25 7  294 208 
 PRA  HZ I         725  9.96         9.6 0.32            106            294 208 
 ORTC HZ EP        724 34.27                             108   -0.43 7  297 216 
 ORTC HN ES        725  7.96                             108    0.70 7  297 216 
 ORTC HZ I         725 12.18         5.9 0.17            106            297 216 
 YOT  HZ EP        724 43.96                             103   -0.22 6  377 232 
 SJC  HZ EP        724 53.10                             100   -0.26 5  455 338 
 SJC  HN ES   3    725 38.34                             100   -2.15 1  455 338 
 SJC  HZ I         725 44.91         3.4 0.81             98            455 338 
                                                                                
