 2016  623 0325 18.3 L   6.505 -73.583110.6  RSN  7 0.4 1.3LRSN                1
 GAP= 90        1.04       4.1     4.0  8.6  0.3665E+01  0.7238E+01  0.1315E+00E
 Epicentro: SANTA HELENA DEL OPON - SANTANDER                                  3
 ACTION:UPD 16-07-21 22:21 OP:rebc STATUS:               ID:20160623032518 L   I
 OLDACT:DUP 16-06-23 14:30 OP:ak   STATUS:               ID:20160623031745d    3
 OLDACT:REG 16-06-23 12:22 OP:ak   STATUS:               ID:20160623031744     3
 2016-06-23-0317-44M.COL___337                                                 6
 STAT SP IPHASW D HRMM SECON CODA AMPLIT PERI AZIMU VELO AIN AR TRES W  DIS CAZ7
 BAR2 EZ IP     C  325 34.56                             156   -0.0210 45.3  78 
 BAR2 EZ ES        325 47.26                             156   -0.0110 45.3  78 
 BAR2 EZ I         325 48.22         7.3 0.52                          45.3  78 
 BRR  HZ EP        325 35.49                             146   -0.0910 68.1 348 
 BRR  HE ES        325 49.28                             146    0.2310 68.1 348 
 BRR  HZ I         325 52.62         2.9 0.38                          68.1 348 
 RUS  HZ EP        325 37.44                             139   -0.2710 87.4 141 
 RUS  HN ES        325 52.84                             139    0.0010 87.4 141 
 RUS  HZ I         325 54.80         2.7 0.05                          87.4 141 
 PTB  HZ EP        325 37.45                             136   -0.3710 96.7 272 
 PTB  HN ES        325 52.25                             136   -0.7810 96.7 272 
 PTB  HZ I         325 53.42         7.0 0.06                          96.7 272 
 SPBC HZ EP   2    325 39.53                             132    0.55 5  109 210 
 SPBC HN ES        325 55.76                             132    0.6610  109 210 
 SPBC HZ I         326  1.74         5.2 0.09                           109 210 
 ZAR  HN ES        326  8.10                             117    0.69 9  178 308 
 GUY2CHZ EP   9    325 56.70                             109    2.95 0  243 234 
 GUY2CHE ES        326 24.10                             114   -0.24 8  243 234 
                                                                                
