 2011  123 0225 24.9 L   6.772 -73.032142.0  RSN  5 0.3 1.3LRSN                1
 GAP=172        0.50       4.2    19.6  6.3 -0.6552E+02  0.2597E+02 -0.6965E+01E
 Epicentro: CEPITA - SANTANDER                                                 3
 ACTION:UP  11-02-08 08:42 OP:pat  STATUS:               ID:20110123022524 L   I
 2011-01-23-0223-05S.COL___138                                                 6
 STAT SP IPHASW D HRMM SECON CODA AMPLIT PERI AZIMU VELO SNR AR TRES W  DIS CAZ7
 BAR2 SZ ES   2    225 59.14                             169     0.0 5   26 220 
 BAR2 SZ I         226  0.22        10.1 0.30                            26 220 
 RUS  HZ EP   1    225 47.90                             144    -0.1 8   97 183 
 RUS  HN ES   1    226  6.09                             144     0.0 8   97 183 
 RUS  HZ I         226  8.46         1.7 0.30                            97 183 
 GRA  SZ IP        225 49.72                             136    -0.110  126  12 
 GRA  SZ I         225 51.01         2.7 0.53                           126  12 
 GRA  SZ ES   1    226  9.32                             136     0.1 7  126  12 
 OCA  SZ EP   2    225 53.16                             128    -0.2 5  165 349 
 CHI  HZ EP   2    226  3.29                             116     0.9 4  249 198 
 CHI  HE ES   2    226 31.49                             116    -0.2 4  249 198 
 CHI  HZ I         226 36.84         1.1 0.58                           249 198 
                                                                                
