 2017 1023 0526 38.9 L   6.795 -73.096142.1  RSN 10 0.5 1.7LRSN                1
 GAP=242        1.04       4.5     5.8  6.2  0.3403E+01  0.1286E+02  0.7644E+00E
 Epicentro: LOS SANTOS - SANTANDER                                             3
 ACTION:UPD 17-11-07 19:35 OP:rebc STATUS:               ID:20171023052638 L   I
 OLDACT:DUP 17-10-23 16:36 OP:dhb  STATUS:               ID:20171023051015d    3
 OLDACT:REG 17-10-23 12:36 OP:dhb  STATUS:               ID:20171023051014     3
 2017-10-23-0518-00M.COL___390                                                 6
 STAT SP IPHASW D HRMM SECON CODA AMPLIT PERI AZIMU VELO AIN AR TRES W  DIS CAZ7
 BAR2 EZ EP        526 58.27                             170    0.1610 24.4 203 
 BAR2 EZ ES        527 12.77                             170   -0.3310 24.4 203 
 BAR2 EZ I         527 14.23         9.1 0.11            172           24.4 203 
 BRR  HZ EP        527  0.21                             150    0.2610 76.3 297 
 BRR  HN ES        527 16.82                             150    0.4410 76.3 297 
 BRR  HZ I         527 18.66        12.0 0.14            143           76.3 297 
 RUS  HN ES        527 20.34                             143   -0.1010 99.8 179 
 RUS  HZ I         527 27.19         3.9 0.18            137           99.8 179 
 PTB  HZ EP        527  6.13                             130    0.07 9  153 259 
 PTB  HE ES        527 26.45                             130   -0.80 9  153 259 
 PTB  HZ I         527 29.16         7.2 0.34            123            153 259 
 SPBC HZ EP        527  7.51                             128    0.09 9  166 221 
 SPBC HE ES        527 29.90                             128    0.23 9  166 221 
 SPBC HZ I         527 35.46         5.9 0.20            120            166 221 
 ZAR  HZ EP        527 11.29                             121   -0.37 8  209 292 
 ZAR  HE ES        527 37.97                             121    0.75 8  209 292 
 ZAR  HZ I         527 43.19         7.3 0.22            113            209 292 
 NOR  HZ EP        527 15.60                             117    0.73 8  239 235 
 NOR  HE ES        527 42.77                             117   -0.16 8  239 235 
 NOR  HZ I         527 48.98         3.8 0.14            110            239 235 
 URE  HZ EP        527 19.49                             112   -0.90 7  289 292 
 URE  HZ I         528  3.90         3.7 0.36            105            289 292 
 GUY2CHZ EP        527 22.23                             111   -0.59 7  305 235 
 GUY2CHE ES        527 56.91                             111   -0.17 7  305 235 
 GUY2CHZ I         528  9.41         1.8 0.24                           305 235 
 PRA  HZ EP   2    527 33.30                             106    0.74 3  394 210 
 PRA  HE ES   2    528 15.43                             106    1.01 3  394 210 
 PRA  HZ I         528 22.60         1.6 0.24             99            394 210 
                                                                                
