 2017  123 0547 50.5 L   6.787 -73.077147.4  RSN  4 0.3 0.9LRSN                1
 GAP=146        0.91       4.9     7.3  7.4 -0.1066E+01 -0.3822E+01  0.1482E+01E
 Epicentro: LOS SANTOS - SANTANDER                                             3
 ACTION:UPD 17-05-22 16:02 OP:jn   STATUS:               ID:20170123054750 L   I
 OLDACT:DUP 17-01-23 16:57 OP:lv   STATUS:               ID:20170123053740d    3
 2017-01-23-0538-00M.COL___343                                                 6
 STAT SP IPHASW D HRMM SECON CODA AMPLIT PERI AZIMU VELO AIN AR TRES W  DIS CAZ7
 BAR2 EZ EP        548 10.02                             170   -0.3510 24.4 208 
 BAR2 EZ ES        548 25.25                             170   -0.6010 24.4 208 
 BAR2 EZ I         548 28.00         2.5 0.25            171           24.4 208 
 PAM  EZ EP        548 12.85                             152    0.1410 74.0  34 
 PAM  EN ES        548 30.15                             152    0.1310 74.0  34 
 PAM  EZ I         548 32.37         1.4 0.32            153           74.0  34 
 BRR  HZ EP        548 11.99                             150   -0.2810 78.6 297 
 BRR  HE ES        548 29.67                             150    0.4310 78.6 297 
 RUS  HZ EP        548 14.50                             145    0.1910 98.9 180 
 RUS  HN ES        548 33.20                             145    0.3410 98.9 180 
 RUS  HZ I         548 35.49         1.1 0.34            146           98.9 180 
                                                                                
