 2012  423 0230 29.5 L   6.786 -73.149149.3  RSN  5 0.5 1.3LRSN                1
 GAP=137        1.03       7.6     7.2 11.9 -0.5869E+01  0.5387E+01  0.1309E+02E
 Epicentro: LOS SANTOS - SANTANDER                                             3
 ACTION:UPD 12-07-05 11:55 OP:tino STATUS:               ID:20120423023029 L   I
 2012-04-23-0230-00M.COL___186                                                 6
 STAT SP IPHASW D HRMM SECON CODA AMPLIT PERI AZIMU VELO AIN AR TRES W  DIS CAZ7
 BAR2 SZ EP   1    230 49.53                             171     0.0 7   22 190 
 BRR  HZ EP   1    230 51.44                             153     0.4 7   72 300 
 BRR  HZ I         230 51.83         6.6 0.10                            72 300 
 BRR  HN ES   1    231  8.64                             153     0.8 7   72 300 
 PAM  SZ EP   1    230 52.38                             151     0.2 7   79  39 
 PAM  SN ES   1    231  9.20                             151    -0.7 7   79  39 
 RUS  HZ EP   1    230 53.71                             145     0.2 7   99 176 
 RUS  HN ES   1    231 12.28                             145     0.1 7   99 176 
 RUS  HZ I         231 13.33         1.7 0.15                            99 176 
 PTB  HZ EP   1    230 56.27                             133    -0.4 7  147 259 
 PTB  HN ES   1    231 17.29                             133    -0.6 7  147 259 
 PTB  HZ I         231 23.40         1.9 0.18                           147 259 
                                                                                
