 2013  123 0230 24.4 L   6.785 -73.148142.4  RSN  5 0.4 1.4LRSN                1
 GAP=137        1.16       6.1     6.0  8.7 -0.3687E+01  0.7886E+01  0.1732E+01E
 Epicentro: LOS SANTOS - SANTANDER                                             3
 ACTION:UPD 13-02-15 09:16 OP:ep   STATUS:               ID:20130123023024 L   I
 2013-01-23-0228-40M.COL___184                                                 6
 STAT SP IPHASW D HRMM SECON CODA AMPLIT PERI AZIMU VELO AIN AR TRES W  DIS CAZ7
 BAR2 SZ ES        230 58.45                             171   -0.0810 21.6 190 
 BAR2 SZ I         230 59.87         7.3 0.16            170           21.6 190 
 BRR  HZ EP        230 45.45                             152    0.2610 71.8 300 
 BRR  HN ES        231  2.19                             152    0.7610 71.8 300 
 BRR  HN I         231  2.90         6.6 0.28            152           71.8 300 
 PAM  SZ EP        230 46.62                             150    0.3010 78.9  39 
 PAM  SZ I         230 46.85         3.9 0.22            152           78.9  39 
 PAM  SN ES        231  2.75                             150   -0.6910 78.9  39 
 RUS  HZ EP        230 47.94                             143    0.2710 98.9 176 
 RUS  HN ES        231  5.89                             143    0.0510 98.9 176 
 RUS  HN I         231  7.82         3.2 0.26            144           98.9 176 
 PTB  HZ EP        230 50.53                             131   -0.49 9  147 259 
 PTB  HN ES        231 11.28                             131   -0.51 9  147 259 
 PTB  HN I         231 14.48         2.1 0.20            131            147 259 
                                                                                
