 2017  123 0945 48.6 L   6.979 -73.144148.5  RSN  8 0.3 1.6LRSN                1
 GAP=126        0.82       3.5     3.6  5.1  0.1751E+01  0.4430E+01  0.3255E+01E
 Epicentro: GIRON - SANTANDER                                                  3
 ACTION:UPD 17-05-22 16:02 OP:jn   STATUS:               ID:20170123094548 L   I
 OLDACT:REG 17-01-23 13:00 OP:lv   STATUS:               ID:20170123093739     3
 2017-01-23-0938-00M.COL___331                                                 6
 STAT SP IPHASW D HRMM SECON CODA AMPLIT PERI AZIMU VELO AIN AR TRES W  DIS CAZ7
 BAR2 EZ EP        946  9.05                             163   -0.0810 43.0 186 
 BAR2 EZ ES        946 25.01                             163   -0.1110 43.0 186 
 BAR2 EZ I         946 26.77        11.4 0.23            163           43.0 186 
 PAM  EZ EP        946 10.37                             156    0.0110 63.2  51 
 PAM  EN ES        946 27.27                             156   -0.0510 63.2  51 
 PAM  EZ I         946 29.23         7.5 0.36            159           63.2  51 
 BRR  HZ EP        946 10.01                             155    0.3110 64.3 283 
 BRR  HN ES        946 26.78                             155    0.6310 64.3 283 
 BRR  HZ I         946 29.50        13.3 0.12            154           64.3 283 
 RUS  HZ EP        946 14.08                             139   -0.0610  120 177 
 RUS  HN ES        946 33.60                             139   -0.4410  120 177 
 RUS  HZ I         946 35.05         2.6 0.22            140            120 177 
 PTB  HZ EP        946 15.87                             132   -0.42 9  153 252 
 PTB  HN ES        946 37.74                             132   -0.13 9  153 252 
 PTB  HZ I         946 39.99         5.0 0.14            132            153 252 
 ZAR  HZ EP        946 20.64                             124    0.05 9  198 287 
 ZAR  HN ES        946 45.10                             124   -0.43 9  198 287 
 ZAR  HZ I         946 51.66         6.0 0.17            124            198 287 
 CHI  HZ EP        946 28.99                             116    0.43 8  268 194 
 CHI  HN ES        947  0.20                             116    0.48 8  268 194 
 CHI  HZ I         947  5.08         1.4 0.36            117            268 194 
 PTGC HZ EP   4    946 33.59                             111   -1.11 0  327 160 
 PTGC HN ES   4    947  8.36                             111   -2.27 0  327 160 
 SJC  HZ EP   4    946 40.67                             107   -1.70 0  393 325 
 SJC  HE ES   4    947 20.65                             107   -3.64 0  393 325 
 SJC  HZ I         947 25.34         0.7 0.27            108            393 325 
                                                                                
