 2010  723 0549  9.8 L   7.134 -73.342118.8  RSN  5 0.2 1.7LRSN                1
 GAP=128        0.68       4.6     6.6  7.4 -0.8873E+01 -0.5024E+01 -0.1260E+02E
 Epicentro: LEBRIJA - SANTANDER                                                3
 ACTION:UPD 10-12-01 15:19 OP:pat  STATUS:               ID:20100723054909 L   I
 2010-07-23-0546-12S.COL___123                                                 6
 STAT SP IPHASW D HRMM SECON CODA AMPLIT PERI AZIMU VELO AIN AR TRES W  DIS CAZ7
 BRR  HZ IP        549 26.41                             160    -0.110   41 266 
 BRR  HN ES   1    549 39.64                             160     0.2 7   41 266 
 BRR  HZ I         549 40.71        12.9 0.22                            41 266 
 BAR2 SZ EP        549 27.96                             150     0.010   63 164 
 BAR2 SZ ES   1    549 41.82                             150    -0.2 7   63 164 
 BAR2 SZ I         549 43.13        26.4 0.13                            63 164 
 GUE  SZ EP   1    549 30.39                             141     0.5 7   90  31 
 GUE  SZ I         549 30.86         5.8 0.09                            90  31 
 GRA  SZ EP        549 30.80                             137     0.110  102  36 
 GRA  SZ I         549 32.52         5.5 0.11                           102  36 
 GRA  SZ ES   1    549 46.85                             137    -0.1 7  102  36 
 OCA  SZ EP        549 32.15                             131    -0.310  122   1 
 OCA  SZ I         549 50.99         9.5 0.51                           122   1 
                                                                                
