 2014  823 0914 57.0 L   6.795 -73.156146.7  RSN  8 0.5 1.9LRSN                1
 GAP= 71        1.42       5.0     4.9  8.3 -0.1604E-01  0.2568E+01 -0.3957E+01E
 Epicentro: LOS SANTOS - SANTANDER                                             3
 ACTION:UPD 14-09-15 21:52 OP:nd   STATUS:               ID:20140823091457 L   I
 OLDACT:REG 14-08-23 15:41 OP:stll STATUS:               ID:20140823090815     3
 2014-08-23-0908-15M.COL___218                                                 6
 STAT SP IPHASW D HRMM SECON CODA AMPLIT PERI AZIMU VELO AIN AR TRES W  DIS CAZ7
 BAR2 SZ EP        915 16.95                             171    0.2510 22.6 188 
 BAR2 SZ ES        915 31.83                             171   -0.2510 22.6 188 
 BAR2 SZ I         915 32.98        18.1 0.16            172           22.6 188 
 BRR  HZ EP        915 16.68                             153   -1.5010 70.5 299 
 BRR  HE ES        915 35.81                             153    1.0910 70.5 299 
 BRR  HZ I         915 41.57        13.6 0.32            152           70.5 299 
 PAM  SZ IP     C  915 19.87                             151    0.5210 78.5  40 
 PAM  SN ES        915 36.54                             151   -0.2710 78.5  40 
 PAM  SZ I         915 39.15        20.5 0.66            153           78.5  40 
 RUS  HZ EP        915 20.87                             144    0.0910  100 175 
 RUS  HN ES        915 39.06                             144   -0.2810  100 175 
 RUS  HZ I         915 40.43        10.8 0.32            148            100 175 
 PTB  HZ EP        915 23.72                             132   -0.19 9  147 259 
 PTB  HN ES        915 44.66                             132   -0.25 9  147 259 
 PTB  HZ I         915 49.58         6.2 0.36            134            147 259 
 TAM  HZ IP     D  915 25.20                             131    0.39 9  156 105 
 TAM  HN ES        915 46.37                             131   -0.14 9  156 105 
 SPBC HZ EP        915 25.82                             129    0.39 9  162 219 
 SPBC HN ES        915 47.85                             129    0.22 9  162 219 
 SPBC HZ I         915 48.73        11.0 0.18            132            162 219 
 SML  HZ EP        915 33.68                             118    0.02 8  244 336 
 SML  HN ES        916  2.25                             118   -0.02 8  244 336 
 SML  HZ I         916  4.69         9.1 0.22            119            244 336 
                                                                                
