 2010  423 0655  6.3 L   6.453 -74.065 80.0  RSN  5 0.4 1.5LRSN                1
 GAP=123        0.59       4.9     3.8 10.5 -0.2606E+01  0.1533E+02  0.1654E+02E
 Epicentro: CIMITARRA - SANTANDER                                              3
 ACTION:UPD 10-08-24 10:00 OP:vdl  STATUS:               ID:20100423065515 L   I
 2010-04-23-0651-41S.COL___104                                                 6
 STAT SP IPHASW D HRMM SECON CODA AMPLIT PERI AZIMU VELO AIN AR TRES W  DIS CAZ7
 BRR  HZ IP     D  655 21.79                             130    -0.110   82  28 
 BRR  HN ES   1    655 34.33                             130     0.2 7   82  28 
 BAR2 SZ IP        655 23.83                             125     0.010   99  81 
 BAR2 SZ ES   1    655 37.50                             125     0.0 7   99  81 
 HEL  HZ EP   2    655 30.82                             111    -0.5 5  165 260 
 HEL  HE ES   2    655 50.89                             111     0.1 5  165 260 
 HEL  HZ I         655 52.25         3.6 0.34                           165 260 
 OCA  SZ EP   2    655 36.50                             105    -0.3 4  214  23 
 OCA  SZ ES   2    656  1.02                             105     0.4 4  214  23 
 OCA  SZ I         656  6.03         9.4 0.32                           214  23 
 PRA  HZ EP   2    655 50.14                             100     1.1 3  316 197 
 PRA  HZ I         656  1.08         1.0 0.48                           316 197 
                                                                                
