 2010  123 0117 42.2 L   6.817 -72.960144.2  RSN  7 0.5 1.9LRSN                1
 GAP=229        0.96       7.2    10.5  9.7 -0.2528E+02  0.3330E+02  0.1167E+02E
 Epicentro: CEPITA - SANTANDER                                                 3
 ACTION:UP  10-08-24 09:45 OP:vdl  STATUS:               ID:20100123011742 L   I
 2010-01-23-0117-33S.COL___095                                                 6
 STAT SP IPHASW D HRMM SECON CODA AMPLIT PERI AZIMU VELO SNR AR TRES W  DIS CAZ7
 BAR2 SZ EP   1    118  1.78                             166    -0.2 8   35 225 
 BAR2 SZ ES   2    118 17.13                             166    -0.2 5   35 225 
 GIR2 SZ EP   1    118  2.01                             164     0.1 8   39 318 
 GIR2 SZ ES   2    118 16.95                             164    -0.3 5   39 318 
 RUS  BZ EP        118  6.07                             143     0.110  103 188 
 RUS  BN ES        118 24.75                             143     0.210  103 188 
 RUS  BZ I         118 26.26         6.2 0.55                           103 188 
 CHI  HZ EP        118 20.56                             116    -0.1 8  256 199 
 CHI  HN ES   1    118 50.52                             116    -0.2 6  256 199 
 CHI  HZ I         118 53.22         6.5 0.73                           256 199 
 RREF BN ES        119  8.69                             109     1.0 7  339 231 
 RREF BZ I         119 13.65         3.8 0.09                           339 231 
 TOL  SZ ES   1    119 10.15                             108    -1.1 5  359 227 
 PRA  HE ES   1    119 18.75                             106    -1.1 4  404 212 
                                                                                
