 2012 1023 0119 44.7 L   6.764 -73.095150.2  RSN  4 0.2 2.2LRSN                1
 GAP=145        0.51       2.9     3.7  5.1  0.1168E+01  0.4293E+01  0.5672E+00E
 Epicentro: LOS SANTOS - SANTANDER                                             3
 ACTION:UPD 12-11-22 17:05 OP:ep   STATUS:               ID:20121023011944 L   I
 2012-10-23-0118-50M.COL___206                                                 6
 STAT SP IPHASW D HRMM SECON CODA AMPLIT PERI AZIMU VELO AIN AR TRES W  DIS CAZ7
 PAM  SZ EP   1    120  7.61                             152    0.19 7 77.2  34 
 PAM  SN ES        120 24.95                             152   -0.1510 77.2  34 
 PAM  SN I         120 25.88        11.0 0.26                          77.2  34 
 BRR  HZ EP   1    120  6.60                             151   -0.16 7 78.0 299 
 BRR  HN ES        120 24.14                             151    0.2110 78.0 299 
 BRR  HN I         120 28.31        65.6 0.14                          78.0 299 
 RUS  HZ EP   1    120  8.64                             146    0.00 7 96.4 179 
 RUS  HN ES        120 27.21                             146   -0.0710 96.4 179 
 RUS  HN I         120 27.98        14.4 0.36                          96.4 179 
 ZAR  HZ EP   1    120 18.46                             122    0.29 6  211 293 
 ZAR  HE ES   2    120 43.52                             122   -0.72 4  211 293 
 ZAR  HN I         120 48.57        17.2 0.43                           211 293 
                                                                                
