 2011 1223 0301 22.7 L   6.723 -73.135143.7  RSN  4 0.1 1.7LRSN                1
 GAP=233        0.34       3.8     3.5  3.9  0.5912E+01  0.1533E+01 -0.1695E+01E
 Epicentro: JORDAN - SANTANDER                                                 3
 ACTION:UP  12-07-13 16:17 OP:ep   STATUS:               ID:20111223030122 L   I
 OLDACT:UPD 12-07-12 20:51 OP:ep   STATUS:               ID:20111223030122 L   3
 2011-12-23-0300-00M.COL___188                                                 6
 STAT SP IPHASW D HRMM SECON CODA AMPLIT PERI AZIMU VELO AIN AR TRES W  DIS CAZ7
 BAR2 SZ EP   1    3 1 41.94                             174   -0.03 7 15.4 200 
 BAR2 SZ ES   1    3 1 56.89                             174   -0.10 7 15.4 200 
 BAR2 SZ I         3 1 57.89         8.0 0.27                          15.4 200 
 BRR  HZ EP   1    3 1 43.84                             150   -0.13 7 76.6 304 
 BRR  HN ES   2    3 2  0.89                             150    0.35 5 76.6 304 
 BRR  HZ I         3 2 19.51        11.6 0.39                          76.6 304 
 RUS  HZ EP   1    3 1 45.75                             146    0.08 7 92.0 176 
 RUS  HE ES   1    3 2  3.59                             146    0.02 7 92.0 176 
 PTB  HZ EP   1    3 1 49.61                             132    0.11 7  148 262 
 PTB  HE ES   1    3 2 10.29                             132   -0.11 7  148 262 
                                                                                
