 2017  323 0938 25.3 L   6.826 -73.189145.7  RSN  4 0.2 1.4LRSN                1
 GAP=146        0.62       5.3     4.6  5.2 -0.1741E+02  0.6256E+01 -0.1115E+01E
 Epicentro: ZAPATOCA - SANTANDER                                               3
 ACTION:UPD 17-05-25 18:44 OP:jn   STATUS:               ID:20170323093825 L   I
 OLDACT:DUP 17-03-23 18:01 OP:lv   STATUS:               ID:20170323092741d    3
 2017-03-23-0928-00M.COL___370                                                 6
 STAT SP IPHASW D HRMM SECON CODA AMPLIT PERI AZIMU VELO AIN AR TRES W  DIS CAZ7
 BAR2 EZ EP        938 44.86                             169   -0.0910 25.9 178 
 BAR2 EZ ES        938 59.93                             169   -0.3710 25.9 178 
 BAR2 EZ I         939  2.58         7.7 0.30            171           25.9 178 
 PAM  EZ EP        938 47.54                             150   -0.0010 78.4  44 
 PAM  EN ES        939  5.21                             150    0.3010 78.4  44 
 PAM  EZ I         939  9.55         2.9 0.46            153           78.4  44 
 PTB  HZ EP        938 51.70                             133   -0.17 9  144 257 
 PTB  HN ES        939 12.63                             133    0.02 9  144 257 
 PTB  HZ I         939 14.87         3.5 0.06            136            144 257 
 SPBC HZ EP        938 53.67                             129   -0.03 9  162 217 
 SPBC HN ES        939 16.26                             129    0.38 9  162 217 
 SPBC HZ I         939 19.31         3.7 0.17            132            162 217 
                                                                                
