 2011 1223 0002 56.7 L   6.806 -73.187140.9  RSN  9 0.4 1.9LRSN                1
 GAP=131        0.79       3.7     4.1  5.5 -0.3418E+01  0.3179E+01  0.2917E+01E
 Epicentro: ZAPATOCA - SANTANDER                                               3
 ACTION:UPD 12-07-13 16:17 OP:ep   STATUS:               ID:20111223000256 L   I
 2011-12-23-0000-00M.COL___188                                                 6
 STAT SP IPHASW D HRMM SECON CODA AMPLIT PERI AZIMU VELO AIN AR TRES W  DIS CAZ7
 BAR2 SZ EP        0 3 16.41                             170    0.6210 23.7 179 
 BAR2 SZ ES   1    0 3 30.79                             170    0.14 7 23.7 179 
 BAR2 SZ I         0 3 32.54        18.8 0.29                          23.7 179 
 BRR  HZ EP        0 3 17.30                             153    0.1810 66.9 300 
 BRR  HZ I         0 3 18.80        23.1 0.12                          66.9 300 
 BRR  HN ES        0 3 33.16                             153    0.1410 66.9 300 
 PAM  SZ EP        0 3 18.45                             149   -0.1410 79.8  42 
 PAM  SE ES   1    0 3 35.27                             149   -0.36 7 79.8  42 
 RUS  HZ EP   1    0 3 20.30                             142    0.21 7  102 174 
 RUS  HE ES   1    0 3 38.16                             142   -0.15 7  102 174 
 RUS  HZ I         0 3 40.30         9.2 0.27                           102 174 
 PTB  HZ EP        0 3 22.33                             132   -0.59 9  143 258 
 PTB  HN ES   1    0 3 42.76                             132   -0.58 7  143 258 
 OCA  SZ EP   1    0 3 24.87                             129    0.31 7  159 355 
 OCA  SZ ES   2    0 3 45.97                             129   -0.30 5  159 355 
 OCA  SZ I         0 3 50.00         8.0 0.27                           159 355 
 NOR  SZ EP   1    0 3 31.19                             118   -0.64 6  231 234 
 NOR  SE ES   1    0 3 59.53                             118    0.32 6  231 234 
 CHI  HZ EP   1    0 3 34.00                             116   -0.12 6  248 194 
 CHI  HE ES   2    0 4  3.13                             116   -0.14 4  248 194 
 CHI  HZ I         0 4 10.75         3.1 1.14                           248 194 
 HEL  HZ EP   2    0 3 36.99                             114    0.75 4  268 255 
 HEL  HE ES   2    0 4  7.68                             114    0.63 4  268 255 
 HEL  HZ I         0 4 17.93         5.0 0.44                           268 255 
                                                                                
