 2012  823 0243 59.4 L   6.774 -73.129141.6  RSN 12 0.3 2.3LRSN                1
 GAP= 73        0.64       2.7     2.5  4.1 -0.8938E+00  0.1625E+01  0.1670E+01E
 Epicentro: LOS SANTOS - SANTANDER                                             3
 ACTION:UPD 12-09-10 11:57 OP:ep   STATUS:               ID:20120823024359 L   I
 2012-08-23-0240-00M.COL___217                                                 6
 STAT SP IPHASW D HRMM SECON CODA AMPLIT PERI AZIMU VELO AIN AR TRES W  DIS CAZ7
 BAR2 SZ IP        244 18.42                             171   -0.0410 20.9 196 
 BAR2 SZ I         244 18.72        82.2 0.11                          20.9 196 
 BAR2 SZ ES   1    244 33.22                             171   -0.13 7 20.9 196 
 BRR  HZ IP     C  244 20.31                             151    0.0510 74.2 300 
 BRR  HZ I         244 20.78        47.7 0.12                          74.2 300 
 BRR  HN ES   1    244 37.09                             151    0.54 7 74.2 300 
 PAM  SZ EP        244 21.24                             150    0.0210 78.5  37 
 PAM  SZ I         244 21.71        32.2 0.26                          78.5  37 
 PAM  SN ES   1    244 38.20                             150   -0.06 7 78.5  37 
 RUS  HZ EP        244 22.35                             144   -0.1610 97.6 177 
 RUS  HN ES   1    244 40.79                             144    0.24 7 97.6 177 
 RUS  HZ I         244 42.10        14.2 0.39                          97.6 177 
 PTB  HZ EP   1    244 25.28                             131   -0.85 7  149 260 
 PTB  HE ES   1    244 46.87                             131   -0.13 7  149 260 
 PTB  HZ I         244 51.06        15.8 0.18                           149 260 
 TAM  HZ EP        244 26.65                             130    0.16 9  153 104 
 OCA  HZ EP   1    244 27.62                             128   -0.05 7  163 353 
 OCA  HZ I         244 53.52        32.5 0.55                           163 353 
 ZAR  HZ EP   1    244 31.78                             121   -0.07 6  207 293 
 ZAR  HE ES   1    244 56.77                             121   -0.41 6  207 293 
 ZAR  HZ I         245  3.48        15.0 0.15                           207 293 
 NOR  SZ EP        244 34.77                             118   -0.09 8  235 235 
 NOR  SN ES   1    245  2.52                             118   -0.01 6  235 235 
 NOR  SZ I         245  7.67        12.8 0.25                           235 235 
 CHI  HZ EP   1    244 36.62                             116    0.02 6  246 196 
 CHI  HN ES   1    245  5.28                             116   -0.36 6  246 196 
 CHI  HZ I         245 14.21         6.0 0.56                           246 196 
 HEL  HZ EP   1    244 39.97                             114    0.46 6  273 256 
 HEL  HN ES   1    245 11.04                             114    0.23 6  273 256 
 HEL  HZ I         245 16.82         9.7 0.36                           273 256 
 GUY  SZ EP   1    244 44.07                             111    1.02 5  303 236 
 GUY  SN ES   1    245 17.25                             111    0.13 5  303 236 
 GUY  SZ I         245 24.25        18.8 0.34                           303 236 
                                                                                
