 2012 1123 0003 13.7 L   6.079 -73.906 90.3  RSN 12 0.5 1.9LRSN                1
 GAP= 70        1.01       3.0     3.1  8.8 -0.1327E+01  0.5005E+01  0.1823E+01E
 Epicentro: EL PEON - SANTANDER                                                3
 ACTION:UPD 12-12-05 15:35 OP:}ep  STATUS:               ID:20121123000313 L   I
 2012-11-23-0000-00M.COL___234                                                 6
 STAT SP IPHASW D HRMM SECON CODA AMPLIT PERI AZIMU VELO AIN AR TRES W  DIS CAZ7
 PTB  HZ EP   1    0 3 29.29                             135   -0.67 7 79.4 310 
 PTB  HN ES   1    0 3 42.40                             135   -0.23 7 79.4 310 
 PTB  HZ I         0 3 46.12        21.8 0.16                          79.4 310 
 RUS  HZ EP   1    0 3 31.61                             131   -0.26 7 93.4 103 
 RUS  HN ES   1    0 3 46.24                             131    0.22 7 93.4 103 
 RUS  HZ I         0 3 47.56        11.0 0.16                          93.4 103 
 BAR2 SZ IP        0 3 31.84                             129   -0.1410 98.1  55 
 BAR2 SZ ES   1    0 3 45.94                             129   -0.27 7 98.1  55 
 NOR  HZ EP   1    0 3 33.50                             122   -0.53 7  121 242 
 NOR  HN ES   1    0 3 49.48                             122   -0.38 7  121 242 
 GIR2 SZ EP   1    0 3 36.34                             119    0.63 7  136  35 
 GIR2 SZ ES   1    0 3 53.58                             119    0.73 7  136  35 
 GIR2 SZ I         0 3 55.70        15.8 0.28                           136  35 
 CHI  HZ EP   1    0 3 38.72                             115   -0.16 7  161 173 
 CHI  HN ES   1    0 3 59.01                             115    0.51 7  161 173 
 CHI  HZ I         0 4  6.14         7.0 0.58                           161 173 
 HEL  HZ EP   1    0 3 40.20                             112   -0.74 7  180 274 
 HEL  HN ES   1    0 4  2.82                             112    0.66 7  180 274 
 HEL  HZ I         0 4  6.73        11.5 0.21                           180 274 
 ZAR  HZ EP   1    0 3 41.45                             111    0.00 7  188 326 
 ZAR  HE ES   1    0 4  3.60                             111    0.53 7  188 326 
 ZAR  HZ I         0 4  8.66        17.3 0.38                           188 326 
 GUY  SZ EP   1    0 3 43.00                             111    0.82 7  190 240 
 GUY  SE ES   4    0 4  6.67                             111    2.30 0  190 240 
 GUY  SZ I         0 4 10.54        22.7 0.26                           190 240 
 PAM  SZ EP   1    0 3 41.55                             111   -1.02 7  193  44 
 PAM  SE ES   4    0 4  3.86                             111   -1.20 0  193  44 
 PAM  SZ I         0 4  4.98         9.6 0.22                           193  44 
 PRA  HZ EP   1    0 3 52.51                             103   -0.19 6  283 203 
 PRA  HN ES   1    0 4 23.90                             103    0.80 6  283 203 
 PRA  HZ I         0 4 31.34         9.0 0.26                           283 203 
 SML  HZ EP   1    0 3 54.53                             102   -0.32 5  302 357 
 SML  HN ES   1    0 4 27.75                             102    0.82 5  302 357 
                                                                                
