 2013 1123 0404 23.3 L   6.501 -73.093148.1  RSN  4 0.1 1.4LRSN                1
 GAP=316        0.32       4.4     3.6  3.1  0.4834E+01  0.4007E+01  0.2944E+01E
 Epicentro: VALLE DE SAN JOSE - SANTANDER                                      3
 ACTION:UPD 14-01-09 16:30 OP:ep   STATUS:               ID:20131123040423 L   I
 OLDACT:REG 13-11-23 07:40 OP:mh   STATUS:               ID:20131123040000     3
 2013-11-23-0400-00M.COL___282                                                 6
 STAT SP IPHASW D HRMM SECON CODA AMPLIT PERI AZIMU VELO AIN AR TRES W  DIS CAZ7
 BAR2 SZ ES   1    4 4 58.57                             174    0.11 7 14.1 315 
 BRR  HZ EP   1    4 4 46.10                             145   -0.13 7 95.8 314 
 BRR  HN ES        4 5  4.06                             145   -0.0710 95.8 314 
 BRR  HZ I         4 5  6.53         3.5 0.18            142           95.8 314 
 PTB  HZ EP        4 4 50.72                             132   -0.01 9  151 272 
 PTB  HN ES   1    4 5 12.07                             132   -0.06 7  151 272 
 PTB  HZ I         4 5 18.62         3.6 0.36            128            151 272 
 ZAR  HZ EP        4 4 58.02                             120    0.09 8  224 299 
 ZAR  HN ES        4 5 25.03                             120    0.08 8  224 299 
 ZAR  HZ I         4 5 29.89         1.9 0.19            120            224 299 
                                                                                
