 2016  623 0555 30.0 L   6.753 -73.123146.0  RSN 11 0.4 1.6LRSN                1
 GAP=142        1.00       3.8     3.9  5.5 -0.2714E+01  0.6994E+01  0.4581E+01E
 Epicentro: LOS SANTOS - SANTANDER                                             3
 ACTION:UPD 16-07-21 22:21 OP:rebc STATUS:               ID:20160623055530 L   I
 OLDACT:REG 16-06-23 12:46 OP:ak   STATUS:               ID:20160623054748     3
 2016-06-23-0547-48M.COL___331                                                 6
 STAT SP IPHASW D HRMM SECON CODA AMPLIT PERI AZIMU VELO AIN AR TRES W  DIS CAZ7
 BAR2 EZ EP        555 49.44                             172   -0.1410 18.9 200 
 BAR2 EZ ES        556  5.17                             172    0.3210 18.9 200 
 BAR2 EZ I         556  9.52         5.6 0.24                          18.9 200 
 BRR  HZ IP     C  555 51.51                             151    0.0610 76.0 301 
 BRR  HN ES        556  8.62                             151    0.4410 76.0 301 
 BRR  HZ I         556  9.85         6.6 0.14                          76.0 301 
 PAM  EZ EP        555 52.52                             150    0.1210 80.0  36 
 PAM  EN ES        556  9.78                             150   -0.0810 80.0  36 
 PAM  EZ I         556 12.28         3.2 0.18                          80.0  36 
 RUS  HZ EP        555 53.21                             145   -0.1810 95.2 177 
 RUS  HN ES        556 11.70                             145    0.0610 95.2 177 
 RUS  HZ I         556 13.29         4.1 0.48                          95.2 177 
 PTB  HZ EP        555 56.12                             132   -1.01 9  149 261 
 PTB  HN ES        556 17.55                             132   -0.73 9  149 261 
 PTB  HZ I         556 19.95         5.4 0.18                           149 261 
 SPBC HZ EP        555 58.24                             130   -0.05 9  161 221 
 SPBC HN ES        556 19.90                             130   -0.45 9  161 221 
 SPBC HZ I         556 22.66         9.7 0.09                           161 221 
 ZAR  HZ EP   2    556  2.74                             122   -0.17 4  208 293 
 ZAR  HN ES        556 28.93                             122    0.36 8  208 293 
 ZAR  HZ I         556 33.93         6.8 0.37                           208 293 
 NOR  HZ EP        556  5.25                             119   -0.39 8  234 236 
 NOR  HN ES        556 33.47                             119    0.03 8  234 236 
 NOR  HZ I         556 38.87         2.8 0.09                           234 236 
 GUY2CHZ EP        556 14.33                             112    0.82 7  300 236 
 GUY2CHN ES        556 48.06                             112    0.60 7  300 236 
 GUY2CHZ I         556 53.22         1.9 0.48                           300 236 
 CBOC HZ EP        556 17.22                             110    0.20 7  334 253 
 CBOC HN ES        556 53.92                             110    0.23 7  334 253 
 CBOC HZ I         557  2.82         0.9 0.70                           334 253 
 PRA  HZ EP        556 23.55                             107    0.41 6  389 210 
 PRA  HE ES        557  5.38                             107    0.79 6  389 210 
 PRA  HZ I         557  6.99         1.5 0.30                           389 210 
                                                                                
