 2017 1123 0639 39.4 L   6.773 -73.166127.8  RSN  5 0.5 1.0LRSN                1
 GAP=135        1.29       6.4     5.8 10.9 -0.1897E+01  0.2287E+02 -0.7242E+01E
 Epicentro: LOS SANTOS - SANTANDER                                             3
 ACTION:UPD 17-12-12 19:59 OP:rebc STATUS:               ID:20171123063939 L   I
 OLDACT:REG 17-11-23 13:06 OP:osc  STATUS:               ID:20171123063743     3
 2017-11-23-0638-00M.COL___471                                                 6
 STAT SP IPHASW D HRMM SECON CODA AMPLIT PERI AZIMU VELO AIN AR TRES W  DIS CAZ7
 BAR2 EZ EP        639 56.85                             171    0.0210 20.1 185 
 BAR2 EZ ES        640  9.60                             171   -0.8010 20.1 185 
 BAR2 EZ I         640 12.88         4.8 0.16            172           20.1 185 
 PAM  EZ EP        639 59.70                             146   -0.3110 81.1  39 
 PAM  EN ES        640 16.47                             146    0.4010 81.1  39 
 PAM  EZ I         640 18.97         2.4 0.22            149           81.1  39 
 RUS  HZ EP        640  1.17                             140   -0.0710 97.8 175 
 RUS  HN ES        640 19.05                             140    0.8010 97.8 175 
 RUS  HZ I         640 19.98         1.4 0.54            144           97.8 175 
 PTB  HZ EP        640  4.27                             128   -0.45 9  145 260 
 PTB  HN ES        640 24.25                             128   -0.20 9  145 260 
 PTB  HZ I         640 27.74         0.8 0.18            131            145 260 
 ZAR  HN ES        640 35.77                             118    0.74 9  203 293 
                                                                                
