 2012  123 0119 31.6 L   6.771 -73.147146.0  RSN 13 0.4 2.8LRSN                1
 GAP=138        0.92       3.2     4.2  5.3 -0.1660E+01  0.5731E+01  0.2751E+01E
 Epicentro: LOS SANTOS - SANTANDER                                             3
 ACTION:UP  12-02-03 08:19 OP:REBC STATUS:               ID:20120123011931 L   I
 2012-01-23-0115-36S.COL___153                                                 6
 STAT SP IPHASW D HRMM SECON CODA AMPLIT PERI AZIMU VELO SNR AR TRES W  DIS CAZ7
 BAR2 SZ EP        119 51.07                             172    -0.110   20 191 
 BAR2 SZ ES   1    120  6.09                             172    -0.4 7   20 191 
 BAR2 SZ I         120  7.93       119.4 0.22                            20 191 
 BRR  HZ IP     C  119 53.02                             152     0.210   73 301 
 BRR  HE ES        120 10.04                             152     0.610   73 301 
 BRR  HZ I         120 13.39       153.3 0.19                            73 301 
 PAM  SZ EP        119 54.00                             150     0.010   80  38 
 PAM  SE ES   1    120 10.83                             150    -0.6 7   80  38 
 RUS  HZ EP        119 54.99                             145    -0.110   97 176 
 RUS  HN ES        120 13.72                             145     0.210   97 176 
 RUS  HZ I         120 15.55        60.8 0.54                            97 176 
 PTB  HZ EP        119 57.83                             132    -0.7 9  147 260 
 PTB  HE ES   1    120 19.75                             132     0.3 7  147 260 
 OCA  SZ EP        120  0.75                             129     0.5 9  163 353 
 OCA  SZ ES   2    120 22.71                             129     0.2 5  163 353 
 OCA  SZ I         120 35.22        42.5 0.20                           163 353 
 ZAR  HZ EP   1    120  3.68                             122    -0.5 6  205 293 
 ZAR  HE ES   1    120 28.86                             122    -0.7 6  205 293 
 ZAR  HZ I         120 36.26       108.2 0.26                           205 293 
 NOR  SZ EP        120  6.82                             119    -0.3 8  233 235 
 NOR  SN ES   1    120 35.05                             119     0.2 6  233 235 
 CHI  HZ EP        120  9.10                             118     0.1 8  246 195 
 CHI  HN ES   1    120 38.23                             118     0.1 6  246 195 
 CHI  HZ I         120 44.45        28.2 0.38                           246 195 
 HEL  HZ EP   1    120 11.70                             115     0.0 6  271 256 
 HEL  HZ I         120 49.33        25.9 0.22                           271 256 
 GUY  SZ EP   1    120 15.79                             112     0.5 5  302 236 
 GUY  SN ES   2    120 48.59                             112    -0.7 4  302 236 
 GUY  SZ I         120 58.50        51.7 0.20                           302 236 
 RREF HZ EP   1    120 17.69                             111     0.2 5  320 230 
 RREF HN ES   1    120 53.27                             111     0.0 5  320 230 
 RREF HZ I         121  2.41        32.4 0.50                           320 230 
 PRA  HZ EP   1    120 24.74                             107     0.0 4  389 210 
 PRA  HN ES   1    121  6.57                             107     0.3 4  389 210 
                                                                                
