 2015  823 0355 25.2 L   6.084 -74.037 85.9  RSN 15 0.4 2.1LRSN                1
 GAP= 67        1.03       2.2     2.4  6.2 -0.1781E+01  0.4550E+01 -0.3606E+01E
 Epicentro: EL PENON - SANTANDER                                               3
 ACTION:UPD 15-09-15 23:04 OP:cam  STATUS:               ID:20150823035525 L   I
 OLDACT:UP  15-08-23 16:37 OP:ar   STATUS:               ID:20150823034749     3
 OLDACT:UP  15-08-23 16:32 OP:ar   STATUS:               ID:20150823034749     3
 OLDACT:UP  15-08-23 16:23 OP:ar   STATUS:               ID:20150823034749     3
 OLDACT:UP  15-08-23 16:21 OP:ar   STATUS:               ID:20150823034749     3
 OLDACT:REG 15-08-23 14:36 OP:ar   STATUS:               ID:20150823034749     3
 2015-08-23-0347-49M.COL___334                                                 6
 STAT SP IPHASW D HRMM SECON CODA AMPLIT PERI AZIMU VELO AIN AR TRES W  DIS CAZ7
 SPBC HZ IP     C  355 38.70                             148   -0.0510 47.9 185 
 SPBC HN ES        355 49.64                             148    0.3610 47.9 185 
 SPBC HZ I         355 50.60       146.9 0.26            146           47.9 185 
 RUS  HZ EP        355 44.09                             125   -0.3710  108 101 
 RUS  HE ES        355 59.25                             125   -0.2010  108 101 
 RUS  HZ I         356  0.48         9.0 0.36            122            108 101 
 NOR  HZ EP        355 43.35                             124   -0.6310  109 238 
 NOR  HE ES        355 57.63                             124   -0.9510  109 238 
 NOR  HZ I         355 58.82        65.3 0.14            120            109 238 
 BAR2 EZ IP     D  355 44.42                             124    0.0610  110  59 
 BAR2 EZ ES        355 59.57                             124    0.3010  110  59 
 BAR2 EZ I         356  0.73        74.5 0.14            121            110  59 
 BRR  HZ IP     D  355 44.79                             121   -0.1610  119  18 
 BRR  HN ES        356  0.75                             121    0.4310  119  18 
 BRR  HZ I         356  1.28        43.4 0.12            118            119  18 
 CHI  HZ EP        355 50.32                             113   -0.20 9  164 168 
 CHI  HN ES        356 10.40                             113    0.17 9  164 168 
 CHI  HZ I         356 15.61         8.1 0.26            110            164 168 
 HEL  HZ EP        355 50.87                             113    0.28 9  166 274 
 HEL  HE ES        356 10.29                             113   -0.06 9  166 274 
 HEL  HZ I         356 13.75        12.8 0.18            110            166 274 
 GUY2CHZ EP        355 51.64                             111   -0.19 9  175 237 
 GUY2CHE ES        356 12.90                             111    0.34 9  175 237 
 GUY2CHZ I         356 17.47        13.3 0.18                           175 237 
 ZAR  HZ EP        355 51.57                             110   -0.25 9  180 330 
 ZAR  HN ES        356 12.99                             110    0.44 9  180 330 
 ZAR  HZ I         356 16.55        18.2 0.30            108            180 330 
 TOL  SZ EP        355 56.94                             107    0.24 8  218 221 
 TOL  SN ES        356 21.71                             107    0.47 8  218 221 
 TOL  SZ I         356 27.39        10.2 0.14            104            218 221 
 CBOC HZ EP        355 57.32                             106    0.63 8  220 264 
 CBOC HN ES   4    356 18.85                             106   -2.37 0  220 264 
 CBOC HZ I         356 30.10         6.1 0.52            104            220 264 
 URE  HZ EP   4    355 58.15                             104   -1.63 0  248 318 
 URE  HN ES   4    356 24.88                             104   -1.84 0  248 318 
 URE  HZ I         356 26.51         8.6 0.16            102            248 318 
 OCA  HZ EP        356  0.72                             104    0.34 8  251  18 
 OCA  HE ES        356 27.48                             104   -0.30 8  251  18 
 OCA  HZ I         356 32.34        26.1 0.62            102            251  18 
 ORTC HZ EP        356  3.42                             103    0.27 7  275 209 
 ORTC HN ES   4    356 34.23                             103    1.52 0  275 209 
 ORTC HZ I         356 40.94        12.0 0.36            101            275 209 
 SML  HZ EP        356  6.54                             101    0.41 7  300 359 
 SML  HE ES        356 36.93                             101   -1.08 7  300 359 
 SML  HN ES   4    356 37.39                             101   -0.62 0  300 359 
 SML  HZ I         356 50.76         9.0 0.10            100            300 359 
 SJC  HZ EP   4    356 21.00                              97   -2.22 0  440 343 
 SJC  HN ES   4    357  4.72                              97   -3.71 0  440 343 
                                                                                
