 2017  223 0440 41.2 L   6.804 -73.081144.3  RSN  4 0.2 1.2LRSN                1
 GAP=145        0.65       3.5     5.1  5.5 -0.5681E+00 -0.1910E+01  0.5682E+00E
 Epicentro: LOS SANTOS - SANTANDER                                             3
 ACTION:UPD 17-05-24 15:39 OP:jn   STATUS:               ID:20170223044041 L   I
 OLDACT:REG 17-02-23 13:26 OP:edw  STATUS:               ID:20170223043743     3
 2017-02-23-0438-00M.COL___382                                                 6
 STAT SP IPHASW D HRMM SECON CODA AMPLIT PERI AZIMU VELO AIN AR TRES W  DIS CAZ7
 BAR2 EZ ES        441 16.04                             169    0.1110 25.9 206 
 BAR2 EZ I         441 16.97         4.6 0.26            171           25.9 206 
 PAM  EZ EP     D  441  3.37                             152    0.3810 72.7  35 
 PAM  EN ES        441 19.73                             152   -0.2510 72.7  35 
 PAM  EZ I         441 22.58         1.6 0.50            152           72.7  35 
 BRR  HZ EP        441  2.20                             150   -0.3610 77.4 296 
 BRR  HN ES        441 19.37                             150    0.1610 77.4 296 
 RUS  HZ EP        441  4.84                             143    0.0210  101 180 
 RUS  HN ES        441 23.17                             143   -0.0710  101 180 
 RUS  HZ I         441 24.30         3.7 0.34            145            101 180 
                                                                                
