 2015 1223 0347 37.1 L   6.535 -73.528110.0  RSN 13 0.5 1.8LRSN                1
 GAP= 74        1.01       2.8     3.9  6.3 -0.2626E+01  0.1263E+02 -0.2303E+01E
 Epicentro: EL CARMEN - SANTANDER                                              3
 ACTION:UPD 16-02-04 15:06 OP:cam  STATUS:               ID:20151223034737 L   I
 OLDACT:REG 15-12-23 12:43 OP:dnl  STATUS:               ID:20151223033749     3
 2015-12-23-0337-49M.COL___328                                                 6
 STAT SP IPHASW D HRMM SECON CODA AMPLIT PERI AZIMU VELO AIN AR TRES W  DIS CAZ7
 BAR2 EZ IP     C  347 53.22                             159    0.2110 38.7  81 
 BAR2 EZ ES        348  5.15                             159   -0.2510 38.7  81 
 BRR  HZ EP        347 54.22                             146    0.0110 66.4 342 
 BRR  HE ES        348  7.98                             146    0.4410 66.4 342 
 BRR  HZ I         348  9.56        11.6 0.28            144           66.4 342 
 RUS  HZ EP        347 56.38                             139    0.0010 86.4 145 
 RUS  HE ES        348 11.76                             139    0.3610 86.4 145 
 RUS  HZ I         348 13.52         9.9 0.19            142           86.4 145 
 PTB  HZ EP     D  347 56.04                             134   -1.0510  103 270 
 PTB  HE ES   4    348 11.02                             134   -1.64 0  103 270 
 PTB  HZ I         348 12.43        16.1 0.05            132            103 270 
 SPBC HZ EP        347 58.05                             130   -0.2310  115 212 
 SPBC HE ES   2    348 14.05                             130   -0.74 5  115 212 
 SPBC HZ I         348 17.42         9.3 0.21            130            115 212 
 ZAR  HZ EP   4    348  7.24                             116    2.26 0  181 306 
 ZAR  HN ES   4    348 28.18                             116    1.47 0  181 306 
 ZAR  HZ I         348 32.99         6.4 0.09            116            181 306 
 NOR  HZ EP   4    348  3.82                             116   -1.45 0  183 234 
 NOR  HN ES        348 26.87                             116   -0.36 9  183 234 
 NOR  HZ I         348 29.81         5.8 0.22            116            183 234 
 OCA  HZ EP        348  5.79                             115   -0.33 9  190   7 
 OCA  HE ES        348 28.96                             115    0.22 9  190   7 
 OCA  HZ I         348 35.63        14.7 0.17            115            190   7 
 HEL  HZ EP   2    348 10.92                             111    0.62 4  225 260 
 HEL  HN ES        348 36.34                             111    0.16 8  225 260 
 HEL  HZ I         348 39.47         3.3 0.43            111            225 260 
 GUY2CHZ EP   2    348 14.06                             108    0.74 4  250 235 
 GUY2CHE ES   2    348 41.30                             108   -0.26 4  250 235 
 GUY2CHZ I         348 46.61         2.7 0.25                           250 235 
 SML  HZ EP        348 13.53                             108   -0.10 8  258 347 
 SML  HN ES        348 41.88                             108   -0.24 8  258 347 
 SML  HZ I         348 47.01        12.5 0.08            107            258 347 
 CBOC HZ EP        348 18.08                             105    1.05 7  285 255 
 CBOC HN ES        348 48.79                             105    0.64 7  285 255 
 CBOC HZ I         348 52.41         2.6 0.53            105            285 255 
 PRA  HZ EP        348 24.18                             102    0.00 6  346 206 
 PRA  HE ES   2    349  1.19                             102    0.31 3  346 206 
 PRA  HZ I         349  6.18         3.0 0.29            102            346 206 
                                                                                
