 2011  623 0215 37.8 L   6.784 -73.081144.5  RSN  5 0.3 1.3LRSN                1
 GAP=166        0.60       4.6     9.8  8.7 -0.1033E+01 -0.2296E+02 -0.5552E+01E
 Epicentro: LOS SANTOS - SANTANDER                                             3
 ACTION:UP  11-07-14 19:07 OP:ep   STATUS:               ID:20110623021537 L   I
 2011-06-23-0213-37S.COL___140                                                 6
 STAT SP IPHASW D HRMM SECON CODA AMPLIT PERI AZIMU VELO SNR AR TRES W  DIS CAZ7
 BAR2 SZ EP   1    215 57.29                             170     0.0 7   24 208 
 BAR2 SZ ES   2    216 12.39                             170    -0.1 5   24 208 
 BAR2 SZ I         216 13.35         5.3 0.30                            24 208 
 GIR2 SZ EP        215 57.28                             166    -0.110   35 339 
 BRR  HZ EP   1    215 58.84                             150    -0.4 7   78 297 
 BRR  HZ I         215 59.10         9.0 0.09                            78 297 
 BRR  HN ES   2    216 16.35                             150     0.4 5   78 297 
 RUS  HZ EP   1    216  1.64                             144     0.4 7   99 180 
 RUS  HZ I         216 18.58         2.1 0.57                            99 180 
 RUS  HN ES   2    216 19.15                             144    -0.4 5   99 180 
 GRA  SZ EP   1    216  3.01                             137     0.1 7  126  14 
 GRA  SZ ES   2    216 22.43                             137     0.0 5  126  14 
 GRA  SZ I         216 24.58         2.2 0.33                           126  14 
                                                                                
