 2010  423 0820  2.6 L   6.738 -73.019148.7  RSN  6 0.3 1.7LRSN                1
 GAP=201        0.53       5.1     8.4  7.2 -0.1791E+02 -0.2981E+02  0.6771E+01E
 Epicentro: ARATOCA - SANTANDER                                                3
 ACTION:UPD 10-08-24 10:00 OP:vdl  STATUS:               ID:20100423082002 L   I
 2010-04-23-0817-27S.COL___104                                                 6
 STAT SP IPHASW D HRMM SECON CODA AMPLIT PERI AZIMU VELO AIN AR TRES W  DIS CAZ7
 BAR2 SZ EP   2    820 22.62                             171     0.0 5   24 229 
 BAR2 SZ ES   2    820 38.14                             171     0.0 5   24 229 
 BRR  HZ IP     D  820 25.06                             149     0.110   87 298 
 BRR  HZ I         820 25.27         4.9 0.18                            87 298 
 BRR  HE ES   1    820 42.36                             149    -0.1 7   87 298 
 GUE  SZ EP   2    820 27.65                             140    -0.3 5  121   5 
 GRA  SZ IP        820 28.45                             138     0.110  129  11 
 OCA  SZ EP   2    820 31.12                             130    -0.8 5  169 349 
 OCA  SZ ES   2    820 55.33                             130     0.4 5  169 349 
 OCA  SZ I         820 58.15         8.9 0.28                           169 349 
 PRA  HZ EP   2    820 56.91                             107     0.6 3  393 212 
 PRA  HN ES   2    821 38.03                             107    -0.2 3  393 212 
 PRA  HZ I         821 42.88         1.5 0.27                           393 212 
                                                                                
