 2014  423 0854 24.9 L   6.810 -73.167143.5  RSN 11 0.4 2.0LRSN                1
 GAP=133        1.03       2.7     4.2  6.9 -0.3318E+01  0.9898E+01 -0.4425E+00E
 Epicentro: LOS SANTOS - SANTANDER                                             3
 ACTION:UPD 14-05-13 23:10 OP:nd   STATUS:               ID:20140423085424 L   I
 OLDACT:REG 14-04-23 13:03 OP:fm   STATUS:               ID:20140423084811     3
 2014-04-23-0848-11M.COL___239                                                 6
 STAT SP IPHASW D HRMM SECON CODA AMPLIT PERI AZIMU VELO AIN AR TRES W  DIS CAZ7
 PAM  SZ EP        854 47.24                             150    0.3710 78.1  41 
 PAM  SN ES        855  4.42                             150    0.3710 78.1  41 
 PAM  SZ I         855  6.56        17.2 0.58            154           78.1  41 
 RUS  HE ES        855  6.98                             143    0.0810  102 175 
 RUS  HZ I         855  8.38         9.8 0.30            149            102 175 
 PTB  HZ EP        854 51.11                             132   -0.33 9  146 258 
 PTB  HN ES        855 12.07                             132   -0.11 9  146 258 
 PTB  HZ I         855 16.98         7.1 0.14            132            146 258 
 OCA  HZ EP        854 52.73                             129   -0.13 9  159 354 
 OCA  HE ES        855 13.88                             129   -0.83 9  159 354 
 OCA  HZ I         855 20.14        13.2 0.24            131            159 354 
 SPBC HZ EP        854 53.04                             129   -0.08 9  163 218 
 SPBC HN ES        855 15.04                             129   -0.12 9  163 218 
 SPBC HZ I         855 18.27        13.9 0.36            131            163 218 
 ZAR  HZ EP        854 57.44                             122    0.56 9  201 292 
 ZAR  HN ES        855 22.92                             122            201 292 
 ZAR  HN IS        855 22.92                             122    1.06 9  201 292 
 ZAR  HZ I         855 31.24         8.4 0.42            123            201 292 
 NOR  HE ES        855 27.65                             118   -0.32 8  233 234 
 NOR  HZ I         855 33.15         6.9 0.16            120            233 234 
 SML  HZ EP        855  0.78                             117   -0.36 8  242 336 
 SML  HN ES        855 29.05                             117   -0.39 8  242 336 
 SML  HZ I         855 42.63        12.3 0.10            119            242 336 
 CHI  HZ EP        855  2.77                             117    0.30 8  249 195 
 CHI  HN ES        855 31.30                             117   -0.52 8  249 195 
 GUY2CHZ EP        855  8.91                             112    0.70 7  300 234 
 GUY2CHN ES        855 41.90                             112   -0.12 7  300 234 
 GUY2CHZ I         855 55.37         4.8 0.42                           300 234 
 RREF HZ EP        855 10.74                             110   -0.03 7  321 229 
 RREF HE ES        855 46.36                             110   -0.23 7  321 229 
 RREF HZ I         855 56.25         6.6 0.30            113            321 229 
                                                                                
