 2012 1223 0943  9.5 L   6.732 -73.239150.5  RSN  4 0.2 1.2LRSN                1
 GAP=209        0.45       7.7     5.0  8.9  0.7853E+00 -0.1470E+02  0.3766E+02E
 Epicentro: VILLANUEVA - SANTANDER                                             3
 ACTION:UPD 13-01-04 14:29 OP:ep   STATUS:               ID:20121223094309 L   I
 2012-12-23-0940-00M.COL___243                                                 6
 STAT SP IPHASW D HRMM SECON CODA AMPLIT PERI AZIMU VELO AIN AR TRES W  DIS CAZ7
 BAR2 SZ EP   1    943 29.21                             173   -0.35 7 16.7 158 
 BAR2 SZ I         943 47.42         7.2 0.68                          16.7 158 
 BRR  HZ EP   1    943 30.92                             155    0.03 7 66.7 308 
 BRR  HE ES   1    943 47.73                             155    0.13 7 66.7 308 
 RUS  HZ EP   1    943 33.49                             146    0.23 7 94.4 169 
 PTB  HZ EP   1    943 35.88                             135    0.06 7  136 261 
 PTB  HE ES   1    943 56.27                             135   -0.11 7  136 261 
 PTB  HZ I         944  0.55         0.9 0.20                           136 261 
                                                                                
