 2013  823 0048 19.3 L   6.792 -73.150145.7  RSN  6 0.5 1.7LRSN                1
 GAP=200        1.19       6.1     7.3  8.2  0.2072E+02  0.4645E+00 -0.1633E+02E
 Epicentro: LOS SANTOS - SANTANDER                                             3
 ACTION:UPD 14-01-14 09:05 OP:ep   STATUS:               ID:20130823004819 L   I
 OLDACT:UP  13-08-23 09:16 OP:nd   STATUS:               ID:20130823003959     3
 OLDACT:REG 13-08-23 07:51 OP:nd   STATUS:               ID:20130823003959     3
 2013-08-23-0039-59M.COL___270                                                 6
 STAT SP IPHASW D HRMM SECON CODA AMPLIT PERI AZIMU VELO AIN AR TRES W  DIS CAZ7
 BAR2 SZ EP        048 38.75                             171   -0.1510 22.3 189 
 BAR2 SZ ES        048 54.06                             171   -0.1310 22.3 189 
 BAR2 SZ I         048 55.09         8.6 0.17            171           22.3 189 
 BRR  HZ IP     D  048 41.14                             153    0.7010 71.2 299 
 BRR  HN ES        048 57.13                             153    0.2010 71.2 299 
 BRR  HZ I         048 59.23        10.4 0.26            151           71.2 299 
 RUS  HZ EP        048 43.64                             144    0.6610 99.7 176 
 RUS  HN ES        049  1.13                             144   -0.3210 99.7 176 
 RUS  HZ I         049  2.79         2.1 0.32            146           99.7 176 
 PTB  HZ EP        048 45.91                             132   -0.29 9  147 259 
 PTB  HN ES        049  6.65                             132   -0.53 9  147 259 
 PTB  HZ I         049  9.23         6.6 0.12            132            147 259 
 ZAR  HZ EP        048 51.23                             122   -0.50 9  204 292 
 ZAR  HN ES        049 17.87                             122    0.85 9  204 292 
 ZAR  HZ I         049 23.04         4.4 0.30            122            204 292 
 SML  HZ EP        048 55.63                             117   -0.36 8  244 335 
 SML  HN EP   4    048 57.47                             117    1.48 0  244 335 
 SML  HE ES        049 24.17                             117   -0.44 8  244 335 
 SML  HN I         049 27.86        14.9 0.10            118            244 335 
 SML  HZ I         049 29.05         7.1 0.10                           244 335 
                                                                                
