 2010  423 0338 43.0 L   6.785 -73.038141.4  RSN  4 0.2 1.7LRSN                1
 GAP=183        0.36       3.6     6.9  5.7  0.7781E-01 -0.1677E+02  0.5125E+01E
 Epicentro: CEPITA - SANTANDER                                                 3
 ACTION:UPD 10-08-24 10:00 OP:vdl  STATUS:               ID:20100423033854 L   I
 2010-04-23-0334-40S.COL___104                                                 6
 STAT SP IPHASW D HRMM SECON CODA AMPLIT PERI AZIMU VELO AIN AR TRES W  DIS CAZ7
 BAR2 SZ EP   2    339  2.02                             169    -0.1 5   27 217 
 BAR2 SZ ES   2    339 16.99                             169    -0.1 5   27 217 
 BRR  HZ EP   1    339  4.21                             148    -0.1 7   83 296 
 BRR  HZ I         339  5.62        13.5 0.36                            83 296 
 BRR  HN ES   1    339 21.08                             148     0.1 7   83 296 
 BRI  SZ EP   2    339  6.52                             141     0.2 5  106  14 
 CHI  HZ EP   2    339 20.50                             116    -0.1 4  250 198 
 CHI  HE ES   2    339 50.26                             116     0.3 4  250 198 
 CHI  HZ I         339 57.58         2.3 0.44                           250 198 
                                                                                
