 2016 1223 0812 13.0 L   7.365 -73.214132.4  RSN  9 0.3 1.7LRSN                1
 GAP=178        0.76       4.2     2.7  5.2  0.2629E+01  0.2570E+01 -0.2064E+00E
 Epicentro: EL PLAYON - SANTANDER                                              3
 ACTION:UPD 17-01-11 20:18 OP:rebc STATUS:               ID:20161223081213 L   I
 OLDACT:UP  16-12-23 16:42 OP:cog  STATUS:               ID:20161223080742     3
 OLDACT:REG 16-12-23 13:24 OP:y    STATUS:               ID:20161223080742     3
 2016-12-23-0808-00M.COL___381                                                 6
 STAT SP IPHASW D HRMM SECON CODA AMPLIT PERI AZIMU VELO AIN AR TRES W  DIS CAZ7
 PAM  EZ EP        812 32.38                             156   -0.2510 56.9  93 
 PAM  EN ES        812 47.93                             156   -0.0110 56.9  93 
 PAM  EZ I         812 52.54         9.5 0.28            156           56.9  93 
 BRR  HZ EP        812 32.07                             153   -0.1110 61.9 243 
 BRR  HE ES        812 47.26                             153    0.1210 61.9 243 
 BRR  HZ I         812 48.13        22.2 0.20            151           61.9 243 
 BAR2 EZ EP        812 34.09                             145    0.1010 85.5 178 
 BAR2 EZ ES        812 50.20                             145   -0.1710 85.5 178 
 BAR2 EZ I         812 51.51        19.1 0.38            142           85.5 178 
 RUS  HZ EP        812 41.12                             126    0.06 9  163 175 
 RUS  HN ES        813  2.39                             126   -0.57 9  163 175 
 RUS  HZ I         813  6.33         2.2 0.29            124            163 175 
 PTB  HZ EP        812 40.84                             125    0.27 9  165 236 
 PTB  HN ES        813  2.47                             125    0.39 9  165 236 
 PTB  HZ I         813  4.68         7.7 0.28            124            165 236 
 ZAR  HZ EP        812 41.89                             122   -0.41 9  182 275 
 ZAR  HE ES        813  5.25                             122    0.10 9  182 275 
 ZAR  HZ I         813  8.68        14.1 0.26            123            182 275 
 TAM  HN ES        813  6.89                             122    0.58 9  188 123 
 CHI  HZ EP   4    812 59.76                             109    3.05 0  308 191 
 CHI  HE ES   4    813 28.75                             109   -2.05 0  308 191 
 CHI  HZ I         813 43.27         1.3 0.66            109            308 191 
 GUY2CHZ EP   4    813  3.72                             107    3.71 0  336 225 
 GUY2CHN ES   4    813 35.68                             107   -1.00 0  336 225 
 GUY2CHZ I         813 49.33         2.0 0.48                           336 225 
                                                                                
