 2016  423 0901 13.3 L   7.107 -73.954 74.9  RSN  5 0.2 0.9LRSN                1
 GAP=211        0.41       2.7     2.9  6.1  0.6522E+01 -0.1184E+02 -0.9374E+01E
 Epicentro: BARRANCABERMEJA - SANTANDER                                        3
 ACTION:UPD 16-05-05 14:23 OP:rebc STATUS:               ID:20160423090113 L   I
 OLDACT:UP  16-04-23 18:16 OP:cara STATUS:               ID:20160423085743     3
 OLDACT:ARG 16-04-23 12:41 OP:cara STATUS:               ID:20160423085743     3
 2016-04-23-0857-43M.COL___291                                                 6
 STAT SP IPHASW D HRMM SECON CODA AMPLIT PERI AZIMU VELO AIN AR TRES W  DIS CAZ7
 PTB  HZ EP   2    9 1 28.36                             127   -0.35 5 83.7 222 
 PTB  HN ES        9 1 40.83                             127    0.1210 83.7 222 
 PTB  HZ I         9 1 42.33         2.0 0.34            133           83.7 222 
 ZAR  HE ES        9 1 45.16                             119   -0.1110  109 293 
 ZAR  HZ I         9 1 49.69         3.7 0.10            126            109 293 
 SPBC HZ IP     C  9 1 37.42                             109    0.07 9  161 185 
 SPBC HN ES        9 1 55.96                             109   -0.14 9  161 185 
 SPBC HZ I         9 2  1.06         2.2 0.36            114            161 185 
 RUS  HZ EP        9 1 38.46                             109    0.16 9  165 144 
 RUS  HE ES        9 1 57.75                             109   -0.04 9  165 144 
 RUS  HZ I         9 2  0.63         0.7 0.58            114            165 144 
 URE  HZ EP        9 1 40.28                             106   -0.15 9  188 292 
 URE  HN ES        9 2  1.76                             106    0.19 9  188 292 
                                                                                
