 2013  423 0645 29.2 L   6.839 -73.193138.0  RSN  6 0.3 1.4LRSN                1
 GAP=129        0.58       3.7     3.6  5.5  0.3450E+01  0.3956E+01 -0.1876E+01E
 Epicentro: ZAPATOCA - SANTANDER                                               3
 ACTION:UPD 13-05-22 14:40 OP:EP   STATUS:               ID:20130423064529 L   I
 2013-04-23-0640-00M.COL___249                                                 6
 STAT SP IPHASW D HRMM SECON CODA AMPLIT PERI AZIMU VELO AIN AR TRES W  DIS CAZ7
 BAR2 SZ ES   1    646  2.34                             168   -0.26 8 27.3 178 
 BRR  HZ EP   1    645 49.07                             153   -0.03 8 64.6 297 
 BRR  HN ES   1    646  5.19                             153    0.54 8 64.6 297 
 BRR  HN I         646  7.18         8.2 0.46            153           64.6 297 
 PAM  SZ EP   1    645 50.87                             149    0.30 8 77.7  45 
 PAM  SE ES   2    646  6.77                             149   -0.50 5 77.7  45 
 PAM  SN I         646  8.22         2.9 0.26            155           77.7  45 
 RUS  HZ EP   1    645 52.76                             141    0.24 7  105 173 
 RUS  HN ES        646 10.68                             141   -0.0510  105 173 
 RUS  HN I         646 13.12         2.1 0.36            143            105 173 
 PTB  HZ EP        645 54.90                             131   -0.22 9  144 257 
 PTB  HN ES   1    646 15.39                             131    0.03 7  144 257 
 PTB  HN I         646 21.12         5.1 0.30            132            144 257 
 ZAR  HN ES   1    646 24.61                             121   -0.22 7  198 292 
                                                                                
