 2015 1123 0433 23.8 L   6.802 -73.152150.5  RSN 21 0.4 2.3LRSN                1
 GAP= 65        0.94       2.1     3.0  4.1 -0.1229E+01  0.3033E+01 -0.2307E+00E
 Epicentro: LOS SANTOS - SANTANDER                                             3
 ACTION:UPD 15-12-28 16:12 OP:cam  STATUS:               ID:20151123041745 L   I
 OLDACT:UPD 15-11-23 14:49 OP:Mher STATUS:               ID:20151123041745 L   3
 2015-11-23-0417-45M.COL___211                                                 6
 STAT SP IPHASW D HRMM SECON CODA AMPLIT PERI AZIMU VELO AIN AR TRES W  DIS CAZ7
 BAR2 EZ IP     D  433 44.17                             171    0.1210 23.4 188 
 BAR2 EZ ES        433 59.97                             171    0.1610 23.4 188 
 BAR2 EZ I         434  2.27        32.6 0.34            169           23.4 188 
 BRR  HN EP        433 46.05                             154    0.5710 70.5 299 
 BRR  HZ ES        434  2.51                             154    0.1610 70.5 299 
 BRR  HN I         434  6.06       114.5 0.16            150           70.5 299 
 PAM  EZ EP        433 46.98                             151    0.3910 77.7  40 
 PAM  EN ES        434  4.17                             151   -0.1610 77.7  40 
 PAM  EZ I         434  6.36        25.6 0.46            155           77.7  40 
 RUS  HZ EP        433 47.82                             145   -0.2710  101 176 
 RUS  HE ES        434  6.66                             145   -0.3410  101 176 
 TAM  HZ EP        433 52.30                             131    0.33 9  156 105 
 TAM  HN ES   4    434 12.57                             131   -1.34 0  156 105 
 TAM  HZ I         434 14.57        13.9 0.24            137            156 105 
 OCA  HZ EP        433 53.01                             131    0.50 9  160 353 
 OCA  HN ES        434 14.16                             131   -0.70 9  160 353 
 OCA  HZ I         434 20.16        36.1 0.20            131            160 353 
 SPBC HZ EP        433 53.10                             130    0.41 9  163 219 
 SPBC HN ES        434 15.16                             130   -0.03 9  163 219 
 SPBC HZ I         434 22.27        50.1 0.32            130            163 219 
 ZAR  HZ EP        433 56.76                             123    0.22 9  203 292 
 ZAR  HN ES        434 21.81                             123   -0.22 9  203 292 
 ZAR  HZ I         434 29.26        38.4 0.28            123            203 292 
 NOR  HZ EP        434  0.09                             119    0.28 8  234 234 
 NOR  HE ES        434 28.05                             119    0.19 8  234 234 
 NOR  HZ I         434 31.82        27.7 0.18            120            234 234 
 SML  HZ EP        434  0.63                             118   -0.07 8  243 335 
 SML  HE ES        434 29.01                             118   -0.43 8  243 335 
 SML  HZ I         434 34.48        33.4 0.10            119            243 335 
 HEL  HZ EP        434  4.37                             116    0.13 8  271 256 
 HEL  HN ES        434 36.06                             116    0.32 8  271 256 
 HEL  HZ I         434 43.45        11.4 0.24            116            271 256 
 URE  HZ EP        434  4.61                             114   -0.46 7  283 292 
 URE  HN ES   4    434 35.21                             114   -2.02 0  283 292 
 URE  HZ I         434 48.45        12.3 0.24            115            283 292 
 PTGC HZ EP        434  6.91                             112   -1.06 7  309 159 
 PTGC HE ES   4    434 40.02                             112   -2.37 0  309 159 
 PTGC HZ I         434 42.08         7.7 0.38            115            309 159 
 LL6C HZ EP        434  9.42                             111   -0.31 7  325 358 
 LL6C HN ES        434 44.93                             111   -0.59 7  325 358 
 ELA  HZ EP   4    434 13.26                             111    2.40 0  329 229 
 ELA  HN ES        434 47.72                             111    0.20 7  329 229 
 ELA  HZ I         434 55.91         7.8 0.36            112            329 229 
 CBOC HZ EP        434 11.55                             111    0.66 7  333 252 
 CBOC HN ES        434 46.61                             111   -0.98 7  333 252 
 CBOC HZ I         434 52.36         4.4 0.18            111            333 252 
 MON  HZ EP   4    434 11.42                             109   -1.54 0  353 308 
 MON  HN ES   4    434 48.95                             109   -2.32 0  353 308 
 MON  HZ I         435  4.97         4.3 0.54            110            353 308 
 ARGC HZ EP        434 14.29                             109    0.65 6  359 340 
 ARGC HE ES        434 52.78                             109    0.30 6  359 340 
 ARGC HZ I         434 59.94         3.1 0.26            110            359 340 
 PRA  HZ EP        434 17.16                             107   -0.36 6  392 209 
 PRA  HN ES        434 58.80                             107   -0.58 6  392 209 
 PRA  HZ I         435  4.83         6.6 0.40            108            392 209 
 ORTC HZ EP        434 17.96                             107    0.06 6  395 216 
 ORTC HN ES        434 59.63                             107   -0.44 6  395 216 
 ORTC HZ I         435  7.06         5.9 0.54            108            395 216 
 SJC  HZ EP   4    434 18.04                             106   -1.47 0  409 327 
 SJC  HN ES   4    434 58.63                             106   -4.29 0  409 327 
 SJC  HZ I         435  4.75         3.2 0.42            107            409 327 
                                                                                
