 2012  423 0214 11.0 L   7.167 -73.039 20.2  RSN  5 0.3 1.4LRSN                1
 GAP=119        0.70       2.9     2.4  4.3 -0.2274E+01 -0.1511E+00  0.5120E+01E
 Epicentro: BUCARAMANGA - SANTANDER                                            3
 ACTION:UP  12-07-05 11:55 OP:tino STATUS:               ID:20120423021411 L   I
 2012-04-23-0210-00M.COL___186                                                 6
 STAT SP IPHASW D HRMM SECON CODA AMPLIT PERI AZIMU VELO AIN AR TRES W  DIS CAZ7
 PAM  SZ EP        214 19.33                             114     0.310   42  63 
 PAM  SN ES   1    214 24.97                             114    -0.3 7   42  63 
 BAR2 SZ EP   1    214 21.81                             105    -0.3 7   66 194 
 BAR2 SZ ES   1    214 30.88                             105     0.1 7   66 194 
 BAR2 SZ I         214 31.68        29.5 0.16                            66 194 
 BRR  HZ EP        214 23.17                             103     0.010   75 265 
 BRR  HE ES   1    214 32.65                             103     0.0 7   75 265 
 BRR  HZ I         214 36.02        14.1 0.15                            75 265 
 OCA  SZ EP   2    214 30.24                              56    -0.1 5  122 345 
 RUS  HZ EP   1    214 33.68                              56     0.6 7  141 182 
 RUS  HN ES   1    214 49.99                              56    -0.4 7  141 182 
 RUS  HZ I         214 53.28         3.0 0.19                           141 182 
                                                                                
