 2011  123 0901  8.6 L   7.411 -73.217134.1  RSN  9 0.5 1.9LRSN                1
 GAP=115        0.98       5.0     7.7  9.1 -0.3132E+01  0.9346E+01  0.1230E+01E
 Epicentro: EL PLAYON - SANTANDER                                              3
 ACTION:UP  11-02-08 08:42 OP:pat  STATUS:               ID:20110123090108 L   I
 2011-01-23-0857-42S.COL___137                                                 6
 STAT SP IPHASW D HRMM SECON CODA AMPLIT PERI AZIMU VELO SNR AR TRES W  DIS CAZ7
 BAR2 SZ IP        9 1 30.28                             144     0.210   91 178 
 BAR2 SZ ES   1    9 1 46.46                             144    -0.4 7   91 178 
 BAR2 SZ I         9 1 47.91        37.7 0.42                            91 178 
 OCA  SZ IP        9 1 30.27                             143     0.210   92 353 
 OCA  SZ I         9 1 30.97        23.7 0.20                            92 353 
 OCA  SZ ES   1    9 1 47.14                             143     0.2 7   92 353 
 RUS  HZ EP   1    9 1 37.34                             126     0.1 7  169 175 
 RUS  HZ I         9 2  6.25         3.8 0.45                           169 175 
 NOR  SZ EP   2    9 1 48.40                             112     0.3 4  274 222 
 HEL  HZ EP   2    9 1 50.42                             111     0.3 4  289 242 
 HEL  HE ES   2    9 2 21.80                             111    -0.8 4  289 242 
 HEL  HZ I         9 2 31.00         4.7 0.47                           289 242 
 MON  HZ EP   1    9 1 50.77                             109    -1.2 5  308 299 
 MON  HZ I         9 2 36.29         3.0 0.34                           308 299 
 CHI  HZ EP   2    9 1 53.91                             109     1.0 3  313 191 
 CHI  HZ I         9 2 35.23         2.3 0.34                           313 191 
 SDV  BZ IP     C  9 1 54.07                             108    -0.4 7  328  60 
 SDV  BZ I         9 2 29.69         5.5 0.59                           328  60 
 DBB  SZ EP   1    9 1 55.54                             108     0.6 5  333 263 
                                                                                
