 2017  323 0744  0.2 L   6.830 -73.171151.0  RSN  4 0.3 1.5LRSN                1
 GAP=246        0.83       7.1     6.5  7.3 -0.2281E+01  0.5796E+01  0.1699E+02E
 Epicentro: ZAPATOCA - SANTANDER                                               3
 ACTION:UPD 17-05-25 18:44 OP:jn   STATUS:               ID:20170323074400 L   I
 OLDACT:DUP 17-03-23 16:52 OP:lv   STATUS:               ID:20170323073745d    3
 2017-03-23-0738-00M.COL___379                                                 6
 STAT SP IPHASW D HRMM SECON CODA AMPLIT PERI AZIMU VELO AIN AR TRES W  DIS CAZ7
 BAR2 EZ EP        744 20.45                             170   -0.0610 26.3 183 
 BAR2 EZ ES        744 36.05                             170   -0.3110 26.3 183 
 BAR2 EZ I         744 37.85         5.5 0.09            163           26.3 183 
 BRR  HN ES        744 38.94                             155    0.4810 67.2 297 
 PTB  HZ EP        744 27.21                             134   -0.19 9  146 257 
 PTB  HN ES        744 48.18                             134   -0.45 9  146 257 
 PTB  HZ I         744 50.32         4.7 0.05            133            146 257 
 SPBC HZ EP        744 29.41                             130    0.24 9  164 217 
 SPBC HN ES        744 52.09                             130    0.31 9  164 217 
 SPBC HZ I         744 57.73         3.9 0.06            128            164 217 
                                                                                
