 2013  323 0753 10.4 L   6.784 -73.149150.6  RSN 12 0.4 2.8LRSN                1
 GAP= 71        1.05       3.3     3.5  5.4  0.1088E+01  0.1996E+01  0.2183E+01E
 Epicentro: LOS SANTOS - SANTANDER                                             3
 ACTION:UPD 13-04-09 14:04 OP:ep   STATUS:               ID:20130323075310 L   I
 2013-03-23-0750-00M.COL___245                                                 6
 STAT SP IPHASW D HRMM SECON CODA AMPLIT PERI AZIMU VELO AIN AR TRES W  DIS CAZ7
 BAR2 SZ IP        753 30.49                             171   -0.0610 21.6 190 
 BAR2 SZ ES        753 45.70                             171   -0.5910 21.6 190 
 BAR2 SZ I         753 48.16        89.0 0.38            170           21.6 190 
 GIR2 SZ EP        753 30.54                             167   -0.1210 32.9 351 
 GIR2 SZ ES        753 46.62                             167    0.1310 32.9 351 
 GIR2 SZ I         753 47.84        55.9 0.18            166           32.9 351 
 BRR  HZ IP     C  753 32.37                             153    0.3010 71.7 300 
 BRR  HN ES        753 49.79                             153    0.7910 71.7 300 
 BRR  HN I         753 50.79       147.8 0.22            151           71.7 300 
 PAM  SZ EP     C  753 33.27                             151    0.0810 79.0  39 
 PAM  SN ES        753 50.54                             151   -0.4610 79.0  39 
 PAM  SN I         753 51.76        76.1 0.44            154           79.0  39 
 RUS  HZ IP     D  753 34.30                             145   -0.1810 98.9 176 
 RUS  HN ES        753 53.48                             145    0.2010 98.9 176 
 RUS  HN I         753 54.57        41.9 0.16            146           98.9 176 
 PTB  HZ EP        753 36.96                             133   -0.71 9  147 259 
 PTB  HN ES        753 58.44                             133   -0.53 9  147 259 
 PTB  HN I         754  3.97       213.2 0.34            132            147 259 
 TAM  HZ IP     D  753 38.66                             132    0.23 9  155 104 
 TAM  HE ES        754  0.70                             132    0.39 9  155 104 
 TAM  HE I         754  1.53        48.9 0.52            134            155 104 
 OCA  HZ EP        753 38.72                             130   -0.50 9  162 353 
 OCA  HN ES        754  1.78                             130    0.07 9  162 353 
 OCA  HN I         754  5.74       146.5 0.32            131            162 353 
 ZAR  HZ EP        753 43.17                             123    0.00 9  204 293 
 ZAR  HN ES        754  9.44                             123    0.69 9  204 293 
 ZAR  HN I         754 14.70        99.9 0.54            123            204 293 
 CHI  HZ EP        753 48.59                             118    0.44 8  247 195 
 CHI  HN ES        754 17.69                             118    0.07 8  247 195 
 CHI  HN I         754 20.23        41.5 0.30            118            247 195 
 HEL  HZ EP   4    753 52.50                             116    1.75 0  271 256 
 HEL  HN ES   4    754 23.51                             116    1.27 0  271 256 
 HEL  HN I         754 32.14        16.4 0.62            115            271 256 
 URE  HZ EP   4    753 50.43                             114   -1.28 0  284 292 
 URE  HN ES   4    754 22.33                             114   -1.63 0  284 292 
 URE  HN I         754 34.40        55.5 0.22            114            284 292 
                                                                                
