 2012 1023 0854 52.3 L   6.812 -73.046148.0  RSN  6 0.5 2.3LRSN                1
 GAP=193        1.00       5.3     8.2 10.4  0.1906E+02  0.2370E+01 -0.8722E+01E
 Epicentro: LOS SANTOS - SANTANDER                                             3
 ACTION:UPD 12-11-22 17:05 OP:ep   STATUS:               ID:20121023085452 L   I
 2012-10-23-0850-00M.COL___234                                                 6
 STAT SP IPHASW D HRMM SECON CODA AMPLIT PERI AZIMU VELO AIN AR TRES W  DIS CAZ7
 BAR2 SZ EP   1    855 11.68                             169   -0.66 7 28.6 212 
 BAR2 SZ ES   2    855 27.61                             169   -0.34 5 28.6 212 
 GIR2 SZ EP   1    855 12.82                             167    0.49 7 33.7 331 
 BRR  HZ EP   1    855 14.87                             150    0.61 7 80.5 294 
 BRR  HN ES        855 31.98                             150    0.6210 80.5 294 
 BRR  HN I         855 35.95        30.7 0.15                          80.5 294 
 RUS  HZ EP   1    855 16.60                             144    0.22 7  102 182 
 RUS  HN ES        855 34.92                             144   -0.2210  102 182 
 RUS  HN I         855 36.56        21.2 0.32                           102 182 
 OCA  HN ES        855 42.74                             130   -0.35 9  161 349 
 ZAR  HZ EP   1    855 25.90                             122   -0.02 6  214 291 
 ZAR  HE ES        855 51.57                             122   -0.55 8  214 291 
 ZAR  HE I         855 54.00        23.7 0.18                           214 291 
                                                                                
