 2012 1023 0547 36.0 L   6.807 -73.137145.2  RSN  8 0.3 2.3LRSN                1
 GAP=137        0.56       3.0     4.7  5.6 -0.1286E+00  0.1049E+02  0.5533E+01E
 Epicentro: LOS SANTOS - SANTANDER                                             3
 ACTION:UPD 12-11-22 17:05 OP:ep   STATUS:               ID:20121023054736 L   I
 2012-10-23-0540-00M.COL___234                                                 6
 STAT SP IPHASW D HRMM SECON CODA AMPLIT PERI AZIMU VELO AIN AR TRES W  DIS CAZ7
 BAR2 SZ EP   1    547 55.27                             170   -0.29 7 24.3 192 
 BAR2 SZ ES   2    548 10.50                             170   -0.33 5 24.3 192 
 GIR2 SZ EP   1    547 55.35                             167   -0.22 7 30.7 348 
 GIR2 SZ ES   2    548 10.60                             167   -0.24 5 30.7 348 
 BRR  HZ EP   1    547 57.08                             152   -0.01 7 71.7 298 
 BRR  HN ES   2    548 14.07                             152    0.51 5 71.7 298 
 BRR  HN I         548 14.72        58.5 0.19                          71.7 298 
 PAM  SZ EP   1    547 58.31                             151    0.25 7 76.1  39 
 PAM  SN ES        548 15.48                             151    0.2010 76.1  39 
 PAM  SN I         548 16.57        23.6 0.45                          76.1  39 
 RUS  HZ EP   1    547 59.30                             143   -0.43 7  101 177 
 RUS  HN ES   2    548 18.60                             143    0.35 5  101 177 
 OCA  HE ES   2    548 25.52                             130   -0.65 5  160 353 
 ZAR  HZ EP   1    548  8.83                             122    0.38 6  205 292 
 ZAR  HN ES   2    548 33.57                             122   -0.21 4  205 292 
 ZAR  HN I         548 40.31        14.4 0.24                           205 292 
 CHI  HZ EP   1    548 14.09                             117    0.33 6  250 195 
 CHI  HN ES   1    548 43.29                             117    0.06 6  250 195 
 CHI  HN I         548 45.79        16.1 0.30                           250 195 
                                                                                
