 2016  923 0045 18.6 L   6.783 -73.026147.9  RSN  9 0.4 1.8LRSN                1
 GAP=248        0.55       3.7     5.1  5.4 -0.2099E+00 -0.2834E+01  0.5339E+01E
 Epicentro: CEPITA - SANTANDER                                                 3
 ACTION:UPD 17-08-17 21:15 OP:lp   STATUS:               ID:20160923004518 L   I
 OLDACT:UP  16-09-23 12:49 OP:and  STATUS:               ID:20160923003742d    3
 OLDACT:DUP 16-09-23 12:44 OP:and  STATUS:               ID:20160923003742d    3
 OLDACT:REG 16-09-23 10:42 OP:and  STATUS:               ID:20160923003741     3
 2016-09-23-0038-00M.COL___333                                                 6
 STAT SP IPHASW D HRMM SECON CODA AMPLIT PERI AZIMU VELO AIN AR TRES W  DIS CAZ7
 BAR2 EZ EP   2    045 38.41                             169   -0.12 5 27.3 219 
 BAR2 EZ ES   2    045 53.90                             169   -0.21 5 27.3 219 
 BAR2 EZ I         045 56.35        10.3 0.20            161           27.3 219 
 BRR  HZ EP        045 40.60                             149   -0.0910 83.8 295 
 BRR  HN ES        045 57.94                             149   -0.0210 83.8 295 
 RUS  HZ EP        045 42.53                             145    0.1410 98.7 184 
 RUS  HN ES   2    046  1.25                             145    0.28 5 98.7 184 
 RUS  HZ I         046  2.49         4.0 0.20            142           98.7 184 
 PTB  HZ EP   4    045 45.49                             130   -1.38 0  160 260 
 PTB  HN ES   4    046  6.91                             130   -2.03 0  160 260 
 PTB  HZ I         046 11.49         5.3 0.23            128            160 260 
 SPBC HZ EP        045 47.68                             128   -0.23 9  170 223 
 SPBC HE ES        046 11.00                             128    0.20 9  170 223 
 SPBC HZ I         046 15.93         5.6 0.22            126            170 223 
 ZAR  HZ EP   2    045 53.21                             121    0.72 4  217 291 
 ZAR  HN ES   4    046 16.84                             121   -2.11 0  217 291 
 ZAR  HZ I         046 22.66        10.1 0.28            121            217 291 
 NOR  HZ EP   2    045 54.85                             118   -0.62 4  245 237 
 NOR  HE ES   2    046 23.45                             118   -0.81 4  245 237 
 NOR  HZ I         046 31.24         3.5 0.23            117            245 237 
 URE  HZ EP   4    046  2.75                             113    1.56 0  297 291 
 URE  HE ES   4    046 29.92                             113   -4.52 0  297 291 
 URE  HZ I         046 33.55         5.0 0.16            114            297 291 
 GUY2CHZ EP   3    046  4.59                             112    1.21 2  311 236 
 GUY2CHN ES   2    046 38.93                             112    0.59 3  311 236 
 GUY2CHZ I         046 44.51         2.6 0.38                           311 236 
 SJC  HZ EP   4    046 12.86                             106   -2.38 0  418 326 
 SJC  HN ES   4    046 54.66                             106   -4.79 0  418 326 
                                                                                
