 2011  623 0051 10.3 L   6.811 -73.134152.5  RSN 10 0.2 1.7LRSN                1
 GAP=137        0.50       2.7     4.5  4.2 -0.5860E+01  0.9682E+00  0.8325E+00E
 Epicentro: LOS SANTOS - SANTANDER                                             3
 ACTION:UP  11-07-14 19:07 OP:ep   STATUS:               ID:20110623005110 L   I
 2011-06-23-0046-26S.COL___140                                                 6
 STAT SP IPHASW D HRMM SECON CODA AMPLIT PERI AZIMU VELO SNR AR TRES W  DIS CAZ7
 BTL  SZ EP   1    051 30.98                             173     0.3 7   19 309 
 BAR2 SZ EP   1    051 30.64                             170    -0.1 7   25 192 
 BAR2 SZ ES   1    051 46.64                             170    -0.1 7   25 192 
 BAR2 SZ I         051 47.55         8.7 0.54                            25 192 
 GIR2 SZ EP   1    051 30.73                             168     0.0 7   30 347 
 GIR2 SZ ES   2    051 46.92                             168     0.2 5   30 347 
 BRR  HZ EP   2    051 31.87                             153    -0.3 5   72 297 
 BRR  HE ES   1    051 49.42                             153     0.1 7   72 297 
 BRR  HZ I         051 52.39        14.8 0.15                            72 297 
 PAM  SN ES   2    051 51.00                             153     0.1 5   76  39 
 RUS  HZ EP   1    051 34.76                             145     0.0 7  102 177 
 RUS  HZ I         051 53.06         4.3 0.54                           102 177 
 RUS  HN ES   1    051 53.99                             145     0.1 7  102 177 
 BRI  SZ EP   1    051 34.41                             143    -0.3 7  107  20 
 BRI  SZ ES   1    051 53.38                             143    -0.4 7  107  20 
 GRA  SZ EP   1    051 36.41                             139     0.4 7  124  17 
 GRA  SZ ES   1    051 56.17                             139     0.1 7  124  17 
 GRA  SZ I         051 57.33         6.6 0.35                           124  17 
 NOR  SN ES   2    052 14.62                             120    -0.3 4  236 234 
 RREF HZ EP   2    051 57.35                             112     0.4 3  324 229 
 RREF HE ES   2    052 33.09                             112    -0.2 3  324 229 
 RREF HZ I         052 42.37         3.3 0.29                           324 229 
                                                                                
