 2017  123 0548 53.7 L   6.775 -73.164143.5  RSN  7 0.3 1.2LRSN                1
 GAP=135        0.69       2.8     3.0  4.6  0.7452E+00  0.2646E+01  0.3048E+01E
 Epicentro: LOS SANTOS - SANTANDER                                             3
 ACTION:UPD 17-05-22 16:02 OP:jn   STATUS:               ID:20170123054853 L   I
 OLDACT:REG 17-01-23 18:13 OP:lv   STATUS:               ID:20170123054743     3
 2017-01-23-0548-00M.COL___341                                                 6
 STAT SP IPHASW D HRMM SECON CODA AMPLIT PERI AZIMU VELO AIN AR TRES W  DIS CAZ7
 BAR2 EZ EP        549 12.93                             172   -0.0610 20.3 186 
 BAR2 EZ ES        549 28.06                             172    0.0210 20.3 186 
 BAR2 EZ I         549 30.66         6.2 0.34            172           20.3 186 
 BRR  HZ EP        549 14.66                             152    0.0910 70.8 301 
 BRR  HN ES        549 31.39                             152    0.5310 70.8 301 
 BRR  HZ I         549 35.00         3.2 0.18            154           70.8 301 
 PAM  EZ EP        549 15.83                             149   -0.0410 80.8  39 
 PAM  EE ES        549 33.09                             149   -0.0810 80.8  39 
 PAM  EZ I         549 35.94         2.6 0.36            152           80.8  39 
 RUS  HZ EP        549 16.90                             144   -0.1310 98.0 175 
 RUS  HN ES        549 34.98                             144   -0.2510 98.0 175 
 RUS  HZ I         549 36.94         1.9 0.28            146           98.0 175 
 PTB  HZ EP        549 20.09                             132   -0.15 9  145 260 
 PTB  HN ES        549 40.48                             132   -0.47 9  145 260 
 PTB  HZ I         549 42.67         2.2 0.15            134            145 260 
 ZAR  HN ES        549 51.00                             122   -0.03 9  203 293 
 CHI  HZ EP        549 31.20                             117    0.29 8  245 195 
 CHI  HN ES        550  0.42                             117    0.48 8  245 195 
 CHI  HZ I         550  2.73         1.5 0.38            119            245 195 
                                                                                
