 2017  223 0742 34.0 L   6.063 -73.601122.4  RSN  7 0.3 1.2LRSN                1
 GAP= 77        0.72       2.7     3.2  5.3 -0.1517E+01  0.6396E+01  0.1481E+01E
 Epicentro: CHIPATA - SANTANDER                                                3
 ACTION:UPD 17-05-24 15:39 OP:jn   STATUS:               ID:20170223074234 L   I
 OLDACT:UP  17-02-23 18:47 OP:edw  STATUS:               ID:20170223073743     3
 OLDACT:REG 17-02-23 13:42 OP:edw  STATUS:               ID:20170223073743     3
 2017-02-23-0738-00M.COL___367                                                 6
 STAT SP IPHASW D HRMM SECON CODA AMPLIT PERI AZIMU VELO AIN AR TRES W  DIS CAZ7
 RUS  HZ IP        742 52.67                             152   -0.0510 60.3 108 
 RUS  HN ES        743  7.26                             152   -0.0610 60.3 108 
 RUS  HZ I         743  8.94         2.0 0.30            156           60.3 108 
 BAR2 EZ EP        742 53.74                             146    0.5010 74.6  38 
 BAR2 EZ ES        743  7.95                             146   -0.3010 74.6  38 
 BAR2 EZ I         743  9.14        11.8 0.24            151           74.6  38 
 PTB  HZ EP   9    742 54.70                             135   -0.82 0  108 299 
 PTB  HN ES        743 11.37                             136   -0.1210  108 299 
 PTB  HZ I         743 14.46         1.9 0.28            137            108 299 
 BRR  HZ EP        742 56.27                             133    0.1010  116 354 
 BRR  HN ES        743 13.50                             133    0.0410  116 354 
 NOR  HZ EP        742 58.97                             125   -0.56 9  151 249 
 NOR  HN ES        743 19.75                             125    0.30 9  151 249 
 NOR  HZ I         743 23.24         3.2 0.32            127            151 249 
 CHI  HZ EP   4    742 59.32                             124   -1.52 0  159 185 
 CHI  HN ES        743 21.86                             124    0.09 9  159 185 
 CHI  HZ I         743 24.12         1.9 0.50            126            159 185 
 CBOC HZ EP        743 12.29                             110   -0.12 8  268 265 
                                                                                
