 2012 1123 0041 19.9 L   7.122 -73.153132.6  RSN  5 0.1 1.3LRSN                1
 GAP=178        0.33       2.9     2.8  3.3 -0.1034E+01  0.1332E+01 -0.5688E+00E
 Epicentro: BUCARAMANGA - SANTANDER                                            3
 ACTION:UPD 12-12-05 15:35 OP:}ep  STATUS:               ID:20121123004119 L   I
 2012-11-23-0037-46M.COL___209                                                 6
 STAT SP IPHASW D HRMM SECON CODA AMPLIT PERI AZIMU VELO AIN AR TRES W  DIS CAZ7
 GIR2 SZ EP   1    041 37.56                             177    0.02 7 6.56 224 
 GIR2 SZ ES   1    041 51.24                             177   -0.08 7 6.56 224 
 GIR2 SZ I         041 56.09         3.4 0.44                          6.56 224 
 PAM  SZ EP   1    041 39.62                             156    0.16 7 55.5  64 
 BAR2 SZ EP   1    041 39.19                             155   -0.06 7 58.7 183 
 BAR2 SZ ES   1    041 54.30                             155   -0.07 7 58.7 183 
 BAR2 SZ I         041 56.23         7.2 0.28                          58.7 183 
 RUS  HZ EP   1    041 45.35                             132   -0.01 7  136 177 
 RUS  HE ES   1    042  5.31                             132    0.07 7  136 177 
 PTB  HZ EP   1    041 46.55                             127   -0.22 7  158 246 
 PTB  HN ES   1    042  7.94                             127    0.19 7  158 246 
 PTB  HZ I         042 10.11         2.8 0.22                           158 246 
                                                                                
