 2012  523 0517 36.0 L   6.902 -73.024149.7  RSN  4 0.1 1.5LRSN                1
 GAP=255        0.34       6.4     4.5  4.2  0.1909E+02  0.5764E-01 -0.7892E+01E
 Epicentro: PIEDECUESTA - SANTANDER                                            3
 ACTION:UP  12-07-05 12:07 OP:pat  STATUS:               ID:20120523051736 L   I
 2012-05-23-0510-00M.COL___200                                                 6
 STAT SP IPHASW D HRMM SECON CODA AMPLIT PERI AZIMU VELO SNR AR TRES W  DIS CAZ7
 BAR2 SZ ES   1    518 12.44                             165     0.0 8   38 207 
 BAR2 SZ I         518 21.38        14.7 0.60                            38 207 
 RUS  HZ EP   1    518  0.81                             142    -0.1 8  112 183 
 RUS  HN ES   2    518 20.54                             142     0.1 5  112 183 
 RUS  HZ I         518 21.81         2.9 0.40                           112 183 
 PTB  HZ EP        518  4.71                             130     0.010  163 256 
 PTB  HE ES   1    518 27.06                             130     0.0 7  163 256 
 PTB  HZ I         518 28.07         2.1 0.23                           163 256 
 ZAR  HZ EP   2    518  9.82                             122     0.2 5  213 288 
 ZAR  HN ES   2    518 35.64                             122    -0.1 5  213 288 
 ZAR  HZ I         518 42.01         2.7 0.39                           213 288 
                                                                                
