 2010 1123 0558 43.9 L   6.733 -73.100144.6  RSN  9 0.4 2.2LRSN                1
 GAP=164        0.95       4.5     7.7  8.7 -0.9944E+01  0.8754E+01  0.7092E+00E
 Epicentro: JORDAN - SANTANDER                                                 3
 ACTION:UP  10-12-17 16:54 OP:REBC STATUS:               ID:20101123055843 L   I
 2010-11-23-0556-41S.COL___132                                                 6
 STAT SP IPHASW D HRMM SECON CODA AMPLIT PERI AZIMU VELO SNR AR TRES W  DIS CAZ7
 BAR2 SZ EP        559  3.24                             173    -0.110   18 211 
 BAR2 SZ I         559 19.41        39.4 0.37                            18 211 
 BRR  HZ IP     D  559  5.33                             150    -0.110   79 302 
 BRR  HZ I         559  5.70        44.4 0.10                            79 302 
 BRR  HN ES   1    559 22.61                             150     0.4 7   79 302 
 RUS  HZ EP   1    559  7.22                             146     0.2 7   93 179 
 RUS  HN ES   1    559 24.99                             146     0.0 7   93 179 
 RUS  HZ I         559 26.75        29.9 0.25                            93 179 
 GRA  SZ EP        559  9.54                             135     0.010  132  14 
 GRA  SZ I         559 31.87        13.8 0.25                           132  14 
 OCA  SZ EP   1    559 12.32                             128    -0.6 7  168 352 
 OCA  SZ I         559 44.57        17.6 0.46                           168 352 
 CHI  HZ EP   1    559 21.17                             118     0.2 6  243 197 
 CHI  HE ES   1    559 49.67                             118    -0.1 6  243 197 
 CHI  HZ I         559 53.19         4.4 0.38                           243 197 
 HEL  HZ EP   1    559 24.93                             114     0.5 6  275 258 
 HEL  HZ I         6 0  2.48         7.7 0.56                           275 258 
 RREF HZ EP   1    559 30.90                             111     1.0 5  321 231 
 RREF HN ES        6 0  5.01                             111    -0.8 7  321 231 
 RREF HZ I         6 0 12.56         9.3 0.13                           321 231 
 PRA  HZ EP   1    559 37.00                             107     0.1 4  388 211 
 PRA  HZ I         6 0 22.83         9.8 0.29                           388 211 
                                                                                
