 2014  823 0843  1.2 L   6.809 -73.183138.0  RSN  6 0.5 1.5LRSN                1
 GAP=144        1.27       7.3     6.8  9.3 -0.1985E+02  0.3033E+02 -0.5301E+01E
 Epicentro: ZAPATOCA - SANTANDER                                               3
 ACTION:UPD 14-09-15 21:52 OP:nd   STATUS:               ID:20140823084301 L   I
 OLDACT:REG 14-08-23 15:39 OP:stll STATUS:               ID:20140823083809     3
 2014-08-23-0838-09M.COL___220                                                 6
 STAT SP IPHASW D HRMM SECON CODA AMPLIT PERI AZIMU VELO AIN AR TRES W  DIS CAZ7
 BAR2 SZ EP        843 19.78                             170   -0.1310 24.0 180 
 BAR2 SZ ES        843 34.84                             170    0.3410 24.0 180 
 BAR2 SZ I         843 38.14         9.4 0.26            166           24.0 180 
 PAM  SZ EP        843 22.51                             149   -0.2010 79.3  42 
 PAM  SZ I         843 22.81         9.5 0.24            146           79.3  42 
 PAM  SN ES        843 39.64                             149    0.1510 79.3  42 
 RUS  HZ EP        843 24.11                             142   -0.1910  102 174 
 RUS  HN ES        843 42.32                             142    0.0010  102 174 
 RUS  HZ I         843 43.26         3.1 0.22            138            102 174 
 PTB  HZ EP        843 26.25                             131   -0.94 9  144 258 
 PTB  HN ES        843 47.31                             131   -0.15 9  144 258 
 PTB  HZ I         843 52.50         3.8 0.48            121            144 258 
 HEL  HZ EP        843 42.11                             113    1.50 8  268 255 
 HEL  HZ I         844 18.99         1.8 0.34            107            268 255 
 GUY2CHZ EP        843 44.64                             111    0.49 7  298 234 
 GUY2CHN ES        844 17.40                             111   -0.24 7  298 234 
 GUY2CHZ I         844 28.43         2.1 0.44                           298 234 
                                                                                
