 2011 1123 0021 27.8 L   6.789 -73.130146.0  RSN  6 0.3 1.6LRSN                1
 GAP=139        0.62       4.1     4.3  6.5  0.1620E+01  0.5036E+01  0.9526E+00E
 Epicentro: LOS SANTOS - SANTANDER                                             3
 ACTION:UPD 12-07-13 16:11 OP:ep   STATUS:               ID:20111123002127 L   I
 2011-11-23-0017-56S.COL___178                                                 6
 STAT SP IPHASW D HRMM SECON CODA AMPLIT PERI AZIMU VELO AIN AR TRES W  DIS CAZ7
 BAR2 SZ EP   1    021 47.22                             171   -0.25 7 22.5 195 
 BAR2 SZ ES   1    022  2.25                             171   -0.54 7 22.5 195 
 BAR2 SZ I         022  4.27        10.2 0.24                          22.5 195 
 BRR  HZ EP   1    021 49.43                             152    0.31 7 73.3 299 
 BRR  HE ES   1    022  6.13                             152    0.40 7 73.3 299 
 BRR  HZ I         022 10.90         9.5 0.15                          73.3 299 
 PAM  SZ EP   1    021 50.08                             151    0.02 7 77.2  38 
 PAM  SE ES   1    022  7.37                             151   -0.03 7 77.2  38 
 RUS  HZ EP   1    021 51.40                             144   -0.10 7 99.2 177 
 RUS  HN ES   1    022 10.40                             144    0.43 7 99.2 177 
 RUS  HZ I         022 11.27         6.0 0.16                          99.2 177 
 ZAR  HN ES   1    022 25.75                             122   -0.24 6  206 292 
 NOR  SN ES   2    022 31.34                             118   -0.25 4  235 235 
                                                                                
