 2017  123 0333 31.0 L   6.786 -73.159142.5  RSN  7 0.4 1.2LRSN                1
 GAP=135        0.95       3.8     4.2  6.3  0.1428E+01  0.5050E+01  0.5822E+01E
 Epicentro: LOS SANTOS - SANTANDER                                             3
 ACTION:UPD 17-05-22 16:02 OP:jn   STATUS:               ID:20170123033331 L   I
 OLDACT:DUP 17-01-23 15:46 OP:lv   STATUS:               ID:20170123032731d    3
 2017-01-23-0328-00M.COL___349                                                 6
 STAT SP IPHASW D HRMM SECON CODA AMPLIT PERI AZIMU VELO AIN AR TRES W  DIS CAZ7
 BAR2 EZ EP        333 49.90                             171   -0.2710 21.6 187 
 BAR2 EZ ES        334  4.86                             171   -0.2910 21.6 187 
 BAR2 EZ I         334  7.69         5.0 0.40            171           21.6 187 
 BRR  HZ EP        333 51.75                             152    0.0110 70.7 300 
 BRR  HN ES        334  8.66                             152    0.7310 70.7 300 
 PAM  EZ EP        333 52.89                             150   -0.0810 79.5  40 
 PAM  EN ES        334 10.05                             150   -0.0810 79.5  40 
 PAM  EZ I         334 12.35         2.8 0.26            152           79.5  40 
 RUS  HZ EP        333 54.10                             143   -0.2010 99.2 175 
 RUS  HN ES        334 12.81                             143    0.3110 99.2 175 
 RUS  HZ I         334 13.99         1.3 0.28            145           99.2 175 
 PTB  HZ EP        333 57.62                             132    0.10 9  146 259 
 PTB  HE ES        334 17.40                             132   -0.82 9  146 259 
 PTB  HZ I         334 20.60         2.0 0.12            132            146 259 
 ZAR  HE ES        334 28.39                             122    0.19 9  203 293 
 ZAR  HZ I         334 33.75         2.5 0.09            122            203 293 
 CHI  HZ EP        334  8.67                             117    0.38 8  247 195 
 CHI  HN ES        334 37.59                             117    0.20 8  247 195 
 CHI  HZ I         334 41.12         1.1 0.33            118            247 195 
                                                                                
