 2011 1023 0105 20.1 L   6.778 -73.112150.0  RSN  7 0.2 1.8LRSN                1
 GAP=142        0.40       3.2     4.2  4.8  0.1674E+01  0.5284E+00 -0.1511E+01E
 Epicentro: LOS SANTOS - SANTANDER                                             3
 ACTION:UPD 12-07-13 16:05 OP:ep   STATUS:               ID:20111023010520 L   I
 2011-10-23-0103-32S.COL___171                                                 6
 STAT SP IPHASW D HRMM SECON CODA AMPLIT PERI AZIMU VELO AIN AR TRES W  DIS CAZ7
 BAR2 SZ EP   1    1 5 39.96                             171   -0.27 7 22.0 201 
 BAR2 SZ ES   2    1 5 55.82                             171   -0.09 5 22.0 201 
 BAR2 SZ I         1 5 56.40         9.3 0.48                          22.0 201 
 GIR2 SZ EP   2    1 5 40.18                             166   -0.19 5 34.4 345 
 GIR2 SZ ES   2    1 5 56.56                             166    0.38 5 34.4 345 
 BRR  HZ EP   1    1 5 42.04                             152    0.07 7 75.6 299 
 BRR  HZ I         1 5 42.31        18.3 0.25                          75.6 299 
 BRR  HN ES   2    1 5 59.29                             152    0.27 5 75.6 299 
 PAM  SZ EP   1    1 5 42.83                             152    0.07 7 77.0  36 
 PAM  SN ES   2    1 6  0.30                             152   -0.12 5 77.0  36 
 RUS  HZ EP   2    1 5 44.46                             145    0.36 5 98.0 178 
 RUS  HN ES   2    1 6  2.67                             145   -0.14 5 98.0 178 
 RUS  HZ I         1 6  3.58         4.5 0.50                          98.0 178 
 OCA  SZ EP   2    1 5 49.35                             130    0.33 5  163 352 
 OCA  SZ ES   2    1 6 11.21                             130   -0.36 5  163 352 
 OCA  SZ I         1 6 13.15        11.1 0.55                           163 352 
 ZAR  HN ES   2    1 6 18.91                             123   -0.24 4  208 292 
 ZAR  HZ I         1 6 25.28         6.1 0.33                           208 292 
                                                                                
