 2017  123 0552 33.6 L   6.753 -73.155141.5  RSN  5 0.3 0.9LRSN                1
 GAP=137        0.88       4.6     4.5  6.5 -0.1858E+01  0.3736E+01  0.1099E+01E
 Epicentro: LOS SANTOS - SANTANDER                                             3
 ACTION:UPD 17-05-22 16:02 OP:jn   STATUS:               ID:20170123055233 L   I
 OLDACT:DUP 17-01-23 18:15 OP:lv   STATUS:               ID:20170123054744d    3
 2017-01-23-0548-00M.COL___341                                                 6
 STAT SP IPHASW D HRMM SECON CODA AMPLIT PERI AZIMU VELO AIN AR TRES W  DIS CAZ7
 BAR2 EZ EP        552 52.42                             172   -0.1810 18.1 190 
 BAR2 EZ ES        553  7.20                             172   -0.2310 18.1 190 
 BAR2 EZ I         553  8.47         2.8 0.28            173           18.1 190 
 BRR  HZ EP        552 54.47                             151    0.1010 72.9 302 
 BRR  HN ES        553 11.18                             151    0.6010 72.9 302 
 PAM  EZ EP        552 55.34                             148   -0.2910 82.0  38 
 PAM  EE ES        553 12.76                             148   -0.0710 82.0  38 
 PAM  EZ I         553 13.94         1.1 0.20            150           82.0  38 
 RUS  HZ EP        552 56.77                             144    0.2210 95.5 175 
 RUS  HE ES        553 14.63                             144    0.1710 95.5 175 
 PTB  HZ EP        553  0.31                             131    0.28 9  146 261 
 PTB  HN ES        553 20.00                             131   -0.65 9  146 261 
 PTB  HZ I         553 22.67         1.2 0.14            132            146 261 
                                                                                
