 2014  623 0556 44.6 L   6.736 -73.184139.9  RSN  8 0.3 1.3LRSN                1
 GAP=228        0.78       3.9     4.1  5.6  0.1801E+01  0.5220E+01  0.6168E+01E
 Epicentro: VILLANUEVA - SANTANDER                                             3
 ACTION:UPD 14-07-01 22:56 OP:nd   STATUS:               ID:20140623055644 L   I
 OLDACT:REG 14-06-23 13:22 OP:spq  STATUS:               ID:20140623054817     3
 2014-06-23-0548-17M.COL___259                                                 6
 STAT SP IPHASW D HRMM SECON CODA AMPLIT PERI AZIMU VELO AIN AR TRES W  DIS CAZ7
 BAR2 SZ EP        557  3.45                             173    0.0510 15.9 179 
 BAR2 SZ ES   1    557 18.06                             173    0.00 7 15.9 179 
 BAR2 SZ I         557 19.74         5.1 0.26            166           15.9 179 
 BRR  HZ EP        557  5.01                             151   -0.1210 71.3 305 
 BRR  HN ES        557 21.69                             151    0.5510 71.3 305 
 BRR  HZ I         557 22.43         4.1 0.31            150           71.3 305 
 RUS  HZ EP        557  7.26                             145   -0.0510 93.9 173 
 RUS  HN ES        557 24.64                             145   -0.3710 93.9 173 
 RUS  HZ I         557 27.10         2.3 0.30            142           93.9 173 
 PTB  HZ EP        557 10.28                             132   -0.33 9  142 261 
 PTB  HN ES        557 30.31                             132   -0.57 9  142 261 
 PTB  HZ I         557 32.83         2.0 0.16            130            142 261 
 SPBC HZ EP        557 12.21                             129    0.33 9  155 219 
 SPBC HN ES        557 33.49                             129    0.33 9  155 219 
 SPBC HZ I         557 41.16         3.8 0.26            127            155 219 
 HEL  HN ES   1    557 54.55                             114    0.04 6  266 257 
 HEL  HZ I         558  2.87         1.7 0.40            114            266 257 
 GUY2CHN ES   1    558  0.04                             112   -0.20 5  294 235 
 GUY2CHZ I         558  9.42         1.3 0.30                           294 235 
 PRA  HZ EP        557 37.17                             106    0.21 6  384 210 
 PRA  HE ES        558 18.20                             106    0.40 6  384 210 
 PRA  HZ I         558 26.08         1.0 0.32            106            384 210 
                                                                                
