 2012 1123 0027 57.9 L   6.830 -73.147145.1  RSN 25 0.6 2.8LRSN 3.2WRSN        1
 SPEC AVERAGE  MO 13.9 ST 28.0 OM  2.5 f0 5.23 R0.2976 AL 5.98 WI 14.1 MW  3.2 3
 SPEC SD       MO  0.1 ST 32.1 OM  0.4 f0 1.37 R0.0639 AL      WI      MW  0.1 3
 GAP= 70        0.96       2.6     3.2  4.8 -0.1236E+01  0.3958E+01  0.7752E+00E
 Epicentro: LOS SANTOS - SANTANDER                                             3
 SPEC ZAR HH N MO 14.0 ST 20.2 OM  2.2 f0 5.30 R0.2774 AL 3.42 WI 13.2 MW  3.3 3
 SPEC ZAR HH N T 02855 K 0.000 GD  249 VS 4.20 DE 3.20 Q0300.0 QA 0.60 VS 4.20 3
 SPEC TAM HH E MO 13.9 ST  7.3 OM  2.2 f0 3.98 R0.3693 AL 5.14 WI  7.6 MW  3.2 3
 SPEC TAM HH E T 02847 K 0.000 GD  213 VS 4.20 DE 3.20 Q0300.0 QA 0.60 VS 4.20 3
 SPEC NOR HH N MO 14.1 ST 99.8 OM  2.3 f0 8.06 R0.1824 AL16.53 WI 15.9 MW  3.4 3
 SPEC NOR HH N T 029 1 K 0.000 GD  277 VS 4.20 DE 3.20 Q0300.0 QA 0.60 VS 4.20 3
 SPEC PTB HH E MO 13.9 ST 10.6 OM  2.2 f0 4.54 R0.3238 AL 4.02 WI 12.5 MW  3.2 3
 SPEC PTB HH E T 02845 K 0.000 GD  207 VS 4.20 DE 3.20 Q0300.0 QA 0.60 VS 4.20 3
 SPEC HEL HH N MO 13.7 ST  5.3 OM  1.8 f0 4.28 R0.3435 AL 4.01 WI 18.8 MW  3.1 3
 SPEC HEL HH N T 029 9 K 0.000 GD  309 VS 4.20 DE 3.20 Q0300.0 QA 0.60 VS 4.20 3
 SPEC CHI HH E MO 13.9 ST  7.3 OM  2.0 f0 4.17 R0.3525 AL 4.62 WI 16.8 MW  3.2 3
 SPEC CHI HH E T 029 4 K 0.000 GD  290 VS 4.20 DE 3.20 Q0300.0 QA 0.60 VS 4.20 3
 SPEC OCA HH N MO 14.1 ST 45.5 OM  2.4 f0 6.27 R0.2344 AL 4.09 WI 14.1 MW  3.4 3
 SPEC OCA HH N T 02846 K 0.000 GD  213 VS 4.20 DE 3.20 Q0300.0 QA 0.60 VS 4.20 3
 ACTION:UPD 12-12-05 15:35 OP:}ep  STATUS:               ID:20121123002758 L   I
 2012-11-23-0026-39M.COL___209                                                 6
 STAT SP IPHASW D HRMM SECON CODA AMPLIT PERI AZIMU VELO AIN AR TRES W  DIS CAZ7
 BAR2 SZ IP        028 17.61                             169    0.1010 26.5 189 
 BAR2 SZ ES   1    028 32.28                             169   -0.53 7 26.5 189 
 BAR2 SZ I         028 34.10       262.5 0.18                          26.5 189 
 GIR2 SZ EP        028 17.61                             168    0.2110 28.0 349 
 GIR2 SZ ES   1    028 32.77                             168    0.16 7 28.0 349 
 GIR2 SZ I         028 34.48        98.1 0.38                          28.0 349 
 PAM  SZ EP     C  028 20.57                             151    0.6810 75.0  41 
 PAM  SE ES   1    028 37.54                             151    0.49 7 75.0  41 
 PAM  SZ I         028 39.60       110.6 0.48                          75.0  41 
 RUS  HZ EP     C  028 21.58                             143   -0.2310  104 176 
 RUS  HN ES   1    028 39.81                             143   -0.66 7  104 176 
 RUS  HZ I         028 41.96        55.8 0.30                           104 176 
 PTB  HZ EP   1    028 24.39                             132   -0.46 7  148 258 
 PTB  HN ES   1    028 45.39                             132   -0.49 7  148 258 
 PTB  HZ I         028 48.58        72.4 0.28                           148 258 
 TAM  HZ IP     C  028 25.98                             130    0.37 9  156 106 
 TAM  HZ I         028 46.63        36.9 0.26                           156 106 
 TAM  HE ES   1    028 47.56                             130    0.34 7  156 106 
 OCA  HZ EP   1    028 25.43                             130   -0.41 7  157 353 
 OCA  HN ES   1    028 47.31                             130   -0.33 7  157 353 
 OCA  HZ I         028 50.78       104.0 0.22                           157 353 
 ZAR  HZ EP   1    028 30.52                             122    0.36 6  203 291 
 ZAR  HN ES   1    028 55.78                             122    0.46 6  203 291 
 ZAR  HZ I         029  1.54        83.4 0.56                           203 291 
 NOR  HZ EP     C  028 34.04                             118    0.26 8  237 234 
 NOR  HN ES   1    029  1.60                             118   -0.17 6  237 234 
 SML  HZ EP   1    028 34.28                             118    0.13 6  241 335 
 SML  HN ES   1    029  2.97                             118    0.54 6  241 335 
 CHI  HZ EP     D  028 35.92                             117    0.03 8  252 195 
 CHI  HE ES   1    029  4.66                             117   -0.87 6  252 195 
 CHI  HZ I         029 12.33        41.9 0.48                           252 195 
 ROSC BZ EP   4    028 37.77                             116    1.49 0  256 211 
 ROSC BE ES   4    029  5.83                             116   -0.38 0  256 211 
 ROSC BZ I         029 11.49        74.4 0.40                           256 211 
 HEL  HZ EP   1    028 38.37                             115    0.22 6  273 255 
 HEL  HN ES   1    029 10.13                             115    0.58 6  273 255 
 HEL  HZ I         029 16.85        39.7 0.54                           273 255 
 GUY  SZ EP   1    028 42.23                             112    0.29 5  305 235 
 GUY  SN ES   4    029 19.91                             112    3.62 0  305 235 
 GUY  SZ I         029 24.22        73.3 0.24                           305 235 
 VIL  SZ EP   1    028 41.45                             112   -0.19 5  307 191 
 VIL  SN ES   1    029 15.92                             112    0.16 5  307 191 
 RREF HZ EP   1    028 44.14                             111   -0.10 5  324 229 
 RREF HN ES   4    029 20.53                             111    0.14 0  324 229 
 RREF HZ I         029 31.69        36.4 0.30                           324 229 
 COD  HZ EP   1    028 45.58                             109   -0.28 5  345 355 
 COD  HN ES   1    029 23.03                             109   -0.25 5  345 355 
 COD  HZ I         029 26.70         8.7 0.60                           345 355 
 TOL  SZ EP   1    028 47.23                             109    0.85 5  346 224 
 TOL  SZ ES   1    029 23.51                             109   -0.69 5  346 224 
 TOL  SZ I         029 31.99        24.0 0.50                           346 224 
 MON  HZ EP     D  028 44.93                             109   -1.69 6  352 308 
 MON  HN ES   4    029 23.22                             109   -1.41 0  352 308 
 MON  HZ I         029 25.65        11.6 0.38                           352 308 
 SDV  BZ EP     D  028 47.16                             108   -0.51 6  358  51 
 SDV  BN ES   4    029 24.27                             108   -2.23 0  358  51 
 ANIL HZ EP   1    028 49.33                             108    1.40 5  360 224 
 ANIL HN ES   2    029 27.62                             108    0.66 3  360 224 
 ANIL HZ I         029 37.90        32.5 0.42                           360 224 
 PRA  HZ EP   1    028 51.40                             106   -0.32 4  395 209 
 PRA  HN ES   1    029 34.00                             106    0.30 4  395 209 
 PRA  HZ I         029 39.95        46.4 0.32                           395 209 
 YOT  HZ EP   1    029  0.89                             103   -0.27 3  474 229 
 SMAR HZ EP   1    029  3.27                             102   -0.09 3  494 346 
 SMAR HE ES   4    029 50.67                             102   -3.76 0  494 346 
 URI  HZ EP   1    029  8.19                             101   -2.31 3  554  13 
 URI  HN ES   4    030  2.53                             101   -4.60 0  554  13 
 URI  HZ I         030  7.21         2.2 0.52                           554  13 
                                                                                
