 2010  423 0908 40.3 L   6.744 -73.008146.4  RSN  4 0.1 1.7LRSN                1
 GAP=219        0.31       4.5     4.7  4.6 -0.8733E+01 -0.9602E+01 -0.1133E+01E
 Epicentro: CEPITA - SANTANDER                                                 3
 ACTION:UP  10-08-24 10:00 OP:vdl  STATUS:               ID:20100423090850 L   I
 2010-04-23-0907-09S.COL___104                                                 6
 STAT SP IPHASW D HRMM SECON CODA AMPLIT PERI AZIMU VELO AIN AR TRES W  DIS CAZ7
 BAR2 SZ EP   2    9 9  0.11                             170     0.1 5   26 229 
 BAR2 SZ ES   2    9 9 15.45                             170     0.0 5   26 229 
 BRR  HZ IP     C  9 9  2.43                             147    -0.110   88 297 
 BRR  HZ I         9 9  2.68         8.5 0.13                            88 297 
 BRR  HE ES   1    9 9 19.93                             147     0.1 7   88 297 
 GUE  SZ EP   1    9 9  5.45                             139     0.1 7  120   4 
 GRA  SZ IP        9 9  5.85                             137     0.010  128  10 
 GRA  SZ ES   2    9 9 25.54                             137    -0.2 5  128  10 
                                                                                
