 2015  123 0338  4.6 L   6.786 -73.160144.6  RSN  7 0.4 1.4LRSN                1
 GAP=135        1.06       4.4     4.5  6.8 -0.5617E+00  0.7862E+01  0.3163E+00E
 Epicentro: LOS SANTOS - SANTANDER                                             3
 ACTION:UPD 15-03-02 15:41 OP:nd   STATUS:               ID:20150123033804 L   I
 OLDACT:REG 15-01-23 14:36 OP:carl STATUS:               ID:20150123033735     3
 2015-01-23-0337-35M.COL___262                                                 6
 STAT SP IPHASW D HRMM SECON CODA AMPLIT PERI AZIMU VELO AIN AR TRES W  DIS CAZ7
 BAR2 EZ EP        338 23.98                             171   -0.0910 21.6 186 
 BAR2 EZ ES        338 39.42                             171    0.1810 21.6 186 
 BAR2 EZ I         338 41.76         5.2 0.22            170           21.6 186 
 BRR  HZ EP        338 25.87                             153    0.2610 70.5 300 
 BRR  HN ES        338 42.79                             153    0.8210 70.5 300 
 BRR  HZ I         338 45.55         4.4 0.36            151           70.5 300 
 PAM  SZ EP        338 26.79                             150   -0.0510 79.6  40 
 PAM  SN ES        338 43.56                             150   -0.6210 79.6  40 
 PAM  SZ I         338 46.31         2.9 0.62            155           79.6  40 
 RUS  HZ EP        338 28.32                             144    0.1710 99.2 175 
 RUS  HN ES        338 46.59                             144    0.0810 99.2 175 
 RUS  HZ I         338 49.33         2.1 0.42            147           99.2 175 
 PTB  HZ EP        338 30.94                             132   -0.38 9  146 259 
 PTB  HN ES        338 51.27                             132   -0.88 9  146 259 
 PTB  HZ I         338 59.00         5.6 0.60            133            146 259 
 SPBC HZ EP        338 33.08                             129    0.26 9  161 219 
 SPBC HN ES        338 54.70                             129   -0.11 9  161 219 
 SPBC HZ I         338 59.41         4.2 0.20            131            161 219 
 ZAR  HZ EP        338 37.24                             122    0.34 9  203 293 
 ZAR  HN ES        339  2.04                             122   -0.03 9  203 293 
 ZAR  HZ I         339  8.37         3.6 0.24            124            203 293 
                                                                                
