 2016 1223 0726  6.8 L   6.777 -73.141139.4  RSN  8 0.4 1.6LRSN                1
 GAP=138        1.08       5.1     4.7  6.8  0.1971E+01  0.1002E+02  0.1551E+01E
 Epicentro: LOS SANTOS - SANTANDER                                             3
 ACTION:UPD 17-01-11 20:18 OP:rebc STATUS:               ID:20161223072606 L   I
 OLDACT:UP  16-12-23 16:12 OP:cog  STATUS:               ID:20161223071745     3
 2016-12-23-0718-00M.COL___381                                                 6
 STAT SP IPHASW D HRMM SECON CODA AMPLIT PERI AZIMU VELO AIN AR TRES W  DIS CAZ7
 BAR2 EZ EP        726 25.63                             171   -0.0310 20.9 193 
 BAR2 EZ ES        726 40.64                             171    0.3010 20.9 193 
 BAR2 EZ I         726 41.46        14.1 0.20            167           20.9 193 
 BRR  HZ EP        726 27.67                             151    0.2710 72.9 300 
 BRR  HE ES        726 43.98                             151    0.5410 72.9 300 
 BRR  HZ I         726 48.75         9.3 0.12            148           72.9 300 
 PAM  EZ EP        726 28.65                             149    0.1610 79.0  38 
 PAM  EE ES        726 44.76                             149   -0.6110 79.0  38 
 PAM  EZ I         726 46.20         6.4 0.36            155           79.0  38 
 RUS  HZ EP        726 29.79                             143    0.0110 98.0 176 
 RUS  HN ES        726 47.74                             143    0.0610 98.0 176 
 RUS  HZ I         726 49.46         4.3 0.24            143           98.0 176 
 PTB  HZ EP        726 32.60                             130   -0.70 9  148 260 
 PTB  HN ES        726 53.13                             130   -0.80 9  148 260 
 PTB  HZ I         726 56.48         8.9 0.42            129            148 260 
 ZAR  HZ EP        726 39.22                             121    0.19 8  205 293 
 ZAR  HE ES        727  4.33                             121    0.20 8  205 293 
 ZAR  HZ I         727 12.42         5.8 0.24            121            205 293 
 NOR  HZ EP        726 42.60                             117    0.51 8  234 235 
 NOR  HE ES   4    727  7.96                             117   -1.63 0  234 235 
 NOR  HZ I         727 17.01         3.6 0.16            117            234 235 
 CHI  HZ EP   4    726 45.43                             116    1.49 0  246 195 
 CHI  HE ES   4    727 11.37                             116   -1.51 0  246 195 
 CHI  HZ I         727 18.70         1.3 0.24            117            246 195 
                                                                                
