 2017  123 0301 46.1 L   6.751 -73.184146.9  RSN  5 0.4 1.2LRSN                1
 GAP=229        0.99       7.5     6.9  7.2  0.3214E+02  0.6781E+01 -0.4135E+01E
 Epicentro: VILLANUEVA - SANTANDER                                             3
 ACTION:UPD 17-05-22 16:02 OP:jn   STATUS:               ID:20170123030146 L   I
 OLDACT:REG 17-01-23 12:40 OP:lv   STATUS:               ID:20170123025740     3
 2017-01-23-0258-00M.COL___352                                                 6
 STAT SP IPHASW D HRMM SECON CODA AMPLIT PERI AZIMU VELO AIN AR TRES W  DIS CAZ7
 BAR2 EZ EP        3 2  5.18                             173   -0.5810 17.5 179 
 BAR2 EZ ES        3 2 21.09                             173   -0.0110 17.5 179 
 BAR2 EZ I         3 2 22.75         3.2 0.23            172           17.5 179 
 BRR  HZ EP        3 2  7.11                             153   -0.2110 70.4 304 
 BRR  HE ES        3 2 24.07                             153    0.2010 70.4 304 
 BRR  HZ I         3 2 27.07         4.0 0.20            152           70.4 304 
 RUS  HZ EP        3 2  9.88                             146    0.2810 95.5 173 
 RUS  HN ES        3 2 28.21                             146    0.2710 95.5 173 
 RUS  HZ I         3 2 30.83         0.9 0.22            147           95.5 173 
 PTB  HZ EP        3 2 12.19                             133   -0.50 9  143 261 
 PTB  HN ES        3 2 33.21                             133   -0.22 9  143 261 
 PTB  HZ I         3 2 36.03         1.6 0.20            134            143 261 
 ZAR  HZ EP        3 2 19.26                             123    0.83 9  202 294 
 ZAR  HE ES        3 2 43.73                             123    0.08 9  202 294 
 ZAR  HZ I         3 2 49.62         2.6 0.24            124            202 294 
                                                                                
