 2012  823 0722 24.3 L   6.792 -73.543 24.0  RSN  5 0.3 1.0LRSN                1
 GAP=102        0.65       2.9     2.2  3.7  0.2470E+00 -0.1204E+01  0.6161E+01E
 Epicentro: EL CARMEN DE CHUCURI - SANTANDER                                   3
 ACTION:UPD 12-09-10 11:57 OP:ep   STATUS:               ID:20120823072224 L   I
 2012-08-23-0720-00M.COL___217                                                 6
 STAT SP IPHASW D HRMM SECON CODA AMPLIT PERI AZIMU VELO AIN AR TRES W  DIS CAZ7
 BRR  HZ EP   1    722 31.45                             119   -0.23 7 39.5 332 
 BRR  HE ES   1    722 37.36                             119   -0.07 7 39.5 332 
 BRR  HZ I         722 38.16        21.2 0.08                          39.5 332 
 PTB  HZ EP   1    722 41.12                              56    0.15 7  105 255 
 PTB  HN ES   1    722 53.74                              56   -0.22 7  105 255 
 PTB  HZ I         722 54.77         4.1 0.12                           105 255 
 PAM  SZ EP   1    722 42.81                              56    0.47 7  111  57 
 PAM  SN ES   1    722 56.07                              56   -0.32 7  111  57 
 PAM  SZ I         722 56.99         2.8 0.16                           111  57 
 RUS  HZ EP   1    722 42.90                              56    0.48 7  112 153 
 RUS  HN ES   1    722 56.14                              56   -0.40 7  112 153 
 RUS  HZ I         722 56.91         2.2 0.16                           112 153 
 ZAR  HE ES   1    723  7.43                              56    0.17 7  165 298 
                                                                                
