 2012  423 0533  0.2 L   6.800 -73.130148.2  RSN  6 0.2 1.3LRSN                1
 GAP=139        0.66       4.4     3.7  8.8  0.6235E+00  0.8494E+01 -0.3257E+01E
 Epicentro: LOS SANTOS - SANTANDER                                             3
 ACTION:UPD 12-07-05 11:55 OP:tino STATUS:               ID:20120423053300 L   I
 2012-04-23-0530-00M.COL___186                                                 6
 STAT SP IPHASW D HRMM SECON CODA AMPLIT PERI AZIMU VELO AIN AR TRES W  DIS CAZ7
 BAR2 SZ EP   1    533 20.07                             170    -0.1 7   24 194 
 BAR2 SZ I         533 37.00         4.5 0.30                            24 194 
 BRR  HZ EP        533 21.97                             152     0.310   73 298 
 BRR  HZ I         533 22.49         5.7 0.15                            73 298 
 PAM  SZ EP        533 22.85                             151     0.210   76  39 
 PAM  SN ES   1    533 39.79                             151    -0.3 7   76  39 
 RUS  HZ EP   1    533 23.95                             144    -0.2 7  101 177 
 RUS  HN ES   1    533 43.00                             144     0.1 7  101 177 
 RUS  HZ I         533 44.26         1.0 0.09                           101 177 
 PTB  HZ EP   1    533 27.15                             132    -0.4 7  150 259 
 PTB  HE ES   1    533 49.02                             132     0.2 7  150 259 
 PTB  HZ I         533 50.21         3.1 0.16                           150 259 
 ZAR  HN ES        533 58.40                             123    -0.1 8  206 292 
 ZAR  HZ I         534  4.51         3.4 0.38                           206 292 
                                                                                
