 2010 1123 0026 31.0 L   6.419 -73.480118.3  RSN 13 0.5 2.2LRSN                1
 GAP= 83        0.99       3.8     4.7  7.2 -0.7305E+01  0.1318E+02 -0.3772E+01E
 Epicentro: CHIMA - SANTANDER                                                  3
 ACTION:UP  10-12-17 16:54 OP:REBC STATUS:               ID:20101123002631 L   I
 2010-11-23-0024-30S.COL___129                                                 6
 STAT SP IPHASW D HRMM SECON CODA AMPLIT PERI AZIMU VELO SNR AR TRES W  DIS CAZ7
 BAR2 SZ EP   1    026 48.17                             161     0.4 7   38  60 
 BAR2 SZ ES   1    027  1.37                             161     0.5 7   38  60 
 BAR2 SZ I         027  2.55       152.5 0.28                            38  60 
 RUS  HZ EP        026 49.81                             147    -0.210   73 143 
 RUS  HZ I         026 50.21        11.7 0.06                            73 143 
 RUS  HN ES   1    027  4.61                             147    -0.3 7   73 143 
 BRR  HZ EP   1    026 50.08                             143     0.2 7   80 341 
 BRR  HE ES   1    027  4.44                             143    -0.2 7   80 341 
 BRR  HZ I         027  5.71        27.3 0.10                            80 341 
 GUE  SZ EP   1    026 58.44                             121     0.2 7  168  21 
 GRA  SZ EP        026 58.97                             119    -0.2 9  178  25 
 GRA  SZ I         027 29.84        11.7 0.25                           178  25 
 NOR  SZ EP   1    026 59.14                             119    -0.2 7  181 239 
 NOR  SE ES        027 21.04                             119    -0.4 9  181 239 
 CHI  HZ EP   2    027  2.13                             116     0.3 4  200 188 
 CHI  HN ES   1    027 25.54                             116    -0.4 6  200 188 
 CHI  HZ I         027 29.64         5.7 0.50                           200 188 
 OCA  SZ EP   1    027  2.30                             116     0.6 6  202   5 
 OCA  SZ I         027 33.62        25.3 0.39                           202   5 
 HEL  HZ EP   1    027  5.24                             113     0.3 6  228 264 
 GUY  SE ES        027 35.30                             111    -0.2 8  247 238 
 RREF HZ EP   1    027 10.58                             109     1.0 6  266 231 
 RREF HN ES   1    027 40.78                             109     1.0 6  266 231 
 RREF HZ I         027 44.86         7.7 0.27                           266 231 
 PRA  HZ EP   1    027 16.69                             104    -0.5 5  337 208 
 PRA  HZ I         028  0.37        17.5 0.44                           337 208 
 MON  HZ EP   1    027 18.13                             103    -1.1 5  354 317 
 MON  HE ES   2    027 55.94                             103    -0.9 3  354 317 
                                                                                
