 2016 1223 0014 48.9 L   6.900 -73.203148.5  RSN  4 0.4 1.2LRSN                1
 GAP=124        0.89       5.0     4.2  9.7  0.1703E+00  0.1215E+02  0.2705E+01E
 Epicentro: BETULIA - SANTANDER                                                3
 ACTION:UPD 17-01-11 20:17 OP:rebc STATUS:               ID:20161223001448 L   I
 OLDACT:UP  16-12-23 17:19 OP:cog  STATUS:               ID:20161223000746d    3
 OLDACT:DUP 16-12-23 13:51 OP:cog  STATUS:               ID:20161223000746d    3
 2016-12-23-0008-00M.COL___393                                                 6
 STAT SP IPHASW D HRMM SECON CODA AMPLIT PERI AZIMU VELO AIN AR TRES W  DIS CAZ7
 PAM  EZ EP        015 11.60                             152    0.4010 73.9  49 
 PAM  EN ES        015 28.50                             152   -0.1110 73.9  49 
 PAM  EZ I         015 29.17         2.4 0.42            154           73.9  49 
 RUS  HZ EP        015 13.68                             141   -0.0910  112 173 
 RUS  HN ES        015 32.96                             141   -0.2210  112 173 
 RUS  HZ I         015 33.82         1.9 0.32            142            112 173 
 PTB  HZ EP        015 15.59                             133   -0.18 9  144 254 
 PTB  HE ES        015 37.35                             133    0.62 9  144 254 
 PTB  HZ I         015 38.72         2.6 0.36            134            144 254 
 ZAR  HN ES        015 44.68                             124   -0.50 9  194 290 
                                                                                
