 2017 1023 0800 33.5 L   6.822 -73.153149.5  RSN  9 0.4 1.6LRSN                1
 GAP=214        1.05       4.5     4.9  6.4  0.9458E+01  0.6390E+01  0.4302E+01E
 Epicentro: LOS SANTOS - SANTANDER                                             3
 ACTION:UPD 17-11-07 19:35 OP:rebc STATUS:               ID:20171023080033 L   I
 OLDACT:DUP 17-10-23 19:02 OP:dhb  STATUS:               ID:20171023075739d    3
 OLDACT:REG 17-10-23 12:54 OP:dhb  STATUS:               ID:20171023075738     3
 2017-10-23-0758-00M.COL___381                                                 6
 STAT SP IPHASW D HRMM SECON CODA AMPLIT PERI AZIMU VELO AIN AR TRES W  DIS CAZ7
 BAR2 EZ EP        8 0 53.38                             170   -0.2010 25.6 187 
 BAR2 EZ ES        8 1  9.02                             170   -0.2610 25.6 187 
 BAR2 EZ I         8 1 10.59         6.9 0.22            166           25.6 187 
 BRR  HZ EP        8 0 55.24                             154    0.3310 69.4 297 
 BRR  HN ES        8 1 11.98                             154    0.3410 69.4 297 
 BRR  HZ I         8 1 14.48         4.6 0.10            152           69.4 297 
 RUS  HZ EP        8 0 57.93                             144    0.1810  103 176 
 RUS  HN ES        8 1 15.95                             144   -0.7510  103 176 
 RUS  HZ I         8 1 17.81        10.5 0.30            143            103 176 
 PTB  HZ EP        8 1  0.17                             133   -0.53 9  147 258 
 PTB  HE ES        8 1 22.14                             133    0.19 9  147 258 
 PTB  HZ I         8 1 23.77         3.3 0.13            131            147 258 
 SPBC HZ EP        8 1  2.41                             130    0.04 9  165 218 
 SPBC HE ES        8 1 24.76                             130   -0.16 9  165 218 
 SPBC HZ I         8 1 31.65         7.8 0.26            128            165 218 
 YPLC HE ES        8 1 28.22                             127    0.82 9  179 151 
 YPLC HZ I         8 1 30.53         4.4 0.30            128            179 151 
 ZAR  HZ EP        8 1  5.98                             123    0.00 9  202 292 
 ZAR  HN ES        8 1 31.46                             123    0.11 9  202 292 
 ZAR  HZ I         8 1 38.51         3.8 0.26            124            202 292 
 NOR  HZ EP        8 1  8.58                             119   -0.90 8  235 234 
 NOR  HE ES        8 1 38.15                             119    0.57 8  235 234 
 NOR  HZ I         8 1 43.20         3.4 0.16            119            235 234 
 CHI  HZ EP        8 1 11.82                             118    0.23 8  251 195 
 CHI  HE ES        8 1 41.48                             118    0.15 8  251 195 
 CHI  HZ I         8 1 46.92         2.0 0.22            118            251 195 
                                                                                
