 2012 1023 0711 38.6 L   6.819 -73.099154.2  RSN  4 0.3 1.7LRSN                1
 GAP=188        0.53       5.4     8.4  8.7  0.2598E+02  0.7531E+01  0.1004E+01E
 Epicentro: LOS SANTOS - SANTANDER                                             3
 ACTION:UPD 12-11-22 17:05 OP:ep   STATUS:               ID:20121023071138 L   I
 2012-10-23-0710-00M.COL___235                                                 6
 STAT SP IPHASW D HRMM SECON CODA AMPLIT PERI AZIMU VELO AIN AR TRES W  DIS CAZ7
 BRR  HZ EP   1    712  1.26                             153    0.37 7 74.9 295 
 BRR  HN ES   2    712 18.64                             153    0.38 5 74.9 295 
 BRR  HE I         712 19.46        19.3 0.17                          74.9 295 
 RUS  HZ EP   1    712  3.31                             145   -0.03 7  102 179 
 RUS  HE ES   2    712 22.24                             145   -0.38 5  102 179 
 RUS  HN I         712 22.43         2.6 0.31                           102 179 
 OCA  HE ES   2    712 29.58                             132   -0.40 5  159 351 
 ZAR  HZ EP   1    712 11.95                             124   -0.09 6  208 291 
 ZAR  HN ES   2    712 37.67                             124   -0.43 4  208 291 
 ZAR  HN I         712 44.89         4.1 0.15                           208 291 
                                                                                
