 2012  123 0554 40.4 L   6.829 -73.291117.2  RSN 12 0.3 2.7LRSN                1
 GAP=106        0.75       2.4     3.4  4.3 -0.2458E+00  0.4281E+01  0.2070E+01E
 Epicentro: ZAPATOCA - SANTANDER                                               3
 ACTION:UP  12-02-03 08:19 OP:REBC STATUS:               ID:20120123055440 L   I
 2012-01-23-0550-00M.COL___186                                                 6
 STAT SP IPHASW D HRMM SECON CODA AMPLIT PERI AZIMU VELO SNR AR TRES W  DIS CAZ7
 BAR2 SZ IP     D  554 57.10                             165     0.310   29 155 
 BAR2 SZ ES        555  9.73                             165     0.210   29 155 
 BAR2 SZ I         555 11.57       529.8 0.26                            29 155 
 BRR  HZ EP        554 57.51                             153    -0.110   56 304 
 BRR  HN ES        555 11.10                             153     0.110   56 304 
 BRR  HZ I         555 12.77       154.2 0.25                            56 304 
 PAM  SZ EP        555  0.14                             141    -0.210   86  49 
 PAM  SE ES   1    555 15.41                             141    -0.5 7   86  49 
 RUS  HZ EP        555  1.83                             135    -0.110  106 167 
 RUS  HE ES   1    555 18.62                             135    -0.1 7  106 167 
 RUS  HZ I         555 21.51        50.6 0.45                           106 167 
 OCA  SZ EP        555  6.79                             123     0.5 9  156 359 
 OCA  SZ ES   1    555 26.51                             123     0.1 7  156 359 
 OCA  SZ I         555 28.01       177.6 0.18                           156 359 
 ZAR  HZ EP   1    555  8.83                             117    -0.6 7  188 293 
 ZAR  HE ES   1    555 32.08                             117     0.0 7  188 293 
 ZAR  HZ I         555 36.65        69.0 0.39                           188 293 
 NOR  SZ EP   1    555 13.28                             113    -0.2 6  224 231 
 NOR  SE ES   1    555 38.99                             113    -0.2 6  224 231 
 CHI  HZ EP        555 16.92                             111     0.3 8  248 191 
 CHI  HZ I         555 19.33        17.5 0.27                           248 191 
 CHI  HE ES   1    555 45.06                             111     0.1 6  248 191 
 HEL  HZ EP   1    555 17.20                             110    -0.5 6  257 254 
 HEL  HZ I         555 51.95        25.3 0.94                           257 254 
 VIL  SZ EP   2    555 22.23                             106    -0.5 4  304 188 
 VIL  SZ I         556  3.64        24.0 0.51                           304 188 
 RREF HZ EP   1    555 24.98                             106     0.6 5  312 227 
 RREF HZ I         556  7.01        16.3 0.40                           312 227 
 PRA  HZ EP   1    555 32.78                             101     0.2 4  387 207 
 PRA  HN ES   1    556 13.16                             101     0.0 4  387 207 
                                                                                
