 2016  523 0538 25.6 L   6.803 -73.118147.6  RSN 21 0.4 2.6LRSN                1
 GAP=128        0.91       2.7     3.3  4.6 -0.1934E+01  0.3005E+01  0.2557E+01E
 Epicentro: LOS SANTOS - SANTANDER                                             3
 ACTION:UPD 16-08-18 17:48 OP:cam  STATUS:               ID:20160523053825 L   I
 OLDACT:UP  16-05-23 14:34 OP:mh   STATUS:               ID:20160523053745     3
 OLDACT:UP  16-05-23 14:21 OP:mh   STATUS:               ID:20160523053745     3
 OLDACT:REG 16-05-23 12:23 OP:mh   STATUS:               ID:20160523053745     3
 2016-05-23-0537-45M.COL___292                                                 6
 STAT SP IPHASW D HRMM SECON CODA AMPLIT PERI AZIMU VELO AIN AR TRES W  DIS CAZ7
 BAR2 EZ IP     C  538 45.56                             170    0.0810 24.4 197 
 BAR2 EZ ES        539  0.62                             170   -0.3610 24.4 197 
 BAR2 EZ I         539  1.88       113.9 0.07            168           24.4 197 
 BRR  HZ EP        538 47.44                             152    0.3410 73.8 297 
 BRR  HE ES        539  4.68                             152    0.8210 73.8 297 
 BRR  HZ I         539  5.47        57.0 0.19            145           73.8 297 
 PAM  EZ EP        538 48.55                             152    0.6610 75.2  38 
 PAM  EN ES        539  5.14                             152   -0.1310 75.2  38 
 PAM  EZ I         539  7.51        43.4 0.50            151           75.2  38 
 RUS  HZ EP        538 49.52                             144   -0.0410  101 178 
 RUS  HE ES   1    539  7.94                             144   -0.29 7  101 178 
 PTB  HZ EP        538 52.20                             132   -0.81 9  151 259 
 PTB  HE ES        539 14.17                             132   -0.20 9  151 259 
 PTB  HZ I         539 18.87        34.9 0.30            127            151 259 
 OCA  HZ EP   1    538 53.80                             130   -0.27 7  160 352 
 OCA  HN ES        539 16.10                             130   -0.16 9  160 352 
 OCA  HZ I         539 19.47        59.6 0.16            126            160 352 
 SPBC HZ EP        538 54.37                             129   -0.09 9  165 220 
 SPBC HE ES        539 16.95                             129   -0.01 9  165 220 
 SPBC HZ I         539 19.75        50.5 0.18            125            165 220 
 ZAR  HZ EP   1    538 58.29                             122   -0.17 6  207 292 
 ZAR  HN ES        539 23.77                             122   -0.30 8  207 292 
 ZAR  HZ I         539 29.58        54.4 0.32            118            207 292 
 NOR  HZ EP        539  1.56                             119   -0.18 8  237 235 
 NOR  HN ES        539 30.10                             119    0.19 8  237 235 
 NOR  HZ I         539 34.52        31.1 0.16            115            237 235 
 CHI  HZ EP        539  3.73                             117    0.19 8  250 196 
 CHI  HN ES        539 33.00                             117   -0.12 8  250 196 
 CHI  HZ I         539 41.36        20.2 0.83            115            250 196 
 ROSC BZ EP   4    539  5.38                             117    1.34 0  255 212 
 ROSC BN ES   4    539 36.39                             117    2.38 0  255 212 
 ROSC BZ I         539 39.47        28.3 0.55            114            255 212 
 HEL  HZ EP        539  6.96                             115    0.70 8  275 256 
 HEL  HN ES        539 37.41                             115   -0.55 8  275 256 
 HEL  HZ I         539 45.80        17.8 0.30            112            275 256 
 URE  HZ EP   4    539  5.85                             114   -1.23 0  287 292 
 URE  HN ES   4    539 37.24                             114   -2.18 0  287 292 
 URE  HZ I         539 50.01        20.9 0.36            110            287 292 
 PTGC HZ EP   4 C  539  8.52                             112   -0.94 0  308 159 
 PTGC HE ES   4    539 41.71                             112   -1.95 0  308 159 
 PTGC HZ I         539 42.12        11.4 0.42            110            308 159 
 CBOC HZ EP   4    539 10.41                             110   -2.54 0  337 252 
 CBOC HZ I         539 29.33        25.0 0.16            107            337 252 
 DBB  SZ EP        539 13.45                             110   -0.06 7  343 274 
 DBB  SZ ES   4    539 48.09                             110   -2.78 0  343 274 
 DBB  SZ I         539 56.63        29.6 0.15            107            343 274 
 SDV  BZ EP   1    539 14.68                             109   -0.74 5  358  50 
 SDV  BN ES   4    539 50.94                             109   -3.34 0  358  50 
 SDV  BZ I         539 57.30         4.7 0.60            107            358  50 
 ANIL HZ EP   4    539 16.89                             109    1.12 0  360 225 
 ANIL HE ES   4    539 57.99                             109    3.11 0  360 225 
 PRA  HZ EP   1    539 19.18                             107   -0.23 4  394 210 
 PRA  HN ES   1    540  1.70                             107    0.33 4  394 210 
 PRA  HZ I         540  7.95        14.1 0.26            105            394 210 
 ORTC HZ EP        539 20.10                             106    0.26 6  398 217 
 ORTC HE ES        540  2.92                             106    0.78 6  398 217 
 ORTC HZ I         540  8.08        10.8 0.42            104            398 217 
 PAL  HZ EP   4    539 20.95                             106   -0.21 0  408 239 
 PAL  HN ES   4    540  5.15                             106    0.66 0  408 239 
 PAL  HZ I         540  9.20         6.0 0.22            104            408 239 
 SJC  HZ EP   4    539 19.52                             106   -1.88 0  411 327 
 SJC  HN ES   4    540  0.78                             106   -4.13 0  411 327 
 SJC  HZ I         540 16.05         4.3 0.50            104            411 327 
                                                                                
