 2014  823 0619 23.4 L   6.785 -73.159135.0  RSN 13 0.5 2.0LRSN                1
 GAP= 71        1.28       3.6     3.4  6.3 -0.1851E+01  0.5535E+01  0.3003E+01E
 Epicentro: LOS SANTOS - SANTANDER                                             3
 ACTION:UPD 14-09-15 21:52 OP:nd   STATUS:               ID:20140823061923 L   I
 OLDACT:REG 14-08-23 15:31 OP:stll STATUS:               ID:20140823061815     3
 2014-08-23-0618-15M.COL___257                                                 6
 STAT SP IPHASW D HRMM SECON CODA AMPLIT PERI AZIMU VELO AIN AR TRES W  DIS CAZ7
 BAR2 SZ EP        619 41.83                             170    0.0910 21.5 187 
 BAR2 SZ ES        619 56.02                             170    0.0110 21.5 187 
 BAR2 SZ I         619 57.77        27.3 0.16            170           21.5 187 
 BRR  HZ IP     C  619 43.84                             151    0.4310 70.7 300 
 BRR  HN ES        620  0.03                             151    1.0510 70.7 300 
 BRR  HZ I         620  5.09        27.6 0.12            149           70.7 300 
 PAM  SZ IP     D  619 44.90                             148    0.2410 79.6  40 
 PAM  SZ I         619 45.16        44.4 0.18            152           79.6  40 
 PAM  SN ES        620  1.30                             148    0.0810 79.6  40 
 RUS  HZ EP        619 46.44                             142    0.4110 99.0 175 
 RUS  HN ES        620  3.40                             142   -0.2510 99.0 175 
 RUS  HZ I         620  5.50         8.4 0.38            145           99.0 175 
 PTB  HZ EP        619 49.09                             130   -0.29 9  146 259 
 PTB  HN ES        620  8.80                             130   -0.82 9  146 259 
 PTB  HZ I         620 16.72        15.5 0.38            130            146 259 
 TAM  HZ IP     D  619 50.44                             128    0.06 9  156 104 
 TAM  HZ I         619 50.80        27.1 0.40            133            156 104 
 TAM  HN ES        620 10.93                             128   -0.47 9  156 104 
 SPBC HZ EP        619 51.04                             127    0.12 9  161 219 
 SPBC HE ES        620 12.52                             127    0.17 9  161 219 
 SPBC HZ I         620 17.32         8.5 0.26            128            161 219 
 OCA  HZ EP        619 50.47                             127   -0.61 9  162 354 
 OCA  HN ES        620 11.78                             127   -0.86 9  162 354 
 OCA  HZ I         620 16.18        17.6 0.48            129            162 354 
 ZAR  HZ EP        619 55.04                             120   -0.09 9  203 293 
 ZAR  HN ES        620 19.87                             120    0.02 9  203 293 
 ZAR  HZ I         620 25.95        13.2 0.44            121            203 293 
 NOR  HZ EP        619 58.31                             116   -0.02 8  233 235 
 NOR  HE ES        620 25.09                             116   -0.45 8  233 235 
 NOR  HZ I         620 27.90         7.6 0.44            118            233 235 
 HEL  HZ EP        620  3.92                             113    1.00 8  270 256 
 HEL  HE ES        620 33.21                             113   -0.50 8  270 256 
 HEL  HZ I         620 41.13         4.1 0.20            114            270 256 
 GUY2CHZ EP        620  7.41                             110    1.09 7  299 235 
 GUY2CHN ES        620 40.13                             110    0.36 7  299 235 
 GUY2CHZ I         620 47.41         5.4 0.26                           299 235 
 PRA  HZ EP        620 16.49                             105    0.14 6  390 209 
 PRA  HN ES        620 56.19                             105   -1.43 6  390 209 
 PRA  HZ I         621  5.04         2.8 0.22            106            390 209 
                                                                                
