 2013  723 0741  5.6 L   6.372 -73.653 12.9  RSN 12 0.4 2.2LRSN                1
 GAP=106        0.86       2.3     2.2  4.8  0.1048E+01  0.6372E+01  0.3957E+01E
 Epicentro: SANTA HELENA DEL OPON - SANTANDER                                  3
 ACTION:UPD 13-08-12 10:39 OP:ep   STATUS:               ID:20130723074105 L   I
 OLDACT:UP  13-07-23 10:50 OP:cam  STATUS:               ID:20130723074000     3
 OLDACT:UP  13-07-23 10:50 OP:cam  STATUS:               ID:20130723074000     3
 OLDACT:UP  13-07-23 10:48 OP:cam  STATUS:               ID:20130723074000     3
 OLDACT:REG 13-07-23 09:35 OP:cam  STATUS:               ID:20130723074000     3
 2013-07-23-0740-00M.COL___263                                                 6
 STAT SP IPHASW D HRMM SECON CODA AMPLIT PERI AZIMU VELO AIN AR TRES W  DIS CAZ7
 BAR2 SZ EP        741 15.29                             100    0.0610 57.4  65 
 BAR2 SZ ES   1    741 22.49                             100   -0.27 7 57.4  65 
 BRR  HZ IP     C  741 18.33                              96   -0.2710 81.5 355 
 BRR  HN ES        741 28.71                              96   -0.0410 81.5 355 
 BRR  HZ I         741 35.05        59.8 0.12             47           81.5 355 
 RUS  HZ IP     D  741 19.56                              97    0.3210 82.4 130 
 RUS  HN ES   1    741 29.68                              97   -0.22 7 82.4 130 
 RUS  HZ I         741 32.85        39.6 0.32             47           82.4 130 
 PTB  HZ IP     D  741 19.41                              96   -0.6110 90.8 282 
 PTB  HZ I         741 21.29        59.7 0.46             47           90.8 282 
 PTB  HN ES   1    741 32.15                              96    0.87 7 90.8 282 
 GIR2 SZ EP   2    741 20.59                              96    0.09 5 93.1  33 
 PAM  SZ EP   1    741 29.92                              56    0.49 7  150  45 
 PAM  SZ I         741 31.40        55.7 0.16             47            150  45 
 NOR  HZ EP     C  741 30.65                              56    0.30 9  162 236 
 NOR  HN ES        741 49.31                              56   -0.37 9  162 236 
 NOR  HZ I         741 50.01        67.2 0.22             47            162 236 
 ZAR  HZ EP     C  741 32.89                              56    0.07 9  182 313 
 ZAR  HE ES   1    741 54.30                              56    0.23 7  182 313 
 ZAR  HZ I         741 58.31        35.3 0.30             47            182 313 
 ROSC BZ EP   4    741 36.80                              56    3.14 0  185 204 
 ROSC BN ES   4    742  2.14                              56    6.58 0  185 204 
 CHI  HZ EP   4    741 37.89                              56    3.20 0  193 183 
 CHI  HZ I         742  6.17        13.3 0.46             37            193 183 
 TAM  HZ EP   4    741 40.54                              56    4.66 0  206  88 
 HEL  HZ EP     D  741 36.85                              56    0.26 8  209 265 
 HEL  HN ES   1    742  0.22                              56   -0.57 6  209 265 
 HEL  HZ I         742  1.29        28.9 0.18             37            209 265 
 OCA  HZ EP   4    741 38.45                              56    1.98 0  210  10 
 OCA  HN ES   4    742  3.71                              56    3.15 0  210  10 
 OCA  HZ I         742  9.95        31.5 0.32             37            210  10 
 RREF HZ EP   4    741 44.21                              56    2.31 0  248 229 
 RREF HN ES   4    742 13.09                              56    2.87 0  248 229 
 SML  HZ EP   4    741 43.70                              56   -0.43 0  273 350 
 PRA  HZ EP   4    741 55.10                              55    4.51 0  324 205 
 SJC  HZ EP   4    742  5.28                              55    2.29 0  425 337 
 SJC  HN ES   4    742 52.54                              55    4.77 0  425 337 
 SJC  HZ I         742 53.77         3.4 0.42             36            425 337 
                                                                                
