 2013  423 0108 19.7 L   6.803 -73.153148.0  RSN 12 0.4 2.4LRSN                1
 GAP=135        0.85       3.6     4.5  5.4 -0.3942E+01  0.6706E+01  0.1031E+01E
 Epicentro: LOS SANTOS - SANTANDER                                             3
 ACTION:UPD 13-05-22 14:40 OP:EP   STATUS:               ID:20130423010819 L   I
 2013-04-23-0107-50M.COL___218                                                 6
 STAT SP IPHASW D HRMM SECON CODA AMPLIT PERI AZIMU VELO AIN AR TRES W  DIS CAZ7
 BAR2 SZ EP   1    1 8 39.87                             171    0.23 7 23.5 188 
 BAR2 SZ ES   1    1 8 55.04                             171   -0.13 7 23.5 188 
 BAR2 SZ I         1 8 56.75        24.0 0.28            172           23.5 188 
 GIR2 SZ EP   1    1 8 39.90                             168    0.23 7 30.8 352 
 GIR2 SZ ES   2    1 8 54.60                             168   -0.61 5 30.8 352 
 GIR2 SZ I         1 8 57.23        19.7 0.10            165           30.8 352 
 BRR  HZ IP     C  1 8 41.70                             153    0.6210 70.3 299 
 BRR  HN ES   1    1 8 58.59                             153    0.86 7 70.3 299 
 BRR  HN I         1 8 59.44        94.3 0.30            151           70.3 299 
 PAM  SZ EP   1    1 8 42.58                             151    0.37 7 77.7  40 
 PAM  SN ES        1 8 59.69                             151   -0.0510 77.7  40 
 PAM  SN I         1 9  4.79        16.0 0.18            151           77.7  40 
 RUS  HZ EP   1    1 8 43.67                             144   -0.07 7  101 176 
 RUS  HN ES   1    1 9  1.84                             144   -0.62 7  101 176 
 PTB  HZ EP        1 8 46.36                             133   -0.46 9  147 259 
 PTB  HN ES        1 9  7.57                             133   -0.38 9  147 259 
 PTB  HN I         1 9  9.07        35.2 0.10            132            147 259 
 ZAR  HN ES   2    1 9 17.58                             123   -0.01 4  203 292 
 ZAR  HN I         1 9 23.44        45.1 0.38            122            203 292 
 NOR  HZ EP   1    1 8 55.79                             119    0.25 6  234 234 
 NOR  HN ES   2    1 9 23.36                             119   -0.11 4  234 234 
 NOR  HZ I         1 9 28.97        18.2 0.18            119            234 234 
 SML  HZ EP   1    1 8 56.07                             118   -0.35 6  243 335 
 SML  HN ES   2    1 9 24.36                             118   -0.68 4  243 335 
 SML  HN I         1 9 28.76        64.0 0.34            117            243 335 
 ROSC BZ EP   4    1 8 59.50                             117    1.54 0  253 211 
 COD  HZ EP   1    1 9  7.32                             109   -0.84 5  348 355 
 COD  HN ES   2    1 9 45.71                             109   -0.22 3  348 355 
 COD  HN I         1 9 53.27         3.6 0.18            109            348 355 
 PRA  HZ EP        1 9 13.33                             107    0.01 6  392 209 
 PRA  HN ES        1 9 55.70                             107    0.59 6  392 209 
 PRA  HN I         110  0.70         6.1 0.30            107            392 209 
 SJC  HZ EP   4    1 9 13.00                             106   -2.29 0  408 327 
 SJC  HN ES   4    1 9 54.99                             106   -3.63 0  408 327 
 SJC  HN I         1 9 58.90         7.2 0.40            106            408 327 
                                                                                
