 2014  823 0717 58.3 L   6.789 -73.126140.5  RSN 13 0.5 2.7LRSN                1
 GAP= 73        1.10       3.1     3.3  5.4 -0.2146E+01  0.3311E+01  0.3785E+01E
 Epicentro: LOS SANTOS - SANTANDER                                             3
 ACTION:UPD 14-09-15 21:52 OP:nd   STATUS:               ID:20140823071758 L   I
 OLDACT:DUP 14-08-23 19:06 OP:stll STATUS:               ID:20140823070824d    3
 OLDACT:DUP 14-08-23 19:02 OP:stll STATUS:               ID:20140823070823d    3
 2014-08-23-0708-22M.COL___249                                                 6
 STAT SP IPHASW D HRMM SECON CODA AMPLIT PERI AZIMU VELO AIN AR TRES W  DIS CAZ7
 BAR2 SZ IP     C  718 17.52                             170    0.2710 22.7 196 
 BAR2 SZ ES        718 31.99                             170   -0.0710 22.7 196 
 BAR2 SZ I         718 34.13        78.1 0.24            170           22.7 196 
 BRR  HZ IP     D  718 19.39                             151    0.3910 73.7 299 
 BRR  HE ES        718 35.57                             151    0.4010 73.7 299 
 BRR  HZ I         718 41.65        65.4 0.14            149           73.7 299 
 PAM  SZ IP     D  718 20.26                             150    0.3610 76.9  38 
 PAM  SN ES        718 37.14                             150    0.3710 76.9  38 
 PAM  SZ I         718 39.58       102.9 0.52            153           76.9  38 
 RUS  HZ IP     D  718 21.26                             143   -0.1510 99.3 177 
 RUS  HZ I         718 22.29        34.5 0.42            146           99.3 177 
 RUS  HN ES        718 39.30                             143   -0.1610 99.3 177 
 PTB  HZ EP        718 24.36                             130   -0.63 9  150 259 
 PTB  HN ES        718 45.33                             130   -0.51 9  150 259 
 PTB  HZ I         718 51.45        69.7 0.56            130            150 259 
 TAM  HZ IP     D  718 25.66                             130    0.36 9  153 105 
 TAM  HZ I         718 25.78        79.6 0.20            135            153 105 
 TAM  HE ES        718 46.08                             130   -0.31 9  153 105 
 OCA  HZ EP        718 25.88                             128   -0.44 9  162 352 
 OCA  HN ES        718 47.37                             128   -0.82 9  162 352 
 OCA  HZ I         718 56.69        31.8 0.48            130            162 352 
 SPBC HZ EP        718 26.38                             128   -0.04 9  164 220 
 SPBC HN ES        718 48.23                             128   -0.14 9  164 220 
 SPBC HZ I         718 55.47        72.8 0.34            129            164 220 
 CHI  HZ EP        718 35.57                             116   -0.05 8  248 196 
 CHI  HZ I         718 38.06        14.3 0.40            118            248 196 
 CHI  HN ES        719  4.17                             116   -0.58 8  248 196 
 ROSC BZ IP     C  718 37.28                             115    1.16 8  253 212 
 ROSC BE ES        719  5.87                             115    0.22 8  253 212 
 ROSC BZ I         719 15.23        46.7 0.45            117            253 212 
 HEL  HZ EP        718 38.74                             113    0.31 8  274 256 
 HEL  HN ES        719 10.13                             113    0.38 8  274 256 
 HEL  HZ I         719 16.14        27.9 0.32            115            274 256 
 GUY2CHZ EP        718 41.67                             111   -0.10 7  302 235 
 GUY2CHN ES        719 16.53                             111    0.83 7  302 235 
 GUY2CHZ I         719 24.26        42.4 0.74                           302 235 
 PRA  HZ EP        718 50.85                             106   -0.77 6  392 210 
 PRA  HN ES        719 32.52                             106   -0.71 6  392 210 
 PRA  HZ I         719 39.00        22.3 0.62            107            392 210 
                                                                                
