 2013  823 0446 13.6 L   6.749 -73.177146.6  RSN  7 0.5 1.6LRSN                1
 GAP=135        1.21       4.3     5.9  7.7 -0.6967E+01  0.5841E+01 -0.1775E+01E
 Epicentro: VILLANUEVA - SANTANDER                                             3
 ACTION:UPD 14-01-14 09:05 OP:ep   STATUS:               ID:20130823044613 L   I
 OLDACT:REG 13-08-23 08:44 OP:nd   STATUS:               ID:20130823043959     3
 2013-08-23-0439-59M.COL___270                                                 6
 STAT SP IPHASW D HRMM SECON CODA AMPLIT PERI AZIMU VELO AIN AR TRES W  DIS CAZ7
 BAR2 SZ EP        446 33.22                             173    0.0410 17.3 182 
 BAR2 SZ ES        446 48.44                             173   -0.0410 17.3 182 
 BAR2 SZ I         446 49.29         6.7 0.18            174           17.3 182 
 BRR  HZ IP     D  446 35.36                             153    0.5610 71.2 304 
 BRR  HN ES        446 52.26                             153    0.9010 71.2 304 
 BRR  HZ I         446 53.30         8.2 0.22            152           71.2 304 
 PAM  SZ EP        446 36.24                             149   -0.0210 83.9  39 
 PAM  SN ES        446 54.21                             149    0.2410 83.9  39 
 PAM  SZ I         446 55.54         7.7 0.66            150           83.9  39 
 RUS  HZ EP        446 37.02                             146    0.0110 95.2 174 
 RUS  HN ES        446 54.78                             146   -0.5210 95.2 174 
 RUS  HZ I         446 56.58         7.2 0.32            147           95.2 174 
 PTB  HZ EP        446 40.16                             133   -0.04 9  143 261 
 PTB  HN ES        447  0.26                             133   -0.72 9  143 261 
 PTB  HZ I         447  2.45         3.7 0.12            134            143 261 
 SPBC HZ EP        446 42.04                             130    0.54 9  157 219 
 SPBC HN ES        447  3.26                             130   -0.04 9  157 219 
 SPBC HZ I         447  6.41         5.4 0.22            132            157 219 
 OCA  HZ EP        446 42.14                             129   -0.29 9  166 355 
 OCA  HN ES        447  4.12                             129   -0.83 9  166 355 
 OCA  HZ I         447  8.53         5.7 0.16            130            166 355 
 ZAR  HZ EP   4    446 44.99                             123   -0.97 0  203 294 
 ZAR  HN ES   4    447 10.95                             123   -0.28 0  203 294 
                                                                                
