 2013  823 0516 14.8 L   6.829 -73.133142.3  RSN  6 0.5 1.4LRSN                1
 GAP=202        1.01       5.8     7.7 10.3  0.4703E+01 -0.1525E+02 -0.1694E+02E
 Epicentro: LOS SANTOS - SANTANDER                                             3
 ACTION:UPD 14-01-14 09:05 OP:ep   STATUS:               ID:20130823051614 L   I
 OLDACT:UP  13-08-23 10:21 OP:nd   STATUS:               ID:20130823051000     3
 OLDACT:REG 13-08-23 08:45 OP:nd   STATUS:               ID:20130823051000     3
 2013-08-23-0510-00M.COL___269                                                 6
 STAT SP IPHASW D HRMM SECON CODA AMPLIT PERI AZIMU VELO AIN AR TRES W  DIS CAZ7
 BAR2 SZ EP   1    516 34.63                             169    0.51 8 26.7 192 
 BAR2 SZ I         517  1.61         2.5 0.38            168           26.7 192 
 BRR  HZ EP   1    516 36.17                             152    0.57 8 71.0 296 
 BRR  HN ES   1    516 51.99                             152    0.20 8 71.0 296 
 BRR  HZ I         516 57.35         6.6 0.30            160           71.0 296 
 RUS  HZ EP   1    516 38.57                             142    0.10 8  104 177 
 RUS  HN ES   1    516 56.30                             142   -0.61 8  104 177 
 RUS  HZ I         516 58.48         2.2 0.24            145            104 177 
 PTB  HZ EP        516 41.72                             131    0.0110  150 258 
 PTB  HN ES        517  2.68                             131    0.0110  150 258 
 PTB  HZ I         517  8.56         2.2 0.48            141            150 258 
 SPBC HZ EP        516 43.92                             128    0.5310  167 219 
 SPBC HN ES        517  5.28                             128   -0.3810  167 219 
 SPBC HZ I         517  9.69         4.5 0.22            135            167 219 
 SML  HZ EP        516 50.13                             117   -0.89 9  241 335 
 SML  HN ES   4    517  9.17                             117   -10.1 0  241 335 
 SML  HZ I         517 21.64         4.8 0.10            120            241 335 
                                                                                
