 2016  923 0938 45.5 L   6.885 -73.059143.5  RSN  5 0.2 1.2LRSN                1
 GAP=274        0.57       3.8     4.1  4.4  0.3555E+01 -0.1049E+01 -0.7132E-01E
 Epicentro: PIEDECUESTA - SANTANDER                                            3
 ACTION:UPD 17-08-17 21:15 OP:lp   STATUS:               ID:20160923093845 L   I
 OLDACT:UP  16-09-23 20:48 OP:and  STATUS:               ID:20160923092730     3
 OLDACT:REG 16-09-23 11:31 OP:and  STATUS:               ID:20160923092730     3
 2016-09-23-0928-00M.COL___342                                                 6
 STAT SP IPHASW D HRMM SECON CODA AMPLIT PERI AZIMU VELO AIN AR TRES W  DIS CAZ7
 BAR2 EZ EP        939  5.18                             165   -0.0210 35.1 203 
 BAR2 EZ ES        939 20.73                             165    0.2010 35.1 203 
 BAR2 EZ I         939 21.27         1.9 0.20            160           35.1 203 
 BRR  HZ EP        939  6.77                             150    0.0310 76.2 289 
 BRR  HN ES        939 23.01                             150   -0.2710 76.2 289 
 PTB  HZ EP   9    939 12.17                             129   -1.22 0  159 256 
 PTB  HE ES        939 34.35                             130    0.46 9  159 256 
 PTB  HZ I         939 35.89         1.6 0.16            126            159 256 
 SPBC HZ EP        939 15.30                             126    0.14 9  177 219 
 SPBC HN ES        939 38.14                             126   -0.13 9  177 219 
 SPBC HZ I         939 43.75         2.7 0.12            123            177 219 
 ZAR  HZ EP   2    939 18.92                             121    0.49 4  210 289 
 ZAR  HN ES        939 44.05                             121   -0.04 8  210 289 
 ZAR  HZ I         939 48.80         1.4 0.11            119            210 289 
                                                                                
