 2012 1223 0356 50.3 L   6.030 -73.788106.5  RSN  9 0.5 2.0LRSN                1
 GAP=174        1.02       5.8     3.9  9.3 -0.6151E+00  0.8232E+01 -0.7342E+01E
 Epicentro: EL PEON - SANTANDER                                                3
 ACTION:UPD 13-01-04 14:29 OP:ep   STATUS:               ID:20121223035650 L   I
 2012-12-23-0350-00M.COL___243                                                 6
 STAT SP IPHASW D HRMM SECON CODA AMPLIT PERI AZIMU VELO AIN AR TRES W  DIS CAZ7
 RUS  HZ EP   1    357  8.85                             141    0.14 7 79.5 101 
 RUS  HN ES   1    357 23.02                             141   -0.03 7 79.5 101 
 RUS  HZ I         357 24.75         7.5 0.32                          79.5 101 
 BAR2 SZ EP   1    357  9.56                             136    0.24 7 91.4  47 
 BAR2 SZ ES   1    357 23.95                             136   -0.19 7 91.4  47 
 BAR2 SZ I         357 25.73       139.5 0.54                          91.4  47 
 PTB  HZ EP   1    357  8.06                             135   -1.08 7 92.9 307 
 PTB  HE ES   1    357 23.76                             135   -0.06 7 92.9 307 
 PTB  HZ I         357 24.27        16.8 0.12                          92.9 307 
 BRR  HZ EP   1    357 11.30                             128   -0.24 7  119   4 
 BRR  HN ES   1    357 28.47                             128    0.38 7  119   4 
 BRR  HZ I         357 31.91        19.1 0.22                           119   4 
 GIR2 SZ EP   1    357 13.42                             124    0.32 7  133  30 
 GIR2 SZ I         357 32.36        17.8 0.32                           133  30 
 PAM  SZ EP   1    357 19.42                             115    0.02 7  188  40 
 PAM  SN ES   1    357 41.88                             115   -0.21 7  188  40 
 PAM  SZ I         357 45.89         8.5 0.38                           188  40 
 HEL  HZ EP   1    357 19.79                             114   -0.03 7  193 275 
 HEL  HE ES   1    357 44.18                             114    1.34 7  193 275 
 HEL  HZ I         357 47.58         6.0 0.30                           193 275 
 ZAR  HZ EP   1    357 19.52                             113   -0.62 6  200 324 
 ZAR  HE ES   1    357 42.71                             113   -0.68 6  200 324 
 ZAR  HZ I         357 46.94        12.1 0.30                           200 324 
 OCA  HZ EP   1    357 26.07                             107    0.09 6  250  12 
 OCA  HN ES   1    357 54.78                             107    0.98 6  250  12 
                                                                                
