 2012 1123 0722 16.3 L   6.809 -73.158145.3  RSN 10 0.4 1.6LRSN                1
 GAP=135        0.64       2.4     3.8  4.9  0.6544E+00  0.6760E+01  0.2614E+01E
 Epicentro: LOS SANTOS - SANTANDER                                             3
 ACTION:UPD 12-12-05 15:35 OP:}ep  STATUS:               ID:20121123072216 L   I
 2012-11-23-0720-00M.COL___233                                                 6
 STAT SP IPHASW D HRMM SECON CODA AMPLIT PERI AZIMU VELO AIN AR TRES W  DIS CAZ7
 BAR2 SZ EP   1    722 35.79                             170   -0.13 8 24.2 186 
 BAR2 SZ ES   1    722 50.97                             170   -0.23 8 24.2 186 
 BAR2 SZ I         722 52.59        12.5 0.46                          24.2 186 
 GIR2 SZ EP   1    722 35.98                             168    0.07 8 30.1 352 
 GIR2 SZ ES   1    722 51.95                             168    0.76 8 30.1 352 
 GIR2 SZ I         722 53.22         3.9 0.16                          30.1 352 
 PAM  SZ EP   1    722 38.61                             151    0.11 8 77.4  41 
 PAM  SN ES   1    722 55.61                             151   -0.18 8 77.4  41 
 PAM  SZ I         722 57.98         5.4 0.56                          77.4  41 
 RUS  HZ EP     C  722 40.11                             143    0.0010  102 175 
 RUS  HN ES   1    722 58.60                             143   -0.07 7  102 175 
 RUS  HZ I         722 59.36         5.1 0.28                           102 175 
 PTB  HZ EP   1    722 43.27                             132    0.11 7  147 258 
 PTB  HN ES   1    723  3.68                             132   -0.41 7  147 258 
 PTB  HZ I         723  5.88         7.9 0.17                           147 258 
 OCA  HN ES   1    723  6.15                             130   -0.31 7  159 354 
 OCA  HZ I         723 10.75         4.1 0.40                           159 354 
 ZAR  HZ EP   1    722 48.10                             122   -0.48 6  202 292 
 ZAR  HE ES   1    723 14.03                             122    0.30 6  202 292 
 ZAR  HZ I         723 20.75         5.0 0.25                           202 292 
 SML  HN ES   1    723 21.31                             117    0.12 6  242 335 
 CHI  HZ EP   1    722 53.87                             117   -0.20 6  249 195 
 CHI  HN ES   1    723 23.25                             117   -0.26 6  249 195 
 CHI  HZ I         723 29.02         2.4 0.24                           249 195 
 PRA  HZ EP   1    723 10.79                             106    0.93 4  392 209 
 PRA  HN ES   1    723 52.27                             106    0.66 4  392 209 
 PRA  HZ I         723 59.93         2.4 0.40                           392 209 
                                                                                
