 2017 1123 0206 24.9 L   6.826 -73.148138.7  RSN 19 0.7 2.0LRSN                1
 GAP= 65        1.48       3.3     3.7  7.1 -0.1235E+01  0.8768E+01 -0.1301E+00E
 Epicentro: LOS SANTOS - SANTANDER                                             3
 ACTION:UPD 17-12-12 19:58 OP:rebc STATUS:               ID:20171123020624 L   I
 OLDACT:UP  17-11-23 14:48 OP:osc  STATUS:               ID:20171123015738d    3
 OLDACT:DUP 17-11-23 14:30 OP:osc  STATUS:               ID:20171123015738d    3
 2017-11-23-0158-00M.COL___480                                                 6
 STAT SP IPHASW D HRMM SECON CODA AMPLIT PERI AZIMU VELO AIN AR TRES W  DIS CAZ7
 BAR2 EZ EP        2 6 43.82                             169    0.0510 26.1 188 
 BAR2 EZ ES        2 6 58.66                             169    0.1810 26.1 188 
 BAR2 EZ I         2 6 59.99        43.4 0.18            168           26.1 188 
 PAM  EZ EP        2 6 46.74                             150    0.4710 75.4  41 
 PAM  EN ES        2 7  3.38                             150    0.4610 75.4  41 
 PAM  EZ I         2 7  5.57        20.6 0.44            154           75.4  41 
 RUS  HZ EP        2 6 47.88                             141   -0.3310  103 176 
 RUS  HN ES        2 7  6.15                             141   -0.2210  103 176 
 RUS  HZ I         2 7  8.08         8.9 0.42            143            103 176 
 PTB  HZ EP        2 6 51.29                             130   -0.07 9  148 258 
 PTB  HN ES        2 7 11.36                             130   -0.61 9  148 258 
 PTB  HZ I         2 7 14.22        10.1 0.14            131            148 258 
 TAM  HZ EP        2 6 52.23                             129    0.07 9  156 106 
 TAM  HN ES        2 7 13.46                             129    0.07 9  156 106 
 OCA  HZ EP        2 6 51.96                             128   -0.46 9  157 353 
 OCA  HE ES        2 7 13.05                             128   -0.82 9  157 353 
 OCA  HZ I         2 7 17.61        34.3 0.36            131            157 353 
 SPBC HZ EP        2 6 53.08                             127   -0.02 9  165 218 
 SPBC HN ES        2 7 13.83                             127   -1.24 9  165 218 
 SPBC HZ I         2 7 22.57        14.6 0.18            128            165 218 
 YPLC HZ IP     C  2 6 54.41                             124   -0.08 9  179 152 
 YPLC HN ES        2 7 18.32                             124    0.77 9  179 152 
 YPLC HZ I         2 7 20.65         8.0 0.44            127            179 152 
 ZAR  HZ EP        2 6 57.92                             121    1.14 9  203 291 
 ZAR  HE ES        2 7 22.52                             121    0.89 9  203 291 
 ZAR  HZ I         2 7 28.42        11.9 0.24            122            203 291 
 NOR  HZ EP        2 7  0.60                             117    0.18 8  236 234 
 NOR  HE ES        2 7 28.51                             117    0.41 8  236 234 
 NOR  HZ I         2 7 33.26         6.8 0.58            118            236 234 
 CHI  HZ EP        2 7  2.43                             115   -0.12 8  251 195 
 CHI  HN ES        2 7 31.07                             115   -0.82 8  251 195 
 CHI  HZ I         2 7 34.93         2.9 0.24            117            251 195 
 HEL  HZ EP        2 7  5.40                             113    0.56 8  273 255 
 HEL  HE ES        2 7 35.41                             113   -0.56 8  273 255 
 HEL  HZ I         2 7 43.60         4.5 0.38            115            273 255 
 DRL03HZ EP        2 7  5.22                             112   -0.66 7  286 353 
 DRL03HE ES        2 7 37.96                             112    0.14 7  286 353 
 GUY2CHZ EP        2 7  8.34                             111   -0.04 7  303 234 
 GUY2CHE ES        2 7 43.57                             111    1.29 7  303 234 
 GUY2CHZ I         2 7 51.30         3.1 0.26                           303 234 
 PTGC HZ EP   9    2 7  7.29                             110   -1.51 0  311 159 
 PTGC HE ES        2 7 40.87                             110   -0.64 7  311 159 
 CBOC HZ EP        2 7 12.31                             108    0.68 7  334 252 
 CBOC HE ES        2 7 48.34                             108    0.28 7  334 252 
 CBOC HZ I         2 7 51.97         1.7 0.25            110            334 252 
 PRA  HZ EP        2 7 18.01                             105   -0.48 6  394 209 
 PRA  HE ES        2 7 58.40                             105   -1.87 6  394 209 
 PRA  HZ I         2 8  5.77         3.7 0.20            107            394 209 
 ORTC HE ES        2 8  2.68                             105    1.73 6  398 216 
 ORTC HZ I         2 8  6.89         2.7 0.60            106            398 216 
 SJC  HZ EP        2 7 18.70                             105   -1.26 6  407 327 
 SJC  HE ES   4    2 7 59.62                             105   -3.27 0  407 327 
 SJC  HZ I         2 8  3.38         3.1 0.50            106            407 327 
                                                                                
