 2017  723 0809  8.1 L   6.822 -73.153145.3  RSN  9 0.4 1.6LRSN                1
 GAP=214        0.87       4.1     3.5  5.5  0.5329E+01  0.3243E+01  0.4493E+01E
 Epicentro: LOS SANTOS - SANTANDER                                             3
 ACTION:UPD 17-08-30 15:35 OP:rebc STATUS:               ID:20170723080908 L   I
 OLDACT:REG 17-07-23 14:37 OP:lv   STATUS:               ID:20170723080741     3
 2017-07-23-0808-00M.COL___371                                                 6
 STAT SP IPHASW D HRMM SECON CODA AMPLIT PERI AZIMU VELO AIN AR TRES W  DIS CAZ7
 BAR2 EZ EP        8 9 27.62                             170   -0.0610 25.6 187 
 BAR2 EZ ES        8 9 42.85                             170   -0.1310 25.6 187 
 BAR2 EZ I         8 9 44.41         6.5 0.44            170           25.6 187 
 BRR  HZ IP     D  8 9 29.57                             153    0.5210 69.4 297 
 BRR  HN ES        8 9 45.76                             153    0.3310 69.4 297 
 BRR  HZ I         8 9 49.86         4.8 0.26            152           69.4 297 
 RUS  HZ EP        8 9 32.02                             143    0.0810  103 176 
 RUS  HN ES        8 9 50.56                             143   -0.0110  103 176 
 RUS  HZ I         8 9 51.59         8.4 0.82            146            103 176 
 PTB  HZ EP        8 9 34.34                             132   -0.62 9  147 258 
 PTB  HN ES        8 9 55.95                             132    0.01 9  147 258 
 PTB  HZ I         8 9 57.73        11.6 0.05            132            147 258 
 SPBC HZ EP        8 9 36.94                             129    0.29 9  165 218 
 SPBC HN ES        8 9 58.38                             129   -0.57 9  165 218 
 SPBC HZ I         810  3.74         9.1 0.16            130            165 218 
 YPLC HZ IP     C  8 9 37.80                             126   -0.27 9  179 151 
 YPLC HN ES        810  1.64                             126    0.17 9  179 151 
 ZAR  HE ES        810  5.02                             122   -0.43 9  202 292 
 ZAR  HZ I         810 12.11         1.7 0.03            123            202 292 
 NOR  HZ EP        8 9 43.90                             118    0.06 8  235 234 
 NOR  HN ES        810 11.78                             118    0.03 8  235 234 
 NOR  HZ I         810 13.87         3.0 0.11            120            235 234 
 GUY2CHZ EP   4    8 9 53.82                             112    2.09 0  302 234 
 GUY2CHN ES        810 26.55                             112    0.76 7  302 234 
 GUY2CHZ I         810 34.68         2.0 0.24                           302 234 
 PTGC HZ EP   4    8 9 50.53                             111   -1.66 0  311 159 
 PTGC HN ES   4    810 22.19                             111   -4.41 0  311 159 
 SJC  HZ EP   4    810  1.95                             106   -1.37 0  407 327 
 SJC  HN ES   4    810 43.33                             106   -3.09 0  407 327 
                                                                                
