 2015  923 0506 16.7 L   6.748 -73.120149.8  RSN 12 0.5 1.9LRSN                1
 GAP=142        1.14       3.6     4.4  7.1 -0.3772E+01  0.7621E+01 -0.2343E+01E
 Epicentro: LOS SANTOS - SANTANDER                                             3
 ACTION:UPD 15-10-28 16:28 OP:cam  STATUS:               ID:20150923050616 L   I
 OLDACT:UP  15-09-23 15:24 OP:mh   STATUS:               ID:20150923045738     3
 OLDACT:UP  15-09-23 15:23 OP:mh   STATUS:               ID:20150923045738     3
 OLDACT:UP  15-09-23 15:22 OP:mh   STATUS:               ID:20150923045738     3
 OLDACT:REG 15-09-23 12:43 OP:mh   STATUS:               ID:20150923045738     3
 2015-09-23-0457-38M.COL___355                                                 6
 STAT SP IPHASW D HRMM SECON CODA AMPLIT PERI AZIMU VELO AIN AR TRES W  DIS CAZ7
 BAR2 EZ EP        5 6 36.93                             173    0.1810 18.6 202 
 BAR2 EZ I         5 6 53.01        16.7 0.16            174           18.6 202 
 BRR  HZ EP        5 6 39.08                             151    0.4810 76.5 301 
 BRR  HN ES        5 6 56.16                             151    0.4910 76.5 301 
 BRR  HZ I         5 6 56.70        17.5 0.16            151           76.5 301 
 PAM  EZ EP        5 6 40.09                             151    0.5610 80.2  35 
 PAM  EE ES        5 6 57.40                             151    0.0810 80.2  35 
 PAM  EZ I         5 7  0.83         7.1 0.60            150           80.2  35 
 RUS  HZ EP        5 6 40.60                             146    0.1410 94.7 178 
 RUS  HN ES        5 6 58.70                             146   -0.2810 94.7 178 
 RUS  HZ I         5 6 59.99         8.5 0.32            148           94.7 178 
 PTB  HZ EP        5 6 43.48                             133   -0.69 9  150 261 
 PTB  HN ES        5 7  4.89                             133   -0.70 9  150 261 
 PTB  HZ I         5 7  9.28         8.3 0.58            133            150 261 
 SPBC HZ EP        5 6 45.72                             130    0.43 9  161 221 
 SPBC HN ES        5 7  7.28                             130   -0.29 9  161 221 
 SPBC HZ I         5 7 14.22        10.2 0.32            132            161 221 
 OCA  HZ EP        5 6 45.48                             129   -0.42 9  166 352 
 OCA  HE ES        5 7  7.98                             129   -0.69 9  166 352 
 OCA  HZ I         5 7 17.78        16.2 0.16            130            166 352 
 ZAR  HZ EP        5 6 49.76                             123   -0.16 8  209 293 
 ZAR  HN ES        5 7 16.54                             123    0.73 8  209 293 
 ZAR  HZ I         5 7 20.95        14.4 0.28            123            209 293 
 NOR  HE ES        5 7 20.10                             119   -0.45 8  234 236 
 SML  HZ EP        5 6 53.90                             118   -0.35 8  250 335 
 SML  HN ES   1    5 7 23.33                             118   -0.20 6  250 335 
 SML  HZ I         5 7 30.58        10.9 0.24            118            250 335 
 HEL  HZ EP        5 6 57.46                             115    0.17 8  273 257 
 HEL  HN ES        5 7 29.68                             115    0.74 8  273 257 
 HEL  HZ I         5 7 35.43         2.9 0.48            116            273 257 
 GUY2CHZ EP   4    5 7  2.24                             113    1.83 0  300 236 
 GUY2CHN ES   4    5 7 37.71                             113    3.22 0  300 236 
 GUY2CHZ I         5 7 41.89         2.7 0.28                           300 236 
                                                                                
