 2011  423 0004 14.5 L   6.789 -73.309115.7  RSN  7 0.4 1.8LRSN                1
 GAP= 99        1.08       5.3     8.7 11.3 -0.5057E+01 -0.7201E+01  0.2732E+01E
 Epicentro: ZAPATOCA - SANTANDER                                               3
 ACTION:UP  11-06-22 15:32 OP:REBC STATUS:               ID:20110423000414 L   I
 2011-04-23-0000-00M.COL___140                                                 6
 STAT SP IPHASW D HRMM SECON CODA AMPLIT PERI AZIMU VELO SNR AR TRES W  DIS CAZ7
 BAR2 SZ EP        0 4 30.48                             166    -0.110   26 147 
 BAR2 SZ ES   2    0 4 43.16                             166     0.0 5   26 147 
 BAR2 SZ I         0 4 44.41        13.1 0.42                            26 147 
 GIR2 SZ EP        0 4 31.47                             162     0.810   34  22 
 BRR  HZ EP        0 4 30.95                             152    -0.610   57 308 
 BRR  HZ I         0 4 31.11        21.0 0.10                            57 308 
 BRR  HN ES   1    0 4 45.06                             152     0.2 7   57 308 
 PAM  SN ES   3    0 4 50.54                             140     0.3 2   91  48 
 RUS  HZ EP        0 4 35.29                             136    -0.210  102 166 
 RUS  HN ES   3    0 4 51.38                             136    -0.6 2  102 166 
 OCA  SZ EP        0 4 40.97                             122     0.3 9  160 360 
 OCA  SZ ES   1    0 5  0.37                             122    -0.7 7  160 360 
 OCA  SZ I         0 5  3.28         7.8 0.27                           160 360 
 NOR  SN ES   1    0 5 12.51                             113     0.3 6  220 232 
                                                                                
