 2016  423 0821 42.7 L   6.759 -73.138144.2  RSN  5 0.3 1.3LRSN                1
 GAP=139        0.73       3.3     3.4  6.5 -0.1591E+01  0.7880E+01 -0.2286E+01E
 Epicentro: LOS SANTOS - SANTANDER                                             3
 ACTION:UPD 16-05-05 14:23 OP:rebc STATUS:               ID:20160423082142 L   I
 OLDACT:ARG 16-04-23 12:40 OP:cara STATUS:               ID:20160423081745     3
 2016-04-23-0817-45M.COL___294                                                 6
 STAT SP IPHASW D HRMM SECON CODA AMPLIT PERI AZIMU VELO AIN AR TRES W  DIS CAZ7
 PAM  EZ EP        822  5.08                             149    0.1910 80.4  37 
 PAM  EN ES        822 21.91                             149   -0.3210 80.4  37 
 PAM  EZ I         822 25.78         1.7 0.42            153           80.4  37 
 RUS  HZ EP        822  6.25                             145    0.3210 96.0 176 
 RUS  HN ES        822 24.35                             145    0.2710 96.0 176 
 RUS  HZ I         822 25.18         2.0 0.20            149           96.0 176 
 PTB  HZ EP        822  9.16                             132   -0.34 9  148 261 
 PTB  HE ES        822 30.40                             132   -0.03 9  148 261 
 PTB  HZ I         822 32.91         3.4 0.38            134            148 261 
 SPBC HZ EP        822 10.34                             129   -0.42 9  160 220 
 SPBC HN ES        822 32.49                             129   -0.18 9  160 220 
 SPBC HZ I         822 36.70         2.2 0.22            133            160 220 
 ZAR  HZ EP        822 15.46                             122    0.20 8  207 293 
 ZAR  HN ES        822 41.01                             122    0.32 8  207 293 
 ZAR  HZ I         822 46.09         3.6 0.34            124            207 293 
                                                                                
