 2017 1023 0637 36.1 L   6.859 -73.148154.8  RSN 18 0.8 2.2LRSN                1
 GAP=141        1.53       4.6     4.4  7.2  0.7050E+01  0.3380E+01  0.1784E+01E
 Epicentro: LOS SANTOS - SANTANDER                                             3
 ACTION:UPD 17-11-07 19:35 OP:rebc STATUS:               ID:20171023063736 L   I
 OLDACT:DUP 17-10-23 17:35 OP:dhb  STATUS:               ID:20171023062247d    3
 OLDACT:DUP 17-10-23 17:29 OP:dhb  STATUS:               ID:20171023062246d    3
 OLDACT:UP  17-10-23 17:28 OP:dhb  STATUS:               ID:20171023062245     3
 OLDACT:REG 17-10-23 12:44 OP:dhb  STATUS:               ID:20171023062245     3
 2017-10-23-0628-00M.COL___390                                                 6
 STAT SP IPHASW D HRMM SECON CODA AMPLIT PERI AZIMU VELO AIN AR TRES W  DIS CAZ7
 BAR2 EZ IP     D  637 56.91                             169    0.0010 29.8 187 
 BAR2 EZ ES        638 12.70                             169   -0.4710 29.8 187 
 BAR2 EZ I         638 14.66        38.3 0.22            168           29.8 187 
 BRR  HZ IP     D  637 58.68                             155    0.6610 68.1 294 
 BRR  HE ES        638 15.88                             155    0.7310 68.1 294 
 BRR  HZ I         638 18.97        39.5 0.26            153           68.1 294 
 PAM  EZ I      C  637 48.27                                           72.6  43 
 RUS  HZ EP        638  1.17                             144    0.0010  107 176 
 RUS  HE ES        638 20.19                             144   -0.5610  107 176 
 RUS  HZ I         638 21.94        26.7 0.38            145            107 176 
 PTB  HZ EP        638  3.50                             134   -0.38 9  149 256 
 PTB  HE ES        638 25.45                             134   -0.13 9  149 256 
 PTB  HZ I         638 28.70        17.1 0.16            133            149 256 
 TAM  HZ IP     C  638  5.37                             132    0.72 9  157 107 
 TAM  HE ES        638 27.32                             132    0.38 9  157 107 
 TAM  HZ I         638 34.32        11.7 0.34            135            157 107 
 SPBC HZ EP        638  5.86                             130    0.13 9  168 218 
 SPBC HE ES        638 29.47                             130    0.60 9  168 218 
 SPBC HZ I         638 34.82        31.4 0.22            130            168 218 
 YPLC HZ EP        638  7.34                             128    0.25 9  183 152 
 YPLC HE ES        638 31.60                             128    0.31 9  183 152 
 YPLC HZ I         638 32.30        27.8 0.26            130            183 152 
 ZAR  HZ EP        638  9.37                             125    0.53 9  201 290 
 ZAR  HE ES        638 34.89                             125    0.47 9  201 290 
 ZAR  HZ I         638 42.92        23.9 0.52            125            201 290 
 NOR  HZ EP        638 13.46                             120    0.75 8  238 233 
 NOR  HE ES        638 40.43                             120   -0.88 8  238 233 
 NOR  HZ I         638 48.85        13.6 0.14            120            238 233 
 CHI  HZ EP        638 15.22                             118    0.28 8  255 195 
 CHI  HE ES        638 44.99                             118   -0.28 8  255 195 
 CHI  HZ I         638 46.77         6.7 0.40            119            255 195 
 URE  HZ EP        638 16.71                             116   -0.58 7  281 291 
 URE  HE ES        638 48.04                             116   -1.42 7  281 291 
 URE  HZ I         639  1.00         9.6 0.16            116            281 291 
 GUY2CHZ EP   3    638 22.22                             114    1.72 2  305 234 
 GUY2CHE ES   3    638 57.52                             114    2.35 2  305 234 
 GUY2CHZ I         639  2.13         8.9 0.56                           305 234 
 PTGC HZ EP        638 20.14                             113   -0.89 7  315 159 
 PTGC HE ES        638 53.51                             113   -2.59 7  315 159 
 PTGC HZ I         638 54.83        10.2 0.24            114            315 159 
 ELA  HE ES   3    639  3.60                             112    2.61 2  333 229 
 ELA  HZ I         639 16.66         5.8 0.62            112            333 229 
 PRA  HZ EP        638 30.66                             108    0.11 6  398 209 
 PRA  HE ES        639 13.44                             108    0.38 6  398 209 
 PRA  HZ I         639 15.87         5.0 0.32            108            398 209 
 ORTC HZ EP        638 31.45                             108    0.55 6  401 216 
 ORTC HE ES        639 14.35                             108    0.67 6  401 216 
 ORTC HZ I         639 20.83         3.1 0.34            108            401 216 
 SJC  HZ EP        638 31.02                             107   -0.25 6  404 326 
 SJC  HE ES        639 12.96                             107   -1.38 6  404 326 
 SJC  HZ I         639 19.96         2.6 0.56            108            404 326 
                                                                                
