 2013  723 0934 14.1 L   6.773 -73.132149.0  RSN  5 0.4 1.6LRSN                1
 GAP=207        0.80       6.5     5.9  8.2  0.5507E+01  0.1155E+02 -0.1454E+02E
 Epicentro: LOS SANTOS - SANTANDER                                             3
 ACTION:UPD 13-08-12 10:39 OP:ep   STATUS:               ID:20130723093414 L   I
 OLDACT:UP  13-07-23 11:32 OP:cam  STATUS:               ID:20130723093000     3
 OLDACT:REG 13-07-23 09:41 OP:cam  STATUS:               ID:20130723093000     3
 2013-07-23-0930-00M.COL___263                                                 6
 STAT SP IPHASW D HRMM SECON CODA AMPLIT PERI AZIMU VELO AIN AR TRES W  DIS CAZ7
 BAR2 SZ EP        934 34.32                             172    0.2710 20.8 196 
 BAR2 SZ ES   1    934 49.25                             172   -0.38 7 20.8 196 
 GIR2 SZ EP   1    934 34.38                             166    0.15 7 34.5 349 
 GIR2 SZ ES   1    934 50.10                             166    0.16 7 34.5 349 
 PTB  HZ EP   1    934 41.26                             132   -0.14 7  149 260 
 PTB  HN ES   1    935  2.15                             132   -0.56 7  149 260 
 PTB  HZ I         935  8.82         2.8 0.16            130            149 260 
 ZAR  HE ES        935 13.31                             123    0.63 8  207 293 
 SML  HZ EP   1    934 50.83                             118   -0.43 6  247 335 
 SML  HE ES   1    935 19.73                             118   -0.52 6  247 335 
 SML  HZ I         935 30.68         3.8 0.26            116            247 335 
                                                                                
