 2015  523 0041 35.5 L   6.763 -73.119150.5  RSN  9 0.3 1.7LRSN                1
 GAP=142        0.55       2.3     3.4  4.6  0.8289E+00  0.6769E+00 -0.2517E+01E
 Epicentro: LOS SANTOS - SANTANDER                                             3
 ACTION:UPD 15-09-10 22:06 OP:cam  STATUS:               ID:20150523004135 L   I
 OLDACT:REG 15-05-23 12:15 OP:spq  STATUS:               ID:20150523003749     3
 2015-05-23-0037-49M.COL___297                                                 6
 STAT SP IPHASW D HRMM SECON CODA AMPLIT PERI AZIMU VELO AIN AR TRES W  DIS CAZ7
 BAR2 EZ EP        041 55.55                             172   -0.1110 20.1 200 
 BAR2 EZ ES   1    042 11.04                             172   -0.33 7 20.1 200 
 BAR2 EZ I         042 11.65        13.5 0.18            171           20.1 200 
 BRR  HZ EP        041 57.41                             152   -0.0310 75.8 300 
 BRR  HN ES        042 14.70                             152    0.1710 75.8 300 
 BRR  HZ I         042 20.47         9.2 0.28            149           75.8 300 
 PAM  SZ EP        041 58.42                             151    0.1010 78.8  36 
 PAM  SN ES   1    042 15.80                             151   -0.31 7 78.8  36 
 PAM  SZ I         042 17.16         4.2 0.22            154           78.8  36 
 RUS  HZ EP   1    041 59.70                             146    0.26 7 96.3 178 
 RUS  HE ES        042 18.19                             146    0.0910 96.3 178 
 RUS  HZ I         042 18.64         3.5 0.26            149           96.3 178 
 SPBC HN ES   1    042 26.67                             130   -0.02 7  162 221 
 SPBC HZ I         042 27.59         6.0 0.28            132            162 221 
 OCA  HN ES   1    042 27.92                             130    0.61 7  165 352 
 OCA  HZ I         042 28.90        14.0 0.20            131            165 352 
 ZAR  HE ES   1    042 34.45                             123   -0.16 6  208 293 
 ZAR  HZ I         042 39.48         5.8 0.26            123            208 293 
 SML  HZ EP   1    042 12.53                             118   -0.42 6  249 335 
 SML  HE ES   1    042 41.94                             118   -0.20 6  249 335 
 SML  HZ I         042 44.24         7.2 0.07            119            249 335 
 SJC  HZ EP   4    042 29.83                             106   -2.00 0  414 327 
 SJC  HN ES   4    043 12.88                             106   -2.87 0  414 327 
 SJC  HZ I         043 17.40         1.4 0.50            107            414 327 
                                                                                
