 2012  723 0432  2.0 L   6.824 -73.445122.0  RSN  4 0.2 1.5LRSN                1
 GAP=126        0.50       6.6     5.6  7.2  0.1600E+01  0.1351E+02 -0.9351E+00E
 Epicentro: SAN VICENTE DE CHUCURI - SANTANDER                                 3
 ACTION:UPD 12-08-14 11:44 OP:ep   STATUS:               ID:20120723043202 L   I
 2012-07-23-0430-00M.COL___215                                                 6
 STAT SP IPHASW D HRMM SECON CODA AMPLIT PERI AZIMU VELO AIN AR TRES W  DIS CAZ7
 BAR2 SZ EP        432 19.39                             161     0.110   39 131 
 BAR2 SZ I         432 19.49         9.1 0.14            161             39 131 
 BAR2 SZ ES   2    432 32.21                             161    -0.5 5   39 131 
 BRR  HZ EP        432 19.21                             159     0.110   43 317 
 BRR  HZ I         432 19.50         6.9 0.12            159             43 317 
 BRR  HE ES   2    432 32.46                             159     0.1 5   43 317 
 PTB  HZ EP        432 23.98                             133    -0.210  116 254 
 PTB  HN ES   3    432 41.90                             133     0.5 2  116 254 
 OCA  HZ EP   2    432 28.05                             124    -0.2 5  157   5 
