 2017 1123 0525 35.2 L   6.800 -73.087150.3  RSN 18 0.8 1.8LRSN                1
 GAP=124        1.71       4.1     5.5  8.1 -0.2821E+01  0.1157E+02  0.1104E+01E
 Epicentro: LOS SANTOS - SANTANDER                                             3
 ACTION:UPD 17-12-12 19:58 OP:rebc STATUS:               ID:20171123052535 L   I
 OLDACT:UP  17-11-23 17:04 OP:osc  STATUS:               ID:20171123051739     3
 OLDACT:REG 17-11-23 13:00 OP:osc  STATUS:               ID:20171123051739     3
 2017-11-23-0518-00M.COL___471                                                 6
 STAT SP IPHASW D HRMM SECON CODA AMPLIT PERI AZIMU VELO AIN AR TRES W  DIS CAZ7
 BAR2 EZ EP        525 55.52                             170    0.0810 25.3 205 
 BAR2 EZ ES        526 11.01                             170   -0.2010 25.3 205 
 BAR2 EZ I         526 13.46        18.3 0.34            168           25.3 205 
 PAM  EZ EP        525 58.54                             152    0.8410 73.4  36 
 PAM  EE ES        526 15.70                             152    0.4710 73.4  36 
 PAM  EZ I         526 18.00         6.5 0.58            157           73.4  36 
 RUS  HZ EP        525 59.52                             145    0.1110  100 180 
 RUS  HN ES        526 18.33                             145    0.0610  100 180 
 RUS  HZ I         526 19.44         8.2 0.38            145            100 180 
 PTB  HZ EP        526  2.73                             132   -0.41 9  154 259 
 PTB  HN ES        526 23.59                             132   -1.32 9  154 259 
 PTB  HZ I         526 28.38         4.6 0.14            132            154 259 
 OCA  HE ES        526 26.70                             130    0.30 9  161 351 
 SPBC HZ EP        526  4.53                             129    0.07 9  167 221 
 SPBC HN ES        526 26.44                             129   -0.83 9  167 221 
 SPBC HZ I         526 32.72         9.2 0.19            130            167 221 
 ZAR  HZ EP        526  7.86                             122   -0.72 8  210 291 
 ZAR  HN ES        526 33.81                             122   -0.79 8  210 291 
 ZAR  HZ I         526 40.57         5.1 0.38            124            210 291 
 NOR  HZ EP        526 11.50                             119   -0.28 8  240 235 
 NOR  HE ES        526 40.14                             119   -0.16 8  240 235 
 NOR  HZ I         526 44.69         4.7 0.34            120            240 235 
 CHI  HZ EP        526 13.80                             118    0.43 8  250 197 
 CHI  HE ES        526 43.78                             118    0.66 8  250 197 
 CHI  HZ I         526 53.10         1.9 0.62            119            250 197 
 ROSC BZ EP   9    526 15.80                             117    1.84 0  256 212 
 ROSC BE ES        526 45.28                             117   -0.73 8  256 212 
 HEL  HE ES        526 49.85                             115    1.40 7  278 256 
 URE  HZ EP        526 15.46                             114   -1.73 7  290 291 
 URE  HE ES   4    526 46.51                             114   -3.40 0  290 291 
 DRL03HZ EP        526 17.47                             114    0.32 7  290 352 
 DRL03HE ES        526 50.45                             114    0.59 7  290 352 
 PTGC HZ EP        526 18.58                             112   -0.45 7  306 160 
 PTGC HN ES        526 52.00                             112   -1.20 7  306 160 
 GUY2CHZ EP        526 20.47                             113    0.83 7  306 235 
 GUY2CHE ES        526 56.26                             113    1.98 7  306 235 
 GUY2CHZ I         527  1.48         2.8 0.42                           306 235 
 CBOC HZ EP        526 23.95                             110    0.92 7  340 252 
 CBOC HN ES        527  0.78                             110    0.46 7  340 252 
 PRA  HZ EP        526 29.56                             107    0.28 6  395 210 
 PRA  HE ES        527 11.53                             107    0.09 6  395 210 
 PRA  HZ I         527 17.71         2.3 0.50            108            395 210 
 SJC  HZ EP        526 29.81                             106   -1.55 6  413 326 
 SJC  HE ES   4    527 10.72                             106   -4.42 0  413 326 
                                                                                
