 2017 1023 0102 33.9 L   6.675 -74.100  2.0  RSN  6 0.4 1.2LRSN                1
 GAP= 86        1.01       2.0     2.1  5.3 -0.6881E-01  0.9808E+00  0.1178E+01E
 Epicentro: PUERTO PARRA - SANTANDER                                           3
 ACTION:UPD 17-11-07 19:35 OP:rebc STATUS:               ID:20171023010233 L   I
 OLDACT:REG 17-10-23 12:16 OP:dhb  STATUS:               ID:20171023005746     3
 2017-10-23-0058-00M.COL___406                                                 6
 STAT SP IPHASW D HRMM SECON CODA AMPLIT PERI AZIMU VELO AIN AR TRES W  DIS CAZ7
 PTB  HZ IP     D  1 2 41.12                              47   -0.0910 42.1 249 
 PTB  HE ES        1 2 46.92                              47    0.0310 42.1 249 
 PTB  HZ I         1 2 47.12        13.3 0.16             47           42.1 249 
 BRR  HZ IP     C  1 2 44.34                              47   -0.2010 64.2  42 
 BRR  HE ES        1 2 52.73                              47   -0.0810 64.2  42 
 BRR  HZ I         1 3  3.34         8.4 0.24             47           64.2  42 
 SPBC HZ EP        1 2 52.06                              47    0.0210  113 178 
 SPBC HN ES        1 3  6.27                              47    0.1010  113 178 
 SPBC HZ I         1 3  7.73         3.9 0.06             47            113 178 
 ZAR  HZ EP        1 2 53.26                              47   -0.2310  123 317 
 ZAR  HE ES        1 3  9.15                              47    0.4110  123 317 
 ZAR  HZ I         1 3 10.80         4.8 0.09             47            123 317 
 RUS  HZ EP        1 2 56.45                              47   -0.37 9  142 127 
 RUS  HN ES        1 3 15.10                              47    0.42 9  142 127 
 RUS  HZ I         1 3 16.13         9.1 0.24             47            142 127 
 URE  HE ES   4    1 3 31.36                              37    3.39 0  198 307 
 GUY2CHZ EP        1 3  7.62                              37    0.91 8  213 221 
 GUY2CHE ES        1 3 31.40                              37   -0.88 8  213 221 
 GUY2CHZ I         1 3 34.88         2.3 0.30                           213 221 
                                                                                
