 2016 1123 0916  2.1 L   6.728 -73.170145.8  RSN  4 0.3 1.4LRSN                1
 GAP=240        0.86       9.5     6.2  6.9  0.2221E+02  0.9913E+01 -0.4074E+01E
 Epicentro: VILLANUEVA - SANTANDER                                             3
 ACTION:UPD 17-10-26 21:10 OP:lp   STATUS:               ID:20161123091602 L   I
 OLDACT:UP  16-11-23 17:48 OP:dani STATUS:               ID:20161123090744     3
 OLDACT:UP  16-11-23 17:48 OP:dani STATUS:               ID:20161123090744     3
 OLDACT:REG 16-11-23 17:01 OP:dani STATUS:               ID:20161123090744     3
 2016-11-23-0908-00M.COL___352                                                 6
 STAT SP IPHASW D HRMM SECON CODA AMPLIT PERI AZIMU VELO AIN AR TRES W  DIS CAZ7
 BAR2 EZ EP        916 21.86                             174    0.2610 15.1 185 
 BAR2 EZ ES        916 36.31                             174   -0.5010 15.1 185 
 BAR2 EZ I         916 42.52         5.1 0.22            172           15.1 185 
 BRR  HZ EP        916 23.67                             152    0.3110 73.1 305 
 BRR  HN ES        916 40.29                             152    0.3510 73.1 305 
 BRR  HZ I         916 42.22         4.9 0.34            152           73.1 305 
 PTB  HZ EP        916 28.59                             133   -0.12 9  144 262 
 PTB  HE ES        916 49.74                             133    0.27 9  144 262 
 PTB  HZ I         916 53.41         3.5 0.20            135            144 262 
 ZAR  HZ EP        916 34.24                             122   -0.38 9  205 294 
 ZAR  HN ES        916 59.60                             122   -0.38 9  205 294 
 ZAR  HZ I         917  6.09         3.1 0.19            125            205 294 
                                                                                
