 2017  323 0505  7.1 L   6.779 -73.192144.0  RSN  4 0.3 1.5LRSN                1
 GAP=244        0.72       5.1     4.9  6.3  0.4682E+01  0.8168E+01 -0.4847E+01E
 Epicentro: ZAPATOCA - SANTANDER                                               3
 ACTION:UPD 17-05-25 18:44 OP:jn   STATUS:               ID:20170323050507 L   I
 OLDACT:REG 17-03-23 13:02 OP:lv   STATUS:               ID:20170323045641     3
 2017-03-23-0457-00M.COL___388                                                 6
 STAT SP IPHASW D HRMM SECON CODA AMPLIT PERI AZIMU VELO AIN AR TRES W  DIS CAZ7
 BAR2 EZ EP        5 5 26.16                             171   -0.3310 20.7 177 
 BAR2 EZ ES        5 5 41.80                             171    0.2010 20.7 177 
 BAR2 EZ I         5 5 42.74         6.6 0.12            170           20.7 177 
 PTB  HZ EP        5 5 33.20                             133   -0.25 9  142 259 
 PTB  HN ES        5 5 53.58                             133   -0.40 9  142 259 
 PTB  HZ I         5 5 59.50         2.3 0.08            132            142 259 
 SPBC HZ EP        5 5 35.10                             130    0.09 9  158 218 
 SPBC HN ES        5 5 57.03                             130    0.26 9  158 218 
 SPBC HZ I         5 6  0.23         5.0 0.10            130            158 218 
 ZAR  HZ EP        5 5 39.45                             123    0.39 9  200 293 
 ZAR  HN ES        5 6  4.13                             123    0.17 9  200 293 
 ZAR  HZ I         5 6 10.83         3.4 0.20            123            200 293 
                                                                                
