 2013  423 0756 31.1 L   6.787 -73.219135.5  RSN  6 0.3 1.5LRSN                1
 GAP=126        0.69       4.2     4.0  6.8 -0.2602E+01  0.7661E+01 -0.5203E+01E
 Epicentro: ZAPATOCA - SANTANDER                                               3
 ACTION:UPD 13-05-22 14:40 OP:EP   STATUS:               ID:20130423075631 L   I
 2013-04-23-0750-00M.COL___249                                                 6
 STAT SP IPHASW D HRMM SECON CODA AMPLIT PERI AZIMU VELO AIN AR TRES W  DIS CAZ7
 BAR2 SZ EP   1    756 49.59                             170    0.11 7 21.9 169 
 BAR2 SZ ES   1    757  3.96                             170    0.15 7 21.9 169 
 BAR2 SZ I         757  5.97         5.2 0.14            172           21.9 169 
 GIR2 SZ EP   1    756 49.80                             166    0.20 7 32.4   5 
 BRR  HZ EP   1    756 51.58                             153    0.78 7 65.0 303 
 BRR  HN ES   4    757  8.13                             153    1.97 0 65.0 303 
 BRR  HN I         757  9.71         9.1 0.16            152           65.0 303 
 PAM  SZ EP   1    756 52.36                             147   -0.31 7 83.8  43 
 PAM  SN ES   1    757  9.19                             147   -0.29 7 83.8  43 
 PAM  SN I         757 10.75         9.5 0.24            153           83.8  43 
 RUS  HZ EP        756 53.61                             142   -0.2210  100 171 
 RUS  HN ES        757 11.65                             142    0.1110  100 171 
 RUS  HN I         757 13.69         5.0 0.36            147            100 171 
 PTB  HZ EP        756 56.51                             131    0.01 9  140 259 
 PTB  HN ES        757 16.00                             131   -0.30 9  140 259 
 PTB  HN I         757 22.52         2.8 0.10            133            140 259 
                                                                                
