 2015  823 0601 15.9 L   6.774 -73.127139.1  RSN  9 0.4 1.7LRSN                1
 GAP=185        0.86       4.0     5.5  6.5  0.6139E+01  0.1530E+02  0.6250E+01E
 Epicentro: LOS SANTOS - SANTANDER                                             3
 ACTION:UPD 15-09-15 23:04 OP:cam  STATUS:               ID:20150823060115 L   I
 OLDACT:REG 15-08-23 14:42 OP:ar   STATUS:               ID:20150823055750     3
 2015-08-23-0557-50M.COL___334                                                 6
 STAT SP IPHASW D HRMM SECON CODA AMPLIT PERI AZIMU VELO AIN AR TRES W  DIS CAZ7
 BAR2 EZ EP        6 1 34.37                             171   -0.2610 21.0 197 
 BAR2 EZ ES        6 1 49.29                             171    0.0110 21.0 197 
 BAR2 EZ I         6 1 50.29        19.9 0.14            169           21.0 197 
 BRR  HZ IP     C  6 1 36.18                             150   -0.2910 74.4 300 
 BRR  HN ES        6 1 53.02                             150    0.4610 74.4 300 
 BRR  HZ I         6 1 54.81         7.7 0.14            147           74.4 300 
 RUS  HZ EP   2    6 1 38.43                             143   -0.30 5 97.6 177 
 RUS  HE ES   2    6 1 56.77                             143    0.20 5 97.6 177 
 RUS  HZ I         6 1 57.69         6.9 0.32            143           97.6 177 
 SPBC HZ EP   2    6 1 43.30                             128   -0.46 5  162 220 
 SPBC HN ES   2    6 2  5.59                             128    0.07 5  162 220 
 SPBC HZ I         6 2  9.48        10.1 0.36            126            162 220 
 OCA  HE ES   2    6 2  5.79                             127   -0.08 5  163 353 
 OCA  HZ I         6 2 11.36         7.6 0.26            127            163 353 
 ZAR  HZ EP        6 1 49.04                             120    0.85 8  207 293 
 ZAR  HN ES        6 2 12.75                             120   -0.66 8  207 293 
 ZAR  HZ I         6 2 18.51         6.5 0.26            119            207 293 
 CHI  HN ES        6 2 21.83                             116   -0.04 8  246 196 
 CHI  HZ I         6 2 28.32         2.1 0.28            115            246 196 
 HEL  HN ES        6 2 26.77                             113   -0.33 8  273 257 
 HEL  HZ I         6 2 33.75         3.2 0.38            112            273 257 
 GUY2CHZ EP        6 1 59.59                             111    0.43 7  301 235 
 GUY2CHN ES   2    6 2 33.40                             111    0.46 4  301 235 
 GUY2CHZ I         6 2 40.93         2.2 0.30                           301 235 
                                                                                
