 2014 1223 0809 22.0 L   6.800 -73.217140.4  RSN  4 0.2 1.5LRSN                1
 GAP=237        0.57       4.4     4.2  5.6  0.5116E+01  0.8178E+01  0.1432E+01E
 Epicentro: ZAPATOCA - SANTANDER                                               3
 ACTION:UPD 15-02-10 17:06 OP:nd   STATUS:               ID:20141223080922 L   I
 OLDACT:UP  14-12-23 18:31 OP:mh   STATUS:               ID:20141223080748     3
 OLDACT:REG 14-12-23 13:44 OP:mh   STATUS:               ID:20141223080748     3
 2014-12-23-0807-48M.COL___289                                                 6
 STAT SP IPHASW D HRMM SECON CODA AMPLIT PERI AZIMU VELO AIN AR TRES W  DIS CAZ7
 BAR2 EZ EP   1    8 9 40.79                             170   -0.19 7 23.3 170 
 BAR2 EZ ES        8 9 55.87                             170    0.0810 23.3 170 
 BAR2 EZ I         8 9 57.39         8.6 0.08            162           23.3 170 
 PTB  HZ EP        8 9 47.98                             132    0.16 9  140 258 
 PTB  HN ES        810  7.57                             132   -0.40 9  140 258 
 PTB  HZ I         810 11.31         3.1 0.30            131            140 258 
 SPBC HZ EP        8 9 49.50                             129   -0.12 9  158 217 
 SPBC HN ES        810 11.41                             129    0.24 9  158 217 
 SPBC HZ I         810 18.59         5.2 0.34            127            158 217 
 ZAR  HN ES        810 17.97                             122    0.19 9  197 293 
                                                                                
