 2017 1123 0234  9.7 L   7.059 -73.431113.8  RSN  5 0.2 1.0LRSN                1
 GAP=147        0.48       1.6     2.6  4.8 -0.6657E+00  0.2618E+01 -0.1440E+01E
 Epicentro: SAN VICENTE DE CHUCURI - SANTANDER                                 3
 ACTION:UPD 17-12-12 19:58 OP:rebc STATUS:               ID:20171123023409 L   I
 OLDACT:REG 17-11-23 12:47 OP:osc  STATUS:               ID:20171123022744     3
 2017-11-23-0228-00M.COL___477                                                 6
 STAT SP IPHASW D HRMM SECON CODA AMPLIT PERI AZIMU VELO AIN AR TRES W  DIS CAZ7
 BAR2 EZ EP        234 27.29                             151    0.2410 58.5 152 
 BAR2 EZ ES        234 40.70                             151    0.1310 58.5 152 
 BAR2 EZ I         234 42.76         7.6 0.32            152           58.5 152 
 PTB  HZ EP        234 32.40                             128    0.1610  127 243 
 PTB  HN ES        234 49.80                             128   -0.0110  127 243 
 PTB  HZ I         234 53.04         1.8 0.52            131            127 243 
 OCA  HZ EP        234 32.66                             127   -0.1610  131   5 
 OCA  HE ES        234 50.76                             127   -0.0810  131   5 
 RUS  HZ EP        234 33.72                             127    0.1110  135 163 
 RUS  HN ES        234 51.96                             127   -0.2910  135 163 
 RUS  HZ I         234 57.45         0.8 0.54            129            135 163 
 SPBC HN ES        234 57.78                             119   -0.16 9  171 205 
                                                                                
