 2011 1223 0949 56.5 L   6.796 -73.140144.1  RSN 10 0.4 2.2LRSN                1
 GAP=137        0.82       3.8     5.3  5.9 -0.3982E+01  0.6469E+01  0.5379E+01E
 Epicentro: LOS SANTOS - SANTANDER                                             3
 ACTION:UPD 12-07-13 16:17 OP:ep   STATUS:               ID:20111223094956 L   I
 2011-12-23-0950-00M.COL___188                                                 6
 STAT SP IPHASW D HRMM SECON CODA AMPLIT PERI AZIMU VELO AIN AR TRES W  DIS CAZ7
 BAR2 SZ EP        950 15.90                             171    0.0310 23.0 192 
 BAR2 SZ ES   1    950 30.70                             171   -0.32 7 23.0 192 
 BAR2 SZ I         950 32.25       197.0 0.23                          23.0 192 
 BRR  HZ IP     D  950 17.74                             152    0.2810 72.0 299 
 BRR  HN ES   1    950 34.61                             152    0.76 7 72.0 299 
 BRR  HZ I         950 36.61        77.2 0.15                          72.0 299 
 PAM  SZ EP   1    950 18.67                             150    0.18 7 77.4  39 
 PAM  SN ES   1    950 35.82                             150    0.14 7 77.4  39 
 RUS  HZ EP   1    950 19.83                             144   -0.17 7  100 176 
 RUS  HN ES   1    950 38.01                             144   -0.36 7  100 176 
 RUS  HZ I         950 40.00        49.3 0.34                           100 176 
 PTB  HZ EP   1    950 22.47                             131   -0.86 7  148 259 
 PTB  HE ES   1    950 43.69                             131   -0.60 7  148 259 
 PTB  HZ I         950 49.45         0.2 0.43                           148 259 
 OCA  SZ EP   1    950 24.43                             129   -0.25 7  161 353 
 OCA  SZ I         950 52.62        39.1 0.19                           161 353 
 NOR  SZ EP   1    950 32.09                             118   -0.02 6  235 235 
 CHI  HZ EP        950 34.00                             117   -0.02 8  248 195 
 CHI  HN ES   1    951  3.50                             117    0.17 6  248 195 
 CHI  HZ I         951  6.72        16.5 0.37                           248 195 
 RREF HZ EP   1    950 42.79                             110    0.25 5  322 230 
 RREF HZ I         951 23.21         9.8 0.31                           322 230 
 PRA  HN ES        951 32.42                             106    0.83 6  392 210 
                                                                                
