 2011  923 0908 43.4 L   6.633 -73.178141.6  RSN  5 0.2 1.3LRSN                1
 GAP=190        0.48       5.9     7.8  5.2  0.3461E+02 -0.1150E+00 -0.4176E+01E
 Epicentro: BARICHARA - SANTANDER                                              3
 ACTION:UPD 12-07-13 15:59 OP:ep   STATUS:               ID:20110923090843 L   I
 2011-09-23-0904-50S.COL___165                                                 6
 STAT SP IPHASW D HRMM SECON CODA AMPLIT PERI AZIMU VELO AIN AR TRES W  DIS CAZ7
 BAR2 SZ EP   1    9 9  2.01                             178   -0.33 7 4.53 186 
 BAR2 SZ ES   1    9 9 17.15                             178    0.08 7 4.53 186 
 BAR2 SZ I         9 9 19.58         5.1 0.31                          4.53 186 
 BTL  SZ EP        9 9  2.94                             166    0.1210 33.1 343 
 BRR  HZ EP   1    9 9  4.32                             149   -0.29 7 78.9 312 
 BRR  HZ I         9 9  6.55         4.5 0.13                          78.9 312 
 BRR  HE ES   1    9 9 21.24                             149    0.12 7 78.9 312 
 RUS  HZ EP   1    9 9  5.73                             148    0.19 7 82.5 173 
 RUS  HE ES   1    9 9 22.71                             148   -0.07 7 82.5 173 
 RUS  HZ I         9 9 25.88         2.8 0.29                          82.5 173 
 ZAR  HZ EP   2    9 9 16.66                             121    0.57 4  208 297 
 ZAR  HE ES   2    9 9 41.25                             121   -0.29 4  208 297 
                                                                                
