 2011  123 0811 55.7 L   6.799 -73.155137.6  RSN 11 0.4 2.1LRSN                1
 GAP=158        0.94       3.9     8.4  8.4 -0.1410E+02  0.3420E+02 -0.6293E+01E
 Epicentro: LOS SANTOS - SANTANDER                                             3
 ACTION:UP  11-02-08 08:42 OP:pat  STATUS:               ID:20110123081155 L   I
 2011-01-23-0809-49S.COL___138                                                 6
 STAT SP IPHASW D HRMM SECON CODA AMPLIT PERI AZIMU VELO SNR AR TRES W  DIS CAZ7
 BAR2 SZ EP   1    812 14.16                             170    -0.2 8   23 188 
 BAR2 SZ ES   1    812 29.01                             170     0.1 8   23 188 
 BAR2 SZ I         812 30.39        23.7 0.22                            23 188 
 GIR2 SZ EP   1    812 14.26                             167    -0.2 8   31 352 
 RUS  HZ EP   1    812 18.43                             142    -0.3 8  101 175 
 RUS  HE ES   1    812 36.58                             142     0.0 8  101 175 
 RUS  HZ I         812 38.88         5.8 0.42                           101 175 
 GRA  SZ IP        812 21.05                             135     0.710  126  18 
 GRA  SZ ES   1    812 39.81                             135     0.3 7  126  18 
 GRA  SZ I         812 41.46        26.8 0.45                           126  18 
 OCA  SZ IP        812 22.69                             128    -0.7 9  160 354 
 OCA  SZ ES   1    812 44.67                             128    -0.4 7  160 354 
 OCA  SZ I         812 47.58        22.7 0.28                           160 354 
 NOR  SZ EP   1    812 30.83                             117    -0.1 6  234 234 
 NOR  SN ES   2    812 58.74                             117     0.4 4  234 234 
 CHI  HZ EP   1    812 32.78                             115    -0.2 6  248 195 
 CHI  HE ES   2    813  1.64                             115    -0.3 4  248 195 
 CHI  HZ I         813  9.71         4.8 0.48                           248 195 
 ROSC BZ EP   2    812 34.16                             115     0.8 4  252 211 
 ROSC BZ I         813 12.32        10.5 0.37                           252 211 
 HEL  HZ EP   1    812 35.98                             113     0.6 6  271 256 
 HEL  HE ES   2    813  6.42                             113     0.0 4  271 256 
 HEL  HZ I         813 13.55         8.0 0.30                           271 256 
 RREF HZ EP   2    812 41.88                             109     0.4 4  321 229 
 RREF HZ I         813 23.61         7.5 0.30                           321 229 
 DBB  SZ EP   2    812 42.81                             108     0.0 3  338 274 
                                                                                
