 2016  623 0937 56.8 L   6.825 -73.140148.7  RSN 22 0.5 2.2LRSN                1
 GAP=118        1.10       2.9     3.5  4.9 -0.1597E+01  0.4629E+01  0.1717E+01E
 Epicentro: LOS SANTOS - SANTANDER                                             3
 ACTION:UPD 16-07-21 22:22 OP:rebc STATUS:               ID:20160623093756 L   I
 OLDACT:DUP 16-06-23 17:22 OP:ak   STATUS:               ID:20160623092749d    3
 2016-06-23-0927-48M.COL___328                                                 6
 STAT SP IPHASW D HRMM SECON CODA AMPLIT PERI AZIMU VELO AIN AR TRES W  DIS CAZ7
 BAR2 EZ IP     D  938 16.94                             170    0.1310 26.1 190 
 BAR2 EZ ES        938 32.25                             170   -0.1910 26.1 190 
 BAR2 EZ I         938 33.62        55.3 0.36                          26.1 190 
 BRR  HZ IP     C  938 18.77                             153    0.5710 70.5 296 
 BRR  HN ES        938 35.69                             153    0.7810 70.5 296 
 BRR  HZ I         938 36.40        28.7 0.12                          70.5 296 
 PAM  EZ EP        938 19.95                             152    0.8010 74.9  40 
 PAM  EN ES        938 36.40                             152   -0.2110 74.9  40 
 PAM  EZ I         938 39.10        34.8 0.52                          74.9  40 
 RUS  HZ EP        938 21.16                             144    0.1610  103 177 
 RUS  HN ES        938 39.72                             144   -0.1810  103 177 
 RUS  HZ I         938 40.56        12.1 0.26                           103 177 
 PTB  HZ EP   1    938 23.62                             132   -0.46 7  149 258 
 PTB  HE ES        938 44.71                             132   -0.68 9  149 258 
 PTB  HZ I         938 51.33        13.0 0.16                           149 258 
 ZAR  HZ EP        938 29.74                             123    0.38 9  204 291 
 ZAR  HN ES        938 54.87                             123    0.08 9  204 291 
 ZAR  HZ I         939  1.63        13.9 0.12                           204 291 
 NOR  HZ EP        938 33.14                             119    0.24 8  237 234 
 NOR  HN ES        939  0.42                             119   -0.66 8  237 234 
 NOR  HZ I         939  6.39         9.0 0.12                           237 234 
 CHI  HZ EP        938 35.17                             117    0.24 8  251 195 
 CHI  HN ES        939  4.17                             117   -0.53 8  251 195 
 CHI  HZ I         939  7.89        11.9 0.62                           251 195 
 ROSC BZ EP   2    938 36.28                             117    0.94 4  255 211 
 ROSC BN ES        939  5.49                             117    0.06 8  255 211 
 ROSC BZ I         939 11.00        24.2 0.75                           255 211 
 HEL  HZ EP   2    938 38.03                             115    0.75 4  273 255 
 HEL  HN ES        939  8.07                             115   -0.80 8  273 255 
 HEL  HZ I         939 15.90         5.4 0.48                           273 255 
 URE  HZ EP   2    938 37.17                             114   -0.77 4  283 291 
 URE  HN ES   4    939  5.35                             114   -4.70 0  283 291 
 URE  HZ I         939 20.83         9.9 0.22                           283 291 
 GUY2CHZ EP        938 41.14                             113    0.39 7  303 234 
 GUY2CHE ES        939 15.72                             113    0.66 7  303 234 
 GUY2CHZ I         939 23.18         8.3 0.34                           303 234 
 PTGC HZ IP     D  938 40.05                             112   -0.97 7  311 159 
 PTGC HN ES   4    939 13.70                             112   -1.83 0  311 159 
 PTGC HZ I         939 15.26         6.6 0.28                           311 159 
 LL6C HZ EP        938 41.67                             111   -0.61 7  322 357 
 LL6C HE ES        939 16.88                             111   -0.91 7  322 357 
 CBOC HZ EP        938 44.62                             110    0.65 7  335 252 
 CBOC HN ES        939 21.26                             110    0.47 7  335 252 
 DBB  SZ ES        939 21.10                             110   -0.48 7  340 274 
 ANIL HN ES        939 26.65                             109    0.53 6  360 224 
 PRA  HZ EP        938 50.49                             107   -0.21 6  395 209 
 PRA  HN ES        939 32.13                             107   -0.65 6  395 209 
 PRA  HZ I         939 39.20         9.8 0.32                           395 209 
 ORTC HZ EP        938 51.32                             107    0.23 6  398 216 
 ORTC HE ES        939 33.39                             107   -0.07 6  398 216 
 ORTC HZ I         939 38.36         5.1 0.10                           398 216 
 SJC  HZ EP        938 51.26                             106   -0.94 6  407 327 
 SJC  HN ES   4    939 32.21                             106   -3.23 0  407 327 
 SJC  HZ I         939 40.14         3.5 0.29                           407 327 
 PAL  HZ EP        938 52.35                             106    0.09 6  408 239 
 PAL  HN ES   4    939 33.53                             106   -2.01 0  408 239 
 PAL  HZ I         939 47.42         2.6 0.36                           408 239 
 CRJC HZ EP   9    938 57.31                             104   -1.71 0  465   3 
 CRJC HE ES        939 45.57                                   -0.30 5  465   3 
 CRJC HZ I         939 52.19         9.2 0.31                           465   3 
                                                                                
