 2016  823 0748 58.2 L   6.813 -73.107150.5  RSN 30 0.6 2.8LRSN                1
 GAP= 54        1.17       2.5     2.7  4.6 -0.1423E+01  0.1663E+01  0.5103E+00E
 Epicentro: LOS SANTOS - SANTANDER                                             3
 ACTION:UPD 16-10-29 15:38 OP:rebc STATUS:               ID:20160823074858 L   I
 OLDACT:REG 16-08-23 15:14 OP:ak   STATUS:               ID:20160823074727     3
 2016-08-23-0748-00M.COL___356                                                 6
 STAT SP IPHASW D HRMM SECON CODA AMPLIT PERI AZIMU VELO AIN AR TRES W  DIS CAZ7
 BAR2 EZ IP     C  749 18.57                             170    0.1310 25.8 199 
 BAR2 EZ ES        749 34.54                             170    0.3110 25.8 199 
 BAR2 EZ I         749 36.80        92.6 0.15                          25.8 199 
 PAM  EZ IP     C  749 21.42                             153    0.7310 73.6  38 
 PAM  EN ES        749 38.67                             153    0.4310 73.6  38 
 PAM  EZ I         749 39.83        81.3 0.18                          73.6  38 
 BRR  HZ IP     C  749 20.46                             152    0.4410 74.3 296 
 BRR  HN ES        749 37.66                             152    0.6110 74.3 296 
 RUS  HZ EP        749 22.54                             144    0.0410  102 179 
 RUS  HN ES        749 41.22                             144   -0.2310  102 179 
 RUS  HZ I         749 42.46        57.0 0.18                           102 179 
 TAM  HZ IP     C  749 26.74                             132    0.84 9  151 106 
 TAM  HN ES        749 47.09                             132   -0.43 9  151 106 
 TAM  HZ I         749 47.63        42.2 0.41                           151 106 
 PTB  HZ EP        749 25.13                             132   -0.82 9  152 259 
 PTB  HN ES        749 46.80                             132   -0.80 9  152 259 
 PTB  HZ I         749 52.55       117.2 0.42                           152 259 
 OCA  HZ IP     C  749 26.66                             131   -0.12 9  159 352 
 OCA  HN ES        749 48.73                             131   -0.36 9  159 352 
 OCA  HZ I         749 58.53       111.9 0.24                           159 352 
 SPBC HZ EP        749 27.41                             129   -0.00 9  167 220 
 SPBC HN ES        749 49.59                             129   -0.62 9  167 220 
 SPBC HZ I         749 56.59       141.9 0.28                           167 220 
 ZAR  HZ EP        749 31.24                             123   -0.05 8  207 291 
 ZAR  HN ES        749 57.20                             123    0.08 8  207 291 
 ZAR  HZ I         750  3.71       151.0 0.28                           207 291 
 NOR  HZ EP        749 34.55                             119   -0.11 8  239 235 
 NOR  HE ES        750  2.31                             119   -0.79 8  239 235 
 NOR  HZ I         750  6.83        66.7 0.24                           239 235 
 CHI  HZ EP        749 36.79                             118    0.36 8  251 196 
 CHI  HN ES        750  5.98                             118   -0.28 8  251 196 
 CHI  HZ I         750 10.09        15.9 0.24                           251 196 
 ROSC BZ EP   9    749 38.20                             117    1.25 0  256 212 
 ROSC BE ES        750  8.78                                    0.35 8  256 212 
 ROSC BZ I         750 15.40        39.6 0.40                           256 212 
 HEL  HZ EP        749 39.46                             115    0.32 7  277 256 
 HEL  HN ES        750 10.38                             115   -0.70 7  277 256 
 HEL  HZ I         750 17.05        49.1 0.42                           277 256 
 URE  HZ EP   9    749 38.50                             114   -1.37 0  287 291 
 URE  HN ES        750 10.63                                   -0.38 7  287 291 
 URE  HZ I         750 24.49        47.2 0.16                           287 291 
 SOCV BZ EP        749 41.10                             113    0.14 7  297  57 
 SOCV BN ES        750 12.80                             113   -1.53 7  297  57 
 GUY2CHN ES   4    750 18.57                             113    1.50 0  306 235 
 VIL  EN ES        750 17.34                             113    1.01 7  306 192 
 VIL  EZ I         750 23.51        28.2 0.50                           306 192 
 GUY2CHZ I         750 28.08        42.8 0.70                           306 235 
 VIL  EZ EP   2    749 42.13                             113    0.04 4  306 192 
 GUY2CHZ EP        749 42.89                             113    0.38 7  306 235 
 PTGC HZ IP     C  749 41.46                             112   -0.78 7  309 159 
 PTGC HN ES   4    750 14.81                             112   -1.79 0  309 159 
 PTGC HZ I         750 23.00        16.3 0.22                           309 159 
 LL6C HZ EP        749 43.18                             111   -0.77 7  324 357 
 LL6C HE ES        750 19.68                             111    0.04 7  324 357 
 LL6C HZ I         750 21.10        13.3 0.50                           324 357 
 ELA  HZ EP   9    749 47.65                             111    1.93 0  333 230 
 ELA  HE ES        750 24.63                                   -0.10 7  333 230 
 ELA  HZ I         750 30.27        27.6 0.42                           333 230 
 CBOC HZ EP        749 46.26                             110    0.44 7  338 252 
 CBOC HE ES        750 22.45                             110   -0.52 7  338 252 
 CBOC HZ I         750 33.13        12.6 0.26                           338 252 
 DBB  EZ EP        749 46.17                             110   -0.17 7  344 274 
 DBB  EZ ES        750 23.93                             110    0.04 7  344 274 
 DBB  EZ I         750 26.55        14.0 0.60                           344 274 
 ARGC HZ EP   4    749 49.58                             109    1.55 0  359 340 
 ARGC HN ES        750 27.58                             109    0.67 6  359 340 
 ANIL HZ EP   2    749 48.83                             109    0.18 3  361 225 
 ANIL HN ES        750 28.80                             109    0.80 6  361 225 
 ANIL HZ I         750 38.60        55.6 0.32                           361 225 
 PRA  HZ EP        749 52.19                             107   -0.08 6  395 210 
 PRA  HN ES        750 34.49                             107    0.03 6  395 210 
 PRA  HZ I         750 40.04        21.4 0.56                           395 210 
 PAL  HZ EP        749 54.08                             106    0.05 6  410 239 
 PAL  HE ES        750 38.92                             106    1.34 6  410 239 
 SJC  HZ EP   4    749 52.27                             106   -1.77 0  410 326 
 SJC  HZ I         750 38.39        10.9 0.46                           410 326 
 PAL  HZ I         750 40.70         9.4 0.28                           410 239 
 SJC  HN ES   4    750 34.17                             106   -3.43 0  410 326 
 CRJC HZ EP   4    749 58.53                             104   -2.09 0  466   3 
 CRJC HN ES   4    750 45.11                             104   -4.20 0  466   3 
 CRJC HZ I         750 51.37         8.4 0.24                           466   3 
 GUA  EZ EP   2    750  1.75                             104    0.16 2  475 174 
 GUA  EN ES   4    750 47.34                             104   -3.70 0  475 174 
 GUA  EZ I         750 56.07         9.6 0.28                           475 174 
 MACC HZ EP   4    750  5.42                             102   -1.85 0  523 189 
 MACC HE ES   4    750 58.75                             102   -2.40 0  523 189 
 MACC HZ I         751 18.11         3.6 0.54                           523 189 
                                                                                
