 2017 1023 0611 26.8 L   6.530 -73.077161.1  RSN  6 0.3 1.2LRSN                1
 GAP=228        0.82       4.6     5.1  6.0  0.7475E+01  0.4672E+01  0.1317E+00E
 Epicentro: SAN GIL - SANTANDER                                                3
 ACTION:UPD 17-11-07 19:35 OP:rebc STATUS:               ID:20171023061126 L   I
 OLDACT:REG 17-10-23 12:41 OP:dhb  STATUS:               ID:20171023060737     3
 2017-10-23-0608-00M.COL___390                                                 6
 STAT SP IPHASW D HRMM SECON CODA AMPLIT PERI AZIMU VELO AIN AR TRES W  DIS CAZ7
 BAR2 EZ EP        611 47.90                             175   -0.2910 13.5 301 
 BAR2 EZ ES        612  4.53                             175   -0.3010 13.5 301 
 BAR2 EZ I         612  6.32         3.0 0.09            172           13.5 301 
 RUS  HZ EP        611 50.29                             155   -0.0710 70.5 181 
 RUS  HN ES        612  8.73                             155    0.0310 70.5 181 
 RUS  HZ I         612  9.75         4.7 0.30            159           70.5 181 
 BRR  HZ EP        611 51.23                             148    0.1710 94.9 312 
 BRR  HN ES        612 10.56                             148    0.6210 94.9 312 
 BRR  HZ I         612 19.01         3.4 0.46            148           94.9 312 
 SPBC HZ EP        611 55.40                             136    0.27 9  147 229 
 SPBC HE ES        612 17.48                             136    0.29 9  147 229 
 SPBC HZ I         612 21.40         2.0 0.14            138            147 229 
 PTB  HZ EP        611 55.45                             134   -0.07 9  153 270 
 PTB  HN ES        612 17.37                             134   -0.52 9  153 270 
 PTB  HZ I         612 18.66         0.9 0.36            136            153 270 
 ZAR  HE ES        612 29.79                             123   -0.20 8  224 299 
 ZAR  HZ I         612 31.75         0.7 0.15            125            224 299 
                                                                                
