 2012 1223 0335 13.2 L   6.802 -73.142149.2  RSN  7 0.3 1.3LRSN                1
 GAP=137        0.63       4.2     3.7  5.6  0.8510E+00  0.3734E+01  0.2939E+01E
 Epicentro: LOS SANTOS - SANTANDER                                             3
 ACTION:UPD 13-01-04 14:29 OP:ep   STATUS:               ID:20121223033513 L   I
 2012-12-23-0330-00M.COL___243                                                 6
 STAT SP IPHASW D HRMM SECON CODA AMPLIT PERI AZIMU VELO AIN AR TRES W  DIS CAZ7
 BAR2 SZ EP   1    335 33.22                             171   -0.07 7 23.7 191 
 BAR2 SZ ES   1    335 48.72                             171   -0.21 7 23.7 191 
 BAR2 SZ I         335 50.95         6.7 0.38                          23.7 191 
 GIR2 SZ EP   1    335 33.57                             168    0.25 7 31.1 349 
 GIR2 SZ ES   1    335 49.01                             168    0.03 7 31.1 349 
 GIR2 SZ I         335 50.44         3.7 0.52                          31.1 349 
 BRR  HN ES   1    335 52.23                             153    0.65 7 71.5 298 
 PAM  SZ EP   1    335 35.81                             152    0.01 7 76.9  39 
 PAM  SN ES   1    335 52.98                             152   -0.41 7 76.9  39 
 PAM  SZ I         335 54.66         4.2 0.36                          76.9  39 
 RUS  HZ EP   1    335 37.55                             144    0.20 7  101 176 
 RUS  HN ES   1    335 56.33                             144    0.18 7  101 176 
 RUS  HZ I         335 57.88         2.6 0.32                           101 176 
 PTB  HZ EP   1    335 40.33                             133   -0.21 7  148 259 
 PTB  HN ES   1    336  1.29                             133   -0.54 7  148 259 
 PTB  HZ I         336  4.65         3.1 0.12                           148 259 
 ZAR  HN ES   1    336 11.48                             123    0.02 6  204 292 
                                                                                
