 2017  723 0032 43.9 L   6.698 -73.223140.1  RSN  7 0.3 1.6LRSN                1
 GAP=197        0.86       4.6     4.2  6.8  0.1066E+02  0.7695E+01  0.5610E+01E
 Epicentro: VILLANUEVA - SANTANDER                                             3
 ACTION:UPD 17-08-30 15:35 OP:rebc STATUS:               ID:20170723003243 L   I
 OLDACT:REG 17-07-23 13:57 OP:lv   STATUS:               ID:20170723002742     3
 2017-07-23-0028-00M.COL___395                                                 6
 STAT SP IPHASW D HRMM SECON CODA AMPLIT PERI AZIMU VELO AIN AR TRES W  DIS CAZ7
 BAR2 EZ EP        033  2.13                             175   -0.5210 12.5 159 
 BAR2 EZ ES        033 16.83                             175   -0.4610 12.5 159 
 BRR  HZ EP        033  4.31                             152   -0.0710 70.5 310 
 BRR  HE ES        033 20.74                             152    0.3710 70.5 310 
 RUS  HZ EP        033  6.62                             146    0.2810 90.3 170 
 RUS  HN ES        033 23.99                             146    0.1210 90.3 170 
 PTB  HZ EP        033  9.22                             133   -0.24 9  138 263 
 PTB  HN ES        033 29.51                             133    0.10 9  138 263 
 YPLC HN ES        033 35.66                             126    0.42 9  171 147 
 YPLC HZ I         033 39.04         4.2 0.06            125            171 147 
 ZAR  HZ EP   4    033 13.41                             121   -2.22 0  201 296 
 ZAR  HN ES        033 40.77                             121    0.37 9  201 296 
 NOR  HZ EP   4    033 19.52                             119    1.69 0  221 236 
 NOR  HN ES        033 44.01                             119   -0.31 8  221 236 
 GUY2CHZ EP   4    033 27.68                             112    1.98 0  288 236 
 GUY2CHN ES   4    034  2.67                             112    4.34 0  288 236 
                                                                                
