 2014  123 0145  5.2 L   6.798 -73.178138.8  RSN 10 0.5 1.9LRSN                1
 GAP= 69        1.20       3.8     4.8  9.3  0.1003E+01  0.1094E+02 -0.7339E+00E
 Epicentro: LOS SANTOS - SANTANDER                                             3
 ACTION:UPD 14-03-13 09:57 OP:ep   STATUS:               ID:20140123014505 L   I
 OLDACT:REG 14-01-23 08:20 OP:nd   STATUS:               ID:20140123014000     3
 2014-01-23-0140-00M.COL___285                                                 6
 STAT SP IPHASW D HRMM SECON CODA AMPLIT PERI AZIMU VELO AIN AR TRES W  DIS CAZ7
 PAM  SZ EP   1    145 27.20                             149    0.38 7 79.9  41 
 PAM  SN ES        145 43.71                             149    0.0210 79.9  41 
 PAM  SZ I         145 45.98        13.8 0.48            145           79.9  41 
 RUS  HZ EP        145 28.58                             142    0.3210  101 174 
 RUS  HN ES        145 46.21                             142   -0.0510  101 174 
 RUS  HZ I         145 48.63         6.4 0.24            141            101 174 
 PTB  HZ EP        145 31.50                             131    0.24 9  144 259 
 PTB  HN ES        145 50.98                             131   -0.62 9  144 259 
 PTB  HZ I         145 54.79         9.2 0.10            136            144 259 
 TAM  HZ EP     C  145 32.73                             128    0.09 9  158 105 
 TAM  HN ES   4    145 51.33                             128   -2.72 0  158 105 
 TAM  HZ I         146 19.85        14.0 0.38            125            158 105 
 ZAR  HZ EP        145 37.10                             121    0.25 9  201 293 
 ZAR  HN ES        146  2.77                             121    1.22 9  201 293 
 ZAR  HZ I         146  8.79         8.2 0.28            125            201 293 
 SML  HZ EP        145 40.92                             116   -0.37 8  242 336 
 SML  HN ES        146  8.36                             116   -1.10 8  242 336 
 SML  HZ I         146 13.71         9.1 0.22            118            242 336 
 CHI  HZ EP   4    145 39.63                             116   -2.75 0  247 194 
 CHI  HN ES        146 10.84                             116   -0.55 8  247 194 
 CHI  HZ I         146 15.44         2.1 0.54            117            247 194 
 GUY2CHZ EP   4    145 49.61                             111    1.48 0  298 234 
 GUY2CHN ES   4    146 22.95                             111    1.32 0  298 234 
 GUY2CHZ I         146 29.73         2.3 0.32                           298 234 
 PRA  HZ EP   2    145 57.97                             105   -0.27 3  390 209 
 PRA  HN ES        146 39.55                             105   -0.07 6  390 209 
 PRA  HZ I         146 46.40         3.5 0.62            106            390 209 
 SJC  HZ EP   4    145 58.98                             104   -1.34 0  408 327 
 SJC  HN ES   4    146 39.97                             104   -3.36 0  408 327 
 SJC  HZ I         146 43.57         2.5 0.54            106            408 327 
                                                                                
