 2017  123 0913  3.6 L   6.812 -73.154132.0  RSN  4 0.1 0.9LRSN                1
 GAP=135        0.45       2.3     2.8  4.2  0.2444E+00  0.3430E+01 -0.7612E+00E
 Epicentro: LOS SANTOS - SANTANDER                                             3
 ACTION:UPD 17-05-22 16:02 OP:jn   STATUS:               ID:20170123091303 L   I
 OLDACT:DUP 17-01-23 18:09 OP:lv   STATUS:               ID:20170123090744d    3
 2017-01-23-0908-00M.COL___331                                                 6
 STAT SP IPHASW D HRMM SECON CODA AMPLIT PERI AZIMU VELO AIN AR TRES W  DIS CAZ7
 BAR2 EZ EP        913 21.55                             169   -0.1010 24.5 187 
 BAR2 EZ ES        913 35.47                             169   -0.2310 24.5 187 
 BAR2 EZ I         913 37.93         2.0 0.26            170           24.5 187 
 PAM  EZ EP        913 24.32                             148   -0.0710 77.0  41 
 PAM  EE ES        913 40.73                             148    0.1510 77.0  41 
 PAM  EZ I         913 43.28         4.1 0.50            150           77.0  41 
 RUS  HZ EP        913 26.14                             140   -0.0310  102 176 
 RUS  HN ES        913 43.96                             140    0.2110  102 176 
 RUS  HZ I         913 45.60         0.8 0.38            143            102 176 
 ZAR  HN ES        913 59.71                             119    0.09 9  203 292 
                                                                                
