 2017  223 0900 29.4 L   6.830 -73.182142.2  RSN  4 0.2 0.9LRSN                1
 GAP=146        0.53       3.6     3.4  6.6 -0.5024E+01  0.9373E+01 -0.5183E+01E
 Epicentro: ZAPATOCA - SANTANDER                                               3
 ACTION:UPD 17-05-24 15:39 OP:jn   STATUS:               ID:20170223090029 L   I
 OLDACT:REG 17-02-23 13:50 OP:edw  STATUS:               ID:20170223085112     3
 2017-02-23-0858-00M.COL___370                                                 6
 STAT SP IPHASW D HRMM SECON CODA AMPLIT PERI AZIMU VELO AIN AR TRES W  DIS CAZ7
 BAR2 EZ EP        9 0 48.32                             169   -0.3710 26.3 180 
 PAM  EZ EP        9 0 51.44                             150    0.1710 77.5  43 
 PAM  EE ES        9 1  8.31                             150    0.0010 77.5  43 
 PAM  EZ I         9 1 10.33         2.1 0.48            152           77.5  43 
 RUS  HN ES        9 1 11.67                             142    0.1110  104 174 
 PTB  HZ EP        9 0 55.91                             132    0.10 9  145 257 
 PTB  HN ES        9 1 16.40                             132    0.01 9  145 257 
 PTB  HZ I         9 1 19.22         0.7 0.30            134            145 257 
                                                                                
