 2016  623 0831 16.6 L   6.798 -73.172143.4  RSN  7 0.3 1.4LRSN                1
 GAP=133        0.77       3.3     3.2  5.1 -0.4198E+00  0.3812E+01  0.1124E+01E
 Epicentro: LOS SANTOS - SANTANDER                                             3
 ACTION:UPD 16-07-21 22:22 OP:rebc STATUS:               ID:20160623083116 L   I
 OLDACT:REG 16-06-23 13:02 OP:ak   STATUS:               ID:20160623082743     3
 2016-06-23-0827-43M.COL___331                                                 6
 STAT SP IPHASW D HRMM SECON CODA AMPLIT PERI AZIMU VELO AIN AR TRES W  DIS CAZ7
 BAR2 EZ EP        831 35.78                             171   -0.1510 22.8 183 
 BAR2 EZ ES        831 50.83                             171   -0.1810 22.8 183 
 BRR  HZ EP        831 37.54                             153    0.1910 68.7 300 
 BRR  HE ES        831 54.12                             153    0.5910 68.7 300 
 BRR  HZ I         831 55.13         3.9 0.18                          68.7 300 
 PAM  EZ EP        831 38.72                             150    0.0410 79.4  41 
 PAM  EN ES        831 55.66                             150   -0.2510 79.4  41 
 PAM  EZ I         831 57.67         7.4 0.58                          79.4  41 
 RUS  HZ EP        831 40.21                             143    0.0910  101 174 
 RUS  HN ES        831 58.58                             143    0.1210  101 174 
 RUS  HZ I         831 59.84         4.1 0.24                           101 174 
 PTB  HZ EP   2    831 42.70                             132   -0.40 5  145 259 
 PTB  HZ IP        831 42.70                             132   -0.40 9  145 259 
 PTB  HN ES        832  3.22                             132   -0.56 9  145 259 
 PTB  HZ I         832  4.96         2.7 0.28                           145 259 
 SPBC HZ EP        831 44.96                             129    0.24 9  161 218 
 SPBC HN ES        832  6.82                             129    0.16 9  161 218 
 SPBC HZ I         832 12.73         3.7 0.14                           161 218 
 ZAR  HZ EP   2    831 49.45                             122    0.84 4  201 293 
 ZAR  HN ES        832 13.59                             122    0.01 9  201 293 
 ZAR  HZ I         832 20.28         2.3 0.24                           201 293 
                                                                                
