 2012 1123 0302 32.8 L   6.786 -73.137144.5  RSN 15 0.4 2.5LRSN                1
 GAP= 72        0.76       2.4     2.8  5.0 -0.4218E+00  0.3898E+01 -0.5852E+00E
 Epicentro: LOS SANTOS - SANTANDER                                             3
 ACTION:UPD 12-12-05 15:35 OP:}ep  STATUS:               ID:20121123030232 L   I
 2012-11-23-0300-00M.COL___233                                                 6
 STAT SP IPHASW D HRMM SECON CODA AMPLIT PERI AZIMU VELO AIN AR TRES W  DIS CAZ7
 BAR2 SZ IP        3 2 52.20                             171   -0.0410 22.0 193 
 BAR2 SZ ES   1    3 3  7.67                             171    0.26 7 22.0 193 
 BAR2 SZ I         3 3  8.48       109.9 0.19                          22.0 193 
 GIR2 SZ IP     C  3 2 52.40                             166    0.0410 33.0 349 
 GIR2 SZ I         3 3 10.54        38.5 0.40                          33.0 349 
 PAM  SZ EP        3 2 55.18                             150    0.2710 78.0  38 
 PAM  SN ES   1    3 3 12.15                             150    0.00 7 78.0  38 
 PAM  SZ I         3 3 13.28        56.2 0.18                          78.0  38 
 RUS  HZ EP     C  3 2 56.09                             144   -0.2110 98.9 177 
 RUS  HE ES   1    3 3 14.35                             144   -0.28 7 98.9 177 
 RUS  HZ I         3 3 15.42        33.9 0.42                          98.9 177 
 PTB  HZ EP   1    3 2 59.30                             132   -0.41 7  148 260 
 PTB  HE ES   1    3 3 19.98                             132   -0.73 7  148 260 
 PTB  HZ I         3 3 23.65        52.5 0.20                           148 260 
 TAM  HZ IP     C  3 3  0.49                             130    0.25 9  154 105 
 TAM  HN ES   1    3 3 21.91                             130    0.26 7  154 105 
 TAM  HZ I         3 3 22.53        33.8 0.20                           154 105 
 OCA  HZ EP        3 3  0.70                             129   -0.46 9  162 353 
 OCA  HN ES   1    3 3 22.79                             129   -0.50 7  162 353 
 OCA  HZ I         3 3 27.54        63.5 0.32                           162 353 
 ZAR  HZ EP   1    3 3  5.25                             122   -0.06 6  206 292 
 ZAR  HN ES   1    3 3 31.30                             122    0.63 6  206 292 
 ZAR  HZ I         3 3 38.98        49.0 0.16                           206 292 
 NOR  HZ EP   1    3 3  8.72                             118    0.29 6  235 235 
 NOR  HZ I         3 3 40.74        24.1 0.18                           235 235 
 SML  HZ EP   1    3 3  8.81                             117   -0.73 6  246 335 
 SML  HN ES   1    3 3 38.62                             117    0.41 6  246 335 
 CHI  HZ EP   1    3 3 10.71                             117    0.43 6  247 195 
 CHI  HE ES   1    3 3 39.47                             117   -0.05 6  247 195 
 CHI  HZ I         3 3 44.90        10.1 0.36                           247 195 
 ROSC BZ EP   4    3 3 11.81                             116    1.06 0  252 211 
 HEL  HZ EP   1    3 3 12.91                             114   -0.09 6  273 256 
 HEL  HE ES   1    3 3 44.95                             114    0.59 6  273 256 
 HEL  HZ I         3 3 50.96        17.0 0.44                           273 256 
 GUY  SZ EP   1    3 3 16.64                             112    0.05 5  303 235 
 GUY  SN ES   1    3 3 51.22                             112    0.46 5  303 235 
 GUY  SZ I         3 3 58.33        33.5 0.38                           303 235 
 COD  HZ EP   1    3 3 20.81                             108   -0.50 5  350 354 
 COD  HN ES   1    3 4  0.33                             108    1.18 5  350 354 
 COD  HZ I         3 4  5.02         5.7 0.62                           350 354 
 MON  HZ EP   4 C  3 3 20.06                             108   -1.88 0  355 308 
 MON  HN ES   4    3 3 58.56                             108   -1.72 0  355 308 
 PRA  HZ EP   1    3 3 25.95                             106   -0.21 4  391 210 
 PRA  HZ I         3 4 13.79        10.6 0.38                           391 210 
                                                                                
