 2014  223 0836 41.5 L   6.627 -73.517110.0  RSN  4 0.4 1.5LRSN                1
 GAP=153        0.84       7.7     6.1  9.2  0.3415E+02  0.8210E+01 -0.1321E+02E
 Epicentro: EL CARMEN DE CHUCURI - SANTANDER                                   3
 ACTION:UPD 14-03-10 08:12 OP:ep   STATUS:               ID:20140223083641 L   I
 OLDACT:REG 14-02-23 08:56 OP:fm   STATUS:               ID:20140223083000     3
 2014-02-23-0830-00M.COL___215                                                 6
 STAT SP IPHASW D HRMM SECON CODA AMPLIT PERI AZIMU VELO AIN AR TRES W  DIS CAZ7
 BAR2 SZ EP   1    836 56.99                             160   -0.32 7 37.1  96 
 BAR2 SZ ES   1    837  9.47                             160   -0.18 7 37.1  96 
 BAR2 SZ I         837 11.42        35.6 0.35            169           37.1  96 
 RUS  HZ EP        837  1.22                             137   -0.1710 94.3 149 
 RUS  HN ES        837 17.35                             137    0.4410 94.3 149 
 RUS  HZ I         837 18.31         3.4 0.18            144           94.3 149 
 PTB  HZ EP   4    836 59.90                             133   -1.71 0  104 265 
 PTB  HN ES   1    837 16.76                             133   -0.54 7  104 265 
 PTB  HZ I         837 21.91         7.6 0.82            134            104 265 
 ZAR  HZ EP        837  8.72                             117   -0.12 9  176 303 
 ZAR  HN ES        837 30.69                             117    0.52 9  176 303 
 ZAR  HZ I         837 37.23         2.9 0.24            120            176 303 
                                                                                
