 2010  623 0358 51.4 L   5.899 -73.658122.2  RSN  6 0.4 1.5LRSN                1
 GAP=267        0.62       8.7    11.3  8.9  0.1154E+02  0.1910E+02 -0.1601E+01E
 Epicentro: PUENTE NACIONAL - SANTANDER                                        3
 ACTION:UP  10-08-24 10:12 OP:vdl  STATUS:               ID:20100623035851 L   I
 2010-06-23-0357-28S.COL___118                                                 6
 STAT SP IPHASW D HRMM SECON CODA AMPLIT PERI AZIMU VELO SNR AR TRES W  DIS CAZ7
 RUS  HZ EP   3    359 10.80                             151     0.5 2   64  91 
 RUS  HE ES   3    359 23.83                             151    -1.2 2   64  91 
 BAR2 SZ EP        359 12.42                             141     0.410   93  34 
 BAR2 SZ ES   2    359 27.74                             141    -0.3 5   93  34 
 BRR  HZ EP        359 14.91                             129    -0.310  134 357 
 BRR  HZ I         359 22.27         5.6 0.37                           134 357 
 BRR  HE ES   2    359 34.09                             129     0.3 5  134 357 
 BRI  SZ EP        359 24.47                             115    -0.2 8  222  25 
 GUE  SZ EP        359 25.69                             114     0.1 8  228  21 
 GUE  SZ ES   3    359 52.14                             114     0.0 2  228  21 
 GRA  SZ EP   2    359 26.33                             113    -0.2 4  239  23 
 GRA  SZ ES   2    359 53.64                             113    -0.3 4  239  23 
                                                                                
