 2011  123 0456 17.6 L   6.770 -73.106145.9  RSN 16 0.5 3.2LRSN                1
 GAP=129        1.12       4.1     6.6  7.7 -0.1382E+02  0.1399E+02 -0.9662E+00E
 Epicentro: LOS SANTOS - SANTANDER                                             3
 ACTION:UP  11-02-08 08:42 OP:pat  STATUS:               ID:20110123045617 L   I
 2011-01-23-0452-33S.COL___138                                                 6
 STAT SP IPHASW D HRMM SECON CODA AMPLIT PERI AZIMU VELO SNR AR TRES W  DIS CAZ7
 BAR2 SZ IP        456 37.37                             171     0.110   22 204 
 BAR2 SZ ES   1    456 52.10                             171    -0.4 7   22 204 
 BAR2 SZ I         456 53.72       445.2 0.30                            22 204 
 BTL  SZ IP        456 37.51                             170     0.210   24 313 
 GIR2 SZ IP        456 37.48                             166     0.010   36 344 
 RUS  HZ IP     D  456 41.23                             145     0.110   97 179 
 RUS  HN ES   1    456 59.41                             145    -0.1 7   97 179 
 RUS  HZ I         457  1.28       178.5 0.28                            97 179 
 GRA  SZ IP        456 43.17                             136     0.110  128  15 
 GRA  SZ I         456 44.72       246.0 0.39                           128  15 
 GRA  SZ ES   1    457  2.97                             136     0.1 7  128  15 
 OCA  SZ IP        456 45.73                             129    -0.6 9  164 352 
 OCA  SZ ES   1    457  9.33                             129     0.6 7  164 352 
 OCA  SZ I         457 13.93       192.1 0.36                           164 352 
 NOR  SZ EP   1    456 53.16                             118    -0.4 6  237 236 
 NOR  SN ES   1    457 20.78                             118    -0.8 6  237 236 
 CHI  HZ EP   1    456 55.04                             117    -0.1 6  247 196 
 CHI  HZ I         456 58.10        56.6 0.41                           247 196 
 CHI  HN ES   1    457 24.87                             117     0.5 6  247 196 
 ROSC BZ IP     D  456 56.72                             117     1.0 8  252 212 
 ROSC BE ES   1    457 24.59                             117    -0.8 6  252 212 
 ROSC BZ I         457 35.55       159.3 0.38                           252 212 
 HEL  HZ EP   1    456 59.02                             114     0.8 6  276 257 
 HEL  HE ES   1    457 29.20                             114    -0.7 6  276 257 
 HEL  HZ I         457 35.81        99.5 0.24                           276 257 
 GUY  SZ EP   2    457  1.44                             112     0.0 4  303 236 
 GUY  SN ES   2    457 36.10                             112     0.5 4  303 236 
 GUY  SZ I         457 45.72       117.2 0.56                           303 236 
 RREF HZ EP   1    457  4.46                             111     0.6 5  323 230 
 RREF HN ES   1    457 40.04                             111     0.0 5  323 230 
 RREF HZ I         457 45.82        78.3 0.27                           323 230 
 DBB  SZ EP   1    457  5.45                             109    -0.2 5  344 275 
 TOL  SZ EP   1    457  6.41                             109     0.4 5  344 226 
 SDV  BZ IP     C  457  6.59                             108    -0.9 6  359  49 
 SDV  BZ I         457 46.17        27.1 0.25                           359  49 
 SJA  SZ EP   1    457 10.78                             106    -1.1 4  398 194 
 SJA  SZ I         458  1.47        98.8 0.37                           398 194 
                                                                                
