 2012  223 0316 41.2 L   6.731 -73.261143.4  RSN  4 0.2 1.0LRSN                1
 GAP=201        0.42       5.9     6.0  7.4  0.1697E+02 -0.4643E+01 -0.1812E+02E
 ACTION:UP  12-03-07 16:33 OP:epov STATUS:               ID:20120223031641 L   I
 2012-02-23-0310-00M.COL___191                                                 6
 STAT SP IPHASW D HRMM SECON CODA AMPLIT PERI AZIMU VELO AIN AR TRES W  DIS CAZ7
 BAR2 SZ EP   1    317  0.14                             173   -0.32 7 17.6 151 
 BAR2 SZ I         317  0.47         2.1 0.10                          17.6 151 
 BAR2 SZ ES   2    317 15.56                             173    0.09 5 17.6 151 
 BRR  HZ EP   1    317  1.94                             154    0.17 7 64.9 310 
 BRR  HZ I         317  2.21         4.2 0.16                          64.9 310 
 RUS  HZ EP   1    317  4.44                             145    0.12 7 94.8 168 
 RUS  HE ES   1    317 22.36                             145    0.02 7 94.8 168 
 RUS  HZ I         317 23.25         1.0 0.35                          94.8 168 
 PTB  HN ES   2    317 26.61                             134   -0.07 5  134 261 
                                                                                
