 2012  123 0729 42.8 L   6.772 -73.173141.6  RSN 13 0.4 2.3LRSN                1
 GAP=134        0.84       3.0     4.0  5.6 -0.2054E+01  0.6319E+01  0.2267E+01E
 Epicentro: LOS SANTOS - SANTANDER                                             3
 ACTION:UP  12-02-03 08:19 OP:REBC STATUS:               ID:20120123072942 L   I
 2012-01-23-0727-36S.COL___155                                                 6
 STAT SP IPHASW D HRMM SECON CODA AMPLIT PERI AZIMU VELO SNR AR TRES W  DIS CAZ7
 BAR2 SZ EP        730  1.93                             172     0.110   20 183 
 BAR2 SZ I         730  2.54        65.9 0.13                            20 183 
 BAR2 SZ ES   1    730 16.82                             172     0.1 7   20 183 
 BRR  HZ EP   1    730  3.67                             152     0.2 7   70 302 
 BRR  HN ES   1    730 20.44                             152     0.9 7   70 302 
 BRR  HZ I         730 23.81        79.3 0.17                            70 302 
 PAM  SZ EP   1    730  4.68                             149    -0.2 7   82  40 
 PAM  SZ I         730  5.10        63.1 0.16                            82  40 
 PAM  SN ES   1    730 21.67                             149    -0.4 7   82  40 
 RUS  HZ EP   1    730  5.87                             144    -0.1 7   98 174 
 RUS  HN ES   1    730 23.64                             144    -0.3 7   98 174 
 RUS  HZ I         730 25.75        22.0 0.24                            98 174 
 PTB  HZ EP   1    730  8.47                             132    -0.6 7  144 260 
 PTB  HN ES   1    730 29.06                             132    -0.6 7  144 260 
 PTB  HZ I         730 34.62         0.1 0.12                           144 260 
 OCA  SZ EP        730 11.29                             128     0.2 9  163 354 
 OCA  SZ ES   1    730 32.82                             128    -0.3 7  163 354 
 OCA  SZ I         730 37.69        31.7 0.16                           163 354 
 ZAR  HZ EP   1    730 14.61                             122    -0.2 6  202 293 
 ZAR  HN ES   1    730 39.92                             122     0.1 6  202 293 
 ZAR  HZ I         730 45.87        33.0 0.22                           202 293 
 NOR  SZ EP   1    730 17.98                             118     0.2 6  230 235 
 NOR  SN ES   1    730 45.17                             118     0.0 6  230 235 
 CHI  HZ EP   1    730 20.11                             117     0.3 6  245 195 
 CHI  HN ES   1    730 49.48                             117     0.7 6  245 195 
 CHI  HZ I         730 53.29        20.5 0.43                           245 195 
 ROSC BN ES   1    730 49.17                             116    -0.3 6  249 211 
 ROSC BZ I         730 56.12        31.0 0.57                           249 211 
 HEL  HZ EP   1    730 22.49                             114     0.1 6  268 256 
 HEL  HN ES   1    730 52.88                             114    -0.4 6  268 256 
 HEL  HZ I         731  1.08        16.8 0.30                           268 256 
 RREF HZ EP   1    730 28.66                             110     0.4 5  317 229 
 RREF HZ I         731 10.75        18.9 0.24                           317 229 
 PRA  HZ EP   1    730 35.48                             106    -0.2 4  388 209 
 PRA  HN ES   1    731 16.86                             106    -0.1 4  388 209 
 PRA  HZ I         731 23.44        34.2 0.16                           388 209 
                                                                                
