 2010  523 0720 44.9 L   6.779 -73.093135.1  RSN  6 0.3 1.8LRSN                1
 GAP=188        0.56       5.1     7.5  6.5 -0.2339E+02  0.1336E+02 -0.1199E+02E
 Epicentro: LOS SANTOS - SANTANDER                                             3
 ACTION:UP  10-08-24 10:06 OP:vdl  STATUS:               ID:20100523072044 L   I
 2010-05-23-0718-56S.COL___111                                                 6
 STAT SP IPHASW D HRMM SECON CODA AMPLIT PERI AZIMU VELO SNR AR TRES W  DIS CAZ7
 BAR2 SZ EP        721  3.08                             170    -0.110   23 206 
 BAR2 SZ ES   1    721 17.61                             170     0.1 7   23 206 
 BRI  SZ EP   1    721  7.81                             139     0.0 7  109  18 
 BRI  SZ ES   2    721 25.28                             139    -0.4 5  109  18 
 GUE  SZ EP   1    721  9.20                             137     0.5 7  118   9 
 GRA  SZ EP        721  9.12                             134    -0.110  126  15 
 GRA  SZ ES   2    721 28.78                             134     0.5 5  126  15 
 OCA  SZ ES   2    721 33.93                             126    -0.4 5  163 351 
 OCA  SZ I         721 40.96         8.3 0.30                           163 351 
 HEL  HZ EP   2    721 24.95                             112    -0.2 4  277 257 
 HEL  HN ES   2    721 56.84                             112     0.3 4  277 257 
 HEL  HZ I         722  2.45         3.2 0.34                           277 257 
                                                                                
