 2010  923 0657  6.1 L   6.741 -73.148153.4  RSN  7 0.5 1.5LRSN                1
 GAP=164        1.27      10.9    21.0 15.2  0.1125E+03 -0.1549E+03 -0.9797E+02E
 Epicentro: JORDAN - SANTANDER                                                 3
 ACTION:UP  11-02-18 11:04 OP:tino STATUS:               ID:20100923065706 L   I
 2010-09-23-0654-15S.COL___122                                                 6
 STAT SP IPHASW D HRMM SECON CODA AMPLIT PERI AZIMU VELO SNR AR TRES W  DIS CAZ7
 BAR2 SZ EP   1    657 25.83                             174    -0.7 7   17 193 
 BAR2 SZ ES   1    657 42.18                             174    -0.3 7   17 193 
 BAR2 SZ I         657 44.21         8.0 0.32                            17 193 
 BTL  SZ EP        657 27.40                             171     0.710   24 326 
 GIR2 SZ EP   2    657 26.33                             165    -0.5 5   38 352 
 BRR  HZ EP        657 28.04                             153    -0.210   74 303 
 BRR  HE ES   1    657 45.78                             153     0.2 7   74 303 
 BRR  HZ I         657 50.13         5.9 0.19                            74 303 
 RUS  HZ EP   1    657 30.55                             147     0.4 7   94 176 
 RUS  HN ES   1    657 48.79                             147    -0.2 7   94 176 
 RUS  HZ I         657 49.65         2.9 0.22                            94 176 
 GUE  SZ EP        657 32.41                             139     0.410  123  12 
 GUE  SZ I         657 33.14         2.3 0.08                           123  12 
 OCA  SZ EP   1    657 34.88                             130    -0.7 7  167 354 
 OCA  SZ I         658  1.11         7.1 0.23                           167 354 
                                                                                
