 2010  323 0958 49.6 L   6.796 -73.032150.1  RSN 10 0.3 2.5LRSN                1
 GAP=194        0.54       2.9     5.3  5.4 -0.2506E+01  0.7768E+01  0.2803E+01E
 Epicentro: CEPITA - SANTANDER                                                 3
 ACTION:UP  10-08-24 09:55 OP:vdl  STATUS:               ID:20100323095849 L   I
 2010-03-23-0955-28S.COL___098                                                 6
 STAT SP IPHASW D HRMM SECON CODA AMPLIT PERI AZIMU VELO SNR AR TRES W  DIS CAZ7
 BAR2 SZ IP        959  9.89                             169     0.010   28 217 
 BAR2 SZ ES   2    959 25.66                             169     0.0 5   28 217 
 BRR  HZ IP        959 11.87                             150    -0.110   83 295 
 BRR  HZ I         959 12.15       152.4 0.14                            83 295 
 BRR  HE ES   2    959 29.38                             150     0.1 5   83 295 
 RUS  HZ EP   1    959 13.76                             145     0.0 7  100 183 
 RUS  HN ES   2    959 32.65                             145     0.0 5  100 183 
 RUS  HZ I         959 33.79        31.5 0.40                           100 183 
 OCA  SZ EP   1    959 18.39                             130    -0.1 7  163 349 
 OCA  SZ ES   2    959 41.32                             130     0.3 5  163 349 
 CHI  HZ EP   1    959 27.89                             118     0.0 6  252 198 
 CHI  HN ES   2    959 58.17                             118     0.4 4  252 198 
 CHI  HZ I        10 0  7.04         9.6 0.37                           252 198 
 ROSC BN ES   2    959 58.36                             117    -0.8 4  259 213 
 ROSC BZ I        10 0  7.05        15.2 0.49                           259 213 
 HEL  HZ EP   1    959 31.73                             114     0.3 6  284 257 
 HEL  HN ES   2   10 0  3.24                             114    -0.8 4  284 257 
 HEL  HZ I        10 0  8.25        14.0 0.39                           284 257 
 RREF BZ EP   1    959 36.64                             111    -0.4 5  331 231 
 RREF BN ES   2   10 0 14.60                             111     0.6 3  331 231 
 RREF BZ I        10 0 21.10        21.5 0.50                           331 231 
 TOL  SZ EP   1    959 39.68                             109     0.6 5  352 226 
 TOL  SZ ES   2   10 0 18.32                             109     0.7 3  352 226 
 PRA  HZ EP   1    959 43.66                             107    -0.3 4  398 211 
 PRA  HN ES   2   10 0 26.33                             107    -0.1 3  398 211 
 PRA  HZ I        10 0 29.61         7.1 0.38                           398 211 
                                                                                
