 2012 1123 0002 41.1 L   5.931 -73.720114.5  RSN  5 0.3 1.3LRSN                1
 GAP=129        0.61       2.8     3.8  7.4 -0.1917E+00  0.7047E+01  0.2943E+01E
 Epicentro: GUAVATA - SANTANDER                                                3
 ACTION:UPD 12-12-05 15:35 OP:}ep  STATUS:               ID:20121123000241 L   I
 2012-11-23-0000-00M.COL___234                                                 6
 STAT SP IPHASW D HRMM SECON CODA AMPLIT PERI AZIMU VELO AIN AR TRES W  DIS CAZ7
 RUS  HZ EP   1    0 2 59.27                             147   -0.39 7 70.6  93 
 RUS  HN ES   1    0 3 13.92                             147   -0.19 7 70.6  93 
 BAR2 SZ EP   1    0 3  0.86                             138   -0.22 7 94.3  39 
 BAR2 SZ ES   1    0 3 16.63                             138   -0.01 7 94.3  39 
 PTB  HZ EP   1    0 3  1.32                             134   -0.42 7  106 310 
 PTB  HN ES   1    0 3 17.91                             134    0.08 7  106 310 
 PTB  HZ I         0 3 22.62         2.6 0.10                           106 310 
 GIR2 SZ EP   1    0 3  5.44                             126    0.34 7  140  25 
 GIR2 SZ ES   1    0 3 24.26                             126    0.46 7  140  25 
 GIR2 SZ I         0 3 24.75         5.0 0.40                           140  25 
 CHI  HZ EP   1    0 3  6.03                             125    0.15 7  144 181 
 CHI  HE ES   1    0 3 25.53                             125    0.34 7  144 181 
 CHI  HZ I         0 3 29.92         2.2 0.56                           144 181 
                                                                                
