 2010 1023 0850 58.9 L   5.740 -74.036100.8  RSN  4 0.1 1.2LRSN                1
 GAP=177        0.37       7.1     2.6  9.0 -0.8660E+01 -0.5406E+00 -0.3797E+02E
 Epicentro: FLORIAN - SANTANDER                                                3
 ACTION:UP  11-02-18 11:11 OP:tino STATUS:               ID:20101023085058 L   I
 2010-10-23-0847-12S.COL___127                                                 6
 STAT SP IPHASW D HRMM SECON CODA AMPLIT PERI AZIMU VELO SNR AR TRES W  DIS CAZ7
 NOR  SZ EP   1    851 17.39                             133    -0.1 7   95 258 
 NOR  SN ES   1    851 31.97                             133     0.0 7   95 258 
 RUS  HZ EP   1    851 19.18                             130     0.0 7  107  81 
 RUS  HN ES   2    851 34.85                             130    -0.1 5  107  81 
 RUS  HZ I         851 37.11         1.3 0.89                           107  81 
 BAR2 SZ EP   2    851 21.76                             122     0.3 5  133  45 
 BAR2 SZ I         851 23.59         3.5 0.05                           133  45 
 BRR  HZ EP   1    851 23.37                             118    -0.1 7  155  13 
 BRR  HZ I         851 35.43         5.5 0.08                           155  13 
                                                                                
