 2017  523 0448 16.0 L   6.592 -73.442120.9  RSN  6 0.5 1.8LRSN                1
 GAP=166        1.22       5.2     5.4  9.0  0.1306E+02 -0.2456E+01 -0.7438E+00E
 Epicentro: EL CARMEN - SANTANDER                                              3
 ACTION:UPD 17-06-16 13:38 OP:jn   STATUS:               ID:20170523044816 L   I
 OLDACT:UP  17-05-23 16:36 OP:ar   STATUS:               ID:20170523043746d    3
 OLDACT:DUP 17-05-23 16:22 OP:ar   STATUS:               ID:20170523043746d    3
 OLDACT:UP  17-05-23 16:18 OP:ar   STATUS:               ID:20170523043743     3
 OLDACT:REG 17-05-23 12:34 OP:ar   STATUS:               ID:20170523043743     3
 2017-05-23-0438-00M.COL___347                                                 6
 STAT SP IPHASW D HRMM SECON CODA AMPLIT PERI AZIMU VELO AIN AR TRES W  DIS CAZ7
 BRR  HN IP     C  448 34.02                             150   -0.0910 64.3 332 
 BRR  HZ IP     D  448 34.05                             150   -0.0610 64.3 332 
 BRR  HN ES        448 48.71                             150    0.4910 64.3 332 
 BRR  HZ I         448 50.41        13.8 0.32            151           64.3 332 
 RUS  HZ EP        448 36.24                             142   -0.1110 86.9 153 
 RUS  HN ES        448 51.76                             142   -0.4510 86.9 153 
 RUS  HZ I         448 52.94        15.7 0.20            145           86.9 153 
 PTB  HZ IP     D  448 37.08                             134   -0.6910  112 267 
 PTB  HZ EP        448 37.13                             134   -0.6410  112 267 
 PTB  HN ES        448 54.35                             134   -0.3710  112 267 
 PTB  HZ I         449  0.76         3.6 0.24            133            112 267 
 SPBC HZ EP        448 39.69                             131    0.6610  125 214 
 SPBC HN ES        448 57.54                             131    0.5810  125 214 
 SPBC HZ I         449  2.66        13.9 0.24            131            125 214 
 YPLC HZ EP        448 44.07                             120   -0.08 9  177 138 
 YPLC HE ES        449  6.32                             120    0.23 9  177 138 
 YPLC HZ I         449  7.62         7.4 0.32            124            177 138 
 ZAR  HZ EP        448 45.75                             119    0.78 9  185 303 
 ZAR  HN ES   4    449  9.28                             119    1.73 0  185 303 
 ZAR  HZ I         449 13.54         9.8 0.44            121            185 303 
                                                                                
