 2014  323 0207 55.3 L   6.729 -73.204151.6  RSN  4 0.3 1.4LRSN                1
 GAP=236        0.66       7.7     5.2  7.3  0.2713E+02 -0.3271E+00 -0.1012E+02E
 Epicentro: VILLANUEVA - SANTANDER                                             3
 ACTION:UPD 14-04-09 23:19 OP:nd   STATUS:               ID:20140323020755 L   I
 OLDACT:REG 14-03-23 08:30 OP:mh   STATUS:               ID:20140323015818     3
 2014-03-23-0158-18M.COL___234                                                 6
 STAT SP IPHASW D HRMM SECON CODA AMPLIT PERI AZIMU VELO AIN AR TRES W  DIS CAZ7
 BAR2 SZ EP        2 8 15.60                             174    0.1210 15.3 171 
 BAR2 SZ ES   1    2 8 31.19                             174   -0.04 7 15.3 171 
 BAR2 SZ I         2 8 32.50         7.7 0.07            170           15.3 171 
 RUS  HZ EP        2 8 18.71                             147   -0.4110 93.4 172 
 RUS  HN ES   1    2 8 38.01                             147    0.30 7 93.4 172 
 RUS  HZ I         2 8 39.52         2.8 0.30            146           93.4 172 
 PTB  HZ EP        2 8 22.43                             135    0.38 9  140 261 
 PTB  HN ES        2 8 42.76                             135   -0.17 9  140 261 
 PTB  HZ I         2 8 46.36         3.1 0.06            135            140 261 
 ZAR  HN ES        2 8 53.14                             124   -0.07 9  201 295 
                                                                                
