 2016 1123 0206 32.9 L   5.866 -74.062107.1  RSN  5 0.5 1.3LRSN                1
 GAP=234        0.75       6.4     8.7  9.1 -0.3121E+02 -0.2918E+02  0.2673E+02E
 Epicentro: LA BELLEZA - SANTANDER                                             3
 ACTION:UPD 17-10-26 21:10 OP:lp   STATUS:               ID:20161123020632 L   I
 OLDACT:UP  16-11-23 14:28 OP:dani STATUS:               ID:20161123015744     3
 OLDACT:UP  16-11-23 14:28 OP:dani STATUS:               ID:20161123015744     3
 OLDACT:UP  16-11-23 14:27 OP:dani STATUS:               ID:20161123015744     3
 OLDACT:UP  16-11-23 14:27 OP:dani STATUS:               ID:20161123015744     3
 OLDACT:UP  16-11-23 14:27 OP:dani STATUS:               ID:20161123015744     3
 OLDACT:UP  16-11-23 14:26 OP:dani STATUS:               ID:20161123015744     3
 OLDACT:UP  16-11-23 14:26 OP:dani STATUS:               ID:20161123015744     3
 OLDACT:UP  16-11-23 14:24 OP:dani STATUS:               ID:20161123015744     3
 OLDACT:UP  16-11-23 14:24 OP:dani STATUS:               ID:20161123015744     3
 OLDACT:REG 16-11-23 12:32 OP:dani STATUS:               ID:20161123015744     3
 2016-11-23-0158-00M.COL___355                                                 6
 STAT SP IPHASW D HRMM SECON CODA AMPLIT PERI AZIMU VELO AIN AR TRES W  DIS CAZ7
 PTB  HZ EP        2 6 51.29                             137    0.0810 86.3 330 
 PTB  HN ES        2 7  5.02                             137   -0.4810 86.3 330 
 PTB  HZ I         2 7  6.83         2.2 0.11            132           86.3 330 
 NOR  HZ EP        2 6 52.09                             134    0.0610 95.4 250 
 NOR  HE ES   3    2 7  8.59                             134    1.63 2 95.4 250 
 NOR  HZ I         2 7  9.87         3.6 0.11            131           95.4 250 
 BRR  HZ EP        2 6 56.49                             121    0.02 9  143  16 
 BRR  HN ES   3    2 7 16.30                             121    1.44 2  143  16 
 BRR  HZ I         2 7 17.17        13.7 0.37            121            143  16 
 ZAR  HZ EP        2 7  2.74                             112    0.02 9  200 334 
 ZAR  HN ES   2    2 7 26.87                             112    0.88 4  200 334 
 ZAR  HZ I         2 7 32.03         1.8 0.17            111            200 334 
 CBOC HZ EP        2 7  4.67                             110   -0.04 8  216 270 
 CBOC HN ES   4    2 7 35.21                             110    5.68 0  216 270 
                                                                                
