 2017 1023 0820 50.9 L   6.829 -73.131149.3  RSN 24 0.6 2.7LRSN                1
 GAP= 74        1.17       3.3     2.9  5.1  0.6005E+00  0.3973E+01  0.4161E+01E
 Epicentro: LOS SANTOS - SANTANDER                                             3
 ACTION:UPD 17-11-07 19:35 OP:rebc STATUS:               ID:20171023082050 L   I
 OLDACT:UP  17-10-23 19:18 OP:dhb  STATUS:               ID:20171023081110     3
 OLDACT:UP  17-10-23 19:17 OP:dhb  STATUS:               ID:20171023081110     3
 OLDACT:UP  17-10-23 19:16 OP:dhb  STATUS:               ID:20171023081110     3
 OLDACT:REG 17-10-23 12:55 OP:dhb  STATUS:               ID:20171023081110     3
 2017-10-23-0818-00M.COL___375                                                 6
 STAT SP IPHASW D HRMM SECON CODA AMPLIT PERI AZIMU VELO AIN AR TRES W  DIS CAZ7
 BAR2 EZ IP     C  821 10.88                             170   -0.1010 26.8 192 
 BAR2 EZ ES        821 26.37                             170   -0.3210 26.8 192 
 BAR2 EZ I         821 28.57       104.0 0.30            169           26.8 192 
 BRR  HZ IP     C  821 12.73                             153    0.3410 71.2 296 
 BRR  HN ES        821 29.93                             153    0.7410 71.2 296 
 BRR  HZ I         821 33.25        79.5 0.42            152           71.2 296 
 PAM  EZ EP        821 13.71                             152    0.4610 73.9  40 
 PAM  EE ES        821 30.94                             152    0.2310 73.9  40 
 PAM  EZ I         821 33.25       156.0 0.64            152           73.9  40 
 RUS  HZ EP        821 14.73                             144   -0.4410  104 177 
 RUS  HE ES        821 33.60                             144   -0.5510  104 177 
 RUS  HZ I         821 34.26        32.3 0.50            143            104 177 
 PTB  HZ EP        821 17.40                             132   -0.92 9  150 258 
 PTB  HN ES        821 39.44                             132   -0.30 9  150 258 
 PTB  HZ I         821 46.08        80.1 0.42            132            150 258 
 TAM  HZ IP     C  821 19.03                             131    0.29 9  154 106 
 TAM  HZ I         821 39.91        21.2 0.18            131            154 106 
 TAM  HN ES        821 40.94                             131    0.44 9  154 106 
 SPBC HZ IP     C  821 19.70                             129   -0.26 9  167 219 
 SPBC HE ES        821 42.20                             129   -0.46 9  167 219 
 SPBC HZ I         821 50.06        75.4 0.28            129            167 219 
 YPLC HZ IP     C  821 21.12                             127    0.02 9  179 152 
 YPLC HE ES        821 44.43                             127   -0.27 9  179 152 
 YPLC HZ I         821 47.80        50.6 0.26            127            179 152 
 ZAR  HZ EP        821 23.52                             123   -0.05 9  204 291 
 ZAR  HE ES        821 48.86                             123   -0.23 9  204 291 
 ZAR  HZ I         821 54.92       106.2 0.36            122            204 291 
 TABC EZ EP        821 27.84                             119    0.65 8  233 211 
 TABC EZ ES   2    821 57.22                             119    1.68 4  233 211 
 TABC EZ I         822  1.44        68.7 0.50            119            233 211 
 NOR  HZ EP        821 26.86                             119   -0.27 8  238 234 
 NOR  HN ES        821 55.14                             119   -0.29 8  238 234 
 NOR  HZ I         822  3.28        34.2 0.56            118            238 234 
 CHI  HZ EP        821 29.21                             117    0.08 8  252 195 
 CHI  HN EP        821 29.62                             118            252 195 
 CHI  HE ES        821 58.98                             117   -0.00 8  252 195 
 CHI  HN I         822  0.89        66.3 0.28            117            252 195 
 CHI  HZ I         822  8.17        24.8 0.34                           252 195 
 ROSC BZ EP   3    821 30.56                             117    1.00 2  256 211 
 ROSC BE ES        821 59.36                             117   -0.38 8  256 211 
 ROSC BZ I         822  8.57        80.0 0.40            117            256 211 
 URE  HZ EP   9    821 30.74                             114   -1.40 0  284 291 
 URE  HE ES        822  2.62                             115   -0.32 7  284 291 
 URE  HZ I         822 14.79        55.9 0.16            114            284 291 
 GUY2CHZ EP        821 35.83                             113    0.85 7  304 234 
 GUY2CHE ES        822 11.23                             113    1.82 7  304 234 
 GUY2CHZ I         822 19.63        29.1 0.52                           304 234 
 PTGC HZ IP   2 C  821 33.85                             112   -1.28 3  311 159 
 PTGC HE ES   3    822  7.00                             112   -2.68 2  311 159 
 PTGC HZ I         822  9.78        37.0 0.40            112            311 159 
 DBB  EZ EP   2    821 39.60                             110    0.96 3  341 274 
 DBB  EE ES        822 15.34                             110   -0.57 7  341 274 
 DBB  EZ I         822 16.79        12.7 0.14            110            341 274 
 PRA  HZ EP        821 44.98                             107    0.07 6  396 210 
 PRA  HE ES        822 26.55                             107   -0.53 6  396 210 
 PRA  HZ I         822 30.41        33.0 0.62            107            396 210 
 APAC HZ EP        821 44.64                             107   -0.59 6  399 287 
 APAC HN ES        822 27.17                             107   -0.48 6  399 287 
 APAC HZ I         822 29.32        11.5 0.34            106            399 287 
 ORTC HZ EP        821 45.72                             107    0.41 6  399 216 
 ORTC HE ES        822 28.13                             107    0.35 6  399 216 
 ORTC HZ I         822 35.34        15.1 0.56            106            399 216 
 SJC  HZ EP   2    821 44.69                             106   -1.64 3  407 327 
 SJC  HN ES   4    822 26.54                             106   -3.06 0  407 327 
 SJC  HZ I         822 30.60        16.9 0.34            106            407 327 
 PAL  HZ EP        821 47.33                             106    0.84 6  409 239 
 PAL  HE ES        822 30.77                             106    0.88 6  409 239 
 PAL  HZ I         822 33.20         6.6 0.28            106            409 239 
 GUA  EZ EP        821 53.63                             103   -0.82 5  477 173 
 GUA  EE ES   4    822 40.53                             103   -3.53 0  477 173 
 GUA  EZ I         822 46.57        10.8 0.44            103            477 173 
 JAMC HZ EP   4    822  7.93                             101    3.27 0  560 225 
 JAMC HE ES        823  1.47                             101   -0.76 3  560 225 
 JAMC HZ I         823 12.44         1.9 0.62            101            560 225 
                                                                                
