 2016  823 0419 51.9 L   6.774 -73.128148.0  RSN  8 0.6 1.5LRSN                1
 GAP=230        1.26       6.7     7.7  9.2  0.3873E+01  0.1416E+02  0.2371E+02E
 Epicentro: LOS SANTOS - SANTANDER                                             3
 ACTION:UPD 16-10-29 15:38 OP:rebc STATUS:               ID:20160823041951 L   I
 OLDACT:REG 16-08-23 14:41 OP:ak   STATUS:               ID:20160823041728     3
 2016-08-23-0418-00M.COL___371                                                 6
 STAT SP IPHASW D HRMM SECON CODA AMPLIT PERI AZIMU VELO AIN AR TRES W  DIS CAZ7
 BAR2 EZ EP        420 11.69                             172   -0.0510 20.9 197 
 BAR2 EZ ES        420 26.90                             172   -0.3310 20.9 197 
 BAR2 EZ I         420 29.77         8.0 0.34                          20.9 197 
 BRR  HZ IP     C  420 13.68                             152    0.2310 74.3 300 
 BRR  HE ES        420 31.13                             152    0.8510 74.3 300 
 BRR  HZ I         420 33.72         3.0 0.32                          74.3 300 
 PTB  HZ EP        420 18.20                             132   -0.96 9  149 260 
 PTB  HN ES        420 39.44                             132   -0.99 9  149 260 
 SPBC HZ EP        420 20.85                             130    0.39 9  162 220 
 SPBC HN ES        420 42.78                             130    0.03 9  162 220 
 SPBC HZ I         420 49.33         4.9 0.24                           162 220 
 ZAR  HN ES        420 50.57                             122    0.14 8  207 293 
 GUY2CHZ EP   2    420 35.80                             113    0.21 4  301 235 
 GUY2CHE ES        421 10.38                             113    0.70 7  301 235 
 GUY2CHZ I         421 16.17         1.3 0.25                           301 235 
 PRA  HZ EP        420 45.27                             107   -0.03 6  390 210 
 PRA  HE ES        421 27.42                             107    0.46 6  390 210 
 PRA  HZ I         421 32.15         0.9 0.17                           390 210 
 SJC  HZ EP   9    420 45.03                             106   -2.90 0  413 327 
 SJC  HE ES        421 28.41                                   -0.34 6  413 327 
                                                                                
