 2010  223 0127 26.6 L   6.840 -73.109147.9  RSN 10 0.5 2.6LRSN                1
 GAP=187        1.12       4.4     9.5  6.9  0.1307E+01  0.2443E+02  0.1954E-01E
 Epicentro: LOS SANTOS - SANTANDER                                             3
 ACTION:UP  10-08-24 09:50 OP:vdl  STATUS:               ID:20100223012726 L   I
 2010-02-23-0125-51S.COL___094                                                 6
 STAT SP IPHASW D HRMM SECON CODA AMPLIT PERI AZIMU VELO SNR AR TRES W  DIS CAZ7
 GIR2 SZ IP        127 46.63                             169     0.210   28 341 
 GIR2 SZ ES        128  1.68                             169    -0.210   28 341 
 BAR2 SZ EP        127 46.56                             168     0.010   29 197 
 BAR2 SZ ES        128  2.19                             168     0.010   29 197 
 BRR  HZ IP        127 48.41                             152     0.410   73 294 
 BRR  HZ I         127 48.86        77.6 0.13                            73 294 
 BRR  HE ES   1    128  5.34                             152     0.5 7   73 294 
 RUS  BZ IP        127 50.69                             143    -0.110  105 178 
 RUS  BN ES        128  9.24                             143    -0.510  105 178 
 RUS  BZ I         128 10.73        41.8 0.27                           105 178 
 OCA  SZ EP        127 55.18                             131     0.5 9  156 351 
 OCA  SZ ES   1    128 16.26                             131    -0.4 7  156 351 
 OCA  SZ I         128 18.54        53.3 0.21                           156 351 
 RREF BZ EP   1    128 14.48                             111     1.0 5  328 229 
 RREF BN ES   2    128 50.54                             111     0.5 3  328 229 
 RREF BZ I         128 54.15        14.7 0.27                           328 229 
 TOL  SZ EP   2    128 16.15                             109     0.6 3  350 225 
 TOL  SZ ES   2    128 53.56                             109    -0.3 3  350 225 
 MON  HZ IP        128 14.11                             109    -1.6 6  353 307 
 MON  HN ES   2    128 53.21                             109    -0.8 3  353 307 
 MON  HZ I         129 10.50         7.8 0.60                           353 307 
 ANIL BN ES   2    128 56.44                             108    -0.2 3  363 224 
 ANIL BZ I         129  3.22        27.9 0.28                           363 224 
 PRA  HZ EP   2    128 21.32                             106     0.5 3  398 210 
 PRA  HN ES   1    129  3.34                             106     0.2 4  398 210 
 PRA  HZ I         129 10.34        10.1 0.27                           398 210 
                                                                                
