 2013  123 0930 40.6 L   5.911 -73.692116.4  RSN  5 0.3 1.4LRSN                1
 GAP=128        0.72       2.5     3.7  6.7  0.1448E+01  0.8417E+01  0.3213E+01E
 Epicentro: PUENTE NACIONAL - SANTANDER                                        3
 ACTION:UPD 13-02-15 09:16 OP:ep   STATUS:               ID:20130123093040 L   I
 2013-01-23-0928-41M.COL___183                                                 6
 STAT SP IPHASW D HRMM SECON CODA AMPLIT PERI AZIMU VELO AIN AR TRES W  DIS CAZ7
 RUS  HZ EP        930 59.16                             148    0.0610 67.5  92 
 RUS  HN ES        931 13.34                             148   -0.2010 67.5  92 
 BAR2 SZ EP        931  0.52                             138   -0.1710 94.1  37 
 BAR2 SZ ES        931 16.32                             138   -0.0610 94.1  37 
 BAR2 SZ I         931 17.42        10.6 0.38            140           94.1  37 
 PTB  HZ EP        931  1.63                             134   -0.0610  109 309 
 PTB  HN ES        931 17.89                             134   -0.2610  109 309 
 BRR  HZ EP        931  3.57                             128   -0.2110  132 359 
 BRR  HN ES        931 22.57                             128    0.6910  132 359 
 CHI  HZ EP        931  5.27                             126    0.01 9  142 182 
 CHI  HN ES        931 24.77                             126    0.27 9  142 182 
 CHI  HN I         931 26.54         2.3 0.58            127            142 182 
                                                                                
