 2015  523 0953 34.7 L   6.893 -73.240122.8  RSN  7 0.2 1.8LRSN                1
 GAP=173        0.44       1.9     2.9  3.5 -0.1402E+00  0.1462E+01 -0.2060E+01E
 Epicentro: BETULIA - SANTANDER                                                3
 ACTION:UPD 15-09-10 22:06 OP:cam  STATUS:               ID:20150523095334 L   I
 OLDACT:DUP 15-05-23 18:42 OP:spq  STATUS:               ID:20150523094750d    3
 2015-05-23-0947-49M.COL___294                                                 6
 STAT SP IPHASW D HRMM SECON CODA AMPLIT PERI AZIMU VELO AIN AR TRES W  DIS CAZ7
 BAR2 EZ EP        953 52.12                             164    0.1910 33.9 169 
 BAR2 EZ ES   1    954  5.15                             164   -0.19 7 33.9 169 
 BAR2 EZ I         954  6.41        23.9 0.44            162           33.9 169 
 BRR  HZ EP        953 52.53                             153   -0.1010 57.3 294 
 BRR  HE ES        954  6.80                             153    0.2210 57.3 294 
 BRR  HZ I         954  7.42         7.7 0.14            149           57.3 294 
 OCA  HZ EP   1    954  0.32                             126    0.06 7  149 357 
 OCA  HE ES        954 20.06                             126   -0.10 9  149 357 
 OCA  HZ I         954 21.18        20.8 0.30            125            149 357 
 SPBC HN ES   1    954 22.62                             123   -0.30 7  165 214 
 SPBC HZ I         954 28.24         4.2 0.20            121            165 214 
 ZAR  HZ EP        954  4.46                             119    0.10 9  191 290 
 ZAR  HN ES        954 27.46                             119    0.00 9  191 290 
 ZAR  HZ I         954 31.63         7.5 0.42            117            191 290 
 SML  HZ EP        954  8.75                             114    0.09 8  230 337 
 SML  HN ES   1    954 34.75                             114   -0.36 6  230 337 
 SML  HZ I         954 39.24        10.2 0.10            113            230 337 
 SJC  HZ EP   4    954 26.16                             102   -1.78 0  395 327 
 SJC  HN ES   4    955  6.45                             102   -2.98 0  395 327 
 SJC  HZ I         955 11.95         1.2 0.50            101            395 327 
                                                                                
