 2013  623 0510 33.1 L   6.421 -73.657105.8  RSN 10 0.4 1.8LRSN                1
 GAP=102        0.85       2.9     3.2  6.6 -0.1071E+01  0.6492E+01 -0.3978E+01E
 Epicentro: SANTA HELENA DEL OPON - SANTANDER                                  3
 ACTION:UPD 14-01-08 09:56 OP:ep   STATUS:               ID:20130623051033 L   I
 OLDACT:REG 13-06-23 10:22 OP:carl STATUS:               ID:20130623050959     3
 2013-06-23-0509-59M.COL___267                                                 6
 STAT SP IPHASW D HRMM SECON CODA AMPLIT PERI AZIMU VELO AIN AR TRES W  DIS CAZ7
 BAR2 SZ EP        510 49.68                             150    0.2610 55.8  70 
 BAR2 SZ ES   1    511  2.18                             150    0.03 7 55.8  70 
 BAR2 SZ I         511  3.33        32.7 0.14            153           55.8  70 
 BRR  HZ EP        510 50.57                             141    0.0910 76.1 355 
 BRR  HN ES   1    511  4.52                             141    0.49 7 76.1 355 
 BRR  HZ I         511  6.60         8.1 0.12            141           76.1 355 
 RUS  HZ EP        510 51.91                             138   -0.0610 86.3 133 
 RUS  HE ES   1    511  6.38                             138   -0.30 7 86.3 133 
 RUS  HZ I         511  8.05        13.6 0.30            143           86.3 133 
 GIR2 SZ EP        510 51.93                             137    0.2210 88.9  35 
 PTB  HZ EP        510 50.90                             136   -0.6710 89.4 278 
 PTB  HN ES   1    511  5.22                             136   -0.75 7 89.4 278 
 PTB  HZ I         511  7.50        12.2 0.26            136           89.4 278 
 NOR  HN ES   1    511 19.60                             118    0.45 7  164 235 
 NOR  HZ I         511 24.36         7.4 0.22            119            164 235 
 ZAR  HZ EP        511  0.68                             115    0.28 9  178 312 
 ZAR  HE ES   1    511 22.01                             115    0.33 7  178 312 
 ZAR  HZ I         511 26.96        10.6 0.44            116            178 312 
 OCA  HZ EP   1    511  3.39                             112   -0.16 6  204  10 
 OCA  HN ES   1    511 27.64                             112    0.36 6  204  10 
 OCA  HZ I         511 32.07         7.7 0.34            113            204  10 
 GUY2CHZ EP   1    511  6.87                             109   -0.10 6  231 235 
 GUY2CHN ES   1    511 34.06                             109    0.68 6  231 235 
 GUY2CHZ I         511 39.49         3.2 0.30                           231 235 
 SML  HZ EP   1    511 10.19                             105   -0.40 6  267 350 
 SML  HE ES        511 39.36                             105   -0.47 8  267 350 
 SML  HZ I         511 45.90         6.3 0.10            107            267 350 
                                                                                
