 2013  123 0541 51.5 L   6.797 -73.195138.2  RSN  6 0.4 2.0LRSN                1
 GAP=131        1.13       4.7     6.2  9.4 -0.5805E+01  0.1850E+02 -0.5738E+01E
 Epicentro: ZAPATOCA - SANTANDER                                               3
 ACTION:UPD 13-02-15 09:16 OP:ep   STATUS:               ID:20130123054150 L   I
 2013-01-23-0538-48M.COL___183                                                 6
 STAT SP IPHASW D HRMM SECON CODA AMPLIT PERI AZIMU VELO AIN AR TRES W  DIS CAZ7
 BAR2 SZ IP        542 10.48                             170    0.2410 22.7 176 
 BAR2 SZ I         542 10.97        24.0 0.16            172           22.7 176 
 BAR2 SZ ES        542 25.20                             170    0.3710 22.7 176 
 BRR  HZ IP     C  542 12.37                             153    0.7710 66.6 301 
 BRR  HZ I         542 12.71        16.5 0.10            151           66.6 301 
 PAM  SZ EP        542 13.36                             148    0.1710 81.2  42 
 PAM  SZ I         542 13.70        17.0 0.24            149           81.2  42 
 PAM  SN ES        542 30.17                             148    0.0910 81.2  42 
 RUS  HZ EP        542 14.40                             142   -0.1610  101 173 
 RUS  HN ES        542 31.90                             142   -0.6210  101 173 
 RUS  HN I         542 33.80        10.4 0.18            144            101 173 
 PTB  HZ EP        542 17.21                             131   -0.18 9  142 259 
 PTB  HN ES        542 37.51                             131   -0.05 9  142 259 
 PTB  HN I         542 40.39        13.4 0.22            131            142 259 
 OCA  HN ES        542 40.06                             128   -0.79 9  160 355 
 OCA  HN I         542 44.85        30.9 0.24            128            160 355 
                                                                                
