 2012 1023 0440  8.2 L   6.590 -72.981  0.0  RSN  5 0.5 1.5LRSN                1
 GAP=212        1.00       4.7     6.3  5.4  0.1528E+02 -0.1244E+02 -0.8918E+01E
 Epicentro: CURITI - SANTANDER                                                 3
 ACTION:UPD 12-11-22 17:05 OP:ep   STATUS:               ID:20121023044008 L   I
 2012-10-23-0437-40M.COL___191                                                 6
 STAT SP IPHASW D HRMM SECON CODA AMPLIT PERI AZIMU VELO AIN AR TRES W  DIS CAZ7
 BAR2 SZ EP   1    440 12.66                              95   -0.17 7 22.2 271 
 BAR2 SZ ES   2    440 15.76                              95   -0.70 5 22.2 271 
 GIR2 SZ EP   1    440 17.45                              47   -0.97 7 58.9 337 
 RUS  HZ EP   1    440 21.99                              47    0.33 7 77.9 188 
 RUS  HN ES   2    440 31.87                              47   -0.31 5 77.9 188 
 RUS  HN I         440 32.57         7.8 0.27                          77.9 188 
 BRR  HZ EP   1    440 25.05                              47    0.71 7 99.0 305 
 BRR  HN ES        440 37.24                              47    0.2910 99.0 305 
 BRR  HN I         440 37.66        25.3 0.21                          99.0 305 
 ZAR  HN ES   2    441 10.09                              37    0.15 4  230 296 
                                                                                
