 2016  723 0738 23.4 L   6.702 -73.465 30.0  RSN 15 0.5 2.0LRSN                1
 GAP= 61        1.14       2.5     2.4  3.6  0.1077E+01  0.2948E+01  0.3324E+01E
 Epicentro: EL CARMEN - SANTANDER                                              3
 ACTION:UPD 17-03-29 16:54 OP:lp   STATUS:               ID:20160723073823 L   I
 OLDACT:UP  16-07-23 18:49 OP:ak   STATUS:               ID:20160723072759     3
 OLDACT:REG 16-07-23 15:28 OP:ar   STATUS:               ID:20160723072759     3
 2016-07-23-0727-59S.COL___322                                                 6
 STAT SP IPHASW D HRMM SECON CODA AMPLIT PERI AZIMU VELO AIN AR TRES W  DIS CAZ7
 BAR2 EZ IP     D  738 30.67                             128   -0.1110 33.5 111 
 BAR2 EZ ES        738 36.54                             128    0.0210 33.5 111 
 BRR  HZ IP     C  738 32.57                             113   -0.2710 52.5 329 
 BRR  HN ES        738 40.42                             113    0.2210 52.5 329 
 BRR  HZ I         738 42.04       109.6 0.10             47           52.5 329 
 RUS  HZ EP        738 39.16                              61   -0.3210 98.9 155 
 RUS  HE ES        738 51.13                              61   -0.8810 98.9 155 
 RUS  HZ I         738 53.73        29.4 0.24             47           98.9 155 
 PAM  EZ IP     D  738 41.32                              61    0.4510  110  50 
 PAM  EN ES        738 54.47                              61   -0.0210  110  50 
 SPBC HZ IP     D  738 44.09                              61    0.7010  134 210 
 SPBC HN ES        738 59.64                              61    0.6610  134 210 
 SPBC HZ I         739  1.17        57.3 0.28             47            134 210 
 ZAR  HZ EP        738 48.35                              61   -0.31 9  177 300 
 ZAR  HE ES        739  8.34                              61   -0.01 9  177 300 
 NOR  HZ EP   2    738 51.74                              61    0.15 4  200 231 
 NOR  HE ES        739 13.17                              61   -0.40 9  200 231 
 NOR  HZ I         739 19.65        11.2 0.12             37            200 231 
 CHI  HZ EP   4    738 52.97                              61   -2.93 0  231 187 
 CHI  HN ES   4    739 25.35                              61    4.11 0  231 187 
 HEL  HZ EP     C  738 55.86                              61   -0.51 8  235 256 
 HEL  HN ES        739 21.04                              61   -1.03 8  235 256 
 HEL  HZ I         739 31.53         7.5 0.40             37            235 256 
 URE  HZ EP   2    738 59.20                              60    0.64 4  256 297 
 URE  HZ I         739 35.45         6.5 0.26             37            256 297 
 GUY2CHZ EP        739  0.82                              60    0.45 8  266 232 
 GUY2CHN ES        739 30.01                              60    0.81 8  266 232 
 GUY2CHZ I         739 44.87         5.5 0.56                           266 232 
 ELA  HZ EP   2    739  4.35                              60    0.30 4  296 227 
 ELA  HE ES   4    739 37.18                              60    1.43 0  296 227 
 ELA  HZ I         739 57.09         5.7 0.56             36            296 227 
 CBOC HZ EP   2    739  3.48                              60   -0.27 4  297 252 
 CBOC HN ES   4    739 38.29                              60    3.07 0  297 252 
 CBOC HZ I         739 47.95         2.6 0.52             36            297 252 
 PTGC HZ EP   2    739  5.00                              60   -0.62 3  314 152 
 PTGC HN ES        739 39.42                              60    0.87 7  314 152 
 PTGC HZ I         739 43.69         5.9 0.26             36            314 152 
 LL6C HZ EP   2    739  8.83                              60    0.42 3  336   4 
 PRA  HZ EP   4    739 17.53                              60    5.38 0  366 206 
 PRA  HE ES   4    739 55.07                              60    4.90 0  366 206 
 PRA  HZ I         740 14.47         4.2 0.36             36            366 206 
                                                                                
