 2010 1223 0433  8.4 L   6.685 -72.841132.0  RSN  4 0.4 1.4LRSN                1
 GAP=195        0.72       7.1    31.7  9.6 -0.1848E+03 -0.9548E+02  0.2216E+02E
 Epicentro: MOLAGAVITA - SANTANDER                                             3
 ACTION:UP  11-01-14 15:26 OP:pat  STATUS:               ID:20101223043308 L   I
 2010-12-23-0431-02S.COL___135                                                 6
 STAT SP IPHASW D HRMM SECON CODA AMPLIT PERI AZIMU VELO SNR AR TRES W  DIS CAZ7
 BAR2 SZ ES   2    433 40.80                             163    -0.5 5   39 255 
 BAR2 SZ I         433 42.08         7.6 0.12                            39 255 
 RUS  HZ EP   1    433 30.04                             144    -0.1 7   92 197 
 RUS  HE ES   1    433 47.31                             144     0.2 7   92 197 
 RUS  HZ I         433 49.70         2.7 0.26                            92 197 
 GRA  SZ EP   2    433 32.52                             132    -0.6 5  133   2 
 GRA  SZ ES   1    433 52.70                             132     0.4 7  133   2 
 GRA  SZ I         433 56.05         7.7 0.22                           133   2 
 CHI  HZ EP   1    433 45.18                             114    -0.1 6  248 204 
 CHI  HE ES   2    434 14.77                             114     0.7 4  248 204 
 CHI  HZ I         434 20.02         1.7 0.58                           248 204 
                                                                                
