 2010  223 0721 15.2 L   6.774 -73.166146.6  RSN 16 0.5 4.3LRSN                1
 GAP=233        1.22       5.3     6.6  7.0  0.8767E+01  0.2179E+02  0.1364E+02E
 Epicentro: LOS SANTOS - SANTANDER                                             3
 ACTION:UP  10-08-24 09:50 OP:vdl  STATUS:               ID:20100223072115 L   I
 2010-02-23-0719-33S.COL___094                                                 6
 STAT SP IPHASW D HRMM SECON CODA AMPLIT PERI AZIMU VELO SNR AR TRES W  DIS CAZ7
 BAR2 SZ IP        721 34.78                             172    -0.110   20 186 
 BAR2 SZ ES        721 49.36                             172    -0.810   20 186 
 BRR  HZ IP        721 36.65                             153     0.310   71 301 
 BRR  HE ES        721 53.64                             153     0.710   71 301 
 BRR  HZ I         721 56.46      3740.6 0.14                            71 301 
 RUS  BZ IP        721 38.56                             145    -0.310   98 175 
 RUS  BE ES        721 57.22                             145    -0.110   98 175 
 RUS  BZ I         722  0.15      2069.2 0.31                            98 175 
 CHI  HZ IP        721 52.36                             117    -0.2 8  245 195 
 CHI  HE ES        722 21.93                             117     0.2 8  245 195 
 CHI  HZ I         722 25.38      1101.0 0.53                           245 195 
 ROSC BZ IP        721 54.19                             117     1.2 8  249 211 
 ROSC BN ES        722 23.16                             117     0.7 8  249 211 
 HEL  HZ EP        721 55.60                             115     0.5 8  269 256 
 HEL  HN ES        722 25.99                             115    -0.3 8  269 256 
 HEL  HZ I         722 32.90       778.7 0.32                           269 256 
 RREF BZ EP        722  0.62                             111    -0.3 7  318 229 
 RREF BN ES        722 36.45                             111    -0.2 7  318 229 
 RREF BZ I         722 47.15      1631.6 0.89                           318 229 
 DBB  SZ EP        722  2.28                             110    -0.2 7  337 275 
 DBB  SZ ES        722 38.26                             110    -1.1 7  337 275 
 TOL  SZ IP        722  3.24                             110     0.2 7  340 225 
 ANIL BZ IP        722  4.75                             109     0.1 6  354 225 
 ANIL BZ I         722 52.41      2628.3 0.34                           354 225 
 PRA  HZ EP        722  7.64                             107    -0.7 6  388 209 
 PRA  HN ES        722 49.85                             107     0.1 6  388 209 
 PRA  HZ I         722 56.25       677.2 0.46                           388 209 
 MARA BZ EP        722 24.92                             101    -0.9 4  534 216 
 PCON BN EP        722 35.53                              99     0.4 3  608 216 
 POP2 HZ EP        722 33.98                              99    -0.8 3  609 220 
 POP2 HE ES   2    723 36.33                              99    -0.5 1  609 220 
 SOTA BZ IP        722 39.15                              99     0.4 2  640 217 
 SOTA BZ I         723 55.29        19.4 0.64                           640 217 
 GCAL SZ EP        722 54.73                              97    -0.2 0  775 218 
 GCAL SZ I         722 56.20       144.4 0.41                           775 218 
                                                                                
