 2017  123 0225 15.4 L   6.759 -73.536107.2  RSN  4 0.3 0.9LRSN                1
 GAP=142        0.73       4.7     3.7  6.3  0.7934E+01  0.6115E+01  0.1003E+02E
 Epicentro: EL CARMEN - SANTANDER                                              3
 ACTION:UPD 17-05-22 16:02 OP:jn   STATUS:               ID:20170123022515 L   I
 OLDACT:DUP 17-01-23 14:34 OP:lv   STATUS:               ID:20170123021746d    3
 2017-01-23-0218-00M.COL___352                                                 6
 STAT SP IPHASW D HRMM SECON CODA AMPLIT PERI AZIMU VELO AIN AR TRES W  DIS CAZ7
 BRR  HZ EP        225 30.75                             156   -0.1110 43.1 333 
 BRR  HE ES        225 43.32                             156    0.4310 43.1 333 
 BRR  HZ I         225 43.99         4.3 0.13            158           43.1 333 
 BAR2 EZ EP        225 31.18                             157   -0.0410 43.3 115 
 BAR2 EZ ES        225 43.05                             157   -0.4810 43.3 115 
 BAR2 EZ I         225 43.94         4.0 0.11            158           43.3 115 
 PTB  HZ EP        225 35.26                             132   -0.0910  105 257 
 PTB  HN ES        225 50.76                             132   -0.1210  105 257 
 PTB  HZ I         225 51.91         1.2 0.21            133            105 257 
 RUS  HZ EP        225 36.43                             131    0.1110  108 152 
 RUS  HN ES        225 52.92                             131    0.3110  108 152 
 RUS  HZ I         225 53.63         0.9 0.16            133            108 152 
                                                                                
