 2010 1023 0425 30.7 L   6.798 -73.105147.7  RSN 11 0.5 2.5LRSN                1
 GAP=163        0.96       3.9     6.5  8.1 -0.1067E+02  0.5758E+01  0.6794E+01E
 Epicentro: LOS SANTOS - SANTANDER                                             3
 ACTION:UP  11-02-18 11:11 OP:tino STATUS:               ID:20101023042530 L   I
 2010-10-23-0423-33S.COL___127                                                 6
 STAT SP IPHASW D HRMM SECON CODA AMPLIT PERI AZIMU VELO SNR AR TRES W  DIS CAZ7
 BRR  HZ EP        425 52.36                             151     0.010   75 297 
 BRR  HN ES   1    426  9.74                             151     0.6 7   75 297 
 BRR  HZ I         426 10.74        93.9 0.09                            75 297 
 RUS  HZ EP        425 54.41                             144    -0.210  100 179 
 RUS  HN ES   1    426 13.11                             144    -0.2 7  100 179 
 RUS  HZ I         426 14.32        35.5 0.20                           100 179 
 GUE  SZ EP   1    425 55.77                             140     0.2 7  116  10 
 GRA  SZ EP   1    425 56.32                             138     0.3 7  125  15 
 GRA  SZ ES   1    426 15.51                             138    -0.3 7  125  15 
 GRA  SZ I         426 20.48        21.7 0.33                           125  15 
 OCA  SZ EP   1    425 59.02                             130    -0.2 7  161 352 
 OCA  SZ I         426 26.12        28.5 0.20                           161 352 
 NOR  SZ EP   1    426  6.14                             118    -0.8 6  238 235 
 NOR  SN ES   1    426 34.25                             118    -1.0 6  238 235 
 CHI  HZ EP        426  8.59                             117    -0.1 8  250 196 
 CHI  HN ES   1    426 38.91                             117     0.7 6  250 196 
 CHI  HZ I         426 47.66        17.5 0.50                           250 196 
 ROSC BZ EP   1    426 10.15                             117     1.0 6  255 212 
 ROSC BE ES   1    426 38.83                             117    -0.4 6  255 212 
 ROSC BZ I         426 46.20        16.3 0.46                           255 212 
 HEL  HZ EP   1    426 11.75                             115     0.2 6  276 256 
 HEL  HN ES   2    426 43.14                             115    -0.2 4  276 256 
 HEL  HZ I         426 51.03        17.1 0.37                           276 256 
 RREF HZ EP   1    426 17.81                             111     0.5 5  325 230 
 RREF HN ES   1    426 54.11                             111     0.4 5  325 230 
 RREF HZ I         427  2.09        18.9 0.22                           325 230 
 PRA  HZ EP   1    426 24.32                             107    -0.2 4  394 210 
 PRA  HN ES   1    427  6.84                             107     0.3 4  394 210 
 PRA  HZ I         427 10.20        40.9 0.38                           394 210 
                                                                                
