 2011  623 0157 40.2 L   6.778 -73.074145.4  RSN  8 0.2 1.7LRSN                1
 GAP=164        0.47       2.8     6.2  4.5 -0.4519E+01 -0.1047E+02  0.3141E+01E
 Epicentro: LOS SANTOS - SANTANDER                                             3
 ACTION:UP  11-07-14 19:07 OP:ep   STATUS:               ID:20110623015740 L   I
 2011-06-23-0154-30S.COL___140                                                 6
 STAT SP IPHASW D HRMM SECON CODA AMPLIT PERI AZIMU VELO SNR AR TRES W  DIS CAZ7
 BAR2 SZ EP   1    157 59.65                             170    -0.1 7   24 210 
 BAR2 SZ ES   2    158 14.38                             170    -0.7 5   24 210 
 BAR2 SZ I         158 17.69        12.2 0.42                            24 210 
 BTL  SZ EP        158  0.05                             169     0.210   26 306 
 GIR2 SZ EP   1    157 59.81                             165    -0.1 7   36 338 
 GIR2 SZ ES   1    158 15.45                             165     0.1 7   36 338 
 BRR  HZ EP   1    158  1.53                             150    -0.2 7   79 297 
 BRR  HZ I         158  1.81        14.9 0.34                            79 297 
 BRR  HE ES   1    158 18.72                             150     0.1 7   79 297 
 RUS  HZ EP   1    158  3.65                             144     0.0 7   98 181 
 RUS  HE ES   2    158 22.43                             144     0.4 5   98 181 
 RUS  HZ I         158 23.51         4.8 0.35                            98 181 
 BRI  SZ EP   2    158  4.02                             141     0.0 5  108  16 
 GRA  SZ IP        158  5.44                             137     0.010  126  14 
 GRA  SZ I         158  6.58         6.6 0.25                           126  14 
 GRA  SZ ES   2    158 24.97                             137    -0.1 5  126  14 
 CHI  HZ EP   1    158 17.81                             117     0.0 6  248 197 
 CHI  HN ES   2    158 47.20                             117     0.0 4  248 197 
 CHI  HZ I         158 55.19         2.3 0.36                           248 197 
                                                                                
