 2017  123 0250 52.0 L   6.775 -73.112140.2  RSN  6 0.2 1.4LRSN                1
 GAP=142        0.59       3.0     3.3  4.7  0.1983E+01  0.1972E+01 -0.2309E+00E
 Epicentro: LOS SANTOS - SANTANDER                                             3
 ACTION:UPD 17-05-22 16:02 OP:jn   STATUS:               ID:20170123025052 L   I
 OLDACT:REG 17-01-23 12:39 OP:lv   STATUS:               ID:20170123024743     3
 2017-01-23-0248-00M.COL___352                                                 6
 STAT SP IPHASW D HRMM SECON CODA AMPLIT PERI AZIMU VELO AIN AR TRES W  DIS CAZ7
 BAR2 EZ EP        251 10.54                             171   -0.3810 21.6 201 
 BAR2 EZ ES        251 25.48                             171   -0.2010 21.6 201 
 BAR2 EZ I         251 26.99         7.5 0.25            169           21.6 201 
 BRR  HZ EP        251 12.74                             150   -0.0810 75.8 299 
 BRR  HN ES        251 29.38                             150    0.3210 75.8 299 
 BRR  HZ I         251 34.33         4.7 0.14            150           75.8 299 
 PAM  EZ EP        251 13.73                             150    0.1210 77.3  36 
 PAM  EN ES        251 30.47                             150   -0.0110 77.3  36 
 PAM  EZ I         251 32.48         5.9 0.46            154           77.3  36 
 RUS  HZ EP        251 15.25                             143    0.2710 97.6 178 
 RUS  HN ES        251 32.96                             143    0.0510 97.6 178 
 RUS  HZ I         251 34.98         2.9 0.40            145           97.6 178 
 ZAR  HN ES        251 49.83                             120   -0.13 8  209 292 
 ZAR  HZ I         251 51.71         2.8 0.10            122            209 292 
 CHI  HZ EP   4    251 30.91                             116    1.71 0  247 196 
 CHI  HN ES   4    251 57.18                             116   -1.05 0  247 196 
 CHI  HZ I         252  1.80         0.9 0.23            118            247 196 
                                                                                
