 2013 1223 0800 42.8 L   6.810 -73.151144.0  RSN 13 0.4 2.6LRSN                1
 GAP= 70        0.83       2.9     3.1  6.3 -0.2102E+01  0.3253E+01  0.5677E+01E
 Epicentro: LOS SANTOS - SANTANDER                                             3
 ACTION:UPD 14-01-13 10:20 OP:ep   STATUS:               ID:20131223080042 L   I
 OLDACT:UP  13-12-23 10:12 OP:mh   STATUS:               ID:20131223080000     3
 OLDACT:UP  13-12-23 10:12 OP:mh   STATUS:               ID:20131223080000     3
 OLDACT:REG 13-12-23 08:19 OP:mh   STATUS:               ID:20131223080000     3
 2013-12-23-0800-00M.COL___285                                                 6
 STAT SP IPHASW D HRMM SECON CODA AMPLIT PERI AZIMU VELO AIN AR TRES W  DIS CAZ7
 BAR2 SZ EP        8 1  2.32                             170    0.0510 24.3 188 
 BAR2 SZ I         8 1 19.25        94.5 0.20            167           24.3 188 
 PAM  SZ EP        8 1  5.10                             151    0.2710 76.9  40 
 PAM  SN ES        8 1 22.34                             151    0.3510 76.9  40 
 PAM  SZ I         8 1 24.48       104.4 0.65            150           76.9  40 
 RUS  HZ EP        8 1  6.20                             143   -0.3010  102 176 
 RUS  HZ I         8 1 26.66        46.3 0.24            139            102 176 
 PTB  HZ EP        8 1  8.82                             132   -0.81 9  147 258 
 PTB  HN ES        8 1 30.50                             132   -0.03 9  147 258 
 PTB  HZ I         8 1 37.89        51.0 0.26            128            147 258 
 TAM  HZ EP        8 1 10.48                             130    0.03 9  156 105 
 OCA  HZ EP   1    8 1 10.81                             130   -0.09 7  159 353 
 OCA  HN ES        8 1 32.51                             130   -0.28 9  159 353 
 OCA  HZ I         8 1 38.04        49.0 0.18            127            159 353 
 SPBC HZ EP        8 1 11.23                             129   -0.02 9  164 219 
 SPBC HN ES        8 1 33.53                             129    0.12 9  164 219 
 SPBC HZ I         8 1 38.45        82.3 0.18            125            164 219 
 ZAR  HZ EP        8 1 14.74                             122   -0.33 9  203 292 
 ZAR  HN ES   1    8 1 40.18                             122   -0.03 6  203 292 
 ZAR  HZ I         8 1 47.93        42.0 0.31            119            203 292 
 NOR  HZ EP   1    8 1 18.36                             118   -0.12 6  235 234 
 NOR  HE ES   2    8 1 46.34                             118    0.05 4  235 234 
 NOR  HZ I         8 1 50.64        36.9 0.15            115            235 234 
 CHI  HZ EP        8 1 20.41                             117   -0.13 8  250 195 
 CHI  HN ES        8 1 49.68                             117   -0.26 8  250 195 
 CHI  HZ I         8 1 55.38        16.4 0.29            113            250 195 
 ROSC BZ EP   4    8 1 22.23                             116    1.30 0  253 211 
 ROSC BN ES   4    8 1 53.75                             116    3.11 0  253 211 
 HEL  HZ EP   1    8 1 24.18                             114    1.25 6  272 256 
 HEL  HZ I         8 2  0.78        24.3 0.31            111            272 256 
 URE  HZ EP   4    8 1 21.93                             113   -1.79 0  283 292 
 URE  HN ES   4    8 1 53.03                             113   -2.57 0  283 292 
 GUY2CHZ EP        8 1 26.79                             112    0.41 7  301 235 
 GUY2CHN ES   4    8 2  3.85                             112    3.50 0  301 235 
 GUY2CHZ I         8 2  8.87        18.7 0.24                           301 235 
 CBOC HZ EP        8 1 30.02                             110    0.36 7  333 252 
 CBOC HN ES        8 2  6.81                             110    0.64 7  333 252 
 CBOC HZ I         8 2 12.81        10.7 0.38            107            333 252 
                                                                                
