 2016 1023 0553 22.6 L   6.711 -73.186142.1  RSN  5 0.4 1.3LRSN                1
 GAP=226        0.75       5.0     5.2  6.5 -0.5045E+00  0.5683E+01  0.2192E+01E
 Epicentro: VILLANUEVA - SANTANDER                                             3
 ACTION:UPD 16-11-09 19:21 OP:rebc STATUS:               ID:20161023055322 L   I
 OLDACT:REG 16-10-23 13:00 OP:and  STATUS:               ID:20161023054744     3
 2016-10-23-0548-00M.COL___353                                                 6
 STAT SP IPHASW D HRMM SECON CODA AMPLIT PERI AZIMU VELO AIN AR TRES W  DIS CAZ7
 BAR2 EZ EP        553 41.48                             174   -0.1110 13.1 178 
 BAR2 EZ ES        553 56.02                             174   -0.4110 13.1 178 
 BAR2 EZ I         553 57.43         8.4 0.26            164           13.1 178 
 BRR  HZ EP        553 43.37                             151   -0.0510 72.8 307 
 BRR  HN ES        554  0.16                             151    0.4910 72.8 307 
 RUS  HZ EP   2    553 45.97                             146    0.67 5 91.2 173 
 RUS  HE ES   2    554  3.50                             146    0.48 5 91.2 173 
 RUS  HZ I         554  5.14         1.9 0.24            140           91.2 173 
 PTB  HZ EP        553 48.52                             132   -0.17 9  142 262 
 PTB  HN ES        554  8.80                             132   -0.27 9  142 262 
 PTB  HZ I         554 11.62         2.5 0.18            129            142 262 
 SPBC HZ EP   3    553 50.70                             130    0.89 2  153 220 
 SPBC HN ES        554 11.20                             130    0.16 9  153 220 
 SPBC HZ I         554 21.07         3.0 0.08            126            153 220 
                                                                                
