 2011  523 0614 52.1 L   6.807 -73.134145.3  RSN 11 0.3 1.8LRSN                1
 GAP=138        0.69       3.3     4.3  6.8 -0.6030E+01  0.5717E+01  0.3026E+01E
 Epicentro: LOS SANTOS - SANTANDER                                             3
 ACTION:UP  11-06-29 08:55 OP:tino STATUS:               ID:20110523061452 L   I
 2011-05-23-0613-15S.COL___141                                                 6
 STAT SP IPHASW D HRMM SECON CODA AMPLIT PERI AZIMU VELO SNR AR TRES W  DIS CAZ7
 BTL  SZ EP   1    615 12.29                             172     0.6 7   19 310 
 BAR2 SZ EP   2    615 11.13                             170    -0.6 5   24 193 
 BAR2 SZ I         615 28.70        11.3 0.22                            24 193 
 GIR2 SZ EP   1    615 11.80                             167     0.1 7   31 348 
 BRR  HZ EP   1    615 13.18                             152    -0.1 7   72 297 
 BRR  HN ES   1    615 30.15                             152     0.4 7   72 297 
 BRR  HZ I         615 33.94        17.0 0.14                            72 297 
 PAM  SZ EP   1    615 14.26                             151     0.0 7   76  39 
 PAM  SZ I         615 14.55         7.9 0.16                            76  39 
 PAM  SN ES   1    615 31.32                             151    -0.1 7   76  39 
 RUS  HZ EP   1    615 15.83                             143    -0.1 7  101 177 
 RUS  HN ES   1    615 34.42                             143     0.0 7  101 177 
 RUS  HZ I         615 35.85         4.9 0.28                           101 177 
 BRI  SZ EP   1    615 16.15                             142     0.3 7  107  20 
 BRI  SZ ES   1    615 34.58                             142     0.2 7  107  20 
 BRI  SZ I         615 39.26        13.8 0.37                           107  20 
 GRA  SZ EP   1    615 17.23                             137     0.0 7  125  17 
 GRA  SZ ES   1    615 36.43                             137    -0.4 7  125  17 
 GRA  SZ I         615 37.67        11.4 0.38                           125  17 
 OCA  SZ ES   1    615 42.01                             130    -0.4 7  160 353 
 NOR  SN ES   1    615 55.48                             118    -0.5 6  236 234 
 HEL  HZ EP   2    615 32.90                             115     0.4 4  274 256 
 HEL  HN ES   1    616  3.98                             115     0.0 6  274 256 
 HEL  HZ I         616 10.66         2.8 0.25                           274 256 
                                                                                
