 2017  323 0615 52.1 L   6.815 -73.147148.0  RSN  6 0.2 1.7LRSN                1
 GAP=149        0.61       3.5     3.0  4.6 -0.3190E+01  0.2960E+01  0.1888E+01E
 Epicentro: LOS SANTOS - SANTANDER                                             3
 ACTION:UPD 17-05-25 18:44 OP:jn   STATUS:               ID:20170323061552 L   I
 OLDACT:DUP 17-03-23 16:19 OP:lv   STATUS:               ID:20170323060745d    3
 2017-03-23-0608-00M.COL___382                                                 6
 STAT SP IPHASW D HRMM SECON CODA AMPLIT PERI AZIMU VELO AIN AR TRES W  DIS CAZ7
 BAR2 EZ ES        616 27.74                             170    0.1810 25.0 189 
 BRR  HZ EP        616 13.66                             153    0.2410 70.3 297 
 BRR  HE ES        616 30.19                             153    0.1310 70.3 297 
 BRR  HZ I         616 34.65         8.1 0.07            151           70.3 297 
 PAM  EZ EP        616 14.69                             152    0.2310 76.2  40 
 PAM  EN ES        616 31.53                             152   -0.3910 76.2  40 
 PTB  HZ EP        616 18.86                             132   -0.39 9  148 258 
 PTB  HN ES        616 40.34                             132   -0.10 9  148 258 
 SPBC HZ EP        616 20.96                             129    0.09 9  164 219 
 SPBC HN ES        616 43.23                             129   -0.09 9  164 219 
 SPBC HZ I         616 50.94         6.2 0.22            129            164 219 
 ZAR  HN ES        616 49.99                             123    0.04 9  203 292 
 ZAR  HZ I         616 55.58         3.6 0.07            124            203 292 
                                                                                
