 2016 1023 0836 13.7 L   6.808 -73.145143.7  RSN 12 0.5 1.7LRSN                1
 GAP=136        1.02       3.4     5.3  6.0 -0.6867E+01  0.2425E+01  0.1210E+01E
 Epicentro: LOS SANTOS - SANTANDER                                             3
 ACTION:UPD 16-11-09 19:22 OP:rebc STATUS:               ID:20161023083613 L   I
 OLDACT:UP  16-10-23 17:33 OP:e    STATUS:               ID:20161023082747d    3
 OLDACT:UP  16-10-23 17:29 OP:e    STATUS:               ID:20161023082747d    3
 OLDACT:DUP 16-10-23 17:25 OP:e    STATUS:               ID:20161023082747d    3
 OLDACT:UP  16-10-23 17:25 OP:e    STATUS:               ID:20161023082746     3
 OLDACT:UP  16-10-23 17:24 OP:e    STATUS:               ID:20161023082746     3
 OLDACT:REG 16-10-23 13:19 OP:and  STATUS:               ID:20161023082746     3
 2016-10-23-0828-00M.COL___353                                                 6
 STAT SP IPHASW D HRMM SECON CODA AMPLIT PERI AZIMU VELO AIN AR TRES W  DIS CAZ7
 BAR2 EZ IP     D  836 32.84                             170   -0.2310 24.2 190 
 BAR2 EZ ES        836 48.04                             170   -0.1610 24.2 190 
 BAR2 EZ I         836 49.95        10.1 0.23            163           24.2 190 
 BRR  HZ IP     D  836 34.63                             152    0.0610 70.9 298 
 BRR  HE ES        836 51.64                             152    0.7610 70.9 298 
 BRR  HZ I         836 53.99        10.4 0.16            139           70.9 298 
 PAM  EZ IP     C  836 35.84                             151    0.2210 76.6  40 
 PAM  EN ES        836 52.78                             151    0.0410 76.6  40 
 PAM  EZ I         836 54.04         6.6 0.28            148           76.6  40 
 RUS  HZ EP        836 36.97                             143   -0.3110  101 176 
 RUS  HN ES        836 55.62                             143   -0.0810  101 176 
 RUS  HZ I         836 56.94         6.1 0.24            136            101 176 
 PTB  HZ EP   9    836 39.62                             131   -0.87 0  148 258 
 PTB  HN ES        837  0.59                             132    0.05 9  148 258 
 PTB  HZ I         837  4.24         6.5 0.17            120            148 258 
 OCA  HZ EP        836 42.26                             129    0.52 9  159 353 
 OCA  HN ES        837  2.74                             129   -0.88 9  159 353 
 OCA  HZ I         837  7.45        13.4 0.32            121            159 353 
 SPBC HZ EP        836 42.09                             128    0.01 9  164 219 
 SPBC HN ES        837  4.59                             128    0.34 9  164 219 
 SPBC HZ I         837 12.20         5.4 0.18            119            164 219 
 NOR  HN ES        837 16.19                             118   -0.98 8  235 234 
 CHI  HZ EP   4    836 52.39                             117    1.04 0  250 195 
 CHI  HN ES   2    837 21.49                             117    0.74 4  250 195 
 CHI  HZ I         837 24.38         1.8 0.34            109            250 195 
 ROSC BZ EP   4    836 53.73                             116    1.96 0  254 211 
 ROSC BN ES   2    837 22.17                             116    0.69 4  254 211 
 ROSC BZ I         837 27.75         4.1 0.35            109            254 211 
 HEL  HZ EP   2    836 54.13                             114    0.32 4  272 256 
 HEL  HZ I         837 31.13         3.3 0.34            106            272 256 
 PRA  HZ EP   2    837  7.62                             106    0.40 3  393 210 
 PRA  HN ES   2    837 49.57                             106    0.58 3  393 210 
 SJC  HZ EP   4    837  7.27                             105   -1.81 0  409 327 
 SJC  HN ES   4    837 49.79                             105   -2.51 0  409 327 
                                                                                
