 2016  323 0958 10.9 L   6.772 -73.181146.0  RSN  4 0.4 1.4LRSN                1
 GAP=247        0.87       6.5     6.0  8.0  0.7899E+01  0.1283E+02 -0.1692E+01E
 Epicentro: LOS SANTOS - SANTANDER                                             3
 ACTION:UPD 16-05-13 21:26 OP:cam  STATUS:               ID:20160323095810 L   I
 OLDACT:REG 16-03-23 13:17 OP:ak   STATUS:               ID:20160323094745     3
 2016-03-23-0947-45M.COL___300                                                 6
 STAT SP IPHASW D HRMM SECON CODA AMPLIT PERI AZIMU VELO AIN AR TRES W  DIS CAZ7
 BAR2 EZ EP        958 30.34                             172   -0.1810 19.9 180 
 BAR2 EZ ES        958 45.94                             172    0.1410 19.9 180 
 BAR2 EZ I         958 48.04         3.6 0.23            171           19.9 180 
 PTB  HZ EP        958 37.26                             133   -0.25 9  143 260 
 PTB  HN ES        958 57.69                             133   -0.56 9  143 260 
 PTB  HZ I         959  3.06         2.2 0.17            133            143 260 
 SPBC HZ EP        958 38.90                             130   -0.08 9  158 219 
 SPBC HN ES        959  1.31                             130    0.44 9  158 219 
 SPBC HZ I         959  3.96         5.9 0.18            132            158 219 
 ZAR  HZ EP   2    958 44.12                             123    0.99 4  202 293 
 ZAR  HN ES        959  8.62                             123    0.37 9  202 293 
 ZAR  HZ I         959 14.68         3.3 0.09            124            202 293 
                                                                                
