 2012  423 0707 42.9 L   6.773 -73.157146.5  RSN  6 0.3 1.2LRSN                1
 GAP=136        0.74       4.9     3.8  8.2 -0.7303E+00  0.9738E+00  0.1518E+01E
 Epicentro: LOS SANTOS - SANTANDER                                             3
 ACTION:UPD 12-07-05 11:55 OP:tino STATUS:               ID:20120423070742 L   I
 2012-04-23-0700-00M.COL___186                                                 6
 STAT SP IPHASW D HRMM SECON CODA AMPLIT PERI AZIMU VELO AIN AR TRES W  DIS CAZ7
 BAR2 SZ EP   1    7 8  2.59                             172     0.0 7   20 188 
 BAR2 SZ I         7 8 19.15         5.9 0.14                            20 188 
 BRR  HZ EP   1    7 8  4.28                             152     0.1 7   72 301 
 BRR  HN ES   1    7 8 21.23                             152     0.5 7   72 301 
 PAM  SZ EP        7 8  5.65                             150     0.310   81  39 
 PAM  SN ES   1    7 8 22.38                             150    -0.5 7   81  39 
 RUS  HZ EP   1    7 8  6.68                             145     0.2 7   98 175 
 RUS  HN ES   1    7 8 24.89                             145    -0.1 7   98 175 
 RUS  HZ I         7 8 27.35         1.9 0.36                            98 175 
 PTB  HZ EP   1    7 8  9.35                             132    -0.4 7  146 260 
 PTB  HN ES        7 8 30.65                             132    -0.1 9  146 260 
 PTB  HZ I         7 8 33.90         2.1 0.17                           146 260 
 ZAR  HE ES   1    7 8 40.53                             122    -0.2 6  204 293 
 ZAR  HZ I         7 8 57.65         1.6 0.07                           204 293 
                                                                                
