 2011  123 0532  2.1 L   6.105 -73.551124.0  RSN  4 0.4 1.1LRSN                1
 GAP=124        0.72       7.8    15.9 17.7 -0.1058E+02  0.2273E+03  0.1452E+02E
 Epicentro: SAN BENITO - SANTANDER                                             3
 ACTION:UP  11-02-08 08:42 OP:pat  STATUS:               ID:20110123053202 L   I
 2011-01-23-0528-32S.COL___138                                                 6
 STAT SP IPHASW D HRMM SECON CODA AMPLIT PERI AZIMU VELO SNR AR TRES W  DIS CAZ7
 RUS  HZ EP   1    532 20.75                             154    -0.1 7   57 114 
 RUS  HN ES   1    532 35.10                             154    -0.3 7   57 114 
 RUS  HZ I         532 36.70         1.6 0.13                            57 114 
 BAR2 SZ ES   2    532 36.49                             150     0.6 5   67  37 
 BAR2 SZ I         532 37.35         7.2 0.14                            67  37 
 CHI  HZ EP   2    532 29.95                             124     0.3 5  164 187 
 CHI  HN ES   2    532 51.41                             124     0.4 5  164 187 
 CHI  HZ I         532 53.94         1.4 0.52                           164 187 
 HEL  HZ EP   2    532 34.95                             115    -0.4 4  219 273 
 HEL  HZ I         533  3.88         1.4 0.33                           219 273 
                                                                                
