 2015 1123 0543 11.9 L   6.599 -73.327 12.7  RSN  4 0.3 0.9LRSN                1
 GAP=162        0.77       1.9     3.0  7.3  0.2095E+01  0.1243E+02  0.2003E+01E
 Epicentro: GALAN - SANTANDER                                                  3
 ACTION:UPD 15-12-28 16:12 OP:cam  STATUS:               ID:20151123053744 L   I
 OLDACT:UPD 15-11-23 14:49 OP:Mher STATUS:               ID:20151123053744 L   3
 2015-11-23-0537-44M.COL___202                                                 6
 STAT SP IPHASW D HRMM SECON CODA AMPLIT PERI AZIMU VELO AIN AR TRES W  DIS CAZ7
 BAR2 EZ EP        543 15.51                             127   -0.1010 16.0  93 
 BAR2 EZ ES        543 18.64                             127    0.1210 16.0  93 
 BAR2 EZ I         543 20.33        14.4 0.22            111           16.0  93 
 BRR  HN EP        543 23.60                              98    0.3610 70.5 323 
 BRR  HE ES        543 31.80                              98   -0.3010 70.5 323 
 RUS  HN EP        543 25.98                              97    0.4010 82.6 161 
 RUS  HE ES        543 35.87                              97   -0.3910 82.6 161 
 PAM  EZ EP   4 D  543 27.49                              95   -1.80 0  107  40 
 PAM  EN ES        543 42.78                              95   -0.1010  107  40 
 PAM  EZ I         543 45.62         3.9 0.12             93            107  40 
                                                                                
