 2011  623 0112 19.0 L   6.793 -73.070140.3  RSN 11 0.4 1.8LRSN                1
 GAP=164        0.86       4.3     7.5  7.7 -0.1354E+02 -0.8247E+01  0.8013E+01E
 Epicentro: LOS SANTOS - SANTANDER                                             3
 ACTION:UP  11-07-14 19:07 OP:ep   STATUS:               ID:20110623011219 L   I
 2011-06-23-0107-46S.COL___140                                                 6
 STAT SP IPHASW D HRMM SECON CODA AMPLIT PERI AZIMU VELO SNR AR TRES W  DIS CAZ7
 BAR2 SZ EP   1    112 37.80                             169    -0.2 7   25 209 
 BAR2 SZ ES   2    112 52.67                             169    -0.2 5   25 209 
 BAR2 SZ I         112 54.36        26.7 0.37                            25 209 
 BTL  SZ EP        112 38.97                             169     0.910   26 302 
 GIR2 SZ EP   1    112 38.16                             165     0.0 7   34 337 
 GIR2 SZ ES   2    112 53.16                             165     0.1 5   34 337 
 BRR  HZ EP   1    112 39.67                             149    -0.4 7   79 296 
 BRR  HE ES   1    112 56.53                             149     0.1 7   79 296 
 BRR  HZ I         112 57.29        19.2 0.10                            79 296 
 RUS  HZ EP   1    112 41.94                             143    -0.2 7  100 181 
 RUS  HZ I         112 43.20         5.8 0.20                           100 181 
 RUS  HN ES   2    112 59.88                             143    -0.3 5  100 181 
 BRI  SZ EP   1    112 42.36                             141     0.1 7  106  16 
 GRA  SZ IP        112 43.67                             136     0.010  124  14 
 GRA  SZ I         112 44.79        10.0 0.27                           124  14 
 GRA  SZ ES   1    113  2.30                             136    -0.6 7  124  14 
 OCA  SZ EP   2    112 46.89                             128    -0.2 5  162 350 
 CHI  HZ EP   1    112 56.38                             116    -0.2 6  250 197 
 CHI  HN ES   1    113 26.01                             116     0.1 6  250 197 
 CHI  HZ I         113 33.02         3.7 0.40                           250 197 
 HEL  HN ES   2    113 31.41                             113    -0.3 4  280 256 
 HEL  HZ I         113 36.05         2.8 0.30                           280 256 
 RREF HZ EP   2    113  5.61                             109     0.0 3  328 230 
 RREF HN ES   2    113 41.60                             109    -0.4 3  328 230 
 RREF HZ I         113 50.04         3.3 0.25                           328 230 
                                                                                
