 2017  223 0226 30.8 L   6.779 -73.096140.0  RSN  5 0.2 1.2LRSN                1
 GAP=144        0.78       4.0     4.0  6.7  0.2478E+01 -0.8958E+00  0.4034E+00E
 Epicentro: LOS SANTOS - SANTANDER                                             3
 ACTION:UPD 17-05-24 15:39 OP:jn   STATUS:               ID:20170223022630 L   I
 OLDACT:UP  17-02-23 14:44 OP:edw  STATUS:               ID:20170223021740     3
 OLDACT:REG 17-02-23 12:54 OP:edw  STATUS:               ID:20170223021740     3
 2017-02-23-0218-00M.COL___388                                                 6
 STAT SP IPHASW D HRMM SECON CODA AMPLIT PERI AZIMU VELO AIN AR TRES W  DIS CAZ7
 PAM  EZ EP     C  226 52.60                             150    0.2910 75.9  35 
 PAM  EN ES        227  8.84                             150   -0.2510 75.9  35 
 PAM  EZ I         227 12.17         2.4 0.38            151           75.9  35 
 BRR  HZ EP        226 51.48                             149   -0.2110 77.2 298 
 BRR  HN ES        227  8.33                             149    0.3510 77.2 298 
 RUS  HZ EP        226 53.63                             143   -0.1710 98.0 179 
 RUS  HN ES        227 11.80                             143    0.0610 98.0 179 
 RUS  HZ I         227 12.99         3.2 0.30            145           98.0 179 
 PTB  HZ EP   9    226 56.77                             129   -1.00 0  153 260 
 PTB  HN ES        227 17.20                             131   -0.60 9  153 260 
 PTB  HZ I         227 20.00         2.0 0.40            132            153 260 
 ZAR  HN ES        227 28.92                             120   -0.09 8  210 292 
                                                                                
