 2011  923 0653 48.8 L   6.439 -73.748 86.7  RSN  7 0.2 1.8LRSN                1
 GAP= 83        0.48       2.3     2.7  7.2  0.2494E+01  0.1361E+02  0.5154E+01E
 Epicentro: SANTA HELENA DEL OPON - SANTANDER                                  3
 ACTION:UPD 12-07-13 15:59 OP:ep   STATUS:               ID:20110923065348 L   I
 2011-09-23-0652-16S.COL___165                                                 6
 STAT SP IPHASW D HRMM SECON CODA AMPLIT PERI AZIMU VELO AIN AR TRES W  DIS CAZ7
 BAR2 SZ EP        654  3.64                             140   -0.1410 64.9  75 
 BAR2 SZ ES   1    654 15.34                             140   -0.15 7 64.9  75 
 BAR2 SZ I         654 18.95        33.9 0.32                          64.9  75 
 BRR  HZ EP   2    654  4.03                             136   -0.18 5 74.0   3 
 BRR  HZ I         654 19.12        54.4 0.10                          74.0   3 
 BTL  SZ EP   1    654  4.93                             136    0.30 7 75.1  45 
 RUS  HZ EP        654  6.97                             129    0.1610 95.2 129 
 RUS  HE ES   1    654 21.01                             129    0.14 7 95.2 129 
 RUS  HZ I         654 24.78         7.1 0.26                          95.2 129 
 ZAR  HZ EP        654 13.80                             112   -0.31 9  169 314 
 ZAR  HN ES   1    654 34.10                             112    0.22 7  169 314 
 ZAR  HZ I         654 37.88         7.1 0.29                           169 314 
 HEL  HZ EP   1    654 18.37                             109    0.36 6  199 262 
 HEL  HE ES   1    654 40.77                             109   -0.04 6  199 262 
 HEL  HZ I         654 44.50         3.4 0.31                           199 262 
 CHI  HZ EP   1    654 18.15                             109   -0.05 6  200 179 
 CHI  HE ES   1    654 40.89                             109   -0.26 6  200 179 
                                                                                
