 2017 1023 0044 45.0 L   6.668 -74.084  4.0  RSN  8 0.6 1.4LRSN                1
 GAP=149        1.01       2.6     2.1  5.1 -0.1924E+01  0.3772E+00  0.2935E+01E
 Epicentro: PUERTO PARRA - SANTANDER                                           3
 ACTION:UPD 17-11-07 19:35 OP:rebc STATUS:               ID:20171023004445 L   I
 OLDACT:REG 17-10-23 12:15 OP:dhb  STATUS:               ID:20171023003225     3
 2017-10-23-0038-00M.COL___405                                                 6
 STAT SP IPHASW D HRMM SECON CODA AMPLIT PERI AZIMU VELO AIN AR TRES W  DIS CAZ7
 PTB  HZ IP     D  044 51.94                              47   -0.2210 43.5 251 
 PTB  HN ES        044 57.91                              47    0.1310 43.5 251 
 PTB  HZ I         044 58.16        10.3 0.32             47           43.5 251 
 BRR  HZ IP     D  044 55.04                              47   -0.1410 63.6  40 
 BRR  HN ES        045  3.43                              47    0.2610 63.6  40 
 BRR  HZ I         045  4.81        13.0 0.12             47           63.6  40 
 BAR2 EZ EP        045  0.36                              47   -0.5910  100  95 
 BAR2 EZ ES        045 13.23                              47   -0.2110  100  95 
 BAR2 EZ I         045 18.79         6.1 0.08             47            100  95 
 SPBC HZ EP        045  3.05                              47    0.3910  112 179 
 SPBC HN ES        045 16.09                              47   -0.3810  112 179 
 SPBC HZ I         045 20.44         6.2 0.24             47            112 179 
 RUS  HZ EP        045  7.59                              47    0.31 9  140 128 
 RUS  HN ES        045 25.11                              47    0.42 9  140 128 
 RUS  HZ I         045 26.94        15.4 0.24             47            140 128 
 NOR  HN ES   3    045 24.87                              47   -1.66 2  150 215 
 NOR  HZ I         045 27.77         4.9 0.16             47            150 215 
 GUY2CHZ EP   3    045 20.15                              37    2.68 2  214 222 
 GUY2CHN ES        045 42.34                              37   -0.50 8  214 222 
 GUY2CHZ I         045 45.72         3.5 0.32                           214 222 
 ELA  HZ EP   3    045 23.69                              37    1.92 2  247 216 
 ELA  HE ES        045 51.07                              37    0.59 8  247 216 
 ELA  HZ I         045 56.50         3.5 0.40             37            247 216 
                                                                                
