 2010  823 0028 33.3 L   6.812 -73.046147.9  RSN 12 0.4 2.1LRSN                1
 GAP=170        0.97       3.8     8.6  7.0 -0.1349E+02  0.3075E+01  0.2249E+01E
 Epicentro: LOS SANTOS - SANTANDER                                             3
 ACTION:UP  10-09-07 10:57 OP:vdl  STATUS:               ID:20100823002833 L   I
 2010-08-23-0026-31S.COL___120                                                 6
 STAT SP IPHASW D HRMM SECON CODA AMPLIT PERI AZIMU VELO SNR AR TRES W  DIS CAZ7
 BAR2 SZ IP        028 53.45                             169     0.110   29 212 
 BAR2 SZ ES   1    029  8.58                             169    -0.3 7   29 212 
 BAR2 SZ I         029 10.07        35.0 0.38                            29 212 
 GIR2 SZ EP   2    028 53.41                             167     0.1 5   34 331 
 BRR  HZ IP     C  028 55.22                             151     0.010   81 294 
 BRR  HZ I         028 55.57        27.9 0.32                            81 294 
 BRR  HE ES   1    029 12.30                             151     0.0 7   81 294 
 RUS  HZ EP   1    028 57.38                             144     0.0 7  102 182 
 RUS  HE ES   1    029 16.08                             144     0.0 7  102 182 
 RUS  HZ I         029 16.82         9.9 0.23                           102 182 
 GUE  SZ IP        028 57.25                             141    -0.710  113   7 
 GRA  SZ IP        028 59.11                             138     0.710  122  13 
 GRA  SZ I         029  0.26        20.3 0.31                           122  13 
 GRA  SZ ES   1    029 18.21                             138     0.2 7  122  13 
 OCA  SZ IP        029  1.71                             130    -0.1 9  161 349 
 OCA  SZ ES   1    029 23.95                             130    -0.1 7  161 349 
 OCA  SZ I         029 27.94        20.8 0.17                           161 349 
 CHI  HZ EP   1    029 11.33                             117    -0.3 6  253 198 
 CHI  HN ES   2    029 41.03                             117    -0.4 4  253 198 
 CHI  HZ I         029 50.65         3.7 0.69                           253 198 
 ROSC BZ EP   1    029 13.22                             117     0.9 6  260 213 
 ROSC BN ES   2    029 43.33                                     0.6 4  260 213 
 ROSC BZ I         029 49.25         8.3 0.44                           260 213 
 HEL  HZ EP   2    029 14.47                             115    -0.4 4  283 256 
 HEL  HZ I         029 54.01         4.6 0.18                           283 256 
 RREF HZ EP   2    029 19.88                             111    -0.7 3  331 230 
 RREF HE ES   2    029 58.45                             111     1.0 3  331 230 
 RREF HZ I         030  5.15         5.9 0.45                           331 230 
 PRA  HZ EP   1    029 27.09                             107    -0.6 4  399 211 
 PRA  HN ES   1    030  9.73                             107    -0.4 4  399 211 
 PRA  HZ I         030 14.87         6.1 0.37                           399 211 
                                                                                
