 2010 1123 0817 14.5 L   6.845 -73.354108.7  RSN  4 0.3 1.0LRSN                1
 GAP=142        0.53      10.5    15.6 10.9  0.1372E+03 -0.7818E+02 -0.3694E+02E
 Epicentro: ZAPATOCA - SANTANDER                                               3
 ACTION:UP  10-12-17 16:54 OP:REBC STATUS:               ID:20101123081714 L   I
 2010-11-23-0814-14S.COL___132                                                 6
 STAT SP IPHASW D HRMM SECON CODA AMPLIT PERI AZIMU VELO SNR AR TRES W  DIS CAZ7
 BTL  SZ EP   1    817 29.42                             173     0.0 7   13  49 
 BAR2 SZ EP   2    817 30.53                             162     0.5 5   34 146 
 BAR2 SZ I         817 35.35         6.1 0.73                            34 146 
 BAR2 SZ ES   2    817 41.87                             162    -0.3 5   34 146 
 BRR  HZ EP   2    817 29.91                             154    -0.5 5   49 306 
 BRR  HN ES   1    817 42.89                             154     0.1 7   49 306 
 BRR  HZ I         817 43.96         1.8 0.16                            49 306 
 RUS  HE ES   2    817 52.05                             132     0.0 5  109 164 
                                                                                
