 2012  223 0745 59.2 L   6.720 -73.238155.1  RSN  4 0.2 1.2LRSN                1
 GAP=207        0.47       5.5     5.5  8.7  0.1412E+02 -0.1189E+02 -0.1373E+02E
 ACTION:UP  12-03-07 16:33 OP:epov STATUS:               ID:20120223074559 L   I
 2012-02-23-0740-00M.COL___191                                                 6
 STAT SP IPHASW D HRMM SECON CODA AMPLIT PERI AZIMU VELO AIN AR TRES W  DIS CAZ7
 BAR2 SZ EP   1    746 19.51                             174   -0.30 7 15.4 156 
 BAR2 SZ I         746 36.15         3.1 0.21                          15.4 156 
 BRR  HZ EP   1    746 21.44                             155    0.28 7 67.6 309 
 BRR  HZ I         746 21.68         3.9 0.15                          67.6 309 
 BRR  HE ES   1    746 38.28                             155   -0.02 7 67.6 309 
 RUS  HN ES   1    746 42.32                             148    0.11 7 93.0 169 
 RUS  HZ I         746 43.54         1.6 0.27                          93.0 169 
 PTB  HN ES   1    746 46.73                             136   -0.06 7  136 262 
                                                                                
