 2013  923 0157  4.1 L   7.474 -73.240132.2  RSN  8 0.4 1.8LRSN                1
 GAP=110        0.87       3.2     4.4  6.5 -0.1960E+01  0.7150E+01  0.3778E+01E
 Epicentro: EL PLAYON - SANTANDER                                              3
 ACTION:UPD 13-10-22 09:24 OP:ep   STATUS:               ID:20130923015704 L   I
 OLDACT:REG 13-09-23 07:35 OP:mher STATUS:               ID:20130923015000     3
 2013-09-23-0150-00M.COL___268                                                 6
 STAT SP IPHASW D HRMM SECON CODA AMPLIT PERI AZIMU VELO AIN AR TRES W  DIS CAZ7
 PAM  SZ EP        157 23.86                             154   -0.0610 61.5 104 
 PAM  SN ES   1    157 38.90                             154   -0.50 7 61.5 104 
 PAM  SZ I         157 41.68        11.6 0.30            157           61.5 104 
 BRR  HZ EP   1    157 23.56                             152    0.10 7 66.0 232 
 BRR  HN ES        157 38.86                             152    0.2810 66.0 232 
 BRR  HZ I         157 40.69        14.2 0.16            150           66.0 232 
 OCA  HZ EP   1    157 25.56                             145    0.67 7 85.0 354 
 OCA  HN ES        157 41.26                             145    0.1310 85.0 354 
 OCA  HZ I         157 43.78         8.5 0.18            149           85.0 354 
 PTB  HZ EP   1    157 32.05                             125   -0.04 7  170 232 
 PTB  HE ES   1    157 53.52                             125   -0.43 7  170 232 
 PTB  HZ I         157 56.60         6.9 0.18            125            170 232 
 SML  HZ EP   1    157 32.93                             124    0.52 7  173 328 
 SML  HN ES        157 53.84                             124   -0.68 9  173 328 
 ZAR  HZ EP   1    157 33.06                             123    0.06 7  179 271 
 ZAR  HN ES   1    157 55.83                             123    0.26 7  179 271 
 ZAR  HZ I         158  1.35         8.2 0.50            124            179 271 
 SPBC HZ EP   1    157 37.83                             117    0.18 6  222 205 
 SPBC HE ES   1    158  4.47                             117    0.63 6  222 205 
 SPBC HZ I         158 11.29         5.3 0.26            118            222 205 
 NOR  HZ EP   1    157 43.01                             111   -0.85 6  278 221 
 NOR  HE ES   1    158 14.35                             111   -0.55 6  278 221 
 NOR  HZ I         158 20.30         2.6 0.22            112            278 221 
                                                                                
