 2015  323 0209 46.9 L   6.123 -73.609111.9  RSN  7 0.5 1.4LRSN                1
 GAP=111        1.28       5.0     4.7  9.3 -0.7622E+01  0.1396E+02  0.2922E+01E
 Epicentro: LA PAZ - SANTANDER                                                 3
 ACTION:UPD 15-04-30 16:28 OP:nd   STATUS:               ID:20150323020946 L   I
 OLDACT:REG 15-03-23 12:57 OP:stll STATUS:               ID:20150323020739     3
 2015-03-23-0207-39M.COL___281                                                 6
 STAT SP IPHASW D HRMM SECON CODA AMPLIT PERI AZIMU VELO AIN AR TRES W  DIS CAZ7
 RUS  HZ EP        210  4.18                             149   -0.5210 63.5 114 
 RUS  HZ I         210  4.45         3.0 0.10            152           63.5 114 
 RUS  HN ES        210 18.48                             149   -0.1010 63.5 114 
 BAR2 EZ EP        210  5.00                             146    0.2210 70.2  42 
 BAR2 EZ ES        210 19.13                             146    0.4110 70.2  42 
 BAR2 EZ I         210 20.82        17.0 0.32            149           70.2  42 
 SPBC HZ EP        210  4.32                             144   -0.4610 73.1 225 
 SPBC HN ES        210 18.99                             144    0.2810 73.1 225 
 SPBC HZ I         210 20.54         9.4 0.50            146           73.1 225 
 PTB  HE ES        210 22.02                             134   -1.0010  104 296 
 BRR  HZ EP        210  7.73                             132    0.1110  109 354 
 BRR  HN ES        210 24.18                             132    0.4110  109 354 
 NOR  HZ EP        210 11.99                             122    0.08 9  153 246 
 NOR  HN ES        210 31.26                             122   -0.14 9  153 246 
 NOR  HZ I         210 35.05         5.2 0.22            124            153 246 
 GUY2CHZ EP        210 19.44                             112   -0.17 8  218 243 
 GUY2CHN ES        210 46.30                             112    1.19 8  218 243 
 GUY2CHZ I         210 53.16         1.6 0.78                           218 243 
                                                                                
