 2010  523 0307 37.7 L   6.792 -73.128128.5  RSN 10 0.6 2.4LRSN                1
 GAP=176        1.01       6.3    11.6 12.3 -0.4773E+02  0.3140E+02  0.9664E+01E
 Epicentro: LOS SANTOS - SANTANDER                                             3
 ACTION:UP  10-08-24 10:06 OP:vdl  STATUS:               ID:20100523030737 L   I
 2010-05-23-0306-55S.COL___111                                                 6
 STAT SP IPHASW D HRMM SECON CODA AMPLIT PERI AZIMU VELO SNR AR TRES W  DIS CAZ7
 BAR2 SZ EP   2    3 7 55.69                             169     0.4 5   23 195 
 BAR2 SZ ES   2    3 8  8.50                             169    -0.5 5   23 195 
 BRI  SZ EP   1    3 8  0.91                             138     0.9 7  109  20 
 GUE  SZ EP   1    3 7 59.74                             135    -1.2 7  117  11 
 GRA  SZ EP   1    3 8  1.41                             133    -0.1 7  126  16 
 GRA  SZ ES   2    3 8 20.97                             133     0.9 5  126  16 
 OCA  SZ EP   2    3 8  4.68                             125    -0.2 5  161 352 
 OCA  SZ ES   2    3 8 25.86                             125    -0.2 5  161 352 
 OCA  SZ I         3 8 34.44        26.2 0.21                           161 352 
 CHI  HZ EP   1    3 8 14.03                             113    -0.5 6  248 196 
 CHI  HE ES   2    3 8 43.30                             113     0.1 4  248 196 
 CHI  HZ I         3 8 47.21        14.1 0.67                           248 196 
 ROSC BZ EP   2    3 8 15.87                             113     0.9 4  253 212 
 ROSC BE ES   2    3 8 44.07                             113     0.0 4  253 212 
 ROSC BZ I         3 8 50.55        23.7 0.32                           253 212 
 HEL  HZ EP   2    3 8 17.55                             111     0.2 4  274 256 
 HEL  HN ES   2    3 8 47.90                             111    -0.3 4  274 256 
 HEL  HZ I         3 8 54.36         9.1 0.31                           274 256 
 RREF BZ EP   1    3 8 23.68                             107     0.4 5  323 230 
 RREF BE ES   2    3 8 59.27                             107     0.4 3  323 230 
 RREF BZ I         3 9  5.42        11.7 0.44                           323 230 
 PRA  HZ EP   1    3 8 30.23                             104    -0.5 4  392 210 
 PRA  HN ES   2    3 9 12.26                             104     0.2 3  392 210 
 PRA  HZ I         3 9 16.09        14.8 0.75                           392 210 
                                                                                
