 2015  523 0933 59.4 L   6.819 -73.119141.7  RSN 15 0.4 2.2LRSN                1
 GAP=114        0.92       2.8     3.6  5.3 -0.1232E+01  0.2691E+01  0.8656E+00E
 Epicentro: LOS SANTOS - SANTANDER                                             3
 ACTION:UPD 15-09-10 22:06 OP:cam  STATUS:               ID:20150523093359 L   I
 OLDACT:REG 15-05-23 12:45 OP:spq  STATUS:               ID:20150523092749     3
 2015-05-23-0927-49M.COL___294                                                 6
 STAT SP IPHASW D HRMM SECON CODA AMPLIT PERI AZIMU VELO AIN AR TRES W  DIS CAZ7
 BAR2 EZ EP        934 18.61                             169    0.0310 26.0 196 
 BAR2 EZ ES   1    934 33.34                             169   -0.22 7 26.0 196 
 BAR2 EZ I         934 34.50        52.0 0.23            168           26.0 196 
 BRR  HZ EP     C  934 20.46                             151    0.2710 72.9 296 
 BRR  HN ES        934 37.12                             151    0.7010 72.9 296 
 BRR  HZ I         934 38.16        37.4 0.24            150           72.9 296 
 RUS  HZ EP   1    934 22.40                             142   -0.47 7  102 178 
 RUS  HE ES   1    934 41.04                             142   -0.16 7  102 178 
 RUS  HZ I         934 42.85        20.6 0.40            143            102 178 
 TAM  HZ EP     D  934 27.03                             130    0.50 9  153 106 
 OCA  HZ EP        934 27.13                             129   -0.09 9  159 352 
 OCA  HN ES        934 48.33                             129   -0.60 9  159 352 
 OCA  HZ I         934 51.70        43.7 0.26            131            159 352 
 SPBC HZ EP        934 27.71                             128   -0.19 9  167 219 
 SPBC HN ES        934 49.86                             128   -0.29 9  167 219 
 SPBC HZ I         934 56.04        28.3 0.34            128            167 219 
 ZAR  HZ EP        934 31.50                             121   -0.27 8  206 291 
 ZAR  HN ES        934 57.39                             121    0.36 8  206 291 
 ZAR  HZ I         934 59.98        17.4 0.16            122            206 291 
 NOR  HZ EP        934 34.93                             117   -0.33 8  238 234 
 NOR  HE ES        935  3.06                             117   -0.19 8  238 234 
 NOR  HZ I         935  5.38        17.8 0.25            118            238 234 
 SML  HZ EP   1    934 35.25                             117   -0.46 6  243 334 
 SML  HN ES   1    935  3.96                             117   -0.09 6  243 334 
 SML  HZ I         935  7.61        15.3 0.10            118            243 334 
 HEL  HZ EP        934 40.49                             114    0.73 7  275 256 
 HEL  HE ES   1    935 10.80                             114   -0.46 6  275 256 
 HEL  HZ I         935 17.66         7.2 0.26            114            275 256 
 GUY2CHZ EP        934 43.44                             111    0.23 7  305 235 
 GUY2CHE ES   1    935 18.31                             111    0.91 5  305 235 
 GUY2CHZ I         935 24.10        10.4 0.28                           305 235 
 CBOC HZ EP   1    934 47.09                             109    0.57 5  337 252 
 CBOC HN ES        935 22.55                             109   -0.74 7  337 252 
 CBOC HZ I         935 25.79         3.4 0.46            109            337 252 
 MON  HZ EP   4    934 46.43                             108   -1.92 0  355 308 
 MON  HN ES   4    935 25.12                             108   -1.42 0  355 308 
 MON  HZ I         935 25.57         4.4 0.18            109            355 308 
 ORTC HZ EP   1    934 53.77                             106    0.21 4  399 216 
 ORTC HN ES   4    935 37.02                             106    1.20 0  399 216 
 ORTC HZ I         935 42.88         3.4 0.30            106            399 216 
 SJC  HZ EP   4    934 53.46                             105   -1.34 0  409 326 
 SJC  HN ES   4    935 34.74                             105   -3.28 0  409 326 
 SJC  HZ I         935 37.84         2.0 0.38            106            409 326 
                                                                                
