 2011  823 0623 45.0 L   6.787 -73.123143.7  RSN 11 0.4 3.1LRSN                1
 GAP=185        0.75       3.6     6.5  5.5 -0.1243E+01  0.1270E+02  0.3517E+01E
 Epicentro: LOS SANTOS - SANTANDER                                             3
 ACTION:UPD 12-07-13 15:53 OP:ep   STATUS:               ID:20110823062345 L   I
 2011-08-23-0622-11S.COL___158                                                 6
 STAT SP IPHASW D HRMM SECON CODA AMPLIT PERI AZIMU VELO AIN AR TRES W  DIS CAZ7
 BAR2 SZ IP        624  4.62                             171    0.2310 22.5 197 
 BAR2 SZ I         624  4.83       328.9 0.20                          22.5 197 
 BAR2 SZ ES   1    624 18.70                             171   -0.79 7 22.5 197 
 BRR  HZ EP   1    624  6.57                             151    0.45 7 74.1 299 
 BRR  HZ I         624  6.92       492.5 0.11                          74.1 299 
 BRR  HE ES   1    624 23.27                             151    0.70 7 74.1 299 
 RUS  HZ EP   1    624  8.48                             144    0.03 7 99.0 177 
 RUS  HZ I         624  9.29        72.6 0.17                          99.0 177 
 RUS  HE ES   1    624 26.85                             144    0.12 7 99.0 177 
 OCA  SZ EP   1    624 13.32                             129   -0.02 7  162 352 
 OCA  SZ ES   1    624 34.91                             129   -0.52 7  162 352 
 OCA  SZ I         624 40.30       118.6 0.26                           162 352 
 NOR  SZ EP   1    624 20.54                             118   -0.22 6  236 235 
 NOR  SN ES   1    624 48.34                             118   -0.29 6  236 235 
 CHI  HZ EP   1    624 22.78                             117    0.26 6  248 196 
 CHI  HZ I         625  0.41        33.3 0.27                           248 196 
 HEL  HZ EP   1    624 24.93                             114   -0.43 6  274 256 
 HEL  HZ I         625  3.88        76.3 0.73                           274 256 
 GUY  SZ EP        624 29.01                             112    0.08 7  305 236 
 GUY  SZ I         625 12.05       108.2 0.28                           305 236 
 RREF HZ EP   1    624 31.39                             110    0.21 5  323 230 
 RREF HZ I         625 15.87        64.1 0.37                           323 230 
 ANIL HZ EP   1    624 34.23                             108   -0.60 5  358 225 
 PRA  HZ EP   1    624 38.51                             106    0.05 4  392 210 
                                                                                
