 2011  123 0937 30.3 L   6.788 -73.131144.0  RSN  9 0.2 1.8LRSN                1
 GAP=160        0.59       2.5     5.3  5.3 -0.5412E+01  0.9788E+01 -0.3424E+00E
 Epicentro: LOS SANTOS - SANTANDER                                             3
 ACTION:UP  11-02-08 08:42 OP:pat  STATUS:               ID:20110123093730 L   I
 2011-01-23-0935-27S.COL___138                                                 6
 STAT SP IPHASW D HRMM SECON CODA AMPLIT PERI AZIMU VELO SNR AR TRES W  DIS CAZ7
 BTL  SZ IP        937 49.84                             171     0.210   21 314 
 BAR2 SZ EP   1    937 49.44                             171    -0.2 7   22 195 
 BAR2 SZ ES   1    938  4.83                             171     0.0 7   22 195 
 BAR2 SZ I         938  5.99        29.7 0.08                            22 195 
 RUS  HZ EP   1    937 53.41                             144    -0.3 7   99 177 
 RUS  HE ES   1    938 12.08                             144     0.0 7   99 177 
 RUS  HZ I         938 13.75         9.1 0.26                            99 177 
 GRA  SZ EP   1    937 55.35                             136    -0.1 7  127  17 
 GRA  SZ ES   1    938 14.89                             136    -0.1 7  127  17 
 GRA  SZ I         938 16.46         6.5 0.55                           127  17 
 OCA  SZ EP   1    937 58.36                             129    -0.2 7  162 353 
 OCA  SZ ES   1    938 20.86                             129     0.2 7  162 353 
 OCA  SZ I         938 24.72         8.2 0.22                           162 353 
 NOR  SN ES   1    938 33.48                             118    -0.3 6  235 235 
 CHI  HZ EP   1    938  7.39                             117    -0.4 6  248 196 
 CHI  HZ I         938  8.56         3.6 0.16                           248 196 
 CHI  HE ES   1    938 37.18                             117     0.2 6  248 196 
 ROSC BZ EP        938  8.73                             116     0.5 8  252 211 
 ROSC BZ I         938 45.00         8.1 0.31                           252 211 
 HEL  HZ EP   2    938 10.80                             114     0.3 4  273 256 
 HEL  HE ES   2    938 41.69                             114    -0.2 4  273 256 
 HEL  HZ I         938 47.20         2.4 0.22                           273 256 
                                                                                
