 2014  623 0857 47.2 L   6.089 -73.711112.2  RSN  7 0.6 1.4LRSN                1
 GAP=112        1.43       6.6     5.0 11.4 -0.6878E+01  0.2608E+02 -0.2759E+02E
 Epicentro: BOLIVAR - SANTANDER                                                3
 ACTION:UPD 14-07-01 22:56 OP:nd   STATUS:               ID:20140623085747 L   I
 OLDACT:REG 14-06-23 13:55 OP:spq  STATUS:               ID:20140623084812     3
 2014-06-23-0848-12M.COL___256                                                 6
 STAT SP IPHASW D HRMM SECON CODA AMPLIT PERI AZIMU VELO AIN AR TRES W  DIS CAZ7
 SPBC HZ EP        858  4.35                             149   -0.0610 62.7 220 
 SPBC HN ES        858 18.25                             149    0.4210 62.7 220 
 SPBC HZ I         858 20.07         9.6 0.38            149           62.7 220 
 RUS  HE ES        858 19.44                             145   -0.6110 72.8 107 
 RUS  HZ I         858 23.30         4.3 0.40            149           72.8 107 
 BAR2 SZ EP        858  5.97                             142    0.0910 80.8  46 
 BAR2 SZ ES        858 21.07                             142    0.6210 80.8  46 
 PTB  HZ EP        858  6.08                             136   -0.7410 96.4 301 
 PTB  HN ES        858 21.33                             136   -0.7910 96.4 301 
 PTB  HZ I         858 24.24         5.1 0.10            138           96.4 301 
 NOR  HN ES        858 30.44                             124    0.85 9  141 246 
 NOR  HZ I         858 32.29         7.0 0.60            126            141 246 
 ZAR  HZ EP        858 17.81                             114    0.50 9  200 321 
 ZAR  HN ES        858 41.40                             114    0.60 9  200 321 
 ZAR  HZ I         858 42.77         3.1 0.24            117            200 321 
 HEL  HZ EP        858 17.74                             114   -0.15 9  202 273 
 HEL  HN ES        858 41.33                             114   -0.50 9  202 273 
 HEL  HZ I         858 46.80         1.8 0.26            116            202 273 
                                                                                
