 2013  423 0746 41.7 L   6.803 -73.150143.1  RSN  6 0.4 1.7LRSN                1
 GAP=185        0.85       5.7     6.2  7.8  0.9884E+01  0.2442E+01  0.1177E+01E
 Epicentro: LOS SANTOS - SANTANDER                                             3
 ACTION:UPD 13-05-22 14:40 OP:EP   STATUS:               ID:20130423074641 L   I
 2013-04-23-0740-00M.COL___249                                                 6
 STAT SP IPHASW D HRMM SECON CODA AMPLIT PERI AZIMU VELO AIN AR TRES W  DIS CAZ7
 BAR2 SZ EP   1    747  1.12                             170    0.12 7 23.6 189 
 BAR2 SZ ES        747 16.45                             170    0.3910 23.6 189 
 BAR2 SZ I         747 17.37        11.1 0.18            170           23.6 189 
 GIR2 SZ EP   1    747  1.41                             167    0.39 7 30.8 351 
 GIR2 SZ ES   1    747 15.32                             167   -0.79 7 30.8 351 
 GIR2 SZ I         747 17.93         5.0 0.34            164           30.8 351 
 BRR  HZ EP   1    747  2.86                             152    0.36 7 70.6 298 
 BRR  HN ES        747 18.98                             152    0.2310 70.6 298 
 BRR  HN I         747 24.44        10.8 0.36            148           70.6 298 
 RUS  HZ EP   1    747  4.86                             143   -0.34 7  101 176 
 RUS  HN ES   1    747 23.28                             143   -0.27 7  101 176 
 RUS  HN I         747 25.60         5.1 0.40            145            101 176 
 PTB  HN ES        747 29.01                             132   -0.22 9  147 259 
 PTB  HN I         747 34.54        12.3 0.36            130            147 259 
 SML  HN ES   2    747 45.68                             117   -0.82 4  243 335 
 SML  HN I         747 52.09        10.7 0.28            116            243 335 
                                                                                
