 2017 1123 0721 49.4 L   6.776 -73.150139.7  RSN  5 0.2 1.0LRSN                1
 GAP=137        0.61       3.2     2.9  5.1 -0.3091E+00  0.4755E+01 -0.1453E+01E
 Epicentro: LOS SANTOS - SANTANDER                                             3
 ACTION:UPD 17-12-12 19:59 OP:rebc STATUS:               ID:20171123072149 L   I
 OLDACT:REG 17-11-23 13:12 OP:osc  STATUS:               ID:20171123071738     3
 2017-11-23-0718-00M.COL___471                                                 6
 STAT SP IPHASW D HRMM SECON CODA AMPLIT PERI AZIMU VELO AIN AR TRES W  DIS CAZ7
 BAR2 EZ EP        722  8.09                             171   -0.1210 20.6 190 
 BAR2 EZ ES        722 22.85                             171   -0.0710 20.6 190 
 BAR2 EZ I         722 25.23         4.9 0.32            170           20.6 190 
 PAM  EZ EP        722 11.15                             149    0.0610 79.8  39 
 PAM  EE ES        722 27.96                             149   -0.0710 79.8  39 
 PAM  EZ I         722 29.21         2.4 0.18            154           79.8  39 
 RUS  HZ EP        722 12.18                             143   -0.1510 97.9 176 
 RUS  HE ES        722 30.59                             143    0.3510 97.9 176 
 RUS  HZ I         722 32.96         0.8 0.28            145           97.9 176 
 PTB  HZ EP        722 15.79                             131    0.04 9  147 260 
 PTB  HN ES        722 35.96                             131   -0.38 9  147 260 
 PTB  HZ I         722 41.47         1.4 0.44            132            147 260 
 ZAR  HN ES        722 46.95                             121    0.41 9  205 293 
                                                                                
