 2013  623 0614 42.5 L   6.786 -73.128155.9  RSN  7 0.5 2.0LRSN                1
 GAP=185        1.18       4.7     7.7  8.5 -0.9191E+00  0.9005E+01 -0.4448E+01E
 Epicentro: LOS SANTOS - SANTANDER                                             3
 ACTION:UPD 14-01-08 09:56 OP:ep   STATUS:               ID:20130623061442 L   I
 OLDACT:REG 13-06-23 10:24 OP:carl STATUS:               ID:20130623060959     3
 2013-06-23-0609-59M.COL___267                                                 6
 STAT SP IPHASW D HRMM SECON CODA AMPLIT PERI AZIMU VELO AIN AR TRES W  DIS CAZ7
 BAR2 SZ EP        615  3.36                             171    0.0210 22.2 196 
 BAR2 SZ ES        615 19.30                             171   -0.2910 22.2 196 
 BAR2 SZ I         615 20.18         6.7 0.48            168           22.2 196 
 BRR  HZ EP        615  5.39                             153    0.4910 73.6 299 
 BRR  HN ES        615 22.98                             153    0.6210 73.6 299 
 BRR  HN I         615 26.05        17.3 0.16            149           73.6 299 
 RUS  HZ EP        615  7.72                             146    0.5610 98.9 177 
 RUS  HN ES   1    615 25.46                             146   -0.93 7 98.9 177 
 PTB  HZ EP        615 10.10                             134   -0.37 9  149 260 
 PTB  HN ES   1    615 31.66                             134   -0.61 7  149 260 
 PTB  HZ I         615 37.30         5.7 0.20            131            149 260 
 OCA  HN ES        615 34.75                             131    0.12 9  162 353 
 OCA  HN I         615 36.35        18.7 0.14            132            162 353 
 NOR  HE ES        615 47.67                             120    0.35 8  235 235 
 NOR  HE I         615 52.69        10.6 0.22            120            235 235 
 SML  HZ EP        615 19.49                             119   -0.47 8  246 335 
 SML  HN ES   1    615 48.32                             119   -0.85 6  246 335 
 SML  HZ I         615 51.97         7.8 0.24            119            246 335 
                                                                                
