 2017 1023 0934 44.6 L   6.705 -73.191141.0  RSN  8 0.5 1.4LRSN                1
 GAP=200        1.14       5.2     5.6  7.2  0.1623E+02  0.9487E+01  0.1073E+02E
 Epicentro: VILLANUEVA - SANTANDER                                             3
 ACTION:UPD 17-11-07 19:35 OP:rebc STATUS:               ID:20171023093444 L   I
 OLDACT:UP  17-10-23 18:27 OP:edw  STATUS:               ID:20171023092739d    3
 OLDACT:UP  17-10-23 18:25 OP:edw  STATUS:               ID:20171023092739d    3
 OLDACT:DUP 17-10-23 17:48 OP:edw  STATUS:               ID:20171023092739d    3
 OLDACT:REG 17-10-23 13:01 OP:dhb  STATUS:               ID:20171023092738     3
 2017-10-23-0928-00M.COL___381                                                 6
 STAT SP IPHASW D HRMM SECON CODA AMPLIT PERI AZIMU VELO AIN AR TRES W  DIS CAZ7
 BAR2 EZ EP        935  3.15                             175   -0.3110 12.5 175 
 BAR2 EZ ES        935 18.46                             175    0.2710 12.5 175 
 BAR2 EZ I         935 19.08         7.8 0.42            172           12.5 175 
 BRR  HZ EP        935  5.10                             151   -0.2010 72.7 308 
 BRR  HN ES        935 21.77                             151    0.3010 72.7 308 
 RUS  HZ EP        935  7.31                             146    0.1510 90.6 172 
 RUS  HN ES        935 24.97                             146    0.2010 90.6 172 
 RUS  HZ I         935 26.92         3.0 0.44            145           90.6 172 
 PTB  HZ EP        935  9.98                             133   -0.57 9  141 263 
 PTB  HN ES        935 30.78                             133   -0.03 9  141 263 
 PTB  HZ I         935 33.43         1.3 0.12            131            141 263 
 YPLC HZ EP        935 13.60                             127    0.21 9  170 148 
 YPLC HN ES        935 35.78                             127   -0.08 9  170 148 
 YPLC HZ I         935 38.48         2.4 0.26            127            170 148 
 ZAR  HZ EP   1    935 17.24                             122    0.56 6  204 295 
 ZAR  HN ES        935 41.48                             122   -0.24 9  204 295 
 ZAR  HZ I         935 46.27         2.4 0.24            121            204 295 
 CHI  HN ES        935 47.80                             117   -1.20 8  237 195 
 PRA  HZ EP        935 37.26                             106    0.69 6  380 210 
 PRA  HE ES        936 18.48                             106    1.35 6  380 210 
 PRA  HZ I         936 23.23         1.3 0.30            106            380 210 
                                                                                
