 2012  923 0437 42.9 L   6.820 -73.133142.9  RSN 10 0.4 2.7LRSN                1
 GAP= 71        0.70       3.5     2.8  5.4  0.8019E+00  0.2434E+01  0.5466E+01E
 Epicentro: LOS SANTOS - SANTANDER                                             3
 ACTION:UPD 12-10-22 14:20 OP:ep   STATUS:               ID:20120923043742 L   I
 2012-09-23-0430-00M.COL___221                                                 6
 STAT SP IPHASW D HRMM SECON CODA AMPLIT PERI AZIMU VELO AIN AR TRES W  DIS CAZ7
 BAR2 SZ EP        438  2.19                             169   -0.0210 25.8 192 
 GIR2 SZ EP        438  1.99                             168   -0.1610 29.3 347 
 GIR2 SZ ES   1    438 16.96                             168   -0.24 7 29.3 347 
 BRR  HZ EP        438  3.79                             152    0.0710 71.4 296 
 BRR  HN ES   1    438 20.58                             152    0.59 7 71.4 296 
 BRR  HN I         438 21.28       157.6 0.26                          71.4 296 
 PAM  SZ EP        438  4.79                             151    0.1610 74.8  40 
 PAM  SZ I         438  5.06        71.1 0.20                          74.8  40 
 PAM  SN ES   1    438 21.55                             151   -0.05 7 74.8  40 
 RUS  HZ EP        438  6.21                             143   -0.2910  103 177 
 RUS  HN ES   1    438 24.74                             143   -0.19 7  103 177 
 PTB  HN ES   1    438 30.33                             131   -0.42 7  150 258 
 PTB  HN I         438 31.80        53.9 0.28                           150 258 
 TAM  HZ EP   1    438 10.04                             130   -0.22 7  154 106 
 TAM  HN ES   1    438 32.18                             130    0.56 7  154 106 
 ZAR  HZ EP   1    438 14.59                             122   -0.59 6  204 291 
 ZAR  HN ES   1    438 40.19                             122   -0.19 6  204 291 
 ZAR  HN I         438 45.82        92.2 0.38                           204 291 
 CHI  HZ EP   1    438 20.92                             116    0.23 6  251 195 
 CHI  HN ES   1    438 50.25                             116    0.07 6  251 195 
 CHI  HN I         438 53.28        22.3 0.32                           251 195 
 HEL  HZ EP   1    438 23.67                             114    0.52 6  274 255 
 HEL  HN ES   1    438 55.42                             114    0.86 6  274 255 
 HEL  HN I         439  1.64        19.7 0.38                           274 255 
                                                                                
