 2013  423 0512 51.4 L   6.761 -73.057138.7  RSN  7 0.3 1.7LRSN                1
 GAP=150        0.55       3.5     3.5  5.0 -0.2740E+01  0.5828E+01  0.1011E+01E
 Epicentro: LOS SANTOS - SANTANDER                                             3
 ACTION:UPD 13-05-22 14:40 OP:EP   STATUS:               ID:20130423051252dL   I
 2013-04-23-0510-00M.COL___249                                                 6
 STAT SP IPHASW D HRMM SECON CODA AMPLIT PERI AZIMU VELO AIN AR TRES W  DIS CAZ7
 BAR2 SZ EP        513 10.01                             170   -0.1710 23.2 217 
 BAR2 SZ ES        513 24.69                             170   -0.1410 23.2 217 
 BAR2 SZ I         513 26.15        10.8 0.18            167           23.2 217 
 PAM  SZ EP   1    513 12.95                             150    0.22 7 75.2  32 
 PAM  SN ES        513 29.57                             150    0.2010 75.2  32 
 PAM  SN I         513 30.65         5.0 0.26            149           75.2  32 
 BRR  HZ EP   1    513 12.07                             148   -0.38 7 81.9 298 
 BRR  HN ES   1    513 28.76                             148   -0.12 7 81.9 298 
 BRR  HN I         513 28.96        15.7 0.26            142           81.9 298 
 RUS  HZ EP   1    513 13.99                             144   -0.14 7 96.1 182 
 RUS  HN ES   2    513 32.39                             144    0.53 5 96.1 182 
 RUS  HN I         513 34.07         4.4 0.28            142           96.1 182 
 PTB  HZ EP   4    513 16.67                             129   -1.97 0  157 261 
 PTB  HN ES   4    513 37.68                             129   -2.21 0  157 261 
 PTB  HN I         513 43.08         7.7 0.72            125            157 261 
 SML  HN ES   2    513 57.52                             115    0.02 4  252 334 
 SML  HN I         514  5.02        10.0 0.10            112            252 334 
 HEL  HE ES        514  4.44                             113    0.38 7  281 257 
 HEL  HE I         514 10.92         1.8 0.22            110            281 257 
                                                                                
