 2017 1023 0046  7.6 L   6.648 -74.068 12.5  RSN  5 0.1 0.9LRSN                1
 GAP=127        0.38       1.1     0.8  9.9  0.1410E+00 -0.3033E+01 -0.1332E+01E
 Epicentro: PUERTO PARRA - SANTANDER                                           3
 ACTION:UPD 17-11-07 19:35 OP:rebc STATUS:               ID:20171023004607 L   I
 OLDACT:DUP 17-10-23 13:41 OP:dhb  STATUS:               ID:20171023003226d    3
 OLDACT:REG 17-10-23 12:15 OP:dhb  STATUS:               ID:20171023003225     3
 2017-10-23-0038-00M.COL___405                                                 6
 STAT SP IPHASW D HRMM SECON CODA AMPLIT PERI AZIMU VELO AIN AR TRES W  DIS CAZ7
 PTB  HZ IP     D  046 15.00                             102   -0.1010 44.6 254 
 PTB  HN ES        046 21.03                             102    0.0810 44.6 254 
 PTB  HZ I         046 25.08         3.8 0.07            110           44.6 254 
 BRR  HZ IP     C  046 18.14                              98    0.1410 64.2  38 
 BRR  HE ES        046 26.14                              98    0.0210 64.2  38 
 BRR  HZ I         046 27.07         8.9 0.10            105           64.2  38 
 BAR2 EZ EP        046 23.35                              95   -0.0110 98.1  94 
 BAR2 EZ ES        046 35.61                              95   -0.0410 98.1  94 
 BAR2 EZ I         046 36.65         2.3 0.13            100           98.1  94 
 ZAR  HZ EP        046 27.72                              94    0.1210  128 317 
 ZAR  HN ES        046 43.01                              94   -0.2010  128 317 
 ZAR  HZ I         046 44.71         3.5 0.16             56            128 317 
 RUS  HZ EP   1    046 29.79                              94    0.25 7  137 127 
 RUS  HN ES        046 46.52                              94   -0.14 9  137 127 
                                                                                
