 2017 1023 0125 12.4 L   6.662 -74.091  4.0  RSN 13 0.7 1.7LRSN                1
 GAP= 83        1.41       2.6     2.2  5.9 -0.1402E+01  0.4024E+00  0.2143E+01E
 Epicentro: PUERTO PARRA - SANTANDER                                           3
 ACTION:UPD 17-11-07 19:35 OP:rebc STATUS:               ID:20171023012512 L   I
 OLDACT:REG 17-10-23 12:17 OP:dhb  STATUS:               ID:20171023011739     3
 2017-10-23-0118-00M.COL___408                                                 6
 STAT SP IPHASW D HRMM SECON CODA AMPLIT PERI AZIMU VELO AIN AR TRES W  DIS CAZ7
 PTB  HZ IP     D  125 19.35                              47   -0.0910 42.6 251 
 PTB  HN ES        125 25.26                              47    0.3110 42.6 251 
 PTB  HZ I         125 25.45        32.6 0.26             47           42.6 251 
 BRR  HZ IP     D  125 22.43                              47   -0.3410 64.7  40 
 BRR  HE ES        125 30.82                              47   -0.0610 64.7  40 
 BRR  HZ I         125 31.46        44.8 0.10             47           64.7  40 
 BAR2 EZ IP     D  125 27.80                              47   -0.7010  101  94 
 BAR2 EZ ES        125 40.88                              47   -0.1810  101  94 
 BAR2 EZ I         125 46.22        11.4 0.21             47            101  94 
 SPBC HZ EP        125 30.67                              47    0.6810  112 179 
 SPBC HE ES        125 43.94                              47    0.2210  112 179 
 SPBC HZ I         125 45.79         9.9 0.20             47            112 179 
 ZAR  HZ EP        125 31.93                              47    0.0210  125 317 
 ZAR  HN ES        125 47.26                              47    0.1110  125 317 
 ZAR  HZ I         125 48.42        19.4 0.10             47            125 317 
 RUS  HZ EP        125 34.48                              47   -0.26 9  140 127 
 RUS  HE ES        125 52.51                              47    0.33 9  140 127 
 RUS  HZ I         125 54.36        26.6 0.22             47            140 127 
 NOR  HZ EP        125 36.43                              47    0.84 9  149 215 
 NOR  HE ES        125 52.08                              47   -1.61 9  149 215 
 NOR  HZ I         125 56.49         7.5 0.14             47            149 215 
 PAM  EZ EP        125 39.23                              47   -0.17 9  171  64 
 PAM  EN ES        126  1.05                              47    0.57 9  171  64 
 PAM  EZ I         126  2.35        17.6 0.30             47            171  64 
 URE  HE ES   4    126  7.20                              37    1.00 0  200 307 
 URE  HZ I         126 10.57        10.8 0.08             37            200 307 
 GUY2CHZ EP        125 44.93                              37    0.15 8  212 222 
 GUY2CHE ES        126  9.88                              37   -0.16 8  212 222 
 GUY2CHZ I         126 13.30         6.9 0.60                           212 222 
 YPLC HZ EP   3    125 51.38                              37    4.21 2  235 126 
 YPLC HE ES   4    126 19.56                              37    5.26 0  235 126 
 YPLC HZ I         126 23.23         5.8 0.26             37            235 126 
 ELA  HZ EP   4    125 54.83                              37    5.76 0  246 216 
 ELA  HN ES        126 18.00                              37    0.31 8  246 216 
 ELA  HZ I         126 24.09         6.4 0.40             37            246 216 
 PRA  HZ EP   4    126  9.89                              36   10.06 0  338 195 
 PRA  HE ES   4    126 43.00                              36    6.16 0  338 195 
 PRA  HZ I         126 54.62         1.8 0.56             36            338 195 
                                                                                
