 2013 1023 0856  8.8 L   6.797 -73.155145.3  RSN  9 0.5 1.9LRSN                1
 GAP=136        1.33       3.9     5.5  7.5 -0.1742E+01  0.7583E+01  0.1948E+01E
 Epicentro: LOS SANTOS - SANTANDER                                             3
 ACTION:UPD 13-11-25 09:23 OP:ep   STATUS:               ID:20131023085608 L   I
 OLDACT:REG 13-10-23 08:31 OP:carl STATUS:               ID:20131023084837     3
 2013-10-23-0848-37M.COL___225                                                 6
 STAT SP IPHASW D HRMM SECON CODA AMPLIT PERI AZIMU VELO AIN AR TRES W  DIS CAZ7
 BAR2 SZ EP        856 28.61                             171    0.2310 22.8 188 
 BAR2 SZ ES        856 43.67                             171    0.0310 22.8 188 
 BAR2 SZ I         856 45.03        40.1 0.20            168           22.8 188 
 BRR  HZ EP        856 30.43                             153    0.5610 70.5 299 
 BRR  HN ES        856 47.40                             153    1.1010 70.5 299 
 BRR  HZ I         856 48.21        15.0 0.46            151           70.5 299 
 PAM  SZ EP        856 31.35                             150    0.3110 78.3  40 
 PAM  SN ES        856 48.09                             150   -0.2810 78.3  40 
 RUS  HZ EP        856 32.55                             144    0.0510  100 175 
 RUS  HN ES        856 50.67                             144   -0.3110  100 175 
 RUS  HZ I         856 52.58         9.5 0.26            144            100 175 
 PTB  HZ EP        856 35.54                             132   -0.11 9  147 259 
 PTB  HN ES        856 55.86                             132   -0.72 9  147 259 
 PTB  HZ I         856 59.66         7.7 0.12            131            147 259 
 OCA  HZ EP        856 35.92                             129   -1.19 9  160 354 
 OCA  HE ES        856 58.88                             129   -0.30 9  160 354 
 OCA  HZ I         857  2.47        10.6 0.16            131            160 354 
 SPBC HZ EP        856 37.37                             129    0.18 9  162 219 
 SPBC HN ES        856 58.67                             129   -0.66 9  162 219 
 SPBC HZ I         857  5.86         7.3 0.20            128            162 219 
 ZAR  HZ EP        856 41.72                             122    0.58 9  203 292 
 ZAR  HN ES        857  6.24                             122   -0.12 9  203 292 
 ZAR  HZ I         857 12.22         7.1 0.34            122            203 292 
 CHI  HZ EP        856 46.76                             117    0.34 8  248 195 
 CHI  HN ES        857 15.95                             117    0.19 8  248 195 
 CHI  HZ I         857 23.06         4.1 0.54            117            248 195 
                                                                                
