 2015  323 0632 33.5 L   6.811 -73.167145.1  RSN  6 0.1 1.0LRSN                1
 GAP=133        0.32       1.5     1.6  2.4 -0.5966E+00  0.5682E+00  0.1421E+00E
 Epicentro: LOS SANTOS - SANTANDER                                             3
 ACTION:UPD 15-04-30 16:28 OP:nd   STATUS:               ID:20150323063233 L   I
 OLDACT:REG 15-03-23 13:08 OP:stll STATUS:               ID:20150323062748     3
 2015-03-23-0627-48M.COL___275                                                 6
 STAT SP IPHASW D HRMM SECON CODA AMPLIT PERI AZIMU VELO AIN AR TRES W  DIS CAZ7
 BAR2 EZ ES        633  8.21                             170   -0.0910 24.2 184 
 BRR  HZ EP        632 54.23                             153   -0.1810 68.6 299 
 BRR  HN ES        633 10.73                             153    0.0010 68.6 299 
 PAM  SZ EP        632 55.70                             150    0.0410 78.0  41 
 PAM  SZ I         632 55.96         4.8 0.20            153           78.0  41 
 PAM  SN ES        633 13.03                             150    0.0710 78.0  41 
 RUS  HZ EP        632 57.23                             143   -0.0310  102 175 
 RUS  HN ES        633 15.88                             143    0.0710  102 175 
 RUS  HZ I         633 17.01         0.9 0.42            144            102 175 
 PTB  HZ EP        633  0.30                             132    0.10 9  146 258 
 PTB  HN ES        633 21.13                             132    0.09 9  146 258 
 PTB  HZ I         633 27.62         0.9 0.22            131            146 258 
 SPBC HN ES        633 23.98                             129   -0.04 9  163 218 
                                                                                
