 2014  623 0216 35.7 L   5.744 -73.871 98.8  RSN  7 0.3 1.2LRSN                1
 GAP=201        0.76       3.9     4.1  6.7 -0.1042E+02 -0.2165E+01 -0.1069E+01E
 Epicentro: ALBANIA - SANTANDER                                                3
 ACTION:UPD 14-07-01 22:55 OP:nd   STATUS:               ID:20140623021635 L   I
 OLDACT:REG 14-06-23 13:02 OP:spq  STATUS:               ID:20140623020812     3
 2014-06-23-0208-12M.COL___265                                                 6
 STAT SP IPHASW D HRMM SECON CODA AMPLIT PERI AZIMU VELO AIN AR TRES W  DIS CAZ7
 SPBC HZ EP        216 49.76                             165    0.2510 24.4 246 
 SPBC HE ES   1    217  0.51                             165    0.21 7 24.4 246 
 SPBC HZ I         217  3.28         5.8 0.16            165           24.4 246 
 PTB  HZ EP        216 55.24                             129   -0.1310  109 324 
 PTB  HN ES        217 10.69                             129   -0.0310  109 324 
 PTB  HZ I         217 16.51         1.8 0.08            130            109 324 
 NOR  HZ IP     C  216 55.72                             128    0.0110  112 260 
 NOR  HN ES        217 11.21                             128   -0.1210  112 260 
 NOR  HZ I         217 13.32         6.8 0.14            131            112 260 
 BAR2 SZ EP   1    216 56.13                             126   -0.68 7  121  39 
 BAR2 SZ ES   1    217 13.02                             126   -0.26 7  121  39 
 BAR2 SZ I         217 15.72         2.7 0.12            129            121  39 
 BRR  HZ EP        217  0.46                             119    0.74 9  152   7 
 BRR  HN ES        217 18.35                             119   -0.12 9  152   7 
 BRR  HZ I         217 20.70         3.2 0.38            122            152   7 
 GUY2CHE ES   1    217 23.93                             115   -0.20 7  175 251 
 GUY2CHZ I         217 32.24         1.3 0.34                           175 251 
 RREF HN ES   1    217 26.98                             114   -0.12 7  188 240 
 RREF HZ I         217 30.46         5.1 0.16            117            188 240 
                                                                                
