 2015  923 0630 46.9 L   6.839 -73.176143.6  RSN  8 0.4 1.7LRSN                1
 GAP=206        1.06       4.4     6.0  6.6  0.7914E-01  0.9396E+01 -0.1249E+01E
 Epicentro: ZAPATOCA - SANTANDER                                               3
 ACTION:UPD 15-10-28 16:28 OP:cam  STATUS:               ID:20150923063046 L   I
 OLDACT:UP  15-09-23 15:52 OP:mh   STATUS:               ID:20150923062746     3
 OLDACT:REG 15-09-23 12:47 OP:mh   STATUS:               ID:20150923062746     3
 2015-09-23-0627-46M.COL___355                                                 6
 STAT SP IPHASW D HRMM SECON CODA AMPLIT PERI AZIMU VELO AIN AR TRES W  DIS CAZ7
 BAR2 EZ EP        631  6.22                             169   -0.1210 27.3 181 
 BAR2 EZ ES        631 21.38                             169   -0.1410 27.3 181 
 BAR2 EZ I         631 23.79        10.1 0.30            167           27.3 181 
 BRR  HZ EP        631  8.03                             154    0.5010 66.2 297 
 BRR  HN ES        631 24.33                             154    0.7110 66.2 297 
 BRR  HZ I         631 27.10         7.7 0.34            149           66.2 297 
 PTB  HZ EP        631 12.93                             132   -0.53 9  145 257 
 PTB  HN ES        631 33.83                             132   -0.35 9  145 257 
 PTB  HZ I         631 38.95         5.6 0.44            131            145 257 
 SPBC HZ EP        631 15.25                             128   -0.10 9  164 217 
 SPBC HN ES        631 37.11                             128   -0.43 9  164 217 
 SPBC HZ I         631 41.73         7.4 0.36            129            164 217 
 ZAR  HZ EP        631 18.76                             123    0.06 9  199 291 
 ZAR  HN ES        631 43.72                             123    0.20 9  199 291 
 ZAR  HZ I         631 52.41         4.1 0.22            122            199 291 
 SML  HZ EP   1    631 22.83                             118    0.01 6  238 336 
 SML  HN ES        631 50.00                             118   -0.84 8  238 336 
 SML  HZ I         631 54.78         7.2 0.24            119            238 336 
 HEL  HZ EP        631 27.14                             114    0.39 8  270 255 
 HEL  HN ES        631 57.72                             114   -0.12 8  270 255 
 HEL  HZ I         632  4.92         2.2 0.50            115            270 255 
 GUY2CHZ EP        631 31.25                             112    0.88 7  301 234 
 GUY2CHN ES   4    632  7.75                             112    3.46 0  301 234 
 GUY2CHZ I         632 12.55         3.0 0.78                           301 234 
                                                                                
