 2013  723 0838 50.7 L   6.749 -73.179148.2  RSN  5 0.2 1.4LRSN                1
 GAP=176        0.57       5.0     4.8  5.4  0.9389E+01  0.8633E+00 -0.1229E+01E
 Epicentro: VILLANUEVA - SANTANDER                                             3
 ACTION:UPD 13-08-12 10:39 OP:ep   STATUS:               ID:20130723083850 L   I
 OLDACT:UP  13-07-23 11:07 OP:cam  STATUS:               ID:20130723083000     3
 OLDACT:REG 13-07-23 09:38 OP:cam  STATUS:               ID:20130723083000     3
 2013-07-23-0830-00M.COL___263                                                 6
 STAT SP IPHASW D HRMM SECON CODA AMPLIT PERI AZIMU VELO AIN AR TRES W  DIS CAZ7
 BAR2 SZ EP        839 10.35                             173   -0.1310 17.4 181 
 BAR2 SZ ES   1    839 25.55                             173   -0.39 7 17.4 181 
 GIR2 SZ EP   1    839 10.54                             165   -0.23 7 36.5 358 
 BRR  HZ EP        839 12.33                             153    0.2710 70.9 304 
 BRR  HN ES   1    839 29.06                             153    0.31 7 70.9 304 
 BRR  HZ I         839 29.50         6.0 0.28            153           70.9 304 
 RUS  HZ EP        839 14.36                             146    0.0810 95.3 174 
 RUS  HN ES   1    839 33.00                             146    0.29 7 95.3 174 
 RUS  HZ I         839 34.41         2.4 0.28            145           95.3 174 
 PTB  HZ EP        839 17.27                             133   -0.14 9  143 261 
 PTB  HN ES   1    839 38.10                             133   -0.18 7  143 261 
 PTB  HZ I         839 40.32         4.1 0.18            133            143 261 
                                                                                
