 2011  123 0340 48.5 L   6.792 -73.095145.9  RSN  7 0.3 1.9LRSN                1
 GAP=164        0.64       2.7     6.6  5.9 -0.8708E+01  0.1192E+02 -0.1341E+01E
 Epicentro: LOS SANTOS - SANTANDER                                             3
 ACTION:UP  11-02-08 08:42 OP:pat  STATUS:               ID:20110123034048 L   I
 2011-01-23-0338-03S.COL___138                                                 6
 STAT SP IPHASW D HRMM SECON CODA AMPLIT PERI AZIMU VELO SNR AR TRES W  DIS CAZ7
 BAR2 SZ EP   1    341  8.02                             170    -0.2 7   24 204 
 BAR2 SZ ES   1    341 23.71                             170     0.2 7   24 204 
 BAR2 SZ I         341 25.04        37.8 0.32                            24 204 
 RUS  HZ IP     D  341 12.12                             144    -0.110   99 179 
 RUS  HE ES   1    341 30.70                             144     0.0 7   99 179 
 RUS  HZ I         341 31.73         6.1 0.46                            99 179 
 GRA  SZ IP        341 14.08                             137     0.410  125  15 
 GRA  SZ I         341 15.22         9.9 0.33                           125  15 
 GRA  SZ ES   1    341 33.26                             137    -0.1 7  125  15 
 OCA  SZ EP   1    341 16.76                             129    -0.2 7  162 351 
 OCA  SZ ES   1    341 39.09                             129    -0.1 7  162 351 
 OCA  SZ I         341 44.74         8.9 0.38                           162 351 
 NOR  SZ EP   2    341 23.93                             118    -0.8 4  239 236 
 NOR  SE ES   2    341 52.59                             118    -0.4 4  239 236 
 CHI  HZ EP   1    341 26.27                             117     0.0 6  249 196 
 CHI  HE ES   1    341 55.64                             117    -0.1 6  249 196 
 CHI  HZ I         341 59.16         3.8 0.69                           249 196 
 RREF HZ EP   2    341 36.07                             111     1.0 3  325 230 
 RREF HE ES   1    342 11.93                             111     0.5 5  325 230 
 RREF HZ I         342 20.72         5.2 0.27                           325 230 
                                                                                
