 2010  723 0949  0.5 L   6.855 -73.127149.7  RSN  6 0.1 1.4LRSN                1
 GAP=160        0.39       2.6     4.8  5.1 -0.2874E+01 -0.8768E+01  0.4284E+00E
 Epicentro: LOS SANTOS - SANTANDER                                             3
 ACTION:UPD 10-12-01 15:19 OP:pat  STATUS:               ID:20100723094900 L   I
 2010-07-23-0947-02S.COL___123                                                 6
 STAT SP IPHASW D HRMM SECON CODA AMPLIT PERI AZIMU VELO AIN AR TRES W  DIS CAZ7
 BAR2 SZ EP   1    949 20.53                             168    -0.2 7   30 192 
 BAR2 SZ I         949 41.35         5.8 0.48                            30 192 
 BRR  HZ EP        949 22.07                             153     0.010   70 293 
 BRR  HZ I         949 23.57        15.4 0.18                            70 293 
 BRR  HE ES   1    949 38.91                             153     0.0 7   70 293 
 RUS  HZ EP   1    949 25.19                             143     0.1 7  107 177 
 RUS  HN ES   2    949 44.33                             143     0.1 5  107 177 
 RUS  HZ I         949 59.99         0.8 0.46                           107 177 
 GUE  SZ EP   1    949 25.00                             142    -0.1 7  110  12 
 GUE  SZ I         949 37.95         1.4 0.07                           110  12 
 GRA  SZ IP        949 25.77                             139     0.210  119  17 
 GRA  SZ ES   1    949 45.13                             139     0.0 7  119  17 
 GRA  SZ I         949 46.11         5.4 0.12                           119  17 
 OCA  SZ EP   1    949 28.56                             132    -0.1 7  155 352 
 OCA  SZ I         949 54.15         4.4 0.86                           155 352 
                                                                                
