 2017  123 0653 48.9 L   6.793 -73.064139.4  RSN  5 0.4 0.9LRSN                1
 GAP=148        1.18       6.1     6.1  8.6 -0.3669E+01  0.7446E+01  0.2703E+01E
 Epicentro: LOS SANTOS - SANTANDER                                             3
 ACTION:UPD 17-05-22 16:02 OP:jn   STATUS:               ID:20170123065348 L   I
 OLDACT:REG 17-01-23 12:52 OP:lv   STATUS:               ID:20170123064739     3
 2017-01-23-0648-00M.COL___337                                                 6
 STAT SP IPHASW D HRMM SECON CODA AMPLIT PERI AZIMU VELO AIN AR TRES W  DIS CAZ7
 BAR2 EZ EP        654  7.82                             169   -0.0010 25.8 211 
 BAR2 EZ ES        654 22.70                             169    0.1210 25.8 211 
 BAR2 EZ I         654 25.48         3.1 0.44            174           25.8 211 
 PAM  EZ EP        654 10.66                             151    0.5110 72.6  34 
 PAM  EE ES        654 25.98                             151   -0.7510 72.6  34 
 PAM  EZ I         654 36.73         0.8 0.20            151           72.6  34 
 BRR  HZ EP        654  9.71                             148   -0.1710 79.6 296 
 BRR  HN ES        654 27.06                             148    0.8210 79.6 296 
 RUS  HZ EP        654 12.07                             143    0.1110 99.6 181 
 RUS  HN ES        654 29.96                             143    0.0110 99.6 181 
 RUS  HZ I         654 31.43         1.0 0.36            150           99.6 181 
 PTB  HZ EP        654 16.10                             129   -0.09 9  157 260 
 PTB  HE ES        654 36.78                             129   -0.68 9  157 260 
 PTB  HZ I         654 41.47         1.6 0.38            134            157 260 
                                                                                
