 2016 1123 0245 28.5 L   6.728 -73.160147.5  RSN  5 0.3 1.2LRSN                1
 GAP=152        0.89       8.2     4.6  7.3 -0.1245E+02  0.8972E+01 -0.4201E+01E
 Epicentro: VILLANUEVA - SANTANDER                                             3
 ACTION:UPD 17-10-26 21:10 OP:lp   STATUS:               ID:20161123024528 L   I
 OLDACT:UP  16-11-23 14:40 OP:dani STATUS:               ID:20161123023745d    3
 OLDACT:DUP 16-11-23 14:39 OP:dani STATUS:               ID:20161123023745d    3
 OLDACT:UP  16-11-23 14:39 OP:dani STATUS:               ID:20161123023744     3
 OLDACT:UP  16-11-23 14:38 OP:dani STATUS:               ID:20161123023744     3
 OLDACT:UP  16-11-23 14:37 OP:dani STATUS:               ID:20161123023744     3
 OLDACT:UP  16-11-23 14:37 OP:dani STATUS:               ID:20161123023744     3
 OLDACT:UP  16-11-23 14:37 OP:dani STATUS:               ID:20161123023744     3
 OLDACT:UP  16-11-23 14:36 OP:dani STATUS:               ID:20161123023744     3
 OLDACT:REG 16-11-23 12:38 OP:dani STATUS:               ID:20161123023744     3
 2016-11-23-0238-00M.COL___355                                                 6
 STAT SP IPHASW D HRMM SECON CODA AMPLIT PERI AZIMU VELO AIN AR TRES W  DIS CAZ7
 BAR2 EZ ES        246  3.63                             174    0.0710 15.2 189 
 BRR  HZ EP        245 50.27                             152    0.2910 74.0 305 
 BRR  HN ES        246  7.30                             152    0.5510 74.0 305 
 BRR  HZ I         246 11.98         3.1 0.25            152           74.0 305 
 PAM  EZ EP        245 51.49                             149    0.1610 84.7  37 
 PAM  EN ES        246  8.64                             149   -0.5110 84.7  37 
 PAM  EZ I         246 10.99         2.3 0.48            159           84.7  37 
 PTB  HZ EP        245 55.29                             133   -0.04 9  145 262 
 PTB  HN ES        246 15.83                             133   -0.44 9  145 262 
 PTB  HZ I         246 31.91         2.9 0.60            133            145 262 
 ZAR  HE ES        246 26.54                             122   -0.20 8  206 294 
 URE  HZ EP   4    246 14.03                             114    4.21 0  285 294 
 URE  HN ES   4    246 40.18                             114   -1.88 0  285 294 
                                                                                
