 2015  523 0656 16.8 L   6.768 -73.147149.4  RSN  5 0.3 1.4LRSN                1
 GAP=235        0.72       4.4     5.9  6.4  0.8750E+01  0.3945E+01  0.1079E+00E
 Epicentro: LOS SANTOS - SANTANDER                                             3
 ACTION:UPD 15-09-10 22:06 OP:cam  STATUS:               ID:20150523065616 L   I
 OLDACT:DUP 15-05-23 17:22 OP:spq  STATUS:               ID:20150523064741d    3
 2015-05-23-0647-40M.COL___297                                                 6
 STAT SP IPHASW D HRMM SECON CODA AMPLIT PERI AZIMU VELO AIN AR TRES W  DIS CAZ7
 BAR2 EZ EP        656 36.63                             172   -0.2210 19.8 191 
 BAR2 EZ ES   1    656 52.09                             172   -0.37 7 19.8 191 
 BAR2 EZ I         656 52.81         3.3 0.22            169           19.8 191 
 BRR  HZ EP        656 38.45                             153   -0.0310 72.8 301 
 BRR  HE ES        656 55.78                             153    0.4210 72.8 301 
 BRR  HZ I         656 58.59         2.9 0.31            149           72.8 301 
 RUS  HZ EP   1    656 41.01                             146    0.30 7 97.1 176 
 RUS  HE ES   1    656 59.35                             146    0.02 7 97.1 176 
 RUS  HZ I         657  0.42         2.2 0.32            147           97.1 176 
 SPBC HZ EP   1    656 46.00                             130    0.64 7  160 220 
 SPBC HE ES        657  7.43                             130   -0.17 9  160 220 
 SPBC HZ I         657 10.29         6.8 0.18            130            160 220 
 ZAR  HZ EP   1    656 49.19                             123   -0.46 6  205 293 
 ZAR  HE ES   1    657 14.99                             123   -0.25 6  205 293 
 ZAR  HZ I         657 20.88         3.8 0.26            122            205 293 
                                                                                
