 2015 1123 0526  9.9 L   6.852 -73.153149.5  RSN  4 0.3 1.5LRSN                1
 GAP=144        0.84       5.3     6.8  6.8 -0.2391E+01 -0.2418E+00 -0.8056E+01E
 Epicentro: LOS SANTOS - SANTANDER                                             3
 *VENEZUELA - SIN REGISTRO EN AGENCIAS INTERNACIONALES                         3
 ACTION:UPD 15-12-28 16:12 OP:cam  STATUS:               ID:20151123051753dL   I
 OLDACT:DUP 15-11-23 18:41 OP:drio STATUS:               ID:20151123051753dL   3
 2015-11-23-0517-49M.COL___202                                                 6
 STAT SP IPHASW D HRMM SECON CODA AMPLIT PERI AZIMU VELO AIN AR TRES W  DIS CAZ7
 BAR2 EZ EP        526 29.47                             169   -0.6310 28.9 187 
 BAR2 EZ ES        526 45.99                             169    0.1310 28.9 187 
 BRR  HZ EP        526 31.69                             154    0.4210 67.9 295 
 BRR  HN ES        526 47.91                             154   -0.0410 67.9 295 
 BRR  HN I         526 51.63        13.2 0.18            149           67.9 295 
 BRR  HZ I         526 53.97         3.5 0.14                          67.9 295 
 PAM  EZ EP        526 32.68                             153    0.3910 73.5  43 
 PAM  EE ES        526 49.72                             153   -0.0410 73.5  43 
 PAM  EZ I         526 50.49         2.8 0.26            152           73.5  43 
 OCA  HZ EP        526 37.82                             132   -0.14 9  154 353 
 OCA  HN ES        526 59.72                             132   -0.13 9  154 353 
 OCA  HZ I         527  6.70         5.1 0.30            130            154 353 
                                                                                
