 2017  823 0750 43.6 L   6.784 -73.081142.8  RSN  9 0.3 1.4LRSN                1
 GAP=216        0.72       3.2     4.8  4.3  0.3118E+01  0.2462E+01  0.2996E+01E
 Epicentro: LOS SANTOS - SANTANDER                                             3
 ACTION:UPD 17-09-04 20:23 OP:rebc STATUS:               ID:20170823075043 L   I
 OLDACT:UP  17-08-23 16:56 OP:osc  STATUS:               ID:20170823074740     3
 OLDACT:REG 17-08-23 13:24 OP:osc  STATUS:               ID:20170823074740     3
 2017-08-23-0748-00M.COL___405                                                 6
 STAT SP IPHASW D HRMM SECON CODA AMPLIT PERI AZIMU VELO AIN AR TRES W  DIS CAZ7
 BAR2 EZ EP        751  2.56                             170   -0.3310 24.0 208 
 BAR2 EZ ES        751 17.94                             170    0.0110 24.0 208 
 BAR2 EZ I         751 18.96         6.0 0.24            167           24.0 208 
 BRR  HZ EP        751  4.57                             150   -0.2910 78.4 297 
 BRR  HE ES        751 21.42                             150   -0.0210 78.4 297 
 BRR  HZ I         751 25.83         5.0 0.16            148           78.4 297 
 RUS  HZ EP        751  7.05                             144    0.1410 98.5 180 
 RUS  HN ES        751 25.37                             144    0.2810 98.5 180 
 RUS  HZ I         751 26.82         1.6 0.29            145           98.5 180 
 SPBC HZ EP        751 11.80                             128   -0.38 9  166 221 
 SPBC HE ES        751 34.62                             128    0.14 9  166 221 
 SPBC HZ I         751 35.57         4.9 0.10            128            166 221 
 YPLC HZ EP        751 12.96                             127    0.27 9  172 153 
 ZAR  HZ EP        751 17.11                             121    0.49 8  211 292 
 ZAR  HE ES   4    751 40.75                             121   -1.62 0  211 292 
 ZAR  HZ I         751 46.05         2.0 0.15            121            211 292 
 CHI  HZ EP        751 20.78                             116   -0.38 8  249 197 
 CHI  HN ES        751 50.25                             116   -0.21 8  249 197 
 CHI  HZ I         751 55.54         1.4 0.26            117            249 197 
 GUY2CHZ EP        751 28.18                             111    0.56 7  306 236 
 GUY2CHE ES   4    752  4.27                             111    2.31 0  306 236 
 GUY2CHZ I         752 10.89         1.6 0.56                           306 236 
 PRA  HE ES        752 18.91                             106   -0.20 6  394 211 
                                                                                
