 2013  423 0455 23.4 L   6.830 -73.184137.9  RSN 12 0.4 2.0LRSN                1
 GAP=130        0.81       3.0     3.7  6.5 -0.3081E+01  0.1239E+02 -0.3501E+01E
 Epicentro: ZAPATOCA - SANTANDER                                               3
 ACTION:UPD 13-05-22 14:40 OP:EP   STATUS:               ID:20130423045523 L   I
 2013-04-23-0450-00M.COL___249                                                 6
 STAT SP IPHASW D HRMM SECON CODA AMPLIT PERI AZIMU VELO AIN AR TRES W  DIS CAZ7
 BAR2 SZ EP   1    455 42.09                             169   -0.09 7 26.3 180 
 BAR2 SZ ES        455 57.01                             169    0.2010 26.3 180 
 BAR2 SZ I         456  0.81        11.6 0.18            172           26.3 180 
 GIR2 SZ EP   1    455 42.09                             168    0.02 7 27.5 358 
 GIR2 SZ I         455 58.84         9.0 0.30            158           27.5 358 
 BRR  HZ EP        455 43.92                             153    0.4910 65.9 298 
 BRR  HN ES   4    456  0.94                             153    1.91 0 65.9 298 
 BRR  HZ I         456  4.39        16.8 0.14            142           65.9 298 
 PAM  SZ EP     C  455 44.99                             149    0.1610 77.6  43 
 PAM  SN ES        456  1.75                             149    0.2310 77.6  43 
 PAM  SN I         456  2.67        29.8 0.40            138           77.6  43 
 RUS  HZ EP   1    455 46.32                             141   -0.38 7  104 174 
 RUS  HN ES        456  4.44                             141   -0.4010  104 174 
 RUS  HN I         456  6.39        12.8 0.30            136            104 174 
 PTB  HZ EP   1    455 48.87                             131   -0.58 7  144 257 
 PTB  HN ES        456  9.61                             131   -0.14 9  144 257 
 PTB  HN I         456 11.17        23.6 0.26            121            144 257 
 OCA  HN ES   1    456 11.67                             128   -0.44 7  156 355 
 OCA  HN I         456 15.92        48.8 0.42            117            156 355 
 ZAR  HN ES   2    456 20.31                             121    0.98 4  199 292 
 NOR  HZ EP   1    455 59.19                             117    0.63 6  233 233 
 NOR  HN ES        456 26.00                             117    0.03 8  233 233 
 NOR  HN I         456 27.66        13.6 0.14            109            233 233 
 SML  HN ES        456 26.36                             116   -0.57 8  239 336 
 SML  HN I         456 36.38        18.7 0.10            107            239 336 
 HEL  HZ EP   1    456  3.35                             113    0.45 6  269 255 
 HEL  HN ES        456 33.62                             113   -0.06 8  269 255 
 HEL  HN I         456 41.14         3.5 0.24            105            269 255 
 URE  HZ EP   4    456  3.18                             112   -0.37 0  279 292 
 URE  HZ I         456 45.90         6.1 0.18            104            279 292 
                                                                                
