 2013  523 0404 22.6 L   6.739 -73.197150.9  RSN  5 0.3 1.7LRSN                1
 GAP=172        0.88       5.6     6.1  8.0  0.8164E+01 -0.4781E+01  0.6874E+01E
 Epicentro: VILLANUEVA - SANTANDER                                             3
 ACTION:UPD 13-06-20 09:52 OP:ep   STATUS:               ID:20130523040422 L   I
 2013-05-23-0358-50M.COL___207                                                 6
 STAT SP IPHASW D HRMM SECON CODA AMPLIT PERI AZIMU VELO AIN AR TRES W  DIS CAZ7
 BAR2 SZ EP        4 4 42.41                             174   -0.3110 16.3 174 
 BAR2 SZ I         4 4 59.83         6.0 0.22            171           16.3 174 
 GIR2 SZ EP        4 4 43.05                             165   -0.0110 37.6   1 
 GIR2 SZ ES        4 4 58.59                             165   -0.4310 37.6   1 
 BRR  HZ EP        4 4 44.39                             154    0.1610 70.0 306 
 BRR  HN ES        4 5  1.72                             154    0.6110 70.0 306 
 BRR  HN I         4 5  2.50        22.2 0.22            152           70.0 306 
 RUS  HZ EP        4 4 46.60                             147    0.1710 94.4 172 
 RUS  HN ES        4 5  5.15                             147    0.1410 94.4 172 
 RUS  HN I         4 5  5.66         5.3 0.32            142           94.4 172 
 PTB  HN ES        4 5  9.91                             135   -0.38 9  141 261 
                                                                                
