 2017  123 0909 54.1 L   6.788 -73.165143.8  RSN  6 0.3 1.1LRSN                1
 GAP=135        0.71       3.5     3.1  5.2  0.9920E+00  0.3153E+01  0.3048E+00E
 Epicentro: LOS SANTOS - SANTANDER                                             3
 ACTION:UPD 17-05-22 16:02 OP:jn   STATUS:               ID:20170123090954 L   I
 OLDACT:REG 17-01-23 12:59 OP:lv   STATUS:               ID:20170123090742     3
 2017-01-23-0908-00M.COL___331                                                 6
 STAT SP IPHASW D HRMM SECON CODA AMPLIT PERI AZIMU VELO AIN AR TRES W  DIS CAZ7
 BAR2 EZ EP        910 13.30                             171   -0.1410 21.7 185 
 BAR2 EZ ES        910 28.47                             171   -0.0710 21.7 185 
 BAR2 EZ I         910 29.59         3.5 0.11            172           21.7 185 
 BRR  HZ EP        910 15.17                             153    0.2210 70.0 300 
 BRR  HN ES        910 31.65                             153    0.4210 70.0 300 
 BRR  HZ I         910 33.04         3.8 0.20            152           70.0 300 
 PAM  EZ EP        910 16.31                             150    0.0810 79.8  40 
 PAM  EE ES        910 33.18                             150   -0.3310 79.8  40 
 PAM  EZ I         910 35.92         1.3 0.19            152           79.8  40 
 RUS  HZ EP        910 17.89                             144    0.3410 99.4 175 
 RUS  HN ES        910 35.90                             144    0.0410 99.4 175 
 RUS  HZ I         910 37.87         1.4 0.32            146           99.4 175 
 PTB  HZ EP        910 20.27                             132   -0.41 9  145 259 
 PTB  HN ES        910 41.11                             132   -0.31 9  145 259 
 PTB  HZ I         910 44.68         1.5 0.14            133            145 259 
 ZAR  HZ EP   4    910 27.88                             122    1.63 0  203 293 
 ZAR  HN ES        910 51.45                             122    0.11 9  203 293 
 ZAR  HZ I         910 54.62         2.3 0.11            123            203 293 
                                                                                
