 2011  823 0924 16.0 L   6.787 -73.045139.3  RSN  9 0.3 2.8LRSN                1
 GAP=193        0.54       2.8     5.0  4.1 -0.9359E+00  0.3075E+01  0.3927E+00E
 Epicentro: LOS SANTOS - SANTANDER                                             3
 ACTION:UPD 12-07-13 15:53 OP:ep   STATUS:               ID:20110823092416 L   I
 2011-08-23-0922-23S.COL___158                                                 6
 STAT SP IPHASW D HRMM SECON CODA AMPLIT PERI AZIMU VELO AIN AR TRES W  DIS CAZ7
 BAR2 SZ IP        924 35.25                             169    0.2910 26.4 215 
 BAR2 SZ ES   1    924 49.62                             169   -0.10 7 26.4 215 
 BAR2 SZ I         924 50.96       213.4 0.23                          26.4 215 
 BRR  HZ EP   1    924 37.20                             148    0.06 7 81.8 296 
 BRR  HZ I         924 37.56       324.7 0.10                          81.8 296 
 BRR  HE ES   1    924 53.94                             148    0.33 7 81.8 296 
 RUS  HZ EP   1    924 39.22                             143    0.18 7 99.0 182 
 RUS  HN ES   1    924 56.71                             143   -0.27 7 99.0 182 
 RUS  HZ I         925  1.03        36.0 0.51                          99.0 182 
 OCA  SZ EP        924 44.01                             128   -0.14 9  163 349 
 OCA  SZ ES   2    925  5.40                             128   -0.68 5  163 349 
 OCA  SZ I         925 10.86       145.5 0.30                           163 349 
 NOR  SZ EP   1    924 51.94                             116   -0.37 6  243 236 
 NOR  SN ES   1    925 20.29                             116   -0.32 6  243 236 
 CHI  HZ EP   1    924 53.50                             116   -0.08 6  250 198 
 CHI  HZ I         925 29.56        19.2 0.38                           250 198 
 GUY  SZ EP   1    925  1.09                             110    0.51 5  312 236 
 GUY  SZ I         925 45.60        31.8 0.41                           312 236 
 RREF HZ EP   2    925  3.08                             109    0.29 3  329 231 
 RREF HZ I         925 49.69        18.7 0.28                           329 231 
 PRA  HZ EP   1    925  9.64                             105   -0.22 4  396 211 
                                                                                
