 2013  223 0130 38.5 L   6.729 -73.144136.2  RSN  6 0.4 1.7LRSN                1
 GAP=160        0.87       7.3     5.1  8.3 -0.2593E+01  0.6676E+01  0.1816E+02E
 Epicentro: JORDAN - SANTANDER                                                 3
 ACTION:UPD 13-03-12 09:35 OP:ep   STATUS:               ID:20130223013038 L   I
 2013-02-23-0130-00M.COL___225                                                 6
 STAT SP IPHASW D HRMM SECON CODA AMPLIT PERI AZIMU VELO AIN AR TRES W  DIS CAZ7
 BAR2 SZ EP        130 57.14                             173    0.2810 15.8 196 
 BAR2 SZ ES   1    131 10.62                             173   -0.55 7 15.8 196 
 BAR2 SZ I         131 13.36        16.5 0.20            145           15.8 196 
 BRR  HZ EP        130 58.93                             149    0.0410 75.4 304 
 BRR  HN ES   1    131 15.46                             149    0.67 7 75.4 304 
 BRR  HZ I         131 20.76        10.5 0.42            151           75.4 304 
 PAM  SZ EP   1    130 59.87                             147   -0.24 7 83.4  36 
 PAM  SN ES   1    131 16.95                             147   -0.01 7 83.4  36 
 PAM  SZ I         131 19.57         9.1 0.54            145           83.4  36 
 PTB  HZ EP   1    131  3.78                             130   -0.84 7  147 262 
 PTB  HN ES   1    131 24.93                             130   -0.04 7  147 262 
 PTB  HZ I         131 28.44         7.2 0.14            118            147 262 
 ZAR  HN ES   1    131 35.71                             120   -0.09 6  207 294 
 CHI  HZ EP   1    131 15.49                             116    0.61 6  241 196 
 CHI  HZ I         131 50.14         1.7 0.25            103            241 196 
                                                                                
