 2010  323 0701 50.1 L   7.056 -72.943140.3  RSN  4 0.2 1.5LRSN                1
 GAP=273        0.59       9.0    10.1  6.0  0.6053E+02 -0.5770E+01 -0.7690E+01E
 Epicentro: SANTA BARBARA - SANTANDER                                          3
 ACTION:UP  10-08-24 09:55 OP:vdl  STATUS:               ID:20100323070150 L   I
 2010-03-23-0659-40S.COL___098                                                 6
 STAT SP IPHASW D HRMM SECON CODA AMPLIT PERI AZIMU VELO SNR AR TRES W  DIS CAZ7
 BAR2 SZ IP        7 2 10.48                             157     0.210   58 207 
 BAR2 SZ ES   1    7 2 26.11                             157     0.1 7   58 207 
 BRR  HZ IP        7 2 11.49                             147     0.010   85 274 
 BRR  HN ES   1    7 2 28.01                             147    -0.2 7   85 274 
 BRR  HZ I         7 2 30.37         8.5 0.09                            85 274 
 RUS  HZ EP   1    7 2 15.13                             135    -0.5 7  130 187 
 RUS  HZ I         7 2 16.25         2.9 0.20                           130 187 
 RUS  HE ES   2    7 2 35.63                             135     0.1 5  130 187 
 HEL  HZ EP        7 2 33.45                             111     0.1 7  302 252 
 HEL  HZ I         7 3  9.21         2.2 0.23                           302 252 
                                                                                
