 2015 1223 0021  7.8 L   6.800 -73.156132.0  RSN 11 0.5 1.9LRSN                1
 GAP=135        0.96       3.1     4.3  7.1 -0.4929E+00  0.1314E+02  0.1108E+01E
 Epicentro: LOS SANTOS - SANTANDER                                             3
 ACTION:UPD 16-02-04 15:06 OP:cam  STATUS:               ID:20151223002107 L   I
 OLDACT:REG 15-12-23 12:23 OP:dnl  STATUS:               ID:20151223001747     3
 2015-12-23-0017-47M.COL___331                                                 6
 STAT SP IPHASW D HRMM SECON CODA AMPLIT PERI AZIMU VELO AIN AR TRES W  DIS CAZ7
 BAR2 EZ EP        021 25.77                             169    0.0210 23.2 187 
 BAR2 EZ ES        021 39.47                             169   -0.3010 23.2 187 
 BAR2 EZ I         021 42.31        26.2 0.22            170           23.2 187 
 BRR  HZ EP        021 27.89                             150    0.5010 70.1 299 
 BRR  HE ES   2    021 42.77                             150    0.08 5 70.1 299 
 BRR  HZ I         021 49.13        19.0 0.26            149           70.1 299 
 PAM  EE ES        021 44.67                             147   -0.1610 78.1  40 
 PAM  EZ I         021 48.27        17.7 0.56            152           78.1  40 
 RUS  HZ EP        021 30.36                             140    0.1510  101 175 
 RUS  HE ES        021 48.15                             140    0.4410  101 175 
 RUS  HZ I         021 49.34         9.0 0.22            144            101 175 
 PTB  HZ EP   2    021 32.59                             128   -0.96 5  147 259 
 PTB  HN ES        021 53.10                             128   -0.55 9  147 259 
 PTB  HZ I         021 55.41                             130            147 259 
 OCA  HE ES        021 55.90                             126   -0.40 9  160 354 
 OCA  HZ I         021 59.45        20.6 0.28            129            160 354 
 ZAR  HZ EP   2    021 39.87                             119    0.62 4  203 292 
 ZAR  HE ES        022  4.77                             119    0.98 9  203 292 
 ZAR  HZ I         022 10.77         8.7 0.33            121            203 292 
 NOR  HE ES        022  9.47                             115   -0.37 8  234 234 
 NOR  HZ I         022 14.62         3.9 0.16            117            234 234 
 SML  HZ EP   2    021 43.09                             114   -0.53 4  243 336 
 SML  HE ES   2    022 11.54                             114   -0.03 4  243 336 
 SML  HZ I         022 14.94        14.6 0.09            116            243 336 
 CHI  HZ EP   1    021 45.03                             114    0.31 6  248 195 
 CHI  HE ES   2    022 12.76                             114   -0.78 4  248 195 
 CHI  HZ I         022 20.02         2.1 0.50            117            248 195 
 GUY2CHZ EP   2    021 50.74                             109    0.06 4  300 235 
 GUY2CHE ES   2    022 23.31                             109   -0.83 4  300 235 
 GUY2CHZ I         022 32.44         3.0 0.30                           300 235 
                                                                                
