 2016  123 0810 46.4 L   6.848 -73.196141.3  RSN  8 0.3 1.6LRSN                1
 GAP=132        0.73       3.2     4.3  5.2 -0.8026E+01  0.7415E+01  0.1290E+00E
 Epicentro: ZAPATOCA - SANTANDER                                               3
 ACTION:UPD 16-03-09 23:27 OP:cam  STATUS:               ID:20160123081046 L   I
 OLDACT:UP  16-01-23 15:04 OP:mh   STATUS:               ID:20160123080747     3
 OLDACT:REG 16-01-23 13:42 OP:mh   STATUS:               ID:20160123080747     3
 2016-01-23-0807-47M.COL___288                                                 6
 STAT SP IPHASW D HRMM SECON CODA AMPLIT PERI AZIMU VELO AIN AR TRES W  DIS CAZ7
 BAR2 EZ EP   1    811  5.68                             168    0.04 7 28.4 177 
 BAR2 EZ ES        811 20.28                             168   -0.3510 28.4 177 
 BAR2 EZ I         811 21.98         6.6 0.21            168           28.4 177 
 PAM  EZ EP        811  8.69                             150    0.5310 77.2  45 
 PAM  EN ES        811 25.18                             150    0.0710 77.2  45 
 PAM  EZ I         811 27.14         4.5 0.30            154           77.2  45 
 PTB  HZ EP        811 12.41                             132   -0.24 9  143 256 
 PTB  HN ES        811 33.36                             132    0.26 9  143 256 
 PTB  HZ I         811 39.48         3.3 0.45            130            143 256 
 OCA  HN ES        811 34.87                             130   -0.35 9  154 355 
 SPBC HZ EP   1    811 14.71                             128    0.04 7  164 216 
 SPBC HN ES        811 36.86                             128    0.16 9  164 216 
 SPBC HZ I         811 41.37         6.3 0.28            128            164 216 
 NOR  HZ EP   1    811 21.06                             118   -0.70 6  233 233 
 NOR  HN ES        811 49.61                             118    0.28 8  233 233 
 NOR  HZ I         811 55.55         2.8 0.22            118            233 233 
 SML  HZ EP   1    811 22.18                             117    0.15 6  237 336 
 SML  HN ES   4    811 52.28                             117    2.48 0  237 336 
 SML  HZ I         811 55.11         4.2 0.10            118            237 336 
 PRA  HZ EP        811 40.09                             106    0.06 6  394 208 
 PRA  HN ES        812 21.37                             106   -0.47 6  394 208 
 PRA  HZ I         812 27.06         2.3 0.79            107            394 208 
                                                                                
