 2017  323 0226 12.2 L   6.795 -73.291120.6  RSN  4 0.2 1.3LRSN                1
 GAP=113        0.57       5.0     2.7  5.9 -0.4993E+01  0.7923E+01 -0.1407E+02E
 Epicentro: ZAPATOCA - SANTANDER                                               3
 ACTION:UPD 17-05-25 18:44 OP:jn   STATUS:               ID:20170323022612 L   I
 OLDACT:REG 17-03-23 12:24 OP:lv   STATUS:               ID:20170323021746     3
 2017-03-23-0218-00M.COL___391                                                 6
 STAT SP IPHASW D HRMM SECON CODA AMPLIT PERI AZIMU VELO AIN AR TRES W  DIS CAZ7
 BAR2 EZ EP        226 28.71                             168   -0.1810 25.4 152 
 BAR2 EZ ES        226 41.70                             168   -0.1910 25.4 152 
 BAR2 EZ I         226 43.01         8.5 0.23            173           25.4 152 
 PAM  EZ EP        226 32.81                             141    0.1410 88.9  47 
 PAM  EN ES        226 48.74                             141    0.1310 88.9  47 
 PAM  EZ I         226 50.84         2.2 0.27            142           88.9  47 
 PTB  HN ES        226 54.43                             129    0.3710  132 258 
 ZAR  HZ EP        226 41.51                             118   -0.08 9  190 294 
 ZAR  HN ES        227  4.26                             118   -0.23 9  190 294 
 ZAR  HZ I         227  7.14         2.2 0.17            120            190 294 
                                                                                
