 2010  823 0615 59.7 L   6.852 -73.293116.6  RSN 10 0.6 2.1LRSN                1
 GAP=132        1.39       5.5    10.5 11.0 -0.1216E+01 -0.2126E+01 -0.1147E+02E
 Epicentro: ZAPATOCA - SANTANDER                                               3
 ACTION:UP  10-09-07 10:57 OP:vdl  STATUS:               ID:20100823061559 L   I
 2010-08-23-0612-02S.COL___128                                                 6
 STAT SP IPHASW D HRMM SECON CODA AMPLIT PERI AZIMU VELO SNR AR TRES W  DIS CAZ7
 GIR2 SZ IP        616 15.86                             166     0.110   27  24 
 BAR2 SZ IP        616 16.26                             164     0.210   31 157 
 BAR2 SZ I         616 16.45       134.0 0.08                            31 157 
 BAR2 SZ ES   1    616 28.13                             164    -0.7 7   31 157 
 BRR  HZ IP     C  616 16.65                             153     0.010   54 301 
 BRR  HE ES   1    616 30.78                             153     0.8 7   54 301 
 BRR  HZ I         616 31.66        82.0 0.13                            54 301 
 RUS  HZ EP   1    616 21.05                             135    -0.3 7  109 168 
 RUS  HN ES   1    616 38.31                             135     0.0 7  109 168 
 RUS  HZ I         616 39.90        14.9 0.24                           109 168 
 GUE  SZ EP   1    616 21.24                             132    -0.5 7  116  21 
 GUE  SZ I         616 21.71        21.3 0.15                           116  21 
 GRA  SZ IP        616 23.66                             129     1.110  126  25 
 GRA  SZ I         616 46.52        14.8 0.36                           126  25 
 OCA  SZ EP        616 24.57                             123    -0.6 9  153 359 
 OCA  SZ ES   1    616 44.22                             123    -0.9 7  153 359 
 OCA  SZ I         616 45.78        22.1 0.39                           153 359 
 CHI  HZ EP   2    616 36.31                             110     0.2 4  250 191 
 CHI  HZ I         616 48.09         3.1 0.15                           250 191 
 CHI  HN ES   2    617  4.01                             110    -0.6 4  250 191 
 HEL  HZ EP   2    616 36.80                             110    -0.1 4  258 254 
 HEL  HN ES   2    617  5.82                             110    -0.2 4  258 254 
 PRA  HZ EP   2    616 52.39                             101     0.4 3  389 207 
 PRA  HZ I         617  3.53         2.6 0.13                           389 207 
                                                                                
