 2017  223 0317 40.9 L   6.561 -73.283134.1  RSN  6 0.3 1.4LRSN                1
 GAP=111        0.83       3.8     4.8  5.8  0.8700E+00  0.5945E+01  0.6159E+01E
 Epicentro: PALMAR - SANTANDER                                                 3
 ACTION:UPD 17-05-24 15:39 OP:jn   STATUS:               ID:20170223031740 L   I
 OLDACT:UP  17-02-23 15:21 OP:edw  STATUS:               ID:20170223030747     3
 OLDACT:REG 17-02-23 12:57 OP:edw  STATUS:               ID:20170223030747     3
 2017-02-23-0308-00M.COL___382                                                 6
 STAT SP IPHASW D HRMM SECON CODA AMPLIT PERI AZIMU VELO AIN AR TRES W  DIS CAZ7
 BAR2 EZ EP        317 58.60                             174   -0.3310 11.6  73 
 BAR2 EZ ES        318 13.10                             174    0.1010 11.6  73 
 BAR2 EZ I         318 14.32         7.2 0.36            176           11.6  73 
 BRR  HZ EP        318  0.78                             148   -0.3610 76.8 322 
 BRR  HN ES        318 17.32                             148    0.3810 76.8 322 
 BRR  HZ I         318 17.82         7.9 0.14            150           76.8 322 
 RUS  HZ EP        318  2.25                             148    0.3810 77.2 163 
 RUS  HN ES        318 17.98                             148   -0.2510 77.2 163 
 RUS  HZ I         318 20.15         3.0 0.24            149           77.2 163 
 PTB  HZ EP   9    318  4.03                             133   -1.26 0  130 269 
 PTB  HE ES        318 22.72                                   -0.3410  130 269 
 PTB  HZ I         318 24.38         4.6 0.16            134            130 269 
 NOR  HZ EP        318 13.23                             119    0.21 8  207 238 
 NOR  HN ES        318 37.69                             119   -0.39 8  207 238 
 NOR  HZ I         318 40.69         2.9 0.20            120            207 238 
 CHI  HZ EP   4    318 16.37                             118    1.61 0  219 193 
 CHI  HN ES        318 41.49                             118    0.31 8  219 193 
                                                                                
