 2015  623 0202 43.9 L   6.818 -73.109146.9  RSN  5 0.3 1.6LRSN                1
 GAP=262        0.69       5.7     4.9  9.6 -0.3031E+01  0.7533E+01  0.9964E+01E
 Epicentro: LOS SANTOS - SANTANDER                                             3
 ACTION:UPD 15-09-10 22:14 OP:cam  STATUS:               ID:20150623020243 L   I
 OLDACT:UP  15-06-23 15:48 OP:mh   STATUS:               ID:20150623015745     3
 OLDACT:REG 15-06-23 12:12 OP:mh   STATUS:               ID:20150623015745     3
 2015-06-23-0157-45M.COL___319                                                 6
 STAT SP IPHASW D HRMM SECON CODA AMPLIT PERI AZIMU VELO AIN AR TRES W  DIS CAZ7
 BAR2 EZ EP        2 3  3.82                             169    0.0610 26.2 198 
 BRR  HZ EP        2 3  5.70                             152    0.3410 73.9 296 
 BRR  HN ES   1    2 3 21.75                             152   -0.32 7 73.9 296 
 ZAR  HZ EP        2 3 16.25                             122   -0.51 8  207 291 
 ZAR  HN ES        2 3 42.55                             122    0.18 8  207 291 
 ZAR  HZ I         2 3 48.37         4.5 0.24            121            207 291 
 NOR  HE ES        2 3 48.31                             118   -0.18 8  239 235 
 HEL  HZ I         2 3 55.35         2.1 0.52            115            276 256 
 HEL  HN ES        2 3 56.71                             115    0.23 7  276 256 
                                                                                
