 2011  423 0408 18.4 L   6.703 -73.182152.0  RSN  4 0.2 1.6LRSN                1
 GAP=175        0.58       6.9    12.3  8.2  0.5365E+02 -0.2629E+02  0.2487E+01E
 Epicentro: VILLANUEVA - SANTANDER                                             3
 ACTION:UP  11-06-22 15:32 OP:REBC STATUS:               ID:20110423040818 L   I
 2011-04-23-0400-00M.COL___140                                                 6
 STAT SP IPHASW D HRMM SECON CODA AMPLIT PERI AZIMU VELO SNR AR TRES W  DIS CAZ7
 BAR2 SZ EP        4 8 38.33                             175    -0.310   12 180 
 BAR2 SZ I         4 8 38.52         5.8 0.21                            12 180 
 GIR2 SZ EP        4 8 39.43                             164     0.310   42 358 
 GIR2 SZ ES   2    4 8 55.09                             164    -0.2 5   42 358 
 BRR  HZ EP        4 8 40.34                             153     0.010   74 307 
 BRR  HZ I         4 8 40.83        13.0 0.15                            74 307 
 BRR  HN ES   1    4 8 57.60                             153     0.1 7   74 307 
 RUS  HZ EP        4 8 42.15                             148     0.010   90 173 
 RUS  HN ES   2    4 9  0.70                             148     0.1 5   90 173 
 RUS  HZ I         4 9  1.56         4.1 0.24                            90 173 
                                                                                
