 2012  323 0657 32.9 L   6.744 -73.510114.2  RSN  6 0.4 1.3LRSN                1
 GAP=105        0.76       7.2     6.4 11.2  0.1730E+02  0.2811E+02  0.4081E+02E
 ACTION:UP  12-03-31 23:22 OP:EP   STATUS:               ID:20120323065732 L   I
 2012-03-23-0650-00M.COL___197                                                 6
 STAT SP IPHASW D HRMM SECON CODA AMPLIT PERI AZIMU VELO SNR AR TRES W  DIS CAZ7
 BAR2 SZ EP        657 49.47                             160     0.210   40 115 
 BAR2 SZ I         657 49.69         8.1 0.14                            40 115 
 BRR  HZ EP   1    657 49.32                             156     0.1 7   46 331 
 BRR  HN ES   1    658  2.08                             156     0.1 7   46 331 
 BRR  HZ I         658  3.16         8.8 0.28                            46 331 
 RUS  HZ EP   1    657 54.11                             135     0.0 7  105 153 
 RUS  HE ES   2    658 10.67                             135     0.1 5  105 153 
 RUS  HZ I         658 11.65         2.5 0.44                           105 153 
 PTB  HZ EP        657 53.19                             134    -0.410  107 258 
 PAM  SN ES   2    658 10.88                             133    -0.6 5  111  54 
 ZAR  HZ EP   2    658  0.69                             119     0.9 4  170 299 
                                                                                
