 2012  723 0737 14.7 L   6.802 -73.119147.3  RSN  4 0.2 1.3LRSN                1
 GAP=241        0.52       5.6     6.2  5.0  0.2021E+02  0.2151E+01 -0.2206E+00E
 Epicentro: LOS SANTOS - SANTANDER                                             3
 ACTION:UPD 12-08-14 11:44 OP:ep   STATUS:               ID:20120723073714 L   I
 2012-07-23-0730-00M.COL___215                                                 6
 STAT SP IPHASW D HRMM SECON CODA AMPLIT PERI AZIMU VELO AIN AR TRES W  DIS CAZ7
 BAR2 SZ EP        737 34.28                             170    -0.210   24 197 
 BAR2 SZ ES   1    737 49.76                             170    -0.2 7   24 197 
 BAR2 SZ I         737 52.62         5.0 0.80            172             24 197 
 BRR  HZ EP        737 36.26                             152     0.110   74 297 
 BRR  HN ES   1    737 53.09                             152     0.2 7   74 297 
 BRR  HZ I         737 56.55         3.2 0.24            154             74 297 
 RUS  HZ EP        737 38.68                             144     0.110  101 178 
 RUS  HN ES   1    737 57.45                             144     0.2 7  101 178 
 RUS  HZ I         737 59.39         2.3 0.48            148            101 178 
 PTB  HZ EP        737 41.96                             132    -0.1 9  151 259 
 PTB  HN ES   2    738  3.24                             132    -0.1 5  151 259 
 PTB  HZ I         738  4.22         2.4 0.34            135            151 259 
