 2017  823 0605 14.2 L   6.799 -73.113143.8  RSN 11 0.6 1.6LRSN                1
 GAP=115        1.28       4.1     4.7  7.1  0.9832E+00  0.1020E+02  0.7922E+01E
 Epicentro: LOS SANTOS - SANTANDER                                             3
 ACTION:UPD 17-09-04 20:23 OP:rebc STATUS:               ID:20170823060514 L   I
 OLDACT:DUP 17-08-23 16:06 OP:osc  STATUS:               ID:20170823055741d    3
 2017-08-23-0558-00M.COL___405                                                 6
 STAT SP IPHASW D HRMM SECON CODA AMPLIT PERI AZIMU VELO AIN AR TRES W  DIS CAZ7
 BAR2 EZ EP        6 5 33.56                             170   -0.1010 24.1 198 
 BAR2 EZ ES        6 5 48.24                             170   -0.5510 24.1 198 
 BAR2 EZ I         6 5 49.53         8.3 0.24            169           24.1 198 
 BRR  HZ EP        6 5 35.53                             151    0.1610 74.4 297 
 BRR  HE ES        6 5 52.46                             151    0.6210 74.4 297 
 BRR  HZ I         6 5 57.37         8.0 0.12            149           74.4 297 
 PAM  EZ EP        6 5 36.39                             151    0.2710 75.2  37 
 PAM  EN ES        6 5 53.24                             151    0.0510 75.2  37 
 PAM  EZ I         6 5 54.79         4.5 0.20            154           75.2  37 
 RUS  HZ EP        6 5 37.88                             143    0.1010  100 178 
 RUS  HN ES        6 5 55.46                             143   -0.6810  100 178 
 RUS  HZ I         6 5 56.74         3.8 0.26            146            100 178 
 SPBC HZ EP        6 5 43.44                             128    0.64 9  165 220 
 SPBC HN ES        6 6  5.46                             128    0.38 9  165 220 
 SPBC HZ I         6 6 10.68         3.8 0.15            129            165 220 
 YPLC HZ EP        6 5 43.93                             126    0.21 9  175 152 
 YPLC HN ES        6 6  7.28                             126    0.57 9  175 152 
 ZAR  HZ EP        6 5 46.25                             121   -0.66 8  207 292 
 ZAR  HN ES        6 6 12.23                             121   -0.16 8  207 292 
 ZAR  HZ I         6 6 18.37         9.4 0.08            122            207 292 
 NOR  HZ EP        6 5 49.21                             118   -0.96 8  238 235 
 NOR  HE ES        6 6 18.02                             118   -0.17 8  238 235 
 CHI  HN ES        6 6 20.47                             117   -0.85 8  250 196 
 GUY2CHZ EP        6 5 57.33                             112   -0.76 7  304 235 
 GUY2CHE ES        6 6 33.54                             112    1.25 7  304 235 
 GUY2CHZ I         6 6 38.94         1.6 0.28                           304 235 
 PRA  HZ EP        6 6  8.34                             106    0.44 6  394 210 
 PRA  HE ES        6 6 50.14                             106    0.39 6  394 210 
 PRA  HZ I         6 6 55.42         2.1 0.32            107            394 210 
                                                                                
