 2012  323 0649 35.0 L   6.777 -73.139146.6  RSN 11 0.4 1.7LRSN                1
 GAP=138        0.71       4.2     4.3  6.8 -0.1902E+01  0.8368E+01  0.5692E+01E
 ACTION:UP  12-03-31 23:22 OP:EP   STATUS:               ID:20120323064935 L   I
 2012-03-23-0647-59S.COL___203                                                 6
 STAT SP IPHASW D HRMM SECON CODA AMPLIT PERI AZIMU VELO SNR AR TRES W  DIS CAZ7
 BAR2 SZ EP        649 54.68                             171    -0.110   21 193 
 BAR2 SZ ES   2    650  9.55                             171    -0.5 5   21 193 
 BAR2 SZ I         650 12.35        15.9 0.24                            21 193 
 BRR  HZ EP        649 56.59                             152     0.210   73 300 
 BRR  HE ES   2    650 13.90                             152     0.9 5   73 300 
 BRR  HZ I         650 16.53        15.7 0.18                            73 300 
 PAM  SZ EP        649 57.67                             150     0.210   79  38 
 PAM  SN ES   2    650 14.70                             150    -0.2 5   79  38 
 RUS  HZ EP        649 58.59                             145    -0.110   98 176 
 RUS  HN ES   2    650 17.26                             145     0.1 5   98 176 
 RUS  HZ I         650 18.28         5.2 0.24                            98 176 
 PTB  HZ EP        650  1.52                             132    -0.6 9  148 260 
 PTB  HE ES   2    650 22.87                             132    -0.3 5  148 260 
 PTB  HZ I         650 28.54         5.6 0.27                           148 260 
 ZAR  HZ EP   1    650  7.47                             122    -0.2 6  206 293 
 ZAR  HE ES   2    650 33.03                             122    -0.2 4  206 293 
 ZAR  HZ I         650 38.76         6.0 0.21                           206 293 
 NOR  SE ES   2    650 39.07                             119     0.5 4  234 235 
 CHI  HZ EP   2    650 12.47                             117    -0.1 4  246 195 
 CHI  HN ES   2    650 42.16                             117     0.4 4  246 195 
 CHI  HZ I         650 47.46         3.3 0.19                           246 195 
 HEL  HZ EP   2    650 15.92                             115     0.6 4  272 256 
 HEL  HN ES   2    650 46.86                             115     0.1 4  272 256 
 HEL  HZ I         650 53.28         3.4 0.40                           272 256 
 RREF HZ EP   1    650 21.93                             111     0.8 5  321 230 
 RREF HN ES   2    650 57.04                             111     0.0 3  321 230 
 PRA  HZ EP   1    650 28.17                             107    -0.2 4  390 210 
 PRA  HN ES   2    651 10.03                             107     0.0 3  390 210 
                                                                                
