 2012  323 0307 26.9 L   6.761 -73.128149.8  RSN  6 0.4 1.0LRSN                1
 GAP=141        0.65       6.2     5.2  8.6 -0.1958E+01 -0.6291E+00 -0.5515E+01E
 ACTION:UP  12-03-31 23:21 OP:EP   STATUS:               ID:20120323030726 L   I
 2012-03-23-0300-00M.COL___202                                                 6
 STAT SP IPHASW D HRMM SECON CODA AMPLIT PERI AZIMU VELO SNR AR TRES W  DIS CAZ7
 BAR2 SZ EP        3 7 46.75                             172    -0.210   20 198 
 BAR2 SZ ES   2    3 8  2.05                             172    -0.5 5   20 198 
 BRR  HZ EP   2    3 7 48.75                             152     0.1 5   75 301 
 BRR  HN ES   2    3 8  6.44                             152     0.7 5   75 301 
 PAM  SZ EP        3 7 49.69                             151     0.010   80  36 
 PAM  SN ES   2    3 8  7.33                             151    -0.1 5   80  36 
 RUS  HZ EP   2    3 7 51.04                             146     0.3 5   96 177 
 RUS  HZ I         3 7 51.87         1.1 0.50                            96 177 
 RUS  HN ES   2    3 8  9.92                             146     0.6 5   96 177 
 PTB  HZ EP   2    3 7 54.36                             133     0.1 5  149 261 
 PTB  HE ES   2    3 8 14.91                             133    -0.8 5  149 261 
 PTB  HZ I         3 8 22.17         1.9 0.30                           149 261 
 ZAR  HE ES   2    3 8 26.07                             123     0.3 4  208 293 
                                                                                
