 2017  223 0724 17.2 L   6.773 -73.094139.3  RSN  5 0.2 1.2LRSN                1
 GAP=144        0.86       4.4     6.0  6.6 -0.1207E+01 -0.9571E+01  0.5330E+00E
 Epicentro: LOS SANTOS - SANTANDER                                             3
 ACTION:UPD 17-05-24 15:39 OP:jn   STATUS:               ID:20170223072417 L   I
 OLDACT:UP  17-02-23 18:28 OP:edw  STATUS:               ID:20170223071729     3
 OLDACT:REG 17-02-23 13:39 OP:edw  STATUS:               ID:20170223071729     3
 2017-02-23-0718-00M.COL___376                                                 6
 STAT SP IPHASW D HRMM SECON CODA AMPLIT PERI AZIMU VELO AIN AR TRES W  DIS CAZ7
 BAR2 EZ EP     C  724 35.88                             171   -0.1710 22.3 206 
 BAR2 EZ ES        724 50.56                             171   -0.1810 22.3 206 
 BAR2 EZ I         724 52.75         5.0 0.28            172           22.3 206 
 PAM  EZ EP     C  724 38.89                             149    0.2110 76.3  35 
 PAM  EN ES        724 55.33                             149   -0.1010 76.3  35 
 PAM  EZ I         724 58.06         3.2 0.52            151           76.3  35 
 BRR  HZ EP     C  724 37.79                             149   -0.2710 77.6 298 
 BRR  HN ES        724 54.62                             149    0.3010 77.6 298 
 BRR  HZ I         724 56.23         3.2 0.20            151           77.6 298 
 RUS  HZ EP        724 40.19                             143    0.0810 97.4 179 
 RUS  HN ES        724 58.09                             143    0.1310 97.4 179 
 RUS  HZ I         724 59.15         1.9 0.24            146           97.4 179 
 PTB  HZ EP   9    724 42.77                             129   -1.37 0  153 260 
 PTB  HN ES        725  2.93                             132   -0.84 9  153 260 
 PTB  HZ I         725  5.69         2.4 0.30            132            153 260 
                                                                                
