 2010  423 0803 55.3 L   6.817 -73.134158.0  RSN 14 0.5 2.4LRSN                1
 GAP=145        0.87       5.7     8.9  8.8 -0.3424E+02 -0.3743E+02  0.2671E+02E
 Epicentro: LOS SANTOS - SANTANDER                                             3
 ACTION:UPD 10-08-24 10:00 OP:vdl  STATUS:               ID:20100423080405 L   I
 2010-04-23-0802-23S.COL___104                                                 6
 STAT SP IPHASW D HRMM SECON CODA AMPLIT PERI AZIMU VELO AIN AR TRES W  DIS CAZ7
 GIR2 SZ EP   2    8 4 16.79                             169     0.4 5   30 347 
 GIR2 SZ ES   2    8 4 32.82                             169     0.0 5   30 347 
 BRR  HZ IP     D  8 4 18.02                             155     0.210   72 297 
 BRR  HZ I         8 4 18.19        53.9 0.12                            72 297 
 BRR  HN ES   1    8 4 35.24                             155    -0.1 7   72 297 
 BRI  SZ EP   1    8 4 21.23                             144     1.0 7  106  21 
 GUE  SZ IP        8 4 20.70                             142    -0.310  114  12 
 GRA  SZ IP        8 4 21.52                             140     0.010  124  17 
 OCA  SZ IP        8 4 24.20                             133    -0.2 9  159 353 
 OCA  SZ ES   1    8 4 46.78                             133    -0.4 7  159 353 
 OCA  SZ I         8 4 49.42        51.9 0.21                           159 353 
 CHI  HZ EP   1    8 4 33.56                             119    -0.4 6  251 195 
 CHI  HN ES   2    8 5  3.94                             119    -0.1 4  251 195 
 CHI  HZ I         8 5 11.42        11.4 0.46                           251 195 
 ROSC BZ EP   2    8 4 35.08                             119     0.7 4  255 211 
 HEL  HZ EP   2    8 4 37.20                             117     0.9 4  274 255 
 HEL  HZ I         8 5 14.99        10.7 0.39                           274 255 
 RREF BZ EP   2    8 4 42.82                             113     0.6 3  324 229 
 RREF BE ES   2    8 5 17.93                             113    -0.9 3  324 229 
 RREF BZ I         8 5 26.38        13.4 0.21                           324 229 
 DBB  SZ EP   2    8 4 43.21                             112    -0.2 3  341 274 
 TOL  SZ EP   2    8 4 44.89                             111     0.6 3  346 225 
 SDV  BZ IP     C  8 4 45.10                             110    -0.5 6  358  50 
 SDV  BZ I         8 4 45.82         3.4 0.16                           358  50 
 PRA  HZ EP   1    8 4 49.07                             108    -0.4 4  394 210 
 PRA  HN ES   1    8 5 31.29                             108    -0.5 4  394 210 
 PRA  HZ I         8 5 37.17        14.0 0.39                           394 210 
                                                                                
