 2014 1023 0413 56.8 L   6.749 -73.182142.3  RSN  5 0.4 1.4LRSN                1
 GAP=236        1.00       7.1     7.5  9.0 -0.1361E+02  0.5742E+00  0.1951E+02E
 Epicentro: VILLANUEVA - SANTANDER                                             3
 ACTION:UPD 14-11-29 23:55 OP:nd   STATUS:               ID:20141023041356 L   I
 OLDACT:REG 14-10-26 01:32 OP:mh   STATUS:               ID:20141023040748     3
 2014-10-23-0407-48M.COL___274                                                 6
 STAT SP IPHASW D HRMM SECON CODA AMPLIT PERI AZIMU VELO AIN AR TRES W  DIS CAZ7
 BAR2 SZ EP        414 15.93                             173    0.0110 17.3 180 
 BAR2 SZ ES   1    414 30.53                             173   -0.29 7 17.3 180 
 BAR2 SZ I         414 31.58         4.7 0.36            168           17.3 180 
 BRR  HZ EP        414 17.80                             152    0.2410 70.7 304 
 BRR  HN ES        414 34.10                             152    0.3610 70.7 304 
 BRR  HZ I         414 35.00         5.6 0.10            153           70.7 304 
 PTB  HZ EP        414 22.25                             132   -0.80 9  143 261 
 PTB  HN ES        414 43.14                             132   -0.37 9  143 261 
 PTB  HZ I         414 46.65         3.4 0.12            132            143 261 
 SPBC HZ EP        414 24.80                             130    0.41 9  156 219 
 SPBC HN ES        414 45.90                             130    0.00 9  156 219 
 SPBC HZ I         414 52.38         3.2 0.22            129            156 219 
 GUY2CHZ EP   4    414 42.68                             112    3.15 0  295 235 
 GUY2CHN ES   1    415 13.65                             112    0.81 5  295 235 
 GUY2CHZ I         415 21.49         1.5 0.30                           295 235 
                                                                                
