 2017  223 0810 59.4 L   6.818 -73.092146.7  RSN  4 0.2 1.2LRSN                1
 GAP=143        0.62       3.4     4.9  5.0 -0.5339E+00 -0.1661E+01  0.8828E+00E
 Epicentro: LOS SANTOS - SANTANDER                                             3
 ACTION:UPD 17-05-24 15:39 OP:jn   STATUS:               ID:20170223081059 L   I
 OLDACT:UP  17-02-23 16:49 OP:dani STATUS:               ID:20170223080745d    3
 OLDACT:DUP 17-02-23 16:46 OP:dani STATUS:               ID:20170223080745d    3
 OLDACT:UP  17-02-23 16:45 OP:dani STATUS:               ID:20170223080744     3
 OLDACT:UP  17-02-23 16:44 OP:dani STATUS:               ID:20170223080744     3
 OLDACT:UP  17-02-23 16:43 OP:dani STATUS:               ID:20170223080744     3
 OLDACT:UP  17-02-23 16:43 OP:dani STATUS:               ID:20170223080744     3
 OLDACT:UP  17-02-23 16:42 OP:dani STATUS:               ID:20170223080744     3
 OLDACT:UP  17-02-23 16:28 OP:dani STATUS:               ID:20170223080744     3
 OLDACT:UP  17-02-23 16:28 OP:dani STATUS:               ID:20170223080744     3
 OLDACT:UP  17-02-23 16:26 OP:dani STATUS:               ID:20170223080744     3
 OLDACT:UP  17-02-23 16:26 OP:dani STATUS:               ID:20170223080744     3
 OLDACT:REG 17-02-23 13:45 OP:edw  STATUS:               ID:20170223080744     3
 2017-02-23-0808-00M.COL___367                                                 6
 STAT SP IPHASW D HRMM SECON CODA AMPLIT PERI AZIMU VELO AIN AR TRES W  DIS CAZ7
 BAR2 EZ EP        811 18.93                             169   -0.2810 26.9 202 
 BAR2 EZ ES        811 34.32                             169   -0.3410 26.9 202 
 BAR2 EZ I         811 36.14         2.8 0.62            167           26.9 202 
 PAM  EZ EP        811 21.60                             153    0.2010 72.1  37 
 PAM  HE ES        811 38.59                             153    0.0210 72.1  37 
 PAM  EZ I         811 41.21         3.2 0.52            156           72.1  37 
 BRR  HZ EP        811 20.77                             151   -0.1210 75.6 295 
 BRR  HE ES        811 37.90                             151    0.2410 75.6 295 
 BRR  HZ I         811 46.69         3.7 0.48            147           75.6 295 
 RUS  HZ EP        811 23.38                             143    0.0210  102 179 
 RUS  HN ES        811 42.33                             143    0.2810  102 179 
 RUS  HZ I         811 43.51         1.6 0.40            148            102 179 
                                                                                
