 2015  223 0911 58.4 L   6.806 -73.180147.3  RSN  8 0.4 1.7LRSN                1
 GAP=132        1.01       3.9     4.6  6.6 -0.4696E+01  0.6247E+01 -0.9040E+00E
 Epicentro: ZAPATOCA - SANTANDER                                               3
 ACTION:UPD 15-04-30 21:28 OP:nd   STATUS:               ID:20150223091158 L   I
 OLDACT:UP  15-02-23 18:41 OP:mh   STATUS:               ID:20150223090748     3
 OLDACT:REG 15-02-23 14:00 OP:mh   STATUS:               ID:20150223090748     3
 2015-02-23-0907-48M.COL___269                                                 6
 STAT SP IPHASW D HRMM SECON CODA AMPLIT PERI AZIMU VELO AIN AR TRES W  DIS CAZ7
 BAR2 EZ EP        912 18.10                             171   -0.1010 23.6 181 
 BAR2 EZ ES        912 34.16                             171    0.4910 23.6 181 
 BAR2 EZ I         912 35.01        11.8 0.45            150           23.6 181 
 BRR  HZ EP        912 19.80                             154    0.3010 67.5 300 
 BRR  HN ES        912 36.37                             154    0.4010 67.5 300 
 BRR  HZ I         912 37.85        18.4 0.30            106           67.5 300 
 PAM  SZ EP        912 21.39                             150    0.5110 79.4  42 
 PAM  SN ES        912 37.98                             150   -0.4510 79.4  42 
 PAM  SZ I         912 38.91         6.2 0.18             71           79.4  42 
 RUS  HZ EP        912 22.22                             144   -0.1310  102 174 
 RUS  HN ES        912 40.39                             144   -0.6710  102 174 
 RUS  HZ I         912 42.38         3.3 0.32             71            102 174 
 PTB  HZ EP   1    912 24.75                             133   -0.40 7  144 258 
 PTB  HN ES        912 45.76                             133   -0.27 9  144 258 
 PTB  HZ I         912 51.75         5.3 0.24             56            144 258 
 SPBC HZ EP        912 27.27                             130    0.45 9  161 218 
 SPBC HN ES        912 49.30                             130    0.29 9  161 218 
 SPBC HZ I         912 55.91         7.9 0.34             56            161 218 
 NOR  HN ES        913  1.17                             119   -0.45 8  232 234 
 NOR  HZ I         913  9.95         3.5 0.19             56            232 234 
 SML  HZ EP   1    912 34.72                             118   -0.14 6  242 336 
 SML  HN ES   1    913  2.76                             118   -0.55 6  242 336 
 SML  HZ I         913 12.73         8.4 0.10             56            242 336 
                                                                                
