 2017  423 0006 44.8 L   6.804 -73.143144.0  RSN  8 0.4 1.6LRSN                1
 GAP=112        1.10       4.5     4.3  7.3  0.3411E+01  0.5258E+01  0.1548E+02E
 Epicentro: LOS SANTOS - SANTANDER                                             3
 ACTION:UPD 17-05-30 21:15 OP:jn   STATUS:               ID:20170423000644 L   I
 OLDACT:DUP 17-04-23 13:31 OP:lv   STATUS:               ID:20170423000001d    3
 2017-04-23-0000-15M.COL___365                                                 6
 STAT SP IPHASW D HRMM SECON CODA AMPLIT PERI AZIMU VELO AIN AR TRES W  DIS CAZ7
 BAR2 EZ EP        0 7  4.23                             170    0.0510 23.8 191 
 BAR2 EZ ES        0 7 19.26                             170   -0.0710 23.8 191 
 BAR2 EZ I         0 7 20.76         9.7 0.06            168           23.8 191 
 BRR  HZ EP        0 7  5.93                             152    0.2210 71.3 298 
 BRR  HN ES        0 7 22.99                             152    0.9310 71.3 298 
 BRR  HZ I         0 7 23.49         7.0 0.27            152           71.3 298 
 PAM  EZ EP        0 7  7.02                             151    0.2710 76.9  40 
 PAM  EN ES        0 7 22.97                             151   -0.9410 76.9  40 
 PAM  EZ I         0 7 27.74         2.9 0.07            155           76.9  40 
 PTB  HZ EP        0 7 11.35                             131   -0.26 9  148 259 
 PTB  HN ES        0 7 31.95                             131   -0.60 9  148 259 
 PTB  HZ I         0 7 38.39         3.1 0.22            131            148 259 
 YPLC HZ EP        0 7 14.48                             126    0.04 9  177 151 
 YPLC HN ES        0 7 37.94                             126    0.35 9  177 151 
 YPLC HZ I         0 7 39.49         4.5 0.14            128            177 151 
 ZAR  HZ EP   4    0 7 19.76                             122    2.67 0  204 292 
 ZAR  HE ES        0 7 42.37                             122    0.05 9  204 292 
 ZAR  HZ I         0 7 47.44         4.1 0.29            123            204 292 
 CHI  HZ EP        0 7 22.51                             117    0.11 8  249 195 
 CHI  HN ES        0 7 51.79                             117    0.02 8  249 195 
 CHI  HZ I         0 7 57.06         1.8 0.32            117            249 195 
 PRA  HZ EP        0 7 38.38                             106    0.11 6  392 210 
 PRA  HE ES        0 8 19.49                             106   -0.52 6  392 210 
 PRA  HZ I         0 8 26.27         2.4 0.54            107            392 210 
 SJC  HZ EP   4    0 7 37.96                             105   -2.27 0  409 327 
 SJC  HN ES   4    0 8 20.21                             105   -3.30 0  409 327 
                                                                                
