 2014 1123 0219 34.3 L   6.789 -73.176150.5  RSN  6 0.3 1.4LRSN                1
 GAP=100        0.73       4.0     3.4  4.9 -0.8805E+00 -0.1341E+01  0.1556E+01E
 Epicentro: LOS SANTOS - SANTANDER                                             3
 ACTION:UPD 14-12-19 15:46 OP:nd   STATUS:               ID:20141123021934 L   I
 OLDACT:ARG 14-11-23 12:58 OP:stll STATUS:               ID:20141123021749     3
 2014-11-23-0217-49M.COL___297                                                 6
 STAT SP IPHASW D HRMM SECON CODA AMPLIT PERI AZIMU VELO AIN AR TRES W  DIS CAZ7
 BAR2 SZ EP        219 54.50                             171   -0.0110 21.7 182 
 BAR2 SZ ES        220 10.27                             171    0.0310 21.7 182 
 BAR2 SZ I         220 11.81         6.7 0.30            172           21.7 182 
 BRR  HZ EP        219 56.20                             154    0.3210 68.9 301 
 BRR  HN ES        220 13.13                             154    0.4510 68.9 301 
 BRR  HZ I         220 17.77         7.2 0.40            152           68.9 301 
 PAM  SZ EP        219 57.37                             151    0.1210 80.5  41 
 PAM  SN ES        220 14.63                             151   -0.4810 80.5  41 
 PAM  SZ I         220 16.68         4.0 0.60            153           80.5  41 
 RUS  HZ EP        219 58.43                             145   -0.0610 99.6 174 
 RUS  HN ES        220 17.43                             145    0.1010 99.6 174 
 RUS  HZ I         220 18.22         2.5 0.34            148           99.6 174 
 PTB  HZ EP        220  1.12                             134   -0.27 9  144 259 
 PTB  HN ES        220 22.11                             134   -0.37 9  144 259 
 PTB  HZ I         220 27.47         2.4 0.20            134            144 259 
 TAM  HZ EP        220  2.78                             131    0.11 9  158 104 
                                                                                
