 2014  523 0900 11.6 L   6.769 -73.168132.4  RSN  4 0.1 1.0LRSN                1
 GAP=135        0.33       1.7     2.0  4.7  0.3053E+00  0.4155E+01  0.3129E+00E
 Epicentro: LOS SANTOS - SANTANDER                                             3
 ACTION:UPD 15-03-16 17:00 OP:nd   STATUS:               ID:20140523090011 L   I
 OLDACT:REG 14-05-23 13:20 OP:spq  STATUS:               ID:20140523085815     3
 2014-05-23-0858-15M.COL___252                                                 6
 STAT SP IPHASW D HRMM SECON CODA AMPLIT PERI AZIMU VELO AIN AR TRES W  DIS CAZ7
 PAM  SZ EP   1    9 0 32.60                             147   -0.09 7 81.6  39 
 PAM  SN ES        9 0 49.15                             147    0.0110 81.6  39 
 PAM  SZ I         9 0 50.27         2.0 0.24            150           81.6  39 
 RUS  HZ EP        9 0 33.86                             142    0.0310 97.4 174 
 RUS  HN ES        9 0 51.17                             142    0.0110 97.4 174 
 RUS  HZ I         9 0 53.35         1.7 0.30            143           97.4 174 
 PTB  HN ES   2    9 0 56.96                             129   -0.25 5  145 260 
 OCA  HE ES   4    9 0 57.24                             126   -3.51 0  163 354 
 ZAR  HN ES        9 1  7.76                             119    0.07 9  203 293 
                                                                                
