 2013  123 0643 14.8 L   6.707 -73.150143.8  RSN  4 0.5 1.6LRSN                1
 GAP=160        1.29      13.2     8.0 11.8 -0.4859E+02 -0.7043E+00  0.3153E+01E
 Epicentro: VILLANUEVA - SANTANDER                                             3
 ACTION:UPD 13-02-15 09:16 OP:ep   STATUS:               ID:20130123064314 L   I
 2013-01-23-0638-36M.COL___180                                                 6
 STAT SP IPHASW D HRMM SECON CODA AMPLIT PERI AZIMU VELO AIN AR TRES W  DIS CAZ7
 BAR2 SZ EP        643 34.35                             174    0.3610 13.2 196 
 BAR2 SZ ES        643 49.11                             174    0.1310 13.2 196 
 BAR2 SZ I         643 50.26         9.4 0.36            173           13.2 196 
 BRR  HZ EP        643 36.23                             151    0.2410 76.2 305 
 BRR  HN ES        643 53.25                             151    0.7110 76.2 305 
 BRR  HN I         643 53.77        16.3 0.34            150           76.2 305 
 PAM  SZ EP        643 37.20                             148   -0.0910 85.8  35 
 PAM  SZ I         643 37.47         4.8 0.20            150           85.8  35 
 PAM  SN ES        643 54.25                             148   -0.6210 85.8  35 
 PTB  HN ES        644  1.28                             132   -0.84 9  146 263 
 PTB  HN I         644  5.03         4.6 0.20            131            146 263 
                                                                                
