 2015  523 0407  1.8 L   6.784 -73.104156.0  RSN  7 0.4 1.7LRSN                1
 GAP=187        0.90       3.7     7.2  8.5  0.3777E+01 -0.2171E+01 -0.6615E+01E
 Epicentro: LOS SANTOS - SANTANDER                                             3
 ACTION:UPD 15-09-10 22:06 OP:cam  STATUS:               ID:20150523040701 L   I
 OLDACT:DUP 15-05-23 14:51 OP:spq  STATUS:               ID:20150523035747d    3
 2015-05-23-0357-46M.COL___297                                                 6
 STAT SP IPHASW D HRMM SECON CODA AMPLIT PERI AZIMU VELO AIN AR TRES W  DIS CAZ7
 BAR2 EZ EP        4 7 22.64                             171   -0.0410 22.9 202 
 BAR2 EZ ES   1    4 7 38.58                             171   -0.36 7 22.9 202 
 BAR2 EZ I         4 7 39.52         6.7 0.32            170           22.9 202 
 BRR  HZ EP        4 7 24.59                             153    0.2410 76.1 298 
 BRR  HN ES        4 7 42.66                             153    0.7310 76.1 298 
 BRR  HZ I         4 7 44.79         6.7 0.42            149           76.1 298 
 RUS  HZ EP   1    4 7 26.83                             146    0.37 7 98.6 179 
 RUS  HE ES   1    4 7 45.17                             146   -0.50 7 98.6 179 
 RUS  HZ I         4 7 46.49         2.9 0.28            148           98.6 179 
 OCA  HN ES        4 7 53.78                             131   -0.27 9  163 352 
 OCA  HZ I         4 7 58.58         8.4 0.18            131            163 352 
 SPBC HE ES        4 7 54.17                             131   -0.07 9  165 221 
 SPBC HZ I         4 7 56.48         6.3 0.24            131            165 221 
 ZAR  HE ES   1    4 8  1.05                             124   -0.64 6  209 292 
 ZAR  HZ I         4 8  7.73         6.1 0.28            123            209 292 
 SML  HZ EP   1    4 7 39.61                             119    0.19 6  247 334 
 SML  HE ES   1    4 8  8.23                             119   -0.52 6  247 334 
 SML  HZ I         4 8 10.57         8.1 0.10            119            247 334 
                                                                                
