 2011  123 0904 44.4 L   6.799 -73.146144.2  RSN  6 0.3 1.5LRSN                1
 GAP=183        0.71       3.4    11.4  7.6 -0.6835E+01  0.2411E+02 -0.2021E+01E
 Epicentro: LOS SANTOS - SANTANDER                                             3
 ACTION:UP  11-02-08 08:42 OP:pat  STATUS:               ID:20110123090444 L   I
 2011-01-23-0859-42S.COL___138                                                 6
 STAT SP IPHASW D HRMM SECON CODA AMPLIT PERI AZIMU VELO SNR AR TRES W  DIS CAZ7
 BTL  SZ EP        9 5  4.07                             172     0.310   19 315 
 BAR2 SZ EP   1    9 5  3.69                             170    -0.2 7   23 190 
 BAR2 SZ ES   1    9 5 18.87                             170    -0.2 7   23 190 
 BAR2 SZ I         9 5 20.38         8.4 0.36                            23 190 
 RUS  HZ EP   1    9 5  7.84                             144    -0.2 7  100 176 
 RUS  HE ES   1    9 5 26.28                             144    -0.1 7  100 176 
 RUS  HZ I         9 5 27.47         3.6 0.33                           100 176 
 OCA  SZ EP   1    9 5 12.27                             129    -0.4 7  160 353 
 OCA  SZ ES   1    9 5 34.98                             129     0.3 7  160 353 
 OCA  SZ I         9 5 40.51         6.9 0.40                           160 353 
 NOR  SE ES   2    9 5 47.47                             118    -0.4 4  235 235 
 CHI  HZ EP   1    9 5 21.89                             117    -0.1 6  248 195 
 CHI  HZ I         9 5 24.20         1.5 0.45                           248 195 
 CHI  HE ES   1    9 5 52.06                             117     0.7 6  248 195 
                                                                                
