 2016  223 0737 15.6 L   6.493 -73.626102.0  RSN  7 0.4 1.4LRSN                1
 GAP= 85        1.09       3.9     3.9  8.2  0.3536E+01  0.1254E+02  0.2398E+01E
 Epicentro: SANTA HELENA DEL OPON - SANTANDER                                  3
 ACTION:UPD 16-03-04 21:28 OP:rebc STATUS:               ID:20160223073715 L   I
 OLDACT:UP  16-02-23 18:16 OP:mh   STATUS:               ID:20160223072737     3
 OLDACT:REG 16-02-23 13:19 OP:mh   STATUS:               ID:20160223072737     3
 2016-02-23-0727-37M.COL___316                                                 6
 STAT SP IPHASW D HRMM SECON CODA AMPLIT PERI AZIMU VELO AIN AR TRES W  DIS CAZ7
 BAR2 EZ EP   1    737 31.30                             152    0.09 7 50.3  77 
 BAR2 EZ ES   1    737 43.34                             152   -0.02 7 50.3  77 
 BAR2 EZ I         737 44.21        21.1 0.54            162           50.3  77 
 BRR  HZ EP        737 31.78                             143   -0.2910 68.6 352 
 BRR  HN ES        737 45.45                             143    0.5610 68.6 352 
 BRR  HZ I         737 52.51         4.7 0.46            148           68.6 352 
 RUS  HZ EP        737 34.43                             136    0.0110 89.5 138 
 RUS  HN ES        737 48.69                             136   -0.3810 89.5 138 
 RUS  HZ I         737 50.19         1.6 0.54            146           89.5 138 
 PTB  HN EP        737 33.26                             134   -0.7210 92.0 273 
 PTB  HE ES        737 47.71                             134   -0.5810 92.0 273 
 PTB  HN I         737 53.47         8.1 0.40            138           92.0 273 
 SPBC HZ EP        737 35.81                             130    0.5310  105 208 
 SPBC HN ES        737 51.10                             130    0.4910  105 208 
 SPBC HZ I         737 55.83         4.5 0.19            137            105 208 
 ZAR  HZ EP        737 42.26                             115   -0.17 9  175 309 
 ZAR  HN ES        738  3.76                             115    0.42 9  175 309 
 ZAR  HZ I         738  9.19         4.0 0.26            120            175 309 
 HEL  HZ EP   1    737 47.79                             110    0.63 6  213 261 
 HEL  HN ES        738 11.63                             110   -0.12 8  213 261 
 HEL  HZ I         738 16.32         2.3 0.26            115            213 261 
                                                                                
