 2012  223 0908 52.4 L   6.781 -73.185150.6  RSN  5 0.3 1.2LRSN                1
 GAP=175        0.54       5.0     5.0  5.7  0.8893E+01  0.5896E+01  0.7644E+01E
 ACTION:UP  12-03-07 16:33 OP:epov STATUS:               ID:20120223090852 L   I
 2012-02-23-0906-59S.COL___194                                                 6
 STAT SP IPHASW D HRMM SECON CODA AMPLIT PERI AZIMU VELO AIN AR TRES W  DIS CAZ7
 BAR2 SZ EP   1    9 9 12.10                             172   -0.45 7 20.9 179 
 BAR2 SZ ES   2    9 9 28.19                             172   -0.10 5 20.9 179 
 BAR2 SZ I         9 9 29.68         3.2 0.27                          20.9 179 
 GIR2 SZ ES   1    9 9 28.80                             167    0.29 7 32.9 358 
 BRR  HZ EP   1    9 9 14.25                             154    0.34 7 68.5 302 
 BRR  HE ES   1    9 9 30.36                             154   -0.35 7 68.5 302 
 BRR  HZ I         9 9 31.74         6.4 0.35                          68.5 302 
 RUS  HZ EP   1    9 9 16.50                             145    0.00 7 98.9 173 
 RUS  HN ES   1    9 9 35.43                             145    0.12 7 98.9 173 
 RUS  HZ I         9 9 37.97         1.3 0.72                          98.9 173 
 PTB  HZ EP   1    9 9 19.37                             134    0.03 7  143 259 
 PTB  HN ES   1    9 9 40.44                             134    0.08 7  143 259 
                                                                                
