 2013 1223 0019 54.5 L   6.879 -73.147132.3  RSN  4 0.4 1.3LRSN                1
 GAP=304        0.83       9.8     7.3  9.2 -0.2737E+02  0.2426E+02  0.2464E+01E
 Epicentro: LOS SANTOS - SANTANDER                                             3
 ACTION:UPD 14-01-13 10:20 OP:ep   STATUS:               ID:20131223001954 L   I
 OLDACT:DUP 13-12-23 11:20 OP:mh   STATUS:               ID:20131223001836d    3
 OLDACT:REG 13-12-23 11:18 OP:mh   STATUS:               ID:20131223001835     3
 2013-12-23-0018-35M.COL___235                                                 6
 STAT SP IPHASW D HRMM SECON CODA AMPLIT PERI AZIMU VELO AIN AR TRES W  DIS CAZ7
 BAR2 SZ EP   1    020 12.48                             166   -0.26 7 32.0 187 
 BAR2 SZ ES        020 27.03                             166    0.0710 32.0 187 
 BAR2 SZ I         020 29.79        11.0 0.17            166           32.0 187 
 RUS  HZ EP        020 17.72                             138    0.0810  109 176 
 RUS  HN ES        020 35.88                             138    0.1910  109 176 
 RUS  HZ I         020 38.10         1.3 0.41            140            109 176 
 SPBC HN ES        020 44.02                             125   -0.64 9  170 217 
 NOR  HN ES        020 58.29                             115    0.52 8  240 233 
                                                                                
