 2012  123 0209 52.7 L   6.741 -73.122147.1  RSN  6 0.3 1.5LRSN                1
 GAP=142        0.72       4.6     4.8  6.3 -0.3444E+01  0.5357E+01  0.6105E+01E
 Epicentro: JORDAN - SANTANDER                                                 3
 ACTION:UP  12-02-03 08:19 OP:REBC STATUS:               ID:20120123020952 L   I
 2012-01-23-0210-00M.COL___186                                                 6
 STAT SP IPHASW D HRMM SECON CODA AMPLIT PERI AZIMU VELO SNR AR TRES W  DIS CAZ7
 BAR2 SZ EP   1    210 12.13                             173    -0.2 7   18 202 
 BAR2 SZ ES   1    210 27.29                             173    -0.4 7   18 202 
 BAR2 SZ I         210 28.82         7.8 0.37                            18 202 
 BRR  HZ IP     C  210 14.39                             151     0.110   77 302 
 BRR  HZ I         210 14.71        15.7 0.17                            77 302 
 BRR  HE ES   1    210 31.79                             151     0.6 7   77 302 
 PAM  SZ EP   1    210 15.28                             150     0.0 7   81  35 
 PAM  SN ES        210 32.76                             150    -0.110   81  35 
 RUS  HZ EP   1    210 16.20                             146     0.1 7   94 177 
 RUS  HN ES   1    210 34.67                             146     0.3 7   94 177 
 RUS  HZ I         210 36.40         2.4 0.29                            94 177 
 PTB  HZ EP   1    210 19.64                             132    -0.3 7  149 261 
 PTB  HN ES   1    210 40.76                             132    -0.4 7  149 261 
 CHI  HZ EP   1    210 30.01                             118     0.2 6  243 196 
 CHI  HZ I         210 33.21         1.3 0.31                           243 196 
                                                                                
