 2012  323 0558  2.8 L   6.514 -73.583116.9  RSN  6 0.5 1.4LRSN                1
 GAP=131        0.82       7.1     4.6 10.9  0.2323E+01  0.5341E+01  0.2783E+00E
 ACTION:UP  12-03-31 23:22 OP:EP   STATUS:               ID:20120323055802 L   I
 2012-03-23-0550-00M.COL___198                                                 6
 STAT SP IPHASW D HRMM SECON CODA AMPLIT PERI AZIMU VELO SNR AR TRES W  DIS CAZ7
 BAR2 SZ EP   1    558 20.10                             157     0.3 7   45  79 
 BAR2 SZ ES   2    558 32.94                             157    -0.1 5   45  79 
 BAR2 SZ I         558 34.15        17.9 0.40                            45  79 
 BRR  HZ EP   2    558 21.12                             148     0.5 5   67 348 
 BRR  HE ES   2    558 35.19                             148     0.6 5   67 348 
 BRR  HZ I         558 36.16         5.8 0.13                            67 348 
 RUS  HZ EP   2    558 23.51                             140     0.7 5   88 141 
 RUS  HN ES   2    558 38.28                             140    -0.2 5   88 141 
 RUS  HZ I         558 39.90         3.2 0.37                            88 141 
 PTB  HZ EP        558 22.89                             137     0.010   97 272 
 PTB  HN ES   1    558 37.95                             137    -0.6 7   97 272 
 PTB  HZ I         558 42.58         4.1 0.24                            97 272 
 PAM  SZ EP   2    558 26.09                             127    -0.7 5  134  47 
 PAM  SN ES   2    558 44.93                             127    -0.6 5  134  47 
 ZAR  HN ES   2    558 52.64                             119     0.2 4  178 308 
                                                                                
