 2013  623 0935 39.8 L   6.741 -73.177149.7  RSN  5 0.3 1.3LRSN                1
 GAP=176        0.65       5.9     5.6  6.3  0.1125E+02  0.2186E+01 -0.3798E+01E
 Epicentro: VILLANUEVA - SANTANDER                                             3
 ACTION:UPD 14-01-08 09:56 OP:ep   STATUS:               ID:20130623093539 L   I
 OLDACT:REG 13-06-23 10:28 OP:carl STATUS:               ID:20130623092959     3
 2013-06-23-0929-59M.COL___267                                                 6
 STAT SP IPHASW D HRMM SECON CODA AMPLIT PERI AZIMU VELO AIN AR TRES W  DIS CAZ7
 BAR2 SZ EP        935 59.72                             173   -0.0910 16.4 182 
 BAR2 SZ ES   1    936 14.92                             173   -0.48 7 16.4 182 
 BAR2 SZ I         936 16.33         5.8 0.22            174           16.4 182 
 GIR2 SZ EP   1    935 59.85                             165   -0.29 7 37.4 357 
 GIR2 SZ I         936 16.84         3.1 0.18            153           37.4 357 
 BRR  HZ EP        936  1.55                             153    0.1310 71.6 304 
 BRR  HN ES   1    936 18.80                             153    0.53 7 71.6 304 
 RUS  HZ EP   1    936  3.79                             146    0.26 7 94.4 174 
 RUS  HN ES   1    936 22.29                             146    0.27 7 94.4 174 
 RUS  HZ I         936 23.26         2.5 0.32            150           94.4 174 
 PTB  HZ EP        936  6.63                             134   -0.08 9  143 261 
 PTB  HN ES   1    936 27.41                             134   -0.27 7  143 261 
 PTB  HZ I         936 32.57         2.7 0.12            133            143 261 
                                                                                
