 2017 1223 0652 25.3 L   6.726 -73.147145.5  RSN  4 0.3 1.2LRSN                1
 GAP=159        0.77       7.0     4.1  6.9 -0.9599E+01  0.1127E+02 -0.8642E+01E
 Epicentro: JORDAN - SANTANDER                                                 3
 ACTION:UPD 18-01-04 13:23 OP:rebc STATUS:               ID:20171223065225 L   I
 OLDACT:DUP 17-12-23 15:09 OP:dhb  STATUS:               ID:20171223063503d    3
 2017-12-23-0648-00M.COL___451                                                 6
 STAT SP IPHASW D HRMM SECON CODA AMPLIT PERI AZIMU VELO AIN AR TRES W  DIS CAZ7
 BAR2 EZ EP        652 44.26                             174   -0.4610 15.3 195 
 BAR2 EZ ES        653  0.26                             174    0.3510 15.3 195 
 BAR2 EZ I         653  1.07         6.0 0.70            173           15.3 195 
 PAM  EZ IP     C  652 48.13                             149    0.2810 83.9  36 
 PAM  EN ES        653  5.24                             149   -0.2310 83.9  36 
 PAM  EZ I         653  7.72         2.8 0.78            151           83.9  36 
 PTB  HZ EP        652 52.01                             132   -0.06 9  146 262 
 PTB  HE ES        653 12.89                             132   -0.09 9  146 262 
 PTB  HZ I         653 20.15         1.2 0.30            133            146 262 
 ZAR  HZ EP   1    652 58.62                             122    0.62 6  207 294 
 ZAR  HN ES        653 23.45                             122   -0.10 8  207 294 
 ZAR  HZ I         653 27.99         1.8 0.50            123            207 294 
                                                                                
