 2017 1123 0630  8.5 L   6.727 -73.160146.1  RSN  5 0.3 1.2LRSN                1
 GAP=138        0.70       3.7     3.3  5.4 -0.1498E+00  0.6415E+01 -0.3427E+01E
 Epicentro: VILLANUEVA - SANTANDER                                             3
 ACTION:UPD 17-12-12 19:58 OP:rebc STATUS:               ID:20171123063008 L   I
 OLDACT:UP  17-11-23 17:24 OP:dani STATUS:               ID:20171123062740     3
 OLDACT:REG 17-11-23 13:05 OP:osc  STATUS:               ID:20171123062740     3
 2017-11-23-0628-00M.COL___462                                                 6
 STAT SP IPHASW D HRMM SECON CODA AMPLIT PERI AZIMU VELO AIN AR TRES W  DIS CAZ7
 BAR2 EZ EP        630 27.85                             174   -0.1510 15.1 190 
 BAR2 EZ ES        630 43.05                             174   -0.1910 15.1 190 
 BAR2 EZ I         630 44.10         4.9 0.20            172           15.1 190 
 PAM  EZ EP        630 31.11                             149   -0.0710 84.7  37 
 PAM  EE ES        630 48.91                             149    0.0310 84.7  37 
 PAM  EZ I         630 51.10         2.9 0.44            153           84.7  37 
 RUS  HZ EP        630 31.60                             146   -0.1010 92.6 175 
 RUS  HN ES        630 50.27                             146    0.4610 92.6 175 
 RUS  HZ I         630 53.96         1.5 0.44            148           92.6 175 
 PTB  HZ EP        630 35.00                             133   -0.21 9  145 262 
 PTB  HN ES        630 55.69                             133   -0.37 9  145 262 
 PTB  HZ I         631  1.53         1.2 0.24            134            145 262 
 ZAR  HZ EP        630 41.42                             122    0.29 8  206 294 
 ZAR  HE ES        631  7.02                             122    0.43 8  206 294 
 ZAR  HZ I         631 10.96         2.5 0.54            124            206 294 
                                                                                
