 2010 1223 0537 20.3 L   6.039 -74.015 13.5  RSN  4 0.5 1.6LRSN                1
 GAP=183        1.07      13.6     4.2 11.5 -0.3023E+02  0.3112E+02 -0.9183E+02E
 Epicentro: LA BELLEZA - SANTANDER                                             3
 ACTION:UP  11-01-14 15:26 OP:pat  STATUS:               ID:20101223053720 L   I
 2010-12-23-0534-12S.COL___135                                                 6
 STAT SP IPHASW D HRMM SECON CODA AMPLIT PERI AZIMU VELO SNR AR TRES W  DIS CAZ7
 RUS  HZ EP   1    537 37.96                              96     0.7 7  104  99 
 RUS  HE ES   1    537 49.81                              96    -0.7 7  104  99 
 RUS  HZ I         537 52.73         7.7 0.23                           104  99 
 NOR  SZ EP   1    537 37.68                              96     0.3 7  108 241 
 NOR  SE ES   1    537 50.46                              96    -0.3 7  108 241 
 HEL  HZ EP   1    537 46.38                              56     0.2 7  168 276 
 HEL  HE ES   1    538  5.94                              56    -0.5 7  168 276 
 HEL  HZ I         538  6.82        12.2 0.26                           168 276 
 RREF HZ EP   2    537 50.71                              56     1.0 4  194 230 
 RREF HN ES   2    538 12.60                              56    -0.1 4  194 230 
 RREF HZ I         538 16.12         4.8 0.46                           194 230 
                                                                                
