 2017  523 0719 32.4 L   6.784 -73.124147.6  RSN  8 0.4 1.8LRSN                1
 GAP=114        0.91       4.1     4.2  7.4  0.7948E+01 -0.6287E+01 -0.5762E+01E
 Epicentro: LOS SANTOS - SANTANDER                                             3
 ACTION:UPD 17-06-16 13:38 OP:jn   STATUS:               ID:20170523071932 L   I
 OLDACT:REG 17-05-23 12:44 OP:ar   STATUS:               ID:20170523071740     3
 2017-05-23-0718-00M.COL___335                                                 6
 STAT SP IPHASW D HRMM SECON CODA AMPLIT PERI AZIMU VELO AIN AR TRES W  DIS CAZ7
 BRR  HZ IP     C  719 53.87                             152   -0.0110 74.2 299 
 BRR  HE ES        720 10.82                             152    0.1610 74.2 299 
 BRR  HZ I         720 15.17        17.7 0.12            151           74.2 299 
 PAM  EZ EP        719 54.85                             151    0.0910 77.3  37 
 PAM  EZ I         720 13.98         9.3 0.54            141           77.3  37 
 RUS  HZ EP        719 55.91                             145   -0.2410 98.6 177 
 RUS  HN ES        720 14.29                             145   -0.4210 98.6 177 
 RUS  HZ I         720 15.14         7.2 0.24            152           98.6 177 
 PTB  HZ EP        719 59.56                             132   -0.10 9  150 260 
 PTB  HN ES        720 21.67                             132    0.71 9  150 260 
 PTB  HZ I         720 22.88         5.4 0.34            138            150 260 
 SPBC HN ES        720 22.72                             130   -0.64 9  163 220 
 YPLC HZ EP        720  2.40                             128    0.38 9  174 152 
 YPLC HN ES        720 25.50                             128    0.34 9  174 152 
 YPLC HZ I         720 28.67         6.6 0.28            130            174 152 
 ZAR  HZ EP        720  4.97                             122   -0.25 8  207 292 
 ZAR  HN ES        720 30.67                             122   -0.19 8  207 292 
 ZAR  HZ I         720 36.19         9.3 0.42            124            207 292 
 CHI  HZ EP   2    720  9.95                             118   -0.09 4  248 196 
 CHI  HN ES   2    720 40.59                             118    1.16 4  248 196 
                                                                                
