 2016 1223 0435 49.3 L   6.735 -73.145147.2  RSN  4 0.3 1.4LRSN                1
 GAP=233        0.86       6.9     6.6  6.9  0.2252E+02  0.4241E+01  0.4906E+00E
 Epicentro: LOS SANTOS - SANTANDER                                             3
 ACTION:UPD 17-01-11 20:18 OP:rebc STATUS:               ID:20161223043550 L   I
 OLDACT:UP  16-12-26 16:43 OP:nlst STATUS:               ID:20161223043550 L   3
 OLDACT:REG 16-12-23 13:00 OP:y    STATUS:               ID:20161223042745     3
 2016-12-23-0428-00M.COL___387                                                 6
 STAT SP IPHASW D HRMM SECON CODA AMPLIT PERI AZIMU VELO AIN AR TRES W  DIS CAZ7
 BAR2 EZ EP        436  9.06                             173    0.1010 16.4 195 
 BAR2 EZ ES        436 23.80                             173   -0.5210 16.4 195 
 BAR2 EZ I         436 25.13        12.5 0.38            169           16.4 195 
 BRR  HZ IP     C  436 10.69                             151   -0.1110 75.0 303 
 BRR  HN ES        436 28.01                             151    0.4310 75.0 303 
 BRR  HZ I         436 30.99         5.2 0.42            149           75.0 303 
 RUS  HZ EP        436 13.04                             146    0.3610 93.4 176 
 RUS  HN ES        436 31.01                             146    0.0910 93.4 176 
 RUS  HZ I         436 32.62         2.1 0.40            146           93.4 176 
 PTB  HZ EP        436 15.78                             133   -0.49 9  147 262 
 PTB  HE ES        436 37.40                             133    0.09 9  147 262 
 PTB  HZ I         436 42.46         2.2 0.42            131            147 262 
                                                                                
