 2012  623 0639 43.9 L   6.804 -73.163149.3  RSN  9 0.4 1.8LRSN                1
 GAP=134        0.86       4.1     5.0  6.7 -0.2406E+01  0.6869E+01  0.5906E+01E
 Epicentro: LOS SANTOS - SANTANDER                                             3
 ACTION:UPD 12-08-06 17:51 OP:ep   STATUS:               ID:20120623063943 L   I
 2012-06-23-0640-00M.COL___199                                                 6
 STAT SP IPHASW D HRMM SECON CODA AMPLIT PERI AZIMU VELO AIN AR TRES W  DIS CAZ7
 BAR2 SZ EP        640  3.80                             171   -0.1510 23.5 185 
 BAR2 SZ ES   2    640 19.06                             171   -0.54 5 23.5 185 
 BAR2 SZ I         640 21.59        20.5 0.30                          23.5 185 
 BRR  HZ EP        640  5.65                             154    0.3410 69.3 299 
 BRR  HN ES   1    640 22.90                             154    0.87 7 69.3 299 
 BRR  HZ I         640 27.87        14.3 0.14                          69.3 299 
 PAM  SZ EP        640  6.60                             151    0.0610 78.3  41 
 PAM  SZ I         640  6.89         6.9 0.22                          78.3  41 
 PAM  SN ES   1    640 23.94                             151   -0.26 7 78.3  41 
 RUS  HZ EP   2    640  7.84                             144   -0.19 5  101 175 
 RUS  HN ES   2    640 26.44                             144   -0.42 5  101 175 
 RUS  HZ I         640 27.50         7.2 0.26                           101 175 
 PTB  HZ EP        640 10.43                             133   -0.55 9  146 259 
 PTB  HN ES   1    640 31.57                             133   -0.55 7  146 259 
 PTB  HZ I         640 33.75         5.7 0.26                           146 259 
 OCA  HZ EP   1    640 12.82                             131    0.41 7  160 354 
 OCA  HN ES   2    640 34.38                             131   -0.29 5  160 354 
 OCA  HZ I         640 38.64        14.0 0.28                           160 354 
 ZAR  HZ EP        640 16.07                             123   -0.29 9  202 292 
 ZAR  HN ES   2    640 41.92                             123    0.23 4  202 292 
 ZAR  HZ I         640 49.44         5.7 0.12                           202 292 
 NOR  SZ EP        640 19.94                             119    0.26 8  233 234 
 CHI  HZ EP        640 21.75                             118   -0.02 8  249 195 
 CHI  HE ES   1    640 52.26                             118    0.93 6  249 195 
 CHI  HZ I         640 59.29         3.8 0.34                           249 195 
                                                                                
