 2013  223 0608  0.2 L   6.797 -73.132146.5  RSN  7 0.4 1.9LRSN                1
 GAP=138        0.81       4.2     5.4  7.0  0.1585E+01  0.7807E+01  0.5352E+01E
 Epicentro: LOS SANTOS - SANTANDER                                             3
 ACTION:UPD 13-03-12 09:35 OP:ep   STATUS:               ID:20130223060800 L   I
 2013-02-23-0606-50M.COL___193                                                 6
 STAT SP IPHASW D HRMM SECON CODA AMPLIT PERI AZIMU VELO AIN AR TRES W  DIS CAZ7
 BAR2 SZ EP   1    6 8 19.91                             170    0.00 7 23.3 194 
 BAR2 SZ ES   1    6 8 35.42                             170    0.13 7 23.3 194 
 BAR2 SZ I         6 8 39.03        29.7 0.46            161           23.3 194 
 BRR  HZ EP     C  6 8 21.80                             152    0.3010 72.7 298 
 BRR  HE ES   1    6 8 38.57                             152    0.44 7 72.7 298 
 BRR  HZ I         6 8 42.77         8.9 0.18            137           72.7 298 
 PAM  SZ EP        6 8 22.84                             151    0.4010 76.7  39 
 PAM  SN ES   1    6 8 38.87                             151   -0.93 7 76.7  39 
 PAM  SZ I         6 8 42.17        13.4 0.48            149           76.7  39 
 RUS  HZ EP   1    6 8 23.85                             144   -0.13 7  100 177 
 RUS  HE ES   1    6 8 42.61                             144    0.07 7  100 177 
 RUS  HZ I         6 8 43.82         5.5 0.38            140            100 177 
 PTB  HZ EP   1    6 8 26.94                             132   -0.41 7  149 259 
 PTB  HZ I         6 8 53.85        15.4 0.48            120            149 259 
 ZAR  HE ES   1    6 8 57.87                             122   -0.44 6  206 292 
 ZAR  HZ I         6 9  8.72         8.4 0.45            113            206 292 
 CHI  HZ EP   1    6 8 37.90                             117   -0.04 6  249 196 
 CHI  HN ES   1    6 9  7.18                             117   -0.20 6  249 196 
 CHI  HZ I         6 9  9.76         3.4 0.38            112            249 196 
                                                                                
