 2015  423 0652 22.3 L   6.833 -73.197145.5  RSN  6 0.3 1.5LRSN                1
 GAP=132        0.65       3.8     3.1  5.6 -0.2138E+01  0.6892E+01 -0.8209E+01E
 Epicentro: ZAPATOCA - SANTANDER                                               3
 ACTION:UPD 15-06-03 16:56 OP:cam  STATUS:               ID:20150423065222 L   I
 OLDACT:REG 15-04-23 12:37 OP:ak   STATUS:               ID:20150423064750     3
 2015-04-23-0647-50M.COL___274                                                 6
 STAT SP IPHASW D HRMM SECON CODA AMPLIT PERI AZIMU VELO AIN AR TRES W  DIS CAZ7
 BAR2 EZ EP        652 41.90                             169   -0.1110 26.7 177 
 BAR2 EZ ES        652 57.59                             169    0.2410 26.7 177 
 BAR2 EZ I         652 59.95         4.6 0.36            172           26.7 177 
 PAM  SZ EP        652 44.55                             150   -0.0410 78.4  44 
 PAM  SN ES        653  1.75                             150   -0.1910 78.4  44 
 PAM  SZ I         653  3.97         5.4 0.46            154           78.4  44 
 PTB  HZ EP        652 48.83                             133   -0.03 9  143 257 
 PTB  HN ES        653  9.26                             133   -0.28 9  143 257 
 PTB  HZ I         653 15.68         3.2 0.28            134            143 257 
 ZAR  HN ES        653 19.21                             123    0.35 9  197 292 
 ZAR  HZ I         653 26.84         4.1 0.05            124            197 292 
 SML  HZ EP        652 58.82                             118    0.48 8  238 336 
 SML  HE ES        653 26.29                             118   -0.13 8  238 336 
 SML  HZ I         653 33.37         4.4 0.10            120            238 336 
 MON  HZ EP   4    653 14.98                             109    4.42 0  347 308 
 MON  HN ES   2    653 47.19                             109   -0.98 3  347 308 
                                                                                
