 2017  723 0611 37.8 L   6.771 -73.160146.5  RSN  6 0.4 1.5LRSN                1
 GAP=234        0.98       5.5     6.7  8.6  0.1555E+02 -0.1403E+02 -0.5075E+01E
 Epicentro: LOS SANTOS - SANTANDER                                             3
 ACTION:UPD 17-08-30 15:35 OP:rebc STATUS:               ID:20170723061137 L   I
 OLDACT:REG 17-07-23 14:25 OP:lv   STATUS:               ID:20170723060743     3
 2017-07-23-0608-00M.COL___376                                                 6
 STAT SP IPHASW D HRMM SECON CODA AMPLIT PERI AZIMU VELO AIN AR TRES W  DIS CAZ7
 BAR2 EZ EP        611 57.38                             172   -0.0910 19.9 187 
 BRR  HZ EP        611 59.14                             152    0.0810 71.5 301 
 BRR  HE ES        612 16.16                             152    0.5410 71.5 301 
 BRR  HZ I         612 18.22         6.0 0.05            153           71.5 301 
 RUS  HZ EP        612  1.34                             145   -0.0710 97.5 175 
 RUS  HN ES        612 19.35                             145   -0.4710 97.5 175 
 PTB  HZ EP   9    612  4.18                             133   -0.47 0  146 260 
 PTB  HN ES        612 25.19                                    0.08 9  146 260 
 SPBC HZ EP        612  6.59                             130    0.55 9  160 219 
 SPBC HN ES        612 28.15                             130    0.10 9  160 219 
 ZAR  HN ES        612 34.88                             122   -0.73 9  204 293 
                                                                                
