 2016 1223 0642 55.4 L   6.747 -73.180140.6  RSN  9 0.5 1.6LRSN                1
 GAP=135        1.30       4.8     5.2  7.8  0.3253E+00  0.1177E+02  0.7413E+01E
 Epicentro: LOS SANTOS - SANTANDER                                             3
 ACTION:UPD 17-01-11 20:18 OP:rebc STATUS:               ID:20161223064255 L   I
 OLDACT:UP  16-12-23 15:53 OP:cog  STATUS:               ID:20161223063740     3
 OLDACT:REG 16-12-23 13:17 OP:y    STATUS:               ID:20161223063740     3
 2016-12-23-0638-00M.COL___381                                                 6
 STAT SP IPHASW D HRMM SECON CODA AMPLIT PERI AZIMU VELO AIN AR TRES W  DIS CAZ7
 BAR2 EZ EP        643 14.30                             173   -0.0210 17.1 181 
 BAR2 EZ ES        643 29.44                             173    0.3810 17.1 181 
 BAR2 EZ I         643 30.77        12.7 0.18            169           17.1 181 
 BRR  HZ EP        643 16.13                             152    0.1210 71.0 304 
 BRR  HE ES        643 32.59                             152    0.5310 71.0 304 
 BRR  HZ I         643 36.35         7.4 0.37            151           71.0 304 
 PAM  EZ EP        643 17.27                             148   -0.2610 84.3  39 
 PAM  EN ES        643 34.31                             148   -0.4710 84.3  39 
 PAM  EZ I         643 35.70         7.0 0.18            154           84.3  39 
 RUS  HZ EP        643 18.33                             144    0.0610 95.1 174 
 RUS  HN ES        643 35.79                             144   -0.3110 95.1 174 
 RUS  HZ I         643 39.25         2.2 0.36            144           95.1 174 
 PTB  HZ EP        643 20.76                             132   -0.78 9  143 261 
 PTB  HN ES        643 42.04                             132    0.13 9  143 261 
 PTB  HZ I         643 43.89         6.1 0.30            132            143 261 
 ZAR  HZ EP        643 27.53                             121    0.12 9  203 294 
 ZAR  HE ES        643 52.60                             121    0.23 9  203 294 
 ZAR  HZ I         643 58.46         5.7 0.16            123            203 294 
 NOR  HZ EP        643 30.96                             118    0.80 8  228 235 
 NOR  HN ES        643 55.82                             118   -1.44 8  228 235 
 NOR  HZ I         644  5.77         4.6 0.30            119            228 235 
 CHI  HZ EP        643 32.50                             117    0.38 8  242 195 
 CHI  HE ES        644  1.49                             117    0.75 8  242 195 
 CHI  HZ I         644  9.03         2.2 0.45            118            242 195 
 GUY2CHZ EP   4    643 39.95                             112    1.88 0  295 235 
 GUY2CHN ES   4    644 13.96                             112    2.63 0  295 235 
 GUY2CHZ I         644 23.28         2.5 0.46                           295 235 
                                                                                
