 2012  623 0614 32.7 L   6.725 -73.194148.0  RSN  4 0.2 1.3LRSN                1
 GAP=226        0.46       8.5     6.4  9.6  0.1095E+02 -0.1796E+02  0.3629E+02E
 Epicentro: VILLANUEVA - SANTANDER                                             3
 ACTION:UPD 12-08-06 17:51 OP:ep   STATUS:               ID:20120623061432 L   I
 2012-06-23-0610-00M.COL___199                                                 6
 STAT SP IPHASW D HRMM SECON CODA AMPLIT PERI AZIMU VELO AIN AR TRES W  DIS CAZ7
 BAR2 SZ EP        614 52.25                             174   -0.2010 14.8 175 
 BAR2 SZ I         614 52.35         3.8 0.44                          14.8 175 
 BRR  HZ EP        614 54.11                             153    0.0310 71.1 306 
 BRR  HZ I         614 54.52         5.0 0.10                          71.1 306 
 BRR  HN ES   1    615 10.88                             153    0.12 7 71.1 306 
 RUS  HZ EP   2    614 56.62                             146    0.50 5 92.9 172 
 PTB  HZ EP   2    614 59.33                             134    0.08 5  141 262 
 PTB  HN ES   2    615 19.74                             134   -0.22 5  141 262 
                                                                                
