 2014 1223 0358 42.1 L   6.801 -73.164136.9  RSN  7 0.5 1.9LRSN                1
 GAP=199        1.33       5.4     7.4  9.0  0.1455E+02  0.1151E+02 -0.5077E+01E
 Epicentro: LOS SANTOS - SANTANDER                                             3
 ACTION:UPD 15-02-10 17:06 OP:nd   STATUS:               ID:20141223035842 L   I
 OLDACT:UP  14-12-23 17:34 OP:mh   STATUS:               ID:20141223035750     3
 OLDACT:REG 14-12-23 13:23 OP:mh   STATUS:               ID:20141223035750     3
 2014-12-23-0357-50M.COL___289                                                 6
 STAT SP IPHASW D HRMM SECON CODA AMPLIT PERI AZIMU VELO AIN AR TRES W  DIS CAZ7
 BAR2 EZ EP        359  0.95                             170    0.3310 23.1 185 
 BAR2 EZ ES        359 14.48                             170   -0.6110 23.1 185 
 BAR2 EZ I         359 16.47        23.8 0.32            166           23.1 185 
 BRR  HZ EP        359  2.56                             152    0.4110 69.4 299 
 BRR  HN ES        359 18.63                             152    0.8110 69.4 299 
 BRR  HZ I         359 22.50        13.7 0.13            148           69.4 299 
 RUS  HZ EP        359  4.73                             142   -0.2310  101 175 
 RUS  HN ES        359 22.93                             142    0.1010  101 175 
 RUS  HZ I         359 25.07         6.1 0.18            143            101 175 
 PTB  HZ EP        359  7.33                             130   -0.80 9  146 259 
 PTB  HN ES        359 27.72                             130   -0.75 9  146 259 
 PTB  HZ I         359 33.44         9.1 0.18            129            146 259 
 SPBC HZ EP        359 10.16                             127    0.39 9  162 218 
 SPBC HN ES        359 31.57                             127    0.18 9  162 218 
 SPBC HZ I         359 39.56         8.2 0.22            127            162 218 
 ZAR  HZ EP        359 14.09                             121    0.35 9  202 292 
 ZAR  HN ES        359 38.86                             121    0.40 9  202 292 
 ZAR  HZ I         359 46.17         7.9 0.32            121            202 292 
 SML  HZ EP   4    359 16.63                             116   -1.47 0  243 336 
 SML  HN ES        359 45.46                             116   -0.76 8  243 336 
 SML  HZ I         359 50.38        11.0 0.32            117            243 336 
 URE  HZ EP   4    359 24.55                             112    2.05 0  282 292 
 URE  HN ES   4    359 51.39                             112   -2.65 0  282 292 
                                                                                
