 2014 1023 0302  4.7 L   6.893 -73.379117.2  RSN  6 0.5 1.5LRSN                1
 GAP=144        1.19       5.1     6.9 10.0 -0.2107E+01  0.9903E+01  0.9136E+01E
 Epicentro: SAN VICENTE DE CHUCURI - SANTANDER                                 3
 ACTION:UPD 14-11-29 23:55 OP:nd   STATUS:               ID:20141023030204 L   I
 OLDACT:REG 14-10-26 01:29 OP:mh   STATUS:               ID:20141023025743     3
 2014-10-23-0257-43M.COL___274                                                 6
 STAT SP IPHASW D HRMM SECON CODA AMPLIT PERI AZIMU VELO AIN AR TRES W  DIS CAZ7
 BAR2 SZ EP        3 2 21.38                             160   -0.1210 39.7 147 
 BAR2 SZ ES   1    3 2 34.48                             160   -0.08 7 39.7 147 
 BAR2 SZ I         3 2 35.93        16.2 0.20            165           39.7 147 
 BRR  HZ EP        3 2 21.81                             158    0.4910 43.8 303 
 BRR  HN ES        3 2 34.84                             158    0.5910 43.8 303 
 BRR  HZ I         3 2 38.68         5.9 0.28            157           43.8 303 
 RUS  HE ES   1    3 2 43.93                             133   -0.58 7  115 163 
 RUS  HZ I         3 2 44.93         2.2 0.26            137            115 163 
 PTB  HZ EP        3 2 26.81                             130   -0.5510  125 252 
 PTB  HN ES        3 2 44.39                             130   -0.6110  125 252 
 PTB  HZ I         3 2 48.56         6.0 0.38            132            125 252 
 OCA  HN ES   1    3 2 48.93                             124   -0.51 7  149   3 
 OCA  HZ I         3 2 51.97         6.2 0.16            128            149   3 
 SPBC HZ EP        3 2 31.29                             123    0.69 9  157 209 
 SPBC HE ES        3 2 50.94                             123    0.17 9  157 209 
 SPBC HZ I         3 2 53.88         3.6 0.54            126            157 209 
                                                                                
