 2012  123 0725 18.7 L   6.759 -73.166150.6  RSN  5 0.3 1.2LRSN                1
 GAP=232        0.62       6.6     6.2  8.2  0.2593E+02 -0.4704E+01 -0.6448E+01E
 Epicentro: LOS SANTOS - SANTANDER                                             3
 ACTION:UP  12-02-03 08:19 OP:REBC STATUS:               ID:20120123072518 L   I
 2012-01-23-0720-00M.COL___186                                                 6
 STAT SP IPHASW D HRMM SECON CODA AMPLIT PERI AZIMU VELO SNR AR TRES W  DIS CAZ7
 BAR2 SZ EP   1    725 38.74                             173    -0.1 7   19 185 
 BAR2 SZ I         725 49.84         2.5 0.46                            19 185 
 BRR  HZ EP   1    725 40.55                             153     0.2 7   72 303 
 BRR  HZ I         725 41.60         4.5 0.11                            72 303 
 BRR  HN ES   1    725 57.22                             153    -0.1 7   72 303 
 RUS  HZ EP   1    725 42.20                             146    -0.4 7   96 175 
 RUS  HN ES   1    726  1.60                             146     0.3 7   96 175 
 RUS  HZ I         726  2.97         1.7 0.29                            96 175 
 PTB  HZ EP   1    725 46.13                             134     0.3 7  145 260 
 PTB  HN ES   1    726  6.65                             134    -0.3 7  145 260 
 ZAR  HN ES   1    726 17.05                             123     0.1 6  204 294 
                                                                                
