 2011  123 0846 46.6 L   6.784 -73.294138.0  RSN  5 0.4 1.6LRSN                1
 GAP=167        0.79       3.7    17.5  8.7 -0.2449E+02  0.5653E+02 -0.9804E+01E
 Epicentro: ZAPATOCA - SANTANDER                                               3
 ACTION:UP  11-02-08 08:42 OP:pat  STATUS:               ID:20110123084646 L   I
 2011-01-23-0844-43S.COL___138                                                 6
 STAT SP IPHASW D HRMM SECON CODA AMPLIT PERI AZIMU VELO SNR AR TRES W  DIS CAZ7
 BAR2 SZ IP        847  5.26                             169     0.010   25 150 
 BAR2 SZ I         847  5.55         7.5 0.15                            25 150 
 BAR2 SZ ES   1    847 20.23                             169     0.3 7   25 150 
 RUS  HZ EP   1    847  9.31                             142    -0.3 7  101 167 
 RUS  HE ES   1    847 27.19                             142    -0.4 7  101 167 
 RUS  HZ I         847 29.51         6.1 0.38                           101 167 
 GRA  SZ IP        847 11.98                             133     0.210  133  24 
 GRA  SZ ES   1    847 31.66                             133     0.2 7  133  24 
 GRA  SZ I         847 32.60         7.1 0.29                           133  24 
 OCA  SZ EP   1    847 13.77                             128    -0.6 7  161 359 
 OCA  SZ ES   1    847 35.92                             128    -0.1 7  161 359 
 OCA  SZ I         847 39.95         5.5 0.23                           161 359 
 CHI  HZ EP   2    847 23.66                             116     0.4 4  243 192 
 CHI  HE ES   2    847 52.65                             116     0.8 4  243 192 
 CHI  HZ I         848  0.03         1.7 0.50                           243 192 
                                                                                
