 2013 1223 0642 45.8 L   6.816 -73.184145.9  RSN  6 0.3 1.5LRSN                1
 GAP=131        0.64       2.9     5.0  6.9 -0.4048E+01  0.1893E+02 -0.5754E+01E
 Epicentro: ZAPATOCA - SANTANDER                                               3
 ACTION:UPD 14-01-13 10:20 OP:ep   STATUS:               ID:20131223064245 L   I
 OLDACT:REG 13-12-23 08:09 OP:mh   STATUS:               ID:20131223064000     3
 2013-12-23-0640-00M.COL___285                                                 6
 STAT SP IPHASW D HRMM SECON CODA AMPLIT PERI AZIMU VELO AIN AR TRES W  DIS CAZ7
 BAR2 SZ EP   1    643  5.54                             170    0.07 7 24.8 180 
 BAR2 SZ I         643 22.31         6.4 0.15            170           24.8 180 
 PAM  SZ EP   1    643  8.07                             150   -0.04 7 78.8  43 
 PAM  SN ES        643 25.72                             150    0.2110 78.8  43 
 PAM  SZ I         643 27.72         4.4 0.24            147           78.8  43 
 RUS  HZ EP        643  9.72                             143    0.0110  103 174 
 RUS  HN ES        643 28.16                             143   -0.2110  103 174 
 RUS  HZ I         643 29.87         2.2 0.22            142            103 174 
 PTB  HZ EP   1    643 12.99                             133    0.56 7  144 258 
 PTB  HZ ES   2    643 33.51                             133    0.30 5  144 258 
 SPBC HZ EP   1    643 14.62                             129    0.43 7  162 217 
 SPBC HN ES   1    643 35.90                             129   -0.44 7  162 217 
 SML  HZ EP        643 21.66                             118   -0.40 8  240 336 
 SML  HN ES   1    643 50.04                             118   -0.31 6  240 336 
 SML  HZ I         643 55.34         4.7 0.09            116            240 336 
                                                                                
