 2012  123 0755 23.8 L   6.816 -73.164140.7  RSN  8 0.5 1.3LRSN                1
 GAP=133        1.28       6.2     7.0 11.1 -0.4916E+00  0.2802E+02  0.1407E+02E
 Epicentro: LOS SANTOS - SANTANDER                                             3
 ACTION:UP  12-02-03 08:19 OP:REBC STATUS:               ID:20120123075523 L   I
 2012-01-23-0750-00M.COL___186                                                 6
 STAT SP IPHASW D HRMM SECON CODA AMPLIT PERI AZIMU VELO SNR AR TRES W  DIS CAZ7
 BAR2 SZ EP   1    755 43.24                             169     0.4 7   25 185 
 BAR2 SZ ES   1    755 58.17                             169     0.4 7   25 185 
 BAR2 SZ I         755 59.73         5.9 0.28                            25 185 
 BRR  HZ EP   1    755 44.21                             152     0.0 7   69 298 
 BRR  HN ES   1    756  0.97                             152     0.8 7   69 298 
 BRR  HZ I         756  5.63         7.7 0.13                            69 298 
 PAM  SZ EP   1    755 45.99                             150     0.5 7   77  42 
 PAM  SZ I         755 46.80         2.1 0.21                            77  42 
 PAM  SN ES        756  1.44                             150    -1.010   77  42 
 RUS  HZ EP   1    755 47.84                             142     0.6 7  103 175 
 RUS  HN ES   1    756  5.22                             142    -0.2 7  103 175 
 RUS  HZ I         756  8.26         2.6 0.30                           103 175 
 PTB  HZ EP   1    755 50.43                             131     0.2 7  146 258 
 PTB  HN ES   1    756 10.21                             131    -0.6 7  146 258 
 PTB  HZ I         756 13.64         0.0 0.13                           146 258 
 ZAR  HZ EP   1    755 55.41                             121    -0.2 6  201 292 
 ZAR  HN ES   1    756 20.54                             121     0.0 6  201 292 
 ZAR  HZ I         756 24.51         2.7 0.23                           201 292 
 CHI  HZ I         756  3.36         0.7 0.11                           250 195 
 CHI  HN ES   1    756 30.39                             116    -0.3 6  250 195 
 PRA  HN ES   1    756 58.51                             105    -0.4 4  393 209 
                                                                                
