 2014  523 0946 26.4 L   6.768 -73.191145.1  RSN  7 0.5 1.7LRSN                1
 GAP=196        1.08       4.9     8.0 11.7  0.1747E+02 -0.2095E+02 -0.1839E+02E
 Epicentro: VILLANUEVA - SANTANDER                                             3
 ACTION:UPD 15-03-16 17:00 OP:nd   STATUS:               ID:20140523094626 L   I
 OLDACT:DUP 14-05-23 19:47 OP:dm   STATUS:               ID:20140523093815d    3
 2014-05-23-0938-13M.COL___255                                                 6
 STAT SP IPHASW D HRMM SECON CODA AMPLIT PERI AZIMU VELO AIN AR TRES W  DIS CAZ7
 RUS  HZ EP        946 50.17                             144    0.2610 97.5 173 
 RUS  HN ES   1    947  7.95                             144   -0.27 7 97.5 173 
 RUS  HZ I         947 11.45         3.8 0.38            124           97.5 173 
 PTB  HZ EP        946 53.15                             133    0.30 9  142 260 
 PTB  HN ES        947 12.79                             133   -0.66 9  142 260 
 PTB  HZ I         947 21.43         7.0 0.44            113            142 260 
 ZAR  HZ EP        946 58.57                             123    0.06 9  201 294 
 ZAR  HE ES   1    947 24.40                             123    0.88 6  201 294 
 ZAR  HZ I         947 32.78         4.3 0.40            108            201 294 
 NOR  HZ EP   1    947  0.70                             119   -0.78 6  229 234 
 NOR  HZ I         947 33.72         4.7 0.22            105            229 234 
 CHI  HZ EP        947  3.77                             117    0.17 8  244 194 
 CHI  HE ES   1    947 33.21                             117    0.64 6  244 194 
 CHI  HZ I         947 41.86         1.7 0.60            104            244 194 
 SML  HZ EP        947  2.37                             117   -0.79 8  245 337 
 SML  HE ES        947 32.22                             117    0.42 8  245 337 
 SML  HZ I         947 35.86         6.7 0.22            106            245 337 
 GUY2CHZ EP   4    947 10.99                             113    1.66 0  295 235 
 GUY2CHE ES   4    947 45.16                             113    2.39 0  295 235 
 GUY2CHZ I         947 52.86         2.9 0.78                           295 235 
                                                                                
