 2013  723 0512 52.1 L   6.786 -73.064150.5  RSN  7 0.3 1.7LRSN                1
 GAP=205        0.72       6.1     6.1  5.3  0.1683E+02  0.5259E+01 -0.4595E+01E
 Epicentro: LOS SANTOS - SANTANDER                                             3
 ACTION:UPD 13-08-12 10:39 OP:ep   STATUS:               ID:20130723051000 L   I
 OLDACT:UPD 13-07-23 09:12 OP:stll STATUS:               ID:20130723051000 L   3
 2013-07-23-0510-00M.COL___263                                                 6
 STAT SP IPHASW D HRMM SECON CODA AMPLIT PERI AZIMU VELO AIN AR TRES W  DIS CAZ7
 BAR2 SZ EP        513 12.52                             171    0.1910 25.1 211 
 BAR2 SZ ES        513 27.86                             171   -0.2510 25.1 211 
 BAR2 SZ I         513 28.86         6.8 0.12            150           25.1 211 
 GIR2 SZ EP        513 12.68                             166    0.2410 35.4 336 
 GIR2 SZ ES   1    513 28.29                             166   -0.03 7 35.4 336 
 GIR2 SZ I         513 29.76         6.0 0.37            159           35.4 336 
 BRR  HZ EP        513 14.42                             150    0.1610 79.9 296 
 BRR  HN ES        513 31.62                             150    0.0810 79.9 296 
 BRR  HZ I         513 32.27         7.4 0.28            137           79.9 296 
 RUS  HN ES   2    513 35.15                             146    0.17 5 98.8 181 
 PTB  HZ EP        513 19.54                             132   -0.69 9  156 260 
 PTB  HZ I         513 44.84         5.5 0.16            117            156 260 
 ZAR  HZ EP   2    513 25.87                             122    0.10 4  213 292 
 ZAR  HE ES        513 52.47                             122    0.43 8  213 292 
 ZAR  HZ I         513 56.74         4.1 0.28            112            213 292 
 SML  HZ EP   1    513 29.33                             118   -0.23 6  249 334 
 SML  HE ES   2    513 58.09                             118   -0.69 4  249 334 
 SML  HZ I         514  2.65         6.4 0.10            111            249 334 
                                                                                
