 2015  323 0350 35.1 L   6.847 -73.161143.8  RSN  6 0.5 1.4LRSN                1
 GAP=132        1.33       4.8     6.7  9.8 -0.9206E+01  0.4766E+01  0.3249E+01E
 Epicentro: LOS SANTOS - SANTANDER                                             3
 ACTION:UPD 15-04-30 16:28 OP:nd   STATUS:               ID:20150323035035 L   I
 OLDACT:REG 15-03-23 13:01 OP:stll STATUS:               ID:20150323034749     3
 2015-03-23-0347-49M.COL___281                                                 6
 STAT SP IPHASW D HRMM SECON CODA AMPLIT PERI AZIMU VELO AIN AR TRES W  DIS CAZ7
 BRR  HZ EP        350 56.46                             153    0.6010 67.4 295 
 BRR  HN ES        351 13.01                             153    0.9910 67.4 295 
 BRR  HZ I         351 18.11         4.5 0.20            153           67.4 295 
 PAM  SZ IP     D  350 57.44                             151    0.4610 74.5  43 
 PAM  SN ES        351 13.81                             151   -0.2010 74.5  43 
 PAM  SZ I         351 16.38         5.8 0.44            156           74.5  43 
 RUS  HZ EP        350 59.22                             142    0.1310  106 175 
 RUS  HZ I         350 60.00         1.3 0.18            146            106 175 
 RUS  HN ES        351 17.40                             142   -0.3710  106 175 
 PTB  HZ EP        351  1.98                             132    0.08 9  147 257 
 PTB  HN ES        351 22.16                             132   -0.61 9  147 257 
 PTB  HZ I         351 26.79         2.7 0.20            133            147 257 
 OCA  HZ EP        351  2.20                             130   -0.59 9  155 354 
 OCA  HN ES        351 23.69                             130   -0.67 9  155 354 
 OCA  HZ I         351 28.24         5.2 0.18            133            155 354 
 SPBC HZ EP        351  4.08                             128    0.30 9  166 217 
 SPBC HE ES        351 25.73                             128   -0.39 9  166 217 
 SPBC HZ I         351 31.82         3.7 0.12            131            166 217 
                                                                                
