 2010  823 0710  7.3 L   6.703 -73.126146.9  RSN  4 0.2 1.2LRSN                1
 GAP=162        0.51       3.9     6.5  7.4 -0.5044E+01 -0.1747E+02  0.4115E-01E
 Epicentro: JORDAN - SANTANDER                                                 3
 ACTION:UP  10-09-07 10:57 OP:vdl  STATUS:               ID:20100823071006 L   I
 2010-08-23-0707-11S.COL___120                                                 6
 STAT SP IPHASW D HRMM SECON CODA AMPLIT PERI AZIMU VELO SNR AR TRES W  DIS CAZ7
 BAR2 SZ EP   2    710 26.92                             174     0.0 5   14 207 
 BAR2 SZ I         710 55.58         3.9 0.68                            14 207 
 BRR  HZ EP        710 28.80                                    -0.210   79 305 
 BRR  HN ES   1    710 46.12                             151     0.2 7   79 305 
 BRR  HZ I         710 48.51         3.5 0.06                            79 305 
 RUS  HZ EP   2    710 30.44                             147     0.0 5   90 177 
 RUS  HZ I         710 34.12         1.6 0.46                            90 177 
 RUS  HN ES   2    710 48.45                             147     0.0 5   90 177 
 GRA  SZ IP        710 33.70                             136     0.2 9  135  15 
 GRA  SZ I         710 35.14         2.2 0.34                           135  15 
 GRA  SZ ES   1    710 53.70                             136    -0.2 7  135  15 
                                                                                
