 2014 1223 0858 55.7 L   6.746 -73.218143.2  RSN  6 0.4 1.5LRSN                1
 GAP=171        1.01       6.1     6.0  8.2 -0.6743E+01  0.1336E+02 -0.1101E+02E
 Epicentro: VILLANUEVA - SANTANDER                                             3
 ACTION:UPD 15-02-10 17:06 OP:nd   STATUS:               ID:20141223085855 L   I
 OLDACT:UP  14-12-23 18:08 OP:mh   STATUS:               ID:20141223085750     3
 OLDACT:UP  14-12-23 18:08 OP:mh   STATUS:               ID:20141223085750     3
 OLDACT:REG 14-12-23 13:45 OP:mh   STATUS:               ID:20141223085750     3
 2014-12-23-0857-50M.COL___289                                                 6
 STAT SP IPHASW D HRMM SECON CODA AMPLIT PERI AZIMU VELO AIN AR TRES W  DIS CAZ7
 BAR2 EZ EP        859 15.42                             173    0.4710 17.5 167 
 BAR2 EZ ES        859 29.47                             173   -0.4610 17.5 167 
 BAR2 EZ I         859 30.86         8.5 0.20            171           17.5 167 
 BRR  HZ EP        859 16.59                             153    0.1910 67.6 306 
 BRR  HN ES   1    859 33.27                             153    0.75 7 67.6 306 
 PTB  HZ EP        859 21.04                             133   -0.65 9  139 261 
 PTB  HN ES        859 42.07                             133    0.15 9  139 261 
 PTB  HZ I         859 54.76         2.0 0.46            132            139 261 
 OCA  HZ EP   1    859 24.19                             128   -0.15 7  165 356 
 OCA  HN ES   1    859 46.15                             128   -0.50 7  165 356 
 OCA  HZ I         859 51.74         4.8 0.38            129            165 356 
 ZAR  HZ EP        859 28.01                             122    0.51 9  199 295 
 ZAR  HN ES        859 52.04                             122   -0.23 9  199 295 
 ZAR  HZ I         859 58.14         5.7 0.42            122            199 295 
 NOR  HE ES   1    859 56.98                             119   -0.18 6  225 234 
                                                                                
