 2015  923 0911 52.2 L   6.816 -73.116150.3  RSN 18 0.5 2.5LRSN                1
 GAP=157        1.12       3.1     4.8  5.5 -0.3320E+01  0.6260E+01  0.3239E+01E
 Epicentro: LOS SANTOS - SANTANDER                                             3
 ACTION:UPD 15-10-28 16:28 OP:cam  STATUS:               ID:20150923091152 L   I
 OLDACT:UP  15-09-23 16:37 OP:mh   STATUS:               ID:20150923090745     3
 OLDACT:UP  15-09-23 16:37 OP:mh   STATUS:               ID:20150923090745     3
 OLDACT:UP  15-09-23 16:35 OP:mh   STATUS:               ID:20150923090745     3
 OLDACT:UP  15-09-23 16:33 OP:mh   STATUS:               ID:20150923090745     3
 OLDACT:REG 15-09-23 12:51 OP:mh   STATUS:               ID:20150923090745     3
 2015-09-23-0907-45M.COL___355                                                 6
 STAT SP IPHASW D HRMM SECON CODA AMPLIT PERI AZIMU VELO AIN AR TRES W  DIS CAZ7
 BAR2 EZ EP     C  912 12.37                             170   -0.0410 25.8 196 
 BAR2 EZ ES        912 27.75                             170   -0.4410 25.8 196 
 BAR2 EZ I         912 28.73        34.2 0.38            168           25.8 196 
 BRR  HZ IP     D  912 14.28                             153    0.3410 73.3 296 
 BRR  HN ES        912 31.78                             153    0.8710 73.3 296 
 BRR  HZ I         912 39.43        26.9 0.18            151           73.3 296 
 PAM  EN ES        912 32.34                             153    0.1010 73.9  38 
 PAM  EZ I         912 34.12        21.0 0.18            158           73.9  38 
 PTB  HZ EP        912 18.97                             132   -0.87 9  151 258 
 PTB  HN ES        912 40.64                             132   -0.78 9  151 258 
 PTB  HZ I         912 46.13        28.9 0.38            133            151 258 
 OCA  HZ EP        912 20.78                             131    0.06 9  159 352 
 OCA  HN ES        912 43.12                             131    0.14 9  159 352 
 OCA  HZ I         912 47.89        71.5 0.20            134            159 352 
 SPBC HZ EP        912 21.24                             129   -0.12 9  167 219 
 SPBC HN ES        912 43.97                             129   -0.14 9  167 219 
 SPBC HZ I         912 49.99        57.5 0.26            131            167 219 
 ZAR  HZ EP   1    912 24.51                             123   -0.65 6  206 291 
 ZAR  HN ES        912 51.07                             123    0.18 8  206 291 
 ZAR  HZ I         912 55.58        36.6 0.42            125            206 291 
 NOR  HZ EP        912 28.44                             119   -0.13 8  238 235 
 NOR  HN ES        912 57.62                             119    0.66 8  238 235 
 NOR  HZ I         913  3.18        21.6 0.34            121            238 235 
 SML  HZ EP        912 28.89                             118   -0.14 8  243 334 
 SML  HN ES        912 57.16                             118   -0.62 8  243 334 
 SML  HZ I         913  1.90        48.7 0.10            121            243 334 
 CHI  HZ EP        912 30.29                             118   -0.13 8  251 196 
 CHI  HN ES        912 60.00                             118   -0.24 8  251 196 
 CHI  HZ I         913  5.45        11.8 0.26            120            251 196 
 ROSC BZ EP        912 31.81                             117    0.91 8  256 211 
 ROSC BN ES   4    913  3.33                             117    2.22 0  256 211 
 ROSC BZ I         913  6.38        27.9 0.40            119            256 211 
 HEL  HZ EP        912 33.72                             115    0.70 7  276 256 
 HEL  HN ES        913  5.02                             115    0.14 7  276 256 
 HEL  HZ I         913 10.66        10.8 0.32            117            276 256 
 URE  HZ EP   4    912 32.48                             114   -1.25 0  286 291 
 URE  HN ES   4    913  3.95                             114   -2.20 0  286 291 
 URE  HZ I         913 10.51        18.6 0.16            116            286 291 
 GUY2CHZ EP        912 37.22                             113    0.80 7  305 235 
 GUY2CHN ES   4    913 13.81                             113    2.89 0  305 235 
 GUY2CHZ I         913 19.04        13.1 0.56                           305 235 
 VIL  SE ES   4    913 12.44                             113    2.11 0  306 192 
 VIL  SZ I         913 16.30        13.4 0.42            115            306 192 
 DBB  SZ EP        912 39.87                             110   -0.33 7  343 274 
 DBB  SZ ES   4    913 16.67                             110   -0.99 0  343 274 
 DBB  SZ I         913 18.29        29.1 0.54            112            343 274 
 ANIL HZ EP   1    912 43.19                             109    0.62 5  361 225 
 ANIL HE ES   4    913 24.99                             109    3.11 0  361 225 
 ORTC HZ EP        912 46.15                             107   -0.50 6  399 216 
 ORTC HN ES        913 28.76                             107   -0.38 6  399 216 
 ORTC HZ I         913 33.40         8.2 0.60            109            399 216 
                                                                                
