 2014  923 0854 51.1 L   6.784 -73.182143.9  RSN  5 0.2 1.3LRSN                1
 GAP=241        0.49       3.9     3.4  4.4  0.5865E+01  0.4071E+01 -0.3237E+00E
 Epicentro: LOS SANTOS - SANTANDER                                             3
 ACTION:UPD 14-10-03 23:07 OP:nd   STATUS:               ID:20140923085451 L   I
 OLDACT:UP  14-09-23 15:39 OP:cam  STATUS:               ID:20140923085000     3
 OLDACT:REG 14-09-23 13:07 OP:cam  STATUS:               ID:20140923085000     3
 2014-09-23-0850-00M.COL___252                                                 6
 STAT SP IPHASW D HRMM SECON CODA AMPLIT PERI AZIMU VELO AIN AR TRES W  DIS CAZ7
 BAR2 SZ ES        855 25.40                             171   -0.1510 21.2 180 
 BAR2 SZ I         855 26.41         4.9 0.14            171           21.2 180 
 RUS  HZ EP        855 14.37                             144   -0.1810 99.2 174 
 RUS  HN ES        855 33.16                             144    0.3110 99.2 174 
 RUS  HZ I         855 34.32         1.9 0.26            147           99.2 174 
 PTB  HZ EP        855 17.63                             132    0.12 9  143 259 
 PTB  HN ES        855 38.15                             132    0.03 9  143 259 
 PTB  HN I         855 43.36         5.0 0.36            131            143 259 
 SPBC HZ EP   1    855 19.12                             129    0.05 7  159 218 
 SPBC HN ES        855 40.68                             129   -0.21 9  159 218 
 SPBC HZ I         855 43.72         3.5 0.24            130            159 218 
 ZAR  HN ES   1    855 48.13                             122    0.07 6  201 293 
 ZAR  HZ I         855 54.75         1.8 0.44            122            201 293 
                                                                                
