 2011  223 0213 24.7 L   6.744 -73.099136.0  RSN  5 0.2 1.5LRSN                1
 GAP=164        0.46       3.5    14.5  4.8 -0.3759E+02  0.1065E+02 -0.1796E+01E
 Epicentro: JORDAN - SANTANDER                                                 3
 ACTION:UP  11-03-28 15:10 OP:jfem STATUS:               ID:20110223021324 L   I
 2011-02-23-0210-29S.COL___136                                                 6
 STAT SP IPHASW D HRMM SECON CODA AMPLIT PERI AZIMU VELO SNR AR TRES W  DIS CAZ7
 BAR2 SZ EP   1    213 42.83                             172    -0.2 7   19 209 
 BAR2 SZ ES   1    213 57.46                             172     0.1 7   19 209 
 BAR2 SZ I         213 59.20         8.4 0.17                            19 209 
 BTL  SZ EP   1    213 43.09                             168    -0.1 7   27 316 
 RUS  HZ EP   1    213 46.99                             144     0.0 7   94 179 
 RUS  HZ I         213 48.05         3.3 0.14                            94 179 
 RUS  HE ES   1    214  4.39                             144     0.0 7   94 179 
 GRA  SZ EP   1    213 49.48                             134     0.0 7  130  14 
 GRA  SZ ES   1    214  8.98                             134     0.2 7  130  14 
 GRA  SZ I         214 10.26         4.1 0.27                           130  14 
 CHI  HZ EP   1    214  1.30                             116    -0.1 6  244 197 
 CHI  HN ES   2    214 30.66                             116     0.7 4  244 197 
 CHI  HZ I         214 31.49         3.0 0.68                           244 197 
                                                                                
