 2013  423 0910 28.5 L   6.785 -73.098142.6  RSN 15 0.6 2.5LRSN 3.0WRSN        1
 SPEC AVERAGE  MO 13.6 ST  4.3 OM  2.3 f0 3.58 R0.4425 AL 2.35 WI 32.0 MW  3.0 3
 SPEC SD       MO  0.2 ST  3.9 OM  0.5 f00.930 R0.1236 AL      WI      MW  0.2 3
 GAP=143        1.19       4.2     5.7  6.5  0.5198E+00  0.1004E+02  0.9599E+00E
 Epicentro: LOS SANTOS - SANTANDER                                             3
 SPEC NOR HH N MO 13.7 ST  8.2 OM  1.9 f0 4.77 R0.3082 AL 2.42 WI 24.8 MW  3.1 3
 SPEC NOR HH N T 91127 K 0.000 GD  277 VS 4.20 DE 3.20 Q0300.0 QA 0.60 VS 4.20 3
 SPEC OCA HH N MO 14.0 ST  9.7 OM  2.3 f0 4.03 R0.3648 AL 2.79 WI 32.0 MW  3.3 3
 SPEC OCA HH N T 91116 K 0.000 GD  216 VS 4.20 DE 3.20 Q0300.0 QA 0.60 VS 4.20 3
 SPEC PTB HH N MO 13.5 ST0.659 OM  1.8 f0 2.44 R0.6025 AL 1.71 WI 35.6 MW  3.0 3
 SPEC PTB HH N T 91112 K 0.000 GD  209 VS 4.20 DE 3.20 Q0300.0 QA 0.60 VS 4.20 3
 SPEC PAM SH N MO 13.3 ST  2.0 OM  1.7 f0 4.13 R0.3559 AL 3.33 WI 35.3 MW  2.8 3
 SPEC PAM SH N T 911 3 K 0.000 GD  161 VS 4.20 DE 3.20 Q0300.0 QA 0.60 VS 4.20 3
 SPEC HEL HH E MO 13.5 ST0.691 OM  1.6 f0 2.53 R0.5810 AL 1.49 WI 32.4 MW  2.9 3
 SPEC HEL HH E T 91141 K 0.000 GD  311 VS 4.20 DE 3.20 Q0300.0 QA 0.60 VS 4.20 3
 ACTION:UPD 13-05-22 14:40 OP:EP   STATUS:               ID:20130423091028 L   I
 2013-04-23-0910-00M.COL___249                                                 6
 STAT SP IPHASW D HRMM SECON CODA AMPLIT PERI AZIMU VELO AIN AR TRES W  DIS CAZ7
 BAR2 SZ EP     C  910 47.94                             170    0.1710 23.3 204 
 BAR2 SZ ES        911  2.89                             170    0.1010 23.3 204 
 BAR2 SZ I         911  4.19        79.1 0.18            166           23.3 204 
 GIR2 SZ EP     C  910 48.01                             166    0.1110 34.1 342 
 GIR2 SZ ES        911  2.64                             166   -0.3810 34.1 342 
 GIR2 SZ I         911  3.96        28.1 0.34            161           34.1 342 
 PAM  SZ EP     C  910 50.74                             151    0.4510 75.4  36 
 PAM  SN ES   1    911  7.07                             151   -0.19 7 75.4  36 
 PAM  SN I         911  9.00        24.0 0.44            153           75.4  36 
 BRR  HZ EP     C  910 49.80                             150    0.1510 76.6 298 
 BRR  HN ES        911  6.47                             150    0.3410 76.6 298 
 BRR  HN I         911  7.09       130.2 0.22            144           76.6 298 
 RUS  HZ EP     D  910 51.90                             144    0.0710 98.7 179 
 RUS  HN ES        911  9.82                             144   -0.1910 98.7 179 
 RUS  HN I         911 11.96        32.2 0.26            144           98.7 179 
 PTB  HZ EP     C  910 54.53                             130   -1.16 9  153 260 
 PTB  HE ES   2    911 16.01                             130   -0.87 5  153 260 
 PTB  HN I         911 21.00        54.7 0.52            127            153 260 
 OCA  HZ EP   1    910 56.08                             128   -0.73 7  163 351 
 OCA  HN ES        911 19.13                             128    0.26 9  163 351 
 OCA  HN I         911 20.95       107.0 0.22            127            163 351 
 ZAR  HN ES        911 27.44                             121    0.50 8  210 292 
 NOR  HZ EP   1    911  3.98                             117   -0.46 6  238 236 
 NOR  HN ES   2    911 31.84                             117   -0.62 4  238 236 
 NOR  HN I         911 39.19        37.9 0.22            116            238 236 
 SML  HZ EP   1    911  4.29                             116   -1.09 6  247 334 
 SML  HN ES   2    911 33.97                             116   -0.15 4  247 334 
 SML  HN I         911 42.89        51.5 0.10            115            247 334 
 ROSC BZ EP   1    911  8.16                             116    1.53 6  254 212 
 ROSC BN ES   4    911 39.64                             116    3.29 0  254 212 
 HEL  HZ EP   1    911 10.15                             114    1.04 6  277 256 
 HEL  HN ES   2    911 41.27                             114    0.51 4  277 256 
 HEL  HN I         911 47.65         9.5 0.34            112            277 256 
 URE  HZ EP   4    911  8.09                             112   -1.97 0  289 292 
 URE  HN ES   4    911 42.67                             112    0.21 0  289 292 
 URE  HN I         911 53.70        31.2 0.26            111            289 292 
 COD  HN ES   4    911 52.77                             108   -2.08 0  350 354 
 COD  HN I         911 58.98         4.5 0.52            108            350 354 
 SJC  HZ EP   4    911 22.02                             105   -2.46 0  413 326 
 SJC  HN ES   4    912  3.78                             105   -4.35 0  413 326 
 SJC  HN I         912  6.24         7.1 0.18            104            413 326 
                                                                                
