 2011  223 0419 27.2 L   6.792 -73.093140.9  RSN  9 0.3 2.2LRSN                1
 GAP=130        0.75       3.7     7.0  6.4 -0.4814E+01  0.1440E+02 -0.5999E+01E
 Epicentro: LOS SANTOS - SANTANDER                                             3
 ACTION:UP  11-03-28 15:10 OP:jfem STATUS:               ID:20110223041927 L   I
 2011-02-23-0414-30S.COL___136                                                 6
 STAT SP IPHASW D HRMM SECON CODA AMPLIT PERI AZIMU VELO SNR AR TRES W  DIS CAZ7
 BAR2 SZ EP   1    419 46.34                             170     0.1 7   24 204 
 BAR2 SZ ES   1    420  0.94                             170    -0.2 7   24 204 
 BTL  SZ EP   1    419 46.72                             170     0.5 7   24 306 
 RUS  HZ EP        419 50.45                             143     0.110   99 179 
 RUS  HN ES   1    420  8.24                             143    -0.2 7   99 179 
 RUS  HZ I         420  9.84        16.7 0.20                            99 179 
 GRA  SZ IP        419 52.35                             136     0.410  125  15 
 GRA  SZ I         419 53.76        29.8 0.25                           125  15 
 OCA  SZ EP   1    419 54.78                             128    -0.5 7  162 351 
 OCA  SZ ES   1    420 16.92                             128    -0.3 7  162 351 
 OCA  SZ I         420 21.28        35.7 0.26                           162 351 
 CHI  HZ EP   1    420  4.52                             116    -0.2 6  249 197 
 CHI  HZ I         420 41.34         8.5 0.27                           249 197 
 HEL  HZ EP        420  8.07                             113     0.3 7  278 256 
 DBB  SZ EP        420 14.81                             108    -0.3 7  345 274 
 SDV  BZ EP   1    420 16.09                             107    -0.5 5  356  49 
                                                                                
