 2013  623 0617  9.6 L   7.440 -73.245138.0  RSN  5 0.5 1.7LRSN                1
 GAP=181        1.07       4.4     8.9  9.6 -0.4032E+01  0.1271E+02  0.1533E+01E
 Epicentro: EL PLAYON - SANTANDER                                              3
 ACTION:UPD 14-01-08 09:56 OP:ep   STATUS:               ID:20130623061709 L   I
 OLDACT:DUP 13-06-23 12:18 OP:carl STATUS:               ID:20130623060960d    3
 2013-06-23-0609-59M.COL___267                                                 6
 STAT SP IPHASW D HRMM SECON CODA AMPLIT PERI AZIMU VELO AIN AR TRES W  DIS CAZ7
 BRR  HZ EP        617 29.78                             154    0.3110 63.3 235 
 BRR  HN ES   1    617 45.04                             154    0.07 7 63.3 235 
 BRR  HZ I         617 45.93         9.0 0.10            151           63.3 235 
 OCA  HN ES        617 48.64                             145    0.4810 88.7 355 
 BAR2 SZ EP        617 31.78                             144    0.0310 94.0 176 
 BAR2 SZ ES   1    617 48.23                             144   -0.80 7 94.0 176 
 BAR2 SZ I         617 49.16         7.4 0.16            144           94.0 176 
 PTB  HZ EP        617 37.68                             127   -0.09 9  167 233 
 PTB  HN ES        617 59.94                             127    0.20 9  167 233 
 PTB  HZ I         618  3.19         2.7 0.14            126            167 233 
 SML  HZ EP        617 38.72                             125    0.08 9  176 329 
 SML  HN ES   1    618  0.05                             125   -1.25 7  176 329 
 SML  HZ I         618  1.27        11.3 0.30            125            176 329 
                                                                                
