 2011  223 0655 48.1 L   6.849 -73.135135.4  RSN  8 0.4 1.6LRSN                1
 GAP=159        0.89       5.3    10.7  9.6 -0.2498E+02  0.3514E+02 -0.1444E+02E
 Epicentro: LOS SANTOS - SANTANDER                                             3
 ACTION:UP  11-03-28 15:10 OP:jfem STATUS:               ID:20110223065548 L   I
 2011-02-23-0654-58S.COL___136                                                 6
 STAT SP IPHASW D HRMM SECON CODA AMPLIT PERI AZIMU VELO SNR AR TRES W  DIS CAZ7
 BTL  SZ EP        656  6.75                             173     0.410   17 298 
 GIR2 SZ EP   1    656  6.74                             168     0.3 7   26 346 
 BAR2 SZ EP        656  6.69                             167     0.010   29 191 
 BAR2 SZ ES   1    656 21.25                             167     0.2 7   29 191 
 BAR2 SZ I         656 22.78         9.0 0.32                            29 191 
 RUS  HZ EP   2    656 10.42                             140    -0.9 5  106 177 
 RUS  HN ES   2    656 28.55                             140    -0.8 5  106 177 
 RUS  HZ I         656 31.28         4.3 0.46                           106 177 
 GRA  SZ EP        656 12.30                             136     0.310  120  18 
 GRA  SZ ES   1    656 30.26                             136    -0.3 7  120  18 
 GRA  SZ I         656 34.68         8.6 0.28                           120  18 
 OCA  SZ EP   1    656 14.53                             128    -0.6 7  155 352 
 OCA  SZ ES   2    656 35.76                             128    -0.5 5  155 352 
 OCA  SZ I         656 43.66         8.7 0.49                           155 352 
 CHI  HZ EP   2    656 26.06                             114     0.2 4  254 195 
 CHI  HZ I         657  5.46         1.5 0.37                           254 195 
 HEL  HZ EP   2    656 28.21                             112     0.1 4  275 255 
 HEL  HE ES   2    656 59.05                             112    -0.2 4  275 255 
 HEL  HZ I         657  5.23         2.4 0.21                           275 255 
                                                                                
