 2010  723 0609 22.6 L   6.813 -73.103144.0  RSN  9 0.4 1.8LRSN                1
 GAP=163        1.09       4.3    10.6  8.2 -0.1206E+02 -0.2551E+01 -0.1884E+00E
 Epicentro: LOS SANTOS - SANTANDER                                             3
 ACTION:UPD 10-12-01 15:19 OP:pat  STATUS:               ID:20100723060922 L   I
 2010-07-23-0606-41S.COL___123                                                 6
 STAT SP IPHASW D HRMM SECON CODA AMPLIT PERI AZIMU VELO AIN AR TRES W  DIS CAZ7
 BAR2 SZ IP        6 9 41.84                             169    -0.210   26 200 
 BAR2 SZ ES   1    6 9 57.25                             169     0.0 7   26 200 
 BAR2 SZ I         6 9 59.59        14.2 0.49                            26 200 
 BRR  HZ IP     C  6 9 43.61                             151    -0.210   75 296 
 BRR  HZ I         6 9 43.84        36.0 0.14                            75 296 
 BRR  HN ES   1    610  0.82                             151     0.5 7   75 296 
 RUS  HZ EP   1    6 9 45.98                             143    -0.3 7  102 179 
 RUS  HN ES   1    610  4.61                             143    -0.1 7  102 179 
 RUS  HZ I         610  6.13         6.1 0.34                           102 179 
 GUE  SZ IP        6 9 47.78                             140     0.810  114  10 
 GUE  SZ I         610  7.59         3.8 0.27                           114  10 
 GRA  SZ IP        6 9 47.52                             137     0.110  123  16 
 GRA  SZ ES   1    610  7.17                             137     0.3 7  123  16 
 GRA  SZ I         610  8.25        11.9 0.38                           123  16 
 OCA  SZ EP        6 9 50.29                             129    -0.4 9  160 351 
 OCA  SZ ES   1    610 11.70                             129    -0.9 7  160 351 
 OCA  SZ I         610 15.17         8.1 0.20                           160 351 
 CHI  HZ EP   1    610  0.38                             117    -0.1 6  251 196 
 CHI  HN ES   2    610 30.61                             117     0.6 4  251 196 
 CHI  HZ I         610 33.11         2.6 0.41                           251 196 
 HEL  HZ EP   2    610  3.70                             114     0.4 4  277 256 
 HEL  HZ I         610 41.36         5.4 0.42                           277 256 
 PRA  HZ EP   1    610 16.26                             106    -0.2 4  396 210 
 PRA  HN ES   2    610 59.11                             106     0.6 3  396 210 
 PRA  HZ I         611  4.63         3.1 0.38                           396 210 
                                                                                
