 2011  723 0417  8.6 L   6.776 -73.162144.6  RSN  8 0.5 2.0LRSN                1
 GAP=154        0.88       3.9     7.3  7.4 -0.9624E+01  0.8773E+01  0.8090E+00E
 Epicentro: LOS SANTOS - SANTANDER                                             3
 ACTION:UPD 12-07-25 14:02 OP:epov STATUS:               ID:20110723041708 L   I
 2011-07-23-0416-49S.COL___143                                                 6
 STAT SP IPHASW D HRMM SECON CODA AMPLIT PERI AZIMU VELO AIN AR TRES W  DIS CAZ7
 BAR2 SZ EP   1    417 27.95                             172   -0.09 7 20.4 186 
 BAR2 SZ ES   1    417 42.76                             172   -0.45 7 20.4 186 
 BAR2 SZ I         417 44.19        26.6 0.24                          20.4 186 
 BRR  HZ EP        417 29.77                             152    0.1510 71.0 301 
 BRR  HZ I         417 29.99        58.9 0.12                          71.0 301 
 BRR  HE ES   1    417 46.42                             152    0.41 7 71.0 301 
 RUS  HZ EP   1    417 31.91                             144   -0.15 7 98.1 175 
 RUS  HE ES   1    417 50.35                             144   -0.01 7 98.1 175 
 RUS  HZ I         417 52.21         7.5 0.22                          98.1 175 
 BRI  SZ EP   1    417 32.57                             140   -0.06 7  112  21 
 BRI  SZ I         417 53.02         7.6 0.50                           112  21 
 GRA  SZ ES   1    417 54.89                             136    1.07 7  129  18 
 GRA  SZ I         417 58.36        10.5 0.56                           129  18 
 OCA  SZ EP   1    417 36.52                             129   -0.54 7  163 354 
 OCA  SZ ES   1    417 58.37                             129   -0.88 7  163 354 
 OCA  SZ I         418  3.28        17.4 0.24                           163 354 
 NOR  SZ EP   2    417 44.58                             119    0.64 4  232 235 
 NOR  SN ES   1    418 11.35                             119   -0.16 6  232 235 
 PRA  HZ EP   1    418  1.91                             106    0.20 4  389 210 
 PRA  HE ES   1    418 43.50                             106    0.37 4  389 210 
                                                                                
