 2013  123 0651 22.4 L   6.700 -73.174138.6  RSN  4 0.4 1.1LRSN                1
 GAP=226        1.15       8.7     8.4  9.3  0.3668E+02  0.1169E+02  0.4228E+01E
 Epicentro: VILLANUEVA - SANTANDER                                             3
 ACTION:UPD 13-02-15 09:16 OP:ep   STATUS:               ID:20130123065122 L   I
 2013-01-23-0648-48M.COL___180                                                 6
 STAT SP IPHASW D HRMM SECON CODA AMPLIT PERI AZIMU VELO AIN AR TRES W  DIS CAZ7
 BAR2 SZ EP        651 40.36                             175   -0.5810 12.0 185 
 BAR2 SZ ES        651 55.18                             175   -0.2610 12.0 185 
 BAR2 SZ I         651 56.84         6.3 0.18            175           12.0 185 
 BRR  HZ EP        651 43.83                             150    0.8910 74.6 307 
 BRR  HN ES        651 58.96                             150   -0.0310 74.6 307 
 RUS  HZ EP        651 44.49                             145   -0.1510 89.9 174 
 RUS  HZ I         651 45.67         1.1 0.16            146           89.9 174 
 RUS  HE ES        652  2.48                             145    0.4610 89.9 174 
 PTB  HZ EP        651 48.00                             131   -0.31 9  143 263 
 PTB  HN ES        652  8.48                             131   -0.07 9  143 263 
                                                                                
