 2010 1223 0306 55.3 L   6.777 -73.154146.4  RSN 11 0.5 2.1LRSN                1
 GAP=158        1.09       4.5     8.5  9.3 -0.1686E+02  0.3345E+02 -0.3378E+01E
 Epicentro: LOS SANTOS - SANTANDER                                             3
 ACTION:UP  11-01-14 15:26 OP:pat  STATUS:               ID:20101223030655 L   I
 2010-12-23-0302-34S.COL___135                                                 6
 STAT SP IPHASW D HRMM SECON CODA AMPLIT PERI AZIMU VELO SNR AR TRES W  DIS CAZ7
 BTL  SZ EP        3 7 14.02                             172    -1.010   20 321 
 BAR2 SZ IP        3 7 14.81                             172    -0.210   21 189 
 BAR2 SZ ES   1    3 7 30.84                             172     0.5 7   21 189 
 BAR2 SZ I         3 7 32.78        30.3 0.43                            21 189 
 RUS  HZ IP     D  3 7 18.67                             145    -0.310   98 175 
 RUS  HE ES   1    3 7 37.58                             145     0.2 7   98 175 
 RUS  HZ I         3 7 38.75        10.1 0.13                            98 175 
 GRA  SZ IP        3 7 21.62                             136     0.810  128  17 
 GRA  SZ ES   1    3 7 41.11                             136     0.3 7  128  17 
 GRA  SZ I         3 7 42.33        26.6 0.36                           128  17 
 OCA  SZ EP   1    3 7 23.72                             129    -0.2 7  163 354 
 OCA  SZ ES   1    3 7 45.94                             129    -0.3 7  163 354 
 OCA  SZ I         3 7 51.14        18.4 0.25                           163 354 
 NOR  SZ EP   1    3 7 30.53                             119    -0.4 6  233 235 
 NOR  SE ES   1    3 7 58.97                             119     0.4 6  233 235 
 CHI  HZ EP   1    3 7 32.81                             118     0.0 6  246 195 
 CHI  HZ I         3 7 33.45         6.7 0.36                           246 195 
 CHI  HE ES   1    3 8  2.26                             118     0.3 6  246 195 
 HEL  HZ EP   1    3 7 35.95                             115     0.5 6  271 256 
 HEL  HE ES   2    3 8  6.49                             115    -0.2 4  271 256 
 HEL  HZ I         3 8 15.33         7.6 0.44                           271 256 
 RREF HZ EP   1    3 7 41.85                             111     0.6 5  319 230 
 RREF HE ES   2    3 8 16.63                             111    -0.4 3  319 230 
 TOL  SZ EP   2    3 7 44.15                             110     0.8 3  341 225 
 PRA  HZ EP   2    3 7 48.44                             107    -0.1 3  389 210 
                                                                                
