 2010 1123 0221  0.1 L   6.801 -73.126148.0  RSN  5 0.3 1.9LRSN                1
 GAP=185        0.62       3.5     9.0  6.7  0.3753E+01 -0.4109E+01  0.2961E+01E
 Epicentro: LOS SANTOS - SANTANDER                                             3
 ACTION:UP  10-12-17 16:54 OP:REBC STATUS:               ID:20101123022100 L   I
 2010-11-23-0218-32S.COL___129                                                 6
 STAT SP IPHASW D HRMM SECON CODA AMPLIT PERI AZIMU VELO SNR AR TRES W  DIS CAZ7
 BRR  HZ EP   1    221 21.67                             152     0.1 7   73 298 
 BRR  HE ES   1    221 38.43                             152     0.1 7   73 298 
 BRR  HZ I         221 42.54        26.2 0.33                            73 298 
 RUS  HZ EP   1    221 24.21                             144     0.2 7  101 177 
 RUS  HN ES   1    221 42.71                             144     0.0 7  101 177 
 RUS  HZ I         221 43.60         5.4 0.29                           101 177 
 OCA  SZ EP   1    221 28.23                             130    -0.3 7  160 352 
 OCA  SZ I         221 54.32         8.0 0.18                           160 352 
 CHI  HZ EP   2    221 37.82                             118    -0.1 4  249 196 
 CHI  HE ES   1    222  7.33                             118    -0.2 6  249 196 
 CHI  HZ I         222 14.68         2.8 0.34                           249 196 
 PRA  HZ EP   1    221 54.62                             107     0.8 4  393 210 
 PRA  HZ I         221 56.40         5.5 0.09                           393 210 
 PRA  HE ES   1    222 35.20                             107    -0.5 4  393 210 
                                                                                
