 2011  823 0955 14.1 L   5.923 -73.736110.0  RSN  5 0.3 1.4LRSN                1
 GAP=147        0.46       4.7     3.1  7.2 -0.8374E+01  0.7390E+01  0.3416E+01E
 Epicentro: GUAVATA - SANTANDER                                                3
 ACTION:UPD 12-07-13 15:53 OP:ep   STATUS:               ID:20110823095514 L   I
 2011-08-23-0954-21S.COL___158                                                 6
 STAT SP IPHASW D HRMM SECON CODA AMPLIT PERI AZIMU VELO AIN AR TRES W  DIS CAZ7
 RUS  HZ EP   1    955 32.46                             144    0.19 7 72.4  93 
 RUS  HN ES   1    955 46.49                             144    0.03 7 72.4  93 
 RUS  HZ I         955 48.33         3.4 0.26                          72.4  93 
 BAR2 SZ EP   1    955 33.88                             136    0.12 7 96.0  40 
 BAR2 SZ ES   1    955 48.98                             136   -0.15 7 96.0  40 
 BAR2 SZ I         955 50.80        18.5 0.40                          96.0  40 
 NOR  SZ EP   1    955 36.76                             126   -0.05 7  132 252 
 NOR  SN ES   1    955 54.40                             126   -0.15 7  132 252 
 CHI  HZ EP   2    955 37.92                             123   -0.51 5  143 180 
 CHI  HZ I         956  1.88         1.8 0.29                           143 180 
 RREF HN ES   2    956 11.66                             112    0.61 4  211 238 
 RREF HZ I         956 15.24         2.3 0.17                           211 238 
                                                                                
