 2012 1223 0220  5.6 L   6.763 -73.187153.2  RSN  7 0.2 1.4LRSN                1
 GAP=133        0.49       4.2     3.5  4.7  0.5953E+01 -0.7227E+00 -0.5331E+01E
 Epicentro: VILLANUEVA - SANTANDER                                             3
 ACTION:UPD 13-01-04 14:29 OP:ep   STATUS:               ID:20121223022005 L   I
 2012-12-23-0220-00M.COL___242                                                 6
 STAT SP IPHASW D HRMM SECON CODA AMPLIT PERI AZIMU VELO AIN AR TRES W  DIS CAZ7
 BAR2 SZ EP   1    220 25.86                             173   -0.22 7 18.9 178 
 BAR2 SZ ES   1    220 41.86                             173   -0.17 7 18.9 178 
 BAR2 SZ I         220 42.73         7.5 0.48                          18.9 178 
 BRR  HZ EP   1    220 27.65                             154    0.16 7 69.3 303 
 BRR  HN ES   1    220 44.94                             154    0.40 7 69.3 303 
 PAM  SZ EP   1    220 28.78                             150   -0.22 7 83.5  40 
 PAM  SZ I         220 48.17         2.5 0.48                          83.5  40 
 RUS  HZ EP   1    220 30.04                             146    0.17 7 96.9 173 
 RUS  HN ES   1    220 48.87                             146    0.09 7 96.9 173 
 RUS  HZ I         220 49.41         2.8 0.56                          96.9 173 
 PTB  HZ EP   1    220 32.71                             135   -0.04 7  142 260 
 PTB  HN ES   1    220 53.78                             135   -0.13 7  142 260 
 PTB  HZ I         220 58.35         2.6 0.37                           142 260 
 ZAR  HE ES   1    221  3.45                             124   -0.34 6  201 294 
 ZAR  HZ I         221 10.07         5.6 0.48                           201 294 
 MON  HZ EP   1    220 55.26                             110    0.45 5  353 309 
                                                                                
