 2017 1123 0825 13.4 L   6.812 -73.136139.6  RSN 10 0.5 1.7LRSN                1
 GAP=137        1.25       3.7     4.8  7.6 -0.3622E+01  0.1305E+02  0.1714E+00E
 Epicentro: LOS SANTOS - SANTANDER                                             3
 ACTION:UPD 17-12-12 19:59 OP:rebc STATUS:               ID:20171123082513 L   I
 OLDACT:UP  17-11-23 16:05 OP:dani STATUS:               ID:20171123081738     3
 OLDACT:REG 17-11-23 13:19 OP:osc  STATUS:               ID:20171123081738     3
 2017-11-23-0818-00M.COL___465                                                 6
 STAT SP IPHASW D HRMM SECON CODA AMPLIT PERI AZIMU VELO AIN AR TRES W  DIS CAZ7
 BAR2 EZ EP        825 32.46                             169    0.1810 24.8 192 
 BAR2 EZ ES        825 46.99                             169   -0.0510 24.8 192 
 BAR2 EZ I         825 49.98        19.5 0.28            169           24.8 192 
 PAM  EZ EP        825 35.23                             150    0.4210 75.7  40 
 PAM  EN ES        825 51.57                             150    0.0210 75.7  40 
 PAM  EZ I         825 52.89         3.9 0.22            154           75.7  40 
 RUS  HZ EP        825 36.42                             142   -0.1810  102 177 
 RUS  HN ES        825 54.45                             142   -0.2810  102 177 
 RUS  HZ I         825 56.25         4.4 0.48            145            102 177 
 PTB  HZ EP        825 38.59                             130   -1.36 9  149 258 
 PTB  HE ES        826  1.11                             130    0.41 9  149 258 
 PTB  HZ I         826  3.41         3.8 0.14            131            149 258 
 OCA  HZ EP        825 40.96                             128   -0.12 9  159 353 
 OCA  HN ES        826  2.73                             128    0.02 9  159 353 
 OCA  HZ I         826  8.19        17.1 0.30            130            159 353 
 SPBC HZ EP        825 42.47                             127    0.92 9  165 219 
 SPBC HE ES        826  3.95                             127    0.40 9  165 219 
 SPBC HZ I         826  7.02         7.2 0.26            129            165 219 
 ZAR  HZ EP        825 46.07                             121    0.61 9  205 292 
 ZAR  HN ES        826  9.70                             121   -0.81 9  205 292 
 ZAR  HZ I         826 16.91         7.1 0.20            122            205 292 
 NOR  HZ EP        825 48.77                             117   -0.15 8  236 234 
 NOR  HN ES        826 16.53                             117   -0.12 8  236 234 
 NOR  HZ I         826 21.45         3.9 0.16            118            236 234 
 CHI  HZ EP        825 50.74                             116   -0.15 8  250 195 
 CHI  HN ES        826 19.77                             116   -0.40 8  250 195 
 CHI  HZ I         826 27.01         3.3 0.48            118            250 195 
 HEL  HN ES        826 25.31                             113    0.64 8  273 256 
                                                                                
