 2017 1023 0520 17.6 L   6.791 -73.110158.0  RSN  4 0.1 1.2LRSN                1
 GAP=283        0.41       2.6     4.3  4.1  0.9020E+00 -0.5289E+01  0.6898E+00E
 Epicentro: LOS SANTOS - SANTANDER                                             3
 ACTION:UPD 17-11-07 19:35 OP:rebc STATUS:               ID:20171023052017 L   I
 OLDACT:REG 17-10-23 12:36 OP:dhb  STATUS:               ID:20171023051014     3
 2017-10-23-0518-00M.COL___390                                                 6
 STAT SP IPHASW D HRMM SECON CODA AMPLIT PERI AZIMU VELO AIN AR TRES W  DIS CAZ7
 BRR  HZ EP        520 40.28                             153   -0.0410 75.1 298 
 BRR  HE ES        520 58.05                             153    0.0310 75.1 298 
 BRR  HZ I         521  0.23         2.6 0.29            149           75.1 298 
 PTB  HZ EP        520 45.81                             134   -0.12 9  151 259 
 PTB  HE ES        521  7.98                             134   -0.04 9  151 259 
 PTB  HZ I         521 11.47         1.2 0.07            131            151 259 
 SPBC HZ EP        520 47.11                             131   -0.14 9  165 220 
 SPBC HN ES        521 10.49                             131    0.14 9  165 220 
 SPBC HZ I         521 15.79         1.7 0.14            130            165 220 
 ZAR  HZ EP        520 51.60                             124    0.30 8  208 292 
 ZAR  HN ES        521 17.46                             124   -0.10 8  208 292 
 ZAR  HZ I         521 23.16         1.8 0.30            124            208 292 
                                                                                
