 2017 1023 0951 46.3 L   6.822 -73.168143.6  RSN  4 0.2 0.9LRSN                1
 GAP=246        0.57       6.6     4.4  4.7  0.1353E+02  0.5593E+01 -0.1254E+01E
 Epicentro: LOS SANTOS - SANTANDER                                             3
 ACTION:UPD 17-11-07 19:35 OP:rebc STATUS:               ID:20171023095146 L   I
 OLDACT:UP  17-10-23 19:06 OP:edw  STATUS:               ID:20171023094741     3
 OLDACT:UP  17-10-23 19:05 OP:edw  STATUS:               ID:20171023094741     3
 OLDACT:REG 17-10-23 13:03 OP:dhb  STATUS:               ID:20171023094741     3
 2017-10-23-0948-00M.COL___381                                                 6
 STAT SP IPHASW D HRMM SECON CODA AMPLIT PERI AZIMU VELO AIN AR TRES W  DIS CAZ7
 BAR2 EZ EP        952  5.61                             169   -0.1010 25.5 183 
 BAR2 EZ ES        952 20.72                             169   -0.1310 25.5 183 
 BAR2 EZ I         952 22.19         3.3 0.18            166           25.5 183 
 BRR  HN ES        952 23.45                             153    0.2610 67.8 298 
 PTB  HZ EP        952 12.96                             132    0.06 9  146 258 
 PTB  HN ES        952 33.75                             132    0.09 9  146 258 
 PTB  HZ I         952 35.41         0.5 0.16            132            146 258 
 ZAR  HZ EP        952 18.47                             122    0.21 9  201 292 
 ZAR  HN ES        952 42.77                             122   -0.43 9  201 292 
                                                                                
