 2011 1123 0008 52.2 L   6.759 -73.104146.7  RSN  4 0.2 1.4LRSN                1
 GAP=144        0.43       3.4     5.3  6.1  0.3123E+01 -0.7935E+01 -0.8270E+00E
 Epicentro: LOS SANTOS - SANTANDER                                             3
 ACTION:UPD 12-07-13 16:11 OP:ep   STATUS:               ID:20111123000852 L   I
 2011-11-23-0000-00M.COL___179                                                 6
 STAT SP IPHASW D HRMM SECON CODA AMPLIT PERI AZIMU VELO AIN AR TRES W  DIS CAZ7
 BAR2 SZ EP   1    0 9 11.77                             172   -0.10 7 20.3 205 
 BAR2 SZ I         0 9 28.04         6.7 0.33                          20.3 205 
 BRR  HZ EP   1    0 9 13.66                             151   -0.13 7 77.4 300 
 BRR  HE ES   1    0 9 30.70                             151    0.05 7 77.4 300 
 BRR  HZ I         0 9 32.68        10.4 0.37                          77.4 300 
 PAM  SZ EP   1    0 9 14.88                             151    0.33 7 78.3  35 
 PAM  SN ES   2    0 9 31.75                             151   -0.25 5 78.3  35 
 PAM  SZ I         0 9 34.91         1.4 0.66                          78.3  35 
 RUS  HZ EP   1    0 9 15.52                             146   -0.16 7 95.8 179 
 RUS  HN ES   1    0 9 34.14                             146    0.12 7 95.8 179 
 RUS  HZ I         0 9 35.32         3.5 0.38                          95.8 179 
                                                                                
