 2011  623 0509 48.4 L   6.782 -73.100144.2  RSN 13 0.3 1.9LRSN                1
 GAP=143        0.64       3.3     4.7  5.8 -0.7169E+01  0.5036E+01  0.3025E+01E
 Epicentro: LOS SANTOS - SANTANDER                                             3
 ACTION:UP  11-07-14 19:07 OP:ep   STATUS:               ID:20110623050948 L   I
 2011-06-23-0508-52S.COL___140                                                 6
 STAT SP IPHASW D HRMM SECON CODA AMPLIT PERI AZIMU VELO SNR AR TRES W  DIS CAZ7
 BAR2 SZ EP   1    510  7.47                             170    -0.3 7   23 203 
 BAR2 SZ ES   2    510 22.71                             170    -0.2 5   23 203 
 BAR2 SZ I         510 23.58        25.4 0.23                            23 203 
 BTL  SZ EP   1    510  8.27                             170     0.5 7   24 309 
 GIR2 SZ EP   1    510  7.89                             166     0.0 7   34 343 
 PAM  SZ EP   2    510 10.59                             151     0.3 5   76  36 
 PAM  SN ES   1    510 27.64                             151     0.2 7   76  36 
 BRR  HZ EP   1    510  9.58                             150    -0.1 7   77 298 
 BRR  HE ES   1    510 26.62                             150     0.4 7   77 298 
 BRR  HZ I         510 29.03        30.6 0.16                            77 298 
 RUS  HZ EP   1    510 11.97                             144     0.2 7   98 179 
 RUS  HN ES   2    510 30.28                             144     0.2 5   98 179 
 RUS  HZ I         510 31.78         6.5 0.26                            98 179 
 BRI  SZ EP   1    510 12.37                             141     0.3 7  109  18 
 BRI  SZ ES   1    510 29.97                             141    -0.7 7  109  18 
 GRA  SZ EP   1    510 13.68                             137     0.2 7  126  15 
 GRA  SZ ES   1    510 32.92                             137    -0.2 7  126  15 
 GRA  SZ I         510 34.28        13.2 0.42                           126  15 
 OCA  SZ EP   2    510 16.67                             129    -0.1 5  163 351 
 OCA  SZ ES   2    510 38.93                             129     0.0 5  163 351 
 OCA  SZ I         510 41.57        11.8 0.39                           163 351 
 NOR  SN ES   2    510 52.00                             118    -0.4 4  238 236 
 CHI  HE ES   2    510 54.60                             117    -0.6 4  248 196 
 CHI  HZ I         510 59.38         2.8 0.31                           248 196 
 HEL  HZ EP   1    510 28.64                             114    -0.3 6  276 256 
 HEL  HN ES   2    511  0.65                             114     0.0 4  276 256 
 HEL  HZ I         511  8.29         4.0 0.36                           276 256 
 RREF HN ES   2    511 11.28                             110     0.4 3  324 230 
 RREF HZ I         511 16.76         3.1 0.36                           324 230 
                                                                                
