 2014  723 0527 39.9 L   6.826 -73.180144.0  RSN 18 0.5 1.9LRSN                1
 GAP=131        1.02       2.4     3.9  5.3 -0.1917E+01  0.6775E+01  0.1194E+01E
 Epicentro: ZAPATOCA - SANTANDER                                               3
 ACTION:UPD 15-03-16 20:46 OP:nd   STATUS:               ID:20140723052739 L   I
 OLDACT:UP  14-07-23 13:36 OP:mh   STATUS:               ID:20140723051813     3
 OLDACT:UP  14-07-23 13:34 OP:mh   STATUS:               ID:20140723051813     3
 OLDACT:REG 14-07-23 12:23 OP:mh   STATUS:               ID:20140723051813     3
 2014-07-23-0518-13M.COL___269                                                 6
 STAT SP IPHASW D HRMM SECON CODA AMPLIT PERI AZIMU VELO AIN AR TRES W  DIS CAZ7
 BAR2 SZ EP        527 59.73                             169    0.4010 25.9 181 
 BAR2 SZ ES        528 14.15                             169   -0.3710 25.9 181 
 BAR2 SZ I         528 15.91        62.5 0.18            167           25.9 181 
 BRR  HZ EP   1    528  1.39                             154    0.83 7 66.5 298 
 BRR  HN ES   1    528 16.88                             154    0.18 7 66.5 298 
 BRR  HZ I         528 22.48        17.4 0.21            148           66.5 298 
 PAM  SZ EP        528  2.63                             150    0.7210 77.7  43 
 PAM  SN ES        528 18.89                             150   -0.2110 77.7  43 
 PAM  SZ I         528 21.46        21.0 0.43            156           77.7  43 
 RUS  HZ EP        528  3.59                             142   -0.0810  104 174 
 RUS  HN ES        528 21.89                             142   -0.3510  104 174 
 RUS  HZ I         528 22.60         4.4 0.51            145            104 174 
 PTB  HZ EP        528  5.74                             132   -0.66 9  145 257 
 PTB  HN ES        528 26.51                             132   -0.59 9  145 257 
 PTB  HZ I         528 33.92         8.0 0.15            130            145 257 
 OCA  HZ EP        528  7.83                             130    0.11 9  157 354 
 OCA  HN ES        528 29.36                             130   -0.10 9  157 354 
 OCA  HZ I         528 34.11         9.3 0.19            131            157 354 
 SPBC HZ EP        528  8.78                             128    0.56 9  163 217 
 SPBC HN ES        528 30.54                             128    0.21 9  163 217 
 SPBC HZ I         528 37.12         7.3 0.34            128            163 217 
 ZAR  HZ EP        528 11.87                             122    0.15 9  199 292 
 ZAR  HN ES        528 37.37                             122    0.80 9  199 292 
 ZAR  HZ I         528 43.80         9.9 0.14            122            199 292 
 NOR  HZ EP        528 14.66                             118   -0.68 8  233 233 
 NOR  HN ES   1    528 43.04                             118    0.02 6  233 233 
 NOR  HZ I         528 49.70         6.5 0.24            118            233 233 
 SML  HZ EP   1    528 15.50                             117   -0.43 6  240 336 
 SML  HN ES        528 43.47                             117   -0.60 8  240 336 
 SML  HZ I         528 55.59         8.0 0.13            118            240 336 
 CHI  HZ EP   1    528 17.16                             116   -0.50 6  250 194 
 CHI  HN ES        528 47.41                             116    0.27 8  250 194 
 CHI  HZ I         528 55.24         3.7 0.35            118            250 194 
 ROSC BZ EP        528 17.36                             116   -0.58 8  253 210 
 ROSC BE ES        528 48.12                             116    0.47 8  253 210 
 ROSC BZ I         528 55.24         5.9 0.35            117            253 210 
 HEL  HZ EP   4    528 22.68                             114    3.02 0  269 255 
 HEL  HN ES   4    528 52.55                             114    1.85 0  269 255 
 HEL  HZ I         528 59.37         2.6 0.31            115            269 255 
 GUY2CHZ EP   4    528 26.01                             112    2.78 0  300 234 
 GUY2CHN ES   1    528 57.69                             112    0.63 5  300 234 
 GUY2CHZ I         529  5.41         3.4 0.27                           300 234 
 TOL  SZ EP   2    528 28.85                             109    0.87 3  343 224 
 TOL  SN ES        529  5.44                             109   -0.07 7  343 224 
 TOL  SZ I         529 15.53         7.0 0.17            110            343 224 
 PRA  HZ EP   1    528 33.64                             106    0.24 4  393 209 
 PRA  HN ES        529 15.15                             106   -0.01 6  393 209 
 PRA  HZ I         529 21.80         3.8 0.14            107            393 209 
 ORTC HN ES        529 15.45                             106   -0.31 6  396 215 
 ORTC HZ I         529 21.92         2.6 0.19            107            396 215 
 SJC  HZ EP   2    528 34.12                             105   -0.72 3  405 327 
 SJC  HE ES   4    529 12.09                             105   -5.63 0  405 327 
 SJC  HZ I         529 19.38         2.7 0.39            107            405 327 
                                                                                
