 2010  823 0104 14.6 L   6.788 -73.045148.9  RSN 18 0.4 3.2LRSN                1
 GAP=170        0.93       3.3     6.3  5.4 -0.8854E+01  0.4077E+01  0.3397E+01E
 Epicentro: LOS SANTOS - SANTANDER                                             3
 ACTION:UP  10-09-07 10:57 OP:vdl  STATUS:               ID:20100823010414 L   I
 2010-08-23-0102-42S.COL___120                                                 6
 STAT SP IPHASW D HRMM SECON CODA AMPLIT PERI AZIMU VELO SNR AR TRES W  DIS CAZ7
 BAR2 SZ IP        1 4 34.83                             169     0.110   27 215 
 BAR2 SZ ES   1    1 4 50.11                             169    -0.3 7   27 215 
 BAR2 SZ I         1 4 51.62       310.9 0.32                            27 215 
 BTL  SZ IP        1 4 34.97                             168     0.210   29 300 
 BTL  SZ ES   1    1 4 50.67                             168     0.2 7   29 300 
 GIR2 SZ EP   1    1 4 34.86                             166     0.0 7   36 333 
 BRR  HZ IP     C  1 4 36.72                             149     0.010   82 296 
 BRR  HZ I         1 4 37.01       640.2 0.18                            82 296 
 BRR  HN ES   1    1 4 54.19                             149     0.2 7   82 296 
 RUS  HZ IP     D  1 4 38.61                             145     0.010   99 182 
 RUS  HE ES   1    1 4 56.74                             145    -0.5 7   99 182 
 RUS  HZ I         1 4 58.72       122.0 0.26                            99 182 
 GUE  SZ EP        1 4 38.67                             140    -0.910  116   7 
 GRA  SZ IP        1 4 40.57                             138     0.510  124  12 
 GRA  SZ ES   1    1 5  0.06                             138     0.2 7  124  12 
 GRA  SZ I         1 5  2.83       151.3 0.43                           124  12 
 OCA  SZ IP        1 4 43.12                             130    -0.3 9  163 349 
 OCA  SZ ES   1    1 5  6.10                             130     0.1 7  163 349 
 OCA  SZ I         1 5 11.13       199.3 0.24                           163 349 
 CHI  HZ EP        1 4 52.48                             117    -0.2 8  251 198 
 CHI  HZ I         1 4 55.50        47.3 0.34                           251 198 
 CHI  HN ES   1    1 5 22.68                             117     0.3 6  251 198 
 ROSC BZ IP     D  1 4 54.30                             117     0.9 8  258 213 
 ROSC BN ES   2    1 5 23.20                             117    -0.5 4  258 213 
 ROSC BZ I         1 5 32.53        69.7 0.51                           258 213 
 CVER SZ EP   1    1 4 55.76                             115     0.3 6  275 205 
 HEL  HZ EP   2    1 4 56.41                             114     0.2 4  283 257 
 HEL  HE ES   2    1 5 28.12                             114    -0.4 4  283 257 
 HEL  HZ I         1 5 33.54        82.6 0.22                           283 257 
 GUY  SN ES   2    1 5 33.53                             112    -0.7 4  310 236 
 GUY  SZ I         1 5 39.13       197.8 0.44                           310 236 
 RREF HZ EP   1    1 5  1.70                             111    -0.1 5  330 231 
 RREF HE ES   1    1 5 38.32                             111    -0.3 5  330 231 
 RREF HZ I         1 5 43.25        52.8 0.32                           330 231 
 TOL  SZ EP   1    1 5  4.37                             109     0.6 5  351 226 
 TOL  SZ ES   2    1 5 41.77                                    -0.4 3  351 226 
 DBB  SZ EP   2    1 5  2.62                             109    -0.9 3  351 274 
 ANIL HZ EP   1    1 5  5.88                             108     0.5 5  364 226 
 ANIL HN ES   2    1 5 45.44                             108     0.5 3  364 226 
 ANIL HZ I         1 5 54.74        90.1 0.42                           364 226 
 PRA  HZ EP   1    1 5  8.22                             107    -0.6 4  397 211 
 PRA  HE ES   2    1 5 50.82                             107    -0.2 3  397 211 
 PRA  HZ I         1 5 58.90        37.9 0.38                           397 211 
                                                                                
