 2011  323 0936  3.7 L   6.801 -73.130135.8  RSN  9 0.4 2.3LRSN                1
 GAP=137        0.96       4.5     6.4  7.3 -0.1403E+02  0.7729E+01  0.4480E+01E
 Epicentro: LOS SANTOS - SANTANDER                                             3
 ACTION:UP  11-06-16 14:35 OP:jfem STATUS:               ID:20110323093603 L   I
 2011-03-23-0932-02S.COL___137                                                 6
 STAT SP IPHASW D HRMM SECON CODA AMPLIT PERI AZIMU VELO SNR AR TRES W  DIS CAZ7
 BAR2 SZ EP   1    936 22.42                             169     0.2 8   24 194 
 BAR2 SZ ES   1    936 36.73                             169     0.2 8   24 194 
 BAR2 SZ I         936 38.45        71.9 0.21                            24 194 
 GIR2 SZ EP   1    936 21.43                             166    -0.8 8   31 347 
 GIR2 SZ ES   1    936 36.18                             166    -0.5 8   31 347 
 GRA  SZ EP        936 28.24                             135     0.210  125  17 
 GRA  SZ ES   1    936 47.88                             135     0.9 7  125  17 
 GRA  SZ I         936 48.63        40.0 0.28                           125  17 
 OCA  SZ EP        936 31.02                             127    -0.3 9  160 353 
 OCA  SZ ES   1    936 52.75                             127     0.0 7  160 353 
 OCA  SZ I         936 57.01        31.6 0.52                           160 353 
 YOP  SZ EP   1    936 33.08                             124     0.1 7  178 154 
 YOP  SZ I         936 34.61        13.1 0.16                           178 154 
 NOR  SZ EP   1    936 38.98                             116    -0.1 6  236 235 
 NOR  SE ES   1    937  6.82                             116     0.2 6  236 235 
 CHI  HZ EP   1    936 40.73                             115    -0.2 6  249 196 
 CHI  HE ES   2    937  9.99                             115     0.0 4  249 196 
 CHI  HZ I         937 14.27         6.0 0.20                           249 196 
 HEL  HZ EP   2    936 44.41                             112     0.8 4  274 256 
 HEL  HN ES   1    937 14.27                             112    -0.5 6  274 256 
 HEL  HZ I         937 21.54         9.4 0.25                           274 256 
 GUY  SN ES   1    937 21.64                             110     0.7 6  303 235 
 GUY  SZ I         937 29.31        14.6 0.31                           303 235 
                                                                                
