 2017  223 0527 59.0 L   6.692 -73.123149.6  RSN  5 0.4 0.8LRSN                1
 GAP=144        0.96       5.2     5.1  7.1 -0.2701E+01  0.5253E+01  0.1878E+00E
 Epicentro: JORDAN - SANTANDER                                                 3
 ACTION:UPD 17-05-24 15:39 OP:jn   STATUS:               ID:20170223052759 L   I
 OLDACT:DUP 17-02-23 17:09 OP:edw  STATUS:               ID:20170223051742d    3
 OLDACT:REG 17-02-23 13:29 OP:edw  STATUS:               ID:20170223051741     3
 2017-02-23-0518-00M.COL___382                                                 6
 STAT SP IPHASW D HRMM SECON CODA AMPLIT PERI AZIMU VELO AIN AR TRES W  DIS CAZ7
 BAR2 EZ ES        528 34.83                             175    0.3610 12.8 211 
 BRR  HZ EP        528 21.22                             150    0.1710 79.7 305 
 BRR  HN ES        528 38.68                             150    0.4310 79.7 305 
 PAM  EZ EP     C  528 22.30                             149    0.1910 85.5  33 
 PAM  EN ES        528 39.56                             149   -0.5810 85.5  33 
 PAM  EZ I         528 41.49         0.9 0.36            153           85.5  33 
 RUS  HZ EP        528 22.18                             148   -0.1210 88.5 177 
 RUS  HN ES        528 40.47                             148   -0.0110 88.5 177 
 RUS  HZ I         528 44.69         1.1 0.34            148           88.5 177 
 PTB  HZ EP        528 26.50                             133    0.16 9  148 264 
 PTB  HN ES        528 47.00                             133   -0.67 9  148 264 
 PTB  HZ I         528 51.79         1.1 0.34            134            148 264 
                                                                                
