 2017 1123 0610 35.4 L   6.804 -73.148148.4  RSN 14 0.7 1.6LRSN                1
 GAP=111        1.29       3.3     4.2  7.0  0.3945E+00  0.4717E+01  0.4797E+01E
 Epicentro: LOS SANTOS - SANTANDER                                             3
 ACTION:UPD 17-12-12 19:58 OP:rebc STATUS:               ID:20171123061035 L   I
 OLDACT:UP  17-11-23 17:40 OP:osc  STATUS:               ID:20171123060738     3
 OLDACT:REG 17-11-23 13:04 OP:osc  STATUS:               ID:20171123060738     3
 2017-11-23-0608-00M.COL___471                                                 6
 STAT SP IPHASW D HRMM SECON CODA AMPLIT PERI AZIMU VELO AIN AR TRES W  DIS CAZ7
 BAR2 EZ EP        610 55.16                             170   -0.2010 23.8 189 
 BAR2 EZ ES        611 10.97                             170    0.0510 23.8 189 
 BAR2 EZ I         611 13.53         7.4 0.24            170           23.8 189 
 PAM  EZ EP        610 58.21                             151    0.3210 77.2  40 
 PAM  EE ES        611 15.50                             151    0.0810 77.2  40 
 PAM  EZ I         611 17.49         6.2 0.44            154           77.2  40 
 RUS  HZ EP        610 59.78                             144    0.3310  101 176 
 RUS  HN ES        611 17.76                             144   -0.4410  101 176 
 RUS  HZ I         611 19.33         7.1 0.30            146            101 176 
 PTB  HZ EP        611  2.34                             133   -0.23 9  148 259 
 PTB  HE ES        611 24.02                             133    0.26 9  148 259 
 PTB  HZ I         611 30.34         1.7 0.22            133            148 259 
 OCA  HZ EP        611  3.92                             130    0.05 9  160 353 
 OCA  HE ES        611 25.59                             130   -0.49 9  160 353 
 OCA  HZ I         611 29.11        11.0 0.18            132            160 353 
 SPBC HN ES        611 26.03                             130   -0.50 9  163 219 
 SPBC HZ I         611 29.11         6.0 0.18            131            163 219 
 YPLC HZ EP        611  5.96                             127    0.52 9  177 151 
 YPLC HN ES        611 29.88                             127    1.01 9  177 151 
 YPLC HZ I         611 32.44         4.5 0.22            130            177 151 
 ZAR  HZ EP        611  7.99                             123    0.01 9  204 292 
 ZAR  HE ES        611 33.43                             123    0.04 9  204 292 
 ZAR  HZ I         611 38.92         3.4 0.36            124            204 292 
 NOR  HN ES        611 39.12                             119   -0.17 8  235 234 
 CHI  HZ EP        611 13.60                             118    0.31 8  249 195 
 CHI  HE ES        611 43.02                             118    0.18 8  249 195 
 CHI  HZ I         611 45.26         1.6 0.30            119            249 195 
 GUY2CHE ES   2    611 56.90                             113    3.64 4  301 235 
 PTGC HZ EP        611 18.43                             112   -1.01 7  309 159 
 PTGC HE ES        611 52.55                             112   -1.23 7  309 159 
 PRA  HZ EP        611 29.20                             107    0.15 6  392 210 
 PRA  HE ES        612 11.10                             107    0.21 6  392 210 
 PRA  HZ I         612 15.98         1.2 0.60            108            392 210 
 ORTC HE ES        612 10.67                             107   -0.92 6  396 216 
                                                                                
