 2017  223 0234 44.5 L   6.011 -73.758112.2  RSN  6 0.2 1.6LRSN                1
 GAP=148        0.74       4.3     3.3  5.9 -0.5148E+01  0.4564E+01 -0.1825E+01E
 Epicentro: BOLIVAR - SANTANDER                                                3
 ACTION:UPD 17-05-24 15:39 OP:jn   STATUS:               ID:20170223023444 L   I
 OLDACT:UP  17-02-23 14:54 OP:edw  STATUS:               ID:20170223022745     3
 OLDACT:REG 17-02-23 12:55 OP:edw  STATUS:               ID:20170223022745     3
 2017-02-23-0228-00M.COL___388                                                 6
 STAT SP IPHASW D HRMM SECON CODA AMPLIT PERI AZIMU VELO AIN AR TRES W  DIS CAZ7
 RUS  HZ EP   9    235  2.57                             143   -0.54 0 75.8 100 
 RUS  HN ES        235 16.57                             143   -0.5610 75.8 100 
 RUS  HZ I         235 18.50         4.6 0.38            145           75.8 100 
 BAR2 HZ EP        235  3.54                             138   -0.3410 90.5  45 
 BAR2 HZ ES        235 19.36                             138    0.3210 90.5  45 
 BAR2 HZ I         235 20.53        13.0 0.48            140           90.5  45 
 PTB  HZ EP        235  3.97                             135   -0.1410 96.9 307 
 PTB  HN ES        235 19.17                             135   -0.2710 96.9 307 
 PTB  HZ I         235 20.36         3.4 0.24            137           96.9 307 
 BRR  HZ EP        235  6.19                             128   -0.1010  121   2 
 BRR  HE ES   4    235 21.79                             128   -1.53 0  121   2 
 NOR  HZ EP        235  7.67                             125    0.2210  133 248 
 NOR  HN ES        235 25.45                             125    0.0610  133 248 
 NOR  HZ I         235 26.93        17.4 0.14            127            133 248 
 ZAR  HZ EP        235 15.13                             113    0.17 9  204 323 
 ZAR  HN ES        235 38.95                             113    0.20 9  204 323 
 ZAR  HZ I         235 40.17         4.0 0.28            115            204 323 
                                                                                
