 2011  723 0721  2.3 L   6.780 -73.146146.8  RSN  8 0.5 2.1LRSN                1
 GAP=170        0.94       5.7     7.8  8.4 -0.2691E+02  0.5131E+01  0.7802E+01E
 Epicentro: LOS SANTOS - SANTANDER                                             3
 ACTION:UPD 12-07-25 14:02 OP:epov STATUS:               ID:20110723072102 L   I
 2011-07-23-0720-14S.COL___142                                                 6
 STAT SP IPHASW D HRMM SECON CODA AMPLIT PERI AZIMU VELO AIN AR TRES W  DIS CAZ7
 BAR2 SZ EP   1    721 21.93                             171   -0.05 7 21.2 191 
 BAR2 SZ ES   1    721 36.82                             171   -0.53 7 21.2 191 
 BAR2 SZ I         721 38.89        25.5 0.21                          21.2 191 
 BRR  HZ IP     C  721 23.91                             152    0.3310 72.2 300 
 BRR  HZ I         721 24.23        52.1 0.17                          72.2 300 
 BRR  HN ES   1    721 41.06                             152    0.85 7 72.2 300 
 BRI  SZ EP   1    721 26.57                             141    0.16 7  111  20 
 BRI  SZ I         721 50.06        11.7 0.31                           111  20 
 OCA  SZ EP   1    721 30.62                             129   -0.24 7  162 353 
 OCA  SZ ES   1    721 52.74                             129   -0.42 7  162 353 
 OCA  SZ I         721 58.47        13.0 0.21                           162 353 
 NOR  SZ EP   1    721 37.64                             119   -0.27 6  233 235 
 NOR  SE ES        722  5.05                             119   -0.67 8  233 235 
 HEL  HE ES   1    722 13.38                             115   -0.44 6  271 256 
 HEL  HZ I         722 20.73         8.9 0.35                           271 256 
 RREF HE ES   1    722 25.19                             111    1.01 5  320 230 
 RREF HZ I         722 34.23         6.2 0.43                           320 230 
 PRA  HZ EP   1    721 55.68                             107    0.08 4  390 210 
 PRA  HN ES   1    722 37.94                             107    0.75 4  390 210 
                                                                                
