 2013  223 0645 36.0 L   6.792 -73.166151.7  RSN 11 0.4 2.3LRSN                1
 GAP= 80        0.86       4.0     3.4  6.1 -0.2447E+00  0.2868E+01  0.1705E+01E
 Epicentro: LOS SANTOS - SANTANDER                                             3
 ACTION:UPD 13-03-12 09:35 OP:ep   STATUS:               ID:20130223064536 L   I
 2013-02-23-0640-00M.COL___225                                                 6
 STAT SP IPHASW D HRMM SECON CODA AMPLIT PERI AZIMU VELO AIN AR TRES W  DIS CAZ7
 BAR2 SZ EP        645 56.37                             171    0.0910 22.2 185 
 BAR2 SZ ES   1    646 11.80                             171   -0.33 7 22.2 185 
 BAR2 SZ I         646 14.37        97.8 0.34            173           22.2 185 
 BRR  HZ IP     D  645 58.25                             154    0.5810 69.6 300 
 BRR  HN ES   1    646 15.34                             154    0.74 7 69.6 300 
 BRR  HZ I         646 21.92        35.9 0.14            139           69.6 300 
 PAM  SZ EP        645 59.15                             151    0.2110 79.5  40 
 PAM  SN ES   1    646 16.48                             151   -0.37 7 79.5  40 
 PAM  SZ I         646 18.58        20.9 0.22            139           79.5  40 
 PTB  HZ EP   1    646  3.14                             134   -0.07 7  145 259 
 PTB  HN ES   1    646 23.75                             134   -0.71 7  145 259 
 PTB  HZ I         646 30.10        31.7 0.42            122            145 259 
 TAM  HZ EP   1    646  4.52                             131    0.22 7  157 104 
 TAM  HN ES   1    646 26.17                             131   -0.23 7  157 104 
 TAM  HZ I         646 27.46        17.7 0.42            123            157 104 
 OCA  HZ EP   1    646  4.33                             131   -0.47 7  161 354 
 OCA  HN ES   1    646 26.99                             131   -0.29 7  161 354 
 OCA  HZ I         646 31.75        42.2 0.14            117            161 354 
 ZAR  HZ EP   1    646  8.17                             124   -0.45 6  202 293 
 ZAR  HE ES   1    646 34.70                             124    0.61 6  202 293 
 ZAR  HZ I         646 41.40        28.8 0.48            112            202 293 
 CHI  HZ EP   1    646 14.32                             118    0.47 6  247 195 
 CHI  HN ES   1    646 43.25                             118   -0.14 6  247 195 
 CHI  HZ I         646 49.76         8.0 0.42            110            247 195 
 HEL  HE ES   1    646 46.90                             116   -0.72 6  270 256 
 HEL  HZ I         646 57.49         7.0 0.32            107            270 256 
 URE  HZ EP   1    646 17.21                             115    0.08 6  282 292 
 COD  HZ EP   1    646 24.09                             110   -0.57 5  349 355 
 COD  HZ I         647  7.32         8.9 0.82            101            349 355 
                                                                                
