 2013 1123 0351 47.0 L   6.788 -73.146144.0  RSN  5 0.5 1.5LRSN                1
 GAP=151        1.26       8.9     8.2 10.7 -0.3389E+02 -0.3424E+01  0.2806E+02E
 Epicentro: LOS SANTOS - SANTANDER                                             3
 ACTION:UPD 14-01-09 16:30 OP:ep   STATUS:               ID:20131123035147 L   I
 OLDACT:REG 13-11-23 07:40 OP:mh   STATUS:               ID:20131123035000     3
 2013-11-23-0350-00M.COL___282                                                 6
 STAT SP IPHASW D HRMM SECON CODA AMPLIT PERI AZIMU VELO AIN AR TRES W  DIS CAZ7
 BAR2 SZ EP        352  6.35                             171   -0.0510 22.1 190 
 BAR2 SZ ES   1    352 20.96                             171   -0.57 7 22.1 190 
 BAR2 SZ I         352 22.48        12.5 0.27            169           22.1 190 
 BRR  HZ EP        352  8.45                             152    0.4510 71.8 299 
 BRR  HN ES        352 25.09                             152    0.7110 71.8 299 
 BRR  HZ I         352 27.19         5.0 0.39            154           71.8 299 
 PAM  SZ EP   1    352  9.28                             150    0.18 7 78.4  39 
 PAM  SN ES   1    352 25.88                             150   -0.45 7 78.4  39 
 PAM  SZ I         352 28.57         4.6 0.34            154           78.4  39 
 PTB  HZ EP        352 13.08                             132   -0.73 9  147 259 
 PTB  HN ES        352 33.99                             132   -0.72 9  147 259 
 PTB  HZ I         352 36.66         2.6 0.14            134            147 259 
 SPBC HZ EP        352 15.47                             129    0.19 9  162 219 
 SPBC HN ES        352 37.89                             129    0.57 9  162 219 
 SPBC HZ I         352 42.47         2.9 0.17            130            162 219 
                                                                                
