 2014  523 0316 51.7 L   6.824 -73.444112.6  RSN 10 0.5 1.6LRSN                1
 GAP= 76        1.27       3.7     4.5  7.8 -0.6110E+01  0.9089E+01 -0.3593E+01E
 Epicentro: SAN VICENTE DE CHUCURI - SANTANDER                                 3
 ACTION:UPD 15-03-16 16:59 OP:nd   STATUS:               ID:20140523031651 L   I
 OLDACT:REG 14-05-23 12:25 OP:spq  STATUS:               ID:20140523030807     3
 2014-05-23-0308-07M.COL___258                                                 6
 STAT SP IPHASW D HRMM SECON CODA AMPLIT PERI AZIMU VELO AIN AR TRES W  DIS CAZ7
 BAR2 SZ EPg       317  8.52                             160    0.6310 38.6 131 
 BAR2 SZ ES        317 20.52                             160    0.0110 38.6 131 
 BAR2 SZ I         317 22.09        26.3 0.30            166           38.6 131 
 BRR  HZ IPg    C  317  8.61                             158    0.8810 43.1 317 
 BRR  HE ESg       317 20.91                             158    0.6710 43.1 317 
 BRR  HZ I         317 22.87         8.4 0.20            152           43.1 317 
 PAM  SZ EP        317 12.43                             136    0.1110  100  55 
 PAM  SN ES        317 28.22                             136   -0.1810  100  55 
 PAM  SZ I         317 32.09         4.4 0.21            139            100  55 
 RUS  HZ EP   1    317 13.41                             133    0.18 7  110 159 
 RUS  HN ES   1    317 29.09                             133   -0.93 7  110 159 
 PTB  HZ IP     D  317 13.03                             131   -0.0810  116 254 
 PTB  HN ES        317 29.04                             131   -0.7710  116 254 
 PTB  HZ I         317 34.49         5.6 0.14            127            116 254 
 SPBC HZ EP        317 16.58                             123    0.36 9  147 208 
 SPBC HN ES        317 34.72                             123   -0.62 9  147 208 
 SPBC HZ I         317 43.74         4.8 0.13            122            147 208 
 OCA  HZ EP        317 17.08                             121   -0.27 9  157   5 
 OCA  HE ES        317 36.54                             121   -0.80 9  157   5 
 OCA  HZ I         317 39.56         7.7 0.24            121            157   5 
 NOR  HN ES        317 47.80                             113    0.39 8  210 229 
 NOR  HZ I         317 55.04         3.0 0.14            112            210 229 
 SML  HZ EP   1    317 24.96                             111   -0.11 6  229 342 
 SML  HE ES   1    317 50.93                             111   -0.16 6  229 342 
 SML  HZ I         318  0.49         6.9 0.10            110            229 342 
 HEL  HN ES   1    317 54.43                             110    0.15 6  241 253 
 HEL  HZ I         318  7.95         2.1 0.30            109            241 253 
                                                                                
