 2014  723 0600  7.2 L   6.818 -73.105147.9  RSN 11 0.4 1.5LRSN                1
 GAP=187        1.02       3.5     4.8  7.6 -0.2367E+01  0.2221E+01  0.7865E+00E
 Epicentro: LOS SANTOS - SANTANDER                                             3
 ACTION:UPD 15-03-16 20:46 OP:nd   STATUS:               ID:20140723060007 L   I
 OLDACT:DUP 14-07-23 14:36 OP:spq  STATUS:               ID:20140723055810d    3
 2014-07-23-0558-09M.COL___266                                                 6
 STAT SP IPHASW D HRMM SECON CODA AMPLIT PERI AZIMU VELO AIN AR TRES W  DIS CAZ7
 BAR2 SZ EP        6 0 27.34                             169    0.2010 26.4 199 
 BAR2 SZ ES   1    6 0 42.33                             169   -0.37 7 26.4 199 
 BAR2 SZ I         6 0 44.19         4.8 0.26            167           26.4 199 
 BRR  HZ EP        6 0 29.27                             152    0.5210 74.4 296 
 BRR  HN ES        6 0 45.79                             152    0.2310 74.4 296 
 BRR  HZ I         6 0 49.74         3.6 0.40            147           74.4 296 
 RUS  HZ EP        6 0 31.38                             144    0.1010  102 179 
 RUS  HN ES   1    6 0 50.37                             144    0.31 7  102 179 
 PTB  HZ EP   1    6 0 34.13                             131   -0.64 7  153 258 
 PTB  HN ES        6 0 55.57                             131   -0.71 9  153 258 
 PTB  HZ I         6 1  0.07         4.0 0.16            130            153 258 
 OCA  HZ EP        6 0 34.92                             130   -0.63 9  159 351 
 OCA  HN ES        6 0 57.69                             130    0.03 9  159 351 
 OCA  HZ I         6 1  0.64         2.8 0.14            130            159 351 
 SPBC HZ EP        6 0 36.33                             129    0.06 9  168 220 
 SPBC HN ES        6 0 58.43                             129   -0.52 9  168 220 
 SPBC HZ I         6 1  5.92         3.1 0.22            128            168 220 
 ZAR  HN ES        6 1  6.42                             122    0.59 8  208 291 
 ZAR  HZ I         6 1 11.93         2.8 0.46            121            208 291 
 NOR  HE ES        6 1 12.60                             118    0.67 8  240 235 
 NOR  HZ I         6 1 16.75         2.3 0.15            118            240 235 
 SML  HN ES   2    6 1 12.47                             118   -0.16 4  244 334 
 SML  HZ I         6 1 19.62         3.9 0.10            118            244 334 
 HEL  HN ES   1    6 1 19.40                             115   -0.52 6  277 256 
 HEL  HZ I         6 1 26.34         1.6 0.28            114            277 256 
 GUY2CHN ES   1    6 1 26.36                             112    0.40 5  306 235 
 GUY2CHZ I         6 1 34.13         1.6 0.54                           306 235 
                                                                                
