 2017  223 0557 53.9 L   6.822 -73.151144.1  RSN 11 0.6 1.8LRSN                1
 GAP= 74        1.28       4.8     4.3  6.9 -0.3106E+01  0.3828E+01  0.8302E+01E
 Epicentro: LOS SANTOS - SANTANDER                                             3
 ACTION:UPD 17-05-24 15:39 OP:jn   STATUS:               ID:20170223055753 L   I
 OLDACT:UP  17-02-23 17:45 OP:edw  STATUS:               ID:20170223054742d    3
 OLDACT:DUP 17-02-23 17:39 OP:edw  STATUS:               ID:20170223054742d    3
 OLDACT:UP  17-02-23 17:23 OP:edw  STATUS:               ID:20170223054740     3
 OLDACT:UP  17-02-23 17:22 OP:edw  STATUS:               ID:20170223054740     3
 OLDACT:UP  17-02-23 17:22 OP:edw  STATUS:               ID:20170223054740     3
 OLDACT:REG 17-02-23 13:31 OP:edw  STATUS:               ID:20170223054740     3
 2017-02-23-0548-00M.COL___382                                                 6
 STAT SP IPHASW D HRMM SECON CODA AMPLIT PERI AZIMU VELO AIN AR TRES W  DIS CAZ7
 BAR2 EZ EP     C  558 13.39                             170   -0.0310 25.6 188 
 BAR2 EZ ES        558 27.87                             170   -0.7510 25.6 188 
 BAR2 EZ I         558 29.64        16.9 0.22            167           25.6 188 
 BRR  HZ IP     C  558 15.17                             153    0.3610 69.5 297 
 BRR  HN ES        558 32.18                             153    1.0810 69.5 297 
 BRR  HZ I         558 35.16        10.5 0.32            154           69.5 297 
 PAM  EZ EP     C  558 16.08                             151    0.1910 76.0  41 
 PAM  EN ES        558 33.03                             151    0.0110 76.0  41 
 PAM  EZ I         558 35.26        16.3 0.52            153           76.0  41 
 RUS  HZ EP        558 17.57                             143   -0.1410  103 176 
 RUS  HN ES        558 36.06                             143   -0.1910  103 176 
 RUS  HZ I         558 37.42        19.7 0.24            142            103 176 
 PTB  HZ EP        558 20.58                             132   -0.18 9  148 258 
 PTB  HN ES        558 40.80                             132   -0.88 9  148 258 
 PTB  HZ I         558 43.63         9.0 0.16            132            148 258 
 TAM  HZ EP     C  558 21.76                             130    0.16 9  156 106 
 TAM  HN ES        558 43.20                             130    0.02 9  156 106 
 TAM  HZ I         558 48.77         4.9 0.44            130            156 106 
 NOR  HZ EP        558 30.23                             118    0.56 8  236 234 
 NOR  HN ES        558 58.25                             118    0.71 8  236 234 
 NOR  HZ I         559  2.63         4.1 0.42            118            236 234 
 CHI  HZ EP        558 32.07                             116    0.29 8  251 195 
 CHI  HN ES        559  1.03                             116   -0.27 8  251 195 
 CHI  HZ I         559  8.23         2.8 0.54            116            251 195 
 PTGC HZ EP   4    558 36.72                             111   -1.28 0  311 159 
 PRA  HZ EP        558 47.27                             106   -0.34 6  394 209 
 PRA  HN ES        559 29.53                             106    0.06 6  394 209 
 PRA  HZ I         559 37.39         2.5 0.64            106            394 209 
 ORTC HZ EP   4    558 49.14                             106    1.16 0  397 216 
 ORTC HN ES   4    559 32.51                             106    2.37 0  397 216 
 ORTC HZ I         559 37.50         2.4 0.52            106            397 216 
 SJC  HZ EP        558 47.54                             105   -1.63 6  407 327 
 SJC  HN ES   4    559 28.64                             105   -3.61 0  407 327 
 SJC  HZ I         559 33.58         1.6 0.82            106            407 327 
                                                                                
