 2016  923 0712 52.3 L   6.762 -73.141154.1  RSN  7 0.2 1.0LRSN                1
 GAP=183        0.67       3.5     4.3  4.9  0.9035E+00 -0.1771E+01 -0.1027E+01E
 Epicentro: LOS SANTOS - SANTANDER                                             3
 ACTION:UPD 17-08-17 21:15 OP:lp   STATUS:               ID:20160923071252 L   I
 OLDACT:UP  16-09-23 22:05 OP:and  STATUS:               ID:20160923070634     3
 OLDACT:UP  16-09-23 21:53 OP:and  STATUS:               ID:20160923070634     3
 OLDACT:REG 16-09-23 11:19 OP:and  STATUS:               ID:20160923070634     3
 2016-09-23-0707-00M.COL___342                                                 6
 STAT SP IPHASW D HRMM SECON CODA AMPLIT PERI AZIMU VELO AIN AR TRES W  DIS CAZ7
 BAR2 EZ EP        713 12.91                             172    0.0410 19.4 194 
 BAR2 EZ ES        713 28.73                             172   -0.1810 19.4 194 
 BAR2 EZ I         713 29.19         3.3 0.15            169           19.4 194 
 BRR  HZ EP        713 14.79                             153    0.2910 73.7 301 
 BRR  HE ES        713 32.10                             153    0.2910 73.7 301 
 RUS  HZ EP        713 16.62                             147    0.0210 96.4 176 
 RUS  HN ES   2    713 35.44                             147   -0.11 5 96.4 176 
 RUS  HZ I         713 36.57         0.5 0.06            144           96.4 176 
 PTB  HZ EP        713 19.97                             134    0.03 9  148 260 
 PTB  HN ES        713 41.20                             134   -0.30 9  148 260 
 PTB  HZ I         713 43.11         1.7 0.16            132            148 260 
 SPBC HZ EP   9    713 21.92                             131    0.73 0  160 220 
 SPBC HN ES        713 45.10                             130    0.65 9  160 220 
 SPBC HZ I         713 48.15         2.2 0.12            129            160 220 
 OCA  HN ES        713 44.30                             131   -0.26 9  164 353 
 ZAR  HZ EP   2    713 25.50                             124   -0.02 4  206 293 
 ZAR  HN ES   2    713 51.55                             124    0.13 4  206 293 
                                                                                
