 2011  723 0258 55.0 L   6.818 -73.066137.4  RSN  6 0.3 1.9LRSN                1
 GAP=164        0.66       4.7     8.1  7.8 -0.1080E+02 -0.1116E+02  0.5292E+00E
 Epicentro: LOS SANTOS - SANTANDER                                             3
 ACTION:UPD 12-07-25 14:02 OP:epov STATUS:               ID:20110723025855 L   I
 2011-07-23-0258-40S.COL___125                                                 6
 STAT SP IPHASW D HRMM SECON CODA AMPLIT PERI AZIMU VELO AIN AR TRES W  DIS CAZ7
 BRR  HZ IP        259 15.58                             149   -0.1310 78.3 294 
 BRR  HE ES   1    259 32.20                             149    0.36 7 78.3 294 
 BRR  HZ I         259 36.71        25.0 0.13                          78.3 294 
 RUS  HN ES   2    259 35.62                             141   -0.47 5  102 181 
 RUS  HZ I         259 36.89         5.3 0.27                           102 181 
 BRI  SZ EP   1    259 18.34                             141    0.57 7  104  17 
 OCA  SZ EP        259 22.56                             128   -0.08 9  160 350 
 OCA  SZ ES   1    259 43.70                             128   -0.48 7  160 350 
 OCA  SZ I         259 48.27        12.8 0.17                           160 350 
 NOR  SZ EP   2    259 31.29                             116    0.09 4  243 235 
 HEL  HZ EP   1    259 35.87                             112    0.02 6  281 256 
 HEL  HZ I         3 0 14.48         5.1 0.31                           281 256 
                                                                                
