 2013  723 0348 51.3 L   6.793 -73.135154.1  RSN  8 0.4 2.1LRSN                1
 GAP=184        0.89       3.6     5.2  6.3  0.3717E+01 -0.1906E+00 -0.4397E+01E
 Epicentro: LOS SANTOS - SANTANDER                                             3
 ACTION:UPD 13-08-12 10:39 OP:ep   STATUS:               ID:20130723034851 L   I
 OLDACT:UP  13-07-23 11:41 OP:cam  STATUS:               ID:20130723034737     3
 OLDACT:UP  13-07-23 11:41 OP:cam  STATUS:               ID:20130723034737     3
 OLDACT:REG 13-07-23 11:37 OP:cam  STATUS:               ID:20130723034737     3
 2013-07-23-0347-37M.COL___234                                                 6
 STAT SP IPHASW D HRMM SECON CODA AMPLIT PERI AZIMU VELO AIN AR TRES W  DIS CAZ7
 BAR2 SZ IP     D  349 11.98                             171    0.0310 22.8 193 
 GIR2 SZ EP        349 12.11                             168    0.0910 32.3 349 
 GIR2 SZ ES   1    349 28.44                             168    0.29 7 32.3 349 
 GIR2 SZ I         349 29.14        18.9 0.60            164           32.3 349 
 BRR  HZ EP     C  349 13.82                             153    0.3610 72.6 299 
 BRR  HZ I         349 13.99        24.5 0.28            152           72.6 299 
 BRR  HN ES        349 31.34                             153    0.6210 72.6 299 
 RUS  HZ EP        349 15.87                             146    0.0210 99.7 177 
 RUS  HN ES        349 34.55                             146   -0.4210 99.7 177 
 RUS  HZ I         349 35.54         9.0 0.30            149           99.7 177 
 PTB  HZ EP   1    349 19.11                             134    0.04 7  149 259 
 PTB  HN ES        349 40.23                             134   -0.48 9  149 259 
 PTB  HZ I         349 42.00        17.9 0.14            135            149 259 
 OCA  HZ EP   1    349 20.90                             131    0.52 7  161 353 
 OCA  HE ES        349 42.34                             131   -0.70 9  161 353 
 OCA  HZ I         349 47.83        11.1 0.20            130            161 353 
 ZAR  HZ EP        349 24.50                             124    0.04 8  205 292 
 ZAR  HE ES   1    349 50.46                             124    0.15 6  205 292 
 SML  HZ EP        349 28.42                             119   -0.14 8  245 335 
 SML  HN ES   1    349 57.20                             119   -0.40 6  245 335 
 SML  HZ I         350  5.17        15.9 0.10            119            245 335 
                                                                                
