 2014  323 0902 14.7 L   6.813 -73.171143.0  RSN 12 0.4 2.2LRSN                1
 GAP=133        0.94       3.0     3.8  5.9 -0.1164E+01  0.9518E+01 -0.1664E+01E
 Epicentro: LOS SANTOS - SANTANDER                                             3
 OLDACT:REG 14-03-23 08:53 OP:mh   STATUS:               ID:20140323085814     3
 ACTION:UPD 14-04-09 23:19 OP:nd   STATUS:               ID:20140323090214 L   I
 OLDACT:UP  14-03-23 13:07 OP:mh   STATUS:               ID:20140323085814     3
 2014-03-23-0858-14M.COL___231                                                 6
 STAT SP IPHASW D HRMM SECON CODA AMPLIT PERI AZIMU VELO AIN AR TRES W  DIS CAZ7
 BAR2 SZ EP        9 2 34.18                             170    0.1610 24.5 183 
 BAR2 SZ ES        9 2 48.74                             170   -0.3510 24.5 183 
 BAR2 SZ I         9 2 50.71        40.6 0.18            172           24.5 183 
 PAM  SZ EP        9 2 37.00                             150    0.3410 78.1  42 
 PAM  SN ES        9 2 54.10                             150    0.3010 78.1  42 
 PAM  SZ I         9 2 56.08        32.5 0.48            150           78.1  42 
 RUS  HN ES   1    9 2 56.18                             143   -0.53 7  102 175 
 PTB  HZ EP        9 2 40.90                             132   -0.31 9  145 258 
 PTB  HN ES        9 3  2.02                             132    0.13 9  145 258 
 PTB  SZ I         9 3  5.36         7.9 0.30            130            145 258 
 SPBC HN ES        9 3  4.68                             128   -0.26 9  163 218 
 ZAR  HZ EP        9 2 46.48                             122   -0.15 9  201 292 
 ZAR  HN ES        9 3 12.40                             122    0.86 9  201 292 
 ZAR  SZ I         9 3 18.00        11.0 0.34            121            201 292 
 NOR  HN ES        9 3 17.88                             118    0.15 8  233 234 
 SML  HZ EP   1    9 2 50.32                             117   -0.57 6  241 336 
 SML  HN ES   1    9 3 18.83                             117   -0.30 6  241 336 
 SML  SZ I         9 3 21.53        19.7 0.06            116            241 336 
 CHI  HZ EP        9 2 52.42                             116    0.10 8  249 194 
 CHI  HN ES        9 3 21.83                             116    0.17 8  249 194 
 CHI  SZ I         9 3 27.32         7.0 1.22            117            249 194 
 URE  HZ EP        9 2 54.64                             113   -0.63 7  281 292 
 URE  HN ES        9 3 26.40                             113   -0.52 7  281 292 
 URE  SZ I         9 3 36.89         7.6 0.42            112            281 292 
 GUY2CHZ EP        9 2 58.78                             112    0.77 7  300 234 
 GUY2CHN ES   4    9 3 35.29                             112    3.49 0  300 234 
 GUY2CSZ I         9 3 39.95         5.8 0.42                           300 234 
 SJC  HZ EP   4    9 3  8.40                             105   -1.44 0  406 327 
 SJC  HN ES   4    9 3 49.23                             105   -3.62 0  406 327 
 SJC  SZ I         9 4  9.73        12.0 2.38            105            406 327 
                                                                                
