 2012 1123 0738 34.3 L   6.792 -73.150151.1  RSN  4 0.3 1.2LRSN                1
 GAP=243        0.66       8.9     6.8  7.9  0.3974E+02  0.8987E+00 -0.2313E+02E
 Epicentro: LOS SANTOS - SANTANDER                                             3
 ACTION:UPD 12-12-05 15:35 OP:}ep  STATUS:               ID:20121123073834 L   I
 2012-11-23-0736-43M.COL___200                                                 6
 STAT SP IPHASW D HRMM SECON CODA AMPLIT PERI AZIMU VELO AIN AR TRES W  DIS CAZ7
 BAR2 SZ EP   1    738 54.54                             171    0.01 7 22.3 189 
 BAR2 SZ ES   1    739  9.99                             171   -0.34 7 22.3 189 
 BAR2 SZ I         739 11.41         4.0 0.40                          22.3 189 
 RUS  HZ EP   1    738 58.52                             145    0.02 7 99.7 176 
 RUS  HE ES   1    739 17.83                             145    0.44 7 99.7 176 
 RUS  HZ I         739 19.27         1.2 0.27                          99.7 176 
 PTB  HZ EP   1    739  1.32                             133   -0.31 7  147 259 
 PTB  HN ES   1    739 22.63                             133   -0.33 7  147 259 
 PTB  HZ I         739 24.49         2.7 0.16                           147 259 
 ZAR  HZ EP   1    739  7.00                             123   -0.07 6  204 292 
 ZAR  HN ES   1    739 33.29                             123    0.65 6  204 292 
 ZAR  HZ I         739 38.92         1.7 0.34                           204 292 
                                                                                
