 2011  523 0546 46.0 L   6.740 -73.097149.1  RSN 11 0.3 2.2LRSN                1
 GAP=146        0.71       3.5     4.7  5.7 -0.5846E+01  0.5986E+01 -0.2366E+01E
 Epicentro: JORDAN - SANTANDER                                                 3
 ACTION:UP  11-06-29 08:55 OP:tino STATUS:               ID:20110523054646 L   I
 2011-05-23-0545-12S.COL___141                                                 6
 STAT SP IPHASW D HRMM SECON CODA AMPLIT PERI AZIMU VELO SNR AR TRES W  DIS CAZ7
 BAR2 SZ EP   1    547  5.38                             172    -0.5 7   19 210 
 BAR2 SZ ES   1    547 21.27                             172    -0.2 7   19 210 
 BAR2 SZ I         547 23.00        34.3 0.22                            19 210 
 BTL  SZ EP   1    547  6.23                             169     0.2 7   27 316 
 GIR2 SZ EP   1    547  6.18                             165    -0.1 7   39 344 
 BRR  HZ EP   1    547  7.69                             150    -0.2 7   79 301 
 BRR  HZ I         547  8.22        45.9 0.09                            79 301 
 BRR  HN ES   1    547 25.36                             150     0.3 7   79 301 
 PAM  SZ EP   1    547  8.89                             151     0.2 7   80  33 
 PAM  SZ I         547  9.12        15.1 0.20                            80  33 
 PAM  SN ES   1    547 26.14                             151    -0.2 7   80  33 
 RUS  HZ EP   1    547  9.73                             146     0.2 7   94 179 
 RUS  HN ES   1    547 28.01                             146     0.0 7   94 179 
 RUS  HZ I         547 29.46        18.7 0.29                            94 179 
 BRI  SZ EP   1    547 10.66                             141     0.1 7  113  17 
 BRI  SZ I         547 11.45        14.4 0.13                           113  17 
 GRA  SZ EP   1    547 11.94                             137     0.0 7  131  14 
 GRA  SZ I         547 13.36        28.2 0.19                           131  14 
 GRA  SZ ES   1    547 32.88                             137     0.7 7  131  14 
 OCA  SZ EP   1    547 14.82                             129    -0.4 7  168 352 
 OCA  SZ ES   1    547 37.61                             129    -0.4 7  168 352 
 OCA  SZ I         547 42.17        18.3 0.19                           168 352 
 NOR  SN ES   2    547 50.42                             119     0.4 4  235 237 
 HEL  HZ EP   1    547 27.06                             115     0.3 6  276 257 
 HEL  HN ES   1    547 58.51                             115    -0.1 6  276 257 
                                                                                
