 2011 1123 0129 23.4 L   6.798 -73.084148.0  RSN  9 0.4 2.1LRSN                1
 GAP=145        0.75       3.5     5.8  5.9 -0.1479E+01  0.1085E+02  0.1639E+01E
 Epicentro: LOS SANTOS - SANTANDER                                             3
 ACTION:UPD 12-07-13 16:11 OP:ep   STATUS:               ID:20111123012923 L   I
 2011-11-23-0127-50S.COL___178                                                 6
 STAT SP IPHASW D HRMM SECON CODA AMPLIT PERI AZIMU VELO AIN AR TRES W  DIS CAZ7
 BAR2 SZ EP        129 43.48                             170    0.1410 25.2 205 
 BAR2 SZ ES   1    129 58.74                             170   -0.15 7 25.2 205 
 BAR2 SZ I         130  0.26        51.7 0.25                          25.2 205 
 PAM  SZ EP   1    129 46.21                             152    0.58 7 73.4  35 
 PAM  SN ES   1    130  2.86                             152   -0.10 7 73.4  35 
 BRR  HZ EP        129 45.38                             151    0.2310 77.3 296 
 BRR  HN ES   1    130  2.08                             151   -0.03 7 77.3 296 
 BRR  HZ I         130  5.28        32.1 0.14                          77.3 296 
 RUS  HZ EP        129 47.36                             144    0.0210  100 180 
 RUS  HN ES   1    130  5.71                             144   -0.30 7  100 180 
 RUS  HZ I         130  7.34         9.5 0.20                           100 180 
 OCA  SZ EP   1    129 51.97                             130   -0.02 7  161 351 
 OCA  SZ ES   1    130 14.18                             130   -0.12 7  161 351 
 OCA  SZ I         130 20.43        17.1 0.40                           161 351 
 ZAR  HZ EP   1    129 55.75                             122   -0.90 6  210 292 
 ZAR  HZ I         130 27.85        14.1 0.30                           210 292 
 CHI  HZ EP   1    130  0.85                             117   -0.55 6  250 197 
 CHI  HZ I         130 39.09         5.6 0.42                           250 197 
 HEL  HZ EP   1    130  4.36                             114   -0.09 6  279 256 
 HEL  HZ I         130 42.08         7.4 0.26                           279 256 
 RREF HN ES   1    130 47.72                             111    0.99 5  327 230 
 RREF HZ I         130 55.32         5.7 0.41                           327 230 
                                                                                
