 2011  423 0513  6.3 L   6.757 -73.112142.0  RSN 13 0.4 2.2LRSN                1
 GAP=118        0.79       5.1     4.9  6.9 -0.6392E+01  0.4209E+00  0.1843E+02E
 Epicentro: LOS SANTOS - SANTANDER                                             3
 ACTION:UP  11-06-22 15:32 OP:REBC STATUS:               ID:20110423051306 L   I
 2011-04-23-0500-00M.COL___139                                                 6
 STAT SP IPHASW D HRMM SECON CODA AMPLIT PERI AZIMU VELO SNR AR TRES W  DIS CAZ7
 BAR2 SZ IP        513 25.27                             172    -0.210   20 203 
 BAR2 SZ ES   1    513 40.39                             172     0.1 7   20 203 
 BAR2 SZ I         513 43.14        28.9 0.04                            20 203 
 BRR  HZ IP     C  513 27.13                             150    -0.310   77 300 
 BRR  HZ I         513 27.48        26.1 0.11                            77 300 
 BRR  HN ES   1    513 44.37                             150     0.5 7   77 300 
 PAM  SZ EP        513 28.21                             150     0.010   79  35 
 PAM  SN ES   1    513 45.29                             150     0.0 7   79  35 
 RUS  HZ EP        513 29.17                             144    -0.210   96 178 
 GRA  SZ ES   3    513 50.55                             135    -0.6 2  129  15 
 GRA  SZ I         513 53.44        17.3 0.19                           129  15 
 OCA  SZ ES   3    513 58.05                             128     1.0 2  165 352 
 OCA  SZ I         514  1.95         9.9 0.44                           165 352 
 YOP  SZ EP        513 35.79                             126     0.3 9  173 154 
 NOR  SZ EP        513 41.50                             118    -0.4 8  235 236 
 NOR  SN ES   1    514  9.03                             118    -0.6 6  235 236 
 CHI  HZ EP   3    513 43.48                             117     0.1 2  245 196 
 CHI  HZ I         514 18.22         5.3 0.43                           245 196 
 ROSC BZ EP   3    513 45.23                             116     1.2 2  251 212 
 ROSC BN ES   2    514 13.98                             116     0.6 4  251 212 
 ROSC BZ I         514 23.00        18.0 0.36                           251 212 
 HEL  HZ EP   3    513 46.97                             114     0.4 2  275 257 
 HEL  HN ES   3    514 18.76                             114     0.7 2  275 257 
 HEL  HZ I         514 23.92         6.3 0.27                           275 257 
 GUY  SZ EP   1    513 51.06                             112     1.0 5  304 236 
 GUY  SZ I         514 32.96        13.8 0.44                           304 236 
 PRA  HZ EP   2    513 59.57                             106     0.1 3  390 210 
 PRA  HZ I         514 44.13        12.6 0.26                           390 210 
                                                                                
