 2017  823 0620 19.0 L   6.762 -73.121143.4  RSN  4 0.4 1.3LRSN                1
 GAP=141        0.97       5.4     8.2  8.7  0.5244E+01  0.7131E+01  0.8059E+01E
 Epicentro: LOS SANTOS - SANTANDER                                             3
 ACTION:UPD 17-09-04 20:23 OP:rebc STATUS:               ID:20170823062019 L   I
 OLDACT:UP  17-08-23 16:22 OP:osc  STATUS:               ID:20170823061739d    3
 OLDACT:DUP 17-08-23 16:15 OP:osc  STATUS:               ID:20170823061739d    3
 2017-08-23-0618-00M.COL___405                                                 6
 STAT SP IPHASW D HRMM SECON CODA AMPLIT PERI AZIMU VELO AIN AR TRES W  DIS CAZ7
 BAR2 EZ EP        620 37.85                             172   -0.3910 19.9 200 
 BAR2 EZ ES        620 52.79                             172   -0.4910 19.9 200 
 BAR2 EZ I         620 54.05         5.4 0.12            170           19.9 200 
 BRR  HZ EP        620 39.79                             151   -0.3310 75.7 300 
 BRR  HE ES        620 57.04                             151    0.4210 75.7 300 
 BRR  HZ I         620 59.52         3.4 0.24            149           75.7 300 
 PAM  EN ES        620 58.43                             150    0.1910 79.1  36 
 RUS  HZ EP        620 42.60                             145    0.4410 96.2 178 
 RUS  HN ES        621  0.42                             145    0.1610 96.2 178 
 RUS  HZ I         621  1.26         2.3 0.24            146           96.2 178 
                                                                                
