 2015  123 0559 43.7 L   6.790 -73.149148.5  RSN  9 0.4 1.5LRSN                1
 GAP=137        1.03       3.3     4.4  6.5 -0.8343E+00  0.7096E+01  0.1700E+01E
 Epicentro: LOS SANTOS - SANTANDER                                             3
 ACTION:UPD 15-03-02 15:41 OP:nd   STATUS:               ID:20150123055943 L   I
 OLDACT:REG 15-01-23 14:41 OP:carl STATUS:               ID:20150123055743     3
 2015-01-23-0557-43M.COL___262                                                 6
 STAT SP IPHASW D HRMM SECON CODA AMPLIT PERI AZIMU VELO AIN AR TRES W  DIS CAZ7
 BAR2 EZ EP        6 0  3.56                             171   -0.0810 22.1 190 
 BAR2 EZ ES        6 0 19.26                             171    0.0710 22.1 190 
 BAR2 EZ I         6 0 21.07         6.5 0.32            169           22.1 190 
 BRR  HZ IP     C  6 0  5.40                             153    0.2410 71.5 299 
 BRR  HN ES        6 0 22.71                             153    0.8110 71.5 299 
 BRR  HZ I         6 0 27.68         4.4 0.30            150           71.5 299 
 PAM  SZ EP        6 0  6.36                             151    0.0910 78.5  39 
 PAM  SN ES        6 0 23.49                             151   -0.3910 78.5  39 
 PAM  SZ I         6 0 24.10         2.4 0.38            156           78.5  39 
 RUS  HZ EP        6 0  7.81                             145    0.1710 99.5 176 
 RUS  HN ES        6 0 26.29                             145   -0.0310 99.5 176 
 RUS  HZ I         6 0 27.10         3.7 0.26            148           99.5 176 
 PTB  HZ EP        6 0 10.23                             133   -0.61 9  147 259 
 PTB  HN ES        6 0 31.40                             133   -0.61 9  147 259 
 PTB  HZ I         6 0 38.70         5.3 0.42            132            147 259 
 OCA  HN ES        6 0 34.34                             130   -0.32 9  161 353 
 SPBC HZ EP        6 0 12.57                             130    0.27 9  162 219 
 SPBC HN ES        6 0 34.87                             130    0.25 9  162 219 
 SPBC HZ I         6 0 39.06         6.2 0.12            131            162 219 
 ZAR  HZ EP        6 0 17.03                             123    0.70 9  204 292 
 ZAR  HN ES        6 0 41.48                             123   -0.31 9  204 292 
 ZAR  HZ I         6 0 47.57         7.8 0.28            124            204 292 
 CHI  HN ES        6 0 50.42                             118   -0.42 8  247 195 
                                                                                
