 2014  223 0553 48.7 L   6.219 -73.695101.8  RSN  4 0.5 1.2LRSN                1
 GAP=160        1.15       6.3     6.8 12.8  0.2903E+02  0.3035E+02  0.2609E+02E
 Epicentro: LANDAZURI - SANTANDER                                              3
 ACTION:UPD 14-03-10 08:12 OP:ep   STATUS:               ID:20140223055348 L   I
 OLDACT:REG 14-02-23 08:39 OP:fm   STATUS:               ID:20140223055000     3
 2014-02-23-0550-00M.COL___215                                                 6
 STAT SP IPHASW D HRMM SECON CODA AMPLIT PERI AZIMU VELO AIN AR TRES W  DIS CAZ7
 RUS  HZ EP        554  6.05                             140   -0.4010 76.8 118 
 RUS  HN ES        554 20.50                             140    0.2210 76.8 118 
 RUS  HZ I         554 22.81         3.5 0.22            144           76.8 118 
 PTB  HZ EP        554  6.52                             134   -0.4710 91.3 293 
 PTB  HN ES        554 21.45                             134    0.2010 91.3 293 
 PTB  HZ I         554 23.94         5.8 0.28            136           91.3 293 
 CHI  HZ EP     C  554 17.02                             115    0.94 9  176 181 
 CHI  HE ES        554 36.95                             115   -0.47 9  176 181 
 CHI  HZ I         554 46.48         0.7 0.22            116            176 181 
 ZAR  HE ES        554 39.55                             112    0.10 9  191 318 
 ZAR  HZ I         554 40.86         3.2 0.54            117            191 318 
                                                                                
