 2010  423 0252 19.5 L   6.750 -73.003147.8  RSN 11 0.3 2.3LRSN                1
 GAP=187        0.58       3.7     6.1  4.7 -0.1475E+02 -0.6243E+01  0.5484E+01E
 Epicentro: CEPITA - SANTANDER                                                 3
 ACTION:UPD 10-08-24 10:00 OP:vdl  STATUS:               ID:20100423025229 L   I
 2010-04-23-0249-02S.COL___104                                                 6
 STAT SP IPHASW D HRMM SECON CODA AMPLIT PERI AZIMU VELO AIN AR TRES W  DIS CAZ7
 BAR2 SZ IP        252 39.44                             169     0.010   27 229 
 BAR2 SZ ES   1    252 54.78                             169    -0.2 7   27 229 
 GIR2 SZ ES   2    252 55.65                             164     0.1 5   42 330 
 BRR  HZ IP     C  252 41.77                             148    -0.110   88 297 
 BRR  HZ I         252 42.11        71.8 0.14                            88 297 
 BRR  HE ES   1    252 59.26                             148    -0.1 7   88 297 
 BRI  SZ IP        252 43.92                             142     0.310  109  12 
 GUE  SZ IP        252 44.39                             139    -0.310  120   4 
 GUE  SZ ES   2    253  5.06                             139     0.8 5  120   4 
 GRA  SZ IP        252 45.16                             137     0.110  127  10 
 GRA  SZ ES   1    253  4.82                             137    -0.2 7  127  10 
 CHI  HZ EP   2    252 57.36                             118     0.1 4  248 199 
 CHI  HE ES   2    253 27.61                             118     0.9 4  248 199 
 CHI  HZ I         253 32.54         5.6 0.26                           248 199 
 HEL  HZ EP   2    253  1.80                             114     0.4 4  286 258 
 HEL  HE ES   3    253 34.92                             114     0.9 2  286 258 
 HEL  HZ I         253 38.69        12.5 0.27                           286 258 
 RREF BN ES   2    253 43.69                             111     0.1 3  330 232 
 RREF BZ I         253 51.21        12.0 0.27                           330 232 
 TOL  SZ EP   2    253  8.20                             109    -0.5 3  351 227 
 PRA  HZ EP   1    253 13.08                             107    -0.4 4  395 212 
 PRA  HE ES   1    253 55.61                             107     0.0 4  395 212 
 PRA  HZ I         254  2.00         5.7 0.35                           395 212 
                                                                                
