 2016 1223 0934 36.6 L   6.772 -73.177140.0  RSN 14 0.5 2.4LRSN                1
 GAP= 98        1.16       4.1     3.3  6.1 -0.1121E+00  0.5461E+01  0.6287E+01E
 Epicentro: LOS SANTOS - SANTANDER                                             3
 ACTION:UPD 17-01-11 20:18 OP:rebc STATUS:               ID:20161223093436 L   I
 OLDACT:UP  16-12-23 17:03 OP:cog  STATUS:               ID:20161223092741d    3
 OLDACT:DUP 16-12-23 16:58 OP:cog  STATUS:               ID:20161223092741d    3
 2016-12-23-0928-00M.COL___378                                                 6
 STAT SP IPHASW D HRMM SECON CODA AMPLIT PERI AZIMU VELO AIN AR TRES W  DIS CAZ7
 BAR2 EZ EP        934 55.62                             172    0.1310 19.8 182 
 BAR2 EZ ES        935 10.57                             172    0.3710 19.8 182 
 BAR2 EZ I         935 12.93        47.4 0.18            167           19.8 182 
 BRR  HZ EP        934 57.37                             152    0.3010 69.8 302 
 BRR  HE ES        935 13.88                             152    0.8610 69.8 302 
 PAM  EZ EP        934 58.55                             148    0.0410 82.0  40 
 PAM  EN ES        935 15.43                             148   -0.1610 82.0  40 
 PAM  EZ I         935 17.88        43.8 0.44            154           82.0  40 
 RUS  HZ EP        934 59.55                             143   -0.0510 97.7 174 
 RUS  HN ES        935 17.41                             143   -0.1110 97.7 174 
 RUS  HZ I         935 19.02        32.2 0.26            142           97.7 174 
 PTB  HZ EP        935  2.14                             131   -0.62 9  144 260 
 PTB  HN ES        935 21.82                             131   -1.33 9  144 260 
 PTB  HZ I         935 26.19        27.1 0.20            131            144 260 
 TAM  HZ EP        935  4.08                             129   -0.01 9  158 104 
 TAM  HN ES        935 25.13                             129   -0.38 9  158 104 
 TAM  HZ I         935 25.96        16.8 0.38            131            158 104 
 ZAR  HZ EP        935  8.37                             121   -0.12 9  202 293 
 ZAR  HN ES        935 33.33                             121   -0.03 9  202 293 
 NOR  HZ EP        935 11.98                             118    0.46 8  230 235 
 NOR  HN ES        935 38.84                             118    0.09 8  230 235 
 NOR  HZ I         935 41.27        24.2 0.16            118            230 235 
 CHI  HZ EP        935 13.83                             116    0.25 8  245 195 
 CHI  HN ES        935 41.96                             116   -0.44 8  245 195 
 CHI  HZ I         935 50.19        13.6 0.44            116            245 195 
 ROSC BZ EP   4    935 15.82                             116    1.88 0  248 211 
 ROSC BN ES   4    935 46.31                             116    3.26 0  248 211 
 ROSC BZ I         935 51.23        25.8 0.30            116            248 211 
 GUY2CHZ EP        935 20.01                             111    0.56 7  297 235 
 GUY2CHE ES   4    935 54.76                             111    1.91 0  297 235 
 GUY2CHZ I         936  2.04        14.9 0.34                           297 235 
 PTGC HZ EP   4    935 18.60                             111   -1.44 0  307 158 
 PTGC HN ES   4    935 50.70                             111   -3.20 0  307 158 
 PTGC HZ I         935 54.64        11.2 0.44            111            307 158 
 ELA  HZ EP   4    935 24.37                             109    1.67 0  324 229 
 ELA  HN ES   4    936  2.87                             109    4.23 0  324 229 
 CBOC HZ EP        935 22.65                             109   -0.17 7  329 252 
 CBOC HE ES        935 58.73                             109   -0.12 7  329 252 
 CBOC HZ I         936 12.32         4.8 0.46            109            329 252 
 ANIL HZ EP   4    935 26.67                             108    1.00 0  353 224 
 ANIL HE ES   4    936  5.54                             108    1.61 0  353 224 
 ORTC HZ EP   4    935 30.92                             106    1.11 0  391 216 
 ORTC HE ES        936 12.38                             106    1.08 6  391 216 
 ORTC HZ I         936 19.77        11.2 0.29            106            391 216 
                                                                                
