 2012  423 0642 13.8 L   6.775 -73.143147.8  RSN  5 0.4 1.5LRSN                1
 GAP=138        1.03       7.2     6.9  9.6 -0.6927E+01  0.5563E+01 -0.3041E+01E
 Epicentro: LOS SANTOS - SANTANDER                                             3
 ACTION:UPD 12-07-05 11:55 OP:tino STATUS:               ID:20120423064213 L   I
 2012-04-23-0640-00M.COL___186                                                 6
 STAT SP IPHASW D HRMM SECON CODA AMPLIT PERI AZIMU VELO AIN AR TRES W  DIS CAZ7
 BAR2 SZ EP   1    642 33.58                             172     0.0 7   21 192 
 BAR2 SZ ES   1    642 48.86                             172    -0.2 7   21 192 
 BAR2 SZ I         642 51.53         8.8 0.49                            21 192 
 BRR  HZ EP        642 35.42                             152     0.210   73 300 
 BRR  HE ES   1    642 52.87                             152     0.9 7   73 300 
 BRR  HZ I         642 55.38         8.8 0.15                            73 300 
 PAM  SZ EP        642 36.46                             150     0.110   79  38 
 PAM  SN ES   1    642 53.25                             150    -0.7 7   79  38 
 RUS  HZ EP   1    642 37.84                             145     0.3 7   98 176 
 RUS  HN ES   1    642 56.19                             145     0.1 7   98 176 
 RUS  HZ I         642 57.40         3.0 0.17                            98 176 
 PTB  HZ EP   1    642 40.43                             132    -0.5 7  148 260 
 PTB  HN ES   1    643  1.41                             132    -0.6 7  148 260 
                                                                                
