 2017 1023 0733 56.6 L   6.803 -73.081146.4  RSN  5 0.3 1.3LRSN                1
 GAP=270        0.76       5.2     5.3  6.9  0.3393E+01  0.8067E+01 -0.4690E+00E
 Epicentro: LOS SANTOS - SANTANDER                                             3
 ACTION:UPD 17-11-07 19:35 OP:rebc STATUS:               ID:20171023073356 L   I
 OLDACT:REG 17-10-23 12:50 OP:dhb  STATUS:               ID:20171023072738     3
 2017-10-23-0728-00M.COL___372                                                 6
 STAT SP IPHASW D HRMM SECON CODA AMPLIT PERI AZIMU VELO AIN AR TRES W  DIS CAZ7
 BAR2 EZ EP        734 16.45                             170    0.0510 25.9 206 
 BAR2 EZ ES        734 31.48                             170   -0.3310 25.9 206 
 BAR2 EZ I         734 32.53         6.8 0.36            169           25.9 206 
 BRR  HZ IP     C  734 18.43                             151    0.2110 77.4 296 
 BRR  HZ I         734 28.79         3.6 0.34            147           77.4 296 
 BRR  HN ES        734 35.36                             151    0.3210 77.4 296 
 PTB  HZ EP        734 23.94                             131   -0.37 9  155 259 
 PTB  HN ES        734 45.53                             131   -0.35 9  155 259 
 PTB  HZ I         734 47.67         1.4 0.16            126            155 259 
 SPBC HN ES        734 48.69                             128    0.42 9  168 221 
 SPBC HZ I         734 53.73         2.1 0.36            123            168 221 
 ZAR  HN ES        734 55.68                             122    0.02 8  211 291 
 ZAR  HZ I         735  0.50         3.0 0.44            116            211 291 
                                                                                
