 2017  823 0516  1.7 L   6.803 -73.101146.4  RSN  5 0.3 1.3LRSN                1
 GAP=242        0.84       5.0     6.2  6.6  0.1455E+02  0.6310E+01  0.2907E+01E
 Epicentro: LOS SANTOS - SANTANDER                                             3
 ACTION:UPD 17-09-04 20:23 OP:rebc STATUS:               ID:20170823051601 L   I
 OLDACT:DUP 17-08-23 15:00 OP:osc  STATUS:               ID:20170823050741d    3
 2017-08-23-0508-00M.COL___405                                                 6
 STAT SP IPHASW D HRMM SECON CODA AMPLIT PERI AZIMU VELO AIN AR TRES W  DIS CAZ7
 BAR2 EZ EP        516 21.24                             170   -0.1610 25.0 201 
 BAR2 EZ ES        516 36.31                             170   -0.4910 25.0 201 
 BRR  HZ EP        516 23.17                             151    0.0510 75.4 297 
 BRR  HE ES        516 40.45                             151    0.5910 75.4 297 
 BRR  HZ I         516 48.17         4.7 0.20            151           75.4 297 
 RUS  HZ EP        516 25.78                             144    0.3010  101 179 
 RUS  HN ES        516 44.10                             144    0.0310  101 179 
 RUS  HZ I         516 45.82         1.5 0.25            149            101 179 
 SPBC HZ EP        516 30.39                             129   -0.14 9  167 220 
 SPBC HE ES        516 53.15                             129    0.10 9  167 220 
 SPBC HZ I         516 55.27         4.7 0.08            132            167 220 
 ZAR  HZ EP   4    516 27.41                             122   -7.19 0  208 292 
 ZAR  HE ES        516 59.89                             122   -0.41 8  208 292 
                                                                                
