 2011  123 0816 38.6 L   6.800 -72.986138.1  RSN  5 0.3 1.4LRSN                1
 GAP=199        0.52       2.7     7.4  5.6 -0.2145E+00  0.9907E+01 -0.2463E+01E
 Epicentro: CEPITA - SANTANDER                                                 3
 ACTION:UP  11-02-08 08:42 OP:pat  STATUS:               ID:20110123081638 L   I
 2011-01-23-0811-49S.COL___138                                                 6
 STAT SP IPHASW D HRMM SECON CODA AMPLIT PERI AZIMU VELO SNR AR TRES W  DIS CAZ7
 BAR2 SZ EP   1    816 57.64                             166     0.1 7   32 223 
 BAR2 SZ I         816 58.24        10.8 0.37                            32 223 
 BAR2 SZ ES   1    817 12.47                             166     0.2 7   32 223 
 RUS  HZ EP   1    817  1.72                             142     0.1 7  101 186 
 RUS  HE ES   1    817 19.36                             142    -0.2 7  101 186 
 RUS  HZ I         817 21.42         4.3 0.44                           101 186 
 OCA  SZ EP   1    817  6.71                             127     0.1 7  163 347 
 OCA  SZ ES   1    817 28.12                             127    -0.3 7  163 347 
 OCA  SZ I         817 32.00         3.7 0.46                           163 347 
 CHI  HZ EP   2    817 16.62                             115     0.2 4  254 199 
 CHI  HE ES   2    817 45.32                             115    -0.6 4  254 199 
 CHI  HZ I         817 49.36         0.9 0.53                           254 199 
 HEL  HZ EP   2    817 20.15                             112    -0.2 4  289 257 
 HEL  HE ES   2    817 53.14                             112     0.2 4  289 257 
 HEL  HZ I         817 57.51         1.9 0.54                           289 257 
                                                                                
