 2013  223 0204 56.1 L   6.774 -73.255 30.3  RSN  4 0.3 1.2LRSN                1
 GAP=114        0.58       3.3     2.2  3.1  0.6463E-01 -0.3497E+00 -0.5215E+01E
 Epicentro: ZAPATOCA - SANTANDER                                               3
 ACTION:UPD 13-03-12 09:35 OP:ep   STATUS:               ID:20130223020456 L   I
 2013-02-23-0200-00M.COL___225                                                 6
 STAT SP IPHASW D HRMM SECON CODA AMPLIT PERI AZIMU VELO AIN AR TRES W  DIS CAZ7
 BAR2 SZ EP   2    2 5  2.53                             142    0.18 5 21.7 158 
 BAR2 SZ ES   1    2 5  7.12                             142   -0.06 7 21.7 158 
 BAR2 SZ I         2 5  8.47        37.9 0.18            153           21.7 158 
 BRR  HZ EP   1    2 5  6.47                             108   -0.46 7 62.5 306 
 BRR  HN ES   1    2 5 15.61                             108    0.26 7 62.5 306 
 BRR  HZ I         2 5 16.84        13.9 0.10            103           62.5 306 
 PAM  SZ EP   1    2 5 11.17                              61    0.39 7 87.6  44 
 PAM  SE ES   1    2 5 21.99                              61   -0.21 7 87.6  44 
 PAM  SZ I         2 5 24.92         3.1 0.13             97           87.6  44 
 PTB  HE ES   1    2 5 31.80                              61    0.00 7  135 259 
                                                                                
