 2015  223 0753 31.5 L   6.154 -73.811105.1  RSN  7 0.4 1.8LRSN                1
 GAP=122        1.05       4.0     4.1  7.9 -0.8075E+01  0.8852E+01 -0.8666E+01E
 Epicentro: LANDAZURI - SANTANDER                                              3
 ACTION:UPD 15-04-30 21:28 OP:nd   STATUS:               ID:20150223075331 L   I
 OLDACT:UP  15-02-23 18:31 OP:mh   STATUS:               ID:20150223074739     3
 OLDACT:REG 15-02-23 13:59 OP:mh   STATUS:               ID:20150223074739     3
 2015-02-23-0747-39M.COL___269                                                 6
 STAT SP IPHASW D HRMM SECON CODA AMPLIT PERI AZIMU VELO AIN AR TRES W  DIS CAZ7
 SPBC HZ EP        753 48.36                             147    0.4510 62.6 208 
 SPBC HN ES        754  1.01                             147    0.2610 62.6 208 
 SPBC HZ I         754  2.74        27.6 0.23            154           62.6 208 
 BAR2 EZ IP     D  753 50.20                             138    0.4310 84.7  55 
 BAR2 EZ ES        754  4.02                             138   -0.0410 84.7  55 
 BAR2 EZ I         754  5.25        21.9 0.60            145           84.7  55 
 NOR  HZ EP        753 54.49                             124    0.3910  134 241 
 NOR  HN ES        754 10.93                             124   -0.8410  134 241 
 NOR  HZ I         754 16.17        13.8 0.14            142            134 241 
 CHI  HZ EP        753 57.79                             117   -0.44 9  169 177 
 CHI  HN ES   1    754 18.70                             117   -0.41 7  169 177 
 CHI  HZ I         754 26.61         3.9 0.26            128            169 177 
 PAM  SZ EP        753 59.48                             115   -0.02 9  180  43 
 PAM  SN ES        754 20.89                             115   -0.49 9  180  43 
 PAM  SZ I         754 39.71         4.0 0.62            128            180  43 
 GUY2CHZ EP        754  2.36                             112    0.55 9  200 239 
 GUY2CHN ES   4    754 28.43                             112    2.93 0  200 239 
 GUY2CHZ I         754 30.80         5.1 0.40                           200 239 
 URE  HZ EP   1    754  7.51                             106   -0.53 6  260 313 
 URE  HZ I         754  9.12         5.4 0.37            123            260 313 
 URE  HN ES        754 36.64                             106    0.05 8  260 313 
                                                                                
