 2011  923 0436 13.5 L   6.794 -73.168130.8  RSN  4 0.1 1.3LRSN                1
 GAP=213        0.33       5.7    10.5  7.0  0.5353E+02 -0.4979E+02 -0.2441E+02E
 Epicentro: LOS SANTOS - SANTANDER                                             3
 ACTION:UPD 12-07-13 15:59 OP:ep   STATUS:               ID:20110923043613 L   I
 2011-09-23-0431-43S.COL___165                                                 6
 STAT SP IPHASW D HRMM SECON CODA AMPLIT PERI AZIMU VELO AIN AR TRES W  DIS CAZ7
 BTL  SZ EP   1    436 31.34                             172    0.11 7 17.6 321 
 BAR2 SZ EP        436 31.22                             170   -0.1010 22.4 184 
 BAR2 SZ I         436 31.87         4.1 0.13                          22.4 184 
 BRR  HZ EP        436 33.00                             150    0.0510 69.4 300 
 BRR  HN ES   1    436 48.05                             150   -0.06 7 69.4 300 
 BRR  HZ I         436 50.79         7.1 0.07                          69.4 300 
 RUS  HZ EP   1    436 35.73                             140   -0.05 7  100 175 
 RUS  HE ES   1    436 53.22                             140    0.07 7  100 175 
 RUS  HZ I         436 55.38         2.6 0.30                           100 175 
                                                                                
