 2017  623 0444 48.0 L   6.785 -73.175157.8  RSN  5 0.3 1.5LRSN                1
 GAP=241        0.79       5.5     5.4  7.2  0.3193E+01  0.7156E+01 -0.6720E+00E
 Epicentro: LOS SANTOS - SANTANDER                                             3
 ACTION:UPD 17-09-14 16:54 OP:jn   STATUS:               ID:20170623044448 L   I
 OLDACT:REG 17-06-23 13:22 OP:lv   STATUS:               ID:20170623043738     3
 2017-06-23-0438-00M.COL___368                                                 6
 STAT SP IPHASW D HRMM SECON CODA AMPLIT PERI AZIMU VELO AIN AR TRES W  DIS CAZ7
 BAR2 HZ EP        445  8.78                             172   -0.2110 21.3 182 
 BAR2 HZ ES        445 25.08                             172   -0.3210 21.3 182 
 BRR  HZ EP        445 10.67                             155    0.3710 69.2 301 
 BRR  HE ES        445 28.15                             155    0.4110 69.2 301 
 BRR  HZ I         445 28.86         4.2 0.47            153           69.2 301 
 PTB  HZ EP        445 15.63                             135    0.01 9  144 259 
 PTB  HN ES        445 37.26                             135    0.07 9  144 259 
 PTB  HZ I         445 42.65                             134            144 259 
 SPBC HN ES        445 39.92                             132    0.10 9  160 218 
 SPBC HZ I         445 42.42         4.7 0.24            131            160 218 
 ZAR  HN ES        445 46.17                             125   -0.55 9  202 293 
                                                                                
