 2012 1123 0458 56.5 L   6.786 -73.168136.9  RSN  6 0.3 1.2LRSN                1
 GAP=134        0.66       4.1     5.3  6.1  0.2312E+01  0.8912E+01 -0.3059E+01E
 Epicentro: LOS SANTOS - SANTANDER                                             3
 ACTION:UPD 12-12-05 15:35 OP:}ep  STATUS:               ID:20121123045856 L   I
 2012-11-23-0457-49M.COL___206                                                 6
 STAT SP IPHASW D HRMM SECON CODA AMPLIT PERI AZIMU VELO AIN AR TRES W  DIS CAZ7
 BAR2 SZ EP   1    459 14.36                             171   -0.63 7 21.5 184 
 BAR2 SZ ES   1    459 29.60                             171    0.15 7 21.5 184 
 GIR2 SZ EP   1    459 15.11                             166   -0.01 7 32.5 355 
 GIR2 SZ ES   1    459 29.57                             166   -0.10 7 32.5 355 
 GIR2 SZ I         459 31.72         4.4 0.27                          32.5 355 
 PAM  SZ EP   1    459 17.67                             148   -0.25 7 80.1  40 
 PAM  SE ES   1    459 34.80                             148    0.15 7 80.1  40 
 PAM  SZ I         459 36.69         3.1 0.52                          80.1  40 
 RUS  HZ EP   1    459 19.24                             142   -0.01 7 99.3 175 
 RUS  HN ES   1    459 37.35                             142    0.32 7 99.3 175 
 RUS  HZ I         459 39.34         1.7 0.18                          99.3 175 
 ZAR  HN ES   1    459 52.78                             121   -0.12 6  202 293 
 ZAR  HZ I         459 59.26         2.9 0.12                           202 293 
 SML  HZ EP   1    459 33.39                             115    0.74 6  244 336 
                                                                                
