 2013  723 0404  7.8 L   6.809 -73.137148.0  RSN 11 0.4 2.0LRSN                1
 GAP=113        0.89       3.3     4.1  5.2  0.1373E+01  0.5341E+00  0.1628E+01E
 Epicentro: LOS SANTOS - SANTANDER                                             3
 ACTION:UPD 13-08-12 10:39 OP:ep   STATUS:               ID:20130723040000 L   I
 OLDACT:UP  13-07-23 10:23 OP:cam  STATUS:               ID:20130723040000 L   3
 OLDACT:UP  13-07-23 10:23 OP:cam  STATUS:               ID:20130723040000 L   3
 OLDACT:UPD 13-07-23 09:12 OP:stll STATUS:               ID:20130723040000 L   3
 2013-07-23-0400-00M.COL___263                                                 6
 STAT SP IPHASW D HRMM SECON CODA AMPLIT PERI AZIMU VELO AIN AR TRES W  DIS CAZ7
 BAR2 SZ IP     D  4 4 27.57                             170   -0.1310 24.5 192 
 BAR2 SZ ES   1    4 4 42.71                             170   -0.53 7 24.5 192 
 BAR2 SZ I         4 4 44.21        28.1 0.16            170           24.5 192 
 GIR2 SZ EP        4 4 27.53                             168   -0.1610 30.5 348 
 GIR2 SZ ES   1    4 4 43.25                             168    0.02 7 30.5 348 
 GIR2 SZ I         4 4 44.81        18.7 0.28            165           30.5 348 
 BRR  HZ EP        4 4 29.27                             153    0.0810 71.6 297 
 BRR  HE ES        4 4 46.63                             153    0.7410 71.6 297 
 BRR  HZ I         4 4 49.54        16.6 0.14            150           71.6 297 
 RUS  HZ EP        4 4 31.56                             144   -0.2610  102 177 
 RUS  HE ES   1    4 4 50.60                             144    0.03 7  102 177 
 RUS  HZ I         4 4 51.54         7.8 0.18            146            102 177 
 PTB  HZ EP        4 4 34.46                             132   -0.58 9  149 259 
 PTB  HN ES   1    4 4 55.59                             132   -0.71 7  149 259 
 PTB  HZ I         4 4 58.18        17.4 0.42            131            149 259 
 TAM  HZ EP        4 4 35.66                             131    0.09 9  154 105 
 OCA  HZ EP   1    4 4 36.53                             130    0.35 7  159 353 
 OCA  HE ES   1    4 4 58.86                             130    0.53 7  159 353 
 OCA  HZ I         4 5  3.56         8.5 0.32            130            159 353 
 ZAR  HZ EP        4 4 40.34                             123   -0.09 9  205 292 
 ZAR  HE ES   1    4 5  5.78                             123   -0.11 6  205 292 
 ZAR  HZ I         4 5 11.15        13.8 0.26            122            205 292 
 NOR  HZ EP        4 4 44.28                             119    0.49 8  236 234 
 NOR  HE ES   1    4 5 12.30                             119    0.42 6  236 234 
 NOR  HZ I         4 5 17.07        11.7 0.32            119            236 234 
 SML  HZ EP   1    4 4 43.99                             118   -0.49 6  243 335 
 SML  HN ES   2    4 5 12.17                             118   -0.93 4  243 335 
 SML  HZ I         4 5 16.02        19.1 0.24            118            243 335 
 CHI  HZ EP   1    4 4 45.98                             118    0.24 6  250 195 
 CHI  HZ I         4 4 48.48         4.3 0.22            118            250 195 
 CHI  HN ES   1    4 5 15.99                             118    0.65 6  250 195 
                                                                                
