 2014  523 0841  5.8 L   7.374 -73.141 85.1  RSN  5 0.3 0.9LRSN                1
 GAP=106        0.66       3.7     4.7 15.1  0.5812E+01  0.5276E+02  0.2672E+02E
 Epicentro: RIONEGRO - SANTANDER                                               3
 ACTION:UPD 15-03-16 17:00 OP:nd   STATUS:               ID:20140523084105 L   I
 OLDACT:UP  14-05-27 20:57 OP:nd   STATUS:               ID:20140523084105 L   3
 OLDACT:UP  14-05-23 20:50 OP:nlst STATUS:               ID:20140523084105 L   3
 OLDACT:UP  14-05-23 20:11 OP:fm   STATUS:               ID:20140523083816d    3
 OLDACT:DUP 14-05-23 20:09 OP:fm   STATUS:               ID:20140523083816d    3
 2014-05-23-0838-15M.COL___252                                                 6
 STAT SP IPHASW D HRMM SECON CODA AMPLIT PERI AZIMU VELO AIN AR TRES W  DIS CAZ7
 PAM  SZ EP        841 19.80                             148   -0.0310 48.8  94 
 PAM  SE ES   1    841 30.60                             148   -0.19 7 48.8  94 
 PAM  SZ I         841 37.45         3.8 0.68             47           48.8  94 
 OCA  HE ES        841 37.48                             127    0.1910 97.7 348 
 OCA  HZ I         841 40.41         4.4 0.20             47           97.7 348 
 RUS  HZ EP   4    841 28.19                             113   -2.87 0  164 178 
 RUS  HN ES   2    841 50.86                             113    0.09 5  164 178 
 RUS  HZ I         842  2.02         0.5 0.24             47            164 178 
 PTB  HN ES   1    841 51.87                             111    0.47 7  172 238 
 ZAR  HN ES   1    841 54.41                             109   -0.65 7  190 274 
                                                                                
