 2016 1223 0148 16.0 L   6.798 -73.184140.4  RSN  7 0.5 1.5LRSN                1
 GAP=132        1.19       5.4     5.1  7.4  0.4097E+01  0.9286E+01  0.4419E+01E
 Epicentro: ZAPATOCA - SANTANDER                                               3
 ACTION:UPD 17-01-11 20:17 OP:rebc STATUS:               ID:20161223014816 L   I
 OLDACT:UP  16-12-23 15:01 OP:cog  STATUS:               ID:20161223014747     3
 OLDACT:REG 16-12-23 12:43 OP:y    STATUS:               ID:20161223014747     3
 2016-12-23-0148-00M.COL___393                                                 6
 STAT SP IPHASW D HRMM SECON CODA AMPLIT PERI AZIMU VELO AIN AR TRES W  DIS CAZ7
 BAR2 EZ EP        148 35.70                             170    0.6910 22.8 180 
 BAR2 EZ ES        148 49.22                             170   -0.5910 22.8 180 
 BAR2 EZ I         148 50.97        10.2 0.36            168           22.8 180 
 BRR  HN EP        148 35.90                             153   -0.5010 67.6 300 
 BRR  HE ES        148 52.99                             153    0.7010 67.6 300 
 PAM  EZ EP        148 37.79                             149   -0.0810 80.3  42 
 PAM  EE ES        148 54.71                             149   -0.1810 80.3  42 
 PAM  EZ I         148 56.28         6.9 0.32            153           80.3  42 
 RUS  HZ EP        148 39.44                             143    0.1610  101 174 
 RUS  HN ES        148 57.67                             143    0.2610  101 174 
 RUS  HZ I         148 59.72         3.7 0.40            142            101 174 
 PTB  HZ EP        148 41.86                             132   -0.33 9  144 259 
 PTB  HN ES        149  1.98                             132   -0.61 9  144 259 
 PTB  HZ I         149  6.83         5.7 0.36            131            144 259 
 ZAR  HZ EP        148 47.43                             122   -0.31 9  200 293 
 ZAR  HE ES        149 13.12                             122    0.65 9  200 293 
 ZAR  HZ I         149 17.15         4.1 0.18            122            200 293 
 CHI  HZ EP        148 53.48                             116    0.18 8  247 194 
 CHI  HE ES   4    149 25.23                             116    2.86 0  247 194 
 CHI  HZ I         149 28.18         1.2 0.28            116            247 194 
                                                                                
