 2012  323 0145 18.1 L   6.771 -73.207145.3  RSN  4 0.3 1.2LRSN                1
 GAP=228        0.54       7.0     7.8  7.5  0.3226E+02 -0.3849E+01 -0.1073E+01E
 ACTION:UP  12-03-31 23:21 OP:EP   STATUS:               ID:20120323014518 L   I
 2012-03-23-0140-00M.COL___202                                                 6
 STAT SP IPHASW D HRMM SECON CODA AMPLIT PERI AZIMU VELO SNR AR TRES W  DIS CAZ7
 BAR2 SZ ES   2    145 52.34                             172    -0.5 5   20 172 
 BRR  HZ EP        145 38.90                             154    -0.110   67 304 
 BRR  HE ES   2    145 55.88                             154     0.6 5   67 304 
 RUS  HZ EP        145 41.76                             144     0.110   98 172 
 RUS  HZ I         145 59.05         1.7 0.63                            98 172 
 RUS  HN ES   2    146  0.09                             144     0.1 5   98 172 
 PTB  HZ EP   2    145 44.28                             133    -0.1 5  140 260 
 PTB  HN ES   2    146  4.78                             133    -0.1 5  140 260 
 PTB  HZ I         146  8.71         4.0 0.65                           140 260 
                                                                                
