 2012  823 0329 27.8 L   6.805 -73.129141.0  RSN  9 0.5 2.2LRSN                1
 GAP=138        0.91       4.2     4.7  6.9 -0.3583E+01  0.9832E+01 -0.1769E+01E
 Epicentro: LOS SANTOS - SANTANDER                                             3
 ACTION:UPD 12-09-10 11:57 OP:ep   STATUS:               ID:20120823032927 L   I
 2012-08-23-0327-36M.COL___210                                                 6
 STAT SP IPHASW D HRMM SECON CODA AMPLIT PERI AZIMU VELO AIN AR TRES W  DIS CAZ7
 BAR2 SZ EP   1    329 47.14                             170    0.22 7 24.3 194 
 BAR2 SZ ES   1    330  1.67                             170   -0.13 7 24.3 194 
 BAR2 SZ I         330  3.45        55.4 0.19                          24.3 194 
 BRR  HZ EP   1    329 49.05                             151    0.50 7 72.5 297 
 BRR  HN ES   1    330  5.28                             151    0.57 7 72.5 297 
 BRR  HZ I         330 10.26        41.5 0.12                          72.5 297 
 PAM  SZ EP        329 49.99                             150    0.5410 75.8  39 
 PAM  SZ I         329 50.48        68.9 0.28                          75.8  39 
 PAM  SN ES   1    330  5.98                             150   -0.33 7 75.8  39 
 RUS  HZ EP   1    329 51.05                             143   -0.11 7  101 177 
 RUS  HN ES   1    330  9.42                             143    0.07 7  101 177 
 RUS  HZ I         330 11.11         9.5 0.31                           101 177 
 PTB  HZ EP        329 54.02                             131   -0.58 9  150 259 
 PTB  HN ES   1    330 14.82                             131   -0.65 7  150 259 
 PTB  HZ I         330 19.37         7.1 0.09                           150 259 
 OCA  HZ EP   1    329 55.18                             129   -0.57 7  160 352 
 OCA  HN ES   1    330 17.04                             129   -0.48 7  160 352 
 OCA  HZ I         330 22.00        31.7 0.22                           160 352 
 ZAR  HZ EP   1    329 59.95                             121   -0.18 6  206 292 
 ZAR  HN ES   1    330 25.85                             121    0.53 6  206 292 
 ZAR  HZ I         330 31.08        11.6 0.24                           206 292 
 NOR  SZ EP   2    330  3.16                             117   -0.33 4  237 235 
 NOR  SN ES   1    330 31.24                             117   -0.07 6  237 235 
 NOR  SZ I         330 33.02         9.2 0.37                           237 235 
 HEL  HZ EP   1    330  8.91                             114    0.88 6  274 256 
 HEL  HZ I         330 46.22         6.0 0.43                           274 256 
                                                                                
