 2017  223 0736 51.9 L   6.788 -73.187152.5  RSN  4 0.3 0.8LRSN                1
 GAP=232        0.86       7.0     6.5  6.9  0.2234E+02  0.3036E+01  0.4076E+00E
 Epicentro: ZAPATOCA - SANTANDER                                               3
 ACTION:UPD 17-05-24 15:39 OP:jn   STATUS:               ID:20170223073651 L   I
 OLDACT:DUP 17-02-23 18:42 OP:edw  STATUS:               ID:20170223072745d    3
 OLDACT:UP  17-02-23 18:40 OP:edw  STATUS:               ID:20170223072744d    3
 OLDACT:UP  17-02-23 18:37 OP:edw  STATUS:               ID:20170223072744d    3
 OLDACT:DUP 17-02-23 18:35 OP:edw  STATUS:               ID:20170223072744d    3
 OLDACT:REG 17-02-23 13:41 OP:edw  STATUS:               ID:20170223072743     3
 2017-02-23-0728-00M.COL___370                                                 6
 STAT SP IPHASW D HRMM SECON CODA AMPLIT PERI AZIMU VELO AIN AR TRES W  DIS CAZ7
 BAR2 EZ EP        737 11.63                             172   -0.7110 21.7 179 
 BAR2 EZ ES        737 28.57                             172    0.3110 21.7 179 
 BRR  HZ EP        737 13.96                             155    0.3310 67.8 301 
 BRR  HN ES        737 30.45                             155   -0.1110 67.8 301 
 RUS  HZ EP        737 16.51                             145    0.2210 99.7 173 
 RUS  HN ES        737 35.23                             145   -0.0610 99.7 173 
 RUS  HZ I         737 35.88         1.0 0.24            145           99.7 173 
 PTB  HZ EP        737 19.20                             134    0.17 9  143 259 
 PTB  HE ES        737 40.05                             134   -0.13 9  143 259 
                                                                                
