 2016  723 0958 44.3 L   6.771 -73.113140.5  RSN  6 0.4 1.5LRSN                1
 GAP=239        1.03       5.2     6.4  7.3  0.1039E+02  0.1676E+02  0.7500E+01E
 Epicentro: LOS SANTOS - SANTANDER                                             3
 ACTION:UPD 17-03-29 16:54 OP:lp   STATUS:               ID:20160723095844 L   I
 OLDACT:REG 16-07-23 15:42 OP:ar   STATUS:               ID:20160723095702     3
 2016-07-23-0957-01S.COL___322                                                 6
 STAT SP IPHASW D HRMM SECON CODA AMPLIT PERI AZIMU VELO AIN AR TRES W  DIS CAZ7
 BAR2 EZ EP        959  3.26                             171    0.0110 21.2 201 
 BAR2 EZ ES        959 17.64                             171   -0.3910 21.2 201 
 BRR  HZ EP        959  5.31                             150    0.1510 75.9 299 
 BRR  HN ES        959 22.13                             150    0.7010 75.9 299 
 BRR  HZ I         959 23.66         7.0 0.22            148           75.9 299 
 RUS  HZ EP        959  7.39                             144    0.1110 97.2 178 
 RUS  HN ES        959 25.37                             144    0.1610 97.2 178 
 RUS  HZ I         959 26.73         4.1 0.30            145           97.2 178 
 SPBC HZ EP        959 12.00                             128   -0.38 9  163 221 
 SPBC HN ES        959 33.79                             128   -0.49 9  163 221 
 SPBC HZ I         959 36.25         5.2 0.16            128            163 221 
 ZAR  HZ EP   2    959 16.19                             121   -0.69 4  209 293 
 ZAR  HN ES        959 41.64                             121   -0.66 8  209 293 
 ZAR  HZ I         959 47.38         4.2 0.34            121            209 293 
 GUY2CHZ EP        959 28.33                             111    0.54 7  302 236 
 GUY2CHN ES       10 0  2.32                             111    0.60 7  302 236 
 GUY2CHZ I        10 0  9.05         1.5 0.25                           302 236 
                                                                                
