 2011 1223 0048 54.8 L   6.760 -73.073143.5  RSN  8 0.2 1.9LRSN                1
 GAP=148        0.45       2.3     3.7  3.1  0.1939E+00  0.2495E+00  0.6559E+00E
 Epicentro: LOS SANTOS - SANTANDER                                             3
 ACTION:UPD 12-07-13 16:17 OP:ep   STATUS:               ID:20111223004854 L   I
 2011-12-23-0040-00M.COL___188                                                 6
 STAT SP IPHASW D HRMM SECON CODA AMPLIT PERI AZIMU VELO AIN AR TRES W  DIS CAZ7
 BAR2 SZ EP        049 14.07                             171   -0.0610 22.1 213 
 BAR2 SZ ES        049 29.09                             171   -0.1210 22.1 213 
 BAR2 SZ I         049 30.18        18.7 0.24                          22.1 213 
 GIR2 SZ EP        049 14.32                             164   -0.0710 37.7 339 
 PAM  SZ EP   1    049 16.66                             151   -0.04 7 76.2  33 
 PAM  SN ES   1    049 33.60                             151   -0.19 7 76.2  33 
 BRR  HZ EP        049 16.38                             149    0.1310 80.4 299 
 BRR  HN ES        049 33.08                             149    0.0910 80.4 299 
 BRR  HZ I         049 38.24        15.4 0.15                          80.4 299 
 RUS  HZ EP        049 18.25                             145    0.2610 95.9 181 
 RUS  HN ES   1    049 36.23                             145    0.14 7 95.9 181 
 RUS  HZ I         049 37.96        14.5 0.38                          95.9 181 
 OCA  SZ EP   1    049 23.75                             128    0.29 7  166 351 
 OCA  SZ ES   2    049 45.58                             128   -0.23 5  166 351 
 NOR  SZ EP   1    049 30.39                             117   -0.45 6  239 236 
 CHI  HZ EP   1    049 31.89                             117   -0.26 6  247 197 
                                                                                
