 2013  423 0823 32.4 L   6.810 -73.182143.0  RSN  8 0.5 1.8LRSN                1
 GAP=131        1.14       5.3     7.0 10.4 -0.2528E+01  0.9166E+01 -0.9692E+01E
 Epicentro: LOS SANTOS - SANTANDER                                             3
 ACTION:UPD 13-05-22 14:40 OP:EP   STATUS:               ID:20130423082332 L   I
 2013-04-23-0820-00M.COL___249                                                 6
 STAT SP IPHASW D HRMM SECON CODA AMPLIT PERI AZIMU VELO AIN AR TRES W  DIS CAZ7
 BAR2 SZ EP        823 51.93                             170    0.2010 24.1 180 
 BAR2 SZ ES        824  6.80                             170    0.0110 24.1 180 
 BAR2 SZ I         824  8.61         8.3 0.28            172           24.1 180 
 GIR2 SZ EP   1    823 51.96                             168    0.24 7 29.7 358 
 GIR2 SZ I         824  8.88         6.3 0.34            165           29.7 358 
 BRR  HZ EP        823 53.76                             153    0.7310 67.1 299 
 BRR  HN ES   2    824  9.76                             153    0.64 5 67.1 299 
 BRR  HZ I         824 14.34         7.4 0.48            150           67.1 299 
 PAM  SZ EP   1    823 54.89                             150    0.44 7 79.2  42 
 PAM  SN ES   2    824 11.54                             150   -0.09 5 79.2  42 
 PAM  SN I         824 12.79        23.8 0.46            148           79.2  42 
 RUS  HZ EP   1    823 55.12                             143   -0.88 7  102 174 
 RUS  HN ES   2    824 14.46                             143    0.06 5  102 174 
 RUS  HN I         824 15.36         9.5 0.26            143            102 174 
 PTB  HZ EP   1    823 58.46                             132   -0.36 7  144 258 
 PTB  HN ES        824 19.10                             132   -0.31 9  144 258 
 PTB  HZ I         824 25.39         4.4 0.30            130            144 258 
 OCA  HN ES        824 21.23                             129   -0.93 9  159 355 
 OCA  HN I         824 27.87        12.1 0.22            127            159 355 
 SML  HN ES   1    824 37.50                             117    0.69 6  241 336 
 SML  HN I         824 39.26         8.2 0.10            115            241 336 
 URE  HN ES   4    824 44.89                             113    0.45 0  280 292 
                                                                                
