 2017  123 0830 49.5 L   6.760 -73.172149.5  RSN  4 0.3 0.9LRSN                1
 GAP=231        0.87       7.0     6.6  7.0  0.2268E+02  0.3879E+01  0.6991E+00E
 Epicentro: LOS SANTOS - SANTANDER                                             3
 ACTION:UPD 17-05-22 16:02 OP:jn   STATUS:               ID:20170123083049 L   I
 OLDACT:REG 17-01-23 12:57 OP:lv   STATUS:               ID:20170123082739     3
 2017-01-23-0828-00M.COL___331                                                 6
 STAT SP IPHASW D HRMM SECON CODA AMPLIT PERI AZIMU VELO AIN AR TRES W  DIS CAZ7
 BAR2 EZ EP        831  9.05                             173   -0.4410 18.6 183 
 BAR2 EZ ES        831 24.76                             173   -0.3310 18.6 183 
 BAR2 EZ I         831 25.66         2.7 0.40            164           18.6 183 
 BRR  HZ EP        831 11.01                             153   -0.0210 70.9 303 
 BRR  HE ES        831 28.30                             153    0.4710 70.9 303 
 RUS  HZ EP        831 13.44                             146    0.1110 96.5 174 
 RUS  HE ES        831 32.23                             146    0.3110 96.5 174 
 RUS  HZ I         831 33.47         0.7 0.32            142           96.5 174 
 PTB  HZ EP        831 16.72                             134    0.28 9  144 260 
 PTB  HN ES        831 37.07                             134   -0.39 9  144 260 
 PTB  HZ I         831 44.43         1.0 0.39            129            144 260 
                                                                                
