 2013  123 0259 54.2 L   7.625 -73.272126.2  RSN  5 0.4 1.7LRSN                1
 GAP=128        1.16       6.0     6.5 10.6 -0.7162E+01  0.2080E+02  0.1232E+02E
 Epicentro: EL PLAYON - SANTANDER                                              3
 ACTION:UPD 13-02-15 09:16 OP:ep   STATUS:               ID:20130123025954 L   I
 2013-01-23-0258-40M.COL___183                                                 6
 STAT SP IPHASW D HRMM SECON CODA AMPLIT PERI AZIMU VELO AIN AR TRES W  DIS CAZ7
 OCA  HN ES        3 0 27.80                             150   -0.4010 68.0 356 
 OCA  HN I         3 0 30.89        21.6 0.28            150           68.0 356 
 PAM  SZ EP        3 0 14.19                             149    0.2510 70.6 117 
 PAM  SN ES        3 0 29.87                             149    0.5410 70.6 117 
 PAM  SN I         3 0 30.39        11.2 0.22            152           70.6 117 
 BRR  HZ EP        3 0 13.48                             147   -0.0510 75.1 220 
 BRR  HN ES        3 0 28.94                             147    0.3410 75.1 220 
 BRR  HN I         3 0 29.29        10.5 0.18            149           75.1 220 
 BAR2 SZ ES        3 0 33.69                             135   -0.9210  115 175 
 BAR2 SZ I         3 0 35.43         6.4 0.40            137            115 175 
 PTB  HZ EP        3 0 22.55                             122   -0.11 9  178 228 
 PTB  HN ES        3 0 45.20                             122    0.35 9  178 228 
 PTB  HN I         3 0 46.16         3.8 0.28            123            178 228 
                                                                                
