 2012  723 0715 31.7 L   6.823 -73.146142.6  RSN 11 0.5 2.2LRSN                1
 GAP=113        1.37       6.9     6.4 10.0  0.1243E+02  0.1274E+02  0.1133E+02E
 Epicentro: LOS SANTOS - SANTANDER                                             3
 ACTION:UPD 12-08-14 11:44 OP:ep   STATUS:               ID:20120723071531 L   I
 2012-07-23-0710-00M.COL___215                                                 6
 STAT SP IPHASW D HRMM SECON CODA AMPLIT PERI AZIMU VELO AIN AR TRES W  DIS CAZ7
 BAR2 SZ IP        715 51.02                             169     0.010   26 189 
 BAR2 SZ ES   1    716  5.27                             169    -0.8 7   26 189 
 BAR2 SZ I         716  6.75        48.1 0.32            159             26 189 
 BRR  HZ EP        715 52.77                             152     0.310   70 297 
 BRR  HN ES   1    716  9.64                             152     1.0 7   70 297 
 BRR  HZ I         716 10.21        72.0 0.12            126             70 297 
 RUS  HZ EP        715 55.07                             142    -0.310  103 176 
 RUS  HZ I         715 56.02        15.3 0.10            135            103 176 
 PTB  HZ EP        715 57.56                             131    -0.9 9  148 258 
 PTB  HZ I         716 24.20        14.4 0.24            112            148 258 
 TAM  HZ IP     C  715 59.48                             130     0.3 9  156 106 
 TAM  HN ES   1    716 20.77                             130     0.1 7  156 106 
 OCA  HZ EP        715 58.99                             129    -0.5 9  158 353 
 OCA  HZ I         716 25.71        45.1 0.30            110            158 353 
 YOP  SZ EP        716  1.83                             125     0.1 9  181 154 
 YOP  SN ES   2    716 26.23                             125     1.0 4  181 154 
 ZAR  HZ EP        716  3.91                             122     0.1 9  203 291 
 NOR  SZ EP        716  7.74                             118     0.3 8  236 234 
 CHI  HZ EP        716  9.50                             116     0.0 8  251 195 
 CHI  HN ES   1    716 38.50                             116    -0.5 6  251 195 
 CHI  HZ I         716 42.57         6.5 0.46            106            251 195 
 HEL  HZ EP        716 12.61                             114     0.8 8  273 255 
 HEL  HZ I         716 49.21         8.8 0.42            102            273 255 
