 2010  623 0133 36.5 L   6.795 -73.034140.9  RSN  9 0.4 1.7LRSN                1
 GAP=169        0.78       4.6     7.5  7.3 -0.5926E+01 -0.6967E+01 -0.5148E+01E
 Epicentro: CEPITA - SANTANDER                                                 3
 ACTION:UP  10-08-24 10:12 OP:vdl  STATUS:               ID:20100623013336 L   I
 2010-06-23-0130-47S.COL___118                                                 6
 STAT SP IPHASW D HRMM SECON CODA AMPLIT PERI AZIMU VELO SNR AR TRES W  DIS CAZ7
 BAR2 SZ EP        133 55.88                             168     0.210   28 216 
 BAR2 SZ ES   1    134 10.43                             168    -0.2 7   28 216 
 BRR  HZ IP     C  133 57.70                             148    -0.110   83 295 
 BRR  HZ I         133 57.98        18.4 0.12                            83 295 
 BRR  HN ES   1    134 14.98                             148     0.5 7   83 295 
 RUS  HZ EP   1    133 59.45                             143    -0.3 7  100 183 
 RUS  HN ES   2    134 17.91                             143     0.1 5  100 183 
 RUS  HZ I         134 19.73         7.5 0.33                           100 183 
 BRI  SZ EP        133 59.52                             141    -0.210  105  14 
 GUE  SZ EP   1    134  1.17                             139     0.5 7  115   6 
 GRA  SZ EP   2    134  1.77                             137     0.7 5  123  12 
 GRA  SZ ES   2    134 19.52                             137    -0.8 5  123  12 
 OCA  SZ EP   2    134  4.83                             128     0.1 5  163 349 
 OCA  SZ ES   2    134 25.78                             128    -0.9 5  163 349 
 OCA  SZ I         134 30.27         4.9 0.27                           163 349 
 HEL  HZ EP   1    134 17.63                             113    -0.2 6  284 257 
 HEL  HZ I         134 54.66         3.0 0.54                           284 257 
 GUY  HN ES   3    134 55.12                             110    -0.7 2  311 236 
                                                                                
