 2014 1023 0128 48.4 L   6.713 -73.234154.2  RSN  6 0.3 1.3LRSN                1
 GAP=207        0.70       5.3     5.1  7.3  0.7343E+01  0.3538E+01 -0.2856E+01E
 Epicentro: VILLANUEVA - SANTANDER                                             3
 ACTION:UPD 14-11-29 23:55 OP:nd   STATUS:               ID:20141023012848 L   I
 OLDACT:DUP 14-10-26 07:08 OP:fm   STATUS:               ID:20141023011747d    3
 2014-10-23-0117-43M.COL___274                                                 6
 STAT SP IPHASW D HRMM SECON CODA AMPLIT PERI AZIMU VELO AIN AR TRES W  DIS CAZ7
 BAR2 SZ EP   1    129  8.93                             174    0.05 7 14.5 157 
 BAR2 SZ ES   1    129 24.68                             174   -0.20 7 14.5 157 
 BAR2 SZ I         129 26.59         5.2 0.28            174           14.5 157 
 BRR  HZ EP   1    129 10.67                             155    0.37 7 68.5 310 
 BRR  HN ES   1    129 27.67                             155    0.27 7 68.5 310 
 BRR  HZ I         129 30.63         4.2 0.38            155           68.5 310 
 RUS  HZ EP   1    129 12.00                             148   -0.40 7 92.2 170 
 RUS  HN ES        129 31.17                             148    0.0310 92.2 170 
 RUS  HZ I         129 32.67         2.8 0.28            150           92.2 170 
 PTB  HZ EP   1    129 15.09                             136    0.01 7  137 262 
 PTB  HN ES        129 35.48                             136   -0.42 9  137 262 
 PTB  HZ I         129 39.12         2.3 0.16            137            137 262 
 SPBC HN ES   1    129 38.70                             134    0.62 7  150 218 
 SPBC HZ I         129 41.54         3.3 0.12            135            150 218 
 GUY2CHN ES   4    130  7.86                             115    3.82 0  288 235 
 GUY2CHZ I         130 14.05         1.0 0.54                           288 235 
                                                                                
