 2012  223 0827 28.2 L   6.546 -73.607101.0  RSN  6 0.4 1.6LRSN                1
 GAP= 86        0.72       3.7     3.9  7.8  0.1141E+01  0.9475E+01  0.1093E+02E
 ACTION:UP  12-03-07 16:33 OP:epov STATUS:               ID:20120223082728 L   I
 2012-02-23-0820-00M.COL___191                                                 6
 STAT SP IPHASW D HRMM SECON CODA AMPLIT PERI AZIMU VELO AIN AR TRES W  DIS CAZ7
 BAR2 SZ EP        827 43.52                             153    0.0010 47.2  84 
 BAR2 SZ ES   1    827 55.22                             153   -0.24 7 47.2  84 
 BAR2 SZ I         827 57.67        30.0 0.26                          47.2  84 
 BRR  HZ EP   1    827 44.36                             145    0.18 7 63.2 349 
 BRR  HZ I         827 44.51        10.0 0.09                          63.2 349 
 GIR2 SZ EP   1    827 44.98                             140   -0.24 7 74.6  38 
 GIR2 SZ ES   1    827 59.14                             140    0.66 7 74.6  38 
 RUS  HZ EP   1    827 46.86                             134   -0.33 7 92.6 141 
 RUS  HE ES   1    828  1.71                             134   -0.28 7 92.6 141 
 RUS  HZ I         828  4.42         4.8 0.32                          92.6 141 
 PTB  HZ EP   1    827 46.41                             133   -0.26 7 94.0 270 
 PTB  HN ES   1    828  0.97                             133   -0.08 7 94.0 270 
 CHI  HZ EP   1    827 59.68                             110    0.00 6  212 184 
 CHI  HN ES   1    828 25.03                             110    0.82 6  212 184 
                                                                                
