 2015  123 0603 29.3 L   6.822 -73.107150.2  RSN 10 0.5 1.9LRSN                1
 GAP=140        1.20       4.0     5.7  7.4 -0.7024E+00  0.1305E+02 -0.4932E+01E
 Epicentro: LOS SANTOS - SANTANDER                                             3
 ACTION:UPD 15-03-02 15:41 OP:nd   STATUS:               ID:20150123060329 L   I
 OLDACT:DUP 15-01-23 16:56 OP:carl STATUS:               ID:20150123055744d    3
 2015-01-23-0557-43M.COL___262                                                 6
 STAT SP IPHASW D HRMM SECON CODA AMPLIT PERI AZIMU VELO AIN AR TRES W  DIS CAZ7
 BAR2 EZ EP        6 3 49.54                             169    0.0410 26.7 198 
 BAR2 EZ ES        6 4  5.09                             169   -0.2010 26.7 198 
 BAR2 EZ I         6 4  5.61        15.9 0.46            170           26.7 198 
 PAM  SZ EP        6 3 52.39                             153    0.6910 72.8  38 
 PAM  SN ES        6 4  9.56                             153    0.3710 72.8  38 
 PAM  SZ I         6 4 11.46        14.8 0.50            155           72.8  38 
 BRR  HZ IP     D  6 3 51.38                             152    0.3310 73.8 295 
 BRR  HN ES        6 4  8.54                             152    0.5110 73.8 295 
 BRR  HZ I         6 4 11.57        10.7 0.30            151           73.8 295 
 RUS  HZ EP        6 3 53.59                             144   -0.0310  103 178 
 RUS  HN ES        6 4 12.04                             144   -0.5710  103 178 
 RUS  HZ I         6 4 13.21        10.3 0.34            147            103 178 
 PTB  HZ EP        6 3 56.58                             132   -0.44 9  152 258 
 PTB  HN ES   4    6 4 17.06                             132   -1.60 0  152 258 
 PTB  HZ I         6 4 19.63         7.2 0.30            132            152 258 
 OCA  HZ EP        6 3 57.04                             131   -0.71 9  158 352 
 OCA  HN ES        6 4 19.36                             131   -0.61 9  158 352 
 SPBC HZ EP   4    6 3 58.49                             129   -0.05 0  168 220 
 SPBC HN ES   4    6 4 19.69                             129   -1.68 0  168 220 
 SPBC HZ I         6 4 23.10        14.4 0.18            131            168 220 
 ZAR  HZ EP        6 4  3.30                             123    0.99 8  207 291 
 ZAR  HN ES        6 4 28.09                             123   -0.00 8  207 291 
 ZAR  HZ I         6 4 33.69         6.8 0.34            123            207 291 
 NOR  HN ES        6 4 34.24                             119   -0.01 8  240 235 
 NOR  HZ I         6 4 34.96         5.5 0.18            120            240 235 
 SML  HZ EP        6 4  6.09                             118   -0.01 8  243 334 
 SML  HE ES        6 4 34.29                             118   -0.54 8  243 334 
 SML  HZ I         6 4 39.48         9.3 0.10            119            243 334 
                                                                                
