 2017  823 0831 48.6 L   6.871 -72.989143.6  RSN  5 0.5 1.3LRSN                1
 GAP=257        0.99       6.9     8.2  7.7  0.2152E+02  0.1552E+02  0.9548E+01E
 Epicentro: CEPITA - SANTANDER                                                 3
 ACTION:UPD 17-09-04 20:23 OP:rebc STATUS:               ID:20170823083148 L   I
 OLDACT:REG 17-08-23 13:28 OP:osc  STATUS:               ID:20170823082739     3
 2017-08-23-0828-00M.COL___396                                                 6
 STAT SP IPHASW D HRMM SECON CODA AMPLIT PERI AZIMU VELO AIN AR TRES W  DIS CAZ7
 BAR2 EZ EP        832  8.59                             165    0.2410 37.5 215 
 BAR2 EZ ES        832 23.65                             165   -0.1010 37.5 215 
 BAR2 EZ I         832 24.51         6.0 0.36            164           37.5 215 
 BRR  HZ EP        832 10.25                             148   -0.0510 84.1 288 
 BRR  HE ES        832 27.53                             148    0.3010 84.1 288 
 RUS  HZ EP        832 13.01                             141    0.2710  109 186 
 RUS  HN ES        832 31.19                             141   -0.3910  109 186 
 RUS  HZ I         832 33.15         1.7 0.38            141            109 186 
 ZAR  HZ EP   4    832 23.43                             120    1.11 0  218 289 
 ZAR  HE ES   2    832 47.03                             120   -1.60 4  218 289 
 GUY2CHZ EP        832 33.58                             110   -0.65 7  320 235 
 GUY2CHE ES        833 10.49                             110    0.66 7  320 235 
 GUY2CHZ I         833 16.83         1.1 0.44                           320 235 
                                                                                
