 2012  423 0310 26.2 L   6.792 -73.157149.6  RSN 14 0.6 2.9LRSN                1
 GAP=125        1.29       4.2     5.5  7.6 -0.4428E+01  0.3668E+01  0.9577E+00E
 Epicentro: LOS SANTOS - SANTANDER                                             3
 ACTION:UPD 12-07-05 11:55 OP:tino STATUS:               ID:20120423031026 L   I
 2012-04-23-0310-00M.COL___186                                                 6
 STAT SP IPHASW D HRMM SECON CODA AMPLIT PERI AZIMU VELO AIN AR TRES W  DIS CAZ7
 BAR2 SZ EP        310 46.49                             171     0.210   22 187 
 BAR2 SZ ES   1    311  1.32                             171    -0.6 7   22 187 
 BAR2 SZ I         311  2.75       307.6 0.25                            22 187 
 BRR  HZ IP     C  310 48.30                             153     0.510   71 300 
 BRR  HN ES   1    311  5.45                             153     0.9 7   71 300 
 BRR  HZ I         311  6.59       179.2 0.10                            71 300 
 PAM  SZ EP        310 49.29                             151     0.310   79  40 
 PAM  SN ES   1    311  6.25                             151    -0.4 7   79  40 
 RUS  HZ IP     D  310 50.31                             145     0.010  100 175 
 RUS  HN ES   1    311  9.06                             145     0.0 7  100 175 
 RUS  HZ I         311 10.90       142.1 0.37                           100 175 
 PTB  HZ EP        310 53.12                             133    -0.3 9  146 259 
 PTB  HN ES   1    311 13.82                             133    -0.8 7  146 259 
 PTB  HZ I         311 16.54        48.3 0.24                           146 259 
 OCA  SZ EP        310 55.06                             130     0.1 9  161 354 
 OCA  SZ ES   1    311 17.56                             130     0.3 7  161 354 
 ZAR  HZ EP   1    310 58.95                             123     0.1 6  203 293 
 ZAR  HN ES   1    311 24.12                             123    -0.2 6  203 293 
 ZAR  HZ I         311 29.99        75.7 0.19                           203 293 
 NOR  SZ EP   1    311  2.48                             119     0.5 6  233 234 
 NOR  SN ES   1    311 29.05                             119    -0.9 6  233 234 
 CHI  HZ EP   1    311  4.51                             118     0.5 6  247 195 
 CHI  HN ES   1    311 33.60                             118     0.1 6  247 195 
 CHI  HZ I         311 43.44        47.5 0.55                           247 195 
 HEL  HZ EP   1    311  8.19                             116     1.7 6  271 256 
 HEL  HN ES   1    311 37.04                             116    -0.8 6  271 256 
 HEL  HZ I         311 45.61        33.8 0.23                           271 256 
 VIL  SZ EP   1    311  9.92                             113     0.2 5  302 191 
 VIL  SN ES   1    311 43.13                             113    -0.5 5  302 191 
 VIL  SZ I         311 54.10        42.0 0.35                           302 191 
 COD  HZ EP   1    311 13.85                             109    -1.0 5  349 355 
 COD  HN ES   1    311 51.83                             109    -0.9 5  349 355 
 COD  HZ I         311 56.78        29.5 0.41                           349 355 
 SDV  BZ EP        311 15.50                             109    -1.1 6  362  50 
 PRA  HZ EP   1    311 19.71                             107     0.0 4  391 209 
                                                                                
