 2011  823 0132  5.5 L   6.843 -73.317124.8  RSN  5 0.2 1.6LRSN                1
 GAP=152        0.36       1.9     4.1  4.4  0.1800E+01 -0.1860E+01 -0.3470E+00E
 Epicentro: ZAPATOCA - SANTANDER                                               3
 ACTION:UPD 12-07-13 15:53 OP:ep   STATUS:               ID:20110823013205 L   I
 2011-08-23-0130-39S.COL___158                                                 6
 STAT SP IPHASW D HRMM SECON CODA AMPLIT PERI AZIMU VELO AIN AR TRES W  DIS CAZ7
 BAR2 SZ EP   1    132 22.87                             165    0.05 7 31.5 152 
 BAR2 SZ I         132 23.23        22.9 0.12                          31.5 152 
 BAR2 SZ ES   2    132 36.08                             165   -0.26 5 31.5 152 
 BRR  HZ EP   1    132 23.45                             156    0.12 7 52.5 304 
 BRR  HZ I         132 25.94        13.1 0.30                          52.5 304 
 BRR  HE ES   1    132 37.42                             156    0.17 7 52.5 304 
 RUS  HZ EP   1    132 27.98                             137    0.11 7  108 166 
 RUS  HE ES   1    132 45.27                             137   -0.05 7  108 166 
 RUS  HZ I         132 47.50         1.7 0.19                           108 166 
 OCA  SZ EP   2    132 31.70                             125    0.04 5  154 360 
 OCA  SZ ES   1    132 51.87                             125   -0.21 7  154 360 
 OCA  SZ I         132 52.71         6.3 0.33                           154 360 
 NOR  SN ES   2    133  4.29                             115   -0.38 4  223 231 
                                                                                
