 2017 1023 0142 15.7 L   6.674 -74.096  0.0  RSN  4 0.1 1.1LRSN                1
 GAP=122        0.43       1.1     0.9  2.8  0.2376E-01  0.4439E-01 -0.1981E+00E
 Epicentro: PUERTO PARRA - SANTANDER                                           3
 ACTION:UPD 17-11-07 19:35 OP:rebc STATUS:               ID:20171023014215 L   I
 OLDACT:REG 17-10-23 12:18 OP:dhb  STATUS:               ID:20171023013739     3
 2017-10-23-0138-00M.COL___410                                                 6
 STAT SP IPHASW D HRMM SECON CODA AMPLIT PERI AZIMU VELO AIN AR TRES W  DIS CAZ7
 PTB  HZ IP     D  142 23.26                              47   -0.0310 42.5 250 
 PTB  HE ES        142 29.06                              47   -0.1710 42.5 250 
 PTB  HZ I         142 29.25         9.2 0.16             47           42.5 250 
 BRR  HZ EP        142 26.47                              47   -0.0610 64.0  41 
 BRR  HE ES        142 34.84                              47   -0.1710 64.0  41 
 BRR  HZ I         142 35.41         7.5 0.10             47           64.0  41 
 ZAR  HZ EP        142 35.65                              47    0.0810  124 317 
 ZAR  HE ES        142 51.31                              47    0.2110  124 317 
 ZAR  HZ I         142 52.93         3.6 0.10             47            124 317 
 RUS  HZ EP        142 38.76                              47   -0.01 9  141 128 
 RUS  HN ES        142 56.98                              47    0.18 9  141 128 
 RUS  HZ I         142 58.26         6.9 0.20             47            141 128 
                                                                                
