 2017  323 0800  4.4 L   5.766 -74.044 98.7  RSN  7 0.4 1.4LRSN                1
 GAP=119        1.11       3.0     5.4  6.9 -0.4597E+01  0.9603E+00  0.2921E+01E
 Epicentro: FLORIAN - SANTANDER                                                3
 ACTION:UPD 17-05-25 18:44 OP:jn   STATUS:               ID:20170323080004 L   I
 OLDACT:REG 17-03-23 13:41 OP:lv   STATUS:               ID:20170323075746     3
 2017-03-23-0758-00M.COL___382                                                 6
 STAT SP IPHASW D HRMM SECON CODA AMPLIT PERI AZIMU VELO AIN AR TRES W  DIS CAZ7
 SPBC HZ EP        8 0 17.83                             172   -0.1010 13.0 194 
 SPBC HN ES        8 0 28.93                             172    0.4310 13.0 194 
 SPBC HZ I         8 0 30.50        18.0 0.26            169           13.0 194 
 PTB  HZ EP        8 0 22.13                             132   -0.7810 96.9 332 
 PTB  HE ES        8 0 36.95                             132   -0.4010 96.9 332 
 PTB  HZ I         8 0 38.55         4.2 0.22            134           96.9 332 
 CHI  HZ EP        8 0 26.39                             124   -0.3110  130 165 
 CHI  HN ES        8 0 43.66                             124   -0.4510  130 165 
 CHI  HZ I         8 0 48.48         9.4 0.04            122            130 165 
 BAR2 EZ EP        8 0 26.46                             123   -0.1910  132  46 
 BAR2 EZ ES        8 0 44.18                             123    0.1810  132  46 
 BAR2 EZ I         8 0 45.79         7.3 0.21            124            132  46 
 BRR  HZ EP        8 0 29.17                             119    0.64 9  153  14 
 BRR  HN ES        8 0 47.76                             119    0.40 9  153  14 
 ORTC HZ EP        8 0 39.35                             108    0.28 8  245 213 
 ORTC HN ES        8 1  6.86                             108    0.75 8  245 213 
 ORTC HZ I         8 1 12.16         1.1 0.25            106            245 213 
 PRA  HZ EP        8 0 39.17                             108    0.03 8  245 202 
 PRA  HN ES   4    8 1  5.06                             108   -1.18 0  245 202 
 PRA  HZ I         8 1 10.80         1.2 0.23            106            245 202 
                                                                                
