 2013  723 0208 45.1 L   6.751 -73.159146.7  RSN  6 0.4 1.8LRSN                1
 GAP=137        0.86       6.2     5.0  6.9 -0.8286E+01  0.4756E+01 -0.1409E+01E
 Epicentro: LOS SANTOS - SANTANDER                                             3
 ACTION:UPD 13-08-12 10:39 OP:ep   STATUS:               ID:20130723020002dL   I
 OLDACT:UP  13-07-23 10:03 OP:cam  STATUS:               ID:20130723020002dL   3
 OLDACT:DUP 13-07-23 10:00 OP:cam  STATUS:               ID:20130723020002dL   3
 OLDACT:UP  13-07-23 09:56 OP:cam  STATUS:               ID:20130723020000 L   3
 OLDACT:UPD 13-07-23 09:12 OP:stll STATUS:               ID:20130723020000 L   3
 2013-07-23-0200-00M.COL___263                                                 6
 STAT SP IPHASW D HRMM SECON CODA AMPLIT PERI AZIMU VELO AIN AR TRES W  DIS CAZ7
 BAR2 SZ ES   1    2 9 19.68                             173   -0.35 7 17.8 188 
 GIR2 SZ EP   1    2 9  5.15                             165    0.15 7 36.4 354 
 GIR2 SZ ES   1    2 9 20.56                             165    0.02 7 36.4 354 
 BRR  HZ EP        2 9  6.65                             152    0.2510 72.6 303 
 BRR  HN ES        2 9 23.60                             152    0.5610 72.6 303 
 BRR  HZ I         2 9 27.88         7.4 0.12            150           72.6 303 
 PAM  SZ EP     C  2 9  7.78                             149    0.0810 82.5  38 
 PAM  SZ I         2 9  7.95        11.6 0.18            150           82.5  38 
 PAM  SN ES   1    2 9 24.72                             149   -0.62 7 82.5  38 
 RUS  HN ES   1    2 9 27.18                             146    0.33 7 95.3 175 
 PTB  HZ EP        2 9 11.67                             133   -0.22 9  145 261 
 PTB  HN ES        2 9 32.32                             133   -0.49 9  145 261 
 PTB  HZ I         2 9 35.25        13.8 0.90            133            145 261 
                                                                                
