 2017  723 0640 30.3 L   6.570 -72.827  0.0  RSN  4 0.2 1.1LRSN                1
 GAP=259        0.54       3.3     7.3  6.5  0.2100E+02  0.4244E+02  0.1690E+02E
 Epicentro: MOLAGAVITA - SANTANDER                                             3
 ACTION:UPD 17-08-30 15:35 OP:rebc STATUS:               ID:20170723064030 L   I
 OLDACT:REG 17-07-23 14:28 OP:lv   STATUS:               ID:20170723063735     3
 2017-07-23-0638-00M.COL___374                                                 6
 STAT SP IPHASW D HRMM SECON CODA AMPLIT PERI AZIMU VELO AIN AR TRES W  DIS CAZ7
 BAR2 EZ EP        640 37.21                              47   -0.4210 39.3 274 
 BAR2 EZ ES        640 43.39                              47    0.0110 39.3 274 
 BAR2 EZ I         640 44.24        18.0 0.23             47           39.3 274 
 RUS  HZ EP        640 44.10                              47    0.0310 80.1 201 
 RUS  HN ES        640 54.93                              47    0.1010 80.1 201 
 RUS  HZ I         640 57.03         3.1 0.10             47           80.1 201 
 BRR  HZ EP        640 48.88                              47    0.1210  114 301 
 BRR  HN ES        641  3.37                              47    0.1810  114 301 
 PTB  HZ EP   9    640 59.62                              37    0.89 0  180 269 
 PTB  HN ES        641 21.77                                   -0.05 9  180 269 
 PTB  HZ I         641 23.90         2.9 0.31             37            180 269 
                                                                                
