 2016  423 1022 25.9 L   6.758 -73.160148.0  RSN  6 0.3 1.8LRSN                1
 GAP=137        0.88       4.7     4.2  6.8 -0.6592E-01  0.1015E+02 -0.5211E+01E
 Epicentro: LOS SANTOS - SANTANDER                                             3
 ACTION:UPD 16-05-05 14:23 OP:rebc STATUS:               ID:20160423102225 L   I
 OLDACT:REG 16-04-23 20:54 OP:ar   STATUS:               ID:20160423101747     3
 2016-04-23-1017-47M.COL___294                                                 6
 STAT SP IPHASW D HRMM SECON CODA AMPLIT PERI AZIMU VELO AIN AR TRES W  DIS CAZ7
 BAR2 EZ EP       1022 45.87                             173    0.1810 18.5 188 
 BAR2 EZ ES       1023  1.22                             173    0.0710 18.5 188 
 BAR2 EZ I        1023  3.65        14.7 0.44            171           18.5 188 
 PAM  EZ EP       1022 48.72                             150    0.1110 82.0  38 
 PAM  EN ES       1023  6.05                             150   -0.3010 82.0  38 
 PAM  EZ I        1023  7.70         7.8 0.34            155           82.0  38 
 RUS  HZ EP       1022 49.50                             146   -0.0310 96.0 175 
 RUS  HN ES       1023  8.24                             146    0.2610 96.0 175 
 RUS  HZ I        1023  9.69         7.8 0.32            149           96.0 175 
 PTB  HZ EP       1022 52.07                             133   -0.74 9  145 261 
 PTB  HN ES       1023 13.51                             133   -0.31 9  145 261 
 PTB  HZ I        1023 21.18         7.0 0.18            133            145 261 
 ZAR  HZ EP       1022 58.89                             123    0.38 9  204 294 
 ZAR  HN ES       1023 24.45                             123    0.50 9  204 294 
 ZAR  HZ I        1023 30.35         9.4 0.38            124            204 294 
 GUY2CHZ EP   4   1023 12.02                             113    2.88 0  297 235 
 GUY2CHN ES   4   1023 47.07                             113    4.18 0  297 235 
 GUY2CHZ I        1023 53.70         4.3 0.68                           297 235 
                                                                                
