 2010  923 1700 56.6 L   6.785 -73.109143.3  RSN 11 0.3 2.9LRSN                1
 GAP=168        0.85       3.0     5.1  5.2 -0.2946E+01  0.4008E+01  0.1577E+01E
 Epicentro: LOS SANTOS - SANTANDER                                             3
 ACTION:UP  11-02-18 11:05 OP:tino STATUS:               ID:20100923170056 L   I
 2010-09-23-1659-30S.COL___122                                                 6
 STAT SP IPHASW D HRMM SECON CODA AMPLIT PERI AZIMU VELO SNR AR TRES W  DIS CAZ7
 BAR2 SZ EP       17 1 15.97                             170     0.110   23 201 
 BAR2 SZ ES   1   17 1 30.45                             170    -0.5 7   23 201 
 BAR2 SZ I        17 1 33.47       245.1 0.17                            23 201 
 BRR  HZ IP     D 17 1 17.95                             151     0.310   76 298 
 BRR  HE ES       17 1 34.74                             151     0.610   76 298 
 BRR  HZ I        17 1 39.19       199.7 0.12                            76 298 
 RUS  HZ EP   1   17 1 19.90                             144     0.0 7   99 178 
 RUS  HN ES       17 1 38.03                             144    -0.110   99 178 
 RUS  HZ I        17 1 39.81        78.0 0.37                            99 178 
 GUE  SZ EP       17 1 21.05                             139    -0.110  117  10 
 OCA  SZ EP       17 1 24.64                             129    -0.2 9  162 352 
 OCA  SZ ES   1   17 1 46.62                             129    -0.4 7  162 352 
 OCA  SZ I        17 1 50.95       135.7 0.59                           162 352 
 NOR  SZ EP       17 1 32.02                             118    -0.4 8  237 235 
 NOR  SN ES   1   17 1 59.86                             118    -0.5 6  237 235 
 CHI  HZ EP       17 1 34.06                             117     0.0 8  248 196 
 CHI  HE ES   1   17 2  3.79                             117     0.5 6  248 196 
 CHI  HZ I        17 2  9.42        37.8 0.25                           248 196 
 ROSC BN ES   2   17 2  3.97                             116    -0.3 4  253 212 
 ROSC BZ I        17 2 12.19        49.5 0.44                           253 212 
 CVER SZ EP       17 1 37.28                             114     0.5 8  272 203 
 CVER SZ I        17 1 39.04        72.5 0.48                           272 203 
 HEL  HZ EP   2   17 1 37.45                             114     0.4 4  276 256 
 HEL  HE ES   1   17 2  8.24                             114    -0.4 6  276 256 
 HEL  HZ I        17 2 14.39        38.2 0.63                           276 256 
 RREF HZ EP       17 1 43.10                             110     0.3 7  324 230 
 RREF HN ES   1   17 2 18.53                             110    -0.4 5  324 230 
 RREF HZ I        17 2 28.54        43.2 0.22                           324 230 
                                                                                
