 2015  723 1903 36.1 L   6.892 -73.120130.3  RSN  6 0.5 2.0LRSN                1
 GAP=204        0.97       4.0     5.7 10.3  0.5978E+01  0.2093E+00 -0.1925E+02E
 Epicentro: PIEDECUESTA - SANTANDER                                            3
 ACTION:UPD 15-09-08 21:50 OP:cam  STATUS:               ID:20150723190336 L   I
 OLDACT:REG 15-07-23 22:52 OP:stll STATUS:               ID:20150723185748     3
 2015-07-23-1857-48M.COL___321                                                 6
 STAT SP IPHASW D HRMM SECON CODA AMPLIT PERI AZIMU VELO AIN AR TRES W  DIS CAZ7
 RUS  HZ EP       19 3 58.90                             137   -0.3010  111 178 
 RUS  HN ES       19 4 17.30                             137    0.1110  111 178 
 RUS  HZ I        19 4 18.63         8.4 0.22            150            111 178 
 CPBEREZ EP       19 4  2.18                             127   -0.20 9  153 255 
 CPBEREN ES       19 4 22.59                             127   -0.25 9  153 255 
 ZAR  HZ EP       19 4  7.83                             119    0.31 9  203 289 
 ZAR  HN ES       19 4 32.37                             119    0.37 9  203 289 
 ZAR  HZ I        19 4 39.07        16.0 0.52            125            203 289 
 SML  HZ EP       19 4 11.66                             115    0.60 8  236 334 
 SML  HN ES       19 4 38.43                             115    0.14 8  236 334 
 SML  HZ I        19 4 53.30        11.1 0.10            119            236 334 
 GUY2CHZ EP       19 4 20.79                             109    0.76 7  309 234 
 GUY2CHE ES       19 4 53.89                             109   -0.37 7  309 234 
 GUY2CHZ I        19 5  1.61         4.3 0.46                           309 234 
 SJC  HZ EP       19 4 29.40                             103   -1.01 6  402 326 
 SJC  HZ I        19 4 31.40         2.4 0.30            108            402 326 
 SJC  HN ES       19 5 11.88                             103   -0.86 6  402 326 
                                                                                
