 2011  623 1738 28.3 L   7.412 -73.449108.0  RSN  7 0.2 2.0LRSN                1
 GAP=148        0.51       2.4     4.4  5.1 -0.3547E+01 -0.3596E+01 -0.3823E+00E
 Epicentro: SABANA DE TORRES - SANTANDER                                       3
 ACTION:UP  11-07-14 19:07 OP:ep   STATUS:               ID:20110623173828 L   I
 2011-06-23-1736-45S.COL___140                                                 6
 STAT SP IPHASW D HRMM SECON CODA AMPLIT PERI AZIMU VELO SNR AR TRES W  DIS CAZ7
 BRR  HZ IP     C 1738 43.90                             156     0.010   44 221 
 BRR  HN ES   1   1738 56.36                             156     0.3 7   44 221 
 BRR  HZ I        1738 57.07        27.0 0.17                            44 221 
 GIR2 SZ ES   3   1738 56.14                             155    -0.5 2   46 143 
 BTL  SZ EP       1738 45.12                             150     0.110   58 160 
 BRI  SZ EP       1738 46.35                             141    -0.110   79  65 
 GRA  SZ EP       1738 47.13                             138     0.010   88  54 
 GRA  SZ I        1738 48.05        27.7 0.37                            88  54 
 GRA  SZ ES   1   1739  2.11                             138     0.4 7   88  54 
 OCA  SZ EP       1738 47.54                             136     0.110   93   9 
 OCA  SZ ES   1   1739  2.00                             136    -0.4 7   93   9 
 BAR2 SZ EP       1738 47.74                             136    -0.110   95 162 
 BAR2 SZ ES   1   1739  2.79                             136    -0.2 7   95 162 
 BAR2 SZ I        1739  3.56        19.1 0.09                            95 162 
                                                                                
