 2014  523 1152 32.9 L   6.789 -73.127148.0  RSN 15 0.5 2.7LRSN                1
 GAP= 99        1.01       4.9     3.4  6.1 -0.5409E+01  0.8877E+00  0.1558E+02E
 Epicentro: LOS SANTOS - SANTANDER                                             3
 ACTION:UPD 15-03-16 17:00 OP:nd   STATUS:               ID:20140523115232 L   I
 OLDACT:REG 14-05-23 22:28 OP:cam  STATUS:               ID:20140523115000     3
 2014-05-23-1150-00M.COL___252                                                 6
 STAT SP IPHASW D HRMM SECON CODA AMPLIT PERI AZIMU VELO AIN AR TRES W  DIS CAZ7
 BAR2 SZ IP     C 1152 52.41                             171   -0.3710 22.5 196 
 BAR2 SZ ES       1153  8.34                             171    0.0510 22.5 196 
 BAR2 SZ I        1153  9.14        95.8 0.26            169           22.5 196 
 BRR  HZ EP     D 1152 54.33                             152   -0.0910 73.6 299 
 BRR  HE ES       1153 11.87                             152    0.6610 73.6 299 
 BRR  HZ I        1153 16.63        58.2 0.14            153           73.6 299 
 PAM  SZ EP       1152 55.20                             151   -0.1310 77.1  38 
 PAM  SN ES       1153 12.64                             151   -0.1910 77.1  38 
 PAM  SZ I        1153 14.56        61.2 0.50            150           77.1  38 
 PTB  HZ EP   4   1152 59.05                             132   -1.15 0  150 259 
 PTB  HN ES       1153 20.60                             132   -0.91 9  150 259 
 PTB  HZ I        1153 26.39        75.5 0.40            131            150 259 
 TAM  HZ IP     D 1153  0.57                             131    0.03 9  153 105 
 TAM  HZ I        1153 21.38        32.1 0.32            128            153 105 
 TAM  HN ES       1153 22.56                             131    0.46 9  153 105 
 NOR  HZ EP       1153  8.52                             119   -0.33 8  236 235 
 NOR  HE ES       1153 36.99                             119    0.09 8  236 235 
 NOR  HZ I        1153 40.03        37.8 0.18            117            236 235 
 CHI  HZ EP       1153 10.45                             118   -0.19 8  248 196 
 CHI  HN ES       1153 39.46                             118   -0.63 8  248 196 
 CHI  HZ I        1153 43.88        14.8 0.36            116            248 196 
 ROSC BZ EP   4   1153 11.76                             117    0.63 0  253 212 
 ROSC BE ES   4   1153 43.05                             117    2.09 0  253 212 
 ROSC BZ I        1153 50.15        37.1 0.35            115            253 212 
 HEL  HZ EP   4   1153 14.56                             115    1.15 0  274 256 
 HEL  HN ES   4   1153 45.49                             115    0.48 0  274 256 
 HEL  HZ I        1153 50.91        23.7 0.34            114            274 256 
 GUY2CHZ EP   1   1153 17.04                             113    0.33 5  302 235 
 GUY2CHN ES       1153 51.84                             113    0.95 7  302 235 
 GUY2CHZ I        1153 59.24        36.0 0.78                           302 235 
 RREF HZ EP       1153 19.59                             111    0.37 7  323 230 
 RREF HE ES   1   1153 56.13                             111    0.78 5  323 230 
 RREF HZ I        1154  0.74        21.4 0.26            110            323 230 
 CBOC HZ EP   1   1153 20.31                             110    0.23 5  335 252 
 DBB  SZ EP   4   1153 20.01                             110   -0.70 0  342 274 
 DBB  SZ ES   4   1153 53.48                             110   -4.52 0  342 274 
 DBB  SZ I        1153 58.94        42.7 0.52            108            342 274 
 TOL  SZ EP       1153 21.85                             110    0.55 7  344 225 
 SDV  BZ EP   4   1153 21.71                             109   -1.22 0  360  50 
 PRA  HZ EP       1153 25.87                             107   -0.61 6  392 210 
 PRA  HN ES       1154  8.46                             107    0.18 6  392 210 
 PRA  HZ I        1154 13.09        16.8 0.36            105            392 210 
                                                                                
