 2011 1223 1501 37.1 L   6.552 -73.445117.3  RSN  7 0.3 1.9LRSN                1
 GAP= 84        0.57       3.2     3.5  5.6 -0.6527E+00  0.1084E+02  0.3702E+01E
 Epicentro: HATO - SANTANDER                                                   3
 ACTION:UPD 12-07-13 16:17 OP:ep   STATUS:               ID:20111223150137 L   I
 2011-12-23-1500-00M.COL___188                                                 6
 STAT SP IPHASW D HRMM SECON CODA AMPLIT PERI AZIMU VELO AIN AR TRES W  DIS CAZ7
 BAR2 SZ EP   1   15 1 53.49                             165   -0.01 7 29.3  81 
 BAR2 SZ I        15 1 53.80        37.0 0.11                          29.3  81 
 BAR2 SZ ES   1   15 2  6.07                             165   -0.21 7 29.3  81 
 GIR2 SZ EP       15 1 54.88                             149   -0.1510 64.5  25 
 GIR2 SZ ES   1   15 2  9.34                             149    0.32 7 64.5  25 
 BRR  HZ EP       15 1 54.92                             148   -0.1410 68.1 334 
 BRR  HE ES   1   15 2  9.31                             148    0.25 7 68.1 334 
 RUS  HZ EP   1   15 1 56.76                             143   -0.05 7 83.2 151 
 RUS  HZ I        15 1 57.28         8.0 0.10                          83.2 151 
 RUS  HN ES   1   15 2 12.23                             143    0.06 7 83.2 151 
 PTB  HZ EP   1   15 1 58.10                             133   -0.41 7  112 269 
 NOR  SZ EP   1   15 2  7.02                             117    0.42 7  192 235 
 NOR  SN ES   1   15 2 29.67                             117    0.07 7  192 235 
 HEL  HZ EP   1   15 2 12.32                             112    0.64 6  234 260 
 HEL  HN ES   1   15 2 38.30                             112   -0.35 6  234 260 
 HEL  HZ I        15 2 45.44         6.8 0.46                           234 260 
                                                                                
