 2011  823 1810  9.3 L   6.783 -73.945 88.0  RSN  5 0.2 1.9LRSN                1
 GAP=146        0.49       4.3     2.7  7.4  0.4170E+01  0.1189E+02  0.2122E+02E
 Epicentro: PUERTO PARRA - SANTANDER                                           3
 ACTION:UPD 12-07-13 15:53 OP:ep   STATUS:               ID:20110823181009 L   I
 2011-08-23-1808-06S.COL___158                                                 6
 STAT SP IPHASW D HRMM SECON CODA AMPLIT PERI AZIMU VELO AIN AR TRES W  DIS CAZ7
 BRR  HZ IP     D 1810 22.63                             151   -0.0310 44.1  36 
 BRR  HN ES   1   1810 33.31                             151    0.23 7 44.1  36 
 BRR  HZ I        1810 34.01       106.6 0.11                          44.1  36 
 BAR2 SZ EP   1   1810 26.35                             132    0.03 7 86.9 104 
 BAR2 SZ ES   1   1810 39.31                             132   -0.28 7 86.9 104 
 BAR2 SZ I        1810 41.18        14.7 0.22                          86.9 104 
 RUS  HZ EP   1   1810 31.56                             118   -0.18 7  137 136 
 RUS  HN ES   1   1810 49.44                             118    0.20 7  137 136 
 RUS  HZ I        1810 50.83         5.3 0.09                           137 136 
 HEL  HZ EP   1   1810 37.11                             110   -0.11 7  187 250 
 HEL  HE ES   1   1810 58.77                             110   -0.22 7  187 250 
 HEL  HZ I        1811 23.54        11.0 0.38                           187 250 
 RREF HZ EP   1   1810 46.67                             104    0.55 6  260 217 
 RREF HZ I        1810 49.52         7.6 0.20                           260 217 
                                                                                
