 2015  423 1821 16.4 L   6.403 -73.264  4.0  RSN  9 0.4 1.5LRSN                1
 GAP=129        1.03       2.2     2.6  5.8 -0.1465E+01  0.4563E+01 -0.1033E+01E
 Epicentro: PALMAS DEL SOCORRO - SANTANDER                                     3
 ACTION:UPD 15-06-03 16:57 OP:cam  STATUS:               ID:20150423182116 L   I
 OLDACT:REG 15-04-23 21:04 OP:spq  STATUS:               ID:20150423181749     3
 2015-04-23-1817-49M.COL___258                                                 6
 STAT SP IPHASW D HRMM SECON CODA AMPLIT PERI AZIMU VELO AIN AR TRES W  DIS CAZ7
 BAR2 EZ EP       1821 20.95                              47    0.2910 22.8  23 
 BAR2 EZ ES   1   1821 24.66                              47    0.65 7 22.8  23 
 BAR2 EZ I        1821 25.41        97.1 0.13             97           22.8  23 
 RUS  HZ EP       1821 26.68                              47    0.1410 59.9 160 
 RUS  HE ES   1   1821 33.87                              47   -0.60 7 59.9 160 
 RUS  HZ I        1821 34.79        10.7 0.40             47           59.9 160 
 BRR  HZ EP   1   1821 31.37                              47    0.42 7 92.3 328 
 BRR  HN ES       1821 42.41                              47    0.0910 92.3 328 
 BRR  HZ I        1821 44.19        10.1 0.20             47           92.3 328 
 PAM  SZ EP       1821 35.90                              47    0.1110  121  31 
 PAM  SN ES       1821 50.17                              47   -0.7610  121  31 
 PAM  SZ I        1821 53.69         6.0 0.44             47            121  31 
 SPBC HZ EP   4   1821 38.20                              47    2.65 0  122 227 
 SPBC HN ES   1   1821 51.02                              47    0.51 7  122 227 
 SPBC HZ I        1821 56.53        14.2 0.34             47            122 227 
 PTB  HZ EP       1821 36.97                              47   -0.1210  133 277 
 PTB  HE ES       1821 52.56                              47   -0.7010  133 277 
 PTB  HZ I        1821 53.70        27.6 0.16             47            133 277 
 NOR  HZ EP   4   1821 48.20                              37    1.45 0  200 243 
 NOR  HN ES       1822 10.61                              37    0.16 9  200 243 
 NOR  HZ I        1822 11.37         3.2 0.14             37            200 243 
 ZAR  HN ES   4   1822 11.87                              37   -1.36 0  213 304 
 ZAR  HZ I        1822 14.25         3.9 0.18             37            213 304 
 GUY2CHZ EP       1821 55.86                              37    0.33 8  267 241 
                                                                                
