 2011 1023 1025 57.0 L   6.165 -73.605114.1  RSN 17 0.4 2.9LRSN                1
 GAP= 83        0.78       2.5     2.9  6.0 -0.1440E+01  0.7745E+01  0.8882E+00E
 Epicentro: LA PAZ - SANTANDER                                                 3
 ACTION:UPD 12-07-13 16:05 OP:ep   STATUS:               ID:20111023102557 L   I
 2011-10-23-1023-13S.COL___171                                                 6
 STAT SP IPHASW D HRMM SECON CODA AMPLIT PERI AZIMU VELO AIN AR TRES W  DIS CAZ7
 RUS  HZ IP     D 1026 15.05                             148   -0.0810 65.2 118 
 RUS  HN ES   1   1026 28.69                             148   -0.58 7 65.2 118 
 RUS  HZ I        1026 31.36        80.4 0.25                          65.2 118 
 BAR2 SZ IP       1026 15.11                             148    0.2610 66.4  45 
 BAR2 SZ ES   1   1026 28.49                             148   -0.28 7 66.4  45 
 BAR2 SZ I        1026 30.38       380.6 0.42                          66.4  45 
 BRR  HZ IP     D 1026 17.57                             134    0.1010  105 354 
 BRR  HN ES   1   1026 33.88                             134    0.43 7  105 354 
 BRR  HZ I        1026 35.24        76.8 0.12                           105 354 
 GIR2 SZ IP       1026 18.44                             132    0.2410  111  24 
 NOR  SZ EP   1   1026 21.75                             122   -0.63 7  155 245 
 NOR  SE ES   1   1026 42.68                             122    0.50 7  155 245 
 YOP  SZ EP   1   1026 23.08                             121    0.22 7  159 124 
 YOP  SE ES   1   1026 43.39                             121    0.36 7  159 124 
 YOP  SZ I        1026 45.35        74.9 0.50                           159 124 
 PAM  SZ EP   1   1026 23.75                             121   -0.13 7  164  38 
 PAM  SE ES   1   1026 44.44                             121   -0.41 7  164  38 
 ROSC BZ EP   1   1026 25.08                             120    1.05 7  167 208 
 ROSC BN ES   1   1026 45.15                             120    0.03 7  167 208 
 ROSC BZ I        1026 52.97        95.7 0.41                           167 208 
 ZAR  HZ EP   1   1026 27.34                             115    0.00 6  202 317 
 ZAR  HE ES   1   1026 50.67                             115   -0.34 6  202 317 
 ZAR  HZ I        1026 53.41        78.1 0.49                           202 317 
 HEL  HZ EP   1   1026 29.10                             113    0.05 6  213 271 
 HEL  HZ I        1027  0.96        38.3 0.18                           213 271 
 GUY  SZ EP   1   1026 30.47                             112    0.10 6  223 242 
 GUY  SZ I        1027  1.17       104.6 0.27                           223 242 
 OCA  SZ EP   1   1026 30.52                             111   -0.34 6  231   8 
 OCA  SZ I        1027  3.06        56.9 0.32                           231   8 
 RREF HZ EP   1   1026 32.21                             111   -0.04 6  238 234 
 RREF HN ES   1   1026 59.44                             111   -0.32 6  238 234 
 RREF HZ I        1027  6.23        80.9 0.20                           238 234 
 TOL  SZ EP   1   1026 34.10                             109   -0.06 6  258 227 
 ANIL HZ EP   1   1026 34.78                             108   -0.92 6  272 227 
 ANIL HZ I        1027 11.00       137.4 0.38                           272 227 
 DBB  SZ EP   1   1026 39.48                             105    0.40 5  303 288 
 PRA  HZ EP   1   1026 38.71                             105   -0.67 5  306 208 
                                                                                
