 2012  423 1119 21.6 L   5.846 -73.742114.4  RSN  9 0.4 1.5LRSN                1
 GAP= 94        0.78       3.3     3.2  8.3 -0.2567E+01  0.2607E+01  0.3978E+01E
 Epicentro: JESUS MARIA - SANTANDER                                            3
 ACTION:UPD 12-07-05 11:55 OP:tino STATUS:               ID:20120423111921 L   I
 2012-04-23-1117-50S.COL___152                                                 6
 STAT SP IPHASW D HRMM SECON CODA AMPLIT PERI AZIMU VELO AIN AR TRES W  DIS CAZ7
 RUS  HZ EP   1   1119 40.66                             146     0.4 7   73  86 
 RUS  HZ I        1119 41.19         5.9 0.10                            73  86 
 RUS  HN ES   1   1119 54.51                             146    -0.3 7   73  86 
 PTB  HZ EP   1   1119 42.40                             133    -0.2 7  110 314 
 PTB  HN ES   1   1119 59.06                             133     0.1 7  110 314 
 PTB  HZ I        1120  0.35         4.5 0.14                           110 314 
 NOR  SZ EP   1   1119 44.99                             128     0.6 7  129 256 
 NOR  SN ES   1   1120  2.23                             128     0.1 7  129 256 
 CHI  HZ EP   1   1119 44.97                             127    -0.4 7  135 180 
 CHI  HN ES   2   1120  3.79                             127    -0.2 5  135 180 
 CHI  HZ I        1120  8.23         6.8 0.25                           135 180 
 PAM  SZ EP   1   1119 52.52                             115     0.0 6  201  35 
 PAM  SN ES   1   1120 16.70                             115     0.1 6  201  35 
 PAM  SZ I        1120 20.71         2.6 0.20                           201  35 
 HEL  HZ I        1120 14.60         5.1 0.26                           201 281 
 HEL  HN ES   2   1120 15.40                             115    -1.0 4  201 281 
 RREF HN ES   1   1120 18.47                             114     0.5 6  206 240 
 ZAR  HN ES   2   1120 18.63                             112    -0.6 4  220 326 
 PRA  HZ EP   1   1119 59.10                             108    -0.4 6  268 208 
 PRA  HN ES   1   1120 29.04                             108     0.0 6  268 208 
                                                                                
