 2017 1123 1115 35.2 L   5.952 -74.026 22.6  RSN  4 0.3 1.1LRSN                1
 GAP=186        0.76       4.4     2.1  3.5  0.4800E+01  0.7681E+00  0.8798E+00E
 Epicentro: LA BELLEZA - SANTANDER                                             3
 ACTION:UPD 17-12-12 19:59 OP:rebc STATUS:               ID:20171123111535 L   I
 OLDACT:UP  17-11-23 22:46 OP:edw  STATUS:               ID:20171123110741d    3
 OLDACT:UP  17-11-23 22:45 OP:edw  STATUS:               ID:20171123110741d    3
 OLDACT:DUP 17-11-23 22:42 OP:edw  STATUS:               ID:20171123110741d    3
 OLDACT:UP  17-11-23 22:40 OP:edw  STATUS:               ID:20171123110740     3
 OLDACT:UP  17-11-23 22:39 OP:edw  STATUS:               ID:20171123110740     3
 OLDACT:REG 17-11-23 19:48 OP:dhb  STATUS:               ID:20171123110740     3
 2017-11-23-1108-00M.COL___470                                                 6
 STAT SP IPHASW D HRMM SECON CODA AMPLIT PERI AZIMU VELO AIN AR TRES W  DIS CAZ7
 PTB  HZ EP       1115 48.53                             104    0.2110 80.5 324 
 PTB  HN ES       1115 58.42                             104   -0.1510 80.5 324 
 PTB  HZ I        1115 59.18         8.7 0.18            102           80.5 324 
 RUS  HZ EP       1115 52.83                             101    0.4510  105  94 
 RUS  HE ES       1116  5.38                             101   -0.4310  105  94 
 RUS  HZ I        1116  5.92         2.3 0.40            100            105  94 
 BAR2 EZ ES       1116  8.33                              56    0.0710  117  53 
 BAR2 EZ I        1116  9.62         3.8 0.40             56            117  53 
 HEL  HE ES       1116 19.79                              56   -0.17 9  168 279 
                                                                                
