 2014  723 1638 39.3 L   6.834 -73.133151.6  RSN 18 0.5 2.3LRSN                1
 GAP=136        1.01       3.0     4.0  6.0 -0.3006E+01  0.5825E+01  0.3036E+01E
 Epicentro: LOS SANTOS - SANTANDER                                             3
 ACTION:UPD 15-03-16 20:46 OP:nd   STATUS:               ID:20140723163839 L   I
 OLDACT:REG 14-07-24 00:21 OP:fm   STATUS:               ID:20140723163549     3
 2014-07-23-1635-49M.COL___271                                                 6
 STAT SP IPHASW D HRMM SECON CODA AMPLIT PERI AZIMU VELO AIN AR TRES W  DIS CAZ7
 BAR2 SZ EP       1638 59.71                             169    0.0210 27.3 192 
 BAR2 SZ ES   1   1639 15.01                             169   -0.60 7 27.3 192 
 BAR2 SZ I        1639 16.41        14.5 0.62            163           27.3 192 
 BRR  HZ EP   1   1639  0.70                             154   -0.34 7 70.8 295 
 BRR  HN ES       1639 18.42                             154    0.4110 70.8 295 
 BRR  HZ I        1639 19.22        20.6 0.36            146           70.8 295 
 PAM  SZ EP       1639  2.53                             153    0.6310 73.6  41 
 PAM  SN ES       1639 19.55                             153    0.0010 73.6  41 
 PAM  SZ I        1639 21.50        54.3 0.52            157           73.6  41 
 RUS  HZ EP   1   1639  3.76                             144   -0.10 7  104 177 
 RUS  HN ES   1   1639 23.05                             144    0.01 7  104 177 
 RUS  HZ I        1639 24.27        19.0 0.30            141            104 177 
 PTB  HZ EP       1639  6.35                             133   -0.57 9  150 258 
 PTB  HN ES       1639 27.74                             133   -0.74 9  150 258 
 PTB  HZ I        1639 29.92        21.1 0.12            127            150 258 
 OCA  HZ EP   1   1639  7.27                             132   -0.45 7  157 352 
 OCA  HE ES       1639 30.12                             132    0.21 9  157 352 
 OCA  HZ I        1639 33.68        26.3 0.18            129            157 352 
 SPBC HZ EP       1639  8.70                             130    0.12 9  167 219 
 SPBC HN ES   1   1639 31.05                             130   -0.39 7  167 219 
 SPBC HZ I        1639 37.30        22.7 0.42            125            167 219 
 ZAR  HZ EP   1   1639 11.18                             124   -0.92 6  204 291 
 ZAR  HN ES       1639 37.58                             124   -0.13 9  204 291 
 ZAR  HZ I        1639 43.44        19.2 0.30            119            204 291 
 NOR  HN ES       1639 44.74                             119    0.62 8  238 234 
 NOR  HZ I        1639 50.18        18.0 0.18            116            238 234 
 SML  HZ EP   1   1639 15.37                             119   -0.57 6  241 335 
 SML  HN ES   1   1639 45.38                             119    0.85 6  241 335 
 SML  HZ I        1639 46.80        18.8 0.32            116            241 335 
 CHI  HZ EP   1   1639 17.29                             118   -0.44 6  253 195 
 CHI  HN ES   1   1639 48.07                             118    0.34 6  253 195 
 CHI  HZ I        1639 54.23        10.5 0.18            115            253 195 
 URE  HE ES   4   1639 51.03                             115   -1.86 0  284 291 
 URE  HZ I        1640  4.46        10.9 0.24            112            284 291 
 GUY2CHZ EP   4   1639 25.08                             113    1.55 0  305 234 
 GUY2CHN ES       1639 59.00                             113    0.95 7  305 234 
 GUY2CHZ I        1640  7.98        10.0 0.32                           305 234 
 RREF HZ EP   4   1639 28.30                             112    2.22 0  325 229 
 RREF HN ES       1640  2.35                             112   -0.23 7  325 229 
 RREF HZ I        1640 12.13         8.3 0.34            109            325 229 
 CBOC HZ EP   1   1639 27.49                             111    0.76 5  336 252 
 CBOC HN ES   1   1640  3.99                             111    0.26 5  336 252 
 CBOC HZ I        1640 27.63         2.6 0.26            108            336 252 
 TOL  SZ EP   4   1639 29.94                             110    1.75 0  347 224 
 TOL  SN ES   4   1640  7.89                             110    1.54 0  347 224 
 TOL  SZ I        1640 15.56        16.3 0.28            108            347 224 
 PRA  HZ EP   1   1639 33.68                             107    0.22 4  396 209 
 PRA  HN ES   1   1640 16.25                             107    0.52 4  396 209 
 PRA  HZ I        1640 23.99         7.3 0.26            105            396 209 
 SJC  HZ EP   4   1639 33.66                             107   -1.10 0  407 326 
 SJC  HN ES   4   1640 14.87                             107   -3.17 0  407 326 
 SJC  HZ I        1640 22.61         7.8 0.16            105            407 326 
                                                                                
