 2012  223 1217 55.7 L   6.772 -73.091148.6  RSN  8 0.3 1.9LRSN                1
 GAP=145        0.46       3.0     3.9  4.1 -0.3023E+00  0.2714E+01  0.4700E+01E
 ACTION:UP  12-03-07 16:33 OP:epov STATUS:               ID:20120223121755 L   I
 2012-02-23-1210-00M.COL___191                                                 6
 STAT SP IPHASW D HRMM SECON CODA AMPLIT PERI AZIMU VELO AIN AR TRES W  DIS CAZ7
 BAR2 SZ EP       1218 15.67                             171   -0.0110 22.3 207 
 BAR2 SZ ES   1   1218 31.18                             171   -0.06 7 22.3 207 
 BAR2 SZ I        1218 32.55        19.0 0.25                          22.3 207 
 GIR2 SZ EP   1   1218 15.90                             166    0.04 7 35.7 342 
 GIR2 SZ ES   2   1218 31.00                             166   -0.57 5 35.7 342 
 PAM  SN ES   2   1218 35.74                             152    0.06 5 76.2  35 
 BRR  HZ EP       1218 17.64                             151    0.0710 78.0 298 
 BRR  HZ I        1218 18.13        31.5 0.11                          78.0 298 
 BRR  HE ES   1   1218 35.05                             151    0.44 7 78.0 298 
 RUS  HZ EP   1   1218 19.42                             145   -0.11 7 97.3 179 
 RUS  HE ES   2   1218 38.00                             145   -0.09 5 97.3 179 
 RUS  HZ I        1218 38.84        10.9 0.41                          97.3 179 
 PTB  HZ EP   2   1218 22.90                             132   -0.51 5  153 260 
 PTB  HE ES   2   1218 44.53                             132   -0.48 5  153 260 
 NOR  SZ EP   1   1218 31.81                             119   -0.15 6  238 236 
 NOR  SN ES   2   1219  0.30                             119    0.07 4  238 236 
 CHI  HZ EP   1   1218 33.67                             118    0.23 6  247 197 
 CHI  HN ES   1   1219  3.12                             118    0.26 6  247 197 
 CHI  HZ I        1219  6.01         2.5 0.34                           247 197 
                                                                                
