 2011  923 1739 56.4 L   6.680 -73.434130.3  RSN  4 0.4 2.0LRSN                1
 GAP=309        0.61      15.7    11.5 25.1  0.3276E+02  0.1718E+03  0.2372E+03E
 Epicentro: EL CARMEN DE CHUCURI - SANTANDER                                   3
 ACTION:UPD 12-07-13 15:59 OP:ep   STATUS:               ID:20110923173956 L   I
 2011-09-23-1738-23S.COL___165                                                 6
 STAT SP IPHASW D HRMM SECON CODA AMPLIT PERI AZIMU VELO AIN AR TRES W  DIS CAZ7
 OCA  SZ EP       1740 24.69                             125   -0.1110  173   4 
 OCA  SZ ES   2   1740 47.12                             125    0.16 5  173   4 
 OCA  SZ I        1740 50.04        15.2 0.43                           173   4 
 MON  HZ EP       1740 43.60                             107    0.58 7  338 313 
 MON  HZ I        1740 44.24         1.6 0.16                           338 313 
 MON  HE ES   2   1741 18.84                             107   -0.56 4  338 313 
 COD  HN ES   2   1741 24.14                             106    0.21 4  360 360 
 SJC  HZ EP       1740 50.42                             104   -0.48 6  404 332 
 SJC  HZ I        1741 35.69         3.9 0.56                           404 332 
                                                                                
