 2013  223 1036 59.1 L   6.635 -73.201149.5  RSN  4 0.2 1.6LRSN                1
 GAP=204        0.53       6.3     4.0  6.0  0.6652E+01  0.1632E+01  0.9358E+01E
 Epicentro: BARICHARA - SANTANDER                                              3
 ACTION:UPD 13-03-12 09:35 OP:ep   STATUS:               ID:20130223103659 L   I
 2013-02-23-1030-00M.COL___225                                                 6
 STAT SP IPHASW D HRMM SECON CODA AMPLIT PERI AZIMU VELO AIN AR TRES W  DIS CAZ7
 BAR2 SZ EP       1037 18.90                             178   -0.0710 5.13 157 
 BAR2 SZ ES   2   1037 34.99                             178    0.54 5 5.13 157 
 BRR  HZ EP       1037 20.99                             151    0.0010 77.0 313 
 BRR  HN ES       1037 37.82                             151   -0.2310 77.0 313 
 BRR  HN I        1037 41.55         8.8 0.18            148           77.0 313 
 PTB  HZ EP       1037 25.68                             134    0.05 9  139 266 
 PTB  HN ES       1037 46.19                             134   -0.13 9  139 266 
 PTB  HN I        1037 52.21         4.0 0.60            133            139 266 
 ZAR  HN ES       1037 58.02                             122    0.33 8  206 297 
 ZAR  HN I        1038  3.19         4.0 0.22            123            206 297 
                                                                                
