 2017  323 1441 42.5 L   6.764 -73.161145.9  RSN  7 0.5 2.2LRSN                1
 GAP=148        1.08       7.7     5.0  7.3 -0.5025E+01  0.9069E+01  0.8618E+01E
 Epicentro: LOS SANTOS - SANTANDER                                             3
 ACTION:UPD 17-05-25 18:44 OP:jn   STATUS:               ID:20170323144142 L   I
 OLDACT:UP  17-03-23 22:47 OP:dani STATUS:               ID:20170323143744     3
 OLDACT:UP  17-03-23 22:46 OP:dani STATUS:               ID:20170323143744     3
 OLDACT:UP  17-03-23 22:46 OP:dani STATUS:               ID:20170323143744     3
 OLDACT:REG 17-03-23 20:15 OP:dani STATUS:               ID:20170323143744     3
 2017-03-23-1438-00M.COL___394                                                 6
 STAT SP IPHASW D HRMM SECON CODA AMPLIT PERI AZIMU VELO AIN AR TRES W  DIS CAZ7
 BAR2 EZ EP       1442  1.98                             172   -0.1210 19.2 187 
 BAR2 EZ ES       1442 17.44                             172    0.0810 19.2 187 
 BAR2 EZ I        1442 20.50        20.7 0.42            171           19.2 187 
 BRR  HZ EP     D 1442  3.98                             152    0.2610 71.7 302 
 BRR  HE ES       1442 21.08                             152    0.8310 71.7 302 
 BRR  HZ I        1442 21.62        25.5 0.46            150           71.7 302 
 PAM  EZ EP     D 1442  4.92                             150   -0.0910 81.5  39 
 PAM  EE ES       1442 22.08                             150   -0.4710 81.5  39 
 PAM  EZ I        1442 24.07        33.7 0.54            152           81.5  39 
 PTB  HZ EP       1442  8.97                             132   -0.32 9  145 260 
 PTB  HN ES       1442 29.50                             132   -0.66 9  145 260 
 PTB  HZ I        1442 30.95        11.8 0.24            131            145 260 
 ZAR  HZ EP       1442 15.03                             122    0.05 9  204 293 
 ZAR  HN ES       1442 40.39                             122    0.10 9  204 293 
 ZAR  HZ I        1442 45.66        23.5 0.32            122            204 293 
 URE  HN EP   4   1442 26.76                             114    3.16 0  284 293 
 URE  HE ES   3   1442 53.74                             114   -1.89 2  284 293 
 URE  HN I        1443  2.91        19.0 0.32            113            284 293 
 PRA  HN EP       1442 36.50                             107    0.95 6  388 210 
 PRA  HE ES   4   1443 19.11                             107    2.20 0  388 210 
 PRA  HN I        1443 24.61         4.6 0.45            107            388 210 
                                                                                
