 2015  323 1857 10.0 L   6.835 -73.182142.8  RSN 11 0.4 2.1LRSN                1
 GAP=136        0.92       3.0     3.7  6.0 -0.2705E+01  0.8114E+01  0.4547E+00E
 Epicentro: ZAPATOCA - SANTANDER                                               3
 ACTION:UPD 15-04-30 16:28 OP:nd   STATUS:               ID:20150323185710 L   I
 OLDACT:DUP 15-03-23 22:50 OP:fm   STATUS:               ID:20150323184749d    3
 OLDACT:UP  15-03-23 22:45 OP:fm   STATUS:               ID:20150323184748d    3
 OLDACT:DUP 15-03-23 22:34 OP:fm   STATUS:               ID:20150323184748d    3
 2015-03-23-1847-47M.COL___278                                                 6
 STAT SP IPHASW D HRMM SECON CODA AMPLIT PERI AZIMU VELO AIN AR TRES W  DIS CAZ7
 BAR2 EZ EP       1857 29.28                             169   -0.0510 26.8 180 
 BAR2 EZ ES       1857 44.53                             169    0.1010 26.8 180 
 BAR2 EZ I        1857 46.99        30.5 0.20            170           26.8 180 
 BRR  HZ EP       1857 31.16                             154    0.6510 65.9 297 
 BRR  HN ES       1857 47.01                             154    0.4810 65.9 297 
 BRR  HZ I        1857 50.26        12.1 0.36            152           65.9 297 
 PAM  SZ EP       1857 32.10                             150    0.2310 77.2  44 
 PAM  SE ES       1857 48.74                             150   -0.2110 77.2  44 
 PAM  SZ I        1857 51.72        13.9 0.62            154           77.2  44 
 PTB  HZ EP       1857 36.24                             132   -0.18 9  145 257 
 PTB  HN ES       1857 56.40                             132   -0.65 9  145 257 
 PTB  HZ I        1858  0.20        12.8 0.10            132            145 257 
 OCA  HN ES       1857 58.60                             130   -0.66 9  156 354 
 OCA  HZ I        1858  3.20        20.4 0.22            132            156 354 
 SPBC HZ EP       1857 38.16                             128   -0.14 9  164 217 
 SPBC HN ES       1858  0.12                             128   -0.28 9  164 217 
 SPBC HZ I        1858  7.43        25.0 0.40            130            164 217 
 ZAR  HN ES       1858  6.96                             122    0.52 9  199 292 
 ZAR  HZ I        1858 13.51        11.2 0.28            123            199 292 
 NOR  HZ EP       1857 45.63                             118    0.20 8  234 233 
 NOR  HN ES       1858 13.00                             118   -0.08 8  234 233 
 NOR  HZ I        1858 16.69         9.7 0.22            120            234 233 
 SML  HE ES       1858 13.89                             117    0.00 8  239 336 
 SML  HZ I        1858 19.44        13.9 0.28            119            239 336 
 HEL  HN ES       1858 20.89                             114    0.18 8  269 255 
 HEL  HZ I        1858 28.34         6.0 0.24            116            269 255 
 MON  HN ES       1858 35.52                             108   -0.34 6  348 308 
                                                                                
