 2013  323 1530 39.6 L   6.789 -73.130143.7  RSN  5 0.3 1.9LRSN                1
 GAP=139        0.69       3.6     3.9  5.5  0.2902E+01  0.2544E+01 -0.1763E+00E
 Epicentro: LOS SANTOS - SANTANDER                                             3
 ACTION:UPD 13-04-09 14:04 OP:ep   STATUS:               ID:20130323153040dL   I
 2013-03-23-1530-00M.COL___245                                                 6
 STAT SP IPHASW D HRMM SECON CODA AMPLIT PERI AZIMU VELO AIN AR TRES W  DIS CAZ7
 BAR2 SZ EP       1530 58.85                             171   -0.0810 22.5 195 
 BAR2 SZ ES       1531 13.58                             171   -0.4610 22.5 195 
 BAR2 SZ I        1531 14.73        10.2 0.30            169           22.5 195 
 BRR  HZ EP       1531  0.63                             151    0.0210 73.3 299 
 BRR  HN ES       1531 17.44                             151    0.4110 73.3 299 
 BRR  HN I        1531 18.05        33.3 0.18            149           73.3 299 
 PAM  SZ EP       1531  1.72                             150    0.1610 77.3  38 
 PAM  SN ES       1531 18.66                             150   -0.0510 77.3  38 
 PAM  SN I        1531 19.84        14.2 0.30            152           77.3  38 
 RUS  HZ EP       1531  2.89                             144   -0.1310 99.2 177 
 RUS  HN ES       1531 21.61                             144    0.3010 99.2 177 
 RUS  HN I        1531 23.27         7.7 0.56            144           99.2 177 
 ZAR  HN ES       1531 37.23                             122   -0.23 8  206 292 
 ZAR  HN I        1531 44.15        10.6 0.16            120            206 292 
                                                                                
