 2013  623 1609 18.2 L   6.807 -73.155148.6  RSN  5 0.5 1.7LRSN                1
 GAP=237        1.01       8.5    10.0  9.4  0.4537E+02  0.7161E+01  0.5423E+01E
 Epicentro: LOS SANTOS - SANTANDER                                             3
 ACTION:UPD 14-01-08 09:56 OP:ep   STATUS:               ID:20130623160918 L   I
 OLDACT:REG 13-06-23 17:28 OP:cam  STATUS:               ID:20130623160850     3
 2013-06-23-1608-50M.COL___229                                                 6
 STAT SP IPHASW D HRMM SECON CODA AMPLIT PERI AZIMU VELO AIN AR TRES W  DIS CAZ7
 BAR2 SZ EP   1   16 9 37.08                             170   -1.06 7 24.0 187 
 BAR2 SZ ES   1   16 9 53.43                             170   -0.29 7 24.0 187 
 BAR2 SZ I        16 9 54.42        11.0 0.12            171           24.0 187 
 BRR  HZ EP       16 9 39.87                             153    0.3310 69.9 298 
 BRR  HN ES       16 9 56.48                             153    0.2710 69.9 298 
 BRR  HZ I        16 9 57.61         7.7 0.48            154           69.9 298 
 RUS  HZ EP   1   16 9 42.30                             144    0.05 7  101 175 
 RUS  HN ES       1610  1.34                             144    0.3010  101 175 
 RUS  HZ I        1610  1.74         7.8 0.28            145            101 175 
 PTB  HN ES   1   1610  5.84                             133   -0.59 7  147 258 
 NOR  HZ EP   1   16 9 54.33                             119    0.32 6  234 234 
                                                                                
