 2017 1223 1538  4.5 L   6.680 -73.739 94.0  RSN  8 0.5 2.0LRSN                1
 GAP= 99        0.77       2.7     2.5  6.8 -0.2867E+01  0.4732E+01 -0.4720E+01E
 Epicentro: EL CARMEN - SANTANDER                                              3
 ACTION:UPD 18-01-04 13:23 OP:rebc STATUS:               ID:20171223153804 L   I
 OLDACT:UP  17-12-24 00:02 OP:dani STATUS:               ID:20171223153738     3
 OLDACT:UP  17-12-24 00:02 OP:dani STATUS:               ID:20171223153738     3
 OLDACT:UP  17-12-24 00:00 OP:dani STATUS:               ID:20171223153738     3
 OLDACT:REG 17-12-23 21:28 OP:dani STATUS:               ID:20171223153738     3
 2017-12-23-1538-00M.COL___451                                                 6
 STAT SP IPHASW D HRMM SECON CODA AMPLIT PERI AZIMU VELO AIN AR TRES W  DIS CAZ7
 BAR2 EZ EP       1538 20.04                             144    0.0210 62.4  99 
 BAR2 EZ ES       1538 32.66                             144    0.5310 62.4  99 
 PTB  HZ EP       1538 20.94                             136   -0.2310 80.8 259 
 PTB  HN ES       1538 33.96                             136   -0.2210 80.8 259 
 PTB  HZ I        1538 39.20        11.2 0.10            137           80.8 259 
 SPBC HZ EP       1538 24.96                             124    0.0310  119 198 
 SPBC HN ES       1538 40.60                             124   -0.2710  119 198 
 SPBC HZ I        1538 45.26        20.2 0.18            130            119 198 
 PAM  EZ EP       1538 26.90                             121   -0.28 9  136  58 
 PAM  EE ES       1538 44.75                             121   -0.14 9  136  58 
 PAM  EZ I        1538 46.29        15.1 0.18            126            136  58 
 ZAR  HZ EP   3   1538 29.91                             117    1.54 2  153 306 
 ZAR  HN ES   4   1538 50.32                             117    3.33 0  153 306 
 ZAR  HZ I        1538 53.39        15.5 0.24            118            153 306 
 OCA  HZ EP   3   1538 29.89                             113   -1.54 2  179  15 
 OCA  HN ES       1538 52.42                             113   -0.03 9  179  15 
 OCA  HZ I        1538 55.79        35.1 0.38            116            179  15 
 URE  HN ES       1539  3.27                             108    0.37 8  231 301 
 URE  HZ I        1539 11.01        10.6 0.20            108            231 301 
 GUY2CHZ EP   3   1538 41.18                             107    2.05 2  241 228 
 GUY2CHE ES       1539  6.44                             107    0.29 8  241 228 
 GUY2CHZ I        1539 13.06         5.2 0.28                           241 228 
                                                                                
