 2011  323 1046  0.3 L   6.802 -73.122141.4  RSN  5 0.4 1.9LRSN                1
 GAP=180        0.89      14.1    17.7 13.2 -0.2254E+03  0.1627E+03 -0.1254E+03E
 Epicentro: LOS SANTOS - SANTANDER                                             3
 ACTION:UP  11-06-16 14:35 OP:jfem STATUS:               ID:20110323104600 L   I
 2011-03-23-1040-00M.COL___138                                                 6
 STAT SP IPHASW D HRMM SECON CODA AMPLIT PERI AZIMU VELO SNR AR TRES W  DIS CAZ7
 BAR2 SZ EP       1046 19.23                             170    -0.210   24 196 
 BAR2 SZ ES   1   1046 34.60                             170     0.3 7   24 196 
 BAR2 SZ I        1046 35.50        10.2 0.31                            24 196 
 GRA  SZ EP       1046 25.10                             136     0.010  125  16 
 GRA  SZ I        1046 47.80        13.2 0.32                           125  16 
 OCA  SZ EP   1   1046 28.42                             129     0.1 7  160 352 
 OCA  SZ I        1046 56.54        10.5 0.29                           160 352 
 NOR  SZ EP   1   1046 35.54                             117    -0.5 6  237 235 
 NOR  SN ES   1   1047  3.35                             117    -0.6 6  237 235 
 RREF HZ EP   2   1046 47.18                             110     0.7 3  324 230 
 RREF HN ES   1   1047 23.51                             110     1.0 5  324 230 
 RREF HZ I        1047 30.81         3.1 0.36                           324 230 
                                                                                
