 2016 1223 1249 11.2 L   6.793 -73.139150.4  RSN  9 0.3 2.1LRSN                1
 GAP=138        0.69       2.6     3.2  4.1  0.2868E+00  0.5130E+01  0.2460E+01E
 Epicentro: LOS SANTOS - SANTANDER                                             3
 ACTION:UPD 17-01-11 20:18 OP:rebc STATUS:               ID:20161223124911 L   I
 OLDACT:UP  16-12-23 22:43 OP:dani STATUS:               ID:20161223124743     3
 OLDACT:UP  16-12-23 22:43 OP:dani STATUS:               ID:20161223124743     3
 OLDACT:REG 16-12-23 21:01 OP:edw  STATUS:               ID:20161223124743     3
 2016-12-23-1248-00M.COL___391                                                 6
 STAT SP IPHASW D HRMM SECON CODA AMPLIT PERI AZIMU VELO AIN AR TRES W  DIS CAZ7
 BAR2 EZ EP       1249 31.30                             171   -0.0610 22.7 192 
 BAR2 HE ES       1249 46.77                             171   -0.3310 22.7 192 
 BAR2 EZ I        1249 49.02        35.3 0.18            169           22.7 192 
 BRR  HZ EP       1249 33.14                             153    0.2410 72.3 299 
 BRR  HN ES       1249 50.34                             153    0.5110 72.3 299 
 BRR  HZ I        1249 53.01        19.0 0.18            152           72.3 299 
 PAM  EZ EP       1249 34.04                             152    0.1310 77.5  39 
 PAM  EN ES       1249 51.47                             152   -0.1510 77.5  39 
 PAM  EZ I        1249 53.38        29.7 0.50            156           77.5  39 
 RUS  HZ EP       1249 35.33                             145   -0.0110 99.7 176 
 RUS  HN ES       1249 54.09                             145   -0.0810 99.7 176 
 RUS  HZ I        1249 55.18        21.3 0.34            146           99.7 176 
 PTB  HZ EP       1249 38.52                             133   -0.08 9  148 259 
 ZAR  HZ EP       1249 43.94                             123   -0.11 9  205 292 
 ZAR  HN ES       1250  9.47                             123   -0.20 9  205 292 
 ZAR  HZ I        1250 14.96        11.2 0.28            124            205 292 
 NOR  HZ EP       1249 47.32                             119    0.11 8  235 235 
 NOR  HE ES       1250 14.81                             119   -0.50 8  235 235 
 NOR  HZ I        1250 20.90         7.9 0.20            120            235 235 
 CHI  HZ EP       1249 49.48                             118    0.39 8  248 195 
 CHI  HE ES       1250 18.94                             118    0.29 8  248 195 
 CHI  HZ I        1250 24.49         5.5 0.48            119            248 195 
 GUY2CHZ EP       1249 54.68                             113   -0.36 7  301 235 
 GUY2CHE ES   3   1250 31.28                             113    2.04 2  301 235 
 GUY2CHZ I        1250 37.45         6.0 0.44                           301 235 
 LL6C HZ EP   4   1249 37.14                             111   -20.0 0  326 357 
                                                                                
