 2013 1123 1553 50.3 L   6.756 -73.159144.2  RSN  6 0.4 1.8LRSN                1
 GAP=137        0.95       5.0     4.9  7.0 -0.2234E+01  0.4218E+01  0.1290E+01E
 Epicentro: LOS SANTOS - SANTANDER                                             3
 ACTION:UPD 14-01-09 16:30 OP:ep   STATUS:               ID:20131123155350 L   I
 OLDACT:DUP 13-11-23 15:12 OP:nd   STATUS:               ID:20131123155001d    3
 2013-11-23-1550-00M.COL___282                                                 6
 STAT SP IPHASW D HRMM SECON CODA AMPLIT PERI AZIMU VELO AIN AR TRES W  DIS CAZ7
 BAR2 SZ IP     C 1554  9.88                             172    0.2410 18.3 188 
 BAR2 SZ ES       1554 24.83                             172    0.1010 18.3 188 
 BAR2 SZ I        1554 26.40        18.0 0.60            173           18.3 188 
 BRR  HZ EP       1554 11.84                             152    0.5010 72.4 302 
 BRR  HN ES       1554 28.20                             152    0.4410 72.4 302 
 BRR  HZ I        1554 33.77        13.5 0.70            152           72.4 302 
 PAM  SZ EP       1554 12.63                             149    0.0110 82.0  38 
 PAM  SN ES       1554 29.49                             149   -0.5610 82.0  38 
 PAM  SZ I        1554 32.06        21.9 0.56            152           82.0  38 
 RUS  HZ EP       1554 13.73                             145    0.1810 95.9 175 
 RUS  HN ES       1554 31.59                             145   -0.1010 95.9 175 
 RUS  HZ I        1554 34.20         6.6 0.22            149           95.9 175 
 PTB  HZ EP       1554 16.41                             132   -0.51 9  145 261 
 PTB  HN ES       1554 37.28                             132   -0.42 9  145 261 
 PTB  HZ I        1554 40.14         8.3 0.16            134            145 261 
 GUY2CHZ EP   4   1554 34.42                             112    1.04 0  297 235 
 GUY2CHZ I        1555  6.70         2.2 0.22                           297 235 
 GUY2CHN ES   4   1555 11.49                             112    4.50 0  297 235 
                                                                                
