 2013 1023 1408 39.6 L   6.808 -73.153149.0  RSN  8 0.4 2.1LRSN                1
 GAP=135        1.06       3.8     5.0  6.6 -0.3481E+01  0.7526E+01 -0.3054E+01E
 Epicentro: LOS SANTOS - SANTANDER                                             3
 ACTION:UPD 13-11-25 09:23 OP:ep   STATUS:               ID:20131023140839 L   I
 OLDACT:UP  13-10-23 15:50 OP:cam  STATUS:               ID:20131023135837d    3
 OLDACT:DUP 13-10-23 15:42 OP:cam  STATUS:               ID:20131023135837d    3
 2013-10-23-1358-36M.COL___230                                                 6
 STAT SP IPHASW D HRMM SECON CODA AMPLIT PERI AZIMU VELO AIN AR TRES W  DIS CAZ7
 BAR2 SZ EP       14 8 59.54                             171   -0.0810 24.0 188 
 BAR2 SZ ES       14 9 14.61                             171   -0.6410 24.0 188 
 BAR2 SZ I        14 9 15.73        42.3 0.24            171           24.0 188 
 BRR  HZ EP       14 9  1.30                             153    0.2810 70.1 298 
 BRR  HE ES       14 9 18.64                             153    0.8910 70.1 298 
 BRR  HZ I        14 9 19.02        16.2 0.34            152           70.1 298 
 PAM  SZ EP       14 9  2.60                             151    0.4710 77.2  40 
 PAM  SN ES       14 9 19.69                             151   -0.0410 77.2  40 
 PAM  SZ I        14 9 21.66        29.8 0.46            152           77.2  40 
 RUS  HZ EP       14 9  3.83                             144    0.1110  101 176 
 RUS  HN ES       14 9 22.48                             144   -0.0610  101 176 
 RUS  HZ I        14 9 23.36        13.3 0.30            145            101 176 
 PTB  HZ EP       14 9  6.31                             133   -0.45 9  147 258 
 PTB  HN ES       14 9 27.42                             133   -0.55 9  147 258 
 PTB  HZ I        14 9 29.13         8.5 0.58            132            147 258 
 SPBC HZ EP       14 9  8.45                             130    0.10 9  163 219 
 SPBC HN ES       14 9 30.79                             130    0.00 9  163 219 
 SPBC HZ I        14 9 32.95        15.2 0.30            130            163 219 
 NOR  HE ES   1   14 9 44.22                             119    0.73 6  235 234 
 NOR  HZ I        14 9 48.25         7.7 0.20            119            235 234 
 SML  HZ EP       14 9 15.91                             118   -0.36 8  243 335 
 SML  HE ES       14 9 44.61                             118   -0.28 8  243 335 
 SML  HZ I        14 9 48.63        12.5 0.10            118            243 335 
                                                                                
