 2016  823 1111 21.3 L   6.625 -73.157 27.6  RSN  6 0.5 1.6LRSN                1
 GAP=142        1.18       3.1     3.4  3.5  0.1130E+01  0.9848E+00 -0.3624E+01E
 Epicentro: VILLANUEVA - SANTANDER                                             3
 ACTION:UPD 16-10-29 15:38 OP:rebc STATUS:               ID:20160823111121 L   I
 OLDACT:REG 16-08-23 20:32 OP:ar   STATUS:               ID:20160823110729     3
 2016-08-23-1108-00M.COL___371                                                 6
 STAT SP IPHASW D HRMM SECON CODA AMPLIT PERI AZIMU VELO AIN AR TRES W  DIS CAZ7
 BAR2 EZ IP     C 1111 26.47                             170    0.3110 4.55 218 
 BAR2 EZ ES       1111 30.37                             170    0.4410 4.55 218 
 BAR2 EZ I        1111 31.30       119.1 0.22                          4.55 218 
 BRR  HZ EP       1111 34.16                              97   -0.5010 81.3 311 
 BRR  HE ES       1111 44.36                              97   -0.7010 81.3 311 
 BRR  HZ I        1111 45.72        13.8 0.50                          81.3 311 
 RUS  HZ IP     C 1111 35.24                              98    0.0310 81.3 174 
 RUS  HN ES       1111 45.64                              98   -0.3910 81.3 174 
 RUS  HZ I        1111 46.57        16.9 0.22                          81.3 174 
 PAM  EZ EP       1111 37.07                              61    0.1410 93.8  33 
 PAM  EE ES       1111 49.07                              61   -0.0210 93.8  33 
 PAM  EZ I        1111 50.26        11.3 0.14                          93.8  33 
 PTB  HZ EP       1111 42.30                              61   -0.33 9  144 266 
 PTB  HE ES       1111 59.54                              61    0.30 9  144 266 
 PTB  HZ I        1112  0.46        16.3 0.34                           144 266 
 ZAR  HN ES       1112 15.16                              61    1.02 8  211 297 
                                                                                
