 2013  623 1826 58.7 L   6.787 -73.153150.8  RSN  7 0.3 2.0LRSN                1
 GAP=136        0.80       3.5     4.0  5.5  0.2425E+01  0.5929E+01 -0.3871E+00E
 Epicentro: LOS SANTOS - SANTANDER                                             3
 ACTION:UPD 14-01-08 09:56 OP:ep   STATUS:               ID:20130623182658 L   I
 OLDACT:REG 13-06-23 15:52 OP:cam  STATUS:               ID:20130623181959     3
 2013-06-23-1819-59M.COL___267                                                 6
 STAT SP IPHASW D HRMM SECON CODA AMPLIT PERI AZIMU VELO AIN AR TRES W  DIS CAZ7
 GIR2 SZ EP       1827 18.83                             167   -0.1810 32.6 352 
 GIR2 SZ ES       1827 34.44                             167   -0.4010 32.6 352 
 BRR  HZ IP       1827 20.66                             153    0.2610 71.2 300 
 BRR  HN ES       1827 38.09                             153    0.7810 71.2 300 
 BRR  HZ I        1827 40.95        17.3 0.34            150           71.2 300 
 PAM  SZ EP   1   1827 21.91                             151    0.36 7 79.1  39 
 PAM  SN ES       1827 39.26                             151   -0.1110 79.1  39 
 PAM  SZ I        1827 41.07        13.7 0.50            155           79.1  39 
 RUS  HZ EP       1827 22.81                             145   -0.0410 99.2 176 
 RUS  HN ES       1827 41.69                             145    0.0110 99.2 176 
 RUS  HZ I        1827 42.47         9.7 0.24            148           99.2 176 
 PTB  HZ EP   1   1827 25.82                             133   -0.17 7  147 259 
 PTB  HN ES   1   1827 46.81                             133   -0.46 7  147 259 
 PTB  HZ I        1827 53.76        11.5 0.28            132            147 259 
 ZAR  HZ EP   1   1827 31.81                             123    0.35 6  204 293 
 ZAR  HE ES       1827 56.84                             123   -0.17 9  204 293 
 ZAR  HZ I        1828  3.59        10.9 0.30            123            204 293 
 SML  HZ EP   1   1827 35.49                             118   -0.24 6  245 336 
 SML  HE ES       1828  4.37                             118   -0.23 8  245 336 
 SML  HZ I        1828  8.28        12.8 0.10            119            245 336 
                                                                                
