 2012  423 1154 37.6 L   6.799 -73.150145.2  RSN  5 0.3 1.0LRSN                1
 GAP=136        0.68       4.7     5.1  7.2  0.5249E+01  0.4256E+01 -0.1368E+00E
 Epicentro: LOS SANTOS - SANTANDER                                             3
 ACTION:UPD 12-07-05 11:55 OP:tino STATUS:               ID:20120423115437 L   I
 2012-04-23-1150-00M.COL___186                                                 6
 STAT SP IPHASW D HRMM SECON CODA AMPLIT PERI AZIMU VELO AIN AR TRES W  DIS CAZ7
 BAR2 SZ EP   1   1154 57.12                             171     0.0 7   23 189 
 BAR2 SZ ES   1   1155 12.45                             171     0.1 7   23 189 
 BAR2 SZ I        1155 15.32         5.0 0.28                            23 189 
 BRR  HZ EP   1   1154 59.12                             153     0.5 7   71 299 
 BRR  HN ES   1   1155 15.29                             153     0.2 7   71 299 
 PAM  SZ EP   1   1154 59.42                             151    -0.3 7   78  40 
 PAM  SN ES   1   1155 16.99                             151     0.0 7   78  40 
 PAM  SZ I        1155 19.71         1.4 0.43                            78  40 
 RUS  HZ EP   1   1155  1.45                             144     0.2 7  100 176 
 RUS  HN ES   1   1155 19.43                             144    -0.3 7  100 176 
 RUS  HZ I        1155 20.74         1.3 0.24                           100 176 
 ZAR  HN ES   1   1155 34.67                             122    -0.5 6  204 292 
                                                                                
