 2013 1123 1204 46.4 L   6.763 -73.175149.7  RSN  7 0.5 1.8LRSN                1
 GAP=198        1.12       5.1     6.2  7.2  0.1001E+02  0.3810E+01 -0.7804E+01E
 Epicentro: LOS SANTOS - SANTANDER                                             3
 ACTION:UPD 14-01-09 16:30 OP:ep   STATUS:               ID:20131123120446 L   I
 OLDACT:REG 13-11-23 14:09 OP:nd   STATUS:               ID:20131123120000     3
 2013-11-23-1200-00M.COL___282                                                 6
 STAT SP IPHASW D HRMM SECON CODA AMPLIT PERI AZIMU VELO AIN AR TRES W  DIS CAZ7
 BAR2 SZ EP       12 5  6.60                             173    0.1710 18.9 182 
 BAR2 SZ ES       12 5 22.08                             173    0.0310 18.9 182 
 BAR2 SZ I        12 5 23.09        17.7 0.54            175           18.9 182 
 BRR  HZ EP       12 5  8.38                             154    0.4410 70.5 303 
 BRR  HN ES       12 5 25.35                             154    0.6110 70.5 303 
 BRR  HZ I        12 5 32.00        14.5 0.42            152           70.5 303 
 RUS  HZ EP       12 5 10.43                             146    0.1510 96.8 174 
 RUS  HN ES       12 5 28.37                             146   -0.5310 96.8 174 
 RUS  HZ I        12 5 30.85         4.3 0.40            151           96.8 174 
 PTB  HZ EP       12 5 13.19                             134   -0.16 9  144 260 
 PTB  HN ES       12 5 33.64                             134   -0.72 9  144 260 
 PTB  HZ I        12 5 36.54         7.6 0.36            135            144 260 
 SPBC HZ EP       12 5 15.37                             131    0.65 9  158 219 
 SPBC HN ES       12 5 36.64                             131   -0.17 9  158 219 
 SPBC HZ I        12 5 39.71         7.1 0.10            135            158 219 
 ZAR  HZ EP       12 5 18.86                             124   -0.10 9  203 294 
 ZAR  HN ES       12 5 44.67                             124    0.31 9  203 294 
 ZAR  HZ I        12 5 50.06         3.6 0.30            125            203 294 
 SML  HZ EP       12 5 22.73                             118   -0.78 8  246 336 
 SML  HN ES   2   12 5 51.44                             118   -1.02 4  246 336 
 SML  HZ I        12 5 58.32         6.5 0.10            120            246 336 
                                                                                
