 2010  123 1327 59.6 L   6.814 -73.001143.4  RSN  4 0.2 1.6LRSN                1
 GAP=326        0.47       8.7    13.2  5.6 -0.6360E+02  0.3123E+02 -0.4567E+01E
 Epicentro: CEPITA - SANTANDER                                                 3
 ACTION:UP  10-08-24 09:45 OP:vdl  STATUS:               ID:20100123132759 L   I
 2010-01-23-1323-36S.COL___095                                                 6
 STAT SP IPHASW D HRMM SECON CODA AMPLIT PERI AZIMU VELO SNR AR TRES W  DIS CAZ7
 BAR2 SZ ES   2   1328 34.53                             167     0.1 5   32 219 
 RUS  BZ IP       1328 23.25                             143     0.010  102 185 
 RUS  BN ES   1   1328 41.55                             143    -0.2 7  102 185 
 RUS  BZ I        1328 43.08         3.2 0.43                           102 185 
 CHI  HZ IP       1328 38.15                             116     0.3 8  255 199 
 CHI  HN ES   2   1329  7.89                             116     0.2 4  255 199 
 CHI  HZ I        1329 11.28         2.0 1.04                           255 199 
 PRA  HZ IP       1328 53.82                             106    -0.4 6  401 211 
 PRA  HE ES   1   1329 36.70                             106     0.0 4  401 211 
 PRA  HZ I        1329 40.79         2.4 0.38                           401 211 
                                                                                
