 2017 1123 1042 17.8 L   6.820 -73.169139.9  RSN 25 0.7 2.5LRSN                1
 GAP= 63        1.50       3.0     3.8  7.0 -0.6210E-01  0.8013E+01  0.4774E+00E
 Epicentro: LOS SANTOS - SANTANDER                                             3
 ACTION:UPD 17-12-12 19:59 OP:rebc STATUS:               ID:20171123104217 L   I
 OLDACT:UP  17-11-23 22:29 OP:edw  STATUS:               ID:20171123103741     3
 OLDACT:UP  17-11-23 22:28 OP:edw  STATUS:               ID:20171123103741     3
 OLDACT:REG 17-11-23 19:38 OP:dhb  STATUS:               ID:20171123103741     3
 2017-11-23-1038-00M.COL___464                                                 6
 STAT SP IPHASW D HRMM SECON CODA AMPLIT PERI AZIMU VELO AIN AR TRES W  DIS CAZ7
 BAR2 EZ EP     C 1042 36.66                             169   -0.0810 25.3 183 
 BAR2 EZ ES       1042 51.32                             169   -0.2210 25.3 183 
 BAR2 EZ I        1042 52.85       174.9 0.34            168           25.3 183 
 PAM  EZ EP     C 1042 39.47                             150    0.1010 77.4  42 
 PAM  EN ES       1042 56.88                             150    0.6710 77.4  42 
 PAM  EZ I        1042 59.10        65.2 0.68            155           77.4  42 
 RUS  HZ EP       1042 40.75                             142   -0.3810  103 175 
 RUS  HN ES       1042 59.25                             142   -0.1110  103 175 
 RUS  HZ I        1043  0.12        24.7 0.30            144            103 175 
 PTB  HZ EP       1042 43.49                             131   -0.58 9  146 258 
 PTB  HN ES       1043  4.16                             131   -0.43 9  146 258 
 PTB  HZ I        1043 10.03        26.5 0.66            130            146 258 
 OCA  HZ EP       1042 44.83                             129   -0.56 9  158 354 
 OCA  HN ES       1043  7.70                             129    0.76 9  158 354 
 OCA  HZ I        1043 10.56       133.8 0.24            131            158 354 
 TAM  HZ EP     D 1042 45.12                             128   -0.17 9  158 106 
 TAM  HN ES       1043  6.93                             128    0.18 9  158 106 
 SPBC HZ EP       1042 45.64                             128   -0.20 9  163 218 
 SPBC HN ES       1043  7.03                             128   -0.71 9  163 218 
 SPBC HZ I        1043 12.47        48.8 0.40            128            163 218 
 YPLC HZ IP     D 1042 47.10                             125   -0.37 9  180 151 
 YPLC HN ES       1043  9.85                             125   -0.78 9  180 151 
 YPLC HZ I        1043 13.60        19.2 0.32            128            180 151 
 ZAR  HZ EP       1042 49.40                             121   -0.10 9  201 292 
 ZAR  HN ES       1043 14.76                             121    0.51 9  201 292 
 ZAR  HZ I        1043 21.24        39.0 0.36            122            201 292 
 TABC EZ EP       1042 54.21                             118    0.96 8  231 210 
 TABC EZ ES   4   1043 24.31                             118    3.39 0  231 210 
 TABC EZ I        1043 28.87        29.1 0.44            119            231 210 
 NOR  HZ EP       1042 53.01                             117   -0.07 8  234 234 
 NOR  HN ES       1043 20.84                             117    0.22 8  234 234 
 NOR  HZ I        1043 26.99        14.4 0.22            118            234 234 
 CHI  HZ EP       1042 54.98                             116   -0.34 8  250 194 
 CHI  HN ES       1043 24.32                             116   -0.28 8  250 194 
 CHI  HZ I        1043 27.66        16.5 0.60            117            250 194 
 ROSC BZ EP       1042 57.17                             115    1.53 8  253 210 
 ROSC BN ES       1043 27.41                             115    2.22 8  253 210 
 ROSC BZ I        1043 31.34        38.6 0.35            117            253 210 
 HEL  HZ EP   4   1042 58.78                             114    1.31 0  270 255 
 HEL  HN ES       1043 28.88                             114    0.44 8  270 255 
 HEL  HZ I        1043 35.76        11.6 0.26            114            270 255 
 URE  HZ EP       1042 57.27                             113   -0.92 7  281 292 
 URE  HN ES       1043 28.33                             113   -1.40 7  281 292 
 URE  HZ I        1043 40.65        23.4 0.38            114            281 292 
 DRL03HZ EP       1042 58.87                             112    0.05 7  286 353 
 DRL03HE ES       1043 31.42                             112    0.58 7  286 353 
 GUY2CHZ EP       1043  1.54                             111    0.52 7  300 234 
 GUY2CHN ES   4   1043 37.80                             111    3.04 0  300 234 
 GUY2CHZ I        1043 42.90        10.3 0.30                           300 234 
 PTGC HZ EP   9 D 1042 59.85                             110   -1.87 0  312 158 
 PTGC HN ES       1043 33.81                             111   -0.32 7  312 158 
 PTGC HZ I        1043 35.90        12.3 0.34            112            312 158 
 ELA  HZ EP   4   1043  6.85                             109    2.53 0  329 229 
 ELA  HN ES   4   1043 43.95                             109    3.32 0  329 229 
 ELA  HZ I        1043 49.32        10.3 0.48            110            329 229 
 CBOC HZ EP       1043  5.18                             109    0.94 7  332 252 
 CBOC HN ES   4   1043 39.28                             109   -1.21 0  332 252 
 ARGC HE ES       1043 44.67                             107   -0.48 6  356 341 
 PRA  HZ EP       1043 10.57                             105   -0.60 6  393 209 
 PRA  HN ES       1043 52.56                             105   -0.27 6  393 209 
 PRA  HZ I        1043 56.87        12.8 0.62            107            393 209 
 ORTC HZ EP       1043 11.33                             105   -0.20 6  396 216 
 ORTC HN ES   4   1043 52.67                             105   -0.79 0  396 216 
 ORTC HZ I        1043 58.01         8.7 0.20            107            396 216 
 SJC  HZ EP   9   1043 10.86                             105   -1.89 0  406 327 
 SJC  HE ES       1043 52.59                             106   -1.16 6  406 327 
 SJC  HZ I        1044  0.65         6.8 0.42            106            406 327 
 CRJC HZ EP   9   1043 17.11                             102   -2.75 0  466   4 
 CRJC HN ES       1044  4.81                             103   -0.73 5  466   4 
 CRJC HZ I        1044  9.14         8.7 0.64            104            466   4 
                                                                                
