 2016 1223 1039 33.0 L   6.119 -73.550121.2  RSN  6 0.3 1.6LRSN                1
 GAP=159        0.86       3.4     3.7  7.0  0.3412E+01  0.9568E+01  0.1624E+01E
 Epicentro: SAN BENITO - SANTANDER                                             3
 ACTION:UPD 17-01-11 20:18 OP:rebc STATUS:               ID:20161223103933 L   I
 OLDACT:REG 16-12-23 20:50 OP:edw  STATUS:               ID:20161223103740     3
 2016-12-23-1038-00M.COL___387                                                 6
 STAT SP IPHASW D HRMM SECON CODA AMPLIT PERI AZIMU VELO AIN AR TRES W  DIS CAZ7
 RUS  HZ EP       1039 51.68                             153    0.2810 57.5 116 
 RUS  HE ES       1040  6.03                             153    0.2510 57.5 116 
 RUS  HZ I        1040 10.05         8.6 0.25            156           57.5 116 
 PTB  HZ EP       1039 53.93                             135   -0.6410  110 295 
 PTB  HE ES       1040 11.19                             135   -0.2310  110 295 
 PTB  HZ I        1040 12.98         8.5 0.16            138            110 295 
 NOR  HZ EP       1039 59.17                             124   -0.00 9  158 247 
 NOR  HN ES       1040 19.59                             124   -0.03 9  158 247 
 NOR  HZ I        1040 22.71        11.4 0.24            127            158 247 
 CHI  HZ EP       1040  0.20                             123   -0.21 9  166 187 
 CHI  HN ES       1040 21.38                             123   -0.44 9  166 187 
 CHI  HZ I        1040 24.14         4.6 0.32            126            166 187 
 ZAR  HZ EP       1040  4.70                             116    0.15 8  210 316 
 ZAR  HN ES       1040 29.28                             116    0.09 8  210 316 
 ZAR  HZ I        1040 31.72         4.1 0.31            119            210 316 
 GUY2CHZ EP       1040  7.13                             114    0.39 8  224 244 
 GUY2CHN ES       1040 33.73                             114    0.64 8  224 244 
 GUY2CHZ I        1040 37.53         3.1 0.28                           224 244 
                                                                                
