 2011  423 1144 33.4 L   6.781 -73.110148.0  RSN 10 0.3 2.0LRSN                1
 GAP=142        0.75       4.1     5.0  5.9 -0.9115E+01  0.5938E+01  0.2269E+01E
 Epicentro: LOS SANTOS - SANTANDER                                             3
 ACTION:UP  11-06-22 15:32 OP:REBC STATUS:               ID:20110423114433 L   I
 2011-04-23-1142-08S.COL___139                                                 6
 STAT SP IPHASW D HRMM SECON CODA AMPLIT PERI AZIMU VELO SNR AR TRES W  DIS CAZ7
 BAR2 SZ EP   1   1144 53.14                             171    -0.2 7   22 201 
 BAR2 SZ ES   1   1145  8.48                             171    -0.3 7   22 201 
 BAR2 SZ I        1145  9.84        40.2 0.16                            22 201 
 BTL  SZ EP   1   1144 53.60                             171     0.3 7   23 311 
 GIR2 SZ EP   1   1144 53.60                             166     0.2 7   34 344 
 GIR2 SZ ES   1   1145  9.04                             166     0.0 7   34 344 
 BRR  HZ EP   1   1144 54.88                             151    -0.2 7   76 298 
 BRR  HN ES   1   1145 12.33                             151     0.4 7   76 298 
 BRR  HZ I        1145 13.56        13.4 0.18                            76 298 
 PAM  SZ EP   1   1144 56.35                             151     0.5 7   77  36 
 PAM  SN ES   1   1145 13.36                             151     0.0 7   77  36 
 RUS  HZ EP   1   1144 57.19                             145     0.0 7   98 178 
 RUS  HN ES   1   1145 16.03                             145     0.2 7   98 178 
 RUS  HZ I        1145 17.16        12.6 0.31                            98 178 
 BRI  SZ ES   2   1145 16.02                             142    -0.4 5  109  18 
 GRA  SZ EP   1   1144 59.27                             137     0.3 7  127  15 
 GRA  SZ ES   1   1145 18.28                             137    -0.6 7  127  15 
 GRA  SZ I        1145 20.78         8.2 0.25                           127  15 
 NOR  SZ EP   1   1145  8.71                             119    -0.8 6  237 235 
 NOR  SN ES   1   1145 37.46                             119    -0.2 6  237 235 
 HEL  HN ES   1   1145 46.24                             115     0.4 6  275 256 
 HEL  HZ I        1145 52.40         7.4 0.35                           275 256 
                                                                                
