 2011  223 1917 55.6 L   6.761 -73.044141.0  RSN  5 0.4 1.3LRSN                1
 GAP=171        0.72       7.3    28.5 10.3 -0.1641E+03 -0.1176E+02 -0.3374E+01E
 Epicentro: LOS SANTOS - SANTANDER                                             3
 ACTION:UP  11-03-28 15:10 OP:jfem STATUS:               ID:20110223191755 L   I
 2011-02-23-1915-26S.COL___137                                                 6
 STAT SP IPHASW D HRMM SECON CODA AMPLIT PERI AZIMU VELO SNR AR TRES W  DIS CAZ7
 BAR2 SZ EP   2   1918 14.70                             169     0.0 5   24 220 
 BAR2 SZ ES   2   1918 29.74                             169     0.2 5   24 220 
 BAR2 SZ I        1918 32.56         4.7 0.30                            24 220 
 BTL  SZ EP   1   1918 15.20                             167     0.4 8   30 305 
 GIR2 SZ EP   2   1918 13.88                             163    -1.1 5   39 335 
 RUS  HZ EP   2   1918 18.55                             144     0.0 5   96 183 
 RUS  HN ES   2   1918 36.40                             144    -0.1 5   96 183 
 RUS  HZ I        1918 38.79         2.4 0.52                            96 183 
 GRA  SZ EP       1918 20.67                             135     0.110  127  12 
 GRA  SZ I        1918 24.22         4.3 0.76                           127  12 
 GRA  SZ ES       1918 39.90                             135    -0.110  127  12 
                                                                                
