 2014  323 1950 24.8 L   6.810 -73.243151.5  RSN  5 0.3 1.7LRSN                1
 GAP=193        0.57       4.0     4.9 10.8  0.2979E+01  0.2826E+01 -0.1698E+02E
 Epicentro: ZAPATOCA - SANTANDER                                               3
 OLDACT:REG 14-03-23 15:51 OP:fm   STATUS:               ID:20140323194818     3
 ACTION:UPD 14-04-09 23:20 OP:nd   STATUS:               ID:20140323195024 L   I
 OLDACT:UP  14-03-23 20:23 OP:fm   STATUS:               ID:20140323194818     3
 2014-03-23-1948-18M.COL___244                                                 6
 STAT SP IPHASW D HRMM SECON CODA AMPLIT PERI AZIMU VELO AIN AR TRES W  DIS CAZ7
 RUS  HZ EP   1   1950 49.40                             144    0.14 7  103 170 
 RUS  HZ I        1951  8.12         5.0 2.96            101            103 170 
 RUS  HN ES   1   1951  8.27                             144   -0.09 7  103 170 
 PTB  HZ EP   1   1950 50.82                             135   -0.49 7  137 258 
 PTB  HZ I        1951 10.99         8.5 2.48            100            137 258 
 PTB  HN ES   1   1951 11.81                             135   -0.21 7  137 258 
 SPBC HN ES   2   1951 15.74                             131    0.38 5  158 216 
 NOR  HE ES   1   1951 27.81                             121    0.34 6  227 233 
 SML  HN ES   1   1951 29.85                             119    0.31 6  238 338 
                                                                                
