 2013  523 1016 19.3 L   6.785 -73.185148.0  RSN  7 0.4 1.5LRSN                1
 GAP=175        1.11       6.0     7.0  8.0  0.1791E+02  0.1472E+02  0.4962E+01E
 Epicentro: LOS SANTOS - SANTANDER                                             3
 ACTION:UPD 13-06-20 09:52 OP:ep   STATUS:               ID:20130523101619 L   I
 2013-05-23-1010-00M.COL___259                                                 6
 STAT SP IPHASW D HRMM SECON CODA AMPLIT PERI AZIMU VELO AIN AR TRES W  DIS CAZ7
 BAR2 SZ EP       1016 39.24                             172    0.0510 21.4 179 
 BAR2 SZ ES       1016 53.73                             172   -0.9510 21.4 179 
 BAR2 SZ I        1016 55.36         6.1 0.24            165           21.4 179 
 GIR2 SZ ES       1016 55.37                             167    0.5010 32.4 358 
 BRR  HZ EP       1016 41.12                             154    0.5610 68.2 301 
 BRR  HN ES       1016 57.32                             154    0.2010 68.2 301 
 BRR  HZ I        1017  2.04         4.9 0.16            147           68.2 301 
 RUS  HZ EP       1016 43.12                             145   -0.1010 99.4 173 
 RUS  HE ES       1017  2.11                             145    0.2610 99.4 173 
 RUS  HZ I        1017  2.99         3.5 0.26            144           99.4 173 
 PTB  HZ EP       1016 45.88                             133   -0.19 9  143 259 
 PTB  HN ES       1017  6.83                             133   -0.10 9  143 259 
 PTB  HZ I        1017 14.12         5.4 0.28            129            143 259 
 ZAR  HN ES   1   1017 16.79                             123    0.07 6  201 293 
 ZAR  HZ I        1017 25.17         3.1 0.17            121            201 293 
 SML  HN ES   1   1017 23.87                             118   -0.82 6  243 336 
                                                                                
