 2017  123 1211 53.8 L   6.797 -73.178146.6  RSN  7 0.4 1.7LRSN                1
 GAP=133        0.98       4.0     4.3  6.5  0.1556E+01  0.5108E+01  0.6335E+01E
 Epicentro: LOS SANTOS - SANTANDER                                             3
 ACTION:UPD 17-05-22 16:02 OP:jn   STATUS:               ID:20170123121153 L   I
 OLDACT:UP  17-01-23 21:35 OP:dnl  STATUS:               ID:20170123120749     3
 OLDACT:REG 17-01-23 20:21 OP:dnl  STATUS:               ID:20170123120749     3
 2017-01-23-1208-00M.COL___343                                                 6
 STAT SP IPHASW D HRMM SECON CODA AMPLIT PERI AZIMU VELO AIN AR TRES W  DIS CAZ7
 BAR2 EZ EP       1212 13.35                             171   -0.1610 22.7 181 
 BAR2 EZ ES       1212 28.33                             171   -0.5610 22.7 181 
 BAR2 EZ I        1212 29.53        10.4 0.24            170           22.7 181 
 BRR  HZ EP       1212 15.31                             154    0.4410 68.2 300 
 BRR  HN ES       1212 32.10                             154    0.7910 68.2 300 
 BRR  HZ I        1212 32.11        13.7 0.42            152           68.2 300 
 PAM  EZ EP       1212 16.26                             150    0.0110 79.9  41 
 PAM  EN ES       1212 33.52                             150   -0.2510 79.9  41 
 PAM  EZ I        1212 35.50        11.6 0.48            152           79.9  41 
 RUS  HZ EP       1212 17.49                             144   -0.1410  101 174 
 RUS  HN ES       1212 36.67                             144    0.4510  101 174 
 RUS  HZ I        1212 37.07         5.5 0.24            144            101 174 
 PTB  HZ EP       1212 20.39                             133   -0.12 9  144 259 
 PTB  HN ES       1212 40.97                             133   -0.38 9  144 259 
 PTB  HZ I        1212 44.00         4.0 0.16            132            144 259 
 ZAR  HN ES       1212 50.75                             123   -0.31 9  201 293 
 ZAR  HZ I        1212 57.54         4.6 0.34            122            201 293 
 CHI  HZ EP       1212 31.62                             117    0.21 8  247 194 
 CHI  HE ES       1213  0.65                             117   -0.10 8  247 194 
 CHI  HZ I        1213  4.57         2.6 0.52            117            247 194 
                                                                                
