 2014 1123 1325 16.1 L   6.829 -73.102151.4  RSN 12 0.4 1.8LRSN                1
 GAP=188        0.99       3.3     4.5  5.6 -0.5314E-01  0.5990E+01  0.5220E+01E
 Epicentro: LOS SANTOS - SANTANDER                                             3
 ACTION:UPD 14-12-19 15:46 OP:nd   STATUS:               ID:20141123132516 L   I
 OLDACT:DUP 14-11-23 23:34 OP:fm   STATUS:               ID:20141123131748d    3
 2014-11-23-1317-47M.COL___297                                                 6
 STAT SP IPHASW D HRMM SECON CODA AMPLIT PERI AZIMU VELO AIN AR TRES W  DIS CAZ7
 BAR2 SZ EP       1325 36.70                             169    0.2210 27.6 199 
 BAR2 SZ ES       1325 52.32                             169   -0.0610 27.6 199 
 BAR2 SZ I        1325 54.57        11.6 0.30            167           27.6 199 
 BRR  HZ EP       1325 38.63                             153    0.6310 74.1 295 
 BRR  HN ES       1325 55.90                             153    0.8110 74.1 295 
 BRR  HZ I        1325 58.81        10.5 0.44            150           74.1 295 
 RUS  HZ EP       1325 40.37                             144   -0.2310  104 179 
 RUS  HN ES       1325 59.52                             144   -0.2010  104 179 
 RUS  HZ I        1326  1.15         3.0 0.12            146            104 179 
 PTB  HZ EP       1325 43.40                             132   -0.59 9  153 258 
 PTB  HN ES       1326  5.15                             132   -0.61 9  153 258 
 PTB  HZ I        1326 10.71         8.2 0.16            132            153 258 
 OCA  HN ES       1326  6.33                             131   -0.52 9  158 351 
 OCA  HZ I        1326 13.19         6.8 0.32            133            158 351 
 SPBC HZ EP       1325 45.52                             129   -0.01 9  169 220 
 SPBC HE ES       1326  8.61                             129    0.11 9  169 220 
 SPBC HZ I        1326 13.83        13.1 0.24            130            169 220 
 ZAR  HN ES       1326 15.10                             123    0.01 8  207 291 
 ZAR  HZ I        1326 21.25         8.1 0.28            123            207 291 
 NOR  HZ EP       1325 52.96                             119    0.21 8  240 235 
 NOR  HE ES       1326 20.67                             119   -0.68 8  240 235 
 NOR  HZ I        1326 24.57         4.5 0.34            120            240 235 
 CHI  HZ EP       1325 54.71                             118    0.15 8  253 196 
 CHI  HN ES       1326 24.38                             118   -0.20 8  253 196 
 CHI  HZ I        1326 32.98         2.4 0.64            119            253 196 
 GUY2CHZ EP       1326  0.15                             113   -0.45 7  307 235 
 GUY2CHN ES       1326 35.36                             113    0.04 7  307 235 
 GUY2CHZ I        1326 43.79         4.9 0.74                           307 235 
 RREF HZ EP       1326  3.45                             111    0.33 7  327 230 
 RREF HN ES       1326 40.41                             111    0.60 7  327 230 
 RREF HZ I        1326 48.65         3.3 0.50            112            327 230 
 TOL  SZ EP       1326  5.67                             110    0.46 6  349 225 
 TOL  SN ES       1326 43.83                             110    0.30 6  349 225 
 TOL  SZ I        1326 50.90         7.6 0.36            111            349 225 
                                                                                
