 2016  523 1812 46.0 L   6.793 -73.161142.0  RSN  9 0.5 2.0LRSN                1
 GAP=135        1.06       4.5     4.5  7.5 -0.3891E+01  0.1139E+02 -0.1612E+01E
 Epicentro: LOS SANTOS - SANTANDER                                             3
 ACTION:UPD 16-08-18 17:48 OP:cam  STATUS:               ID:20160523181246 L   I
 OLDACT:REG 16-05-23 21:07 OP:dnl  STATUS:               ID:20160523180746     3
 2016-05-23-1807-46M.COL___298                                                 6
 STAT SP IPHASW D HRMM SECON CODA AMPLIT PERI AZIMU VELO AIN AR TRES W  DIS CAZ7
 BAR2 EZ EP     C 1813  5.08                             171   -0.1010 22.3 186 
 BAR2 EZ ES       1813 19.78                             171   -0.3410 22.3 186 
 BAR2 EZ I        1813 20.94        19.8 0.32            169           22.3 186 
 BRR  HZ EP       1813  6.84                             152    0.1410 70.1 300 
 BRR  HE ES       1813 23.75                             152    0.9110 70.1 300 
 BRR  HZ I        1813 27.59        19.1 0.12            148           70.1 300 
 PAM  EZ EP     D 1813  8.01                             150    0.0710 79.1  40 
 PAM  EN ES       1813 24.70                             150   -0.3410 79.1  40 
 PAM  EZ I        1813 26.17        11.0 0.34            153           79.1  40 
 RUS  HZ EP   2   1813  9.79                             143    0.44 5 99.9 175 
 RUS  HN ES       1813 27.93                             143    0.3810 99.9 175 
 RUS  HZ I        1813 29.20        15.6 0.20            146           99.9 175 
 PTB  HZ EP       1813 11.69                             132   -0.83 9  146 259 
 PTB  HN ES       1813 32.43                             132   -0.76 9  146 259 
 PTB  HZ I        1813 38.15         5.8 0.09            130            146 259 
 SPBC HZ EP   2   1813 14.53                             129    0.46 5  161 219 
 SPBC HN ES       1813 35.99                             129    0.04 9  161 219 
 SPBC HZ I        1813 39.79        15.4 0.30            129            161 219 
 ZAR  HZ EP   2   1813 18.51                             122    0.41 4  203 293 
 ZAR  HE ES       1813 43.27                             122    0.16 9  203 293 
 ZAR  HZ I        1813 48.65        16.6 0.32            121            203 293 
 NOR  HZ EP   3   1813 21.89                             118    0.55 2  233 234 
 NOR  HE ES       1813 49.10                             118    0.22 8  233 234 
 NOR  HZ I        1813 54.94         6.7 0.20            118            233 234 
 URE  HZ EP   2   1813 27.33                             113    0.56 4  283 292 
 URE  HN ES   4   1813 56.58                             113   -1.97 0  283 292 
 URE  HZ I        1814  9.11        10.4 0.18            113            283 292 
                                                                                
