 2013  623 1614 26.3 L   6.802 -73.177153.7  RSN  6 0.3 1.8LRSN                1
 GAP=198        0.62       3.9     4.7  5.0  0.6244E+01 -0.6858E+00 -0.5018E+01E
 Epicentro: LOS SANTOS - SANTANDER                                             3
 ACTION:UPD 14-01-08 09:56 OP:ep   STATUS:               ID:20130623161426 L   I
 OLDACT:REG 13-06-23 15:45 OP:cam  STATUS:               ID:20130623160959     3
 2013-06-23-1609-59M.COL___267                                                 6
 STAT SP IPHASW D HRMM SECON CODA AMPLIT PERI AZIMU VELO AIN AR TRES W  DIS CAZ7
 BAR2 SZ EP       1614 46.73                             171   -0.1510 23.2 181 
 BAR2 SZ ES   1   1615  2.72                             171   -0.22 7 23.2 181 
 BAR2 SZ I        1615  7.42         7.3 0.25            170           23.2 181 
 BRR  HZ IP     D 1614 48.35                             155    0.2110 68.0 300 
 BRR  HN ES       1615  5.42                             155    0.2410 68.0 300 
 BRR  HZ I        1615  8.55        10.3 0.44            144           68.0 300 
 RUS  HZ EP   1   1614 51.41                             145    0.54 7  101 174 
 RUS  HZ I        1614 52.06         2.0 0.22            142            101 174 
 RUS  HN ES   1   1615  9.90                             145   -0.14 7  101 174 
 PTB  HZ EP       1614 53.40                             135   -0.23 9  144 258 
 PTB  HN ES       1615 14.79                             135   -0.15 9  144 258 
 PTB  HZ I        1615 17.81         8.5 0.28            125            144 258 
 OCA  HN ES   4   1615 15.89                             131   -1.82 0  160 354 
 ZAR  HZ EP   1   1614 59.31                             125    0.37 6  201 292 
 ZAR  HZ I        1615 30.99        13.5 0.46            116            201 292 
 SML  HZ EP   1   1615  2.71                             119   -0.50 6  242 336 
 SML  HN ES   1   1615 31.91                             119   -0.08 6  242 336 
 SML  HZ I        1615 38.66        11.2 0.10            112            242 336 
                                                                                
