 2017 1223 1339 55.4 L   6.812 -73.179142.3  RSN  4 0.3 1.7LRSN                1
 GAP=249        0.73       5.2     5.0  6.4  0.5195E+01  0.8505E+01 -0.5291E+01E
 Epicentro: ZAPATOCA - SANTANDER                                               3
 ACTION:UPD 18-01-04 13:23 OP:rebc STATUS:               ID:20171223133955 L   I
 OLDACT:REG 17-12-23 20:36 OP:dani STATUS:               ID:20171223133028     3
 2017-12-23-1338-00M.COL___457                                                 6
 STAT SP IPHASW D HRMM SECON CODA AMPLIT PERI AZIMU VELO AIN AR TRES W  DIS CAZ7
 BAR2 EZ EP       1340 14.53                             170   -0.0910 24.3 181 
 BAR2 EZ ES       1340 29.68                             170    0.0610 24.3 181 
 BAR2 EZ I        1340 30.51        11.5 0.28            167           24.3 181 
 PTB  HZ EP       1340 21.36                             132   -0.41 9  144 258 
 PTB  HN ES       1340 41.94                             132   -0.41 9  144 258 
 PTB  HZ I        1340 45.97         2.7 0.20            130            144 258 
 SPBC HZ EP       1340 23.49                             128   -0.02 9  162 218 
 SPBC HN ES       1340 45.82                             128    0.38 9  162 218 
 SPBC HZ I        1340 50.60         8.8 0.20            128            162 218 
 ZAR  HZ EP       1340 27.57                             122    0.37 9  200 292 
 ZAR  HN ES       1340 52.26                             122    0.24 9  200 292 
 ZAR  HZ I        1340 58.28         4.7 0.15            122            200 292 
                                                                                
