 2016  923 1939  8.1 L   6.787 -73.129148.0  RSN 13 0.4 2.2LRSN                1
 GAP=139        0.97       2.8     3.9  5.1 -0.1718E+01  0.4797E+01  0.1301E+01E
 Epicentro: LOS SANTOS - SANTANDER                                             3
 ACTION:UPD 17-08-17 21:15 OP:lp   STATUS:               ID:20160923193908 L   I
 OLDACT:UP  16-09-24 00:15 OP:edw  STATUS:               ID:20160923193739     3
 OLDACT:REG 16-09-23 21:02 OP:ar   STATUS:               ID:20160923193739     3
 2016-09-23-1938-00M.COL___324                                                 6
 STAT SP IPHASW D HRMM SECON CODA AMPLIT PERI AZIMU VELO AIN AR TRES W  DIS CAZ7
 BAR2 EZ EP       1939 27.96                             171   -0.0610 22.3 195 
 BAR2 EZ ES       1939 43.87                             171    0.3510 22.3 195 
 BAR2 EZ I        1939 45.56        27.1 0.15            169           22.3 195 
 BRR  HZ EP       1939 29.75                             152    0.0910 73.5 299 
 BRR  HN ES       1939 47.19                             152    0.7510 73.5 299 
 PAM  EZ IP     D 1939 30.64                             151    0.0510 77.4  38 
 PAM  EN ES       1939 47.93                             151   -0.1710 77.4  38 
 PAM  EZ I        1939 50.19        22.5 0.46            156           77.4  38 
 RUS  HZ EP       1939 31.74                             145   -0.2610 99.0 177 
 RUS  HN ES       1939 50.31                             145   -0.3010 99.0 177 
 RUS  HZ I        1939 51.73        12.7 0.38            146           99.0 177 
 PTB  HZ EP       1939 34.82                             132   -0.60 9  149 260 
 PTB  HN ES       1939 55.94                             132   -0.77 9  149 260 
 PTB  HZ I        1939 59.25        17.0 0.14            132            149 260 
 OCA  HZ EP       1939 36.15                             130   -0.63 9  162 353 
 OCA  HN ES       1939 59.34                             130    0.23 9  162 353 
 OCA  HZ I        1940  3.32        38.2 0.16            133            162 353 
 SPBC HZ EP       1939 36.92                             130    0.11 9  163 220 
 SPBC HN ES       1939 59.15                             130   -0.03 9  163 220 
 SPBC HZ I        1940 10.75        47.0 0.20            130            163 220 
 ZAR  HZ EP       1939 41.23                             123    0.27 8  206 292 
 ZAR  HN ES       1940  6.56                             123    0.00 8  206 292 
 ZAR  HZ I        1940 12.14        13.6 0.12            124            206 292 
 NOR  HZ EP       1939 44.13                             119    0.06 8  235 235 
 NOR  HN ES       1940 11.96                             119   -0.13 8  235 235 
 NOR  HZ I        1940 16.15        15.5 0.18            120            235 235 
 CHI  HZ EP       1939 46.20                             118    0.34 8  248 196 
 CHI  HN ES       1940 15.83                             118    0.54 8  248 196 
 CHI  HZ I        1940 21.19         5.5 0.34            119            248 196 
 GUY2CHZ EP   4   1939 54.65                             113    2.73 0  302 235 
 GUY2CHN ES   4   1940 27.61                             113    1.53 0  302 235 
 GUY2CHZ I        1940 34.57         8.2 0.32                           302 235 
 CBOC HZ EP       1939 55.96                             110    0.67 7  335 252 
 SJC  HZ EP   4   1940  2.04                             106   -1.99 0  411 327 
 SJC  HN ES   4   1940 45.15                             106   -2.48 0  411 327 
 SJC  HZ I        1940 47.89         3.4 0.36            108            411 327 
                                                                                
