 2016  423 1611 47.8 L   6.833 -73.131147.1  RSN 19 0.5 2.6LRSN                1
 GAP= 71        1.14       3.2     3.2  5.6 -0.2940E+01  0.3853E+01 -0.5227E+00E
 Epicentro: LOS SANTOS - SANTANDER                                             3
 ACTION:UPD 16-05-05 14:23 OP:rebc STATUS:               ID:20160423161147 L   I
 OLDACT:UP  16-04-24 01:25 OP:ar   STATUS:               ID:20160423160746     3
 OLDACT:REG 16-04-23 21:44 OP:ar   STATUS:               ID:20160423160746     3
 2016-04-23-1607-46M.COL___318                                                 6
 STAT SP IPHASW D HRMM SECON CODA AMPLIT PERI AZIMU VELO AIN AR TRES W  DIS CAZ7
 BAR2 EZ IP     D 1612  7.52                             169   -0.1310 27.3 192 
 BAR2 EZ ES       1612 23.16                             169    0.0210 27.3 192 
 BAR2 EZ I        1612 24.19        54.0 0.32            169           27.3 192 
 PAM  EZ EP       1612 10.41                             152    0.5110 73.5  40 
 PAM  EE ES       1612 27.47                             152    0.3110 73.5  40 
 PAM  EZ I        1612 29.64        42.8 0.20            151           73.5  40 
 RUS  HZ EP       1612 11.48                             143   -0.4310  104 177 
 RUS  HE ES       1612 30.19                             143   -0.5510  104 177 
 RUS  HZ I        1612 31.04        27.3 0.40            142            104 177 
 PTB  HZ EP       1612 15.02                             132   -0.04 9  150 258 
 PTB  HN ES       1612 35.33                             132   -1.01 9  150 258 
 PTB  HZ I        1612 43.80        20.5 0.18            129            150 258 
 TAM  HZ IP     D 1612 15.66                             131    0.16 9  155 106 
 TAM  HZ I        1612 36.42        23.2 0.36            130            155 106 
 TAM  HN ES       1612 37.33                             131    0.20 9  155 106 
 OCA  HZ EP       1612 16.66                             130    0.80 9  157 352 
 OCA  HN ES       1612 37.89                             130    0.12 9  157 352 
 OCA  HZ I        1612 43.50        80.9 0.18            128            157 352 
 SPBC HZ EP       1612 16.45                             129   -0.29 9  167 219 
 SPBC HN ES       1612 39.34                             129    0.00 9  167 219 
 SPBC HZ I        1612 45.65        90.1 0.34            127            167 219 
 ZAR  HZ EP       1612 20.05                             123   -0.27 9  204 291 
 ZAR  HN ES       1612 46.17                             123    0.46 9  204 291 
 ZAR  HZ I        1612 51.91        56.0 0.20            120            204 291 
 NOR  HZ EP       1612 23.36                             118   -0.59 8  238 234 
 NOR  HN ES       1612 52.20                             118    0.03 8  238 234 
 NOR  HZ I        1612 55.34        33.2 0.70            116            238 234 
 ROSC BZ EP       1612 27.26                             116    0.86 8  257 211 
 ROSC BE ES       1612 57.06                             116    0.53 8  257 211 
 ROSC BZ I        1613  1.93        42.8 0.35            115            257 211 
 HEL  HZ EP   4   1612 30.08                             115    1.75 0  275 255 
 HEL  HN ES   4   1613  2.60                             115    2.64 0  275 255 
 HEL  HZ I        1613  6.11        20.6 0.30            113            275 255 
 URE  HZ EP       1612 28.25                             114   -0.68 7  284 291 
 URE  HN ES   4   1612 58.01                             114   -3.01 0  284 291 
 URE  HZ I        1613  8.44        25.2 0.22            112            284 291 
 SOCV BZ EP       1612 29.98                             112   -0.52 7  298  57 
 SOCV BN ES   4   1612 55.68                             112   -8.15 0  298  57 
 GUY2CHZ EP       1612 31.91                             112    0.07 7  305 234 
 GUY2CHE ES   4   1613 10.43                             112    4.23 0  305 234 
 GUY2CHZ I        1613 14.70        25.1 0.60                           305 234 
 VIL  SN ES   4   1613  4.91                             112   -1.05 0  307 192 
 ELA  HZ EP   4   1612 36.97                             110    1.87 0  333 229 
 ELA  HN ES   4   1613 15.37                             110    3.36 0  333 229 
 ELA  HZ I        1613 19.17        17.6 0.40            109            333 229 
 SDV  BZ EP       1612 36.83                             109   -0.62 6  357  50 
 SDV  BN ES   4   1613 14.18                             109   -2.01 0  357  50 
 SDV  BZ I        1613 16.30         6.3 0.35            107            357  50 
 ANIL HZ EP   2   1612 38.90                             108    0.83 3  361 224 
 ANIL HN ES       1613 18.44                             108    1.15 6  361 224 
 ORTC HZ EP   4   1612 41.43                             106   -0.77 0  399 216 
 ORTC HN ES       1613 24.82                             106    0.17 6  399 216 
 ORTC HZ I        1613 29.10        11.3 0.34            105            399 216 
 SJC  HZ EP   4   1612 41.71                             106   -1.41 0  407 326 
 SJC  HN ES   4   1613 22.65                             106   -3.64 0  407 326 
 SJC  HZ I        1613 35.92         5.1 0.28            104            407 326 
 CRJC HZ EP   4   1612 55.02                             104    5.16 0  464   3 
 CRJC HN ES   4   1613 35.46                             104   -2.83 0  464   3 
                                                                                
