 2011 1023 1638 18.4 L   6.731 -73.138143.1  RSN  4 0.1 1.3LRSN                1
 GAP=141        0.35       4.0     6.7  8.2  0.1031E+02 -0.2767E+02 -0.1021E+02E
 Epicentro: JORDAN - SANTANDER                                                 3
 ACTION:UPD 12-07-13 16:05 OP:ep   STATUS:               ID:20111023163818 L   I
 2011-10-23-1635-38S.COL___171                                                 6
 STAT SP IPHASW D HRMM SECON CODA AMPLIT PERI AZIMU VELO AIN AR TRES W  DIS CAZ7
 BAR2 SZ EP   1   1638 37.74                             173    0.11 7 16.0 198 
 BAR2 SZ I        1638 54.07         4.8 0.26                          16.0 198 
 BRR  HZ EP   1   1638 39.68                             150    0.10 7 75.9 303 
 BRR  HZ I        1638 41.22         5.8 0.08                          75.9 303 
 BRR  HN ES   2   1638 55.89                             150   -0.18 5 75.9 303 
 PAM  SZ EP   1   1638 40.69                             149   -0.03 7 83.0  36 
 RUS  HZ EP   1   1638 41.23                             145   -0.15 7 92.9 176 
 RUS  HE ES   2   1638 59.39                             145    0.11 5 92.9 176 
 RUS  HZ I        1639  3.34         2.9 0.49                          92.9 176 
                                                                                
