 2013 1023 1214 13.6 L   6.757 -73.173149.5  RSN  4 0.4 1.4LRSN                1
 GAP=231        0.94       9.9    11.4  8.4  0.7022E+02  0.7753E+01  0.3896E+01E
 Epicentro: VILLANUEVA - SANTANDER                                             3
 ACTION:UPD 13-11-25 09:23 OP:ep   STATUS:               ID:20131023121413 L   I
 OLDACT:UP  13-10-23 15:33 OP:cam  STATUS:               ID:20131023120848     3
 OLDACT:REG 13-10-23 15:00 OP:cam  STATUS:               ID:20131023120848     3
 2013-10-23-1208-48M.COL___219                                                 6
 STAT SP IPHASW D HRMM SECON CODA AMPLIT PERI AZIMU VELO AIN AR TRES W  DIS CAZ7
 BAR2 SZ EP       1214 33.38                             172   -0.2210 18.3 183 
 BAR2 SZ ES       1214 48.59                             172   -0.6010 18.3 183 
 BAR2 SZ I        1214 49.58        10.5 0.22            169           18.3 183 
 BRR  HZ EP       1214 35.18                             153    0.0310 71.0 303 
 BRR  HN ES       1214 52.42                             153    0.4710 71.0 303 
 RUS  HZ EP   1   1214 37.66                             145    0.24 7 96.1 174 
 RUS  HN ES   1   1214 56.68                             145    0.69 7 96.1 174 
 RUS  HZ I        1214 57.01         2.7 0.24            144           96.1 174 
 PTB  HZ EP   1   1214 40.34                             133   -0.20 7  144 260 
 PTB  HE ES   2   1215  1.07                             133   -0.47 5  144 260 
 PTB  HZ I        1215  2.99         3.4 0.60            132            144 260 
                                                                                
