 2015  223 1807 51.8 L   6.805 -73.161149.0  RSN  8 0.4 1.9LRSN                1
 GAP=134        1.09       3.8     5.2  6.7 -0.3904E+01  0.8775E+01 -0.2051E+01E
 Epicentro: LOS SANTOS - SANTANDER                                             3
 ACTION:UPD 15-04-30 21:28 OP:nd   STATUS:               ID:20150223180751 L   I
 OLDACT:DUP 15-02-23 22:19 OP:carl STATUS:               ID:20150223175747d    3
 2015-02-23-1757-45M.COL___287                                                 6
 STAT SP IPHASW D HRMM SECON CODA AMPLIT PERI AZIMU VELO AIN AR TRES W  DIS CAZ7
 BAR2 EZ EP       18 8 11.92                             171    0.0510 23.7 186 
 BAR2 EZ ES       18 8 27.24                             171   -0.2510 23.7 186 
 BAR2 EZ I        18 8 29.71        18.8 0.24            170           23.7 186 
 BRR  HZ EP       18 8 13.87                             154    0.6310 69.4 299 
 BRR  HN ES       18 8 30.73                             154    0.8010 69.4 299 
 BRR  HZ I        18 8 34.74        18.1 0.28            149           69.4 299 
 PAM  SZ EP       18 8 14.77                             151    0.3310 78.1  41 
 PAM  SN ES       18 8 31.91                             151   -0.1610 78.1  41 
 PAM  SZ I        18 8 35.13         9.3 0.50            154           78.1  41 
 RUS  HZ EP       18 8 15.74                             144   -0.2210  101 175 
 RUS  HE ES       18 8 34.56                             144   -0.2210  101 175 
 RUS  HZ I        18 8 35.97         6.3 0.30            148            101 175 
 PTB  HZ EP       18 8 18.20                             133   -0.73 9  146 258 
 PTB  HN ES       18 8 39.52                             133   -0.54 9  146 258 
 PTB  HZ I        18 8 45.83         8.9 0.24            132            146 258 
 SPBC HZ EP       18 8 20.81                             130    0.28 9  163 218 
 SPBC HN ES       18 8 42.92                             130    0.01 9  163 218 
 SPBC HZ I        18 8 47.18        14.0 0.42            130            163 218 
 SML  HZ EP       18 8 28.27                             118   -0.24 8  242 336 
 SML  HN ES       18 8 56.77                             118   -0.35 8  242 336 
 SML  HZ I        18 9  6.54        12.9 0.10            119            242 336 
 TOL  SE ES       18 9 18.43                             110    0.63 7  343 224 
 TOL  SZ I        18 9 28.31         3.4 0.32            111            343 224 
                                                                                
