 2011 1023 1602 50.2 L   7.289 -73.961 24.5  RSN  4 0.3 1.0LRSN                1
 GAP=300        0.57       6.4     7.4  3.4 -0.1128E+02  0.5888E+00 -0.1141E+02E
 Epicentro: PUERTO WILCHES - SANTANDER                                         3
 ACTION:UPD 12-07-13 16:05 OP:ep   STATUS:               ID:20111023160250 L   I
 2011-10-23-1559-52S.COL___171                                                 6
 STAT SP IPHASW D HRMM SECON CODA AMPLIT PERI AZIMU VELO AIN AR TRES W  DIS CAZ7
 BRR  HZ EP   1   16 2 56.53                             123   -0.40 7 34.0 126 
 BRR  HN ES   1   16 3  2.38                             123    0.22 7 34.0 126 
 BRR  HZ I        16 3  3.37        17.3 0.08                          34.0 126 
 GIR2 SZ EP   2   16 3  4.81                              71    0.15 5 87.9 105 
 PAM  SZ EP   1   16 3 11.86                              56    0.11 7  139  88 
 PAM  SN ES   1   16 3 28.42                              56   -0.11 7  139  88 
 RUS  HZ EP   2   16 3 17.85                              56    0.72 4  182 148 
 RUS  HN ES   2   16 3 37.71                              56   -0.40 4  182 148 
 RUS  HZ I        16 3 41.00         1.0 0.39                           182 148 
                                                                                
