 2014 1123 1043 39.2 L   6.822 -73.149141.7  RSN 20 0.5 2.2LRSN                1
 GAP= 70        1.16       3.1     3.1  5.5 -0.9776E+00  0.4694E+01  0.3130E+01E
 Epicentro: LOS SANTOS - SANTANDER                                             3
 ACTION:UPD 14-12-19 15:46 OP:nd   STATUS:               ID:20141123104339 L   I
 OLDACT:REG 14-11-23 20:20 OP:fm   STATUS:               ID:20141123103747     3
 2014-11-23-1037-47M.COL___297                                                 6
 STAT SP IPHASW D HRMM SECON CODA AMPLIT PERI AZIMU VELO AIN AR TRES W  DIS CAZ7
 BAR2 SZ EP       1043 58.56                             169    0.1710 25.7 188 
 BAR2 SZ ES       1044 13.32                             169   -0.0410 25.7 188 
 BAR2 SZ I        1044 15.58        18.1 0.36            168           25.7 188 
 BRR  HZ IP     C 1044  0.27                             152    0.4410 69.8 297 
 BRR  HN ES       1044 16.88                             152    0.9610 69.8 297 
 BRR  HZ I        1044 22.45        25.1 0.14            149           69.8 297 
 PAM  SZ EP     D 1044  1.43                             150    0.5510 75.7  41 
 PAM  SN ES       1044 17.80                             150    0.0010 75.7  41 
 PAM  SZ I        1044 18.87        27.6 0.24            154           75.7  41 
 RUS  HZ EP       1044  2.09                             142   -0.6410  103 176 
 RUS  HE ES       1044 20.60                             142   -0.4910  103 176 
 RUS  HZ I        1044 22.76        13.6 0.26            144            103 176 
 PTB  HZ EP       1044  5.29                             131   -0.56 9  148 258 
 PTB  HN ES       1044 26.04                             131   -0.60 9  148 258 
 PTB  HZ I        1044 31.34        17.1 0.30            130            148 258 
 TAM  HZ EP       1044  6.86                             129    0.22 9  156 106 
 TAM  HE ES       1044 28.54                             129    0.49 9  156 106 
 TAM  HZ I        1044 29.34        17.8 0.64            134            156 106 
 OCA  HZ EP       1044  6.39                             129   -0.57 9  158 353 
 OCA  HE ES       1044 27.67                             129   -0.95 9  158 353 
 OCA  HZ I        1044 33.09        11.5 0.20            130            158 353 
 SPBC HZ EP       1044  7.86                             128    0.31 9  165 218 
 SPBC HN ES       1044 29.22                             128   -0.44 9  165 218 
 SPBC HZ I        1044 36.08        26.0 0.20            128            165 218 
 ZAR  HZ EP       1044 11.27                             122    0.01 9  203 292 
 ZAR  HN ES       1044 36.50                             122    0.24 9  203 292 
 ZAR  HZ I        1044 42.71        28.9 0.28            121            203 292 
 NOR  HZ EP       1044 14.97                             117    0.15 8  236 234 
 NOR  HN ES       1044 42.16                             117   -0.44 8  236 234 
 NOR  HZ I        1044 47.54        14.9 0.18            118            236 234 
 CHI  HZ EP       1044 17.20                             116    0.28 8  251 195 
 CHI  HN ES       1044 46.30                             116   -0.04 8  251 195 
 CHI  HZ I        1044 51.17         5.5 0.26            117            251 195 
 ROSC BZ EP   4   1044 14.23                             116   -3.08 0  255 211 
 ROSC BN ES   4   1044 49.36                             116    2.33 0  255 211 
 ROSC BZ I        1044 54.62        12.5 0.45            116            255 211 
 HEL  HZ EP       1044 19.08                             114   -0.16 8  272 255 
 HEL  HN ES       1044 50.57                             114    0.10 8  272 255 
 HEL  HZ I        1044 58.07        10.7 0.34            114            272 255 
 URE  HZ EP   4   1044 18.67                             113   -1.27 0  283 291 
 URE  HN ES   4   1044 53.13                             113    1.41 0  283 291 
 URE  HZ I        1045  0.81         9.5 0.50            113            283 291 
 GUY2CHZ EP       1044 22.87                             111    0.12 7  302 234 
 GUY2CHE ES   4   1044 58.56                             111    1.84 0  302 234 
 GUY2CHZ I        1045  6.96         9.1 0.40                           302 234 
 RREF HZ EP       1044 25.21                             110   -0.11 7  323 229 
 RREF HN ES   4   1045  4.17                             110    2.88 0  323 229 
 RREF HZ I        1045 11.27         8.2 0.40            111            323 229 
 DBB  SZ ES       1045  4.14                             109    0.83 7  339 274 
 TOL  SZ EP       1044 27.22                             108   -0.24 7  345 224 
 TOL  SN ES       1045  5.19                             108    0.08 7  345 224 
 TOL  SZ I        1045 13.75        20.5 0.74            109            345 224 
 MON  HZ EP   4   1044 24.61                             108   -3.23 0  352 308 
 MON  HE ES   4   1045  3.79                             108   -1.99 0  352 308 
 MON  HZ I        1045 23.93         3.7 0.64            108            352 308 
 SDV  BN ES   4   1045  1.85                             108   -5.88 0  359  51 
 ANIL HN ES       1045  8.99                             108    1.10 6  359 224 
                                                                                
