 2014  723 1852  2.9 L   6.872 -73.158142.0  RSN 16 0.5 2.3LRSN                1
 GAP=131        1.09       3.9     4.5  6.7 -0.8628E+00  0.8968E+01  0.5662E+01E
 Epicentro: ZAPATOCA - SANTANDER                                               3
 ACTION:UPD 15-03-16 20:46 OP:nd   STATUS:               ID:20140723185202 L   I
 OLDACT:REG 14-07-23 21:30 OP:fm   STATUS:               ID:20140723184820     3
 2014-07-23-1848-20M.COL___272                                                 6
 STAT SP IPHASW D HRMM SECON CODA AMPLIT PERI AZIMU VELO AIN AR TRES W  DIS CAZ7
 BAR2 SZ EP       1852 22.19                             167   -0.1010 31.0 185 
 BAR2 SZ ES   1   1852 37.60                             167    0.21 7 31.0 185 
 BAR2 SZ I        1852 38.36        38.3 0.16            165           31.0 185 
 BRR  HZ EP       1852 23.65                             154    0.2410 66.6 293 
 BRR  HE ES       1852 40.05                             154    0.6710 66.6 293 
 BRR  HZ I        1852 42.69        39.4 0.26            150           66.6 293 
 PAM  SZ EP       1852 24.67                             152    0.2310 72.4  44 
 PAM  SN ES       1852 41.51                             152    0.2810 72.4  44 
 PAM  SZ I        1852 43.58        61.4 0.36            157           72.4  44 
 RUS  HZ EP       1852 26.78                             141   -0.1310  109 176 
 RUS  HN ES   1   1852 44.81                             141   -0.81 7  109 176 
 PTB  HZ EP       1852 29.03                             131   -0.60 9  148 256 
 PTB  HN ES       1852 50.12                             131   -0.34 9  148 256 
 PTB  HZ I        1852 51.30        34.7 0.28            130            148 256 
 OCA  HN ES       1852 51.13                             131   -0.33 9  152 353 
 OCA  HZ I        1852 55.69        19.8 0.36            132            152 353 
 ZAR  HZ EP       1852 34.53                             122   -0.17 9  200 290 
 ZAR  HN ES       1852 59.12                             122   -0.37 9  200 290 
 ZAR  HZ I        1853  6.21        31.1 0.24            122            200 290 
 SML  HZ EP   1   1852 37.90                             118   -0.60 6  236 335 
 SML  HN ES   4   1853  4.70                             118   -1.55 0  236 335 
 SML  HZ I        1853  7.26        14.9 0.22            118            236 335 
 NOR  HZ EP       1852 38.51                             117   -0.32 8  238 233 
 NOR  HE ES   4   1853  6.11                             117   -0.73 0  238 233 
 NOR  HZ I        1853 11.33        17.9 0.18            117            238 233 
 CHI  HN ES   1   1853 10.86                             116   -0.23 6  256 194 
 CHI  HZ I        1853 14.83         9.1 0.40            116            256 194 
 HEL  HZ EP   4   1852 44.30                             114    1.26 0  273 254 
 HEL  HN ES   1   1853 15.60                             114    1.28 6  273 254 
 HEL  HZ I        1853 23.59         8.9 0.40            114            273 254 
 GUY2CHZ EP   1   1852 47.81                             112    1.04 5  305 233 
 GUY2CHN ES   4   1853 26.63                             112    5.67 0  305 233 
 GUY2CHZ I        1853 28.89        10.4 0.30                           305 233 
 RREF HZ EP   4   1852 51.22                             110    1.83 0  326 228 
 RREF HN ES   4   1853 27.96                             110    2.33 0  326 228 
 RREF HZ I        1853 37.68         7.3 0.46            110            326 228 
 DBB  SZ EP   4   1852 51.85                             109    1.81 0  338 273 
 DBB  SZ ES   4   1853 23.58                             109   -3.21 0  338 273 
 TOL  SZ EP   1   1852 52.86                             108    1.28 5  348 224 
 TOL  SE ES   4   1853 32.71                             108    3.17 0  348 224 
 PRA  HN ES   1   1853 39.97                             106    0.70 4  398 209 
 PRA  HZ I        1853 42.39         8.5 0.54            106            398 209 
 SJC  HZ EP   4   1852 55.58                             106   -1.92 0  402 326 
 SJC  HN ES   4   1853 35.86                             106   -4.21 0  402 326 
 SJC  HZ I        1853 40.25         4.9 0.52            106            402 326 
                                                                                
