 2017  523 1857 14.7 L   6.815 -73.143150.0  RSN 15 0.4 2.4LRSN                1
 GAP=112        1.01       3.4     3.4  6.3  0.1937E+01  0.5019E+01  0.4236E+01E
 Epicentro: LOS SANTOS - SANTANDER                                             3
 ACTION:UPD 17-06-16 13:38 OP:jn   STATUS:               ID:20170523185714 L   I
 OLDACT:UP  17-05-23 22:20 OP:dnl  STATUS:               ID:20170523184746d    3
 OLDACT:UP  17-05-23 22:20 OP:dnl  STATUS:               ID:20170523184746d    3
 OLDACT:UP  17-05-23 22:19 OP:dnl  STATUS:               ID:20170523184746d    3
 OLDACT:DUP 17-05-23 22:08 OP:dnl  STATUS:               ID:20170523184746d    3
 2017-05-23-1848-00M.COL___347                                                 6
 STAT SP IPHASW D HRMM SECON CODA AMPLIT PERI AZIMU VELO AIN AR TRES W  DIS CAZ7
 BRR  HZ IP     C 1857 36.40                             154    0.1410 70.7 297 
 BRR  HN ES       1857 53.83                             154    0.7410 70.7 297 
 BRR  HZ I        1857 57.11        27.3 0.28            151           70.7 297 
 PAM  EZ EP       1857 37.36                             152    0.1010 75.9  40 
 PAM  EN ES       1857 54.78                             152   -0.0910 75.9  40 
 PAM  EZ I        1857 56.92        56.5 0.42            160           75.9  40 
 RUS  HZ EP       1857 38.50                             144   -0.4710  102 176 
 RUS  HE ES       1857 57.45                             144   -0.4610  102 176 
 RUS  HZ I        1857 58.10        21.3 0.42            143            102 176 
 PTB  HZ EP       1857 41.32                             133   -0.73 9  148 258 
 PTB  HN ES       1858  2.57                             133   -0.83 9  148 258 
 PTB  HZ I        1858 10.16        48.1 0.48            131            148 258 
 SPBC HZ EP       1857 43.66                             130    0.01 9  165 219 
 SPBC HE ES       1858  6.34                             130    0.10 9  165 219 
 SPBC HZ I        1858 11.90        51.8 0.34            129            165 219 
 YPLC HZ EP     D 1857 44.83                             128   -0.08 9  178 152 
 YPLC HE ES       1858  9.16                             128    0.67 9  178 152 
 YPLC HZ I        1858 15.77        17.2 0.24            129            178 152 
 ZAR  HZ EP       1857 47.15                             124   -0.22 9  204 292 
 ZAR  HE ES       1858 13.10                             124    0.24 9  204 292 
 ZAR  HZ I        1858 19.02        37.9 0.36            124            204 292 
 TABC EZ EP   4   1857 52.23                             120    1.38 0  232 211 
 TABC EZ ES   4   1858 22.99                             120    3.92 0  232 211 
 TABC EZ I        1858 24.00        24.3 0.52            120            232 211 
 NOR  HZ EP       1857 50.90                             119    0.11 8  236 234 
 NOR  HE ES       1858 19.58                             119    0.63 8  236 234 
 NOR  HZ I        1858 24.21        30.3 0.34            119            236 234 
 CHI  HZ EP   2   1857 52.88                             118    0.08 4  250 195 
 CHI  HN ES       1858 22.72                             118    0.19 8  250 195 
 CHI  HZ I        1858 30.44        10.7 0.40            118            250 195 
 HEL  HZ EP   4   1857 57.38                             116    2.19 0  273 255 
 HEL  HN ES   4   1858 24.48                             116   -2.30 0  273 255 
 HEL  HZ I        1858 35.45        23.8 0.40            116            273 255 
 CBOC HZ EP   2   1858  2.70                             111    0.84 3  334 252 
 CBOC HN ES   4   1858 40.77                             111    2.10 0  334 252 
 CBOC HZ I        1858 50.66         6.5 0.40            111            334 252 
 DBB  EZ EP   2   1858  1.85                             110   -0.50 3  340 274 
 DBB  EN ES       1858 39.79                             110    0.26 7  340 274 
 DBB  EZ I        1858 48.66         5.7 0.18            111            340 274 
 ORTC HZ EP   2   1858  9.47                             107    0.55 3  397 216 
 ORTC HN ES   4   1858 53.10                             107    1.86 0  397 216 
 ORTC HZ I        1858 58.72         5.6 0.38            108            397 216 
 SJC  HZ EP   4   1858  8.38                             107   -1.85 0  408 327 
 SJC  HN ES   4   1858 49.85                             107   -3.72 0  408 327 
 SJC  HZ I        1858 54.17        11.7 0.42            108            408 327 
                                                                                
