 2013  323 1849 29.5 L   6.840 -73.145147.5  RSN 25 0.5 3.8LRSN 3.8WRSN        1
 SPEC AVERAGE  MO 14.7 ST 26.2 OM  3.1 f0 2.46 R0.7165 AL 2.09 WI 28.7 MW  3.8 3
 SPEC SD       MO  0.1 ST 56.4 OM  0.2 f0 1.16 R0.3131 AL      WI      MW  0.1 3
 GAP= 67        1.08       2.4     3.0  4.4 -0.5536E-01  0.3087E+01  0.5964E+00E
 Epicentro: LOS SANTOS - SANTANDER                                             3
 SPEC URE HH N MO 14.7 ST 22.8 OM  2.8 f0 3.21 R0.4579 AL 1.98 WI 38.3 MW  3.7 3
 SPEC URE HH N T185037 K 0.000 GD  318 VS 4.20 DE 3.20 Q0300.0 QA 0.60 VS 4.20 3
 SPEC ZAR HH N MO 14.8 ST 10.8 OM  3.0 f0 2.32 R0.6336 AL 0.99 WI 23.7 MW  3.8 3
 SPEC ZAR HH N T185024 K 0.000 GD  250 VS 4.20 DE 3.20 Q0300.0 QA 0.60 VS 4.20 3
 SPEC PRA HH N MO 14.8 ST 10.7 OM  2.8 f0 2.27 R0.6476 AL 2.06 WI 39.4 MW  3.8 3
 SPEC PRA HH N T1851 0 K 0.000 GD  422 VS 4.20 DE 3.20 Q0300.0 QA 0.60 VS 4.20 3
 SPEC ROSCBH Z MO 14.8 ST  3.0 OM  2.9 f0 1.54 R0.9545 AL 2.47 WI 21.3 MW  3.8 3
 SPEC ROSCBH Z T185036 K 0.000 GD  296 VS 4.20 DE 3.20 Q0300.0 QA 0.60 VS 4.20 3
 SPEC NOR HH N MO 14.9 ST225.0 OM  3.1 f0 5.71 R0.2574 AL 3.46 WI 40.3 MW  3.9 3
 SPEC NOR HH N T185030 K 0.000 GD  279 VS 4.20 DE 3.20 Q0300.0 QA 0.60 VS 4.20 3
 SPEC OCA HH Z MO 14.6 ST  4.3 OM  2.9 f0 1.94 R0.7577 AL 1.71 WI 34.1 MW  3.7 3
 SPEC OCA HH Z T185017 K 0.000 GD  214 VS 4.20 DE 3.20 Q0300.0 QA 0.60 VS 4.20 3
 SPEC PTB HH N MO 14.5 ST  8.8 OM  2.8 f0 2.68 R0.5485 AL 1.87 WI 33.1 MW  3.6 3
 SPEC PTB HH N T185012 K 0.000 GD  209 VS 4.20 DE 3.20 Q0300.0 QA 0.60 VS 4.20 3
 SPEC RUS HH N MO 14.5 ST  1.8 OM  2.8 f0 1.66 R0.8855 AL 1.45 WI 12.8 MW  3.6 3
 SPEC RUS HH N T185010 K 0.000 GD  181 VS 4.20 DE 3.20 Q0300.0 QA 0.60 VS 4.20 3
 SPEC PAM SH N MO 14.9 ST0.831 OM  3.3 f00.902 R1.6297 AL 1.75 WI 18.5 MW  3.9 3
 SPEC PAM SH N T1850 6 K 0.000 GD  165 VS 4.20 DE 3.20 Q0300.0 QA 0.60 VS 4.20 3
 SPEC HEL HH N MO 14.8 ST  6.3 OM  2.9 f0 1.95 R0.7538 AL 2.25 WI 41.5 MW  3.8 3
 SPEC HEL HH N T185034 K 0.000 GD  310 VS 4.20 DE 3.20 Q0300.0 QA 0.60 VS 4.20 3
 SPEC CHI HH N MO 14.8 ST  8.4 OM  2.9 f0 2.19 R0.6712 AL 2.09 WI 32.3 MW  3.8 3
 SPEC CHI HH N T185034 K 0.000 GD  292 VS 4.20 DE 3.20 Q0300.0 QA 0.60 VS 4.20 3
 SPEC CTABSH Z MO 14.9 ST  9.4 OM  3.1 f0 1.99 R0.7387 AL 2.76 WI 21.8 MW  3.9 3
 SPEC CTABSH Z T185034 K 0.000 GD  276 VS 4.20 DE 3.20 Q0300.0 QA 0.60 VS 4.20 3
 SPEC CTAUSH Z MO 14.6 ST  4.3 OM  2.8 f0 1.99 R0.7387 AL 2.13 WI 21.9 MW  3.7 3
 SPEC CTAUSH Z T185030 K 0.000 GD  254 VS 4.20 DE 3.20 Q0300.0 QA 0.60 VS 4.20 3
 SPEC BRR HH N MO 14.7 ST 49.7 OM  3.1 f0 4.13 R0.3559 AL 2.27 WI 22.5 MW  3.7 3
 SPEC BRR HH N T1850 7 K 0.000 GD  162 VS 4.20 DE 3.20 Q0300.0 QA 0.60 VS 4.20 3
 ACTION:UPD 13-04-09 14:04 OP:ep   STATUS:               ID:20130323184929 L   I
 2013-03-23-1846-40M.COL___212                                                 6
 STAT SP IPHASW D HRMM SECON CODA AMPLIT PERI AZIMU VELO AIN AR TRES W  DIS CAZ7
 BAR2 SZ EP       1849 49.62                             169    0.1910 27.7 189 
 BAR2 SZ ES       1850  4.70                             169   -0.2810 27.7 189 
 BRR  HZ EP       1849 51.40                             153    0.6710 69.3 295 
 BRR  HN ES       1850  8.00                             153    0.7110 69.3 295 
 BRR  HN I        1850  8.59      1830.2 0.28            151           69.3 295 
 PAM  SZ EP       1849 52.39                             152    0.6910 74.0  42 
 PAM  SN ES       1850  9.03                             152    0.0110 74.0  42 
 PAM  SN I        1850 10.54       902.4 0.40            154           74.0  42 
 RUS  HZ EP       1849 53.78                             143    0.0410  105 176 
 RUS  HN ES       1850 12.33                             143   -0.3210  105 176 
 RUS  HN I        1850 15.68       449.8 0.34            139            105 176 
 PTB  HZ EP       1849 56.38                             132   -0.32 9  149 257 
 PTB  HN ES       1850 17.13                             132   -0.79 9  149 257 
 PTB  HN I        1850 19.80       502.9 0.18            129            149 257 
 TAM  HZ EP       1849 58.05                             131    0.63 9  156 107 
 TAM  HN ES       1850 18.61                             131   -0.58 9  156 107 
 TAM  HN I        1850 20.37       305.4 0.68            130            156 107 
 OCA  HZ EP       1849 57.55                             131    0.01 9  156 353 
 OCA  HN ES       1850 18.91                             131   -0.50 9  156 353 
 OCA  HN I        1850 22.24      1879.7 0.26            130            156 353 
 ZAR  HZ EP       1850  2.01                             123    0.10 9  203 291 
 ZAR  HN ES       1850 27.87                             123    0.69 9  203 291 
 ZAR  HN I        1850 36.05       737.8 0.16            121            203 291 
 CTAU SZ EP   4   1850  4.59                             123    1.61 0  207 209 
 CTAB SZ EP   4   1850  7.44                             119    1.68 0  234 210 
 NOR  HZ EP       1850  5.84                             118    0.22 8  237 234 
 NOR  HN ES       1850 33.81                             118    0.02 8  237 234 
 NOR  HN I        1850 41.73       789.8 0.16            116            237 234 
 SML  HZ EP       1850  5.59                             118   -0.21 8  240 335 
 SML  HN ES       1850 33.63                             118   -0.48 8  240 335 
 SML  HN I        1850 39.02       834.6 0.10            117            240 335 
 CHI  HZ EP       1850  8.10                             117    0.34 8  253 195 
 CHI  HN ES       1850 37.14                             117   -0.46 8  253 195 
 CHI  HN I        1850 45.45       258.4 0.36            114            253 195 
 ROSC BZ EP   4   1850  9.69                             117    1.56 0  257 211 
 ROSC BN ES   4   1850 40.84                             117    2.57 0  257 211 
 ROSC BZ I        1850 45.19       294.6 0.32            114            257 211 
 HEL  HZ EP       1850  9.84                             115   -0.10 8  273 255 
 HEL  HN ES       1850 41.93                             115    0.45 8  273 255 
 HEL  HN I        1850 48.47       243.0 0.32            113            273 255 
 URE  HZ EP       1850  9.68                             114   -0.81 7  282 291 
 URE  HN ES   4   1850 41.16                             114   -1.30 0  282 291 
 URE  HN I        1850 51.26       447.6 0.26            112            282 291 
 VIL  SZ EP       1850 13.42                             112   -0.07 7  308 191 
 VIL  SN ES   4   1850 46.35                             112   -1.45 0  308 191 
 VIL  SN I        1850 59.17       481.8 0.48            110            308 191 
 DBB  SZ EP       1850 17.22                             110    0.19 7  339 274 
 COD  HZ EP       1850 16.92                             109   -0.52 7  344 355 
 COD  HN ES       1850 55.01                             109    0.17 7  344 355 
 COD  HN I        1851  0.38        76.6 0.54            108            344 355 
 PRA  HZ EP       1850 23.25                             107   -0.29 6  396 209 
 PRA  HN ES       1851  5.33                             107   -0.35 6  396 209 
 PRA  HN I        1851 12.76       133.3 0.30            105            396 209 
 SJA  SZ EP       1850 25.97                             106    1.35 6  404 193 
 SJC  HZ EP       1850 23.45                             106   -1.25 6  406 327 
 SJC  HN ES   4   1851  4.59                             106   -3.16 0  406 327 
 SJC  HN I        1851  5.53       182.9 0.48            105            406 327 
 YOT  HZ EP       1850 32.49                             103   -0.46 5  475 228 
 GUA  SZ EP       1850 32.89                             103   -0.33 5  478 173 
 GUA  SN I        1851 26.26       320.4 0.46            102            478 173 
 SMAR HZ EP       1850 35.19                             103    0.28 4  493 346 
 SMAR HN ES   4   1851 22.24                             103   -3.69 0  493 346 
 SMAR HN I        1851 23.73        58.9 0.18            102            493 346 
 MARA HZ EP       1850 41.07                             101    0.07 4  541 215 
 SOTA HZ EP       1850 54.87                              99    0.88 2  647 217 
                                                                                
