 2017  323 1108 22.2 L   6.795 -73.160137.8  RSN  5 0.3 1.6LRSN                1
 GAP=146        0.76       6.0     3.6  5.6 -0.4553E+01  0.6192E+01 -0.2714E+01E
 Epicentro: LOS SANTOS - SANTANDER                                             3
 ACTION:UPD 17-05-25 18:44 OP:jn   STATUS:               ID:20170323110822 L   I
 OLDACT:REG 17-03-23 19:59 OP:dani STATUS:               ID:20170323105742     3
 2017-03-23-1058-00M.COL___382                                                 6
 STAT SP IPHASW D HRMM SECON CODA AMPLIT PERI AZIMU VELO AIN AR TRES W  DIS CAZ7
 BAR2 EZ EP       11 8 40.80                             170   -0.0510 22.6 186 
 BAR2 EZ ES       11 8 55.67                             170    0.2610 22.6 186 
 BAR2 EZ I        11 8 57.22         9.0 0.20            174           22.6 186 
 BRR  HZ EP       11 8 42.75                             151    0.3310 70.0 300 
 BRR  HN ES       11 8 58.35                             151    0.1510 70.0 300 
 BRR  HZ I        11 9  1.90        15.0 0.36            149           70.0 300 
 PAM  EZ EP       11 8 43.73                             149    0.0710 78.8  40 
 PAM  EN ES       11 9  0.03                             149   -0.3710 78.8  40 
 PAM  EZ I        11 9  2.68         6.3 0.46            149           78.8  40 
 PTB  HZ EP       11 8 47.87                             130   -0.50 9  146 259 
 PTB  HN ES       11 9  8.58                             130   -0.20 9  146 259 
 PTB  HZ I        11 9 10.61         3.4 0.34            132            146 259 
 ZAR  HZ EP       11 8 54.46                             121    0.46 9  203 292 
 ZAR  HE ES       11 9 18.64                             121   -0.16 9  203 292 
 ZAR  HZ I        11 9 24.94         2.3 0.18            121            203 292 
                                                                                
