 2017 1023 1512 27.7 L   6.791 -73.111146.4  RSN  7 0.3 1.8LRSN                1
 GAP=141        0.67       3.4     3.3  4.3 -0.2681E+01  0.3164E+01  0.2754E+01E
 Epicentro: LOS SANTOS - SANTANDER                                             3
 ACTION:UPD 17-11-07 19:35 OP:rebc STATUS:               ID:20171023151227 L   I
 OLDACT:REG 17-10-23 21:05 OP:dani STATUS:               ID:20171023150648     3
 2017-10-23-1508-00M.COL___452                                                 6
 STAT SP IPHASW D HRMM SECON CODA AMPLIT PERI AZIMU VELO AIN AR TRES W  DIS CAZ7
 BAR2 EZ EP     C 1512 47.34                             170   -0.0410 23.3 200 
 BAR2 EZ ES       1513  2.52                             170   -0.2310 23.3 200 
 BAR2 EZ I        1513  5.55        10.6 0.28            170           23.3 200 
 BRR  HZ EP       1512 49.13                             151    0.0210 75.0 298 
 BRR  HN ES       1513  6.36                             151    0.5310 75.0 298 
 BRR  HZ I        1513 13.28        19.2 0.31            151           75.0 298 
 PAM  EZ EP       1512 49.95                             151    0.0810 75.8  37 
 PAM  EN ES       1513  6.92                             151   -0.2510 75.8  37 
 PAM  EZ I        1513  8.70         8.6 0.22            155           75.8  37 
 RUS  HZ EP       1512 51.42                             144    0.0210 99.4 178 
 RUS  HE ES       1513 10.08                             144    0.1710 99.4 178 
 RUS  HZ I        1513 12.28         8.9 0.31            148           99.4 178 
 PTB  HZ EP       1512 54.60                             131   -0.42 9  151 259 
 PTB  HE ES       1513 16.16                             131   -0.18 9  151 259 
 PTB  HZ I        1513 18.01         9.9 0.20            133            151 259 
 SPBC HZ EP       1512 56.61                             129    0.23 9  165 220 
 NOR  HZ EP       1513  4.00                             118    0.29 8  237 235 
 NOR  HN ES       1513 31.56                             118   -0.26 8  237 235 
 NOR  HZ I        1513 34.99         7.3 0.16            121            237 235 
                                                                                
