 2012 1123 1413 47.1 L   6.784 -73.192143.0  RSN  6 0.3 1.9LRSN                1
 GAP=132        0.64       3.9     4.9  5.5 -0.5815E+01  0.6033E+01  0.1362E+01E
 Epicentro: ZAPATOCA - SANTANDER                                               3
 ACTION:UPD 12-12-05 15:35 OP:}ep  STATUS:               ID:20121123141347 L   I
 2012-11-23-1410-00M.COL___233                                                 6
 STAT SP IPHASW D HRMM SECON CODA AMPLIT PERI AZIMU VELO AIN AR TRES W  DIS CAZ7
 BAR2 SZ EP       1414  6.46                             171    0.0810 21.2 177 
 BAR2 SZ ES       1414 21.38                             171   -0.0210 21.2 177 
 BAR2 SZ I        1414 23.80        22.0 0.28                          21.2 177 
 GIR2 SZ EP       1414  6.70                             166    0.2010 32.6 360 
 PAM  SZ EP   1   1414  9.26                             149   -0.07 7 82.1  42 
 PAM  SE ES   1   1414 26.26                             149   -0.40 7 82.1  42 
 PAM  SZ I        1414 28.71         6.8 0.39                          82.1  42 
 RUS  HZ EP   1   1414 10.61                             144    0.10 7 99.3 173 
 RUS  HN ES   1   1414 29.13                             144    0.38 7 99.3 173 
 RUS  HN I        1414 30.43        19.4 0.19                          99.3 173 
 PTB  HZ EP   1   1414 13.17                             132   -0.20 7  142 259 
 PTB  HE ES   1   1414 33.92                             132    0.07 7  142 259 
 PTB  HZ I        1414 36.29        10.1 0.12                           142 259 
 CHI  HZ EP   1   1414 24.68                             117    0.34 6  246 194 
 CHI  HN ES   1   1414 52.46                             117   -0.90 6  246 194 
                                                                                
