 2013  723 1901 22.6 L   6.765 -73.130141.7  RSN  6 0.4 2.2LRSN                1
 GAP=236        0.89       6.3     6.3  8.3  0.1642E+02  0.1562E+02  0.3265E+01E
 Epicentro: LOS SANTOS - SANTANDER                                             3
 ACTION:UPD 13-08-12 10:39 OP:ep   STATUS:               ID:20130723190122 L   I
 OLDACT:REG 13-07-23 16:31 OP:mh   STATUS:               ID:20130723190000     3
 2013-07-23-1900-00M.COL___263                                                 6
 STAT SP IPHASW D HRMM SECON CODA AMPLIT PERI AZIMU VELO AIN AR TRES W  DIS CAZ7
 BAR2 SZ EP       19 1 41.51                             172   -0.2010 19.9 197 
 BAR2 SZ ES   1   19 1 56.49                             172   -0.09 7 19.9 197 
 BAR2 SZ I        19 1 58.06        18.1 0.18            169           19.9 197 
 BRR  HZ EP   1   19 1 43.92                             151    0.38 7 74.6 301 
 BRR  HN ES   1   19 2  0.56                             151    0.71 7 74.6 301 
 BRR  HN I        19 2  1.54        28.8 0.44            148           74.6 301 
 RUS  HZ EP   1   19 1 46.05                             144    0.35 7 96.6 177 
 RUS  HN ES       19 2  3.49                             144   -0.1910 96.6 177 
 RUS  HN I        19 2  5.47        12.7 0.18            146           96.6 177 
 PTB  HZ EP   1   19 1 48.84                             131   -0.52 7  149 260 
 PTB  HN ES   1   19 2  9.61                             131   -0.60 7  149 260 
 PTB  HN I        19 2 15.08        23.9 0.28            130            149 260 
 ZAR  HE ES   1   19 2 20.00                             121   -0.49 6  207 293 
 ZAR  HE I        19 2 26.04        26.1 0.40            121            207 293 
 NOR  HZ EP   1   19 1 58.25                             118    0.21 6  234 235 
 NOR  HN ES   1   19 2 26.45                             118    0.80 6  234 235 
 NOR  HN I        19 2 27.31        17.3 0.16            118            234 235 
                                                                                
