 2013  323 1924  5.5 L   6.466 -73.782 83.7  RSN  6 0.4 2.0LRSN                1
 GAP=183        1.09       7.1     4.1  9.8  0.2679E+01  0.1508E+02  0.8553E+01E
 Epicentro: SANTA HELENA DEL OPON - SANTANDER                                  3
 ACTION:UPD 13-04-09 14:04 OP:ep   STATUS:               ID:20130323192405 L   I
 2013-03-23-1920-00M.COL___245                                                 6
 STAT SP IPHASW D HRMM SECON CODA AMPLIT PERI AZIMU VELO AIN AR TRES W  DIS CAZ7
 BAR2 SZ EP       1924 20.76                             138    0.3210 67.8  78 
 BAR2 SZ ES       1924 32.39                             138    0.2810 67.8  78 
 BAR2 SZ I        1924 32.98        76.0 0.26            142           67.8  78 
 BRR  HZ EP       1924 19.79                             136   -0.6210 71.3   6 
 BRR  HN ES       1924 31.91                             136   -0.1510 71.3   6 
 BRR  HN I        1924 40.19        41.6 0.16            136           71.3   6 
 PTB  HZ EP       1924 20.31                             134   -0.4410 75.0 276 
 PTB  HN ES       1924 32.61                             134   -0.0610 75.0 276 
 PTB  HN I        1924 34.93        26.5 0.34            136           75.0 276 
 PAM  SZ EP   4   1924 30.23                             114    0.70 0  154  51 
 PAM  SN ES   4   1924 45.51                             114   -2.78 0  154  51 
 PAM  SN I        1924 51.36        10.8 0.20            117            154  51 
 ZAR  HZ EP       1924 29.83                             112   -0.29 9  164 314 
 ZAR  HN ES       1924 50.13                             112    0.78 9  164 314 
 ZAR  HN I        1924 52.53        22.8 0.10            114            164 314 
 HEL  HZ EP   1   1924 34.84                             108    0.63 6  196 261 
 HEL  HN ES   4   1924 59.68                             108    3.06 0  196 261 
 HEL  HN I        1925  2.60         8.5 0.30            111            196 261 
                                                                                
