 2013  523 1558  4.0 L   6.759 -73.127143.7  RSN  8 0.4 1.8LRSN                1
 GAP=141        0.88       4.3     4.3  6.0 -0.1897E+00  0.4483E+01  0.1219E+01E
 Epicentro: LOS SANTOS - SANTANDER                                             3
 ACTION:UPD 13-06-20 09:53 OP:ep   STATUS:               ID:20130523155804 L   I
 2013-05-23-1550-00M.COL___259                                                 6
 STAT SP IPHASW D HRMM SECON CODA AMPLIT PERI AZIMU VELO AIN AR TRES W  DIS CAZ7
 BAR2 SZ EP       1558 23.44                             172    0.1210 19.4 198 
 BAR2 SZ ES       1558 38.44                             172    0.0610 19.4 198 
 BAR2 SZ I        1558 40.97         8.7 0.10            170           19.4 198 
 GIR2 SZ EP       1558 23.41                             165   -0.1710 36.1 348 
 GIR2 SZ ES   1   1558 38.33                             165   -0.51 7 36.1 348 
 BRR  HZ EP       1558 25.24                             151    0.0610 75.2 301 
 BRR  HN ES       1558 42.06                             151    0.3810 75.2 301 
 BRR  HZ I        1558 43.09        15.6 0.13            152           75.2 301 
 PAM  SZ EP       1558 26.35                             150    0.2010 79.7  36 
 PAM  SN ES   1   1558 43.32                             150   -0.10 7 79.7  36 
 PAM  SZ I        1558 45.15        11.8 0.20            153           79.7  36 
 RUS  HZ EP       1558 27.46                             145    0.2310 95.9 177 
 RUS  HN ES       1558 45.38                             145    0.0510 95.9 177 
 RUS  HZ I        1558 47.30         8.1 0.33            145           95.9 177 
 PTB  HZ EP       1558 30.15                             131   -0.78 9  149 261 
 PTB  HN ES   1   1558 51.25                             131   -0.67 7  149 261 
 PTB  HZ I        1558 53.64         8.0 0.26            132            149 261 
 ZAR  HN ES   1   1559  2.93                             121    0.73 6  208 293 
 NOR  HE ES   1   1559  7.57                             118    0.35 6  234 236 
 NOR  HZ I        1559 12.56         7.1 0.16            119            234 236 
                                                                                
