 2014  423 1527 15.9 L   6.714 -73.418130.7  RSN  9 0.5 2.3LRSN                1
 GAP=154        1.10       3.1     4.5  7.4 -0.8932E+00  0.4079E+01 -0.2616E+01E
 Epicentro: EL CARMEN DE CHUCURI - SANTANDER                                   3
 ACTION:UPD 14-05-13 23:10 OP:nd   STATUS:               ID:20140423152715 L   I
 OLDACT:REG 14-04-23 20:50 OP:nd   STATUS:               ID:20140423152044     3
 2014-04-23-1520-44M.COL___247                                                 6
 STAT SP IPHASW D HRMM SECON CODA AMPLIT PERI AZIMU VELO AIN AR TRES W  DIS CAZ7
 BRR  HZ EP       1527 34.94                             156    0.4410 54.2 323 
 BRR  HN ES       1527 49.71                             156    0.7010 54.2 323 
 BRR  HZ I        1527 53.03        32.7 0.26            154           54.2 323 
 RUS  HZ EP       1527 38.18                             141    0.1610 98.1 158 
 RUS  HN ES       1527 55.01                             141   -0.2610 98.1 158 
 PTB  HZ EP       1527 38.30                             136   -0.5410  116 260 
 PTB  HN ES       1527 56.37                             136   -0.3610  116 260 
 PTB  HZ I        1528  0.86        24.9 0.46            136            116 260 
 SPBC HZ EP       1527 41.09                             131    0.23 9  138 212 
 SPBC HN ES       1528  0.21                             131   -0.13 9  138 212 
 SPBC HZ I        1528  4.61        19.4 0.26            133            138 212 
 OCA  HZ EP   2   1527 44.51                             124    0.56 5  169   4 
 OCA  HN ES       1528  5.10                             124   -0.73 9  169   4 
 OCA  HZ I        1528  7.95        27.9 0.26            127            169   4 
 ZAR  HZ EP       1527 45.35                             122    0.38 9  181 298 
 ZAR  HN ES       1528  8.29                             122    0.64 9  181 298 
 ZAR  HZ I        1528 12.18        34.7 0.48            123            181 298 
 NOR  HZ EP       1527 47.82                             119    0.26 9  205 232 
 NOR  HN ES       1528 11.84                             119   -0.42 9  205 232 
 NOR  HZ I        1528 14.79        11.6 0.16            121            205 232 
 HEL  HZ EP   4   1527 53.94                             115    2.08 0  241 256 
 HEL  HN ES       1528 19.80                             115   -0.10 8  241 256 
 HEL  HZ I        1528 26.99        11.5 0.24            116            241 256 
 SML  HZ EP       1527 51.65                             114    0.14 8  242 343 
 SML  HN ES       1528 18.50                             114   -0.79 8  242 343 
 SML  HZ I        1528 24.90        20.9 0.10            116            242 343 
                                                                                
