 2017  123 1430 18.4 L   6.810 -73.144149.8  RSN  5 0.3 1.2LRSN                1
 GAP=136        0.77       4.6     4.2  7.0 -0.3283E+01  0.3525E+01  0.1776E+01E
 Epicentro: LOS SANTOS - SANTANDER                                             3
 ACTION:UPD 17-05-22 16:02 OP:jn   STATUS:               ID:20170123143018 L   I
 OLDACT:REG 17-01-23 20:24 OP:dnl  STATUS:               ID:20170123142745     3
 2017-01-23-1428-00M.COL___348                                                 6
 STAT SP IPHASW D HRMM SECON CODA AMPLIT PERI AZIMU VELO AIN AR TRES W  DIS CAZ7
 BAR2 EZ EP       1430 38.56                             170    0.0110 24.4 190 
 BRR  HZ EP       1430 40.35                             153    0.3710 70.8 298 
 BRR  HN ES       1430 56.97                             153    0.1810 70.8 298 
 BRR  HZ I        1431 10.68         6.2 0.24            150           70.8 298 
 PAM  EZ EP       1430 41.29                             152    0.2810 76.4  40 
 PAM  EE ES       1430 58.24                             152   -0.3810 76.4  40 
 PAM  EZ I        1430 58.63         1.9 0.54            158           76.4  40 
 RUS  HZ EP   2   1430 42.71                             144    0.07 5  102 176 
 RUS  HE ES       1431  1.59                             144    0.0510  102 176 
 RUS  HZ I        1431  3.08         1.4 0.16            152            102 176 
 PTB  HZ EP       1430 45.14                             133   -0.61 9  148 258 
 PTB  HE ES       1431  7.06                             133   -0.00 9  148 258 
 PTB  HZ I        1431 11.31         2.9 0.44            135            148 258 
                                                                                
