 2017  123 1019 14.5 L   6.795 -73.091142.6  RSN  4 0.3 1.0LRSN                1
 GAP=144        0.68       3.9     6.3  6.5  0.1146E+01 -0.1229E+02  0.3034E+00E
 Epicentro: LOS SANTOS - SANTANDER                                             3
 ACTION:UPD 17-05-22 16:02 OP:jn   STATUS:               ID:20170123101914 L   I
 OLDACT:DUP 17-01-23 20:45 OP:dnl  STATUS:               ID:20170123101741d    3
 OLDACT:UP  17-01-23 20:44 OP:dnl  STATUS:               ID:20170123101740     3
 OLDACT:REG 17-01-23 20:17 OP:dnl  STATUS:               ID:20170123101740     3
 2017-01-23-1018-00M.COL___337                                                 6
 STAT SP IPHASW D HRMM SECON CODA AMPLIT PERI AZIMU VELO AIN AR TRES W  DIS CAZ7
 BAR2 EZ EP   2   1019 33.45                             170   -0.30 5 24.6 204 
 BAR2 EZ ES       1019 48.93                             170    0.1410 24.6 204 
 BAR2 EZ I        1019 51.41         4.2 0.34            172           24.6 204 
 PAM  EZ EP     C 1019 36.62                             151    0.4610 74.1  36 
 PAM  EN ES   1   1019 52.62                             151   -0.45 7 74.1  36 
 PAM  EZ I        1019 58.07         1.4 0.42            149           74.1  36 
 BRR  HZ EP   2   1019 35.54                             150   -0.07 5 76.8 297 
 BRR  HE ES       1019 52.04                             150   -0.0610 76.8 297 
 RUS  HZ EP       1019 37.55                             143   -0.3010 99.8 180 
 RUS  HE ES       1019 56.20                             143    0.1110 99.8 180 
 RUS  HZ I        1019 57.64         1.4 0.34            147           99.8 180 
                                                                                
