 2010  423 1554 14.2 L   6.790 -73.086144.4  RSN  7 0.5 2.3LRSN                1
 GAP=179        1.06       5.5    10.7  9.0 -0.2203E+02 -0.2952E+02  0.8906E+01E
 Epicentro: LOS SANTOS - SANTANDER                                             3
 ACTION:UPD 10-08-24 10:00 OP:vdl  STATUS:               ID:20100423155423 L   I
 2010-04-23-1548-51S.COL___104                                                 6
 STAT SP IPHASW D HRMM SECON CODA AMPLIT PERI AZIMU VELO AIN AR TRES W  DIS CAZ7
 BAR2 SZ EP       1554 33.52                             170    -0.210   24 206 
 BAR2 SZ ES   1   1554 48.44                             170    -0.5 7   24 206 
 BRR  HZ EP       1554 35.85                             150     0.210   78 297 
 BRR  HN ES       1554 52.78                             150     0.510   78 297 
 BRR  HZ I        1554 54.66        34.0 0.12                            78 297 
 BRI  SZ EP   1   1554 38.58                             141     0.7 7  107  17 
 BRI  SZ ES   2   1554 56.68                             141     0.3 5  107  17 
 GUE  SZ EP       1554 38.95                             139     0.110  116   9 
 OCA  SZ EP       1554 41.92                             129    -0.7 9  162 351 
 OCA  SZ ES   2   1555  4.14                             129    -0.7 5  162 351 
 OCA  SZ I        1555  7.48        43.3 0.75                           162 351 
 CHI  HZ EP   1   1554 52.13                             117     0.2 6  249 197 
 CHI  HZ I        1554 54.34         6.5 0.48                           249 197 
 CHI  HE ES   1   1555 21.11                             117    -0.2 6  249 197 
 RREF BZ EP   2   1555  1.85                             110     1.0 3  326 230 
 RREF BE ES   2   1555 36.20                             110    -0.9 3  326 230 
 RREF BZ I        1555 45.68         9.0 0.29                           326 230 
                                                                                
