 2011  123 1206 17.5 L   5.877 -73.750109.2  RSN  4 0.2 1.4LRSN                1
 GAP=166        0.48       6.1     3.8  7.6 -0.1699E+02  0.6836E+01 -0.6530E+01E
 Epicentro: JESUS MARIA - SANTANDER                                            3
 ACTION:UP  11-02-08 08:42 OP:pat  STATUS:               ID:20110123120617 L   I
 2011-01-23-1200-00M.COL___139                                                 6
 STAT SP IPHASW D HRMM SECON CODA AMPLIT PERI AZIMU VELO SNR AR TRES W  DIS CAZ7
 RUS  HZ EP   1   12 6 35.74                             144     0.0 8   74  89 
 RUS  HN ES   2   12 6 49.73                             144    -0.2 5   74  89 
 RUS  HZ I        12 6 51.39         2.4 0.08                            74  89 
 BAR2 SZ EP       12 6 37.56                             134     0.010  101  38 
 BAR2 SZ ES   1   12 6 53.35                             134     0.2 7  101  38 
 BAR2 SZ I        12 6 54.77        16.2 0.40                           101  38 
 BTL  SZ EP   1   12 6 39.62                             127    -0.3 7  127  25 
 NOR  SZ EP   1   12 6 40.15                             126     0.3 7  129 255 
 NOR  SN ES   1   12 6 57.24                             126    -0.1 7  129 255 
                                                                                
