 2011  223 1129 12.8 L   6.819 -73.238142.3  RSN  6 0.4 1.8LRSN                1
 GAP=151        0.77       5.2    19.3  6.0 -0.7224E+02  0.3391E+01  0.2866E+01E
 Epicentro: ZAPATOCA - SANTANDER                                               3
 ACTION:UP  11-03-28 15:10 OP:jfem STATUS:               ID:20110223112912 L   I
 2011-02-23-1127-14S.COL___136                                                 6
 STAT SP IPHASW D HRMM SECON CODA AMPLIT PERI AZIMU VELO SNR AR TRES W  DIS CAZ7
 BTL  SZ ES   1   1129 46.64                             174     0.0 7   11 343 
 BAR2 SZ EP       1129 32.02                             170     0.010   26 167 
 BAR2 SZ ES   1   1129 47.44                             170     0.4 7   26 167 
 BAR2 SZ I        1129 48.33        22.0 0.18                            26 167 
 GIR2 SZ EP   2   1129 31.29                             168    -0.7 5   29  10 
 GIR2 SZ ES   3   1129 45.73                             168    -1.2 2   29  10 
 RUS  HZ EP       1129 36.02                             143    -0.410  104 170 
 RUS  HN ES   1   1129 54.75                             143    -0.1 7  104 170 
 RUS  HZ I        1129 55.78        10.4 0.18                           104 170 
 GRA  SZ EP       1129 37.81                             136     0.010  127  22 
 GRA  SZ ES   1   1129 57.75                             136     0.4 7  127  22 
 GRA  SZ I        1129 58.75         8.3 0.55                           127  22 
 CHI  HZ EP       1129 50.42                             117     0.2 8  248 193 
 CHI  HZ I        1129 51.93         3.4 0.21                           248 193 
 CHI  HN ES   1   1130 19.91                             117     0.5 6  248 193 
                                                                                
