 2012  523 1124 29.5 L   6.579 -73.089  7.0  RSN  4 0.4 1.0LRSN                1
 GAP=153        0.95       4.1     4.9 14.4  0.2528E+01 -0.2988E+02  0.1452E+02E
 Epicentro: CURITI - SANTANDER                                                 3
 ACTION:UP  12-07-05 12:07 OP:pat  STATUS:               ID:20120523112429 L   I
 2012-05-23-1120-00M.COL___200                                                 6
 STAT SP IPHASW D HRMM SECON CODA AMPLIT PERI AZIMU VELO SNR AR TRES W  DIS CAZ7
 BAR2 SZ EP   1   1124 32.14                             115     0.1 7   10 278 
 BAR2 SZ ES   1   1124 33.95                             115    -0.1 7   10 278 
 BAR2 SZ I        1124 34.54        53.9 0.15                            10 278 
 RUS  HZ EP   1   1124 42.63                              92     0.5 7   76 180 
 RUS  HZ I        1124 42.80         3.7 0.11                            76 180 
 RUS  HN ES   1   1124 51.43                              92    -0.5 7   76 180 
 PAM  SN ES   2   1124 56.47                              92    -0.5 5   94  27 
 PTB  HZ EP   1   1124 53.61                              91     0.6 7  151 268 
 PTB  HZ I        1124 54.39         3.8 0.14                           151 268 
 PTB  HN ES   1   1125 10.92                              91    -0.5 7  151 268 
                                                                                
