 2011  823 1652  5.6 L   6.824 -73.027150.1  RSN 20 0.5 4.7LRSN                1
 GAP=125        0.80       2.8     4.4  4.9 -0.4853E+01  0.2537E+01 -0.3662E-01E
 Epicentro: CEPITA - SANTANDER                                                 3
 Evento Sentido                                                                3
 FLORIDABLANCA, BUCARAMANGA (SANTANDER), OCANA (NORTE DE SANTANDER), SEGOVIA   3
 (ANTIOQUIA), BOGOTA (CUNDINAMARCA)                                            3
 ACTION:UPD 12-07-13 15:53 OP:ep   STATUS:               ID:20110823165205 L   I
 2011-08-23-1650-32S.COL___157                                                 6
 STAT SP IPHASW D HRMM SECON CODA AMPLIT PERI AZIMU VELO AIN AR TRES W  DIS CAZ7
 BAR2 SZ EP   1   1652 26.29                             168    0.37 8 30.8 214 
 BAR2 SZ ES   1   1652 41.47                             168   -0.30 8 30.8 214 
 BAR2 SZ I        1652 42.88     12026.5 0.40                          30.8 214 
 BRR  HZ EP   1   1652 28.05                             150    0.21 8 81.9 293 
 BRR  HE ES   1   1652 44.79                             150   -0.40 8 81.9 293 
 BRR  HZ I        1652 48.63     15291.7 0.43                          81.9 293 
 RUS  HZ EP   1   1652 30.39                             144    0.43 8  103 183 
 RUS  HE ES   1   1652 48.89                             144   -0.07 8  103 183 
 RUS  HZ I        1652 51.06      2121.5 0.35                           103 183 
 GUE  SZ EP       1652 31.12                             141    0.7710  112   6 
 OCA  SZ EP       1652 34.59                             131    0.39 9  160 348 
 OCA  SZ I        1653  1.04     14861.3 0.26                           160 348 
 NOR  SZ EP       1652 42.10                             118   -0.79 8  247 236 
 CHI  HZ EP   1   1652 44.40                             117    0.19 6  255 198 
 CHI  HE ES   1   1653 13.93                             117   -0.40 6  255 198 
 CHI  HZ I        1653 20.58      2663.2 0.46                           255 198 
 ROSC BN ES   1   1653 15.14                             117   -0.51 6  262 213 
 ROSC BZ I        1653 22.49      6199.8 0.44                           262 213 
 HEL  HZ EP   1   1652 47.17                             114   -0.34 6  285 256 
 HEL  HN ES   1   1653 20.54                             114    0.34 6  285 256 
 HEL  HZ I        1653 24.69      2838.0 0.47                           285 256 
 GUY  SZ EP   1   1652 51.12                             112    0.07 5  316 236 
 GUY  SN ES   1   1653 27.24                             112    0.73 5  316 236 
 RREF HZ EP   1   1652 52.97                             111   -0.29 5  333 231 
 RREF HN ES   1   1653 30.85                             111    0.41 5  333 231 
 RREF HZ I        1653 35.36      1881.1 0.54                           333 231 
 COD  HZ IP     C 1652 53.38                             110   -0.64 7  347 352 
 COD  HN ES   1   1653 31.08                             110   -0.71 5  347 352 
 COD  HZ I        1653 35.98      2158.6 0.27                           347 352 
 SDV  BN ES   1   1653 31.95                             110   -0.62 5  349  49 
 SDV  BZ I        1653 37.35      1241.4 0.56                           349  49 
 DBB  SZ EP   1   1652 54.62                             109   -0.11 5  352 274 
 TOL  SZ EP       1652 55.59                             109    0.28 6  355 226 
 PRA  HZ EP       1652 59.80                             107   -0.50 6  401 211 
 PRA  HN ES   1   1653 42.50                             107   -0.47 4  401 211 
 PRA  HZ I        1653 50.27      5785.4 0.59                           401 211 
 SJA  SZ EP       1653  0.52                             107   -0.44 6  406 195 
 SJA  SZ I        1653 49.79      4144.1 0.43                           406 195 
 GUA  SZ EP   1   1653  9.46                             104    0.45 4  475 175 
 GUA  SZ ES   1   1653 58.90                             104    0.43 4  475 175 
 GUA  SZ I        1654  5.81       152.2 0.33                           475 175 
 HORQ SZ EP   1   1653 17.35                             102   -0.15 3  544 227 
 HORQ SN ES   1   1654 14.38                             102    0.80 3  544 227 
 HORQ SZ I        1654 20.91       277.3 0.58                           544 227 
 POP2 HZ EP   1   1653 27.03                             100    0.08 2  623 221 
                                                                                
