 2013  223 1115 24.3 L   6.807 -73.151146.7  RSN  7 0.3 2.5LRSN                1
 GAP=193        0.79       3.8     5.2  5.5  0.5431E+01  0.2984E+01  0.2151E+01E
 Epicentro: LOS SANTOS - SANTANDER                                             3
 ACTION:UPD 13-03-12 09:35 OP:ep   STATUS:               ID:20130223111524 L   I
 2013-02-23-1110-00M.COL___225                                                 6
 STAT SP IPHASW D HRMM SECON CODA AMPLIT PERI AZIMU VELO AIN AR TRES W  DIS CAZ7
 BAR2 SZ EP       1115 43.81                             170   -0.2010 24.0 188 
 BAR2 SZ ES       1115 59.16                             170   -0.2610 24.0 188 
 BAR2 SZ I        1116  4.27        33.0 0.26            165           24.0 188 
 BRR  HZ EP       1115 45.57                             153    0.1210 70.3 298 
 BRR  HN ES       1116  2.46                             153    0.4710 70.3 298 
 BRR  HN I        1116  3.04        90.5 0.22            150           70.3 298 
 PTB  HZ EP       1115 50.76                             132   -0.50 9  147 258 
 PTB  HN ES       1116 11.97                             132   -0.35 9  147 258 
 PTB  HN I        1116 16.53        55.0 0.48            130            147 258 
 ZAR  HZ EP       1115 56.57                             123   -0.10 9  203 292 
 ZAR  HN ES       1116 22.16                             123    0.21 9  203 292 
 ZAR  HN I        1116 29.13        49.6 0.28            123            203 292 
 CHI  HZ EP       1116  2.32                             117    0.25 8  249 195 
 CHI  HN ES       1116 32.08                             117    0.52 8  249 195 
 CHI  HN I        1116 36.45        10.9 0.32            118            249 195 
 HEL  HZ EP   4   1116  6.28                             115    1.81 0  272 256 
 HEL  HN ES   4   1116 33.02                             115   -2.81 0  272 256 
 HEL  HN I        1116 42.67        14.1 0.44            115            272 256 
 COD  HN ES   1   1116 50.49                             109    0.23 5  347 355 
                                                                                
