 2016  923 1652 28.6 L   6.386 -73.581104.1  RSN  4 0.4 1.7LRSN                1
 GAP=217        0.99       8.2     4.9  9.0  0.6501E+01  0.1909E+02  0.8018E+01E
 Epicentro: SANTA HELENA DEL OPON - SANTANDER                                  3
 ACTION:UPD 17-08-17 21:15 OP:lp   STATUS:               ID:20160923165228 L   I
 OLDACT:UP  16-09-24 00:21 OP:aar  STATUS:               ID:20160923164744     3
 OLDACT:REG 16-09-23 20:56 OP:ar   STATUS:               ID:20160923164744     3
 2016-09-23-1648-00M.COL___330                                                 6
 STAT SP IPHASW D HRMM SECON CODA AMPLIT PERI AZIMU VELO AIN AR TRES W  DIS CAZ7
 BAR2 EZ EP       1652 44.69                             153    0.3510 49.7  63 
 BAR2 EZ ES       1652 56.88                             153    0.2410 49.7  63 
 BAR2 EZ I        1652 58.29        42.7 0.40            160           49.7  63 
 BRR  HZ EP       1652 45.50                             139   -0.6610 81.1 350 
 BRR  HE ES       1652 59.63                             139   -0.2610 81.1 350 
 BRR  HZ I        1653  1.36         4.6 0.14            144           81.1 350 
 PTB  HZ EP       1652 47.57                             133   -0.0710 98.3 280 
 PTB  HE ES       1653  2.36                             133   -0.1710 98.3 280 
 PTB  HZ I        1653  7.06         6.4 0.14            135           98.3 280 
 ZAR  HZ EP       1652 56.77                             114    0.03 9  187 311 
 ZAR  HN ES       1653 19.42                             114    0.71 9  187 311 
 ZAR  HZ I        1653 21.19         7.8 0.32            118            187 311 
                                                                                
