 2013  523 1043 21.7 L   6.764 -73.133149.0  RSN 12 0.4 2.1LRSN                1
 GAP=140        1.02       3.3     4.4  5.4 -0.1705E+01  0.6673E+01  0.1781E+01E
 Epicentro: LOS SANTOS - SANTANDER                                             3
 ACTION:UPD 13-06-20 09:52 OP:ep   STATUS:               ID:20130523104321 L   I
 2013-05-23-1040-00M.COL___259                                                 6
 STAT SP IPHASW D HRMM SECON CODA AMPLIT PERI AZIMU VELO AIN AR TRES W  DIS CAZ7
 BAR2 SZ EP       1043 41.98                             172    0.2910 19.7 196 
 BAR2 SZ I        1043 43.19         8.6 0.30            169           19.7 196 
 BAR2 SZ ES       1043 57.15                             172   -0.1010 19.7 196 
 GIR2 SZ EP       1043 42.06                             166    0.1510 35.5 349 
 GIR2 SZ ES       1043 57.41                             166   -0.2310 35.5 349 
 GIR2 SZ I        1043 59.50        17.3 0.40            165           35.5 349 
 BRR  HZ EP       1043 43.86                             152    0.4410 74.4 301 
 BRR  HE ES       1044  1.25                             152    0.9310 74.4 301 
 BRR  HZ I        1044  5.13        28.9 0.18            149           74.4 301 
 PAM  SZ EP       1043 44.83                             151    0.4010 79.6  37 
 PAM  SN ES   1   1044  1.78                             151   -0.35 7 79.6  37 
 PAM  SZ I        1044  4.27        14.3 0.42            155           79.6  37 
 RUS  HZ EP       1043 45.88                             146    0.3610 96.5 177 
 RUS  HN ES       1044  3.67                             146   -0.4010 96.5 177 
 RUS  HZ I        1044  6.41        11.1 0.18            147           96.5 177 
 PTB  HZ EP       1043 48.51                             133   -0.52 9  148 260 
 PTB  HN ES       1044  9.85                             133   -0.47 9  148 260 
 PTB  HZ I        1044 15.74        27.7 0.38            132            148 260 
 OCA  HN ES       1044 12.70                             130   -0.57 9  164 353 
 ZAR  HN ES   1   1044 20.50                             123    0.11 6  207 293 
 ZAR  HZ I        1044 27.40        20.0 0.32            123            207 293 
 NOR  HZ EP       1043 57.65                             119    0.11 8  234 235 
 NOR  HE ES   1   1044 25.08                             119   -0.38 6  234 235 
 NOR  HZ I        1044 30.19        15.1 0.20            120            234 235 
 SML  HZ EP       1043 58.18                             118   -0.83 8  248 335 
 SML  HN ES   1   1044 28.27                             118    0.20 6  248 335 
 HEL  HZ EP   1   1044  2.34                             115    0.17 6  272 257 
 HEL  HN ES   1   1044 34.14                             115    0.44 6  272 257 
 HEL  HZ I        1044 40.50         8.3 0.28            116            272 257 
 URE  HZ EP   4   1044  6.45                             114    3.17 0  287 293 
 URE  HN ES   4   1044 35.53                             114   -0.16 0  287 293 
 PRA  HZ EP       1044 15.25                             107    0.20 6  389 210 
 PRA  HE ES       1044 56.36                             107   -0.27 6  389 210 
 PRA  HZ I        1044 60.00         6.1 0.26            108            389 210 
                                                                                
