 2016  523 1836 30.5 L   6.804 -73.161142.1  RSN  6 0.3 1.7LRSN                1
 GAP=134        0.75       3.7     3.3  6.4 -0.1913E+01  0.7269E+01 -0.2787E+00E
 Epicentro: LOS SANTOS - SANTANDER                                             3
 ACTION:UPD 16-08-18 17:48 OP:cam  STATUS:               ID:20160523183630 L   I
 OLDACT:REG 16-05-23 21:08 OP:dnl  STATUS:               ID:20160523182746     3
 2016-05-23-1827-46M.COL___296                                                 6
 STAT SP IPHASW D HRMM SECON CODA AMPLIT PERI AZIMU VELO AIN AR TRES W  DIS CAZ7
 BAR2 EZ EP       1836 49.65                             170   -0.0510 23.5 186 
 BAR2 EZ ES       1837  4.14                             170   -0.5410 23.5 186 
 BAR2 EZ I        1837  6.33        20.2 0.28            171           23.5 186 
 PAM  EZ EP       1836 52.66                             150    0.2810 78.1  41 
 PAM  EN ES       1837  9.44                             150    0.0010 78.1  41 
 PAM  EZ I        1837 12.52         6.0 0.19            153           78.1  41 
 RUS  HZ EP       1836 53.76                             143   -0.1810  101 175 
 RUS  HE ES       1837 12.58                             143    0.3510  101 175 
 RUS  HZ I        1837 13.78         5.0 0.36            147            101 175 
 PTB  HZ EP   2   1836 56.59                             131   -0.45 5  146 259 
 PTB  HN ES       1837 18.00                             131    0.26 9  146 259 
 PTB  HZ I        1837 24.21         4.4 0.10            132            146 259 
 ZAR  HN ES       1837 27.65                             122    0.12 9  202 292 
 ZAR  HZ I        1837 33.00         6.7 0.30            122            202 292 
 NOR  HZ EP   2   1837  4.95                             118   -0.96 4  234 234 
 NOR  HN ES       1837 33.64                             118    0.11 8  234 234 
 NOR  HZ I        1837 36.63         4.0 0.24            119            234 234 
                                                                                
