 2015  323 1941  4.5 L   6.811 -73.182142.8  RSN 17 0.5 2.4LRSN                1
 GAP=132        1.12       2.7     3.6  5.5 -0.1302E+01  0.7944E+01 -0.4863E+00E
 Epicentro: ZAPATOCA - SANTANDER                                               3
 ACTION:UPD 15-04-30 16:28 OP:nd   STATUS:               ID:20150323194104 L   I
 OLDACT:REG 15-03-23 21:05 OP:fm   STATUS:               ID:20150323193748     3
 2015-03-23-1937-48M.COL___278                                                 6
 STAT SP IPHASW D HRMM SECON CODA AMPLIT PERI AZIMU VELO AIN AR TRES W  DIS CAZ7
 BAR2 EZ EP       1941 23.90                             170    0.0810 24.2 180 
 BAR2 EZ ES       1941 39.28                             170    0.4210 24.2 180 
 BAR2 EZ I        1941 41.78        41.5 0.16            168           24.2 180 
 BRR  HZ IP     D 1941 25.85                             153    0.7210 67.1 299 
 BRR  HN ES       1941 41.56                             153    0.3710 67.1 299 
 BRR  HZ I        1941 47.01        29.0 0.20            150           67.1 299 
 PAM  SZ EP       1941 26.74                             150    0.2110 79.1  42 
 PAM  SE ES       1941 43.24                             150   -0.4510 79.1  42 
 PAM  SZ I        1941 46.15        15.9 0.18            152           79.1  42 
 RUS  HZ EP       1941 27.80                             143   -0.3010  102 174 
 RUS  HN ES       1941 45.90                             143   -0.5910  102 174 
 RUS  HZ I        1941 47.79        19.9 0.26            141            102 174 
 PTB  HZ EP       1941 30.70                             132   -0.22 9  144 258 
 PTB  HN ES       1941 51.60                             132    0.09 9  144 258 
 PTB  HZ I        1941 57.90        26.0 0.24            129            144 258 
 OCA  HZ EP       1941 32.32                             129   -0.13 9  159 355 
 OCA  HN ES       1941 54.64                             129    0.40 9  159 355 
 OCA  HZ I        1941 59.86        57.2 0.24            128            159 355 
 SPBC HZ EP       1941 32.81                             129    0.16 9  162 218 
 SPBC HE ES       1941 54.18                             129   -0.41 9  162 218 
 SPBC HZ I        1942  1.82        50.4 0.18            126            162 218 
 ZAR  HZ EP       1941 36.32                             122   -0.03 9  200 292 
 ZAR  HN ES       1942  0.53                             122   -0.64 9  200 292 
 ZAR  HZ I        1942  8.41        36.7 0.50            120            200 292 
 NOR  HZ EP       1941 39.78                             118   -0.04 8  232 234 
 NOR  HN ES       1942  6.44                             118   -0.90 8  232 234 
 NOR  HZ I        1942 14.11        19.0 0.18            116            232 234 
 SML  HZ EP       1941 41.00                             117    0.31 8  241 336 
 SML  HE ES       1942  8.44                             117   -0.46 8  241 336 
 SML  HZ I        1942 16.13        28.1 0.30            116            241 336 
 ROSC BN ES       1942 12.08                             116    0.18 8  252 210 
 ROSC BZ I        1942 18.56        25.7 0.50            114            252 210 
 HEL  HZ EP       1941 44.53                             114    0.33 8  269 255 
 HEL  HN ES       1942 16.36                             114    1.22 8  269 255 
 HEL  HZ I        1942 23.53        12.2 0.24            113            269 255 
 URE  HN ES       1942 16.29                             113   -0.26 7  280 292 
 URE  HZ I        1942 27.29        15.7 0.30            112            280 292 
 RREF HZ EP       1941 50.92                             110    0.63 7  320 229 
 RREF HN ES       1942 26.87                             110    0.89 7  320 229 
 RREF HZ I        1942 32.44        12.5 0.26            109            320 229 
 DBB  SZ EP       1941 51.38                             109   -0.04 7  335 274 
 DBB  SZ ES       1942 27.68                             109   -0.31 7  335 274 
 DBB  SZ I        1942 29.78        19.6 0.36            108            335 274 
 MON  HE ES       1942 29.94                             108   -0.81 6  350 309 
 MON  HZ I        1942 35.10         5.3 0.26            107            350 309 
 ORTC HZ EP       1941 57.47                             106   -0.72 6  394 216 
 ORTC HZ I        1942 47.43         7.1 0.38            105            394 216 
                                                                                
