 2015  723 1959 24.4 L   6.789 -73.172146.9  RSN  4 0.2 1.7LRSN                1
 GAP=198        0.55       4.6     5.7  6.9  0.1722E+02 -0.6885E+01 -0.1876E+02E
 Epicentro: LOS SANTOS - SANTANDER                                             3
 ACTION:UPD 15-09-08 21:50 OP:cam  STATUS:               ID:20150723195924 L   I
 OLDACT:REG 15-07-24 02:55 OP:spq  STATUS:               ID:20150723195748     3
 2015-07-23-1957-48M.COL___333                                                 6
 STAT SP IPHASW D HRMM SECON CODA AMPLIT PERI AZIMU VELO AIN AR TRES W  DIS CAZ7
 BAR2 EZ EP       1959 44.08                             171   -0.0910 21.8 183 
 BAR2 EZ ES   1   1959 59.24                             171   -0.32 7 21.8 183 
 BAR2 EZ I        20 0  0.16        10.1 0.24            166           21.8 183 
 RUS  HZ EP   1   1959 48.19                             144   -0.04 7 99.7 174 
 RUS  HN ES       20 0  7.03                             144    0.2410 99.7 174 
 RUS  HZ I        20 0  7.70         5.8 0.28            144           99.7 174 
 ZAR  HN ES       20 0 21.84                             123   -0.06 9  202 293 
 ZAR  HZ I        20 0 29.06         2.8 0.28            121            202 293 
 SML  HZ EP       20 0  0.95                             118   -0.15 8  244 336 
 SML  HN ES   1   20 0 30.24                             118    0.53 6  244 336 
 SML  HZ I        20 0 32.33         6.0 0.26            117            244 336 
                                                                                
