 2010  923 1203 53.5 L   6.754 -73.083147.3  RSN 10 0.3 1.9LRSN                1
 GAP=166        0.71       2.9     5.1  5.3 -0.6780E+01  0.4069E+01 -0.1132E+01E
 Epicentro: LOS SANTOS - SANTANDER                                             3
 ACTION:UP  11-02-18 11:05 OP:tino STATUS:               ID:20100923120353 L   I
 2010-09-23-1200-58S.COL___122                                                 6
 STAT SP IPHASW D HRMM SECON CODA AMPLIT PERI AZIMU VELO SNR AR TRES W  DIS CAZ7
 BAR2 SZ EP       12 4 13.30                             172     0.110   21 212 
 BAR2 SZ ES   1   12 4 28.57                             172    -0.1 7   21 212 
 BAR2 SZ I        12 4 29.91        26.6 0.12                            21 212 
 BRR  HZ EP       12 4 15.16                             150    -0.110   80 299 
 BRR  HE ES   1   12 4 32.49                             150     0.2 7   80 299 
 BRR  HZ I        12 4 34.19        21.1 0.15                            80 299 
 RUS  HZ EP       12 4 17.20                             146     0.210   95 180 
 RUS  HE ES   1   12 4 35.64                             146     0.3 7   95 180 
 RUS  HZ I        12 4 37.04        10.3 0.28                            95 180 
 GUE  SZ EP       12 4 18.81                             139     0.210  120   8 
 GRA  SZ EP       12 4 19.15                             137     0.110  129  14 
 GRA  SZ ES   1   12 4 38.81                             137    -0.3 7  129  14 
 GRA  SZ I        12 4 40.09         5.9 0.52                           129  14 
 OCA  SZ EP       12 4 22.51                             129     0.1 9  166 351 
 OCA  SZ ES   2   12 4 44.72                             129    -0.3 5  166 351 
 NOR  SZ EP       12 4 29.16                             119    -0.4 8  238 237 
 NOR  SE ES   1   12 4 57.45                             119    -0.3 6  238 237 
 CHI  HZ EP   3   12 4 30.16                             118    -0.8 2  246 197 
 CHI  HE ES   1   12 4 59.34                             118    -0.8 6  246 197 
 CHI  HZ I        12 5  6.21         5.1 0.53                           246 197 
 HEL  HZ EP   3   12 4 34.82                             115     0.5 2  278 257 
 HEL  HZ I        12 5 11.43         3.9 0.38                           278 257 
 RREF HZ EP   2   12 4 40.54                             111     0.6 3  324 231 
 RREF HE ES   1   12 5 16.80                             111     0.7 5  324 231 
 RREF HZ I        12 5 24.92         4.7 0.28                           324 231 
                                                                                
