 2010  623 1554 54.8 L   6.103 -73.312159.2  RSN  7 0.4 2.5LRSN                1
 GAP=117        0.72       4.6     7.0  8.1 -0.8703E+01  0.1419E+02 -0.3974E+01E
 Epicentro: GAMBITA - SANTANDER                                                3
 ACTION:UP  10-08-24 10:12 OP:vdl  STATUS:               ID:20100623155454 L   I
 2010-06-23-1552-21S.COL___118                                                 6
 STAT SP IPHASW D HRMM SECON CODA AMPLIT PERI AZIMU VELO SNR AR TRES W  DIS CAZ7
 RUS  HZ EP   1   1555 16.57                             167    -0.1 7   34 133 
 RUS  HZ I        1555 17.25        55.8 0.41                            34 133 
 RUS  HE ES   2   1555 34.05                             167     0.4 5   34 133 
 BAR2 SZ EP   1   1555 16.65                             160    -0.3 7   56  15 
 BAR2 SZ ES   2   1555 33.76                             160    -0.6 5   56  15 
 BRR  HZ EP   1   1555 20.54                             141     0.0 7  120 338 
 BRR  HN ES   2   1555 41.45                             141     0.8 5  120 338 
 BRR  HZ I        1555 44.33        39.9 0.13                           120 338 
 CHI  HZ EP   1   1555 25.55                             131     0.2 7  169 196 
 CHI  HZ I        1555 25.98        25.5 0.38                           169 196 
 CHI  HE ES   2   1555 49.10                             131    -0.1 5  169 196 
 GUE  SZ EP   1   1555 27.30                             127    -0.4 6  196  13 
 GRA  SZ EP   1   1555 29.09                             125     0.7 6  205  16 
 GRA  SZ ES   2   1555 54.35                             125    -0.3 4  205  16 
 HEL  HZ EP   1   1555 32.74                             120    -0.1 6  246 272 
 HEL  HE ES   2   1556  2.31                             120    -0.3 4  246 272 
 HEL  HZ I        1556  9.50        20.0 0.44                           246 272 
                                                                                
