 2015  823 1306 28.5 L   6.812 -73.609105.7  RSN  7 0.3 1.6LRSN                1
 GAP=136        0.68       3.2     3.1  6.0  0.3263E+01  0.1054E+02  0.8020E+01E
 Epicentro: EL CARMEN - SANTANDER                                              3
 ACTION:UPD 15-09-15 23:04 OP:cam  STATUS:               ID:20150823130628 L   I
 OLDACT:REG 15-08-23 20:21 OP:spq  STATUS:               ID:20150823125748     3
 2015-08-23-1257-48M.COL___343                                                 6
 STAT SP IPHASW D HRMM SECON CODA AMPLIT PERI AZIMU VELO AIN AR TRES W  DIS CAZ7
 BRR  HZ EP       13 6 43.05                             160   -0.2810 34.5 341 
 BRR  HN ES       13 6 55.04                             160    0.1110 34.5 341 
 BRR  HZ I        13 6 56.62        11.6 0.12            162           34.5 341 
 BAR2 EZ EP       13 6 45.03                             151    0.4210 53.1 117 
 BAR2 EZ ES   1   13 6 57.50                             151    0.30 7 53.1 117 
 BAR2 EZ I        13 6 58.81        16.5 0.26            157           53.1 117 
 RUS  HZ EP   1   13 6 49.59                             128   -0.48 7  117 150 
 RUS  HE ES       13 7  6.76                             128   -0.1610  117 150 
 RUS  HZ I        13 7  7.37         5.6 0.36            133            117 150 
 SPBC HN ES       13 7  9.43                             123   -0.23 9  138 202 
 SPBC HZ I        13 7 14.49         6.8 0.23            126            138 202 
 ZAR  HN ES   1   13 7 12.82                             119   -0.18 7  157 299 
 ZAR  HZ I        13 7 18.25         5.0 0.21            122            157 299 
 HEL  HZ EP       13 7  1.30                             110    0.01 8  223 252 
 HEL  HN ES       13 7 26.79                             110   -0.11 8  223 252 
 HEL  HZ I        13 7 28.43         6.9 0.52            112            223 252 
 GUY2CHZ EP   1   13 7  6.44                             106    0.52 6  262 228 
 GUY2CHN ES   1   13 7 35.67                             106    0.52 6  262 228 
 GUY2CHZ I        13 7 40.52         3.1 0.70                           262 228 
                                                                                
