 2015 1123 1231 12.7 L   6.827 -73.064149.1  RSN 16 0.6 2.3LRSN                1
 GAP=125        1.23       3.4     3.8  5.9 -0.4179E+01  0.4433E+01  0.5347E+00E
 Epicentro: LOS SANTOS - SANTANDER                                             3
 ACTION:UPD 15-12-28 16:13 OP:cam  STATUS:               ID:20151123123112 L   I
 OLDACT:UP  15-12-01 10:58 OP:ak   STATUS:               ID:20151123123112 L   3
 OLDACT:UP  15-11-23 23:34 OP:ak   STATUS:               ID:20151123122744     3
 OLDACT:REG 15-11-23 21:05 OP:ak   STATUS:               ID:20151123122744     3
 2015-11-23-1227-44M.COL___211                                                 6
 STAT SP IPHASW D HRMM SECON CODA AMPLIT PERI AZIMU VELO AIN AR TRES W  DIS CAZ7
 BAR2 EZ IP     D 1231 33.03                             168    0.1610 29.1 207 
 BAR2 EZ ES       1231 48.67                             168    0.0810 29.1 207 
 BAR2 EZ I        1231 50.74        31.0 0.30            167           29.1 207 
 PAM  EZ EP       1231 35.82                             154    0.9810 69.5  35 
 PAM  EN ES       1231 52.89                             154    0.7910 69.5  35 
 PAM  EZ I        1231 55.29        24.5 0.15            157           69.5  35 
 BRR  HZ EP       1231 34.95                             151    0.3410 78.1 293 
 BRR  HN ES       1231 51.58                             151   -0.1210 78.1 293 
 BRR  HZ I        1231 54.53        20.8 0.16            150           78.1 293 
 RUS  HZ EP       1231 36.86                             144   -0.1310  103 181 
 RUS  HN ES       1231 55.39                             144   -0.5310  103 181 
 OCA  HZ EP   1   1231 41.89                             131    0.76 7  159 350 
 OCA  HN ES       1232  2.80                             131   -0.50 9  159 350 
 OCA  HZ I        1232 11.49        35.5 0.28            132            159 350 
 SPBC HZ EP       1231 42.06                             128   -0.18 9  171 221 
 SPBC HN ES       1232  4.84                             128   -0.42 9  171 221 
 SPBC HZ I        1232  9.90                             129            171 221 
 ZAR  HZ EP       1231 45.72                             122   -0.41 8  211 290 
 ZAR  HN ES       1232 11.65                             122   -0.55 8  211 290 
 ZAR  HZ I        1232 17.55        23.7 0.56            123            211 290 
 NOR  HZ EP       1231 49.17                             118   -0.44 8  244 235 
 NOR  HN ES       1232 17.52                             118   -0.88 8  244 235 
 NOR  HZ I        1232 20.71        16.4 0.24            119            244 235 
 SML  HZ EP   1   1231 50.11                             118    0.45 6  245 333 
 SML  HN ES       1232 17.91                             118   -0.57 8  245 333 
 SML  HZ I        1232 21.69                             119            245 333 
 ROSC BZ EP       1231 51.62                             117   -0.19 8  260 212 
 ROSC BN ES   4   1232 25.60                             117    3.30 0  260 212 
 ROSC BZ I        1232 30.60        23.7 0.40            118            260 212 
 HEL  HZ EP       1231 54.64                             115    0.49 7  282 256 
 HEL  HN ES       1232 27.27                             115    0.80 7  282 256 
 HEL  HZ I        1232 31.69        10.5 0.36            115            282 256 
 SOCV BZ EP       1231 54.48                             113   -0.40 7  292  56 
 SOCV BN ES       1232 26.89                             113   -0.88 7  292  56 
 ELA  HZ EP   4   1232  3.42                             110    2.70 0  338 230 
 ELA  HN ES       1232 38.97                             110    0.81 7  338 230 
 ELA  HZ I        1232 52.75         7.7 0.52            111            338 230 
 CBOC HZ EP       1232  0.97                             110    0.11 7  343 252 
 CBOC HN ES       1232 38.42                             110    0.01 7  343 252 
 MON  HZ EP   9   1232  0.29                             109   -2.17 0  359 307 
 MON  HN ES       1232 39.00                             109   -0.09 6  359 307 
 MON  HZ I        1232 41.32         3.9 0.50            110            359 307 
 ANIL HN ES       1232 44.30                             108    0.96 6  366 225 
                                                                                
