 2012  823 1055  9.3 L   6.770 -73.145147.3  RSN 10 0.3 2.2LRSN                1
 GAP= 97        0.62       3.1     2.3  4.4  0.1660E+00  0.1738E+01  0.2742E+01E
 Epicentro: LOS SANTOS - SANTANDER                                             3
 ACTION:UPD 12-09-10 11:57 OP:ep   STATUS:               ID:20120823105509 L   I
 2012-08-23-1050-00M.COL___217                                                 6
 STAT SP IPHASW D HRMM SECON CODA AMPLIT PERI AZIMU VELO AIN AR TRES W  DIS CAZ7
 BAR2 SZ EP   1   1055 29.05                             172    0.00 7 20.1 192 
 BAR2 SZ ES   1   1055 44.41                             172   -0.05 7 20.1 192 
 BAR2 SZ I        1055 47.27        55.2 0.20                          20.1 192 
 BRR  HZ EP   1   1055 30.90                             152    0.20 7 72.9 301 
 BRR  HZ I        1055 32.82        31.4 0.11                          72.9 301 
 BRR  HN ES   1   1055 48.10                             152    0.69 7 72.9 301 
 PAM  SZ EP   1   1055 31.78                             150   -0.05 7 80.0  38 
 PAM  SZ I        1055 32.03        38.9 0.18                          80.0  38 
 PAM  SN ES   1   1055 49.11                             150   -0.29 7 80.0  38 
 RUS  HZ EP       1055 32.89                             145   -0.0710 97.2 176 
 RUS  HN ES   1   1055 51.26                             145   -0.16 7 97.2 176 
 RUS  HZ I        1055 54.64        14.4 0.34                          97.2 176 
 PTB  HZ EP   1   1055 35.68                             132   -0.65 7  147 260 
 PTB  HN ES   1   1055 56.83                             132   -0.60 7  147 260 
 PTB  HZ I        1055 58.63        16.4 0.28                           147 260 
 TAM  HZ EP       1055 37.15                             131    0.14 9  154 104 
 TAM  HZ I        1055 37.25        26.9 0.11                           154 104 
 TAM  HN ES   1   1055 58.80                             131    0.17 7  154 104 
 ZAR  HZ EP   1   1055 41.60                             122   -0.37 6  205 293 
 ZAR  HN ES   1   1056  7.50                             122    0.03 6  205 293 
 ZAR  HZ I        1056 13.48        17.0 0.34                           205 293 
 NOR  SZ EP   1   1055 45.05                             119    0.14 6  233 235 
 NOR  SN ES   1   1056 12.98                             119    0.29 6  233 235 
 NOR  SZ I        1056 16.81        19.3 0.20                           233 235 
 CHI  HZ EP   1   1055 46.81                             118    0.08 6  245 195 
 CHI  HZ I        1055 49.15         7.6 0.15                           245 195 
 CHI  HN ES   1   1056 15.91                             118   -0.02 6  245 195 
 HEL  HZ EP   1   1055 50.05                             115    0.55 6  271 256 
 HEL  HN ES   1   1056 21.07                             115    0.21 6  271 256 
 HEL  HZ I        1056 27.32         8.3 0.27                           271 256 
                                                                                
