 2016  123 1641 54.5 L   6.808 -73.150138.6  RSN  9 0.3 2.2LRSN                1
 GAP=148        0.81       2.9     3.6  5.7 -0.3087E+01  0.5212E+01  0.3461E+01E
 Epicentro: LOS SANTOS - SANTANDER                                             3
 ACTION:UPD 16-03-09 23:27 OP:cam  STATUS:               ID:20160123164154 L   I
 OLDACT:UP  16-01-24 01:06 OP:ar   STATUS:               ID:20160123163748     3
 OLDACT:REG 16-01-23 22:08 OP:ar   STATUS:               ID:20160123163748     3
 2016-01-23-1637-48M.COL___303                                                 6
 STAT SP IPHASW D HRMM SECON CODA AMPLIT PERI AZIMU VELO AIN AR TRES W  DIS CAZ7
 BAR2 EZ EP       1642 13.24                             170   -0.0710 24.1 188 
 BAR2 EZ ES       1642 27.91                             170   -0.0510 24.1 188 
 BAR2 EZ I        1642 29.02        44.8 0.14            169           24.1 188 
 PAM  EZ EP       1642 16.20                             150    0.2410 77.0  40 
 PAM  EN ES       1642 32.90                             150    0.2210 77.0  40 
 PAM  EZ I        1642 34.99        26.1 0.48            153           77.0  40 
 PTB  HZ EP       1642 20.16                             130   -0.72 9  147 258 
 PTB  HE ES       1642 41.62                             130    0.18 9  147 258 
 PTB  HZ I        1642 46.15        16.8 0.30            130            147 258 
 OCA  HZ EP   2   1642 22.40                             128    0.20 5  159 353 
 OCA  HN ES       1642 43.26                             128   -0.52 9  159 353 
 SPBC HZ EP       1642 22.53                             127    0.01 9  164 219 
 SPBC HN ES       1642 44.16                             127   -0.19 9  164 219 
 SPBC HZ I        1642 46.51        23.4 0.18            128            164 219 
 ZAR  HZ EP   4   1642 29.20                             121    2.77 0  203 292 
 ZAR  HN ES       1642 51.82                             121    0.51 9  203 292 
 ZAR  HZ I        1642 59.08        18.7 0.38            121            203 292 
 NOR  HZ EP       1642 29.77                             117   -0.09 8  235 234 
 NOR  HN ES       1642 57.60                             117    0.18 8  235 234 
 NOR  HZ I        1643  0.16        13.5 0.21            117            235 234 
 CHI  HZ EP       1642 32.47                             115    0.56 8  249 195 
 CHI  HN ES       1643  0.89                             115   -0.19 8  249 195 
 CHI  HZ I        1643  4.31         4.4 0.22            117            249 195 
 SOCV BZ EP   4   1642 35.37                             111   -1.87 0  301  57 
 SOCV BN ES   4   1643  7.09                             111   -3.48 0  301  57 
 PRA  HZ EP   4   1642 49.03                             105    1.17 0  393 209 
 PRA  HE ES   4   1643 27.59                             105   -1.88 0  393 209 
 PRA  HZ I        1643 35.03         5.0 0.26            106            393 209 
                                                                                
