 2016 1223 1053 22.7 L   6.370 -73.601115.0  RSN 10 0.5 1.9LRSN                1
 GAP= 71        1.04       3.0     3.2  6.2 -0.4260E+00  0.5890E+01  0.1065E+01E
 Epicentro: SANTA HELENA DEL OPON - SANTANDER                                  3
 ACTION:UPD 17-01-11 20:18 OP:rebc STATUS:               ID:20161223105322 L   I
 OLDACT:UP  16-12-23 22:06 OP:dani STATUS:               ID:20161223104746d    3
 OLDACT:DUP 16-12-23 22:02 OP:dani STATUS:               ID:20161223104746d    3
 2016-12-23-1048-00M.COL___387                                                 6
 STAT SP IPHASW D HRMM SECON CODA AMPLIT PERI AZIMU VELO AIN AR TRES W  DIS CAZ7
 BAR2 EZ IP     D 1053 39.83                             154    0.0310 52.4  62 
 BAR2 EZ ES       1053 53.39                             154    0.2510 52.4  62 
 BAR2 EZ I        1053 54.05        28.0 0.34            159           52.4  62 
 RUS  HZ EP       1053 41.47                             144   -0.3110 77.9 133 
 RUS  HN ES       1053 56.14                             144   -0.5310 77.9 133 
 RUS  HZ I        1053 59.20        13.2 0.32            149           77.9 133 
 BRR  HZ EP       1053 41.55                             142    0.1410 82.4 351 
 BRR  HN ES       1053 56.81                             142    0.7910 82.4 351 
 BRR  HZ I        1054  3.88        19.2 0.14            144           82.4 351 
 PTB  HZ IP     D 1053 42.37                             137   -0.1810 96.5 281 
 PTB  HE ES       1053 57.50                             137   -0.5510 96.5 281 
 PTB  HZ I        1054  0.65        19.4 0.38            139           96.5 281 
 PAM  EZ EP       1053 47.70                             125   -0.12 9  146  43 
 PAM  HE ES       1054  7.16                             125   -0.26 9  146  43 
 PAM  EZ I        1054  8.65         9.0 0.23            129            146  43 
 NOR  HZ EP       1053 49.31                             120   -0.00 9  166 238 
 NOR  HN ES       1054  9.92                             120   -0.16 9  166 238 
 NOR  HZ I        1054 12.38         9.9 0.52            123            166 238 
 ZAR  HZ EP       1053 52.08                             117    0.70 9  186 312 
 ZAR  HN ES   3   1054 15.35                             117    1.59 2  186 312 
 ZAR  HZ I        1054 21.97        15.9 0.48            120            186 312 
 CHI  HZ EP       1053 52.81                             116    0.17 9  193 184 
 CHI  HN ES       1054 16.80                             116    0.80 9  193 184 
 CHI  HZ I        1054 22.25         3.6 0.62            120            193 184 
 GUY2CHZ EP   9   1053 58.87                             112    1.71 0  233 237 
 GUY2CHN ES       1054 25.76                             111    0.00 8  233 237 
 GUY2CHZ I        1054 32.20         4.8 0.64                           233 237 
 URE  HZ EP       1053 59.57                             108   -0.40 8  262 306 
 URE  HN ES       1054 28.59                             108   -0.47 8  262 306 
                                                                                
