 2017  123 1104 45.6 L   6.804 -73.133144.4  RSN 13 0.4 2.5LRSN                1
 GAP=101        0.89       3.3     2.7  4.8  0.1192E+01  0.3457E+01  0.3350E+01E
 Epicentro: LOS SANTOS - SANTANDER                                             3
 ACTION:UPD 17-05-22 16:02 OP:jn   STATUS:               ID:20170123110445 L   I
 OLDACT:REG 17-01-23 20:19 OP:dnl  STATUS:               ID:20170123105743     3
 2017-01-23-1058-00M.COL___337                                                 6
 STAT SP IPHASW D HRMM SECON CODA AMPLIT PERI AZIMU VELO AIN AR TRES W  DIS CAZ7
 BAR2 EZ IP     D 11 5  4.94                             170   -0.1510 24.1 193 
 BAR2 EZ ES       11 5 19.62                             170   -0.6610 24.1 193 
 BAR2 EZ I        11 5 21.08       107.2 0.18            169           24.1 193 
 BRR  HZ IP     C 11 5  6.70                             152    0.0310 72.2 298 
 BRR  HN ES       11 5 23.63                             152    0.5410 72.2 298 
 BRR  HZ I        11 5 27.23        80.3 0.14            152           72.2 298 
 PAM  EZ EP     C 11 5  7.65                             151    0.0510 76.1  39 
 PAM  EN ES       11 5 24.69                             151   -0.0610 76.1  39 
 PAM  EZ I        11 5 26.64       131.4 0.46            154           76.1  39 
 RUS  HZ EP       11 5  8.91                             143   -0.3410  101 177 
 RUS  HE ES       11 5 27.81                             143    0.1210  101 177 
 RUS  HZ I        11 5 29.05        21.9 0.28            144            101 177 
 PTB  HZ EP       11 5 11.82                             131   -0.78 9  149 259 
 PTB  HE ES       11 5 33.77                             131    0.12 9  149 259 
 PTB  HZ I        11 5 35.84        32.6 0.50            132            149 259 
 TAM  HZ IP     D 11 5 13.29                             130    0.23 9  154 105 
 TAM  HN ES       11 5 34.74                             130    0.27 9  154 105 
 TAM  HZ I        11 5 35.41        14.5 0.18            133            154 105 
 ZAR  HZ EP       11 5 18.10                             122    0.02 9  205 292 
 ZAR  HE ES       11 5 43.97                             122    0.56 9  205 292 
 ZAR  HZ I        11 5 48.47        49.4 0.40            123            205 292 
 CHI  HZ EP       11 5 23.43                             117    0.11 8  249 195 
 CHI  HN ES       11 5 52.93                             117    0.20 8  249 195 
 CHI  HZ I        11 5 56.51         7.6 0.24            118            249 195 
 URE  HZ EP   4   11 5 29.04                             113    2.30 0  285 292 
 URE  HE ES   4   11 5 56.82                             113   -2.00 0  285 292 
 URE  HZ I        11 5 58.44        28.9 0.12            114            285 292 
 PTGC HZ EP   4   11 5 28.33                             111   -1.06 0  309 159 
 PTGC HN ES   4   11 6  1.83                             111   -1.71 0  309 159 
 PTGC HZ I        11 6  4.16        17.1 0.40            112            309 159 
 DBB  EZ EP       11 5 32.93                             109   -0.26 7  341 274 
 DBB  EE ES       11 6  9.76                             109   -0.54 7  341 274 
 DBB  EZ I        11 6 12.21         8.6 0.42            110            341 274 
 ORTC HZ EP       11 5 40.06                             106    0.44 6  397 216 
 ORTC HN ES       11 6 22.31                             106    0.56 6  397 216 
 ORTC HZ I        11 6 28.10         9.1 0.56            107            397 216 
 SJC  HZ EP   4   11 5 39.21                             105   -1.96 0  410 327 
 SJC  HE ES   4   11 6 21.59                             105   -2.92 0  410 327 
 SJC  HZ I        11 6 24.83         9.5 0.56            106            410 327 
                                                                                
