 2017  523 1116 35.6 L   6.738 -73.243152.0  RSN  5 0.2 1.8LRSN                1
 GAP=221        0.49       3.2     3.2  5.3  0.2175E+01  0.6110E+00  0.2819E+01E
 Epicentro: ZAPATOCA - SANTANDER                                               3
 ACTION:UPD 17-06-16 13:38 OP:jn   STATUS:               ID:20170523111635 L   I
 OLDACT:REG 17-05-23 20:51 OP:dnl  STATUS:               ID:20170523110740     3
 2017-05-23-1108-00M.COL___353                                                 6
 STAT SP IPHASW D HRMM SECON CODA AMPLIT PERI AZIMU VELO AIN AR TRES W  DIS CAZ7
 BRR  HZ EP       1116 57.10                             155   -0.0610 65.9 308 
 BRR  HE ES       1117 13.84                             155   -0.1310 65.9 308 
 BRR  HZ I        1117 14.35        12.4 0.30            150           65.9 308 
 RUS  HZ EP       1116 59.66                             147    0.0510 95.2 169 
 RUS  HE ES       1117 18.35                             147    0.0310 95.2 169 
 RUS  HZ I        1117 19.63         6.0 0.30            145           95.2 169 
 PTB  HZ EP   2   1117  2.27                             136    0.21 5  136 261 
 PTB  HN ES       1117 23.00                             136    0.30 9  136 261 
 PTB  HZ I        1117 25.88         5.0 0.26            131            136 261 
 ZAR  HZ EP   4   1117  9.66                             125    1.91 0  197 295 
 ZAR  HN ES   4   1117 34.33                             125    1.51 0  197 295 
 ZAR  HZ I        1117 39.57         8.6 0.46            121            197 295 
 NOR  HN ES       1117 37.17                             121   -0.31 8  222 234 
 NOR  HZ I        1117 43.22         4.8 0.50            118            222 234 
                                                                                
