 2011  523 1027  1.3 L   6.798 -73.139133.0  RSN 12 0.3 2.1LRSN                1
 GAP=137        0.73       3.1     4.9  5.2 -0.6449E+01  0.6973E+01 -0.1642E+01E
 Epicentro: LOS SANTOS - SANTANDER                                             3
 ACTION:UP  11-06-29 08:55 OP:tino STATUS:               ID:20110523102701 L   I
 2011-05-23-1024-16S.COL___141                                                 6
 STAT SP IPHASW D HRMM SECON CODA AMPLIT PERI AZIMU VELO SNR AR TRES W  DIS CAZ7
 BTL  SZ EP   1   1027 19.61                             171     0.3 7   19 313 
 BAR2 SZ EP   1   1027 19.27                             170    -0.1 7   23 192 
 BAR2 SZ I        1027 19.78        44.1 0.07                            23 192 
 BAR2 SZ ES   1   1027 33.96                             170     0.5 7   23 192 
 GIR2 SZ EP       1027 19.66                             166     0.210   32 349 
 BRR  HZ EP       1027 21.28                             150     0.210   72 298 
 BRR  HZ I        1027 21.85        45.9 0.10                            72 298 
 BRR  HN ES   1   1027 36.64                             150     0.1 7   72 298 
 PAM  SZ EP   1   1027 22.13                             148     0.0 7   77  39 
 PAM  SN ES   1   1027 37.83                             148    -0.6 7   77  39 
 RUS  HZ EP   1   1027 23.36                             141    -0.4 7  100 176 
 RUS  HE ES   1   1027 41.14                             141    -0.2 7  100 176 
 RUS  HZ I        1027 42.93        14.4 0.38                           100 176 
 BRI  SZ EP   1   1027 24.12                             138     0.2 7  108  20 
 GRA  SZ EP       1027 25.45                             134     0.110  126  17 
 GRA  SZ ES   1   1027 44.19                             134     0.0 7  126  17 
 GRA  SZ I        1027 46.59        15.1 0.55                           126  17 
 OCA  SZ EP       1027 28.66                             126     0.0 9  161 353 
 OCA  SZ ES   1   1027 49.48                             126    -0.5 7  161 353 
 OCA  SZ I        1027 54.66        15.1 0.23                           161 353 
 NOR  SZ EP   1   1027 35.89                             116    -0.4 6  235 235 
 NOR  SN ES   1   1028  3.12                             116    -0.6 6  235 235 
 HEL  HZ EP   1   1027 40.91                             112     0.0 6  273 256 
 HEL  HZ I        1028 20.08         8.5 0.31                           273 256 
 TOL  SZ EP   1   1027 49.68                             107     0.6 5  344 225 
                                                                                
