 2015 1223 1359  8.8 L   6.816 -73.139149.1  RSN  7 0.4 1.9LRSN                1
 GAP=240        0.92       5.2     5.0  6.4  0.8766E+01  0.8755E+01  0.7261E+01E
 Epicentro: LOS SANTOS - SANTANDER                                             3
 ACTION:UPD 16-02-04 15:07 OP:cam  STATUS:               ID:20151223135908 L   I
 OLDACT:DUP 15-12-23 23:22 OP:cara STATUS:               ID:20151223134750d    3
 OLDACT:REG 15-12-23 21:28 OP:cara STATUS:               ID:20151223134749     3
 2015-12-23-1347-49M.COL___331                                                 6
 STAT SP IPHASW D HRMM SECON CODA AMPLIT PERI AZIMU VELO AIN AR TRES W  DIS CAZ7
 BAR2 EZ IP       1359 28.85                             170   -0.0410 25.2 191 
 BAR2 EZ ES       1359 44.42                             170   -0.1210 25.2 191 
 BAR2 EZ I        1359 46.90        14.4 0.22            168           25.2 191 
 BRR  HN ES       1359 47.77                             153    0.6910 71.0 297 
 RUS  HZ EP       1359 33.20                             144    0.1810  102 177 
 RUS  HN ES       1359 51.61                             144   -0.2810  102 177 
 RUS  HZ I        1359 53.86         5.0 0.26            145            102 177 
 PTB  HZ IP       1359 35.81                             133   -0.34 9  149 258 
 PTB  HN ES       1359 56.93                             133   -0.54 9  149 258 
 PTB  HZ I        1359 58.94         9.4 0.12            132            149 258 
 SPBC HZ IP       1359 37.90                             129    0.15 9  165 219 
 SPBC HE ES       14 0  0.23                             129   -0.08 9  165 219 
 SPBC HZ I        14 0  5.62        13.1 0.10            129            165 219 
 ZAR  HN ES       14 0  6.63                             123   -0.33 9  204 292 
 ZAR  HZ I        14 0 13.95         6.8 0.40            123            204 292 
 NOR  HZ EP       1359 45.03                             119    0.11 8  236 234 
 NOR  HE ES       14 0 13.74                             119    0.67 8  236 234 
 NOR  HZ I        14 0 16.51         7.5 0.16            119            236 234 
                                                                                
