 2014  823 1721 48.9 L   6.844 -73.076148.7  RSN  5 0.3 1.8LRSN                1
 GAP=248        0.65       6.1     7.1  4.7  0.3320E+02  0.7143E+01  0.2166E+01E
 Epicentro: LOS SANTOS - SANTANDER                                             3
 ACTION:UPD 14-09-15 21:52 OP:nd   STATUS:               ID:20140823172148 L   I
 OLDACT:DUP 14-08-23 22:49 OP:cam  STATUS:               ID:20140823172001d    3
 2014-08-23-1720-00M.COL___288                                                 6
 STAT SP IPHASW D HRMM SECON CODA AMPLIT PERI AZIMU VELO AIN AR TRES W  DIS CAZ7
 BAR2 SZ EP       1722  9.07                             168    0.0810 30.2 203 
 BAR2 SZ ES       1722 24.74                             168    0.0510 30.2 203 
 BAR2 SZ I        1722 25.72         7.2 0.26            164           30.2 203 
 BRR  HZ EP     C 1722 10.89                             152    0.2910 76.1 293 
 BRR  HN ES       1722 27.59                             152    0.0310 76.1 293 
 RUS  HZ EP       1722 13.22                             143   -0.0010  105 180 
 RUS  HN ES       1722 32.02                             143   -0.2110  105 180 
 ZAR  HZ EP       1722 21.44                             122   -0.62 8  210 290 
 ZAR  HN ES       1722 47.96                             122    0.01 8  210 290 
 ZAR  HN I        1722 52.76         8.8 0.34            121            210 290 
 GUY2CHZ EP       1722 34.01                             112    0.38 7  310 235 
                                                                                
