 2017 1223 1113 12.4 L   6.722 -73.143138.3  RSN  5 0.5 1.3LRSN                1
 GAP=161        0.88       6.3     4.5  7.4 -0.7946E+01  0.1051E+02  0.4828E+01E
 Epicentro: JORDAN - SANTANDER                                                 3
 ACTION:UPD 18-01-04 13:23 OP:rebc STATUS:               ID:20171223111312 L   I
 OLDACT:UP  17-12-23 22:26 OP:dani STATUS:               ID:20171223110736     3
 OLDACT:UP  17-12-23 22:25 OP:dani STATUS:               ID:20171223110736     3
 OLDACT:REG 17-12-23 20:20 OP:dani STATUS:               ID:20171223110736     3
 2017-12-23-1108-00M.COL___448                                                 6
 STAT SP IPHASW D HRMM SECON CODA AMPLIT PERI AZIMU VELO AIN AR TRES W  DIS CAZ7
 BAR2 EZ EP       1113 31.07                             174    0.0510 15.0 197 
 BAR2 EZ ES       1113 45.38                             174   -0.1310 15.0 197 
 BAR2 EZ I        1113 48.72         8.3 0.36            170           15.0 197 
 PAM  EZ EP       1113 34.04                             147   -0.2510 84.1  36 
 PAM  EN ES       1113 51.55                             147    0.2210 84.1  36 
 PAM  EZ I        1113 53.27         2.8 0.21            155           84.1  36 
 PTB  HZ EP       1113 38.19                             130   -0.51 9  147 262 
 PTB  HN ES       1113 58.88                             130   -0.30 9  147 262 
 PTB  HZ I        1114  5.84         1.4 0.15            133            147 262 
 SPBC HZ EP       1113 40.23                             128    0.48 9  157 221 
 SPBC HN ES   3   1114  2.95                             128    1.90 2  157 221 
 SPBC HZ I        1114  5.39         4.6 0.14            131            157 221 
 ZAR  HN ES       1114 10.45                             120    0.42 8  208 294 
                                                                                
