 2013  523 1407 47.7 L   6.727 -73.203144.0  RSN  6 0.4 1.5LRSN                1
 GAP=170        0.97       6.6     6.7  8.2 -0.1568E+01  0.1379E+02  0.2752E+01E
 Epicentro: VILLANUEVA - SANTANDER                                             3
 ACTION:UPD 13-06-20 09:53 OP:ep   STATUS:               ID:20130523140747 L   I
 2013-05-23-1400-00M.COL___259                                                 6
 STAT SP IPHASW D HRMM SECON CODA AMPLIT PERI AZIMU VELO AIN AR TRES W  DIS CAZ7
 BAR2 SZ EP       14 8  7.12                             174    0.1610 15.0 171 
 BAR2 SZ ES       14 8 21.94                             174   -0.0610 15.0 171 
 BAR2 SZ I        14 8 23.07         7.3 0.16            173           15.0 171 
 GIR2 SZ EP       14 8  7.03                             164   -0.3510 38.9   2 
 GIR2 SZ ES   1   14 8 22.54                             164   -0.20 7 38.9   2 
 BRR  HZ EP       14 8  8.72                             153    0.1310 70.3 307 
 BRR  HE ES       14 8 25.44                             153    0.5410 70.3 307 
 BRR  HZ I        14 8 29.16         8.5 0.54            153           70.3 307 
 RUS  HN ES   1   14 8 28.76                             146    0.04 7 93.2 172 
 RUS  HZ I        14 8 31.11         2.4 0.50            148           93.2 172 
 PTB  HZ EP   1   14 8 13.77                             133   -0.05 7  140 262 
 PTB  HN ES   1   14 8 33.09                             133   -1.12 7  140 262 
 PTB  HZ I        14 8 36.71         4.9 0.50            134            140 262 
 NOR  HE ES   1   14 8 49.92                             119    0.69 6  225 235 
                                                                                
