 2011  523 1305  8.1 L   6.840 -73.134136.7  RSN  7 0.4 1.5LRSN                1
 GAP=136        0.88       5.5     9.1  8.2 -0.1358E+02 -0.2045E+02 -0.3631E+01E
 Epicentro: LOS SANTOS - SANTANDER                                             3
 ACTION:UP  11-06-29 08:55 OP:tino STATUS:               ID:20110523130508 L   I
 2011-05-23-1300-23S.COL___141                                                 6
 STAT SP IPHASW D HRMM SECON CODA AMPLIT PERI AZIMU VELO SNR AR TRES W  DIS CAZ7
 BTL  SZ EP       13 5 26.73                             173     0.210   17 300 
 BTL  SZ ES   2   13 5 41.46                             173     0.6 5   17 300 
 BAR2 SZ ES   1   13 5 41.13                             168    -0.2 7   28 191 
 BAR2 SZ I        13 5 43.01         7.3 0.32                            28 191 
 BRR  HZ EP   1   13 5 27.24                             151    -1.0 7   70 295 
 BRR  HE ES   1   13 5 44.20                             151     0.3 7   70 295 
 BRR  HZ I        13 5 45.25        12.5 0.39                            70 295 
 PAM  SZ EP   1   13 5 29.16                             150     0.1 7   73  41 
 PAM  SE ES   2   13 5 45.27                             150    -0.2 5   73  41 
 BRI  SZ EP   1   13 5 30.94                             141     0.2 7  104  21 
 RUS  HZ EP   1   13 5 31.56                             140     0.3 7  105 177 
 RUS  HE ES   2   13 5 49.00                             140    -0.4 5  105 177 
 RUS  HZ I        13 5 50.76         2.8 0.25                           105 177 
 GRA  SZ EP       13 5 32.34                             136     0.210  121  17 
 GRA  SZ I        13 5 33.70         3.9 0.23                           121  17 
 GRA  SZ ES   1   13 5 50.53                             136    -0.4 7  121  17 
                                                                                
