 2017 1123 1419 59.5 L   6.839 -73.500112.9  RSN  5 0.3 1.2LRSN                1
 GAP=165        0.77       4.1     3.2  6.4 -0.5576E+01  0.7416E+01 -0.2216E+01E
 Epicentro: SAN VICENTE DE CHUCURI - SANTANDER                                 3
 ACTION:UPD 17-12-12 19:59 OP:rebc STATUS:               ID:20171123141959 L   I
 OLDACT:UP  17-11-23 23:50 OP:edw  STATUS:               ID:20171123141742     3
 OLDACT:REG 17-11-23 20:09 OP:dhb  STATUS:               ID:20171123141742     3
 2017-11-23-1418-00M.COL___467                                                 6
 STAT SP IPHASW D HRMM SECON CODA AMPLIT PERI AZIMU VELO AIN AR TRES W  DIS CAZ7
 BAR2 EZ EP       1420 15.89                             157   -0.0410 44.5 128 
 BAR2 EZ ES       1420 28.93                             157    0.1410 44.5 128 
 BAR2 EZ I        1420 30.01        14.1 0.36            159           44.5 128 
 PAM  EZ EP       1420 20.27                             134   -0.1910  104  58 
 PAM  EN ES       1420 37.15                             134    0.3010  104  58 
 PTB  HZ EP       1420 20.35                             132   -0.0310  111 253 
 PTB  HN ES       1420 36.32                             132   -0.3910  111 253 
 PTB  HZ I        1420 41.23         2.8 0.32            132            111 253 
 RUS  HZ EP       1420 20.92                             132   -0.4410  114 156 
 RUS  HN ES       1420 38.42                             132   -0.0310  114 156 
 RUS  HZ I        1420 42.07         1.3 0.46            133            114 156 
 NOR  HZ EP       1420 30.90                             114    0.52 8  207 227 
 NOR  HN ES       1420 54.89                             114    0.39 8  207 227 
 NOR  HZ I        1421  0.70         1.8 0.14            115            207 227 
                                                                                
