 2013 1223 1513 33.1 L   6.805 -73.139148.3  RSN  7 0.5 1.6LRSN                1
 GAP=137        1.25       4.5     6.1  7.8 -0.3471E+01  0.9711E+01 -0.4511E+01E
 Epicentro: LOS SANTOS - SANTANDER                                             3
 ACTION:UPD 14-01-13 10:20 OP:ep   STATUS:               ID:20131223151333 L   I
 OLDACT:REG 13-12-23 15:30 OP:jn   STATUS:               ID:20131223151000     3
 2013-12-23-1510-00M.COL___285                                                 6
 STAT SP IPHASW D HRMM SECON CODA AMPLIT PERI AZIMU VELO AIN AR TRES W  DIS CAZ7
 BAR2 SZ EP       1513 52.97                             170   -0.0310 24.0 191 
 BAR2 SZ ES       1514  8.17                             170   -0.3910 24.0 191 
 BAR2 SZ I        1514 11.90        12.2 0.50            170           24.0 191 
 BRR  HZ EP       1513 55.04                             153    0.5410 71.6 298 
 BRR  HN ES       1514 12.19                             153    0.9710 71.6 298 
 PAM  SZ EP       1513 55.91                             151    0.4210 76.5  39 
 PAM  SN ES       1514 12.77                             151   -0.2210 76.5  39 
 PAM  SZ I        1514 15.48         7.1 0.64            154           76.5  39 
 RUS  HZ EP       1513 57.11                             144    0.0210  101 176 
 RUS  HN ES       1514 15.31                             144   -0.5310  101 176 
 RUS  HZ I        1514 16.85         4.3 0.34            145            101 176 
 PTB  HZ EP       1513 59.85                             132   -0.45 9  149 259 
 PTB  HN ES       1514 20.91                             132   -0.64 9  149 259 
 PTB  HZ I        1514 22.96         4.4 0.10            134            149 259 
 SPBC HZ EP       1514  2.14                             129    0.31 9  164 219 
 SPBC HE ES       1514 24.78                             129    0.51 9  164 219 
 SPBC HZ I        1514 29.75         8.1 0.38            131            164 219 
 SML  HZ EP       1514  9.65                             118   -0.16 8  244 335 
 SML  HN ES       1514 37.83                             118   -0.64 8  244 335 
                                                                                
