 2016  323 1114  8.8 L   6.922 -73.099134.7  RSN  4 0.4 1.6LRSN                1
 GAP=251        0.72       9.0     6.8  7.7  0.3372E+02  0.7847E+01 -0.2530E+02E
 Epicentro: PIEDECUESTA - SANTANDER                                            3
 ACTION:UPD 16-05-13 21:26 OP:cam  STATUS:               ID:20160323111408 L   I
 OLDACT:REG 16-03-23 20:33 OP:dnl  STATUS:               ID:20160323110747     3
 2016-03-23-1107-47M.COL___301                                                 6
 STAT SP IPHASW D HRMM SECON CODA AMPLIT PERI AZIMU VELO AIN AR TRES W  DIS CAZ7
 BAR2 EZ EP   3   1114 28.30                             164    0.76 2 37.6 194 
 BAR2 EZ ES       1114 41.92                             164   -0.2010 37.6 194 
 BAR2 EZ I        1114 44.43         7.5 0.08            165           37.6 194 
 RUS  HZ EP   2   1114 32.71                             138    0.15 5  114 179 
 RUS  HE ES   2   1114 51.99                             138    0.92 5  114 179 
 RUS  HZ I        1114 53.58         3.6 0.30            141            114 179 
 PTB  HZ EP       1114 35.33                             128   -0.37 9  156 254 
 PTB  HN ES       1114 56.49                             128   -0.17 9  156 254 
 PTB  HZ I        1114 58.43         7.6 0.10            130            156 254 
 ZAR  HZ EP       1114 40.71                             120    0.10 9  204 288 
 ZAR  HN ES       1115  5.79                             120    0.40 9  204 288 
 ZAR  HZ I        1115 11.20         7.4 0.34            122            204 288 
                                                                                
