 2012  723 1954 37.9 L   6.686 -73.195142.2  RSN  5 0.4 1.8LRSN                1
 GAP=223        1.02       9.6     9.0 11.2  0.5547E+02 -0.6267E+01 -0.2200E+02E
 Epicentro: VILLANUEVA - SANTANDER                                             3
 ACTION:UPD 12-08-14 11:45 OP:ep   STATUS:               ID:20120723195437 L   I
 2012-07-23-1950-00M.COL___209                                                 6
 STAT SP IPHASW D HRMM SECON CODA AMPLIT PERI AZIMU VELO AIN AR TRES W  DIS CAZ7
 BAR2 SZ EP       1954 56.64                             176    -0.310   11 173 
 BAR2 SZ I        1954 56.98        15.7 0.26            169             11 173 
 BRR  HZ EP       1954 58.87                             151     0.010   74 309 
 BRR  HN ES   1   1955 15.18                             151     0.0 7   74 309 
 BRR  HZ I        1955 20.42        23.7 0.18            149             74 309 
 RUS  HZ EP       1955  0.52                             146     0.010   89 172 
 RUS  HN ES   1   1955 18.51                             146     0.4 7   89 172 
 RUS  HZ I        1955 20.28         9.3 0.35            149             89 172 
 PTB  HZ EP   1   1955  3.21                             133    -0.8 7  140 263 
 PTB  HN ES   1   1955 24.23                             133     0.0 7  140 263 
 PTB  HZ I        1955 32.10         3.4 0.26            132            140 263 
 ZAR  HZ EP       1955 10.89                             121     0.7 9  204 296 
 ZAR  HE ES   1   1955 35.18                             121    -0.1 6  204 296 
 ZAR  HZ I        1955 41.54        11.8 0.48            123            204 296 
