 2012  223 1039 22.9 L   6.753 -73.125144.0  RSN 10 0.4 1.8LRSN                1
 GAP=141        0.70       4.1     4.8  5.5 -0.2640E+01  0.3114E+01  0.6202E+01E
 ACTION:UP  12-03-07 16:33 OP:epov STATUS:               ID:20120223103922 L   I
 2012-02-23-1038-59S.COL___194                                                 6
 STAT SP IPHASW D HRMM SECON CODA AMPLIT PERI AZIMU VELO AIN AR TRES W  DIS CAZ7
 BAR2 SZ EP   1   1039 42.10                             172   -0.17 7 18.9 200 
 BAR2 SZ ES   1   1039 57.41                             172    0.06 7 18.9 200 
 BAR2 SZ I        1039 58.69        25.1 0.27                          18.9 200 
 GIR2 SZ EP   1   1039 42.24                             165   -0.32 7 36.8 348 
 GIR2 SZ ES   1   1039 58.39                             165    0.52 7 36.8 348 
 BRR  HZ EP       1039 44.01                             151   -0.1510 75.8 301 
 BRR  HE ES   1   1040  1.33                             151    0.62 7 75.8 301 
 BRR  HZ I        1040  5.17        17.8 0.20                          75.8 301 
 PAM  SZ EP   1   1039 45.11                             150   -0.02 7 80.1  36 
 PAM  SN ES   2   1040  2.26                             150   -0.18 5 80.1  36 
 RUS  HZ EP   1   1039 45.94                             145   -0.19 7 95.3 177 
 RUS  HN ES   1   1040  4.09                             145   -0.14 7 95.3 177 
 RUS  HZ I        1040  5.82         6.7 0.38                          95.3 177 
 PTB  HN ES   1   1040 10.02                             132   -0.88 7  149 261 
 NOR  SZ EP   2   1039 58.38                             118   -0.06 4  234 236 
 NOR  SN ES   2   1040 26.61                             118    0.47 4  234 236 
 CHI  HZ EP   2   1040  0.22                             117    0.16 4  244 196 
 CHI  HN ES   2   1040 29.77                             117    0.76 4  244 196 
 CHI  HZ I        1040 35.07         3.5 0.37                           244 196 
 HEL  HZ EP   2   1040  3.98                             115    0.81 4  273 257 
 PRA  HZ EP   1   1040 16.20                             107    0.20 4  389 210 
 PRA  HN ES   2   1040 58.04                             107    0.65 3  389 210 
                                                                                
