 2015 1223 1107 59.0 L   6.818 -73.125141.9  RSN 10 0.4 2.0LRSN                1
 GAP=203        0.91       3.1     4.3  5.1  0.3156E+01  0.5029E+01  0.8973E+00E
 Epicentro: LOS SANTOS - SANTANDER                                             3
 ACTION:UPD 16-02-04 15:06 OP:cam  STATUS:               ID:20151223110759 L   I
 OLDACT:REG 15-12-23 21:19 OP:cara STATUS:               ID:20151223105749     3
 2015-12-23-1057-49M.COL___327                                                 6
 STAT SP IPHASW D HRMM SECON CODA AMPLIT PERI AZIMU VELO AIN AR TRES W  DIS CAZ7
 BAR2 EZ EP       11 8 18.07                             169   -0.1410 25.7 194 
 BAR2 EZ ES       11 8 32.75                             169   -0.4610 25.7 194 
 BAR2 EZ I        11 8 35.52        16.0 0.32            167           25.7 194 
 BRR  HZ EP       11 8 19.89                             151    0.1010 72.3 296 
 BRR  HE ES       11 8 36.48                             151    0.4610 72.3 296 
 BRR  HZ I        11 8 38.67        20.0 0.38            150           72.3 296 
 RUS  HZ EP       11 8 22.62                             143    0.1210  102 177 
 RUS  HN ES       11 8 41.38                             143    0.5410  102 177 
 RUS  HZ I        11 8 43.76        11.0 0.54            144            102 177 
 PTB  HZ EP       11 8 25.28                             131   -0.61 9  150 258 
 PTB  HN ES       11 8 46.74                             131   -0.13 9  150 258 
 PTB  HZ I        11 8 51.27        12.2 0.46            130            150 258 
 ZAR  HE ES       11 8 56.35                             121   -0.21 8  205 291 
 ZAR  HZ I        11 9  2.64        13.1 0.30            122            205 291 
 NOR  HZ IP       11 8 34.77                             117   -0.06 8  238 234 
 NOR  HN ES       11 9  2.24                             117   -0.53 8  238 234 
 NOR  HZ I        11 9  4.86         5.9 0.28            118            238 234 
 SML  HZ IP       11 8 34.95                             117   -0.37 8  243 335 
 SML  HE ES       11 9  3.85                             117    0.20 8  243 335 
 SML  HZ I        11 9  6.48        10.3 0.30            118            243 335 
 CHI  HZ EP       11 8 36.65                             116   -0.10 8  251 196 
 CHI  HN ES       11 9  5.93                             116   -0.27 8  251 196 
 CHI  HZ I        11 9 11.80         4.7 0.26            117            251 196 
 HEL  HZ EP       11 8 39.83                             114    0.52 8  275 256 
 HEL  HE ES       11 9 11.21                             114    0.45 8  275 256 
 HEL  HZ I        11 9 16.84         6.1 0.30            115            275 256 
 GUY2CHZ EP       11 8 43.47                             111    0.71 7  304 235 
 GUY2CHE ES   4   11 9 18.46                             111    1.56 0  304 235 
 GUY2CHZ I        11 9 24.39         5.5 0.50                           304 235 
                                                                                
