 2017  323 1902 19.5 L   6.750 -73.126150.6  RSN  5 0.5 1.8LRSN                1
 GAP=200        0.91       8.3     5.3  9.9 -0.1883E+02  0.4990E+00  0.4665E+02E
 Epicentro: LOS SANTOS - SANTANDER                                             3
 ACTION:UPD 17-05-25 18:44 OP:jn   STATUS:               ID:20170323190219 L   I
 OLDACT:UP  17-03-23 23:59 OP:dani STATUS:               ID:20170323185747     3
 OLDACT:UP  17-03-23 23:59 OP:dani STATUS:               ID:20170323185747     3
 OLDACT:UP  17-03-23 23:59 OP:dani STATUS:               ID:20170323185747     3
 OLDACT:REG 17-03-23 20:49 OP:dani STATUS:               ID:20170323185747     3
 2017-03-23-1858-00M.COL___405                                                 6
 STAT SP IPHASW D HRMM SECON CODA AMPLIT PERI AZIMU VELO AIN AR TRES W  DIS CAZ7
 BRR  HZ EP       19 2 41.89                             152    0.4310 75.9 301 
 BRR  HN ES       19 2 58.59                             152    0.0210 75.9 301 
 BRR  HZ I        19 3  1.05        15.7 0.30            150           75.9 301 
 PAM  EZ EP       19 2 42.80                             151    0.3710 80.5  36 
 PAM  EN ES       19 2 59.95                             151   -0.3610 80.5  36 
 PAM  EZ I        19 3  1.91        11.4 0.54            155           80.5  36 
 PTB  HZ EP       19 2 46.44                             133   -0.55 9  149 261 
 PTB  HE ES   3   19 3  6.76                             133   -1.66 2  149 261 
 PTB  HZ I        19 3 10.46         5.0 0.16            133            149 261 
 ZAR  HZ EP   3   19 2 51.51                             123   -1.20 2  208 293 
 ZAR  HN ES       19 3 18.66                             123    0.06 8  208 293 
 ZAR  HZ I        19 3 25.36         3.4 0.29            124            208 293 
 NOR  HZ EP       19 2 55.09                             120   -0.30 8  233 236 
 NOR  HN ES       19 3 23.83                             120    0.47 8  233 236 
 NOR  HZ I        19 3 30.72         4.4 0.23            120            233 236 
                                                                                
