 2011  923 1346 59.6 L   6.765 -73.143144.5  RSN  4 0.5 1.6LRSN                1
 GAP=235        0.94      19.1    30.3 22.7  0.5012E+03 -0.3706E+03 -0.1989E+03E
 Epicentro: LOS SANTOS - SANTANDER                                             3
 ACTION:UPD 12-07-13 15:59 OP:ep   STATUS:               ID:20110923134659 L   I
 2011-09-23-1345-18S.COL___165                                                 6
 STAT SP IPHASW D HRMM SECON CODA AMPLIT PERI AZIMU VELO AIN AR TRES W  DIS CAZ7
 BAR2 SZ EP       1347 18.43                             167   -0.5910 19.6 193 
 BAR2 SZ I        1347 37.91         4.4 0.60                          19.6 193 
 BRR  HZ EP       1347 20.81                             148    0.0610 73.4 301 
 BRR  HE ES   2   1347 37.80                             148    0.57 5 73.4 301 
 BRR  HZ I        1347 42.18        13.6 0.24                          73.4 301 
 RUS  HZ EP       1347 23.48                             141    0.5210 96.7 176 
 RUS  HE ES   2   1347 40.75                             141   -0.42 5 96.7 176 
 ZAR  HE ES   3   1347 56.71                             119   -0.83 2  206 293 
                                                                                
