 2012  223 1401 18.0 L   6.725 -73.190144.3  RSN  5 0.3 1.4LRSN                1
 GAP=173        0.55       6.5     6.4  6.3  0.1408E+02  0.1071E+02  0.9143E+01E
 ACTION:UP  12-03-07 16:33 OP:epov STATUS:               ID:20120223140118 L   I
 2012-02-23-1400-00M.COL___191                                                 6
 STAT SP IPHASW D HRMM SECON CODA AMPLIT PERI AZIMU VELO AIN AR TRES W  DIS CAZ7
 BAR2 SZ EP   1   14 1 37.20                             174   -0.11 7 14.7 177 
 BAR2 SZ ES   1   14 1 52.33                             174   -0.05 7 14.7 177 
 BAR2 SZ I        14 1 53.06         3.7 0.20                          14.7 177 
 GIR2 SZ EP   2   14 1 37.28                             164   -0.46 5 39.1 359 
 GIR2 SZ ES   2   14 1 52.92                             164   -0.21 5 39.1 359 
 BRR  HZ EP   2   14 1 38.81                             152   -0.20 5 71.5 306 
 BRR  HZ I        14 1 42.48         8.8 0.40                          71.5 306 
 BRR  HN ES   2   14 1 56.15                             152    0.75 5 71.5 306 
 RUS  HZ EP   1   14 1 41.45                             146    0.39 7 92.8 173 
 RUS  HN ES   2   14 1 58.89                             146   -0.16 5 92.8 173 
 PTB  HZ EP   1   14 1 44.38                             133    0.09 7  142 262 
 PTB  HE ES   2   14 2  4.34                             133   -0.46 5  142 262 
                                                                                
