 2014  923 1335  4.4 L   6.740 -73.166144.0  RSN  9 0.3 1.6LRSN                1
 GAP=137        0.67       2.8     3.0  4.8 -0.9709E-01  0.1670E+01  0.9972E+00E
 Epicentro: LOS SANTOS - SANTANDER                                             3
 ACTION:UPD 14-10-03 23:07 OP:nd   STATUS:               ID:20140923133504 L   I
 OLDACT:REG 14-09-23 21:11 OP:spq  STATUS:               ID:20140923132819     3
 2014-09-23-1328-19M.COL___284                                                 6
 STAT SP IPHASW D HRMM SECON CODA AMPLIT PERI AZIMU VELO AIN AR TRES W  DIS CAZ7
 BAR2 SZ EP       1335 23.64                             173   -0.1010 16.5 186 
 BAR2 SZ ES   1   1335 38.68                             173   -0.11 7 16.5 186 
 BAR2 SZ I        1335 39.88         6.7 0.20            174           16.5 186 
 BRR  HZ EP       1335 25.86                             152    0.3710 72.7 304 
 BRR  HE ES       1335 42.25                             152    0.3510 72.7 304 
 BRR  HZ I        1335 43.69        19.5 0.32            150           72.7 304 
 PAM  SZ EP       1335 26.95                             148    0.0810 83.9  38 
 PAM  SE ES   1   1335 43.98                             148   -0.39 7 83.9  38 
 PAM  SZ I        1335 46.27         5.1 0.40            149           83.9  38 
 RUS  HZ EP       1335 27.42                             145   -0.1410 94.2 174 
 RUS  HE ES   1   1335 45.71                             145    0.11 7 94.2 174 
 RUS  HZ I        1335 47.55         2.5 0.66            148           94.2 174 
 PTB  HZ EP       1335 30.49                             132   -0.48 9  144 261 
 PTB  HE ES       1335 51.22                             132   -0.43 9  144 261 
 PTB  HZ I        1335 53.71         3.8 0.16            132            144 261 
 SPBC HZ EP       1335 32.40                             130    0.21 9  157 220 
 SPBC HN ES       1335 54.12                             130    0.28 9  157 220 
 SPBC HZ I        1335 56.50         5.0 0.52            131            157 220 
 ZAR  HN ES       1336  2.06                             122   -0.03 9  205 294 
 ZAR  HZ I        1336  8.56         3.8 0.46            122            205 294 
 SML  HN ES   1   1336 10.61                             117    0.16 6  249 336 
 SML  HZ I        1336 15.70         4.3 0.02            117            249 336 
 GUY2CHZ EP   1   1335 47.40                             112    0.06 5  296 236 
 GUY2CHE ES   4   1336 22.53                             112    1.73 0  296 236 
 GUY2CHZ I        1336 28.95         1.8 0.27                           296 236 
                                                                                
