 2011 1123 1610  7.7 L   6.604 -73.311 26.9  RSN  5 0.2 1.6LRSN                1
 GAP=138        0.45       1.7     2.1  2.1  0.1295E+01  0.1315E+00 -0.1035E+01E
 Epicentro: GALAN - SANTANDER                                                  3
 ACTION:UPD 12-07-13 16:11 OP:ep   STATUS:               ID:20111123161007 L   I
 2011-11-23-1605-57S.COL___178                                                 6
 STAT SP IPHASW D HRMM SECON CODA AMPLIT PERI AZIMU VELO AIN AR TRES W  DIS CAZ7
 BAR2 SZ IP       1610 13.10                             150    0.1610 14.3  95 
 BAR2 SZ ES   1   1610 16.91                             150   -0.09 7 14.3  95 
 BAR2 SZ I        1610 17.99       104.9 0.25                          14.3  95 
 BRR  HZ EP   1   1610 19.57                              98   -0.04 7 71.2 322 
 BRR  HE ES   1   1610 28.69                              98   -0.19 7 71.2 322 
 RUS  HZ EP   1   1610 21.94                              96    0.17 7 82.6 162 
 RUS  HN ES   1   1610 32.43                              96   -0.29 7 82.6 162 
 RUS  HZ I        1610 33.71        21.0 0.17                          82.6 162 
 PAM  SZ EP   1   1610 25.17                              61    0.30 7  106  40 
 PAM  SE ES   1   1610 38.00                              61   -0.24 7  106  40 
 PAM  SZ I        1610 38.92        11.4 0.31                           106  40 
 ZAR  HZ EP   3   1610 36.15                              61    0.43 2  197 300 
 ZAR  HN ES   2   1610 57.71                              61    0.17 4  197 300 
 ZAR  HZ I        1610 59.94         4.4 0.33                           197 300 
                                                                                
