 2011  623 1333 58.0 L   6.320 -73.599108.1  RSN  5 0.2 1.8LRSN                1
 GAP=113        0.52       3.4     4.2  8.4 -0.1555E+01  0.1880E+02  0.3997E+01E
 Epicentro: SANTA HELENA DEL OPON - SANTANDER                                  3
 ACTION:UP  11-07-14 19:07 OP:ep   STATUS:               ID:20110623133358 L   I
 2011-06-23-1331-10S.COL___140                                                 6
 STAT SP IPHASW D HRMM SECON CODA AMPLIT PERI AZIMU VELO SNR AR TRES W  DIS CAZ7
 BAR2 SZ IP       1334 14.67                             151     0.210   55  57 
 BAR2 SZ I        1334 14.84        27.3 0.37                            55  57 
 BAR2 SZ ES   2   1334 27.70                             151     0.3 5   55  57 
 RUS  HZ EP       1334 16.06                             143    -0.110   74 130 
 RUS  HN ES   2   1334 29.87                             143    -0.4 5   74 130 
 RUS  HZ I        1334 33.00         9.8 0.25                            74 130 
 BTL  SZ IP       1334 16.07                             142     0.210   76  29 
 BRR  HZ EP       1334 16.26                             138    -0.210   88 352 
 BRR  HZ I        1334 19.73        14.3 0.32                            88 352 
 BRR  HN ES   2   1334 30.74                             138    -0.2 5   88 352 
 NOR  SZ EP       1334 23.91                             119     0.0 9  164 239 
 NOR  SN ES   2   1334 44.32                             119     0.2 5  164 239 
                                                                                
