 2012  623 1657  3.0 L   6.766 -73.132150.2  RSN  6 0.3 1.9LRSN                1
 GAP=140        0.72       4.8     4.3  6.1  0.2274E+01  0.7350E+01 -0.2732E+01E
 Epicentro: LOS SANTOS - SANTANDER                                             3
 ACTION:UPD 12-08-06 17:51 OP:ep   STATUS:               ID:20120623165703 L   I
 2012-06-23-1650-00M.COL___199                                                 6
 STAT SP IPHASW D HRMM SECON CODA AMPLIT PERI AZIMU VELO AIN AR TRES W  DIS CAZ7
 BAR2 SZ EP   1   1657 22.81                             172   -0.25 7 20.0 196 
 BAR2 SZ ES   1   1657 38.61                             172   -0.13 7 20.0 196 
 BAR2 SZ I        1657 40.58        11.0 0.21                          20.0 196 
 BRR  HZ EP       1657 25.01                             152    0.2410 74.4 301 
 BRR  HZ I        1657 25.52        44.3 0.12                          74.4 301 
 BRR  HN ES   1   1657 42.43                             152    0.65 7 74.4 301 
 PAM  SZ EP   1   1657 25.89                             151    0.13 7 79.4  37 
 PAM  SN ES   1   1657 43.05                             151   -0.50 7 79.4  37 
 RUS  HZ EP   1   1657 26.95                             146    0.08 7 96.7 177 
 RUS  HN ES   1   1657 45.75                             146    0.22 7 96.7 177 
 RUS  HZ I        1657 48.06         6.2 0.28                          96.7 177 
 PTB  HZ EP   1   1657 29.87                             133   -0.49 7  149 260 
 PTB  HN ES   1   1657 51.30                             133   -0.44 7  149 260 
 PTB  HZ I        1657 56.54         9.5 0.28                           149 260 
 ZAR  HZ EP       1657 36.24                             123    0.25 8  207 293 
 ZAR  HN ES   1   1658  1.55                             123   -0.20 6  207 293 
 ZAR  HZ I        1658  8.21        10.3 0.34                           207 293 
                                                                                
