 2015  123 1034 40.3 L   6.803 -73.157148.3  RSN  9 0.4 1.5LRSN                1
 GAP=135        0.93       4.2     4.2  6.7 -0.2002E+01  0.8365E+01 -0.2296E+01E
 Epicentro: LOS SANTOS - SANTANDER                                             3
 ACTION:UPD 15-03-02 15:41 OP:nd   STATUS:               ID:20150123103440 L   I
 OLDACT:REG 15-01-23 22:03 OP:spq  STATUS:               ID:20150123102749     3
 2015-01-23-1027-49M.COL___258                                                 6
 STAT SP IPHASW D HRMM SECON CODA AMPLIT PERI AZIMU VELO AIN AR TRES W  DIS CAZ7
 BAR2 EZ EP   1   1035  0.15                             171   -0.12 7 23.5 187 
 BAR2 EZ ES       1035 15.36                             171   -0.4610 23.5 187 
 BAR2 EZ I        1035 17.18         7.2 0.30            171           23.5 187 
 BRR  HZ EP   1   1035  1.99                             153    0.31 7 69.9 299 
 BRR  HN ES       1035 19.06                             153    0.7210 69.9 299 
 BRR  HZ I        1035 21.41         8.9 0.32            151           69.9 299 
 PAM  SZ EP       1035  3.15                             151    0.3010 77.9  40 
 PAM  SN ES       1035 20.15                             151   -0.2610 77.9  40 
 PAM  SZ I        1035 22.29         6.2 0.38            153           77.9  40 
 RUS  HZ EP   1   1035  4.33                             144   -0.04 7  101 175 
 RUS  HE ES   1   1035 23.45                             144    0.34 7  101 175 
 RUS  HZ I        1035 23.99         4.5 0.34            146            101 175 
 PTB  HZ EP       1035  6.89                             133   -0.51 9  147 259 
 PTB  HN ES   1   1035 27.91                             133   -0.60 7  147 259 
 PTB  HZ I        1035 29.63         3.6 0.12            132            147 259 
 ZAR  HE ES       1035 38.07                             123   -0.06 9  203 292 
 ZAR  HZ I        1035 44.66         2.2 0.12            123            203 292 
 NOR  HN ES       1035 44.41                             119    0.38 8  234 234 
 NOR  HZ I        1035 48.91         2.4 0.38            120            234 234 
 SML  HZ EP   1   1035 17.33                             118    0.32 6  243 336 
 SML  HN ES   1   1035 45.19                             118   -0.42 6  243 336 
 SML  HZ I        1035 48.47         4.6 0.26            118            243 336 
 GUY2CHZ EP   4   1035 25.65                             113    1.69 0  300 235 
 GUY2CHE ES   4   1036  2.19                             113    4.20 0  300 235 
 GUY2CHZ I        1036  6.28         1.4 0.33                           300 235 
                                                                                
