 2014  923 1340 30.6 L   6.770 -73.146144.3  RSN  4 0.4 1.2LRSN                1
 GAP=138        0.92       5.4     5.1  8.7 -0.1546E+01  0.1931E+01 -0.2166E+00E
 Epicentro: LOS SANTOS - SANTANDER                                             3
 ACTION:UPD 14-10-03 23:07 OP:nd   STATUS:               ID:20140923134030 L   I
 OLDACT:DUP 14-09-24 00:54 OP:spq  STATUS:               ID:20140923133818d    3
 OLDACT:REG 14-09-23 21:13 OP:spq  STATUS:               ID:20140923133816     3
 2014-09-23-1338-16M.COL___284                                                 6
 STAT SP IPHASW D HRMM SECON CODA AMPLIT PERI AZIMU VELO AIN AR TRES W  DIS CAZ7
 BRR  HZ EP       1340 51.56                             152   -0.0910 72.8 301 
 BRR  HE ES       1341  8.65                             152    0.5610 72.8 301 
 BRR  HZ I        1341 11.63         5.0 0.32            153           72.8 301 
 PAM  SZ EP       1340 52.94                             150    0.1510 80.0  38 
 PAM  SN ES   1   1341  9.50                             150   -0.61 7 80.0  38 
 PAM  SZ I        1341 11.79         4.0 0.56            153           80.0  38 
 RUS  HZ EP   1   1340 54.57                             144    0.63 7 97.3 176 
 RUS  HE ES       1341 12.03                             144   -0.1410 97.3 176 
 RUS  HZ I        1341 14.16         1.3 0.20            148           97.3 176 
 PTB  HZ EP       1340 57.17                             132   -0.19 9  147 260 
 PTB  HN ES       1341 17.88                             132   -0.37 9  147 260 
 PTB  HZ I        1341 21.58         1.6 0.14            134            147 260 
                                                                                
