 2017  223 1424  5.6 L   6.784 -73.155142.0  RSN 12 0.5 2.4LRSN                1
 GAP=136        1.14       3.9     4.3  6.3 -0.5751E+00  0.9183E+01  0.7371E+01E
 Epicentro: LOS SANTOS - SANTANDER                                             3
 ACTION:UPD 17-05-24 15:39 OP:jn   STATUS:               ID:20170223142405 L   I
 OLDACT:UP  17-02-23 22:26 OP:cog  STATUS:               ID:20170223141744     3
 OLDACT:REG 17-02-23 20:26 OP:cog  STATUS:               ID:20170223141744     3
 2017-02-23-1418-00M.COL___370                                                 6
 STAT SP IPHASW D HRMM SECON CODA AMPLIT PERI AZIMU VELO AIN AR TRES W  DIS CAZ7
 BAR2 EZ EP       1424 24.69                             171   -0.0810 21.4 188 
 BAR2 EZ ES       1424 40.18                             171    0.4810 21.4 188 
 BAR2 EZ I        1424 41.02        58.8 0.58            166           21.4 188 
 BRR  HZ EP       1424 26.11                             152   -0.2710 71.2 300 
 BRR  HE ES       1424 42.92                             152    0.3710 71.2 300 
 BRR  HZ I        1424 47.04        41.0 0.24            152           71.2 300 
 PAM  EZ EP       1424 27.36                             150   -0.2110 79.4  39 
 PAM  EE ES       1424 44.47                             150   -0.2110 79.4  39 
 PAM  EZ I        1424 46.40        61.8 0.52            156           79.4  39 
 RUS  HZ EP       1424 28.78                             144   -0.1110 98.9 175 
 RUS  HN ES       1424 47.31                             144    0.2710 98.9 175 
 RUS  HZ I        1424 49.45        11.9 0.20            142           98.9 175 
 PTB  HZ EP       1424 31.35                             131   -0.83 9  146 259 
 PTB  HN ES       1424 52.19                             131   -0.69 9  146 259 
 PTB  HZ I        1424 55.23        33.3 0.16            131            146 259 
 ZAR  HZ EP       1424 38.75                             122    0.94 9  204 293 
 ZAR  HN ES       1425  2.85                             122   -0.06 9  204 293 
 CHI  HZ EP       1424 43.16                             117    0.25 8  247 195 
 CHI  HE ES       1425 11.75                             117   -0.24 8  247 195 
 CHI  HZ I        1425 19.59         9.1 0.60            117            247 195 
 ROSC BZ EP   4   1424 45.02                             116    1.69 0  251 211 
 ROSC BE ES       1425 12.13                             116   -0.60 8  251 211 
 ROSC BZ I        1425 19.89        11.9 0.30            116            251 211 
 HEL  HZ EP   3   1424 46.87                             114    1.37 2  271 256 
 HEL  HE ES       1425 16.88                             114    0.28 8  271 256 
 HEL  HZ I        1425 23.24        11.8 0.40            115            271 256 
 ELA  HZ EP       1424 51.85                             110   -0.26 7  327 230 
 ELA  HE ES       1425 29.33                             110    0.97 7  327 230 
 ELA  HZ I        1425 39.50         8.6 0.66            110            327 230 
 ANIL HZ EP       1424 56.27                             108    1.20 6  355 225 
 ANIL HE ES       1425 32.99                             108   -0.64 6  355 225 
 ANIL HZ I        1425 43.16        21.7 0.26            108            355 225 
 PRA  HZ EP       1424 58.88                             106    0.09 6  390 210 
 PRA  HE ES   3   1425 41.79                             106    1.54 1  390 210 
 PRA  HZ I        1425 48.61        12.5 0.40            107            390 210 
                                                                                
