 2013  923 1843 31.7 L   6.770 -73.133146.3  RSN  6 0.1 1.8LRSN                1
 GAP=140        0.42       2.3     3.7  3.2  0.6912E+00 -0.3999E+01 -0.1368E+01E
 Epicentro: LOS SANTOS - SANTANDER                                             3
 ACTION:UPD 13-10-22 09:24 OP:ep   STATUS:               ID:20130923184331 L   I
 OLDACT:REG 13-09-23 15:47 OP:stll STATUS:               ID:20130923183841     3
 2013-09-23-1838-41M.COL___250                                                 6
 STAT SP IPHASW D HRMM SECON CODA AMPLIT PERI AZIMU VELO AIN AR TRES W  DIS CAZ7
 BAR2 SZ ES       1844  6.79                             172    0.1510 20.4 196 
 BAR2 SZ I        1844  7.72        15.3 0.12            171           20.4 196 
 BRR  HZ EP       1843 52.96                             152   -0.1010 74.1 300 
 BRR  HZ I        1843 53.20        14.1 0.24            153           74.1 300 
 BRR  HN ES       1844  9.72                             152   -0.0110 74.1 300 
 PAM  SZ EP       1843 54.08                             150    0.0210 79.1  37 
 PAM  SZ I        1843 54.27        26.0 0.20            151           79.1  37 
 RUS  HZ EP       1843 55.47                             145    0.2310 97.2 177 
 RUS  HN ES       1844 13.40                             145   -0.2210 97.2 177 
 RUS  HZ I        1844 15.14         4.7 0.26            145           97.2 177 
 CAPV BZ EP       1843 59.20                             132   -0.08 9  151  37 
 PRA  HZ EP       1844 24.97                             107    0.00 6  390 210 
                                                                                
