 2015  323 1121 39.3 L   6.819 -73.185140.8  RSN  6 0.4 1.4LRSN                1
 GAP=131        1.02       4.2     5.1  8.5 -0.3521E+00  0.9425E+01 -0.6350E+01E
 Epicentro: ZAPATOCA - SANTANDER                                               3
 ACTION:UPD 15-04-30 16:28 OP:nd   STATUS:               ID:20150323112139 L   I
 OLDACT:REG 15-03-23 20:41 OP:fm   STATUS:               ID:20150323111750     3
 2015-03-23-1117-50M.COL___272                                                 6
 STAT SP IPHASW D HRMM SECON CODA AMPLIT PERI AZIMU VELO AIN AR TRES W  DIS CAZ7
 BAR2 EZ EP       1121 58.03                             169   -0.3110 25.1 179 
 BAR2 EZ I        1122 15.95         4.6 0.32            171           25.1 179 
 BRR  HZ EP   1   1121 59.92                             153    0.31 7 66.4 299 
 BRR  HN ES   1   1122 15.96                             153    0.48 7 66.4 299 
 BRR  HZ I        1122 26.27         7.5 0.50            154           66.4 299 
 PAM  SZ EP       1122  1.68                             149    0.6410 78.7  43 
 PAM  SE ES       1122 17.91                             149   -0.1110 78.7  43 
 PAM  SZ I        1122 20.53         5.9 0.42            153           78.7  43 
 RUS  HZ EP       1122  2.44                             142   -0.2810  103 174 
 RUS  HN ES       1122 20.82                             142   -0.1910  103 174 
 RUS  HZ I        1122 23.03         3.3 0.38            146            103 174 
 PTB  HZ EP       1122  6.17                             131    0.68 9  144 258 
 PTB  HN ES       1122 25.67                             131   -0.26 9  144 258 
 PTB  HZ I        1122 29.51         3.0 0.18            134            144 258 
 SML  HZ EP       1122 14.92                             117   -0.30 8  240 336 
 SML  HN ES       1122 42.66                             117   -0.59 8  240 336 
 SML  HZ I        1122 46.85         2.6 0.24            120            240 336 
                                                                                
