 2014  823 1534 26.6 L   6.481 -73.599113.2  RSN  4 0.1 1.6LRSN                1
 GAP=135        0.44       2.5     2.2  4.3  0.1682E+01  0.1637E+01 -0.3001E+01E
 Epicentro: SANTA HELENA DEL OPON - SANTANDER                                  3
 ACTION:UPD 14-09-15 21:52 OP:nd   STATUS:               ID:20140823153426 L   I
 OLDACT:UP  14-08-23 22:29 OP:cam  STATUS:               ID:20140823153000     3
 OLDACT:REG 14-08-23 20:55 OP:cam  STATUS:               ID:20140823153000     3
 2014-08-23-1530-00M.COL___288                                                 6
 STAT SP IPHASW D HRMM SECON CODA AMPLIT PERI AZIMU VELO AIN AR TRES W  DIS CAZ7
 BAR2 SZ EP     D 1534 43.53                             156    0.2210 47.7  75 
 BAR2 SZ ES       1534 56.37                             156    0.0510 47.7  75 
 BAR2 SZ I        1534 57.21        18.2 0.48            163           47.7  75 
 RUS  HZ EP       1534 46.06                             140   -0.1510 86.5 139 
 RUS  HN ES       1535  1.35                             140   -0.1210 86.5 139 
 PTB  HZ EP     C 1534 46.40                             137    0.1610 95.1 274 
 PTB  HN ES       1535  1.45                             137   -0.0710 95.1 274 
 PTB  HN I        1535  6.90         6.5 0.50            137           95.1 274 
 SML  HN ES       1535 32.56                             108   -0.16 8  262 349 
                                                                                
