 2014  723 1650 49.6 L   6.661 -73.204148.0  RSN  7 0.5 1.8LRSN                1
 GAP=211        1.12       7.1     7.7  8.9  0.2449E+02  0.2490E+02  0.7310E+01E
 Epicentro: VILLANUEVA - SANTANDER                                             3
 ACTION:UPD 15-03-16 20:46 OP:nd   STATUS:               ID:20140723165049 L   I
 OLDACT:REG 14-07-23 21:00 OP:fm   STATUS:               ID:20140723164816     3
 2014-07-23-1648-16M.COL___271                                                 6
 STAT SP IPHASW D HRMM SECON CODA AMPLIT PERI AZIMU VELO AIN AR TRES W  DIS CAZ7
 BAR2 SZ ES   1   1651 24.83                             177    0.13 7 7.99 162 
 BAR2 SZ I        1651 25.80        10.8 0.16            177           7.99 162 
 BRR  HZ EP       1651 10.70                             152   -0.5410 74.7 311 
 BRR  HN ES       1651 28.14                             152    0.0610 74.7 311 
 BRR  HZ I        1651 30.32        11.0 0.30            152           74.7 311 
 RUS  HZ EP   1   1651 12.14                             149   -0.50 7 86.0 171 
 RUS  HN ES       1651 31.03                             149    0.4710 86.0 171 
 RUS  HZ I        1651 32.89         8.1 0.30            151           86.0 171 
 PTB  HZ EP       1651 15.46                             135   -0.57 9  139 265 
 PTB  HN ES       1651 36.44                             135   -0.17 9  139 265 
 PTB  HZ I        1651 38.67         5.2 0.24            135            139 265 
 ZAR  HZ EP   1   1651 23.34                             123    1.05 6  205 297 
 ZAR  HN ES       1651 48.18                             123    0.44 9  205 297 
 ZAR  HZ I        1651 52.58         4.7 0.48            124            205 297 
 SML  HZ EP   4   1651 29.12                             117    1.47 0  255 338 
 SML  HE ES   4   1651 56.32                             117   -0.97 0  255 338 
 SML  HZ I        1651 58.09         8.3 0.28            118            255 338 
 GUY2CHZ EP   1   1651 32.72                             114    0.93 5  287 237 
 GUY2CHN ES   1   1652  4.15                             114   -0.50 5  287 237 
 GUY2CHZ I        1652 14.99         2.8 0.54                           287 237 
                                                                                
