 2011 1223 1258 22.5 L   6.764 -73.147144.9  RSN  7 0.3 2.0LRSN                1
 GAP=138        0.67       4.3     4.2  5.5 -0.4813E+01  0.4371E+01  0.4757E+01E
 Epicentro: LOS SANTOS - SANTANDER                                             3
 ACTION:UPD 12-07-13 16:17 OP:ep   STATUS:               ID:20111223125822 L   I
 2011-12-23-1250-00M.COL___188                                                 6
 STAT SP IPHASW D HRMM SECON CODA AMPLIT PERI AZIMU VELO AIN AR TRES W  DIS CAZ7
 BAR2 SZ EP       1258 42.08                             172    0.0910 19.4 192 
 BAR2 SZ ES   1   1258 56.60                             172   -0.56 7 19.4 192 
 BAR2 SZ I        1258 59.80        23.8 0.35                          19.4 192 
 GIR2 SZ EP   1   1258 42.12                             166   -0.10 7 35.1 352 
 GIR2 SZ ES   1   1258 57.53                             166   -0.03 7 35.1 352 
 BRR  HZ EP   1   1258 43.86                             152    0.16 7 73.0 301 
 BRR  HN ES   1   1259  0.89                             152    0.69 7 73.0 301 
 BRR  HZ I        1259  1.59        17.4 0.10                          73.0 301 
 PAM  SZ EP   1   1258 44.97                             150    0.12 7 80.6  38 
 PAM  SZ I        1258 45.14        22.2 0.16                          80.6  38 
 PAM  SN ES   1   1259  2.06                             150   -0.20 7 80.6  38 
 RUS  HZ EP   1   1258 45.70                             145   -0.23 7 96.7 176 
 RUS  HN ES   1   1259  4.65                             145    0.49 7 96.7 176 
 RUS  HZ I        1259  6.26        16.5 0.26                          96.7 176 
 PTB  HZ EP   1   1258 49.09                             132   -0.27 7  147 260 
 PTB  HN ES   1   1259  9.82                             132   -0.45 7  147 260 
 NOR  SZ EP   1   1258 58.14                             119    0.18 6  232 235 
 NOR  SN ES   1   1259 25.61                             119    0.02 6  232 235 
                                                                                
