 2013  123 1757 59.5 L   6.774 -73.160140.5  RSN  7 0.5 2.2LRSN                1
 GAP=148        0.98       6.2     5.8  9.6 -0.7650E+01  0.1291E+02  0.1719E+02E
 Epicentro: LOS SANTOS - SANTANDER                                             3
 ACTION:UPD 13-02-15 09:16 OP:ep   STATUS:               ID:20130123175759 L   I
 2013-01-23-1750-00M.COL___241                                                 6
 STAT SP IPHASW D HRMM SECON CODA AMPLIT PERI AZIMU VELO AIN AR TRES W  DIS CAZ7
 BAR2 SZ EP   1   1758 18.26                             171   -0.18 7 20.3 187 
 BAR2 SZ ES   1   1758 33.00                             171   -0.22 7 20.3 187 
 BRR  HZ EP   1   1758 21.05                             152    0.96 7 71.3 301 
 BRR  HE ES   1   1758 36.98                             152    0.83 7 71.3 301 
 BRR  HZ I        1758 40.04        27.9 0.32            147           71.3 301 
 PAM  SZ EP   1   1758 21.34                             149   -0.02 7 80.5  39 
 PAM  SN ES   1   1758 37.92                             149   -0.49 7 80.5  39 
 PAM  SZ I        1758 39.94        34.8 0.70            151           80.5  39 
 PTB  HZ EP   1   1758 25.33                             131   -0.53 7  146 260 
 PTB  HN ES   1   1758 46.31                             131   -0.11 7  146 260 
 PTB  HZ I        1758 49.94        18.9 0.18            130            146 260 
 ZAR  HN ES   1   1758 56.04                             121   -0.56 6  204 293 
 ZAR  HZ I        1759  3.09        18.3 0.30            120            204 293 
 NOR  HZ EP   1   1758 34.92                             118    0.30 6  232 235 
 NOR  HE ES   1   1759  1.45                             118   -0.56 6  232 235 
 NOR  HZ I        1759  6.28         7.6 0.36            118            232 235 
 CHI  HN ES   1   1759  5.90                             116    0.41 6  246 195 
                                                                                
