 2011  523 1644 27.9 L   6.802 -73.085144.0  RSN  4 0.4 1.7LRSN                1
 GAP=191        0.81      15.0    14.0 11.1  0.3487E+02 -0.7433E+02 -0.6506E+02E
 Epicentro: LOS SANTOS - SANTANDER                                             3
 ACTION:UP  11-06-29 08:55 OP:tino STATUS:               ID:20110523164427 L   I
 2011-05-23-1640-17S.COL___141                                                 6
 STAT SP IPHASW D HRMM SECON CODA AMPLIT PERI AZIMU VELO SNR AR TRES W  DIS CAZ7
 BTL  SZ EP   1   1644 47.51                             170     0.2 7   24 303 
 BTL  SZ ES   1   1645  2.76                             170     0.3 7   24 303 
 BAR2 SZ EP   2   1644 47.97                             170     0.6 5   26 205 
 BAR2 SZ ES   2   1645  1.64                             170    -0.9 5   26 205 
 BAR2 SZ I        1645  3.58        10.0 0.21                            26 205 
 BRR  HZ EP   1   1644 48.85                             150    -0.3 7   77 296 
 BRR  HN ES   1   1645  5.85                             150     0.1 7   77 296 
 BRR  HZ I        1645  8.43         8.7 0.34                            77 296 
 GRA  SZ EP   1   1644 52.64                             137    -0.1 7  124  15 
 GRA  SZ I        1644 54.16         7.3 0.18                           124  15 
                                                                                
