 2014  323 1724 44.4 L   6.815 -73.118152.5  RSN  5 0.4 1.5LRSN                1
 GAP=158        0.95      11.5     6.0  9.0 -0.2125E+02  0.5691E+01 -0.2166E+01E
 Epicentro: LOS SANTOS - SANTANDER                                             3
 OLDACT:REG 14-03-23 15:43 OP:fm   STATUS:               ID:20140323171813     3
 OLDACT:DUP 14-03-23 17:23 OP:fm   STATUS:               ID:20140323171814d    3
 OLDACT:UP  14-03-23 17:23 OP:fm   STATUS:               ID:20140323171813     3
 ACTION:UPD 14-04-09 23:20 OP:nd   STATUS:               ID:20140323172444 L   I
 OLDACT:UP  14-03-23 17:31 OP:fm   STATUS:               ID:20140323171814d    3
 2014-03-23-1718-13M.COL___246                                                 6
 STAT SP IPHASW D HRMM SECON CODA AMPLIT PERI AZIMU VELO AIN AR TRES W  DIS CAZ7
 BAR2 SZ ES   1   1725 20.76                             170   -0.15 7 25.6 196 
 BAR2 SZ I        1725 22.54         7.1 0.52            168           25.6 196 
 BRR  HZ EP       1725  6.89                             153    0.4610 73.2 296 
 BRR  HN ES       1725 24.07                             153    0.4910 73.2 296 
 BRR  SZ I        1725 30.90         6.7 0.30            150           73.2 296 
 PAM  SZ EP       1725  7.29                             153    0.0910 74.2  39 
 PAM  SN ES   1   1725 24.28                             153   -0.66 7 74.2  39 
 PAM  SZ I        1725 32.00         4.1 3.16            159           74.2  39 
 PTB  HZ EP   1   1725 11.93                             133   -0.34 7  151 258 
 PTB  HE ES   1   1725 33.65                             133   -0.32 7  151 258 
 PTB  SZ I        1725 49.37         3.0 1.36            134            151 258 
 ZAR  HN ES   1   1725 42.73                             123   -0.67 6  206 291 
                                                                                
