 2012  523 1626 46.5 L   6.777 -73.171144.3  RSN  6 0.1 1.6LRSN                1
 GAP=134        0.38       2.5     2.2  4.2 -0.8963E+00  0.3398E+01 -0.5401E+00E
 Epicentro: LOS SANTOS - SANTANDER                                             3
 ACTION:UP  12-07-05 12:07 OP:pat  STATUS:               ID:20120523162646 L   I
 2012-05-23-1620-00M.COL___200                                                 6
 STAT SP IPHASW D HRMM SECON CODA AMPLIT PERI AZIMU VELO SNR AR TRES W  DIS CAZ7
 BAR2 SZ EP   1   1627  5.99                             172     0.1 7   20 183 
 BAR2 SZ ES   1   1627 21.17                             172     0.1 7   20 183 
 BAR2 SZ I        1627 21.88        13.6 0.21                            20 183 
 PAM  SZ EP   1   1627  9.05                             149     0.2 7   81  40 
 PAM  SN ES   1   1627 25.96                             149    -0.2 7   81  40 
 RUS  HZ EP   1   1627  9.85                             144    -0.1 7   98 174 
 RUS  HN ES   1   1627 28.25                             144     0.0 7   98 174 
 RUS  HZ I        1627 30.05         6.4 0.40                            98 174 
 PTB  HZ EP   1   1627 13.08                             132     0.0 7  145 260 
 PTB  HE ES   1   1627 33.93                             132     0.1 7  145 260 
 PTB  HZ I        1627 34.81         3.7 0.21                           145 260 
 ZAR  HN ES   1   1627 43.75                             122    -0.1 6  202 293 
 NOR  SN ES   1   1627 49.10                             119    -0.2 6  231 235 
                                                                                
