 2012 1123 1858 19.2 L   6.778 -73.161141.3  RSN  6 0.1 2.0LRSN                1
 GAP=136        0.40       2.5     2.3  3.6 -0.1159E+01  0.2504E+01 -0.1258E+01E
 Epicentro: LOS SANTOS - SANTANDER                                             3
 ACTION:UPD 12-12-05 15:35 OP:}ep  STATUS:               ID:20121123185819 L   I
 2012-11-23-1850-00M.COL___233                                                 6
 STAT SP IPHASW D HRMM SECON CODA AMPLIT PERI AZIMU VELO AIN AR TRES W  DIS CAZ7
 BAR2 SZ EP       1858 38.41                             171    0.1210 20.7 187 
 BAR2 SZ ES       1858 53.27                             171    0.1310 20.7 187 
 BAR2 SZ I        1858 54.41        51.7 0.23                          20.7 187 
 GIR2 SZ EP       1858 38.53                             166    0.0810 33.5 354 
 PAM  SZ EP       1858 41.25                             149    0.0810 80.3  39 
 PAM  SZ I        1858 41.64        17.4 0.23                          80.3  39 
 PAM  SN ES       1858 58.07                             149   -0.2010 80.3  39 
 RUS  HZ EP   1   1858 42.31                             143   -0.08 7 98.3 175 
 RUS  HN ES   1   1859  0.40                             143   -0.05 7 98.3 175 
 RUS  HN I        1859  2.71        14.4 0.23                          98.3 175 
 PTB  HZ EP   1   1858 45.41                             131   -0.25 7  146 260 
 PTB  HN ES   1   1859  6.08                             131   -0.19 7  146 260 
 PTB  HZ I        1859  8.46         7.1 0.12                           146 260 
 ZAR  HN ES   1   1859 16.58                             121    0.20 6  203 293 
 ZAR  HZ I        1859 23.07         9.1 0.29                           203 293 
                                                                                
