 2011 1123 1956 47.5 L   6.756 -73.156146.0  RSN  5 0.3 1.8LRSN                1
 GAP=233        0.50       4.3     5.4  6.6  0.6147E+01  0.6387E+01  0.2651E+01E
 Epicentro: LOS SANTOS - SANTANDER                                             3
 ACTION:UPD 12-07-13 16:11 OP:ep   STATUS:               ID:20111123195647 L   I
 2011-11-23-1953-47S.COL___178                                                 6
 STAT SP IPHASW D HRMM SECON CODA AMPLIT PERI AZIMU VELO AIN AR TRES W  DIS CAZ7
 BAR2 SZ EP   2   1957  6.48                             173   -0.56 5 18.3 189 
 BAR2 SZ I        1957 25.23        11.9 0.43                          18.3 189 
 BRR  HZ EP   1   1957  8.56                             152   -0.17 7 72.7 302 
 BRR  HZ I        1957 12.47        14.0 0.53                          72.7 302 
 BRR  HN ES   1   1957 25.49                             152    0.18 7 72.7 302 
 RUS  HZ EP   1   1957 10.84                             146   -0.07 7 95.8 175 
 RUS  HN ES   1   1957 29.42                             146    0.23 7 95.8 175 
 RUS  HZ I        1957 31.05         4.9 0.68                          95.8 175 
 ZAR  HZ EP   2   1957 20.41                             123    0.39 4  205 294 
 ZAR  HZ I        1957 51.52         7.6 0.24                           205 294 
 NOR  SZ EP   2   1957 23.24                             119    0.42 4  231 235 
 NOR  SN ES   1   1957 50.13                             119   -0.26 6  231 235 
                                                                                
