 2011  623 1804 14.3 L   6.723 -73.059146.0  RSN  4 0.3 1.1LRSN                1
 GAP=169        0.66      10.8    14.0 18.6  0.1389E+01 -0.1575E+03 -0.6584E+02E
 Epicentro: ARATOCA - SANTANDER                                                3
 ACTION:UP  11-07-14 19:07 OP:ep   STATUS:               ID:20110623180414 L   I
 2011-06-23-1803-52S.COL___140                                                 6
 STAT SP IPHASW D HRMM SECON CODA AMPLIT PERI AZIMU VELO SNR AR TRES W  DIS CAZ7
 BTL  SZ EP       18 4 34.43                             168     0.310   32 313 
 BRR  HZ EP       18 4 35.96                             150    -0.210   84 301 
 BRR  HZ I        18 4 36.28         4.2 0.17                            84 301 
 BRR  HN ES   2   18 4 53.54                             150     0.2 5   84 301 
 RUS  HZ EP   3   18 4 37.66                             148     0.2 2   92 182 
 RUS  HZ I        18 4 38.37         0.9 0.33                            92 182 
 RUS  HN ES   3   18 4 54.63                             148    -0.9 2   92 182 
 GRA  SZ EP       18 4 39.93                             136    -0.110  132  12 
 GRA  SZ I        18 4 41.82         3.0 0.16                           132  12 
                                                                                
