 2017  723 1531 40.0 L   6.768 -73.149153.3  RSN  6 0.5 1.5LRSN                1
 GAP=235        1.21       6.9     7.3  8.9  0.1994E+02  0.9229E+01  0.3169E+01E
 Epicentro: LOS SANTOS - SANTANDER                                             3
 ACTION:UPD 17-08-30 15:35 OP:rebc STATUS:               ID:20170723153140 L   I
 OLDACT:REG 17-07-23 20:44 OP:ar   STATUS:               ID:20170723152704     3
 2017-07-23-1528-00M.COL___392                                                 6
 STAT SP IPHASW D HRMM SECON CODA AMPLIT PERI AZIMU VELO AIN AR TRES W  DIS CAZ7
 BAR2 EZ EP       1532  0.28                             172   -0.2310 19.8 191 
 BAR2 EZ ES       1532 16.33                             172   -0.1610 19.8 191 
 BAR2 EZ I        1532 18.04         7.3 0.34            171           19.8 191 
 BRR  HZ EP       1532  2.27                             153    0.1810 72.6 301 
 BRR  HE ES       1532 19.75                             153    0.4610 72.6 301 
 RUS  HZ EP       1532  4.62                             146    0.3210 97.1 176 
 RUS  HN ES       1532 22.91                             146   -0.3110 97.1 176 
 RUS  HZ I        1532 23.43         2.1 0.36            148           97.1 176 
 PTB  HZ EP       1532  6.89                             134   -0.65 9  147 260 
 PTB  HN ES       1532 28.10                             134   -0.90 9  147 260 
 PTB  HZ I        1532 34.11         4.9 0.20            133            147 260 
 SPBC HZ EP       1532  9.04                             131    0.19 9  160 220 
 SPBC HE ES       1532 32.14                             131    0.81 9  160 220 
 ZAR  HE ES       1532 39.20                             124    0.33 9  205 293 
 ZAR  HZ I        1532 43.95         6.0 0.28            123            205 293 
                                                                                
