 2016  223 1035 13.3 L   6.743 -73.141138.8  RSN  5 0.3 1.5LRSN                1
 GAP=234        0.69       3.7     4.9  5.0  0.8800E+01  0.6129E+01  0.6087E+00E
 Epicentro: LOS SANTOS - SANTANDER                                             3
 ACTION:UPD 16-03-04 21:28 OP:rebc STATUS:               ID:20160223103513 L   I
 OLDACT:REG 16-02-23 20:21 OP:drio STATUS:               ID:20160223102748     3
 2016-02-23-1027-48M.COL___315                                                 6
 STAT SP IPHASW D HRMM SECON CODA AMPLIT PERI AZIMU VELO AIN AR TRES W  DIS CAZ7
 BAR2 EZ EP       1035 31.74                             173   -0.2110 17.3 195 
 BAR2 EZ ES       1035 46.30                             173   -0.2210 17.3 195 
 BAR2 EZ I        1035 47.75         6.5 0.26            151           17.3 195 
 BRR  HZ EP       1035 33.64                             150   -0.2410 74.8 303 
 BRR  HN ES       1035 50.32                             150    0.3610 74.8 303 
 RUS  HZ EP       1035 36.07                             144    0.1910 94.3 176 
 RUS  HE ES       1035 53.68                             144    0.1710 94.3 176 
 RUS  HZ I        1035 55.19         2.6 0.36            134           94.3 176 
 SPBC HZ EP       1035 40.61                             128   -0.20 9  159 221 
 SPBC HN ES       1036  2.26                             128   -0.02 9  159 221 
 SPBC HZ I        1036 18.44         7.5 0.20            119            159 221 
 ZAR  HZ EP       1035 46.07                             120    0.50 8  207 294 
 ZAR  HN ES       1036 10.47                             120   -0.30 8  207 294 
 ZAR  HZ I        1036 16.57         3.6 0.32            116            207 294 
                                                                                
