 2011  823 1500 59.7 L   6.612 -73.587  7.6  RSN  7 0.3 2.4LRSN                1
 GAP=107        0.66       3.1     4.4 10.1  0.1049E+02  0.4111E+02  0.2515E+02E
 Epicentro: EL CARMEN DE CHUCURI - SANTANDER                                   3
 ACTION:UPD 12-07-13 15:53 OP:ep   STATUS:               ID:20110823150059 L   I
 2011-08-23-1459-21S.COL___158                                                 6
 STAT SP IPHASW D HRMM SECON CODA AMPLIT PERI AZIMU VELO AIN AR TRES W  DIS CAZ7
 BAR2 SZ IP       15 1  7.54                              95    0.1810 44.8  93 
 BAR2 SZ ES   1   15 1 13.20                              95   -0.13 7 44.8  93 
 BAR2 SZ I        15 1 13.86       211.6 0.25                          44.8  93 
 BRR  HZ EP       15 1  8.69                              94   -0.1810 56.5 346 
 BRR  HN ES   1   15 1 16.11                              94    0.09 7 56.5 346 
 BRR  HZ I        15 1 17.04       122.9 0.15                          56.5 346 
 RUS  HZ IP     D 15 1 15.84                              92    0.3110 97.1 145 
 RUS  HN ES   1   15 1 27.29                              92   -0.59 7 97.1 145 
 RUS  HZ I        15 1 28.88        80.2 0.16                          97.1 145 
 NOR  SZ EP   1   15 1 28.18                              56    0.57 7  183 231 
 NOR  SN ES   1   15 1 49.31                              56   -0.07 7  183 231 
 HEL  HZ EP   1   15 1 32.26                              56   -0.30 6  220 258 
 HEL  HN ES   1   15 1 57.78                              56   -0.41 6  220 258 
 HEL  HZ I        15 1 58.89        66.6 0.31                           220 258 
 GUY  SN ES   1   15 2  5.50                              56   -0.05 6  252 233 
 RREF HN ES   1   15 2 10.66                              56    0.36 6  272 226 
 RREF HZ I        15 2 14.21        15.3 0.27                           272 226 
                                                                                
