 2014  223 1116 12.7 L   6.874 -73.058149.3  RSN  4 0.3 1.3LRSN                1
 GAP=252        0.84       6.3     8.2  7.5  0.3117E+02  0.1753E+02  0.1093E+02E
 Epicentro: LOS SANTOS - SANTANDER                                             3
 ACTION:UPD 14-03-10 08:12 OP:ep   STATUS:               ID:20140223111612 L   I
 OLDACT:DUP 14-02-23 18:36 OP:carl STATUS:               ID:20140223111001d    3
 2014-02-23-1110-00M.COL___215                                                 6
 STAT SP IPHASW D HRMM SECON CODA AMPLIT PERI AZIMU VELO AIN AR TRES W  DIS CAZ7
 BAR2 SZ EP       1116 33.10                             167    0.0710 34.1 204 
 BAR2 SZ ES       1116 49.05                             167    0.1810 34.1 204 
 BAR2 SZ I        1116 50.81         4.3 0.20            162           34.1 204 
 RUS  HZ EP       1116 37.73                             142    0.3310  109 181 
 RUS  HN ES       1116 56.14                             142   -0.5010  109 181 
 RUS  HZ I        1116 57.63         2.2 0.42            142            109 181 
 ZAR  HE ES       1117 11.90                             122   -0.11 8  210 289 
 ZAR  HZ I        1117 17.60         3.9 0.78            121            210 289 
 CHI  HZ EP       1116 51.27                             117   -0.49 8  259 197 
 CHI  HN ES       1117 22.68                             117    0.48 8  259 197 
 CHI  HZ I        1117 24.79         1.1 0.44            117            259 197 
                                                                                
