 2011 1223 1603 15.5 L   6.776 -73.113141.6  RSN  8 0.4 1.9LRSN                1
 GAP=193        0.81       5.4     5.4  6.2  0.2297E+01  0.9865E+01  0.9889E+01E
 Epicentro: LOS SANTOS - SANTANDER                                             3
 ACTION:UPD 12-07-13 16:18 OP:ep   STATUS:               ID:20111223160315 L   I
 2011-12-23-1600-00M.COL___190                                                 6
 STAT SP IPHASW D HRMM SECON CODA AMPLIT PERI AZIMU VELO AIN AR TRES W  DIS CAZ7
 BAR2 SZ EP       16 3 34.59                             171   -0.0310 21.7 201 
 BAR2 SZ ES   1   16 3 49.08                             171   -0.43 7 21.7 201 
 BAR2 SZ I        16 3 50.79        27.1 0.17                          21.7 201 
 GIR2 SZ EP   1   16 3 34.59                             166   -0.21 7 34.6 345 
 GIR2 SZ ES   1   16 3 50.22                             166    0.39 7 34.6 345 
 BRR  HZ EP       16 3 36.38                             150   -0.1110 75.7 299 
 BRR  HE ES   1   16 3 53.33                             150    0.50 7 75.7 299 
 RUS  HZ EP   1   16 3 39.14                             144    0.48 7 97.8 178 
 RUS  HN ES   1   16 3 56.60                             144   -0.11 7 97.8 178 
 RUS  HZ I        16 3 58.94         7.1 0.26                          97.8 178 
 PTB  HZ EP   1   16 3 41.37                             130   -1.07 7  151 260 
 PTB  HE ES   1   16 4  3.13                             130   -0.30 7  151 260 
 NOR  SZ EP   1   16 3 51.16                             117   -0.01 6  236 235 
 NOR  SN ES   1   16 4 19.27                             117    0.29 6  236 235 
 CHI  HZ EP   1   16 3 53.19                             116    0.37 6  247 196 
 CHI  HZ I        16 4 29.02         5.4 0.48                           247 196 
 HEL  HZ EP   1   16 3 56.39                             114    0.54 6  275 257 
 HEL  HN ES   2   16 4 27.65                             114    0.34 4  275 257 
                                                                                
