 2016  923 1717 56.1 L   6.804 -73.156135.4  RSN  7 0.5 1.9LRSN                1
 GAP=147        1.20       5.2     5.1  7.9 -0.3515E+01  0.9011E+01  0.1289E+02E
 Epicentro: LOS SANTOS - SANTANDER                                             3
 ACTION:UPD 17-08-17 21:15 OP:lp   STATUS:               ID:20160923171756 L   I
 OLDACT:REG 16-09-23 20:57 OP:ar   STATUS:               ID:20160923170743     3
 2016-09-23-1708-00M.COL___330                                                 6
 STAT SP IPHASW D HRMM SECON CODA AMPLIT PERI AZIMU VELO AIN AR TRES W  DIS CAZ7
 BAR2 EZ EP       1718 14.03                             170   -0.4310 23.6 187 
 BAR2 EZ ES       1718 28.56                             170   -0.2510 23.6 187 
 BAR2 EZ I        1718 30.69        15.8 0.20            151           23.6 187 
 BRR  HZ EP       1718 15.84                             151   -0.2010 70.0 299 
 BRR  HN ES       1718 32.49                             151    0.8710 70.0 299 
 BRR  HZ I        1718 35.23        20.5 0.18            155           70.0 299 
 PAM  EZ EP       1718 16.85                             149   -0.3710 77.7  40 
 PAM  EN ES       1718 33.86                             149    0.1510 77.7  40 
 PAM  EZ I        1718 35.91         8.7 0.58            156           77.7  40 
 PTB  HZ EP   4   1718 20.84                             130   -1.28 0  147 259 
 PTB  HN ES       1718 41.81                             130   -0.63 9  147 259 
 PTB  HZ I        1718 45.12         8.5 0.32            127            147 259 
 ZAR  HZ EP       1718 28.37                             120    0.64 9  203 292 
 ZAR  HN ES       1718 52.32                             120   -0.12 9  203 292 
 ZAR  HZ I        1718 57.59        12.0 0.32            122            203 292 
 NOR  HZ EP       1718 30.65                             116   -0.50 8  234 234 
 NOR  HN ES       1718 58.38                             116   -0.13 8  234 234 
 NOR  HZ I        1719  0.55         4.6 0.22            113            234 234 
 CHI  HZ EP       1718 33.97                             115    0.74 8  249 195 
 CHI  HE ES       1719  2.77                             115    0.56 8  249 195 
 CHI  HE I        1719 53.31         7.1 0.52            111            249 195 
                                                                                
