 2014 1123 1300 19.2 L   6.822 -73.128148.1  RSN 18 0.5 2.3LRSN                1
 GAP=127        1.10       3.3     3.5  4.9 -0.4268E+01  0.2739E+01  0.1839E+01E
 Epicentro: LOS SANTOS - SANTANDER                                             3
 ACTION:UPD 14-12-19 15:46 OP:nd   STATUS:               ID:20141123130019 L   I
 OLDACT:REG 14-11-23 20:50 OP:fm   STATUS:               ID:20141123125743     3
 2014-11-23-1257-43M.COL___297                                                 6
 STAT SP IPHASW D HRMM SECON CODA AMPLIT PERI AZIMU VELO AIN AR TRES W  DIS CAZ7
 BAR2 SZ EP       13 0 39.52                             170    0.3710 26.1 193 
 BAR2 SZ ES       13 0 54.66                             170   -0.0710 26.1 193 
 BAR2 SZ I        13 0 55.76        50.3 0.24            169           26.1 193 
 BRR  HZ EP       13 0 41.32                             153    0.7010 71.8 296 
 BRR  HN ES       13 0 58.08                             153    0.7410 71.8 296 
 BRR  HZ I        13 1  1.49        37.7 0.32            151           71.8 296 
 PAM  SZ EP       13 0 42.31                             152    0.8410 74.3  40 
 PAM  SN ES       13 0 58.70                             152   -0.1510 74.3  40 
 PAM  SZ I        13 1  1.67        69.8 0.48            154           74.3  40 
 RUS  HZ EP       13 0 43.32                             144   -0.0110  103 177 
 RUS  HN ES       13 1  1.88                             144   -0.2810  103 177 
 RUS  HZ I        13 1  3.26        27.0 0.26            145            103 177 
 PTB  HZ EP       13 0 46.12                             132   -0.44 9  150 258 
 PTB  HN ES       13 1  7.14                             132   -0.77 9  150 258 
 PTB  HZ I        13 1  9.94        15.4 0.12            131            150 258 
 SPBC HZ EP       13 0 48.27                             129    0.12 9  166 219 
 SPBC HN ES       13 1 10.08                             129   -0.67 9  166 219 
 SPBC HZ I        13 1 11.86        32.9 0.12            129            166 219 
 ZAR  HZ EP       13 0 51.36                             123   -0.51 9  205 291 
 ZAR  HN ES       13 1 17.16                             123   -0.21 9  205 291 
 ZAR  HZ I        13 1 23.72        17.6 0.30            122            205 291 
 NOR  HZ EP       13 0 55.61                             119    0.25 8  238 234 
 NOR  HE ES       13 1 23.30                             119   -0.29 8  238 234 
 NOR  HZ I        13 1 29.48        18.9 0.22            119            238 234 
 CHI  HZ EP       13 0 57.73                             117    0.41 8  251 195 
 CHI  HN ES       13 1 26.48                             117   -0.58 8  251 195 
 CHI  HZ I        13 1 30.57        16.9 0.46            118            251 195 
 ROSC BZ EP       13 0 57.98                             117    0.22 8  256 211 
 ROSC BN ES       13 1 28.06                             117    0.21 8  256 211 
 ROSC BZ I        13 1 33.39        28.0 0.50            117            256 211 
 HEL  HZ EP       13 1  0.49                             115    0.70 8  275 255 
 HEL  HN ES       13 1 31.10                             115   -0.36 8  275 255 
 HEL  HZ I        13 1 37.60        12.1 0.26            115            275 255 
 GUY2CHZ EP       13 1  3.59                             112    0.36 7  304 235 
 GUY2CHN ES       13 1 37.69                             112    0.10 7  304 235 
 GUY2CHZ I        13 1 43.74        10.1 0.32                           304 235 
 RREF HZ EP       13 1  5.97                             111    0.20 7  325 229 
 RREF HN ES       13 1 42.38                             111    0.27 7  325 229 
 RREF HZ I        13 1 48.51        12.5 0.28            111            325 229 
 TOL  SZ EP       13 1  7.46                             109   -0.42 6  347 225 
 TOL  SE ES       13 1 46.02                             109    0.15 6  347 225 
 MON  HZ EP   4   13 1  5.27                             109   -3.01 0  354 308 
 MON  HE ES   4   13 1 44.46                             109   -2.11 0  354 308 
 MON  HZ I        13 1 50.08         3.2 0.36            109            354 308 
 SDV  BZ EP       13 1  7.89                             109   -1.07 6  357  50 
 SDV  BE ES       13 1 47.15                             109   -0.64 6  357  50 
 SDV  BZ I        13 1 49.74         4.8 0.45            110            357  50 
 ANIL HE ES       13 1 48.80                             109    0.18 6  360 224 
 ANIL HZ I        13 1 57.40         3.0 0.30            109            360 224 
 SJC  HZ EP   1   13 1 13.78                             106   -0.93 4  408 327 
 SJC  HN ES   4   13 1 54.80                             106   -3.22 0  408 327 
 SJC  HZ I        13 2  0.51         3.5 0.44            107            408 327 
                                                                                
