 2011  923 1524  2.5 L   6.788 -73.098139.4  RSN  4 0.1 1.7LRSN                1
 GAP=143        0.37       3.7     5.4  8.2  0.1504E+01 -0.1927E+02  0.3370E+01E
 Epicentro: LOS SANTOS - SANTANDER                                             3
 ACTION:UPD 12-07-13 15:59 OP:ep   STATUS:               ID:20110923152402 L   I
 2011-09-23-1521-29S.COL___164                                                 6
 STAT SP IPHASW D HRMM SECON CODA AMPLIT PERI AZIMU VELO AIN AR TRES W  DIS CAZ7
 BAR2 SZ ES   3   1524 35.87                             170   -0.22 2 23.6 203 
 PAM  SZ EP       1524 23.96                             151    0.0510 75.2  36 
 BRR  HZ EP       1524 23.13                             150   -0.1510 76.5 298 
 BRR  HZ I        1524 32.86        10.4 0.48                          76.5 298 
 BRR  HN ES   2   1524 39.76                             150    0.27 5 76.5 298 
 RUS  HZ EP       1524 25.58                             143    0.0610 99.1 179 
 RUS  HN ES   3   1524 43.31                             143   -0.16 2 99.1 179 
                                                                                
