 2015  323 1345 53.1 L   6.811 -73.167139.7  RSN 13 0.5 2.2LRSN                1
 GAP=133        1.06       3.1     3.9  5.6 -0.9382E+00  0.8197E+01 -0.3580E+00E
 Epicentro: LOS SANTOS - SANTANDER                                             3
 ACTION:UPD 15-04-30 16:28 OP:nd   STATUS:               ID:20150323134553 L   I
 OLDACT:REG 15-03-23 20:47 OP:fm   STATUS:               ID:20150323133746     3
 2015-03-23-1337-46M.COL___272                                                 6
 STAT SP IPHASW D HRMM SECON CODA AMPLIT PERI AZIMU VELO AIN AR TRES W  DIS CAZ7
 BAR2 EZ EP       1346 12.10                             170    0.0910 24.3 184 
 BAR2 EZ ES       1346 26.53                             170   -0.2410 24.3 184 
 BAR2 EZ I        1346 28.35        46.5 0.22            166           24.3 184 
 BRR  HZ IP     C 1346 13.94                             152    0.5110 68.5 299 
 BRR  HE ES       1346 30.05                             152    0.7510 68.5 299 
 BRR  HZ I        1346 31.21        24.6 0.28            147           68.5 299 
 PAM  SZ EP       1346 14.98                             149    0.2810 77.9  41 
 PAM  SE ES       1346 31.04                             149   -0.5110 77.9  41 
 PAM  SZ I        1346 34.38        23.3 0.52            148           77.9  41 
 RUS  HZ EP       1346 16.00                             142   -0.3610  102 175 
 RUS  HN ES       1346 34.27                             142   -0.2310  102 175 
 RUS  HZ I        1346 36.82        15.3 0.26            136            102 175 
 PTB  HZ EP       1346 19.02                             131   -0.36 9  146 258 
 PTB  HN ES       1346 39.35                             131   -0.54 9  146 258 
 PTB  HZ I        1346 42.35        22.4 0.20            125            146 258 
 SPBC HZ EP       1346 21.08                             128   -0.01 9  163 218 
 SPBC HN ES       1346 43.45                             128    0.53 9  163 218 
 SPBC HZ I        1346 50.71        30.0 0.24            122            163 218 
 ZAR  HZ EP       1346 25.55                             121    0.68 9  201 292 
 ZAR  HN ES       1346 49.84                             121    0.18 9  201 292 
 ZAR  HZ I        1346 56.08        23.6 0.52            116            201 292 
 NOR  HZ EP       1346 28.63                             117    0.28 8  234 234 
 NOR  HE ES       1346 55.51                             117   -0.34 8  234 234 
 NOR  HZ I        1347  0.33        12.4 0.22            112            234 234 
 SML  HZ EP       1346 29.38                             116    0.23 8  242 336 
 SML  HN ES       1346 57.02                             116   -0.26 8  242 336 
 SML  HZ I        1347  0.57        30.9 0.10            112            242 336 
 HEL  HN ES       1347  3.99                             114    0.25 8  270 255 
 HEL  HZ I        1347 10.43         8.3 0.28            109            270 255 
 CBOC HZ EP       1346 38.92                             109   -0.63 7  332 252 
 CBOC HZ I        1347 28.85         3.5 0.46            105            332 252 
 MON  HN ES       1347 18.17                             108   -1.20 6  351 308 
 MON  HZ I        1347 22.42         2.4 0.26            104            351 308 
 ORTC HZ EP       1346 47.22                             105    0.45 6  395 216 
 ORTC HN ES       1347 28.61                             105   -0.03 6  395 216 
 ORTC HZ I        1347 34.50         5.5 0.42            102            395 216 
                                                                                
