 2016 1223 1910 28.1 L   6.722 -73.099145.2  RSN  5 0.3 1.2LRSN                1
 GAP=146        0.76       4.0     5.5  5.7 -0.6579E+00 -0.8015E+01 -0.1239E-01E
 Epicentro: JORDAN - SANTANDER                                                 3
 ACTION:UPD 17-01-11 20:18 OP:rebc STATUS:               ID:20161223191027 L   I
 OLDACT:UP  16-12-23 22:21 OP:edw  STATUS:               ID:20161223190750d    3
 OLDACT:UP  16-12-23 22:21 OP:edw  STATUS:               ID:20161223190750d    3
 OLDACT:DUP 16-12-23 22:16 OP:edw  STATUS:               ID:20161223190750d    3
 2016-12-23-1908-00M.COL___384                                                 6
 STAT SP IPHASW D HRMM SECON CODA AMPLIT PERI AZIMU VELO AIN AR TRES W  DIS CAZ7
 BAR2 EZ EP       1910 47.13                             173   -0.3910 17.1 213 
 BAR2 EZ ES       1911  2.52                             173   -0.1610 17.1 213 
 BRR  HZ EP       1910 49.44                             149   -0.2410 80.0 302 
 BRR  HN ES       1911  6.84                             149    0.3110 80.0 302 
 PAM  EZ EP       1910 50.34                             149   -0.1210 81.3  33 
 PAM  EN ES       1911  8.05                             149    0.1310 81.3  33 
 PAM  EZ I        1911 10.21         2.8 0.46            155           81.3  33 
 RUS  HZ EP       1910 51.62                             146    0.4810 91.8 179 
 RUS  HE ES       1911  9.12                             146   -0.0210 91.8 179 
 RUS  HZ I        1911 11.80         1.7 0.60            146           91.8 179 
 PTB  HZ EP   9   1910 54.68                             131   -0.65 0  151 262 
 PTB  HN ES       1911 15.61                             132   -0.33 9  151 262 
 PTB  HZ I        1911 27.96         3.6 0.22            127            151 262 
                                                                                
