 2015  923 1224  7.1 L   6.770 -73.169147.6  RSN  7 0.4 1.8LRSN                1
 GAP=208        0.80       2.9     5.7  5.4  0.3055E+01  0.3944E+01 -0.9949E+00E
 Epicentro: LOS SANTOS - SANTANDER                                             3
 ACTION:UPD 15-10-28 16:28 OP:cam  STATUS:               ID:20150923122407 L   I
 OLDACT:REG 15-09-23 21:57 OP:ar   STATUS:               ID:20150923121747     3
 2015-09-23-1217-47M.COL___355                                                 6
 STAT SP IPHASW D HRMM SECON CODA AMPLIT PERI AZIMU VELO AIN AR TRES W  DIS CAZ7
 BAR2 EZ EP       1224 26.37                             172   -0.4810 19.7 184 
 BAR2 EZ ES       1224 42.15                             172   -0.1410 19.7 184 
 BAR2 EZ I        1224 42.84         7.6 0.30            165           19.7 184 
 BRR  HZ EP       1224 28.37                             153   -0.0210 70.7 302 
 BRR  HN ES       1224 45.35                             153    0.3310 70.7 302 
 BRR  HZ I        1224 51.65        11.9 0.26            149           70.7 302 
 PTB  HZ EP   2   1224 32.95                             133   -0.96 5  145 260 
 PTB  HN ES   2   1224 54.21                             133   -0.63 5  145 260 
 PTB  HZ I        1225  0.01         6.8 0.50            130            145 260 
 SPBC HZ EP       1224 35.34                             130    0.02 9  159 219 
 SPBC HE ES       1224 57.84                             130    0.49 9  159 219 
 SPBC HZ I        1225  3.08         8.3 0.48            128            159 219 
 ZAR  HZ EP       1224 39.56                             123    0.04 9  203 293 
 ZAR  HN ES       1225  4.57                             123   -0.27 9  203 293 
 ZAR  HZ I        1225 10.28         8.2 0.36            122            203 293 
 CHI  HZ EP   2   1224 45.45                             118    1.00 4  245 195 
 CHI  HN ES       1225 13.61                             118   -0.00 8  245 195 
 CHI  HZ I        1225 23.48         2.2 0.28            118            245 195 
 SML  HZ EP       1224 43.98                             118   -0.03 8  246 336 
 SML  HN ES       1225 13.23                             118    0.41 8  246 336 
 SML  HZ I        1225 14.18         7.4 0.30            119            246 336 
                                                                                
