 2013  123 1813 30.8 L   6.796 -73.142150.7  RSN 17 0.4 2.9LRSN 3.3WRSN        1
 SPEC AVERAGE  MO 14.0 ST 24.9 OM  2.4 f0 5.49 R0.2815 AL 2.86 WI 18.4 MW  3.3 3
 SPEC SD       MO  0.3 ST  9.1 OM  0.6 f0 1.21 R0.0635 AL      WI      MW  0.2 3
 GAP= 71        0.92       3.0     2.8  4.5 -0.8182E-01  0.2285E+01  0.1935E+01E
 Epicentro: LOS SANTOS - SANTANDER                                             3
 SPEC TAM HH Z MO 14.2 ST 11.5 OM  1.7 f0 3.73 R0.3941 AL 1.78 WI 21.0 MW  3.4 3
 SPEC TAM HH Z T181356 K 0.000 GD  216 VP 7.60 DE 3.20 Q0300.0 QA 0.60 VS 4.20 3
 SPEC OCA HH N MO 14.2 ST 33.7 OM  2.5 f0 5.20 R0.2827 AL 2.82 WI 12.3 MW  3.4 3
 SPEC OCA HH N T181420 K 0.000 GD  220 VS 4.20 DE 3.20 Q0300.0 QA 0.60 VS 4.20 3
 SPEC PTB HH N MO 14.3 ST 39.0 OM  2.6 f0 5.13 R0.2865 AL 2.06 WI 18.8 MW  3.5 3
 SPEC PTB HH N T181418 K 0.000 GD  211 VS 4.20 DE 3.20 Q0300.0 QA 0.60 VS 4.20 3
 SPEC RUS HH N MO 13.8 ST 18.5 OM  2.1 f0 6.18 R0.2379 AL 3.63 WI  8.8 MW  3.1 3
 SPEC RUS HH N T181413 K 0.000 GD  180 VS 4.20 DE 3.20 Q0300.0 QA 0.60 VS 4.20 3
 SPEC PAM SH Z MO 14.2 ST 17.3 OM  1.8 f0 4.30 R0.3419 AL 2.68 WI 17.5 MW  3.4 3
 SPEC PAM SH Z T181353 K 0.000 GD  169 VP 7.60 DE 3.20 Q0300.0 QA 0.60 VS 4.20 3
 SPEC CHI HH Z MO 13.9 ST 29.4 OM  1.3 f0 6.29 R0.2337 AL 2.76 WI 30.5 MW  3.2 3
 SPEC CHI HH Z T1814 8 K 0.000 GD  290 VP 7.60 DE 3.20 Q0300.0 QA 0.60 VS 4.20 3
 SPEC BRR HH Z MO 13.6 ST 25.0 OM  2.0 f0 7.58 R0.1939 AL 4.31 WI 19.6 MW  3.0 3
 SPEC BRR HH Z T1814 8 K 0.000 GD  166 VS 4.20 DE 3.20 Q0300.0 QA 0.60 VS 4.20 3
 ACTION:UPD 13-02-15 09:16 OP:ep   STATUS:               ID:20130123181330 L   I
 2013-01-23-1810-00M.COL___241                                                 6
 STAT SP IPHASW D HRMM SECON CODA AMPLIT PERI AZIMU VELO AIN AR TRES W  DIS CAZ7
 BAR2 SZ EP       1813 51.00                             171    0.0310 23.0 191 
 BAR2 SZ ES       1814  6.13                             171   -0.6110 23.0 191 
 BAR2 SZ I        1814  8.70       347.5 0.41            161           23.0 191 
 BRR  HZ IP       1813 52.77                             153    0.3010 71.8 299 
 BRR  HN ES       1814 10.30                             153    0.8910 71.8 299 
 BRR  HZ I        1814 14.06        89.1 0.14            143           71.8 299 
 PAM  SZ EP       1813 53.68                             152    0.1810 77.4  39 
 PAM  SZ I        1813 54.01       194.0 0.18            152           77.4  39 
 PAM  SN ES       1814 11.10                             152   -0.1410 77.4  39 
 RUS  HZ EP       1813 54.76                             145   -0.2010  100 176 
 RUS  HN ES       1814 13.91                             145    0.0610  100 176 
 RUS  HZ I        1814 15.27        83.9 0.24            135            100 176 
 PTB  HZ EP   2   1813 57.52                             133   -0.64 5  148 259 
 PTB  HN ES       1814 18.91                             133   -0.62 9  148 259 
 PTB  HZ I        1814 26.47       158.7 0.55            122            148 259 
 TAM  HZ EP       1813 59.02                             132    0.24 9  155 105 
 TAM  HZ I        1813 59.19       106.9 0.32            126            155 105 
 TAM  HN ES       1814 20.81                             132    0.17 9  155 105 
 OCA  HZ EP   1   1813 58.96                             131   -0.53 7  161 353 
 OCA  HN ES       1814 21.87                             131   -0.04 9  161 353 
 OCA  HZ I        1814 27.94        49.0 0.28            124            161 353 
 ZAR  HZ EP       1814  3.59                             123    0.01 9  205 292 
 ZAR  HE ES   1   1814 29.22                             123    0.03 6  205 292 
 ZAR  HZ I        1814 36.54       103.1 0.34            115            205 292 
 CTAB SZ EP   4   1814  8.18                             120    1.39 0  230 211 
 NOR  HZ EP   1   1814  6.71                             119   -0.07 6  235 235 
 NOR  HN ES   1   1814 34.53                             119   -0.36 6  235 235 
 NOR  HZ I        1814 39.18        94.1 0.20            111            235 235 
 CHI  HZ EP       1814  8.81                             118    0.11 8  248 195 
 CHI  HN ES   1   1814 38.07                             118   -0.23 6  248 195 
 CHI  HZ I        1814 46.34        42.2 0.54            110            248 195 
 ROSC BZ EP   1   1814 10.25                             118    1.12 6  253 211 
 ROSC BZ I        1814 46.85        77.9 0.60            109            253 211 
 HEL  HZ EP   1   1814 11.67                             116    0.41 6  272 256 
 HEL  HN ES   1   1814 43.19                             116    0.34 6  272 256 
 HEL  HZ I        1814 49.08        41.6 0.26            108            272 256 
 URE  HZ EP   1   1814 11.54                             114   -0.59 6  284 292 
 VIL  SZ EP   1   1814 14.11                             113   -0.25 5  303 192 
 DBB  SZ EP   1   1814 18.40                             110   -0.09 5  340 274 
 ANIL HZ EP   1   1814 21.49                             109    0.74 5  357 225 
 ANIL HZ I        1815  4.79        30.1 0.38            102            357 225 
 SDV  BZ EP   1   1814 19.86                             109   -1.12 5  360  50 
                                                                                
