 2010 1023 1549 18.5 L   6.762 -73.100145.4  RSN  7 0.3 1.7LRSN                1
 GAP=170        0.52       4.1     6.1  6.1 -0.3784E+01  0.2065E+00  0.5531E+01E
 Epicentro: LOS SANTOS - SANTANDER                                             3
 ACTION:UP  11-02-18 11:11 OP:tino STATUS:               ID:20101023154918 L   I
 2010-10-23-1544-18S.COL___128                                                 6
 STAT SP IPHASW D HRMM SECON CODA AMPLIT PERI AZIMU VELO SNR AR TRES W  DIS CAZ7
 BAR2 SZ EP   1   1549 37.89                             171    -0.2 7   21 206 
 BTL  SZ EP   1   1549 38.35                             170     0.2 7   25 313 
 BTL  SZ ES   2   1549 53.08                             170    -0.4 5   25 313 
 BRR  HZ EP   1   1549 39.80                             150    -0.2 7   78 299 
 BRR  HN ES   2   1549 57.08                             150     0.3 5   78 299 
 BRR  HZ I        1550  0.36        18.4 0.39                            78 299 
 RUS  HZ EP   1   1549 41.60                             145    -0.3 7   96 179 
 RUS  HN ES   2   1550  0.53                             145     0.4 5   96 179 
 RUS  HZ I        1550  1.37         5.6 0.39                            96 179 
 GUE  SZ EP   1   1549 43.64                             138     0.2 7  120   9 
 NOR  SZ EP   1   1549 54.30                             118    -0.1 6  237 236 
 NOR  SN ES   2   1550 22.46                             118     0.0 4  237 236 
 CHI  HZ EP   1   1549 56.22                             117     0.3 6  246 197 
 CHI  HZ I        1549 57.51         3.2 0.63                           246 197 
                                                                                
