 2017  123 1029 31.3 L   6.815 -73.133146.0  RSN  5 0.4 1.4LRSN                1
 GAP=137        0.77       4.4     4.7  7.4  0.1338E+01  0.1009E+02 -0.6760E+01E
 Epicentro: LOS SANTOS - SANTANDER                                             3
 ACTION:UPD 17-05-22 16:02 OP:jn   STATUS:               ID:20170123102931 L   I
 OLDACT:DUP 17-01-23 21:00 OP:dnl  STATUS:               ID:20170123102749d    3
 OLDACT:REG 17-01-23 20:18 OP:dnl  STATUS:               ID:20170123102748     3
 2017-01-23-1028-00M.COL___337                                                 6
 STAT SP IPHASW D HRMM SECON CODA AMPLIT PERI AZIMU VELO AIN AR TRES W  DIS CAZ7
 BAR2 EZ EP       1029 51.01                             170   -0.0010 25.2 192 
 BAR2 EZ ES       1030  6.46                             170    0.0810 25.2 192 
 BAR2 EZ I        1030  7.54         7.3 0.26            171           25.2 192 
 BRR  HZ EP       1029 52.68                             152    0.1610 71.6 297 
 BRR  HN ES   2   1030  9.84                             152    0.79 5 71.6 297 
 BRR  HZ I        1030 10.79         6.1 0.36            151           71.6 297 
 PAM  EZ EP       1029 53.87                             151    0.4410 75.3  40 
 PAM  EE ES       1030 10.25                             151   -0.4310 75.3  40 
 PAM  EZ I        1030 13.14         3.1 0.50            153           75.3  40 
 RUS  HZ EP   2   1029 54.67                             143   -0.53 5  102 177 
 RUS  HN ES       1030 13.75                             143   -0.0810  102 177 
 RUS  HZ I        1030 14.97         1.6 0.38            146            102 177 
 ZAR  HZ EP   4   1030  6.39                             122    2.55 0  205 292 
 ZAR  HN ES       1030 28.89                             122   -0.32 9  205 292 
 ZAR  HZ I        1030 34.30         2.8 0.48            123            205 292 
                                                                                
