 2012  123 1033 48.1 L   6.780 -73.118146.0  RSN  6 0.4 1.4LRSN                1
 GAP=141        0.92       8.0     7.6 11.7  0.1608E+02  0.3258E+02  0.4275E+02E
 Epicentro: LOS SANTOS - SANTANDER                                             3
 ACTION:UP  12-02-03 08:19 OP:REBC STATUS:               ID:20120123103348 L   I
 2012-01-23-1030-00M.COL___186                                                 6
 STAT SP IPHASW D HRMM SECON CODA AMPLIT PERI AZIMU VELO SNR AR TRES W  DIS CAZ7
 BAR2 SZ EP       1034  7.65                             171    -0.110   22 199 
 BAR2 SZ I        1034 23.83         8.6 0.26                            22 199 
 BRR  HZ EP       1034  9.74                             151     0.210   75 299 
 BRR  HN ES   1   1034 26.71                             151     0.5 7   75 299 
 BRR  HZ I        1034 31.29         8.1 0.22                            75 299 
 PAM  SZ EP   2   1034 10.88                             151     0.5 5   77  37 
 PAM  SN ES   1   1034 27.25                             151    -0.4 7   77  37 
 RUS  HZ EP       1034 11.95                             145     0.210   98 178 
 RUS  HN ES   2   1034 30.06                             145    -0.1 5   98 178 
 RUS  HZ I        1034 31.39         2.1 0.18                            98 178 
 PTB  HZ EP       1034 14.81                             132    -0.5 9  150 260 
 PTB  HZ I        1034 37.10         1.7 0.36                           150 260 
 ZAR  HZ EP   3   1034 22.08                             122     1.1 2  208 292 
 ZAR  HN ES   2   1034 46.26                             122    -0.3 4  208 292 
 ZAR  HZ I        1034 52.48         4.1 0.30                           208 292 
                                                                                
