 2017  223 1132 57.3 L   6.788 -73.134145.9  RSN  8 0.5 1.8LRSN                1
 GAP=139        1.24       4.6     5.4  7.3  0.2109E+01  0.1074E+02  0.8952E+01E
 Epicentro: LOS SANTOS - SANTANDER                                             3
 ACTION:UPD 17-05-24 15:39 OP:jn   STATUS:               ID:20170223113257 L   I
 OLDACT:REG 17-02-23 20:13 OP:cog  STATUS:               ID:20170223112746     3
 2017-02-23-1128-00M.COL___373                                                 6
 STAT SP IPHASW D HRMM SECON CODA AMPLIT PERI AZIMU VELO AIN AR TRES W  DIS CAZ7
 BAR2 EZ EP       1133 16.64                             171   -0.2510 22.3 194 
 BAR2 EZ ES       1133 32.30                             171    0.1010 22.3 194 
 BAR2 EZ I        1133 35.56        10.5 0.30            171           22.3 194 
 BRR  HZ EP       1133 18.59                             152    0.0610 72.9 299 
 BRR  HN ES       1133 36.00                             152    0.8910 72.9 299 
 BRR  HZ I        1133 41.12        19.9 0.14            153           72.9 299 
 PAM  EZ EP       1133 19.42                             151   -0.0910 77.6  38 
 PAM  EE ES       1133 36.77                             151   -0.0910 77.6  38 
 PAM  EZ I        1133 39.00         9.8 0.42            154           77.6  38 
 RUS  HZ EP       1133 20.87                             144   -0.0610 99.2 177 
 RUS  HN ES       1133 39.05                             144   -0.3410 99.2 177 
 RUS  HZ I        1133 40.38         6.0 0.28            147           99.2 177 
 PTB  HZ EP       1133 23.42                             132   -0.92 9  149 259 
 PTB  HE ES       1133 44.65                             132   -0.80 9  149 259 
 PTB  HZ I        1133 46.75        11.4 0.30            134            149 259 
 ZAR  HZ EP       1133 30.71                             122    0.82 8  206 292 
 ZAR  HE ES       1133 55.20                             122   -0.14 8  206 292 
 CHI  HZ EP       1133 34.85                             117   -0.02 8  248 196 
 CHI  HN ES       1134  5.02                             117    0.81 8  248 196 
 CHI  HZ I        1134  7.94         3.1 0.50            120            248 196 
 PRA  HZ EP       1133 51.17                             107    0.44 6  392 210 
 PRA  HN ES       1134 32.85                             107    0.41 6  392 210 
                                                                                
