 2015  523 1623 34.3 L   6.820 -73.143140.4  RSN  8 0.4 2.1LRSN                1
 GAP=201        1.03       3.6     6.0  6.3  0.4458E+01  0.1006E+02 -0.1424E+01E
 Epicentro: LOS SANTOS - SANTANDER                                             3
 ACTION:UPD 15-09-10 22:06 OP:cam  STATUS:               ID:20150523162334 L   I
 OLDACT:UP  15-05-23 22:22 OP:mh   STATUS:               ID:20150523161750     3
 OLDACT:REG 15-05-23 20:28 OP:mh   STATUS:               ID:20150523161750     3
 2015-05-23-1617-50M.COL___297                                                 6
 STAT SP IPHASW D HRMM SECON CODA AMPLIT PERI AZIMU VELO AIN AR TRES W  DIS CAZ7
 BAR2 EZ EP   1   1623 53.61                             169    0.31 7 25.6 190 
 BAR2 EZ ES       1624  8.40                             169    0.2510 25.6 190 
 BAR2 EZ I    1   1624 10.48        14.6 0.25            167           25.6 190 
 BRR  HZ EP       1623 55.21                             152    0.4110 70.5 297 
 BRR  HE ES       1624 10.13                             152   -0.6810 70.5 297 
 RUS  HZ EP       1623 57.36                             142   -0.3010  103 176 
 RUS  HN ES       1624 15.80                             142   -0.1010  103 176 
 RUS  HZ I        1624 17.75         8.2 0.24            143            103 176 
 SPBC HZ EP       1624  2.48                             127   -0.07 9  165 219 
 SPBC HN ES       1624 25.20                             127    0.60 9  165 219 
 SPBC HZ I        1624 31.56        29.8 0.26            127            165 219 
 ZAR  HZ EP   1   1624  5.67                             121   -0.64 6  204 292 
 ZAR  HN ES       1624 31.91                             121    0.60 9  204 292 
 ZAR  HZ I        1624 37.52        16.6 0.64            121            204 292 
 NOR  HZ EP       1624  9.32                             117   -0.54 8  236 234 
 NOR  HN ES       1624 37.08                             117   -0.54 8  236 234 
 NOR  HZ I        1624 40.77        10.1 0.18            117            236 234 
 SML  HZ EP       1624 10.54                             116    0.15 8  242 335 
 SML  HE ES       1624 38.50                             116   -0.07 8  242 335 
 SML  HZ I        1624 42.92        26.9 0.10            118            242 335 
 GUY2CHZ EP       1624 18.37                             111    0.56 7  303 234 
 GUY2CHN ES   4   1624 50.81                             111   -0.96 0  303 234 
 GUY2CHZ I        1625  0.45         6.5 0.34                           303 234 
                                                                                
