 2012  923 1947 22.8 L   6.303 -73.577104.0  RSN  7 0.2 1.6LRSN                1
 GAP=137        0.52       3.2     2.8  4.8  0.3572E+01  0.5251E+01  0.2268E+01E
 Epicentro: SANTA HELENA DEL OPON - SANTANDER                                  3
 ACTION:UPD 12-10-22 14:20 OP:ep   STATUS:               ID:20120923194722 L   I
 2012-09-23-1940-00M.COL___221                                                 6
 STAT SP IPHASW D HRMM SECON CODA AMPLIT PERI AZIMU VELO AIN AR TRES W  DIS CAZ7
 BAR2 SZ EP       1947 38.95                             151    0.1410 54.1  54 
 BAR2 SZ I        1947 39.23        33.8 0.16                          54.1  54 
 BAR2 SZ ES       1947 51.33                             151    0.0310 54.1  54 
 RUS  HZ EP   1   1947 40.26                             144   -0.04 7 71.1 130 
 RUS  HE ES   1   1947 54.01                             144    0.05 7 71.1 130 
 BRR  HZ EP       1947 40.86                             136   -0.2710 90.2 351 
 BRR  HN ES       1947 55.72                             136    0.2910 90.2 351 
 BRR  HZ I        1948  0.17         5.8 0.14                          90.2 351 
 GIR2 SZ EP       1947 41.57                             134   -0.2310 95.7  26 
 PTB  HE ES   1   1947 56.92                             132   -0.20 7  101 285 
 ZAR  HN ES   1   1948 14.19                             113   -0.03 7  193 313 
 ZAR  HZ I        1948 18.02         5.4 0.31                           193 313 
 HEL  HZ EP   1   1947 55.16                             110    0.40 6  216 267 
 HEL  HZ I        1948 57.12         3.0 0.62                           216 267 
                                                                                
