 2010  823 1022 21.9 L   6.780 -73.053146.5  RSN  8 0.2 1.6LRSN                1
 GAP=169        0.50       2.4     5.5  4.0 -0.6351E+00 -0.8841E+01 -0.1297E+01E
 Epicentro: LOS SANTOS - SANTANDER                                             3
 ACTION:UP  10-09-07 10:57 OP:vdl  STATUS:               ID:20100823102221 L   I
 2010-08-23-1017-01S.COL___120                                                 6
 STAT SP IPHASW D HRMM SECON CODA AMPLIT PERI AZIMU VELO SNR AR TRES W  DIS CAZ7
 BAR2 SZ EP       1022 41.65                             170     0.010   25 215 
 BAR2 SZ ES   1   1022 57.02                             170     0.0 7   25 215 
 BAR2 SZ I        1022 58.26         7.4 0.46                            25 215 
 BTL  SZ EP       1022 41.76                             169     0.110   28 303 
 BTL  SZ ES   1   1022 56.92                             169    -0.2 7   28 303 
 BRR  HZ EP       1022 43.48                             150    -0.210   81 296 
 BRR  HZ I        1022 44.01        17.6 0.45                            81 296 
 BRR  HN ES       1023  0.91                             150     0.210   81 296 
 RUS  HN ES   1   1023  4.01                             145     0.0 7   98 182 
 RUS  HZ I        1023  5.41         3.9 0.14                            98 182 
 GUE  SZ EP       1022 46.55                             140    -0.110  117   7 
 GRA  SZ EP       1022 47.42                             137     0.310  125  13 
 GRA  SZ I        1023  8.10         6.9 0.31                           125  13 
 OCA  SZ EP   1   1022 50.42                             129    -0.2 7  164 350 
 OCA  SZ I        1023 18.02         5.5 0.21                           164 350 
 CHI  HZ EP   1   1022 59.71                             117     0.0 6  249 198 
 CHI  HN ES   1   1023 29.23                             117     0.0 6  249 198 
 CHI  HZ I        1023 36.81         2.1 0.05                           249 198 
                                                                                
