 2017  723 1749 23.0 L   6.785 -73.155142.9  RSN 12 0.5 2.0LRSN                1
 GAP= 99        1.25       4.3     3.9  6.7  0.1749E+01  0.2971E+01  0.3193E+01E
 Epicentro: LOS SANTOS - SANTANDER                                             3
 ACTION:UPD 17-08-30 15:35 OP:rebc STATUS:               ID:20170723174923 L   I
 OLDACT:UP  17-07-24 01:20 OP:ar   STATUS:               ID:20170723174743     3
 OLDACT:UP  17-07-24 01:20 OP:ar   STATUS:               ID:20170723174743     3
 OLDACT:UP  17-07-24 00:50 OP:ar   STATUS:               ID:20170723174743     3
 OLDACT:REG 17-07-23 20:54 OP:ar   STATUS:               ID:20170723174743     3
 2017-07-23-1748-00M.COL___395                                                 6
 STAT SP IPHASW D HRMM SECON CODA AMPLIT PERI AZIMU VELO AIN AR TRES W  DIS CAZ7
 BAR2 EZ EP       1749 41.96                             171   -0.3410 21.6 188 
 BAR2 EZ ES       1749 56.72                             171   -0.5910 21.6 188 
 BAR2 EZ I        1749 57.72        32.0 0.16            170           21.6 188 
 BRR  HZ EP       1749 43.89                             152    0.0110 71.1 300 
 BRR  HN ES       1750  0.94                             152    0.8110 71.1 300 
 BRR  HZ I        1750  2.43        17.7 0.14            151           71.1 300 
 PAM  EZ EP       1749 45.04                             150   -0.0310 79.3  39 
 PAM  EN ES       1750  2.25                             150    0.0010 79.3  39 
 RUS  HZ EP       1749 46.53                             144    0.1310 99.0 175 
 RUS  HE ES       1750  4.62                             144   -0.0010 99.0 175 
 RUS  HZ I        1750  5.12        12.9 0.24            144           99.0 175 
 PTB  HZ EP       1749 48.79                             132   -0.88 9  146 259 
 PTB  HN ES       1750  9.72                             132   -0.71 9  146 259 
 PTB  HZ I        1750 11.83        13.3 0.12            131            146 259 
 TAM  HZ EP       1749 50.40                             130   -0.15 9  156 104 
 SPBC HZ EP       1749 51.30                             129    0.15 9  161 219 
 SPBC HE ES       1750 12.91                             129   -0.15 9  161 219 
 YPLC HZ EP       1749 52.17                             126   -0.37 9  176 151 
 YPLC HE ES       1750 16.61                             126    1.07 9  176 151 
 YPLC HZ I        1750 17.96         8.3 0.18            127            176 151 
 ZAR  HZ EP       1749 55.18                             122   -0.10 9  204 293 
 ZAR  HN ES       1750 21.12                             122    0.71 9  204 293 
 ZAR  HZ I        1750 26.31        16.0 0.28            121            204 293 
 NOR  HN ES       1750 26.18                             118    0.16 8  233 235 
 NOR  HZ I        1750 31.17         7.3 0.14            118            233 235 
 URE  HE ES   4   1750 34.47                             113   -1.37 0  284 292 
 GUY2CHZ EP       1750  7.15                             112    0.82 7  299 235 
 GUY2CHN ES   4   1750 41.95                             112    1.87 0  299 235 
 GUY2CHZ I        1750 46.38         4.4 0.32                           299 235 
 PTGC HZ EP   9   1750  5.12                             111   -1.53 0  308 158 
 PTGC HE ES       1750 38.60                                   -0.53 7  308 158 
                                                                                
