 2017  423 1427 48.0 L   6.799 -73.137144.5  RSN 16 0.6 2.7LRSN                1
 GAP=113        0.95       3.6     3.4  5.0 -0.1126E+01  0.1496E+01  0.5977E+01E
 Epicentro: LOS SANTOS - SANTANDER                                             3
 ACTION:UPD 17-05-30 21:15 OP:jn   STATUS:               ID:20170423142748 L   I
 OLDACT:UP  17-04-23 22:38 OP:dani STATUS:               ID:20170423141739     3
 OLDACT:UP  17-04-23 22:36 OP:dani STATUS:               ID:20170423141739     3
 OLDACT:UP  17-04-23 22:36 OP:dani STATUS:               ID:20170423141739     3
 OLDACT:UP  17-04-23 22:36 OP:dani STATUS:               ID:20170423141739     3
 OLDACT:REG 17-04-23 21:07 OP:dani STATUS:               ID:20170423141739     3
 2017-04-23-1418-00M.COL___371                                                 6
 STAT SP IPHASW D HRMM SECON CODA AMPLIT PERI AZIMU VELO AIN AR TRES W  DIS CAZ7
 BAR2 EZ IP     C 1428  7.28                             170   -0.1510 23.4 192 
 BAR2 EZ ES       1428 22.29                             170   -0.3310 23.4 192 
 BAR2 EZ I        1428 23.15        74.9 0.34            165           23.4 192 
 BRR  HZ IP     C 1428  9.06                             152    0.0410 72.1 298 
 BRR  HN ES       1428 25.99                             152    0.5510 72.1 298 
 BRR  HZ I        1428 30.01        99.5 0.16            150           72.1 298 
 PAM  EZ EP     C 1428  9.98                             151   -0.0210 76.9  39 
 PAM  EN ES       1428 27.14                             151   -0.0610 76.9  39 
 PAM  EZ I        1428 27.77        81.5 0.20            158           76.9  39 
 PTB  HZ EP   3   1428 13.77                             132   -1.13 2  149 259 
 PTB  HN ES       1428 35.11                             132   -0.80 9  149 259 
 PTB  HZ I        1428 40.36        56.4 0.44            130            149 259 
 SPBC HZ EP       1428 16.25                             129   -0.15 9  164 219 
 SPBC HN ES       1428 38.96                             129    0.37 9  164 219 
 SPBC HZ I        1428 44.45        81.4 0.14            127            164 219 
 YPLC HZ EP       1428 17.86                             126    0.26 9  176 152 
 YPLC HN ES       1428 41.54                             126    0.82 9  176 152 
 YPLC HZ I        1428 44.41        61.5 0.26            127            176 152 
 NOR  HZ EP       1428 23.78                             118    0.10 8  235 235 
 NOR  HN ES       1428 51.80                             118    0.25 8  235 235 
 NOR  HZ I        1428 53.44        45.0 0.20            117            235 235 
 CHI  HZ EP       1428 25.57                             117   -0.02 8  249 195 
 CHI  HN ES       1428 54.55                             117   -0.40 8  249 195 
 CHI  HZ I        1429  3.03        16.3 0.38            117            249 195 
 ROSC BZ EP   9   1428 27.14                             116    1.10 0  253 211 
 ROSC BN ES       1428 56.83                                   -0.02 8  253 211 
 ROSC BZ I        1429  1.26        31.6 0.17            116            253 211 
 HEL  HZ EP   3   1428 29.37                             114    1.17 2  273 256 
 HEL  HN ES   4   1429  2.31                             114    2.72 0  273 256 
 HEL  HZ I        1429  5.77        35.5 0.32            114            273 256 
 PTGC HZ EP       1428 30.66                             111   -1.04 7  308 159 
 PTGC HN ES   3   1429  4.00                             111   -1.82 2  308 159 
 ELA  HZ EP   3   1428 36.43                             110    1.61 2  330 230 
 ELA  HE ES   4   1429 14.09                             110    2.71 0  330 230 
 ELA  HZ I        1429 21.14        19.8 0.26            110            330 230 
 CBOC HZ EP       1428 35.42                             110    0.51 7  334 252 
 CBOC HN ES   3   1429 13.61                             110    2.07 2  334 252 
 CBOC HZ I        1429 23.02        10.0 0.52            110            334 252 
 DBB  EZ EP       1428 35.16                             109   -0.33 7  340 274 
 ANIL HZ EP   3   1428 39.72                             108    1.94 2  358 225 
 ANIL HN ES   4   1429 19.52                             108    2.89 0  358 225 
 ANIL HZ I        1429 23.64        47.1 0.30            108            358 225 
 PAL  HZ EP       1428 43.26                             106    0.10 6  406 239 
                                                                                
