 2013  823 1309 55.2 L   6.813 -73.113147.7  RSN  7 0.5 1.7LRSN 2.3WRSN        1
 SPEC AVERAGE  MO 12.6 ST  1.8 OM  1.7 f0 6.57 R0.2870 AL 0.00 WI 20.0 MW  2.3 3
 SPEC SD       MO  0.5 ST  1.8 OM  0.9 f0 2.57 R0.1328 AL      WI      MW  0.4 3
 GAP=242        1.29       7.8     7.4  9.5  0.2339E+02  0.1673E+02  0.1095E+02E
 Epicentro: LOS SANTOS - SANTANDER                                             3
 SPEC RUS HH Z MO 11.9 ST0.329 OM  0.3 f0 6.81 R0.2282 AL-0.00 WI 20.0 MW  1.9 3
 SPEC RUS HH Z T131036 K 0.000 GD  179 VS 4.20 DE 3.20 Q0300.0 QA 0.60 VS 4.20 3
 SPEC PTB HH Z MO 12.6 ST  4.3 OM  0.9 f0 9.59 R0.1620 AL-0.00 WI 20.0 MW  2.4 3
 SPEC PTB HH Z T131041 K 0.000 GD  211 VS 4.20 DE 3.20 Q0300.0 QA 0.60 VS 4.20 3
 SPEC SPBCHH Z MO 13.2 ST0.738 OM  1.5 f0 3.30 R0.4709 AL-0.00 WI 20.0 MW  2.8 3
 SPEC SPBCHH Z T131044 K 0.000 GD  222 VS 4.20 DE 3.20 Q0300.0 QA 0.60 VS 4.20 3
 OLDACT:REG 13-08-23 15:58 OP:stll STATUS:               ID:20130823130848     3
 ACTION:UPD 14-01-14 09:05 OP:ep   STATUS:               ID:20130823130955 L   I
 OLDACT:UP  13-08-23 19:38 OP:stll STATUS:               ID:20130823130848     3
 2013-08-23-1308-48M.COL___220                                                 6
 STAT SP IPHASW D HRMM SECON CODA AMPLIT PERI AZIMU VELO AIN AR TRES W  DIS CAZ7
 BAR2 SZ EP       1310 15.09                             170    0.0310 25.5 197 
 BAR2 SZ ES       1310 30.08                             170   -0.5010 25.5 197 
 BAR2 SZ I        1310 32.56         8.8 0.30            155           25.5 197 
 BRR  HZ EP       1310 17.17                             152    0.5210 73.7 296 
 BRR  HN ES       1310 33.94                             152    0.5210 73.7 296 
 BRR  SZ I        1310 41.16        12.3 0.34            152           73.7 296 
 RUS  HZ EP       1310 18.96                             144   -0.2210  102 178 
 RUS  HE ES       1310 38.28                             144    0.3610  102 178 
 RUS  SZ I        1310 54.93         5.2 2.56            132            102 178 
 PTB  HZ EP       1310 22.20                             132   -0.42 9  152 259 
 PTB  HN ES       1310 43.03                             132   -1.01 9  152 259 
 PTB  SZ I        1310 48.67         8.1 0.38            127            152 259 
 SPBC HZ EP       1310 23.91                             129   -0.20 9  167 220 
 SPBC SZ I        1310 53.06         8.7 0.48            121            167 220 
 ZAR  HN ES       1310 53.74                             122    0.10 8  207 291 
 NOR  HN ES       1311  0.57                             118    0.91 8  238 235 
                                                                                
