 2014 1123 1305 16.0 L   6.788 -72.683  4.0  RSN 10 0.6 1.6LRSN                1
 GAP=206        1.42       3.0     7.1  7.5 -0.5947E+01  0.2391E+02 -0.3787E+01E
 Epicentro: CONCEPCION - SANTANDER                                             3
 ACTION:UPD 14-12-19 15:46 OP:nd   STATUS:               ID:20141123130516 L   I
 OLDACT:DUP 14-11-23 23:17 OP:fm   STATUS:               ID:20141123125745d    3
 OLDACT:REG 14-11-23 20:50 OP:fm   STATUS:               ID:20141123125743     3
 2014-11-23-1257-43M.COL___297                                                 6
 STAT SP IPHASW D HRMM SECON CODA AMPLIT PERI AZIMU VELO AIN AR TRES W  DIS CAZ7
 BAR2 SZ EP       13 5 25.33                              47   -0.4910 59.3 249 
 BAR2 SZ I        13 5 31.90        70.1 0.42             47           59.3 249 
 PAM  SE ES       13 5 33.66                              47   -0.7310 61.0 358 
 PAM  SZ I        13 5 35.34        21.2 0.56             47           61.0 358 
 RUS  HZ EP       13 5 34.39                              47    0.8610  109 204 
 RUS  HN ES       13 5 46.46                              47   -0.7610  109 204 
 RUS  HZ I        13 5 50.45         4.7 0.12             47            109 204 
 BRR  HZ EP       13 5 34.83                              47    0.2110  119 287 
 BRR  HN ES       13 5 48.59                              47   -0.5710  119 287 
 BRR  HZ I        13 5 50.95         6.6 0.18             47            119 287 
 OCA  HZ EP       13 5 44.18                              47    0.90 9  175 336 
 OCA  HE ES       13 6  4.47                              47   -0.09 9  175 336 
 OCA  HZ I        13 6  8.46        12.0 0.46             47            175 336 
 PTB  HZ EP       13 5 46.03                              37    0.01 9  198 262 
 PTB  HN ES       13 6  9.57                              37    0.13 9  198 262 
 PTB  HZ I        13 6 11.96        14.5 0.44             37            198 262 
 SPBC HE ES       13 6  9.42                              37   -0.30 9  199 231 
 SPBC HZ I        13 6 17.01         9.3 0.22             37            199 231 
 ZAR  HZ EP       13 5 52.97                              37    0.14 8  253 288 
 ZAR  HN ES       13 6 22.53                              37    0.97 8  253 288 
 ZAR  HZ I        13 6 26.92         5.1 0.44             37            253 288 
 CHI  HZ EP   4   13 5 58.80                              37    3.87 0  265 206 
 CHI  HN ES   4   13 6 30.96                              37    5.65 0  265 206 
 CHI  HZ I        13 6 41.42         2.0 0.46             37            265 206 
 HEL  HN ES       13 6 38.20                              36    0.57 7  322 258 
 HEL  HZ I        13 6 55.07         2.0 0.38             36            322 258 
                                                                                
