 2012  923 1415 19.3 L   6.758 -73.174141.2  RSN  5 0.1 1.8LRSN                1
 GAP=177        0.35       4.0     4.4  4.2  0.1311E+02 -0.2167E+01 -0.3808E+01E
 Epicentro: VILLANUEVA - SANTANDER                                             3
 ACTION:UPD 12-10-22 14:20 OP:ep   STATUS:               ID:20120923141519 L   I
 2012-09-23-1410-00M.COL___221                                                 6
 STAT SP IPHASW D HRMM SECON CODA AMPLIT PERI AZIMU VELO AIN AR TRES W  DIS CAZ7
 BAR2 SZ EP       1415 38.34                             172    0.0010 18.4 183 
 BAR2 SZ ES   2   1415 53.09                             172   -0.06 5 18.4 183 
 BAR2 SZ I        1415 54.45        21.6 0.30                          18.4 183 
 GIR2 SZ EP   1   1415 38.37                             165   -0.23 7 35.5 357 
 BRR  HZ EP       1415 40.11                             152    0.1210 70.9 303 
 BRR  HZ I        1415 40.33        17.4 0.17                          70.9 303 
 BRR  HN ES   1   1415 56.22                             152    0.13 7 70.9 303 
 RUS  HZ EP   1   1415 42.46                             144    0.12 7 96.2 174 
 RUS  HE ES   1   1416  0.19                             144   -0.08 7 96.2 174 
 RUS  HZ I        1416  2.46         6.6 0.26                          96.2 174 
 ZAR  HZ EP   2   1415 51.31                             121   -0.08 4  203 294 
 ZAR  HN ES   1   1416 16.22                             121   -0.16 6  203 294 
 ZAR  HZ I        1416 22.23         6.4 0.38                           203 294 
                                                                                
