 2013  223 1028 20.8 L   7.443 -73.219133.2  RSN 11 0.5 3.4LRSN 3.4WRSN        1
 SPEC AVERAGE  MO 14.2 ST 18.2 OM  2.6 f0 3.96 R0.3974 AL 2.66 WI 19.9 MW  3.4 3
 SPEC SD       MO  0.2 ST 13.2 OM  0.7 f00.980 R0.1096 AL      WI      MW  0.1 3
 GAP=106        1.08       3.4     3.3  5.7  0.8599E+00  0.3883E+01 -0.1408E+01E
 Epicentro: EL PLAYON - SANTANDER                                              3
 SPEC PTB HH N MO 14.4 ST 29.1 OM  2.7 f0 4.28 R0.3435 AL 3.14 WI 23.0 MW  3.6 3
 SPEC PTB HH N T1029 9 K 0.000 GD  215 VS 4.20 DE 3.20 Q0300.0 QA 0.60 VS 4.20 3
 SPEC HEL HH Z MO 14.2 ST 15.6 OM  1.5 f0 4.23 R0.3475 AL 2.67 WI 27.3 MW  3.4 3
 SPEC HEL HH Z T1029 2 K 0.000 GD  319 VP 7.60 DE 3.20 Q0300.0 QA 0.60 VS 4.20 3
 SPEC OCA HH Z MO 14.1 ST 11.4 OM  1.7 f0 4.12 R0.3568 AL 2.35 WI 16.1 MW  3.3 3
 SPEC OCA HH Z T102841 K 0.000 GD  160 VP 7.60 DE 3.20 Q0300.0 QA 0.60 VS 4.20 3
 SPEC PAM SH N MO 14.4 ST  9.7 OM  2.8 f0 3.13 R0.4696 AL 2.89 WI 15.2 MW  3.5 3
 SPEC PAM SH N T102855 K 0.000 GD  145 VS 4.20 DE 3.20 Q0300.0 QA 0.60 VS 4.20 3
 SPEC COD HH N MO 14.0 ST  1.9 OM  2.1 f0 2.44 R0.6025 AL 1.82 WI 23.4 MW  3.3 3
 SPEC COD HH N T102929 K 0.000 GD  307 VS 4.20 DE 3.20 Q0300.0 QA 0.60 VS 4.20 3
 SPEC BRR HH Z MO 14.2 ST 41.3 OM  1.9 f0 5.56 R0.2644 AL 3.10 WI 14.1 MW  3.4 3
 SPEC BRR HH Z T102840 K 0.000 GD  148 VP 7.60 DE 3.20 Q0300.0 QA 0.60 VS 4.20 3
 ACTION:UPD 13-03-12 09:35 OP:ep   STATUS:               ID:20130223102820 L   I
 2013-02-23-1020-00M.COL___225                                                 6
 STAT SP IPHASW D HRMM SECON CODA AMPLIT PERI AZIMU VELO AIN AR TRES W  DIS CAZ7
 PAM  SZ EP       1028 40.76                             155    0.1510 58.5 101 
 PAM  SN ES       1028 56.20                             155    0.1410 58.5 101 
 PAM  SN I        1028 57.49       694.8 0.34            157           58.5 101 
 BRR  HZ IP     D 1028 40.58                             152    0.2710 65.9 236 
 BRR  HN ES       1028 55.81                             152    0.3010 65.9 236 
 BRR  HN I        1028 56.56       790.7 0.22            153           65.9 236 
 OCA  HZ EP       1028 42.12                             144    0.1210 88.7 353 
 OCA  HN ES       1028 58.55                             144    0.0310 88.7 353 
 OCA  HN I        1029  0.68      1560.4 0.30            145           88.7 353 
 BAR2 SZ IP     C 1028 42.48                             143   -0.0310 94.2 178 
 BAR2 SZ ES       1028 58.77                             143   -0.6610 94.2 178 
 BAR2 SZ I        1029  0.50       298.5 0.40            144           94.2 178 
 PTB  HZ EP       1028 48.99                             125    0.10 9  169 234 
 PTB  HN ES       1029 10.66                             125   -0.13 9  169 234 
 PTB  HN I        1029 13.60       289.5 0.26            126            169 234 
 ZAR  HZ IP     C 1028 50.62                             123    0.55 9  181 272 
 ZAR  HN ES   1   1029 14.02                             123    1.14 7  181 272 
 ZAR  HN I        1029 15.52       495.4 0.22            124            181 272 
 TAM  HZ EP       1028 51.33                             121   -0.04 9  193 125 
 TAM  HN ES       1029 14.92                             121   -0.28 9  193 125 
 TAM  HN I        1029 16.17       224.0 0.48            123            193 125 
 URE  HZ EP       1028 57.62                             113   -0.72 8  258 278 
 URE  HN ES       1029 26.33                             113   -1.28 8  258 278 
 URE  HN I        1029 28.20       227.2 0.24            114            258 278 
 COD  HZ EP       1029  0.55                             112    0.08 7  277 355 
 COD  HN ES       1029 31.00                             112   -0.40 7  277 355 
 COD  HN I        1029 33.15        48.9 0.42            113            277 355 
 HEL  HZ EP       1029  2.71                             111    0.20 7  290 242 
 HEL  HE ES   4   1029 32.09                             111   -2.93 0  290 242 
 CHI  HZ EP       1029  6.11                             109    0.58 7  316 190 
 CHI  HE ES   4   1029 42.66                             109    2.26 0  316 190 
                                                                                
