 2016  423 1347  9.6 L   6.786 -73.198130.9  RSN  4 0.4 1.6LRSN                1
 GAP=176        0.93       5.3     4.7  9.9 -0.9506E+01  0.1379E+02  0.3882E+01E
 Epicentro: ZAPATOCA - SANTANDER                                               3
 ACTION:UPD 16-05-05 14:23 OP:rebc STATUS:               ID:20160423134709 L   I
 OLDACT:REG 16-04-23 21:29 OP:ar   STATUS:               ID:20160423133744     3
 2016-04-23-1337-44M.COL___318                                                 6
 STAT SP IPHASW D HRMM SECON CODA AMPLIT PERI AZIMU VELO AIN AR TRES W  DIS CAZ7
 PAM  EZ EP       1347 30.17                             146   -0.3810 82.3  42 
 PAM  EN ES       1347 47.13                             146    0.2210 82.3  42 
 PAM  EZ I        1347 47.86         5.3 0.18            152           82.3  42 
 PTB  HZ EP       1347 34.20                             130   -0.59 9  142 259 
 PTB  HN ES       1347 54.16                             130   -0.31 9  142 259 
 PTB  HZ I        1348  0.45         6.4 0.60            131            142 259 
 SPBC HZ EP       1347 36.74                             126    0.26 9  158 218 
 SPBC HN ES       1347 57.72                             126    0.23 9  158 218 
 SPBC HZ I        1348  0.54         7.2 0.40            130            158 218 
 ZAR  HZ EP       1347 41.18                             120    0.61 9  199 293 
 ZAR  HN ES       1348  4.89                             120    0.12 9  199 293 
 ZAR  HZ I        1348 11.25         5.8 0.62            122            199 293 
                                                                                
