 2017  123 1235 14.3 L   6.784 -73.139148.0  RSN  8 0.3 1.8LRSN                1
 GAP=138        0.70       2.8     3.1  4.5  0.8478E+00  0.2827E+01  0.2813E+01E
 Epicentro: LOS SANTOS - SANTANDER                                             3
 ACTION:UPD 17-05-22 16:02 OP:jn   STATUS:               ID:20170123123514 L   I
 OLDACT:REG 17-01-23 20:22 OP:dnl  STATUS:               ID:20170123122746     3
 2017-01-23-1228-00M.COL___343                                                 6
 STAT SP IPHASW D HRMM SECON CODA AMPLIT PERI AZIMU VELO AIN AR TRES W  DIS CAZ7
 BAR2 EZ IP     D 1235 33.95                             171   -0.2310 21.8 193 
 BAR2 EZ ES       1235 49.59                             171   -0.0810 21.8 193 
 BAR2 EZ I        1235 52.40         7.8 0.26            170           21.8 193 
 BRR  HZ IP     D 1235 35.80                             152    0.0210 72.7 299 
 BRR  HE ES       1235 53.07                             152    0.5410 72.7 299 
 BRR  HZ I        1235 56.66        14.5 0.46            150           72.7 299 
 PAM  EZ EP     D 1235 36.85                             151    0.0310 78.3  38 
 PAM  EN ES       1235 54.24                             151   -0.1310 78.3  38 
 PAM  EZ I        1235 56.16        16.5 0.52            154           78.3  38 
 RUS  HZ EP       1235 38.18                             145    0.0310 98.8 176 
 RUS  HE ES       1235 56.83                             145    0.0810 98.8 176 
 RUS  HZ I        1235 57.86         7.1 0.34            147           98.8 176 
 PTB  HZ EP       1235 40.98                             132   -0.51 9  148 260 
 PTB  HE ES       1236  2.53                             132   -0.17 9  148 260 
 PTB  HZ I        1236  7.35         6.0 0.32            132            148 260 
 ZAR  HZ EP   2   1235 47.84                             123    0.80 4  205 293 
 ZAR  HN ES       1236 12.47                             123   -0.09 8  205 293 
 ZAR  HZ I        1236 17.31         8.8 0.60            123            205 293 
 CHI  HZ EP       1235 52.42                             118    0.45 8  247 195 
 CHI  HN ES       1236 21.32                             118   -0.03 8  247 195 
 CHI  HZ I        1236 23.78         4.0 0.44            119            247 195 
 URE  HZ EP   4   1235 56.92                             114    1.28 0  285 292 
 URE  HN ES   4   1236 31.05                             114    3.18 0  285 292 
 URE  HZ I        1236 35.38         6.3 0.28            114            285 292 
                                                                                
