 2014  623 1528 43.1 L   6.835 -73.142145.8  RSN 13 0.5 2.3LRSN                1
 GAP=202        1.08       3.3     5.1  5.8  0.1596E+01  0.8334E+01  0.3499E+01E
 Epicentro: LOS SANTOS - SANTANDER                                             3
 ACTION:UPD 14-07-01 22:56 OP:nd   STATUS:               ID:20140623152843 L   I
 OLDACT:REG 14-06-23 23:23 OP:carl STATUS:               ID:20140623152812     3
 2014-06-23-1528-12M.COL___265                                                 6
 STAT SP IPHASW D HRMM SECON CODA AMPLIT PERI AZIMU VELO AIN AR TRES W  DIS CAZ7
 BAR2 SZ EP       1529  2.96                             169    0.1710 27.2 189 
 BAR2 SZ ES       1529 18.14                             169   -0.0310 27.2 189 
 BAR2 SZ I        1529 19.46        43.7 0.32            164           27.2 189 
 BRR  HZ EP       1529  4.74                             153    0.5910 69.8 296 
 BRR  HN ES       1529 21.53                             153    0.9410 69.8 296 
 BRR  HZ I        1529 24.35        27.9 0.18            148           69.8 296 
 RUS  HZ EP       1529  7.09                             143   -0.0110  104 176 
 RUS  HN ES       1529 25.39                             143   -0.4610  104 176 
 RUS  HZ I        1529 26.59        11.0 0.28            142            104 176 
 PTB  HZ EP       1529  9.58                             132   -0.57 9  149 257 
 PTB  HN ES       1529 30.42                             132   -0.85 9  149 257 
 PTB  HZ I        1529 33.39        14.9 0.12            129            149 257 
 ZAR  HN ES       1529 40.88                             123    0.24 9  203 291 
 ZAR  HZ I        1529 46.04        13.6 0.38            121            203 291 
 NOR  HZ EP       1529 19.32                             118    0.24 8  237 234 
 NOR  HE ES       1529 46.85                             118   -0.32 8  237 234 
 NOR  HZ I        1529 56.55         9.9 0.14            117            237 234 
 SML  HZ EP       1529 18.96                             118   -0.38 8  240 335 
 SML  HN ES       1529 46.96                             118   -0.67 8  240 335 
 SML  HZ I        1529 51.88        25.9 0.10            118            240 335 
 CHI  HN ES       1529 50.66                             117   -0.26 8  252 195 
 CHI  HZ I        1529 54.02        13.7 0.64            117            252 195 
 ROSC BN ES   4   1529 52.33                             116    0.72 0  256 211 
 GUY2CHZ EP       1529 27.53                             112    0.56 7  304 234 
 GUY2CHE ES       1530  1.43                             112    0.22 7  304 234 
 GUY2CHZ I        1530  9.10         9.2 0.36                           304 234 
 RREF HZ EP   4   1529 31.57                             111    2.03 0  325 229 
 RREF HN ES   4   1530  9.29                             111    3.51 0  325 229 
 RREF HZ I        1530 15.00        10.4 0.38            110            325 229 
 TOL  SZ EP       1529 32.27                             109    0.59 6  347 224 
 TOL  SN ES       1530  9.90                             109    0.31 6  347 224 
 TOL  SZ I        1530 19.29        18.5 0.26            109            347 224 
 PRA  HZ EP       1529 36.96                             106   -0.05 6  396 209 
 PRA  HN ES       1530 18.90                             106   -0.18 6  396 209 
 PRA  HZ I        1530 24.89        10.2 0.30            106            396 209 
 ORTC HZ EP       1529 37.12                             106   -0.26 6  399 216 
 ORTC HN ES       1530 20.10                             106    0.35 6  399 216 
 ORTC HZ I        1530 24.32         6.5 0.28            106            399 216 
                                                                                
