 2012  523 1801 33.8 L   6.828 -73.135137.4  RSN  4 0.3 0.8LRSN                1
 GAP=246        0.69       9.9     7.1  8.9  0.4055E+02  0.7346E+01 -0.1642E+02E
 Epicentro: LOS SANTOS - SANTANDER                                             3
 ACTION:UP  12-07-05 12:07 OP:pat  STATUS:               ID:20120523180133 L   I
 2012-05-23-1800-00M.COL___200                                                 6
 STAT SP IPHASW D HRMM SECON CODA AMPLIT PERI AZIMU VELO SNR AR TRES W  DIS CAZ7
 BAR2 SZ EP   1   18 1 52.54                             168     0.1 7   27 191 
 BAR2 SZ ES   1   18 2  6.79                             168    -0.3 7   27 191 
 RUS  HZ EP   1   18 1 57.14                             141     0.2 7  104 177 
 RUS  HZ I        18 1 57.48         1.2 0.27                           104 177 
 RUS  HN ES   1   18 2 15.18                             141     0.2 7  104 177 
 PTB  HZ EP   1   18 1 59.68                             130    -0.5 7  150 258 
 PTB  HZ I        18 2  0.88         0.9 0.12                           150 258 
 PTB  HN ES   1   18 2 20.82                             130     0.0 7  150 258 
 ZAR  HN ES   2   18 2 31.34                             120     0.8 4  204 291 
                                                                                
