 2014  323 1013 27.5 L   6.789 -73.131146.5  RSN 15 0.4 2.2LRSN                1
 GAP=139        0.78       2.5     3.5  5.1 -0.2391E+01  0.5056E+01  0.7998E+00E
 Epicentro: LOS SANTOS - SANTANDER                                             3
 OLDACT:REG 14-03-23 17:45 OP:fm   STATUS:               ID:20140323101249     3
 ACTION:UPD 14-04-09 23:19 OP:nd   STATUS:               ID:20140323101327 L   I
 OLDACT:UP  14-03-23 17:55 OP:fm   STATUS:               ID:20140323101249     3
 2014-03-23-1012-49M.COL___234                                                 6
 STAT SP IPHASW D HRMM SECON CODA AMPLIT PERI AZIMU VELO AIN AR TRES W  DIS CAZ7
 BAR2 SZ EP       1013 47.26                             171    0.0810 22.5 195 
 BAR2 SZ ES   1   1014  2.75                             171    0.21 7 22.5 195 
 BAR2 SZ I        1014  4.73        51.2 0.28            168           22.5 195 
 PAM  SZ EP       1013 49.96                             151    0.1910 77.4  38 
 PAM  SN ES       1014  7.18                             151    0.0210 77.4  38 
 PAM  SZ I        1014  9.08        17.2 0.38            155           77.4  38 
 RUS  HZ EP   1   1013 50.37                             144   -0.83 7 99.2 177 
 RUS  HN ES   2   1014  9.30                             144   -0.41 5 99.2 177 
 RUS  SZ I        1014 11.90        13.8 0.60            147           99.2 177 
 PTB  HZ EP       1013 54.13                             132   -0.49 9  149 259 
 PTB  HN ES       1014 15.04                             132   -0.76 9  149 259 
 PTB  SZ I        1014 20.60        12.7 0.44            131            149 259 
 OCA  HZ EP   1   1013 56.20                             129    0.22 7  162 353 
 OCA  HN ES       1014 18.36                             129    0.15 9  162 353 
 OCA  SZ I        1014 23.27        18.5 0.38            131            162 353 
 SPBC HZ EP       1013 56.13                             129    0.09 9  163 220 
 SPBC HN ES       1014 18.64                             129    0.33 9  163 220 
 SPBC SZ I        1014 25.22        26.8 0.32            130            163 220 
 ZAR  HZ EP       1014  0.26                             122    0.09 8  206 292 
 ZAR  HE ES   1   1014 25.78                             122    0.11 6  206 292 
 ZAR  SZ I        1014 31.33        15.0 0.32            122            206 292 
 NOR  HZ EP       1014  3.16                             119   -0.15 8  235 235 
 NOR  HN ES       1014 31.90                             119    0.64 8  235 235 
 NOR  SZ I        1014 34.78        15.7 0.22            119            235 235 
 SML  HZ EP   1   1014  4.15                             117   -0.19 6  245 335 
 SML  HE ES   1   1014 33.31                             117    0.22 6  245 335 
 SML  SZ I        1014 41.05        16.5 0.08            119            245 335 
 CHI  HZ EP       1014  5.14                             117    0.01 8  248 196 
 CHI  HN ES   1   1014 34.44                             117   -0.06 6  248 196 
 CHI  SZ I        1014 42.15         6.0 1.26            119            248 196 
 ROSC BZ EP   1   1014  6.31                             117    0.70 6  253 211 
 ROSC BN ES   4   1014 40.27                             117    4.92 0  253 211 
 ROSC SZ I        1014 44.97        19.0 0.50            118            253 211 
 HEL  HZ EP   2   1014  8.02                             115    0.16 4  273 256 
 HEL  HN ES   2   1014 39.67                             115    0.31 4  273 256 
 HEL  SZ I        1014 43.98         5.0 0.74            115            273 256 
 URE  HZ EP   2   1014  8.21                             113   -0.59 4  286 292 
 URE  HN ES   4   1014 39.36                             113   -1.67 0  286 292 
 URE  SZ I        1014 46.83         6.5 0.32            114            286 292 
 GUY2CHZ EP   4   1014 13.31                             112    2.13 0  302 235 
 GUY2CHN ES   4   1014 48.29                             112    3.01 0  302 235 
 GUY2CSZ I        1014 53.60         8.3 0.34                           302 235 
 SJC  HZ EP   4   1014 21.23                             106   -2.05 0  411 327 
 SJC  HN ES   4   1015  1.80                             106   -5.02 0  411 327 
 SJC  SZ I        1015 16.20        10.5 2.92            107            411 327 
                                                                                
