 2017  623 1158 50.9 L   6.737 -73.102145.2  RSN  6 0.3 1.9LRSN                1
 GAP=268        0.85       6.1     5.5  6.3  0.1429E+01  0.9901E+01  0.5033E+01E
 Epicentro: JORDAN - SANTANDER                                                 3
 ACTION:UPD 17-09-14 16:54 OP:jn   STATUS:               ID:20170623115850 L   I
 OLDACT:REG 17-06-23 21:12 OP:ar   STATUS:               ID:20170623114727     3
 2017-06-23-1148-00M.COL___359                                                 6
 STAT SP IPHASW D HRMM SECON CODA AMPLIT PERI AZIMU VELO AIN AR TRES W  DIS CAZ7
 BAR2 EZ IP     C 1159 10.74                             173    0.3610 18.3 209 
 BAR2 EZ ES       1159 25.10                             173   -0.4710 18.3 209 
 BAR2 EZ I        1159 26.75        21.0 0.20            172           18.3 209 
 BRR  HZ EP       1159 12.73                             150    0.2810 78.8 301 
 BRR  HN ES       1159 29.61                             150    0.3710 78.8 301 
 BRR  HZ I        1159 35.46        12.4 0.76            147           78.8 301 
 PTB  HZ EP       1159 17.56                             131   -0.60 9  151 262 
 PTB  HE ES       1159 39.42                             131    0.02 9  151 262 
 PTB  HZ I        1159 40.85         5.8 0.30            132            151 262 
 ZAR  HZ EP       1159 23.97                             121   -0.09 8  211 293 
 ZAR  HE ES       1159 49.66                             121   -0.25 8  211 293 
 ZAR  HZ I        1159 56.60        11.0 0.30            122            211 293 
 NOR  HZ EP       1159 26.57                             118   -0.04 8  235 237 
 NOR  HN ES       1159 54.78                             118    0.33 8  235 237 
 NOR  HZ I        1159 56.87         3.9 0.28            120            235 237 
 URE  HZ EP   4   1159 34.73                             113    1.98 0  291 293 
 URE  HN ES   4   12 0  3.48                             113   -1.90 0  291 293 
 URE  HZ I        12 0  6.45         6.5 0.12            114            291 293 
                                                                                
