 2013  723 1044 51.6 L   6.808 -73.147141.8  RSN 13 0.5 2.1LRSN                1
 GAP=183        1.04       3.1     4.5  6.6 -0.1681E+01  0.8507E+01 -0.3925E+00E
 Epicentro: LOS SANTOS - SANTANDER                                             3
 ACTION:UPD 13-08-12 10:39 OP:ep   STATUS:               ID:20130723104451 L   I
 OLDACT:UP  13-07-23 14:53 OP:mh   STATUS:               ID:20130723104000     3
 OLDACT:REG 13-07-23 14:22 OP:mh   STATUS:               ID:20130723104000     3
 2013-07-23-1040-00M.COL___263                                                 6
 STAT SP IPHASW D HRMM SECON CODA AMPLIT PERI AZIMU VELO AIN AR TRES W  DIS CAZ7
 BAR2 SZ EP       1045 11.13                             170    0.3210 24.2 189 
 BAR2 SZ ES   1   1045 25.92                             170    0.16 7 24.2 189 
 BAR2 SZ I        1045 30.96        11.4 0.18            169           24.2 189 
 GIR2 SZ EP   1   1045 11.20                             167    0.39 7 30.3 350 
 GIR2 SZ ES   1   1045 24.92                             167   -0.85 7 30.3 350 
 GIR2 SZ I        1045 27.70        13.8 0.10            164           30.3 350 
 BRR  HZ IP     D 1045 12.97                             152    0.6510 70.6 298 
 BRR  HN ES   1   1045 29.44                             152    0.98 7 70.6 298 
 BRR  HN I        1045 33.12        49.3 0.20            149           70.6 298 
 RUS  HZ EP       1045 15.18                             143    0.1110  102 176 
 RUS  HN ES       1045 33.33                             143   -0.0110  102 176 
 RUS  HZ I        1045 34.59         9.0 0.28            148            102 176 
 PTB  HZ EP       1045 17.58                             131   -0.70 9  148 258 
 PTB  HN ES       1045 38.70                             131   -0.37 9  148 258 
 PTB  HZ I        1045 43.67         9.5 0.28            132            148 258 
 OCA  HZ EP   1   1045 19.13                             129   -0.42 7  159 353 
 OCA  HN ES       1045 41.11                             129   -0.22 9  159 353 
 OCA  HN I        1045 44.89        34.7 0.22            131            159 353 
 SPBC HZ EP       1045 20.12                             128    0.23 9  164 219 
 SPBC HN ES       1045 41.52                             128   -0.41 9  164 219 
 SPBC HN I        1045 49.07        24.7 0.42            130            164 219 
 ZAR  HZ EP   1   1045 23.87                             122    0.10 6  204 292 
 ZAR  HE ES       1045 49.56                             122    0.72 9  204 292 
 ZAR  HZ I        1045 55.31        11.8 0.42            123            204 292 
 NOR  HN ES       1045 54.37                             118   -0.53 8  235 234 
 NOR  HN I        1045 58.99        15.8 0.18            120            235 234 
 SML  HZ EP   1   1045 27.75                             117   -0.19 6  243 335 
 SML  HN ES   1   1045 55.46                             117   -0.80 6  243 335 
 SML  HN I        1046  7.44        23.7 0.28            119            243 335 
 HEL  HZ EP   2   1045 32.11                             114    0.46 4  272 256 
 HEL  HE ES       1046  2.86                             114   -0.01 8  272 256 
 HEL  HE I        1046 11.25         7.3 0.40            116            272 256 
 GUY2CHN ES   1   1046  9.19                             112    0.18 5  302 235 
 GUY2CHN I        1046 18.82         6.9 0.58                           302 235 
 PRA  HN ES       1046 26.90                             106    0.09 6  393 209 
                                                                                
