 2013  323 1530 39.8 L   6.776 -73.131142.0  RSN  4 0.4 2.0LRSN                1
 GAP=158        0.96      13.3     5.3 10.9  0.7954E+01  0.1432E+02  0.6481E+02E
 Epicentro: LOS SANTOS - SANTANDER                                             3
 ACTION:UPD 13-04-09 14:04 OP:ep   STATUS:               ID:20130323153039 L   I
 2013-03-23-1527-48M.COL___212                                                 6
 STAT SP IPHASW D HRMM SECON CODA AMPLIT PERI AZIMU VELO AIN AR TRES W  DIS CAZ7
 BAR2 SZ EP       1530 58.75                             171   -0.2010 21.1 196 
 BAR2 SZ I        1531 14.73        10.2 0.30            146           21.1 196 
 BRR  HZ EP       1531  0.60                             151   -0.1110 73.9 300 
 BRR  HN ES       1531 17.46                             151    0.4410 73.9 300 
 BRR  HN I        1531 18.15        33.3 0.18            150           73.9 300 
 PAM  SZ EP       1531  1.70                             150    0.0110 78.4  37 
 PAM  SN ES       1531 18.67                             150   -0.0910 78.4  37 
 PAM  SN I        1531 19.85        14.2 0.30            159           78.4  37 
 ZAR  HZ EP   1   1531 13.25                             121    0.97 6  207 293 
 ZAR  HN ES       1531 36.98                             121   -0.62 8  207 293 
 ZAR  HN I        1531 44.31        10.6 0.16            120            207 293 
                                                                                
