 2017 1223 1103 13.9 L   6.820 -73.138139.3  RSN 10 0.6 1.7LRSN                1
 GAP= 66        1.25       4.7     4.6  7.7 -0.3285E+01  0.4463E+01  0.1061E+02E
 Epicentro: LOS SANTOS - SANTANDER                                             3
 ACTION:UPD 18-01-04 13:23 OP:rebc STATUS:               ID:20171223110313 L   I
 OLDACT:UP  17-12-23 22:19 OP:dani STATUS:               ID:20171223105741d    3
 OLDACT:UP  17-12-23 22:18 OP:dani STATUS:               ID:20171223105741d    3
 OLDACT:REG 17-12-23 20:19 OP:dani STATUS:               ID:20171223105739     3
 2017-12-23-1058-00M.COL___457                                                 6
 STAT SP IPHASW D HRMM SECON CODA AMPLIT PERI AZIMU VELO AIN AR TRES W  DIS CAZ7
 BAR2 EZ EP       11 3 32.67                             169   -0.0810 25.6 191 
 BAR2 EZ ES       11 3 47.07                             169   -0.4210 25.6 191 
 BAR2 EZ I        11 3 48.63         9.5 0.26            168           25.6 191 
 PAM  EZ EP       11 3 35.47                             150    0.2210 75.2  40 
 PAM  EN ES       11 3 52.49                             150    0.5610 75.2  40 
 PAM  EZ I        11 3 54.49         7.6 0.50            154           75.2  40 
 PTB  HZ EP       11 3 39.71                             130   -0.71 9  149 258 
 PTB  HN ES       11 4  1.23                             130    0.09 9  149 258 
 PTB  HZ I        11 4  3.04         4.7 0.18            130            149 258 
 TAM  HZ EP       11 3 41.08                             129    0.08 9  155 106 
 OCA  HE ES       11 4  2.25                             128   -0.76 9  158 353 
 SPBC HZ EP       11 3 42.04                             127   -0.04 9  165 219 
 SPBC HE ES       11 4  4.80                             127    0.71 9  165 219 
 SPBC HZ I        11 4  9.95         8.2 0.18            128            165 219 
 YPLC HZ EP       11 3 43.26                             125   -0.08 9  178 152 
 ZAR  HZ EP       11 3 46.52                             121    0.64 9  204 291 
 ZAR  HN ES       11 4 10.80                             121   -0.07 9  204 291 
 ZAR  HZ I        11 4 17.60         4.7 0.07            122            204 291 
 GUY2CHZ EP       11 3 58.45                             111    1.06 7  303 235 
 GUY2CHN ES   4   11 4 33.81                             111    2.46 0  303 235 
 GUY2CHZ I        11 4 40.88         2.1 0.70                           303 235 
 PRA  HZ EP       11 4  6.93                             105   -0.50 6  394 210 
 PRA  HE ES       11 4 47.93                             105   -1.29 6  394 210 
 PRA  HZ I        11 4 55.25         2.5 0.26            106            394 210 
                                                                                
