 2011  223 1240  0.2 L   6.844 -73.445  0.5  RSN  5 0.3 1.2LRSN                1
 GAP=232        0.87       2.7     7.5  4.4 -0.2230E+01  0.6662E+01  0.1487E+01E
 Epicentro: SAN VICENTE DE CHUCURI - SANTANDER                                 3
 ACTION:UP  11-03-28 15:10 OP:jfem STATUS:               ID:20110223124000 L   I
 2011-02-23-1237-30S.COL___136                                                 6
 STAT SP IPHASW D HRMM SECON CODA AMPLIT PERI AZIMU VELO SNR AR TRES W  DIS CAZ7
 BTL  SZ EP       1240  4.63                              96     0.010   21  67 
 GIR2 SZ EP       1240  6.93                              47    -0.310   38  47 
 GIR2 SZ ES   3   1240 12.68                              47     0.0 2   38  47 
 BAR2 SZ EP       1240  7.64                              47     0.010   40 134 
 BAR2 SZ ES   1   1240 13.69                              47     0.3 7   40 134 
 BAR2 SZ I        1240 15.44        12.9 0.66                            40 134 
 RUS  HZ EP       1240 18.62                              47    -0.210  113 159 
 RUS  HZ I        1240 34.67         2.4 0.29                           113 159 
 GRA  SZ EP       1240 22.56                              47     0.610  135  32 
 GRA  SZ ES   1   1240 38.48                              47    -0.4 7  135  32 
 GRA  SZ I        1240 44.01        11.1 0.54                           135  32 
                                                                                
