 2017  723 1608 54.6 L   6.831 -73.199147.0  RSN  4 0.3 1.2LRSN                1
 GAP=235        0.77       6.2     5.8  6.2  0.1759E+02  0.2499E+01  0.7844E+00E
 Epicentro: ZAPATOCA - SANTANDER                                               3
 ACTION:UPD 17-08-30 15:35 OP:rebc STATUS:               ID:20170723160855 L   I
 OLDACT:UP  17-08-16 15:50 OP:nlst STATUS:               ID:20170723160855 L   3
 OLDACT:DUP 17-07-24 00:27 OP:AR   STATUS:               ID:20170723155742d    3
 2017-07-23-1558-00M.COL___396                                                 6
 STAT SP IPHASW D HRMM SECON CODA AMPLIT PERI AZIMU VELO AIN AR TRES W  DIS CAZ7
 BAR2 EZ EP       16 9 14.20                             169   -0.2010 26.5 176 
 BAR2 EZ ES       16 9 29.42                             169   -0.4610 26.5 176 
 BAR2 EZ I        16 9 31.52         4.5 0.46            167           26.5 176 
 BRR  HZ EP       16 9 15.80                             155    0.3210 64.4 298 
 BRR  HE ES       16 9 32.05                             155    0.2610 64.4 298 
 RUS  HZ EP       16 9 18.75                             143    0.0310  105 173 
 RUS  HN ES       16 9 37.93                             143    0.3710  105 173 
 RUS  HZ I        16 9 38.40         1.6 0.26            143            105 173 
 PTB  HZ EP       16 9 20.89                             133   -0.28 9  143 257 
 PTB  HE ES       16 9 41.87                             133   -0.07 9  143 257 
 PTB  HZ I        16 9 45.56         1.8 0.10            132            143 257 
                                                                                
