 2016  923 1024  2.2 L   6.804 -73.128142.2  RSN 13 0.5 2.0LRSN                1
 GAP=120        1.23       3.5     4.3  6.3 -0.2936E+01  0.3887E+01  0.1622E+01E
 Epicentro: LOS SANTOS - SANTANDER                                             3
 ACTION:UPD 17-08-17 21:15 OP:lp   STATUS:               ID:20160923102402 L   I
 OLDACT:UP  16-09-23 21:40 OP:aar  STATUS:               ID:20160923101737     3
 OLDACT:UP  16-09-23 21:38 OP:aar  STATUS:               ID:20160923101737     3
 OLDACT:REG 16-09-23 20:41 OP:ar   STATUS:               ID:20160923101737     3
 2016-09-23-1018-00M.COL___342                                                 6
 STAT SP IPHASW D HRMM SECON CODA AMPLIT PERI AZIMU VELO AIN AR TRES W  DIS CAZ7
 BAR2 EZ EP       1024 21.47                             170    0.0810 24.2 194 
 BAR2 EZ ES       1024 35.90                             170   -0.4810 24.2 194 
 BAR2 EZ I        1024 36.98        38.6 0.38            170           24.2 194 
 BRR  HZ EP       1024 23.30                             151    0.2810 72.7 297 
 BRR  HE ES       1024 40.14                             151    0.8610 72.7 297 
 BRR  HZ I        1024 41.45        19.5 0.36            149           72.7 297 
 PAM  EZ EP       1024 24.46                             151    0.5510 75.8  39 
 PAM  EE ES       1024 41.28                             151    0.4110 75.8  39 
 PAM  EZ I        1024 43.56        12.5 0.52            152           75.8  39 
 RUS  HZ EP       1024 25.73                             143    0.1310  101 177 
 RUS  HE ES       1024 43.61                             143   -0.2610  101 177 
 RUS  HZ I        1024 44.62        11.8 0.26            145            101 177 
 PTB  HZ EP       1024 28.14                             131   -0.89 9  150 259 
 PTB  HE ES   2   1024 49.33                             131   -0.66 5  150 259 
 PTB  HZ I        1024 51.00        11.2 0.20            130            150 259 
 OCA  HZ EP       1024 30.07                             129   -0.12 9  160 352 
 OCA  HE ES       1024 50.97                             129   -1.07 9  160 352 
 OCA  HZ I        1024 59.31        39.9 0.48            129            160 352 
 SPBC HZ EP       1024 30.39                             128   -0.16 9  165 219 
 SPBC HN ES       1024 52.13                             128   -0.56 9  165 219 
 SPBC HZ I        1024 56.15        20.3 0.22            128            165 219 
 ZAR  HZ EP       1024 34.76                             121    0.20 8  206 292 
 ZAR  HN ES       1025  0.04                             121    0.22 8  206 292 
 ZAR  HZ I        1025  3.52         9.3 0.07            121            206 292 
 NOR  HZ EP       1024 37.84                             117   -0.06 8  237 235 
 NOR  HE ES       1025  5.25                             117   -0.51 8  237 235 
 NOR  HZ I        1025 11.19        10.7 0.16            118            237 235 
 CHI  HZ EP       1024 40.25                             116    0.47 8  250 196 
 CHI  HN ES       1025  9.68                             116    0.57 8  250 196 
 CHI  HZ I        1025 13.05         3.0 0.28            117            250 196 
 HEL  HZ EP   4   1024 43.55                             114    1.12 0  274 256 
 HEL  HN ES       1025 14.68                             114    0.85 8  274 256 
 HEL  HZ I        1025 21.06         5.9 0.76            114            274 256 
 URE  HZ EP   9   1024 42.00                             113   -1.25 0  285 292 
 URE  HN ES       1025 14.07                             113    0.03 7  285 292 
 URE  HZ I        1025 17.18         6.9 0.20            113            285 292 
 SOCV BZ EP       1024 44.55                             112   -0.29 7  299  57 
 SOCV BE ES   4   1025 15.84                             112   -2.29 0  299  57 
                                                                                
