 2014  123 1356 24.8 L   6.734 -73.522102.8  RSN  5 0.7 1.7LRSN                1
 GAP=140        1.77       9.1     9.1 15.1  0.3554E+02  0.5658E+02  0.7618E+02E
 Epicentro: EL CARMEN DE CHUCURI - SANTANDER                                   3
 ACTION:UPD 14-03-13 09:57 OP:ep   STATUS:               ID:20140123135624 L   I
 OLDACT:REG 14-01-23 15:30 OP:stll STATUS:               ID:20140123134818     3
 2014-01-23-1348-18M.COL___246                                                 6
 STAT SP IPHASW D HRMM SECON CODA AMPLIT PERI AZIMU VELO AIN AR TRES W  DIS CAZ7
 BAR2 SZ IP     C 1356 39.61                             157   -0.3110 40.6 113 
 BAR2 SZ ES       1356 51.77                             157    0.0210 40.6 113 
 BAR2 SZ I        1356 53.77        34.5 0.26            158           40.6 113 
 BRR  HZ IP     D 1356 40.00                             153    0.1410 46.3 333 
 BRR  HN ES       1356 52.66                             153    1.0110 46.3 333 
 BRR  HZ I        1356 53.73        13.0 0.14            160           46.3 333 
 RUS  HN ES       1356 59.90                             131   -0.8610  105 152 
 PTB  HZ IP     C 1356 43.76                             130   -0.6410  106 258 
 PTB  HZ I        1356 43.90        11.7 0.26            132            106 258 
 PTB  HN ES       1356 59.15                             130   -0.5810  106 258 
 CHI  HZ EP       1356 59.09                             108    0.33 8  234 186 
 CHI  HN ES       1357 26.76                             108    1.47 8  234 186 
 CHI  HZ I        1357 33.37         2.7 0.28            110            234 186 
                                                                                
