 2010  823 1508 49.6 L   6.800 -73.019148.2  RSN  7 0.2 2.2LRSN                1
 GAP=173        0.55       2.5     5.3  4.5 -0.2965E+01 -0.6742E+01  0.2197E+01E
 Epicentro: CEPITA - SANTANDER                                                 3
 ACTION:UP  10-09-07 10:57 OP:vdl  STATUS:               ID:20100823150849 L   I
 2010-08-23-1504-58S.COL___120                                                 6
 STAT SP IPHASW D HRMM SECON CODA AMPLIT PERI AZIMU VELO SNR AR TRES W  DIS CAZ7
 BAR2 SZ EP       15 9  9.72                             168     0.110   29 218 
 BAR2 SZ ES   1   15 9 25.18                             168    -0.1 7   29 218 
 BAR2 SZ I        15 9 27.60        51.0 0.66                            29 218 
 BTL  SZ EP       15 9  9.94                             168     0.310   30 295 
 BTL  SZ ES   1   15 9 25.10                             168    -0.2 7   30 295 
 BRR  HZ EP       15 9 11.66                             149    -0.110   84 294 
 BRR  HN ES       15 9 29.09                             149     0.110   84 294 
 BRR  HZ I        15 9 31.54        25.3 0.16                            84 294 
 RUS  HZ EP       15 9 13.65                             144     0.110  101 184 
 RUS  HN ES   1   15 9 32.11                             144    -0.2 7  101 184 
 RUS  HZ I        15 9 33.54        14.8 0.23                           101 184 
 GRA  SZ EP       15 9 14.54                             138    -0.210  122  11 
 GRA  SZ ES   1   15 9 34.30                             138    -0.1 7  122  11 
 GRA  SZ I        15 9 35.63        15.2 0.83                           122  11 
 CHI  HZ I        15 9 29.68         6.7 0.25                           253 198 
 CHI  HN ES   1   15 9 57.82                             117     0.1 6  253 198 
 PRA  HN ES   1   1510 25.75                             106    -0.7 4  399 211 
 PRA  HZ I        1510 31.25         9.2 0.44                           399 211 
                                                                                
