 2011 1123 1910 12.8 L   6.865 -73.252122.8  RSN  5 0.2 1.5LRSN                1
 GAP=121        0.44       3.7     4.5  5.5  0.8630E+01  0.5235E+01  0.3833E+01E
 Epicentro: ZAPATOCA - SANTANDER                                               3
 ACTION:UPD 12-07-13 16:11 OP:ep   STATUS:               ID:20111123191012 L   I
 2011-11-23-1907-04S.COL___178                                                 6
 STAT SP IPHASW D HRMM SECON CODA AMPLIT PERI AZIMU VELO AIN AR TRES W  DIS CAZ7
 BAR2 SZ ES   1   1910 43.04                             165   -0.17 7 31.2 166 
 BAR2 SZ I        1910 44.18        26.5 0.39                          31.2 166 
 BRR  HZ EP   1   1910 30.39                             153   -0.28 7 57.4 298 
 BRR  HZ I        1910 31.50        17.6 0.32                          57.4 298 
 BRR  HN ES   1   1910 44.66                             153    0.03 7 57.4 298 
 PAM  SN ES   2   1910 48.74                             145    0.28 5 80.5  49 
 PAM  SZ I        1910 53.05         2.7 0.34                          80.5  49 
 RUS  HZ EP   1   1910 35.06                             136    0.00 7  109 170 
 RUS  HN ES   1   1910 52.61                             136    0.17 7  109 170 
 RUS  HZ I        1910 53.75         2.4 0.26                           109 170 
 ZAR  HN ES   2   1911  5.88                             119    0.42 4  190 291 
 ZAR  HZ I        1911  7.66         3.3 0.31                           190 291 
                                                                                
