 2014 1223 1459 30.8 L   6.874 -73.348126.3  RSN  8 0.6 2.1LRSN                1
 GAP=170        1.37       4.6     8.0  8.4  0.3804E+01  0.1413E+01  0.2674E+01E
 Epicentro: SAN VICENTE DE CHUCURI - SANTANDER                                 3
 ACTION:UPD 15-02-10 17:06 OP:nd   STATUS:               ID:20141223145930 L   I
 OLDACT:REG 14-12-23 20:30 OP:carl STATUS:               ID:20141223145747     3
 2014-12-23-1457-47M.COL___295                                                 6
 STAT SP IPHASW D HRMM SECON CODA AMPLIT PERI AZIMU VELO AIN AR TRES W  DIS CAZ7
 BAR2 EZ EP       1459 48.71                             163    0.2410 36.2 150 
 BAR2 EZ ES       15 0  1.63                             163   -0.6310 36.2 150 
 BRR  HZ EP       1459 49.11                             158    0.5210 47.7 303 
 BRR  HN ES       15 0  3.15                             158    0.6810 47.7 303 
 BRR  HZ I        15 0  3.47        34.1 0.12            148           47.7 303 
 RUS  HZ EP       1459 53.68                             136    0.0110  112 165 
 PTB  HZ EP       1459 53.96                             132   -0.4310  128 253 
 PTB  HE ES       15 0 13.20                             132    0.4110  128 253 
 PTB  HZ I        15 0 16.05        26.2 0.34            121            128 253 
 SPBC HZ EP       1459 56.56                             125   -0.72 9  157 211 
 SPBC HZ I        15 0 15.32        24.5 0.10            116            157 211 
 SPBC HN ES       15 0 17.16                             125   -0.77 9  157 211 
 ZAR  HZ EP   4   15 0  1.08                             121    1.56 0  180 292 
 ZAR  HN ES   4   15 0 23.98                             121    2.05 0  180 292 
 ZAR  HZ I        15 0 28.68        13.7 0.28            113            180 292 
 SML  HZ EP       15 0  4.57                             115   -0.04 8  227 340 
 SML  HN ES       15 0 30.36                             115   -0.61 8  227 340 
 SML  HZ I        15 0 36.99        18.8 0.10            108            227 340 
 CHI  HZ EP       15 0  8.79                             112    0.93 8  252 190 
 CHI  HN ES       15 0 37.27                             112    0.50 8  252 190 
 CHI  HZ I        15 0 44.61         4.2 0.68            106            252 190 
                                                                                
