 2010  223 1948 57.8 L   5.960 -73.685118.3  RSN 13 0.4 2.7LRSN                1
 GAP= 86        0.87       2.7     5.0  7.5 -0.4912E+01  0.2623E+02 -0.1579E+01E
 Epicentro: VELEZ - SANTANDER                                                  3
 ACTION:UP  10-08-24 09:50 OP:vdl  STATUS:               ID:20100223194857 L   I
 2010-02-23-1947-27S.COL___094                                                 6
 STAT SP IPHASW D HRMM SECON CODA AMPLIT PERI AZIMU VELO SNR AR TRES W  DIS CAZ7
 RUS  BZ EP       1949 16.59                             148     0.110   67  96 
 RUS  BN ES       1949 31.14                             148     0.110   67  96 
 BAR2 SZ IP       1949 18.05                             140     0.410   89  38 
 BAR2 SZ ES       1949 33.11                             140    -0.110   89  38 
 BRR  HZ IP       1949 20.68                             129     0.110  127 359 
 BRR  HN ES       1949 38.20                             129    -0.210  127 359 
 GIR2 SZ EP       1949 21.95                             127     0.4 9  135  24 
 GIR2 SZ ES       1949 39.77                             127    -0.4 9  135  24 
 ROSC BN ES   2   1949 41.99                             126     0.0 5  142 210 
 CHI  HZ IP       1949 22.79                             125    -0.3 9  147 182 
 CHI  HN ES   2   1949 42.57                             125    -0.3 5  147 182 
 GUY  HZ EP       1949 29.24                             116     0.2 9  203 247 
 GUY  HN ES   2   1949 54.70                             116     1.2 4  203 247 
 HEL  HZ EP       1949 28.76                             115    -0.5 8  206 277 
 HEL  HZ I        1949 58.34        28.0 0.39                           206 277 
 RREF BZ EP       1949 30.97                             114     0.0 8  218 238 
 RREF BZ I        1950  0.35        33.7 0.17                           218 238 
 TOL  SZ EP       1949 32.87                             112     0.3 8  237 230 
 OCA  SZ EP       1949 35.15                             110     0.6 8  255   9 
 OCA  SZ ES       1950  2.81                             110    -0.4 8  255   9 
 OCA  SZ I        1950  8.01        60.3 0.18                           255   9 
 PRA  HZ EP       1949 36.82                             107    -0.6 7  282 208 
 PRA  HZ I        1950 13.28        25.2 0.18                           282 208 
 DBB  SZ IP       1949 39.59                             106    -0.3 7  303 293 
                                                                                
