 2012  823 1544 55.7 L   6.796 -73.165147.3  RSN 11 0.4 2.5LRSN 3.2WRSN        1
 SPEC AVERAGE  MO 13.8 ST  6.6 OM  3.8 f0 4.09 R0.3663 AL 3.29 WI  8.0 MW  3.2 3
 SPEC SD       MO  0.0 ST  2.5 OM  1.7 f00.560 R0.0502 AL      WI      MW  0.0 3
 GAP=134        0.83       4.2     4.4  6.2  0.1666E+01  0.9493E+01  0.3540E+01E
 Epicentro: LOS SANTOS - SANTANDER                                             3
 SPEC RUS HH E MO 13.8 ST  9.1 OM  2.2 f0 4.65 R0.3161 AL 3.39 WI  5.7 MW  3.2 3
 SPEC RUS HH E T154537 K 0.000 GD  178 VS 4.20 DE 3.00 Q0230.0 QA 0.60 VS 4.20 3
 SPEC CHI HH N MO 13.8 ST  4.1 OM  2.0 f0 3.53 R0.4164 AL 3.18 WI 10.3 MW  3.2 3
 SPEC CHI HH N T1546 2 K 0.000 GD  288 VS 4.20 DE 3.00 Q0230.0 QA 0.60 VS 4.20 3
 ACTION:UPD 12-09-10 11:58 OP:ep   STATUS:               ID:20120823154455 L   I
 2012-08-23-1540-00M.COL___218                                                 6
 STAT SP IPHASW D HRMM SECON CODA AMPLIT PERI AZIMU VELO AIN AR TRES W  DIS CAZ7
 BAR2 SZ EP   1   1545 15.39                             171   -0.14 7 22.6 185 
 BAR2 SZ ES   1   1545 30.42                             171   -0.56 7 22.6 185 
 BAR2 SZ I        1545 32.83       109.4 0.24                          22.6 185 
 BRR  HZ EP       1545 17.17                             153    0.2210 69.5 300 
 BRR  HN ES   1   1545 34.31                             153    0.81 7 69.5 300 
 BRR  HZ I        1545 36.00        86.1 0.15                          69.5 300 
 PAM  SZ EP   1   1545 18.45                             150    0.24 7 79.1  41 
 PAM  SN ES   1   1545 35.59                             150   -0.16 7 79.1  41 
 PAM  SZ I        1545 38.42        30.4 0.57                          79.1  41 
 RUS  HZ EP   1   1545 19.67                             144    0.06 7  100 175 
 RUS  HE ES   1   1545 38.26                             144    0.02 7  100 175 
 RUS  HZ I        1545 39.21        41.2 0.24                           100 175 
 PTB  HZ EP   1   1545 21.84                             133   -0.78 7  146 259 
 PTB  HN ES   1   1545 43.23                             133   -0.37 7  146 259 
 PTB  HZ I        1545 45.33        26.9 0.11                           146 259 
 ZAR  HZ EP   1   1545 28.50                             123    0.41 6  202 292 
 ZAR  HN ES   1   1545 53.28                             123   -0.04 6  202 292 
 NOR  SZ EP   1   1545 31.84                             119    0.51 6  233 234 
 CHI  HZ EP   1   1545 33.72                             117    0.31 6  248 195 
 CHI  HN ES   1   1546  2.88                             117    0.08 6  248 195 
 CHI  HZ I        1546  6.20        22.7 0.33                           248 195 
 HEL  HN ES   1   1546  7.22                             115    0.21 6  270 256 
 HEL  HZ I        1546 14.96        18.6 0.31                           270 256 
 URE  HZ EP   1   1545 35.54                             114   -1.13 6  282 292 
 URE  HZ I        1546 18.51        32.2 0.19                           282 292 
 DBB  SZ EP   2   1545 43.06                             110    0.04 3  337 274 
 DBB  SZ I        1546 21.20        12.6 0.32                           337 274 
                                                                                
