 2016  923 1417 57.0 L   6.828 -73.132146.6  RSN 25 0.5 3.0LRSN 3.7WRSN        1
 SPEC AVERAGE  MO 14.6 ST0.324 OM  2.7 f0 1.04 R3.0610 AL 0.00 WI 30.0 MW  3.7 3
 SPEC SD       MO  0.3 ST 18.8 OM  0.4 f0 1.52 R3.1134 AL      WI      MW  0.2 3
 GAP= 71        1.17       2.7     2.9  4.8 -0.1932E+01  0.1804E+01  0.2353E+00E
 Epicentro: LOS SANTOS - SANTANDER                                             3
      59.0      73.0     -62.0  5.0  6.0 14.0  0.0  0.1           RSN FPFIT    F
 SPEC BAR2EH Z MO 15.0 ST0.335 OM  3.1 f00.825 R2.3321 AL-0.00 WI 30.0 MW  3.9 3
 SPEC BAR2EH Z T141830 K 0.000 GD  149 VS 5.20 DE 3.50 Q0750.0 QA 1.50 VS 5.20 3
 SPEC RUS HH Z MO 14.2 ST0.233 OM  2.2 f0 1.37 R1.4044 AL-0.00 WI 30.0 MW  3.4 3
 SPEC RUS HH Z T141838 K 0.000 GD  179 VS 5.20 DE 3.50 Q0750.0 QA 1.50 VS 5.20 3
 SPEC TAM HH Z MO 14.5 ST0.106 OM  2.5 f00.791 R2.4324 AL-0.00 WI 30.0 MW  3.6 3
 SPEC TAM HH Z T141845 K 0.000 GD  212 VS 5.20 DE 3.50 Q0750.0 QA 1.50 VS 5.20 3
 SPEC ZAR HH Z MO 14.1 ST  1.7 OM  2.0 f0 2.77 R0.6946 AL-0.00 WI 30.0 MW  3.4 3
 SPEC ZAR HH Z T141853 K 0.000 GD  251 VS 5.20 DE 3.50 Q0750.0 QA 1.50 VS 5.20 3
 SPEC CHI HH Z MO 14.7 ST0.100 OM  2.5 f00.699 R2.7525 AL-0.00 WI 30.0 MW  3.7 3
 SPEC CHI HH Z T1419 2 K 0.000 GD  291 VS 5.20 DE 3.50 Q0750.0 QA 1.50 VS 5.20 3
 SPEC ROSCBH Z MO 14.7 ST0.232 OM  2.5 f00.921 R2.0890 AL-0.00 WI 30.0 MW  3.7 3
 SPEC ROSCBH Z T1419 5 K 0.000 GD  295 VS 5.20 DE 3.50 Q0750.0 QA 1.50 VS 5.20 3
 SPEC HEL HH Z MO 14.3 ST0.088 OM  2.1 f00.891 R2.1594 AL-0.00 WI 30.0 MW  3.5 3
 SPEC HEL HH Z T1419 7 K 0.000 GD  310 VS 5.20 DE 3.50 Q0750.0 QA 1.50 VS 5.20 3
 SPEC SOCVBH Z MO 15.1 ST0.003 OM  2.9 f00.159 R 12.10 AL-0.00 WI 30.0 MW  4.0 3
 SPEC SOCVBH Z T141910 K 0.000 GD  332 VS 5.20 DE 3.50 Q0750.0 QA 1.50 VS 5.20 3
 SPECGUY2CHH Z MO 14.6 ST  0.1 OM  2.4 f00.699 R  2.75 AL-0.00 WI 30.0 MW  3.7 3
 SPECGUY2CHH Z T141916 K       GD337.5 VS 5.20 DE 3.50 Q0750.0 QA 1.50 VS 5.20 3
 SPEC LL6CHH Z MO 15.0 ST0.038 OM  2.7 f00.408 R4.7157 AL-0.00 WI 30.0 MW  3.9 3
 SPEC LL6CHH Z T141916 K 0.000 GD  353 VS 5.20 DE 3.50 Q0750.0 QA 1.50 VS 5.20 3
 SPEC ANILHH Z MO 14.4 ST0.582 OM  2.1 f0 1.55 R1.2413 AL-0.00 WI 30.0 MW  3.5 3
 SPEC ANILHH Z T141925 K 0.000 GD  389 VS 5.20 DE 3.50 Q0750.0 QA 1.50 VS 5.20 3
 SPEC SJC HH Z MO 14.2 ST0.146 OM  1.9 f0 1.10 R1.7491 AL-0.00 WI 30.0 MW  3.4 3
 SPEC SJC HH Z T141929 K 0.000 GD  432 VS 5.20 DE 3.50 Q0750.0 QA 1.50 VS 5.20 3
 OLDACT:UP  16-09-23 23:27 OP:aar  STATUS:               ID:20160923140740     3
 OLDACT:UP  16-09-23 23:26 OP:aar  STATUS:               ID:20160923140740     3
 OLDACT:REG 16-09-23 20:50 OP:ar   STATUS:               ID:20160923140740     3
 ACTION:UPD 17-08-17 21:15 OP:lp   STATUS:               ID:20160923141757 L   I
 OLDACT:UP  16-09-23 23:30 OP:aar  STATUS:               ID:20160923140740     3
 2016-09-23-1408-00M.COL___338                                                 6
 STAT SP IPHASW D HRMM SECON CODA AMPLIT PERI AZIMU VELO AIN AR TRES W  DIS CAZ7
 BAR2 HZ EP     D 1418 16.87                             169    0.0410 26.7 192 
 BAR2 HZ ES       1418 31.74                             169   -0.5310 26.7 192 
 BAR2 HZ I        1418 33.13       253.7 0.24            169           26.7 192 
 BRR  HZ IP     C 1418 18.66       168.9 0.28            153    0.3910 71.1 296 
 BRR  HN ES       1418 35.66                             153    0.8310 71.1 296 
 BRR  HZ I        1418 39.05       168.9 0.28            151           71.1 296 
 PAM  HZ EP     D 1418 19.87                             152    0.7310 74.0  40 
 PAM  HN ES       1418 36.75                             152    0.3710 74.0  40 
 PAM  HZ I        1418 39.55        79.4 0.40            151           74.0  40 
 RUS  HZ EP       1418 20.84                             143   -0.2410  104 177 
 RUS  HN ES       1418 39.67                             143   -0.1710  104 177 
 RUS  HZ I        1418 40.56        87.4 0.20            142            104 177 
 PTB  HZ EP       1418 23.43                             132   -0.83 9  150 258 
 PTB  HN ES       1418 44.60                             132   -0.89 9  150 258 
 PTB  HZ I        1418 49.70        93.8 0.30            130            150 258 
 TAM  HZ EP       1418 25.29                             131    0.57 9  154 106 
 TAM  HZ I        1418 46.20        72.1 0.36            130            154 106 
 TAM  HN ES       1418 46.71                             131    0.41 9  154 106 
 OCA  HZ EP       1418 24.99                             130   -0.15 9  157 352 
 OCA  HN ES       1418 46.89                             130   -0.17 9  157 352 
 OCA  HZ I        1418 53.89       198.6 0.38            129            157 352 
 SPBC HZ EP       1418 25.76                             129   -0.15 9  167 219 
 SPBC HN ES       1418 48.08                             129   -0.36 9  167 219 
 SPBC HZ I        1418 52.17       143.1 0.46            127            167 219 
 ZAR  HZ EP       1418 29.55                             123   -0.01 9  204 291 
 ZAR  HN ES       1418 54.83                             123   -0.10 9  204 291 
 ZAR  HZ I        1419  0.00       120.7 0.32            121            204 291 
 NOR  HZ EP     D 1418 32.89                             118   -0.25 8  238 234 
 NOR  HN ES       1419  1.31                             118    0.01 8  238 234 
 NOR  HZ I        1419  6.34        66.7 0.22            117            238 234 
 CHI  HZ EP       1418 35.08                             117   -0.06 8  252 195 
 CHI  HN ES       1419  4.29                             117   -0.58 8  252 195 
 CHI  HZ I        1419  9.47        64.7 0.42            116            252 195 
 ROSC BZ EP   9   1418 36.89                             116    1.32 0  256 211 
 ROSC BN ES       1419  7.19                             116    0.24 8  256 211 
 ROSC BZ I        1419 11.44       201.3 0.40            115            256 211 
 HEL  HZ EP   4   1418 39.08                             115    1.54 0  274 255 
 HEL  HN ES       1419  9.37                             115    0.24 8  274 255 
 HEL  HZ I        1419 14.97        57.8 0.30            113            274 255 
 URE  HZ EP   4   1418 37.01                             114   -1.16 0  284 291 
 URE  HN ES   4   1419  7.35                             114   -2.91 0  284 291 
 URE  HZ I        1419 15.93        57.3 0.18            112            284 291 
 SOCV BZ IP     C 1418 39.70                             112   -0.08 7  298  57 
 SOCV BN ES       1419 12.17                             112   -0.96 7  298  57 
 GUY2CHZ EP       1418 41.83                             112    0.81 7  304 234 
 GUY2CHE ES   4   1419 18.49                             112    3.16 0  304 234 
 GUY2CHZ I        1419 23.14        68.0 0.34                           304 234 
 VIL  EZ EP       1418 40.73                             112   -0.14 7  307 192 
 VIL  EN ES       1419 14.78                             112   -0.27 7  307 192 
 VIL  EZ I        1419 24.58        93.0 0.42            111            307 192 
 PTGC HZ EP   4 D 1418 40.01                             112   -1.18 0  311 159 
 PTGC HN ES   4   1419 13.66                             112   -1.97 0  311 159 
 PTGC HZ I        1419 16.16        42.7 0.34            110            311 159 
 LL6C HZ EP       1418 42.39                             111   -0.03 7  322 357 
 LL6C HE ES       1419 17.97                             111    0.14 7  322 357 
 LL6C HZ I        1419 22.94        17.8 0.42            110            322 357 
 ELA  HZ EP   4   1418 45.98                             110    1.70 0  332 229 
 ELA  HE ES   4   1419 23.46                             110    2.33 0  332 229 
 ELA  HZ I        1419 29.61        43.4 0.56            109            332 229 
 CBOC HZ EP       1418 45.26                             110    1.00 7  336 252 
 CBOC HN ES       1419 21.50                             110    0.41 7  336 252 
 CBOC HZ I        1419 25.31        13.9 0.34            109            336 252 
 ANIL HZ EP       1418 47.90                             108    0.65 6  361 224 
 ANIL HN ES       1419 27.25                             108    0.83 6  361 224 
 SJC  HZ EP       1418 50.89                             106   -1.53 6  407 327 
 SJC  HN ES   4   1419 31.27                             106   -4.34 0  407 327 
 SJC  HZ I        1419 46.69        15.9 0.60            105            407 327 
 PAL  HZ EP     D 1418 52.40                             106   -0.16 6  409 239 
 PAL  HN ES   4   1419 32.09                             106   -3.78 0  409 239 
 PAL  HZ I        1419 42.28        12.9 0.32            105            409 239 
 CRJC HZ EP   4   1418 57.23                             104   -1.95 0  464   3 
 CRJC HN ES   4   1419 44.22                             104   -3.43 0  464   3 
 CRJC HZ I        1419 48.09        19.6 0.20            103            464   3 
                                                                                
