 2017  823 1903 15.3 L   6.779 -73.108143.4  RSN 13 0.4 1.9LRSN                1
 GAP=116        0.79       2.7     2.9  4.5  0.5749E+00  0.3668E+01  0.2793E+01E
 Epicentro: LOS SANTOS - SANTANDER                                             3
 ACTION:UPD 17-09-04 20:23 OP:rebc STATUS:               ID:20170823190315 L   I
 OLDACT:UP  17-08-24 00:22 OP:and  STATUS:               ID:20170823185741d    3
 OLDACT:UP  17-08-24 00:20 OP:and  STATUS:               ID:20170823185741d    3
 OLDACT:UP  17-08-24 00:19 OP:and  STATUS:               ID:20170823185741d    3
 OLDACT:DUP 17-08-24 00:16 OP:and  STATUS:               ID:20170823185741d    3
 OLDACT:REG 17-08-23 21:02 OP:and  STATUS:               ID:20170823185740     3
 2017-08-23-1858-00M.COL___419                                                 6
 STAT SP IPHASW D HRMM SECON CODA AMPLIT PERI AZIMU VELO AIN AR TRES W  DIS CAZ7
 BAR2 EZ IP     C 19 3 34.50                             171   -0.1710 22.3 202 
 BAR2 EZ ES       19 3 50.08                             171    0.3410 22.3 202 
 BAR2 EZ I        19 3 55.44        13.7 0.38            167           22.3 202 
 BRR  HZ EP       19 3 36.27                             151   -0.2410 75.9 299 
 BRR  HE ES       19 3 53.24                             151    0.2110 75.9 299 
 BRR  HZ I        19 3 56.56        22.1 0.36            150           75.9 299 
 PAM  EZ EP       19 3 37.35                             151    0.0910 76.6  36 
 PAM  EN ES       19 3 54.19                             151   -0.1710 76.6  36 
 PAM  EZ I        19 3 56.12         6.8 0.24            156           76.6  36 
 RUS  HZ EP       19 3 38.38                             144   -0.3010 98.1 178 
 RUS  HN ES       19 3 56.84                             144   -0.0510 98.1 178 
 RUS  HZ I        19 3 59.09         3.6 0.24            145           98.1 178 
 SPBC HZ EP       19 3 43.51                             128   -0.24 9  164 221 
 SPBC HN ES       19 4  5.34                             128   -0.56 9  164 221 
 SPBC HZ I        19 4  7.40        12.0 0.26            129            164 221 
 YPLC HZ IP     C 19 3 44.89                             127    0.32 9  173 152 
 YPLC HN ES       19 4  7.63                             127    0.25 9  173 152 
 YPLC HZ I        19 4 11.11        10.1 0.32            129            173 152 
 ZAR  HZ EP       19 3 47.61                             121   -0.51 8  209 292 
 ZAR  HN ES       19 4 14.25                             121    0.56 8  209 292 
 ZAR  HZ I        19 4 18.48        10.7 0.28            122            209 292 
 NOR  HZ IP     C 19 3 51.17                             118    0.01 8  237 235 
 NOR  HN ES       19 4 19.10                             118   -0.00 8  237 235 
 NOR  HZ I        19 4 25.38         4.7 0.20            119            237 235 
 CHI  HZ EP   2   19 3 52.89                             117    0.10 4  248 196 
 CHI  HN ES   3   19 4 23.42                             117    1.41 2  248 196 
 CHI  HZ I        19 4 28.72         2.2 0.44            118            248 196 
 URE  HZ I        19 4 36.97         5.7 0.14            114            289 292 
 GUY2CHZ EP   2   19 4  0.66                             112    1.58 4  303 236 
 GUY2CHN ES       19 4 33.30                             112    0.10 7  303 236 
 GUY2CHZ I        19 4 41.36         3.9 0.24                           303 236 
 ELA  HN ES   4   19 4 41.57                             110    2.66 0  331 230 
 ELA  HZ I        19 4 46.13         4.4 0.76            111            331 230 
 PRA  HZ EP   2   19 4  9.09                             106    0.30 3  392 210 
 PRA  HE ES   2   19 4 51.82                             106    1.34 3  392 210 
 PRA  HZ I        19 4 54.29         3.0 0.28            107            392 210 
                                                                                
