 2013  123 1522 10.5 L   6.769 -73.128145.4  RSN  6 0.4 1.6LRSN                1
 GAP=140        0.75       5.0     4.8  7.4  0.5195E+00  0.9725E+01  0.3694E+01E
 Epicentro: LOS SANTOS - SANTANDER                                             3
 ACTION:UPD 13-02-15 09:16 OP:ep   STATUS:               ID:20130123152210 L   I
 2013-01-23-1520-00M.COL___241                                                 6
 STAT SP IPHASW D HRMM SECON CODA AMPLIT PERI AZIMU VELO AIN AR TRES W  DIS CAZ7
 BAR2 SZ EP   1   1522 29.99                             172   -0.02 7 20.4 197 
 BAR2 SZ ES   1   1522 45.06                             172   -0.19 7 20.4 197 
 BAR2 SZ I        1522 46.69        13.0 0.52            146           20.4 197 
 PAM  SZ EP   1   1522 32.85                             150    0.11 7 78.9  37 
 PAM  SE ES   1   1522 50.01                             150   -0.10 7 78.9  37 
 PAM  SZ I        1522 52.26         7.8 0.60            130           78.9  37 
 RUS  HZ EP   1   1522 33.82                             145   -0.12 7 97.0 177 
 RUS  HN ES   1   1522 52.71                             145    0.47 7 97.0 177 
 RUS  HZ I        1522 56.95         2.9 0.68            115           97.0 177 
 PTB  HZ EP   1   1522 36.90                             132   -0.64 7  149 260 
 PTB  HN ES   1   1522 58.24                             132   -0.40 7  149 260 
 PTB  HZ I        1523  3.93         9.5 0.28            111            149 260 
 ZAR  HN ES   1   1523  9.62                             122    0.85 6  207 293 
 CHI  HZ EP   1   1522 48.08                             117    0.23 6  246 196 
 CHI  HZ I        1523 25.13         2.0 0.62            100            246 196 
                                                                                
