 2017  523 1119  2.1 L   6.766 -73.141150.8  RSN  4 0.3 1.5LRSN                1
 GAP=235        0.64       6.0     6.5  7.3  0.2756E+02  0.1100E+02  0.2670E+01E
 Epicentro: LOS SANTOS - SANTANDER                                             3
 ACTION:UPD 17-06-16 13:38 OP:jn   STATUS:               ID:20170523111902 L   I
 OLDACT:DUP 17-05-23 21:41 OP:dnl  STATUS:               ID:20170523110741d    3
 OLDACT:REG 17-05-23 20:51 OP:dnl  STATUS:               ID:20170523110740     3
 2017-05-23-1108-00M.COL___353                                                 6
 STAT SP IPHASW D HRMM SECON CODA AMPLIT PERI AZIMU VELO AIN AR TRES W  DIS CAZ7
 BRR  HZ EP   2   1119 24.11                             153    0.22 5 73.5 301 
 BRR  HE ES       1119 40.77                             153   -0.1410 73.5 301 
 BRR  HZ I        1119 46.18         9.1 0.36            151           73.5 301 
 RUS  HZ EP   2   1119 25.25                             146   -0.81 5 96.8 176 
 RUS  HE ES       1119 44.99                             146    0.2310 96.8 176 
 RUS  HZ I        1119 47.70         1.6 0.40            148           96.8 176 
 PTB  HZ EP       1119 29.57                             133    0.13 9  148 260 
 PTB  HN ES       1119 50.52                             133   -0.26 9  148 260 
 PTB  HZ I        1119 57.64         3.9 0.44            134            148 260 
 ZAR  HZ EP   4   1119 32.83                             123   -2.21 0  206 293 
 ZAR  HN ES       1120  0.99                             123    0.23 8  206 293 
 ZAR  HZ I        1120  6.61         3.6 0.30            125            206 293 
                                                                                
