 2016 1223 1707 26.1 L   6.793 -73.177144.0  RSN  5 0.4 1.3LRSN                1
 GAP=234        0.92       5.3     6.4  6.6  0.1347E+02  0.6688E+01  0.9905E+01E
 Epicentro: LOS SANTOS - SANTANDER                                             3
 ACTION:UPD 17-01-11 20:18 OP:rebc STATUS:               ID:20161223170726 L   I
 OLDACT:REG 16-12-23 21:31 OP:edw  STATUS:               ID:20161223165747     3
 2016-12-23-1658-00M.COL___393                                                 6
 STAT SP IPHASW D HRMM SECON CODA AMPLIT PERI AZIMU VELO AIN AR TRES W  DIS CAZ7
 BAR2 EZ EP       17 7 45.21                             171   -0.2910 22.2 182 
 BAR2 EZ ES       17 8  0.12                             171   -0.5110 22.2 182 
 BAR2 EZ I        17 8  1.09         4.2 0.36            166           22.2 182 
 BRR  HZ EP       17 7 47.05                             153    0.1410 68.6 300 
 BRR  HN ES       17 8  3.81                             153    0.6610 68.6 300 
 RUS  HZ EP       17 7 49.65                             144    0.0110  100 174 
 RUS  HN ES       17 8  8.24                             144    0.2310  100 174 
 RUS  HZ I        17 8  8.81         3.7 0.24            140            100 174 
 PTB  HZ EP       17 7 52.61                             132    0.01 9  144 259 
 PTB  HN ES       17 8 12.78                             132   -0.50 9  144 259 
 CHI  HZ EP       17 8  3.44                             117   -0.08 8  247 194 
 CHI  HN ES       17 8 33.08                             117    0.37 8  247 194 
 CHI  HZ I        17 8 39.33         1.4 0.34            116            247 194 
                                                                                
