 2015  923 1411  2.5 L   6.802 -73.131146.0  RSN 17 0.5 2.7LRSN                1
 GAP=120        1.17       2.9     4.0  5.7 -0.1512E+01  0.5552E+01  0.3241E+00E
 Epicentro: LOS SANTOS - SANTANDER                                             3
 ACTION:UPD 15-10-28 16:28 OP:cam  STATUS:               ID:20150923141102 L   I
 OLDACT:REG 15-09-23 22:15 OP:ar   STATUS:               ID:20150923140747     3
 2015-09-23-1407-47M.COL___352                                                 6
 STAT SP IPHASW D HRMM SECON CODA AMPLIT PERI AZIMU VELO AIN AR TRES W  DIS CAZ7
 BAR2 EZ EP       1411 22.24                             170    0.0310 23.9 194 
 BAR2 EZ ES       1411 37.15                             170   -0.4010 23.9 194 
 BAR2 EZ I        1411 37.99        83.6 0.36            168           23.9 194 
 BRR  HZ EP       1411 24.14                             152    0.3510 72.5 298 
 BRR  HN ES       1411 41.13                             152    0.7610 72.5 298 
 BRR  HZ I        1411 44.39        58.1 0.46            146           72.5 298 
 PAM  EZ EP       1411 25.19                             151    0.4810 76.2  39 
 PAM  EN ES       1411 42.00                             151   -0.0010 76.2  39 
 PAM  EZ I        1411 44.11        96.5 0.56            149           76.2  39 
 RUS  HZ EP       1411 26.54                             144    0.2110  101 177 
 RUS  HN ES       1411 45.04                             144    0.1610  101 177 
 RUS  HZ I        1411 45.58        37.9 0.20            141            101 177 
 PTB  HZ EP       1411 29.47                             132   -0.21 9  149 259 
 PTB  HN ES       1411 49.97                             132   -0.88 9  149 259 
 PTB  HZ I        1411 52.27        59.3 0.24            126            149 259 
 OCA  HZ EP       1411 30.39                             130   -0.48 9  160 353 
 OCA  HN ES       1411 52.01                             130   -0.95 9  160 353 
 OCA  HZ I        1411 55.50       148.8 0.28            125            160 353 
 SPBC HZ EP   4   1411 25.82                             129   -5.36 0  164 219 
 SPBC HN ES       1411 53.69                             129    0.18 9  164 219 
 SPBC HZ I        1411 58.12        69.3 0.16            124            164 219 
 ZAR  HZ EP       1411 35.24                             122    0.09 8  205 292 
 ZAR  HN ES       1412  0.94                             122    0.35 8  205 292 
 ZAR  HZ I        1412  6.24        52.3 0.58            117            205 292 
 NOR  HN ES       1412  5.96                             118   -0.49 8  236 235 
 NOR  HZ I        1412  7.55        53.1 0.16            114            236 235 
 SML  HZ EP       1411 38.72                             117   -0.52 8  244 335 
 SML  HN ES       1412  8.75                             117    0.90 8  244 335 
 SML  HZ I        1412  9.01        57.6 0.10            113            244 335 
 CHI  HZ EP       1411 40.74                             117    0.41 8  249 196 
 CHI  HN ES       1412 10.14                             117    0.34 8  249 196 
 CHI  HZ I        1412 17.16        16.4 0.26            113            249 196 
 HEL  HZ EP       1411 43.83                             115    0.88 8  274 256 
 HEL  HN ES       1412 14.24                             115   -0.23 8  274 256 
 HEL  HZ I        1412 20.69        23.0 0.32            111            274 256 
 GUY2CHZ EP   4   1411 42.97                             112   -3.36 0  303 235 
 GUY2CHN ES       1412 20.07                             112   -0.41 7  303 235 
 GUY2CHZ I        1412 28.28        20.5 0.26                           303 235 
 PTGC HZ EP       1411 45.42                             112   -0.95 7  308 159 
 PTGC HN ES   4   1412 18.66                             112   -1.89 0  308 159 
 CBOC HZ EP   2   1411 50.47                             110    0.81 3  335 252 
 CBOC HN ES   2   1412 26.35                             110   -0.05 3  335 252 
 CBOC HZ I        1412 33.08         7.6 0.24            106            335 252 
 DBB  SZ EP       1411 50.00                             109   -0.22 7  341 274 
 DBB  SZ I        1412 35.44        37.5 0.46            106            341 274 
 CRJC HZ EP   9   1412  2.63                             103   -2.38 0  467   3 
 CRJC HN ES   2   1412 51.54                                    0.19 2  467   3 
 CRJC HZ I        1412 59.79         7.6 0.18            101            467   3 
                                                                                
