 2017  523 1626 42.8 L   6.684 -73.207150.5  RSN  5 0.3 1.8LRSN                1
 GAP=221        0.60       5.5     5.3  6.4  0.1099E+02  0.1388E+01  0.5563E+01E
 Epicentro: VILLANUEVA - SANTANDER                                             3
 ACTION:UPD 17-06-16 13:38 OP:jn   STATUS:               ID:20170523162642 L   I
 OLDACT:UP  17-05-23 22:00 OP:dnl  STATUS:               ID:20170523161730     3
 OLDACT:REG 17-05-23 21:04 OP:dnl  STATUS:               ID:20170523161730     3
 2017-05-23-1618-00M.COL___344                                                 6
 STAT SP IPHASW D HRMM SECON CODA AMPLIT PERI AZIMU VELO AIN AR TRES W  DIS CAZ7
 BRR  HZ EP       1627  4.36                             153   -0.1510 72.8 310 
 BRR  HE ES       1627 21.62                             153    0.1510 72.8 310 
 BRR  HZ I        1627 22.22        15.0 0.46            150           72.8 310 
 RUS  HZ EP   2   1627  6.04                             148   -0.13 5 88.6 171 
 RUS  HN ES   2   1627 24.63                             148    0.20 5 88.6 171 
 RUS  HZ I        1627 25.96         5.6 0.34            145           88.6 171 
 PTB  HZ EP       1627  9.25                             135   -0.11 9  139 263 
 PTB  HN ES       1627 29.78                             135   -0.31 9  139 263 
 PTB  HZ I        1627 31.22         5.3 0.28            131            139 263 
 ZAR  HZ EP   2   1627 15.62                             123    0.20 4  203 296 
 ZAR  HE ES       1627 41.08                             123    0.19 9  203 296 
 ZAR  HZ I        1627 46.34         7.2 0.28            122            203 296 
 NOR  HZ EP   2   1627 18.54                             121    1.13 4  222 236 
 NOR  HE ES   4   1627 46.31                             121    1.87 0  222 236 
 NOR  HZ I        1627 50.20         5.3 0.16            119            222 236 
                                                                                
