 2010  823 1620  3.9 L   6.827 -73.020137.2  RSN  6 0.2 1.6LRSN                1
 GAP=172        0.67       4.1     7.8  6.6 -0.2074E+01 -0.8823E+01 -0.5420E+01E
 Epicentro: CEPITA - SANTANDER                                                 3
 ACTION:UP  10-09-07 10:57 OP:vdl  STATUS:               ID:20100823162003 L   I
 2010-08-23-1619-14S.COL___120                                                 6
 STAT SP IPHASW D HRMM SECON CODA AMPLIT PERI AZIMU VELO SNR AR TRES W  DIS CAZ7
 BTL  SZ EP       1620 22.94                             167     0.310   29 290 
 BTL  SZ ES   1   1620 37.05                             167    -0.2 7   29 290 
 BAR2 SZ EP       1620 22.84                             166     0.110   32 215 
 BAR2 SZ ES   1   1620 37.12                             166    -0.3 7   32 215 
 BAR2 SZ I        1620 40.03        11.1 0.58                            32 215 
 BRR  HZ EP       1620 24.60                             147    -0.310   83 292 
 BRR  HZ I        1620 24.89        12.6 0.35                            83 292 
 BRR  HE ES   1   1620 41.48                             147     0.3 7   83 292 
 RUS  HN ES   1   1620 45.20                             142     0.1 7  104 184 
 RUS  HZ I        1620 47.77         4.6 0.12                           104 184 
 GUE  SZ EP   1   1620 27.14                             139    -0.3 7  111   5 
 GRA  SZ ES   1   1620 46.76                             137     0.2 7  119  12 
 GRA  SZ I        1620 49.22         5.4 0.49                           119  12 
                                                                                
