 2014 1223 1120 31.4 L   6.834 -73.180143.3  RSN  7 0.4 2.0LRSN                1
 GAP=186        0.97       3.2     5.5  6.0  0.6767E+00  0.1081E+01 -0.7567E+00E
 Epicentro: ZAPATOCA - SANTANDER                                               3
 ACTION:UPD 15-02-10 17:06 OP:nd   STATUS:               ID:20141223112031 L   I
 OLDACT:REG 14-12-23 20:24 OP:carl STATUS:               ID:20141223111747     3
 2014-12-23-1117-47M.COL___295                                                 6
 STAT SP IPHASW D HRMM SECON CODA AMPLIT PERI AZIMU VELO AIN AR TRES W  DIS CAZ7
 BAR2 EZ EP       1120 50.96                             169    0.1610 26.7 181 
 BAR2 EZ ES       1121  5.84                             169   -0.1010 26.7 181 
 BAR2 EZ I        1121  7.34        14.8 0.20            168           26.7 181 
 BRR  HZ EP       1120 52.73                             154    0.7410 66.1 297 
 BRR  HN ES       1121  8.41                             154    0.3510 66.1 297 
 BRR  HZ I        1121 10.20        25.7 0.34            150           66.1 297 
 PTB  HZ EP       1120 57.86                             132   -0.04 9  145 257 
 PTB  HN ES       1121 17.91                             132   -0.66 9  145 257 
 PTB  HZ I        1121 21.39        14.0 0.12            130            145 257 
 OCA  HZ EP       1120 58.90                             130   -0.22 9  156 354 
 OCA  HN ES       1121 20.43                             130   -0.32 9  156 354 
 OCA  HZ I        1121 23.82         8.7 0.18            129            156 354 
 ZAR  HZ EP       1121  3.42                             122    0.24 9  199 292 
 ZAR  HN ES       1121 28.41                             122    0.45 9  199 292 
 ZAR  HZ I        1121 35.89        10.8 0.42            121            199 292 
 SML  HZ EP       1121  7.21                             117   -0.13 8  239 336 
 SML  HN ES       1121 34.87                             117   -0.51 8  239 336 
 SML  HZ I        1121 42.81        10.3 0.10            117            239 336 
 CHI  HZ EP       1121  9.47                             116    0.22 8  251 194 
 CHI  HN ES       1121 38.28                             116   -0.50 8  251 194 
 CHI  HZ I        1121 46.32         2.9 0.40            116            251 194 
                                                                                
