 2013 1123 1042 41.8 L   6.845 -73.139140.5  RSN  4 0.5 1.5LRSN                1
 GAP=215        0.97       7.3     6.6 11.4  0.3310E+01  0.1208E+02 -0.5165E+02E
 Epicentro: LOS SANTOS - SANTANDER                                             3
 ACTION:UPD 14-01-09 16:30 OP:ep   STATUS:               ID:20131123104241 L   I
 OLDACT:DUP 13-11-23 14:44 OP:nd   STATUS:               ID:20131123104001d    3
 2013-11-23-1040-00M.COL___282                                                 6
 STAT SP IPHASW D HRMM SECON CODA AMPLIT PERI AZIMU VELO AIN AR TRES W  DIS CAZ7
 BAR2 SZ EP       1043  1.03                             168    0.1310 28.3 190 
 BAR2 SZ ES       1043 15.86                             168    0.0610 28.3 190 
 BAR2 SZ I        1043 17.55         7.3 0.64            173           28.3 190 
 PTB  HZ EP   2   1043  7.41                             130   -1.08 5  149 257 
 PTB  HN ES       1043 28.94                             130   -0.37 9  149 257 
 PTB  HZ I        1043 31.45         3.0 0.16            133            149 257 
 ZAR  HZ EP   2   1043 14.30                             121    0.53 4  203 291 
 ZAR  HN ES       1043 39.36                             121    0.64 9  203 291 
 ZAR  HZ I        1043 44.74         1.9 0.38            123            203 291 
 SML  HZ EP       1043 17.98                             117    0.32 8  240 335 
 SML  HN ES       1043 45.01                             117   -0.64 8  240 335 
 SML  HZ I        1043 52.34         3.2 0.10            118            240 335 
                                                                                
