 2013  123 1256 13.5 L   6.809 -73.171142.5  RSN  7 0.5 1.8LRSN                1
 GAP=133        1.02       5.5     5.9  9.0  0.3012E+01  0.1021E+02  0.1228E+02E
 Epicentro: LOS SANTOS - SANTANDER                                             3
 ACTION:UPD 13-02-15 09:16 OP:ep   STATUS:               ID:20130123125613 L   I
 2013-01-23-1250-00M.COL___241                                                 6
 STAT SP IPHASW D HRMM SECON CODA AMPLIT PERI AZIMU VELO AIN AR TRES W  DIS CAZ7
 BAR2 SZ EP   1   1256 32.65                             170   -0.08 7 24.0 183 
 BAR2 SZ ES   1   1256 46.85                             170   -0.90 7 24.0 183 
 BRR  HZ EP   1   1256 34.35                             153    0.24 7 68.2 299 
 BRR  HE ES   1   1256 51.42                             153    1.22 7 68.2 299 
 BRR  HZ I        1256 55.03        12.4 0.38            151           68.2 299 
 PAM  SZ EP   1   1256 35.51                             150    0.10 7 78.4  42 
 PAM  SN ES   1   1256 52.22                             150   -0.30 7 78.4  42 
 PAM  SZ I        1256 54.54        14.0 0.52            154           78.4  42 
 RUS  HZ EP   1   1256 37.17                             143    0.17 7  102 175 
 RUS  HE ES   1   1256 55.77                             143    0.42 7  102 175 
 RUS  HZ I        1256 57.25         6.0 0.32            145            102 175 
 PTB  HZ EP   1   1256 39.39                             132   -0.56 7  145 258 
 PTB  HN ES   1   1257  0.04                             132   -0.55 7  145 258 
 PTB  HZ I        1257  3.00        11.2 0.12            132            145 258 
 ZAR  HN ES   1   1257 10.19                             122   -0.11 6  201 292 
 ZAR  HZ I        1257 16.67         7.3 0.32            123            201 292 
 CHI  HZ EP   1   1256 51.11                             116    0.08 6  249 194 
 CHI  HN ES   1   1257 20.55                             116    0.24 6  249 194 
 CHI  HZ I        1257 24.70         3.2 0.32            118            249 194 
                                                                                
