 2013 1123 1642 10.0 L   6.809 -73.188145.5  RSN 13 0.4 2.3LRSN                1
 GAP=136        0.91       3.1     3.6  5.0 -0.2615E+01  0.3911E+01  0.2180E+01E
 Epicentro: ZAPATOCA - SANTANDER                                               3
 ACTION:UPD 14-01-09 16:30 OP:ep   STATUS:               ID:20131123164210 L   I
 OLDACT:REG 13-11-23 14:16 OP:nd   STATUS:               ID:20131123164000     3
 2013-11-23-1640-00M.COL___282                                                 6
 STAT SP IPHASW D HRMM SECON CODA AMPLIT PERI AZIMU VELO AIN AR TRES W  DIS CAZ7
 BAR2 SZ EP       1642 29.60                             170    0.0210 24.0 178 
 BAR2 SZ ES       1642 44.73                             170   -0.1410 24.0 178 
 BAR2 SZ I        1642 45.87        65.6 0.20            169           24.0 178 
 BRR  HZ EP       1642 31.39                             154    0.5610 66.6 300 
 BRR  HN ES       1642 47.83                             154    0.7210 66.6 300 
 BRR  HZ I        1642 52.44        35.0 0.34            151           66.6 300 
 PAM  SZ EP       1642 32.51                             150    0.2210 79.7  43 
 PAM  SN ES       1642 49.29                             150   -0.4210 79.7  43 
 PAM  SZ I        1642 51.82        34.6 0.42            155           79.7  43 
 PTB  HZ EP       1642 36.22                             133   -0.29 9  143 258 
 PTB  HN ES       1642 57.17                             133   -0.05 9  143 258 
 PTB  HZ I        1642 59.07        24.1 0.32            132            143 258 
 SPBC HZ EP       1642 38.55                             129    0.31 9  161 217 
 SPBC HN ES       1642 59.71                             129   -0.59 9  161 217 
 SPBC HZ I        1643  7.72        33.8 0.26            129            161 217 
 ZAR  HN EP   2   1642 42.28                             123    0.37 4  199 292 
 ZAR  HE ES       1643  7.26                             123    0.44 9  199 292 
 ZAR  HN I        1643 13.04        42.2 0.28            123            199 292 
 NOR  HZ EP       1642 45.35                             119    0.02 8  231 234 
 NOR  HN ES       1643 12.88                             119   -0.04 8  231 234 
 NOR  HZ I        1643 21.50        19.5 0.18            119            231 234 
 SML  HZ EP       1642 45.81                             118   -0.46 8  241 336 
 SML  HN ES       1643 13.95                             118   -0.64 8  241 336 
 SML  HZ I        1643 19.29        21.4 0.10            119            241 336 
 CHI  HZ EP       1642 47.89                             117    0.27 8  248 194 
 CHI  HN ES   2   1643 16.85                             117   -0.14 4  248 194 
 CHI  HZ I        1643 20.46        10.8 0.38            118            248 194 
 HEL  HZ EP   2   1642 49.79                             115    0.10 4  268 255 
 HEL  HN ES       1643 20.04                             115   -0.63 8  268 255 
 HEL  HZ I        1643 29.29        11.4 0.36            115            268 255 
 GUY2CHZ EP   4   1642 53.15                             112   -0.04 0  298 234 
 GUY2CHN ES   4   1643 29.82                             112    2.91 0  298 234 
 GUY2CHZ I        1643 34.06         8.5 0.30                           298 234 
 ORTC HZ EP       1643  3.95                             106    0.30 6  393 216 
 ORTC HN ES   2   1643 45.60                             106    0.08 3  393 216 
 ORTC HZ I        1643 51.05         4.4 0.30            107            393 216 
 SJC  HZ EP   4   1642 59.73                             106   -5.39 0  406 327 
 SJC  HN ES   4   1643 42.14                             106   -6.00 0  406 327 
 SJC  HZ I        1643 52.29         3.2 0.44            107            406 327 
                                                                                
