 2017  523 1548 12.0 L   6.812 -73.182146.3  RSN 11 0.3 2.7LRSN                1
 GAP=144        0.91       3.9     4.0  6.1 -0.4059E+01  0.9390E+00  0.3947E+01E
 Epicentro: ZAPATOCA - SANTANDER                                               3
 ACTION:UPD 17-06-16 13:38 OP:jn   STATUS:               ID:20170523154812 L   I
 OLDACT:UP  17-05-23 21:56 OP:dnl  STATUS:               ID:20170523153727     3
 OLDACT:UP  17-05-23 21:56 OP:dnl  STATUS:               ID:20170523153727     3
 OLDACT:REG 17-05-23 21:03 OP:dnl  STATUS:               ID:20170523153727     3
 2017-05-23-1538-00M.COL___346                                                 6
 STAT SP IPHASW D HRMM SECON CODA AMPLIT PERI AZIMU VELO AIN AR TRES W  DIS CAZ7
 PAM  EZ EP       1548 34.55                             151    0.1510 79.0  42 
 PAM  EN ES       1548 52.12                             151    0.2710 79.0  42 
 PAM  EZ I        1548 54.70        50.3 0.24            156           79.0  42 
 RUS  HZ EP       1548 35.60                             144   -0.3510  102 174 
 RUS  HN ES       1548 54.40                             144   -0.2210  102 174 
 RUS  HZ I        1548 55.52        57.4 0.38            145            102 174 
 PTB  HZ EP   4   1548 37.99                             133   -0.72 0  144 258 
 PTB  HN ES       1548 59.00                             133   -0.52 9  144 258 
 PTB  HZ I        1549  6.42        42.0 0.44            131            144 258 
 SPBC HZ EP       1548 40.55                             130    0.12 9  162 218 
 SPBC HE ES       1549  3.14                             130    0.55 9  162 218 
 SPBC HZ I        1549  8.49        72.8 0.24            129            162 218 
 YPLC HZ IP     C 1548 42.06                             127   -0.11 9  180 150 
 YPLC HE ES       1549  5.91                             127    0.23 9  180 150 
 YPLC HZ I        1549  6.97        73.3 0.26            130            180 150 
 NOR  HZ EP       1548 47.70                             119    0.18 8  232 234 
 NOR  HN ES   4   1549 14.73                             119   -0.48 0  232 234 
 NOR  HZ I        1549 23.51        34.3 0.18            119            232 234 
 ROSC BZ EP   9   1548 51.78                             117    1.70 0  252 210 
 ROSC BN ES       1549 22.47                             116    1.01 8  252 210 
 ROSC BZ I        1549 26.34        65.3 0.45            117            252 210 
 VIL  EZ EP       1548 55.34                             112   -0.19 7  304 191 
 VIL  EN ES       1549 29.26                             112   -0.20 7  304 191 
 VIL  EZ I        1549 32.41        40.5 0.38            113            304 191 
 CBOC HZ EP   9   1549  0.08                             111    1.51 0  330 252 
 CBOC HN ES       1549 36.88                             110    0.50 7  330 252 
 CBOC HZ I        1549 44.52         7.4 0.50            110            330 252 
 ANIL HZ EP   9   1549  3.83                             109    2.19 0  355 224 
 ANIL HN ES       1549 43.11                             108    0.58 6  355 224 
 ORTC HZ EP       1549  5.87                             107    0.05 6  394 216 
 ORTC HE ES   4   1549 50.48                             107    2.71 0  394 216 
 ORTC HZ I        1549 55.28        15.2 0.54            107            394 216 
                                                                                
