 2016  423 1241 37.2 L   6.838 -73.118144.6  RSN 22 0.6 2.6LRSN                1
 GAP= 71        1.31       3.3     3.9  6.0 -0.4125E+01  0.4565E+01  0.1097E+01E
 Epicentro: LOS SANTOS - SANTANDER                                             3
 ACTION:UPD 16-05-05 14:23 OP:rebc STATUS:               ID:20160423124137 L   I
 OLDACT:UP  16-04-24 00:40 OP:ar   STATUS:               ID:20160423123744     3
 OLDACT:REG 16-04-23 21:09 OP:ar   STATUS:               ID:20160423123744     3
 2016-04-23-1237-44M.COL___312                                                 6
 STAT SP IPHASW D HRMM SECON CODA AMPLIT PERI AZIMU VELO AIN AR TRES W  DIS CAZ7
 BAR2 EZ IP     D 1241 56.94                             169    0.1410 28.1 195 
 BAR2 EZ ES       1242 12.11                             169    0.0310 28.1 195 
 BAR2 EZ I        1242 13.46        47.9 0.52            168           28.1 195 
 PAM  EZ EP       1241 59.69                             152    0.7010 72.2  40 
 PAM  EN ES       1242 16.57                             152    0.5910 72.2  40 
 PAM  EZ I        1242 19.16        97.1 0.56            155           72.2  40 
 RUS  HZ EP       1242  0.85                             142   -0.2910  105 178 
 RUS  HN ES       1242 19.51                             142   -0.3010  105 178 
 RUS  HZ I        1242 22.35        42.1 0.38            145            105 178 
 PTB  HZ EP       1242  3.60                             131   -0.82 9  152 257 
 PTB  HN ES       1242 25.01                             131   -0.64 9  152 257 
 PTB  HZ I        1242 30.75        30.1 0.14            130            152 257 
 TAM  HZ IP     D 1242  5.13                             130    0.51 9  153 107 
 OCA  HZ EP       1242  5.36                             130    0.30 9  156 352 
 OCA  HN ES       1242 26.68                             130   -0.11 9  156 352 
 OCA  HZ I        1242 32.79        94.2 0.24            131            156 352 
 SPBC HZ EP       1242  6.07                             128   -0.04 9  168 219 
 SPBC HN ES       1242 28.18                             128   -0.47 9  168 219 
 SPBC HZ I        1242 29.57        85.6 0.26            128            168 219 
 ZAR  HZ EP       1242  9.62                             122   -0.08 8  205 291 
 ZAR  HN ES       1242 35.58                             122    0.53 8  205 291 
 ZAR  HZ I        1242 42.36        31.5 0.40            122            205 291 
 NOR  HZ EP       1242 12.88                             118   -0.51 8  240 234 
 NOR  HN ES       1242 40.83                             118   -0.79 8  240 234 
 NOR  HZ I        1242 48.64        34.5 0.20            118            240 234 
 CHI  HZ EP       1242 15.01                             116   -0.36 8  254 196 
 CHI  HN ES       1242 44.08                             116   -1.06 8  254 196 
 CHI  HZ I        1242 52.44        15.8 0.48            118            254 196 
 ROSC BZ EP       1242 16.48                             116    0.66 8  258 211 
 ROSC BE ES       1242 46.92                             116    0.97 8  258 211 
 ROSC BZ I        1242 51.94        26.2 0.50            117            258 211 
 HEL  HZ EP       1242 18.45                             114    0.65 7  276 255 
 HEL  HN ES       1242 49.56                             114    0.10 7  276 255 
 HEL  HZ I        1242 55.06        16.3 0.30            115            276 255 
 URE  HZ EP       1242 17.55                             113   -0.80 7  285 291 
 URE  HN ES   4   1242 48.69                             113   -1.76 0  285 291 
 URE  HZ I        1243  0.36        24.2 0.20            114            285 291 
 GUY2CHZ EP       1242 22.07                             112    0.76 7  306 234 
 GUY2CHN ES   4   1242 58.63                             112    2.91 0  306 234 
 GUY2CHZ I        1243  4.78        23.9 0.50                           306 234 
 VIL  SZ EP   4   1242 22.76                             111    1.65 0  308 192 
 VIL  SE ES       1242 56.44                             111    1.09 7  308 192 
 PTGC HZ EP   4   1242 19.49                             111   -1.84 0  312 159 
 PTGC HN ES   4   1242 53.40                             111   -2.36 0  312 159 
 ELA  HZ EP   4   1242 28.72                             110    4.14 0  334 229 
 ELA  HN ES   4   1243  4.42                             110    2.88 0  334 229 
 ELA  HZ I        1243  8.33        19.0 0.40            111            334 229 
 SDV  BZ EP       1242 26.49                             108   -0.12 6  355  50 
 SDV  BN ES       1243  3.80                             108   -1.35 6  355  50 
 SDV  BZ I        1243  5.68         7.1 0.40            110            355  50 
 ANIL HZ EP       1242 28.38                             108    0.82 6  362 224 
 ANIL HN ES       1243  7.31                             108    0.48 6  362 224 
 ANIL HZ I        1243 14.47        32.8 0.40            109            362 224 
 ORTC HZ EP       1242 30.85                             106   -0.84 6  401 216 
 ORTC HN ES   2   1243 14.79                             106    0.60 3  401 216 
 ORTC HZ I        1243 20.62        12.7 0.24            107            401 216 
 SJC  HZ EP   4   1242 31.07                             106   -1.43 0  407 326 
 SJC  HN ES   4   1243 12.86                             106   -2.77 0  407 326 
 SJC  HZ I        1243 16.59         7.6 0.40            106            407 326 
 PAL  HZ EP       1242 32.31                             105   -0.57 6  410 239 
 PAL  HE ES       1243 16.85                             105    0.54 6  410 239 
 PAL  HZ I        1243 19.26         7.5 0.24            106            410 239 
 CRJC HZ EP   9   1242 37.24                             103   -1.90 0  463   3 
 CRJC HE ES       1243 25.81                             104    0.26 5  463   3 
 CRJC HZ I        1243 30.16        13.9 0.12            104            463   3 
                                                                                
