 2010  923 1640 27.8 L   6.803 -73.345126.5  RSN 20 0.5 4.1LRSN                1
 GAP= 90        1.14       3.3     4.8  6.1 -0.4336E+01  0.5801E+01  0.2810E+01E
 Epicentro: ZAPATOCA - SANTANDER                                               3
 Evento Sentido                                                                2
 Reportado como Sentido:                                                       3
 BUCARAMANGA, FLORIDABLANCA (SANTANDER)                                        3
 ACTION:UP  11-02-18 11:05 OP:tino STATUS:               ID:20100923164027 L   I
 2010-09-23-1639-06S.COL___122                                                 6
 STAT SP IPHASW D HRMM SECON CODA AMPLIT PERI AZIMU VELO SNR AR TRES W  DIS CAZ7
 BAR2 SZ IP       1640 45.34                             167     0.010   29 143 
 BAR2 SZ ES   1   1640 58.84                             167    -0.1 7   29 143 
 BAR2 SZ I        1640 59.56     11355.9 0.38                            29 143 
 GIR2 SZ IP       1640 45.48                             164     0.210   35  29 
 URB  SZ IP       1640 45.59                             158    -0.210   48   1 
 BRR  HZ IP     C 1640 46.08                             156     0.210   53 310 
 BRR  HE ES       1641  0.44                             156     0.510   53 310 
 BRR  HZ I        1641  2.18      5137.7 0.30                            53 310 
 RUS  HZ IP     D 1640 49.57                             138    -0.510  105 164 
 RUS  HE ES   1   1641  6.98                             138    -0.4 7  105 164 
 RUS  HZ I        1641  9.30      1070.6 0.38                           105 164 
 BRI  SZ IP       1640 50.33                             134    -0.410  118  31 
 GUE  SZ IP       1640 51.27                             133    -0.110  123  22 
 OCA  SZ IP       1640 54.71                             125     0.1 9  159   1 
 OCA  SZ ES   1   1641 15.91                             125     0.5 7  159   1 
 OCA  SZ I        1641 23.61      4295.2 0.33                           159   1 
 NOR  SZ IP       1640 59.89                             116    -0.7 8  217 231 
 NOR  SN ES   1   1641 25.25                             116    -0.9 6  217 231 
 ROSC BZ EP       1641  4.68                             113     0.9 8  242 207 
 ROSC BN ES   1   1641 31.41                             113    -0.5 6  242 207 
 ROSC BZ I        1641 38.73       321.5 0.59                           242 207 
 CHI  HZ EP       1641  4.22                             113     0.2 8  244 190 
 CHI  HN ES   1   1641 32.47                             113     0.2 6  244 190 
 CHI  HZ I        1641 38.42       406.6 0.52                           244 190 
 HEL  HZ EP       1641  4.88                             113     0.2 8  251 254 
 HEL  HE ES   1   1641 33.71                             113     0.2 6  251 254 
 HEL  HZ I        1641 39.88      1131.2 0.78                           251 254 
 CVER SZ EP       1641  7.35                             111     0.9 8  265 198 
 CVER SZ I        1641 44.29       523.3 0.34                           265 198 
 RREF HZ EP       1641 11.72                             108     0.4 7  306 227 
 RREF HE ES   1   1641 45.02                             108    -0.2 5  306 227 
 RREF HZ I        1641 56.55       702.4 0.77                           306 227 
 DBB  SZ EP       1641 12.27                             107     0.3 7  317 274 
 TOL  SZ EP   1   1641 14.09                             106     0.5 5  329 222 
 MON  HE ES   1   1641 48.91                             106    -1.3 5  336 311 
 MON  HZ I        1641 50.50       378.8 0.33                           336 311 
 SDV  BZ EP       1641 18.49                             104    -0.7 6  377  52 
 SDV  BZ I        1642  0.90       484.1 0.40                           377  52 
 GUA  SZ IPg  2   1641 30.46                             100    -0.5 2  478 170 
 HORQ SZ EP   1   1641 36.37                              99     0.4 3  517 225 
                                                                                
