 2012  923 1447 59.8 L   6.557 -73.420117.6  RSN  4 0.1 1.6LRSN                1
 GAP=179        0.32       3.4     5.8  3.4  0.1582E+02  0.1436E+00  0.1351E+00E
 Epicentro: HATO - SANTANDER                                                   3
 ACTION:UPD 12-10-22 14:20 OP:ep   STATUS:               ID:20120923144759 L   I
 2012-09-23-1440-00M.COL___221                                                 6
 STAT SP IPHASW D HRMM SECON CODA AMPLIT PERI AZIMU VELO AIN AR TRES W  DIS CAZ7
 BAR2 SZ EP   1   1448 16.27                             166    0.16 7 26.6  82 
 BAR2 SZ ES   1   1448 28.75                             166   -0.10 7 26.6  82 
 BAR2 SZ I        1448 30.82        15.5 0.22                          26.6  82 
 GIR2 SZ EP       1448 17.63                             150    0.0110 62.9  23 
 BRR  HZ EP       1448 17.74                             147   -0.0510 68.9 332 
 BRR  HZ I        1448 18.43         7.1 0.56                          68.9 332 
 BRR  HE ES       1448 31.88                             147    0.0310 68.9 332 
 RUS  HZ EP   1   1448 19.34                             143   -0.10 7 82.4 153 
 RUS  HN ES   1   1448 34.84                             143    0.06 7 82.4 153 
                                                                                
