 2016  723 1319 43.0 L   6.791 -73.187137.9  RSN  9 0.4 2.0LRSN                1
 GAP=132        0.94       3.2     4.1  5.5 -0.7549E+00  0.7494E+01  0.3587E+01E
 Epicentro: ZAPATOCA - SANTANDER                                               3
 ACTION:UPD 17-03-29 16:54 OP:lp   STATUS:               ID:20160723131943 L   I
 OLDACT:REG 16-07-23 20:25 OP:lv   STATUS:               ID:20160723131759     3
 2016-07-23-1317-59S.COL___328                                                 6
 STAT SP IPHASW D HRMM SECON CODA AMPLIT PERI AZIMU VELO AIN AR TRES W  DIS CAZ7
 BAR2 EZ EP       1320  1.33                             170   -0.3410 22.0 179 
 BAR2 EZ ES       1320 16.31                             170    0.0910 22.0 179 
 BRR  HZ EP       1320  3.41                             152    0.2910 67.7 301 
 BRR  HZ ES       1320 18.53                             152   -0.2710 67.7 301 
 BRR  HZ I        1320 21.58        16.8 0.16            150           67.7 301 
 PAM  EZ EP       1320  4.33                             148   -0.3010 81.1  42 
 PAM  EE ES       1320 21.62                             148    0.1310 81.1  42 
 PAM  EZ I        1320 23.75        25.9 0.36            155           81.1  42 
 RUS  HZ EP       1320  5.73                             142   -0.2310  100 173 
 RUS  HN ES       1320 24.44                             142    0.5910  100 173 
 RUS  HZ I        1320 26.04         9.5 0.38            144            100 173 
 SPBC HZ EP       1320 10.55                             128   -0.02 9  160 218 
 SPBC HN ES       1320 31.70                             128   -0.37 9  160 218 
 SPBC HZ I        1320 40.35        26.5 0.08            129            160 218 
 ZAR  HZ EP       1320 15.24                             121    0.68 9  200 293 
 ZAR  HE ES       1320 39.05                             121   -0.11 9  200 293 
 ZAR  HZ I        1320 46.14         6.4 0.14            122            200 293 
 NOR  HZ EP       1320 17.61                             117   -0.23 8  230 234 
 NOR  HE ES       1320 44.90                             117   -0.10 8  230 234 
 NOR  HZ I        1320 53.31         7.3 0.16            118            230 234 
 CHI  HZ EP       1320 19.41                             116   -0.65 8  247 194 
 CHI  HN ES       1320 49.12                             116    0.17 8  247 194 
 CHI  HZ I        1320 52.48         4.6 0.11            118            247 194 
 GUY2CHZ EP       1320 26.68                             111    0.90 7  297 234 
 GUY2CHE ES   4   1321  1.35                             111    2.21 0  297 234 
 GUY2CHZ I        1321  7.65         4.8 0.32                           297 234 
                                                                                
