 2015  423 1657 43.4 L   6.805 -73.131154.0  RSN 12 0.4 1.9LRSN                1
 GAP=138        0.97       3.9     5.2  6.6  0.2121E+01  0.8937E+01  0.5093E+01E
 Epicentro: LOS SANTOS - SANTANDER                                             3
 ACTION:UPD 15-06-03 16:57 OP:cam  STATUS:               ID:20150423165743 L   I
 OLDACT:DUP 15-04-23 23:53 OP:spq  STATUS:               ID:20150423164751d    3
 2015-04-23-1647-50M.COL___272                                                 6
 STAT SP IPHASW D HRMM SECON CODA AMPLIT PERI AZIMU VELO AIN AR TRES W  DIS CAZ7
 BAR2 EZ EP       1658  3.86                             171   -0.1410 24.2 194 
 BAR2 EZ ES   1   1658 19.92                             171   -0.18 7 24.2 194 
 BAR2 EZ I        1658 21.79        11.8 0.30            167           24.2 194 
 BRR  HZ EP       1658  5.78                             154    0.3110 72.4 298 
 BRR  HN ES       1658 23.77                             154    1.0510 72.4 298 
 BRR  HZ I        1658 25.57        15.2 0.28            152           72.4 298 
 PAM  SZ EP   4   1658  8.32                             153    1.94 0 75.9  39 
 PAM  SN ES   1   1658 24.07                             153   -0.26 7 75.9  39 
 PAM  SZ I        1658 26.10         7.0 0.52            158           75.9  39 
 RUS  HZ EP   1   1658  7.95                             145   -0.01 7  101 177 
 RUS  HN ES   1   1658 26.75                             145   -0.40 7  101 177 
 RUS  HZ I        1658 27.77         6.0 0.22            146            101 177 
 PTB  HZ EP       1658 10.75                             134   -0.41 9  149 259 
 PTB  HN ES   1   1658 32.14                             134   -0.71 7  149 259 
 PTB  HZ I        1658 34.91         8.8 0.14            133            149 259 
 SPBC HZ EP       1658 12.97                             131    0.33 9  165 219 
 SPBC HN ES       1658 35.53                             131    0.05 9  165 219 
 SPBC HZ I        1658 41.93        19.0 0.34            130            165 219 
 ZAR  HZ EP   1   1658 16.36                             124   -0.13 6  205 292 
 ZAR  HE ES       1658 41.90                             124   -0.43 8  205 292 
 ZAR  HZ I        1658 48.41        10.7 0.50            124            205 292 
 NOR  HZ EP       1658 19.97                             120    0.21 8  236 235 
 NOR  HE ES   1   1658 48.41                             120    0.27 6  236 235 
 NOR  HZ I        1658 55.12         7.8 0.18            120            236 235 
 SML  HE ES   1   1658 48.82                             119   -0.62 6  244 335 
 CHI  HZ EP   1   1658 21.91                             119    0.28 6  250 196 
 CHI  HN ES   1   1658 51.17                             119   -0.31 6  250 196 
 CHI  HZ I        1658 57.06         3.1 0.26            120            250 196 
 GUY2CHZ EP   4   1658 28.77                             114    1.22 0  303 235 
 GUY2CHN ES   4   1659  6.14                             114    4.13 0  303 235 
 GUY2CHZ I        1659 13.90         4.0 0.58                           303 235 
 SJC  HZ EP   4   1658 38.00                             107   -1.26 0  410 327 
 SJC  HN ES   4   1659 21.18                             107   -1.67 0  410 327 
 SJC  HZ I        1659 25.29         1.8 0.52            108            410 327 
                                                                                
