 2015  923 1305 59.0 L   6.794 -73.170144.8  RSN  7 0.5 1.9LRSN                1
 GAP=208        1.06       4.7     7.4  7.3 -0.1754E+01  0.6593E+01 -0.6910E+01E
 Epicentro: LOS SANTOS - SANTANDER                                             3
 ACTION:UPD 15-10-28 16:28 OP:cam  STATUS:               ID:20150923130559 L   I
 OLDACT:REG 15-09-23 22:00 OP:ar   STATUS:               ID:20150923125750     3
 2015-09-23-1257-50M.COL___355                                                 6
 STAT SP IPHASW D HRMM SECON CODA AMPLIT PERI AZIMU VELO AIN AR TRES W  DIS CAZ7
 BAR2 EZ EP       13 6 18.40                             171   -0.1410 22.4 184 
 BAR2 EZ ES       13 6 33.68                             171   -0.0710 22.4 184 
 BAR2 EZ I        13 6 34.41        12.3 0.20            172           22.4 184 
 BRR  HZ EP       13 6 20.26                             153    0.2910 69.2 300 
 BRR  HN ES       13 6 36.90                             153    0.6010 69.2 300 
 BRR  HZ I        13 6 41.25        14.4 0.28            149           69.2 300 
 PTB  HZ EP       13 6 25.41                             132   -0.27 9  145 259 
 PTB  HN ES       13 6 45.89                             132   -0.57 9  145 259 
 PTB  HZ I        13 6 48.03         7.5 0.20            132            145 259 
 SPBC HZ EP       13 6 27.38                             129    0.12 9  161 218 
 SPBC HN ES       13 6 49.13                             129   -0.14 9  161 218 
 SPBC HZ I        13 6 51.67        10.9 0.22            131            161 218 
 ZAR  HZ EP   1   13 6 32.37                             122    1.18 6  202 293 
 ZAR  HN ES   2   13 6 56.85                             122    0.58 4  202 293 
 ZAR  HZ I        13 7  2.06        10.0 0.46            122            202 293 
 SML  HZ EP       13 6 35.49                             117   -0.06 8  243 336 
 SML  HN ES       13 7  3.29                             117   -0.75 8  243 336 
 SML  HZ I        13 7  8.70         5.5 0.10            118            243 336 
 GUY2CHZ EP   4   13 6 44.70                             112    2.38 0  299 235 
 GUY2CHN ES   4   13 7 18.27                             112    2.20 0  299 235 
 GUY2CHZ I        13 7 29.69         2.3 0.60                           299 235 
                                                                                
