 2015  723 1607 17.2 L   6.793 -73.174145.5  RSN  5 0.4 2.0LRSN                1
 GAP=198        1.04       5.7     6.4  9.3  0.1543E+02  0.1389E+01 -0.2360E+02E
 Epicentro: LOS SANTOS - SANTANDER                                             3
 ACTION:UPD 15-09-08 21:50 OP:cam  STATUS:               ID:20150723160717 L   I
 OLDACT:REG 15-07-23 22:41 OP:stll STATUS:               ID:20150723155748     3
 2015-07-23-1557-48M.COL___337                                                 6
 STAT SP IPHASW D HRMM SECON CODA AMPLIT PERI AZIMU VELO AIN AR TRES W  DIS CAZ7
 BAR2 EZ IP     C 16 7 37.05                             171    0.3210 22.2 183 
 BAR2 EZ I        16 7 37.09        20.7 0.40            177           22.2 183 
 BAR2 EZ ES       16 7 52.05                             171    0.0510 22.2 183 
 RUS  HZ EP       16 7 40.97                             144    0.1310  100 174 
 RUS  HZ I        16 7 41.79         8.2 0.10            149            100 174 
 RUS  HN ES       16 7 59.18                             144   -0.1410  100 174 
 CPBEREZ EP       16 7 43.81                             133   -0.00 9  145 259 
 CPBEREN ES       16 8  3.91                             133   -0.70 9  145 259 
 ZAR  HN ES       16 8 15.34                             123    0.94 9  201 293 
 SML  HZ EP       16 7 53.32                             117   -0.38 8  243 336 
 SML  HN ES       16 8 21.90                             117   -0.31 8  243 336 
 SML  HZ I        16 8 32.19        11.3 0.10            117            243 336 
                                                                                
