 2011  423 1057 49.5 L   6.803 -73.021133.5  RSN  7 0.3 1.8LRSN                1
 GAP=170        0.81       4.5     9.4  9.2 -0.3416E+01 -0.3010E+02 -0.7614E+01E
 Epicentro: CEPITA - SANTANDER                                                 3
 ACTION:UP  11-06-22 15:32 OP:REBC STATUS:               ID:20110423105749 L   I
 2011-04-23-1056-21S.COL___139                                                 6
 STAT SP IPHASW D HRMM SECON CODA AMPLIT PERI AZIMU VELO SNR AR TRES W  DIS CAZ7
 BAR2 SZ EP   1   1058  7.65                             167    -0.1 7   29 217 
 BAR2 SZ ES   1   1058 22.10                             167     0.0 7   29 217 
 BAR2 SZ I        1058 25.02        21.9 0.35                            29 217 
 BTL  SZ EP   1   1058  7.90                             167     0.1 7   30 295 
 GIR2 SZ EP   1   1058  7.74                             164    -0.1 7   36 328 
 BRR  HZ EP   1   1058  9.43                             146    -0.7 7   83 294 
 BRR  HN ES   1   1058 26.61                             146     0.4 7   83 294 
 BRR  HZ I        1058 30.91        23.7 0.13                            83 294 
 RUS  HZ EP   1   1058 12.20                             141     0.1 7  101 184 
 RUS  HN ES   1   1058 29.65                             141    -0.1 7  101 184 
 RUS  HZ I        1058 31.15         9.1 0.40                           101 184 
 BRI  SZ EP   1   1058 12.38                             140     0.5 7  104  14 
 BRI  SZ I        1058 35.89        10.7 0.30                           104  14 
 GRA  SZ EP   1   1058 13.61                             135     0.3 7  122  11 
 GRA  SZ ES   1   1058 31.52                             135    -0.4 7  122  11 
 GRA  SZ I        1058 34.74         7.7 0.40                           122  11 
                                                                                
