 2011  423 1418 57.0 L   6.803 -73.033149.9  RSN 11 0.5 1.8LRSN                1
 GAP=151        1.07       5.7     9.3  8.1 -0.2005E+02  0.1305E+02  0.5758E+01E
 Epicentro: CEPITA - SANTANDER                                                 3
 ACTION:UP  11-06-22 15:32 OP:REBC STATUS:               ID:20110423141857 L   I
 2011-04-23-1415-43S.COL___139                                                 6
 STAT SP IPHASW D HRMM SECON CODA AMPLIT PERI AZIMU VELO SNR AR TRES W  DIS CAZ7
 BAR2 SZ EP   1   1419 16.99                             169    -0.2 7   29 215 
 BTL  SZ EP   1   1419 17.16                             169    -0.1 7   29 296 
 BAR2 SZ I        1419 32.70        15.9 0.24                            29 215 
 GIR2 SZ EP   1   1419 17.06                             166    -0.2 7   35 330 
 GIR2 SZ ES   1   1419 32.62                             166    -0.5 7   35 330 
 PAM  SZ EP   1   1419 19.57                             154     0.3 7   70  32 
 PAM  SN ES   1   1419 36.83                             154     0.3 7   70  32 
 BRR  HZ EP   1   1419 18.79                             150    -0.4 7   82 294 
 BRR  HN ES   1   1419 37.47                             150     0.9 7   82 294 
 BRR  HZ I        1419 39.87        34.5 0.20                            82 294 
 RUS  HZ EP   1   1419 21.64                             145     0.5 7  101 183 
 RUS  HN ES   1   1419 39.79                             145    -0.2 7  101 183 
 RUS  HZ I        1419 40.97         5.4 0.34                           101 183 
 BRI  SZ EP   1   1419 21.54                             143     0.6 7  104  14 
 BRI  SZ ES   1   1419 39.14                             143    -0.5 7  104  14 
 BRI  SZ I        1419 45.30        14.3 0.59                           104  14 
 GRA  SZ EP   1   1419 22.81                             139     0.5 7  122  12 
 GRA  SZ ES   1   1419 42.09                             139     0.0 7  122  12 
 GRA  SZ I        1419 43.21        13.0 0.42                           122  12 
 OCA  SZ EP   1   1419 24.99                             130    -0.8 7  162 349 
 NOR  SZ EP   1   1419 33.66                             118    -0.4 6  245 236 
 NOR  SZ I        1420  4.23         1.7 0.12                           245 236 
 HEL  HZ EP   1   1419 39.03                             114     0.3 6  284 256 
 HEL  HZ I        1420 15.53         3.7 0.35                           284 256 
                                                                                
