 2015  923 1222 10.4 L   6.851 -73.160151.7  RSN  7 0.6 1.6LRSN                1
 GAP=210        1.15       5.1     9.1  8.6  0.1828E+02  0.9441E+01  0.5516E+01E
 Epicentro: LOS SANTOS - SANTANDER                                             3
 ACTION:UPD 15-10-28 16:28 OP:cam  STATUS:               ID:20150923122210 L   I
 OLDACT:UP  15-09-23 23:37 OP:ar   STATUS:               ID:20150923121747     3
 OLDACT:REG 15-09-23 21:57 OP:ar   STATUS:               ID:20150923121747     3
 2015-09-23-1217-47M.COL___355                                                 6
 STAT SP IPHASW D HRMM SECON CODA AMPLIT PERI AZIMU VELO AIN AR TRES W  DIS CAZ7
 BAR2 EZ EP       1222 30.87                             169    0.0510 28.7 185 
 BAR2 EZ ES       1222 45.97                             169   -0.8010 28.7 185 
 BAR2 EZ I        1222 46.18         4.1 0.20            165           28.7 185 
 BRR  HZ EP       1222 32.51                             155    0.5710 67.2 295 
 BRR  HN ES       1222 49.63                             155    0.8610 67.2 295 
 BRR  HZ I        1222 56.81        12.6 0.28            150           67.2 295 
 PTB  HZ EP   2   1222 36.91                             133   -0.87 5  147 257 
 PTB  HE ES   2   1222 58.27                             133   -0.90 5  147 257 
 PTB  HZ I        1223  0.41         4.8 0.10            131            147 257 
 SPBC HZ EP   2   1222 39.45                             130   -0.19 5  167 217 
 SPBC HN ES   2   1223  2.29                             130   -0.18 5  167 217 
 SPBC HZ I        1223  8.74         6.1 0.10            129            167 217 
 ZAR  HZ EP   2   1222 42.95                             124    0.11 4  201 291 
 ZAR  HN ES       1223  8.07                             124   -0.10 9  201 291 
 ZAR  HZ I        1223 13.60         4.9 0.36            124            201 291 
 SML  HZ EP   2   1222 45.83                             119   -0.88 4  238 335 
 SML  HN ES       1223 14.53                             119   -0.53 8  238 335 
 SML  HZ I        1223 17.46         4.9 0.10            121            238 335 
 CHI  HZ EP       1222 49.45                             118    0.52 8  254 194 
 CHI  HN ES       1223 19.03                             118    0.01 8  254 194 
 CHI  HZ I        1223 21.74         1.7 0.28            119            254 194 
                                                                                
