 2011 1123 1627 20.1 L   6.198 -74.000 90.7  RSN  5 0.2 1.6LRSN                1
 GAP=118        0.44       3.1     3.4 10.4  0.2221E+01  0.1795E+02  0.1207E+02E
 Epicentro: CIMITARRA - SANTANDER                                              3
 ACTION:UPD 12-07-13 16:11 OP:ep   STATUS:               ID:20111123162720 L   I
 2011-11-23-1624-22S.COL___178                                                 6
 STAT SP IPHASW D HRMM SECON CODA AMPLIT PERI AZIMU VELO AIN AR TRES W  DIS CAZ7
 BAR2 SZ EP       1627 38.80                             128    0.2310  100  64 
 BAR2 SZ ES   1   1627 52.86                             128   -0.14 7  100  64 
 BAR2 SZ I        1627 55.68        19.2 0.39                           100  64 
 BRR  HZ EP   1   1627 38.54                             126   -0.21 7  105  18 
 BRR  HE ES   1   1627 53.51                             126    0.19 7  105  18 
 RUS  HZ EP   2   1627 39.34                             126   -0.21 5  107 108 
 RUS  HN ES   2   1627 54.54                             126   -0.20 5  107 108 
 ZAR  HN ES   2   1628  5.68                             113   -0.34 4  172 327 
 ZAR  HZ I        1628  8.32         2.9 0.07                           172 327 
 RREF HN ES   2   1628 14.78                             109    0.12 4  207 226 
 RREF HZ I        1628 20.34         3.4 0.41                           207 226 
                                                                                
