 2016 1123 1531 34.5 L   6.636 -73.129133.2  RSN  4 0.3 1.2LRSN                1
 GAP=199        0.77       9.2     6.5  7.3 -0.3794E+02  0.1437E+02  0.1065E+02E
 Epicentro: VILLANUEVA - SANTANDER                                             3
 ACTION:UPD 17-10-26 21:11 OP:lp   STATUS:               ID:20161123153134 L   I
 OLDACT:UP  16-11-24 00:27 OP:edw  STATUS:               ID:20161123152751d    3
 OLDACT:DUP 16-11-24 00:25 OP:edw  STATUS:               ID:20161123152751d    3
 OLDACT:UP  16-11-24 00:23 OP:edw  STATUS:               ID:20161123152750     3
 OLDACT:REG 16-11-23 20:43 OP:edw  STATUS:               ID:20161123152750     3
 2016-11-23-1528-00M.COL___355                                                 6
 STAT SP IPHASW D HRMM SECON CODA AMPLIT PERI AZIMU VELO AIN AR TRES W  DIS CAZ7
 BAR2 EZ EP       1531 52.98                             176    0.5610 7.63 230 
 BAR2 EZ ES       1532  6.32                             176   -0.0610 7.63 230 
 BAR2 EZ I        1532 10.50         2.5 0.12            166           7.63 230 
 PAM  EN ES       1532 13.06                             144   -0.3310 91.1  31 
 PTB  HZ EP       1532  0.30                             129   -0.15 9  147 266 
 PTB  HN ES       1532 20.87                             129    0.21 9  147 266 
 PTB  HZ I        1532 23.78         2.9 0.11            131            147 266 
 NOR  HZ EP       1532  8.46                             117   -0.17 8  226 238 
 NOR  HN ES   2   1532 34.59                             117   -0.64 4  226 238 
 NOR  HZ I        1532 44.10         2.1 0.14            118            226 238 
                                                                                
