 2014 1123 1924  8.7 L   6.698 -73.180155.2  RSN  5 0.3 1.5LRSN                1
 GAP=225        0.83       6.5     6.0  6.1  0.2379E+02  0.4793E+01 -0.3126E+01E
 Epicentro: VILLANUEVA - SANTANDER                                             3
 ACTION:UPD 14-12-19 15:46 OP:nd   STATUS:               ID:20141123192408 L   I
 OLDACT:REG 14-11-23 20:34 OP:fm   STATUS:               ID:20141123191748     3
 2014-11-23-1917-48M.COL___300                                                 6
 STAT SP IPHASW D HRMM SECON CODA AMPLIT PERI AZIMU VELO AIN AR TRES W  DIS CAZ7
 BAR2 SZ EP       1924 29.42                             176    0.1310 11.7 181 
 BAR2 SZ ES       1924 44.86                             176   -0.4910 11.7 181 
 BAR2 SZ I        1924 46.21         8.5 0.20            175           11.7 181 
 BRR  HZ EP       1924 31.14                             153    0.1210 74.1 308 
 BRR  HN ES       1924 48.70                             153    0.2610 74.1 308 
 BRR  HZ I        1924 50.94         4.4 0.32            152           74.1 308 
 RUS  HZ EP       1924 32.64                             149   -0.0210 89.7 173 
 RUS  HN ES       1924 51.64                             149    0.2810 89.7 173 
 RUS  HZ I        1924 53.74         3.5 0.36            150           89.7 173 
 PTB  HZ EP       1924 36.16                             135    0.20 9  142 263 
 PTB  HN ES       1924 56.92                             135   -0.31 9  142 263 
 PTB  HZ I        1924 58.82         3.7 0.12            135            142 263 
 ZAR  HZ EP       1924 41.24                             124   -0.63 9  205 295 
 ZAR  HN ES       1925  8.13                             124    0.38 9  205 295 
 ZAR  HZ I        1925 14.68         4.5 0.34            124            205 295 
                                                                                
