 2010 1223 1132 13.3 L   6.028 -73.631116.0  RSN  5 0.5 1.5LRSN                1
 GAP=132        0.98       6.2     7.5 13.7 -0.2163E+02  0.5314E+02 -0.1211E+02E
 Epicentro: CHIPATA - SANTANDER                                                3
 ACTION:UP  11-01-14 15:26 OP:pat  STATUS:               ID:20101223113213 L   I
 2010-12-23-1129-02S.COL___135                                                 6
 STAT SP IPHASW D HRMM SECON CODA AMPLIT PERI AZIMU VELO SNR AR TRES W  DIS CAZ7
 RUS  HN ES   1   1132 45.54                             150    -0.1 7   62 104 
 RUS  HZ I        1132 47.34         5.5 0.22                            62 104 
 BAR2 SZ EP   1   1132 32.43                             143     0.2 7   80  38 
 BAR2 SZ ES   1   1132 47.42                             143     0.4 7   80  38 
 BAR2 SZ I        1132 49.36        13.1 0.33                            80  38 
 BTL  SZ EP   1   1132 33.53                             135    -0.9 7  106  22 
 NOR  SZ EP   1   1132 38.58                             124     0.6 7  147 250 
 NOR  SN ES   1   1132 56.89                             124    -0.3 7  147 250 
 CHI  HZ EP   2   1132 39.82                             123     0.6 5  155 184 
 CHI  HE ES   1   1132 59.28                             123    -0.2 7  155 184 
                                                                                
