 2013  623 1912 14.8 L   6.823 -73.126145.3  RSN 11 0.4 2.1LRSN                1
 GAP=138        1.05       3.3     5.4  6.8 -0.1875E+01  0.1559E+02 -0.1201E+01E
 Epicentro: LOS SANTOS - SANTANDER                                             3
 ACTION:UPD 14-01-08 09:56 OP:ep   STATUS:               ID:20130623191214 L   I
 OLDACT:UP  13-06-23 17:07 OP:cam  STATUS:               ID:20130623190959     3
 OLDACT:REG 13-06-23 15:54 OP:cam  STATUS:               ID:20130623190959     3
 2013-06-23-1909-59M.COL___267                                                 6
 STAT SP IPHASW D HRMM SECON CODA AMPLIT PERI AZIMU VELO AIN AR TRES W  DIS CAZ7
 BAR2 SZ EP   1   1912 34.40                             169   -0.03 7 26.2 194 
 BAR2 SZ ES       1912 48.77                             169   -0.9810 26.2 194 
 BAR2 SZ I        1912 50.61        25.3 0.15            169           26.2 194 
 GIR2 SZ EP       1912 34.46                             168    0.1010 29.3 345 
 GIR2 SZ ES   1   1912 50.51                             168    0.89 7 29.3 345 
 BRR  HZ IP     C 1912 36.16                             152    0.2210 71.9 296 
 BRR  HZ I        1912 59.42        19.0 0.36            147           71.9 296 
 PAM  SZ EP     D 1912 37.28                             151    0.5110 74.1  40 
 PAM  SN ES       1912 54.15                             151    0.2410 74.1  40 
 PAM  SZ I        1912 56.05        36.2 0.50            150           74.1  40 
 RUS  HZ EP       1912 38.85                             143    0.1810  103 177 
 RUS  HE ES       1912 57.27                             143   -0.0310  103 177 
 RUS  HZ I        1912 58.55         7.9 0.26            142            103 177 
 PTB  HZ EP       1912 41.39                             131   -0.57 9  150 258 
 PTB  HN ES   1   1913  3.45                             131    0.30 7  150 258 
 PTB  HZ I        1913  7.28        10.5 0.20            127            150 258 
 OCA  HZ EP   4   1912 41.64                             130   -1.22 0  158 352 
 OCA  HN ES       1913  4.21                             130   -0.54 9  158 352 
 OCA  HZ I        1913  9.40        12.6 0.26            126            158 352 
 ZAR  HZ EP   4   1912 48.85                             122    1.53 0  205 291 
 ZAR  HE ES   1   1913 13.15                             122    0.46 6  205 291 
 NOR  HN ES   1   1913 19.38                             118    0.42 6  238 234 
 SML  HZ EP       1912 50.98                             117   -0.27 8  242 335 
 SML  HN ES       1913 19.46                             117   -0.22 8  242 335 
 SML  HZ I        1913 24.93        15.2 0.24            114            242 335 
 PRA  HZ EP   1   1913  9.05                             106    0.37 4  395 210 
 PRA  HN ES       1913 50.65                             106   -0.05 6  395 210 
 PRA  HZ I        1913 55.12         3.8 0.30            104            395 210 
                                                                                
