 2017  523 1037  7.6 L   6.813 -73.081155.0  RSN 14 0.6 2.2LRSN                1
 GAP=118        1.21       4.5     4.5  7.2  0.6116E+01  0.9441E+01  0.1138E+02E
 Epicentro: LOS SANTOS - SANTANDER                                             3
 ACTION:UPD 17-06-16 13:38 OP:jn   STATUS:               ID:20170523103707 L   I
 OLDACT:UP  17-05-23 21:18 OP:dnl  STATUS:               ID:20170523102742     3
 OLDACT:UP  17-05-23 21:18 OP:dnl  STATUS:               ID:20170523102742     3
 OLDACT:REG 17-05-23 20:50 OP:dnl  STATUS:               ID:20170523102742     3
 2017-05-23-1028-00M.COL___341                                                 6
 STAT SP IPHASW D HRMM SECON CODA AMPLIT PERI AZIMU VELO AIN AR TRES W  DIS CAZ7
 PAM  EZ EP   2   1037 31.04                             154    0.55 5 71.9  36 
 PAM  EE ES       1037 48.30                             154   -0.0510 71.9  36 
 PAM  EZ I        1037 50.37        24.7 0.62            161           71.9  36 
 BRR  HE EP       1037 30.30                             152    0.2410 76.9 295 
 BRR  HN ES       1037 47.72                             152    0.1410 76.9 295 
 BRR  HE I        1037 48.44        58.0 0.22            151           76.9 295 
 RUS  HZ EP       1037 32.13                             145   -0.2110  102 180 
 RUS  HN ES       1037 51.11                             145   -0.5310  102 180 
 RUS  HZ I        1037 53.95        10.5 0.22            145            102 180 
 PTB  HZ EP       1037 35.30                             133   -0.67 9  155 259 
 PTB  HN ES   4   1037 56.42                             133   -1.69 0  155 259 
 PTB  HZ I        1038  3.70        39.0 0.42            132            155 259 
 SPBC HZ EP       1037 37.20                             130   -0.14 9  169 221 
 SPBC HE ES       1038  0.75                             130    0.21 9  169 221 
 SPBC HZ I        1038  3.48        25.7 0.58            129            169 221 
 YPLC HZ IP     D 1037 38.45                             129    0.57 9  175 154 
 YPLC HE ES       1038  2.61                             129    1.11 9  175 154 
 YPLC HZ I        1038  4.47        11.5 0.32            131            175 154 
 ZAR  HZ EP       1037 40.93                             123   -0.34 8  210 291 
 ZAR  HN ES       1038  7.32                             123   -0.22 8  210 291 
 ZAR  HZ I        1038 12.31        19.4 0.30            124            210 291 
 NOR  HZ EP       1037 44.60                             120    0.02 8  241 235 
 NOR  HN ES       1038 13.53                             120    0.11 8  241 235 
 NOR  HZ I        1038 16.02        16.0 0.26            120            241 235 
 CHI  HZ EP       1037 46.63                             119    0.46 8  252 197 
 CHI  HN ES   4   1038 17.71                             119    1.44 0  252 197 
 CHI  HZ I        1038 25.15         5.6 0.66            119            252 197 
 HEL  HZ EP       1037 49.83                             116    0.74 7  279 256 
 HEL  HN ES   4   1038 23.18                             116    1.73 0  279 256 
 HEL  HZ I        1038 27.13        12.1 0.26            117            279 256 
 PTGC HZ EP       1037 51.11                             113   -0.63 7  307 160 
 PTGC HN ES       1038 24.50                             113   -1.68 7  307 160 
 PTGC HZ I        1038 25.03         8.6 0.36            115            307 160 
 CBOC HZ EP   4   1037 52.47                             111   -3.26 0  341 252 
 CBOC HN ES       1038 33.08                             111   -0.19 7  341 252 
 CBOC HZ I        1038 46.15         3.5 0.44            112            341 252 
 ORTC HZ EP       1038  2.84                             108    0.37 6  401 217 
 ORTC HN ES       1038 45.84                             108    0.57 6  401 217 
 ORTC HZ I        1038 52.12         4.2 0.46            109            401 217 
 PAL  HZ EP   2   1038  3.84                             107   -0.03 3  413 239 
 PAL  HE ES   4   1038 43.98                             107   -3.79 0  413 239 
 PAL  HZ I        1038 52.96         3.3 0.40            108            413 239 
                                                                                
