 2010  323 1646 22.3 L   6.826 -72.982149.9  RSN  5 0.2 2.1LRSN                1
 GAP=255        0.38       3.7     7.4  4.8  0.7355E+01  0.2011E+01  0.5914E+01E
 Epicentro: CEPITA - SANTANDER                                                 3
 ACTION:UP  10-08-24 09:55 OP:vdl  STATUS:               ID:20100323164622 L   I
 2010-03-23-1644-44S.COL___098                                                 6
 STAT SP IPHASW D HRMM SECON CODA AMPLIT PERI AZIMU VELO SNR AR TRES W  DIS CAZ7
 BAR2 SZ EP   1   1646 42.78                             167     0.1 7   34 221 
 BAR2 SZ ES   2   1646 58.40                             167    -0.2 5   34 221 
 BRR  HZ EP   1   1646 44.91                             148     0.1 7   87 291 
 BRR  HE ES   2   1647  2.25                             148    -0.1 5   87 291 
 BRR  HZ I        1647  6.69        22.8 0.15                            87 291 
 RUS  HZ EP   1   1646 46.66                             144     0.0 7  104 186 
 RUS  HE ES   2   1647  5.60                             144    -0.1 5  104 186 
 RUS  HZ I        1647  6.72         8.6 0.30                           104 186 
 CHI  HZ EP   1   1647  1.02                             117    -0.1 6  257 199 
 CHI  HE ES   2   1647 31.81                             117     0.5 4  257 199 
 CHI  HZ I        1647 36.13         6.6 0.31                           257 199 
 PRA  HZ EP   1   1647 16.87                             107    -0.4 4  404 212 
 PRA  HE ES   2   1648  0.28                             107     0.0 3  404 212 
 PRA  HZ I        1648  4.09         8.1 0.27                           404 212 
                                                                                
