 2015  623 1935 27.9 L   6.933 -73.277153.5  RSN  4 0.3 1.8LRSN                1
 GAP=123        0.79       7.5     6.0  6.9 -0.2520E+02  0.5170E+01  0.6482E+01E
 Epicentro: BETULIA - SANTANDER                                                3
 ACTION:UPD 15-09-10 22:14 OP:cam  STATUS:               ID:20150623193527 L   I
 OLDACT:REG 15-06-23 20:59 OP:drio STATUS:               ID:20150623192750     3
 2015-06-23-1927-50M.COL___328                                                 6
 STAT SP IPHASW D HRMM SECON CODA AMPLIT PERI AZIMU VELO AIN AR TRES W  DIS CAZ7
 BAR2 EZ EP       1935 49.13                             165    0.2510 39.1 164 
 BAR2 EZ ES       1936  4.91                             165   -0.3210 39.1 164 
 BAR2 EZ I        1936  6.62        12.6 0.14            165           39.1 164 
 BRR  HZ EP       1935 48.84                             160   -0.1510 51.8 292 
 BRR  HE ES       1936  5.38                             160   -0.0410 51.8 292 
 PAM  SZ EP       1935 50.63                             152   -0.3710 78.0  55 
 PAM  SN ES       1936  9.47                             152    0.4610 78.0  55 
 PAM  SZ I        1936 12.12        11.1 0.40            151           78.0  55 
 GUY2CHZ EP   4   1936 15.50                             114    3.90 0  299 231 
 GUY2CHE ES       1936 46.01                             114    0.34 7  299 231 
                                                                                
