 2012  223 1023 41.9 L   7.463 -73.124137.8  RSN  8 0.4 1.7LRSN                1
 GAP=227        0.73       7.0     6.3  7.1 -0.1001E+02  0.5496E+01  0.1113E+01E
 ACTION:UP  12-03-07 16:33 OP:epov STATUS:               ID:20120223102341 L   I
 2012-02-23-1020-00M.COL___191                                                 6
 STAT SP IPHASW D HRMM SECON CODA AMPLIT PERI AZIMU VELO AIN AR TRES W  DIS CAZ7
 GIR2 SZ EP   1   1024  0.91                             162   -0.10 7 43.2 190 
 GIR2 SZ ES   2   1024 15.24                             162   -0.69 5 43.2 190 
 PAM  SZ EP   1   1024  2.20                             160    0.45 7 48.8 106 
 PAM  SN ES   2   1024 16.91                             160   -0.34 5 48.8 106 
 BRR  HZ EP   1   1024  2.63                             150    0.17 7 75.9 239 
 BRR  HE ES   1   1024 19.27                             150    0.75 7 75.9 239 
 BRR  HZ I        1024 21.69        11.6 0.15                          75.9 239 
 BAR2 SZ EP   1   1024  4.00                             143   -0.21 7 96.5 184 
 BAR2 SZ ES   1   1024 21.47                             143   -0.15 7 96.5 184 
 BAR2 SZ I        1024 22.95         7.3 0.68                          96.5 184 
 RUS  HZ EP   2   1024 11.11                             126   -0.25 4  174 178 
 RUS  HE ES   2   1024 34.88                             126    0.53 4  174 178 
 PTB  HZ EP   1   1024 10.53                             125   -0.74 7  179 235 
 PTB  HE ES   2   1024 33.70                             125   -0.49 4  179 235 
 NOR  SE ES   2   1024 54.89                             112    0.19 4  285 223 
 CHI  HZ EP   2   1024 27.45                             110    0.18 3  320 192 
 CHI  HN ES   2   1025  3.22                             110    0.55 3  320 192 
 CHI  HZ I        1025 13.22         1.8 0.46                           320 192 
                                                                                
