 2017  523 1500 10.9 L   6.747 -73.208150.4  RSN  4 0.3 1.4LRSN                1
 GAP=226        0.58       5.2     5.1  5.7  0.1959E+02  0.1783E+01  0.2838E+00E
 Epicentro: VILLANUEVA - SANTANDER                                             3
 ACTION:UPD 17-06-16 13:38 OP:jn   STATUS:               ID:20170523150010 L   I
 OLDACT:REG 17-05-23 20:57 OP:dnl  STATUS:               ID:20170523145744     3
 2017-05-23-1458-00M.COL___348                                                 6
 STAT SP IPHASW D HRMM SECON CODA AMPLIT PERI AZIMU VELO AIN AR TRES W  DIS CAZ7
 BRR  HE EP   2   15 0 32.68                             154    0.27 5 68.4 306 
 BRR  HN ES       15 0 48.97                             154   -0.2110 68.4 306 
 RUS  HZ EP       15 0 34.78                             146    0.0110 95.5 172 
 RUS  HN ES       15 0 53.49                             146    0.1110 95.5 172 
 RUS  HZ I        15 0 54.15         1.9 0.18            141           95.5 172 
 PTB  HZ EP       15 0 37.57                             134    0.00 9  140 261 
 PTB  HN ES       15 0 58.18                             134   -0.18 9  140 261 
 PTB  HZ I        15 1  5.67         3.9 0.36            128            140 261 
 ZAR  HZ EP   2   15 0 42.57                             124   -0.68 4  200 294 
 ZAR  HN ES       15 1  8.90                             124    0.43 9  200 294 
 ZAR  HZ I        15 1 14.41         5.0 0.48            121            200 294 
                                                                                
