 2011  923 1731 51.2 L   6.801 -73.070146.0  RSN  5 0.3 1.9LRSN                1
 GAP=174        0.48       5.9     4.9  6.2  0.1567E+01 -0.4444E+01 -0.6098E+01E
 Epicentro: LOS SANTOS - SANTANDER                                             3
 ACTION:UPD 12-07-13 15:59 OP:ep   STATUS:               ID:20110923173151 L   I
 2011-09-23-1728-58S.COL___165                                                 6
 STAT SP IPHASW D HRMM SECON CODA AMPLIT PERI AZIMU VELO AIN AR TRES W  DIS CAZ7
 BAR2 SZ EP       1732 10.90                             170   -0.0310 26.2 208 
 BAR2 SZ ES   3   1732 25.19                             170   -1.12 2 26.2 208 
 BAR2 SZ I        1732 28.07        12.5 0.22                          26.2 208 
 PAM  SZ EP   2   1732 13.11                             153   -0.04 5 72.2  35 
 PAM  SN ES   2   1732 30.72                             153    0.46 5 72.2  35 
 BRR  HZ EP       1732 12.94                             151    0.1310 78.6 296 
 BRR  HZ I        1732 13.37        18.4 0.10                          78.6 296 
 BRR  HN ES   1   1732 29.78                             151    0.12 7 78.6 296 
 OCA  SZ EP       1732 19.41                             130   -0.22 9  161 350 
 ZAR  HN ES   2   1732 50.32                             122   -0.09 4  212 291 
 ZAR  HZ I        1732 53.29         6.6 0.48                           212 291 
                                                                                
