 2016 1023 1210 55.5 L   6.812 -73.115149.3  RSN 16 0.4 2.2LRSN                1
 GAP= 72        0.84       2.5     2.8  4.1 -0.1926E+01  0.8351E+00  0.1565E+01E
 Epicentro: LOS SANTOS - SANTANDER                                             3
 ACTION:UPD 16-11-09 19:22 OP:rebc STATUS:               ID:20161023121055 L   I
 OLDACT:REG 16-10-23 23:04 OP:cara STATUS:               ID:20161023120750     3
 2016-10-23-1208-00M.COL___356                                                 6
 STAT SP IPHASW D HRMM SECON CODA AMPLIT PERI AZIMU VELO AIN AR TRES W  DIS CAZ7
 BAR2 EZ ES       1211 30.54                             170   -0.7110 25.5 197 
 BAR2 EZ I        1211 34.20        28.0 0.26            167           25.5 197 
 BRR  HZ EP       1211 17.30                             152    0.1510 73.6 296 
 BRR  HN ES       1211 34.66                             152    0.6210 73.6 296 
 BRR  HZ I        1211 40.70        16.6 0.26            149           73.6 296 
 PAM  EZ EP       1211 18.14                             152    0.2510 74.2  38 
 PAM  EN ES       1211 35.33                             152   -0.0310 74.2  38 
 PAM  EZ I        1211 37.01        31.6 0.36            157           74.2  38 
 RUS  HZ EP       1211 19.55                             144   -0.1110  102 178 
 RUS  HN ES       1211 38.43                             144   -0.0910  102 178 
 RUS  HZ I        1211 40.79        10.5 0.22            145            102 178 
 PTB  HZ EP   9   1211 21.81                             132   -1.25 0  151 259 
 PTB  HN ES       1211 43.19                                   -0.13 9  151 259 
 PTB  HZ I        1211 50.75        26.8 0.36            131            151 259 
 TAM  HZ EP       1211 23.35                             132    0.18 9  152 106 
 TAM  HE ES       1211 45.18                             132    0.41 9  152 106 
 OCA  HZ EP       1211 24.20                             130    0.22 9  159 352 
 OCA  HN ES       1211 45.86                             130   -0.35 9  159 352 
 OCA  HZ I        1211 50.80        32.2 0.18            132            159 352 
 SPBC HZ EP       1211 24.19                             129   -0.36 9  166 220 
 SPBC HN ES       1211 47.54                             129    0.31 9  166 220 
 SPBC HZ I        1211 49.78        37.2 0.38            129            166 220 
 NOR  HZ EP       1211 31.34                             119   -0.46 8  238 235 
 NOR  HN ES       1212  0.23                             119    0.11 8  238 235 
 NOR  HZ I        1212  7.72        13.3 0.14            119            238 235 
 CHI  HZ EP       1211 33.48                             117   -0.14 8  251 196 
 CHI  HN ES       1212  2.88                             117   -0.48 8  251 196 
 CHI  HZ I        1212  6.86         4.7 0.22            119            251 196 
 ROSC HN ES   4   1212  4.90                             117    0.65 0  256 212 
 ROSC BZ I        1212 12.71        16.5 0.40            118            256 212 
 HEL  HZ EP   9   1211 37.92                             115    1.64 0  276 256 
 HEL  HN ES       1212  9.36                                   -0.38 7  276 256 
 HEL  HZ I        1212 13.85         9.9 0.38            115            276 256 
 GUY2CHZ EP   4   1211 40.78                             113    1.12 0  305 235 
 GUY2CHE ES       1212 14.47                             113    0.36 7  305 235 
 GUY2CHZ I        1212 23.20        13.8 0.42                           305 235 
 PTGC HZ EP   4   1211 38.00                             112   -1.50 0  309 159 
 PTGC HN ES   4   1212 11.31                             112   -2.52 0  309 159 
 ELA  HZ EP   4   1211 45.14                             111    2.26 0  333 230 
 ELA  HE ES   4   1212 20.45                             111    0.60 0  333 230 
 ELA  HZ I        1212 26.91         8.5 0.50            111            333 230 
 PRA  HZ EP       1211 49.60                             107    0.14 6  395 210 
 PRA  HE ES       1212 31.99                             107    0.43 6  395 210 
 PRA  HZ I        1212 39.77         5.8 0.64            108            395 210 
 SJC  HN EP       1211 50.64                             106   -0.61 6  410 326 
 SJC  HE ES   4   1212 30.28                             106   -4.47 0  410 326 
 SJC  HZ I        1212 36.19         2.3 0.44            107            410 326 
                                                                                
