 2016 1223 1239 46.1 L   6.839 -73.303121.4  RSN  5 0.1 1.3LRSN                1
 GAP=221        0.43       2.6     2.3  3.3  0.2281E+01  0.2266E+01 -0.9517E+00E
 Epicentro: ZAPATOCA - SANTANDER                                               3
 ACTION:UPD 17-01-11 20:18 OP:rebc STATUS:               ID:20161223123946 L   I
 OLDACT:UP  16-12-23 22:37 OP:dani STATUS:               ID:20161223123747     3
 OLDACT:UP  16-12-23 22:36 OP:dani STATUS:               ID:20161223123747     3
 OLDACT:UP  16-12-23 22:36 OP:dani STATUS:               ID:20161223123747     3
 OLDACT:REG 16-12-23 21:00 OP:edw  STATUS:               ID:20161223123747     3
 2016-12-23-1238-00M.COL___387                                                 6
 STAT SP IPHASW D HRMM SECON CODA AMPLIT PERI AZIMU VELO AIN AR TRES W  DIS CAZ7
 BAR2 EZ IP     D 1240  3.00                             165   -0.0210 30.3 154 
 BAR2 EZ ES       1240 16.19                             165   -0.0110 30.3 154 
 RUS  HZ EP       1240  7.93                             136   -0.1910  107 167 
 RUS  HN ES       1240 25.41                             136    0.1210  107 167 
 RUS  HZ I        1240 28.14         2.7 0.31            138            107 167 
 PTB  HZ EP   9   1240  8.19                             129   -1.47 0  132 256 
 PTB  HN ES       1240 26.24                             129   -0.3110  132 256 
 PTB  HZ I        1240 30.01         3.8 0.26            130            132 256 
 ZAR  HZ EP       1240 15.35                             119    0.17 9  186 293 
 ZAR  HE ES       1240 37.81                             119   -0.05 9  186 293 
 ZAR  HZ I        1240 41.91         4.2 0.28            120            186 293 
 NOR  HZ EP       1240 19.23                             114   -0.06 8  223 231 
 NOR  HE ES       1240 45.24                             114    0.07 8  223 231 
 NOR  HZ I        1240 46.57         1.5 0.15            115            223 231 
                                                                                
