 2016  523 1014  9.6 L   6.762 -73.169147.0  RSN 10 0.5 1.9LRSN                1
 GAP=232        0.95       5.0     5.3  7.0  0.2391E+01  0.9377E+01  0.7427E+01E
 Epicentro: LOS SANTOS - SANTANDER                                             3
 ACTION:UPD 16-08-18 17:48 OP:cam  STATUS:               ID:20160523101409 L   I
 OLDACT:REG 16-05-23 20:35 OP:ar   STATUS:               ID:20160523100744     3
 2016-05-23-1007-44M.COL___293                                                 6
 STAT SP IPHASW D HRMM SECON CODA AMPLIT PERI AZIMU VELO AIN AR TRES W  DIS CAZ7
 BAR2 EZ EP       1014 29.07                             173   -0.2510 18.9 184 
 BAR2 EZ ES       1014 44.24                             173   -0.4410 18.9 184 
 BAR2 EZ I        1014 45.70        27.3 0.12            166           18.9 184 
 BRR  HZ EP       1014 31.03                             153    0.1310 71.1 302 
 BRR  HE ES       1014 48.45                             153    0.9510 71.1 302 
 BRR  HZ I        1014 49.18        13.0 0.12            148           71.1 302 
 RUS  HZ EP   2   1014 33.24                             145    0.02 5 96.6 174 
 RUS  HN ES   2   1014 52.25                             145    0.63 5 96.6 174 
 RUS  HZ I        1014 53.54         9.6 0.28            142           96.6 174 
 PTB  HZ EP       1014 36.24                             133   -0.16 9  144 260 
 PTB  HN ES       1014 57.00                             133   -0.28 9  144 260 
 PTB  HZ I        1014 58.94         6.9 0.22            129            144 260 
 SPBC HZ EP       1014 38.17                             130    0.41 9  158 219 
 SPBC HN ES       1014 59.29                             130   -0.42 9  158 219 
 SPBC HZ I        1015  2.82        19.9 0.40            127            158 219 
 ZAR  HZ EP   3   1014 42.30                             123    0.23 2  203 293 
 ZAR  HE ES       1015  6.76                             123   -0.62 9  203 293 
 ZAR  HZ I        1015 13.63         6.9 0.32            120            203 293 
 NOR  HZ EP   2   1014 44.45                             119   -0.50 4  230 235 
 NOR  HE ES       1015 12.67                             119    0.18 8  230 235 
 NOR  HZ I        1015 21.49         4.8 0.16            117            230 235 
 HEL  HZ EP   2   1014 49.83                             115    0.31 4  269 257 
 HEL  HN ES   2   1015 21.47                             115    0.84 4  269 257 
 HEL  HZ I        1015 27.24         4.7 0.30            113            269 257 
 PRA  HZ EP   2   1015  3.16                             107    0.54 3  387 210 
 PRA  HN ES   2   1015 44.47                             107    0.52 3  387 210 
 PRA  HZ I        1015 53.62         2.8 0.34            106            387 210 
 SJC  HZ EP   4   1015  3.44                             106   -2.04 0  411 328 
 SJC  HN ES   4   1015 42.78                             106   -6.26 0  411 328 
 SJC  HZ I        1015 51.99         0.8 0.15            105            411 328 
                                                                                
