 2011  623 1840 58.0 L   6.784 -73.095143.5  RSN  7 0.3 2.0LRSN                1
 GAP=162        0.68       3.2     7.2  7.1 -0.3596E+01 -0.1446E+02 -0.1093E+01E
 Epicentro: LOS SANTOS - SANTANDER                                             3
 ACTION:UP  11-07-14 19:07 OP:ep   STATUS:               ID:20110623184058 L   I
 2011-06-23-1838-19S.COL___140                                                 6
 STAT SP IPHASW D HRMM SECON CODA AMPLIT PERI AZIMU VELO SNR AR TRES W  DIS CAZ7
 BAR2 SZ EP       1841 17.22                             170    -0.210   23 204 
 BAR2 SZ ES   2   1841 31.92                             170    -0.6 5   23 204 
 BAR2 SZ I        1841 33.99        17.8 0.27                            23 204 
 BTL  SZ EP       1841 17.49                             170     0.110   24 308 
 BRR  HZ EP       1841 19.11                             150    -0.210   77 298 
 BRR  HZ I        1841 19.41        49.8 0.15                            77 298 
 BRR  HN ES   1   1841 36.28                             150     0.4 7   77 298 
 RUS  HZ EP       1841 21.56                             144     0.210   99 179 
 RUS  HN ES   1   1841 39.54                             144    -0.1 7   99 179 
 RUS  HZ I        1841 41.09         8.8 0.27                            99 179 
 BRI  SZ EP       1841 21.84                             141     0.210  108  18 
 BRI  SZ ES   2   1841 40.60                             141     0.5 5  108  18 
 GRA  SZ EP       1841 23.05                             136     0.010  126  15 
 GRA  SZ ES   1   1841 42.63                             136     0.0 7  126  15 
 GRA  SZ I        1841 43.73        13.7 0.26                           126  15 
 OCA  SZ EP   3   1841 26.18                             129    -0.2 2  163 351 
 OCA  SZ ES   2   1841 47.53                             129    -1.0 5  163 351 
 OCA  SZ I        1841 53.67        13.9 0.28                           163 351 
                                                                                
