 2013 1223 1445 36.1 L   6.794 -73.171142.6  RSN  6 0.3 1.6LRSN                1
 GAP=134        0.82       4.3     3.8  8.8 -0.1107E+00  0.1096E+02 -0.1546E+01E
 Epicentro: LOS SANTOS - SANTANDER                                             3
 ACTION:UPD 14-01-13 10:20 OP:ep   STATUS:               ID:20131223144536 L   I
 OLDACT:REG 13-12-23 15:29 OP:jn   STATUS:               ID:20131223144000     3
 2013-12-23-1440-00M.COL___285                                                 6
 STAT SP IPHASW D HRMM SECON CODA AMPLIT PERI AZIMU VELO AIN AR TRES W  DIS CAZ7
 BAR2 SZ EP       1445 55.23                             171   -0.0810 22.4 183 
 BAR2 SZ I        1446 12.31        12.7 0.18            173           22.4 183 
 BRR  HZ EP       1445 57.34                             153    0.5810 69.0 300 
 BRR  HE ES   4   1446 15.04                             153    2.15 0 69.0 300 
 PAM  SZ EP       1445 58.38                             149    0.2810 79.7  41 
 PAM  SN ES       1446 14.99                             149   -0.2810 79.7  41 
 PAM  SZ I        1446 19.33         3.2 0.50            147           79.7  41 
 RUS  HZ EP       1445 59.33                             143   -0.1610  100 174 
 RUS  HN ES       1446 17.79                             143    0.0410  100 174 
 RUS  HZ I        1446 18.86         4.7 0.26            144            100 174 
 PTB  HZ EP       1446  2.06                             132   -0.46 9  145 259 
 PTB  HN ES       1446 23.40                             132    0.25 9  145 259 
 PTB  HZ I        1446 26.24         7.5 0.26            131            145 259 
 ZAR  HE ES       1446 32.76                             122   -0.27 9  202 293 
 ZAR  HZ I        1446 40.33         6.5 0.26            121            202 293 
                                                                                
