 2016  923 1154 55.8 L   6.790 -73.167149.7  RSN  5 0.5 1.9LRSN                1
 GAP=234        1.17       9.3     8.4  9.4  0.4840E+02  0.8606E+01 -0.1219E+01E
 Epicentro: LOS SANTOS - SANTANDER                                             3
 ACTION:UPD 17-08-17 21:15 OP:lp   STATUS:               ID:20160923115455 L   I
 OLDACT:REG 16-09-23 20:44 OP:ar   STATUS:               ID:20160923114730     3
 2016-09-23-1148-00M.COL___342                                                 6
 STAT SP IPHASW D HRMM SECON CODA AMPLIT PERI AZIMU VELO AIN AR TRES W  DIS CAZ7
 BAR2 EZ EP       1155 15.84                             171   -0.0710 22.0 184 
 BAR2 EZ ES       1155 30.90                             171   -0.6710 22.0 184 
 BAR2 EZ I        1155 32.02        13.0 0.22            164           22.0 184 
 BRR  HZ EP       1155 17.68                             154    0.3610 69.6 300 
 BRR  HN ES       1155 34.43                             154    0.3410 69.6 300 
 BRR  HZ I        1155 35.00        22.7 0.32            149           69.6 300 
 RUS  HZ EP       1155 20.33                             145    0.4210 99.7 175 
 RUS  HE ES       1155 38.92                             145    0.2310 99.7 175 
 RUS  HZ I        1155 39.53         6.8 0.26            142           99.7 175 
 PTB  HZ EP       1155 21.95                             133   -0.94 9  145 259 
 PTB  HE ES       1155 44.23                             133    0.22 9  145 259 
 PTB  HZ I        1155 50.56         6.2 0.48            129            145 259 
 ZAR  HE ES       1155 53.74                             123    0.02 9  202 293 
 ZAR  HN I        1155 59.08        11.0 0.18            121            202 293 
                                                                                
