 2013  323 1109  5.4 L   6.733 -73.131133.2  RSN  8 0.4 1.9LRSN                1
 GAP=141        1.11       4.3     4.8  8.1  0.2582E+01  0.1044E+02  0.1315E+01E
 Epicentro: JORDAN - SANTANDER                                                 3
 ACTION:UPD 13-04-09 14:04 OP:ep   STATUS:               ID:20130323110905 L   I
 2013-03-23-1107-51M.COL___205                                                 6
 STAT SP IPHASW D HRMM SECON CODA AMPLIT PERI AZIMU VELO AIN AR TRES W  DIS CAZ7
 BAR2 SZ EP       11 9 23.70                             173    0.2710 16.6 200 
 BAR2 SZ I        11 9 41.48        17.8 0.32            170           16.6 200 
 BRR  HZ EP       11 9 25.32                             148   -0.2510 76.4 303 
 BRR  HN ES       11 9 42.06                             148    0.7910 76.4 303 
 BRR  HN I        11 9 43.25        28.2 0.28            149           76.4 303 
 PAM  SZ EP       11 9 26.35                             147   -0.3010 82.2  35 
 PAM  SN ES       11 9 43.04                             147   -0.1610 82.2  35 
 PAM  SN I        11 9 45.73        10.2 0.62            148           82.2  35 
 RUS  HN EP       11 9 27.75                             143    0.3310 93.1 177 
 RUS  HZ ES       11 9 44.37                             143   -0.1910 93.1 177 
 RUS  HZ I        11 9 47.32         3.5 0.28            141           93.1 177 
 PTB  HZ EP       11 9 31.13                             129   -0.32 9  148 262 
 PTB  HN ES       11 9 50.94                             129   -0.79 9  148 262 
 PTB  HN I        11 9 57.12        16.6 0.40            128            148 262 
 ZAR  HZ EP       11 9 38.32                             119    0.75 8  208 294 
 ZAR  HN ES       1110  2.76                             119    0.13 8  208 294 
 ZAR  HN I        1110  8.00         8.5 0.24            119            208 294 
 SML  HN ES       1110 10.50                             114   -0.40 8  251 336 
 SML  HN I        1110 14.49        17.9 0.10            114            251 336 
 PRA  HZ EP       11 9 58.11                             105    0.22 6  386 210 
 PRA  HN ES   4   1110 37.54                             105   -1.27 0  386 210 
 PRA  HN I        1110 45.23         2.3 0.22            104            386 210 
                                                                                
