 2017 1023 1021  5.1 L   6.819 -73.169142.9  RSN  9 0.5 1.8LRSN                1
 GAP=213        1.12       5.5     5.2  6.5  0.1544E+02  0.6922E+01  0.7463E+01E
 Epicentro: LOS SANTOS - SANTANDER                                             3
 ACTION:UPD 17-11-07 19:35 OP:rebc STATUS:               ID:20171023102105 L   I
 OLDACT:UP  17-10-23 22:59 OP:dani STATUS:               ID:20171023101657     3
 OLDACT:REG 17-10-23 20:22 OP:dani STATUS:               ID:20171023101657     3
 2017-10-23-1018-00M.COL___390                                                 6
 STAT SP IPHASW D HRMM SECON CODA AMPLIT PERI AZIMU VELO AIN AR TRES W  DIS CAZ7
 BAR2 EZ EP     C 1021 24.16                             170   -0.2810 25.2 183 
 BAR2 EZ ES       1021 39.01                             170   -0.5010 25.2 183 
 BAR2 EZ I        1021 41.97        17.8 0.30            167           25.2 183 
 BRR  HZ EP       1021 26.00                             153    0.2310 67.9 298 
 BRR  HN ES       1021 42.32                             153    0.4410 67.9 298 
 BRR  HZ I        1021 46.95        14.8 0.28            152           67.9 298 
 RUS  HZ EP       1021 28.70                             143   -0.0610  103 175 
 RUS  HN ES       1021 47.62                             143    0.4210  103 175 
 RUS  HZ I        1021 48.30         6.1 0.42            143            103 175 
 PTB  HZ EP       1021 30.88                             132   -0.78 9  146 258 
 PTB  HN ES       1021 51.85                             132   -0.51 9  146 258 
 PTB  HZ I        1021 54.50         5.0 0.12            132            146 258 
 YPLC HZ EP       1021 34.67                             125   -0.34 9  180 151 
 YPLC HN ES       1021 58.92                             125    0.58 9  180 151 
 YPLC HZ I        1021 59.57         9.2 0.26            128            180 151 
 ZAR  HZ EP       1021 36.82                             122   -0.22 9  201 292 
 ZAR  HN ES       1022  2.55                             122    0.61 9  201 292 
 ZAR  HZ I        1022  7.40         5.2 0.16            123            201 292 
 NOR  HZ EP       1021 40.73                             118    0.14 8  234 234 
 NOR  HN ES       1022  8.27                             118    0.02 8  234 234 
 NOR  HZ I        1022 13.46         4.9 0.19            119            234 234 
 CHI  HZ EP       1021 42.58                             116   -0.23 8  250 194 
 CHI  HN ES   1   1022 11.86                             116   -0.35 6  250 194 
 CHI  HZ I        1022 17.97         3.3 0.32            118            250 194 
 GUY2CHZ EP       1021 49.59                             112    1.10 7  300 234 
 GUY2CHZ I        1022 29.69         3.6 0.56                           300 234 
                                                                                
