 2013  323 1405 56.6 L   7.139 -73.094141.3  RSN  6 0.3 1.9LRSN                1
 GAP=142        0.63       3.8     3.4  5.2  0.2342E+01  0.7923E+01  0.6109E+00E
 Epicentro: BUCARAMANGA - SANTANDER                                            3
 ACTION:UPD 13-04-09 14:04 OP:ep   STATUS:               ID:20130323140556 L   I
 2013-03-23-1400-00M.COL___245                                                 6
 STAT SP IPHASW D HRMM SECON CODA AMPLIT PERI AZIMU VELO AIN AR TRES W  DIS CAZ7
 PAM  SN ES       14 6 32.46                             160   -0.2110 48.9  63 
 PAM  SN I        14 6 33.70        23.0 0.20            165           48.9  63 
 BAR2 SZ EP       14 6 17.11                             155    0.0510 61.2 189 
 BAR2 SZ ES       14 6 33.40                             155    0.3710 61.2 189 
 BAR2 SZ I        14 6 37.35        15.0 0.16            155           61.2 189 
 BRR  HZ EP       14 6 17.19                             153    0.1010 68.3 267 
 BRR  HN ES       14 6 33.02                             153   -0.0610 68.3 267 
 BRR  HN I        14 6 36.36        30.6 0.30            154           68.3 267 
 RUS  HN ES       14 6 43.40                             133   -0.10 9  138 179 
 RUS  HN I        14 6 45.62         2.4 0.26            136            138 179 
 PTB  HZ EP       14 6 24.40                             128   -0.37 9  164 246 
 PTB  HN ES       14 6 46.57                             128   -0.19 9  164 246 
 PTB  HN I        14 6 48.79        15.3 0.46            130            164 246 
 ZAR  HZ EP   1   14 6 28.78                             122    0.60 6  199 281 
 ZAR  HN ES       14 6 52.88                             122    0.06 9  199 281 
 ZAR  HN I        14 6 53.35        11.0 0.14            125            199 281 
                                                                                
