 2014  123 1049 58.6 L   6.724 -73.193142.5  RSN  4 0.4 1.3LRSN                1
 GAP=137        0.93       8.9     5.9 10.3 -0.7528E+01  0.1351E+02 -0.5081E+02E
 Epicentro: VILLANUEVA - SANTANDER                                             3
 ACTION:UPD 14-03-13 09:57 OP:ep   STATUS:               ID:20140123104958 L   I
 OLDACT:REG 14-01-23 15:26 OP:stll STATUS:               ID:20140123104815     3
 2014-01-23-1048-15M.COL___247                                                 6
 STAT SP IPHASW D HRMM SECON CODA AMPLIT PERI AZIMU VELO AIN AR TRES W  DIS CAZ7
 BAR2 SZ EP       1050 18.11                             174    0.3910 14.6 175 
 BAR2 SZ ES       1050 32.90                             174    0.3010 14.6 175 
 BAR2 SZ I        1050 33.81         5.2 0.20            176           14.6 175 
 PAM  SZ EP       1050 20.68                             147   -0.4410 87.2  39 
 PAM  SZ I        1050 21.37         3.2 0.22            148           87.2  39 
 RUS  HN ES       1050 39.07                             145   -0.2610 92.7 172 
 PTB  HZ EP       1050 25.11                             133    0.38 9  141 262 
 PTB  HN ES       1050 44.73                             133   -0.36 9  141 262 
 PTB  HZ I        1050 47.06         1.9 0.30            133            141 262 
                                                                                
