 2014  123 1101 21.9 L   6.832 -73.188143.7  RSN  8 0.4 1.8LRSN                1
 GAP=116        1.02       3.3     4.7  6.1 -0.3949E+01  0.5291E+01 -0.2700E+01E
 Epicentro: ZAPATOCA - SANTANDER                                               3
 ACTION:UPD 14-03-13 09:57 OP:ep   STATUS:               ID:20140123110121 L   I
 OLDACT:REG 14-01-23 15:27 OP:stll STATUS:               ID:20140123105818     3
 2014-01-23-1058-18M.COL___247                                                 6
 STAT SP IPHASW D HRMM SECON CODA AMPLIT PERI AZIMU VELO AIN AR TRES W  DIS CAZ7
 BAR2 SZ EP       11 1 41.55                             169    0.2410 26.5 179 
 BAR2 SZ ES       11 1 55.97                             169   -0.5110 26.5 179 
 BAR2 SZ I        11 1 59.18        16.3 0.30            169           26.5 179 
 PAM  SZ EP       11 1 44.38                             150    0.4910 77.9  44 
 PAM  SZ I        11 1 44.53        14.5 0.18            153           77.9  44 
 PAM  SN ES       11 2  1.39                             150    0.3310 77.9  44 
 RUS  HZ EP       11 1 45.93                             142    0.2310  105 174 
 RUS  HN ES       11 2  4.20                             142   -0.0910  105 174 
 RUS  HZ I        11 2  5.48         6.3 0.32            144            105 174 
 PTB  HZ EP       11 1 48.17                             132   -0.14 9  144 257 
 PTB  HN ES       11 2  9.09                             132    0.15 9  144 257 
 PTB  HZ I        11 2 11.27         7.1 0.14            131            144 257 
 SPBC HZ EP       11 1 50.82                             128    0.63 9  163 217 
 SPBC HN ES       11 2 12.21                             128   -0.08 9  163 217 
 SPBC HZ I        11 2 19.41         9.0 0.26            128            163 217 
 SML  HZ EP       11 1 57.96                             117    0.14 8  239 336 
 SML  HN ES       11 2 25.24                             117   -0.62 8  239 336 
 SML  HZ I        11 2 35.74         6.5 0.24            118            239 336 
 CHI  HZ EP       11 1 59.78                             116    0.09 8  251 194 
 CHI  HN ES       11 2 28.57                             116   -0.62 8  251 194 
 CHI  HZ I        11 2 35.29         3.5 0.34            117            251 194 
 SOCV BZ EP       11 2  4.04                             111   -1.01 7  303  58 
                                                                                
