 2017  223 1147  5.9 L   6.784 -73.164146.1  RSN  5 0.4 1.4LRSN                1
 GAP=135        0.98       5.3     5.0  7.2 -0.2477E+01  0.4332E+01  0.1622E+01E
 Epicentro: LOS SANTOS - SANTANDER                                             3
 ACTION:UPD 17-05-24 15:39 OP:jn   STATUS:               ID:20170223114705 L   I
 OLDACT:REG 17-02-23 20:14 OP:cog  STATUS:               ID:20170223113745     3
 2017-02-23-1138-00M.COL___373                                                 6
 STAT SP IPHASW D HRMM SECON CODA AMPLIT PERI AZIMU VELO AIN AR TRES W  DIS CAZ7
 BAR2 EZ EP       1147 25.11                             171   -0.4710 21.3 186 
 BAR2 EZ ES       1147 40.53                             171   -0.3610 21.3 186 
 BAR2 EZ I        1147 42.50         5.5 0.36            172           21.3 186 
 BRR  HZ EP       1147 27.45                             153    0.3710 70.4 301 
 BRR  HN ES       1147 44.12                             153    0.5510 70.4 301 
 PAM  EZ EP       1147 28.41                             150    0.0610 80.0  40 
 PAM  EE ES       1147 45.64                             150   -0.2010 80.0  40 
 PAM  EZ I        1147 47.58         6.2 0.44            151           80.0  40 
 RUS  HZ EP       1147 29.54                             144   -0.0710 98.9 175 
 RUS  HN ES       1147 48.56                             144    0.4910 98.9 175 
 PTB  HZ EP       1147 32.85                             133    0.12 9  145 259 
 PTB  HN ES       1147 53.10                             133   -0.53 9  145 259 
 PTB  HZ I        1147 56.39         1.9 0.24            133            145 259 
                                                                                
