 2016 1123 1445 13.3 L   7.040 -73.144122.1  RSN  4 0.4 1.0LRSN                1
 GAP=139        0.96       8.6     7.1  9.9 -0.2243E+02 -0.2510E+02  0.9980E+00E
 Epicentro: GIRON - SANTANDER                                                  3
 ACTION:UPD 17-10-26 21:10 OP:lp   STATUS:               ID:20161123144513 L   I
 OLDACT:UP  16-11-24 00:04 OP:edw  STATUS:               ID:20161123143749d    3
 OLDACT:DUP 16-11-23 23:59 OP:edw  STATUS:               ID:20161123143749d    3
 2016-11-23-1438-00M.COL___355                                                 6
 STAT SP IPHASW D HRMM SECON CODA AMPLIT PERI AZIMU VELO AIN AR TRES W  DIS CAZ7
 BAR2 EZ EP       1445 30.53                             156   -0.5110 49.7 185 
 BAR2 EZ ES       1445 45.20                             156    0.3110 49.7 185 
 BAR2 EZ I        1445 46.86         2.6 0.17            154           49.7 185 
 PAM  EZ EP       1445 32.37                             152    0.4610 59.2  56 
 PAM  EE ES       1445 46.12                             152   -0.3110 59.2  56 
 PAM  EZ I        1445 46.64         2.1 0.05            154           59.2  56 
 BRR  HN ES       1445 45.62                             151    0.0410 63.2 277 
 PTB  HZ EP   9   1445 38.15                             124   -1.03 0  155 249 
 PTB  HN ES       1445 57.96                                   -0.39 9  155 249 
                                                                                
