 2015  423 1225 37.6 L   6.809 -73.118148.0  RSN  5 0.3 1.6LRSN                1
 GAP=222        0.60       3.9     5.6  5.5  0.1260E+01  0.5586E+01 -0.1457E+01E
 Epicentro: LOS SANTOS - SANTANDER                                             3
 ACTION:UPD 15-06-03 16:57 OP:cam  STATUS:               ID:20150423122537 L   I
 OLDACT:REG 15-04-23 20:21 OP:spq  STATUS:               ID:20150423121747     3
 2015-04-23-1217-47M.COL___268                                                 6
 STAT SP IPHASW D HRMM SECON CODA AMPLIT PERI AZIMU VELO AIN AR TRES W  DIS CAZ7
 BAR2 EZ EP   1   1225 57.69                             170    0.17 7 25.0 197 
 BAR2 EZ ES   1   1226 12.60                             170   -0.47 7 25.0 197 
 BAR2 EZ I        1226 15.78         6.2 0.58            164           25.0 197 
 BRR  HZ EP   1   1225 59.30                             152    0.19 7 73.5 297 
 BRR  HN ES       1226 16.26                             152    0.3710 73.5 297 
 BRR  HZ I        1226 19.09        11.0 0.36            147           73.5 297 
 ZAR  HN ES   1   1226 35.77                             123   -0.29 6  207 292 
 ZAR  HZ I        1226 41.74         2.4 0.27            121            207 292 
 NOR  HZ EP   1   1226 13.93                             119    0.15 6  238 235 
 NOR  HN ES   1   1226 41.82                             119   -0.19 6  238 235 
 NOR  HZ I        1226 49.22         2.4 0.14            118            238 235 
 SML  HZ EP   1   1226 14.11                             118   -0.27 6  244 335 
 SML  HN ES   1   1226 42.85                             118   -0.23 6  244 335 
 SML  HZ I        1226 46.38         4.9 0.06            118            244 335 
                                                                                
