 2012  723 1250 31.0 L   6.660 -73.200152.0  RSN  4 0.3 1.5LRSN                1
 GAP=214        0.73      10.8     6.8  7.7  0.2422E+02  0.1042E+02 -0.4502E+01E
 Epicentro: BARICHARA - SANTANDER                                              3
 ACTION:UPD 12-08-14 11:44 OP:ep   STATUS:               ID:20120723125031 L   I
 2012-07-23-1250-00M.COL___215                                                 6
 STAT SP IPHASW D HRMM SECON CODA AMPLIT PERI AZIMU VELO AIN AR TRES W  DIS CAZ7
 BAR2 SZ EP   1   1250 51.49                             177     0.3 7    8 165 
 BAR2 SZ ES   1   1251  6.57                             177    -0.3 7    8 165 
 BAR2 SZ I        1251  7.75         8.8 0.30            175              8 165 
 BRR  HZ IP     D 1250 53.21                             152     0.210   75 311 
 BRR  HN ES   1   1251 10.21                             152     0.0 7   75 311 
 PTB  HZ EP   1   1250 57.16                             135    -0.6 7  140 265 
 PTB  HN ES   1   1251 19.00                             135     0.4 7  140 265 
 PTB  HZ I        1251 21.73         2.9 0.15            133            140 265 
 ZAR  HZ EP   1   1251  3.86                             124    -0.1 6  205 297 
 ZAR  HN ES   1   1251 29.45                             124    -0.2 6  205 297 
 ZAR  HZ I        1251 34.95         3.8 0.13            123            205 297 
