 2011  123 1254 15.9 L   6.818 -73.120145.3  RSN  6 0.3 1.5LRSN                1
 GAP=161        0.62       6.0     9.8  8.3 -0.1890E+02  0.2820E+02 -0.1153E+02E
 Epicentro: LOS SANTOS - SANTANDER                                             3
 ACTION:UP  11-02-08 08:42 OP:pat  STATUS:               ID:20110123125416dL   I
 2011-01-23-1240-00M.COL___139                                                 6
 STAT SP IPHASW D HRMM SECON CODA AMPLIT PERI AZIMU VELO SNR AR TRES W  DIS CAZ7
 BTL  SZ EP   1   1254 35.60                             172     0.2 7   20 304 
 BAR2 SZ EP   1   1254 35.67                             169     0.1 7   26 196 
 BAR2 SZ ES   2   1254 51.14                             169     0.3 5   26 196 
 BAR2 SZ I        1254 52.65         5.2 0.18                            26 196 
 RUS  HZ EP   1   1254 39.93                             143     0.2 7  102 178 
 RUS  HN ES   1   1254 57.98                             143    -0.4 7  102 178 
 RUS  HZ I        1255  0.48         4.3 0.29                           102 178 
 GRA  SZ EP   2   1254 40.17                             137    -0.7 5  123  16 
 GRA  SZ I        1255  0.33        11.3 0.23                           123  16 
 NOR  SZ EP   2   1254 52.33                             118     0.3 4  238 235 
 NOR  SN ES   2   1255 19.78                             118    -0.4 4  238 235 
 CHI  HZ EP   1   1254 53.91                             117     0.0 6  251 196 
 CHI  HZ I        1255 29.05         1.8 0.43                           251 196 
                                                                                
