 2013  323 1930 41.4 L   6.818 -73.153138.3  RSN 10 0.5 2.5LRSN 3.0WRSN        1
 SPEC AVERAGE  MO 13.6 ST  1.7 OM  2.4 f0 2.80 R0.5550 AL 2.11 WI 28.2 MW  3.0 3
 SPEC SD       MO  0.2 ST  1.6 OM  0.6 f00.745 R0.1149 AL      WI      MW  0.1 3
 GAP=146        1.04       3.7     4.5  6.2 -0.5175E+01  0.6084E+01  0.6365E+01E
 Epicentro: LOS SANTOS - SANTANDER                                             3
 SPEC PRA HH N MO 13.7 ST0.610 OM  1.7 f0 2.04 R0.7206 AL 1.26 WI 28.5 MW  3.1 3
 SPEC PRA HH N T193214 K 0.000 GD  416 VS 4.20 DE 3.20 Q0300.0 QA 0.60 VS 4.20 3
 SPEC HEL HH N MO 14.0 ST  2.3 OM  2.1 f0 2.59 R0.5676 AL 2.88 WI 35.3 MW  3.3 3
 SPEC HEL HH N T193150 K 0.000 GD  305 VS 4.20 DE 3.20 Q0300.0 QA 0.60 VS 4.20 3
 SPEC NOR HH N MO 13.6 ST  5.0 OM  1.8 f0 4.39 R0.3349 AL 2.56 WI 25.7 MW  3.0 3
 SPEC NOR HH N T193142 K 0.000 GD  272 VS 4.20 DE 3.20 Q0300.0 QA 0.60 VS 4.20 3
 SPEC PAM SH E MO 13.3 ST0.524 OM  1.7 f0 2.68 R0.5485 AL 2.48 WI 26.8 MW  2.8 3
 SPEC PAM SH E T193117 K 0.000 GD  157 VS 4.20 DE 3.20 Q0300.0 QA 0.60 VS 4.20 3
 SPEC CHI HH N MO 13.6 ST0.948 OM  1.7 f0 2.68 R0.5485 AL 2.35 WI 31.1 MW  3.0 3
 SPEC CHI HH N T193145 K 0.000 GD  285 VS 4.20 DE 3.20 Q0300.0 QA 0.60 VS 4.20 3
 SPEC BRR HH N MO 13.5 ST0.592 OM  1.9 f0 2.41 R0.6100 AL 1.11 WI 21.9 MW  2.9 3
 SPEC BRR HH N T193117 K 0.000 GD  154 VS 4.20 DE 3.20 Q0300.0 QA 0.60 VS 4.20 3
 ACTION:UPD 13-04-09 14:04 OP:ep   STATUS:               ID:20130323193041 L   I
 2013-03-23-1930-00M.COL___245                                                 6
 STAT SP IPHASW D HRMM SECON CODA AMPLIT PERI AZIMU VELO AIN AR TRES W  DIS CAZ7
 BAR2 SZ EP       1931  0.22                             169    0.0210 25.1 187 
 BAR2 SZ ES       1931 14.31                             169   -0.5310 25.1 187 
 BAR2 SZ I        1931 17.30        36.1 0.16            169           25.1 187 
 BRR  HZ EP       1931  2.04                             152    0.3610 69.5 297 
 BRR  HN ES       1931 18.08                             152    0.6110 69.5 297 
 BRR  HN I        1931 19.50        64.9 0.24            148           69.5 297 
 PAM  SZ EP       1931  3.04                             150    0.2410 76.4  41 
 PAM  SN ES       1931 19.80                             150    0.3410 76.4  41 
 PAM  SN I        1931 21.16        42.9 0.26            152           76.4  41 
 PTB  HZ EP       1931  6.98                             130   -0.78 9  147 258 
 PTB  HN ES       1931 27.92                             130   -0.37 9  147 258 
 PTB  HN I        1931 30.31        55.0 0.20            129            147 258 
 OCA  HZ EP   1   1931  8.93                             128   -0.04 7  158 353 
 OCA  HN ES       1931 29.78                             128   -0.68 9  158 353 
 OCA  HN I        1931 34.23       105.8 0.26            128            158 353 
 ZAR  HZ EP   1   1931 13.83                             121    0.59 6  203 292 
 ZAR  HN ES   2   1931 37.60                             121   -0.45 4  203 292 
 ZAR  HN I        1931 47.35        32.5 0.14            120            203 292 
 NOR  HZ EP   1   1931 16.18                             117   -0.61 6  235 234 
 NOR  HE ES       1931 44.76                             117    0.40 8  235 234 
 NOR  HE I        1931 46.06        29.4 0.20            117            235 234 
 CHI  HZ EP       1931 18.88                             115   -0.03 8  250 195 
 CHI  HN ES       1931 47.97                             115   -0.17 8  250 195 
 CHI  HN I        1931 50.59        20.7 0.34            116            250 195 
 HEL  HZ EP       1931 21.93                             113    0.69 8  272 255 
 HEL  HN ES       1931 52.37                             113    0.09 8  272 255 
 HEL  HN I        1932  1.80         9.1 0.60            113            272 255 
 PRA  HZ EP   1   1931 34.10                             105   -0.75 4  393 209 
 PRA  HN ES       1932 17.01                             105    0.49 6  393 209 
 PRA  HN I        1932 20.81         6.8 0.42            106            393 209 
                                                                                
