 2017  723 1910 19.0 L   6.773 -73.127139.0  RSN  6 0.4 1.6LRSN                1
 GAP=140        1.16       5.7     5.5  7.8 -0.7332E+01  0.1025E+02  0.5916E+01E
 Epicentro: LOS SANTOS - SANTANDER                                             3
 ACTION:UPD 17-08-30 15:35 OP:rebc STATUS:               ID:20170723191019 L   I
 OLDACT:REG 17-07-23 21:00 OP:ar   STATUS:               ID:20170723190739     3
 2017-07-23-1908-00M.COL___395                                                 6
 STAT SP IPHASW D HRMM SECON CODA AMPLIT PERI AZIMU VELO AIN AR TRES W  DIS CAZ7
 BAR2 EZ EP       1910 38.90                             171    1.1010 20.9 197 
 BAR2 EZ ES       1910 52.03                             171   -0.4110 20.9 197 
 BAR2 EZ I        1910 54.54        12.5 0.26            171           20.9 197 
 BRR  HZ EP       1910 39.49                             150   -0.1610 74.4 300 
 BRR  HN ES       1910 56.17                             150    0.4410 74.4 300 
 PAM  EZ EP       1910 40.42                             149   -0.1810 78.4  37 
 PAM  EN ES       1910 57.33                             149   -0.0910 78.4  37 
 PAM  EZ I        1910 59.43         8.9 0.42            151           78.4  37 
 RUS  HZ EP       1910 41.90                             143    0.0010 97.5 177 
 RUS  HN ES       1910 59.60                             143   -0.1310 97.5 177 
 RUS  HZ I        1911  1.13         3.7 0.24            145           97.5 177 
 PTB  HZ EP       1910 44.90                             130   -0.69 9  149 260 
 PTB  HE ES       1911  6.07                             130   -0.24 9  149 260 
 PTB  HZ I        1911  8.37         3.3 0.20            132            149 260 
 NOR  HZ EP       1910 54.32                             117   -0.05 8  235 235 
 NOR  HE ES       1911 22.36                             117    0.42 8  235 235 
 NOR  HZ I        1911 23.20         3.3 0.16            119            235 235 
                                                                                
