 2010 1023 1304 26.7 L   6.737 -73.133141.9  RSN  7 0.5 1.6LRSN                1
 GAP=161        0.93       6.6    10.2 10.9 -0.2623E+02  0.1124E+02 -0.6598E+01E
 Epicentro: JORDAN - SANTANDER                                                 3
 ACTION:UP  11-02-18 11:11 OP:tino STATUS:               ID:20101023130426 L   I
 2010-10-23-1303-22S.COL___128                                                 6
 STAT SP IPHASW D HRMM SECON CODA AMPLIT PERI AZIMU VELO SNR AR TRES W  DIS CAZ7
 BAR2 SZ EP   1   13 4 45.56                             173    -0.2 7   17 199 
 BAR2 SZ ES   2   13 5  0.35                             173    -0.3 5   17 199 
 BAR2 SZ I        13 5  1.86         9.3 0.43                            17 199 
 BTL  SZ EP   1   13 4 44.98                             170    -0.9 7   25 324 
 BRR  HZ EP   1   13 4 47.46                             150    -0.3 7   76 303 
 BRR  HE ES   2   13 5  4.47                             150     0.4 5   76 303 
 BRR  HZ I        13 5  5.54        14.8 0.09                            76 303 
 RUS  HZ EP   1   13 4 49.51                             145    -0.1 7   94 177 
 RUS  HN ES   2   13 5  8.21                             145     0.8 5   94 177 
 RUS  HZ I        13 5  9.48         3.6 0.36                            94 177 
 GUE  SZ EP   1   13 4 52.27                             137     0.7 7  123  11 
 GRA  SZ EP   1   13 4 52.40                             134     0.3 7  132  16 
 GRA  SZ ES   2   13 5 11.98                             134     0.0 5  132  16 
 GRA  SZ I        13 5 13.05         8.3 0.47                           132  16 
 NOR  SZ EP   1   13 5  2.07                             118     0.1 6  232 236 
 NOR  SN ES   2   13 5 29.77                             118     0.4 4  232 236 
                                                                                
