 2017  623 1915  5.6 L   6.781 -73.134146.0  RSN  7 0.4 2.2LRSN                1
 GAP=255        1.05       7.3     7.5  7.4 -0.1515E+02  0.6502E+01  0.1539E+02E
 Epicentro: LOS SANTOS - SANTANDER                                             3
 ACTION:UPD 17-09-14 16:54 OP:jn   STATUS:               ID:20170623191505 L   I
 OLDACT:UP  17-06-24 01:54 OP:dnl  STATUS:               ID:20170623190739     3
 OLDACT:REG 17-06-23 22:57 OP:ar   STATUS:               ID:20170623190739     3
 2017-06-23-1908-00M.COL___368                                                 6
 STAT SP IPHASW D HRMM SECON CODA AMPLIT PERI AZIMU VELO AIN AR TRES W  DIS CAZ7
 BAR2 EZ EP       1915 25.20                             171   -0.0610 21.5 194 
 BAR2 EZ ES       1915 40.41                             171   -0.1510 21.5 194 
 BAR2 EZ I        1915 41.80        82.3 0.20            167           21.5 194 
 BRR  HZ EP       1915 27.24                             152    0.3110 73.4 299 
 BRR  HN ES       1915 43.97                             152    0.4210 73.4 299 
 BRR  HZ I        1915 45.08        24.4 0.28            148           73.4 299 
 PTB  HZ EP       1915 32.10                             132   -0.60 9  149 260 
 PTB  HN ES       1915 53.24                             132   -0.58 9  149 260 
 PTB  HZ I        1915 56.09        12.2 0.18            130            149 260 
 SPBC HZ EP       1915 33.72                             129   -0.36 9  162 220 
 SPBC HE ES       1915 56.62                             129    0.36 9  162 220 
 SPBC HZ I        1916  0.50        33.0 0.18            128            162 220 
 ZAR  HZ EP   4   1915 39.94                             122    1.64 0  206 293 
 ZAR  HE ES   4   1916  2.76                             122   -1.03 0  206 293 
 ZAR  HZ I        1916  8.75        18.3 0.44            121            206 293 
 NOR  HZ EP       1915 41.10                             119   -0.26 8  235 235 
 NOR  HE ES       1916  9.54                             119    0.31 8  235 235 
 NOR  HZ I        1916 15.63         9.4 0.14            118            235 235 
 GUY2CHZ EP       1915 50.16                             112    0.92 7  301 235 
 GUY2CHN ES   4   1916 25.63                             112    2.38 0  301 235 
 GUY2CHZ I        1916 32.19         6.7 0.66                           301 235 
                                                                                
