 2010  423 1156 47.6 L   7.534 -73.622109.1  RSN  5 0.8 1.8LRSN                1
 GAP=235        1.47      52.5    47.2 24.7 -0.2398E+04  0.7742E+03 -0.9480E+03E
 Epicentro: SABANA DE TORRES - SANTANDER                                       3
 ACTION:UPD 10-08-24 10:00 OP:vdl  STATUS:               ID:20100423115647 L   I
 2010-04-23-1153-16S.COL___104                                                 6
 STAT SP IPHASW D HRMM SECON CODA AMPLIT PERI AZIMU VELO AIN AR TRES W  DIS CAZ7
 BRR  HZ EP       1157  3.91                             155     0.410   48 192 
 BRR  HN ES       1157 15.88                             155    -0.110   48 192 
 BRR  HZ I        1157 16.99        17.8 1.06                            48 192 
 GIR2 SZ EP   2   1157  4.23                             146    -0.8 5   69 137 
 GUE  SZ EP       1157  5.61                             140    -0.810   84  67 
 GUE  SZ ES   2   1157 19.52                             140    -1.4 5   84  67 
 BRI  SZ ES   3   1157 23.25                             137     1.2 2   93  77 
 GRA  SZ EP   1   1157  8.22                             135     0.9 7   98  67 
 GRA  SZ ES   1   1157 23.50                             135     0.8 7   98  67 
                                                                                
