 2012 1223 1719 37.5 L   6.746 -73.192148.3  RSN  6 0.4 1.6LRSN                1
 GAP=173        0.80       7.0     6.8  8.8  0.2445E+02  0.1549E+02  0.1187E+02E
 Epicentro: VILLANUEVA - SANTANDER                                             3
 ACTION:UPD 13-01-04 14:30 OP:ep   STATUS:               ID:20121223171937 L   I
 2012-12-23-1718-42M.COL___230                                                 6
 STAT SP IPHASW D HRMM SECON CODA AMPLIT PERI AZIMU VELO AIN AR TRES W  DIS CAZ7
 BAR2 SZ EP   1   1719 57.02                             173   -0.34 7 17.1 176 
 BAR2 SZ ES   1   1720 12.20                             173   -0.62 7 17.1 176 
 BAR2 SZ I        1720 13.70        11.8 0.46                          17.1 176 
 GIR2 SZ ES   1   1720 13.38                             165    0.02 7 36.8 360 
 GIR2 SZ I        1720 16.72        12.7 0.42                          36.8 360 
 BRR  HZ EP   1   1719 58.79                             153   -0.09 7 69.9 305 
 BRR  HN ES   1   1720 16.31                             153    0.77 7 69.9 305 
 BRR  HZ I        1720 21.40         6.4 0.34                          69.9 305 
 RUS  HZ EP   1   1720  1.57                             146    0.42 7 95.2 173 
 RUS  HN ES   1   1720 19.73                             146    0.16 7 95.2 173 
 RUS  HZ I        1720 20.85         3.5 0.26                          95.2 173 
 PTB  HN ES   1   1720 24.81                             134   -0.12 7  142 261 
 PTB  HZ I        1720 30.25         5.0 0.48                           142 261 
 ZAR  HN ES   1   1720 34.85                             123   -0.29 6  202 294 
                                                                                
