 2014  123 1040 52.5 L   6.711 -73.464 29.4  RSN  5 0.5 1.6LRSN                1
 GAP=150        1.20       4.0     3.6  4.9 -0.4315E+01  0.8872E+01 -0.2978E+01E
 Epicentro: EL CARMEN DE CHUCURI - SANTANDER                                   3
 ACTION:UPD 14-03-13 09:57 OP:ep   STATUS:               ID:20140123104052 L   I
 OLDACT:REG 14-01-23 15:26 OP:stll STATUS:               ID:20140123103805     3
 2014-01-23-1038-05M.COL___247                                                 6
 STAT SP IPHASW D HRMM SECON CODA AMPLIT PERI AZIMU VELO AIN AR TRES W  DIS CAZ7
 BAR2 SZ IP     D 1041  0.01                             127    0.1310 33.8 113 
 BAR2 SZ ES       1041  5.40                             127   -0.2110 33.8 113 
 RUS  HZ EP       1041  8.60                              61   -0.1510 99.8 155 
 RUS  HN ES       1041 20.84                              61   -0.5710 99.8 155 
 RUS  HZ I        1041 22.69         6.2 0.36             97           99.8 155 
 PAM  SZ IP     D 1041 10.45                              61    0.5010  109  51 
 PAM  SN ES       1041 23.48                              61   -0.0610  109  51 
 PAM  SZ I        1041 24.78        27.8 0.16             97            109  51 
 PTB  HZ EP       1041  9.27                              61   -0.3510  111 260 
 PTB  HE ES       1041 22.35                              61   -0.6010  111 260 
 PTB  HZ I        1041 24.01        17.5 0.38             96            111 260 
 SPBC HZ EP       1041 13.30                              61    0.6310  135 210 
 SPBC HN ES       1041 29.17                              61    0.7910  135 210 
 SPBC HZ I        1041 32.56         6.9 0.18             56            135 210 
                                                                                
