 2012  823 1304 10.0 L   6.789 -73.151149.0  RSN 10 0.4 2.4LRSN                1
 GAP=136        0.76       3.4     4.3  6.0  0.2748E+00  0.7220E+01  0.3879E+01E
 Epicentro: LOS SANTOS - SANTANDER                                             3
 ACTION:UPD 12-09-10 11:58 OP:ep   STATUS:               ID:20120823130410 L   I
 2012-08-23-1300-00M.COL___217                                                 6
 STAT SP IPHASW D HRMM SECON CODA AMPLIT PERI AZIMU VELO AIN AR TRES W  DIS CAZ7
 BAR2 SZ EP       13 4 29.91                             171   -0.0810 22.1 189 
 BAR2 SZ ES   1   13 4 45.18                             171   -0.41 7 22.1 189 
 BAR2 SZ I        13 4 46.67        83.1 0.26                          22.1 189 
 BRR  HZ EP   1   13 4 31.80                             153    0.30 7 71.3 300 
 BRR  HZ I        13 4 32.11        67.9 0.17                          71.3 300 
 BRR  HN ES   1   13 4 49.16                             153    0.89 7 71.3 300 
 PAM  SZ EP   1   13 4 32.81                             151    0.18 7 78.6  39 
 PAM  SN ES   1   13 4 50.23                             151   -0.06 7 78.6  39 
 PAM  SZ I        13 4 52.47        19.6 0.58                          78.6  39 
 RUS  HZ EP   1   13 4 33.82                             145   -0.16 7 99.4 176 
 RUS  HN ES   1   13 4 52.60                             145   -0.10 7 99.4 176 
 RUS  HZ I        13 4 54.24        26.1 0.40                          99.4 176 
 PTB  HZ EP   1   13 4 36.70                             133   -0.46 7  147 259 
 PTB  HN ES   1   13 4 57.83                             133   -0.52 7  147 259 
 PTB  HZ I        13 5  1.30        21.0 0.15                           147 259 
 OCA  HN ES   1   13 5  1.03                             130    0.01 7  161 353 
 ZAR  HZ EP   1   13 4 42.11                             123   -0.53 6  204 293 
 ZAR  HE ES   1   13 5  7.84                             123   -0.27 6  204 293 
 ZAR  HZ I        13 5 14.09        35.4 0.23                           204 293 
 NOR  SZ EP   1   13 4 45.87                             119    0.08 6  234 235 
 NOR  SN ES   2   13 5 14.61                             119    0.90 4  234 235 
 NOR  SZ I        13 5 21.33        23.7 0.17                           234 235 
 CHI  HZ EP   1   13 4 47.96                             118    0.23 6  247 195 
 CHI  HN ES   1   13 5 17.46                             118    0.29 6  247 195 
 CHI  HZ I        13 5 23.18        13.0 0.33                           247 195 
 HEL  HZ EP   2   13 4 51.37                             115    1.09 4  271 256 
 HEL  HZ I        13 5 28.84        12.8 0.33                           271 256 
                                                                                
