 2011  923 1016 32.6 L   6.761 -73.174153.5  RSN  5 0.3 1.4LRSN                1
 GAP=205        0.58       9.0    13.9  7.7  0.1016E+03 -0.1761E+02 -0.1988E+02E
 Epicentro: LOS SANTOS - SANTANDER                                             3
 ACTION:UPD 12-07-13 15:59 OP:ep   STATUS:               ID:20110923101632 L   I
 2011-09-23-1013-13S.COL___165                                                 6
 STAT SP IPHASW D HRMM SECON CODA AMPLIT PERI AZIMU VELO AIN AR TRES W  DIS CAZ7
 BAR2 SZ EP       1016 52.75                             172   -0.3410 18.6 183 
 BAR2 SZ I        1016 53.19         4.4 0.34                          18.6 183 
 BAR2 SZ ES   2   1017  8.59                             172   -0.47 5 18.6 183 
 BTL  SZ EP   2   1016 53.35                             172    0.24 5 20.3 329 
 BRR  HZ EP       1016 54.80                             154    0.2310 70.7 303 
 BRR  HZ I        1016 55.24         3.6 0.12                          70.7 303 
 BRR  HE ES   2   1017 12.07                             154    0.37 5 70.7 303 
 RUS  HZ EP       1016 56.99                             146    0.1410 96.5 174 
 RUS  HE ES   1   1017 15.86                             146    0.10 7 96.5 174 
 ZAR  HZ EP   2   1017  4.84                             124   -0.60 4  203 294 
 ZAR  HE ES   3   1017 30.68                             124   -0.38 2  203 294 
 ZAR  HZ I        1017 37.22         2.6 0.54                           203 294 
                                                                                
