 2012  323 1454 26.8 L   6.794 -73.130143.7  RSN  5 0.5 1.6LRSN                1
 GAP=139        1.36       8.9     8.7 12.5 -0.1960E+02  0.1476E+02  0.7394E+01E
 ACTION:UP  12-03-31 23:22 OP:EP   STATUS:               ID:20120323145426 L   I
 2012-03-23-1450-00M.COL___202                                                 6
 STAT SP IPHASW D HRMM SECON CODA AMPLIT PERI AZIMU VELO SNR AR TRES W  DIS CAZ7
 BAR2 SZ EP   1   1454 46.10                             170    -0.1 7   23 195 
 BAR2 SZ ES   1   1455  1.07                             170    -0.2 7   23 195 
 BAR2 SZ I        1455  2.32         8.4 0.17                            23 195 
 BRR  HZ EP   1   1454 48.24                             151     0.4 7   73 298 
 BRR  HN ES   1   1455  5.26                             151     1.0 7   73 298 
 BRR  HZ I        1455  6.42        17.5 0.20                            73 298 
 PAM  SZ EP       1454 49.27                             151     0.510   77  38 
 PAM  SE ES       1455  5.24                             151    -0.710   77  38 
 RUS  HZ EP   1   1454 50.25                             143    -0.1 7  100 177 
 RUS  HN ES   1   1455  9.01                             143     0.4 7  100 177 
 RUS  HZ I        1455  9.91         3.3 0.34                           100 177 
 PTB  HZ EP   1   1454 53.06                             131    -0.7 7  149 259 
 PTB  HN ES   1   1455 14.19                             131    -0.6 7  149 259 
 PTB  HZ I        1455 18.54         4.3 0.26                           149 259 
                                                                                
