 2010  823 1828 28.3 L   6.793 -72.988145.1  RSN  9 0.4 2.0LRSN                1
 GAP=176        1.04       4.3     7.3  7.2 -0.9561E+01 -0.1861E+01  0.7670E+01E
 Epicentro: CEPITA - SANTANDER                                                 3
 ACTION:UP  10-09-07 10:57 OP:vdl  STATUS:               ID:20100823182828 L   I
 2010-08-23-1824-22S.COL___120                                                 6
 STAT SP IPHASW D HRMM SECON CODA AMPLIT PERI AZIMU VELO SNR AR TRES W  DIS CAZ7
 BAR2 SZ EP       1828 48.04                             167     0.110   31 224 
 BAR2 SZ I        1828 48.33        27.7 0.59                            31 224 
 BAR2 SZ ES   1   1829  3.73                             167     0.4 7   31 224 
 GIR2 SZ EP       1828 48.28                             164     0.210   39 324 
 GIR2 SZ ES   2   1829  3.65                                     0.1 5   39 324 
 BRR  HZ EP       1828 49.94                             147    -0.410   87 294 
 BRR  HZ I        1828 50.43        33.8 0.14                            87 294 
 BRR  HN ES       1829  7.48                             147     0.010   87 294 
 RUS  HZ EP       1828 51.79                             144    -0.110  100 186 
 RUS  HZ I        1828 53.00        13.1 0.57                           100 186 
 RUS  HN ES   1   1829 10.34                             144     0.0 7  100 186 
 GUE  SZ EP   1   1828 52.33                             140    -0.5 7  115   4 
 GUE  SZ ES   2   1829 11.42                             140    -0.5 5  115   4 
 GUE  SZ I        1829 13.55         5.1 0.17                           115   4 
 GRA  SZ EP       1828 54.07                             138     0.910  122  10 
 GRA  SZ ES   1   1829 12.09                             138    -0.5 7  122  10 
 GRA  SZ I        1829 15.53        12.4 0.49                           122  10 
 CHI  HZ EP       1829  5.85                             116    -0.5 8  253 199 
 CHI  HN ES   1   1829 36.15                             116     0.0 6  253 199 
 CHI  HZ I        1829 42.08         5.1 0.52                           253 199 
 HEL  HZ EP   1   1829  9.85                                    -0.4 5  289 257 
 HEL  HN ES   2   1829 43.78                             113     0.7 4  289 257 
 HEL  HZ I        1829 45.67         6.7 0.75                           289 257 
 RREF HZ EP   1   1829 16.61                             110     0.8 5  335 231 
 RREF HN ES   1   1829 52.97                             110     0.0 5  335 231 
 RREF HZ I        1829 57.28         8.1 0.84                           335 231 
                                                                                
