 2012  823 1240 55.5 L   6.740 -73.151148.0  RSN  7 0.4 1.9LRSN                1
 GAP=138        0.79       4.4     4.9  7.8  0.2764E+01  0.3248E+01 -0.2548E+01E
 Epicentro: JORDAN - SANTANDER                                                 3
 ACTION:UPD 12-09-10 11:58 OP:ep   STATUS:               ID:20120823124055 L   I
 2012-08-23-1240-00M.COL___217                                                 6
 STAT SP IPHASW D HRMM SECON CODA AMPLIT PERI AZIMU VELO AIN AR TRES W  DIS CAZ7
 BAR2 SZ EP       1241 15.35                             173    0.0310 16.7 192 
 BAR2 SZ I        1241 15.63        21.9 0.21                          16.7 192 
 BAR2 SZ ES   1   1241 30.25                             173   -0.50 7 16.7 192 
 BRR  HZ EP   1   1241 17.42                             152    0.33 7 74.1 303 
 BRR  HZ I        1241 17.83        19.1 0.12                          74.1 303 
 BRR  HN ES   1   1241 34.46                             152    0.56 7 74.1 303 
 PAM  SZ EP   1   1241 18.48                             149    0.16 7 82.9  37 
 PAM  SZ I        1241 18.81        19.0 0.17                          82.9  37 
 PAM  SN ES   2   1241 36.38                             149    0.28 5 82.9  37 
 RUS  HZ EP   1   1241 19.16                             146    0.11 7 94.0 175 
 RUS  HN ES   1   1241 37.54                             146    0.15 7 94.0 175 
 RUS  HZ I        1241 38.87        11.5 0.30                          94.0 175 
 PTB  HZ EP   1   1241 22.03                             133   -0.50 7  146 261 
 PTB  HN ES   1   1241 43.13                             133   -0.46 7  146 261 
 PTB  HZ I        1241 45.38         5.6 0.23                           146 261 
 OCA  HN ES   1   1241 46.66                             129   -0.67 7  167 354 
 ZAR  HE ES   1   1241 54.47                             122    0.55 6  206 294 
 ZAR  HZ I        1242  0.68         9.7 0.26                           206 294 
                                                                                
