 2013 1223 1005 55.1 L   6.808 -73.141150.3  RSN  8 0.4 1.7LRSN                1
 GAP=183        0.88       3.1     4.5  6.6  0.5946E+00  0.7123E+01 -0.5742E+01E
 Epicentro: LOS SANTOS - SANTANDER                                             3
 ACTION:UPD 14-01-13 10:20 OP:ep   STATUS:               ID:20131223100555 L   I
 OLDACT:REG 13-12-23 14:04 OP:jn   STATUS:               ID:20131223100000     3
 2013-12-23-1000-00M.COL___285                                                 6
 STAT SP IPHASW D HRMM SECON CODA AMPLIT PERI AZIMU VELO AIN AR TRES W  DIS CAZ7
 BAR2 SZ EP       10 6 15.45                             170    0.1810 24.3 191 
 BAR2 SZ ES       10 6 31.28                             170    0.2610 24.3 191 
 BAR2 SZ I        10 6 32.44        11.1 0.16            169           24.3 191 
 RUS  HZ EP       10 6 19.41                             144    0.0810  101 176 
 RUS  HN ES       10 6 37.88                             144   -0.3810  101 176 
 RUS  HZ I        10 6 39.02         4.1 0.24            146            101 176 
 PTB  HZ EP       10 6 21.91                             133   -0.56 9  148 259 
 PTB  HN ES       10 6 43.44                             133   -0.41 9  148 259 
 PTB  HZ I        10 6 46.38         6.1 0.28            132            148 259 
 OCA  HN ES   1   10 6 46.40                             131    0.43 7  159 353 
 SPBC HZ EP       10 6 24.09                             130    0.07 9  164 219 
 SPBC HN ES       10 6 46.46                             130   -0.13 9  164 219 
 SPBC HZ I        10 6 51.38         5.8 0.20            130            164 219 
 ZAR  HZ EP       10 6 28.09                             123    0.26 9  204 292 
 ZAR  HN ES       10 6 53.31                             123   -0.07 9  204 292 
 ZAR  HZ I        10 7  0.46         5.3 0.24            124            204 292 
 NOR  HE ES       10 7  0.27                             119    0.95 8  236 234 
 SML  HZ EP       10 6 31.71                             118   -0.18 8  243 335 
 SML  HN ES       10 7  0.48                             118   -0.13 8  243 335 
                                                                                
