 2012  223 1313 50.1 L   6.787 -73.099150.2  RSN  8 0.3 1.7LRSN                1
 GAP=143        0.45       3.5     4.1  4.8 -0.7612E+00  0.6447E+00  0.5970E+01E
 ACTION:UP  12-03-07 16:33 OP:epov STATUS:               ID:20120223131350 L   I
 2012-02-23-1310-00M.COL___191                                                 6
 STAT SP IPHASW D HRMM SECON CODA AMPLIT PERI AZIMU VELO AIN AR TRES W  DIS CAZ7
 BAR2 SZ EP   1   1314 10.24                             171   -0.04 7 23.4 203 
 BAR2 SZ ES   1   1314 25.85                             171   -0.17 7 23.4 203 
 BAR2 SZ I        1314 26.59        17.2 0.16                          23.4 203 
 GIR2 SZ EP   1   1314 10.32                             167   -0.07 7 33.9 342 
 GIR2 SZ ES   2   1314 26.56                             167    0.35 5 33.9 342 
 PAM  SE ES   2   1314 29.78                             152   -0.52 5 75.4  36 
 BRR  HZ EP   1   1314 12.17                             152    0.13 7 76.4 298 
 BRR  HE ES   1   1314 29.45                             152    0.30 7 76.4 298 
 RUS  HZ EP   1   1314 14.24                             145    0.05 7 98.9 179 
 RUS  HN ES   2   1314 33.20                             145    0.23 5 98.9 179 
 RUS  HZ I        1314 33.91         5.0 0.29                          98.9 179 
 PTB  HE ES   2   1314 38.89                             132   -0.65 5  153 260 
 NOR  SE ES   2   1314 54.65                             119   -0.17 4  238 235 
 CHI  HZ EP   2   1314 28.27                             118    0.21 4  249 196 
 CHI  HN ES   2   1314 57.74                             118    0.07 4  249 196 
 CHI  HZ I        1315  3.42         3.0 0.51                           249 196 
                                                                                
