 2011  823 1623 53.7 L   6.199 -73.577119.3  RSN  6 0.3 1.9LRSN                1
 GAP= 82        0.65       2.9     6.6  8.5  0.2220E+01  0.4006E+02  0.8140E+01E
 Epicentro: LA PAZ - SANTANDER                                                 3
 ACTION:UPD 12-07-13 15:53 OP:ep   STATUS:               ID:20110823162353 L   I
 2011-08-23-1623-05S.COL___157                                                 6
 STAT SP IPHASW D HRMM SECON CODA AMPLIT PERI AZIMU VELO AIN AR TRES W  DIS CAZ7
 BAR2 SZ EP       1624 12.12                             151    0.3610 61.6  45 
 BAR2 SZ I        1624 12.44        22.0 0.19                          61.6  45 
 BAR2 SZ ES   1   1624 26.08                             151    0.20 7 61.6  45 
 RUS  HZ EP       1624 12.31                             150    0.0210 64.3 122 
 RUS  HE ES   1   1624 26.19                             150   -0.63 7 64.3 122 
 RUS  HZ I        1624 27.64         5.8 0.40                          64.3 122 
 BRR  HZ EP       1624 14.19                             137   -0.1210  102 352 
 BRR  HZ I        1624 14.63        24.5 0.10                           102 352 
 BRR  HE ES   1   1624 30.39                             137   -0.03 7  102 352 
 CHI  HZ EP   1   1624 21.60                             120   -0.27 7  174 186 
 CHI  HZ I        1624 22.11         5.3 0.14                           174 186 
 CHI  HN ES   1   1624 44.41                             120    0.53 7  174 186 
 HEL  HZ EP   1   1624 26.13                             114   -0.19 6  216 270 
 PRA  HZ EP   1   1624 36.49                             106   -0.28 5  311 208 
 PRA  HN ES   1   1625 10.52                             106    0.12 5  311 208 
 PRA  HZ I        1625 14.71        19.9 0.25                           311 208 
                                                                                
