 2015  123 1935 27.1 L   6.978 -73.689 97.0  RSN  7 0.3 1.5LRSN                1
 GAP= 80        0.80       3.2     2.7  5.0  0.1973E+01  0.2560E+01  0.2682E+01E
 Epicentro: BARRANCABERMEJA - SANTANDER                                        3
 ACTION:UPD 15-03-02 15:41 OP:nd   STATUS:               ID:20150123193527 L   I
 OLDACT:REG 15-01-23 23:25 OP:spq  STATUS:               ID:20150123192747     3
 2015-01-23-1927-47M.COL___262                                                 6
 STAT SP IPHASW D HRMM SECON CODA AMPLIT PERI AZIMU VELO AIN AR TRES W  DIS CAZ7
 BRR  HZ EP       1935 39.98                             171   -0.3610 14.5 350 
 BRR  HN ES       1935 50.74                             171    0.0810 14.5 350 
 BRR  HZ I        1935 51.39        20.3 0.30            173           14.5 350 
 BAR2 EZ EP       1935 43.03                             141   -0.5210 70.4 127 
 BAR2 EZ ES       1935 56.80                             141    0.4310 70.4 127 
 BAR2 EZ I        1935 58.13        15.9 0.38            141           70.4 127 
 PTB  HZ EP   9   1935 44.41                             131   -1.16 0 97.7 240 
 PTB  HE ES       1935 58.45                                   -0.3510 97.7 240 
 PTB  HZ I        1935 58.86         8.7 0.36            129           97.7 240 
 PAM  SZ EP   1   1935 47.98                             126   -0.02 7  116  70 
 PAM  SN ES   1   1936  4.61                             126    0.33 7  116  70 
 PAM  SZ I        1936  5.38         4.7 0.18            127            116  70 
 RUS  HZ EP       1935 50.27                             121    0.11 9  138 151 
 RUS  HN ES       1936  7.76                             121   -0.37 9  138 151 
 RUS  HZ I        1936 10.14         4.7 0.30            120            138 151 
 ZAR  HZ EP       1935 50.04                             120    0.13 9  141 294 
 ZAR  HN ES       1936  7.59                             120   -0.09 9  141 294 
 ZAR  HZ I        1936 10.73         9.6 0.50            120            141 294 
 NOR  HZ EP   1   1935 57.47                             111    0.51 6  204 220 
 NOR  HN ES       1936 20.48                             111    0.25 9  204 220 
 NOR  HZ I        1936 27.69         2.4 0.20            110            204 220 
                                                                                
