 2017 1023 1638 29.5 L   6.758 -73.170150.6  RSN  5 0.3 1.2LRSN                1
 GAP=135        0.79       5.2     4.8  6.1  0.5462E+01 -0.2561E+01 -0.5258E+01E
 Epicentro: LOS SANTOS - SANTANDER                                             3
 ACTION:UPD 17-11-07 19:35 OP:rebc STATUS:               ID:20171023163829 L   I
 OLDACT:REG 17-10-23 21:13 OP:dani STATUS:               ID:20171023162747     3
 2017-10-23-1628-00M.COL___452                                                 6
 STAT SP IPHASW D HRMM SECON CODA AMPLIT PERI AZIMU VELO AIN AR TRES W  DIS CAZ7
 BAR2 EZ EP       1638 49.47                             173   -0.2110 18.4 184 
 BAR2 EZ ES       1639  5.05                             173   -0.3310 18.4 184 
 BAR2 EZ I        1639  7.23         5.9 0.29            172           18.4 184 
 BRR  HZ EP       1638 51.36                             153    0.1310 71.2 303 
 BRR  HN ES       1639  8.59                             153    0.4610 71.2 303 
 PAM  EZ EP       1638 52.40                             150   -0.2010 82.7  39 
 PAM  EZ I        1639 12.17         2.3 0.32            137           82.7  39 
 RUS  HZ EP       1638 53.97                             146    0.4910 96.2 174 
 RUS  HE ES       1639 12.18                             146    0.0410 96.2 174 
 RUS  HZ I        1639 13.47         3.2 0.30            148           96.2 174 
 PTB  HZ EP       1638 56.36                             134   -0.25 9  144 260 
 PTB  HN ES       1639 17.51                             134   -0.20 9  144 260 
 PTB  HZ I        1639 22.25         1.5 0.18            133            144 260 
                                                                                
