 2012  423 1833 10.8 L   6.786 -73.153140.4  RSN  8 0.4 2.0LRSN                1
 GAP=136        0.89       4.4     4.8  7.1  0.4209E+00  0.9911E+01  0.6346E+01E
 Epicentro: LOS SANTOS - SANTANDER                                             3
 ACTION:UPD 12-07-05 11:55 OP:tino STATUS:               ID:20120423183310 L   I
 2012-04-23-1830-00M.COL___186                                                 6
 STAT SP IPHASW D HRMM SECON CODA AMPLIT PERI AZIMU VELO AIN AR TRES W  DIS CAZ7
 BAR2 SZ EP   1   1833 29.28                             171    -0.4 7   22 189 
 BAR2 SZ ES   1   1833 44.34                             171    -0.1 7   22 189 
 BAR2 SZ I        1833 47.04        30.3 0.26                            22 189 
 BRR  HZ EP   1   1833 31.66                             152     0.3 7   71 300 
 BRR  HN ES   1   1833 47.79                             152     0.4 7   71 300 
 BRR  HZ I        1833 49.25        27.8 0.15                            71 300 
 PAM  SZ EP   1   1833 32.74                             149     0.2 7   79  39 
 PAM  SN ES   1   1833 49.25                             149    -0.2 7   79  39 
 RUS  HZ EP   1   1833 33.88                             143     0.0 7   99 176 
 RUS  HN ES   1   1833 52.15                             143     0.2 7   99 176 
 RUS  HZ I        1833 54.69        14.8 0.29                            99 176 
 PTB  HZ EP   1   1833 36.41                             131    -0.8 7  147 259 
 PTB  HN ES   1   1833 57.56                             131    -0.2 7  147 259 
 PTB  HZ I        1833 59.31         8.8 0.11                           147 259 
 ZAR  HZ EP   1   1833 43.79                             121     0.9 6  204 293 
 ZAR  HN ES   1   1834  7.47                             121    -0.4 6  204 293 
 ZAR  HZ I        1834 15.18        14.0 0.20                           204 293 
 NOR  SZ EP   1   1833 45.80                             117    -0.2 6  233 235 
 NOR  SN ES   1   1834 13.80                             117     0.3 6  233 235 
 CHI  HZ EP   1   1833 47.76                             116    -0.2 6  247 195 
 CHI  HN ES   1   1834 17.27                             116     0.3 6  247 195 
 CHI  HZ I        1834 25.28         6.1 0.35                           247 195 
                                                                                
