 2014  223 1045 40.7 L   6.786 -73.136149.0  RSN  8 0.5 1.5LRSN                1
 GAP=138        1.15       4.4     4.9  7.2 -0.2913E+01  0.1179E+02  0.2192E+01E
 Epicentro: LOS SANTOS - SANTANDER                                             3
 ACTION:UPD 14-03-10 08:12 OP:ep   STATUS:               ID:20140223104540 L   I
 OLDACT:DUP 14-02-23 18:23 OP:carl STATUS:               ID:20140223104002d    3
 2014-02-23-1040-00M.COL___215                                                 6
 STAT SP IPHASW D HRMM SECON CODA AMPLIT PERI AZIMU VELO AIN AR TRES W  DIS CAZ7
 BAR2 SZ EP       1046  0.81                             171    0.1610 22.1 193 
 BAR2 SZ ES       1046 16.79                             171    0.5510 22.1 193 
 BAR2 SZ I        1046 21.69         6.7 0.28            168           22.1 193 
 PAM  SZ EP       1046  3.42                             151    0.1810 77.9  38 
 PAM  SN ES       1046 20.68                             151   -0.1810 77.9  38 
 PAM  SZ I        1046 21.18         5.9 0.24            158           77.9  38 
 RUS  HZ EP       1046  4.82                             145    0.2110 99.0 177 
 RUS  HN ES       1046 22.52                             145   -0.7810 99.0 177 
 RUS  HZ I        1046 24.40         1.5 0.40            146           99.0 177 
 PTB  HZ EP       1046  7.62                             133   -0.33 9  149 259 
 PTB  HN ES       1046 29.01                             133   -0.24 9  149 259 
 PTB  HZ I        1046 31.55         6.8 0.78            133            149 259 
 SPBC HZ EP       1046  9.33                             130   -0.02 9  163 220 
 SPBC HN ES       1046 32.32                             130    0.58 9  163 220 
 SPBC HZ I        1046 39.12         4.9 0.50            131            163 220 
 ZAR  HZ EP       1046 12.88                             123   -0.59 8  206 292 
 ZAR  HN ES       1046 39.15                             123    0.09 8  206 292 
 ZAR  HZ I        1046 46.01         6.2 0.32            125            206 292 
 NOR  HZ EP       1046 16.41                             119   -0.16 8  235 235 
 NOR  HE ES       1046 44.99                             119    0.41 8  235 235 
 NOR  HZ I        1046 48.33         3.3 0.20            121            235 235 
 CHI  HZ EP       1046 19.38                             118    0.97 8  247 195 
 CHI  HE ES       1046 47.04                             118   -0.81 8  247 195 
 CHI  HZ I        1046 57.76         0.8 0.62            120            247 195 
                                                                                
