 2012 1023 1902  0.8 L   6.770 -73.126140.7  RSN  4 0.1 1.5LRSN                1
 GAP=140        0.31       2.1     2.9  3.7 -0.1830E+00 -0.5163E+00  0.5056E+00E
 Epicentro: LOS SANTOS - SANTANDER                                             3
 ACTION:UPD 12-11-22 17:05 OP:ep   STATUS:               ID:20121023190200 L   I
 2012-10-23-1900-00M.COL___232                                                 6
 STAT SP IPHASW D HRMM SECON CODA AMPLIT PERI AZIMU VELO AIN AR TRES W  DIS CAZ7
 BAR2 SZ EP       19 2 19.79                             171   -0.0110 20.7 198 
 BAR2 SZ I        19 2 20.46        12.4 0.32                          20.7 198 
 BRR  HZ EP       19 2 21.55                             150   -0.0910 74.7 300 
 BRR  HZ I        19 2 32.36         9.1 0.49                          74.7 300 
 BRR  HN ES   1   19 2 37.97                             150    0.09 7 74.7 300 
 PAM  SZ EP       19 2 22.65                             149    0.0610 78.6  37 
 PAM  SZ I        19 2 23.07         6.1 0.23                          78.6  37 
 PAM  SN ES   1   19 2 39.50                             149   -0.06 7 78.6  37 
 RUS  HZ EP   1   19 2 23.89                             144    0.05 7 97.2 177 
 RUS  HN ES   1   19 2 41.77                             144   -0.02 7 97.2 177 
 RUS  HN I        19 2 43.88         2.5 0.20                          97.2 177 
                                                                                
