 2016  723 1747  1.4 L   6.757 -73.099140.0  RSN  4 0.3 1.7LRSN                1
 GAP=145        0.70       3.8     5.4  6.2 -0.8250E+00 -0.1366E+01 -0.2501E+01E
 Epicentro: LOS SANTOS - SANTANDER                                             3
 ACTION:UPD 17-03-29 16:54 OP:lp   STATUS:               ID:20160723174701 L   I
 OLDACT:UP  16-07-23 21:53 OP:dnl  STATUS:               ID:20160723173760d    3
 OLDACT:DUP 16-07-23 21:50 OP:dnl  STATUS:               ID:20160723173760d    3
 2016-07-23-1737-59S.COL___328                                                 6
 STAT SP IPHASW D HRMM SECON CODA AMPLIT PERI AZIMU VELO AIN AR TRES W  DIS CAZ7
 BAR2 EZ EP       1747 20.42                             171    0.1010 20.4 207 
 BAR2 EZ ES       1747 34.97                             171   -0.0710 20.4 207 
 BRR  HZ EP       1747 22.30                             149   -0.0810 78.0 300 
 BRR  HE ES       1747 38.74                             149    0.0310 78.0 300 
 BRR  HZ I        1747 41.40         7.3 0.46            149           78.0 300 
 PAM  EZ EP       1747 23.52                             149    0.4410 78.1  34 
 PAM  EN ES       1747 39.69                             149   -0.2810 78.1  34 
 PAM  EZ I        1747 42.42        14.1 0.44            149           78.1  34 
 RUS  HZ EP   2   1747 23.34                             144   -0.92 5 95.6 179 
 RUS  HN ES       1747 42.17                             144    0.1010 95.6 179 
                                                                                
