 2013  823 1109 54.7 L   6.811 -73.122146.0  RSN 11 0.5 1.8LRSN                1
 GAP=121        1.40       4.7     5.3  8.3 -0.6771E+00 -0.3613E+01 -0.9764E+01E
 Epicentro: LOS SANTOS - SANTANDER                                             3
 ACTION:UPD 14-01-14 09:05 OP:ep   STATUS:               ID:20130823110954 L   I
 OLDACT:REG 13-08-23 15:56 OP:stll STATUS:               ID:20130823110848     3
 2013-08-23-1108-48M.COL___220                                                 6
 STAT SP IPHASW D HRMM SECON CODA AMPLIT PERI AZIMU VELO AIN AR TRES W  DIS CAZ7
 BAR2 SZ EP       1110 14.57                             170    0.1610 25.1 195 
 BAR2 SZ ES       1110 29.15                             170   -0.6210 25.1 195 
 BAR2 SZ I        1110 33.66         8.7 0.28            170           25.1 195 
 BRR  HZ EP       1110 16.68                             152    0.6910 73.0 297 
 BRR  HZ I        1110 16.77         9.2 0.24            151           73.0 297 
 BRR  HN ES       1110 33.74                             152    1.1610 73.0 297 
 PAM  SZ EP       1110 17.50                             152    0.7010 74.8  39 
 PAM  SZ I        1110 17.70        19.1 0.20            153           74.8  39 
 RUS  HZ EP       1110 19.01                             143    0.4510  102 178 
 RUS  HN ES       1110 36.96                             143   -0.2110  102 178 
 RUS  HZ I        1110 37.92         5.5 0.54            146            102 178 
 GRA  SZ EP       1110 20.26                             137    0.4410  124  16 
 GRA  SZ ES       1110 38.67                             137   -0.7310  124  16 
 CAPV BZ EP       1110 21.61                             132   -0.28 9  147  37 
 PTB  HZ EP       1110 21.56                             131   -0.39 9  151 259 
 PTB  HN ES       1110 42.39                             131   -0.81 9  151 259 
 OCA  HN ES       1110 44.89                             130   -0.10 9  159 352 
 ZAR  HZ EP       1110 27.42                             122    0.04 8  206 292 
 ZAR  HN ES       1110 52.64                             122   -0.22 8  206 292 
 ZAR  HZ I        1110 59.76         7.8 0.28            123            206 292 
 SML  HZ EP       1110 30.99                             117   -0.36 8  244 335 
 SML  HN ES       1110 59.95                             117    0.02 8  244 335 
 SML  HZ I        1111  4.06        11.6 0.10            118            244 335 
 SOCV BZ EP       1110 36.73                             112   -0.72 7  298  57 
                                                                                
