 2011  923 1429 34.7 L   6.735 -73.125137.6  RSN  5 0.3 1.3LRSN                1
 GAP=215        0.64       9.7    17.0 13.8  0.1220E+03 -0.2583E+02 -0.3110E+02E
 Epicentro: VILLANUEVA - SANTANDER                                             3
 ACTION:UPD 12-07-13 15:59 OP:ep   STATUS:               ID:20110923142934 L   I
 2011-09-23-1425-48S.COL___165                                                 6
 STAT SP IPHASW D HRMM SECON CODA AMPLIT PERI AZIMU VELO AIN AR TRES W  DIS CAZ7
 BAR2 SZ EP       1429 52.98                             173   -0.2310 17.0 202 
 BAR2 SZ I        1429 54.40         4.5 0.40                          17.0 202 
 BAR2 SZ ES   3   1430  7.41                             173   -0.25 2 17.0 202 
 BTL  SZ EP       1429 53.52                             168    0.1410 25.7 322 
 BRR  HZ EP       1429 55.67                             149    0.3810 76.8 302 
 BRR  HZ I        1429 56.60        10.2 1.08                          76.8 302 
 BRR  HE ES   3   1430 11.43                             149    0.06 2 76.8 302 
 RUS  HZ EP       1429 56.74                             146   -0.3610 93.3 177 
 RUS  HE ES   2   1430 15.02                             146    0.44 5 93.3 177 
 RUS  HZ I        1430 16.41         1.5 0.38                          93.3 177 
 ZAR  HZ I        1430 25.61         2.5 0.30                           209 294 
 ZAR  HE ES   3   1430 31.69                             120   -0.74 2  209 294 
                                                                                
