 2010  423 1815 41.3 L   6.744 -72.961146.0  RSN  4 0.2 2.1LRSN                1
 GAP=231        0.49       5.9     6.6  7.0 -0.3567E+01 -0.2114E+02  0.4182E+01E
 Epicentro: CEPITA - SANTANDER                                                 3
 ACTION:UPD 10-08-24 10:00 OP:vdl  STATUS:               ID:20100423181541 L   I
 2010-04-23-1810-16S.COL___104                                                 6
 STAT SP IPHASW D HRMM SECON CODA AMPLIT PERI AZIMU VELO AIN AR TRES W  DIS CAZ7
 BAR2 SZ EP       1816  1.21                             168     0.110   30 236 
 BAR2 SZ ES   2   1816 16.62                             168     0.0 5   30 236 
 BRR  HZ EP       1816  3.56                             146    -0.310   92 296 
 BRR  HZ I        1816  3.87        29.4 0.29                            92 296 
 BRR  HN ES       1816 21.44                             146     0.110   92 296 
 GUE  SZ EP   1   1816  6.58                             139     0.2 7  120   2 
 RREF BN ES   2   1817  6.23                             110     0.3 3  334 232 
 RREF BZ I        1817  9.79         3.7 0.45                           334 232 
                                                                                
