 2013 1023 1309  7.1 L   6.819 -73.159149.1  RSN  9 0.4 2.2LRSN                1
 GAP=134        0.97       3.5     4.8  5.6 -0.2768E+01  0.5747E+01  0.1651E+01E
 Epicentro: LOS SANTOS - SANTANDER                                             3
 ACTION:UPD 13-11-25 09:23 OP:ep   STATUS:               ID:20131023130907 L   I
 OLDACT:UP  13-10-23 15:39 OP:cam  STATUS:               ID:20131023125846     3
 OLDACT:REG 13-10-23 15:05 OP:cam  STATUS:               ID:20131023125846     3
 2013-10-23-1258-46M.COL___229                                                 6
 STAT SP IPHASW D HRMM SECON CODA AMPLIT PERI AZIMU VELO AIN AR TRES W  DIS CAZ7
 BAR2 SZ EP       13 9 27.15                             170   -0.0710 25.2 186 
 BAR2 SZ ES       13 9 42.37                             170   -0.5010 25.2 186 
 BAR2 SZ I        13 9 43.30        65.9 0.24            169           25.2 186 
 BRR  HZ EP       13 9 28.88                             154    0.3510 68.9 298 
 BRR  HN ES       13 9 45.98                             154    0.7710 68.9 298 
 BRR  HZ I        13 9 49.49        22.3 0.30            151           68.9 298 
 PAM  SZ EP     C 13 9 30.12                             152    0.4410 76.7  41 
 PAM  SN ES       13 9 47.22                             152   -0.0410 76.7  41 
 PAM  SZ I        13 9 49.27        22.6 0.42            155           76.7  41 
 RUS  HZ EP   1   13 9 31.13                             144   -0.26 7  103 175 
 RUS  HE ES       13 9 50.10                             144   -0.2010  103 175 
 RUS  HZ I        13 9 50.85        20.8 0.26            146            103 175 
 PTB  HZ EP       13 9 33.81                             133   -0.49 9  147 258 
 PTB  HN ES       13 9 54.92                             133   -0.56 9  147 258 
 PTB  HZ I        1310  1.90        19.3 0.22            132            147 258 
 SPBC HZ EP       13 9 36.00                             130    0.03 9  164 218 
 SPBC HN ES       13 9 58.99                             130    0.53 9  164 218 
 SPBC HZ I        1310  2.51        18.8 0.22            130            164 218 
 ZAR  HZ EP   4   13 9 41.17                             123    1.58 0  202 292 
 NOR  HZ EP       13 9 43.27                             119    0.19 8  235 234 
 SML  HZ EP   1   13 9 43.25                             118   -0.44 6  241 335 
 SML  HN ES   1   1310 11.67                             118   -0.52 6  241 335 
 SML  HZ I        1310 16.65         9.8 0.34            119            241 335 
 CHI  HZ EP       13 9 45.36                             118    0.15 8  250 195 
 CHI  HN ES   1   1310 14.85                             118   -0.05 6  250 195 
 CHI  HZ I        1310 17.93         9.3 0.34            119            250 195 
                                                                                
