 2014 1023 1517 39.5 L   6.808 -73.155147.7  RSN 12 0.5 2.1LRSN                1
 GAP=135        1.11       3.3     5.0  6.2 -0.2998E+01  0.7024E+01  0.2776E+01E
 Epicentro: LOS SANTOS - SANTANDER                                             3
 ACTION:UPD 14-11-29 23:55 OP:nd   STATUS:               ID:20141023151739 L   I
 OLDACT:DUP 14-10-27 08:45 OP:fm   STATUS:               ID:20141023150749d    3
 2014-10-23-1507-47M.COL___283                                                 6
 STAT SP IPHASW D HRMM SECON CODA AMPLIT PERI AZIMU VELO AIN AR TRES W  DIS CAZ7
 BAR2 SZ EP       1517 59.61                             170    0.2010 24.1 187 
 BAR2 SZ ES   1   1518 14.83                             170   -0.09 7 24.1 187 
 BAR2 SZ I        1518 16.14        28.9 0.26            170           24.1 187 
 BRR  HZ EP       1518  1.44                             153    0.6210 69.9 298 
 BRR  HN ES       1518 18.31                             153    0.8910 69.9 298 
 BRR  HZ I        1518 21.02        30.1 0.30            151           69.9 298 
 PAM  SZ EP       1518  2.56                             151    0.6110 77.3  41 
 PAM  SN ES       1518 18.92                             151   -0.5110 77.3  41 
 PAM  SZ I        1518 22.62        15.2 0.36            154           77.3  41 
 RUS  HZ EP       1518  3.56                             144    0.0110  102 176 
 RUS  HN ES       1518 21.85                             144   -0.4310  102 176 
 RUS  HZ I        1518 23.44        14.8 0.32            145            102 176 
 PTB  HZ EP       1518  6.37                             133   -0.22 9  147 258 
 PTB  HN ES       1518 27.19                             133   -0.50 9  147 258 
 PTB  HZ I        1518 29.92        12.3 0.14            132            147 258 
 SPBC HZ EP       1518  8.49                             129    0.30 9  163 219 
 SPBC HN ES       1518 30.43                             129   -0.11 9  163 219 
 SPBC HZ I        1518 32.34        16.3 0.12            130            163 219 
 SML  HZ EP       1518 15.65                             118   -0.48 8  242 335 
 SML  HN ES       1518 43.86                             118   -0.82 8  242 335 
 SML  HZ I        1518 47.95        18.2 0.10            118            242 335 
 CHI  HZ EP       1518 17.20                             117   -0.21 8  249 195 
 CHI  HN ES       1518 46.75                             117   -0.20 8  249 195 
 CHI  HZ I        1518 53.32         5.4 0.38            118            249 195 
 URE  HZ EP   4   1518 22.56                             114    2.00 0  283 292 
 URE  HN ES   4   1518 50.19                             114   -2.36 0  283 292 
 URE  HZ I        1519  2.71         5.1 0.32            114            283 292 
 GUY2CHZ EP       1518 23.76                             113    0.56 7  301 235 
 GUY2CHN ES       1518 57.16                             113   -0.10 7  301 235 
 GUY2CHZ I        1519  6.32         5.3 0.24                           301 235 
 TOL  SZ EP   4   1518 29.29                             110    1.43 0  343 224 
 TOL  SN ES   4   1519  7.43                             110    1.87 0  343 224 
 MON  HZ EP   4   1518 33.25                             109    4.80 0  352 308 
 MON  HN ES   4   1519  3.75                             109   -2.86 0  352 308 
 MON  HZ I        1519  7.66         2.1 0.28            109            352 308 
 PRA  HZ EP       1518 32.76                             107   -0.40 6  392 209 
 PRA  HN ES       1519 15.30                             107    0.31 6  392 209 
 PRA  HZ I        1519 22.08         5.9 0.60            107            392 209 
                                                                                
