 2011 1023 1111 48.7 L   6.807 -73.062136.3  RSN  4 0.4 1.5LRSN                1
 GAP=147        0.64       4.6     6.7  8.9 -0.2790E+01 -0.8162E+01  0.2466E+01E
 Epicentro: LOS SANTOS - SANTANDER                                             3
 ACTION:UPD 12-07-13 16:05 OP:ep   STATUS:               ID:20111023111148 L   I
 2011-10-23-1109-54S.COL___171                                                 6
 STAT SP IPHASW D HRMM SECON CODA AMPLIT PERI AZIMU VELO AIN AR TRES W  DIS CAZ7
 BAR2 SZ EP   2   1112  7.08                             168   -0.22 5 27.2 209 
 BAR2 SZ ES   2   1112 21.19                             168   -0.60 5 27.2 209 
 BAR2 SZ I        1112 23.70         9.0 0.53                          27.2 209 
 PAM  SZ EP   1   1112  9.96                             151    0.41 7 71.2  34 
 PAM  SN ES   1   1112 25.62                             151   -0.19 7 71.2  34 
 BRR  HZ EP   2   1112  8.86                             148   -0.48 5 79.2 295 
 BRR  HZ I        1112 13.21         7.0 0.59                          79.2 295 
 BRR  HN ES   1   1112 25.62                             148    0.19 7 79.2 295 
 RUS  HZ EP   2   1112 11.17                             141   -0.41 5  101 181 
 RUS  HN ES   1   1112 29.79                             141    0.36 7  101 181 
 RUS  HZ I        1112 30.60         3.3 0.44                           101 181 
                                                                                
