 2013  523 1247 46.7 L   7.531 -73.031159.8  RSN 11 0.4 2.2LRSN                1
 GAP= 83        0.94       3.5     5.3  5.6 -0.9483E-01  0.2153E+01  0.2460E+01E
 Epicentro: SURATA - SANTANDER                                                 3
 ACTION:UPD 13-06-20 09:53 OP:ep   STATUS:               ID:20130523124746 L   I
 2013-05-23-1240-00M.COL___259                                                 6
 STAT SP IPHASW D HRMM SECON CODA AMPLIT PERI AZIMU VELO AIN AR TRES W  DIS CAZ7
 PAM  SN ES       1248 26.24                             164    0.1110 42.3 120 
 PAM  SZ I        1248 27.60        41.3 0.44            167           42.3 120 
 GIR2 SZ EP       1248  9.00                             161    0.2810 53.1 200 
 GIR2 SZ ES   1   1248 26.00                             161    0.08 7 53.1 200 
 GIR2 SZ I        1248 27.79        25.5 0.30            147           53.1 200 
 OCA  HZ EP       1248 10.50                             151    0.1910 84.5 338 
 OCA  HN ES       1248 28.46                             151   -0.3010 84.5 338 
 OCA  HZ I        1248 30.85        41.0 0.46            140           84.5 338 
 BRR  HZ EP       1248 10.82                             150    0.4810 88.6 238 
 BRR  HN ES       1248 29.23                             150    0.4210 88.6 238 
 BRR  HZ I        1248 31.20        25.7 0.17            133           88.6 238 
 BAR2 SZ EP       1248 12.10                             145    0.3310  105 189 
 BAR2 SZ ES   1   1248 31.31                             145   -0.05 7  105 189 
 BAR2 SZ I        1248 35.65        35.9 0.22            134            105 189 
 RUS  HZ EP       1248 18.41                             129   -0.08 9  181 182 
 RUS  HN ES       1248 42.62                             129   -0.70 9  181 182 
 RUS  HZ I        1248 45.08         5.8 0.24            120            181 182 
 SML  HE ES   1   1248 41.56                             129   -0.58 7  181 321 
 PTB  HZ EP       1248 18.79                             127   -0.09 9  192 235 
 PTB  HE ES       1248 43.24                             127   -0.76 9  192 235 
 PTB  HZ I        1248 48.37        18.2 0.24            115            192 235 
 SDV  BZ EP   1   1248 30.12                             114   -0.76 5  304  60 
 HEL  HZ EP   1   1248 32.83                             114    0.66 5  313 242 
 HEL  HZ I        1249 18.96         6.8 0.24            105            313 242 
 CHI  HN ES   1   1249 11.17                             113    0.06 5  330 194 
 CHI  HZ I        1249 19.38         5.0 0.50            105            330 194 
                                                                                
