 2016 1123 1053 42.9 L   6.714 -73.172143.6  RSN  4 0.1 1.2LRSN                1
 GAP=239        0.43       4.9     3.1  3.9  0.5844E+01  0.3316E+01  0.1119E+01E
 Epicentro: VILLANUEVA - SANTANDER                                             3
 ACTION:UPD 17-10-26 21:10 OP:lp   STATUS:               ID:20161123105342 L   I
 OLDACT:REG 16-11-23 19:56 OP:edw  STATUS:               ID:20161123104746     3
 2016-11-23-1048-00M.COL___352                                                 6
 STAT SP IPHASW D HRMM SECON CODA AMPLIT PERI AZIMU VELO AIN AR TRES W  DIS CAZ7
 BAR2 EZ EP       1054  2.13                             174    0.0110 13.5 185 
 BAR2 EZ ES       1054 16.95                             174   -0.1510 13.5 185 
 BAR2 EZ I        1054 18.16         6.4 0.32            169           13.5 185 
 BRR  HZ EP       1054  4.14                             151    0.1610 73.9 306 
 BRR  HN ES       1054 20.53                             151    0.1210 73.9 306 
 PTB  HZ EP       1054  9.21                             132   -0.09 9  143 262 
 PTB  HN ES       1054 30.02                             132    0.13 9  143 262 
 PTB  HZ I        1054 33.17         1.0 0.11            131            143 262 
 ZAR  HN ES       1054 40.40                             122   -0.23 8  205 295 
                                                                                
