 2012  923 1859 53.1 L   6.788 -73.118146.4  RSN  8 0.3 1.8LRSN                1
 GAP=141        0.76       3.9     4.5  6.7  0.1317E+01  0.2455E+01  0.5830E+01E
 Epicentro: LOS SANTOS - SANTANDER                                             3
 ACTION:UPD 12-10-22 14:20 OP:ep   STATUS:               ID:20120923185953 L   I
 2012-09-23-1900-00M.COL___221                                                 6
 STAT SP IPHASW D HRMM SECON CODA AMPLIT PERI AZIMU VELO AIN AR TRES W  DIS CAZ7
 BAR2 SZ EP       19 0 12.83                             171    0.0310 22.8 198 
 BAR2 SZ I        19 0 13.69        13.7 0.31                          22.8 198 
 BAR2 SZ ES   1   19 0 28.01                             171   -0.16 7 22.8 198 
 GIR2 SZ EP   1   19 0 12.01                             166   -0.90 7 33.2 345 
 BRR  HZ EP       19 0 14.93                             151    0.4210 74.5 298 
 BRR  HZ I        19 0 16.37        12.1 0.15                          74.5 298 
 BRR  HN ES   1   19 0 31.65                             151    0.44 7 74.5 298 
 PAM  SZ EP   1   19 0 15.26                             151   -0.08 7 76.5  37 
 PAM  SN ES   1   19 0 32.71                             151    0.03 7 76.5  37 
 PAM  SZ I        19 0 34.67        15.3 0.17                          76.5  37 
 RUS  HZ EP       19 0 17.14                             144    0.3310 99.1 178 
 RUS  HE ES   1   19 0 35.12                             144   -0.19 7 99.1 178 
 PTB  HE ES   1   19 0 41.28                             131   -0.37 7  151 260 
 ZAR  HN ES   1   19 0 51.34                             122   -0.20 6  207 292 
 ZAR  HZ I        19 0 57.05         9.0 0.31                           207 292 
 CHI  HZ EP   1   19 0 30.61                             117   -0.18 6  248 196 
 CHI  HN ES   1   19 1  0.27                             117    0.08 6  248 196 
 CHI  HZ I        19 1  8.65         2.2 0.36                           248 196 
                                                                                
