 2017  923 1832 50.7 L   6.825 -73.084135.6  RSN  5 0.4 1.8LRSN                1
 GAP=219        1.03      11.0    12.0  7.4  0.1189E+03 -0.1841E+02 -0.1750E+02E
 Epicentro: LOS SANTOS - SANTANDER                                             3
 ACTION:UPD 17-10-05 19:15 OP:rebc STATUS:               ID:20170923183250 L   I
 OLDACT:DUP 17-09-24 00:37 OP:lv   STATUS:               ID:20170923182737d    3
 2017-09-23-1828-00M.COL___453                                                 6
 STAT SP IPHASW D HRMM SECON CODA AMPLIT PERI AZIMU VELO AIN AR TRES W  DIS CAZ7
 BAR2 EZ EP       1833  9.21                             168   -0.0510 27.9 203 
 BAR2 EZ ES       1833 23.27                             168   -0.4310 27.9 203 
 BAR2 EZ I        1833 25.05        10.3 0.30            163           27.9 203 
 BRR  HZ EP       1833 10.95                             149   -0.1510 76.1 294 
 BRR  HE ES       1833 27.51                             149    0.5310 76.1 294 
 BRR  HZ I        1833 31.42        13.3 0.14            147           76.1 294 
 RUS  HZ EP       1833 13.26                             141   -0.4410  103 180 
 RUS  HN ES       1833 31.69                             141    0.0910  103 180 
 RUS  HZ I        1833 33.28         6.3 0.22            139            103 180 
 YPLC HZ EP       1833 19.50                             124   -0.25 9  176 154 
 YPLC HN ES       1833 42.97                             124    0.60 9  176 154 
 YPLC HZ I        1833 46.94         5.3 0.26            125            176 154 
 ZAR  HZ EP       1833 23.78                             119    0.67 8  209 291 
 ZAR  HN ES       1833 47.93                             119   -0.43 8  209 291 
 ZAR  HZ I        1833 52.70        11.5 0.05            119            209 291 
                                                                                
