 2017 1023 1748 27.4 L   6.672 -74.079 10.0  RSN  7 0.5 1.2LRSN                1
 GAP= 94        1.19       3.0     2.1  5.7 -0.7152E+00 -0.1090E+01  0.1284E+01E
 Epicentro: PUERTO PARRA - SANTANDER                                           3
 ACTION:UPD 17-11-07 19:35 OP:rebc STATUS:               ID:20171023174827 L   I
 OLDACT:UP  17-10-23 23:11 OP:osc  STATUS:               ID:20171023174737     3
 OLDACT:REG 17-10-23 21:26 OP:dani STATUS:               ID:20171023174737     3
 2017-10-23-1748-00M.COL___452                                                 6
 STAT SP IPHASW D HRMM SECON CODA AMPLIT PERI AZIMU VELO AIN AR TRES W  DIS CAZ7
 PTB  HZ EP     D 1748 34.62                              99   -0.1810 44.3 251 
 PTB  HN ES       1748 40.44                              99   -0.1210 44.3 251 
 PTB  HZ I        1748 40.64        11.7 0.16            102           44.3 251 
 BRR  HZ EP       1748 37.75                              96    0.1710 62.9  40 
 BRR  HE ES       1748 46.21                              96    0.7010 62.9  40 
 BAR2 EZ EP       1748 43.01                              94   -0.3510 99.5  95 
 BAR2 EZ ES       1748 54.87                              94   -0.9310 99.5  95 
 BAR2 EZ I        1748 57.57         4.9 0.56             95           99.5  95 
 ZAR  HE ES       1749  2.08                              93   -0.1710  125 317 
 RUS  HZ EP       1748 49.92                              93    0.19 9  140 128 
 RUS  HN ES       1749  7.80                              93    0.66 9  140 128 
 RUS  HZ I        1749  9.61         5.2 0.26             93            140 128 
 PAM  EZ EP       1748 54.28                              56    0.37 9  169  64 
 PAM  EN ES       1749 14.11                              56   -0.47 9  169  64 
 GUY2CHE ES       1749 24.85                              56    0.28 8  214 222 
                                                                                
