 2012  123 1319 12.2 L   6.786 -73.157149.3  RSN  7 0.4 2.3LRSN                1
 GAP=136        1.02       6.1     6.6  8.9 -0.1844E+01  0.7621E+01  0.2146E+02E
 Epicentro: LOS SANTOS - SANTANDER                                             3
 ACTION:UP  12-02-03 08:19 OP:REBC STATUS:               ID:20120123131912 L   I
 2012-01-23-1317-59S.COL___186                                                 6
 STAT SP IPHASW D HRMM SECON CODA AMPLIT PERI AZIMU VELO SNR AR TRES W  DIS CAZ7
 BAR2 SZ EP       1319 32.16                             171     0.010   22 187 
 BAR2 SZ ES   1   1319 47.55                             171    -0.2 7   22 187 
 BAR2 SZ I        1319 48.78        80.7 0.24                            22 187 
 BRR  HZ IP     C 1319 34.00                             153     0.310   71 300 
 BRR  HZ I        1319 34.21       111.2 0.14                            71 300 
 BRR  HN ES   1   1319 51.28                             153     0.8 7   71 300 
 PAM  SZ EP       1319 34.94                             151     0.110   79  40 
 PAM  SN ES   1   1319 52.20                             151    -0.4 7   79  40 
 RUS  HZ EP       1319 36.01                             145    -0.110   99 175 
 RUS  HZ I        1319 55.59        19.8 0.44                            99 175 
 PTB  HZ EP       1319 38.78                             133    -0.5 9  146 259 
 PTB  HN ES   2   1319 59.79                             133    -0.6 5  146 259 
 PTB  HZ I        1320  2.66        12.2 0.14                           146 259 
 ZAR  HZ EP   2   1319 45.45                             123     0.7 4  203 293 
 ZAR  HN ES   2   1320  9.31                             123    -0.9 4  203 293 
 ZAR  HZ I        1320 16.93        24.2 0.40                           203 293 
 CHI  HZ EP       1319 50.08                             118     0.2 8  247 195 
 CHI  HN ES   1   1320 19.63                             118     0.4 6  247 195 
 CHI  HZ I        1320 23.07         6.3 0.48                           247 195 
                                                                                
