 2017  823 1603 19.4 L   6.811 -73.085146.0  RSN  6 0.2 1.6LRSN                1
 GAP=117        0.44       2.4     3.1  4.0 -0.6270E+00 -0.5535E+00  0.1825E+01E
 Epicentro: LOS SANTOS - SANTANDER                                             3
 ACTION:UPD 17-09-04 20:23 OP:rebc STATUS:               ID:20170823160319 L   I
 OLDACT:UP  17-08-24 13:32 OP:nlst STATUS:               ID:20170823160319 L   3
 OLDACT:UP  17-08-23 22:48 OP:and  STATUS:               ID:20170823155745     3
 OLDACT:UP  17-08-23 22:47 OP:and  STATUS:               ID:20170823155745     3
 OLDACT:REG 17-08-23 20:50 OP:and  STATUS:               ID:20170823155745     3
 2017-08-23-1558-00M.COL___410                                                 6
 STAT SP IPHASW D HRMM SECON CODA AMPLIT PERI AZIMU VELO AIN AR TRES W  DIS CAZ7
 BAR2 EZ ES   2   16 3 54.04                             169   -0.50 5 26.5 204 
 BAR2 EZ I        16 3 54.99        10.1 0.18            171           26.5 204 
 PAM  EZ EP       16 3 41.49                             153    0.1210 72.3  36 
 PAM  EN ES       16 3 58.42                             153   -0.0710 72.3  36 
 PAM  EZ I        16 4  0.98         9.5 0.46            152           72.3  36 
 BRR  HZ EP       16 3 40.84                             151   -0.0710 76.6 295 
 BRR  HN ES       16 3 57.82                             151    0.1410 76.6 295 
 RUS  HZ EP       16 3 43.11                             144   -0.1610  102 180 
 RUS  HN ES       16 4  2.03                             144    0.1610  102 180 
 RUS  HZ I        16 4  2.64         5.6 0.30            145            102 180 
 YPLC HZ EP   2   16 3 49.25                             127    0.21 4  175 153 
 NOR  HN ES   2   16 4 23.98                             118   -0.25 4  241 235 
                                                                                
