 2016 1123 1113 16.7 L   6.759 -73.271127.1  RSN  4 0.3 1.2LRSN                1
 GAP=204        0.71       7.1     4.7  6.5  0.1276E+02  0.1063E+02  0.3138E+01E
 Epicentro: ZAPATOCA - SANTANDER                                               3
 ACTION:UPD 17-10-26 21:10 OP:lp   STATUS:               ID:20161123111316 L   I
 OLDACT:REG 16-11-23 20:00 OP:edw  STATUS:               ID:20161123110748     3
 2016-11-23-1108-00M.COL___352                                                 6
 STAT SP IPHASW D HRMM SECON CODA AMPLIT PERI AZIMU VELO AIN AR TRES W  DIS CAZ7
 BAR2 EZ EP       1113 34.40                             170    0.4010 20.9 152 
 BAR2 EZ ES       1113 47.36                             170   -0.1610 20.9 152 
 BAR2 EZ I        1113 48.94         5.3 0.36            177           20.9 152 
 BRR  HZ EP       1113 35.28                             152    0.0010 62.1 308 
 BRR  HN ES       1113 49.70                             152   -0.0910 62.1 308 
 PTB  HZ EP       1113 40.32                             130   -0.4810  133 260 
 PTB  HN ES       1113 59.86                             130    0.2310  133 260 
 PTB  HZ I        1114  1.72         1.0 0.12            130            133 260 
 ZAR  HN ES       1114 10.40                             119    0.10 9  193 295 
 ZAR  HE I        1114 18.43         3.5 0.24            119            193 295 
                                                                                
