 2012  223 1722 42.7 L   6.628 -73.709 99.7  RSN  5 0.1 2.1LRSN                1
 GAP=181        0.31       2.8     3.5  5.2 -0.4561E+01  0.8518E+01 -0.7852E+00E
 ACTION:UP  12-03-07 16:33 OP:epov STATUS:               ID:20120223172242 L   I
 2012-02-23-1720-00M.COL___193                                                 6
 STAT SP IPHASW D HRMM SECON CODA AMPLIT PERI AZIMU VELO AIN AR TRES W  DIS CAZ7
 BAR2 SZ EP   2   1722 58.87                             148    0.31 5 58.4  94 
 BAR2 SZ ES   1   1723 10.91                             148   -0.01 7 58.4  94 
 BAR2 SZ I        1723 11.86        37.4 0.28                          58.4  94 
 GIR2 SZ EP   1   1722 59.70                             140    0.02 7 75.7  49 
 GIR2 SZ ES   2   1723 12.84                             140   -0.08 5 75.7  49 
 RUS  HZ EP   1   1723  2.77                             130   -0.10 7  107 140 
 RUS  HN ES   2   1723 18.64                             130    0.04 5  107 140 
 PAM  SN ES   2   1723 23.78                             123   -0.07 5  137  55 
 NOR  SE ES   2   1723 30.06                             116   -0.03 4  174 228 
                                                                                
