 2015  223 1837 29.2 L   6.794 -73.163140.9  RSN  6 0.2 1.8LRSN                1
 GAP=141        0.61       2.8     3.3  4.2 -0.3591E+01  0.2980E+01  0.1585E+01E
 Epicentro: LOS SANTOS - SANTANDER                                             3
 ACTION:UPD 15-04-30 21:28 OP:nd   STATUS:               ID:20150223183729 L   I
 OLDACT:REG 15-02-23 21:25 OP:carl STATUS:               ID:20150223182747     3
 2015-02-23-1827-47M.COL___290                                                 6
 STAT SP IPHASW D HRMM SECON CODA AMPLIT PERI AZIMU VELO AIN AR TRES W  DIS CAZ7
 BAR2 EZ IP     C 1837 48.19                             171   -0.0410 22.4 186 
 BAR2 EZ ES       1838  2.98                             171   -0.0810 22.4 186 
 BAR2 EZ I        1838  4.20        15.1 0.16            169           22.4 186 
 PAM  SZ IP     C 1837 51.21                             149    0.2010 79.1  40 
 PAM  SN ES       1838  8.01                             149   -0.0010 79.1  40 
 PAM  SZ I        1838 10.06        17.1 0.48            154           79.1  40 
 RUS  HZ EP       1837 52.17                             143   -0.2710  100 175 
 RUS  HN ES       1838 10.63                             143    0.0710  100 175 
 RUS  HZ I        1838 11.72         6.8 0.30            145            100 175 
 PTB  HZ EP       1837 55.86                             131    0.27 9  146 259 
 PTB  HN ES       1838 15.83                             131   -0.35 9  146 259 
 PTB  HZ I        1838 22.43         7.1 0.66            131            146 259 
 SPBC HZ EP       1837 57.05                             128   -0.12 9  161 219 
 SPBC HN ES       1838 19.50                             128    0.52 9  161 219 
 SPBC HZ I        1838 24.80        14.1 0.22            129            161 219 
 CHI  HZ EP       1838  6.41                             116   -0.10 8  247 195 
 CHI  HE ES       1838 35.48                             116   -0.13 8  247 195 
 CHI  HZ I        1838 39.99         3.0 0.38            118            247 195 
                                                                                
