 2013 1223 1521 58.3 L   6.794 -73.188142.0  RSN  4 0.1 1.2LRSN                1
 GAP=143        0.37       2.4     2.3  3.5 -0.1362E+01  0.2697E+00 -0.1021E+01E
 Epicentro: LOS SANTOS - SANTANDER                                             3
 ACTION:UPD 14-01-13 10:20 OP:ep   STATUS:               ID:20131223152158 L   I
 OLDACT:REG 13-12-23 15:30 OP:jn   STATUS:               ID:20131223152000     3
 2013-12-23-1520-00M.COL___285                                                 6
 STAT SP IPHASW D HRMM SECON CODA AMPLIT PERI AZIMU VELO AIN AR TRES W  DIS CAZ7
 BAR2 SZ EP       1522 17.50                             171    0.0210 22.3 178 
 BAR2 SZ ES       1522 32.41                             171   -0.0110 22.3 178 
 BAR2 SZ I        1522 34.00         9.0 0.28            172           22.3 178 
 PAM  SZ EP       1522 20.51                             149    0.1510 81.0  42 
 PAM  SN ES   1   1522 37.44                             149   -0.12 7 81.0  42 
 PAM  SZ I        1522 40.18         2.1 0.22            149           81.0  42 
 RUS  HZ EP       1522 21.52                             143   -0.1710  100 173 
 RUS  HN ES       1522 40.00                             143    0.0910  100 173 
 RUS  HZ I        1522 41.34         1.7 0.38            146            100 173 
 PTB  HN ES       1522 45.00                             132   -0.01 9  143 259 
                                                                                
