 2017  723 1106 58.1 L   6.807 -73.154148.7  RSN  8 0.5 1.9LRSN                1
 GAP=213        1.19       5.9     5.2  7.6  0.1367E+02  0.4379E+01  0.6707E+01E
 Epicentro: LOS SANTOS - SANTANDER                                             3
 ACTION:UPD 17-08-30 15:35 OP:rebc STATUS:               ID:20170723110658 L   I
 OLDACT:REG 17-07-23 20:27 OP:ar   STATUS:               ID:20170723105737     3
 2017-07-23-1058-00M.COL___374                                                 6
 STAT SP IPHASW D HRMM SECON CODA AMPLIT PERI AZIMU VELO AIN AR TRES W  DIS CAZ7
 BAR2 EZ EP       11 7 17.80                             170   -0.2710 23.9 188 
 BAR2 EZ ES       11 7 33.11                             170   -0.5610 23.9 188 
 BAR2 EZ I        11 7 34.11        25.4 0.18            171           23.9 188 
 BRR  HZ EP       11 7 19.76                             153    0.2810 70.0 298 
 BRR  HN ES       11 7 36.98                             153    0.8110 70.0 298 
 BRR  HZ I        11 7 41.87        11.6 0.18            153           70.0 298 
 RUS  HZ EP       11 7 21.91                             144   -0.2610  101 176 
 RUS  HN ES       11 7 40.72                             144   -0.2510  101 176 
 RUS  HZ I        11 7 41.43         9.7 0.22            146            101 176 
 PTB  HZ EP       11 7 24.38                             133   -0.83 9  147 258 
 PTB  HN ES       11 7 45.89                             133   -0.50 9  147 258 
 PTB  HZ I        11 7 47.23         7.7 0.40            134            147 258 
 SPBC HZ EP       11 7 26.78                             130   -0.02 9  163 219 
 SPBC HN ES       11 7 49.35                             130    0.14 9  163 219 
 SPBC HZ I        11 7 51.18        21.1 0.38            131            163 219 
 YPLC HZ EP       11 7 28.15                             127   -0.04 9  178 151 
 YPLC HE ES       11 7 52.52                             127    0.84 9  178 151 
 YPLC HZ I        11 7 56.20         5.1 0.38            129            178 151 
 ZAR  HZ EP   4   11 7 33.83                             123    3.23 0  203 292 
 ZAR  HE ES       11 7 56.17                             123    0.21 9  203 292 
 ZAR  HZ I        11 8  1.24         6.6 0.58            124            203 292 
 NOR  HZ EP       11 7 34.34                             119    0.40 8  234 234 
 NOR  HE ES       11 8  2.33                             119    0.41 8  234 234 
 NOR  HZ I        11 8  5.50         5.1 0.18            120            234 234 
                                                                                
