 2017  123 1042 13.9 L   6.764 -73.180157.5  RSN  5 0.4 1.3LRSN                1
 GAP=231        0.84       7.6     6.8  8.9  0.2686E+02  0.7512E+01  0.1171E+01E
 Epicentro: LOS SANTOS - SANTANDER                                             3
 ACTION:UPD 17-05-22 16:02 OP:jn   STATUS:               ID:20170123104213 L   I
 OLDACT:REG 17-01-23 20:18 OP:dnl  STATUS:               ID:20170123103740     3
 2017-01-23-1038-00M.COL___337                                                 6
 STAT SP IPHASW D HRMM SECON CODA AMPLIT PERI AZIMU VELO AIN AR TRES W  DIS CAZ7
 BAR2 EZ EP       1042 34.71                             173   -0.2010 19.0 181 
 BAR2 EZ ES       1042 50.72                             173   -0.5410 19.0 181 
 BAR2 EZ I        1042 52.48         4.6 0.38            165           19.0 181 
 BRR  HZ EP   2   1042 36.40                             155    0.10 5 69.9 303 
 BRR  HE ES       1042 54.24                             155    0.5010 69.9 303 
 BRR  HZ I        1042 54.47         6.1 0.38            148           69.9 303 
 RUS  HZ EP   2   1042 38.60                             147   -0.02 5 97.0 174 
 RUS  HE ES       1042 58.30                             147    0.4310 97.0 174 
 RUS  HZ I        1042 58.89         1.6 0.20            144           97.0 174 
 PTB  HZ EP   2   1042 41.74                             136    0.24 5  143 260 
 PTB  HN ES       1043  2.68                             136   -0.32 9  143 260 
 PTB  HZ I        1043  9.93         2.3 0.58            130            143 260 
 ZAR  HZ EP   4   1042 50.83                             125    3.85 0  202 294 
 ZAR  HE ES   2   1043 12.79                             125    0.04 4  202 294 
 ZAR  HZ I        1043 18.99         1.5 0.32            122            202 294 
                                                                                
