 2015  423 1737  3.3 L   6.827 -73.120143.1  RSN 15 0.4 2.2LRSN                1
 GAP=138        0.89       2.5     3.7  4.9 -0.1318E+01  0.4417E+01  0.1009E+01E
 Epicentro: LOS SANTOS - SANTANDER                                             3
 ACTION:UPD 15-06-03 16:57 OP:cam  STATUS:               ID:20150423173703 L   I
 OLDACT:DUP 15-04-24 00:37 OP:spq  STATUS:               ID:20150423172752d    3
 2015-04-23-1727-50M.COL___257                                                 6
 STAT SP IPHASW D HRMM SECON CODA AMPLIT PERI AZIMU VELO AIN AR TRES W  DIS CAZ7
 BAR2 EZ EP       1737 22.64                             169   -0.0810 26.8 195 
 BAR2 EZ ES   1   1737 37.35                             169   -0.48 7 26.8 195 
 BAR2 EZ I        1737 39.34        16.9 0.24            167           26.8 195 
 BRR  HZ EP       1737 24.37                             152    0.1110 72.4 295 
 BRR  HN ES       1737 41.06                             152    0.4810 72.4 295 
 BRR  HZ I        1737 44.38        32.3 0.34            148           72.4 295 
 PAM  SZ EP       1737 25.31                             152    0.2910 73.3  39 
 PAM  SN ES       1737 42.17                             152    0.2410 73.3  39 
 PAM  SZ I        1737 44.45        52.1 0.50            155           73.3  39 
 RUS  HZ EP       1737 26.75                             142   -0.2810  103 178 
 RUS  HN ES       1737 45.98                             142    0.4810  103 178 
 RUS  HZ I        1737 47.04        23.0 0.30            144            103 178 
 PTB  HZ EP   1   1737 29.75                             131   -0.65 7  151 258 
 PTB  HN ES   1   1737 50.82                             131   -0.69 7  151 258 
 PTB  HZ I        1737 53.34        18.1 0.16            129            151 258 
 OCA  HZ EP       1737 30.90                             130   -0.29 9  158 352 
 OCA  HN ES       1737 52.31                             130   -0.61 9  158 352 
 OCA  HZ I        1737 56.98        38.2 0.10            130            158 352 
 SPBC HZ EP       1737 31.75                             128   -0.27 9  167 219 
 SPBC HN ES       1737 54.09                             128   -0.31 9  167 219 
 SPBC HZ I        1737 55.95        31.2 0.10            128            167 219 
 ZAR  HZ EP   1   1737 36.67                             122    0.90 6  206 291 
 ZAR  HN ES       1738  1.27                             122    0.20 8  206 291 
 ZAR  HZ I        1738  7.08        19.4 0.32            121            206 291 
 NOR  HZ EP       1737 39.25                             118   -0.10 8  239 234 
 NOR  HN ES       1738  7.82                             118    0.38 8  239 234 
 NOR  HZ I        1738 12.96         9.1 0.42            117            239 234 
 SML  HZ EP   1   1737 39.61                             117   -0.04 6  242 334 
 SML  HN ES   1   1738  7.87                             117   -0.11 6  242 334 
 CHI  HZ EP   1   1737 41.13                             116   -0.15 6  252 196 
 CHI  HN ES   1   1738 10.82                             116   -0.06 6  252 196 
 CHI  HZ I        1738 13.87         6.6 0.27            117            252 196 
 HEL  HN ES   4   1738 17.06                             114    1.69 0  276 255 
 HEL  HZ I        1738 22.24         9.0 0.30            114            276 255 
 GUY2CHZ EP   1   1737 48.00                             112    0.72 5  305 235 
 GUY2CHE ES   4   1738 23.87                             112    2.31 0  305 235 
 GUY2CHZ I        1738 27.11         7.3 0.42                           305 235 
 MON  HZ EP   4   1737 49.97                             108   -2.32 0  354 308 
 MON  HN ES   4   1738 28.46                             108   -2.01 0  354 308 
 MON  HZ I        1738 41.92         2.8 0.38            108            354 308 
 ORTC HZ EP       1737 58.11                             106    0.47 6  400 216 
 ORTC HN ES   4   1738 41.91                             106    1.91 0  400 216 
 ORTC HZ I        1738 46.04         4.6 0.44            106            400 216 
 CRJC HZ EP   4   1738  3.06                             103   -2.33 0  465   3 
                                                                                
