 2012  723 1553  4.4 L   6.733 -73.207152.4  RSN  4 0.2 1.4LRSN                1
 GAP=223        0.50       7.8    12.0  5.7  0.7469E+02  0.6177E+01  0.2989E+01E
 Epicentro: VILLANUEVA - SANTANDER                                             3
 ACTION:UPD 12-08-14 11:44 OP:ep   STATUS:               ID:20120723155304 L   I
 2012-07-23-1550-00M.COL___209                                                 6
 STAT SP IPHASW D HRMM SECON CODA AMPLIT PERI AZIMU VELO AIN AR TRES W  DIS CAZ7
 BAR2 SZ EP   1   1553 24.60                             174    -0.2 7   16 170 
 BAR2 SZ ES   1   1553 40.39                             174    -0.2 7   16 170 
 BAR2 SZ I        1553 41.19         7.3 0.24             61             16 170 
 BRR  HZ EP   1   1553 26.54                             154     0.3 7   69 307 
 BRR  HN ES   1   1553 43.21                             154     0.0 7   69 307 
 RUS  HZ EP   1   1553 28.36                             147     0.0 7   94 172 
 RUS  HN ES   1   1553 47.27                             147     0.2 7   94 172 
 RUS  HZ I        1553 49.19         2.8 0.40             61             94 172 
 PTB  HZ EP   2   1553 30.96                             135    -0.3 5  140 261 
 PTB  HZ I        1553 57.83         3.3 0.24             61            140 261 
