 2014  523 1851 20.9 L   6.818 -73.150143.0  RSN 13 0.5 2.4LRSN                1
 GAP= 70        1.08       3.5     3.5  6.2 -0.2578E+01  0.7060E+01 -0.9893E+00E
 Epicentro: LOS SANTOS - SANTANDER                                             3
 ACTION:UPD 15-03-16 17:00 OP:nd   STATUS:               ID:20140523185120 L   I
 OLDACT:UP  14-05-24 00:25 OP:cam  STATUS:               ID:20140523185000     3
 OLDACT:REG 14-05-23 22:54 OP:cam  STATUS:               ID:20140523185000     3
 2014-05-23-1850-00M.COL___276                                                 6
 STAT SP IPHASW D HRMM SECON CODA AMPLIT PERI AZIMU VELO AIN AR TRES W  DIS CAZ7
 BAR2 SZ EP     D 1851 40.15                             170   -0.1210 25.2 188 
 BAR2 SZ ES       1851 55.09                             170   -0.2610 25.2 188 
 BAR2 SZ I        1851 57.98        69.5 0.50            170           25.2 188 
 BRR  HZ IP     C 1851 41.99                             152    0.2910 69.9 297 
 BRR  HN ES   4   1851 59.50                             152    1.59 0 69.9 297 
 BRR  HZ I        1852  7.04        22.1 0.54            150           69.9 297 
 PAM  SZ IP     C 1851 42.90                             151    0.1310 76.1  41 
 PAM  SN ES       1852  0.26                             151    0.4410 76.1  41 
 PAM  SZ I        1852  2.55        39.0 0.62            155           76.1  41 
 RUS  HZ EP       1851 44.32                             143   -0.2410  103 176 
 RUS  HN ES       1852  3.13                             143    0.1410  103 176 
 RUS  HZ I        1852  3.79        21.9 0.24            148            103 176 
 PTB  HZ EP       1851 47.00                             131   -0.67 9  148 258 
 PTB  HN ES       1852  8.26                             131   -0.27 9  148 258 
 PTB  HZ I        1852 15.45        30.6 0.56            132            148 258 
 TAM  HZ EP       1851 48.29                             130   -0.18 9  156 106 
 TAM  HN ES       1852 10.16                             130    0.20 9  156 106 
 SPBC HZ EP       1851 49.14                             128   -0.20 9  164 218 
 SPBC HN ES       1852 11.26                             128   -0.24 9  164 218 
 ZAR  HZ EP   1   1851 54.35                             122    1.28 6  203 292 
 NOR  HZ EP       1851 56.55                             118   -0.03 8  236 234 
 NOR  HE ES       1852 24.32                             118   -0.08 8  236 234 
 NOR  HZ I        1852 27.56        21.4 0.24            120            236 234 
 SML  HZ EP   1   1851 56.58                             117   -0.60 6  242 335 
 SML  HN ES       1852 25.05                             117   -0.41 8  242 335 
 SML  HZ I        1852 34.25        31.0 0.10            119            242 335 
 CHI  HZ EP   1   1851 58.20                             116   -0.47 6  250 195 
 CHI  HN ES   1   1852 27.75                             116   -0.36 6  250 195 
 CHI  HZ I        1852 35.80         8.2 0.42            120            250 195 
 GUY2CHZ EP       1852  5.21                             112    0.71 7  302 234 
 GUY2CHN ES       1852 39.93                             112    1.44 7  302 234 
 GUY2CHZ I        1852 45.49        12.5 0.28                           302 234 
 RREF HZ EP   4   1852  7.33                             110    0.27 0  323 229 
 RREF HN ES   4   1852 45.10                             110    2.05 0  323 229 
 RREF HZ I        1852 50.91        15.5 0.26            113            323 229 
 SDV  BZ EP   4   1852  9.06                             108   -1.69 0  359  50 
 PRA  HZ EP   4   1852 13.76                             106   -0.77 0  394 209 
                                                                                
