 2016 1123 1140  4.2 L   6.773 -73.114146.0  RSN  6 0.4 1.5LRSN                1
 GAP=257        0.71       4.3     5.4  5.1 -0.3990E+01 -0.2702E+01  0.1052E+02E
 Epicentro: LOS SANTOS - SANTANDER                                             3
 ACTION:UPD 17-10-26 21:10 OP:lp   STATUS:               ID:20161123114004 L   I
 OLDACT:UP  16-11-23 22:21 OP:edw  STATUS:               ID:20161123113748     3
 OLDACT:UP  16-11-23 22:20 OP:edw  STATUS:               ID:20161123113748     3
 OLDACT:UP  16-11-23 22:19 OP:edw  STATUS:               ID:20161123113748     3
 OLDACT:REG 16-11-23 20:05 OP:edw  STATUS:               ID:20161123113748     3
 2016-11-23-1138-00M.COL___355                                                 6
 STAT SP IPHASW D HRMM SECON CODA AMPLIT PERI AZIMU VELO AIN AR TRES W  DIS CAZ7
 BAR2 EZ EP       1140 23.75                             171   -0.1010 21.4 201 
 BAR2 EZ ES       1140 38.86                             171   -0.2910 21.4 201 
 BAR2 EZ I        1140 39.69         6.5 0.30            164           21.4 201 
 BRR  HZ EP       1140 25.41                             151   -0.2510 75.7 299 
 BRR  HN ES       1140 42.82                             151    0.4410 75.7 299 
 PTB  HZ EP   9   1140 30.42                             131   -1.06 0  151 260 
 PTB  HN ES       1140 51.54                             132   -0.13 9  151 260 
 PTB  HZ I        1140 53.37         3.4 0.12            128            151 260 
 NOR  HZ EP       1140 39.84                             118   -0.26 8  236 236 
 NOR  HN ES       1141  7.96                             118   -0.11 8  236 236 
 NOR  HZ I        1141 16.97         2.1 0.16            116            236 236 
 CHI  HZ EP       1140 42.26                             117    0.53 8  247 196 
 CHI  HE ES       1141 11.26                             117    0.28 8  247 196 
 CHI  HZ I        1141 13.49         2.2 0.26            116            247 196 
 PRA  HZ EP       1140 57.75                             106    0.09 6  391 210 
 PRA  HE ES   2   1141 38.34                             106   -1.00 3  391 210 
 PRA  HZ I        1141 45.57         1.5 0.32            106            391 210 
 SJC  HE ES   4   1141 39.61                             105   -4.46 0  414 327 
                                                                                
