 2012  223 1756 43.2 L   6.730 -73.105137.8  RSN 10 0.5 2.0LRSN                1
 GAP=145        0.73       3.8     5.9  6.2 -0.5638E+01  0.6894E+01  0.4704E+01E
 ACTION:UP  12-03-07 16:33 OP:epov STATUS:               ID:20120223175643 L   I
 2012-02-23-1750-00M.COL___193                                                 6
 STAT SP IPHASW D HRMM SECON CODA AMPLIT PERI AZIMU VELO AIN AR TRES W  DIS CAZ7
 BAR2 SZ EP   1   1757  1.68                             172   -0.06 7 17.5 209 
 BAR2 SZ ES   1   1757 15.85                             172   -0.37 7 17.5 209 
 BAR2 SZ I        1757 17.81        29.9 0.23                          17.5 209 
 GIR2 SZ EP   1   1757  1.83                             163   -0.34 7 39.8 346 
 GIR2 SZ ES   2   1757 16.33                             163   -0.66 5 39.8 346 
 BRR  HZ EP   1   1757  4.23                             148    0.28 7 79.0 302 
 BRR  HN ES   2   1757 20.51                             148    0.36 5 79.0 302 
 BRR  HZ I        1757 24.67        22.8 0.28                          79.0 302 
 PAM  SZ EP   1   1757  4.63                             148   -0.14 7 80.9  34 
 PAM  SE ES   2   1757 21.68                             148    0.06 5 80.9  34 
 RUS  HZ EP   1   1757  5.70                             144    0.13 7 92.6 179 
 RUS  HE ES   2   1757 24.39                             144    1.35 5 92.6 179 
 RUS  HZ I        1757 25.53        14.8 0.30                          92.6 179 
 PTB  HZ EP   1   1757  9.20                             129   -0.60 7  151 262 
 PTB  HN ES   2   1757 30.97                             129    0.40 5  151 262 
 OCA  SZ EP   2   1757 11.70                             126    0.02 5  169 352 
 OCA  SZ ES   2   1757 34.98                             126    1.06 5  169 352 
 NOR  SZ EP   2   1757 18.15                             117   -0.23 4  234 237 
 NOR  SN ES   2   1757 45.85                             117    0.00 4  234 237 
 CHI  HZ EP   2   1757 20.21                             116    0.45 4  242 197 
 CHI  HN ES   1   1757 47.92                             116   -0.38 6  242 197 
 CHI  HZ I        1757 53.13         5.4 0.75                           242 197 
 PRA  HZ EP   1   1757 36.32                             105    0.41 4  388 211 
 PRA  HN ES   2   1758 17.13                             105    0.09 3  388 211 
                                                                                
