 2011 1123 1301  7.0 L   6.767 -73.155139.8  RSN 11 0.4 2.5LRSN                1
 GAP=137        0.66       2.9     4.0  5.4 -0.2047E+01  0.9569E+01  0.1300E+01E
 Epicentro: LOS SANTOS - SANTANDER                                             3
 ACTION:UPD 12-07-13 16:11 OP:ep   STATUS:               ID:20111123130107 L   I
 2011-11-23-1258-00S.COL___177                                                 6
 STAT SP IPHASW D HRMM SECON CODA AMPLIT PERI AZIMU VELO AIN AR TRES W  DIS CAZ7
 BAR2 SZ IP       13 1 25.79                             172   -0.0910 19.6 189 
 BAR2 SZ ES   1   13 1 40.18                             172   -0.39 7 19.6 189 
 BAR2 SZ I        13 1 43.20        61.2 0.19                          19.6 189 
 BRR  HZ EP   1   13 1 27.83                             151    0.23 7 72.1 301 
 BRR  HE ES   2   13 1 44.09                             151    0.46 5 72.1 301 
 BRR  HZ I        13 1 46.11        58.4 0.15                          72.1 301 
 PAM  SZ EP       13 1 28.95                             148    0.1110 80.8  38 
 PAM  SZ I        13 1 29.20        22.6 0.16                          80.8  38 
 PAM  SE ES   1   13 1 45.88                             148    0.04 7 80.8  38 
 RUS  HZ EP   1   13 1 29.54                             143   -0.41 7 97.1 175 
 RUS  HZ I        13 1 30.73        41.6 0.16                          97.1 175 
 RUS  HE ES   1   13 1 48.30                             143    0.48 7 97.1 175 
 OCA  SZ EP   2   13 1 35.22                             127    0.00 5  164 354 
 OCA  SZ ES   1   13 1 57.05                             127   -0.16 7  164 354 
 OCA  SZ I        13 2  0.70        41.2 0.45                           164 354 
 ZAR  HZ EP   2   13 1 38.95                             121   -0.20 4  205 293 
 ZAR  HN ES   1   13 2  4.08                             121   -0.11 6  205 293 
 ZAR  HZ I        13 2  9.97        40.2 0.27                           205 293 
 NOR  SZ EP   1   13 1 41.37                             117   -0.74 6  232 235 
 NOR  SE ES   1   13 2  9.23                             117   -0.24 6  232 235 
 HEL  HZ EP   1   13 1 47.29                             114    0.54 6  270 256 
 HEL  HZ I        13 2 24.85        22.0 0.28                           270 256 
 GUY  SZ EP   2   13 1 50.71                             111    0.40 4  301 236 
 GUY  SZ I        13 2 31.16        40.2 0.45                           301 236 
 RREF HZ EP   1   13 1 53.52                             110    0.95 5  319 230 
 RREF HZ I        13 2 36.66        17.4 0.28                           319 230 
 PRA  HZ EP   2   13 1 59.26                             106   -0.67 3  388 210 
 PRA  HE ES   1   13 2 41.07                             106   -0.11 4  388 210 
                                                                                
