 2010  223 1814  6.5 L   6.781 -73.146141.2  RSN  9 0.4 1.9LRSN                1
 GAP=183        0.59       4.1     6.5  6.4  0.5245E+00  0.1290E+02  0.1080E+02E
 Epicentro: LOS SANTOS - SANTANDER                                             3
 ACTION:UP  10-08-24 09:50 OP:vdl  STATUS:               ID:20100223181406 L   I
 2010-02-23-1812-57S.COL___094                                                 6
 STAT SP IPHASW D HRMM SECON CODA AMPLIT PERI AZIMU VELO SNR AR TRES W  DIS CAZ7
 BAR2 SZ IP       1814 25.66                             171     0.110   21 191 
 BAR2 SZ ES   2   1814 39.96                             171    -0.4 5   21 191 
 GIR2 SZ EP       1814 25.75                             166     0.110   33 351 
 GIR2 SZ ES   3   1814 41.20                             166     0.6 2   33 351 
 BRR  HZ EP       1814 27.50                             151     0.310   72 300 
 BRR  HE ES   2   1814 42.76                             151    -0.6 5   72 300 
 BRR  HZ I        1814 46.81        16.1 0.20                            72 300 
 RUS  BZ IP       1814 29.58                             143    -0.110   99 176 
 RUS  BN ES   2   1814 47.66                             143     0.0 5   99 176 
 RUS  BZ I        1814 49.60         8.9 0.35                            99 176 
 OCA  SZ EP   3   1814 34.88                             128     0.3 2  162 353 
 OCA  SZ ES   3   1814 54.79                             128    -1.8 2  162 353 
 OCA  SZ I        1814 59.52        21.6 0.09                           162 353 
 CHI  HZ EP       1814 43.64                             116    -0.1 8  247 195 
 CHI  HE ES   3   1815 11.98                             116    -0.8 2  247 195 
 CHI  HZ I        1815 18.87         3.7 0.39                           247 195 
 RREF BE ES   2   1815 28.49                             110     0.5 3  320 230 
 TOL  SZ EP       1814 53.92                             108    -0.5 7  342 225 
 TOL  SZ ES   3   1815 32.36                             108     0.6 2  342 225 
 ANIL BZ EP   2   1814 56.00                             107     0.1 3  356 225 
 ANIL BN ES   2   1815 34.67                             107     0.2 3  356 225 
                                                                                
