 2015  623 1022  5.1 L   6.854 -73.068149.8  RSN  7 0.4 1.8LRSN                1
 GAP=231        1.01       4.3     7.4  6.4  0.2491E+01  0.1274E+02  0.9205E+00E
 Epicentro: LOS SANTOS - SANTANDER                                             3
 ACTION:UPD 15-09-10 22:14 OP:cam  STATUS:               ID:20150623102205 L   I
 OLDACT:REG 15-06-23 20:19 OP:drio STATUS:               ID:20150623101745     3
 2015-06-23-1017-45M.COL___307                                                 6
 STAT SP IPHASW D HRMM SECON CODA AMPLIT PERI AZIMU VELO AIN AR TRES W  DIS CAZ7
 BAR2 EZ EP       1022 25.21                             168   -0.2010 31.6 204 
 BAR2 EZ ES       1022 40.78                             168   -0.4610 31.6 204 
 BAR2 EZ I        1022 42.76         6.2 0.38            168           31.6 204 
 BRR  HZ EP       1022 27.24                             151    0.2610 76.4 291 
 BRR  HN ES       1022 44.77                             151    0.7210 76.4 291 
 ZAR  HZ EP       1022 37.99                             122   -0.42 8  210 290 
 ZAR  HN ES       1023  3.63                             122   -0.76 8  210 290 
 ZAR  HZ I        1023  9.66         4.7 0.16            122            210 290 
 SML  HZ EP       1022 42.32                             118    0.54 8  242 333 
 SML  HN ES       1023 10.40                             118    0.01 8  242 333 
 SML  HZ I        1023 14.92         8.1 0.10            119            242 333 
 GUY2CHZ EP       1022 50.43                             112    0.35 7  312 235 
 GUY2CHN ES       1023 25.52                             112    0.36 7  312 235 
 GUY2CHZ I        1023 30.17         3.0 0.26                           312 235 
 MON  HZ EP       1022 54.24                             109   -0.38 6  357 307 
 MON  HN ES   4   1023 31.84                             109   -1.41 0  357 307 
 PRA  HZ EP       1022 59.60                             107   -0.27 6  401 210 
 PRA  HN ES       1023 42.79                             107    0.20 6  401 210 
                                                                                
