 2017 1023 1053 40.8 L   6.793 -73.042147.6  RSN  6 0.3 1.5LRSN                1
 GAP=247        0.80       5.4     6.2  7.1 -0.6427E+01  0.6154E+01  0.8658E+01E
 Epicentro: LOS SANTOS - SANTANDER                                             3
 ACTION:UPD 17-11-07 19:35 OP:rebc STATUS:               ID:20171023105340 L   I
 OLDACT:REG 17-10-23 20:25 OP:dani STATUS:               ID:20171023104315     3
 2017-10-23-1048-00M.COL___389                                                 6
 STAT SP IPHASW D HRMM SECON CODA AMPLIT PERI AZIMU VELO AIN AR TRES W  DIS CAZ7
 BAR2 EZ EP       1054  0.91                             169    0.2210 27.1 215 
 BAR2 EZ ES       1054 16.32                             169    0.0810 27.1 215 
 BAR2 EZ I        1054 18.66         6.5 0.30            167           27.1 215 
 BRR  HZ EP       1054  2.70                             149   -0.0210 81.7 295 
 BRR  HE ES       1054 19.80                             149   -0.0610 81.7 295 
 BRR  HZ I        1054 22.26         6.9 0.18            151           81.7 295 
 RUS  HN ES   2   1054 23.41                             144    0.16 5 99.7 183 
 PTB  HE ES   1   1054 30.69                             130   -0.14 7  159 260 
 SPBC HZ EP       1054  9.78                             128   -0.27 9  170 222 
 SPBC HN ES       1054 32.33                             128   -0.57 9  170 222 
 SPBC HZ I        1054 38.22         3.5 0.21            129            170 222 
 SPBC HZ E        1054 50.87                                            170 222 
 NOR  HN ES       1054 47.03                             118    0.77 8  244 236 
                                                                                
