 2015  823 1253 23.0 L   6.804 -73.123149.2  RSN 11 0.4 2.0LRSN                1
 GAP=139        0.86       2.6     3.9  5.8 -0.6662E+00  0.5685E+01  0.1628E+01E
 Epicentro: LOS SANTOS - SANTANDER                                             3
 ACTION:UPD 15-09-15 23:04 OP:cam  STATUS:               ID:20150823125323 L   I
 OLDACT:REG 15-08-23 20:20 OP:spq  STATUS:               ID:20150823124750     3
 2015-08-23-1247-50M.COL___343                                                 6
 STAT SP IPHASW D HRMM SECON CODA AMPLIT PERI AZIMU VELO AIN AR TRES W  DIS CAZ7
 BAR2 EZ EP     D 1253 43.06                             170    0.0210 24.3 196 
 BAR2 EZ ES   1   1253 58.16                             170   -0.53 7 24.3 196 
 BAR2 EZ I        1253 59.24        30.8 0.26            171           24.3 196 
 BRR  HZ EP       1253 44.93                             152    0.3110 73.2 297 
 BRR  HN ES       1254  1.96                             152    0.4710 73.2 297 
 BRR  HZ I        1254  7.24        14.1 0.14            150           73.2 297 
 PAM  EZ EP       1253 45.99                             152    0.5410 75.5  38 
 PAM  EN ES       1254  3.19                             152    0.2110 75.5  38 
 PAM  EZ I        1254  5.80        10.3 0.61            154           75.5  38 
 RUS  HZ EP       1253 47.15                             144    0.0610  101 177 
 RUS  HE ES       1254  5.66                             144   -0.2410  101 177 
 RUS  HZ I        1254  6.61        11.0 0.22            148            101 177 
 OCA  HN ES       1254 13.03                             130   -0.80 9  160 352 
 OCA  HZ I        1254 16.54        24.2 0.30            131            160 352 
 SPBC HZ EP       1253 51.87                             129   -0.06 9  165 220 
 SPBC HN ES       1254 14.34                             129   -0.16 9  165 220 
 SPBC HZ I        1254 15.27        18.9 0.26            131            165 220 
 ZAR  HN ES       1254 21.56                             123    0.03 8  206 292 
 ZAR  HZ I        1254 26.93        15.3 0.12            123            206 292 
 SML  HZ EP   1   1253 59.06                             118   -0.82 6  244 335 
 SML  HE ES   1   1254 28.72                             118    0.07 6  244 335 
 SML  HZ I        1254 31.75         9.0 0.10            119            244 335 
 CHI  HZ EP   1   1254  1.08                             118    0.09 6  250 196 
 CHI  HE ES   1   1254 30.31                             118   -0.32 6  250 196 
 HEL  HZ EP   4   1254  5.34                             115    1.69 0  275 256 
 HEL  HN ES   1   1254 35.47                             115    0.10 6  275 256 
 HEL  HZ I        1254 39.86         3.4 0.34            116            275 256 
 GUY2CHN ES   1   1254 41.62                             113    0.27 5  303 235 
 GUY2CHZ I        1254 47.19         4.0 0.22                           303 235 
                                                                                
