 2014  823 1211 24.9 L   6.813 -73.178144.6  RSN 12 0.4 1.9LRSN                1
 GAP=132        0.91       2.6     3.6  4.6 -0.4742E+00  0.4592E+01  0.4555E-01E
 Epicentro: ZAPATOCA - SANTANDER                                               3
 ACTION:UPD 14-09-15 21:52 OP:nd   STATUS:               ID:20140823121124 L   I
 OLDACT:UP  14-08-23 22:05 OP:cam  STATUS:               ID:20140823121000     3
 OLDACT:REG 14-08-23 20:45 OP:cam  STATUS:               ID:20140823121000     3
 2014-08-23-1210-00M.COL___285                                                 6
 STAT SP IPHASW D HRMM SECON CODA AMPLIT PERI AZIMU VELO AIN AR TRES W  DIS CAZ7
 BAR2 SZ EP     D 1211 44.46                             170    0.0610 24.4 181 
 BAR2 SZ ES       1211 59.47                             170   -0.1410 24.4 181 
 BAR2 SZ I        1212  2.14        15.4 0.32            170           24.4 181 
 BRR  HZ EP     C 1211 46.29                             154    0.6010 67.4 299 
 BRR  HN ES       1212  2.32                             154    0.4010 67.4 299 
 BRR  HN I        1212  4.52        42.7 0.20            152           67.4 299 
 PAM  SZ EP     C 1211 47.21                             150    0.1610 78.7  42 
 PAM  SN ES       1212  4.02                             150   -0.3210 78.7  42 
 PAM  SZ I        1212  6.62         6.3 0.50            154           78.7  42 
 RUS  HZ EP     C 1211 48.82                             143    0.1710  102 174 
 RUS  HE ES       1212  6.80                             143   -0.3810  102 174 
 RUS  HZ I        1212  7.92         4.7 0.30            145            102 174 
 PTB  HZ EP       1211 51.13                             132   -0.33 9  145 258 
 PTB  HN ES       1212 11.96                             132   -0.23 9  145 258 
 PTB  HZ I        1212 19.62        13.3 0.60            132            145 258 
 SPBC HZ EP       1211 53.23                             129    0.04 9  162 218 
 SPBC HN ES       1212 15.18                             129   -0.08 9  162 218 
 SPBC HZ I        1212 17.16        10.0 0.20            130            162 218 
 ZAR  HZ EP       1211 56.97                             123    0.12 9  200 292 
 ZAR  HN ES       1212 22.00                             123    0.21 9  200 292 
 ZAR  HZ I        1212 28.73        12.8 0.52            123            200 292 
 NOR  HZ EP       1212  0.65                             118    0.33 8  233 234 
 NOR  HE ES       1212 27.17                             118   -0.79 8  233 234 
 NOR  HZ I        1212 30.60         5.3 0.28            119            233 234 
 SML  HZ EP       1212  0.59                             117   -0.55 8  241 336 
 SML  HE ES       1212 29.61                             117    0.19 8  241 336 
 SML  HZ I        1212 35.95        11.1 0.26            119            241 336 
 CHI  HZ EP       1212  2.50                             117   -0.07 8  249 194 
 CHI  HE ES       1212 32.62                             117    0.66 8  249 194 
 CHI  HZ I        1212 41.43         3.3 0.40            118            249 194 
 GUY2CHZ EP       1212  8.63                             112    0.43 7  299 234 
 SJC  HZ EP       1212 19.06                             106   -0.98 6  406 327 
                                                                                
