 2011  523 1341 15.5 L   6.770 -73.115138.0  RSN 13 0.3 2.4LRSN                1
 GAP=142        0.58       2.5     3.5  3.4 -0.4685E+01  0.2690E+01 -0.6192E-01E
 Epicentro: LOS SANTOS - SANTANDER                                             3
 ACTION:UP  11-06-29 08:55 OP:tino STATUS:               ID:20110523134115 L   I
 2011-05-23-1338-17S.COL___141                                                 6
 STAT SP IPHASW D HRMM SECON CODA AMPLIT PERI AZIMU VELO SNR AR TRES W  DIS CAZ7
 BAR2 SZ EP       1341 34.11                             171     0.010   21 201 
 BAR2 SZ ES       1341 48.64                             171     0.010   21 201 
 BAR2 SZ I        1341 50.83        53.1 0.28                            21 201 
 BTL  SZ EP       1341 34.41                             170     0.210   24 314 
 GIR2 SZ EP   2   1341 34.01                             165    -0.3 5   35 346 
 GIR2 SZ ES   1   1341 49.35                             165     0.3 7   35 346 
 BRR  HZ EP       1341 35.93                             150    -0.210   76 300 
 BRR  HN ES   1   1341 52.52                             150     0.4 7   76 300 
 BRR  HZ I        1341 53.97        55.8 0.11                            76 300 
 PAM  SZ EP       1341 37.02                             149     0.110   78  36 
 PAM  SE ES   1   1341 53.17                             149    -0.5 7   78  36 
 RUS  HZ EP   1   1341 38.43                             143     0.2 7   97 178 
 RUS  HN ES   1   1341 55.81                             143    -0.1 7   97 178 
 RUS  HZ I        1341 57.71        33.9 0.23                            97 178 
 BRI  SZ EP       1341 38.76                             139     0.010  110  19 
 BRI  SZ ES   2   1341 56.93                             139    -0.1 5  110  19 
 GRA  SZ IP       1341 40.13                             135    -0.110  128  16 
 GRA  SZ ES       1341 59.78                             135     0.210  128  16 
 GRA  SZ I        1342  1.51        41.9 0.37                           128  16 
 OCA  SZ EP   1   1341 43.21                             127    -0.4 7  164 352 
 OCA  SZ I        1342  8.66        46.4 0.30                           164 352 
 NOR  SZ EP   2   1341 50.78                             117    -0.1 4  236 236 
 NOR  SN ES   1   1342 18.31                             117    -0.2 6  236 236 
 HEL  HZ EP   1   1341 55.86                             113     0.3 6  275 257 
 HEL  HN ES   1   1342 26.28                             113    -0.6 6  275 257 
 HEL  HZ I        1342 34.73        13.0 0.38                           275 257 
 TOL  SZ EP   1   1342  4.10                             108     0.7 5  344 225 
 PRA  HZ EP   1   1342  8.45                             105    -0.2 4  391 210 
 PRA  HN ES   1   1342 50.23                             105     0.2 4  391 210 
                                                                                
