 2013  623 1210 39.6 L   6.807 -73.134149.7  RSN  7 0.3 1.9LRSN                1
 GAP=189        0.75       4.3     4.8  5.8  0.2445E+01  0.7940E+00 -0.1161E+01E
 Epicentro: LOS SANTOS - SANTANDER                                             3
 ACTION:UPD 14-01-08 09:56 OP:ep   STATUS:               ID:20130623121039 L   I
 OLDACT:REG 13-06-23 15:25 OP:cam  STATUS:               ID:20130623120959     3
 2013-06-23-1209-59M.COL___267                                                 6
 STAT SP IPHASW D HRMM SECON CODA AMPLIT PERI AZIMU VELO AIN AR TRES W  DIS CAZ7
 BAR2 SZ EP   1   1210 59.69                             171   -0.04 7 24.4 193 
 BAR2 SZ ES   1   1211 15.29                             171   -0.13 7 24.4 193 
 BAR2 SZ I        1211 16.61        13.0 0.26            169           24.4 193 
 GIR2 SZ EP   1   1210 59.94                             168    0.21 7 30.8 348 
 BRR  HZ EP       1211  1.13                             153   -0.0910 72.0 297 
 BRR  HN ES       1211 18.55                             153    0.4610 72.0 297 
 BRR  HZ I        1211 22.90        13.9 0.42            149           72.0 297 
 RUS  HZ EP       1211  4.23                             144    0.4410  101 177 
 RUS  HN ES   1   1211 22.08                             144   -0.58 7  101 177 
 RUS  HZ I        1211 23.42         6.7 0.36            148            101 177 
 PTB  HZ EP       1211  6.75                             133   -0.27 9  149 259 
 PTB  HN ES       1211 28.06                             133   -0.35 9  149 259 
 PTB  HZ I        1211 35.41         9.2 0.26            131            149 259 
 NOR  HZ EP   1   1211 16.06                             119    0.33 6  236 234 
 NOR  HN ES   1   1211 44.18                             119    0.28 6  236 234 
 NOR  HZ I        1211 47.56         6.3 0.24            120            236 234 
 SML  HZ EP   1   1211 16.00                             118   -0.43 6  244 335 
 SML  HN ES   2   1211 44.95                             118   -0.21 4  244 335 
 SML  HZ I        1211 51.00        22.1 0.24            119            244 335 
                                                                                
