 2011  323 1734 23.2 L   6.808 -73.153141.8  RSN 14 0.5 2.8LRSN                1
 GAP=135        1.04       3.5     5.5  7.3 -0.3033E+01  0.9070E+01  0.6118E+01E
 Epicentro: LOS SANTOS - SANTANDER                                             3
 ACTION:UP  11-06-16 14:35 OP:jfem STATUS:               ID:20110323173423 L   I
 2011-03-23-1732-40S.COL___139                                                 6
 STAT SP IPHASW D HRMM SECON CODA AMPLIT PERI AZIMU VELO SNR AR TRES W  DIS CAZ7
 BTL  SZ EP   1   1734 43.33                             173     1.0 7   18 314 
 BAR2 SZ IP       1734 42.31                             170    -0.110   24 188 
 BAR2 SZ ES   1   1734 57.39                             170     0.0 7   24 188 
 BAR2 SZ I        1735  2.98        83.2 0.18                            24 188 
 BRR  HZ EP       1734 44.08                             152     0.210   70 298 
 BRR  HN ES   1   1734 59.87                             152    -0.1 7   70 298 
 BRR  HZ I        1735  4.43       107.1 0.09                            70 298 
 GRA  SZ IP       1734 48.00                             136    -0.110  125  18 
 GRA  SZ ES   1   1735  7.07                             136    -0.4 7  125  18 
 GRA  SZ I        1735 10.44        76.3 0.44                           125  18 
 OCA  SZ EP       1734 50.63                             129    -0.5 9  159 353 
 OCA  SZ ES   1   1735 13.08                             129     0.2 7  159 353 
 OCA  SZ I        1735 17.20       119.2 0.25                           159 353 
 YOP  SZ EP   1   1734 53.17                             125     0.0 7  180 153 
 YOP  SN ES   1   1735 16.70                             125     0.3 7  180 153 
 YOP  SZ I        1735 18.06        58.1 0.37                           180 153 
 NOR  SZ EP   1   1734 58.42                             118    -0.3 6  235 234 
 NOR  SN ES   1   1735 25.80                             118    -0.6 6  235 234 
 CHI  HZ EP   1   1735  0.71                             116    -0.1 6  249 195 
 CHI  HN ES   1   1735 30.42                             116     0.3 6  249 195 
 CHI  HZ I        1735 38.02        26.1 0.46                           249 195 
 HEL  HZ EP   1   1735  3.66                             114     0.5 6  271 256 
 HEL  HN ES   1   1735 34.45                             114     0.1 6  271 256 
 HEL  HZ I        1735 40.70        55.8 0.33                           271 256 
 VIL  SE ES   1   1735 38.96                             111    -1.4 5  304 191 
 VIL  SZ I        1735 47.29        23.5 0.40                           304 191 
 RREF HZ EP   1   1735  9.53                             110     0.3 5  322 229 
 RREF HZ I        1735 53.03        38.6 0.24                           322 229 
 DBB  SZ EP       1735 10.52                             109     0.1 7  339 274 
 TOL  SZ EP   1   1735 12.27                             109     0.9 5  344 224 
 PRA  HZ EP   1   1735 15.80                             106    -0.9 4  392 209 
 PRA  HE ES   1   1735 59.16                             106     0.8 4  392 209 
                                                                                
