 2014 1123 1909 55.4 L   6.102 -73.709110.6  RSN 10 0.5 1.6LRSN                1
 GAP=111        1.30       4.6     4.8  9.1 -0.9056E+01  0.1609E+02 -0.3428E+01E
 Epicentro: CHIPATA - SANTANDER                                                3
 ACTION:UPD 14-12-19 15:46 OP:nd   STATUS:               ID:20141123190955 L   I
 OLDACT:REG 14-11-23 20:33 OP:fm   STATUS:               ID:20141123190747     3
 2014-11-23-1907-47M.COL___300                                                 6
 STAT SP IPHASW D HRMM SECON CODA AMPLIT PERI AZIMU VELO AIN AR TRES W  DIS CAZ7
 SPBC HZ EP       1910 12.26                             148   -0.2410 64.0 219 
 SPBC HN ES       1910 25.22                             148   -0.6310 64.0 219 
 SPBC HZ I        1910 27.80        10.3 0.26            132           64.0 219 
 RUS  HZ EP       1910 13.24                             144   -0.4410 73.0 108 
 RUS  HZ I        1910 29.05         4.3 0.18            123           73.0 108 
 BAR2 SZ EP       1910 14.17                             142    0.3710 79.5  47 
 BAR2 SZ ES       1910 28.64                             142    0.4610 79.5  47 
 BAR2 SZ I        1910 30.07         9.7 0.30            123           79.5  47 
 PTB  HZ EP       1910 13.93                             136   -0.8710 95.8 300 
 PTB  HZ I        1910 32.67         5.9 0.38            123           95.8 300 
 BRR  HZ EP       1910 16.11                             131   -0.0310  111 360 
 BRR  HE ES       1910 32.99                             131    0.6610  111 360 
 BRR  HZ I        1910 37.77         9.9 0.32            116            111 360 
 NOR  HZ EP       1910 19.13                             124   -0.03 9  142 245 
 NOR  HE ES       1910 37.93                             124    0.21 9  142 245 
 NOR  HZ I        1910 39.56         7.0 0.58            110            142 245 
 ZAR  HZ EP       1910 24.49                             114   -0.80 9  199 320 
 ZAR  HN ES       1910 48.06                             114   -0.56 9  199 320 
 ZAR  HZ I        1910 53.79         6.8 0.20            103            199 320 
 HEL  HZ EP       1910 26.75                             114    0.75 9  202 273 
 HEL  HE ES       1910 50.01                             114    0.12 9  202 273 
 HEL  HZ I        1910 53.81         4.1 0.32            103            202 273 
 GUY2CHZ EP       1910 26.99                             113    0.19 8  208 242 
 GUY2CHN ES       1910 52.06                             113    0.76 8  208 242 
 GUY2CHZ I        1910 57.23         3.9 0.74                           208 242 
 RREF HZ EP       1910 29.36                             111    0.40 8  225 234 
 RREF HZ I        1911  0.61         2.2 0.60            101            225 234 
                                                                                
