 2013 1223 1806  2.9 L   6.788 -73.184144.0  RSN  6 0.5 1.4LRSN                1
 GAP=132        1.13       6.8     6.3  9.3 -0.1210E+02  0.9726E+01 -0.6509E+01E
 Epicentro: LOS SANTOS - SANTANDER                                             3
 ACTION:UPD 14-01-13 10:20 OP:ep   STATUS:               ID:20131223180602 L   I
 OLDACT:REG 13-12-23 15:40 OP:jn   STATUS:               ID:20131223180000     3
 2013-12-23-1800-00M.COL___285                                                 6
 STAT SP IPHASW D HRMM SECON CODA AMPLIT PERI AZIMU VELO AIN AR TRES W  DIS CAZ7
 BAR2 SZ EP       18 6 22.31                             171    0.0510 21.6 180 
 BAR2 SZ ES       18 6 37.76                             171    0.3810 21.6 180 
 BAR2 SZ I        18 6 42.50         7.1 0.40            144           21.6 180 
 BRR  HZ EP       18 6 24.32                             153    0.6610 68.2 301 
 BRR  HN ES   2   18 6 40.77                             153    0.89 5 68.2 301 
 BRR  HZ I        18 6 45.87         4.7 0.12            143           68.2 301 
 PAM  SZ EP       18 6 25.23                             149    0.1010 81.2  41 
 PAM  SE ES   1   18 6 41.61                             149   -0.88 7 81.2  41 
 PAM  SZ I        18 6 42.76         4.2 0.30            173           81.2  41 
 RUS  HZ EP       18 6 26.31                             144   -0.0710 99.6 174 
 RUS  HN ES   1   18 6 44.27                             144   -0.44 7 99.6 174 
 RUS  HZ I        18 6 45.83         3.1 0.32            130           99.6 174 
 PTB  HZ EP       18 6 29.11                             132   -0.19 9  143 259 
 PTB  HN ES       18 6 49.17                             132   -0.74 9  143 259 
 PTB  HZ I        18 6 54.04         3.5 0.16            124            143 259 
 SPBC HE ES   1   18 6 53.18                             129    0.45 7  159 218 
 SPBC HZ I        18 8  2.49         6.1 0.34            120            159 218 
                                                                                
