 2015 1123 1223 15.6 L   6.772 -73.131144.9  RSN  5 0.4 1.7LRSN                1
 GAP=244        0.91       5.4     5.8  7.8  0.5213E+01  0.1838E+02 -0.6944E+01E
 Epicentro: LOS SANTOS - SANTANDER                                             3
 ACTION:UPD 15-12-28 16:13 OP:cam  STATUS:               ID:20151123122315 L   I
 OLDACT:REG 15-11-23 21:04 OP:ak   STATUS:               ID:20151123121749     3
 2015-11-23-1217-49M.COL___208                                                 6
 STAT SP IPHASW D HRMM SECON CODA AMPLIT PERI AZIMU VELO AIN AR TRES W  DIS CAZ7
 BAR2 EZ EP       1223 34.60                             172   -0.4710 20.7 196 
 BAR2 EZ ES       1223 50.47                             172    0.2110 20.7 196 
 BAR2 EZ I        1223 52.15         7.0 0.22            171           20.7 196 
 RUS  HZ EP       1223 39.14                             145    0.1110 97.4 177 
 RUS  HN ES       1223 57.42                             145    0.1110 97.4 177 
 RUS  HZ I        1223 58.90         6.3 0.32            148           97.4 177 
 SPBC HN ES       1224  5.62                             129   -0.36 9  162 220 
 ZAR  HZ EP       1223 48.95                             122    0.68 8  207 293 
 ZAR  HN ES       1224 13.41                             122   -0.34 8  207 293 
 ZAR  HZ I        1224 20.17                             123            207 293 
 NOR  HZ EP       1223 50.90                             118   -0.33 8  234 235 
 NOR  HN ES       1224 19.48                             118    0.46 8  234 235 
 NOR  HZ I        1224 21.99         6.0 0.18            120            234 235 
                                                                                
