 2012  723 1923 59.5 L   6.808 -73.130144.1  RSN 10 0.4 2.5LRSN                1
 GAP= 72        1.00       4.7     4.1  6.6  0.5165E+00  0.5073E+01  0.1374E+00E
 Epicentro: LOS SANTOS - SANTANDER                                             3
 ACTION:UPD 12-08-14 11:45 OP:ep   STATUS:               ID:20120723192359 L   I
 2012-07-23-1920-00M.COL___209                                                 6
 STAT SP IPHASW D HRMM SECON CODA AMPLIT PERI AZIMU VELO AIN AR TRES W  DIS CAZ7
 BAR2 SZ EP       1924 19.11                             170     0.110   25 194 
 BAR2 SZ ES   1   1924 34.16                             170     0.0 7   25 194 
 BAR2 SZ I        1924 35.44        58.1 0.25            170             25 194 
 BRR  HZ EP       1924 21.07                             152     0.510   72 297 
 BRR  HN ES   1   1924 37.46                             152     0.5 7   72 297 
 BRR  HZ I        1924 42.36        63.7 0.17            149             72 297 
 PAM  SZ EP       1924 21.95                             151     0.510   76  39 
 PAM  SN ES   1   1924 38.32                             151    -0.2 7   76  39 
 RUS  HZ EP       1924 23.00                             143    -0.210  101 177 
 RUS  HN ES   1   1924 41.51                             143    -0.1 7  101 177 
 RUS  HZ I        1924 42.57        23.8 0.22            147            101 177 
 PTB  HZ EP       1924 25.92                             131    -0.6 9  150 259 
 PTB  HN ES   1   1924 46.89                             131    -0.7 7  150 259 
 PTB  HZ I        1924 50.93        28.3 0.27            131            150 259 
 TAM  HZ EP       1924 26.83                             130    -0.1 9  154 105 
 OCA  HZ EP   1   1924 27.30                             129    -0.3 7  160 352 
 OCA  HN ES   1   1924 49.09                             129    -0.5 7  160 352 
 OCA  HZ I        1924 53.73       110.9 0.26            130            160 352 
 ZAR  HZ EP       1924 31.86                             122    -0.1 8  205 292 
 ZAR  HN ES   1   1924 57.24                             122    -0.1 6  205 292 
 ZAR  HZ I        1925  4.17        30.0 0.37            122            205 292 
 HEL  HZ EP   1   1924 40.63                             114     0.8 6  274 256 
 HEL  HN ES   1   1925 11.78                             114     0.5 6  274 256 
 HEL  HZ I        1925 17.92        23.5 0.34            115            274 256 
 DBB  SZ EP       1924 47.09                             109     0.0 7  341 274 
