 2017  623 1211 40.0 L   6.770 -73.142155.0  RSN  5 0.5 1.5LRSN                1
 GAP=252        0.92       9.7     6.9  9.3  0.2166E+02  0.1730E+02 -0.3127E-01E
 Epicentro: LOS SANTOS - SANTANDER                                             3
 ACTION:UPD 17-09-14 16:54 OP:jn   STATUS:               ID:20170623121140 L   I
 OLDACT:REG 17-06-23 21:13 OP:ar   STATUS:               ID:20170623120729     3
 2017-06-23-1208-00M.COL___359                                                 6
 STAT SP IPHASW D HRMM SECON CODA AMPLIT PERI AZIMU VELO AIN AR TRES W  DIS CAZ7
 BAR2 EZ EP       1212  0.64                             173   -0.0710 20.2 193 
 BAR2 EZ ES       1212 16.77                             173   -0.0810 20.2 193 
 BRR  HZ EP   2   1212  2.27                             153   -0.02 5 73.2 301 
 BRR  HN ES   2   1212 20.46                             153    0.81 5 73.2 301 
 PTB  HZ EP       1212  7.80                             134    0.06 9  148 260 
 PTB  HN ES       1212 28.59                             134   -0.77 9  148 260 
 PTB  HZ I        1212 35.71         2.3 0.34            131            148 260 
 SPBC HZ EP   2   1212  9.52                             132    0.48 5  161 220 
 SPBC HN ES   2   1212 32.68                             132    1.01 5  161 220 
 ZAR  HZ EP   4   1212 17.25                             124    4.00 0  206 293 
 ZAR  HE ES       1212 39.53                             124    0.36 8  206 293 
 ZAR  HZ I        1212 45.68         3.9 0.34            122            206 293 
                                                                                
