 2011  423 1726 25.8 L   6.816 -73.144152.0  RSN  6 0.1 1.6LRSN                1
 GAP=159        0.37       4.1     4.0  8.1 -0.7378E+01  0.1761E+02 -0.1960E+02E
 Epicentro: LOS SANTOS - SANTANDER                                             3
 ACTION:UP  11-06-22 15:32 OP:REBC STATUS:               ID:20110423172625 L   I
 2011-04-23-1723-23S.COL___139                                                 6
 STAT SP IPHASW D HRMM SECON CODA AMPLIT PERI AZIMU VELO SNR AR TRES W  DIS CAZ7
 BTL  SZ EP   1   1726 46.27                             173     0.2 7   18 310 
 BAR2 SZ EP   1   1726 46.12                             170    -0.1 7   25 190 
 BAR2 SZ I        1727  3.90        15.3 0.30                            25 190 
 RUS  HZ EP   1   1726 50.21                             145    -0.1 7  102 176 
 RUS  HN ES   1   1727  9.48                             145     0.1 7  102 176 
 RUS  HZ I        1727 10.80         6.4 0.37                           102 176 
 GRA  SZ EP   1   1726 51.48                             139     0.0 7  124  18 
 GRA  SZ I        1726 53.00         8.4 0.25                           124  18 
 NOR  SZ EP   1   1727  2.18                             120     0.1 6  236 234 
 NOR  SZ I        1727 36.29         0.5 0.18                           236 234 
 HEL  HN ES   1   1727 38.02                             116    -0.1 6  273 255 
 HEL  HZ I        1727 45.42         5.0 0.32                           273 255 
                                                                                
