 2015 1023 1058 34.2 L   6.800 -73.152146.0  RSN 20 0.4 2.7LRSN                1
 GAP=136        1.00       2.5     3.8  4.9 -0.1825E+01  0.7322E+01  0.7230E+00E
 Epicentro: LOS SANTOS - SANTANDER                                             3
 ACTION:UPD 15-12-22 20:42 OP:cam  STATUS:               ID:20151023105834 L   I
 OLDACT:REG 15-10-23 20:29 OP:drio STATUS:               ID:20151023105749     3
 2015-10-23-1057-49M.COL___307                                                 6
 STAT SP IPHASW D HRMM SECON CODA AMPLIT PERI AZIMU VELO AIN AR TRES W  DIS CAZ7
 BAR2 EZ EP       1058 53.74                             171   -0.0710 23.2 188 
 BAR2 EZ ES       1059  9.29                             171    0.1510 23.2 188 
 BAR2 EZ I        1059 10.03        71.1 0.32            168           23.2 188 
 BRR  HZ IP     C 1058 55.75                             153    0.4510 70.6 299 
 BRR  HN ES       1059 12.51                             153    0.7210 70.6 299 
 BRR  HZ I        1059 18.47        76.2 0.12            148           70.6 299 
 PAM  EZ EP     D 1058 56.66                             151    0.2310 77.9  40 
 PAM  EN ES       1059 14.05                             151    0.2510 77.9  40 
 PAM  EZ I        1059 16.30       112.6 0.60            156           77.9  40 
 RUS  HZ EP       1058 57.72                             144   -0.2110  101 176 
 RUS  HE ES       1059 16.16                             144   -0.3210  101 176 
 RUS  HZ I        1059 18.74        52.8 0.58            147            101 176 
 OCA  HZ EP       1059  2.37                             130   -0.12 9  160 353 
 OCA  HN ES       1059 23.92                             130   -0.66 9  160 353 
 OCA  HZ I        1059 32.94       103.0 0.34            131            160 353 
 SPBC HZ EP       1059  2.66                             129    0.03 9  163 219 
 SPBC HN ES       1059 24.77                             129   -0.07 9  163 219 
 SPBC HZ I        1059 27.29        83.1 0.42            129            163 219 
 ZAR  HZ EP       1059  6.67                             123    0.11 9  203 292 
 ZAR  HE ES       1059 32.01                             123    0.18 9  203 292 
 ZAR  HZ I        1059 39.60        57.4 0.18            122            203 292 
 NOR  HZ EP       1059  9.82                             119   -0.02 8  234 234 
 NOR  HN ES       1059 36.70                             119   -0.97 8  234 234 
 NOR  HZ I        1059 41.97        33.7 0.22            119            234 234 
 SML  HZ EP       1059 10.22                             118   -0.55 8  243 335 
 SML  HN ES       1059 38.62                             118   -0.71 8  243 335 
 SML  HZ I        1059 46.49        64.4 0.30            118            243 335 
 CHI  HZ EP       1059 11.78                             117   -0.06 8  248 195 
 CHI  HE ES       1059 40.85                             117   -0.39 8  248 195 
 CHI  HZ I        1059 49.43        10.2 0.44            119            248 195 
 HEL  HZ EP   4   1059 15.48                             115    1.17 0  271 256 
 HEL  HE ES       1059 45.11                             115   -0.51 8  271 256 
 HEL  HZ I        1059 53.32        22.0 0.26            115            271 256 
 URE  HZ EP   4   1059 14.11                             114   -1.06 0  283 292 
 URE  HN ES   4   1059 45.03                             114   -2.13 0  283 292 
 URE  HZ I        1059 54.38        27.5 0.34            114            283 292 
 GUY2CHZ EP       1059 18.57                             112    0.86 7  301 235 
 GUY2CHN ES       1059 52.28                             112    0.60 7  301 235 
 GUY2CHZ I        1059 59.95        18.6 0.30                           301 235 
 PTGC HZ EP   4   1059 16.52                             112   -1.53 0  309 159 
 PTGC HE ES   4   1059 50.15                             112   -2.13 0  309 159 
 ELA  HZ EP   4   1059 23.21                             110    2.25 0  329 229 
 ELA  HN ES   4   1059 55.95                             110   -1.51 0  329 229 
 ELA  HZ I        11 0  4.75        12.5 0.38            111            329 229 
 CBOC HZ EP       1059 21.55                             110    0.54 7  333 252 
 CBOC HE ES   4   1059 56.05                             110   -1.50 0  333 252 
 CBOC HZ I        11 0  9.02        15.6 0.84            111            333 252 
 DBB  SZ EP       1059 22.11                             110    0.54 7  339 274 
 DBB  SZ ES   4   1059 57.67                             110   -0.87 0  339 274 
 MON  HZ EP   4   1059 21.32                             109   -1.79 0  353 308 
 MON  HN ES   4   1059 59.15                             109   -2.14 0  353 308 
 ANIL HZ EP   4   1059 26.99                             109    3.08 0  357 224 
 ANIL HN ES   4   11 0  3.77                             109    1.05 0  357 224 
 ANIL HZ I        11 0 13.46        35.5 0.36            110            357 224 
 ORTC HZ EP       1059 27.88                             106   -0.15 6  395 216 
 ORTC HE ES       11 0 10.13                             106    0.07 6  395 216 
 ORTC HZ I        11 0 20.70         6.5 0.32            108            395 216 
 PAL  HZ EP       1059 29.93                             106    0.68 6  405 239 
 PAL  HE ES       11 0 11.83                             106   -0.40 6  405 239 
 PAL  HZ I        11 0 17.97         7.2 0.34            107            405 239 
 CRJC HZ EP   4   1059 34.69                             103   -1.99 0  468   4 
 CRJC HE ES   4   11 0 20.30                             103   -5.14 0  468   4 
 CRJC HZ I        11 0 26.40         9.6 0.14            105            468   4 
                                                                                
