 2010  423 1519  1.5 L   7.095 -73.237143.1  RSN  6 0.4 2.1LRSN                1
 GAP=145        0.98       6.8    10.5 10.2 -0.2803E+02 -0.2885E+02  0.6798E+01E
 Epicentro: LEBRIJA - SANTANDER                                                3
 ACTION:UPD 10-08-24 10:00 OP:vdl  STATUS:               ID:20100423151901 L   I
 2010-04-23-1514-59S.COL___104                                                 6
 STAT SP IPHASW D HRMM SECON CODA AMPLIT PERI AZIMU VELO AIN AR TRES W  DIS CAZ7
 BRR  HZ EP       1519 21.65                             158     0.210   52 272 
 BRR  HZ I        1519 21.95        29.1 0.09                            52 272 
 BRR  HN ES       1519 36.85                             158    -0.110   52 272 
 BAR2 SZ EP       1519 21.24                             158    -0.710   56 174 
 BAR2 SZ ES   1   1519 38.16                             158     0.3 7   56 174 
 GUE  SZ EP       1519 24.37                             146     0.510   88  23 
 GRA  SZ ES   1   1519 42.08                             143    -0.3 7  100  29 
 OCA  SZ ES   2   1519 46.07                             136    -0.1 5  127 356 
 PRA  HE ES   2   1520 42.00                             105     0.3 3  416 206 
 PRA  HZ I        1520 49.59         2.6 0.54                           416 206 
                                                                                
