 2012  723 1150 55.6 L   6.728 -73.164152.9  RSN  7 0.3 2.0LRSN                1
 GAP=230        0.68       4.4     4.9  5.7  0.9982E+01  0.5420E+01  0.3297E+01E
 Epicentro: VILLANUEVA - SANTANDER                                             3
 ACTION:UPD 12-08-14 11:44 OP:ep   STATUS:               ID:20120723115055 L   I
 2012-07-23-1150-00M.COL___215                                                 6
 STAT SP IPHASW D HRMM SECON CODA AMPLIT PERI AZIMU VELO AIN AR TRES W  DIS CAZ7
 BAR2 SZ EP       1151 15.95                             174     0.010   15 188 
 BAR2 SZ ES   1   1151 31.35                             174    -0.5 7   15 188 
 BAR2 SZ I        1151 33.79        22.8 0.15            164             15 188 
 BRR  HZ EP       1151 17.83                             153     0.210   74 305 
 BRR  HN ES   1   1151 35.25                             153     0.4 7   74 305 
 BRR  HZ I        1151 37.63        29.6 0.16            149             74 305 
 RUS  HZ EP       1151 19.73                             147     0.210   93 174 
 RUS  HZ I        1151 20.91         7.1 0.16            144             93 174 
 RUS  HN ES   1   1151 38.28                             147     0.1 7   93 174 
 PTB  HZ EP       1151 22.55                             134    -0.3 9  144 262 
 PTB  HN ES   1   1151 44.03                             134    -0.1 7  144 262 
 PTB  HZ I        1151 49.36        11.6 0.28            130            144 262 
 ZAR  HZ EP   1   1151 28.53                             124    -0.1 6  205 294 
 ZAR  HE ES   1   1151 54.12                             124    -0.3 6  205 294 
 ZAR  HZ I        1152  0.54        18.0 0.47            123            205 294 
 CHI  HZ EP   1   1151 32.68                             119    -0.1 6  240 195 
 CHI  HN ES   1   1152  1.74                             119    -0.1 6  240 195 
 CHI  HZ I        1152  9.04         4.5 0.24            118            240 195 
 HEL  HN ES   2   1152  7.73                             117     0.6 4  268 257 
 HEL  HZ I        1152 14.19         5.6 0.29            115            268 257 
