 2013  923 1609 17.5 L   7.425 -73.070 12.6  RSN  6 0.5 1.8LRSN 2.2WRSN        1
 SPEC AVERAGE  MO 12.3 ST  9.6 OM  1.4 f0 11.7 R0.1684 AL 0.00 WI 20.0 MW  2.2 3
 SPEC SD       MO  0.2 ST 15.6 OM  0.4 f0 5.71 R0.0815 AL      WI      MW  0.1 3
 GAP= 96        1.17       2.9     2.7  5.5 -0.2149E+01  0.5674E+01 -0.4077E+01E
 Epicentro: SURATA - SANTANDER                                                 3
 SPEC PAM SH Z MO 12.5 ST0.505 OM  1.5 f0 5.00 R0.3108 AL-0.00 WI 20.0 MW  2.3 3
 SPEC PAM SH Z T16 928 K 0.000 GD 43.8 VS 4.20 DE 3.20 Q0300.0 QA 0.60 VS 4.20 3
 SPEC BRR HH Z MO 12.0 ST  2.9 OM  0.7 f0 13.5 R0.1151 AL-0.00 WI 20.0 MW  1.9 3
 SPEC BRR HH Z T16 938 K 0.000 GD 80.1 VS 4.20 DE 3.20 Q0300.0 QA 0.60 VS 4.20 3
 SPEC BAR2SH Z MO 12.4 ST  1.5 OM  1.0 f0 8.16 R0.1904 AL-0.00 WI 20.0 MW  2.2 3
 SPEC BAR2SH Z T16 942 K 0.000 GD 93.8 VS 4.20 DE 3.20 Q0300.0 QA 0.60 VS 4.20 3
 SPEC RUS HH Z MO 12.3 ST  2.5 OM  0.8 f0 10.1 R0.1539 AL-0.00 WI 20.0 MW  2.2 3
 SPEC RUS HH Z T1610 2 K 0.000 GD  130 VS 4.20 DE 3.20 Q0300.0 QA 0.60 VS 4.20 3
 SPEC SML HH Z MO 12.5 ST 40.8 OM  1.0 f0 21.7 R0.0716 AL-0.00 WI 20.0 MW  2.3 3
 SPEC SML HH Z T1610 5 K 0.000 GD  137 VS 4.20 DE 3.20 Q0300.0 QA 0.60 VS 4.20 3
 OLDACT:REG 13-09-23 15:38 OP:stll STATUS:               ID:20130923155849     3
 ACTION:UPD 13-10-22 09:24 OP:ep   STATUS:               ID:20130923160917 L   I
 OLDACT:UP  13-09-23 19:09 OP:stll STATUS:               ID:20130923155849     3
 2013-09-23-1558-49M.COL___244                                                 6
 STAT SP IPHASW D HRMM SECON CODA AMPLIT PERI AZIMU VELO AIN AR TRES W  DIS CAZ7
 PAM  SZ IP     D 16 9 25.01                             104   -0.1010 42.0 103 
 PAM  SN ES       16 9 30.33                             104   -0.7210 42.0 103 
 PAM  SZ I        16 9 31.31        86.7 0.16            115           42.0 103 
 BRR  HZ EP       16 9 30.29                              97    0.1510 79.1 244 
 BRR  HE ES       16 9 40.14                              97    0.1310 79.1 244 
 BRR  SZ I        16 9 49.82        13.4 0.44             99           79.1 244 
 BAR2 SZ EP       16 9 32.23                              96   -0.2410 92.9 188 
 BAR2 SZ ES       16 9 44.07                              96   -0.0910 92.9 188 
 BAR2 SZ I        16 9 45.68        23.1 0.20             98           92.9 188 
 CAPV BZ ES       16 9 45.82                              95    0.7210 96.5  60 
 RUS  HZ EP       16 9 44.61                              56    0.82 9  169 180 
 RUS  HN ES       1610  4.23                              56   -0.07 9  169 180 
 RUS  SZ I        1610  7.47         9.2 0.24             56            169 180 
 SML  HZ EP       16 9 45.60                              56    0.10 9  188 324 
 SML  HN ES       1610  6.65                              56   -0.70 9  188 324 
 SML  SZ I        1610  9.43        30.9 0.08             56            188 324 
                                                                                
