 2016 1023 1225 22.3 L   6.771 -73.156142.4  RSN  6 0.3 1.6LRSN                1
 GAP=137        0.78       3.9     3.7  5.2 -0.3456E+01  0.4440E+01  0.2651E+01E
 Epicentro: LOS SANTOS - SANTANDER                                             3
 ACTION:UPD 16-11-09 19:22 OP:rebc STATUS:               ID:20161023122522 L   I
 OLDACT:REG 16-10-23 23:05 OP:cara STATUS:               ID:20161023121749     3
 2016-10-23-1218-00M.COL___359                                                 6
 STAT SP IPHASW D HRMM SECON CODA AMPLIT PERI AZIMU VELO AIN AR TRES W  DIS CAZ7
 BAR2 EZ IP       1225 41.40                             172   -0.0610 20.0 188 
 BAR2 EZ ES       1225 56.33                             172   -0.0710 20.0 188 
 BAR2 EZ I        1225 57.59        10.1 0.34            170           20.0 188 
 BRR  HZ EP       1225 43.36                             152    0.2510 71.8 301 
 BRR  HN ES       1225 59.89                             152    0.5310 71.8 301 
 BRR  HZ I        1226  1.43        12.6 0.38            152           71.8 301 
 PAM  EZ EP       1225 44.42                             149    0.0710 80.6  39 
 PAM  EN ES       1226  1.16                             149   -0.4010 80.6  39 
 PAM  EZ I        1226  3.28         5.4 0.36            152           80.6  39 
 RUS  HZ EP       1225 45.40                             144   -0.0910 97.5 175 
 RUS  HN ES       1226  3.81                             144    0.2310 97.5 175 
 RUS  HZ I        1226  5.39         4.9 0.30            145           97.5 175 
 PTB  HZ EP       1225 48.56                             132   -0.27 9  146 260 
 PTB  HN ES       1226  9.10                             132   -0.43 9  146 260 
 PTB  HZ I        1226 11.40         6.7 0.16            132            146 260 
 NOR  HZ EP       1225 57.97                             118    0.44 8  232 235 
 NOR  HE ES       1226 24.79                             118   -0.22 8  232 235 
 NOR  HZ I        1226 31.16         4.4 0.18            119            232 235 
                                                                                
