 2015  423 1058 58.2 L   6.803 -73.126153.1  RSN 10 0.4 1.8LRSN                1
 GAP=185        0.90       3.6     6.0  7.1 -0.2202E+00  0.3428E+01 -0.1097E+01E
 Epicentro: LOS SANTOS - SANTANDER                                             3
 ACTION:UPD 15-06-03 16:57 OP:cam  STATUS:               ID:20150423105858 L   I
 OLDACT:REG 15-04-23 20:17 OP:spq  STATUS:               ID:20150423105748     3
 2015-04-23-1057-48M.COL___271                                                 6
 STAT SP IPHASW D HRMM SECON CODA AMPLIT PERI AZIMU VELO AIN AR TRES W  DIS CAZ7
 BAR2 EZ EP       1059 18.66                             171   -0.0810 24.2 195 
 BAR2 EZ ES   1   1059 34.57                             171   -0.19 7 24.2 195 
 BAR2 EZ I        1059 37.13         5.6 0.26            169           24.2 195 
 BRR  HZ EP       1059 20.56                             153    0.3110 73.0 297 
 BRR  HN ES       1059 38.09                             153    0.6410 73.0 297 
 BRR  HZ I        1059 40.15         6.8 0.48            149           73.0 297 
 RUS  HN ES   1   1059 41.31                             145   -0.51 7  101 177 
 RUS  HZ I        1059 42.86         4.0 0.18            148            101 177 
 PTB  HZ EP   1   1059 25.54                             133   -0.44 7  150 259 
 PTB  HN ES   1   1059 46.96                             133   -0.69 7  150 259 
 PTB  HZ I        1059 52.38         6.9 0.44            132            150 259 
 OCA  HE ES   1   1059 49.18                             131   -0.44 7  160 352 
 OCA  HZ I        1059 53.61        15.9 0.36            131            160 352 
 SPBC HZ EP   1   1059 28.12                             130    0.68 7  165 220 
 SPBC HN ES       1059 50.47                             130    0.23 9  165 220 
 SPBC HZ I        1059 52.50        11.5 0.28            131            165 220 
 ZAR  HN ES   1   1059 57.35                             124    0.17 6  206 292 
 ZAR  HZ I        11 0  5.10         7.7 0.10            123            206 292 
 NOR  HE ES   1   11 0  2.30                             120   -0.67 6  237 235 
 NOR  HZ I        11 0  7.24         3.6 0.18            120            237 235 
 SML  HZ EP   1   1059 35.20                             119   -0.12 6  244 335 
 SML  HE ES   1   11 0  3.88                             119   -0.38 6  244 335 
 SML  HZ I        11 0 10.06         7.8 0.10            119            244 335 
 CHI  HZ EP   1   1059 36.78                             119    0.35 6  250 196 
                                                                                
