 2014  823 1755 50.8 L   6.711 -73.184153.9  RSN  4 0.1 1.7LRSN                1
 GAP=226        0.46       3.9     3.9  5.0  0.6312E+01 -0.3795E+00 -0.3378E+01E
 Epicentro: VILLANUEVA - SANTANDER                                             3
 ACTION:UPD 14-09-15 21:52 OP:nd   STATUS:               ID:20140823175550 L   I
 OLDACT:REG 14-08-23 20:59 OP:cam  STATUS:               ID:20140823175000     3
 2014-08-23-1750-00M.COL___288                                                 6
 STAT SP IPHASW D HRMM SECON CODA AMPLIT PERI AZIMU VELO AIN AR TRES W  DIS CAZ7
 BAR2 SZ EP       1756 11.14                             175   -0.1410 13.1 179 
 BRR  HZ EP     D 1756 12.86                             153   -0.0910 73.0 307 
 BRR  HN ES       1756 30.33                             153    0.1110 73.0 307 
 BRR  HN I        1756 30.67        26.0 0.48            150           73.0 307 
 RUS  HN ES       1756 33.47                             148    0.0510 91.2 173 
 PTB  HZ EP       1756 18.21                             135    0.25 9  142 262 
 PTB  HN ES       1756 38.96                             135   -0.17 9  142 262 
 PTB  HZ I        1756 44.64         2.2 0.22            131            142 262 
                                                                                
