 2016 1123 1303 35.7 L   6.701 -73.118139.3  RSN  5 0.2 1.6LRSN                1
 GAP=177        0.76       7.1     3.8  5.3  0.4589E+00  0.2413E+01 -0.4768E+01E
 Epicentro: JORDAN - SANTANDER                                                 3
 ACTION:UPD 17-10-26 21:10 OP:lp   STATUS:               ID:20161123130335 L   I
 OLDACT:UP  16-11-23 22:37 OP:edw  STATUS:               ID:20161123125745     3
 OLDACT:UP  16-11-23 22:33 OP:edw  STATUS:               ID:20161123125745     3
 OLDACT:REG 16-11-23 20:21 OP:edw  STATUS:               ID:20161123125745     3
 2016-11-23-1258-00M.COL___355                                                 6
 STAT SP IPHASW D HRMM SECON CODA AMPLIT PERI AZIMU VELO AIN AR TRES W  DIS CAZ7
 BAR2 EZ EP       13 3 54.14                             174   -0.2210 14.0 211 
 BAR2 EZ ES       13 4  9.11                             174    0.1710 14.0 211 
 BRR  HZ EP       13 3 56.40                             148   -0.2310 79.5 304 
 BRR  HN ES       13 4 13.15                             148    0.1710 79.5 304 
 BRR  HZ I        13 4 21.22        21.2 0.46            145           79.5 304 
 PAM  EZ EP       13 3 57.57                             147   -0.0810 84.4  33 
 PAM  EN ES       13 4 14.76                             147   -0.0310 84.4  33 
 PAM  EZ I        13 4 18.88         4.6 0.56            146           84.4  33 
 PTB  HZ EP   9   13 4  1.38                             130   -0.86 0  149 263 
 PTB  HN ES       13 4 21.54                             131   -0.56 9  149 263 
 ZAR  HZ EP       13 4  9.00                             120    0.54 8  211 295 
 ZAR  HE ES       13 4 33.79                             120   -0.24 8  211 295 
 ZAR  HZ I        13 4 39.02         2.4 0.19            122            211 295 
                                                                                
