 2010  623 1917 26.6 L   6.800 -73.044142.5  RSN  4 0.2 1.1LRSN                1
 GAP=170        0.49       3.7     8.1  9.2 -0.3438E+01 -0.2793E+02 -0.3075E+01E
 Epicentro: LOS SANTOS - SANTANDER                                             3
 ACTION:UP  10-08-24 10:12 OP:vdl  STATUS:               ID:20100623191726 L   I
 2010-06-23-1912-42S.COL___118                                                 6
 STAT SP IPHASW D HRMM SECON CODA AMPLIT PERI AZIMU VELO SNR AR TRES W  DIS CAZ7
 BRR  HZ EP   1   1917 47.92                             149    -0.1 7   81 295 
 BRR  HN ES   2   1918  4.84                             149     0.1 5   81 295 
 RUS  HZ EP   1   1917 49.83                             143    -0.2 7  100 182 
 RUS  HE ES   2   1918  8.65                             143     0.3 5  100 182 
 RUS  HZ I        1918 10.03         2.0 0.57                           100 182 
 GUE  SZ EP   1   1917 50.99                             139     0.1 7  115   7 
 GRA  SZ EP   1   1917 51.65                             137     0.3 7  123  12 
 GRA  SZ ES   2   1918 10.21                             137    -0.4 5  123  12 
                                                                                
