 2016  823 1030 37.7 L   6.772 -73.134141.1  RSN  8 0.5 1.7LRSN                1
 GAP=139        1.20       4.3     5.3  7.9 -0.3098E+01  0.1318E+02 -0.2014E+01E
 Epicentro: LOS SANTOS - SANTANDER                                             3
 ACTION:UPD 16-10-29 15:38 OP:rebc STATUS:               ID:20160823103037 L   I
 OLDACT:REG 16-08-23 20:31 OP:ar   STATUS:               ID:20160823102733     3
 2016-08-23-1028-00M.COL___371                                                 6
 STAT SP IPHASW D HRMM SECON CODA AMPLIT PERI AZIMU VELO AIN AR TRES W  DIS CAZ7
 BAR2 EZ IP     C 1030 56.81                             171    0.1310 20.6 195 
 BAR2 EZ ES       1031 11.26                             171   -0.2510 20.6 195 
 BAR2 EZ I        1031 12.28        14.0 0.32                          20.6 195 
 BRR  HZ EP       1030 58.70                             151    0.2310 73.8 300 
 BRR  HN ES       1031 15.58                             151    0.8910 73.8 300 
 PAM  EZ EP       1030 59.73                             149    0.2410 79.0  37 
 PAM  EE ES       1031 16.66                             149    0.1610 79.0  37 
 PAM  EZ I        1031 18.16         6.8 0.18                          79.0  37 
 RUS  HZ EP   2   1031  1.21                             144    0.48 5 97.4 177 
 RUS  HN ES       1031 18.45                             144   -0.2710 97.4 177 
 RUS  HZ I        1031 20.46         5.8 0.28                          97.4 177 
 PTB  HZ EP       1031  3.54                             131   -0.78 9  148 260 
 PTB  HE ES       1031 25.11                             131   -0.00 9  148 260 
 PTB  HZ I        1031 26.73         7.9 0.20                           148 260 
 SPBC HZ EP       1031  6.20                             128    0.54 9  162 220 
 SPBC HN ES       1031 27.06                             128   -0.44 9  162 220 
 SPBC HZ I        1031 29.72         7.9 0.66                           162 220 
 OCA  HE ES       1031 26.96                             128   -1.01 9  163 353 
 OCA  HZ I        1031 28.99        15.2 0.22                           163 353 
 ZAR  HZ EP       1031 10.32                             121    0.26 8  206 293 
 ZAR  HN ES       1031 35.32                             121   -0.00 8  206 293 
 ZAR  HZ I        1031 38.45         3.5 0.15                           206 293 
                                                                                
