 2011  923 1758  6.6 L   6.772 -73.108141.4  RSN  7 0.2 1.7LRSN                1
 GAP=143        0.51       3.4     4.4  4.8  0.3033E+01 -0.3598E+01 -0.3890E+01E
 Epicentro: LOS SANTOS - SANTANDER                                             3
 ACTION:UPD 12-07-13 15:59 OP:ep   STATUS:               ID:20110923175806 L   I
 2011-09-23-1755-57S.COL___165                                                 6
 STAT SP IPHASW D HRMM SECON CODA AMPLIT PERI AZIMU VELO AIN AR TRES W  DIS CAZ7
 BAR2 SZ IP       1758 25.65                             171   -0.0610 21.5 202 
 BAR2 SZ I        1758 25.98        17.6 0.34                          21.5 202 
 BAR2 SZ ES   1   1758 40.23                             171   -0.36 7 21.5 202 
 BTL  SZ EP       1758 25.93                             170    0.1610 24.0 313 
 BRR  HZ EP       1758 27.47                             150   -0.1610 76.3 299 
 BRR  HN ES   1   1758 44.34                             150    0.34 7 76.3 299 
 BRR  HZ I        1758 49.39        10.6 0.16                          76.3 299 
 PAM  SZ EP       1758 28.65                             150    0.2510 77.3  36 
 PAM  SN ES   2   1758 45.20                             150   -0.16 5 77.3  36 
 RUS  HZ EP       1758 29.64                             144   -0.0910 97.2 178 
 RUS  HE ES   2   1758 48.10                             144    0.37 5 97.2 178 
 RUS  HZ I        1758 49.59         6.6 0.42                          97.2 178 
 OCA  SZ EP       1758 34.83                             128   -0.14 9  164 352 
 OCA  SZ I        1759  5.13         5.1 0.37                           164 352 
 ZAR  HE ES   2   1759  4.66                             121   -0.17 4  209 293 
 ZAR  HZ I        1759 12.56         6.1 0.30                           209 293 
                                                                                
