 2010  723 1225 24.1 L   6.769 -73.053144.8  RSN 12 0.5 2.6LRSN                1
 GAP=169        1.11       4.3     8.5  7.2 -0.1197E+02  0.6261E+01  0.2022E+01E
 Epicentro: LOS SANTOS - SANTANDER                                             3
 ACTION:UPD 10-12-01 15:19 OP:pat  STATUS:               ID:20100723122524 L   I
 2010-07-23-1222-54S.COL___123                                                 6
 STAT SP IPHASW D HRMM SECON CODA AMPLIT PERI AZIMU VELO AIN AR TRES W  DIS CAZ7
 BAR2 SZ IP       1225 43.95                             170     0.310   24 216 
 BAR2 SZ ES   1   1225 58.72                             170    -0.2 7   24 216 
 BAR2 SZ I        1226  0.05       118.9 0.26                            24 216 
 GIR2 SZ IP       1225 44.14                             165     0.310   38 336 
 GIR2 SZ ES   1   1225 58.91                             165    -0.4 7   38 336 
 BRR  HZ IP     D 1225 45.93                             149     0.110   82 297 
 BRR  HZ I        1225 46.34       127.3 0.15                            82 297 
 BRR  HE ES   1   1226  3.07                             149     0.3 7   82 297 
 RUS  HZ EP   1   1225 47.79                             144     0.3 7   97 182 
 RUS  HE ES   1   1226  5.40                             144    -0.4 7   97 182 
 RUS  HZ I        1226  7.31        49.6 0.36                            97 182 
 GUE  SZ EP       1225 48.10                             139    -0.810  118   7 
 GRA  SZ IP       1225 50.00                             136     0.710  126  13 
 GRA  SZ ES   1   1226  9.40                             136     0.4 7  126  13 
 GRA  SZ I        1226 10.63        53.7 0.46                           126  13 
 OCA  SZ EP   1   1225 52.83                             128     0.0 7  165 350 
 OCA  SZ ES   1   1226 14.43                             128    -0.8 7  165 350 
 OCA  SZ I        1226 18.80        51.9 0.27                           165 350 
 CHI  HZ EP   1   1226  2.02                             117     0.3 6  248 198 
 CHI  HN ES   2   1226 30.32                             117    -0.7 4  248 198 
 CHI  HZ I        1226 34.35        13.4 0.35                           248 198 
 HEL  HZ EP   2   1226  4.80                             114    -0.5 4  281 257 
 HEL  HE ES   2   1226 38.22                             114     0.8 4  281 257 
 HEL  HZ I        1226 41.97        21.6 0.32                           281 257 
 DBB  SZ EP   1   1226 11.88                             109    -0.9 5  350 275 
 DBB  SZ I        1226 51.18         4.1 0.40                           350 275 
 ANIL HE ES   2   1226 54.54                             108     0.8 3  362 226 
 ANIL HZ I        1227  3.86        27.7 0.26                           362 226 
 PRA  HZ EP   1   1226 17.53                             106    -0.3 4  394 211 
 PRA  HE ES   1   1226 59.60                             106    -0.2 4  394 211 
 PRA  HZ I        1227  3.94        15.7 0.52                           394 211 
                                                                                
