 2016  123 1920 44.8 L   6.843 -73.162147.2  RSN  9 0.4 1.8LRSN                1
 GAP=127        0.98       3.3     4.0  6.0 -0.3796E+01  0.5094E+01 -0.1800E+01E
 Epicentro: LOS SANTOS - SANTANDER                                             3
 ACTION:UPD 16-03-09 23:27 OP:cam  STATUS:               ID:20160123192044 L   I
 OLDACT:REG 16-01-23 22:35 OP:ar   STATUS:               ID:20160123191748     3
 2016-01-23-1917-48M.COL___303                                                 6
 STAT SP IPHASW D HRMM SECON CODA AMPLIT PERI AZIMU VELO AIN AR TRES W  DIS CAZ7
 BAR2 EZ EP       1921  4.71                             169    0.0410 27.9 185 
 BAR2 EZ ES       1921 19.96                             169   -0.2310 27.9 185 
 BAR2 EZ I        1921 21.29        10.5 0.42            169           27.9 185 
 PAM  EZ EP       1921  7.52                             152    0.5310 74.9  43 
 PAM  EN ES       1921 24.56                             152    0.2310 74.9  43 
 PAM  EZ I        1921 26.82         4.6 0.42            154           74.9  43 
 PTB  HZ EP       1921 11.41                             133   -0.38 9  147 257 
 PTB  HN ES       1921 32.28                             133   -0.58 9  147 257 
 PTB  HZ I        1921 35.25         8.7 0.12            132            147 257 
 SPBC HZ EP       1921 14.20                             129    0.57 9  166 217 
 SPBC HN ES       1921 36.23                             129    0.09 9  166 217 
 SPBC HZ I        1921 41.82        12.9 0.20            129            166 217 
 ZAR  HZ EP       1921 16.88                             123   -0.08 9  201 291 
 ZAR  HE ES       1921 42.64                             123    0.57 9  201 291 
 ZAR  HZ I        1921 47.58         8.3 0.26            123            201 291 
 NOR  HZ EP       1921 20.99                             119    0.26 8  236 233 
 NOR  HN ES       1921 48.26                             119   -0.52 8  236 233 
 NOR  HZ I        1921 54.79         5.0 0.28            119            236 233 
 SML  HZ EP       1921 20.94                             118    0.01 8  239 335 
 SML  HN ES       1921 49.04                             118   -0.09 8  239 335 
 SML  HZ I        1921 59.94         8.1 0.10            119            239 335 
 CHI  HZ EP   2   1921 23.31                             117    0.31 4  253 194 
 CHI  HN ES       1921 53.00                             117    0.18 8  253 194 
 CHI  HZ I        1922  0.12         2.8 0.38            118            253 194 
 SOCV BZ EP       1921 26.66                             112   -1.10 7  300  58 
 SOCV BN ES   4   1921 58.88                             112   -2.41 0  300  58 
                                                                                
