 2015  123 1039 12.3 L   6.795 -73.162144.1  RSN  5 0.2 1.0LRSN                1
 GAP=135        0.43       3.8     2.8  5.5  0.1753E+01  0.1951E+00 -0.8847E+01E
 Epicentro: LOS SANTOS - SANTANDER                                             3
 ACTION:UPD 15-03-02 15:41 OP:nd   STATUS:               ID:20150123103912 L   I
 OLDACT:REG 15-01-23 22:04 OP:spq  STATUS:               ID:20150123103741     3
 2015-01-23-1037-41M.COL___258                                                 6
 STAT SP IPHASW D HRMM SECON CODA AMPLIT PERI AZIMU VELO AIN AR TRES W  DIS CAZ7
 BAR2 EZ ES   1   1039 46.72                             171   -0.18 7 22.5 186 
 BAR2 EZ I        1039 48.35         3.6 0.27            173           22.5 186 
 PAM  SZ EP       1039 34.55                             150    0.0710 78.9  40 
 RUS  HZ EP   1   1039 36.02                             144    0.12 7  100 175 
 RUS  HN ES   1   1039 54.32                             144    0.05 7  100 175 
 RUS  HZ I        1039 55.81         1.0 0.44            148            100 175 
 PTB  HZ EP   1   1039 38.63                             132   -0.38 7  146 259 
 PTB  HE ES   1   1039 59.98                             132    0.17 7  146 259 
 PTB  HZ I        1040  1.24         1.1 0.40            132            146 259 
 ZAR  HN ES   1   1040  9.72                             122    0.08 6  203 292 
 ZAR  HZ I        1040 16.63         1.2 0.48            122            203 292 
                                                                                
