 2011 1023 1042 54.1 L   7.397 -73.195130.9  RSN  7 0.3 2.1LRSN                1
 GAP=105        0.66       3.9     3.9  6.0  0.2732E+00  0.6895E+01  0.3456E+00E
 Epicentro: EL PLAYON - SANTANDER                                              3
 ACTION:UPD 12-07-13 16:05 OP:ep   STATUS:               ID:20111023104254 L   I
 2011-10-23-1041-14S.COL___171                                                 6
 STAT SP IPHASW D HRMM SECON CODA AMPLIT PERI AZIMU VELO AIN AR TRES W  DIS CAZ7
 GIR2 SZ EP   1   1043 11.99                             164   -0.12 7 35.2 180 
 PAM  SZ EP       1043 13.69                             156    0.2410 55.0  97 
 PAM  SN ES   1   1043 28.43                             156   -0.13 7 55.0  97 
 BRR  HZ EP       1043 13.49                             152    0.1910 65.5 241 
 BRR  HN ES   1   1043 28.23                             152   -0.06 7 65.5 241 
 BRR  HZ I        1043 29.62        42.3 0.19                          65.5 241 
 BAR2 SZ EP   1   1043 15.25                             144    0.07 7 89.0 179 
 BAR2 SZ ES   1   1043 31.40                             144   -0.23 7 89.0 179 
 BAR2 SZ I        1043 32.86        16.6 0.06                          89.0 179 
 OCA  SZ EP   1   1043 15.19                             142   -0.24 7 94.1 352 
 OCA  SZ ES   1   1043 32.25                             142    0.17 7 94.1 352 
 OCA  SZ I        1043 33.78        20.1 0.18                          94.1 352 
 ZAR  HZ EP   1   1043 22.56                             122   -0.92 7  184 273 
 ZAR  HN ES   1   1043 46.71                             122    0.30 7  184 273 
 ZAR  HZ I        1043 50.03        22.1 0.42                           184 273 
 NOR  SZ EP   1   1043 33.91                             111    0.44 6  275 223 
                                                                                
