 2013  823 1752 33.1 L   6.786 -73.160148.5  RSN  8 0.5 1.7LRSN                1
 GAP=135        1.25       5.8     6.2  7.9  0.7215E+01  0.2056E+02  0.1323E+02E
 Epicentro: LOS SANTOS - SANTANDER                                             3
 OLDACT:DUP 13-08-23 20:35 OP:stll STATUS:               ID:20130823174849d    3
 ACTION:UPD 14-01-14 09:06 OP:ep   STATUS:               ID:20130823175233 L   I
 OLDACT:UP  13-08-23 20:39 OP:stll STATUS:               ID:20130823174849d    3
 2013-08-23-1748-48M.COL___216                                                 6
 STAT SP IPHASW D HRMM SECON CODA AMPLIT PERI AZIMU VELO AIN AR TRES W  DIS CAZ7
 BAR2 SZ EP       1752 53.13                             171    0.1310 21.6 186 
 BAR2 SZ I        1752 53.31        10.9 0.18            166           21.6 186 
 BAR2 SZ ES       1753  8.67                             171    0.1310 21.6 186 
 BRR  HZ EP       1752 55.07                             153    0.5910 70.5 300 
 BRR  HZ I        1752 55.30        14.5 0.26            149           70.5 300 
 BRR  HN ES       1753 12.11                             153    0.9310 70.5 300 
 PAM  SN ES       1753 12.79                             151   -0.5810 79.6  40 
 RUS  HZ EP       1752 57.30                             145    0.3110 99.2 175 
 RUS  HN ES       1753 15.16                             145   -0.5010 99.2 175 
 RUS  HZ I        1753 19.15         3.8 1.28            145           99.2 175 
 PTB  HZ EP       1752 59.81                             133   -0.29 9  146 259 
 PTB  HN ES       1753 21.09                             133   -0.09 9  146 259 
 PTB  HZ I        1753 28.73         5.9 0.34            131            146 259 
 ZAR  HZ EP       1753  5.28                             123   -0.32 9  203 293 
 ZAR  HE ES       1753 30.06                             123   -0.92 9  203 293 
 ZAR  HZ I        1753 41.92         4.9 0.30            123            203 293 
 GUY2CHZ EP       1753 17.29                             113    0.73 7  299 235 
 GUY2CHZ I        1753 59.61         3.9 0.80                           299 235 
 PRA  HZ EP       1753 26.27                             107   -0.17 6  390 209 
 PRA  HN ES       1754  7.78                             107   -0.29 6  390 209 
 PRA  HZ I        1754 15.56         1.8 0.24            108            390 209 
                                                                                
