 2011  223 1956 41.0 L   6.808 -73.123143.8  RSN  6 0.4 1.5LRSN                1
 GAP=161        0.65       5.1    23.6  9.2 -0.5778E+02  0.8798E+02 -0.4158E+01E
 Epicentro: LOS SANTOS - SANTANDER                                             3
 ACTION:UP  11-03-28 15:10 OP:jfem STATUS:               ID:20110223195640 L   I
 2011-02-23-1953-44S.COL___137                                                 6
 STAT SP IPHASW D HRMM SECON CODA AMPLIT PERI AZIMU VELO SNR AR TRES W  DIS CAZ7
 BTL  SZ EP       1957  0.66                             171     0.310   20 307 
 BTL  SZ ES   3   1957 15.23                             171    -0.2 2   20 307 
 BAR2 SZ ES   3   1957 15.63                             169     0.0 2   25 196 
 GIR2 SZ EP   3   1956 59.54                             167    -0.9 2   31 345 
 RUS  HZ EP   1   1957  4.95                             144     0.3 7  101 178 
 RUS  HN ES   1   1957 22.95                             144    -0.1 7  101 178 
 RUS  HZ I        1957 23.85         3.9 0.33                           101 178 
 GRA  SZ EP   2   1957  5.91                             137     0.0 5  124  16 
 GRA  SZ ES   2   1957 24.87                             137    -0.5 5  124  16 
 GRA  SZ I        1957 27.56         5.6 0.25                           124  16 
 CHI  HZ EP       1957 18.39                             117    -0.4 8  250 196 
 CHI  HZ I        1957 20.92         2.2 0.39                           250 196 
                                                                                
