 2011  223 1620 15.5 L   6.803 -73.142138.5  RSN  9 0.3 2.0LRSN                1
 GAP=136        0.56       2.6     5.3  3.9 -0.1115E+01  0.2583E+01  0.8660E+00E
 Epicentro: LOS SANTOS - SANTANDER                                             3
 ACTION:UP  11-03-28 15:10 OP:jfem STATUS:               ID:20110223162015 L   I
 2011-02-23-1618-22S.COL___136                                                 6
 STAT SP IPHASW D HRMM SECON CODA AMPLIT PERI AZIMU VELO SNR AR TRES W  DIS CAZ7
 BTL  SZ EP       1620 34.36                             172     0.210   19 313 
 BTL  SZ ES   1   1620 48.68                             172     0.0 7   19 313 
 BAR2 SZ EP       1620 34.19                             170    -0.110   24 191 
 BAR2 SZ ES   1   1620 48.92                             170     0.0 7   24 191 
 BAR2 SZ I        1620 50.32        39.0 0.22                            24 191 
 GIR2 SZ EP       1620 34.31                             167     0.010   31 349 
 GIR2 SZ ES   2   1620 48.81                             167    -0.1 5   31 349 
 RUS  HZ EP       1620 38.34                             142    -0.210  101 176 
 RUS  HZ I        1620 39.46        12.5 0.21                           101 176 
 RUS  HN ES   1   1620 56.42                             142    -0.1 7  101 176 
 GRA  SZ EP       1620 40.09                             135     0.010  125  17 
 GRA  SZ ES   1   1620 59.23                             135     0.0 7  125  17 
 GRA  SZ I        1621  0.56        15.8 0.49                           125  17 
 YOP  SZ EP       1620 45.13                             124     0.1 9  179 153 
 YOP  SZ I        1620 46.48         9.3 0.18                           179 153 
 CHI  HZ EP   3   1620 51.60                             115    -1.2 2  249 195 
 CHI  HN ES   2   1621 22.72                             115     0.8 4  249 195 
 CHI  HZ I        1621 29.40         4.5 0.41                           249 195 
 HEL  HZ EP   2   1620 56.25                             113     0.9 4  273 256 
 HEL  HZ I        1621 32.67         8.3 0.22                           273 256 
 DBB  SZ EP       1621  2.38                             108    -0.3 7  340 274 
                                                                                
