 2017 1223 1041 34.4 L   6.842 -73.170141.3  RSN  9 0.6 2.0LRSN                1
 GAP=132        1.35       4.8     5.3  8.1 -0.6866E+01  0.1183E+02 -0.1651E+01E
 Epicentro: ZAPATOCA - SANTANDER                                               3
 ACTION:UPD 18-01-04 13:23 OP:rebc STATUS:               ID:20171223104134 L   I
 OLDACT:REG 17-12-23 20:18 OP:dani STATUS:               ID:20171223103131     3
 2017-12-23-1038-00M.COL___457                                                 6
 STAT SP IPHASW D HRMM SECON CODA AMPLIT PERI AZIMU VELO AIN AR TRES W  DIS CAZ7
 BAR2 EZ EP       1041 53.50                             168   -0.0610 27.7 183 
 BAR2 EZ ES       1042  8.08                             168   -0.4410 27.7 183 
 BAR2 EZ I        1042 12.19        15.8 0.20            168           27.7 183 
 PAM  EZ EP       1041 56.18                             151    0.1810 75.6  43 
 PAM  HN ES       1042 13.31                             151    0.4410 75.6  43 
 PAM  EZ I        1042 14.79        13.7 0.32            155           75.6  43 
 PTB  HZ EP       1042  0.46                             131   -0.36 9  146 257 
 PTB  HN ES       1042 21.31                             131   -0.15 9  146 257 
 PTB  HZ I        1042 26.66         7.1 0.30            133            146 257 
 OCA  HZ EP       1042  1.88                             130    0.02 9  155 354 
 OCA  HN ES       1042 23.00                             130   -0.31 9  155 354 
 OCA  HZ I        1042 27.68        23.6 0.22            133            155 354 
 SPBC HZ EP       1042  3.03                             128    0.31 9  165 217 
 SPBC HE ES       1042 24.89                             128    0.05 9  165 217 
 SPBC HZ I        1042 30.74         9.1 0.14            130            165 217 
 ZAR  HZ EP       1042  7.43                             122    1.34 9  200 291 
 ZAR  HN ES       1042 31.49                             122    0.66 9  200 291 
 ZAR  HZ I        1042 37.03        14.5 0.30            124            200 291 
 URE  HZ EP       1042 14.81                             113    0.06 7  280 291 
 URE  HN ES       1042 44.84                             113   -1.41 7  280 291 
 URE  HZ I        1042 45.74         6.5 0.21            115            280 291 
 SDV  BZ EP       1042 23.00                             107   -1.13 6  359  51 
 PRA  HZ EP       1042 28.67                             106    0.61 6  395 209 
 PRA  HN ES       1043  9.32                             106   -0.63 6  395 209 
 PRA  HZ I        1043 16.05         2.2 0.18            108            395 209 
                                                                                
