 2010 1223 1314 57.1 L   6.743 -72.994138.8  RSN  7 0.5 2.0LRSN                1
 GAP=177        0.93       5.5    12.8  9.0 -0.4127E+02  0.4301E+02 -0.5051E+01E
 Epicentro: CEPITA - SANTANDER                                                 3
 ACTION:UP  11-01-14 15:26 OP:pat  STATUS:               ID:20101223131457 L   I
 2010-12-23-1311-42S.COL___135                                                 6
 STAT SP IPHASW D HRMM SECON CODA AMPLIT PERI AZIMU VELO SNR AR TRES W  DIS CAZ7
 BAR2 SZ EP   1   1315 15.45                             168    -0.5 7   27 231 
 BAR2 SZ ES   1   1315 30.61                             168    -0.1 7   27 231 
 BAR2 SZ I        1315 31.86        27.7 0.23                            27 231 
 BTL  SZ EP   1   1315 15.74                             165    -0.5 7   36 303 
 RUS  HZ EP   1   1315 19.60                             144    -0.1 7   95 186 
 RUS  HN ES   1   1315 37.35                             144     0.0 7   95 186 
 RUS  HZ I        1315 40.06        12.5 0.18                            95 186 
 GRA  SZ EP   1   1315 22.08                             135     0.2 7  128   9 
 GRA  SZ ES   1   1315 41.85                             135     0.6 7  128   9 
 GRA  SZ I        1315 43.99        12.2 0.36                           128   9 
 CHI  HZ EP   1   1315 34.08                             116    -0.2 6  248 199 
 CHI  HE ES   1   1316  4.08                             116     0.8 6  248 199 
 CHI  HZ I        1316 11.66         4.6 0.75                           248 199 
 HEL  HZ EP   2   1315 37.64                             112    -1.0 4  287 258 
 HEL  HZ I        1316 12.75         5.2 0.18                           287 258 
 RREF HZ EP   1   1315 44.58                             109     0.6 5  331 232 
 RREF HN ES   1   1316 20.84                             109     0.3 5  331 232 
 RREF HZ I        1316 27.20         5.3 0.17                           331 232 
                                                                                
