 2017  423 1809 33.8 L   6.805 -73.160143.8  RSN  8 0.4 1.9LRSN                1
 GAP=110        1.10       4.4     3.9  6.7  0.8450E+00  0.4889E+01  0.7441E+01E
 Epicentro: LOS SANTOS - SANTANDER                                             3
 ACTION:UPD 17-05-30 21:15 OP:jn   STATUS:               ID:20170423180933 L   I
 OLDACT:UP  17-04-23 23:25 OP:dani STATUS:               ID:20170423180711     3
 OLDACT:UP  17-04-23 23:25 OP:dani STATUS:               ID:20170423180711     3
 OLDACT:REG 17-04-23 21:18 OP:dani STATUS:               ID:20170423180711     3
 2017-04-23-1808-00M.COL___371                                                 6
 STAT SP IPHASW D HRMM SECON CODA AMPLIT PERI AZIMU VELO AIN AR TRES W  DIS CAZ7
 BAR2 EZ EP       18 9 53.21                             170    0.0210 23.6 186 
 BAR2 EZ ES       1810  7.75                             170   -0.5710 23.6 186 
 BAR2 EZ I        1810  9.22        23.1 0.32            168           23.6 186 
 BRR  HZ EP       18 9 54.12                             153   -0.5110 69.5 299 
 BRR  HE ES       1810 11.75                             153    0.8610 69.5 299 
 BRR  HZ I        1810 16.82        15.0 0.18            154           69.5 299 
 PAM  EZ EP       18 9 56.11                             150    0.2810 78.0  41 
 PAM  EN ES       1810 13.15                             150    0.1210 78.0  41 
 PAM  EZ I        1810 15.29        16.6 0.52            157           78.0  41 
 PTB  HZ EP       18 9 59.71                             132   -0.75 9  146 259 
 PTB  HN ES       1810 20.76                             132   -0.51 9  146 259 
 PTB  HZ I        1810 27.91         9.0 0.30            134            146 259 
 SPBC HZ EP       1810  2.51                             129    0.43 9  163 218 
 SPBC HN ES       1810 24.36                             129    0.21 9  163 218 
 SPBC HZ I        1810 30.02        15.1 0.12            130            163 218 
 YPLC HZ EP       1810  3.60                             126    0.04 9  178 151 
 YPLC HN ES       1810 26.67                             126   -0.12 9  178 151 
 YPLC HZ I        1810 30.41         7.6 0.28            129            178 151 
 ZAR  HZ EP       1810  6.01                             122    0.08 9  202 292 
 ZAR  HN ES       1810 30.81                             122   -0.19 9  202 292 
 NOR  HZ EP       1810  9.52                             118    0.22 8  234 234 
 NOR  HN ES       1810 37.57                             118    0.58 8  234 234 
 NOR  HZ I        1810 41.96         6.5 0.13            120            234 234 
                                                                                
