 2017  123 1020 49.0 L   6.745 -73.127145.6  RSN 11 0.4 2.1LRSN                1
 GAP=141        0.96       3.6     4.7  6.0  0.1539E+01  0.9669E+01  0.5078E+01E
 Epicentro: LOS SANTOS - SANTANDER                                             3
 ACTION:UPD 17-05-22 16:02 OP:jn   STATUS:               ID:20170123102049 L   I
 OLDACT:UP  17-01-23 20:44 OP:dnl  STATUS:               ID:20170123101740     3
 OLDACT:REG 17-01-23 20:17 OP:dnl  STATUS:               ID:20170123101740     3
 2017-01-23-1018-00M.COL___337                                                 6
 STAT SP IPHASW D HRMM SECON CODA AMPLIT PERI AZIMU VELO AIN AR TRES W  DIS CAZ7
 BAR2 EZ EP     D 1021  8.40                             173   -0.0910 18.0 200 
 BAR2 EZ ES       1021 23.24                             173   -0.4810 18.0 200 
 BAR2 EZ I        1021 25.42        43.1 0.29            170           18.0 200 
 BRR  HZ IP     C 1021 10.49                             151    0.1010 76.0 302 
 BRR  HE ES       1021 27.84                             151    0.7610 76.0 302 
 BRR  HZ I        1021 31.10        22.6 0.34            151           76.0 302 
 PAM  EZ EP       1021 11.63                             150    0.2410 80.9  36 
 PAM  EN ES       1021 28.73                             150   -0.1510 80.9  36 
 PAM  EZ I        1021 31.57        25.2 0.54            153           80.9  36 
 RUS  HZ EP     D 1021 12.12                             146   -0.1610 94.4 177 
 RUS  HE ES       1021 30.69                             146    0.2310 94.4 177 
 RUS  HZ I        1021 31.60        15.0 0.54            146           94.4 177 
 PTB  HZ EP       1021 15.19                             132   -0.83 9  149 261 
 PTB  HE ES   2   1021 36.10                             132   -1.01 5  149 261 
 PTB  HZ I        1021 37.23        17.0 0.12            132            149 261 
 ZAR  HZ EP       1021 21.83                             122   -0.02 8  208 293 
 ZAR  HE ES       1021 47.53                             122    0.05 8  208 293 
 ZAR  HZ I        1021 53.15        13.7 0.30            123            208 293 
 CHI  HZ EP       1021 26.23                             118    0.13 8  243 196 
 CHI  HN ES       1021 55.31                             118    0.26 8  243 196 
 CHI  HZ I        1022  3.01         4.4 0.50            118            243 196 
 URE  HZ EP   4   1021 33.29                             113    2.78 0  288 293 
 URE  HE ES   4   1022  0.64                             113   -2.26 0  288 293 
 URE  HZ I        1022  2.28         9.6 0.12            114            288 293 
 DBB  EZ EP   4   1021 38.42                             109    1.68 0  342 275 
 DBB  EN ES   4   1022 12.21                             109   -1.78 0  342 275 
 DBB  EZ I        1022 15.80         3.7 0.28            110            342 275 
 ORTC HZ EP   2   1021 43.19                             107    0.72 3  392 217 
 ORTC HN ES       1022 24.64                             107    0.45 6  392 217 
 ORTC HZ I        1022 30.68         2.8 0.44            107            392 217 
 SJC  HZ EP   4   1021 43.24                             105   -2.02 0  415 327 
 SJC  HN ES   4   1022 24.83                             105   -4.33 0  415 327 
 SJC  HZ I        1022 28.99         3.3 0.38            107            415 327 
                                                                                
