 2014  223 1110 32.9 L   7.536 -73.113154.8  RSN  8 0.5 1.8LRSN                1
 GAP=132        1.11       3.6     6.3  7.3  0.1051E+02  0.1806E+02  0.4904E+01E
 Epicentro: EL PLAYON - SANTANDER                                              3
 ACTION:UPD 14-03-10 08:12 OP:ep   STATUS:               ID:20140223111032 L   I
 OLDACT:REG 14-02-23 17:11 OP:carl STATUS:               ID:20140223111000     3
 2014-02-23-1110-00M.COL___215                                                 6
 STAT SP IPHASW D HRMM SECON CODA AMPLIT PERI AZIMU VELO AIN AR TRES W  DIS CAZ7
 PAM  SZ EP       1110 55.08                             161    0.2410 50.6 115 
 PAM  SN ES       1111 12.00                             161    0.0810 50.6 115 
 PAM  SZ I        1111 12.73        14.3 0.20            168           50.6 115 
 OCA  HZ EP       1110 56.19                             151    0.3310 81.0 344 
 OCA  HN ES       1111 13.74                             151    0.0110 81.0 344 
 OCA  HZ I        1111 15.49        13.5 0.48            152           81.0 344 
 BAR2 SZ EP       1110 57.81                             144    0.2910  105 184 
 BAR2 SZ ES       1111 16.21                             144   -0.4910  105 184 
 BAR2 SZ I        1111 21.43        16.9 0.26            143            105 184 
 SML  HZ EP       1111  3.09                             129   -0.07 9  175 323 
 SML  HN ES       1111 26.45                             129   -0.27 9  175 323 
 SML  HZ I        1111 33.91        28.9 0.22            130            175 323 
 RUS  HZ EP       1111  4.48                             128    0.04 9  182 179 
 RUS  HN ES       1111 28.50                             128   -0.51 9  182 179 
 RUS  HZ I        1111 30.05         1.7 0.22            129            182 179 
 ZAR  HZ EP       1111  5.31                             126    0.45 9  193 269 
 ZAR  HN ES       1111 30.64                             126    0.89 9  193 269 
 ZAR  HZ I        1111 38.69         4.5 0.32            125            193 269 
 CHI  HZ EP       1111 20.37                             112    0.38 7  329 192 
 CHI  HN ES       1111 56.17                             112   -0.51 7  329 192 
 CHI  HZ I        1112  8.04         1.0 0.40            113            329 192 
 SJC  HZ EP       1111 21.17                             111   -0.37 6  346 319 
 SJC  HE ES       1111 57.96                             111   -1.48 6  346 319 
 SJC  HZ I        1112  2.63         3.6 0.80            112            346 319 
                                                                                
