 2013  223 1851  6.0 L   6.810 -73.169143.9  RSN 11 0.4 2.7LRSN                1
 GAP= 70        1.08       3.4     3.6  5.7  0.8427E+00  0.2894E+01  0.3157E+00E
 Epicentro: LOS SANTOS - SANTANDER                                             3
 ACTION:UPD 13-03-12 09:35 OP:ep   STATUS:               ID:20130223185106 L   I
 2013-02-23-1850-00M.COL___225                                                 6
 STAT SP IPHASW D HRMM SECON CODA AMPLIT PERI AZIMU VELO AIN AR TRES W  DIS CAZ7
 BAR2 SZ EP       1851 25.55                             170    0.1710 24.1 184 
 BAR2 SZ ES       1851 40.29                             170   -0.2310 24.1 184 
 BAR2 SZ I        1851 41.37        90.9 0.22            172           24.1 184 
 BRR  HZ IP     D 1851 27.47                             153    0.7210 68.5 299 
 BRR  HN ES       1851 43.85                             153    0.8810 68.5 299 
 BRR  HN I        1851 48.97       105.7 0.14            148           68.5 299 
 PAM  SZ IP     C 1851 28.39                             150    0.3710 78.2  41 
 PAM  SN ES       1851 45.12                             150   -0.1110 78.2  41 
 PAM  SN I        1851 47.06        18.8 0.36            151           78.2  41 
 RUS  HZ EP       1851 29.44                             143   -0.1810  102 175 
 RUS  HN ES       1851 47.55                             143   -0.5210  102 175 
 PTB  HZ EP       1851 32.20                             132   -0.37 9  145 258 
 PTB  HN ES       1851 52.85                             132   -0.47 9  145 258 
 PTB  HN IS       1851 52.85                             132            145 258 
 PTB  HN I        1851 58.77        47.2 0.32            131            145 258 
 TAM  HZ IP     C 1851 33.77                             130    0.03 9  158 105 
 TAM  HN ES       1851 55.03                             130   -0.38 9  158 105 
 TAM  HN I        1851 55.81        50.1 0.38            135            158 105 
 OCA  HZ EP       1851 33.95                             129   -0.05 9  159 354 
 OCA  HN ES       1851 55.80                             129   -0.07 9  159 354 
 OCA  HN I        1852  5.08       115.3 0.30            128            159 354 
 ZAR  HN ES   4   1852  4.33                             122    1.34 0  201 292 
 ZAR  HN I        1852 12.51        44.9 0.14            121            201 292 
 CHI  HZ EP       1851 43.66                             117    0.07 8  249 195 
 CHI  HN ES       1852 13.65                             117    0.70 8  249 195 
 URE  HZ EP       1851 46.64                             113    0.01 7  281 292 
 URE  HE ES   1   1852 17.73                             113   -0.62 6  281 292 
 URE  HE I        1852 29.97        58.7 0.24            113            281 292 
 SJC  HN EP       1852  0.31                             105   -0.88 6  407 327 
                                                                                
