 2017  923 1936 12.1 L   6.782 -73.177137.2  RSN  7 0.4 1.5LRSN                1
 GAP=109        0.92       3.5     4.0  6.7  0.8389E+00  0.6519E+01  0.6444E+01E
 Epicentro: LOS SANTOS - SANTANDER                                             3
 ACTION:UPD 17-10-05 19:15 OP:rebc STATUS:               ID:20170923193612 L   I
 OLDACT:REG 17-09-23 20:58 OP:lv   STATUS:               ID:20170923192744     3
 2017-09-23-1928-00M.COL___420                                                 6
 STAT SP IPHASW D HRMM SECON CODA AMPLIT PERI AZIMU VELO AIN AR TRES W  DIS CAZ7
 BAR2 EZ EP       1936 30.38                             171   -0.2510 21.0 182 
 BAR2 EZ ES       1936 44.94                             171   -0.1710 21.0 182 
 BAR2 EZ I        1936 47.19         2.2 0.10            169           21.0 182 
 PAM  EZ EP       1936 33.36                             148   -0.2710 81.2  41 
 PAM  HN ES       1936 50.61                             148    0.1710 81.2  41 
 PAM  EZ I        1936 52.59        10.8 0.52            150           81.2  41 
 RUS  HZ EP       1936 34.93                             142    0.0610 98.9 174 
 RUS  HN ES       1936 53.19                             142    0.5410 98.9 174 
 RUS  HZ I        1936 54.27         4.2 0.34            143           98.9 174 
 YPLC HZ EP       1936 41.92                             125    0.66 9  177 150 
 YPLC HN ES       1937  3.53                             125   -0.49 9  177 150 
 YPLC HZ I        1937  7.72         5.1 0.32            126            177 150 
 ZAR  HE ES       1937  8.33                             121   -0.08 9  202 293 
 NOR  HN ES       1937 14.36                             117    0.32 8  231 234 
 NOR  HZ I        1937 16.21         4.6 0.10            118            231 234 
 CHI  HZ EP       1936 49.09                             116    0.08 8  246 195 
 CHI  HN ES       1937 17.15                             116   -0.66 8  246 195 
 CHI  HZ I        1937 21.62         2.7 0.38            117            246 195 
                                                                                
