 2013  223 1635 40.3 L   6.847 -73.180141.3  RSN 14 0.5 3.2LRSN 3.3WRSN        1
 SPEC AVERAGE  MO 14.1 ST 21.1 OM  2.5 f0 4.12 R0.4145 AL 2.14 WI 42.9 MW  3.3 3
 SPEC SD       MO  0.3 ST 21.2 OM  0.6 f0 1.42 R0.1745 AL      WI      MW  0.2 3
 GAP= 68        1.23       3.3     3.6  6.0 -0.4168E+00  0.5527E+01 -0.2270E+00E
 Epicentro: ZAPATOCA - SANTANDER                                               3
 SPEC PTB HH Z MO 14.2 ST 39.9 OM  1.7 f0 5.78 R0.2543 AL 2.38 WI 26.5 MW  3.4 3
 SPEC PTB HH Z T1636 0 K 0.000 GD  202 VP 7.60 DE 3.20 Q0300.0 QA 0.60 VS 4.20 3
 SPEC RUS HH N MO 13.6 ST0.479 OM  2.0 f0 1.99 R0.7387 AL 1.08 WI 40.4 MW  3.0 3
 SPEC RUS HH N T163618 K 0.000 GD  176 VS 4.20 DE 3.20 Q0300.0 QA 0.60 VS 4.20 3
 SPEC OCA HH E MO 14.5 ST 45.5 OM  2.8 f0 4.64 R0.3168 AL 2.41 WI 41.8 MW  3.6 3
 SPEC OCA HH E T163628 K 0.000 GD  209 VS 4.20 DE 3.20 Q0300.0 QA 0.60 VS 4.20 3
 SPEC OCA HH Z MO 14.1 ST 11.1 OM  1.6 f0 4.03 R0.3648 AL 1.22 WI 30.4 MW  3.3 3
 SPEC OCA HH Z T1636 4 K 0.000 GD  209 VP 7.60 DE 3.20 Q0300.0 QA 0.60 VS 4.20 3
 SPEC PAM SH E MO 14.1 ST  2.0 OM  2.5 f0 2.26 R0.6504 AL 1.99 WI 50.5 MW  3.3 3
 SPEC PAM SH E T163618 K 0.000 GD  160 VS 4.20 DE 3.20 Q0300.0 QA 0.60 VS 4.20 3
 SPEC COD HH N MO 13.7 ST  8.2 OM  1.7 f0 5.05 R0.2911 AL 2.11 WI 55.6 MW  3.1 3
 SPEC COD HH N T1637 3 K 0.000 GD  370 VS 4.20 DE 3.20 Q0300.0 QA 0.60 VS 4.20 3
 SPEC CHI HH N MO 14.0 ST  4.3 OM  2.1 f0 3.24 R0.4537 AL 2.54 WI 54.3 MW  3.2 3
 SPEC CHI HH N T163645 K 0.000 GD  289 VS 4.20 DE 3.20 Q0300.0 QA 0.60 VS 4.20 3
 SPEC BRR HH N MO 14.3 ST 57.4 OM  2.7 f0 5.98 R0.2458 AL 3.36 WI 43.8 MW  3.5 3
 SPEC BRR HH N T163616 K 0.000 GD  155 VS 4.20 DE 3.20 Q0300.0 QA 0.60 VS 4.20 3
 ACTION:UPD 13-03-12 09:35 OP:ep   STATUS:               ID:20130223163540 L   I
 2013-02-23-1630-00M.COL___225                                                 6
 STAT SP IPHASW D HRMM SECON CODA AMPLIT PERI AZIMU VELO AIN AR TRES W  DIS CAZ7
 BAR2 SZ IP     D 1635 59.48                             168    0.0210 28.1 181 
 BAR2 SZ ES       1636 13.81                             168   -0.6310 28.1 181 
 BAR2 SZ I        1636 15.15       305.5 0.32            167           28.1 181 
 BRR  HZ IP       1636  1.25                             154    0.6410 65.5 296 
 BRR  HN ES       1636 17.21                             154    0.7410 65.5 296 
 BRR  HN I        1636 18.55       578.6 0.30            149           65.5 296 
 PAM  SZ EP       1636  2.21                             150    0.2910 76.1  44 
 PAM  SN ES       1636 19.21                             150    0.4010 76.1  44 
 PAM  SN I        1636 20.08       456.3 0.48            154           76.1  44 
 RUS  HZ EP       1636  3.57                             141   -0.4210  106 174 
 RUS  HN ES       1636 21.98                             141   -0.5110  106 174 
 PTB  HZ EP       1636  6.07                             131   -0.56 9  145 257 
 PTB  HN ES       1636 27.13                             131   -0.07 9  145 257 
 PTB  HN I        1636 28.41       214.8 0.48            129            145 257 
 OCA  HZ EP       1636  7.98                             130    0.28 9  155 354 
 OCA  HN ES       1636 28.87                             130   -0.24 9  155 354 
 OCA  HN I        1636 31.34       393.3 0.30            129            155 354 
 TAM  HZ IP     D 1636  7.96                             129   -0.11 9  160 106 
 TAM  HN ES       1636 29.51                             129   -0.24 9  160 106 
 ZAR  HZ EP       1636 12.17                             122    0.31 9  199 291 
 ZAR  HN ES   4   1636 37.78                             122    1.28 0  199 291 
 ZAR  HN I        1636 45.67       157.5 0.34            120            199 291 
 CHI  HZ EP       1636 17.97                             116   -0.19 8  253 194 
 CHI  HN ES       1636 48.65                             116    0.93 8  253 194 
 CHI  HN I        1636 50.88        48.7 0.26            115            253 194 
 HEL  HZ EP   1   1636 21.48                             114    1.49 6  270 255 
 HEL  HN ES       1636 50.76                             114   -0.22 8  270 255 
 HEL  HN I        1636 57.30        53.4 0.48            113            270 255 
 URE  HZ EP       1636 19.73                             113   -0.78 7  278 291 
 URE  HN ES       1636 51.06                             113   -0.84 7  278 291 
 URE  HN I        1637  1.59       106.8 0.24            112            278 291 
 RREF HZ EP       1636 26.03                             110   -0.25 7  322 228 
 RREF HN ES   4   1637  4.62                             110    2.45 0  322 228 
 RREF HZ I        1637 11.85        33.9 0.26            109            322 228 
 COD  HZ EP       1636 27.25                             108   -0.58 7  343 355 
 COD  HN ES       1637  5.38                             108    0.45 7  343 355 
 ANIL HZ EP   4   1636 31.49                             108    1.46 0  358 224 
 ANIL HN ES       1637  9.58                             108    0.74 6  358 224 
 ANIL HN I        1637 18.46        61.6 0.40            107            358 224 
                                                                                
