 2011  723 1527 29.4 L   6.741 -73.112150.1  RSN 15 0.3 2.6LRSN                1
 GAP=144        0.56       2.4     4.0  3.8 -0.3292E+01  0.4355E+01  0.1541E+01E
 Epicentro: JORDAN - SANTANDER                                                 3
 ACTION:UPD 12-07-25 14:02 OP:epov STATUS:               ID:20110723152729 L   I
 2011-07-23-1525-49S.COL___143                                                 6
 STAT SP IPHASW D HRMM SECON CODA AMPLIT PERI AZIMU VELO AIN AR TRES W  DIS CAZ7
 BAR2 SZ EP       1527 49.45                             173   -0.0310 18.2 205 
 BAR2 SZ ES   1   1528  4.75                             173   -0.38 7 18.2 205 
 BAR2 SZ I        1528  6.54       125.9 0.40                          18.2 205 
 BTL  SZ EP   1   1527 49.81                             170    0.19 7 26.1 319 
 GIR2 SZ EP       1527 49.72                             165   -0.0910 38.4 346 
 BRR  HZ EP   1   1527 51.40                             151    0.00 7 77.7 301 
 BRR  HN ES   1   1528  8.95                             151    0.40 7 77.7 301 
 BRR  HZ I        1528 11.87       106.4 0.18                          77.7 301 
 PAM  SZ EP   1   1527 52.05                             151   -0.22 7 80.4  35 
 PAM  SN ES   1   1528  9.74                             151   -0.36 7 80.4  35 
 RUS  HZ EP   1   1527 53.13                             147    0.00 7 93.9 178 
 RUS  HE ES   1   1528 11.78                             147    0.15 7 93.9 178 
 RUS  HZ I        1528 13.80        67.8 0.19                          93.9 178 
 BRI  SZ EP   1   1527 53.99                             141   -0.10 7  113  18 
 BRI  SZ ES   1   1528 13.79                             141    0.45 7  113  18 
 BRI  SZ I        1528 18.19        32.5 0.39                           113  18 
 OCA  SZ EP   1   1527 58.64                             129   -0.07 7  167 352 
 OCA  SZ ES   1   1528 21.72                             129    0.15 7  167 352 
 OCA  SZ I        1528 24.77        49.0 0.38                           167 352 
 NOR  SZ EP   1   1528  5.15                             119   -0.18 6  234 236 
 NOR  SN ES   1   1528 32.97                             119   -0.37 6  234 236 
 CHI  HZ EP   1   1528  7.34                             119    0.55 6  243 196 
 CHI  HE ES   2   1528 36.06                             119    0.12 4  243 196 
 CHI  HZ I        1528 42.76        33.1 0.52                           243 196 
 RREF HZ EP   1   1528 16.05                             112    0.46 5  320 231 
 TOL  SZ EP   1   1528 17.89                             110    0.27 5  342 226 
 DBB  SZ EP   1   1528 16.74                             110   -0.81 5  344 275 
 DBB  SZ I        1528 55.85         9.6 0.28                           344 275 
 PRA  HZ EP   1   1528 23.03                             107    0.39 4  388 211 
 SJA  SZ EP   1   1528 23.10                             107   -0.37 4  395 194 
                                                                                
