 2014  523 1954  4.0 L   6.804 -73.146144.0  RSN 17 0.4 3.1LRSN                1
 GAP= 71        1.01       3.3     2.8  5.0 -0.5141E+00  0.3306E+01  0.1465E+01E
 Epicentro: LOS SANTOS - SANTANDER                                             3
 ACTION:UPD 15-03-16 17:00 OP:nd   STATUS:               ID:20140523195404 L   I
 OLDACT:UP  14-05-24 00:50 OP:cam  STATUS:               ID:20140523195000     3
 OLDACT:REG 14-05-23 22:56 OP:cam  STATUS:               ID:20140523195000     3
 2014-05-23-1950-00M.COL___276                                                 6
 STAT SP IPHASW D HRMM SECON CODA AMPLIT PERI AZIMU VELO AIN AR TRES W  DIS CAZ7
 BAR2 SZ IP     D 1954 23.30                             170   -0.0910 23.8 190 
 BAR2 SZ ES       1954 37.95                             170   -0.6010 23.8 190 
 BAR2 SZ I        1954 39.62       452.4 0.22            167           23.8 190 
 BRR  HZ IP     C 1954 25.11                             152    0.2010 70.9 298 
 BRR  HN ES       1954 41.99                             152    0.7510 70.9 298 
 BRR  HZ I        1954 45.09       170.5 0.38            150           70.9 298 
 PAM  SZ EP       1954 26.10                             151    0.1310 77.1  40 
 PAM  SN ES       1954 43.15                             151    0.0110 77.1  40 
 PAM  SZ I        1954 45.03       214.4 0.44            155           77.1  40 
 RUS  HZ EP     C 1954 27.37                             143   -0.2010  101 176 
 RUS  HN ES       1954 45.96                             143   -0.0310  101 176 
 RUS  HZ I        1954 47.18        80.7 0.40            143            101 176 
 PTB  HZ EP       1954 29.93                             132   -0.86 9  148 259 
 PTB  HN ES       1954 51.06                             132   -0.66 9  148 259 
 PTB  HZ I        1954 56.71       161.0 0.52            130            148 259 
 TAM  HZ IP     C 1954 31.72                             130    0.20 9  155 105 
 TAM  HE ES       1954 53.31                             130    0.30 9  155 105 
 TAM  HZ I        1954 53.98        64.1 0.24            133            155 105 
 SPBC HZ EP       1954 32.29                             129   -0.07 9  164 219 
 SPBC HN ES       1954 54.97                             129    0.46 9  164 219 
 SPBC HZ I        1955  0.29       181.1 0.18            128            164 219 
 ZAR  HZ EP       1954 36.25                             122   -0.02 9  204 292 
 ZAR  HN ES       1955  1.49                             122    0.02 9  204 292 
 ZAR  HZ I        1955  6.97       154.9 0.48            122            204 292 
 NOR  HZ EP     C 1954 39.83                             118    0.22 8  235 234 
 NOR  HN ES       1955  7.59                             118    0.17 8  235 234 
 NOR  HZ I        1955 13.37       105.7 0.16            118            235 234 
 SML  HZ EP       1954 39.73                             117   -0.71 8  243 335 
 SML  HN ES   4   1955  7.15                             117   -1.74 0  243 335 
 SML  HZ I        1955 10.70       117.8 0.10            118            243 335 
 CHI  HZ EP       1954 41.70                             117    0.09 8  249 195 
 CHI  HN ES       1955 10.57                             117   -0.41 8  249 195 
 CHI  HZ I        1955 16.02        50.4 0.28            117            249 195 
 HEL  HZ EP       1954 44.72                             114    0.63 8  272 256 
 HEL  HN ES       1955 15.93                             114    0.54 8  272 256 
 HEL  HZ I        1955 21.49        65.2 0.32            114            272 256 
 URE  HZ EP   4	  1954 43.50                             113   -1.42 0  284 292 
 GUY2CHZ EP       1954 47.74                             112    0.23 7  301 235 
 GUY2CHN ES   4   1955 22.72                             112    1.23 0  301 235 
 GUY2CHZ I        1955 31.08        47.5 0.64                           301 235 
 RREF HZ EP   4   1954 50.24                             110    0.18 0  322 229 
 RREF HN ES   4   1955 26.83                             110    0.82 0  322 229 
 RREF HZ I        1955 35.56        47.4 0.30            110            322 229 
 DBB  SZ EP   4   1954 51.16                             109   -0.19 0  339 274 
 DBB  SZ ES   4   1955 26.45                             109   -1.87 0  339 274 
 DBB  SZ I        1955 35.58       108.0 0.30            109            339 274 
 TOL  SZ EP   4   1954 53.36                             109    1.18 0  344 225 
 ANIL HZ EP   4   1954 55.00                             108    1.27 0  358 224 
 SDV  BZ EP   4   1954 52.82                             108   -1.08 0  360  50 
 PRA  HZ EP   4   1954 57.42                             106   -0.04 0  392 210 
 PRA  HN ES   4   1955 38.66                             106   -0.54 0  392 210 
 PRA  HZ I        1955 45.74        62.4 0.30            106            392 210 
 ORTC HZ EP   4   1954 57.66                             106   -0.20 0  396 216 
 ORTC HN ES   4   1955 41.07                             106    1.17 0  396 216 
 ORTC HZ I        1955 47.57        34.0 0.62            106            396 216 
 SJC  HZ EP   4   1954 57.50                             105   -1.91 0  409 327 
                                                                                
