 2017 1023 1034 30.7 L   7.012 -73.439116.0  RSN  5 0.4 1.5LRSN                1
 GAP=219        0.66       6.7     4.0  5.4  0.7610E+01  0.2415E+01  0.1068E+02E
 Epicentro: SAN VICENTE DE CHUCURI - SANTANDER                                 3
 ACTION:UPD 17-11-07 19:35 OP:rebc STATUS:               ID:20171023103430 L   I
 OLDACT:UP  17-10-23 23:04 OP:dani STATUS:               ID:20171023102648     3
 OLDACT:UP  17-10-23 23:04 OP:dani STATUS:               ID:20171023102648     3
 OLDACT:UP  17-10-23 23:04 OP:dani STATUS:               ID:20171023102648     3
 OLDACT:REG 17-10-23 20:22 OP:dani STATUS:               ID:20171023102648     3
 2017-10-23-1028-00M.COL___389                                                 6
 STAT SP IPHASW D HRMM SECON CODA AMPLIT PERI AZIMU VELO AIN AR TRES W  DIS CAZ7
 BRR  HZ EP     D 1034 46.60                             164   -0.1110 32.0 289 
 BRR  HE ES       1034 59.45                             164    0.2910 32.0 289 
 BRR  HZ I        1034 59.90        13.2 0.12            159           32.0 289 
 BAR2 EZ EP       1034 47.92                             153   -0.1510 54.4 149 
 BAR2 EZ ES       1035  1.51                             153   -0.0710 54.4 149 
 BAR2 EZ I        1035  3.56        15.2 0.80            150           54.4 149 
 PTB  HZ EP       1034 52.81                             130   -0.3310  124 245 
 PTB  HN ES       1035 10.66                             130    0.0410  124 245 
 PTB  HZ I        1035 16.50         2.9 0.10            127            124 245 
 RUS  HZ EP       1034 54.59                             129    0.2610  130 162 
 GUY2CHZ EP   3   1035 14.11                             107    2.18 2  291 227 
                                                                                
