 2011  623 1407 47.9 L   6.775 -73.102139.2  RSN 10 0.4 2.2LRSN                1
 GAP=161        0.84       4.0     6.4  6.4 -0.1320E+02  0.7455E+00  0.6284E+01E
 Epicentro: LOS SANTOS - SANTANDER                                             3
 ACTION:UP  11-07-14 19:07 OP:ep   STATUS:               ID:20110623140747 L   I
 2011-06-23-1400-00M.COL___121                                                 6
 STAT SP IPHASW D HRMM SECON CODA AMPLIT PERI AZIMU VELO SNR AR TRES W  DIS CAZ7
 BAR2 SZ IP       14 8  6.79                             171     0.110   22 204 
 BAR2 SZ I        14 8  6.95        32.0 0.21                            22 204 
 BAR2 SZ ES   1   14 8 21.38                             171     0.0 7   22 204 
 BTL  SZ IP       14 8  7.00                             170     0.310   24 311 
 BRR  HZ IP     C 14 8  8.64                             149     0.010   77 299 
 BRR  HZ I        14 8  9.00        44.2 0.11                            77 299 
 BRR  HN ES   1   14 8 25.23                             149     0.4 7   77 299 
 RUS  HZ EP       14 8 10.77                             143     0.010   98 179 
 RUS  HZ I        14 8 12.00        15.0 0.17                            98 179 
 RUS  HN ES   2   14 8 27.66                             143    -1.0 5   98 179 
 BRI  SZ EP       14 8 11.44                             140     0.210  109  18 
 BRI  SZ ES   1   14 8 29.43                             140     0.0 7  109  18 
 GRA  SZ IP       14 8 12.69                             135     0.010  127  15 
 GRA  SZ ES   1   14 8 31.38                             135    -0.6 7  127  15 
 GRA  SZ I        14 8 34.22        18.7 0.44                           127  15 
 OCA  SZ ES   3   14 8 37.66                             127    -0.3 2  164 352 
 OCA  SZ I        14 8 41.69        17.1 0.30                           164 352 
 NOR  SZ EP       14 8 22.87                             117    -0.6 8  237 236 
 NOR  SN ES   1   14 8 51.02                             117    -0.2 6  237 236 
 CHI  HZ EP   2   14 8 24.68                             116    -0.4 4  247 196 
 CHI  HN ES   2   14 8 55.51                             116     1.4 4  247 196 
 PRA  HZ EP       14 8 41.30                             105     0.1 6  392 210 
 PRA  HN ES   2   14 9 22.87                             105     0.1 3  392 210 
 PRA  HZ I        14 9 26.78         9.8 0.37                           392 210 
                                                                                
