 2014  923 1310 34.9 L   6.792 -73.133144.0  RSN 16 0.4 2.2LRSN                1
 GAP=138        1.02       2.9     4.3  5.7 -0.1761E+01  0.4153E+01  0.1542E+01E
 Epicentro: LOS SANTOS - SANTANDER                                             3
 ACTION:UPD 14-10-03 23:07 OP:nd   STATUS:               ID:20140923131034 L   I
 OLDACT:REG 14-09-23 21:09 OP:spq  STATUS:               ID:20140923130819     3
 2014-09-23-1308-19M.COL___281                                                 6
 STAT SP IPHASW D HRMM SECON CODA AMPLIT PERI AZIMU VELO AIN AR TRES W  DIS CAZ7
 BAR2 SZ EP     D 1310 54.34                             171    0.0410 22.7 194 
 BAR2 SZ ES   1   1311  9.04                             171   -0.40 7 22.7 194 
 BAR2 SZ I        1311 10.41        56.9 0.22            169           22.7 194 
 BRR  HZ EP       1310 56.26                             152    0.3110 72.8 299 
 BRR  HN ES       1311 13.36                             152    0.9910 72.8 299 
 BRR  HZ I        1311 16.87        34.7 0.30            149           72.8 299 
 PAM  SZ IP     C 1310 57.29                             151    0.3810 77.2  38 
 PAM  SN ES       1311 14.17                             151    0.0810 77.2  38 
 PAM  SZ I        1311 16.72        23.3 0.60            153           77.2  38 
 RUS  HZ EP       1310 58.25                             144   -0.1510 99.6 177 
 RUS  HN ES   1   1311 16.75                             144    0.01 7 99.6 177 
 RUS  HZ I        1311 18.52        12.9 0.20            144           99.6 177 
 PTB  HZ EP       1311  1.09                             132   -0.74 9  149 259 
 PTB  HN ES       1311 22.39                             132   -0.44 9  149 259 
 PTB  HZ I        1311 25.35        22.4 0.16            130            149 259 
 OCA  HZ EP       1311  3.16                             129   -0.01 9  161 353 
 OCA  HE ES       1311 24.67                             129   -0.55 9  161 353 
 OCA  HZ I        1311 27.87        16.2 0.26            129            161 353 
 SPBC HZ EP       1311  3.16                             129   -0.11 9  163 220 
 SPBC HN ES       1311 25.10                             129   -0.31 9  163 220 
 SPBC HZ I        1311 26.44        20.8 0.18            128            163 220 
 ZAR  HZ EP   1   1311  7.78                             122    0.39 6  206 292 
 ZAR  HE ES       1311 33.11                             122    0.37 8  206 292 
 ZAR  HZ I        1311 35.33        18.0 0.26            121            206 292 
 SML  HZ EP       1311 11.03                             117   -0.54 8  245 335 
 SML  HN ES   1   1311 39.62                             117   -0.56 6  245 335 
 SML  HZ I        1311 45.34        13.4 0.05            117            245 335 
 CHI  HZ EP   1   1311 12.60                             117    0.16 6  248 196 
 CHI  HN ES   1   1311 41.55                             117   -0.18 6  248 196 
 CHI  HZ I        1311 48.91         3.9 0.28            117            248 196 
 ROSC BN ES   4   1311 43.70                             116    1.14 0  253 211 
 ROSC BZ I        1311 49.77        13.8 0.60            116            253 211 
 GUY2CHZ EP       1311 19.29                             112    0.80 7  302 235 
 GUY2CHE ES   4   1311 54.21                             112    1.72 0  302 235 
 GUY2CHZ I        1312  0.95         9.4 0.44                           302 235 
 TOL  SN ES   4   1312  3.27                             109    2.54 0  344 225 
 TOL  SZ I        1312  6.25        15.5 0.46            109            344 225 
 MON  HN ES   4   1312  0.55                             108   -1.78 0  355 308 
 MON  HZ I        1312 15.69         5.0 0.52            108            355 308 
 PRA  HZ EP   1   1311 28.40                             106    0.06 4  392 210 
 PRA  HE ES   1   1312 10.58                             106    0.55 4  392 210 
 PRA  HZ I        1312 15.94         4.1 0.22            106            392 210 
 SJC  HZ EP   4   1311 31.66                             105    1.08 0  411 327 
 SJC  HN ES   4   1312  9.50                             105   -4.51 0  411 327 
 SJC  HZ I        1312 14.37         2.5 0.68            105            411 327 
                                                                                
