 2011  423 1147 17.5 L   6.780 -73.104144.5  RSN 10 0.3 1.8LRSN                1
 GAP=143        0.71       3.9     6.3  5.3 -0.6880E+01  0.1924E+01 -0.1451E+00E
 Epicentro: LOS SANTOS - SANTANDER                                             3
 ACTION:UP  11-06-22 15:32 OP:REBC STATUS:               ID:20110423114717 L   I
 2011-04-23-1142-08S.COL___139                                                 6
 STAT SP IPHASW D HRMM SECON CODA AMPLIT PERI AZIMU VELO SNR AR TRES W  DIS CAZ7
 BAR2 SZ EP   1   1147 36.74                             171    -0.2 7   23 203 
 BAR2 SZ ES   1   1147 51.48                             171    -0.7 7   23 203 
 BAR2 SZ I        1147 53.23        23.8 0.20                            23 203 
 BTL  SZ EP   1   1147 37.11                             170     0.1 7   24 310 
 GIR2 SZ EP   1   1147 37.17                             166     0.1 7   35 343 
 GIR2 SZ ES   1   1147 52.25                             166    -0.2 7   35 343 
 BRR  HZ EP   1   1147 38.74                             151    -0.1 7   76 298 
 BRR  HZ I        1147 40.83        27.5 0.12                            76 298 
 BRR  HN ES   1   1147 55.93                             151     0.5 7   76 298 
 PAM  SZ EP   1   1147 39.82                             151     0.3 7   76  36 
 RUS  HZ EP   1   1147 40.95                             144     0.0 7   98 179 
 RUS  HN ES   1   1147 59.74                             144     0.5 7   98 179 
 RUS  HZ I        1148  0.71         8.3 0.21                            98 179 
 BRI  SZ EP   1   1147 41.36                             141     0.0 7  109  18 
 BRI  SZ I        1147 45.04         8.0 0.22                           109  18 
 GRA  SZ EP   1   1147 42.59                             136    -0.1 7  127  15 
 GRA  SZ I        1147 44.22        10.4 0.24                           127  15 
 GRA  SZ ES   1   1148  2.33                             136     0.0 7  127  15 
 NOR  SZ EP   1   1147 53.14                             118    -0.3 6  237 236 
 NOR  SZ I        1148 23.18         1.2 0.21                           237 236 
 HEL  HZ EP   1   1147 58.05                             114     0.0 6  276 256 
 HEL  HZ I        1147 59.62         2.6 0.53                           276 256 
                                                                                
