 2011  723 1920 52.9 L   6.783 -73.099148.8  RSN  6 0.2 1.6LRSN                1
 GAP=161        0.41       2.6     4.7  4.5 -0.3773E+01  0.2020E+01 -0.1229E+01E
 Epicentro: LOS SANTOS - SANTANDER                                             3
 ACTION:UPD 12-07-25 14:02 OP:epov STATUS:               ID:20110723192052 L   I
 2011-07-23-1918-03S.COL___143                                                 6
 STAT SP IPHASW D HRMM SECON CODA AMPLIT PERI AZIMU VELO AIN AR TRES W  DIS CAZ7
 BAR2 SZ EP   1   1921 12.73                             171   -0.19 7 23.0 204 
 BAR2 SZ ES   1   1921 28.59                             171    0.08 7 23.0 204 
 BAR2 SZ I        1921 29.33        10.4 0.22                          23.0 204 
 BTL  SZ EP   1   1921 12.97                             170    0.03 7 23.9 309 
 BRR  HZ EP   1   1921 14.71                             151   -0.01 7 76.6 298 
 BRR  HZ I        1921 16.11        13.7 0.12                          76.6 298 
 BRR  HE ES   2   1921 32.03                             151    0.32 5 76.6 298 
 RUS  HZ EP   1   1921 17.05                             145    0.21 7 98.5 179 
 RUS  HZ I        1921 19.21         4.0 0.11                          98.5 179 
 RUS  HN ES   1   1921 35.39                             145   -0.08 7 98.5 179 
 BRI  SZ EP   1   1921 17.32                             142    0.20 7  109  18 
 BRI  SZ ES   1   1921 35.73                             142   -0.25 7  109  18 
 BRI  SZ I        1921 37.87         5.7 0.21                           109  18 
 NOR  SN ES   2   1921 57.02                             119   -0.42 4  238 236 
                                                                                
