 2014 1223 1501 37.7 L   6.872 -73.302125.4  RSN  8 0.4 2.3LRSN                1
 GAP=178        1.11       3.9     5.6  7.6  0.8224E+01  0.9416E+01 -0.1114E+00E
 Epicentro: BETULIA - SANTANDER                                                3
 ACTION:UPD 15-02-10 17:06 OP:nd   STATUS:               ID:20141223150137 L   I
 OLDACT:DUP 14-12-23 21:35 OP:carl STATUS:               ID:20141223145748d    3
 2014-12-23-1457-47M.COL___295                                                 6
 STAT SP IPHASW D HRMM SECON CODA AMPLIT PERI AZIMU VELO AIN AR TRES W  DIS CAZ7
 BAR2 EZ IP       15 1 55.44                             164    0.2310 33.6 157 
 BAR2 EZ ES       15 2  8.62                             164   -0.2210 33.6 157 
 BAR2 EZ I        15 2  9.83        86.2 0.32            167           33.6 157 
 BRR  HZ IP     D 15 1 55.83                             156    0.1910 52.3 300 
 BRR  HN ES       15 2  9.80                             156    0.2010 52.3 300 
 BRR  HZ I        15 2 10.30        35.4 0.12            151           52.3 300 
 RUS  HZ EP       15 2  0.87                             136    0.4810  111 167 
 RUS  HN ES       15 2 17.92                             136   -0.1410  111 167 
 PTB  HZ IP     D 15 2  0.77                             130   -0.9210  133 254 
 PTB  HE ES       15 2 20.26                             130   -0.1210  133 254 
 PTB  HZ I        15 2 22.54        20.4 0.12            128            133 254 
 SPBC HN ES       15 2 24.78                             125   -0.39 9  160 212 
 SPBC HZ I        15 2 30.17        21.9 0.10            124            160 212 
 ZAR  HZ EP       15 2  6.77                             120   -0.14 9  185 292 
 ZAR  HN ES       15 2 30.53                             120    0.87 9  185 292 
 ZAR  HZ I        15 2 37.41        14.4 0.22            118            185 292 
 SML  HN ES       15 2 37.80                             114   -0.44 8  230 338 
 SML  HZ I        15 2 44.86        29.4 0.10            113            230 338 
 CHI  HN ES       15 2 44.19                             112    0.45 8  252 191 
                                                                                
