 2016  423 1926 14.4 L   6.816 -73.176140.8  RSN 10 0.4 2.1LRSN                1
 GAP=132        0.99       2.9     4.0  6.0 -0.2297E+01  0.7984E+01  0.1423E+00E
 Epicentro: ZAPATOCA - SANTANDER                                               3
 ACTION:UPD 16-05-05 14:23 OP:rebc STATUS:               ID:20160423192614 L   I
 OLDACT:REG 16-04-23 22:10 OP:ar   STATUS:               ID:20160423191745     3
 2016-04-23-1917-45M.COL___317                                                 6
 STAT SP IPHASW D HRMM SECON CODA AMPLIT PERI AZIMU VELO AIN AR TRES W  DIS CAZ7
 BAR2 EZ EP       1926 33.46                             170    0.0110 24.8 182 
 BAR2 EZ ES       1926 48.25                             170   -0.0710 24.8 182 
 BAR2 EZ I        1926 49.49        50.7 0.20            170           24.8 182 
 PAM  EZ EP       1926 36.31                             150    0.1910 78.2  42 
 PAM  EN ES       1926 53.42                             150    0.3410 78.2  42 
 PAM  EZ I        1926 55.86        17.8 0.46            153           78.2  42 
 RUS  HZ EP       1926 37.69                             142   -0.1110  103 174 
 RUS  HN ES       1926 56.19                             142    0.1210  103 174 
 RUS  HZ I        1926 57.03        14.9 0.36            145            103 174 
 PTB  HZ EP       1926 40.30                             131   -0.38 9  145 258 
 PTB  HE ES       1927  0.23                             131   -0.96 9  145 258 
 PTB  HZ I        1927  6.45        12.9 0.28            131            145 258 
 OCA  HZ EP       1926 41.51                             129   -0.60 9  158 354 
 OCA  HN ES       1927  3.45                             129   -0.28 9  158 354 
 OCA  HZ I        1927  6.85        34.8 0.26            130            158 354 
 SPBC HZ EP       1926 42.47                             128    0.03 9  163 218 
 SPBC HN ES       1927  4.44                             128    0.11 9  163 218 
 SPBC HZ I        1927  5.78        23.1 0.16            129            163 218 
 ZAR  HZ EP       1926 46.53                             122    0.42 9  200 292 
 ZAR  HE ES       1927 11.90                             122    1.04 9  200 292 
 ZAR  HZ I        1927 18.26        18.7 0.38            122            200 292 
 NOR  HZ E        1921 33.61                                            233 234 
 NOR  HZ EP       1926 49.88                             118    0.23 8  233 234 
 NOR  HN ES       1927 17.21                             118    0.06 8  233 234 
 NOR  HZ I        1927 22.38        10.7 0.30            119            233 234 
 CHI  HZ EP       1926 51.95                             116    0.04 8  250 194 
 CHI  HN ES       1927 21.26                             116    0.08 8  250 194 
 CHI  HZ I        1927 26.09         5.2 0.30            118            250 194 
 GUY2CHZ EP   2   1926 57.54                             111   -0.03 4  299 234 
 GUY2CHN ES   4   1927 32.87                             111    1.61 0  299 234 
 GUY2CHZ I        1927 38.42         6.0 0.30                           299 234 
                                                                                
