 2010 1223 1914 54.3 L   6.795 -73.144142.3  RSN  6 0.4 1.9LRSN                1
 GAP=159        0.72       4.7     9.3  7.5 -0.2155E+02  0.3287E+02 -0.7071E+01E
 Epicentro: LOS SANTOS - SANTANDER                                             3
 ACTION:UP  11-01-14 15:26 OP:pat  STATUS:               ID:20101223191454 L   I
 2010-12-23-1909-32S.COL___135                                                 6
 STAT SP IPHASW D HRMM SECON CODA AMPLIT PERI AZIMU VELO SNR AR TRES W  DIS CAZ7
 BAR2 SZ EP       1915 13.50                             170     0.010   23 191 
 BAR2 SZ ES   1   1915 28.62                             170     0.1 7   23 191 
 BAR2 SZ I        1915 29.93        24.9 0.05                            23 191 
 RUS  HZ EP   1   1915 17.61                             143    -0.1 7  100 176 
 RUS  HN ES   1   1915 36.10                             143     0.2 7  100 176 
 RUS  HZ I        1915 37.39         9.1 0.34                           100 176 
 GRA  SZ EP   1   1915 19.26                             136    -0.1 7  126  17 
 GRA  SZ ES   1   1915 38.71                             136    -0.1 7  126  17 
 GRA  SZ I        1915 40.34         9.3 0.48                           126  17 
 NOR  SZ EP   2   1915 29.59                             118    -0.3 4  235 235 
 NOR  SN ES   2   1915 56.69                             118    -0.9 4  235 235 
 CHI  HZ EP   1   1915 31.51                             117    -0.3 6  248 195 
 HEL  HZ EP   1   1915 35.33                             114     1.0 6  272 256 
 HEL  HZ I        1915 35.84         4.9 0.53                           272 256 
                                                                                
