 2012  823 1422 23.7 L   6.789 -73.165146.7  RSN  5 0.3 1.4LRSN                1
 GAP=135        0.64       4.4     3.8  7.4  0.1171E+01  0.4690E+01  0.3343E+01E
 Epicentro: LOS SANTOS - SANTANDER                                             3
 ACTION:UPD 12-09-10 11:58 OP:ep   STATUS:               ID:20120823142223 L   I
 2012-08-23-1420-00M.COL___217                                                 6
 STAT SP IPHASW D HRMM SECON CODA AMPLIT PERI AZIMU VELO AIN AR TRES W  DIS CAZ7
 BRR  HZ EP   1   1422 45.11                             153    0.28 7 69.9 300 
 BRR  HZ I        1422 45.49         5.5 0.35                          69.9 300 
 BRR  HN ES   1   1423  1.91                             153    0.57 7 69.9 300 
 PAM  SZ EP   1   1422 46.23                             150    0.13 7 79.7  40 
 PAM  SN ES   1   1423  3.16                             150   -0.45 7 79.7  40 
 PAM  SZ I        1423  5.69         4.0 0.46                          79.7  40 
 RUS  HZ EP   1   1422 47.58                             144    0.16 7 99.5 175 
 RUS  HE ES   1   1423  5.89                             144   -0.06 7 99.5 175 
 RUS  HZ I        1423  6.99         3.2 0.26                          99.5 175 
 PTB  HZ EP   1   1422 50.27                             133   -0.21 7  145 259 
 PTB  HN ES   1   1423 11.10                             133   -0.30 7  145 259 
 ZAR  HN ES   1   1423 20.99                             123   -0.24 6  203 293 
                                                                                
