 2012  523 1045  5.4 L   6.815 -73.124140.0  RSN  5 0.3 1.4LRSN                1
 GAP=185        0.76       4.7     6.0 11.3  0.7134E+01  0.1404E+02 -0.6784E+01E
 Epicentro: LOS SANTOS - SANTANDER                                             3
 ACTION:UP  12-07-05 12:07 OP:pat  STATUS:               ID:20120523104505 L   I
 2012-05-23-1040-00M.COL___200                                                 6
 STAT SP IPHASW D HRMM SECON CODA AMPLIT PERI AZIMU VELO SNR AR TRES W  DIS CAZ7
 BAR2 SZ EP   1   1045 24.46                             169     0.0 7   26 195 
 BAR2 SZ ES   2   1045 39.56                             169     0.3 5   26 195 
 BAR2 SZ I        1045 49.35         7.2 0.32                            26 195 
 RUS  HZ EP   1   1045 29.21                             142     0.5 7  102 177 
 RUS  HN ES   1   1045 46.65                             142    -0.3 7  102 177 
 RUS  HZ I        1045 51.26         3.0 0.58                           102 177 
 PTB  HZ EP   1   1045 31.73                             130    -0.5 7  150 258 
 PTB  HN ES   1   1045 52.88                             130    -0.2 7  150 258 
 PTB  HZ I        1045 56.21         4.1 0.13                           150 258 
 OCA  HN ES   1   1045 54.58                             128    -0.2 7  159 352 
 ZAR  HE ES   1   1046  3.35                             121     0.5 6  206 291 
                                                                                
