 2010  323 1114 19.4 L   6.800 -73.011149.0  RSN  4 0.1 1.3LRSN                1
 GAP=251        0.34       3.8     8.1  4.6  0.1417E+02 -0.3107E+01  0.3007E+01E
 Epicentro: CEPITA - SANTANDER                                                 3
 ACTION:UP  10-08-24 09:55 OP:vdl  STATUS:               ID:20100323111419 L   I
 2010-03-23-1111-54S.COL___098                                                 6
 STAT SP IPHASW D HRMM SECON CODA AMPLIT PERI AZIMU VELO SNR AR TRES W  DIS CAZ7
 BAR2 SZ EP   1   1114 39.55                             168     0.0 7   30 220 
 BAR2 SZ ES   2   1114 55.25                             168    -0.1 5   30 220 
 BRR  HZ EP   1   1114 41.59                             149    -0.1 7   85 294 
 BRR  HN ES   2   1114 59.33                             149     0.2 5   85 294 
 RUS  HZ EP   1   1114 43.60                             144     0.1 7  101 185 
 RUS  HN ES   2   1115  2.28                             144     0.0 5  101 185 
 RUS  HZ I        1115  5.04         3.0 0.68                           101 185 
 CHI  HZ EP   1   1114 57.95                             117     0.2 6  253 198 
 CHI  HN ES   2   1115 27.43                             117    -0.3 4  253 198 
 CHI  HZ I        1115 35.59         1.5 0.52                           253 198 
                                                                                
