 2014  123 1256 13.4 L   6.764 -73.471104.3  RSN 15 0.7 2.5LRSN 3.0WRSN        1
 SPEC AVERAGE  MO 13.5 ST274.2 OM  1.7 f0 19.0 R0.9416 AL 0.00 WI 20.0 MW  3.0 3
 SPEC SD       MO  0.2 ST357.8 OM  0.4 f0 12.9 R0.7840 AL      WI      MW  0.1 3
 GAP= 68        1.67       3.5     4.5  9.0 -0.3669E+01  0.1577E+02 -0.3400E+01E
 Epicentro: EL CARMEN DE CHUCURI - SANTANDER                                   3
 SPEC PAM SH Z MO 13.1 ST 21.7 OM  1.3 f0 13.6 R0.1415 AL-0.00 WI 20.0 MW  2.7 3
 SPEC PAM SH Z T125648 K 0.050 GD  148 VS 5.20 DE 3.20 Q0750.0 QA 1.50 VS 5.20 3
 SPEC PTB HH Z MO 13.6 ST999.9 OM  1.7 f0 40.0 R0.0481 AL-0.00 WI 20.0 MW  3.0 3
 SPEC PTB HH Z T125647 K 0.050 GD  153 VS 5.20 DE 3.20 Q0750.0 QA 1.50 VS 5.20 3
 SPEC SPBCHH Z MO 13.3 ST817.0 OM  1.4 f0 40.0 R0.0481 AL-0.00 WI 20.0 MW  2.8 3
 SPEC SPBCHH Z T125652 K 0.050 GD  174 VS 5.20 DE 3.20 Q0750.0 QA 1.50 VS 5.20 3
 SPEC OCA HH Z MO 13.4 ST115.4 OM  1.4 f0 20.1 R0.0957 AL-0.00 WI 20.0 MW  2.9 3
 SPEC OCA HH Z T125657 K 0.050 GD  194 VS 5.20 DE 3.20 Q0750.0 QA 1.50 VS 5.20 3
 SPEC ZAR HH Z MO 13.5 ST395.2 OM  1.5 f0 27.7 R0.0695 AL-0.00 WI 20.0 MW  2.9 3
 SPEC ZAR HH Z T1257 1 K 0.050 GD  202 VS 5.20 DE 3.20 Q0750.0 QA 1.50 VS 5.20 3
 SPEC CHI HH Z MO 13.3 ST  1.4 OM  1.2 f0 4.84 R0.3975 AL-0.00 WI 20.0 MW  2.8 3
 SPEC CHI HH Z T125713 K 0.050 GD  259 VS 5.20 DE 3.20 Q0750.0 QA 1.50 VS 5.20 3
 SPEC URE HH Z MO 13.3 ST116.5 OM  1.2 f0 21.0 R0.0916 AL-0.00 WI 20.0 MW  2.8 3
 SPEC URE HH Z T125714 K 0.050 GD  272 VS 5.20 DE 3.20 Q0750.0 QA 1.50 VS 5.20 3
 SPECGUY2CHH Z MO 13.1 ST  3.0 OM  1.0 f0 7.03 R 0.274 AL-0.00 WI 20.0 MW  2.7 3
 SPECGUY2CHH Z T125719 K 0.050 GD289.4 VS 5.20 DE 3.20 Q0750.0 QA 1.50 VS 5.20 3
 SPEC PRA HH Z MO 13.5 ST0.963 OM  1.2 f0 3.78 R0.5090 AL-0.00 WI 20.0 MW  2.9 3
 SPEC PRA HH Z T125741 K 0.050 GD  386 VS 5.20 DE 3.20 Q0750.0 QA 1.50 VS 5.20 3
 OLDACT:DUP 14-01-23 16:40 OP:stll STATUS:               ID:20140123124820d    3
 ACTION:UPD 14-03-13 09:57 OP:ep   STATUS:               ID:20140123125613 L   I
 OLDACT:UP  14-01-23 17:19 OP:stll STATUS:               ID:20140123124820d    3
 SPEC SDV BH Z MO 14.9 ST0.009 OM  2.6 f00.272 R7.0735 AL-0.00 WI 20.0 MW  3.9 3
 SPEC SDV BH Z T125741 K 0.050 GD  404 VS 5.20 DE 3.20 Q0750.0 QA 1.50 VS 5.20 3
 2014-01-23-1248-18M.COL___247                                                 6
 STAT SP IPHASW D HRMM SECON CODA AMPLIT PERI AZIMU VELO AIN AR TRES W  DIS CAZ7
 BAR2 SZ IP     D 1256 29.15                             159    0.5310 37.2 121 
 BAR2 SZ ES       1256 41.07                             159    0.6210 37.2 121 
 BAR2 SZ I        1256 42.49       533.5 0.36            157           37.2 121 
 PAM  SZ IP     C 1256 34.07                             131    0.1510  106  53 
 RUS  HZ EP       1256 33.69                             131   -0.1610  106 156 
 RUS  HN ES       1256 49.55                             131   -0.2110  106 156 
 RUS  SZ I        1256 51.78        29.7 0.34            130            106 156 
 PAM  SN ES       1256 49.98                             131    0.0910  106  53 
 PAM  SZ I        1256 52.15        33.9 0.16            128            106  53 
 PTB  HZ IP     C 1256 33.33                             129   -0.4610  112 257 
 PTB  HN ES       1256 48.58                             129   -1.0810  112 257 
 PTB  SZ I        1256 50.02        93.2 0.12            129            112 257 
 SPBC HZ EP       1256 36.41                             122   -0.27 9  140 208 
 SPBC HN ES       1256 54.10                             122   -0.70 9  140 208 
 SPBC SZ I        1256 57.39        37.8 0.14            122            140 208 
 OCA  HZ EP       1256 39.21                             117   -0.10 9  164   6 
 OCA  HN ES       1256 58.89                             117   -0.59 9  164   6 
 OCA  SZ I        1257  6.03        45.0 0.36            116            164   6 
 ZAR  HZ EP       1256 41.24                             116    1.12 9  173 298 
 ZAR  HE ES       1257  2.97                             116    2.04 9  173 298 
 ZAR  SZ I        1257  6.12        58.0 0.28            115            173 298 
 NOR  HZ EP       1256 42.98                             111   -0.64 9  204 229 
 NOR  HE ES       1257  7.00                             111   -0.16 9  204 229 
 NOR  SZ I        1257 12.45        16.9 0.22            112            204 229 
 SML  HZ EP       1256 46.78                             108   -0.31 8  235 344 
 SML  HN ES       1257 12.35                             108   -0.99 8  235 344 
 SML  SZ I        1257 18.43        31.0 0.08            108            235 344 
 HEL  HZ EP       1256 48.47                             108    0.73 8  236 255 
 HEL  HN ES       1257 14.04                             108   -0.44 8  236 255 
 HEL  SZ I        1257 20.17        11.2 0.18            109            236 255 
 CHI  HZ EP       1256 48.27                             108    0.30 8  238 187 
 CHI  HN ES       1257 15.22                             108    0.32 8  238 187 
 CHI  SZ I        1257 20.81        17.5 0.32            108            238 187 
 URE  HZ EP       1256 48.89                             106   -0.29 8  252 296 
 URE  HN ES   4   1257 16.43                             106   -0.63 0  252 296 
 URE  SZ I        1257 19.37        31.9 0.12            107            252 296 
 GUY2CHZ EP       1256 52.88                             105    1.05 8  270 231 
 GUY2CHN ES       1257 21.07                             105   -0.69 8  270 231 
 GUY2CSZ I        1257 27.68        11.9 0.48                           270 231 
 PRA  HZ EP       1257  4.24                              98    0.78 6  372 205 
 PRA  HN ES       1257 42.99                              98    0.53 6  372 205 
 PRA  SZ I        1257 51.10        16.7 0.84            101            372 205 
 SDV  BZ EP       1257  5.06                              98   -0.89 6  391  53 
 SDV  BN ES   4   1257 42.71                              98   -4.20 0  391  53 
                                                                                
