 2012  123 1853 19.0 L   6.798 -73.164145.1  RSN 16 0.5 3.2LRSN                1
 GAP=159        1.18       4.7     6.6  7.1  0.5506E+01  0.1368E+02  0.6407E+01E
 Epicentro: LOS SANTOS - SANTANDER                                             3
 ACTION:UP  12-02-03 08:20 OP:REBC STATUS:               ID:20120123185319 L   I
 2012-01-23-1850-00M.COL___186                                                 6
 STAT SP IPHASW D HRMM SECON CODA AMPLIT PERI AZIMU VELO SNR AR TRES W  DIS CAZ7
 BAR2 SZ IP       1853 38.51                             171     0.010   23 185 
 BAR2 SZ ES   1   1853 53.27                             171    -0.5 7   23 185 
 BAR2 SZ I        1853 56.34       372.7 0.36                            23 185 
 BRR  HZ IP     D 1853 40.35                             153     0.410   70 299 
 BRR  HN ES   1   1853 57.56                             153     1.2 7   70 299 
 RUS  HZ IP     D 1853 42.43                             144    -0.210  101 175 
 RUS  HN ES   1   1854  1.44                             144     0.3 7  101 175 
 RUS  HZ I        1854  2.93       193.9 0.44                           101 175 
 PTB  HZ EP       1853 44.88                             132    -0.8 9  146 259 
 PTB  HN ES   2   1854  5.62                             132    -0.9 5  146 259 
 PTB  HZ I        1854  8.27       132.7 1.00                           146 259 
 OCA  SZ EP       1853 46.83                             130    -0.4 9  160 354 
 OCA  SZ I        1854 15.30        99.1 0.47                           160 354 
 YOP  SZ EP   1   1853 49.18                             126     0.1 7  180 153 
 YOP  SZ I        1854 13.83       134.7 0.32                           180 153 
 ZAR  HZ EP       1853 50.89                             123    -0.3 9  202 292 
 ZAR  HN ES   2   1854 16.22                             123    -0.1 4  202 292 
 ZAR  HZ I        1854 22.08       137.9 0.46                           202 292 
 NOR  SZ EP       1853 54.32                             119    -0.2 8  233 234 
 NOR  SE ES   1   1854 21.52                             119    -0.7 6  233 234 
 CHI  HZ EP       1853 56.42                             117    -0.1 8  248 195 
 CHI  HN ES   1   1854 26.01                             117     0.1 6  248 195 
 CHI  HZ I        1854 35.56        68.0 0.58                           248 195 
 HEL  HZ EP       1853 59.14                             115     0.2 8  270 256 
 HEL  HN ES   3   1854 29.43                             115    -0.7 2  270 256 
 HEL  HZ I        1854 38.77       100.6 0.40                           270 256 
 GUY  SZ EP       1854  3.13                             112     0.5 7  302 235 
 GUY  SN ES   3   1854 36.96                             112     0.3 2  302 235 
 GUY  SZ I        1854 46.00       162.9 0.40                           302 235 
 VIL  SZ EP       1854  2.10                             112    -0.2 7  303 191 
 VIL  SE ES   1   1854 36.52                             112     0.4 5  303 191 
 VIL  SZ I        1854 39.87        47.3 0.28                           303 191 
 RREF HZ EP       1854  5.36                             111     0.5 7  320 229 
 RREF HZ I        1854 50.60        95.0 0.32                           320 229 
 DBB  SZ EP       1854  6.79                             110     0.6 7  337 274 
 TOL  SZ EP       1854  8.10                             109     1.1 7  342 224 
 PRA  HZ EP       1854 11.88                             106    -0.5 6  391 209 
 PRA  HN ES   1   1854 53.97                             106     0.0 4  391 209 
                                                                                
