 2016 1023 1013 40.2 L   6.839 -73.186133.5  RSN  4 0.1 1.0LRSN                1
 GAP=147        0.44       3.2     2.7  6.6 -0.1647E+01 -0.1018E+01 -0.7701E+01E
 Epicentro: ZAPATOCA - SANTANDER                                               3
 ACTION:UPD 16-11-09 19:22 OP:rebc STATUS:               ID:20161023101340 L   I
 OLDACT:REG 16-10-23 22:36 OP:cara STATUS:               ID:20161023100742     3
 2016-10-23-1008-00M.COL___353                                                 6
 STAT SP IPHASW D HRMM SECON CODA AMPLIT PERI AZIMU VELO AIN AR TRES W  DIS CAZ7
 PAM  EZ IP       1014  1.24                             148    0.0810 77.2  44 
 PAM  EZ I        1014 27.68         3.3 0.38            134           77.2  44 
 RUS  HZ EP       1014  3.20                             140    0.0310  105 174 
 RUS  HE ES       1014 20.94                             140   -0.1110  105 174 
 RUS  HZ I        1014 22.76         1.2 0.36            153            105 174 
 PTB  HN ES       1014 25.85                             130   -0.09 9  144 257 
 PTB  HZ I        1014 27.69         1.2 0.30            136            144 257 
 SPBC HZ EP       1014  7.73                             126   -0.17 9  164 217 
 SPBC HN ES       1014 29.72                             126    0.26 9  164 217 
 SPBC HZ I        1014 35.59         1.7 0.20            138            164 217 
                                                                                
