 2017  223 1343 37.7 L   6.793 -73.170141.0  RSN  5 0.1 1.2LRSN                1
 GAP=134        0.34       1.8     1.6  2.9 -0.7088E-01  0.1459E+01 -0.4379E+00E
 Epicentro: LOS SANTOS - SANTANDER                                             3
 ACTION:UPD 17-05-24 15:39 OP:jn   STATUS:               ID:20170223134337 L   I
 OLDACT:REG 17-02-23 20:21 OP:cog  STATUS:               ID:20170223133741     3
 2017-02-23-1338-00M.COL___364                                                 6
 STAT SP IPHASW D HRMM SECON CODA AMPLIT PERI AZIMU VELO AIN AR TRES W  DIS CAZ7
 BAR2 EZ EP       1343 56.67                             171   -0.0410 22.3 183 
 BAR2 EZ ES       1344 11.54                             171   -0.0110 22.3 183 
 BAR2 EZ I        1344 13.74         4.5 0.34            173           22.3 183 
 PAM  EZ EP       1343 59.68                             149    0.1510 79.7  41 
 PAM  EN ES       1344 16.48                             149   -0.0910 79.7  41 
 PAM  EZ I        1344 19.52         2.1 0.34            151           79.7  41 
 RUS  HZ EP       1344  0.80                             143   -0.1310  100 174 
 RUS  HN ES       1344 19.19                             143    0.1410  100 174 
 PTB  HZ EP       1344  3.97                             131   -0.03 9  145 259 
 PTB  HE ES       1344 24.47                             131   -0.07 9  145 259 
 PTB  HZ I        1344 27.01         3.0 0.18            134            145 259 
 ZAR  HE ES       1344 34.57                             122    0.10 9  202 293 
                                                                                
