 2013 1123 1554 19.2 L   6.745 -73.135138.4  RSN  7 0.5 2.0LRSN                1
 GAP=140        1.24       6.0     5.4  9.9  0.3055E+01  0.1307E+02  0.1817E+01E
 Epicentro: JORDAN - SANTANDER                                                 3
 ACTION:UPD 14-01-09 16:30 OP:ep   STATUS:               ID:20131123155419 L   I
 OLDACT:REG 13-11-23 14:15 OP:nd   STATUS:               ID:20131123155000     3
 2013-11-23-1550-00M.COL___282                                                 6
 STAT SP IPHASW D HRMM SECON CODA AMPLIT PERI AZIMU VELO AIN AR TRES W  DIS CAZ7
 BAR2 SZ EP       1554 38.00                             172    0.1710 17.6 197 
 BAR2 SZ I        1554 55.18        35.2 0.28            171           17.6 197 
 BRR  HZ EP       1554 40.00                             150    0.2110 75.3 302 
 BRR  HN ES       1554 56.48                             150    0.6210 75.3 302 
 BRR  HZ I        1555  1.07        20.9 0.10            151           75.3 302 
 PAM  SZ EP       1554 41.13                             148    0.2410 81.5  36 
 PAM  SN ES       1554 57.30                             148   -0.5110 81.5  36 
 PAM  SZ I        1554 58.64        14.1 0.38            149           81.5  36 
 RUS  HZ EP       1554 41.97                             144    0.2010 94.4 176 
 RUS  HN ES       1554 59.11                             144   -0.2810 94.4 176 
 RUS  HZ I        1555  1.44         8.4 0.24            143           94.4 176 
 PTB  HZ EP       1554 46.23                             130    0.66 9  148 261 
 PTB  HN ES       1555  5.65                             130   -0.50 9  148 261 
 PTB  HZ I        1555  8.30        18.3 0.14            131            148 261 
 ZAR  HZ EP       1554 50.42                             120   -1.11 8  207 294 
 ZAR  HN ES       1555 16.78                             120    0.03 8  207 294 
 ZAR  HZ I        1555 20.41         9.8 0.24            121            207 294 
 GUY2CHZ EP   4   1555 12.11                             111    9.93 0  299 236 
 GUY2CHN ES   4   1555 37.74                             111    2.03 0  299 236 
 GUY2CHZ I        1555 43.62         4.2 0.30                           299 236 
                                                                                
