 2011 1123 1642 33.0 L   6.533 -73.717 91.2  RSN  9 0.4 1.7LRSN                1
 GAP= 90        0.71       3.2     3.0  7.7  0.4143E+00  0.1201E+02  0.6905E+01E
 Epicentro: SANTA HELENA DEL OPON - SANTANDER                                  3
 ACTION:UPD 12-07-13 16:11 OP:ep   STATUS:               ID:20111123164233 L   I
 2011-11-23-1639-07S.COL___178                                                 6
 STAT SP IPHASW D HRMM SECON CODA AMPLIT PERI AZIMU VELO AIN AR TRES W  DIS CAZ7
 BAR2 SZ EP       1642 48.09                             145    0.0010 59.4  84 
 BAR2 SZ ES   1   1642 59.81                             145   -0.01 7 59.4  84 
 BAR2 SZ I        1643  1.59        26.2 0.34                          59.4  84 
 BRR  HZ EP   1   1642 47.53                             143   -0.52 7 63.5   0 
 BRR  HZ I        1642 48.08        20.3 0.14                          63.5   0 
 BRR  HN ES   1   1642 59.94                             143    0.19 7 63.5   0 
 RUS  HZ EP   1   1642 51.60                             129   -0.25 7 99.6 135 
 RUS  HN ES   1   1643  6.83                             129    0.31 7 99.6 135 
 RUS  HZ I        1643  8.14         6.8 0.34                          99.6 135 
 PAM  SZ EP   2   1642 57.50                             118    1.14 5  143  52 
 PAM  SN ES   1   1643 14.10                             118   -0.45 7  143  52 
 PAM  SZ I        1643 15.00         4.6 0.23                           143  52 
 ZAR  HZ EP   2   1642 57.80                             114   -0.31 5  165 310 
 ZAR  HN ES   1   1643 18.05                             114    0.39 7  165 310 
 ZAR  HZ I        1643 20.96         9.5 0.37                           165 310 
 NOR  SZ EP   1   1642 58.58                             114    0.20 7  167 230 
 NOR  SE ES   1   1643 17.80                             114   -0.33 7  167 230 
 HEL  HZ EP   2   1643  2.79                             110   -0.27 4  204 259 
 HEL  HN ES   2   1643 26.32                             110   -0.15 4  204 259 
 HEL  HZ I        1643 29.84         5.6 0.21                           204 259 
 GUY  SZ EP   1   1643  7.52                             107    0.67 6  235 232 
 GUY  SZ I        1643 38.85         6.2 0.28                           235 232 
 RREF HZ EP   2   1643  8.77                             105   -0.67 4  255 225 
                                                                                
