 2012  923 1853 57.6 L   6.798 -73.275123.9  RSN  6 0.2 1.4LRSN                1
 GAP=126        0.48       3.8     4.0  4.6  0.8524E+01 -0.2097E+01 -0.4947E+01E
 Epicentro: ZAPATOCA - SANTANDER                                               3
 ACTION:UPD 12-10-22 14:20 OP:ep   STATUS:               ID:20120923185357 L   I
 2012-09-23-1850-00M.COL___221                                                 6
 STAT SP IPHASW D HRMM SECON CODA AMPLIT PERI AZIMU VELO AIN AR TRES W  DIS CAZ7
 BAR2 SZ EP       1854 15.10                             168    0.4110 25.0 156 
 BAR2 SZ ES       1854 27.91                             168   -0.0810 25.0 156 
 GIR2 SZ EP       1854 14.71                             165   -0.0510 32.3  16 
 BRR  HZ EP       1854 15.60                             153   -0.1510 59.2 305 
 BRR  HZ I        1854 15.87        10.2 0.15                          59.2 305 
 BRR  HN ES   1   1854 29.96                             153    0.09 7 59.2 305 
 PAM  SZ EP   1   1854 18.14                             143   -0.14 7 87.3  47 
 PAM  SZ I        1854 37.09         5.0 0.20                          87.3  47 
 RUS  HZ EP   1   1854 19.41                             138   -0.04 7  102 168 
 RUS  HN ES   1   1854 36.33                             138   -0.14 7  102 168 
 RUS  HZ I        1854 39.28         3.6 0.46                           102 168 
 ZAR  HN ES   1   1854 50.51                             119   -0.02 7  191 294 
 ZAR  HZ I        1854 54.21         3.2 0.20                           191 294 
                                                                                
