 2012  123 1531 15.2 L   6.788 -73.166142.4  RSN  5 0.2 1.5LRSN                1
 GAP=135        0.52       5.0     6.7  7.6 -0.1301E+02  0.1924E+02 -0.7421E+01E
 Epicentro: LOS SANTOS - SANTANDER                                             3
 ACTION:UP  12-02-03 08:19 OP:REBC STATUS:               ID:20120123153115 L   I
 2012-01-23-1530-00M.COL___186                                                 6
 STAT SP IPHASW D HRMM SECON CODA AMPLIT PERI AZIMU VELO SNR AR TRES W  DIS CAZ7
 BAR2 SZ EP       1531 34.35                             171     0.010   22 185 
 BAR2 SZ ES   2   1531 49.19                             171    -0.2 5   22 185 
 BAR2 SZ I        1531 51.99         6.3 0.32                            22 185 
 BRR  HZ EP       1531 36.23                             151     0.310   70 300 
 BRR  HZ I        1531 36.39        13.1 0.16                            70 300 
 PAM  SZ EP       1531 37.06                             149    -0.110   80  40 
 PAM  SN ES   1   1531 54.26                             149    -0.1 7   80  40 
 RUS  HZ EP   2   1531 38.47                             143    -0.1 5   99 175 
 RUS  HN ES   2   1531 56.75                             143     0.0 5   99 175 
 RUS  HZ I        1531 58.05         2.9 0.28                            99 175 
 PTB  HN ES   3   1532  1.43                             131    -0.9 2  145 259 
                                                                                
