 2015  823 1430 24.6 L   6.813 -73.110150.9  RSN  8 0.4 1.7LRSN                1
 GAP=187        0.92       3.6     6.2  6.7  0.6947E+01  0.2970E+01 -0.4359E+01E
 Epicentro: LOS SANTOS - SANTANDER                                             3
 ACTION:UPD 15-09-15 23:04 OP:cam  STATUS:               ID:20150823143024 L   I
 OLDACT:UP  15-08-24 00:14 OP:spq  STATUS:               ID:20150823142749     3
 OLDACT:REG 15-08-23 20:26 OP:spq  STATUS:               ID:20150823142749     3
 2015-08-23-1427-49M.COL___346                                                 6
 STAT SP IPHASW D HRMM SECON CODA AMPLIT PERI AZIMU VELO AIN AR TRES W  DIS CAZ7
 BAR2 EZ EP       1430 44.91                             170   -0.0310 25.7 198 
 BAR2 EZ ES   1   1431  1.09                             170    0.32 7 25.7 198 
 BAR2 EZ I        1431  2.75         4.0 0.28            171           25.7 198 
 BRR  HZ EP       1430 46.74                             153    0.2310 74.0 296 
 BRR  HN ES       1431  4.17                             153    0.6110 74.0 296 
 BRR  HZ I        1431  7.39         6.6 0.32            151           74.0 296 
 RUS  HZ EP       1430 49.26                             145    0.2710  102 178 
 RUS  HE ES       1431  7.48                             145   -0.5110  102 178 
 RUS  HZ I        1431  8.48         3.4 0.24            149            102 178 
 OCA  HE ES   1   1431 14.95                             131   -0.65 7  159 352 
 OCA  HZ I        1431 21.54        14.4 0.66            132            159 352 
 SPBC HZ EP       1430 54.28                             130    0.39 9  167 220 
 SPBC HE ES       1431 16.17                             130   -0.52 9  167 220 
 SPBC HZ I        1431 20.45         8.9 0.12            132            167 220 
 ZAR  HZ EP       1430 57.65                             123   -0.10 8  207 291 
 ZAR  HE ES       1431 23.36                             123   -0.21 8  207 291 
 ZAR  HZ I        1431 28.94         7.5 0.36            124            207 291 
 SML  HZ EP       1431  1.70                             118    0.10 8  244 334 
 SML  HN ES   1   1431 29.94                             118   -0.48 6  244 334 
 SML  HZ I        1431 34.67         5.7 0.10            120            244 334 
 SJC  HZ IPn      1440 24.27                                            410 326 
                                                                                
