 2014  223 1043 12.4 L   6.825 -73.401114.1  RSN  8 0.4 1.5LRSN                1
 GAP= 83        0.99       2.9     3.6  6.9  0.5905E+00  0.1079E+02 -0.1044E+01E
 Epicentro: SAN VICENTE DE CHUCURI - SANTANDER                                 3
 ACTION:UPD 14-03-10 08:12 OP:ep   STATUS:               ID:20140223104312 L   I
 OLDACT:DUP 14-02-23 18:16 OP:carl STATUS:               ID:20140223104001d    3
 2014-02-23-1040-00M.COL___215                                                 6
 STAT SP IPHASW D HRMM SECON CODA AMPLIT PERI AZIMU VELO AIN AR TRES W  DIS CAZ7
 BAR2 SZ EP       1043 28.83                             162    0.2410 35.3 137 
 BAR2 SZ ES       1043 41.42                             162    0.1810 35.3 137 
 BAR2 SZ I        1043 42.40        31.6 0.40            164           35.3 137 
 PAM  SN ES       1043 48.85                             137    0.1310 96.2  54 
 PAM  SZ I        1043 53.01         4.0 0.42            138           96.2  54 
 RUS  HZ EP       1043 33.83                             133   -0.0510  109 161 
 RUS  HN ES       1043 50.32                             133   -0.3410  109 161 
 RUS  HZ I        1043 51.98         2.4 0.28            135            109 161 
 PTB  HZ EP       1043 33.44                             130   -0.8910  121 255 
 PTB  HE ES       1043 51.36                             130   -0.0910  121 255 
 PTB  HZ I        1043 54.55         4.2 0.28            130            121 255 
 ZAR  HZ EP       1043 40.72                             118    0.70 9  177 295 
 ZAR  HE ES       1044  1.56                             118   -0.02 9  177 295 
 ZAR  HZ I        1044  6.76         4.4 0.22            118            177 295 
 NOR  HN ES       1044  9.41                             113    0.47 8  214 229 
 NOR  HZ I        1044 13.13         3.2 0.14            114            214 229 
 SML  HZ EP       1043 45.52                             111   -0.44 8  231 341 
 SML  HN ES       1044 12.09                             111   -0.06 8  231 341 
 SML  HZ I        1044 19.60         3.7 0.34            111            231 341 
 CHI  HZ EP       1043 48.69                             110    0.52 8  245 189 
 CHI  HN ES       1044 15.91                             110   -0.17 8  245 189 
 CHI  HZ I        1044 22.21         1.1 0.28            111            245 189 
                                                                                
