 2012  923 1507 50.9 L   6.757 -73.116141.2  RSN 11 0.3 2.5LRSN                1
 GAP= 68        0.70       3.3     3.4  4.3 -0.1028E+01  0.1119E+01  0.1592E+01E
 Epicentro: LOS SANTOS - SANTANDER                                             3
 ACTION:UP  12-10-22 14:20 OP:ep   STATUS:               ID:20120923150751 L   I
 2012-09-23-1500-00M.COL___221                                                 6
 STAT SP IPHASW D HRMM SECON CODA AMPLIT PERI AZIMU VELO AIN AR TRES W  DIS CAZ7
 BAR2 SZ EP       15 8  9.98                             172    0.0510 19.6 202 
 BAR2 SZ ES       15 8 24.30                             172   -0.4610 19.6 202 
 BAR2 SZ I        15 8 27.45       111.6 0.21                          19.6 202 
 GIR2 SZ EP       15 8 10.11                             165   -0.1010 36.6 346 
 BRR  HZ IP     C 15 8 11.94                             150    0.0510 76.4 300 
 BRR  HN ES       15 8 28.82                             150    0.5710 76.4 300 
 BRR  HZ I        15 8 30.47        57.6 0.11                          76.4 300 
 PAM  SZ EP       15 8 12.82                             149    0.0610 79.2  35 
 PAM  SZ I        15 8 13.18        58.8 0.23                          79.2  35 
 PAM  SN ES       15 8 29.51                             149   -0.2910 79.2  35 
 RUS  HZ EP       15 8 13.82                             144   -0.0510 95.6 178 
 RUS  HZ I        15 8 15.00        25.4 0.19                          95.6 178 
 RUS  HN ES       15 8 32.03                             144    0.2710 95.6 178 
 TAM  HZ EP       15 8 18.16                             130    0.33 9  151 104 
 TAM  HZ I        15 8 39.03        19.1 0.28                           151 104 
 YOP  SZ EP   2   15 8 19.88                             126   -0.19 4  173 154 
 ZAR  HZ EP   1   15 8 23.21                             121   -0.38 6  209 293 
 ZAR  HZ I        15 8 53.96        41.4 0.23                           209 293 
 NOR  SZ EP   1   15 8 26.01                             117   -0.38 6  235 236 
 NOR  SN ES   1   15 8 53.81                             117   -0.24 6  235 236 
 NOR  SZ I        15 8 57.10        30.5 0.25                           235 236 
 ROSC BZ EP   9   15 8 29.64                             116    1.10 0  250 212 
 ROSC BN ES   9   15 8 59.50                                    0.52 0  250 212 
 ROSC BZ I        15 9  6.11        31.0 0.40                           250 212 
 HEL  HZ EP   1   15 8 31.29                             114    0.15 6  274 257 
 HEL  HZ I        15 9  9.80        15.6 0.34                           274 257 
                                                                                
