 2016 1223 1831  3.8 L   6.826 -73.135150.0  RSN 23 0.5 2.6LRSN                1
 GAP= 71        0.97       3.5     3.4  4.6 -0.7335E+00  0.5103E+01  0.3303E+01E
 Epicentro: LOS SANTOS - SANTANDER                                             3
 ACTION:UPD 17-01-11 20:18 OP:rebc STATUS:               ID:20161223183103 L   I
 OLDACT:UP  16-12-23 22:49 OP:edw  STATUS:               ID:20161223182745d    3
 OLDACT:UP  16-12-23 22:48 OP:edw  STATUS:               ID:20161223182745d    3
 OLDACT:DUP 16-12-23 22:38 OP:edw  STATUS:               ID:20161223182745d    3
 2016-12-23-1828-00M.COL___387                                                 6
 STAT SP IPHASW D HRMM SECON CODA AMPLIT PERI AZIMU VELO AIN AR TRES W  DIS CAZ7
 BAR2 EZ IP     D 1831 23.94                             170   -0.1010 26.3 191 
 BAR2 EZ ES       1831 39.07                             170   -0.7310 26.3 191 
 BAR2 EZ I        1831 40.26       140.3 0.34            168           26.3 191 
 BRR  HZ IP     C 1831 25.75                             153    0.3110 71.0 296 
 BRR  HN ES       1831 42.93                             153    0.6510 71.0 296 
 BRR  HZ I        1831 46.11        81.5 0.44            150           71.0 296 
 PAM  EZ IP     D 1831 26.88                             152    0.5410 74.4  40 
 PAM  EN ES       1831 44.00                             152    0.1110 74.4  40 
 PAM  EZ I        1831 46.20        99.2 0.46            155           74.4  40 
 RUS  HZ EP     D 1831 27.79                             144   -0.4210  103 177 
 RUS  HN ES       1831 46.85                             144   -0.3610  103 177 
 RUS  HZ I        1831 48.42        90.0 0.40            144            103 177 
 PTB  HZ EP   9   1831 30.81                             133   -0.50 0  149 258 
 PTB  HN ES       1831 51.85                             132   -0.39 9  149 258 
 PTB  HZ I        1831 53.75        28.1 0.14            131            149 258 
 TAM  HZ IP   2 D 1831 32.23                             132    0.41 5  155 106 
 TAM  HE ES   2   1831 53.94                             132    0.29 5  155 106 
 ZAR  HZ EP       1831 36.52                             123   -0.05 9  204 291 
 ZAR  HN ES       1832  1.64                             123   -0.46 9  204 291 
 ZAR  HZ I        1832  7.42        21.2 0.13            122            204 291 
 NOR  HZ EP       1831 39.92                             119   -0.18 8  237 234 
 NOR  HN ES       1832  8.32                             119   -0.06 8  237 234 
 NOR  HZ I        1832 11.39        19.4 0.16            118            237 234 
 CHI  HZ EP     C 1831 41.98                             118   -0.13 8  252 195 
 CHI  HN ES   4   1832 11.33                             118   -0.62 0  252 195 
 CHI  HZ I        1832 14.80        18.6 0.46            118            252 195 
 ROSC BZ EP   4   1831 43.91                             117    1.38 0  256 211 
 ROSC BN ES   4   1832 14.33                             117    1.63 0  256 211 
 ROSC BZ I        1832 17.74        44.8 0.35            117            256 211 
 URE  HZ EP   4   1831 43.92                             114   -1.21 0  284 291 
 URE  HN ES   4   1832 14.99                             114   -2.34 0  284 291 
 URE  HZ I        1832 27.30        19.7 0.50            114            284 291 
 GUY2CHZ EP       1831 47.88                             113   -0.06 7  304 234 
 GUY2CHN ES   4   1832 24.02                             113    1.68 0  304 234 
 GUY2CHZ I        1832 30.21        17.4 0.32                           304 234 
 VIL  EZ EP   2   1831 47.65                             113   -0.15 4  306 192 
 VIL  EN ES   4   1832 21.80                             113   -0.28 0  306 192 
 VIL  EZ I        1832 24.43        28.3 0.40            113            306 192 
 LL6C HZ EP   9   1831 29.00                             111   -20.4 0  322 357 
 LL6C HE ES       1832  4.25                                   -0.29 7  322 357 
 ELA  HZ EP   4   1831 53.39                             111    2.20 0  332 229 
 ELA  HN ES       1832 28.54                             111    0.42 7  332 229 
 ELA  HZ I        1832 35.41        19.9 0.36            111            332 229 
 CBOC HZ EP   4   1831 52.26                             110    1.10 0  336 252 
 CBOC HN ES       1832 28.09                             110    0.01 7  336 252 
 CBOC HZ I        1832 34.20         4.7 0.19            110            336 252 
 DBB  EZ EP       1831 51.98                             110    0.37 7  340 274 
 DBB  EN ES   4   1832 26.75                             110   -2.11 0  340 274 
 DBB  EZ I        1832 28.91         6.5 0.16            110            340 274 
 ANIL HZ EP       1831 55.14                             109    1.00 6  360 224 
 ANIL HN ES   4   1832 35.52                             109    2.15 0  360 224 
 ORTC HZ EP       1831 58.13                             107   -0.13 6  398 216 
 ORTC HE ES       1832 41.58                             107    0.88 6  398 216 
 ORTC HZ I        1832 45.04         9.1 0.28            107            398 216 
 APAC HZ EP   2   1831 57.15                             107   -1.06 3  399 288 
 APAC HN ES   2   1832 40.75                             107    0.14 3  399 288 
 SJC  HZ EP       1831 58.10                             106   -1.24 6  408 327 
 SJC  HE ES   4   1832 39.14                             106   -3.50 0  408 327 
 SJC  HZ I        1832 46.45         7.6 0.26            106            408 327 
 PAL  HZ EP   2   1831 59.09                             106   -0.35 3  408 239 
 PAL  HN ES   4   1832 42.01                             106   -0.79 0  408 239 
 PAL  HZ I        1832 47.73         6.1 0.28            106            408 239 
 CRJC HZ EP   9   1832  4.21                             104   -1.91 0  465   3 
 CRJC HN ES       1832 51.80                             104   -0.99 5  465   3 
 CRJC HZ I        1832 57.55        11.0 0.14            104            465   3 
                                                                                
