 2011  223 1649 28.3 L   6.814 -73.060136.7  RSN  6 0.1 1.7LRSN                1
 GAP=168        0.33       2.9    10.3  3.7 -0.2222E+02 -0.2294E+02  0.5422E+01E
 Epicentro: LOS SANTOS - SANTANDER                                             3
 ACTION:UP  11-03-28 15:10 OP:jfem STATUS:               ID:20110223164928 L   I
 2011-02-23-1646-21S.COL___136                                                 6
 STAT SP IPHASW D HRMM SECON CODA AMPLIT PERI AZIMU VELO SNR AR TRES W  DIS CAZ7
 BTL  SZ EP       1649 46.93                             169     0.010   26 297 
 BTL  SZ ES   1   1650  1.17                             169    -0.2 7   26 297 
 BAR2 SZ EP       1649 47.00                             168     0.110   28 209 
 BAR2 SZ I        1649 47.32         9.3 0.08                            28 209 
 BAR2 SZ ES   1   1650  1.57                             168     0.1 7   28 209 
 GIR2 SZ EP   2   1649 47.04                             166     0.1 5   33 333 
 GIR2 SZ ES   3   1650  1.90                             166     0.4 2   33 333 
 RUS  HZ EP       1649 51.22                             141     0.010  102 181 
 RUS  HZ I        1650 11.32         4.3 0.35                           102 181 
 GRA  SZ EP       1649 52.36                             136     0.010  122  13 
 GRA  SZ ES   1   1650 11.22                             136     0.0 7  122  13 
 GRA  SZ I        1650 12.98        15.5 0.76                           122  13 
 CHI  HZ EP   2   1650  6.02                             115     0.1 4  253 197 
 CHI  HZ I        1650 41.22         3.3 0.66                           253 197 
                                                                                
