 2012  823 1932 26.3 L   6.764 -73.131146.0  RSN  6 0.4 1.7LRSN                1
 GAP=140        0.83       5.8     5.4  8.1 -0.6645E-01  0.7030E+01  0.1053E+01E
 Epicentro: LOS SANTOS - SANTANDER                                             3
 ACTION:UPD 12-09-10 11:58 OP:ep   STATUS:               ID:20120823193226 L   I
 2012-08-23-1930-00M.COL___218                                                 6
 STAT SP IPHASW D HRMM SECON CODA AMPLIT PERI AZIMU VELO AIN AR TRES W  DIS CAZ7
 BAR2 SZ EP   1   1932 45.97                             172    0.10 7 19.8 197 
 BAR2 SZ ES   1   1933  0.58                             172   -0.58 7 19.8 197 
 BAR2 SZ I        1933  5.22        15.8 0.42                          19.8 197 
 BRR  HZ EP   1   1932 47.80                             151    0.15 7 74.6 301 
 BRR  HZ I        1932 48.12        15.5 0.21                          74.6 301 
 BRR  HE ES   1   1933  5.13                             151    0.82 7 74.6 301 
 PAM  SZ EP   1   1932 48.81                             150    0.16 7 79.5  37 
 PAM  SZ I        1932 48.97        15.6 0.20                          79.5  37 
 PAM  SN ES   1   1933  5.70                             150   -0.39 7 79.5  37 
 RUS  HZ EP   1   1932 49.99                             145    0.22 7 96.5 177 
 RUS  HN ES   1   1933  8.41                             145    0.33 7 96.5 177 
 RUS  HZ I        1933  9.80         4.7 0.38                          96.5 177 
 PTB  HZ EP   1   1932 52.71                             132   -0.64 7  149 260 
 PTB  HN ES   1   1933 14.12                             132   -0.34 7  149 260 
 PTB  HZ I        1933 19.44         2.0 0.31                           149 260 
 ZAR  HN ES   2   1933 24.70                             122    0.09 4  207 293 
                                                                                
