 2014  423 1206 25.7 L   6.813 -73.163146.1  RSN 10 0.5 2.4LRSN                1
 GAP=134        1.00       3.1     4.7  6.8 -0.4363E+01  0.1071E+02  0.3201E+00E
 Epicentro: LOS SANTOS - SANTANDER                                             3
 ACTION:UPD 14-05-13 23:10 OP:nd   STATUS:               ID:20140423120625 L   I
 OLDACT:REG 14-04-23 20:42 OP:nd   STATUS:               ID:20140423120046     3
 2014-04-23-1200-46M.COL___242                                                 6
 STAT SP IPHASW D HRMM SECON CODA AMPLIT PERI AZIMU VELO AIN AR TRES W  DIS CAZ7
 PAM  SZ EP     C 12 6 48.23                             151    0.2910 77.5  41 
 PAM  SN ES       12 7  5.60                             151    0.3010 77.5  41 
 PAM  SZ I        12 7  7.78        28.6 0.64            154           77.5  41 
 RUS  HZ EP       12 6 49.19                             143   -0.3910  102 175 
 RUS  HN ES       12 7  8.24                             143    0.0210  102 175 
 RUS  HZ I        12 7  9.59        22.9 0.24            146            102 175 
 PTB  HZ EP       12 6 52.21                             132   -0.33 9  146 258 
 PTB  HN ES       12 7 13.30                             132   -0.19 9  146 258 
 PTB  HZ I        12 7 16.27        22.5 0.10            131            146 258 
 SPBC HZ EP       12 6 54.19                             129   -0.02 9  163 218 
 SPBC HN ES       12 7 16.69                             129    0.24 9  163 218 
 SPBC HZ I        12 7 19.01        40.1 0.22            130            163 218 
 NOR  HZ EP       12 7  1.53                             119    0.17 8  234 234 
 NOR  HN ES       12 7 29.33                             119    0.14 8  234 234 
 NOR  HZ I        12 7 32.88        19.5 0.20            119            234 234 
 SML  HZ EP       12 7  2.07                             118   -0.04 8  242 336 
 SML  HN ES       12 7 30.03                             118   -0.48 8  242 336 
 SML  HZ I        12 7 35.42        31.4 0.10            118            242 336 
 CHI  HZ EP       12 7  3.33                             117   -0.17 8  250 195 
 CHI  HN ES       12 7 32.23                             117   -0.76 8  250 195 
 URE  HZ EP   4   12 7  5.59                             114   -0.93 0  282 292 
 URE  HN ES   4   12 7 37.07                             114   -1.30 0  282 292 
 URE  HZ I        12 7 47.02         8.4 0.28            114            282 292 
 RREF HZ EP       12 7 13.40                             111    1.61 7  321 229 
 RREF HN ES       12 7 47.92                             111    0.17 7  321 229 
 RREF HZ I        12 7 56.14        11.6 0.28            112            321 229 
 PRA  HZ EP       12 7 18.80                             106   -0.46 6  392 209 
 PRA  HN ES       12 8  1.27                             106    0.23 6  392 209 
 PRA  HZ I        12 8  9.52         7.5 0.62            108            392 209 
 SJC  HZ EP   4   12 7 19.27                             106   -1.73 0  407 327 
 SJC  HN ES   4   12 8  2.61                             106   -1.53 0  407 327 
                                                                                
