 2017  423 1027 56.8 L   6.759 -73.151140.1  RSN  5 0.4 1.4LRSN                1
 GAP=113        1.04       7.7     5.1  8.0 -0.7683E+01 -0.3365E+01  0.2340E+02E
 Epicentro: LOS SANTOS - SANTANDER                                             3
 ACTION:UPD 17-05-30 21:15 OP:jn   STATUS:               ID:20170423102756 L   I
 OLDACT:DUP 17-04-23 21:49 OP:dani STATUS:               ID:20170423101740d    3
 OLDACT:UP  17-04-23 21:48 OP:dani STATUS:               ID:20170423101739     3
 OLDACT:UP  17-04-23 21:47 OP:dani STATUS:               ID:20170423101739     3
 OLDACT:UP  17-04-23 21:47 OP:dani STATUS:               ID:20170423101739     3
 OLDACT:UP  17-04-23 21:47 OP:dani STATUS:               ID:20170423101739     3
 OLDACT:REG 17-04-23 20:52 OP:dani STATUS:               ID:20170423101739     3
 2017-04-23-1018-00M.COL___365                                                 6
 STAT SP IPHASW D HRMM SECON CODA AMPLIT PERI AZIMU VELO AIN AR TRES W  DIS CAZ7
 BAR2 EZ EP       1028 15.71                             172    0.0310 18.7 191 
 BAR2 EZ ES       1028 30.17                             172   -0.2310 18.7 191 
 BAR2 EZ I        1028 32.27         4.9 0.22            172           18.7 191 
 BRR  HZ EP       1028 17.54                             151    0.0810 72.9 302 
 BRR  HE ES       1028 34.42                             151    0.8610 72.9 302 
 BRR  HZ I        1028 34.87         5.8 0.38            152           72.9 302 
 PAM  EZ EP       1028 18.55                             148   -0.1310 81.3  38 
 PAM  HN ES       1028 35.40                             148   -0.3410 81.3  38 
 PAM  EZ I        1028 37.42         6.8 0.50            151           81.3  38 
 PTB  HZ EP       1028 22.90                             131   -0.29 9  146 261 
 PTB  HN ES       1028 43.31                             131   -0.46 9  146 261 
 PTB  HZ I        1028 46.21         2.2 0.17            132            146 261 
 YPLC HZ EP       1028 26.32                             126    0.48 9  173 150 
                                                                                
