 2010  423 1432  7.3 L   6.723 -72.947136.0  RSN  7 0.4 2.0LRSN                1
 GAP=194        0.81       6.0     8.8 10.0 -0.2745E+02 -0.3335E+02  0.2609E+02E
 Epicentro: CEPITA - SANTANDER                                                 3
 ACTION:UP  10-08-24 10:00 OP:vdl  STATUS:               ID:20100423143216 L   I
 2010-04-23-1428-07S.COL___104                                                 6
 STAT SP IPHASW D HRMM SECON CODA AMPLIT PERI AZIMU VELO AIN AR TRES W  DIS CAZ7
 BAR2 SZ EP       1432 26.03                             167     0.110   30 241 
 BAR2 SZ ES   2   1432 40.77                             167     0.3 5   30 241 
 BRR  HZ EP       1432 28.42                             144    -0.610   95 297 
 BRR  HZ I        1432 30.04        25.9 0.50                            95 297 
 BRR  HE ES       1432 46.09                             144     0.210   95 297 
 GUE  SZ EP   2   1432 32.44                             137     0.8 5  123   1 
 GRA  SZ EP   1   1432 31.83                             135    -0.2 7  129   7 
 GRA  SZ ES   1   1432 51.55                             135     0.2 7  129   7 
 CHI  HN ES   2   1433 13.04                             116    -0.2 4  247 201 
 CHI  HZ I        1433 17.56         3.7 0.61                           247 201 
 RREF BZ EP   2   1432 55.23                             109     0.8 3  334 233 
 RREF BN ES   2   1433 31.62                             109     0.4 3  334 233 
 RREF BZ I        1433 35.52         4.1 0.52                           334 233 
 PRA  HN ES   2   1433 43.13                             105     0.2 3  396 213 
 PRA  HZ I        1433 45.85         3.9 0.16                           396 213 
                                                                                
