 2012 1223 1332 10.2 L   6.785 -73.113150.9  RSN  5 0.3 1.4LRSN                1
 GAP=141        0.56       4.4     5.5  5.9 -0.2925E+01  0.7848E+01 -0.2823E+01E
 Epicentro: LOS SANTOS - SANTANDER                                             3
 ACTION:UPD 13-01-04 14:29 OP:ep   STATUS:               ID:20121223133210 L   I
 2012-12-23-1330-00M.COL___243                                                 6
 STAT SP IPHASW D HRMM SECON CODA AMPLIT PERI AZIMU VELO AIN AR TRES W  DIS CAZ7
 BAR2 SZ EP   1   1332 30.23                             171   -0.17 7 22.6 200 
 BAR2 SZ ES   1   1332 46.53                             171    0.34 7 22.6 200 
 BRR  HZ EP   1   1332 32.19                             152    0.09 7 75.2 298 
 BRR  HN ES   1   1332 49.21                             152    0.00 7 75.2 298 
 BRR  HZ I        1332 52.71         5.0 0.29                          75.2 298 
 PAM  SZ EP   1   1332 33.30                             152    0.42 7 76.5  37 
 PAM  SN ES   1   1332 50.22                             152   -0.38 7 76.5  37 
 PAM  SZ I        1332 52.59         4.6 0.68                          76.5  37 
 RUS  HE ES   1   1332 53.00                             145   -0.12 7 98.7 178 
 PTB  HZ EP   1   1332 37.64                             132   -0.21 7  151 260 
 PTB  HZ I        1333  1.61         3.1 0.16                           151 260 
                                                                                
