 2014  923 1306 26.4 L   6.821 -73.137146.7  RSN  9 0.4 1.6LRSN                1
 GAP=137        0.92       3.5     3.9  5.9 -0.1520E+01  0.4955E+01 -0.5293E+00E
 Epicentro: LOS SANTOS - SANTANDER                                             3
 ACTION:UPD 14-10-03 23:07 OP:nd   STATUS:               ID:20140923130626 L   I
 OLDACT:DUP 14-09-23 23:40 OP:spq  STATUS:               ID:20140923125821d    3
 2014-09-23-1258-20M.COL___281                                                 6
 STAT SP IPHASW D HRMM SECON CODA AMPLIT PERI AZIMU VELO AIN AR TRES W  DIS CAZ7
 BAR2 SZ EP     D 13 6 46.20                             170    0.0510 25.8 191 
 BAR2 SZ ES   1   13 7  2.09                             170    0.51 7 25.8 191 
 BAR2 SZ I        13 7  5.79         5.4 0.38            170           25.8 191 
 BRR  HZ EP       13 6 47.94                             153    0.3510 71.0 297 
 BRR  HN ES       13 7  3.60                             153   -0.5510 71.0 297 
 BRR  HZ I        13 7  7.15         8.7 0.20            151           71.0 297 
 PAM  SZ IP     C 13 6 48.94                             152    0.4110 75.0  40 
 PAM  SE ES       13 7  5.82                             152    0.0010 75.0  40 
 PAM  SZ I        13 7  6.59         3.6 0.22            155           75.0  40 
 RUS  HZ EP       13 6 50.35                             143   -0.0110  103 177 
 RUS  HE ES   1   13 7  8.59                             143   -0.49 7  103 177 
 RUS  HZ I        13 7 10.39         3.5 0.28            148            103 177 
 PTB  HZ EP       13 6 52.89                             132   -0.63 9  149 258 
 PTB  HE ES       13 7 14.96                             132    0.24 9  149 258 
 PTB  HZ I        13 7 20.00         3.3 0.26            133            149 258 
 SPBC HZ EP       13 6 55.32                             129    0.17 9  166 219 
 SPBC HE ES       13 7 17.39                             129   -0.22 9  166 219 
 SPBC HZ I        13 7 20.04         5.1 0.20            131            166 219 
 ZAR  HZ EP   1   13 6 58.88                             122    0.02 6  204 291 
 ZAR  HE ES       13 7 24.84                             122    0.62 9  204 291 
 ZAR  HZ I        13 7 30.19         5.2 0.24            124            204 291 
 SML  HZ EP       13 7  2.62                             118   -0.23 8  242 335 
 SML  HN ES   1   13 7 30.52                             118   -0.79 6  242 335 
 SML  HZ I        13 7 37.85         5.4 0.30            119            242 335 
 GUY2CHN ES   1   13 7 44.79                             112    0.31 5  303 235 
 GUY2CHZ I        13 7 54.44         1.8 0.58                           303 235 
                                                                                
