 2013 1223 1135 29.7 L   6.868 -73.180141.3  RSN  6 0.4 1.9LRSN                1
 GAP=129        1.02       5.1     4.9  8.7 -0.6242E+01  0.1335E+02 -0.3527E+01E
 Epicentro: ZAPATOCA - SANTANDER                                               3
 ACTION:UPD 14-01-13 10:20 OP:ep   STATUS:               ID:20131223113529 L   I
 OLDACT:REG 13-12-23 14:08 OP:jn   STATUS:               ID:20131223113000     3
 2013-12-23-1130-00M.COL___285                                                 6
 STAT SP IPHASW D HRMM SECON CODA AMPLIT PERI AZIMU VELO AIN AR TRES W  DIS CAZ7
 BAR2 SZ EP       1135 49.06                             167    0.1110 30.5 181 
 BAR2 SZ ES       1136  3.73                             167   -0.2410 30.5 181 
 BAR2 SZ I        1136  7.36        23.2 0.62            167           30.5 181 
 PAM  SZ EP       1135 51.39                             151    0.1510 74.4  45 
 PAM  SN ES       1136  8.03                             151   -0.0310 74.4  45 
 PAM  SZ I        1136  9.26        11.5 0.22            156           74.4  45 
 RUS  HZ EP       1135 53.47                             140   -0.1210  108 174 
 RUS  HN ES       1136 12.40                             140    0.1710  108 174 
 RUS  HZ I        1136 13.51         5.4 0.40            144            108 174 
 PTB  HZ EP       1135 55.56                             131   -0.54 9  146 256 
 PTB  HN ES       1136 16.14                             131   -0.57 9  146 256 
 PTB  HZ I        1136 20.69        11.2 0.12            132            146 256 
 SPBC HN ES       1136 21.04                             127    0.61 9  167 216 
 SPBC HZ I        1136 27.08         9.2 0.22            129            167 216 
 ZAR  HE ES   1   1136 26.81                             122    1.04 6  198 291 
 ZAR  HZ I        1136 32.09        14.0 0.40            123            198 291 
                                                                                
