 2012  323 1125 30.7 L   6.792 -73.144151.9  RSN  5 0.4 1.3LRSN                1
 GAP=137        0.84       6.4     6.0  9.7 -0.4134E+01  0.3489E+01  0.8850E+01E
 ACTION:UP  12-03-31 23:22 OP:EP   STATUS:               ID:20120323112530 L   I
 2012-03-23-1120-00M.COL___198                                                 6
 STAT SP IPHASW D HRMM SECON CODA AMPLIT PERI AZIMU VELO SNR AR TRES W  DIS CAZ7
 BAR2 SZ EP   1   1125 50.93                             171    -0.1 7   22 191 
 BAR2 SZ I        1126  8.25         4.0 0.53                            22 191 
 BRR  HZ EP   1   1125 52.88                             153     0.3 7   72 299 
 BRR  HZ I        1126  0.52         6.1 0.13                            72 299 
 BRR  HN ES   1   1126 10.20                             153     0.6 7   72 299 
 PAM  SZ EP   1   1125 53.75                             152     0.1 7   78  39 
 PAM  SN ES   1   1126 11.02                             152    -0.5 7   78  39 
 RUS  HZ EP   1   1125 55.29                             145     0.3 7  100 176 
 RUS  HN ES   1   1126 13.99                             145     0.0 7  100 176 
 RUS  HZ I        1126 17.55         1.2 0.29                           100 176 
 PTB  HZ EP   1   1125 57.85                             133    -0.3 7  148 259 
 PTB  HN ES   1   1126 19.16                             133    -0.5 7  148 259 
 PTB  HZ I        1126 24.93         2.9 0.20                           148 259 
                                                                                
