 2010 1123 1623 23.5 L   6.767 -73.123146.0  RSN 10 0.5 2.1LRSN                1
 GAP=162        0.98       4.5     8.2  8.2 -0.1056E+02  0.4601E+01 -0.2211E+01E
 Epicentro: LOS SANTOS - SANTANDER                                             3
 ACTION:UP  10-12-17 16:54 OP:REBC STATUS:               ID:20101123162323 L   I
 2010-11-23-1620-19S.COL___132                                                 6
 STAT SP IPHASW D HRMM SECON CODA AMPLIT PERI AZIMU VELO SNR AR TRES W  DIS CAZ7
 BAR2 SZ EP       1623 43.01                             172     0.010   21 199 
 BAR2 SZ ES   2   1623 57.83                             172    -0.5 5   21 199 
 BAR2 SZ I        1623 58.96        33.3 0.48                            21 199 
 BRR  HZ IP     C 1623 44.74                             151    -0.110   75 300 
 BRR  HZ I        1623 44.96        67.0 0.12                            75 300 
 BRR  HN ES   1   1624  2.10                             151     0.5 7   75 300 
 RUS  HZ EP       1623 46.78                             145    -0.210   97 177 
 RUS  HN ES   1   1624  5.49                             145     0.2 7   97 177 
 RUS  HZ I        1624  6.82         8.6 0.42                            97 177 
 GUE  SZ EP       1623 48.26                             139    -0.210  120  11 
 GRA  SZ EP   1   1623 49.70                             137     0.8 7  129  16 
 GRA  SZ ES   2   1624  9.58                             137     0.7 5  129  16 
 GRA  SZ I        1624 14.35         7.6 0.24                           129  16 
 OCA  SZ EP       1623 51.49                             129    -0.7 9  164 352 
 OCA  SZ I        1624 18.35        13.9 0.49                           164 352 
 NOR  SZ EP   2   1623 59.69                             119     0.5 4  235 236 
 NOR  SN ES   2   1624 26.22                             119    -0.9 4  235 236 
 CHI  HZ EP   1   1624  1.11                             118     0.2 6  246 196 
 CHI  HN ES   2   1624 30.28                             118     0.2 4  246 196 
 CHI  HZ I        1624 32.59         7.6 0.36                           246 196 
 HEL  HZ EP   2   1624  4.70                             115     0.8 4  274 257 
 HEL  HZ I        1624 41.47         6.1 0.28                           274 257 
 RREF HZ EP   1   1624  9.96                             111     0.4 5  321 230 
 RREF HE ES   2   1624 44.97                             111    -0.6 3  321 230 
 RREF HZ I        1624 52.43         5.4 0.25                           321 230 
                                                                                
