 2013  523 1944  6.7 L   6.770 -73.182142.4  RSN  7 0.4 1.4LRSN                1
 GAP=176        0.93       5.3     5.3  7.7  0.4902E+01  0.1364E+02  0.5844E+01E
 Epicentro: LOS SANTOS - SANTANDER                                             3
 ACTION:UPD 13-06-20 09:53 OP:ep   STATUS:               ID:20130523194406 L   I
 2013-05-23-1940-00M.COL___259                                                 6
 STAT SP IPHASW D HRMM SECON CODA AMPLIT PERI AZIMU VELO AIN AR TRES W  DIS CAZ7
 BAR2 SZ EP   1   1944 25.83                             172    0.01 7 19.7 180 
 BAR2 SZ ES   1   1944 40.45                             172   -0.32 7 19.7 180 
 BAR2 SZ I        1944 42.19         7.4 0.18            171           19.7 180 
 GIR2 SZ EP       1944 26.00                             166   -0.0210 34.1 358 
 GIR2 SZ ES       1944 40.89                             166   -0.2310 34.1 358 
 GIR2 SZ I        1944 41.85         2.8 0.08            168           34.1 358 
 BRR  HZ EP   1   1944 27.81                             153    0.46 7 69.4 302 
 BRR  HE ES   1   1944 44.46                             153    0.98 7 69.4 302 
 RUS  HZ EP   1   1944 30.00                             144    0.12 7 97.7 174 
 RUS  HN ES       1944 48.10                             144    0.1210 97.7 174 
 RUS  HZ I        1944 49.23         3.8 0.24            145           97.7 174 
 PTB  HZ EP       1944 32.56                             132   -0.39 9  143 260 
 PTB  HN ES       1944 52.85                             132   -0.59 9  143 260 
 PTB  HZ I        1944 55.99         4.0 0.16            133            143 260 
 ZAR  HN ES   1   1945  3.68                             122    0.10 6  202 293 
 NOR  HE ES   1   1945  9.60                             118    0.67 6  230 235 
                                                                                
