 2013 1023 1811 48.0 L   6.727 -73.199152.0  RSN  4 0.4 1.5LRSN                1
 GAP=225        0.97       9.1     9.0  8.7  0.4208E+02  0.5168E+01  0.9798E+01E
 Epicentro: VILLANUEVA - SANTANDER                                             3
 ACTION:UPD 13-11-25 09:23 OP:ep   STATUS:               ID:20131023181148 L   I
 OLDACT:UP  13-10-23 16:32 OP:cam  STATUS:               ID:20131023180839     3
 OLDACT:REG 13-10-23 15:24 OP:cam  STATUS:               ID:20131023180839     3
 2013-10-23-1808-39M.COL___224                                                 6
 STAT SP IPHASW D HRMM SECON CODA AMPLIT PERI AZIMU VELO AIN AR TRES W  DIS CAZ7
 BAR2 SZ EP       1812  8.09                             174   -0.1610 15.0 173 
 BAR2 SZ ES   1   1812 23.20                             174   -0.85 7 15.0 173 
 BAR2 SZ I        1812 24.42        11.8 0.20            167           15.0 173 
 BRR  HZ EP       1812  9.65                             154   -0.1510 70.6 307 
 BRR  HN ES       1812 27.36                             154    0.5610 70.6 307 
 RUS  HZ EP       1812 12.27                             147    0.4010 93.2 172 
 RUS  HN ES   1   1812 30.77                             147    0.29 7 93.2 172 
 RUS  HZ I        1812 32.03         2.6 0.36            144           93.2 172 
 PTB  HZ EP       1812 14.55                             135   -0.31 9  141 262 
 PTB  HN ES   1   1812 35.69                             135   -0.12 7  141 262 
 PTB  HZ I        1812 40.58         4.7 0.32            132            141 262 
                                                                                
