 2015  423 1834 59.2 L   7.118 -73.335  4.0  RSN  7 0.3 1.4LRSN                1
 GAP= 94        0.68       2.7     1.8  4.5 -0.2006E+01  0.2851E+01 -0.3145E+01E
 Epicentro: LEBRIJA - SANTANDER                                                3
 ACTION:UPD 15-06-03 16:57 OP:cam  STATUS:               ID:20150423183459 L   I
 OLDACT:REG 15-04-23 21:04 OP:spq  STATUS:               ID:20150423182747     3
 2015-04-23-1827-47M.COL___258                                                 6
 STAT SP IPHASW D HRMM SECON CODA AMPLIT PERI AZIMU VELO AIN AR TRES W  DIS CAZ7
 BRR  HZ EP       1835  6.04                              47   -0.0610 41.7 268 
 BRR  HN ES   1   1835 10.92                              47   -0.57 7 41.7 268 
 BRR  HZ I        1835 15.18        18.6 0.32             47           41.7 268 
 BAR2 EZ EP   1   1835  8.94                              47   -0.26 7 60.5 164 
 PAM  SZ EP       1835 11.62                              47    0.0710 74.3  71 
 PAM  SN ES   1   1835 20.90                              47   -0.29 7 74.3  71 
 PAM  SZ I        1835 24.18         9.1 0.32             47           74.3  71 
 RUS  HZ EP   1   1835 21.29                              47    0.04 7  138 168 
 PTB  HZ EP       1835 21.17                              47    0.23 9  140 243 
 PTB  HE ES       1835 37.94                              47    0.04 9  140 243 
 PTB  HZ I        1835 40.16        12.5 0.18             47            140 243 
 SPBC HE ES   4   1835 51.56                              37    2.45 0  181 207 
 SML  HZ EP   1   1835 30.66                              37    0.83 6  203 336 
 SML  HE ES   1   1835 53.54                              37   -0.19 6  203 336 
 NOR  HE ES   1   1836  2.66                              37    0.25 6  242 225 
 NOR  HZ I        1836  9.25         1.9 0.22             37            242 225 
                                                                                
