 2011  523 1039 48.2 L   6.802 -73.095139.2  RSN  6 0.2 1.6LRSN                1
 GAP=164        0.54       2.9     6.4  5.5 -0.3990E+00 -0.9802E+01 -0.4385E+01E
 Epicentro: LOS SANTOS - SANTANDER                                             3
 ACTION:UP  11-06-29 08:55 OP:tino STATUS:               ID:20110523103948 L   I
 2011-05-23-1040-00M.COL___142                                                 6
 STAT SP IPHASW D HRMM SECON CODA AMPLIT PERI AZIMU VELO SNR AR TRES W  DIS CAZ7
 BTL  SZ EP       1040  7.30                             170     0.210   23 304 
 BAR2 SZ EP       1040  6.94                             169    -0.210   25 203 
 BAR2 SZ ES   1   1040 21.95                             169     0.1 7   25 203 
 BAR2 SZ I        1040 24.93        12.6 0.21                            25 203 
 BRR  HZ EP   1   1040  8.72                             150    -0.3 7   76 296 
 BRR  HZ I        1040  9.30        11.4 0.30                            76 296 
 BRR  HN ES   1   1040 25.14                             150     0.0 7   76 296 
 RUS  HZ EP   1   1040 11.15                             142    -0.2 7  101 179 
 RUS  HN ES   1   1040 29.46                             142     0.1 7  101 179 
 RUS  HZ I        1040 31.47         2.9 0.25                           101 179 
 GRA  SZ EP       1040 12.90                             136     0.110  124  15 
 GRA  SZ ES   1   1040 31.61                             136    -0.3 7  124  15 
 GRA  SZ I        1040 35.63         5.2 0.41                           124  15 
 OCA  SZ EP   1   1040 16.31                             128     0.2 7  161 351 
 OCA  SZ I        1040 45.78         5.3 0.35                           161 351 
                                                                                
