 2017  223 1319 21.8 L   6.778 -73.167144.4  RSN  7 0.4 1.9LRSN                1
 GAP=135        1.09       4.4     4.8  7.2  0.1858E+01  0.6479E+01  0.7593E+01E
 Epicentro: LOS SANTOS - SANTANDER                                             3
 ACTION:UPD 17-05-24 15:39 OP:jn   STATUS:               ID:20170223131921 L   I
 OLDACT:REG 17-02-23 20:20 OP:cog  STATUS:               ID:20170223131745     3
 2017-02-23-1318-00M.COL___376                                                 6
 STAT SP IPHASW D HRMM SECON CODA AMPLIT PERI AZIMU VELO AIN AR TRES W  DIS CAZ7
 BAR2 EZ EP       1319 41.18                             171   -0.0710 20.6 185 
 BAR2 EZ ES       1319 55.57                             171   -0.8310 20.6 185 
 BAR2 EZ I        1319 57.41        23.2 0.24            170           20.6 185 
 BRR  HZ EP       1319 43.08                             153    0.2910 70.3 301 
 BRR  HN ES       1320  0.06                             153    0.9310 70.3 301 
 BRR  HZ I        1320  0.68        12.5 0.10            152           70.3 301 
 PAM  EZ EP       1319 44.10                             149   -0.0110 80.8  40 
 PAM  EN ES       1320  1.41                             149   -0.0810 80.8  40 
 PAM  EZ I        1320  3.33        24.3 0.54            153           80.8  40 
 RUS  HZ EP       1319 45.18                             144   -0.1110 98.4 175 
 RUS  HN ES       1320  4.00                             144    0.4110 98.4 175 
 RUS  HZ I        1320  4.95         8.1 0.26            145           98.4 175 
 PTB  HZ EP       1319 48.11                             132   -0.33 9  145 260 
 PTB  HN ES       1320  8.90                             132   -0.29 9  145 260 
 PTB  HZ I        1320 15.54         6.2 0.18            132            145 260 
 ZAR  HE ES       1320 18.90                             122   -0.29 9  203 293 
 CHI  HZ EP       1319 59.37                             117    0.24 8  246 195 
 CHI  HE ES       1320 28.35                             117    0.12 8  246 195 
 CHI  HZ I        1320 32.43         6.0 0.54            118            246 195 
                                                                                
