 2010  523 1012 34.6 L   6.743 -72.913146.0  RSN  6 0.3 1.7LRSN                1
 GAP=234        0.58       5.6    15.0 10.5 -0.2986E+02  0.2881E+02  0.2842E+01E
 Epicentro: CEPITA - SANTANDER                                                 3
 ACTION:UP  10-08-24 10:06 OP:vdl  STATUS:               ID:20100523101234 L   I
 2010-05-23-1010-36S.COL___111                                                 6
 STAT SP IPHASW D HRMM SECON CODA AMPLIT PERI AZIMU VELO SNR AR TRES W  DIS CAZ7
 BAR2 SZ EP       1012 54.51                             166     0.010   34 241 
 BRI  SZ EP       1012 58.24                             142    -0.210  108   7 
 BRI  SZ ES   2   1013 16.85                             142    -0.3 5  108   7 
 GUE  SZ EP       1012 59.94                             139     0.310  120 359 
 GRA  SZ EP   2   1013  0.32                             137     0.4 5  127   5 
 GRA  SZ ES   2   1013 19.93                             137     0.2 5  127   5 
 OCA  SZ EP       1013  3.70                             128    -0.3 9  171 345 
 OCA  SZ ES   2   1013 27.06                             128     0.2 4  171 345 
 OCA  SZ I        1013 30.77         5.8 0.31                           171 345 
 HEL  HZ EP   3   1013 17.88                             113     0.4 2  296 258 
 HEL  HZ I        1013 53.54         2.8 0.53                           296 258 
                                                                                
