 2016  823 1202 49.0 L   6.811 -73.141143.2  RSN  8 0.4 2.3LRSN                1
 GAP=137        1.10       3.5     5.0  6.6 -0.3218E+01  0.1014E+02 -0.5482E+00E
 Epicentro: LOS SANTOS - SANTANDER                                             3
 ACTION:UPD 16-10-29 15:38 OP:rebc STATUS:               ID:20160823120249 L   I
 OLDACT:REG 16-08-23 20:34 OP:ar   STATUS:               ID:20160823115734     3
 2016-08-23-1158-00M.COL___374                                                 6
 STAT SP IPHASW D HRMM SECON CODA AMPLIT PERI AZIMU VELO AIN AR TRES W  DIS CAZ7
 BAR2 EZ IP     C 12 3  8.35                             170   -0.0310 24.6 191 
 BAR2 EZ ES       12 3 23.14                             170   -0.3310 24.6 191 
 BAR2 EZ I        12 3 24.73        33.8 0.18                          24.6 191 
 BRR  HZ EP       12 3 10.12                             152    0.2210 71.1 297 
 BRR  HE ES       12 3 26.92                             152    0.7410 71.1 297 
 BRR  HZ I        12 3 30.84        31.7 0.13                          71.1 297 
 PAM  EZ EP       12 3 11.23                             151    0.3310 76.1  40 
 PAM  EE ES       12 3 28.20                             151    0.2510 76.1  40 
 PAM  EZ I        12 3 30.46        31.1 0.30                          76.1  40 
 RUS  HZ EP       12 3 12.61                             143   -0.0110  102 176 
 RUS  HN ES       12 3 31.07                             143    0.0610  102 176 
 OCA  HZ EP       12 3 16.51                             129   -0.53 9  159 353 
 OCA  HE ES       12 3 37.97                             129   -0.91 9  159 353 
 OCA  HZ I        12 3 41.53        35.2 0.20                           159 353 
 SPBC HZ EP       12 3 17.34                             128   -0.12 9  164 219 
 SPBC HE ES       12 3 39.25                             128   -0.38 9  164 219 
 SPBC HZ I        12 3 41.98        23.4 0.20                           164 219 
 ZAR  HZ EP       12 3 22.16                             122    0.84 9  204 292 
 ZAR  HN ES       12 3 46.41                             122   -0.09 9  204 292 
 ZAR  HZ I        12 3 52.22        17.6 0.34                           204 292 
 NOR  HZ EP       12 3 24.94                             118    0.20 8  236 234 
 NOR  HE ES       12 3 52.16                             118   -0.43 8  236 234 
 NOR  HZ I        12 3 58.48        10.5 0.14                           236 234 
                                                                                
