 2017 1023 1539 51.2 L   6.798 -73.127142.6  RSN  5 0.3 1.7LRSN                1
 GAP=139        0.82       5.8     6.2  7.3  0.2066E+02 -0.1000E+02 -0.1308E+02E
 Epicentro: LOS SANTOS - SANTANDER                                             3
 ACTION:UPD 17-11-07 19:35 OP:rebc STATUS:               ID:20171023153951 L   I
 OLDACT:UP  17-10-24 01:25 OP:dani STATUS:               ID:20171023153616     3
 OLDACT:REG 17-10-23 21:09 OP:dani STATUS:               ID:20171023153616     3
 2017-10-23-1538-00M.COL___452                                                 6
 STAT SP IPHASW D HRMM SECON CODA AMPLIT PERI AZIMU VELO AIN AR TRES W  DIS CAZ7
 BAR2 EZ EP       1540 10.28                             170   -0.2010 23.6 195 
 BAR2 EZ ES       1540 24.98                             170   -0.5210 23.6 195 
 BAR2 EZ I        1540 26.33        11.7 0.22            172           23.6 195 
 BRR  HZ EP       1540 12.12                             151   -0.0310 73.1 298 
 BRR  HN ES       1540 29.00                             151    0.5410 73.1 298 
 BRR  HZ I        1540 33.47        15.1 0.38            152           73.1 298 
 PAM  EZ EP       1540 13.13                             151    0.0910 76.3  38 
 RUS  HZ EP       1540 14.75                             143    0.1110  100 177 
 RUS  HE ES       1540 33.13                             143    0.2210  100 177 
 RUS  HZ I        1540 33.88         6.2 0.28            147            100 177 
 ZAR  HN ES       1540 48.69                             121   -0.30 8  206 292 
                                                                                
