 2010  423 1316 23.5 L   6.763 -73.076144.0  RSN 14 0.6 2.6LRSN                1
 GAP=181        1.18       5.8     9.4  9.2 -0.3474E+02  0.1233E+02  0.8870E+01E
 Epicentro: LOS SANTOS - SANTANDER                                             3
 ACTION:UPD 10-08-24 10:00 OP:vdl  STATUS:               ID:20100423131624 L   I
 2010-04-23-1312-21S.COL___104                                                 6
 STAT SP IPHASW D HRMM SECON CODA AMPLIT PERI AZIMU VELO AIN AR TRES W  DIS CAZ7
 BAR2 SZ ES   1   1316 57.72                             171    -0.3 7   22 212 
 BRR  HZ EP       1316 44.87                             150    -0.110   80 298 
 BRR  HE ES   2   1317  2.23                             150     0.6 5   80 298 
 BRI  SZ EP       1316 48.08                             141     0.810  110  16 
 GUE  SZ EP       1316 48.67                             139     0.510  119   8 
 GRA  SZ EP       1316 48.20                             136    -0.510  128  14 
 GRA  SZ ES   2   1317  8.13                             136    -0.2 5  128  14 
 OCA  SZ EP   1   1316 51.53                             129    -0.6 7  165 351 
 OCA  SZ ES   2   1317 13.88                             129    -0.6 5  165 351 
 OCA  SZ I        1317 17.72        53.1 0.31                           165 351 
 CHI  HZ EP       1317  0.28                             117    -0.6 8  247 197 
 CHI  HE ES   2   1317 29.53                             117    -0.5 4  247 197 
 CHI  HZ I        1317 35.14        14.2 0.85                           247 197 
 ROSC BN ES   2   1317 31.77                             116     0.5 4  253 213 
 ROSC BZ I        1317 35.86        15.5 0.66                           253 213 
 HEL  HZ EP       1317  4.56                             114     0.3 7  279 257 
 HEL  HN ES   2   1317 35.21                             114    -1.0 4  279 257 
 HEL  HZ I        1317 40.51        15.1 0.48                           279 257 
 RREF BZ EP   1   1317 10.67                             110     0.8 5  325 231 
 RREF BE ES   2   1317 46.98                             110     0.9 3  325 231 
 RREF BZ I        1317 53.64        16.9 1.01                           325 231 
 TOL  SZ EP       1317 12.59                             109     0.7 6  346 226 
 TOL  SZ ES   1   1317 50.39                             109     0.6 5  346 226 
 DBB  SZ EP       1317 10.84                             109    -0.9 6  348 275 
 ANIL BN ES   2   1317 53.81                             108     1.3 3  360 226 
 ANIL BZ I        1317 58.82        21.5 0.32                           360 226 
 PRA  HZ EP       1317 16.30                             106    -0.7 6  392 211 
 PRA  HN ES       1317 58.25                             106    -0.4 6  392 211 
 PRA  HZ I        1318  2.35        16.0 0.24                           392 211 
                                                                                
