 2010 1123 1850 46.6 L   6.781 -73.043145.3  RSN 11 0.4 2.4LRSN                1
 GAP=170        0.71       3.2     5.1  5.2 -0.6336E+01  0.3502E+01  0.2817E+01E
 Epicentro: LOS SANTOS - SANTANDER                                             3
 ACTION:UP  10-12-17 16:54 OP:REBC STATUS:               ID:20101123185046 L   I
 2010-11-23-1848-29S.COL___130                                                 6
 STAT SP IPHASW D HRMM SECON CODA AMPLIT PERI AZIMU VELO SNR AR TRES W  DIS CAZ7
 BAR2 SZ IP       1851  6.25                             169     0.010   26 216 
 BAR2 SZ ES   1   1851 21.74                             169     0.2 7   26 216 
 BAR2 SZ I        1851 24.26        43.3 0.33                            26 216 
 BRR  HZ EP       1851  8.15                             149    -0.210   82 296 
 BRR  HE ES   1   1851 25.29                             149     0.0 7   82 296 
 BRR  HZ I        1851 27.90        44.0 0.23                            82 296 
 RUS  HZ EP       1851 10.04                             144    -0.110   98 183 
 RUS  HN ES   1   1851 28.46                             144    -0.1 7   98 183 
 RUS  HZ I        1851 29.68        11.6 0.50                            98 183 
 GRA  SZ EP       1851 12.04                             137     0.310  125  12 
 GRA  SZ ES   1   1851 31.40                             137     0.1 7  125  12 
 GRA  SZ I        1851 34.33        27.6 0.34                           125  12 
 OCA  SZ EP   2   1851 14.97                             129    -0.3 5  164 349 
 OCA  SZ I        1851 42.59        30.8 0.39                           164 349 
 NOR  SZ EP   2   1851 22.76                             117    -0.4 4  243 237 
 NOR  SE ES   1   1851 51.08                             117    -0.7 6  243 237 
 NOR  SZ I        1851 54.10         4.1 0.32                           243 237 
 CHI  HZ EP       1851 24.41                             117     0.0 8  250 198 
 CHI  HN ES   2   1851 54.06                             117     0.2 4  250 198 
 CHI  HZ I        1852  2.45        11.2 0.54                           250 198 
 HEL  HZ EP   2   1851 28.01                             114     0.0 4  283 257 
 GUY  SZ EP   2   1851 30.24                             112    -0.9 4  309 236 
 GUY  SN ES   2   1852  6.26                             112     0.4 4  309 236 
 GUY  SZ I        1852 12.79        25.9 0.40                           309 236 
 RREF HZ EP   1   1851 34.28                             110     0.7 5  329 231 
 RREF HN ES   1   1852 11.14                             110     0.9 5  329 231 
 RREF HZ I        1852 14.68        14.9 0.28                           329 231 
 PRA  HZ EP   1   1851 40.30                             106    -0.3 4  396 211 
 PRA  HZ I        1851 41.97        30.2 0.12                           396 211 
 PRA  HE ES   2   1852 22.72                             106     0.1 3  396 211 
                                                                                
