 2010  123 1945 43.5 L   6.817 -73.081146.2  RSN  5 0.2 2.1LRSN                1
 GAP=190        0.57       2.8    10.4  5.2 -0.5443E+01  0.2540E+02  0.4320E-01E
 Epicentro: LOS SANTOS - SANTANDER                                             3
 ACTION:UP  10-08-24 09:45 OP:vdl  STATUS:               ID:20100123194543 L   I
 2010-01-23-1942-03S.COL___095                                                 6
 STAT SP IPHASW D HRMM SECON CODA AMPLIT PERI AZIMU VELO SNR AR TRES W  DIS CAZ7
 BAR2 SZ IP       1946  3.34                             169     0.010   27 205 
 BAR2 SZ ES       1946 18.62                             169    -0.110   27 205 
 RUS  BZ EP       1946  7.32                             143    -0.110  102 180 
 RUS  BN ES       1946 26.36                             143     0.210  102 180 
 RUS  BZ I        1946 27.67         8.2 0.29                           102 180 
 OCA  SZ EP   2   1946 12.52                             130     0.7 5  159 351 
 OCA  SZ ES   1   1946 33.67                             130    -0.2 7  159 351 
 OCA  SZ I        1946 36.93        22.2 0.22                           159 351 
 CHI  HE ES   2   1946 51.20                             117    -0.2 4  252 197 
 CHI  HZ I        1946 54.55         7.3 0.60                           252 197 
 PRA  HZ IP       1946 37.48                             106    -0.2 6  397 210 
 PRA  HE ES       1947 20.07                             106     0.1 6  397 210 
 PRA  HZ I        1947 25.38         4.7 0.27                           397 210 
                                                                                
