 2014  123 1703 59.9 L   6.809 -73.151144.6  RSN 13 0.5 2.4LRSN 2.8WRSN        1
 SPEC AVERAGE  MO 13.3 ST249.8 OM  1.4 f0 20.1 R0.1887 AL 0.00 WI 20.0 MW  2.8 3
 SPEC SD       MO  0.4 ST340.2 OM  0.4 f0 13.6 R0.4330 AL      WI      MW  0.3 3
 GAP=135        1.24       3.2     4.8  6.1 -0.4069E+01  0.8365E+01  0.1392E+01E
 Epicentro: LOS SANTOS - SANTANDER                                             3
 SPEC BAR2SH Z MO 13.4 ST140.0 OM  1.6 f0 20.2 R0.0952 AL-0.00 WI 20.0 MW  2.9 3
 SPEC BAR2SH Z T17 432 K 0.050 GD  146 VS 5.20 DE 3.20 Q0750.0 QA 1.50 VS 5.20 3
 SPEC BRR HH Z MO 13.3 ST 38.9 OM  1.4 f0 14.9 R0.1291 AL-0.00 WI 20.0 MW  2.8 3
 SPEC BRR HH Z T17 436 K 0.050 GD  160 VS 5.20 DE 3.20 Q0750.0 QA 1.50 VS 5.20 3
 SPEC PAM SH Z MO 12.9 ST  9.3 OM  1.0 f0 12.5 R0.1539 AL-0.00 WI 20.0 MW  2.5 3
 SPEC PAM SH Z T17 437 K 0.050 GD  163 VS 5.20 DE 3.20 Q0750.0 QA 1.50 VS 5.20 3
 SPEC RUS HH Z MO 12.8 ST 46.0 OM  0.9 f0 22.4 R0.0859 AL-0.00 WI 20.0 MW  2.5 3
 SPEC RUS HH Z T17 440 K 0.050 GD  176 VS 5.20 DE 3.20 Q0750.0 QA 1.50 VS 5.20 3
 SPEC PTB HH Z MO 13.4 ST964.9 OM  1.4 f0 40.0 R0.0481 AL-0.00 WI 20.0 MW  2.9 3
 SPEC PTB HH Z T17 445 K 0.050 GD  206 VS 5.20 DE 3.20 Q0750.0 QA 1.50 VS 5.20 3
 SPEC OCA HH Z MO 13.2 ST634.6 OM  1.2 f0 40.0 R0.0481 AL-0.00 WI 20.0 MW  2.7 3
 SPEC OCA HH Z T17 447 K 0.050 GD  214 VS 5.20 DE 3.20 Q0750.0 QA 1.50 VS 5.20 3
 SPEC SPBCHH Z MO 13.5 ST285.2 OM  1.5 f0 24.2 R0.0795 AL-0.00 WI 20.0 MW  3.0 3
 SPEC SPBCHH Z T17 449 K 0.050 GD  218 VS 5.20 DE 3.20 Q0750.0 QA 1.50 VS 5.20 3
 SPEC NOR HH Z MO 13.3 ST 40.4 OM  1.2 f0 14.7 R0.1309 AL-0.00 WI 20.0 MW  2.8 3
 SPEC NOR HH Z T17 5 1 K 0.050 GD  275 VS 5.20 DE 3.20 Q0750.0 QA 1.50 VS 5.20 3
 SPEC SML HH Z MO 13.3 ST834.9 OM  1.2 f0 40.0 R0.0481 AL-0.00 WI 20.0 MW  2.8 3
 SPEC SML HH Z T17 5 2 K 0.050 GD  282 VS 5.20 DE 3.20 Q0750.0 QA 1.50 VS 5.20 3
 SPEC CHI HH Z MO 13.2 ST0.369 OM  1.1 f0 3.27 R0.5884 AL-0.00 WI 20.0 MW  2.8 3
 SPEC CHI HH Z T17 5 5 K 0.050 GD  287 VS 5.20 DE 3.20 Q0750.0 QA 1.50 VS 5.20 3
 SPEC HEL HH Z MO 13.4 ST  1.1 OM  1.2 f0 4.30 R0.4474 AL-0.00 WI 20.0 MW  2.9 3
 SPEC HEL HH Z T17 5 9 K 0.050 GD  308 VS 5.20 DE 3.20 Q0750.0 QA 1.50 VS 5.20 3
 SPECGUY2CHH Z MO 13.5 ST  0.8 OM  1.3 f0 3.52 R 0.546 AL-0.00 WI 20.0 MW  2.9 3
 SPECGUY2CHH Z T17 517 K 0.050 GD333.9 VS 5.20 DE 3.20 Q0750.0 QA 1.50 VS 5.20 3
 SPEC PRA HH Z MO 13.4 ST  1.6 OM  1.1 f0 4.70 R0.4094 AL-0.00 WI 20.0 MW  2.9 3
 SPEC PRA HH Z T17 533 K 0.050 GD  418 VS 5.20 DE 3.20 Q0750.0 QA 1.50 VS 5.20 3
 2014-01-23-1658-05M.COL___242                                                 6
 OLDACT:DUP 14-01-23 18:09 OP:stll STATUS:               ID:20140123165806d    3
 ACTION:UPD 14-03-13 09:57 OP:ep   STATUS:               ID:20140123170359 L   I
 OLDACT:UP  14-01-23 18:21 OP:stll STATUS:               ID:20140123165806d    3
 STAT SP IPHASW D HRMM SECON CODA AMPLIT PERI AZIMU VELO AIN AR TRES W  DIS CAZ7
 BAR2 SZ EP       17 4 19.57                             170    0.1210 24.2 188 
 BAR2 SZ ES       17 4 34.40                             170   -0.2610 24.2 188 
 BAR2 SZ I        17 4 36.05        69.8 0.12            169           24.2 188 
 BRR  HZ IP     D 17 4 21.46                             153    0.5510 70.3 298 
 BRR  HN ES       17 4 38.45                             153    1.1910 70.3 298 
 BRR  SZ I        17 4 39.48        33.9 0.22            150           70.3 298 
 PAM  SZ IP     C 17 4 22.51                             151    0.5010 77.0  40 
 PAM  SN ES       17 4 39.27                             151    0.0510 77.0  40 
 PAM  SZ I        17 4 40.91        26.9 0.68            153           77.0  40 
 RUS  HZ EP       17 4 23.40                             143   -0.2510  102 176 
 RUS  HN ES       17 4 41.84                             143   -0.3010  102 176 
 RUS  SZ I        17 4 43.63        19.6 0.34            145            102 176 
 PTB  HZ EP       17 4 26.31                             132   -0.47 9  147 258 
 PTB  HN ES       17 4 47.17                             132   -0.54 9  147 258 
 PTB  SZ I        17 4 50.77        26.0 0.18            131            147 258 
 OCA  HZ EP       17 4 28.24                             130    0.18 9  159 353 
 OCA  HN ES       17 4 49.44                             130   -0.56 9  159 353 
 OCA  SZ I        17 4 55.16        32.6 0.32            130            159 353 
 SPBC HZ EP       17 4 28.46                             129    0.07 9  164 219 
 SPBC HN ES       17 4 50.58                             129    0.00 9  164 219 
 SPBC SZ I        17 4 57.68        45.6 0.40            129            164 219 
 NOR  HZ EP       17 4 35.58                             118   -0.03 8  235 234 
 NOR  HE ES       17 5  3.38                             118   -0.06 8  235 234 
 NOR  SZ I        17 5  6.97        25.5 0.24            119            235 234 
 SML  HZ EP       17 4 36.25                             117   -0.13 8  243 335 
 SML  HN ES       17 5  3.70                             117   -1.10 8  243 335 
 SML  SZ I        17 5 12.68        46.8 0.08            118            243 335 
 CHI  HZ EP       17 4 37.62                             117   -0.04 8  249 195 
 CHI  HN ES       17 5  6.52                             117   -0.56 8  249 195 
 CHI  SZ I        17 5 11.88         8.3 0.42            118            249 195 
 HEL  HZ EP       17 4 40.72                             115    0.66 8  272 256 
 HEL  HN ES       17 5 10.80                             115   -0.55 8  272 256 
 HEL  SZ I        17 5 18.58        16.5 0.32            115            272 256 
 GUY2CHZ EP       17 4 44.23                             112    0.72 7  301 235 
 GUY2CHN ES       17 5 18.55                             112    1.06 7  301 235 
 GUY2CSZ I        17 5 24.54        13.2 0.50                           301 235 
 PRA  HZ EP       17 4 53.13                             106   -0.36 6  393 209 
 PRA  HN ES       17 5 34.92                             106   -0.33 6  393 209 
 PRA  SZ I        17 5 43.77         8.7 0.62            107            393 209 
                                                                                
