 2012 1023 1535 38.5 L   6.746 -73.098154.0  RSN  5 0.2 1.8LRSN                1
 GAP=145        0.47       4.1     5.5  4.5  0.1055E+02 -0.9215E+01 -0.6657E+01E
 Epicentro: JORDAN - SANTANDER                                                 3
 ACTION:UPD 12-11-22 17:05 OP:ep   STATUS:               ID:20121023153538 L   I
 2012-10-23-1530-00M.COL___231                                                 6
 STAT SP IPHASW D HRMM SECON CODA AMPLIT PERI AZIMU VELO AIN AR TRES W  DIS CAZ7
 BAR2 SZ EP       1535 59.09                             172    0.0110 19.4 209 
 BAR2 SZ ES       1536 14.88                             172   -0.2310 19.4 209 
 BAR2 SZ I        1536 16.83        12.7 0.28                          19.4 209 
 BRR  HZ EP       1536  1.22                             151    0.2310 78.8 301 
 BRR  HZ I        1536  1.43        12.7 0.15                          78.8 301 
 BRR  HE ES       1536 18.54                             151    0.0210 78.8 301 
 PAM  SZ EP       1536  1.70                             152   -0.0210 79.0  34 
 RUS  HZ EP   1   1536  2.78                             147    0.11 7 94.4 179 
 RUS  HE ES   1   1536 21.57                             147    0.06 7 94.4 179 
 RUS  HE I        1536 24.98         5.4 0.16                          94.4 179 
 ZAR  HZ EP   2   1536 11.60                             123   -0.65 4  211 293 
 ZAR  HZ I        1536 44.10         6.7 0.49                           211 293 
                                                                                
