 2010  423 1009 16.5 L   6.778 -73.021143.1  RSN  4 0.1 1.9LRSN                1
 GAP=216        0.32       4.2     6.6  5.5  0.3486E+01 -0.1553E+02 -0.5201E+01E
 Epicentro: CEPITA - SANTANDER                                                 3
 ACTION:UPD 10-08-24 10:00 OP:vdl  STATUS:               ID:20100423100916 L   I
 2010-04-23-1008-08S.COL___104                                                 6
 STAT SP IPHASW D HRMM SECON CODA AMPLIT PERI AZIMU VELO AIN AR TRES W  DIS CAZ7
 BAR2 SZ EP   2   10 9 35.89                             169     0.0 5   27 221 
 BAR2 SZ ES   2   10 9 51.02                             169     0.0 5   27 221 
 BRR  HZ EP       10 9 38.17                             148     0.010   85 296 
 BRR  HN ES   1   10 9 54.97                             148    -0.1 7   85 296 
 BRR  HZ I        10 9 56.10         9.3 0.46                            85 296 
 GUE  SZ EP   2   10 9 40.78                             139    -0.2 5  117   5 
 OCA  SZ ES   2   1010  7.37                             129     0.1 5  165 349 
 OCA  SZ I        1010 10.30        12.2 0.42                           165 349 
                                                                                
