 2014  723 1133 33.6 L   6.460 -73.576105.7  RSN  4 0.6 1.4LRSN                1
 GAP=140        1.35       9.5     7.1 15.4  0.2323E+01  0.2908E+02 -0.5509E+02E
 Epicentro: SANTA HELENA DEL OPON - SANTANDER                                  3
 ACTION:UPD 15-03-16 20:46 OP:nd   STATUS:               ID:20140723113333 L   I
 OLDACT:DUP 14-07-23 22:45 OP:fm   STATUS:               ID:20140723112822d    3
 2014-07-23-1128-19M.COL___266                                                 6
 STAT SP IPHASW D HRMM SECON CODA AMPLIT PERI AZIMU VELO AIN AR TRES W  DIS CAZ7
 BAR2 SZ EP       1133 49.27                             155   -0.0410 46.0  71 
 BAR2 SZ ES   1   1134  1.71                             155    0.12 7 46.0  71 
 BAR2 SZ I        1134  3.47        10.3 0.24            159           46.0  71 
 PTB  HZ EP       1133 52.10                             134   -0.6310 97.7 275 
 PTB  HN ES       1134  7.07                             134   -0.6110 97.7 275 
 PTB  HZ I        1134  8.25         5.4 0.40            133           97.7 275 
 SPBC HN ES   1   1134  9.83                             132    0.83 7  105 212 
 SPBC HZ I        1134 17.26         3.4 0.30            128            105 212 
 ZAR  HZ EP       1134  1.25                             115   -0.03 9  182 309 
 ZAR  HN ES       1134 23.88                             115    0.98 9  182 309 
 ZAR  HZ I        1134 26.40         3.9 0.28            117            182 309 
                                                                                
