 2010 1023 1723 43.7 L   7.194 -74.031  6.4  RSN  6 0.4 1.9LRSN                1
 GAP=276        0.83       5.6     9.9 12.4  0.7471E+01  0.5461E+02  0.3350E+02E
 Epicentro: PUERTO WILCHES - SANTANDER                                         3
 ACTION:UP  11-02-18 11:11 OP:tino STATUS:               ID:20101023172343 L   I
 2010-10-23-1722-13S.COL___128                                                 6
 STAT SP IPHASW D HRMM SECON CODA AMPLIT PERI AZIMU VELO SNR AR TRES W  DIS CAZ7
 BRR  HZ IP     D 1723 49.36                              92    -0.410   36 105 
 BRR  HN ES   2   1723 54.96                              92     0.4 5   36 105 
 BRR  HZ I        1723 55.84        71.4 0.26                            36 105 
 BTL  SZ EP   1   1723 57.95                              91    -0.2 7   90 110 
 BAR2 SZ EP   1   1724  1.85                              91    -0.1 7  115 125 
 BAR2 SZ ES   2   1724 16.85                              91     0.7 5  115 125 
 GUE  SZ EP   1   1724  6.66                              91     0.7 7  141  60 
 GRA  SZ EP   1   1724  8.08                              90     0.1 7  155  61 
 GRA  SZ ES   2   1724 26.35                              90    -0.6 5  155  61 
 GRA  SZ I        1724 27.82        33.2 0.41                           155  61 
 RUS  HZ EP   1   1724 11.75                              56     0.2 7  178 144 
 RUS  HN ES   2   1724 33.21                              56    -0.1 4  178 144 
 RUS  HZ I        1724 35.10        10.8 0.26                           178 144 
                                                                                
