 2011 1023 1424 35.0 L   6.757 -73.078145.9  RSN  5 0.4 1.6LRSN                1
 GAP=147        0.63       5.6     6.8  7.1 -0.3624E+01 -0.3237E+01  0.7182E+00E
 Epicentro: LOS SANTOS - SANTANDER                                             3
 ACTION:UPD 12-07-13 16:05 OP:ep   STATUS:               ID:20111023142435 L   I
 2011-10-23-1421-24S.COL___171                                                 6
 STAT SP IPHASW D HRMM SECON CODA AMPLIT PERI AZIMU VELO AIN AR TRES W  DIS CAZ7
 BAR2 SZ EP   1   1424 54.40                             171   -0.22 7 21.6 212 
 BAR2 SZ ES   1   1425  9.87                             171   -0.05 7 21.6 212 
 BAR2 SZ I        1425 11.61         6.6 0.51                          21.6 212 
 GIR2 SZ EP   2   1424 54.62                             165   -0.27 5 37.8 340 
 PAM  SZ EP   1   1424 57.21                             151    0.01 7 76.7  33 
 PAM  SN ES   1   1425 14.66                             151    0.15 7 76.7  33 
 BRR  HZ EP   1   1424 56.37                             150   -0.32 7 80.1 299 
 BRR  HZ I        1424 56.63        15.3 0.13                          80.1 299 
 BRR  HN ES   1   1425 13.87                             150    0.26 7 80.1 299 
 RUS  HZ EP   2   1424 59.43                             145    1.01 5 95.6 180 
 RUS  HN ES   2   1425 16.33                             145   -0.35 5 95.6 180 
 RUS  HZ I        1425 18.36         3.7 0.44                          95.6 180 
                                                                                
