 2012  223 1532 26.3 L   6.537 -73.549110.6  RSN 11 0.4 2.1LRSN                1
 GAP= 74        0.80       3.4     3.5  5.9 -0.9271E+00  0.7272E+01  0.7842E+01E
 ACTION:UP  12-03-07 16:33 OP:epov STATUS:               ID:20120223153226 L   I
 2012-02-23-1530-00M.COL___191                                                 6
 STAT SP IPHASW D HRMM SECON CODA AMPLIT PERI AZIMU VELO AIN AR TRES W  DIS CAZ7
 BAR2 SZ IP       1532 42.62                             158    0.3110 40.9  81 
 BAR2 SZ ES       1532 54.75                             158   -0.0810 40.9  81 
 BAR2 SZ I        1532 56.52       262.7 0.51                          40.9  81 
 BRR  HZ EP       1532 43.20                             147   -0.1510 65.6 344 
 BRR  HZ I        1532 51.69        59.3 0.09                          65.6 344 
 BRR  HE ES       1532 57.25                             147    0.5610 65.6 344 
 GIR2 SZ EP   1   1532 44.20                             144    0.23 7 71.6  33 
 GIR2 SZ ES   2   1532 58.50                             144    0.72 5 71.6  33 
 RUS  HZ EP       1532 45.48                             139   -0.2010 87.9 144 
 RUS  HE ES   1   1533  0.41                             139   -0.43 7 87.9 144 
 RUS  HZ I        1533  2.37         9.6 0.34                          87.9 144 
 PTB  HZ IP       1532 45.41                             134   -0.6610  100 270 
 PTB  HE ES   2   1533  0.54                             134   -0.99 5  100 270 
 PAM  SZ EP   1   1532 49.25                             127   -0.13 7  129  47 
 PAM  SN ES   1   1533  7.13                             127   -0.28 7  129  47 
 NOR  SZ EP   1   1532 54.34                             117    0.09 7  182 234 
 NOR  SN ES   2   1533 16.04                             117   -0.05 4  182 234 
 CHI  HZ EP   1   1532 58.76                             113    0.68 6  212 186 
 CHI  HN ES   2   1533 23.54                             113    0.64 4  212 186 
 CHI  HZ I        1533 28.64         7.1 0.48                           212 186 
 HEL  HZ EP   2   1532 59.62                             111    0.41 4  222 260 
 HEL  HN ES   2   1533 25.03                             111    0.11 4  222 260 
 HEL  HZ I        1533 29.00         7.1 0.38                           222 260 
 RREF HZ EP   2   1533  5.06                             107    0.13 4  269 228 
 RREF HN ES   2   1533 35.26                             107    0.17 4  269 228 
 RREF HZ I        1533 41.67         7.2 0.33                           269 228 
 PRA  HZ EP   1   1533 13.28                             102    0.05 5  346 205 
 PRA  HN ES   2   1533 50.44                             102    0.57 3  346 205 
                                                                                
