 2013  923 1246 51.2 L   6.814 -73.161147.2  RSN 11 0.3 2.1LRSN 2.7WRSN        1
 SPEC AVERAGE  MO 13.1 ST175.2 OM  1.5 f0 19.4 R0.2284 AL 0.00 WI 20.0 MW  2.7 3
 SPEC SD       MO  0.1 ST235.0 OM  0.4 f0 14.9 R0.2456 AL      WI      MW  0.1 3
 GAP=200        0.83       2.6     4.0  4.8  0.1593E+01  0.3080E+01 -0.3544E+00E
 Epicentro: LOS SANTOS - SANTANDER                                             3
 SPEC BAR2SH Z MO 13.2 ST 12.3 OM  1.4 f0 10.4 R0.1850 AL-0.00 WI 20.0 MW  2.8 3
 SPEC BAR2SH Z T124724 K 0.050 GD  149 VS 5.20 DE 3.20 Q0750.0 QA 1.50 VS 5.20 3
 SPEC BRR HH Z MO 13.2 ST 13.3 OM  1.3 f0 11.2 R0.1718 AL-0.00 WI 20.0 MW  2.7 3
 SPEC BRR HH Z T124727 K 0.050 GD  162 VS 5.20 DE 3.20 Q0750.0 QA 1.50 VS 5.20 3
 SPEC PTB HH Z MO 13.1 ST486.2 OM  1.1 f0 40.0 R0.0481 AL-0.00 WI 20.0 MW  2.7 3
 SPEC PTB HH Z T124737 K 0.050 GD  207 VS 5.20 DE 3.20 Q0750.0 QA 1.50 VS 5.20 3
 SPEC SML HH Z MO 13.1 ST527.7 OM  1.0 f0 40.0 R0.0481 AL-0.00 WI 20.0 MW  2.7 3
 SPEC SML HH Z T124754 K 0.050 GD  283 VS 5.20 DE 3.20 Q0750.0 QA 1.50 VS 5.20 3
 SPEC CHI HH Z MO 13.1 ST0.135 OM  1.0 f0 2.52 R0.7635 AL-0.00 WI 20.0 MW  2.7 3
 SPEC CHI HH Z T124756 K 0.050 GD  290 VS 5.20 DE 3.20 Q0750.0 QA 1.50 VS 5.20 3
 SPEC URE HH Z MO 13.0 ST 11.4 OM  0.8 f0 12.5 R0.1539 AL-0.00 WI 20.0 MW  2.6 3
 SPEC URE HH Z T1248 1 K 0.050 GD  318 VS 5.20 DE 3.20 Q0750.0 QA 1.50 VS 5.20 3
 OLDACT:DUP 13-09-23 18:24 OP:stll STATUS:               ID:20130923123839d    3
 ACTION:UPD 13-10-22 09:24 OP:ep   STATUS:               ID:20130923124651 L   I
 OLDACT:UP  13-09-23 18:38 OP:stll STATUS:               ID:20130923123839d    3
 2013-09-23-1238-38M.COL___244                                                 6
 STAT SP IPHASW D HRMM SECON CODA AMPLIT PERI AZIMU VELO AIN AR TRES W  DIS CAZ7
 BAR2 SZ IP     C 1247 11.02                             170   -0.0510 24.6 186 
 BAR2 SZ ES       1247 26.42                             170   -0.1110 24.6 186 
 BAR2 SZ I        1247 28.66        17.4 0.30            174           24.6 186 
 BRR  HZ IP     D 1247 12.86                             154    0.4410 69.0 298 
 BRR  HN ES       1247 29.46                             154    0.5210 69.0 298 
 BRR  SZ I        1247 33.16        25.6 0.64            146           69.0 298 
 RUS  HZ EP       1247 15.34                             144    0.0910  102 175 
 RUS  HN ES       1247 33.79                             144   -0.1910  102 175 
 RUS  SZ I        1247 35.86         9.5 0.42            142            102 175 
 PTB  HZ EP       1247 17.75                             133   -0.46 9  146 258 
 PTB  HN ES       1247 38.87                             133   -0.37 9  146 258 
 PTB  SZ I        1247 39.82        18.3 0.16            127            146 258 
 SPBC HZ EP       1247 20.08                             129    0.21 9  163 218 
 SPBC HN ES       1247 42.27                             129    0.08 9  163 218 
 SPBC SZ I        1247 47.87        14.3 0.30            125            163 218 
 ZAR  HN ES       1247 48.79                             123    0.02 9  202 292 
 NOR  HN ES       1247 54.71                             119   -0.19 8  234 234 
 SML  HZ EP       1247 27.97                             118    0.25 8  242 335 
 SML  HN ES       1247 55.74                             118   -0.44 8  242 335 
 SML  SZ I        1248  7.16        14.3 0.10            111            242 335 
 CHI  HZ EP       1247 29.39                             117    0.25 8  250 195 
 CHI  HE ES       1247 58.23                             117   -0.46 8  250 195 
 CHI  HZ I        1248  0.95         5.7 0.40            113            250 195 
 URE  HZ EP       1247 31.70                             114   -0.45 7  282 292 
 URE  SZ I        1248 13.14         6.9 1.12            108            282 292 
 RREF HN ES       1248 14.26                             111    0.83 7  322 229 
                                                                                
