 2011  123 1718 12.3 L   6.778 -73.129141.5  RSN  9 0.6 2.3LRSN                1
 GAP=161        1.26       6.1    11.0  9.9 -0.3032E+02  0.5120E+02 -0.1555E+02E
 Epicentro: LOS SANTOS - SANTANDER                                             3
 ACTION:UP  11-02-08 08:42 OP:pat  STATUS:               ID:20110123171812 L   I
 2011-01-23-1717-07S.COL___138                                                 6
 STAT SP IPHASW D HRMM SECON CODA AMPLIT PERI AZIMU VELO SNR AR TRES W  DIS CAZ7
 BAR2 SZ EP       1718 31.27                             171    -0.110   21 196 
 BAR2 SZ ES   1   1718 45.54                             171    -0.7 7   21 196 
 BAR2 SZ I        1718 47.18        67.0 0.23                            21 196 
 BTL  SZ EP   1   1718 32.39                             171     1.0 7   22 315 
 BTL  SZ ES   1   1718 47.17                             171     0.9 7   22 315 
 GIR2 SZ EP       1718 31.46                             166     0.010   34 348 
 RUS  HZ EP   1   1718 35.20                             144    -0.2 7   98 177 
 RUS  HN ES   1   1718 53.69                             144     0.2 7   98 177 
 RUS  HZ I        1718 55.39        24.7 0.39                            98 177 
 GRA  SZ EP       1718 37.23                             136    -0.110  128  16 
 GRA  SZ ES   1   1718 56.33                             136    -0.5 7  128  16 
 GRA  SZ I        1718 57.89        25.8 0.43                           128  16 
 OCA  SZ EP   1   1718 40.20                             128    -0.3 7  163 353 
 OCA  SZ ES   1   1719  2.27                             128    -0.3 7  163 353 
 OCA  SZ I        1719  6.09        16.0 0.38                           163 353 
 NOR  SZ EP   1   1718 47.25                             118    -0.5 6  235 235 
 NOR  SE ES   1   1719 14.45                             118    -1.0 6  235 235 
 HEL  HZ EP   1   1718 53.22                             114     0.8 6  273 256 
 HEL  HZ I        1719 30.11        13.6 0.23                           273 256 
 DBB  SZ EP       1719  0.36                             109     0.6 7  342 275 
                                                                                
