 2016  523 1400 50.5 L   6.770 -73.130143.2  RSN 12 0.5 2.1LRSN                1
 GAP=184        1.04       3.7     4.9  6.7 -0.8180E+00  0.1318E+02  0.3561E+00E
 Epicentro: LOS SANTOS - SANTANDER                                             3
 ACTION:UPD 16-08-18 17:48 OP:cam  STATUS:               ID:20160523140050 L   I
 OLDACT:REG 16-05-23 21:03 OP:dnl  STATUS:               ID:20160523135743     3
 2016-05-23-1357-43M.COL___298                                                 6
 STAT SP IPHASW D HRMM SECON CODA AMPLIT PERI AZIMU VELO AIN AR TRES W  DIS CAZ7
 BAR2 EZ EP     D 14 1  9.61                             171   -0.1910 20.5 196 
 BAR2 EZ ES       14 1 24.36                             171   -0.4710 20.5 196 
 BAR2 EZ I        14 1 27.32        21.8 0.24            169           20.5 196 
 RUS  HZ EP       14 1 14.04                             144    0.2610 97.2 177 
 RUS  HN ES       14 1 32.20                             144    0.2810 97.2 177 
 RUS  HZ I        14 1 33.45         6.7 0.36            146           97.2 177 
 PTB  HZ EP       14 1 16.51                             131   -0.88 9  149 260 
 PTB  HN ES       14 1 37.88                             131   -0.46 9  149 260 
 PTB  HZ I        14 1 42.26        20.8 0.14            131            149 260 
 SPBC HZ EP       14 1 18.61                             129   -0.08 9  162 220 
 SPBC HN ES       14 1 41.12                             129    0.46 9  162 220 
 SPBC HZ I        14 1 43.15        22.1 0.26            129            162 220 
 OCA  HZ EP   2   14 1 19.83                             128    0.86 5  164 353 
 OCA  HN ES       14 1 41.51                             128    0.35 9  164 353 
 OCA  HZ I        14 1 44.58        41.5 0.20            130            164 353 
 ZAR  HZ EP   2   14 1 22.45                             121   -0.65 4  207 293 
 ZAR  HN ES       14 1 48.84                             121    0.33 8  207 293 
 ZAR  HZ I        14 1 54.03        19.1 0.36            122            207 293 
 NOR  HZ EP       14 1 25.47                             118   -0.59 8  234 235 
 NOR  HN ES       14 1 54.49                             118    0.72 8  234 235 
 NOR  HZ I        14 1 57.52        13.7 0.22            119            234 235 
 HEL  HZ EP       14 1 31.55                             114    0.84 8  273 257 
 HEL  HN ES   2   14 2  3.00                             114    0.95 4  273 257 
 HEL  HZ I        14 2  8.85        13.4 0.32            115            273 257 
 CBOC HZ EP       14 1 37.45                             109    0.04 7  334 253 
 CBOC HN ES       14 2 13.32                             109   -0.66 7  334 253 
 CBOC HZ I        14 2 18.26         2.4 0.28            110            334 253 
 PRA  HZ EP   2   14 1 43.20                             106   -0.52 3  390 210 
 PRA  HN ES   2   14 2 25.06                             106   -0.16 3  390 210 
 PRA  HZ I        14 2 30.43         5.4 0.56            107            390 210 
 ORTC HZ EP   2   14 1 44.38                             106    0.21 3  394 217 
 ORTC HN ES       14 2 25.98                             106   -0.03 6  394 217 
 ORTC HZ I        14 2 32.69         4.3 0.42            107            394 217 
 SJC  HZ EP   4   14 1 43.96                             105   -2.48 0  413 327 
 SJC  HE ES   4   14 2 21.28                             105   -8.78 0  413 327 
 SJC  HZ I        14 2 28.47         1.9 0.14            106            413 327 
                                                                                
