 2016  123 1505  2.7 L   6.779 -73.177141.0  RSN  7 0.3 2.0LRSN                1
 GAP=134        0.84       2.8     3.8  5.5  0.6931E+00  0.7164E+01 -0.1151E+01E
 Epicentro: LOS SANTOS - SANTANDER                                             3
 ACTION:UPD 16-03-09 23:27 OP:cam  STATUS:               ID:20160123150502 L   I
 OLDACT:REG 16-01-23 22:03 OP:ar   STATUS:               ID:20160123145749     3
 2016-01-23-1457-49M.COL___304                                                 6
 STAT SP IPHASW D HRMM SECON CODA AMPLIT PERI AZIMU VELO AIN AR TRES W  DIS CAZ7
 BAR2 EZ EP       15 5 21.49                             171   -0.1810 20.6 182 
 BAR2 EZ ES       15 5 36.54                             171    0.0510 20.6 182 
 BAR2 EZ I        15 5 37.72        25.1 0.24            169           20.6 182 
 PAM  EZ EP       15 5 24.50                             149   -0.1210 81.4  40 
 PAM  EN ES       15 5 41.74                             149   -0.0110 81.4  40 
 PAM  EZ I        15 5 42.28        10.8 0.20            153           81.4  40 
 RUS  HZ EP       15 5 25.76                             143   -0.0410 98.6 174 
 RUS  HE ES       15 5 43.88                             143    0.0410 98.6 174 
 RUS  HZ I        15 5 46.87         7.2 0.38            144           98.6 174 
 PTB  HZ EP       15 5 28.21                             132   -0.69 9  144 259 
 PTB  HN ES       15 5 49.41                             132    0.06 9  144 259 
 PTB  HZ I        15 5 54.40        14.4 0.52            131            144 259 
 ZAR  HZ EP       15 5 34.97                             122    0.40 9  202 293 
 ZAR  HN ES       15 5 59.18                             122   -0.26 9  202 293 
 ZAR  HZ I        15 6  5.83        12.7 0.20            122            202 293 
 SML  HZ EP       15 5 38.71                             116   -0.40 8  244 336 
 SML  HN ES       15 6  8.34                             116    0.81 8  244 336 
 SML  HZ I        15 6 10.45        14.8 0.10            118            244 336 
 CHI  HZ EP       15 5 40.11                             116    0.35 8  245 195 
 CHI  HN ES       15 6  9.05                             116    0.36 8  245 195 
 CHI  HZ I        15 6 14.35         6.6 0.30            118            245 195 
                                                                                
